{
  "data": {
    "distrito": "Coimbra",
    "concelho": "Coimbra",
    "freguesia": "União das freguesias de Eiras e São Paulo de Frades",
    "OBJECTID": 1111,
    "BGRI2021": "06033500502",
    "DT21": "06",
    "DTMN21": "0603",
    "DTMNFR21": "060335",
    "DTMNFRSEC21": "060335005",
    "SECNUM21": "005",
    "SSNUM21": "02",
    "SECSSNUM21": "00502",
    "OBJECTID_1": 49420,
    "DT": "06",
    "CC": "03",
    "fr": "35",
    "SEC": "005",
    "SS": "02"
  },
  "addresses": [
    {
      "id": "pt.ine.add.PTCONT.1102211",
      "street": "R ARNALDO SIMÕES JANUARIO",
      "house": "225",
      "postcode": "3020-080",
      "city": "COIMBRA",
      "lon": "-8.425420539840669",
      "lat": "40.23747290031728"
    },
    {
      "id": "pt.ine.add.PTCONT.1102231",
      "street": "R VALE S MIGUEL",
      "house": "28",
      "postcode": "3020-113",
      "city": "COIMBRA",
      "lon": "-8.430090079364843",
      "lat": "40.2357679203319"
    },
    {
      "id": "pt.ine.add.PTCONT.1102232",
      "street": "R VALE S MIGUEL",
      "house": "28",
      "postcode": "3020-113",
      "city": "COIMBRA",
      "lon": "-8.430090079364843",
      "lat": "40.2357679203319"
    },
    {
      "id": "pt.ine.add.PTCONT.1102233",
      "street": "R VALE S MIGUEL",
      "house": "28",
      "postcode": "3020-113",
      "city": "COIMBRA",
      "lon": "-8.430090079364843",
      "lat": "40.2357679203319"
    },
    {
      "id": "pt.ine.add.PTCONT.1102234",
      "street": "R VALE S MIGUEL",
      "house": "28",
      "postcode": "3020-113",
      "city": "COIMBRA",
      "lon": "-8.430090079364843",
      "lat": "40.2357679203319"
    },
    {
      "id": "pt.ine.add.PTCONT.1102235",
      "street": "R VALE S MIGUEL",
      "house": "28",
      "postcode": "3020-113",
      "city": "COIMBRA",
      "lon": "-8.430090079364843",
      "lat": "40.2357679203319"
    },
    {
      "id": "pt.ine.add.PTCONT.1102236",
      "street": "R VALE S MIGUEL",
      "house": "28",
      "postcode": "3020-113",
      "city": "COIMBRA",
      "lon": "-8.430090079364843",
      "lat": "40.2357679203319"
    },
    {
      "id": "pt.ine.add.PTCONT.1102237",
      "street": "R VALE S MIGUEL",
      "house": "28",
      "postcode": "3020-113",
      "city": "COIMBRA",
      "lon": "-8.430090079364843",
      "lat": "40.2357679203319"
    },
    {
      "id": "pt.ine.add.PTCONT.1102238",
      "street": "R VALE S MIGUEL",
      "house": "28",
      "postcode": "3020-113",
      "city": "COIMBRA",
      "lon": "-8.430090079364843",
      "lat": "40.2357679203319"
    },
    {
      "id": "pt.ine.add.PTCONT.1126004",
      "street": "R ARNALDO SIMÕES JANUARIO",
      "house": "171",
      "postcode": "3020-080",
      "city": "COIMBRA",
      "lon": "-8.425932583779996",
      "lat": "40.23630985648396"
    },
    {
      "id": "pt.ine.add.PTCONT.1129053",
      "street": "URB AR E SOL",
      "house": "",
      "postcode": "3020-205",
      "city": "COIMBRA",
      "lon": "-8.427918949314433",
      "lat": "40.233702134041515"
    },
    {
      "id": "pt.ine.add.PTCONT.1129054",
      "street": "URB AR E SOL",
      "house": "",
      "postcode": "3020-205",
      "city": "COIMBRA",
      "lon": "-8.427918949314433",
      "lat": "40.233702134041515"
    },
    {
      "id": "pt.ine.add.PTCONT.1129055",
      "street": "URB AR E SOL",
      "house": "",
      "postcode": "3020-205",
      "city": "COIMBRA",
      "lon": "-8.427918949314433",
      "lat": "40.233702134041515"
    },
    {
      "id": "pt.ine.add.PTCONT.1129056",
      "street": "URB AR E SOL",
      "house": "",
      "postcode": "3020-205",
      "city": "COIMBRA",
      "lon": "-8.427918949314433",
      "lat": "40.233702134041515"
    },
    {
      "id": "pt.ine.add.PTCONT.1129057",
      "street": "URB AR E SOL",
      "house": "",
      "postcode": "3020-205",
      "city": "COIMBRA",
      "lon": "-8.427918949314433",
      "lat": "40.233702134041515"
    },
    {
      "id": "pt.ine.add.PTCONT.1129058",
      "street": "URB AR E SOL",
      "house": "",
      "postcode": "3020-205",
      "city": "COIMBRA",
      "lon": "-8.427918949314433",
      "lat": "40.233702134041515"
    },
    {
      "id": "pt.ine.add.PTCONT.1129059",
      "street": "URB AR E SOL",
      "house": "",
      "postcode": "3020-205",
      "city": "COIMBRA",
      "lon": "-8.427918949314433",
      "lat": "40.233702134041515"
    },
    {
      "id": "pt.ine.add.PTCONT.1129060",
      "street": "URB AR E SOL",
      "house": "",
      "postcode": "3020-205",
      "city": "COIMBRA",
      "lon": "-8.427918949314433",
      "lat": "40.233702134041515"
    },
    {
      "id": "pt.ine.add.PTCONT.1129061",
      "street": "URB AR E SOL",
      "house": "",
      "postcode": "3020-205",
      "city": "COIMBRA",
      "lon": "-8.427918949314433",
      "lat": "40.233702134041515"
    },
    {
      "id": "pt.ine.add.PTCONT.1129062",
      "street": "URB AR E SOL",
      "house": "",
      "postcode": "3020-205",
      "city": "COIMBRA",
      "lon": "-8.427918949314433",
      "lat": "40.233702134041515"
    },
    {
      "id": "pt.ine.add.PTCONT.1129063",
      "street": "URB AR E SOL",
      "house": "",
      "postcode": "3020-205",
      "city": "COIMBRA",
      "lon": "-8.427918949314433",
      "lat": "40.233702134041515"
    },
    {
      "id": "pt.ine.add.PTCONT.1130604",
      "street": "URB AR E SOL",
      "house": "",
      "postcode": "3020-205",
      "city": "COIMBRA",
      "lon": "-8.427918949314433",
      "lat": "40.233702134041515"
    },
    {
      "id": "pt.ine.add.PTCONT.1131165",
      "street": "R BELA VISTA",
      "house": "26",
      "postcode": "3020-082",
      "city": "COIMBRA",
      "lon": "-8.42599638251051",
      "lat": "40.237480450322856"
    },
    {
      "id": "pt.ine.add.PTCONT.1131166",
      "street": "R BELA VISTA",
      "house": "26/24",
      "postcode": "3020-082",
      "city": "COIMBRA",
      "lon": "-8.42599638251051",
      "lat": "40.237480450322856"
    },
    {
      "id": "pt.ine.add.PTCONT.1138866",
      "street": "LG ASSOCIAÇÃO",
      "house": "7",
      "postcode": "3020-081",
      "city": "COIMBRA",
      "lon": "-8.42527017537551",
      "lat": "40.238031640115075"
    },
    {
      "id": "pt.ine.add.PTCONT.1147317",
      "street": "R ARNALDO SIMÕES JANUARIO",
      "house": "",
      "postcode": "3020-080",
      "city": "COIMBRA",
      "lon": "-8.4261066735665",
      "lat": "40.235805090478394"
    },
    {
      "id": "pt.ine.add.PTCONT.1152008",
      "street": "R VALE S MIGUEL",
      "house": "206",
      "postcode": "3020-113",
      "city": "COIMBRA",
      "lon": "-8.42602186384501",
      "lat": "40.23793968207006"
    },
    {
      "id": "pt.ine.add.PTCONT.1155504",
      "street": "R ARNALDO SIMÕES JANUARIO",
      "house": "241",
      "postcode": "3020-080",
      "city": "COIMBRA",
      "lon": "-8.425316367176398",
      "lat": "40.237842401528646"
    },
    {
      "id": "pt.ine.add.PTCONT.1155545",
      "street": "R VALE S MIGUEL",
      "house": "38",
      "postcode": "3020-113",
      "city": "COIMBRA",
      "lon": "-8.429891102093988",
      "lat": "40.235948546945785"
    },
    {
      "id": "pt.ine.add.PTCONT.1155546",
      "street": "R VALE S MIGUEL",
      "house": "38",
      "postcode": "3020-113",
      "city": "COIMBRA",
      "lon": "-8.429891102093988",
      "lat": "40.235948546945785"
    },
    {
      "id": "pt.ine.add.PTCONT.1155547",
      "street": "R VALE S MIGUEL",
      "house": "38",
      "postcode": "3020-113",
      "city": "COIMBRA",
      "lon": "-8.429891102093988",
      "lat": "40.235948546945785"
    },
    {
      "id": "pt.ine.add.PTCONT.1155548",
      "street": "R VALE S MIGUEL",
      "house": "38",
      "postcode": "3020-113",
      "city": "COIMBRA",
      "lon": "-8.429891102093988",
      "lat": "40.235948546945785"
    },
    {
      "id": "pt.ine.add.PTCONT.1155549",
      "street": "R VALE S MIGUEL",
      "house": "38",
      "postcode": "3020-113",
      "city": "COIMBRA",
      "lon": "-8.429891102093988",
      "lat": "40.235948546945785"
    },
    {
      "id": "pt.ine.add.PTCONT.1155550",
      "street": "R VALE S MIGUEL",
      "house": "38",
      "postcode": "3020-113",
      "city": "COIMBRA",
      "lon": "-8.429891102093988",
      "lat": "40.235948546945785"
    },
    {
      "id": "pt.ine.add.PTCONT.1155552",
      "street": "R VALE S MIGUEL",
      "house": "38",
      "postcode": "3020-113",
      "city": "COIMBRA",
      "lon": "-8.429891102093988",
      "lat": "40.235948546945785"
    },
    {
      "id": "pt.ine.add.PTCONT.1155553",
      "street": "R VALE S MIGUEL",
      "house": "38",
      "postcode": "3020-113",
      "city": "COIMBRA",
      "lon": "-8.429891102093988",
      "lat": "40.235948546945785"
    },
    {
      "id": "pt.ine.add.PTCONT.1156929",
      "street": "R VALE S MIGUEL",
      "house": "38",
      "postcode": "3020-113",
      "city": "COIMBRA",
      "lon": "-8.429891102093988",
      "lat": "40.235948546945785"
    },
    {
      "id": "pt.ine.add.PTCONT.1159248",
      "street": "URB VALE S MIGUEL",
      "house": "",
      "postcode": "3020-113",
      "city": "COIMBRA",
      "lon": "-8.427982044774529",
      "lat": "40.23741236768255"
    },
    {
      "id": "pt.ine.add.PTCONT.1159249",
      "street": "URB VALE S MIGUEL",
      "house": "",
      "postcode": "3020-113",
      "city": "COIMBRA",
      "lon": "-8.427982044774529",
      "lat": "40.23741236768255"
    },
    {
      "id": "pt.ine.add.PTCONT.1159250",
      "street": "URB VALE S MIGUEL",
      "house": "",
      "postcode": "3020-113",
      "city": "COIMBRA",
      "lon": "-8.427982044774529",
      "lat": "40.23741236768255"
    },
    {
      "id": "pt.ine.add.PTCONT.1159251",
      "street": "URB VALE S MIGUEL",
      "house": "",
      "postcode": "3020-113",
      "city": "COIMBRA",
      "lon": "-8.427982044774529",
      "lat": "40.23741236768255"
    },
    {
      "id": "pt.ine.add.PTCONT.1159252",
      "street": "URB VALE S MIGUEL",
      "house": "",
      "postcode": "3020-113",
      "city": "COIMBRA",
      "lon": "-8.427982044774529",
      "lat": "40.23741236768255"
    },
    {
      "id": "pt.ine.add.PTCONT.1159253",
      "street": "URB VALE S MIGUEL",
      "house": "",
      "postcode": "3020-113",
      "city": "COIMBRA",
      "lon": "-8.427982044774529",
      "lat": "40.23741236768255"
    },
    {
      "id": "pt.ine.add.PTCONT.1159254",
      "street": "URB VALE S MIGUEL",
      "house": "",
      "postcode": "3020-113",
      "city": "COIMBRA",
      "lon": "-8.427982044774529",
      "lat": "40.23741236768255"
    },
    {
      "id": "pt.ine.add.PTCONT.1159255",
      "street": "URB VALE S MIGUEL",
      "house": "",
      "postcode": "3020-113",
      "city": "COIMBRA",
      "lon": "-8.427982044774529",
      "lat": "40.23741236768255"
    },
    {
      "id": "pt.ine.add.PTCONT.1159256",
      "street": "URB VALE S MIGUEL",
      "house": "",
      "postcode": "3020-113",
      "city": "COIMBRA",
      "lon": "-8.427982044774529",
      "lat": "40.23741236768255"
    },
    {
      "id": "pt.ine.add.PTCONT.1159262",
      "street": "URB VALE S MIGUEL",
      "house": "",
      "postcode": "3020-113",
      "city": "COIMBRA",
      "lon": "-8.427982044774529",
      "lat": "40.23741236768255"
    },
    {
      "id": "pt.ine.add.PTCONT.1161569",
      "street": "R VALE S MIGUEL",
      "house": "220",
      "postcode": "3020-113",
      "city": "COIMBRA",
      "lon": "-8.425599208870675",
      "lat": "40.23803080905235"
    },
    {
      "id": "pt.ine.add.PTCONT.1161570",
      "street": "R VALE S MIGUEL",
      "house": "220",
      "postcode": "3020-113",
      "city": "COIMBRA",
      "lon": "-8.425599208870675",
      "lat": "40.23803080905235"
    },
    {
      "id": "pt.ine.add.PTCONT.1163675",
      "street": "URB AR E SOL",
      "house": "",
      "postcode": "3020-205",
      "city": "COIMBRA",
      "lon": "-8.428472080993567",
      "lat": "40.23389885171237"
    },
    {
      "id": "pt.ine.add.PTCONT.1163676",
      "street": "URB AR E SOL",
      "house": "",
      "postcode": "3020-205",
      "city": "COIMBRA",
      "lon": "-8.428472080993567",
      "lat": "40.23389885171237"
    },
    {
      "id": "pt.ine.add.PTCONT.1163677",
      "street": "URB AR E SOL",
      "house": "",
      "postcode": "3020-205",
      "city": "COIMBRA",
      "lon": "-8.428472080993567",
      "lat": "40.23389885171237"
    },
    {
      "id": "pt.ine.add.PTCONT.1163678",
      "street": "URB AR E SOL",
      "house": "",
      "postcode": "3020-205",
      "city": "COIMBRA",
      "lon": "-8.428472080993567",
      "lat": "40.23389885171237"
    },
    {
      "id": "pt.ine.add.PTCONT.1163679",
      "street": "URB AR E SOL",
      "house": "",
      "postcode": "3020-205",
      "city": "COIMBRA",
      "lon": "-8.428472080993567",
      "lat": "40.23389885171237"
    },
    {
      "id": "pt.ine.add.PTCONT.1163680",
      "street": "URB AR E SOL",
      "house": "",
      "postcode": "3020-205",
      "city": "COIMBRA",
      "lon": "-8.428472080993567",
      "lat": "40.23389885171237"
    },
    {
      "id": "pt.ine.add.PTCONT.1163681",
      "street": "URB AR E SOL",
      "house": "",
      "postcode": "3020-205",
      "city": "COIMBRA",
      "lon": "-8.428472080993567",
      "lat": "40.23389885171237"
    },
    {
      "id": "pt.ine.add.PTCONT.1163682",
      "street": "URB AR E SOL C",
      "house": "C",
      "postcode": "3020-205",
      "city": "COIMBRA",
      "lon": "-8.428472080993567",
      "lat": "40.23389885171237"
    },
    {
      "id": "pt.ine.add.PTCONT.1163782",
      "street": "URB AR E SOL",
      "house": "",
      "postcode": "3020-205",
      "city": "COIMBRA",
      "lon": "-8.428472080993567",
      "lat": "40.23389885171237"
    },
    {
      "id": "pt.ine.add.PTCONT.1163783",
      "street": "URB AR E SOL",
      "house": "",
      "postcode": "3020-205",
      "city": "COIMBRA",
      "lon": "-8.428472080993567",
      "lat": "40.23389885171237"
    },
    {
      "id": "pt.ine.add.PTCONT.1163784",
      "street": "URB AR E SOL",
      "house": "",
      "postcode": "3020-205",
      "city": "COIMBRA",
      "lon": "-8.428472080993567",
      "lat": "40.23389885171237"
    },
    {
      "id": "pt.ine.add.PTCONT.1170880",
      "street": "VALE S MIGUEL",
      "house": "",
      "postcode": "3020-226",
      "city": "COIMBRA",
      "lon": "-8.425619145947353",
      "lat": "40.23720222426552"
    },
    {
      "id": "pt.ine.add.PTCONT.1177650",
      "street": "URB VALE S MIGUEL",
      "house": "",
      "postcode": "3020-113",
      "city": "COIMBRA",
      "lon": "-8.429024637497934",
      "lat": "40.23666222454083"
    },
    {
      "id": "pt.ine.add.PTCONT.1177651",
      "street": "URB VALE S MIGUEL",
      "house": "",
      "postcode": "3020-113",
      "city": "COIMBRA",
      "lon": "-8.429024637497934",
      "lat": "40.23666222454083"
    },
    {
      "id": "pt.ine.add.PTCONT.1177652",
      "street": "URB VALE S MIGUEL",
      "house": "",
      "postcode": "3020-113",
      "city": "COIMBRA",
      "lon": "-8.429024637497934",
      "lat": "40.23666222454083"
    },
    {
      "id": "pt.ine.add.PTCONT.1177653",
      "street": "URB VALE S MIGUEL",
      "house": "",
      "postcode": "3020-113",
      "city": "COIMBRA",
      "lon": "-8.429024637497934",
      "lat": "40.23666222454083"
    },
    {
      "id": "pt.ine.add.PTCONT.1177654",
      "street": "URB VALE S MIGUEL",
      "house": "",
      "postcode": "3020-113",
      "city": "COIMBRA",
      "lon": "-8.429024637497934",
      "lat": "40.23666222454083"
    },
    {
      "id": "pt.ine.add.PTCONT.1177655",
      "street": "URB VALE S MIGUEL",
      "house": "",
      "postcode": "3020-113",
      "city": "COIMBRA",
      "lon": "-8.429024637497934",
      "lat": "40.23666222454083"
    },
    {
      "id": "pt.ine.add.PTCONT.1177656",
      "street": "URB VALE S MIGUEL",
      "house": "",
      "postcode": "3020-113",
      "city": "COIMBRA",
      "lon": "-8.429024637497934",
      "lat": "40.23666222454083"
    },
    {
      "id": "pt.ine.add.PTCONT.1177657",
      "street": "URB VALE S MIGUEL",
      "house": "",
      "postcode": "3020-113",
      "city": "COIMBRA",
      "lon": "-8.429024637497934",
      "lat": "40.23666222454083"
    },
    {
      "id": "pt.ine.add.PTCONT.1177658",
      "street": "URB VALE S MIGUEL",
      "house": "",
      "postcode": "3020-113",
      "city": "COIMBRA",
      "lon": "-8.429024637497934",
      "lat": "40.23666222454083"
    },
    {
      "id": "pt.ine.add.PTCONT.1179024",
      "street": "URB VALE S MIGUEL",
      "house": "",
      "postcode": "3020-113",
      "city": "COIMBRA",
      "lon": "-8.429024637497934",
      "lat": "40.23666222454083"
    },
    {
      "id": "pt.ine.add.PTCONT.1183006",
      "street": "R BELA VISTA",
      "house": "15",
      "postcode": "3020-082",
      "city": "COIMBRA",
      "lon": "-8.425771638222049",
      "lat": "40.23713879809795"
    },
    {
      "id": "pt.ine.add.PTCONT.1183933",
      "street": "URB AR E SOL",
      "house": "",
      "postcode": "3020-205",
      "city": "COIMBRA",
      "lon": "-8.428463734409661",
      "lat": "40.234682378785955"
    },
    {
      "id": "pt.ine.add.PTCONT.1183934",
      "street": "URB AR E SOL",
      "house": "",
      "postcode": "3020-205",
      "city": "COIMBRA",
      "lon": "-8.428463734409661",
      "lat": "40.234682378785955"
    },
    {
      "id": "pt.ine.add.PTCONT.1183935",
      "street": "URB AR E SOL",
      "house": "",
      "postcode": "3020-205",
      "city": "COIMBRA",
      "lon": "-8.428463734409661",
      "lat": "40.234682378785955"
    },
    {
      "id": "pt.ine.add.PTCONT.1183936",
      "street": "URB AR E SOL",
      "house": "",
      "postcode": "3020-205",
      "city": "COIMBRA",
      "lon": "-8.428463734409661",
      "lat": "40.234682378785955"
    },
    {
      "id": "pt.ine.add.PTCONT.1184052",
      "street": "URB AR E SOL",
      "house": "",
      "postcode": "3020-205",
      "city": "COIMBRA",
      "lon": "-8.428463734409661",
      "lat": "40.234682378785955"
    },
    {
      "id": "pt.ine.add.PTCONT.1184053",
      "street": "URB AR E SOL",
      "house": "",
      "postcode": "3020-205",
      "city": "COIMBRA",
      "lon": "-8.428463734409661",
      "lat": "40.234682378785955"
    },
    {
      "id": "pt.ine.add.PTCONT.1184054",
      "street": "URB AR E SOL",
      "house": "",
      "postcode": "3020-205",
      "city": "COIMBRA",
      "lon": "-8.428463734409661",
      "lat": "40.234682378785955"
    },
    {
      "id": "pt.ine.add.PTCONT.1184055",
      "street": "URB AR E SOL",
      "house": "",
      "postcode": "3020-205",
      "city": "COIMBRA",
      "lon": "-8.428463734409661",
      "lat": "40.234682378785955"
    },
    {
      "id": "pt.ine.add.PTCONT.1184056",
      "street": "URB AR E SOL",
      "house": "",
      "postcode": "3020-205",
      "city": "COIMBRA",
      "lon": "-8.428463734409661",
      "lat": "40.234682378785955"
    },
    {
      "id": "pt.ine.add.PTCONT.1184057",
      "street": "URB AR E SOL",
      "house": "",
      "postcode": "3020-205",
      "city": "COIMBRA",
      "lon": "-8.428463734409661",
      "lat": "40.234682378785955"
    },
    {
      "id": "pt.ine.add.PTCONT.1184058",
      "street": "URB AR E SOL",
      "house": "",
      "postcode": "3020-205",
      "city": "COIMBRA",
      "lon": "-8.428463734409661",
      "lat": "40.234682378785955"
    },
    {
      "id": "pt.ine.add.PTCONT.1184939",
      "street": "URB AR E SOL",
      "house": "",
      "postcode": "3020-205",
      "city": "COIMBRA",
      "lon": "-8.428463734409661",
      "lat": "40.234682378785955"
    },
    {
      "id": "pt.ine.add.PTCONT.1185329",
      "street": "R LIBERDADE",
      "house": "66",
      "postcode": "3020-112",
      "city": "COIMBRA",
      "lon": "-8.43007014593935",
      "lat": "40.233894762492945"
    },
    {
      "id": "pt.ine.add.PTCONT.1185330",
      "street": "R LIBERDADE",
      "house": "66",
      "postcode": "3020-112",
      "city": "COIMBRA",
      "lon": "-8.43007014593935",
      "lat": "40.233894762492945"
    },
    {
      "id": "pt.ine.add.PTCONT.1185331",
      "street": "R LIBERDADE",
      "house": "66",
      "postcode": "3020-112",
      "city": "COIMBRA",
      "lon": "-8.43007014593935",
      "lat": "40.233894762492945"
    },
    {
      "id": "pt.ine.add.PTCONT.1185690",
      "street": "R BELA VISTA",
      "house": "17",
      "postcode": "3020-082",
      "city": "COIMBRA",
      "lon": "-8.42590120999836",
      "lat": "40.237210516856216"
    },
    {
      "id": "pt.ine.add.PTCONT.1185692",
      "street": "R LIBERDADE",
      "house": "66",
      "postcode": "3020-112",
      "city": "COIMBRA",
      "lon": "-8.43007014593935",
      "lat": "40.233894762492945"
    },
    {
      "id": "pt.ine.add.PTCONT.1185693",
      "street": "R LIBERDADE",
      "house": "66",
      "postcode": "3020-112",
      "city": "COIMBRA",
      "lon": "-8.43007014593935",
      "lat": "40.233894762492945"
    },
    {
      "id": "pt.ine.add.PTCONT.1185694",
      "street": "R LIBERDADE",
      "house": "66",
      "postcode": "3020-112",
      "city": "COIMBRA",
      "lon": "-8.43007014593935",
      "lat": "40.233894762492945"
    },
    {
      "id": "pt.ine.add.PTCONT.1185695",
      "street": "R LIBERDADE",
      "house": "9",
      "postcode": "3020-112",
      "city": "COIMBRA",
      "lon": "-8.43007014593935",
      "lat": "40.233894762492945"
    },
    {
      "id": "pt.ine.add.PTCONT.1185696",
      "street": "R LIBERDADE",
      "house": "66",
      "postcode": "3020-112",
      "city": "COIMBRA",
      "lon": "-8.43007014593935",
      "lat": "40.233894762492945"
    },
    {
      "id": "pt.ine.add.PTCONT.1185697",
      "street": "R LIBERDADE",
      "house": "66",
      "postcode": "3020-112",
      "city": "COIMBRA",
      "lon": "-8.43007014593935",
      "lat": "40.233894762492945"
    },
    {
      "id": "pt.ine.add.PTCONT.1187773",
      "street": "URB VALE S MIGUEL",
      "house": "",
      "postcode": "3020-113",
      "city": "COIMBRA",
      "lon": "-8.428263249681832",
      "lat": "40.2372225289104"
    },
    {
      "id": "pt.ine.add.PTCONT.1187774",
      "street": "URB VALE S MIGUEL",
      "house": "",
      "postcode": "3020-113",
      "city": "COIMBRA",
      "lon": "-8.428263249681832",
      "lat": "40.2372225289104"
    },
    {
      "id": "pt.ine.add.PTCONT.1187775",
      "street": "URB VALE S MIGUEL",
      "house": "",
      "postcode": "3020-113",
      "city": "COIMBRA",
      "lon": "-8.428263249681832",
      "lat": "40.2372225289104"
    },
    {
      "id": "pt.ine.add.PTCONT.1187776",
      "street": "URB VALE S MIGUEL",
      "house": "",
      "postcode": "3020-113",
      "city": "COIMBRA",
      "lon": "-8.428263249681832",
      "lat": "40.2372225289104"
    },
    {
      "id": "pt.ine.add.PTCONT.1187777",
      "street": "URB VALE S MIGUEL",
      "house": "",
      "postcode": "3020-113",
      "city": "COIMBRA",
      "lon": "-8.428263249681832",
      "lat": "40.2372225289104"
    },
    {
      "id": "pt.ine.add.PTCONT.1187778",
      "street": "URB VALE S MIGUEL",
      "house": "",
      "postcode": "3020-113",
      "city": "COIMBRA",
      "lon": "-8.428263249681832",
      "lat": "40.2372225289104"
    },
    {
      "id": "pt.ine.add.PTCONT.1187779",
      "street": "URB VALE S MIGUEL",
      "house": "",
      "postcode": "3020-113",
      "city": "COIMBRA",
      "lon": "-8.428263249681832",
      "lat": "40.2372225289104"
    },
    {
      "id": "pt.ine.add.PTCONT.1189198",
      "street": "URB VALE S MIGUEL",
      "house": "",
      "postcode": "3020-113",
      "city": "COIMBRA",
      "lon": "-8.428263249681832",
      "lat": "40.2372225289104"
    },
    {
      "id": "pt.ine.add.PTCONT.1189695",
      "street": "R ARNALDO SIMÕES JANUARIO",
      "house": "179",
      "postcode": "3020-080",
      "city": "COIMBRA",
      "lon": "-8.426169698264491",
      "lat": "40.23679557008561"
    },
    {
      "id": "pt.ine.add.PTCONT.1196744",
      "street": "URB AR E SOL",
      "house": "",
      "postcode": "3020-205",
      "city": "COIMBRA",
      "lon": "-8.428471259351088",
      "lat": "40.233709731709965"
    },
    {
      "id": "pt.ine.add.PTCONT.1196745",
      "street": "URB AR E SOL",
      "house": "",
      "postcode": "3020-205",
      "city": "COIMBRA",
      "lon": "-8.428471259351088",
      "lat": "40.233709731709965"
    },
    {
      "id": "pt.ine.add.PTCONT.1196746",
      "street": "URB AR E SOL",
      "house": "",
      "postcode": "3020-205",
      "city": "COIMBRA",
      "lon": "-8.428471259351088",
      "lat": "40.233709731709965"
    },
    {
      "id": "pt.ine.add.PTCONT.1196747",
      "street": "URB AR E SOL",
      "house": "",
      "postcode": "3020-205",
      "city": "COIMBRA",
      "lon": "-8.428471259351088",
      "lat": "40.233709731709965"
    },
    {
      "id": "pt.ine.add.PTCONT.1196809",
      "street": "URB AR E SOL",
      "house": "",
      "postcode": "3020-205",
      "city": "COIMBRA",
      "lon": "-8.428471259351088",
      "lat": "40.233709731709965"
    },
    {
      "id": "pt.ine.add.PTCONT.1196810",
      "street": "URB AR E SOL",
      "house": "",
      "postcode": "3020-205",
      "city": "COIMBRA",
      "lon": "-8.428471259351088",
      "lat": "40.233709731709965"
    },
    {
      "id": "pt.ine.add.PTCONT.1196811",
      "street": "URB AR E SOL",
      "house": "",
      "postcode": "3020-205",
      "city": "COIMBRA",
      "lon": "-8.428471259351088",
      "lat": "40.233709731709965"
    },
    {
      "id": "pt.ine.add.PTCONT.1196812",
      "street": "URB AR E SOL",
      "house": "",
      "postcode": "3020-205",
      "city": "COIMBRA",
      "lon": "-8.428471259351088",
      "lat": "40.233709731709965"
    },
    {
      "id": "pt.ine.add.PTCONT.1196813",
      "street": "URB AR E SOL",
      "house": "",
      "postcode": "3020-205",
      "city": "COIMBRA",
      "lon": "-8.428471259351088",
      "lat": "40.233709731709965"
    },
    {
      "id": "pt.ine.add.PTCONT.1196972",
      "street": "URB AR E SOL",
      "house": "",
      "postcode": "3020-205",
      "city": "COIMBRA",
      "lon": "-8.428471259351088",
      "lat": "40.233709731709965"
    },
    {
      "id": "pt.ine.add.PTCONT.1197043",
      "street": "URB AR E SOL",
      "house": "",
      "postcode": "3020-205",
      "city": "COIMBRA",
      "lon": "-8.428471259351088",
      "lat": "40.233709731709965"
    },
    {
      "id": "pt.ine.add.PTCONT.1202944",
      "street": "VALE S MIGUEL",
      "house": "",
      "postcode": "3020-226",
      "city": "COIMBRA",
      "lon": "-8.425618603412332",
      "lat": "40.23707614430454"
    },
    {
      "id": "pt.ine.add.PTCONT.1203504",
      "street": "R BELA VISTA",
      "house": "16",
      "postcode": "3020-082",
      "city": "COIMBRA",
      "lon": "-8.42578494024949",
      "lat": "40.23749899682636"
    },
    {
      "id": "pt.ine.add.PTCONT.1209539",
      "street": "R LIBERDADE",
      "house": "",
      "postcode": "3020-112",
      "city": "COIMBRA",
      "lon": "-8.429974254536525",
      "lat": "40.233462729404174"
    },
    {
      "id": "pt.ine.add.PTCONT.1209540",
      "street": "R LIBERDADE",
      "house": "",
      "postcode": "3020-112",
      "city": "COIMBRA",
      "lon": "-8.429974254536525",
      "lat": "40.233462729404174"
    },
    {
      "id": "pt.ine.add.PTCONT.1209541",
      "street": "R LIBERDADE",
      "house": "",
      "postcode": "3020-112",
      "city": "COIMBRA",
      "lon": "-8.429974254536525",
      "lat": "40.233462729404174"
    },
    {
      "id": "pt.ine.add.PTCONT.1209542",
      "street": "R LIBERDADE",
      "house": "",
      "postcode": "3020-112",
      "city": "COIMBRA",
      "lon": "-8.429974254536525",
      "lat": "40.233462729404174"
    },
    {
      "id": "pt.ine.add.PTCONT.1209543",
      "street": "R LIBERDADE",
      "house": "",
      "postcode": "3020-112",
      "city": "COIMBRA",
      "lon": "-8.429974254536525",
      "lat": "40.233462729404174"
    },
    {
      "id": "pt.ine.add.PTCONT.1209544",
      "street": "R LIBERDADE",
      "house": "",
      "postcode": "3020-112",
      "city": "COIMBRA",
      "lon": "-8.429974254536525",
      "lat": "40.233462729404174"
    },
    {
      "id": "pt.ine.add.PTCONT.1209545",
      "street": "R LIBERDADE",
      "house": "",
      "postcode": "3020-112",
      "city": "COIMBRA",
      "lon": "-8.429974254536525",
      "lat": "40.233462729404174"
    },
    {
      "id": "pt.ine.add.PTCONT.1209661",
      "street": "R LIBERDADE",
      "house": "",
      "postcode": "3020-112",
      "city": "COIMBRA",
      "lon": "-8.429974254536525",
      "lat": "40.233462729404174"
    },
    {
      "id": "pt.ine.add.PTCONT.1210906",
      "street": "R LIBERDADE",
      "house": "",
      "postcode": "3020-112",
      "city": "COIMBRA",
      "lon": "-8.429974254536525",
      "lat": "40.233462729404174"
    },
    {
      "id": "pt.ine.add.PTCONT.1215309",
      "street": "R VALE S MIGUEL",
      "house": "198",
      "postcode": "3020-113",
      "city": "COIMBRA",
      "lon": "-8.426268483258664",
      "lat": "40.237903034420114"
    },
    {
      "id": "pt.ine.add.PTCONT.1217036",
      "street": "R BELA VISTA",
      "house": "93",
      "postcode": "3020-082",
      "city": "COIMBRA",
      "lon": "-8.427590981744741",
      "lat": "40.23665687537637"
    },
    {
      "id": "pt.ine.add.PTCONT.1217376",
      "street": "R LIBERDADE",
      "house": "80",
      "postcode": "3020-112",
      "city": "COIMBRA",
      "lon": "-8.430249276486261",
      "lat": "40.234551727123026"
    },
    {
      "id": "pt.ine.add.PTCONT.1217430",
      "street": "R LIBERDADE",
      "house": "80",
      "postcode": "3020-112",
      "city": "COIMBRA",
      "lon": "-8.430249276486261",
      "lat": "40.234551727123026"
    },
    {
      "id": "pt.ine.add.PTCONT.1217431",
      "street": "R LIBERDADE",
      "house": "80",
      "postcode": "3020-112",
      "city": "COIMBRA",
      "lon": "-8.430249276486261",
      "lat": "40.234551727123026"
    },
    {
      "id": "pt.ine.add.PTCONT.1217432",
      "street": "R LIBERDADE",
      "house": "80",
      "postcode": "3020-112",
      "city": "COIMBRA",
      "lon": "-8.430249276486261",
      "lat": "40.234551727123026"
    },
    {
      "id": "pt.ine.add.PTCONT.1217433",
      "street": "R LIBERDADE",
      "house": "80",
      "postcode": "3020-112",
      "city": "COIMBRA",
      "lon": "-8.430249276486261",
      "lat": "40.234551727123026"
    },
    {
      "id": "pt.ine.add.PTCONT.1217434",
      "street": "R LIBERDADE",
      "house": "80",
      "postcode": "3020-112",
      "city": "COIMBRA",
      "lon": "-8.430249276486261",
      "lat": "40.234551727123026"
    },
    {
      "id": "pt.ine.add.PTCONT.1217435",
      "street": "R LIBERDADE",
      "house": "80",
      "postcode": "3020-112",
      "city": "COIMBRA",
      "lon": "-8.430249276486261",
      "lat": "40.234551727123026"
    },
    {
      "id": "pt.ine.add.PTCONT.1217436",
      "street": "R LIBERDADE",
      "house": "80",
      "postcode": "3020-112",
      "city": "COIMBRA",
      "lon": "-8.430249276486261",
      "lat": "40.234551727123026"
    },
    {
      "id": "pt.ine.add.PTCONT.1217437",
      "street": "R LIBERDADE",
      "house": "80",
      "postcode": "3020-112",
      "city": "COIMBRA",
      "lon": "-8.430249276486261",
      "lat": "40.234551727123026"
    },
    {
      "id": "pt.ine.add.PTCONT.1219662",
      "street": "R LIBERDADE",
      "house": "74",
      "postcode": "3020-112",
      "city": "COIMBRA",
      "lon": "-8.43018957903319",
      "lat": "40.23433574085755"
    },
    {
      "id": "pt.ine.add.PTCONT.1219663",
      "street": "R LIBERDADE",
      "house": "74",
      "postcode": "3020-112",
      "city": "COIMBRA",
      "lon": "-8.43018957903319",
      "lat": "40.23433574085755"
    },
    {
      "id": "pt.ine.add.PTCONT.1219664",
      "street": "R LIBERDADE",
      "house": "74",
      "postcode": "3020-112",
      "city": "COIMBRA",
      "lon": "-8.43018957903319",
      "lat": "40.23433574085755"
    },
    {
      "id": "pt.ine.add.PTCONT.1219665",
      "street": "R LIBERDADE",
      "house": "74",
      "postcode": "3020-112",
      "city": "COIMBRA",
      "lon": "-8.43018957903319",
      "lat": "40.23433574085755"
    },
    {
      "id": "pt.ine.add.PTCONT.1219666",
      "street": "R LIBERDADE",
      "house": "74",
      "postcode": "3020-112",
      "city": "COIMBRA",
      "lon": "-8.43018957903319",
      "lat": "40.23433574085755"
    },
    {
      "id": "pt.ine.add.PTCONT.1219667",
      "street": "R LIBERDADE",
      "house": "74",
      "postcode": "3020-112",
      "city": "COIMBRA",
      "lon": "-8.43018957903319",
      "lat": "40.23433574085755"
    },
    {
      "id": "pt.ine.add.PTCONT.1219668",
      "street": "R LIBERDADE",
      "house": "74",
      "postcode": "3020-112",
      "city": "COIMBRA",
      "lon": "-8.43018957903319",
      "lat": "40.23433574085755"
    },
    {
      "id": "pt.ine.add.PTCONT.1219669",
      "street": "R LIBERDADE",
      "house": "74",
      "postcode": "3020-112",
      "city": "COIMBRA",
      "lon": "-8.43018957903319",
      "lat": "40.23433574085755"
    },
    {
      "id": "pt.ine.add.PTCONT.1221136",
      "street": "R LIBERDADE",
      "house": "74",
      "postcode": "3020-112",
      "city": "COIMBRA",
      "lon": "-8.43018957903319",
      "lat": "40.23433574085755"
    },
    {
      "id": "pt.ine.add.PTCONT.1232551",
      "street": "R LIBERDADE",
      "house": "",
      "postcode": "3020-112",
      "city": "COIMBRA",
      "lon": "-8.42992634861602",
      "lat": "40.23325571853033"
    },
    {
      "id": "pt.ine.add.PTCONT.1232552",
      "street": "R LIBERDADE",
      "house": "",
      "postcode": "3020-112",
      "city": "COIMBRA",
      "lon": "-8.42992634861602",
      "lat": "40.23325571853033"
    },
    {
      "id": "pt.ine.add.PTCONT.1232553",
      "street": "R LIBERDADE",
      "house": "",
      "postcode": "3020-112",
      "city": "COIMBRA",
      "lon": "-8.42992634861602",
      "lat": "40.23325571853033"
    },
    {
      "id": "pt.ine.add.PTCONT.1232554",
      "street": "R LIBERDADE",
      "house": "",
      "postcode": "3020-112",
      "city": "COIMBRA",
      "lon": "-8.42992634861602",
      "lat": "40.23325571853033"
    },
    {
      "id": "pt.ine.add.PTCONT.1232555",
      "street": "R LIBERDADE",
      "house": "",
      "postcode": "3020-112",
      "city": "COIMBRA",
      "lon": "-8.42992634861602",
      "lat": "40.23325571853033"
    },
    {
      "id": "pt.ine.add.PTCONT.1232556",
      "street": "R LIBERDADE",
      "house": "",
      "postcode": "3020-112",
      "city": "COIMBRA",
      "lon": "-8.42992634861602",
      "lat": "40.23325571853033"
    },
    {
      "id": "pt.ine.add.PTCONT.1232557",
      "street": "R LIBERDADE",
      "house": "",
      "postcode": "3020-112",
      "city": "COIMBRA",
      "lon": "-8.42992634861602",
      "lat": "40.23325571853033"
    },
    {
      "id": "pt.ine.add.PTCONT.1232558",
      "street": "R LIBERDADE",
      "house": "",
      "postcode": "3020-112",
      "city": "COIMBRA",
      "lon": "-8.42992634861602",
      "lat": "40.23325571853033"
    },
    {
      "id": "pt.ine.add.PTCONT.1232559",
      "street": "R LIBERDADE",
      "house": "52",
      "postcode": "3020-112",
      "city": "COIMBRA",
      "lon": "-8.42992634861602",
      "lat": "40.23325571853033"
    },
    {
      "id": "pt.ine.add.PTCONT.1233702",
      "street": "R LIBERDADE",
      "house": "",
      "postcode": "3020-112",
      "city": "COIMBRA",
      "lon": "-8.430356843123835",
      "lat": "40.23496571829049"
    },
    {
      "id": "pt.ine.add.PTCONT.1233712",
      "street": "R LIBERDADE",
      "house": "",
      "postcode": "3020-112",
      "city": "COIMBRA",
      "lon": "-8.430356843123835",
      "lat": "40.23496571829049"
    },
    {
      "id": "pt.ine.add.PTCONT.1233713",
      "street": "R LIBERDADE",
      "house": "",
      "postcode": "3020-112",
      "city": "COIMBRA",
      "lon": "-8.430356843123835",
      "lat": "40.23496571829049"
    },
    {
      "id": "pt.ine.add.PTCONT.1233714",
      "street": "R LIBERDADE",
      "house": "",
      "postcode": "3020-112",
      "city": "COIMBRA",
      "lon": "-8.430356843123835",
      "lat": "40.23496571829049"
    },
    {
      "id": "pt.ine.add.PTCONT.1233715",
      "street": "R LIBERDADE",
      "house": "",
      "postcode": "3020-112",
      "city": "COIMBRA",
      "lon": "-8.430356843123835",
      "lat": "40.23496571829049"
    },
    {
      "id": "pt.ine.add.PTCONT.1233716",
      "street": "R LIBERDADE",
      "house": "",
      "postcode": "3020-112",
      "city": "COIMBRA",
      "lon": "-8.430356843123835",
      "lat": "40.23496571829049"
    },
    {
      "id": "pt.ine.add.PTCONT.1233717",
      "street": "R LIBERDADE",
      "house": "",
      "postcode": "3020-112",
      "city": "COIMBRA",
      "lon": "-8.430356843123835",
      "lat": "40.23496571829049"
    },
    {
      "id": "pt.ine.add.PTCONT.1233718",
      "street": "R LIBERDADE",
      "house": "",
      "postcode": "3020-112",
      "city": "COIMBRA",
      "lon": "-8.430356843123835",
      "lat": "40.23496571829049"
    },
    {
      "id": "pt.ine.add.PTCONT.1233723",
      "street": "URB AR E SOL",
      "house": "",
      "postcode": "3020-205",
      "city": "COIMBRA",
      "lon": "-8.427919769420285",
      "lat": "40.2338912540536"
    },
    {
      "id": "pt.ine.add.PTCONT.1233724",
      "street": "URB AR E SOL",
      "house": "",
      "postcode": "3020-205",
      "city": "COIMBRA",
      "lon": "-8.427919769420285",
      "lat": "40.2338912540536"
    },
    {
      "id": "pt.ine.add.PTCONT.1233725",
      "street": "URB AR E SOL",
      "house": "",
      "postcode": "3020-205",
      "city": "COIMBRA",
      "lon": "-8.427919769420285",
      "lat": "40.2338912540536"
    },
    {
      "id": "pt.ine.add.PTCONT.1233726",
      "street": "URB AR E SOL",
      "house": "",
      "postcode": "3020-205",
      "city": "COIMBRA",
      "lon": "-8.427919769420285",
      "lat": "40.2338912540536"
    },
    {
      "id": "pt.ine.add.PTCONT.1233727",
      "street": "URB AR E SOL",
      "house": "",
      "postcode": "3020-205",
      "city": "COIMBRA",
      "lon": "-8.427919769420285",
      "lat": "40.2338912540536"
    },
    {
      "id": "pt.ine.add.PTCONT.1233728",
      "street": "URB AR E SOL",
      "house": "",
      "postcode": "3020-205",
      "city": "COIMBRA",
      "lon": "-8.427919769420285",
      "lat": "40.2338912540536"
    },
    {
      "id": "pt.ine.add.PTCONT.1233729",
      "street": "URB AR E SOL",
      "house": "",
      "postcode": "3020-205",
      "city": "COIMBRA",
      "lon": "-8.427919769420285",
      "lat": "40.2338912540536"
    },
    {
      "id": "pt.ine.add.PTCONT.1233730",
      "street": "URB AR E SOL",
      "house": "",
      "postcode": "3020-205",
      "city": "COIMBRA",
      "lon": "-8.427919769420285",
      "lat": "40.2338912540536"
    },
    {
      "id": "pt.ine.add.PTCONT.1233740",
      "street": "URB AR E SOL",
      "house": "",
      "postcode": "3020-205",
      "city": "COIMBRA",
      "lon": "-8.427919769420285",
      "lat": "40.2338912540536"
    },
    {
      "id": "pt.ine.add.PTCONT.1233741",
      "street": "URB AR E SOL",
      "house": "",
      "postcode": "3020-205",
      "city": "COIMBRA",
      "lon": "-8.427919769420285",
      "lat": "40.2338912540536"
    },
    {
      "id": "pt.ine.add.PTCONT.1233742",
      "street": "URB AR E SOL",
      "house": "",
      "postcode": "3020-205",
      "city": "COIMBRA",
      "lon": "-8.427919769420285",
      "lat": "40.2338912540536"
    },
    {
      "id": "pt.ine.add.PTCONT.1235207",
      "street": "R LIBERDADE",
      "house": "",
      "postcode": "3020-112",
      "city": "COIMBRA",
      "lon": "-8.430356843123835",
      "lat": "40.23496571829049"
    },
    {
      "id": "pt.ine.add.PTCONT.1236328",
      "street": "R BELA VISTA",
      "house": "99",
      "postcode": "3020-082",
      "city": "COIMBRA",
      "lon": "-8.427755260923597",
      "lat": "40.23660242241135"
    },
    {
      "id": "pt.ine.add.PTCONT.1239431",
      "street": "URB AR E SOL",
      "house": "",
      "postcode": "3020-205",
      "city": "COIMBRA",
      "lon": "-8.428458687303001",
      "lat": "40.23352064168701"
    },
    {
      "id": "pt.ine.add.PTCONT.1239432",
      "street": "URB AR E SOL",
      "house": "",
      "postcode": "3020-205",
      "city": "COIMBRA",
      "lon": "-8.428458687303001",
      "lat": "40.23352064168701"
    },
    {
      "id": "pt.ine.add.PTCONT.1239433",
      "street": "URB AR E SOL",
      "house": "",
      "postcode": "3020-205",
      "city": "COIMBRA",
      "lon": "-8.428458687303001",
      "lat": "40.23352064168701"
    },
    {
      "id": "pt.ine.add.PTCONT.1239434",
      "street": "URB AR E SOL",
      "house": "",
      "postcode": "3020-205",
      "city": "COIMBRA",
      "lon": "-8.428458687303001",
      "lat": "40.23352064168701"
    },
    {
      "id": "pt.ine.add.PTCONT.1239435",
      "street": "URB AR E SOL",
      "house": "",
      "postcode": "3020-205",
      "city": "COIMBRA",
      "lon": "-8.428458687303001",
      "lat": "40.23352064168701"
    },
    {
      "id": "pt.ine.add.PTCONT.1239436",
      "street": "URB AR E SOL",
      "house": "",
      "postcode": "3020-205",
      "city": "COIMBRA",
      "lon": "-8.428458687303001",
      "lat": "40.23352064168701"
    },
    {
      "id": "pt.ine.add.PTCONT.1239437",
      "street": "URB AR E SOL",
      "house": "",
      "postcode": "3020-205",
      "city": "COIMBRA",
      "lon": "-8.428458687303001",
      "lat": "40.23352064168701"
    },
    {
      "id": "pt.ine.add.PTCONT.1239438",
      "street": "URB AR E SOL",
      "house": "",
      "postcode": "3020-205",
      "city": "COIMBRA",
      "lon": "-8.428458687303001",
      "lat": "40.23352064168701"
    },
    {
      "id": "pt.ine.add.PTCONT.1239439",
      "street": "URB AR E SOL",
      "house": "",
      "postcode": "3020-205",
      "city": "COIMBRA",
      "lon": "-8.428458687303001",
      "lat": "40.23352064168701"
    },
    {
      "id": "pt.ine.add.PTCONT.1239440",
      "street": "URB AR E SOL",
      "house": "",
      "postcode": "3020-205",
      "city": "COIMBRA",
      "lon": "-8.428458687303001",
      "lat": "40.23352064168701"
    },
    {
      "id": "pt.ine.add.PTCONT.1239485",
      "street": "URB AR E SOL",
      "house": "",
      "postcode": "3020-205",
      "city": "COIMBRA",
      "lon": "-8.428458687303001",
      "lat": "40.23352064168701"
    },
    {
      "id": "pt.ine.add.PTCONT.1247609",
      "street": "LG ASSOCIAÇÃO",
      "house": "9",
      "postcode": "3020-081",
      "city": "COIMBRA",
      "lon": "-8.425387842232157",
      "lat": "40.23806736625539"
    },
    {
      "id": "pt.ine.add.PTCONT.1251381",
      "street": "R LIBERDADE",
      "house": "",
      "postcode": "3020-112",
      "city": "COIMBRA",
      "lon": "-8.430428252984758",
      "lat": "40.235172668546106"
    },
    {
      "id": "pt.ine.add.PTCONT.1251382",
      "street": "R LIBERDADE B",
      "house": "B",
      "postcode": "3020-112",
      "city": "COIMBRA",
      "lon": "-8.430428252984758",
      "lat": "40.235172668546106"
    },
    {
      "id": "pt.ine.add.PTCONT.1251383",
      "street": "R LIBERDADE",
      "house": "",
      "postcode": "3020-112",
      "city": "COIMBRA",
      "lon": "-8.430428252984758",
      "lat": "40.235172668546106"
    },
    {
      "id": "pt.ine.add.PTCONT.1251384",
      "street": "R LIBERDADE",
      "house": "",
      "postcode": "3020-112",
      "city": "COIMBRA",
      "lon": "-8.430428252984758",
      "lat": "40.235172668546106"
    },
    {
      "id": "pt.ine.add.PTCONT.1251385",
      "street": "R LIBERDADE",
      "house": "",
      "postcode": "3020-112",
      "city": "COIMBRA",
      "lon": "-8.430428252984758",
      "lat": "40.235172668546106"
    },
    {
      "id": "pt.ine.add.PTCONT.1251499",
      "street": "R LIBERDADE",
      "house": "",
      "postcode": "3020-112",
      "city": "COIMBRA",
      "lon": "-8.430428252984758",
      "lat": "40.235172668546106"
    },
    {
      "id": "pt.ine.add.PTCONT.1251500",
      "street": "R LIBERDADE",
      "house": "",
      "postcode": "3020-112",
      "city": "COIMBRA",
      "lon": "-8.430428252984758",
      "lat": "40.235172668546106"
    },
    {
      "id": "pt.ine.add.PTCONT.1251501",
      "street": "R LIBERDADE",
      "house": "",
      "postcode": "3020-112",
      "city": "COIMBRA",
      "lon": "-8.430428252984758",
      "lat": "40.235172668546106"
    },
    {
      "id": "pt.ine.add.PTCONT.1251856",
      "street": "R LIBERDADE",
      "house": "",
      "postcode": "3020-112",
      "city": "COIMBRA",
      "lon": "-8.430428252984758",
      "lat": "40.235172668546106"
    },
    {
      "id": "pt.ine.add.PTCONT.1260677",
      "street": "URB AR E SOL",
      "house": "",
      "postcode": "3020-205",
      "city": "COIMBRA",
      "lon": "-8.428438550913638",
      "lat": "40.234295193081756"
    },
    {
      "id": "pt.ine.add.PTCONT.1260678",
      "street": "URB AR E SOL",
      "house": "",
      "postcode": "3020-205",
      "city": "COIMBRA",
      "lon": "-8.428438550913638",
      "lat": "40.234295193081756"
    },
    {
      "id": "pt.ine.add.PTCONT.1260679",
      "street": "URB AR E SOL",
      "house": "",
      "postcode": "3020-205",
      "city": "COIMBRA",
      "lon": "-8.428438550913638",
      "lat": "40.234295193081756"
    },
    {
      "id": "pt.ine.add.PTCONT.1260680",
      "street": "URB AR E SOL",
      "house": "",
      "postcode": "3020-205",
      "city": "COIMBRA",
      "lon": "-8.428438550913638",
      "lat": "40.234295193081756"
    },
    {
      "id": "pt.ine.add.PTCONT.1260681",
      "street": "URB AR E SOL",
      "house": "",
      "postcode": "3020-205",
      "city": "COIMBRA",
      "lon": "-8.428438550913638",
      "lat": "40.234295193081756"
    },
    {
      "id": "pt.ine.add.PTCONT.1260731",
      "street": "URB AR E SOL",
      "house": "",
      "postcode": "3020-205",
      "city": "COIMBRA",
      "lon": "-8.428438550913638",
      "lat": "40.234295193081756"
    },
    {
      "id": "pt.ine.add.PTCONT.1260732",
      "street": "URB AR E SOL",
      "house": "",
      "postcode": "3020-205",
      "city": "COIMBRA",
      "lon": "-8.428438550913638",
      "lat": "40.234295193081756"
    },
    {
      "id": "pt.ine.add.PTCONT.1260733",
      "street": "URB AR E SOL",
      "house": "",
      "postcode": "3020-205",
      "city": "COIMBRA",
      "lon": "-8.428438550913638",
      "lat": "40.234295193081756"
    },
    {
      "id": "pt.ine.add.PTCONT.1260734",
      "street": "URB AR E SOL",
      "house": "",
      "postcode": "3020-205",
      "city": "COIMBRA",
      "lon": "-8.428438550913638",
      "lat": "40.234295193081756"
    },
    {
      "id": "pt.ine.add.PTCONT.1260735",
      "street": "URB AR E SOL",
      "house": "",
      "postcode": "3020-205",
      "city": "COIMBRA",
      "lon": "-8.428438550913638",
      "lat": "40.234295193081756"
    },
    {
      "id": "pt.ine.add.PTCONT.1262476",
      "street": "URB AR E SOL C",
      "house": "C",
      "postcode": "3020-205",
      "city": "COIMBRA",
      "lon": "-8.428438550913638",
      "lat": "40.234295193081756"
    },
    {
      "id": "pt.ine.add.PTCONT.1268749",
      "street": "URB AR E SOL",
      "house": "",
      "postcode": "3020-205",
      "city": "COIMBRA",
      "lon": "-8.428472941770218",
      "lat": "40.23409697742253"
    },
    {
      "id": "pt.ine.add.PTCONT.1268750",
      "street": "URB AR E SOL",
      "house": "",
      "postcode": "3020-205",
      "city": "COIMBRA",
      "lon": "-8.428472941770218",
      "lat": "40.23409697742253"
    },
    {
      "id": "pt.ine.add.PTCONT.1268751",
      "street": "URB AR E SOL",
      "house": "",
      "postcode": "3020-205",
      "city": "COIMBRA",
      "lon": "-8.428472941770218",
      "lat": "40.23409697742253"
    },
    {
      "id": "pt.ine.add.PTCONT.1268752",
      "street": "URB AR E SOL",
      "house": "",
      "postcode": "3020-205",
      "city": "COIMBRA",
      "lon": "-8.428472941770218",
      "lat": "40.23409697742253"
    },
    {
      "id": "pt.ine.add.PTCONT.1268753",
      "street": "URB AR E SOL",
      "house": "",
      "postcode": "3020-205",
      "city": "COIMBRA",
      "lon": "-8.428472941770218",
      "lat": "40.23409697742253"
    },
    {
      "id": "pt.ine.add.PTCONT.1268754",
      "street": "URB AR E SOL",
      "house": "",
      "postcode": "3020-205",
      "city": "COIMBRA",
      "lon": "-8.428472941770218",
      "lat": "40.23409697742253"
    },
    {
      "id": "pt.ine.add.PTCONT.1268755",
      "street": "URB AR E SOL",
      "house": "",
      "postcode": "3020-205",
      "city": "COIMBRA",
      "lon": "-8.428472941770218",
      "lat": "40.23409697742253"
    },
    {
      "id": "pt.ine.add.PTCONT.1268756",
      "street": "URB AR E SOL",
      "house": "",
      "postcode": "3020-205",
      "city": "COIMBRA",
      "lon": "-8.428472941770218",
      "lat": "40.23409697742253"
    },
    {
      "id": "pt.ine.add.PTCONT.1268757",
      "street": "URB AR E SOL",
      "house": "",
      "postcode": "3020-205",
      "city": "COIMBRA",
      "lon": "-8.428472941770218",
      "lat": "40.23409697742253"
    },
    {
      "id": "pt.ine.add.PTCONT.1268758",
      "street": "URB AR E SOL",
      "house": "",
      "postcode": "3020-205",
      "city": "COIMBRA",
      "lon": "-8.428472941770218",
      "lat": "40.23409697742253"
    },
    {
      "id": "pt.ine.add.PTCONT.1268759",
      "street": "URB AR E SOL",
      "house": "",
      "postcode": "3020-205",
      "city": "COIMBRA",
      "lon": "-8.428472941770218",
      "lat": "40.23409697742253"
    },
    {
      "id": "pt.ine.add.PTCONT.1268797",
      "street": "URB AR E SOL",
      "house": "",
      "postcode": "3020-205",
      "city": "COIMBRA",
      "lon": "-8.428472941770218",
      "lat": "40.23409697742253"
    },
    {
      "id": "pt.ine.add.PTCONT.1270860",
      "street": "URB VALE S MIGUEL",
      "house": "",
      "postcode": "3020-113",
      "city": "COIMBRA",
      "lon": "-8.428497488069683",
      "lat": "40.23704181513796"
    },
    {
      "id": "pt.ine.add.PTCONT.1270861",
      "street": "URB VALE S MIGUEL",
      "house": "",
      "postcode": "3020-113",
      "city": "COIMBRA",
      "lon": "-8.428497488069683",
      "lat": "40.23704181513796"
    },
    {
      "id": "pt.ine.add.PTCONT.1270862",
      "street": "URB VALE S MIGUEL",
      "house": "",
      "postcode": "3020-113",
      "city": "COIMBRA",
      "lon": "-8.428497488069683",
      "lat": "40.23704181513796"
    },
    {
      "id": "pt.ine.add.PTCONT.1270872",
      "street": "URB VALE S MIGUEL",
      "house": "",
      "postcode": "3020-113",
      "city": "COIMBRA",
      "lon": "-8.428497488069683",
      "lat": "40.23704181513796"
    },
    {
      "id": "pt.ine.add.PTCONT.1270873",
      "street": "URB VALE S MIGUEL",
      "house": "",
      "postcode": "3020-113",
      "city": "COIMBRA",
      "lon": "-8.428497488069683",
      "lat": "40.23704181513796"
    },
    {
      "id": "pt.ine.add.PTCONT.1270874",
      "street": "URB VALE S MIGUEL",
      "house": "",
      "postcode": "3020-113",
      "city": "COIMBRA",
      "lon": "-8.428497488069683",
      "lat": "40.23704181513796"
    },
    {
      "id": "pt.ine.add.PTCONT.1270875",
      "street": "URB VALE S MIGUEL",
      "house": "",
      "postcode": "3020-113",
      "city": "COIMBRA",
      "lon": "-8.428497488069683",
      "lat": "40.23704181513796"
    },
    {
      "id": "pt.ine.add.PTCONT.1270876",
      "street": "URB VALE S MIGUEL",
      "house": "",
      "postcode": "3020-113",
      "city": "COIMBRA",
      "lon": "-8.428497488069683",
      "lat": "40.23704181513796"
    },
    {
      "id": "pt.ine.add.PTCONT.1270877",
      "street": "URB VALE S MIGUEL",
      "house": "",
      "postcode": "3020-113",
      "city": "COIMBRA",
      "lon": "-8.428497488069683",
      "lat": "40.23704181513796"
    },
    {
      "id": "pt.ine.add.PTCONT.1272360",
      "street": "URB VALE S MIGUEL",
      "house": "",
      "postcode": "3020-113",
      "city": "COIMBRA",
      "lon": "-8.428497488069683",
      "lat": "40.23704181513796"
    },
    {
      "id": "pt.ine.add.PTCONT.1272673",
      "street": "URB AR E SOL",
      "house": "",
      "postcode": "3020-205",
      "city": "COIMBRA",
      "lon": "-8.42789806477049",
      "lat": "40.23430557677513"
    },
    {
      "id": "pt.ine.add.PTCONT.1272674",
      "street": "URB AR E SOL",
      "house": "",
      "postcode": "3020-205",
      "city": "COIMBRA",
      "lon": "-8.42789806477049",
      "lat": "40.23430557677513"
    },
    {
      "id": "pt.ine.add.PTCONT.1272675",
      "street": "URB AR E SOL",
      "house": "",
      "postcode": "3020-205",
      "city": "COIMBRA",
      "lon": "-8.42789806477049",
      "lat": "40.23430557677513"
    },
    {
      "id": "pt.ine.add.PTCONT.1272676",
      "street": "URB AR E SOL",
      "house": "",
      "postcode": "3020-205",
      "city": "COIMBRA",
      "lon": "-8.42789806477049",
      "lat": "40.23430557677513"
    },
    {
      "id": "pt.ine.add.PTCONT.1272677",
      "street": "URB AR E SOL",
      "house": "",
      "postcode": "3020-205",
      "city": "COIMBRA",
      "lon": "-8.42789806477049",
      "lat": "40.23430557677513"
    },
    {
      "id": "pt.ine.add.PTCONT.1272678",
      "street": "URB AR E SOL",
      "house": "",
      "postcode": "3020-205",
      "city": "COIMBRA",
      "lon": "-8.42789806477049",
      "lat": "40.23430557677513"
    },
    {
      "id": "pt.ine.add.PTCONT.1272679",
      "street": "URB AR E SOL",
      "house": "",
      "postcode": "3020-205",
      "city": "COIMBRA",
      "lon": "-8.42789806477049",
      "lat": "40.23430557677513"
    },
    {
      "id": "pt.ine.add.PTCONT.1272680",
      "street": "URB AR E SOL",
      "house": "",
      "postcode": "3020-205",
      "city": "COIMBRA",
      "lon": "-8.42789806477049",
      "lat": "40.23430557677513"
    },
    {
      "id": "pt.ine.add.PTCONT.1272681",
      "street": "URB AR E SOL",
      "house": "",
      "postcode": "3020-205",
      "city": "COIMBRA",
      "lon": "-8.42789806477049",
      "lat": "40.23430557677513"
    },
    {
      "id": "pt.ine.add.PTCONT.1272682",
      "street": "URB AR E SOL",
      "house": "",
      "postcode": "3020-205",
      "city": "COIMBRA",
      "lon": "-8.42789806477049",
      "lat": "40.23430557677513"
    },
    {
      "id": "pt.ine.add.PTCONT.1272683",
      "street": "URB AR E SOL",
      "house": "",
      "postcode": "3020-205",
      "city": "COIMBRA",
      "lon": "-8.42789806477049",
      "lat": "40.23430557677513"
    },
    {
      "id": "pt.ine.add.PTCONT.1272708",
      "street": "URB AR E SOL",
      "house": "",
      "postcode": "3020-205",
      "city": "COIMBRA",
      "lon": "-8.42789806477049",
      "lat": "40.23430557677513"
    },
    {
      "id": "pt.ine.add.PTCONT.1273012",
      "street": "URB AR E SOL",
      "house": "",
      "postcode": "3020-205",
      "city": "COIMBRA",
      "lon": "-8.427898884835734",
      "lat": "40.23449469676779"
    },
    {
      "id": "pt.ine.add.PTCONT.1273013",
      "street": "URB AR E SOL",
      "house": "",
      "postcode": "3020-205",
      "city": "COIMBRA",
      "lon": "-8.427898884835734",
      "lat": "40.23449469676779"
    },
    {
      "id": "pt.ine.add.PTCONT.1273014",
      "street": "URB AR E SOL",
      "house": "",
      "postcode": "3020-205",
      "city": "COIMBRA",
      "lon": "-8.427898884835734",
      "lat": "40.23449469676779"
    },
    {
      "id": "pt.ine.add.PTCONT.1273015",
      "street": "URB AR E SOL",
      "house": "",
      "postcode": "3020-205",
      "city": "COIMBRA",
      "lon": "-8.427898884835734",
      "lat": "40.23449469676779"
    },
    {
      "id": "pt.ine.add.PTCONT.1273016",
      "street": "URB AR E SOL",
      "house": "",
      "postcode": "3020-205",
      "city": "COIMBRA",
      "lon": "-8.427898884835734",
      "lat": "40.23449469676779"
    },
    {
      "id": "pt.ine.add.PTCONT.1273017",
      "street": "URB AR E SOL",
      "house": "",
      "postcode": "3020-205",
      "city": "COIMBRA",
      "lon": "-8.427898884835734",
      "lat": "40.23449469676779"
    },
    {
      "id": "pt.ine.add.PTCONT.1273018",
      "street": "URB AR E SOL",
      "house": "",
      "postcode": "3020-205",
      "city": "COIMBRA",
      "lon": "-8.427898884835734",
      "lat": "40.23449469676779"
    },
    {
      "id": "pt.ine.add.PTCONT.1273019",
      "street": "URB AR E SOL",
      "house": "",
      "postcode": "3020-205",
      "city": "COIMBRA",
      "lon": "-8.427898884835734",
      "lat": "40.23449469676779"
    },
    {
      "id": "pt.ine.add.PTCONT.1273020",
      "street": "URB AR E SOL",
      "house": "",
      "postcode": "3020-205",
      "city": "COIMBRA",
      "lon": "-8.427898884835734",
      "lat": "40.23449469676779"
    },
    {
      "id": "pt.ine.add.PTCONT.1273021",
      "street": "URB AR E SOL",
      "house": "4 C",
      "postcode": "3020-205",
      "city": "COIMBRA",
      "lon": "-8.427898884835734",
      "lat": "40.23449469676779"
    },
    {
      "id": "pt.ine.add.PTCONT.1273022",
      "street": "URB AR E SOL",
      "house": "",
      "postcode": "3020-205",
      "city": "COIMBRA",
      "lon": "-8.427898884835734",
      "lat": "40.23449469676779"
    },
    {
      "id": "pt.ine.add.PTCONT.1274422",
      "street": "URB AR E SOL",
      "house": "",
      "postcode": "3020-205",
      "city": "COIMBRA",
      "lon": "-8.427898884835734",
      "lat": "40.23449469676779"
    },
    {
      "id": "pt.ine.add.PTCONT.1278712",
      "street": "R LIBERDADE",
      "house": "",
      "postcode": "3020-112",
      "city": "COIMBRA",
      "lon": "-8.430033911189998",
      "lat": "40.233669710105225"
    },
    {
      "id": "pt.ine.add.PTCONT.1278713",
      "street": "R LIBERDADE",
      "house": "",
      "postcode": "3020-112",
      "city": "COIMBRA",
      "lon": "-8.430033911189998",
      "lat": "40.233669710105225"
    },
    {
      "id": "pt.ine.add.PTCONT.1278714",
      "street": "R LIBERDADE",
      "house": "",
      "postcode": "3020-112",
      "city": "COIMBRA",
      "lon": "-8.430033911189998",
      "lat": "40.233669710105225"
    },
    {
      "id": "pt.ine.add.PTCONT.1278715",
      "street": "R LIBERDADE",
      "house": "",
      "postcode": "3020-112",
      "city": "COIMBRA",
      "lon": "-8.430033911189998",
      "lat": "40.233669710105225"
    },
    {
      "id": "pt.ine.add.PTCONT.1278716",
      "street": "R LIBERDADE",
      "house": "",
      "postcode": "3020-112",
      "city": "COIMBRA",
      "lon": "-8.430033911189998",
      "lat": "40.233669710105225"
    },
    {
      "id": "pt.ine.add.PTCONT.1278717",
      "street": "R LIBERDADE",
      "house": "",
      "postcode": "3020-112",
      "city": "COIMBRA",
      "lon": "-8.430033911189998",
      "lat": "40.233669710105225"
    },
    {
      "id": "pt.ine.add.PTCONT.1278718",
      "street": "R LIBERDADE",
      "house": "",
      "postcode": "3020-112",
      "city": "COIMBRA",
      "lon": "-8.430033911189998",
      "lat": "40.233669710105225"
    },
    {
      "id": "pt.ine.add.PTCONT.1278719",
      "street": "R LIBERDADE",
      "house": "",
      "postcode": "3020-112",
      "city": "COIMBRA",
      "lon": "-8.430033911189998",
      "lat": "40.233669710105225"
    },
    {
      "id": "pt.ine.add.PTCONT.1278720",
      "street": "R LIBERDADE",
      "house": "",
      "postcode": "3020-112",
      "city": "COIMBRA",
      "lon": "-8.430033911189998",
      "lat": "40.233669710105225"
    },
    {
      "id": "pt.ine.add.PTCONT.1280763",
      "street": "URB VALE S MIGUEL",
      "house": "",
      "postcode": "3020-113",
      "city": "COIMBRA",
      "lon": "-8.427618307331253",
      "lat": "40.23753937515156"
    },
    {
      "id": "pt.ine.add.PTCONT.1280764",
      "street": "URB VALE S MIGUEL",
      "house": "",
      "postcode": "3020-113",
      "city": "COIMBRA",
      "lon": "-8.427618307331253",
      "lat": "40.23753937515156"
    },
    {
      "id": "pt.ine.add.PTCONT.1280765",
      "street": "URB VALE S MIGUEL",
      "house": "",
      "postcode": "3020-113",
      "city": "COIMBRA",
      "lon": "-8.427618307331253",
      "lat": "40.23753937515156"
    },
    {
      "id": "pt.ine.add.PTCONT.1280766",
      "street": "URB VALE S MIGUEL",
      "house": "",
      "postcode": "3020-113",
      "city": "COIMBRA",
      "lon": "-8.427618307331253",
      "lat": "40.23753937515156"
    },
    {
      "id": "pt.ine.add.PTCONT.1280767",
      "street": "URB VALE S MIGUEL",
      "house": "",
      "postcode": "3020-113",
      "city": "COIMBRA",
      "lon": "-8.427618307331253",
      "lat": "40.23753937515156"
    },
    {
      "id": "pt.ine.add.PTCONT.1280768",
      "street": "URB VALE S MIGUEL",
      "house": "",
      "postcode": "3020-113",
      "city": "COIMBRA",
      "lon": "-8.427618307331253",
      "lat": "40.23753937515156"
    },
    {
      "id": "pt.ine.add.PTCONT.1280769",
      "street": "URB VALE S MIGUEL",
      "house": "",
      "postcode": "3020-113",
      "city": "COIMBRA",
      "lon": "-8.427618307331253",
      "lat": "40.23753937515156"
    },
    {
      "id": "pt.ine.add.PTCONT.1281040",
      "street": "R BELA VISTA",
      "house": "100",
      "postcode": "3020-082",
      "city": "COIMBRA",
      "lon": "-8.427967520160081",
      "lat": "40.236772992234066"
    },
    {
      "id": "pt.ine.add.PTCONT.1285180",
      "street": "R LIBERDADE",
      "house": "",
      "postcode": "3020-112",
      "city": "COIMBRA",
      "lon": "-8.429854942330328",
      "lat": "40.23304876788363"
    },
    {
      "id": "pt.ine.add.PTCONT.1285181",
      "street": "R LIBERDADE",
      "house": "",
      "postcode": "3020-112",
      "city": "COIMBRA",
      "lon": "-8.429854942330328",
      "lat": "40.23304876788363"
    },
    {
      "id": "pt.ine.add.PTCONT.1285182",
      "street": "R LIBERDADE",
      "house": "",
      "postcode": "3020-112",
      "city": "COIMBRA",
      "lon": "-8.429854942330328",
      "lat": "40.23304876788363"
    },
    {
      "id": "pt.ine.add.PTCONT.1285183",
      "street": "R LIBERDADE",
      "house": "",
      "postcode": "3020-112",
      "city": "COIMBRA",
      "lon": "-8.429854942330328",
      "lat": "40.23304876788363"
    },
    {
      "id": "pt.ine.add.PTCONT.1285184",
      "street": "R LIBERDADE",
      "house": "",
      "postcode": "3020-112",
      "city": "COIMBRA",
      "lon": "-8.429854942330328",
      "lat": "40.23304876788363"
    },
    {
      "id": "pt.ine.add.PTCONT.1285192",
      "street": "R LIBERDADE",
      "house": "",
      "postcode": "3020-112",
      "city": "COIMBRA",
      "lon": "-8.429854942330328",
      "lat": "40.23304876788363"
    },
    {
      "id": "pt.ine.add.PTCONT.1285193",
      "street": "R LIBERDADE",
      "house": "",
      "postcode": "3020-112",
      "city": "COIMBRA",
      "lon": "-8.429854942330328",
      "lat": "40.23304876788363"
    },
    {
      "id": "pt.ine.add.PTCONT.1285194",
      "street": "R LIBERDADE",
      "house": "",
      "postcode": "3020-112",
      "city": "COIMBRA",
      "lon": "-8.429854942330328",
      "lat": "40.23304876788363"
    },
    {
      "id": "pt.ine.add.PTCONT.1285195",
      "street": "R LIBERDADE",
      "house": "",
      "postcode": "3020-112",
      "city": "COIMBRA",
      "lon": "-8.429854942330328",
      "lat": "40.23304876788363"
    },
    {
      "id": "pt.ine.add.PTCONT.1287803",
      "street": "R ARNALDO SIMÕES JANUARIO",
      "house": "177",
      "postcode": "3020-080",
      "city": "COIMBRA",
      "lon": "-8.425874643780793",
      "lat": "40.23649912508193"
    },
    {
      "id": "pt.ine.add.PTCONT.1291369",
      "street": "R BELA VISTA",
      "house": "105",
      "postcode": "3020-082",
      "city": "COIMBRA",
      "lon": "-8.4278840136641",
      "lat": "40.2364850190303"
    },
    {
      "id": "pt.ine.add.PTCONT.1293469",
      "street": "R ARNALDO SIMÕES JANUARIO",
      "house": "",
      "postcode": "3020-080",
      "city": "COIMBRA",
      "lon": "-8.427316461321531",
      "lat": "40.235675940166026"
    },
    {
      "id": "pt.ine.add.PTCONT.1295505",
      "street": "R BELA VISTA",
      "house": "70",
      "postcode": "3020-082",
      "city": "COIMBRA",
      "lon": "-8.427440285956623",
      "lat": "40.23713456661316"
    },
    {
      "id": "pt.ine.add.PTCONT.1295515",
      "street": "R VALE S MIGUEL",
      "house": "48",
      "postcode": "3020-113",
      "city": "COIMBRA",
      "lon": "-8.429703717460523",
      "lat": "40.23609312026406"
    },
    {
      "id": "pt.ine.add.PTCONT.1295516",
      "street": "R VALE S MIGUEL",
      "house": "48",
      "postcode": "3020-113",
      "city": "COIMBRA",
      "lon": "-8.429703717460523",
      "lat": "40.23609312026406"
    },
    {
      "id": "pt.ine.add.PTCONT.1295517",
      "street": "R VALE S MIGUEL",
      "house": "48",
      "postcode": "3020-113",
      "city": "COIMBRA",
      "lon": "-8.429703717460523",
      "lat": "40.23609312026406"
    },
    {
      "id": "pt.ine.add.PTCONT.1295518",
      "street": "R VALE S MIGUEL",
      "house": "48",
      "postcode": "3020-113",
      "city": "COIMBRA",
      "lon": "-8.429703717460523",
      "lat": "40.23609312026406"
    },
    {
      "id": "pt.ine.add.PTCONT.1295519",
      "street": "R VALE S MIGUEL",
      "house": "48",
      "postcode": "3020-113",
      "city": "COIMBRA",
      "lon": "-8.429703717460523",
      "lat": "40.23609312026406"
    },
    {
      "id": "pt.ine.add.PTCONT.1295520",
      "street": "R VALE S MIGUEL",
      "house": "48",
      "postcode": "3020-113",
      "city": "COIMBRA",
      "lon": "-8.429703717460523",
      "lat": "40.23609312026406"
    },
    {
      "id": "pt.ine.add.PTCONT.1295521",
      "street": "R VALE S MIGUEL",
      "house": "48",
      "postcode": "3020-113",
      "city": "COIMBRA",
      "lon": "-8.429703717460523",
      "lat": "40.23609312026406"
    },
    {
      "id": "pt.ine.add.PTCONT.1295522",
      "street": "R VALE S MIGUEL",
      "house": "48",
      "postcode": "3020-113",
      "city": "COIMBRA",
      "lon": "-8.429703717460523",
      "lat": "40.23609312026406"
    },
    {
      "id": "pt.ine.add.PTCONT.1297227",
      "street": "URB AR E SOL",
      "house": "",
      "postcode": "3020-205",
      "city": "COIMBRA",
      "lon": "-8.42842770014406",
      "lat": "40.23450235447537"
    },
    {
      "id": "pt.ine.add.PTCONT.1297228",
      "street": "URB AR E SOL",
      "house": "",
      "postcode": "3020-205",
      "city": "COIMBRA",
      "lon": "-8.42842770014406",
      "lat": "40.23450235447537"
    },
    {
      "id": "pt.ine.add.PTCONT.1297229",
      "street": "URB AR E SOL",
      "house": "",
      "postcode": "3020-205",
      "city": "COIMBRA",
      "lon": "-8.42842770014406",
      "lat": "40.23450235447537"
    },
    {
      "id": "pt.ine.add.PTCONT.1297230",
      "street": "URB AR E SOL",
      "house": "",
      "postcode": "3020-205",
      "city": "COIMBRA",
      "lon": "-8.42842770014406",
      "lat": "40.23450235447537"
    },
    {
      "id": "pt.ine.add.PTCONT.1297231",
      "street": "URB AR E SOL",
      "house": "",
      "postcode": "3020-205",
      "city": "COIMBRA",
      "lon": "-8.42842770014406",
      "lat": "40.23450235447537"
    },
    {
      "id": "pt.ine.add.PTCONT.1297232",
      "street": "URB AR E SOL",
      "house": "",
      "postcode": "3020-205",
      "city": "COIMBRA",
      "lon": "-8.42842770014406",
      "lat": "40.23450235447537"
    },
    {
      "id": "pt.ine.add.PTCONT.1297233",
      "street": "URB AR E SOL",
      "house": "",
      "postcode": "3020-205",
      "city": "COIMBRA",
      "lon": "-8.42842770014406",
      "lat": "40.23450235447537"
    },
    {
      "id": "pt.ine.add.PTCONT.1297234",
      "street": "URB AR E SOL",
      "house": "",
      "postcode": "3020-205",
      "city": "COIMBRA",
      "lon": "-8.42842770014406",
      "lat": "40.23450235447537"
    },
    {
      "id": "pt.ine.add.PTCONT.1297235",
      "street": "URB AR E SOL",
      "house": "",
      "postcode": "3020-205",
      "city": "COIMBRA",
      "lon": "-8.42842770014406",
      "lat": "40.23450235447537"
    },
    {
      "id": "pt.ine.add.PTCONT.1297236",
      "street": "URB AR E SOL",
      "house": "",
      "postcode": "3020-205",
      "city": "COIMBRA",
      "lon": "-8.42842770014406",
      "lat": "40.23450235447537"
    },
    {
      "id": "pt.ine.add.PTCONT.1297237",
      "street": "R VALE S MIGUEL",
      "house": "",
      "postcode": "3020-113",
      "city": "COIMBRA",
      "lon": "-8.43031271460523",
      "lat": "40.23562325586768"
    },
    {
      "id": "pt.ine.add.PTCONT.1297238",
      "street": "R VALE S MIGUEL",
      "house": "",
      "postcode": "3020-113",
      "city": "COIMBRA",
      "lon": "-8.43031271460523",
      "lat": "40.23562325586768"
    },
    {
      "id": "pt.ine.add.PTCONT.1297239",
      "street": "R VALE S MIGUEL",
      "house": "",
      "postcode": "3020-113",
      "city": "COIMBRA",
      "lon": "-8.43031271460523",
      "lat": "40.23562325586768"
    },
    {
      "id": "pt.ine.add.PTCONT.1297240",
      "street": "R VALE S MIGUEL",
      "house": "",
      "postcode": "3020-113",
      "city": "COIMBRA",
      "lon": "-8.43031271460523",
      "lat": "40.23562325586768"
    },
    {
      "id": "pt.ine.add.PTCONT.1297241",
      "street": "R VALE S MIGUEL",
      "house": "",
      "postcode": "3020-113",
      "city": "COIMBRA",
      "lon": "-8.43031271460523",
      "lat": "40.23562325586768"
    },
    {
      "id": "pt.ine.add.PTCONT.1297242",
      "street": "R VALE S MIGUEL",
      "house": "",
      "postcode": "3020-113",
      "city": "COIMBRA",
      "lon": "-8.43031271460523",
      "lat": "40.23562325586768"
    },
    {
      "id": "pt.ine.add.PTCONT.1297243",
      "street": "R VALE S MIGUEL",
      "house": "",
      "postcode": "3020-113",
      "city": "COIMBRA",
      "lon": "-8.43031271460523",
      "lat": "40.23562325586768"
    },
    {
      "id": "pt.ine.add.PTCONT.1297244",
      "street": "R VALE S MIGUEL",
      "house": "",
      "postcode": "3020-113",
      "city": "COIMBRA",
      "lon": "-8.43031271460523",
      "lat": "40.23562325586768"
    },
    {
      "id": "pt.ine.add.PTCONT.1297245",
      "street": "R VALE S MIGUEL",
      "house": "",
      "postcode": "3020-113",
      "city": "COIMBRA",
      "lon": "-8.43031271460523",
      "lat": "40.23562325586768"
    },
    {
      "id": "pt.ine.add.PTCONT.1297283",
      "street": "URB AR E SOL",
      "house": "",
      "postcode": "3020-205",
      "city": "COIMBRA",
      "lon": "-8.42842770014406",
      "lat": "40.23450235447537"
    },
    {
      "id": "pt.ine.add.PTCONT.1305254",
      "street": "R LIBERDADE",
      "house": "80",
      "postcode": "3020-112",
      "city": "COIMBRA",
      "lon": "-8.430308895581614",
      "lat": "40.23474970192544"
    },
    {
      "id": "pt.ine.add.PTCONT.1305255",
      "street": "R LIBERDADE",
      "house": "",
      "postcode": "3020-112",
      "city": "COIMBRA",
      "lon": "-8.430308895581614",
      "lat": "40.23474970192544"
    },
    {
      "id": "pt.ine.add.PTCONT.1305256",
      "street": "R LIBERDADE",
      "house": "",
      "postcode": "3020-112",
      "city": "COIMBRA",
      "lon": "-8.430308895581614",
      "lat": "40.23474970192544"
    },
    {
      "id": "pt.ine.add.PTCONT.1305257",
      "street": "R LIBERDADE",
      "house": "",
      "postcode": "3020-112",
      "city": "COIMBRA",
      "lon": "-8.430308895581614",
      "lat": "40.23474970192544"
    },
    {
      "id": "pt.ine.add.PTCONT.1305258",
      "street": "R LIBERDADE",
      "house": "",
      "postcode": "3020-112",
      "city": "COIMBRA",
      "lon": "-8.430308895581614",
      "lat": "40.23474970192544"
    },
    {
      "id": "pt.ine.add.PTCONT.1305259",
      "street": "R LIBERDADE",
      "house": "",
      "postcode": "3020-112",
      "city": "COIMBRA",
      "lon": "-8.430308895581614",
      "lat": "40.23474970192544"
    },
    {
      "id": "pt.ine.add.PTCONT.1305260",
      "street": "R LIBERDADE",
      "house": "",
      "postcode": "3020-112",
      "city": "COIMBRA",
      "lon": "-8.430308895581614",
      "lat": "40.23474970192544"
    },
    {
      "id": "pt.ine.add.PTCONT.1305261",
      "street": "R LIBERDADE",
      "house": "",
      "postcode": "3020-112",
      "city": "COIMBRA",
      "lon": "-8.430308895581614",
      "lat": "40.23474970192544"
    },
    {
      "id": "pt.ine.add.PTCONT.1305269",
      "street": "R LIBERDADE",
      "house": "",
      "postcode": "3020-112",
      "city": "COIMBRA",
      "lon": "-8.430308895581614",
      "lat": "40.23474970192544"
    },
    {
      "id": "pt.ine.add.PTCONT.1309010",
      "street": "R LIBERDADE",
      "house": "70",
      "postcode": "3020-112",
      "city": "COIMBRA",
      "lon": "-8.430129881963456",
      "lat": "40.23411975455185"
    },
    {
      "id": "pt.ine.add.PTCONT.1309004",
      "street": "R LIBERDADE",
      "house": "70",
      "postcode": "3020-112",
      "city": "COIMBRA",
      "lon": "-8.430129881963456",
      "lat": "40.23411975455185"
    },
    {
      "id": "pt.ine.add.PTCONT.1309005",
      "street": "R LIBERDADE",
      "house": "70",
      "postcode": "3020-112",
      "city": "COIMBRA",
      "lon": "-8.430129881963456",
      "lat": "40.23411975455185"
    },
    {
      "id": "pt.ine.add.PTCONT.1309006",
      "street": "R LIBERDADE",
      "house": "70",
      "postcode": "3020-112",
      "city": "COIMBRA",
      "lon": "-8.430129881963456",
      "lat": "40.23411975455185"
    },
    {
      "id": "pt.ine.add.PTCONT.1309007",
      "street": "R LIBERDADE",
      "house": "70",
      "postcode": "3020-112",
      "city": "COIMBRA",
      "lon": "-8.430129881963456",
      "lat": "40.23411975455185"
    },
    {
      "id": "pt.ine.add.PTCONT.1309008",
      "street": "R LIBERDADE",
      "house": "70",
      "postcode": "3020-112",
      "city": "COIMBRA",
      "lon": "-8.430129881963456",
      "lat": "40.23411975455185"
    },
    {
      "id": "pt.ine.add.PTCONT.1309009",
      "street": "R LIBERDADE",
      "house": "70",
      "postcode": "3020-112",
      "city": "COIMBRA",
      "lon": "-8.430129881963456",
      "lat": "40.23411975455185"
    },
    {
      "id": "pt.ine.add.PTCONT.1309379",
      "street": "R VALE S MIGUEL",
      "house": "214",
      "postcode": "3020-113",
      "city": "COIMBRA",
      "lon": "-8.425810458942497",
      "lat": "40.237967234333745"
    },
    {
      "id": "pt.ine.add.PTCONT.1310725",
      "street": "R LIBERDADE",
      "house": "70",
      "postcode": "3020-112",
      "city": "COIMBRA",
      "lon": "-8.430129881963456",
      "lat": "40.23411975455185"
    },
    {
      "id": "pt.ine.add.PTCONT.1323408",
      "street": "R ARNALDO SIMÕES JANUARIO",
      "house": "155",
      "postcode": "3020-080",
      "city": "COIMBRA",
      "lon": "-8.426412777478037",
      "lat": "40.235939402327936"
    },
    {
      "id": "pt.ine.add.PTCONT.1325434",
      "street": "R ARNALDO SIMÕES JANUARIO",
      "house": "157",
      "postcode": "3020-080",
      "city": "COIMBRA",
      "lon": "-8.42696568950834",
      "lat": "40.236082092799364"
    },
    {
      "id": "pt.ine.add.PTCONT.1337654",
      "street": "URB AR E SOL",
      "house": "",
      "postcode": "3020-205",
      "city": "COIMBRA",
      "lon": "-8.427911494576604",
      "lat": "40.23469279253806"
    },
    {
      "id": "pt.ine.add.PTCONT.1337655",
      "street": "URB AR E SOL",
      "house": "",
      "postcode": "3020-205",
      "city": "COIMBRA",
      "lon": "-8.427911494576604",
      "lat": "40.23469279253806"
    },
    {
      "id": "pt.ine.add.PTCONT.1337656",
      "street": "URB AR E SOL",
      "house": "",
      "postcode": "3020-205",
      "city": "COIMBRA",
      "lon": "-8.427911494576604",
      "lat": "40.23469279253806"
    },
    {
      "id": "pt.ine.add.PTCONT.1337657",
      "street": "URB AR E SOL",
      "house": "",
      "postcode": "3020-205",
      "city": "COIMBRA",
      "lon": "-8.427911494576604",
      "lat": "40.23469279253806"
    },
    {
      "id": "pt.ine.add.PTCONT.1337658",
      "street": "URB AR E SOL",
      "house": "",
      "postcode": "3020-205",
      "city": "COIMBRA",
      "lon": "-8.427911494576604",
      "lat": "40.23469279253806"
    },
    {
      "id": "pt.ine.add.PTCONT.1337659",
      "street": "URB AR E SOL",
      "house": "",
      "postcode": "3020-205",
      "city": "COIMBRA",
      "lon": "-8.427911494576604",
      "lat": "40.23469279253806"
    },
    {
      "id": "pt.ine.add.PTCONT.1337660",
      "street": "URB AR E SOL",
      "house": "",
      "postcode": "3020-205",
      "city": "COIMBRA",
      "lon": "-8.427911494576604",
      "lat": "40.23469279253806"
    },
    {
      "id": "pt.ine.add.PTCONT.1337661",
      "street": "URB AR E SOL",
      "house": "",
      "postcode": "3020-205",
      "city": "COIMBRA",
      "lon": "-8.427911494576604",
      "lat": "40.23469279253806"
    },
    {
      "id": "pt.ine.add.PTCONT.1337662",
      "street": "URB AR E SOL",
      "house": "",
      "postcode": "3020-205",
      "city": "COIMBRA",
      "lon": "-8.427911494576604",
      "lat": "40.23469279253806"
    },
    {
      "id": "pt.ine.add.PTCONT.1337663",
      "street": "URB AR E SOL",
      "house": "",
      "postcode": "3020-205",
      "city": "COIMBRA",
      "lon": "-8.427911494576604",
      "lat": "40.23469279253806"
    },
    {
      "id": "pt.ine.add.PTCONT.1339285",
      "street": "URB AR E SOL",
      "house": "",
      "postcode": "3020-205",
      "city": "COIMBRA",
      "lon": "-8.427911494576604",
      "lat": "40.23469279253806"
    },
    {
      "id": "pt.ine.add.PTCONT.1347752",
      "street": "R ARNALDO SIMÕES JANUARIO",
      "house": "227",
      "postcode": "3020-080",
      "city": "COIMBRA",
      "lon": "-8.425397463601449",
      "lat": "40.23757202249485"
    },
    {
      "id": "pt.ine.add.PTCONT.1351122",
      "street": "R BELA VISTA",
      "house": "19",
      "postcode": "3020-082",
      "city": "COIMBRA",
      "lon": "-8.42604187336632",
      "lat": "40.23712910863814"
    },
    {
      "id": "pt.ine.add.PTCONT.1351290",
      "street": "URB AR E SOL",
      "house": "",
      "postcode": "3020-205",
      "city": "COIMBRA",
      "lon": "-8.427918090164244",
      "lat": "40.23350400830792"
    },
    {
      "id": "pt.ine.add.PTCONT.1351291",
      "street": "URB AR E SOL",
      "house": "",
      "postcode": "3020-205",
      "city": "COIMBRA",
      "lon": "-8.427918090164244",
      "lat": "40.23350400830792"
    },
    {
      "id": "pt.ine.add.PTCONT.1351292",
      "street": "URB AR E SOL",
      "house": "",
      "postcode": "3020-205",
      "city": "COIMBRA",
      "lon": "-8.427918090164244",
      "lat": "40.23350400830792"
    },
    {
      "id": "pt.ine.add.PTCONT.1351293",
      "street": "URB AR E SOL",
      "house": "",
      "postcode": "3020-205",
      "city": "COIMBRA",
      "lon": "-8.427918090164244",
      "lat": "40.23350400830792"
    },
    {
      "id": "pt.ine.add.PTCONT.1351294",
      "street": "URB AR E SOL",
      "house": "",
      "postcode": "3020-205",
      "city": "COIMBRA",
      "lon": "-8.427918090164244",
      "lat": "40.23350400830792"
    },
    {
      "id": "pt.ine.add.PTCONT.1351295",
      "street": "URB AR E SOL",
      "house": "",
      "postcode": "3020-205",
      "city": "COIMBRA",
      "lon": "-8.427918090164244",
      "lat": "40.23350400830792"
    },
    {
      "id": "pt.ine.add.PTCONT.1351296",
      "street": "URB AR E SOL",
      "house": "",
      "postcode": "3020-205",
      "city": "COIMBRA",
      "lon": "-8.427918090164244",
      "lat": "40.23350400830792"
    },
    {
      "id": "pt.ine.add.PTCONT.1351297",
      "street": "URB AR E SOL",
      "house": "",
      "postcode": "3020-205",
      "city": "COIMBRA",
      "lon": "-8.427918090164244",
      "lat": "40.23350400830792"
    },
    {
      "id": "pt.ine.add.PTCONT.1351298",
      "street": "URB AR E SOL",
      "house": "",
      "postcode": "3020-205",
      "city": "COIMBRA",
      "lon": "-8.427918090164244",
      "lat": "40.23350400830792"
    },
    {
      "id": "pt.ine.add.PTCONT.1351299",
      "street": "URB AR E SOL",
      "house": "",
      "postcode": "3020-205",
      "city": "COIMBRA",
      "lon": "-8.427918090164244",
      "lat": "40.23350400830792"
    },
    {
      "id": "pt.ine.add.PTCONT.1351300",
      "street": "URB AR E SOL",
      "house": "",
      "postcode": "3020-205",
      "city": "COIMBRA",
      "lon": "-8.427918090164244",
      "lat": "40.23350400830792"
    },
    {
      "id": "pt.ine.add.PTCONT.1351301",
      "street": "URB AR E SOL",
      "house": "",
      "postcode": "3020-205",
      "city": "COIMBRA",
      "lon": "-8.427918090164244",
      "lat": "40.23350400830792"
    },
    {
      "id": "pt.ine.add.PTCONT.1356486",
      "street": "URB VALE S MIGUEL",
      "house": "",
      "postcode": "3020-113",
      "city": "COIMBRA",
      "lon": "-8.42876689984523",
      "lat": "40.236842999421526"
    },
    {
      "id": "pt.ine.add.PTCONT.1356487",
      "street": "URB VALE S MIGUEL",
      "house": "",
      "postcode": "3020-113",
      "city": "COIMBRA",
      "lon": "-8.42876689984523",
      "lat": "40.236842999421526"
    },
    {
      "id": "pt.ine.add.PTCONT.1356488",
      "street": "URB VALE S MIGUEL",
      "house": "",
      "postcode": "3020-113",
      "city": "COIMBRA",
      "lon": "-8.42876689984523",
      "lat": "40.236842999421526"
    },
    {
      "id": "pt.ine.add.PTCONT.1356489",
      "street": "URB VALE S MIGUEL",
      "house": "",
      "postcode": "3020-113",
      "city": "COIMBRA",
      "lon": "-8.42876689984523",
      "lat": "40.236842999421526"
    },
    {
      "id": "pt.ine.add.PTCONT.1356490",
      "street": "URB VALE S MIGUEL",
      "house": "",
      "postcode": "3020-113",
      "city": "COIMBRA",
      "lon": "-8.42876689984523",
      "lat": "40.236842999421526"
    },
    {
      "id": "pt.ine.add.PTCONT.1356491",
      "street": "URB VALE S MIGUEL",
      "house": "",
      "postcode": "3020-113",
      "city": "COIMBRA",
      "lon": "-8.42876689984523",
      "lat": "40.236842999421526"
    },
    {
      "id": "pt.ine.add.PTCONT.1356492",
      "street": "URB VALE S MIGUEL",
      "house": "",
      "postcode": "3020-113",
      "city": "COIMBRA",
      "lon": "-8.42876689984523",
      "lat": "40.236842999421526"
    },
    {
      "id": "pt.ine.add.PTCONT.1356493",
      "street": "URB VALE S MIGUEL",
      "house": "",
      "postcode": "3020-113",
      "city": "COIMBRA",
      "lon": "-8.42876689984523",
      "lat": "40.236842999421526"
    },
    {
      "id": "pt.ine.add.PTCONT.1358489",
      "street": "R LIBERDADE",
      "house": "100",
      "postcode": "3020-112",
      "city": "COIMBRA",
      "lon": "-8.430488148922478",
      "lat": "40.23543368320304"
    },
    {
      "id": "pt.ine.add.PTCONT.1358490",
      "street": "R LIBERDADE",
      "house": "100",
      "postcode": "3020-112",
      "city": "COIMBRA",
      "lon": "-8.430488148922478",
      "lat": "40.23543368320304"
    },
    {
      "id": "pt.ine.add.PTCONT.1358491",
      "street": "R LIBERDADE D",
      "house": "D",
      "postcode": "3020-112",
      "city": "COIMBRA",
      "lon": "-8.430488148922478",
      "lat": "40.23543368320304"
    },
    {
      "id": "pt.ine.add.PTCONT.1358492",
      "street": "R LIBERDADE",
      "house": "100",
      "postcode": "3020-112",
      "city": "COIMBRA",
      "lon": "-8.430488148922478",
      "lat": "40.23543368320304"
    },
    {
      "id": "pt.ine.add.PTCONT.1358493",
      "street": "R LIBERDADE",
      "house": "100",
      "postcode": "3020-112",
      "city": "COIMBRA",
      "lon": "-8.430488148922478",
      "lat": "40.23543368320304"
    },
    {
      "id": "pt.ine.add.PTCONT.1358494",
      "street": "R LIBERDADE",
      "house": "2",
      "postcode": "3020-112",
      "city": "COIMBRA",
      "lon": "-8.430488148922478",
      "lat": "40.23543368320304"
    },
    {
      "id": "pt.ine.add.PTCONT.1358495",
      "street": "R LIBERDADE",
      "house": "100",
      "postcode": "3020-112",
      "city": "COIMBRA",
      "lon": "-8.430488148922478",
      "lat": "40.23543368320304"
    },
    {
      "id": "pt.ine.add.PTCONT.1358496",
      "street": "R LIBERDADE",
      "house": "100",
      "postcode": "3020-112",
      "city": "COIMBRA",
      "lon": "-8.430488148922478",
      "lat": "40.23543368320304"
    },
    {
      "id": "pt.ine.add.PTCONT.1358497",
      "street": "R LIBERDADE",
      "house": "100",
      "postcode": "3020-112",
      "city": "COIMBRA",
      "lon": "-8.430488148922478",
      "lat": "40.23543368320304"
    },
    {
      "id": "pt.ine.add.PTCONT.1358498",
      "street": "R LIBERDADE",
      "house": "100",
      "postcode": "3020-112",
      "city": "COIMBRA",
      "lon": "-8.430488148922478",
      "lat": "40.23543368320304"
    },
    {
      "id": "pt.ine.add.PTCONT.1359929",
      "street": "R LIBERDADE",
      "house": "100",
      "postcode": "3020-112",
      "city": "COIMBRA",
      "lon": "-8.430488148922478",
      "lat": "40.23543368320304"
    },
    {
      "id": "pt.ine.add.PTCONT.1361502",
      "street": "R BELA VISTA",
      "house": "28",
      "postcode": "3020-082",
      "city": "COIMBRA",
      "lon": "-8.426266735493899",
      "lat": "40.23749777746552"
    },
    {
      "id": "pt.ine.add.PTCONT.1361722",
      "street": "R BELA VISTA",
      "house": "21",
      "postcode": "3020-082",
      "city": "COIMBRA",
      "lon": "-8.42614774919032",
      "lat": "40.23715585804585"
    },
    {
      "id": "pt.ine.add.PTCONT.1361769",
      "street": "URB AR E SOL",
      "house": "",
      "postcode": "3020-205",
      "city": "COIMBRA",
      "lon": "-8.428471259351088",
      "lat": "40.233709731709965"
    },
    {
      "id": "pt.ine.add.PTCONT.1362049",
      "street": "URB AR E SOL",
      "house": "",
      "postcode": "3020-205",
      "city": "COIMBRA",
      "lon": "-8.427919769420285",
      "lat": "40.2338912540536"
    },
    {
      "id": "pt.ine.add.PTCONT.1362200",
      "street": "URB AR E SOL",
      "house": "",
      "postcode": "3020-205",
      "city": "COIMBRA",
      "lon": "-8.428458687303001",
      "lat": "40.23352064168701"
    },
    {
      "id": "pt.ine.add.PTCONT.1363508",
      "street": "URB AR E SOL",
      "house": "",
      "postcode": "3020-205",
      "city": "COIMBRA",
      "lon": "-8.427911494576604",
      "lat": "40.23469279253806"
    },
    {
      "id": "pt.ine.add.PTCONT.1363625",
      "street": "R LIBERDADE",
      "house": "100",
      "postcode": "3020-112",
      "city": "COIMBRA",
      "lon": "-8.430488148922478",
      "lat": "40.23543368320304"
    },
    {
      "id": "pt.ine.add.PTCONT.1364345",
      "street": "R VALE S MIGUEL",
      "house": "48",
      "postcode": "3020-113",
      "city": "COIMBRA",
      "lon": "-8.429703717460523",
      "lat": "40.23609312026406"
    },
    {
      "id": "pt.ine.add.PTCONT.1365109",
      "street": "R LIBERDADE",
      "house": "70",
      "postcode": "3020-112",
      "city": "COIMBRA",
      "lon": "-8.430129881963456",
      "lat": "40.23411975455185"
    },
    {
      "id": "pt.ine.add.PTCONT.1365111",
      "street": "URB AR E SOL",
      "house": "",
      "postcode": "3020-205",
      "city": "COIMBRA",
      "lon": "-8.42842770014406",
      "lat": "40.23450235447537"
    },
    {
      "id": "pt.ine.add.PTCONT.1365272",
      "street": "URB VALE S MIGUEL",
      "house": "",
      "postcode": "3020-113",
      "city": "COIMBRA",
      "lon": "-8.427618307331253",
      "lat": "40.23753937515156"
    },
    {
      "id": "pt.ine.add.PTCONT.1365430",
      "street": "URB AR E SOL",
      "house": "",
      "postcode": "3020-205",
      "city": "COIMBRA",
      "lon": "-8.428438550913638",
      "lat": "40.234295193081756"
    },
    {
      "id": "pt.ine.add.PTCONT.1366976",
      "street": "URB AR E SOL",
      "house": "",
      "postcode": "3020-205",
      "city": "COIMBRA",
      "lon": "-8.428472080993567",
      "lat": "40.23389885171237"
    }
  ]
}