{
  "data": {
    "distrito": "Faro",
    "concelho": "Albufeira",
    "freguesia": "Albufeira e Olhos de √Ågua",
    "OBJECTID": 473,
    "BGRI2021": "08010602911",
    "DT21": "08",
    "DTMN21": "0801",
    "DTMNFR21": "080106",
    "DTMNFRSEC21": "080106029",
    "SECNUM21": "029",
    "SSNUM21": "11",
    "SECSSNUM21": "02911",
    "OBJECTID_1": 64863,
    "DT": "08",
    "CC": "01",
    "fr": "06",
    "SEC": "029",
    "SS": "11"
  },
  "addresses": [
    {
      "id": "pt.ine.add.PTCONT.1475355",
      "street": "PCT BARQUINHA",
      "house": "",
      "postcode": "8200-385",
      "city": "ALBUFEIRA",
      "lon": "-8.30185959267584",
      "lat": "37.085511908062465"
    },
    {
      "id": "pt.ine.add.PTCONT.1481397",
      "street": "PCT BARQUINHA",
      "house": "8",
      "postcode": "8200-385",
      "city": "ALBUFEIRA",
      "lon": "-8.302691331653179",
      "lat": "37.085267433244205"
    },
    {
      "id": "pt.ine.add.PTCONT.1485431",
      "street": "PCT LANCHA",
      "house": "5",
      "postcode": "8200-385",
      "city": "ALBUFEIRA",
      "lon": "-8.300619007816065",
      "lat": "37.08396382905363"
    },
    {
      "id": "pt.ine.add.PTCONT.1486984",
      "street": "BC QUADRANTE",
      "house": "",
      "postcode": "8200-402",
      "city": "ALBUFEIRA",
      "lon": "-8.301227231125804",
      "lat": "37.08436844927859"
    },
    {
      "id": "pt.ine.add.PTCONT.1489822",
      "street": "R BUSSOLA",
      "house": "2",
      "postcode": "8200-401",
      "city": "ALBUFEIRA",
      "lon": "-8.300349440630585",
      "lat": "37.08412640181952"
    },
    {
      "id": "pt.ine.add.PTCONT.1510170",
      "street": "PCT BARQUINHA",
      "house": "",
      "postcode": "8200-385",
      "city": "ALBUFEIRA",
      "lon": "-8.303041195649271",
      "lat": "37.085807573435474"
    },
    {
      "id": "pt.ine.add.PTCONT.1576700",
      "street": "PCT LANCHA",
      "house": "",
      "postcode": "8200-385",
      "city": "ALBUFEIRA",
      "lon": "-8.300630928796501",
      "lat": "37.0842701755169"
    },
    {
      "id": "pt.ine.add.PTCONT.1594314",
      "street": "R QUADRANTE",
      "house": "",
      "postcode": "8200-402",
      "city": "ALBUFEIRA",
      "lon": "-8.302973230582841",
      "lat": "37.085591414416214"
    },
    {
      "id": "pt.ine.add.PTCONT.1599533",
      "street": "PCT LANCHA VILAMAR DA GALE",
      "house": "6",
      "postcode": "8200-385",
      "city": "ALBUFEIRA",
      "lon": "-8.300946039463891",
      "lat": "37.0843598368561"
    },
    {
      "id": "pt.ine.add.PTCONT.1617869",
      "street": "R BUSSOLA",
      "house": "1",
      "postcode": "8200-401",
      "city": "ALBUFEIRA",
      "lon": "-8.300406110455878",
      "lat": "37.084324556968845"
    },
    {
      "id": "pt.ine.add.PTCONT.1654473",
      "street": "R SEXTANTE",
      "house": "8",
      "postcode": "8200-401",
      "city": "ALBUFEIRA",
      "lon": "-8.300899919937983",
      "lat": "37.08384629305071"
    },
    {
      "id": "pt.ine.add.PTCONT.1663335",
      "street": "PCT BARQUINHA",
      "house": "",
      "postcode": "8200-385",
      "city": "ALBUFEIRA",
      "lon": "-8.30280494663692",
      "lat": "37.08578087965937"
    },
    {
      "id": "pt.ine.add.PTCONT.1663336",
      "street": "PCT BARQUINHA",
      "house": "",
      "postcode": "8200-385",
      "city": "ALBUFEIRA",
      "lon": "-8.301858973456591",
      "lat": "37.085232577762625"
    },
    {
      "id": "pt.ine.add.PTCONT.1663337",
      "street": "PCT BARQUINHA",
      "house": "",
      "postcode": "8200-385",
      "city": "ALBUFEIRA",
      "lon": "-8.302163222738875",
      "lat": "37.08549345428128"
    },
    {
      "id": "pt.ine.add.PTCONT.1663521",
      "street": "R BUSSOLA",
      "house": "",
      "postcode": "8200-401",
      "city": "ALBUFEIRA",
      "lon": "-8.30032663027809",
      "lat": "37.08398226301534"
    },
    {
      "id": "pt.ine.add.PTCONT.1665006",
      "street": "PCT BARQUINHA",
      "house": "6",
      "postcode": "8200-385",
      "city": "ALBUFEIRA",
      "lon": "-8.302580025105788",
      "lat": "37.08579021195669"
    },
    {
      "id": "pt.ine.add.PTCONT.1672758",
      "street": "PCT BARQUINHA",
      "house": "12",
      "postcode": "8200-385",
      "city": "ALBUFEIRA",
      "lon": "-8.301972482833905",
      "lat": "37.085700971721145"
    },
    {
      "id": "pt.ine.add.PTCONT.1726855",
      "street": "R QUADRANTE",
      "house": "",
      "postcode": "8200-402",
      "city": "ALBUFEIRA",
      "lon": "-8.303029063571776",
      "lat": "37.0854111207774"
    },
    {
      "id": "pt.ine.add.PTCONT.1774809",
      "street": "BC QUADRANTE",
      "house": "",
      "postcode": "8200-402",
      "city": "ALBUFEIRA",
      "lon": "-8.30337453702268",
      "lat": "37.08398693721833"
    },
    {
      "id": "pt.ine.add.PTCONT.1780378",
      "street": "R QUADRANTE",
      "house": "",
      "postcode": "8200-402",
      "city": "ALBUFEIRA",
      "lon": "-8.303084976777017",
      "lat": "37.08526686972528"
    },
    {
      "id": "pt.ine.add.PTCONT.1783314",
      "street": "PCT BARQUINHA",
      "house": "",
      "postcode": "8200-385",
      "city": "ALBUFEIRA",
      "lon": "-8.302658273001123",
      "lat": "37.08557384373421"
    },
    {
      "id": "pt.ine.add.PTCONT.1821720",
      "street": "PCT BARQUINHA",
      "house": "",
      "postcode": "8200-385",
      "city": "ALBUFEIRA",
      "lon": "-8.302253639513559",
      "lat": "37.08569156038708"
    }
  ]
}