{
  "data": {
    "distrito": "Coimbra",
    "concelho": "Coimbra",
    "freguesia": "Santo António dos Olivais",
    "OBJECTID": 1329,
    "BGRI2021": "06031802511",
    "DT21": "06",
    "DTMN21": "0603",
    "DTMNFR21": "060318",
    "DTMNFRSEC21": "060318025",
    "SECNUM21": "025",
    "SSNUM21": "11",
    "SECSSNUM21": "02511",
    "OBJECTID_1": 49319,
    "DT": "06",
    "CC": "03",
    "fr": "18",
    "SEC": "025",
    "SS": "11"
  },
  "addresses": [
    {
      "id": "pt.ine.add.PTCONT.1104441",
      "street": "R NOVA",
      "house": "3",
      "postcode": "3020-495",
      "city": "COIMBRA",
      "lon": "-8.404062129468937",
      "lat": "40.227015081444726"
    },
    {
      "id": "pt.ine.add.PTCONT.1106519",
      "street": "TV ACUDE",
      "house": "",
      "postcode": "3020-483",
      "city": "COIMBRA",
      "lon": "-8.407298273990357",
      "lat": "40.22826827626565"
    },
    {
      "id": "pt.ine.add.PTCONT.1116053",
      "street": "QTA DAS PREGUIÇOSAS",
      "house": "",
      "postcode": "3000-610",
      "city": "COIMBRA",
      "lon": "-8.405100998334952",
      "lat": "40.23118234164231"
    },
    {
      "id": "pt.ine.add.PTCONT.1121005",
      "street": "TV RUA NOVA",
      "house": "33",
      "postcode": "3020-496",
      "city": "COIMBRA",
      "lon": "-8.40452534913982",
      "lat": "40.22826580609104"
    },
    {
      "id": "pt.ine.add.PTCONT.1121006",
      "street": "TV ACUDE",
      "house": "6",
      "postcode": "3020-483",
      "city": "COIMBRA",
      "lon": "-8.407591212409072",
      "lat": "40.228069453777216"
    },
    {
      "id": "pt.ine.add.PTCONT.1122213",
      "street": "TV ACUDE",
      "house": "6",
      "postcode": "3020-483",
      "city": "COIMBRA",
      "lon": "-8.407591212409072",
      "lat": "40.228069453777216"
    },
    {
      "id": "pt.ine.add.PTCONT.1140609",
      "street": "TV ACUDE",
      "house": "18",
      "postcode": "3020-483",
      "city": "COIMBRA",
      "lon": "-8.407182738854628",
      "lat": "40.228754864467945"
    },
    {
      "id": "pt.ine.add.PTCONT.1151578",
      "street": "TV ACUDE",
      "house": "30",
      "postcode": "3020-483",
      "city": "COIMBRA",
      "lon": "-8.40645799188609",
      "lat": "40.22968417825558"
    },
    {
      "id": "pt.ine.add.PTCONT.1177337",
      "street": "R QUINTA DA MAINCA",
      "house": "",
      "postcode": "3020-246",
      "city": "COIMBRA",
      "lon": "-8.40765646862843",
      "lat": "40.229681341619674"
    },
    {
      "id": "pt.ine.add.PTCONT.1180595",
      "street": "R NOVA",
      "house": "15",
      "postcode": "3020-495",
      "city": "COIMBRA",
      "lon": "-8.404228056098823",
      "lat": "40.227374926007286"
    },
    {
      "id": "pt.ine.add.PTCONT.1183667",
      "street": "R ÁLVARO CORREIA",
      "house": "",
      "postcode": "3020-493",
      "city": "COIMBRA",
      "lon": "-8.404251584097427",
      "lat": "40.23032878153256"
    },
    {
      "id": "pt.ine.add.PTCONT.1187254",
      "street": "TV RUA NOVA",
      "house": "",
      "postcode": "3020-496",
      "city": "COIMBRA",
      "lon": "-8.404935286634066",
      "lat": "40.22794063432936"
    },
    {
      "id": "pt.ine.add.PTCONT.1198701",
      "street": "TV RUA NOVA",
      "house": "2",
      "postcode": "3020-496",
      "city": "COIMBRA",
      "lon": "-8.404982140498866",
      "lat": "40.22790450097717"
    },
    {
      "id": "pt.ine.add.PTCONT.1201675",
      "street": "TV ACUDE",
      "house": "24",
      "postcode": "3020-483",
      "city": "COIMBRA",
      "lon": "-8.40690205361434",
      "lat": "40.229079738461934"
    },
    {
      "id": "pt.ine.add.PTCONT.1207539",
      "street": "R LUZEIRO",
      "house": "177",
      "postcode": "3020-261",
      "city": "COIMBRA",
      "lon": "-8.403194738176392",
      "lat": "40.23049335732333"
    },
    {
      "id": "pt.ine.add.PTCONT.1209668",
      "street": "R NOVA",
      "house": "23",
      "postcode": "3020-495",
      "city": "COIMBRA",
      "lon": "-8.404346843052478",
      "lat": "40.22769885747825"
    },
    {
      "id": "pt.ine.add.PTCONT.1220516",
      "street": "R ACUDE",
      "house": "28",
      "postcode": "3020-489",
      "city": "COIMBRA",
      "lon": "-8.407695903220286",
      "lat": "40.2278080365027"
    },
    {
      "id": "pt.ine.add.PTCONT.1223711",
      "street": "R NOVA",
      "house": "1",
      "postcode": "3020-495",
      "city": "COIMBRA",
      "lon": "-8.404002593630542",
      "lat": "40.226817092580426"
    },
    {
      "id": "pt.ine.add.PTCONT.1223755",
      "street": "R ÁLVARO CORREIA",
      "house": "",
      "postcode": "3020-493",
      "city": "COIMBRA",
      "lon": "-8.405565694746269",
      "lat": "40.22985739279251"
    },
    {
      "id": "pt.ine.add.PTCONT.1227928",
      "street": "TV ACUDE",
      "house": "20",
      "postcode": "3020-483",
      "city": "COIMBRA",
      "lon": "-8.407065714428594",
      "lat": "40.228872217238305"
    },
    {
      "id": "pt.ine.add.PTCONT.1230835",
      "street": "R ACUDE",
      "house": "104",
      "postcode": "3020-489",
      "city": "COIMBRA",
      "lon": "-8.40769426373506",
      "lat": "40.230311659565125"
    },
    {
      "id": "pt.ine.add.PTCONT.1230837",
      "street": "TV RUA NOVA",
      "house": "",
      "postcode": "3020-496",
      "city": "COIMBRA",
      "lon": "-8.404782507502938",
      "lat": "40.22793198720547"
    },
    {
      "id": "pt.ine.add.PTCONT.1230838",
      "street": "TV RUA NOVA",
      "house": "",
      "postcode": "3020-496",
      "city": "COIMBRA",
      "lon": "-8.404782507502938",
      "lat": "40.22793198720547"
    },
    {
      "id": "pt.ine.add.PTCONT.1237251",
      "street": "TV ANDRADE DE GOUVEIA",
      "house": "8",
      "postcode": "3030-005",
      "city": "COIMBRA",
      "lon": "-8.403823134390514",
      "lat": "40.230966766257815"
    },
    {
      "id": "pt.ine.add.PTCONT.1248312",
      "street": "TV RUA NOVA",
      "house": "",
      "postcode": "3020-496",
      "city": "COIMBRA",
      "lon": "-8.404899822239566",
      "lat": "40.22788668265342"
    },
    {
      "id": "pt.ine.add.PTCONT.1249674",
      "street": "R ACUDE",
      "house": "106",
      "postcode": "3020-489",
      "city": "COIMBRA",
      "lon": "-8.40729389622185",
      "lat": "40.230096468953484"
    },
    {
      "id": "pt.ine.add.PTCONT.1251835",
      "street": "R QUINTA DA MAINCA",
      "house": "4",
      "postcode": "3020-246",
      "city": "COIMBRA",
      "lon": "-8.407962909174348",
      "lat": "40.229914765725894"
    },
    {
      "id": "pt.ine.add.PTCONT.1257001",
      "street": "R ACUDE",
      "house": "30",
      "postcode": "3020-489",
      "city": "COIMBRA",
      "lon": "-8.40773166075409",
      "lat": "40.227934033234376"
    },
    {
      "id": "pt.ine.add.PTCONT.1263149",
      "street": "TV ACUDE",
      "house": "16",
      "postcode": "3020-483",
      "city": "COIMBRA",
      "lon": "-8.407322862565046",
      "lat": "40.22853839277737"
    },
    {
      "id": "pt.ine.add.PTCONT.1265133",
      "street": "R ACUDE",
      "house": "24",
      "postcode": "3020-489",
      "city": "COIMBRA",
      "lon": "-8.407284345747174",
      "lat": "40.22772795969571"
    },
    {
      "id": "pt.ine.add.PTCONT.1265176",
      "street": "R ÁLVARO CORREIA",
      "house": "",
      "postcode": "3020-493",
      "city": "COIMBRA",
      "lon": "-8.40331009003006",
      "lat": "40.229952738705364"
    },
    {
      "id": "pt.ine.add.PTCONT.1269053",
      "street": "R ÁLVARO CORREIA",
      "house": "139",
      "postcode": "3020-493",
      "city": "COIMBRA",
      "lon": "-8.403952671218514",
      "lat": "40.229032642753815"
    },
    {
      "id": "pt.ine.add.PTCONT.1271039",
      "street": "TV RUA NOVA",
      "house": "35",
      "postcode": "3020-496",
      "city": "COIMBRA",
      "lon": "-8.404467104638401",
      "lat": "40.228392024220874"
    },
    {
      "id": "pt.ine.add.PTCONT.1273261",
      "street": "R QUINTA DA MAINCA",
      "house": "5",
      "postcode": "3020-246",
      "city": "COIMBRA",
      "lon": "-8.407797902465104",
      "lat": "40.229789075925396"
    },
    {
      "id": "pt.ine.add.PTCONT.1281242",
      "street": "R ÁLVARO CORREIA",
      "house": "165",
      "postcode": "3020-493",
      "city": "COIMBRA",
      "lon": "-8.403134414929013",
      "lat": "40.23009724185981"
    },
    {
      "id": "pt.ine.add.PTCONT.1282556",
      "street": "QTA DAS PREGUIÇOSAS",
      "house": "",
      "postcode": "3000-005",
      "city": "COIMBRA",
      "lon": "-8.404856551286615",
      "lat": "40.23175928837315"
    },
    {
      "id": "pt.ine.add.PTCONT.1285469",
      "street": "R PINHAL",
      "house": "",
      "postcode": "3020-492",
      "city": "COIMBRA",
      "lon": "-8.405278975762887",
      "lat": "40.225742404599465"
    },
    {
      "id": "pt.ine.add.PTCONT.1288616",
      "street": "R LUZEIRO",
      "house": "161",
      "postcode": "3020-261",
      "city": "COIMBRA",
      "lon": "-8.402864775829647",
      "lat": "40.230250969603425"
    },
    {
      "id": "pt.ine.add.PTCONT.1293697",
      "street": "TV ACUDE",
      "house": "8",
      "postcode": "3020-483",
      "city": "COIMBRA",
      "lon": "-8.407144586501762",
      "lat": "40.22803448876665"
    },
    {
      "id": "pt.ine.add.PTCONT.1295710",
      "street": "R ACUDE",
      "house": "26",
      "postcode": "3020-489",
      "city": "COIMBRA",
      "lon": "-8.407495944574617",
      "lat": "40.22775447574563"
    },
    {
      "id": "pt.ine.add.PTCONT.1299713",
      "street": "R NOVA",
      "house": "1",
      "postcode": "3020-495",
      "city": "COIMBRA",
      "lon": "-8.404453414479105",
      "lat": "40.22790574170203"
    },
    {
      "id": "pt.ine.add.PTCONT.1301487",
      "street": "TV RUA NOVA",
      "house": "37",
      "postcode": "3020-496",
      "city": "COIMBRA",
      "lon": "-8.404267146784836",
      "lat": "40.22833845788845"
    },
    {
      "id": "pt.ine.add.PTCONT.1308668",
      "street": "TV RUA NOVA",
      "house": "2",
      "postcode": "3020-496",
      "city": "COIMBRA",
      "lon": "-8.404607164356447",
      "lat": "40.228157544294746"
    },
    {
      "id": "pt.ine.add.PTCONT.1312845",
      "street": "R PINHAL",
      "house": "",
      "postcode": "3020-492",
      "city": "COIMBRA",
      "lon": "-8.405431281207619",
      "lat": "40.22563397640175"
    },
    {
      "id": "pt.ine.add.PTCONT.1319383",
      "street": "TV ACUDE",
      "house": "4",
      "postcode": "3020-483",
      "city": "COIMBRA",
      "lon": "-8.407649741710797",
      "lat": "40.22801528000685"
    },
    {
      "id": "pt.ine.add.PTCONT.1322273",
      "street": "R QUINTA DA MAINCA",
      "house": "",
      "postcode": "3020-246",
      "city": "COIMBRA",
      "lon": "-8.408104635366543",
      "lat": "40.230094545539316"
    },
    {
      "id": "pt.ine.add.PTCONT.1322357",
      "street": "TV RUA NOVA",
      "house": "39",
      "postcode": "3020-496",
      "city": "COIMBRA",
      "lon": "-8.404197116274133",
      "lat": "40.22845569766665"
    },
    {
      "id": "pt.ine.add.PTCONT.1327714",
      "street": "TV RUA NOVA",
      "house": "41",
      "postcode": "3020-496",
      "city": "COIMBRA",
      "lon": "-8.404126941945474",
      "lat": "40.22853691443465"
    },
    {
      "id": "pt.ine.add.PTCONT.1361445",
      "street": "TV ACUDE",
      "house": "25",
      "postcode": "3020-483",
      "city": "COIMBRA",
      "lon": "-8.407032315797506",
      "lat": "40.22933159332915"
    }
  ]
}