{
  "data": {
    "distrito": "Santarém",
    "concelho": "Santarém",
    "freguesia": "União das freguesias de Romeira e Várzea",
    "OBJECTID": 1291,
    "BGRI2021": "14163200310",
    "DT21": "14",
    "DTMN21": "1416",
    "DTMNFR21": "141632",
    "DTMNFRSEC21": "141632003",
    "SECNUM21": "003",
    "SSNUM21": "10",
    "SECSSNUM21": "00310",
    "OBJECTID_1": 154872,
    "DT": "14",
    "CC": "16",
    "fr": "32",
    "SEC": "003",
    "SS": "10"
  },
  "addresses": [
    {
      "id": "pt.ine.add.PTCONT.4392407",
      "street": "R PROF JOSE BATISTA",
      "house": "",
      "postcode": "2005-078",
      "city": "ROMEIRA",
      "lon": "-8.72243615227889",
      "lat": "39.30725254640927"
    },
    {
      "id": "pt.ine.add.PTCONT.4406806",
      "street": "CASAIS S BRAS",
      "house": "",
      "postcode": "2005-076",
      "city": "ROMEIRA",
      "lon": "-8.731638029615677",
      "lat": "39.30544920119138"
    },
    {
      "id": "pt.ine.add.PTCONT.4406807",
      "street": "R CIDADE DE SANTARÉM",
      "house": "24",
      "postcode": "2005-076",
      "city": "ROMEIRA",
      "lon": "-8.732086249251692",
      "lat": "39.30770769793075"
    },
    {
      "id": "pt.ine.add.PTCONT.4414552",
      "street": "R CIDADE DE SANTARÉM",
      "house": "10",
      "postcode": "2005-076",
      "city": "ROMEIRA",
      "lon": "-8.731837723366063",
      "lat": "39.30575441850851"
    },
    {
      "id": "pt.ine.add.PTCONT.4416771",
      "street": "R CIDADE DE SANTARÉM",
      "house": "",
      "postcode": "2005-079",
      "city": "ROMEIRA",
      "lon": "-8.733328992560233",
      "lat": "39.31610498742507"
    },
    {
      "id": "pt.ine.add.PTCONT.4418997",
      "street": "R CASAIS DA ESTRADA",
      "house": "6",
      "postcode": "2005-076",
      "city": "ROMEIRA",
      "lon": "-8.731706884051675",
      "lat": "39.30808795062434"
    },
    {
      "id": "pt.ine.add.PTCONT.4426272",
      "street": "R OUTEIRO DE CABANAS",
      "house": "",
      "postcode": "2005-079",
      "city": "ROMEIRA",
      "lon": "-8.732169035649683",
      "lat": "39.316056919467734"
    },
    {
      "id": "pt.ine.add.PTCONT.4427254",
      "street": "R CIDADE DE SANTARÉM",
      "house": "8",
      "postcode": "2005-076",
      "city": "ROMEIRA",
      "lon": "-8.731743059031354",
      "lat": "39.30552972579985"
    },
    {
      "id": "pt.ine.add.PTCONT.4436015",
      "street": "R CIDADE DE SANTARÉM",
      "house": "",
      "postcode": "2005-079",
      "city": "ROMEIRA",
      "lon": "-8.733290667582967",
      "lat": "39.31569085545954"
    },
    {
      "id": "pt.ine.add.PTCONT.4457422",
      "street": "R VALE DA MURTA",
      "house": "",
      "postcode": "2005-076",
      "city": "ROMEIRA",
      "lon": "-8.7297368701065",
      "lat": "39.31093532371161"
    },
    {
      "id": "pt.ine.add.PTCONT.4462361",
      "street": "EN 362",
      "house": "",
      "postcode": "2005-079",
      "city": "ROMEIRA",
      "lon": "-8.732109365943108",
      "lat": "39.31313890446125"
    },
    {
      "id": "pt.ine.add.PTCONT.4464417",
      "street": "R CIDADE DE SANTARÉM",
      "house": "30",
      "postcode": "2005-076",
      "city": "ROMEIRA",
      "lon": "-8.731940675928138",
      "lat": "39.30831192768677"
    },
    {
      "id": "pt.ine.add.PTCONT.4465770",
      "street": "R CIDADE SANTARÉM",
      "house": "28",
      "postcode": "2005-076",
      "city": "ROMEIRA",
      "lon": "-8.732055153873754",
      "lat": "39.30814020241602"
    },
    {
      "id": "pt.ine.add.PTCONT.4477387",
      "street": "R PROF JOSE BATISTA",
      "house": "",
      "postcode": "2005-078",
      "city": "ROMEIRA",
      "lon": "-8.722353827800633",
      "lat": "39.308495954007746"
    },
    {
      "id": "pt.ine.add.PTCONT.4492337",
      "street": "R OUTEIRO DE CABANAS",
      "house": "",
      "postcode": "2005-079",
      "city": "ROMEIRA",
      "lon": "-8.73077863732286",
      "lat": "39.31618115942978"
    },
    {
      "id": "pt.ine.add.PTCONT.4502056",
      "street": "R CASAIS DA ESTRADA",
      "house": "25",
      "postcode": "2005-076",
      "city": "ROMEIRA",
      "lon": "-8.731369518149702",
      "lat": "39.30795457715978"
    },
    {
      "id": "pt.ine.add.PTCONT.4504052",
      "street": "R PROF JOSE BATISTA",
      "house": "",
      "postcode": "2005-078",
      "city": "ROMEIRA",
      "lon": "-8.726530747333044",
      "lat": "39.312969317688314"
    },
    {
      "id": "pt.ine.add.PTCONT.4506520",
      "street": "R CIDADE DE SANTARÉM",
      "house": "20",
      "postcode": "2005-076",
      "city": "ROMEIRA",
      "lon": "-8.732092698429692",
      "lat": "39.30710418383055"
    },
    {
      "id": "pt.ine.add.PTCONT.4512480",
      "street": "R CIDADE DE SANTARÉM",
      "house": "18",
      "postcode": "2005-076",
      "city": "ROMEIRA",
      "lon": "-8.731950659747358",
      "lat": "39.30676264176107"
    },
    {
      "id": "pt.ine.add.PTCONT.4518479",
      "street": "R VALE DA MURTA CASAL MIGUEL CLEMENTE",
      "house": "",
      "postcode": "2005-076",
      "city": "ROMEIRA",
      "lon": "-8.730948482692773",
      "lat": "39.311613652965654"
    },
    {
      "id": "pt.ine.add.PTCONT.4520628",
      "street": "EN 362",
      "house": "",
      "postcode": "2005-079",
      "city": "ROMEIRA",
      "lon": "-8.732585826972576",
      "lat": "39.31462263455143"
    },
    {
      "id": "pt.ine.add.PTCONT.4520629",
      "street": "R CASAIS DA ESTRADA",
      "house": "37",
      "postcode": "2005-076",
      "city": "ROMEIRA",
      "lon": "-8.730925665426296",
      "lat": "39.307569548603496"
    },
    {
      "id": "pt.ine.add.PTCONT.4526993",
      "street": "BC CASAIS",
      "house": "",
      "postcode": "2005-076",
      "city": "ROMEIRA",
      "lon": "-8.731298192776178",
      "lat": "39.307747778592976"
    },
    {
      "id": "pt.ine.add.PTCONT.4528652",
      "street": "EN 365 SN",
      "house": "SN",
      "postcode": "2005-076",
      "city": "ROMEIRA",
      "lon": "-8.732738787919054",
      "lat": "39.31488305458508"
    },
    {
      "id": "pt.ine.add.PTCONT.4536862",
      "street": "R PROF JOSE BATISTA",
      "house": "",
      "postcode": "2005-078",
      "city": "ROMEIRA",
      "lon": "-8.722108698447279",
      "lat": "39.308299036522605"
    },
    {
      "id": "pt.ine.add.PTCONT.4536904",
      "street": "R CIDADE DE SANTARÉM",
      "house": "20C",
      "postcode": "2005-076",
      "city": "ROMEIRA",
      "lon": "-8.731990506651229",
      "lat": "39.307356910564046"
    },
    {
      "id": "pt.ine.add.PTCONT.4542950",
      "street": "R CASAIS DA ESTRADA",
      "house": "15",
      "postcode": "2005-076",
      "city": "ROMEIRA",
      "lon": "-8.73160307834697",
      "lat": "39.308151534569184"
    },
    {
      "id": "pt.ine.add.PTCONT.4549011",
      "street": "R PROF JOSE BATISTA",
      "house": "",
      "postcode": "2005-078",
      "city": "ROMEIRA",
      "lon": "-8.723333509540089",
      "lat": "39.31056264203904"
    },
    {
      "id": "pt.ine.add.PTCONT.4557568",
      "street": "BC S JOÃO",
      "house": "",
      "postcode": "2005-076",
      "city": "ROMEIRA",
      "lon": "-8.731868043671785",
      "lat": "39.307952014200254"
    },
    {
      "id": "pt.ine.add.PTCONT.4561687",
      "street": "R PROF JOSE BATISTA",
      "house": "",
      "postcode": "2005-078",
      "city": "ROMEIRA",
      "lon": "-8.722284417714224",
      "lat": "39.305749114944476"
    },
    {
      "id": "pt.ine.add.PTCONT.4565934",
      "street": "VINHAS DE TRAS TERRAS DE CRUZ",
      "house": "",
      "postcode": "2005-076",
      "city": "ROMEIRA",
      "lon": "-8.729374168215122",
      "lat": "39.306451607954315"
    },
    {
      "id": "pt.ine.add.PTCONT.4567974",
      "street": "EN 362",
      "house": "",
      "postcode": "2005-079",
      "city": "ROMEIRA",
      "lon": "-8.733435887456892",
      "lat": "39.31640167262694"
    },
    {
      "id": "pt.ine.add.PTCONT.4572252",
      "street": "R CASAIS DA ESTRADA",
      "house": "9",
      "postcode": "2005-076",
      "city": "ROMEIRA",
      "lon": "-8.731789267439435",
      "lat": "39.308231641822125"
    },
    {
      "id": "pt.ine.add.PTCONT.4576065",
      "street": "R PROF JOSE BATISTA",
      "house": "",
      "postcode": "2005-078",
      "city": "ROMEIRA",
      "lon": "-8.72240386452453",
      "lat": "39.30754994682564"
    },
    {
      "id": "pt.ine.add.PTCONT.4586763",
      "street": "R CASAIS DA ESTRADA",
      "house": "27",
      "postcode": "2005-076",
      "city": "ROMEIRA",
      "lon": "-8.73126463885137",
      "lat": "39.30789206583927"
    },
    {
      "id": "pt.ine.add.PTCONT.4593537",
      "street": "R CASAIS DA ESTRADA",
      "house": "29",
      "postcode": "2005-076",
      "city": "ROMEIRA",
      "lon": "-8.731428099821605",
      "lat": "39.308026333515095"
    },
    {
      "id": "pt.ine.add.PTCONT.4628870",
      "street": "R CIDADE DE SANTARÉM",
      "house": "2A",
      "postcode": "2005-076",
      "city": "ROMEIRA",
      "lon": "-8.732095846475335",
      "lat": "39.30747346193413"
    },
    {
      "id": "pt.ine.add.PTCONT.4637442",
      "street": "R OUTEIRO DE CABANAS",
      "house": "",
      "postcode": "2005-079",
      "city": "ROMEIRA",
      "lon": "-8.729376027208076",
      "lat": "39.31623338802274"
    },
    {
      "id": "pt.ine.add.PTCONT.4645657",
      "street": "R CASAIS DA ESTRADA",
      "house": "18 20",
      "postcode": "2005-076",
      "city": "ROMEIRA",
      "lon": "-8.730970583520191",
      "lat": "39.3073981815508"
    },
    {
      "id": "pt.ine.add.PTCONT.4655077",
      "street": "R CASAIS DA ESTRADA",
      "house": "31",
      "postcode": "2005-076",
      "city": "ROMEIRA",
      "lon": "-8.731089508266502",
      "lat": "39.3077488506934"
    },
    {
      "id": "pt.ine.add.PTCONT.4659146",
      "street": "R CIDADE SANTAREM SN",
      "house": "SN",
      "postcode": "2005-079",
      "city": "ROMEIRA",
      "lon": "-8.732836698149256",
      "lat": "39.315486030315625"
    },
    {
      "id": "pt.ine.add.PTCONT.4661711",
      "street": "R CIDADE DE SANTARÉM",
      "house": "14",
      "postcode": "2005-076",
      "city": "ROMEIRA",
      "lon": "-8.731873731114709",
      "lat": "39.30589834820547"
    },
    {
      "id": "pt.ine.add.PTCONT.4662145",
      "street": "R CIDADE DE SANTARÉM",
      "house": "",
      "postcode": "2005-079",
      "city": "ROMEIRA",
      "lon": "-8.732891519293768",
      "lat": "39.31511645408879"
    }
  ]
}