{
  "data": {
    "distrito": "Santarém",
    "concelho": "Alcanena",
    "freguesia": "Minde",
    "OBJECTID": 510,
    "BGRI2021": "14020600332",
    "DT21": "14",
    "DTMN21": "1402",
    "DTMNFR21": "140206",
    "DTMNFRSEC21": "140206003",
    "SECNUM21": "003",
    "SSNUM21": "32",
    "SECSSNUM21": "00332",
    "OBJECTID_1": 147628,
    "DT": "14",
    "CC": "02",
    "fr": "06",
    "SEC": "003",
    "SS": "32"
  },
  "addresses": [
    {
      "id": "pt.ine.add.PTCONT.4399708",
      "street": "AV JOAQUIM DA SILVA RAPOSO",
      "house": "327",
      "postcode": "2395-105",
      "city": "MINDE",
      "lon": "-8.681768857549793",
      "lat": "39.52410633561259"
    },
    {
      "id": "pt.ine.add.PTCONT.4415743",
      "street": "R NSA SRA DE FÁTIMA",
      "house": "342",
      "postcode": "2395-103",
      "city": "MINDE",
      "lon": "-8.684767591170775",
      "lat": "39.52240786067196"
    },
    {
      "id": "pt.ine.add.PTCONT.4429339",
      "street": "R ACADEMIA RECREATIVA MINDENSE",
      "house": "45",
      "postcode": "2395-145",
      "city": "MINDE",
      "lon": "-8.68441577122256",
      "lat": "39.523508366779716"
    },
    {
      "id": "pt.ine.add.PTCONT.4444943",
      "street": "R ALECRIM",
      "house": "71",
      "postcode": "2395-166",
      "city": "MINDE",
      "lon": "-8.683398462556939",
      "lat": "39.52281065174789"
    },
    {
      "id": "pt.ine.add.PTCONT.4444966",
      "street": "R ACADEMIA RECREATIVA MINDENSE",
      "house": "",
      "postcode": "2395-145",
      "city": "MINDE",
      "lon": "-8.68439044714477",
      "lat": "39.52324728791784"
    },
    {
      "id": "pt.ine.add.PTCONT.4444967",
      "street": "R ACADEMIA RECREATIVA MINDENSE",
      "house": "24",
      "postcode": "2395-145",
      "city": "MINDE",
      "lon": "-8.68439044714477",
      "lat": "39.52324728791784"
    },
    {
      "id": "pt.ine.add.PTCONT.4480168",
      "street": "R NSA SRA DE FÁTIMA",
      "house": "392",
      "postcode": "2395-103",
      "city": "MINDE",
      "lon": "-8.684748251648161",
      "lat": "39.52290332983732"
    },
    {
      "id": "pt.ine.add.PTCONT.4481738",
      "street": "R SERRA DE AIRE",
      "house": "580",
      "postcode": "2395-206",
      "city": "MINDE",
      "lon": "-8.685303754081996",
      "lat": "39.52109031308961"
    },
    {
      "id": "pt.ine.add.PTCONT.4484655",
      "street": "R ACADEMIA RECREATIVA MINDENSE",
      "house": "59",
      "postcode": "2395-145",
      "city": "MINDE",
      "lon": "-8.684241471523432",
      "lat": "39.52352720698844"
    },
    {
      "id": "pt.ine.add.PTCONT.4484656",
      "street": "R ACADEMIA RECREATIVA MINDENSE",
      "house": "59",
      "postcode": "2395-145",
      "city": "MINDE",
      "lon": "-8.684241471523432",
      "lat": "39.52352720698844"
    },
    {
      "id": "pt.ine.add.PTCONT.4486434",
      "street": "R ACADEMIA RECREATIVA MINDENSE",
      "house": "59",
      "postcode": "2395-145",
      "city": "MINDE",
      "lon": "-8.684241471523432",
      "lat": "39.52352720698844"
    },
    {
      "id": "pt.ine.add.PTCONT.4495291",
      "street": "R NSA SRA DE FÁTIMA",
      "house": "214",
      "postcode": "2395-103",
      "city": "MINDE",
      "lon": "-8.685177688336571",
      "lat": "39.52132509030081"
    },
    {
      "id": "pt.ine.add.PTCONT.4504799",
      "street": "R ACADEMIA RECREATIVA MINDENSE",
      "house": "116",
      "postcode": "2395-145",
      "city": "MINDE",
      "lon": "-8.683532144558454",
      "lat": "39.52353957461358"
    },
    {
      "id": "pt.ine.add.PTCONT.4511335",
      "street": "R FETEIRAS",
      "house": "84",
      "postcode": "2395-179",
      "city": "MINDE",
      "lon": "-8.683702354115445",
      "lat": "39.52447548198941"
    },
    {
      "id": "pt.ine.add.PTCONT.4511336",
      "street": "R NSA SRA DE FÁTIMA",
      "house": "350",
      "postcode": "2395-103",
      "city": "MINDE",
      "lon": "-8.684861765790613",
      "lat": "39.52255152351809"
    },
    {
      "id": "pt.ine.add.PTCONT.4514712",
      "street": "R CARITAS",
      "house": "80",
      "postcode": "2395-155",
      "city": "MINDE",
      "lon": "-8.68417862600531",
      "lat": "39.522933052100946"
    },
    {
      "id": "pt.ine.add.PTCONT.4514713",
      "street": "R CARITAS",
      "house": "80",
      "postcode": "2395-155",
      "city": "MINDE",
      "lon": "-8.68417862600531",
      "lat": "39.522933052100946"
    },
    {
      "id": "pt.ine.add.PTCONT.4519986",
      "street": "BR DEPOSITO",
      "house": "62",
      "postcode": "2395-113",
      "city": "MINDE",
      "lon": "-8.684235562655488",
      "lat": "39.52277966553596"
    },
    {
      "id": "pt.ine.add.PTCONT.4519987",
      "street": "R CARITAS",
      "house": "46",
      "postcode": "2395-155",
      "city": "MINDE",
      "lon": "-8.684235562655488",
      "lat": "39.52277966553596"
    },
    {
      "id": "pt.ine.add.PTCONT.4533248",
      "street": "R NSA SRA DE FÁTIMA",
      "house": "332",
      "postcode": "2395-103",
      "city": "MINDE",
      "lon": "-8.684941816643772",
      "lat": "39.52238001316767"
    },
    {
      "id": "pt.ine.add.PTCONT.4536153",
      "street": "R ALECRIM",
      "house": "53",
      "postcode": "2395-166",
      "city": "MINDE",
      "lon": "-8.683304219512875",
      "lat": "39.52265798117838"
    },
    {
      "id": "pt.ine.add.PTCONT.4545460",
      "street": "R ALECRIM",
      "house": "",
      "postcode": "2395-166",
      "city": "MINDE",
      "lon": "-8.683370939170874",
      "lat": "39.522270370299026"
    },
    {
      "id": "pt.ine.add.PTCONT.4560917",
      "street": "R ACADEMIA RECREATIVA MINDENSE",
      "house": "74",
      "postcode": "2395-145",
      "city": "MINDE",
      "lon": "-8.683949809613843",
      "lat": "39.5234115002073"
    },
    {
      "id": "pt.ine.add.PTCONT.4569293",
      "street": "R NSA SRA DE FÁTIMA",
      "house": "490",
      "postcode": "2395-103",
      "city": "MINDE",
      "lon": "-8.684603908715593",
      "lat": "39.52376867332852"
    },
    {
      "id": "pt.ine.add.PTCONT.4569294",
      "street": "R NSA SRA DE FÁTIMA",
      "house": "490",
      "postcode": "2395-103",
      "city": "MINDE",
      "lon": "-8.684603908715593",
      "lat": "39.52376867332852"
    },
    {
      "id": "pt.ine.add.PTCONT.4571423",
      "street": "R CAP SALGUEIRO MAIA",
      "house": "75",
      "postcode": "2395-142",
      "city": "MINDE",
      "lon": "-8.683671877805248",
      "lat": "39.52208880816691"
    },
    {
      "id": "pt.ine.add.PTCONT.4585869",
      "street": "R ACADEMIA RECREATIVA MINDENSE",
      "house": "84",
      "postcode": "2395-145",
      "city": "MINDE",
      "lon": "-8.683833799602706",
      "lat": "39.523448077305865"
    },
    {
      "id": "pt.ine.add.PTCONT.4612941",
      "street": "R FETEIRAS",
      "house": "4",
      "postcode": "2395-179",
      "city": "MINDE",
      "lon": "-8.68409939874214",
      "lat": "39.52468075850148"
    },
    {
      "id": "pt.ine.add.PTCONT.4612942",
      "street": "R FETEIRAS",
      "house": "45",
      "postcode": "2395-179",
      "city": "MINDE",
      "lon": "-8.68409939874214",
      "lat": "39.52468075850148"
    },
    {
      "id": "pt.ine.add.PTCONT.4626652",
      "street": "R NSA SRA DE FÁTIMA",
      "house": "326",
      "postcode": "2395-103",
      "city": "MINDE",
      "lon": "-8.684847998433627",
      "lat": "39.52228138300163"
    },
    {
      "id": "pt.ine.add.PTCONT.4633780",
      "street": "R NSA SRA DE FÁTIMA",
      "house": "462",
      "postcode": "2395-103",
      "city": "MINDE",
      "lon": "-8.684683890317812",
      "lat": "39.523588156655116"
    },
    {
      "id": "pt.ine.add.PTCONT.4637772",
      "street": "R NSA SRA DE FÁTIMA",
      "house": "294",
      "postcode": "2395-103",
      "city": "MINDE",
      "lon": "-8.685067100800847",
      "lat": "39.52204616447284"
    },
    {
      "id": "pt.ine.add.PTCONT.4639302",
      "street": "R ACADEMIA RECREATIVA MINDENSE",
      "house": "61",
      "postcode": "2395-145",
      "city": "MINDE",
      "lon": "-8.683928542955723",
      "lat": "39.523663793072515"
    },
    {
      "id": "pt.ine.add.PTCONT.4647259",
      "street": "R SERRA DE AIRE",
      "house": "15",
      "postcode": "2395-206",
      "city": "MINDE",
      "lon": "-8.684550998630511",
      "lat": "39.521490188305165"
    },
    {
      "id": "pt.ine.add.PTCONT.4651001",
      "street": "R NSA SRA DE FÁTIMA",
      "house": "516",
      "postcode": "2395-103",
      "city": "MINDE",
      "lon": "-8.684593917692872",
      "lat": "39.52397587850297"
    },
    {
      "id": "pt.ine.add.PTCONT.4654249",
      "street": "R CARITAS",
      "house": "96",
      "postcode": "2395-155",
      "city": "MINDE",
      "lon": "-8.684121546756456",
      "lat": "39.52306842558813"
    },
    {
      "id": "pt.ine.add.PTCONT.4658161",
      "street": "R ACADEMIA RECREATIVA MINDENSE",
      "house": "64",
      "postcode": "2395-145",
      "city": "MINDE",
      "lon": "-8.684089078402991",
      "lat": "39.523374812755776"
    },
    {
      "id": "pt.ine.add.PTCONT.4658431",
      "street": "R ACADEMIA RECREATIVA MINDENSE",
      "house": "59",
      "postcode": "2395-145",
      "city": "MINDE",
      "lon": "-8.684241471523432",
      "lat": "39.52352720698844"
    },
    {
      "id": "pt.ine.add.PTCONT.4659649",
      "street": "R NSA SRA DE FÁTIMA",
      "house": "342",
      "postcode": "2395-103",
      "city": "MINDE",
      "lon": "-8.684907427724912",
      "lat": "39.522443224440764"
    },
    {
      "id": "pt.ine.add.PTCONT.4660242",
      "street": "AV JOAQUIM DA SILVA RAPOSO",
      "house": "377",
      "postcode": "2395-105",
      "city": "MINDE",
      "lon": "-8.68179551886399",
      "lat": "39.52453853905205"
    }
  ]
}