{
  "data": {
    "ilha": "Ilha Terceira (Açores)",
    "concelho": "Angra do Heroísmo",
    "freguesia": "Angra (São Pedro)",
    "OBJECTID": 44,
    "BGRI2021": "43010400111",
    "DT21": "43",
    "DTMN21": "4301",
    "DTMNFR21": "430104",
    "DTMNFRSEC21": "430104001",
    "SECNUM21": "001",
    "SSNUM21": "11",
    "SECSSNUM21": "00111",
    "OBJECTID_1": 208240,
    "DT": "43",
    "CC": "01",
    "fr": "04",
    "SEC": "001",
    "SS": "11",
    "BGRI2021_1": "43010400111"
  },
  "addresses": [
    {
      "id": "pt.ine.add.AC26.3086",
      "street": "R S PEDRO",
      "house": "113",
      "postcode": "9700-187",
      "city": "ANGRA DO HEROÍSMO",
      "lon": "-27.22817503511096",
      "lat": "38.65745676687172"
    },
    {
      "id": "pt.ine.add.AC26.3087",
      "street": "TV S PEDRO",
      "house": "31",
      "postcode": "9700-188",
      "city": "ANGRA DO HEROÍSMO",
      "lon": "-27.22824350776943",
      "lat": "38.65730343147578"
    },
    {
      "id": "pt.ine.add.AC26.3088",
      "street": "TV S PEDRO",
      "house": "29",
      "postcode": "9700-188",
      "city": "ANGRA DO HEROÍSMO",
      "lon": "-27.228266350992637",
      "lat": "38.6572583275447"
    },
    {
      "id": "pt.ine.add.AC26.3089",
      "street": "TV S PEDRO",
      "house": "25",
      "postcode": "9700-188",
      "city": "ANGRA DO HEROÍSMO",
      "lon": "-27.228289051161205",
      "lat": "38.65716816452969"
    },
    {
      "id": "pt.ine.add.AC26.3090",
      "street": "R MEIO DE S PEDRO",
      "house": "22B",
      "postcode": "9700-120",
      "city": "ANGRA DO HEROÍSMO",
      "lon": "-27.228380852846545",
      "lat": "38.6571229259781"
    },
    {
      "id": "pt.ine.add.AC26.3091",
      "street": "R MEIO DE S PEDRO",
      "house": "24",
      "postcode": "9700-120",
      "city": "ANGRA DO HEROÍSMO",
      "lon": "-27.228438375538303",
      "lat": "38.65714083740301"
    },
    {
      "id": "pt.ine.add.AC26.3092",
      "street": "R MEIO DE S PEDRO",
      "house": "28",
      "postcode": "9700-120",
      "city": "ANGRA DO HEROÍSMO",
      "lon": "-27.228553277815962",
      "lat": "38.65713160108894"
    },
    {
      "id": "pt.ine.add.AC26.3093",
      "street": "TV FANAL",
      "house": "38",
      "postcode": "9700-076",
      "city": "ANGRA DO HEROÍSMO",
      "lon": "-27.228691739353717",
      "lat": "38.657302556037415"
    },
    {
      "id": "pt.ine.add.AC26.49822",
      "street": "TV S PEDRO",
      "house": "23",
      "postcode": "9700-188",
      "city": "ANGRA DO HEROÍSMO",
      "lon": "-27.22830040122434",
      "lat": "38.65712308302011"
    },
    {
      "id": "pt.ine.add.AC26.51413",
      "street": "TV S PEDRO",
      "house": "27",
      "postcode": "9700-188",
      "city": "ANGRA DO HEROÍSMO",
      "lon": "-27.228289194187315",
      "lat": "38.65721322360892"
    },
    {
      "id": "pt.ine.add.AC26.66280",
      "street": "TV S PEDRO",
      "house": "31A",
      "postcode": "9700-188",
      "city": "ANGRA DO HEROÍSMO",
      "lon": "-27.228220721711317",
      "lat": "38.6573665590334"
    },
    {
      "id": "pt.ine.add.AC26.71210",
      "street": "TV S PEDRO",
      "house": "33",
      "postcode": "9700-188",
      "city": "ANGRA DO HEROÍSMO",
      "lon": "-27.228174892155128",
      "lat": "38.657411707794026"
    },
    {
      "id": "pt.ine.add.AC26.73913",
      "street": "TV FANAL",
      "house": "36",
      "postcode": "9700-076",
      "city": "ANGRA DO HEROÍSMO",
      "lon": "-27.22874894697368",
      "lat": "38.657221337338534"
    },
    {
      "id": "pt.ine.add.AC26.84491",
      "street": "R MEIO DE S PEDRO",
      "house": "26",
      "postcode": "9700-120",
      "city": "ANGRA DO HEROÍSMO",
      "lon": "-27.22848429064558",
      "lat": "38.65712272398563"
    },
    {
      "id": "pt.ine.add.AC26.87999",
      "street": "R S PEDRO",
      "house": "",
      "postcode": "9700-187",
      "city": "ANGRA DO HEROÍSMO",
      "lon": "-27.228267008852114",
      "lat": "38.65746559930329"
    },
    {
      "id": "pt.ine.add.AC26.101308",
      "street": "R MEIO DE S PEDRO",
      "house": "30",
      "postcode": "9700-120",
      "city": "ANGRA DO HEROÍSMO",
      "lon": "-27.22869122355164",
      "lat": "38.657140343357696"
    },
    {
      "id": "pt.ine.add.AC26.101705",
      "street": "R S PEDRO",
      "house": "115",
      "postcode": "9700-187",
      "city": "ANGRA DO HEROÍSMO",
      "lon": "-27.228359011229774",
      "lat": "38.657483443477815"
    },
    {
      "id": "pt.ine.add.AC26.104228",
      "street": "TV FANAL",
      "house": "36",
      "postcode": "9700-076",
      "city": "ANGRA DO HEROÍSMO",
      "lon": "-27.22874894697368",
      "lat": "38.657221337338534"
    }
  ]
}