{
  "data": {
    "distrito": "Santar√©m",
    "concelho": "Abrantes",
    "freguesia": "Rio de Moinhos",
    "OBJECTID": 1068,
    "BGRI2021": "14010800119",
    "DT21": "14",
    "DTMN21": "1401",
    "DTMNFR21": "140108",
    "DTMNFRSEC21": "140108001",
    "SECNUM21": "001",
    "SSNUM21": "19",
    "SECSSNUM21": "00119",
    "OBJECTID_1": 146967,
    "DT": "14",
    "CC": "01",
    "fr": "08",
    "SEC": "001",
    "SS": "19"
  },
  "addresses": [
    {
      "id": "pt.ine.add.PTCONT.4395799",
      "street": "R LAGAR",
      "house": "6",
      "postcode": "2200-794",
      "city": "RIO DE MOINHOS ABT",
      "lon": "-8.237361281497428",
      "lat": "39.47784257097192"
    },
    {
      "id": "pt.ine.add.PTCONT.4397927",
      "street": "R MORGADOS",
      "house": "",
      "postcode": "2200-803",
      "city": "RIO DE MOINHOS ABT",
      "lon": "-8.238359734179339",
      "lat": "39.47713011782977"
    },
    {
      "id": "pt.ine.add.PTCONT.4420485",
      "street": "R COMBATENTES DA GRANDE GUERRA",
      "house": "",
      "postcode": "2200-795",
      "city": "RIO DE MOINHOS ABT",
      "lon": "-8.242646061198597",
      "lat": "39.47566702356465"
    },
    {
      "id": "pt.ine.add.PTCONT.4435837",
      "street": "R MORGADAS",
      "house": "3",
      "postcode": "2200-802",
      "city": "RIO DE MOINHOS ABT",
      "lon": "-8.242622986631101",
      "lat": "39.475775129437906"
    },
    {
      "id": "pt.ine.add.PTCONT.4435838",
      "street": "TV MORGADAS",
      "house": "3",
      "postcode": "2200-802",
      "city": "RIO DE MOINHOS ABT",
      "lon": "-8.242622986631101",
      "lat": "39.475775129437906"
    },
    {
      "id": "pt.ine.add.PTCONT.4441674",
      "street": "R DIREITA",
      "house": "88",
      "postcode": "2200-790",
      "city": "RIO DE MOINHOS ABT",
      "lon": "-8.238465503083193",
      "lat": "39.477904624838004"
    },
    {
      "id": "pt.ine.add.PTCONT.4445195",
      "street": "R CALDEIRAS",
      "house": "",
      "postcode": "2200-788",
      "city": "RIO DE MOINHOS ABT",
      "lon": "-8.237710357729428",
      "lat": "39.47811246775036"
    },
    {
      "id": "pt.ine.add.PTCONT.4449336",
      "street": "R MORGADOS",
      "house": "",
      "postcode": "2200-803",
      "city": "RIO DE MOINHOS ABT",
      "lon": "-8.238069367052704",
      "lat": "39.47725647841324"
    },
    {
      "id": "pt.ine.add.PTCONT.4463868",
      "street": "R DIREITA",
      "house": "20",
      "postcode": "2200-790",
      "city": "RIO DE MOINHOS ABT",
      "lon": "-8.24263480640976",
      "lat": "39.47590121646737"
    },
    {
      "id": "pt.ine.add.PTCONT.4463869",
      "street": "R DIREITA",
      "house": "20",
      "postcode": "2200-790",
      "city": "RIO DE MOINHOS ABT",
      "lon": "-8.24263480640976",
      "lat": "39.47590121646737"
    },
    {
      "id": "pt.ine.add.PTCONT.4463870",
      "street": "R DIREITA",
      "house": "",
      "postcode": "2200-790",
      "city": "RIO DE MOINHOS ABT",
      "lon": "-8.242716076014627",
      "lat": "39.47584709782622"
    },
    {
      "id": "pt.ine.add.PTCONT.4463877",
      "street": "R CALDEIRAS",
      "house": "2",
      "postcode": "2200-788",
      "city": "RIO DE MOINHOS ABT",
      "lon": "-8.238116993769596",
      "lat": "39.478013024171034"
    },
    {
      "id": "pt.ine.add.PTCONT.4476346",
      "street": "R LAGAR",
      "house": "8",
      "postcode": "2200-794",
      "city": "RIO DE MOINHOS ABT",
      "lon": "-8.237140483029924",
      "lat": "39.47786078272891"
    },
    {
      "id": "pt.ine.add.PTCONT.4493351",
      "street": "R DIREITA",
      "house": "90",
      "postcode": "2200-790",
      "city": "RIO DE MOINHOS ABT",
      "lon": "-8.238174780626363",
      "lat": "39.47779680376857"
    },
    {
      "id": "pt.ine.add.PTCONT.4495529",
      "street": "R RIBEIRA ABERTA",
      "house": "",
      "postcode": "2200-794",
      "city": "RIO DE MOINHOS ABT",
      "lon": "-8.239333785193669",
      "lat": "39.47567009638304"
    },
    {
      "id": "pt.ine.add.PTCONT.4500344",
      "street": "R MORGADAS",
      "house": "",
      "postcode": "2200-802",
      "city": "RIO DE MOINHOS ABT",
      "lon": "-8.24226271752101",
      "lat": "39.475784475174876"
    },
    {
      "id": "pt.ine.add.PTCONT.4524805",
      "street": "R MORGADAS",
      "house": "7",
      "postcode": "2200-802",
      "city": "RIO DE MOINHOS ABT",
      "lon": "-8.24236744268812",
      "lat": "39.47586543993129"
    },
    {
      "id": "pt.ine.add.PTCONT.4531432",
      "street": "R COMBATENTES DA GRANDE GUERRA",
      "house": "",
      "postcode": "2200-795",
      "city": "RIO DE MOINHOS ABT",
      "lon": "-8.242587682852887",
      "lat": "39.47549594531272"
    },
    {
      "id": "pt.ine.add.PTCONT.4546223",
      "street": "R LAGAR",
      "house": "",
      "postcode": "2200-794",
      "city": "RIO DE MOINHOS ABT",
      "lon": "-8.236070652385735",
      "lat": "39.47747443350661"
    },
    {
      "id": "pt.ine.add.PTCONT.4590370",
      "street": "R DIREITA",
      "house": "",
      "postcode": "2200-790",
      "city": "RIO DE MOINHOS ABT",
      "lon": "-8.238825647322976",
      "lat": "39.47780522089083"
    },
    {
      "id": "pt.ine.add.PTCONT.4608426",
      "street": "R DIREITA",
      "house": "90",
      "postcode": "2200-790",
      "city": "RIO DE MOINHOS ABT",
      "lon": "-8.23823316366122",
      "lat": "39.47797689117614"
    },
    {
      "id": "pt.ine.add.PTCONT.4613163",
      "street": "R DIREITA",
      "house": "",
      "postcode": "2200-790",
      "city": "RIO DE MOINHOS ABT",
      "lon": "-8.242228484639949",
      "lat": "39.4761898228119"
    },
    {
      "id": "pt.ine.add.PTCONT.4621656",
      "street": "R FONTE DAS DUAS BICAS SANTA HELENA",
      "house": "",
      "postcode": "2200-803",
      "city": "RIO DE MOINHOS ABT",
      "lon": "-8.242100458736344",
      "lat": "39.4760728517315"
    },
    {
      "id": "pt.ine.add.PTCONT.4629775",
      "street": "R MORGADAS",
      "house": "6",
      "postcode": "2200-802",
      "city": "RIO DE MOINHOS ABT",
      "lon": "-8.242193140022698",
      "lat": "39.47588361759023"
    },
    {
      "id": "pt.ine.add.PTCONT.4629776",
      "street": "R MORGADAS",
      "house": "6",
      "postcode": "2200-802",
      "city": "RIO DE MOINHOS ABT",
      "lon": "-8.242193140022698",
      "lat": "39.47588361759023"
    },
    {
      "id": "pt.ine.add.PTCONT.4636030",
      "street": "R MORGADOS",
      "house": "",
      "postcode": "2200-803",
      "city": "RIO DE MOINHOS ABT",
      "lon": "-8.238208739609576",
      "lat": "39.477193303464546"
    },
    {
      "id": "pt.ine.add.PTCONT.4644273",
      "street": "R FONTE DAS DUAS BICAS",
      "house": "2",
      "postcode": "2200-803",
      "city": "RIO DE MOINHOS ABT",
      "lon": "-8.242147059580457",
      "lat": "39.476144864134184"
    },
    {
      "id": "pt.ine.add.PTCONT.4646911",
      "street": "R MORGADAS",
      "house": "",
      "postcode": "2200-802",
      "city": "RIO DE MOINHOS ABT",
      "lon": "-8.242448754760018",
      "lat": "39.47583834247131"
    },
    {
      "id": "pt.ine.add.PTCONT.4648281",
      "street": "R DIREITA",
      "house": "",
      "postcode": "2200-790",
      "city": "RIO DE MOINHOS ABT",
      "lon": "-8.242541900498313",
      "lat": "39.47594633899089"
    },
    {
      "id": "pt.ine.add.PTCONT.4653902",
      "street": "R DIREITA",
      "house": "26",
      "postcode": "2200-790",
      "city": "RIO DE MOINHOS ABT",
      "lon": "-8.242391053211351",
      "lat": "39.47609960003976"
    }
  ]
}