{
  "data": {
    "distrito": "Braga",
    "concelho": "Braga",
    "freguesia": "Sequeira",
    "OBJECTID": 1486,
    "BGRI2021": "03035400101",
    "DT21": "03",
    "DTMN21": "0303",
    "DTMNFR21": "030354",
    "DTMNFRSEC21": "030354001",
    "SECNUM21": "001",
    "SSNUM21": "01",
    "SECSSNUM21": "00101",
    "OBJECTID_1": 22556,
    "DT": "03",
    "CC": "03",
    "fr": "54",
    "SEC": "001",
    "SS": "01"
  },
  "addresses": [
    {
      "id": "pt.ine.add.PTCONT.459523",
      "street": "TV BAIRRO",
      "house": "7",
      "postcode": "4705-629",
      "city": "SEQUEIRA",
      "lon": "-8.472836261863764",
      "lat": "41.522913713896266"
    },
    {
      "id": "pt.ine.add.PTCONT.468428",
      "street": "TV BAIRRO",
      "house": "14",
      "postcode": "4705-629",
      "city": "SEQUEIRA",
      "lon": "-8.472692729901226",
      "lat": "41.52295915678297"
    },
    {
      "id": "pt.ine.add.PTCONT.480453",
      "street": "R ASSENTO",
      "house": "97",
      "postcode": "4705-629",
      "city": "SEQUEIRA",
      "lon": "-8.475737195897564",
      "lat": "41.520942280119606"
    },
    {
      "id": "pt.ine.add.PTCONT.501172",
      "street": "R PROF ANTÓNIO GOMES",
      "house": "21",
      "postcode": "4705-629",
      "city": "SEQUEIRA",
      "lon": "-8.473733107778491",
      "lat": "41.52258692443732"
    },
    {
      "id": "pt.ine.add.PTCONT.528254",
      "street": "R ANTÓNIO LOURENÇO MARTINS",
      "house": "27",
      "postcode": "4705-629",
      "city": "SEQUEIRA",
      "lon": "-8.472129358816888",
      "lat": "41.522906796138756"
    },
    {
      "id": "pt.ine.add.PTCONT.528255",
      "street": "R ANTÓNIO LOURENÇO MARTINS",
      "house": "27",
      "postcode": "4705-629",
      "city": "SEQUEIRA",
      "lon": "-8.472129358816888",
      "lat": "41.522906796138756"
    },
    {
      "id": "pt.ine.add.PTCONT.558067",
      "street": "R PROF ANTÓNIO GOMES",
      "house": "14",
      "postcode": "4705-629",
      "city": "SEQUEIRA",
      "lon": "-8.472068328099402",
      "lat": "41.52269088492815"
    },
    {
      "id": "pt.ine.add.PTCONT.619001",
      "street": "R MOINHO DE VENTO",
      "house": "5",
      "postcode": "4705-629",
      "city": "SEQUEIRA",
      "lon": "-8.472961627012971",
      "lat": "41.523975791300835"
    },
    {
      "id": "pt.ine.add.PTCONT.645521",
      "street": "TV BAIRRO",
      "house": "5",
      "postcode": "4705-629",
      "city": "SEQUEIRA",
      "lon": "-8.472871732719295",
      "lat": "41.52282357115023"
    },
    {
      "id": "pt.ine.add.PTCONT.663929",
      "street": "R INFANCIA",
      "house": "",
      "postcode": "4705-629",
      "city": "SEQUEIRA",
      "lon": "-8.474658547845156",
      "lat": "41.52086445441115"
    },
    {
      "id": "pt.ine.add.PTCONT.683728",
      "street": "R ASSENTO",
      "house": "105",
      "postcode": "4705-629",
      "city": "SEQUEIRA",
      "lon": "-8.475377883475568",
      "lat": "41.52096135762915"
    },
    {
      "id": "pt.ine.add.PTCONT.693589",
      "street": "TV BAIRRO",
      "house": "15",
      "postcode": "4705-629",
      "city": "SEQUEIRA",
      "lon": "-8.47271786805058",
      "lat": "41.523184177442026"
    },
    {
      "id": "pt.ine.add.PTCONT.693590",
      "street": "TV BAIRRO",
      "house": "1S",
      "postcode": "4705-629",
      "city": "SEQUEIRA",
      "lon": "-8.47271786805058",
      "lat": "41.523184177442026"
    },
    {
      "id": "pt.ine.add.PTCONT.731926",
      "street": "R MIMOSAS",
      "house": "15",
      "postcode": "4705-629",
      "city": "SEQUEIRA",
      "lon": "-8.473789908298304",
      "lat": "41.524279469627736"
    },
    {
      "id": "pt.ine.add.PTCONT.734397",
      "street": "R ASSENTO",
      "house": "",
      "postcode": "4705-629",
      "city": "SEQUEIRA",
      "lon": "-8.475355108948666",
      "lat": "41.52118652036606"
    },
    {
      "id": "pt.ine.add.PTCONT.755533",
      "street": "R PROF ANTÓNIO GOMES",
      "house": "21",
      "postcode": "4705-629",
      "city": "SEQUEIRA",
      "lon": "-8.473804282678262",
      "lat": "41.522451656663286"
    },
    {
      "id": "pt.ine.add.PTCONT.762240",
      "street": "R ASSENTO",
      "house": "103",
      "postcode": "4705-629",
      "city": "SEQUEIRA",
      "lon": "-8.47537669743856",
      "lat": "41.52073626619034"
    },
    {
      "id": "pt.ine.add.PTCONT.779642",
      "street": "R MOINHO DE VENTO",
      "house": "",
      "postcode": "4705-629",
      "city": "SEQUEIRA",
      "lon": "-8.473668164071652",
      "lat": "41.52391067466252"
    },
    {
      "id": "pt.ine.add.PTCONT.789961",
      "street": "R ASSENTO",
      "house": "105",
      "postcode": "4705-629",
      "city": "SEQUEIRA",
      "lon": "-8.475089693913059",
      "lat": "41.5208361617684"
    },
    {
      "id": "pt.ine.add.PTCONT.790043",
      "street": "R ASSENTO",
      "house": "105",
      "postcode": "4705-629",
      "city": "SEQUEIRA",
      "lon": "-8.475089693913059",
      "lat": "41.5208361617684"
    },
    {
      "id": "pt.ine.add.PTCONT.791294",
      "street": "R PROF ANTÓNIO GOMES",
      "house": "25",
      "postcode": "4705-629",
      "city": "SEQUEIRA",
      "lon": "-8.472236902248815",
      "lat": "41.522852456287765"
    },
    {
      "id": "pt.ine.add.PTCONT.791295",
      "street": "TV BAIRRO",
      "house": "14",
      "postcode": "4705-629",
      "city": "SEQUEIRA",
      "lon": "-8.472705134191827",
      "lat": "41.52304015431632"
    },
    {
      "id": "pt.ine.add.PTCONT.803357",
      "street": "R MIMOSAS",
      "house": "17",
      "postcode": "4705-629",
      "city": "SEQUEIRA",
      "lon": "-8.474064144678058",
      "lat": "41.52402655069607"
    },
    {
      "id": "pt.ine.add.PTCONT.845510",
      "street": "R ESCOLA",
      "house": "7",
      "postcode": "4705-629",
      "city": "SEQUEIRA",
      "lon": "-8.472665050235786",
      "lat": "41.52224793860327"
    }
  ]
}