{
  "data": {
    "distrito": "Braga",
    "concelho": "Braga",
    "freguesia": "Sequeira",
    "OBJECTID": 220,
    "BGRI2021": "03035400105",
    "DT21": "03",
    "DTMN21": "0303",
    "DTMNFR21": "030354",
    "DTMNFRSEC21": "030354001",
    "SECNUM21": "001",
    "SSNUM21": "05",
    "SECSSNUM21": "00105",
    "OBJECTID_1": 22155,
    "DT": "03",
    "CC": "03",
    "fr": "54",
    "SEC": "001",
    "SS": "05"
  },
  "addresses": [
    {
      "id": "pt.ine.add.PTCONT.476474",
      "street": "R COUCO",
      "house": "44",
      "postcode": "4705-629",
      "city": "SEQUEIRA",
      "lon": "-8.482580754044742",
      "lat": "41.523676849440484"
    },
    {
      "id": "pt.ine.add.PTCONT.483159",
      "street": "R PEDREGAL",
      "house": "13",
      "postcode": "4705-629",
      "city": "SEQUEIRA",
      "lon": "-8.481616692220276",
      "lat": "41.52710121550597"
    },
    {
      "id": "pt.ine.add.PTCONT.483160",
      "street": "R PEDREGAL",
      "house": "15",
      "postcode": "4705-629",
      "city": "SEQUEIRA",
      "lon": "-8.481616692220276",
      "lat": "41.52710121550597"
    },
    {
      "id": "pt.ine.add.PTCONT.483161",
      "street": "R ELEVADOR",
      "house": "76",
      "postcode": "4705-629",
      "city": "SEQUEIRA",
      "lon": "-8.481336736251256",
      "lat": "41.524049778522496"
    },
    {
      "id": "pt.ine.add.PTCONT.504156",
      "street": "R CAPITÃES DE ABRIL",
      "house": "3",
      "postcode": "4705-629",
      "city": "SEQUEIRA",
      "lon": "-8.481338444852026",
      "lat": "41.51989902326151"
    },
    {
      "id": "pt.ine.add.PTCONT.517284",
      "street": "R ASSENTO",
      "house": "34",
      "postcode": "4705-629",
      "city": "SEQUEIRA",
      "lon": "-8.474265154507956",
      "lat": "41.52579970170717"
    },
    {
      "id": "pt.ine.add.PTCONT.530109",
      "street": "R ELEVADOR",
      "house": "66",
      "postcode": "4705-629",
      "city": "SEQUEIRA",
      "lon": "-8.481000453736728",
      "lat": "41.52389773179569"
    },
    {
      "id": "pt.ine.add.PTCONT.559615",
      "street": "R ELEVADOR",
      "house": "84",
      "postcode": "4705-629",
      "city": "SEQUEIRA",
      "lon": "-8.481768577032318",
      "lat": "41.52414751183822"
    },
    {
      "id": "pt.ine.add.PTCONT.591333",
      "street": "R ELEVADOR",
      "house": "76",
      "postcode": "4705-629",
      "city": "SEQUEIRA",
      "lon": "-8.48128968181061",
      "lat": "41.52421198926422"
    },
    {
      "id": "pt.ine.add.PTCONT.601304",
      "street": "R QUINTA VELHA",
      "house": "",
      "postcode": "4705-629",
      "city": "SEQUEIRA",
      "lon": "-8.47696907821978",
      "lat": "41.52507134545226"
    },
    {
      "id": "pt.ine.add.PTCONT.626826",
      "street": "R ELEVADOR",
      "house": "66",
      "postcode": "4705-629",
      "city": "SEQUEIRA",
      "lon": "-8.482223170890535",
      "lat": "41.52402007964094"
    },
    {
      "id": "pt.ine.add.PTCONT.628891",
      "street": "TV PENAVOENTE",
      "house": "6",
      "postcode": "4705-629",
      "city": "SEQUEIRA",
      "lon": "-8.475484382919177",
      "lat": "41.52525585093344"
    },
    {
      "id": "pt.ine.add.PTCONT.638170",
      "street": "R ESTRADA",
      "house": "2",
      "postcode": "4705-629",
      "city": "SEQUEIRA",
      "lon": "-8.481701373275737",
      "lat": "41.520555201095924"
    },
    {
      "id": "pt.ine.add.PTCONT.647334",
      "street": "R ASSENTO",
      "house": "58",
      "postcode": "4705-629",
      "city": "SEQUEIRA",
      "lon": "-8.475931583151084",
      "lat": "41.523723873905176"
    },
    {
      "id": "pt.ine.add.PTCONT.647335",
      "street": "R ASSENTO",
      "house": "58",
      "postcode": "4705-629",
      "city": "SEQUEIRA",
      "lon": "-8.475931583151084",
      "lat": "41.523723873905176"
    },
    {
      "id": "pt.ine.add.PTCONT.650933",
      "street": "R ASSENTO",
      "house": "42",
      "postcode": "4705-629",
      "city": "SEQUEIRA",
      "lon": "-8.47441948983458",
      "lat": "41.525529130030336"
    },
    {
      "id": "pt.ine.add.PTCONT.671735",
      "street": "TV PENAVOENTE",
      "house": "14",
      "postcode": "4705-629",
      "city": "SEQUEIRA",
      "lon": "-8.474217891990579",
      "lat": "41.52592589497554"
    },
    {
      "id": "pt.ine.add.PTCONT.680427",
      "street": "R ELEVADOR",
      "house": "86",
      "postcode": "4705-629",
      "city": "SEQUEIRA",
      "lon": "-8.481194028109552",
      "lat": "41.524248293991896"
    },
    {
      "id": "pt.ine.add.PTCONT.695680",
      "street": "R PEDREGAL",
      "house": "7",
      "postcode": "4705-629",
      "city": "SEQUEIRA",
      "lon": "-8.481232998728148",
      "lat": "41.52704835489232"
    },
    {
      "id": "pt.ine.add.PTCONT.703392",
      "street": "R CRUZEIRO",
      "house": "3",
      "postcode": "4705-629",
      "city": "SEQUEIRA",
      "lon": "-8.482483648922416",
      "lat": "41.52344304584426"
    },
    {
      "id": "pt.ine.add.PTCONT.734409",
      "street": "TV PENAVOENTE",
      "house": "1",
      "postcode": "4705-629",
      "city": "SEQUEIRA",
      "lon": "-8.475312948082202",
      "lat": "41.52455406537421"
    },
    {
      "id": "pt.ine.add.PTCONT.764936",
      "street": "R CAPITÃES DE ABRIL",
      "house": "1",
      "postcode": "4705-629",
      "city": "SEQUEIRA",
      "lon": "-8.481458148722623",
      "lat": "41.51988065314637"
    },
    {
      "id": "pt.ine.add.PTCONT.788234",
      "street": "TV ELEVADOR",
      "house": "86",
      "postcode": "4705-629",
      "city": "SEQUEIRA",
      "lon": "-8.482342688442374",
      "lat": "41.52396569400552"
    },
    {
      "id": "pt.ine.add.PTCONT.806689",
      "street": "R MONFORTE",
      "house": "",
      "postcode": "4705-629",
      "city": "SEQUEIRA",
      "lon": "-8.474709261782433",
      "lat": "41.52595144785704"
    },
    {
      "id": "pt.ine.add.PTCONT.820299",
      "street": "R PEDREGAL",
      "house": "17",
      "postcode": "4705-629",
      "city": "SEQUEIRA",
      "lon": "-8.481784383083667",
      "lat": "41.52709170342006"
    },
    {
      "id": "pt.ine.add.PTCONT.829196",
      "street": "R ELEVADOR",
      "house": "",
      "postcode": "4705-629",
      "city": "SEQUEIRA",
      "lon": "-8.481074894966003",
      "lat": "41.524374707609944"
    },
    {
      "id": "pt.ine.add.PTCONT.845599",
      "street": "R ELEVADOR",
      "house": "65",
      "postcode": "4705-629",
      "city": "SEQUEIRA",
      "lon": "-8.48024292156276",
      "lat": "41.523386804612656"
    }
  ]
}