{
  "data": {
    "distrito": "Coimbra",
    "concelho": "Montemor-O-Velho",
    "freguesia": "Meãs do Campo",
    "OBJECTID": 523,
    "BGRI2021": "06100600102",
    "DT21": "06",
    "DTMN21": "0610",
    "DTMNFR21": "061006",
    "DTMNFRSEC21": "061006001",
    "SECNUM21": "001",
    "SSNUM21": "02",
    "SECSSNUM21": "00102",
    "OBJECTID_1": 54278,
    "DT": "06",
    "CC": "10",
    "fr": "06",
    "SEC": "001",
    "SS": "02"
  },
  "addresses": [
    {
      "id": "pt.ine.add.PTCONT.1111302",
      "street": "R FERNANDO LARANJEIRA LOPES DEALMEIDA",
      "house": "",
      "postcode": "3140-166",
      "city": "MEÃS DO CAMPO",
      "lon": "-8.626658559465113",
      "lat": "40.208142254872776"
    },
    {
      "id": "pt.ine.add.PTCONT.1125630",
      "street": "R LUGAR DO PINHEIRO",
      "house": "",
      "postcode": "3140-165",
      "city": "MEÃS DO CAMPO",
      "lon": "-8.63033764370553",
      "lat": "40.21009878342357"
    },
    {
      "id": "pt.ine.add.PTCONT.1136351",
      "street": "R LACERDA PIRES",
      "house": "",
      "postcode": "3140-161",
      "city": "MEÃS DO CAMPO",
      "lon": "-8.628103529302733",
      "lat": "40.209784149299566"
    },
    {
      "id": "pt.ine.add.PTCONT.1149894",
      "street": "R CRUZEIRO",
      "house": "",
      "postcode": "3140-165",
      "city": "MEÃS DO CAMPO",
      "lon": "-8.629574016977289",
      "lat": "40.21008404948035"
    },
    {
      "id": "pt.ine.add.PTCONT.1152419",
      "street": "R FERNANDO LARANJEIRA LOPES DEALMEIDA",
      "house": "",
      "postcode": "3140-166",
      "city": "MEÃS DO CAMPO",
      "lon": "-8.626176526922494",
      "lat": "40.20808126839692"
    },
    {
      "id": "pt.ine.add.PTCONT.1158399",
      "street": "R CRUZEIRO",
      "house": "",
      "postcode": "3140-165",
      "city": "MEÃS DO CAMPO",
      "lon": "-8.630126016899906",
      "lat": "40.210072674843126"
    },
    {
      "id": "pt.ine.add.PTCONT.1179904",
      "street": "R FERNANDO LARANJEIRA LOPES DEALMEIDA",
      "house": "",
      "postcode": "3140-166",
      "city": "MEÃS DO CAMPO",
      "lon": "-8.626342338102098",
      "lat": "40.20826968417389"
    },
    {
      "id": "pt.ine.add.PTCONT.1190646",
      "street": "R CHAI DO LOPES",
      "house": "",
      "postcode": "3140-166",
      "city": "MEÃS DO CAMPO",
      "lon": "-8.62737969460236",
      "lat": "40.20877859093506"
    },
    {
      "id": "pt.ine.add.PTCONT.1216461",
      "street": "R LACERDA PIRES",
      "house": "",
      "postcode": "3140-161",
      "city": "MEÃS DO CAMPO",
      "lon": "-8.628256424298655",
      "lat": "40.209810512826486"
    },
    {
      "id": "pt.ine.add.PTCONT.1218546",
      "street": "R FERNANDO LARANJEIRA LOPES DEALMEIDA",
      "house": "",
      "postcode": "3140-166",
      "city": "MEÃS DO CAMPO",
      "lon": "-8.625862000492859",
      "lat": "40.208442840433875"
    },
    {
      "id": "pt.ine.add.PTCONT.1220491",
      "street": "R LACERDA PIRES",
      "house": "",
      "postcode": "3140-166",
      "city": "MEÃS DO CAMPO",
      "lon": "-8.626433960363189",
      "lat": "40.2095661313621"
    },
    {
      "id": "pt.ine.add.PTCONT.1221078",
      "street": "R MANUEL JARDIM",
      "house": "",
      "postcode": "3140-166",
      "city": "MEÃS DO CAMPO",
      "lon": "-8.625415464498756",
      "lat": "40.20841772295675"
    },
    {
      "id": "pt.ine.add.PTCONT.1234689",
      "street": "R MANUEL JARDIM",
      "house": "",
      "postcode": "3140-166",
      "city": "MEÃS DO CAMPO",
      "lon": "-8.626269190065743",
      "lat": "40.209521804386775"
    },
    {
      "id": "pt.ine.add.PTCONT.1238520",
      "street": "R LACERDA PIRES",
      "house": "",
      "postcode": "3140-161",
      "city": "MEÃS DO CAMPO",
      "lon": "-8.628139684661612",
      "lat": "40.209910076094864"
    },
    {
      "id": "pt.ine.add.PTCONT.1292387",
      "street": "R FERNANDO LARANJEIRA LOPES DEALMEIDA",
      "house": "",
      "postcode": "3140-166",
      "city": "MEÃS DO CAMPO",
      "lon": "-8.62681092750948",
      "lat": "40.20809657602683"
    },
    {
      "id": "pt.ine.add.PTCONT.1297832",
      "street": "R FERNANDO LARANJEIRA LOPES DEALMEIDA",
      "house": "",
      "postcode": "3140-166",
      "city": "MEÃS DO CAMPO",
      "lon": "-8.62898821907204",
      "lat": "40.20706961183728"
    },
    {
      "id": "pt.ine.add.PTCONT.1301325",
      "street": "R FERNANDO LARANJEIRA LOPES DEALMEIDA",
      "house": "",
      "postcode": "3140-166",
      "city": "MEÃS DO CAMPO",
      "lon": "-8.627781241231986",
      "lat": "40.207462026249594"
    },
    {
      "id": "pt.ine.add.PTCONT.1308557",
      "street": "R LACERDA PIRES",
      "house": "",
      "postcode": "3140-161",
      "city": "MEÃS DO CAMPO",
      "lon": "-8.629139215058318",
      "lat": "40.21005889606938"
    },
    {
      "id": "pt.ine.add.PTCONT.1318218",
      "street": "R FERNANDO LARANJEIRA LOPES DEALMEIDA",
      "house": "",
      "postcode": "3140-166",
      "city": "MEÃS DO CAMPO",
      "lon": "-8.628237289465591",
      "lat": "40.20718089608429"
    },
    {
      "id": "pt.ine.add.PTCONT.1320266",
      "street": "R FERNANDO LARANJEIRA LOPES DEALMEIDA",
      "house": "",
      "postcode": "3140-166",
      "city": "MEÃS DO CAMPO",
      "lon": "-8.628718858252647",
      "lat": "40.207178835248186"
    },
    {
      "id": "pt.ine.add.PTCONT.1334575",
      "street": "R LACERDA PIRES",
      "house": "",
      "postcode": "3140-166",
      "city": "MEÃS DO CAMPO",
      "lon": "-8.626985956762647",
      "lat": "40.209554771720256"
    },
    {
      "id": "pt.ine.add.PTCONT.1339231",
      "street": "R CRUZEIRO",
      "house": "",
      "postcode": "3140-165",
      "city": "MEÃS DO CAMPO",
      "lon": "-8.629844308289401",
      "lat": "40.21010090152406"
    },
    {
      "id": "pt.ine.add.PTCONT.1342840",
      "street": "R LACERDA PIRES",
      "house": "",
      "postcode": "3140-161",
      "city": "MEÃS DO CAMPO",
      "lon": "-8.628269153378362",
      "lat": "40.209945545600405"
    },
    {
      "id": "pt.ine.add.PTCONT.1344005",
      "street": "R FERNANDO LARANJEIRA LOPES DE ALMEIDA",
      "house": "",
      "postcode": "3140-166",
      "city": "MEÃS DO CAMPO",
      "lon": "-8.62740636230413",
      "lat": "40.20759871493516"
    },
    {
      "id": "pt.ine.add.PTCONT.1351176",
      "street": "R LACERDA PIRES",
      "house": "",
      "postcode": "3140-166",
      "city": "MEÃS DO CAMPO",
      "lon": "-8.626621308432796",
      "lat": "40.209484280423695"
    }
  ]
}