{
  "data": {
    "distrito": "Santarém",
    "concelho": "Rio Maior",
    "freguesia": "Rio Maior",
    "OBJECTID": 89,
    "BGRI2021": "14140800613",
    "DT21": "14",
    "DTMN21": "1414",
    "DTMNFR21": "141408",
    "DTMNFRSEC21": "141408006",
    "SECNUM21": "006",
    "SSNUM21": "13",
    "SECSSNUM21": "00613",
    "OBJECTID_1": 152875,
    "DT": "14",
    "CC": "14",
    "fr": "08",
    "SEC": "006",
    "SS": "13"
  },
  "addresses": [
    {
      "id": "pt.ine.add.PTCONT.4403541",
      "street": "AV COMBATENTES",
      "house": "",
      "postcode": "2040-344",
      "city": "RIO MAIOR",
      "lon": "-8.950925446003312",
      "lat": "39.34371034053337"
    },
    {
      "id": "pt.ine.add.PTCONT.4405159",
      "street": "AV PORTUGAL",
      "house": "43",
      "postcode": "2040-349",
      "city": "RIO MAIOR",
      "lon": "-8.94890104649931",
      "lat": "39.34319313274031"
    },
    {
      "id": "pt.ine.add.PTCONT.4413438",
      "street": "R PADRE ARMANDO DELGADO MARQUES",
      "house": "15",
      "postcode": "2040-362",
      "city": "RIO MAIOR",
      "lon": "-8.948520794786837",
      "lat": "39.343411966405775"
    },
    {
      "id": "pt.ine.add.PTCONT.4442870",
      "street": "R PADRE ARMANDO DELGADO MARQUES",
      "house": "",
      "postcode": "2040-362",
      "city": "RIO MAIOR",
      "lon": "-8.948441590574994",
      "lat": "39.343583655039716"
    },
    {
      "id": "pt.ine.add.PTCONT.4442871",
      "street": "R S JOÃO",
      "house": "",
      "postcode": "2040-214",
      "city": "RIO MAIOR",
      "lon": "-8.950024251544267",
      "lat": "39.34302312761072"
    },
    {
      "id": "pt.ine.add.PTCONT.4448387",
      "street": "R SOLDADO JOÃO MANUEL FIGUEIREDO ANDRE",
      "house": "",
      "postcode": "2040-362",
      "city": "RIO MAIOR",
      "lon": "-8.949584961889432",
      "lat": "39.343152308729756"
    },
    {
      "id": "pt.ine.add.PTCONT.4455310",
      "street": "R LINDOS",
      "house": "4",
      "postcode": "2040-214",
      "city": "RIO MAIOR",
      "lon": "-8.950562100736844",
      "lat": "39.34338863975973"
    },
    {
      "id": "pt.ine.add.PTCONT.4465555",
      "street": "R S JOÃO",
      "house": "",
      "postcode": "2040-214",
      "city": "RIO MAIOR",
      "lon": "-8.949942430488287",
      "lat": "39.34296965965295"
    },
    {
      "id": "pt.ine.add.PTCONT.4465556",
      "street": "R S JOÃO",
      "house": "6",
      "postcode": "2040-214",
      "city": "RIO MAIOR",
      "lon": "-8.950679768880693",
      "lat": "39.34353192584664"
    },
    {
      "id": "pt.ine.add.PTCONT.4479027",
      "street": "AV PORTUGAL",
      "house": "29",
      "postcode": "2040-349",
      "city": "RIO MAIOR",
      "lon": "-8.948782126266247",
      "lat": "39.34294176912992"
    },
    {
      "id": "pt.ine.add.PTCONT.4481499",
      "street": "R ALF MILICIANO MANUEL SOARES CARTAXO",
      "house": "20",
      "postcode": "2040-362",
      "city": "RIO MAIOR",
      "lon": "-8.948742221295772",
      "lat": "39.3435004852377"
    },
    {
      "id": "pt.ine.add.PTCONT.4496871",
      "street": "R ALF MILICIANO MANUEL SOARES CARTAXO",
      "house": "28",
      "postcode": "2040-362",
      "city": "RIO MAIOR",
      "lon": "-8.948691743040017",
      "lat": "39.34314956444844"
    },
    {
      "id": "pt.ine.add.PTCONT.4504839",
      "street": "R ALF MILICIANO MANUEL SOARES CARTAXO",
      "house": "3",
      "postcode": "2040-362",
      "city": "RIO MAIOR",
      "lon": "-8.949262288162796",
      "lat": "39.34333471271461"
    },
    {
      "id": "pt.ine.add.PTCONT.4526930",
      "street": "R SOLDADO JOÃO MANUEL FIGUEIREDO ANDRE",
      "house": "",
      "postcode": "2040-362",
      "city": "RIO MAIOR",
      "lon": "-8.949026539890939",
      "lat": "39.343012112247855"
    },
    {
      "id": "pt.ine.add.PTCONT.4534659",
      "street": "R S JOÃO",
      "house": "",
      "postcode": "2040-214",
      "city": "RIO MAIOR",
      "lon": "-8.949883912074272",
      "lat": "39.34292503514416"
    },
    {
      "id": "pt.ine.add.PTCONT.4544978",
      "street": "R SOLDADO JOÃO MANUEL FIGUEIREDO ANDRE",
      "house": "",
      "postcode": "2040-362",
      "city": "RIO MAIOR",
      "lon": "-8.949665210846513",
      "lat": "39.34307068237985"
    },
    {
      "id": "pt.ine.add.PTCONT.4558073",
      "street": "R S JOÃO",
      "house": "",
      "postcode": "2040-214",
      "city": "RIO MAIOR",
      "lon": "-8.949825393734669",
      "lat": "39.342880410604835"
    },
    {
      "id": "pt.ine.add.PTCONT.4601858",
      "street": "R ALF MILICIANO MANUEL SOARES CARTAXO",
      "house": "24",
      "postcode": "2040-362",
      "city": "RIO MAIOR",
      "lon": "-8.948916938401807",
      "lat": "39.34356230995063"
    },
    {
      "id": "pt.ine.add.PTCONT.4605633",
      "street": "R SOLDADO JOÃO MANUEL FIGUEIREDO ANDRE",
      "house": "",
      "postcode": "2040-362",
      "city": "RIO MAIOR",
      "lon": "-8.949516206859357",
      "lat": "39.34322484735887"
    }
  ]
}