{
  "data": {
    "distrito": "Porto",
    "concelho": "Gondomar",
    "freguesia": "Uni√£o das freguesias de Melres e Medas",
    "OBJECTID": 763,
    "BGRI2021": "13041600401",
    "DT21": "13",
    "DTMN21": "1304",
    "DTMNFR21": "130416",
    "DTMNFRSEC21": "130416004",
    "SECNUM21": "004",
    "SSNUM21": "01",
    "SECSSNUM21": "00401",
    "OBJECTID_1": 128946,
    "DT": "13",
    "CC": "04",
    "fr": "16",
    "SEC": "004",
    "SS": "01"
  },
  "addresses": [
    {
      "id": "pt.ine.add.PTCONT.3551701",
      "street": "R FORMIGA",
      "house": "335",
      "postcode": "4515-355",
      "city": "MEDAS",
      "lon": "-8.432487905047141",
      "lat": "41.04298620355702"
    },
    {
      "id": "pt.ine.add.PTCONT.3559946",
      "street": "LUGAR GAVINHO CAMPIDOURO EMPREENDIM TURISMO",
      "house": "",
      "postcode": "4515-397",
      "city": "MEDAS",
      "lon": "-8.42659806074358",
      "lat": "41.03971469036539"
    },
    {
      "id": "pt.ine.add.PTCONT.3566241",
      "street": "R FORMIGA",
      "house": "335",
      "postcode": "4515-355",
      "city": "MEDAS",
      "lon": "-8.432831378051041",
      "lat": "41.04267015152338"
    },
    {
      "id": "pt.ine.add.PTCONT.3666419",
      "street": "R ALGORINHAS",
      "house": "",
      "postcode": "4515-361",
      "city": "MEDAS",
      "lon": "-8.437358452540634",
      "lat": "41.046908436034016"
    },
    {
      "id": "pt.ine.add.PTCONT.3743285",
      "street": "R FORMIGA",
      "house": "335",
      "postcode": "4515-355",
      "city": "MEDAS",
      "lon": "-8.433043042688203",
      "lat": "41.04213833229459"
    },
    {
      "id": "pt.ine.add.PTCONT.4284653",
      "street": "R FORMIGA",
      "house": "187",
      "postcode": "4515-355",
      "city": "MEDAS",
      "lon": "-8.43237604813991",
      "lat": "41.04717360889736"
    },
    {
      "id": "pt.ine.add.PTCONT.4353936",
      "street": "ESTR PARQUE",
      "house": "9003",
      "postcode": "4515-395",
      "city": "MEDAS",
      "lon": "-8.428060899107175",
      "lat": "41.04238530875054"
    },
    {
      "id": "pt.ine.add.PTCONT.4365837",
      "street": "R ALGORINHAS",
      "house": "",
      "postcode": "4515-361",
      "city": "MEDAS",
      "lon": "-8.436905283255397",
      "lat": "41.04664849968751"
    },
    {
      "id": "pt.ine.add.PTCONT.4372854",
      "street": "LUGAR GAVINHO CAMPIDOURO EMPREENDIM TURISMO",
      "house": "",
      "postcode": "4515-397",
      "city": "MEDAS",
      "lon": "-8.42659806074358",
      "lat": "41.03971469036539"
    }
  ]
}