{
  "data": {
    "distrito": "Porto",
    "concelho": "Gondomar",
    "freguesia": "Uni√£o das freguesias de Melres e Medas",
    "OBJECTID": 1226,
    "BGRI2021": "13041600413",
    "DT21": "13",
    "DTMN21": "1304",
    "DTMNFR21": "130416",
    "DTMNFRSEC21": "130416004",
    "SECNUM21": "004",
    "SSNUM21": "13",
    "SECSSNUM21": "00413",
    "OBJECTID_1": 129097,
    "DT": "13",
    "CC": "04",
    "fr": "16",
    "SEC": "004",
    "SS": "13"
  },
  "addresses": [
    {
      "id": "pt.ine.add.PTCONT.3572529",
      "street": "R BICHA",
      "house": "",
      "postcode": "4515-363",
      "city": "MEDAS",
      "lon": "-8.438493132221089",
      "lat": "41.05822413621469"
    },
    {
      "id": "pt.ine.add.PTCONT.3553312",
      "street": "R PRESINHO",
      "house": "",
      "postcode": "4515-424",
      "city": "MEDAS",
      "lon": "-8.431930320138346",
      "lat": "41.059069756863174"
    },
    {
      "id": "pt.ine.add.PTCONT.3553328",
      "street": "R SOUTO",
      "house": "10",
      "postcode": "4515-429",
      "city": "MEDAS",
      "lon": "-8.435834020994138",
      "lat": "41.05685345921245"
    },
    {
      "id": "pt.ine.add.PTCONT.3559936",
      "street": "R SOUTO",
      "house": "86",
      "postcode": "4515-429",
      "city": "MEDAS",
      "lon": "-8.435724731335377",
      "lat": "41.05636750164891"
    },
    {
      "id": "pt.ine.add.PTCONT.3583078",
      "street": "R SOUTO",
      "house": "426",
      "postcode": "4515-429",
      "city": "MEDAS",
      "lon": "-8.437262997438031",
      "lat": "41.05717385968694"
    },
    {
      "id": "pt.ine.add.PTCONT.3591627",
      "street": "R ALDEIA",
      "house": "75",
      "postcode": "4515-357",
      "city": "MEDAS",
      "lon": "-8.432883274841021",
      "lat": "41.0567261046504"
    },
    {
      "id": "pt.ine.add.PTCONT.3630507",
      "street": "LG PADRE ALBERTO LUIS SANTOS",
      "house": "15",
      "postcode": "4515-353",
      "city": "MEDAS",
      "lon": "-8.432207968700169",
      "lat": "41.059960484607906"
    },
    {
      "id": "pt.ine.add.PTCONT.3666372",
      "street": "R PRESINHO",
      "house": "",
      "postcode": "4515-424",
      "city": "MEDAS",
      "lon": "-8.432099842168865",
      "lat": "41.05972664754169"
    },
    {
      "id": "pt.ine.add.PTCONT.3694621",
      "street": "R ALDEIA",
      "house": "S N",
      "postcode": "4515-357",
      "city": "MEDAS",
      "lon": "-8.431978638200444",
      "lat": "41.05923171303355"
    },
    {
      "id": "pt.ine.add.PTCONT.3714738",
      "street": "R SOUTO",
      "house": "258",
      "postcode": "4515-429",
      "city": "MEDAS",
      "lon": "-8.43644016368338",
      "lat": "41.056734806493935"
    },
    {
      "id": "pt.ine.add.PTCONT.3714739",
      "street": "R SOUTO",
      "house": "258",
      "postcode": "4515-429",
      "city": "MEDAS",
      "lon": "-8.43644016368338",
      "lat": "41.056734806493935"
    },
    {
      "id": "pt.ine.add.PTCONT.3727919",
      "street": "R ALDEIA",
      "house": "112",
      "postcode": "4515-357",
      "city": "MEDAS",
      "lon": "-8.43170229891273",
      "lat": "41.05862912609464"
    },
    {
      "id": "pt.ine.add.PTCONT.3734455",
      "street": "R CARVALHOS",
      "house": "5",
      "postcode": "4515-370",
      "city": "MEDAS",
      "lon": "-8.433642303006646",
      "lat": "41.05621987405203"
    },
    {
      "id": "pt.ine.add.PTCONT.3743284",
      "street": "R ALDEIA",
      "house": "",
      "postcode": "4515-357",
      "city": "MEDAS",
      "lon": "-8.432295141389751",
      "lat": "41.05819537120025"
    },
    {
      "id": "pt.ine.add.PTCONT.3753570",
      "street": "R SOUTO",
      "house": "90",
      "postcode": "4515-429",
      "city": "MEDAS",
      "lon": "-8.435592972190353",
      "lat": "41.05616974789548"
    },
    {
      "id": "pt.ine.add.PTCONT.3766202",
      "street": "R ALDEIA",
      "house": "",
      "postcode": "4515-357",
      "city": "MEDAS",
      "lon": "-8.431796652394034",
      "lat": "41.05844879104367"
    },
    {
      "id": "pt.ine.add.PTCONT.3776391",
      "street": "R ALDEIA",
      "house": "57",
      "postcode": "4515-357",
      "city": "MEDAS",
      "lon": "-8.432896356069286",
      "lat": "41.05698720197922"
    },
    {
      "id": "pt.ine.add.PTCONT.3779173",
      "street": "R SOUTO",
      "house": "332",
      "postcode": "4515-429",
      "city": "MEDAS",
      "lon": "-8.436655279244823",
      "lat": "41.05695034878565"
    },
    {
      "id": "pt.ine.add.PTCONT.3793448",
      "street": "R SOUTO",
      "house": "",
      "postcode": "4515-429",
      "city": "MEDAS",
      "lon": "-8.435496653040305",
      "lat": "41.05591787381402"
    },
    {
      "id": "pt.ine.add.PTCONT.3805546",
      "street": "R ALDEIA",
      "house": "15",
      "postcode": "4515-357",
      "city": "MEDAS",
      "lon": "-8.433428428220102",
      "lat": "41.05627445878337"
    },
    {
      "id": "pt.ine.add.PTCONT.3916640",
      "street": "TV SOUTO",
      "house": "60",
      "postcode": "4515-455",
      "city": "MEDAS",
      "lon": "-8.435669833059572",
      "lat": "41.057367148535725"
    },
    {
      "id": "pt.ine.add.PTCONT.3928344",
      "street": "R PRESINHO",
      "house": "55",
      "postcode": "4515-424",
      "city": "MEDAS",
      "lon": "-8.432340133464535",
      "lat": "41.06024828629419"
    },
    {
      "id": "pt.ine.add.PTCONT.3934502",
      "street": "R CORGOS",
      "house": "291",
      "postcode": "4515-381",
      "city": "MEDAS",
      "lon": "-8.436188750274411",
      "lat": "41.05897759534091"
    },
    {
      "id": "pt.ine.add.PTCONT.3945052",
      "street": "R SOUTO",
      "house": "420",
      "postcode": "4515-429",
      "city": "MEDAS",
      "lon": "-8.437024667962994",
      "lat": "41.05708444316538"
    },
    {
      "id": "pt.ine.add.PTCONT.3966348",
      "street": "R ALDEIA",
      "house": "67",
      "postcode": "4515-357",
      "city": "MEDAS",
      "lon": "-8.432882784291442",
      "lat": "41.05661805156834"
    },
    {
      "id": "pt.ine.add.PTCONT.3976667",
      "street": "TV SOUTO",
      "house": "54",
      "postcode": "4515-455",
      "city": "MEDAS",
      "lon": "-8.43569300568621",
      "lat": "41.05723201976724"
    },
    {
      "id": "pt.ine.add.PTCONT.3981885",
      "street": "R PRESINHO",
      "house": "25",
      "postcode": "4515-424",
      "city": "MEDAS",
      "lon": "-8.43241069493198",
      "lat": "41.06006801256582"
    },
    {
      "id": "pt.ine.add.PTCONT.3981887",
      "street": "R ALDEIA",
      "house": "177",
      "postcode": "4515-357",
      "city": "MEDAS",
      "lon": "-8.432532447699028",
      "lat": "41.058059686957826"
    },
    {
      "id": "pt.ine.add.PTCONT.3986679",
      "street": "R SOUTO",
      "house": "4",
      "postcode": "4515-429",
      "city": "MEDAS",
      "lon": "-8.435607136516946",
      "lat": "41.05666495986277"
    },
    {
      "id": "pt.ine.add.PTCONT.3998258",
      "street": "R MOTA",
      "house": "",
      "postcode": "4515-408",
      "city": "MEDAS",
      "lon": "-8.43345523250076",
      "lat": "41.059552037061295"
    },
    {
      "id": "pt.ine.add.PTCONT.4023942",
      "street": "R SOUTO",
      "house": "30",
      "postcode": "4515-429",
      "city": "MEDAS",
      "lon": "-8.435471130292461",
      "lat": "41.055539750477756"
    },
    {
      "id": "pt.ine.add.PTCONT.4030832",
      "street": "R MOTA",
      "house": "9",
      "postcode": "4515-408",
      "city": "MEDAS",
      "lon": "-8.433240569071545",
      "lat": "41.059435537495425"
    },
    {
      "id": "pt.ine.add.PTCONT.4052054",
      "street": "TV SOUTO",
      "house": "80",
      "postcode": "4515-455",
      "city": "MEDAS",
      "lon": "-8.435480696251625",
      "lat": "41.05762877626503"
    },
    {
      "id": "pt.ine.add.PTCONT.4116423",
      "street": "R ALDEIA",
      "house": "",
      "postcode": "4515-357",
      "city": "MEDAS",
      "lon": "-8.432734065357646",
      "lat": "41.057924095018926"
    },
    {
      "id": "pt.ine.add.PTCONT.4070572",
      "street": "R ALDEIA",
      "house": "",
      "postcode": "4515-357",
      "city": "MEDAS",
      "lon": "-8.43286136380571",
      "lat": "41.05714036999822"
    },
    {
      "id": "pt.ine.add.PTCONT.4070575",
      "street": "R CORGOS",
      "house": "",
      "postcode": "4515-381",
      "city": "MEDAS",
      "lon": "-8.436476117895108",
      "lat": "41.05938204286744"
    },
    {
      "id": "pt.ine.add.PTCONT.4090155",
      "street": "R FONTE DA VESSADA",
      "house": "68",
      "postcode": "4515-394",
      "city": "MEDAS",
      "lon": "-8.434967569900833",
      "lat": "41.05727894485217"
    },
    {
      "id": "pt.ine.add.PTCONT.4103217",
      "street": "R CORGOS",
      "house": "291",
      "postcode": "4515-381",
      "city": "MEDAS",
      "lon": "-8.436165247430166",
      "lat": "41.05904068883052"
    },
    {
      "id": "pt.ine.add.PTCONT.4128383",
      "street": "R CARVALHOS",
      "house": "315",
      "postcode": "4515-370",
      "city": "MEDAS",
      "lon": "-8.434483313995013",
      "lat": "41.055434283581945"
    },
    {
      "id": "pt.ine.add.PTCONT.4128384",
      "street": "R CARVALHOS",
      "house": "315",
      "postcode": "4515-370",
      "city": "MEDAS",
      "lon": "-8.434483313995013",
      "lat": "41.055434283581945"
    },
    {
      "id": "pt.ine.add.PTCONT.4129102",
      "street": "LG PADRE ALBERTO LUIS SANTOS",
      "house": "16",
      "postcode": "4515-353",
      "city": "MEDAS",
      "lon": "-8.432063134227844",
      "lat": "41.05950162964045"
    },
    {
      "id": "pt.ine.add.PTCONT.4139758",
      "street": "R ALDEIA NOVA",
      "house": "257",
      "postcode": "4515-358",
      "city": "MEDAS",
      "lon": "-8.433038368524434",
      "lat": "41.05682475093631"
    },
    {
      "id": "pt.ine.add.PTCONT.4139759",
      "street": "R SOUTO",
      "house": "68",
      "postcode": "4515-429",
      "city": "MEDAS",
      "lon": "-8.434890516115818",
      "lat": "41.05603652156663"
    },
    {
      "id": "pt.ine.add.PTCONT.4139760",
      "street": "TV SOUTO",
      "house": "",
      "postcode": "4515-455",
      "city": "MEDAS",
      "lon": "-8.435727207340909",
      "lat": "41.056907766921235"
    },
    {
      "id": "pt.ine.add.PTCONT.4147613",
      "street": "R SOUTO",
      "house": "10",
      "postcode": "4515-429",
      "city": "MEDAS",
      "lon": "-8.435833773303633",
      "lat": "41.05679943268754"
    },
    {
      "id": "pt.ine.add.PTCONT.4162299",
      "street": "R ALDEIA",
      "house": "",
      "postcode": "4515-357",
      "city": "MEDAS",
      "lon": "-8.433124420426319",
      "lat": "41.05743683492515"
    },
    {
      "id": "pt.ine.add.PTCONT.4194735",
      "street": "R MOTA",
      "house": "75",
      "postcode": "4515-408",
      "city": "MEDAS",
      "lon": "-8.433563117677128",
      "lat": "41.0597318463387"
    },
    {
      "id": "pt.ine.add.PTCONT.4227280",
      "street": "R CARVALHOS",
      "house": "345",
      "postcode": "4515-370",
      "city": "MEDAS",
      "lon": "-8.433913235202535",
      "lat": "41.05563387268314"
    },
    {
      "id": "pt.ine.add.PTCONT.4240744",
      "street": "R ALDEIA",
      "house": "215",
      "postcode": "4515-357",
      "city": "MEDAS",
      "lon": "-8.43202169780332",
      "lat": "41.05823209888795"
    },
    {
      "id": "pt.ine.add.PTCONT.4260214",
      "street": "R ALDEIA",
      "house": "112",
      "postcode": "4515-357",
      "city": "MEDAS",
      "lon": "-8.431903349543287",
      "lat": "41.058367473707975"
    },
    {
      "id": "pt.ine.add.PTCONT.4277636",
      "street": "R CORGOS",
      "house": "",
      "postcode": "4515-381",
      "city": "MEDAS",
      "lon": "-8.437773670681842",
      "lat": "41.0595677148419"
    },
    {
      "id": "pt.ine.add.PTCONT.4287071",
      "street": "R SOUTO",
      "house": "70",
      "postcode": "4515-429",
      "city": "MEDAS",
      "lon": "-8.435509084637676",
      "lat": "41.05603490009212"
    },
    {
      "id": "pt.ine.add.PTCONT.4287072",
      "street": "R SOUTO",
      "house": "70",
      "postcode": "4515-429",
      "city": "MEDAS",
      "lon": "-8.435509084637676",
      "lat": "41.05603490009212"
    },
    {
      "id": "pt.ine.add.PTCONT.4343544",
      "street": "R ALDEIA",
      "house": "",
      "postcode": "4515-357",
      "city": "MEDAS",
      "lon": "-8.432947169160014",
      "lat": "41.05769842755907"
    },
    {
      "id": "pt.ine.add.PTCONT.4359392",
      "street": "R ALDEIA",
      "house": "33",
      "postcode": "4515-357",
      "city": "MEDAS",
      "lon": "-8.433048791751819",
      "lat": "41.05650056073436"
    },
    {
      "id": "pt.ine.add.PTCONT.4375359",
      "street": "R SOUTO",
      "house": "420",
      "postcode": "4515-429",
      "city": "MEDAS",
      "lon": "-8.437024667962994",
      "lat": "41.05708444316538"
    },
    {
      "id": "pt.ine.add.PTCONT.4389229",
      "street": "R CARVALHOS",
      "house": "281",
      "postcode": "4515-370",
      "city": "MEDAS",
      "lon": "-8.435316118442548",
      "lat": "41.05545911629278"
    }
  ]
}