{
  "data": {
    "distrito": "Porto",
    "concelho": "Gondomar",
    "freguesia": "Uni√£o das freguesias de Melres e Medas",
    "OBJECTID": 1234,
    "BGRI2021": "13041600416",
    "DT21": "13",
    "DTMN21": "1304",
    "DTMNFR21": "130416",
    "DTMNFRSEC21": "130416004",
    "SECNUM21": "004",
    "SSNUM21": "16",
    "SECSSNUM21": "00416",
    "OBJECTID_1": 128277,
    "DT": "13",
    "CC": "04",
    "fr": "16",
    "SEC": "004",
    "SS": "16"
  },
  "addresses": [
    {
      "id": "pt.ine.add.PTCONT.3591735",
      "street": "R MOTA",
      "house": "143",
      "postcode": "4515-408",
      "city": "MEDAS",
      "lon": "-8.433067894768422",
      "lat": "41.06070562503"
    },
    {
      "id": "pt.ine.add.PTCONT.3708190",
      "street": "R PRESINHO",
      "house": "487",
      "postcode": "4515-424",
      "city": "MEDAS",
      "lon": "-8.434857291943182",
      "lat": "41.06178149622708"
    },
    {
      "id": "pt.ine.add.PTCONT.3708191",
      "street": "R PRESINHO",
      "house": "495",
      "postcode": "4515-424",
      "city": "MEDAS",
      "lon": "-8.434857291943182",
      "lat": "41.06178149622708"
    },
    {
      "id": "pt.ine.add.PTCONT.3793483",
      "street": "R PRESINHO",
      "house": "479",
      "postcode": "4515-424",
      "city": "MEDAS",
      "lon": "-8.43476261298439",
      "lat": "41.061889798357285"
    },
    {
      "id": "pt.ine.add.PTCONT.4023774",
      "street": "R PRESINHO",
      "house": "459",
      "postcode": "4515-424",
      "city": "MEDAS",
      "lon": "-8.434524804238063",
      "lat": "41.061917434167434"
    },
    {
      "id": "pt.ine.add.PTCONT.4103204",
      "street": "R PRESINHO",
      "house": "51",
      "postcode": "4515-424",
      "city": "MEDAS",
      "lon": "-8.432544004269008",
      "lat": "41.06060793770922"
    },
    {
      "id": "pt.ine.add.PTCONT.4139658",
      "street": "R PRESINHO",
      "house": "531",
      "postcode": "4515-424",
      "city": "MEDAS",
      "lon": "-8.435154170989268",
      "lat": "41.06166365970499"
    },
    {
      "id": "pt.ine.add.PTCONT.4253717",
      "street": "R MOTA",
      "house": "",
      "postcode": "4515-408",
      "city": "MEDAS",
      "lon": "-8.433888868851552",
      "lat": "41.06073049876933"
    },
    {
      "id": "pt.ine.add.PTCONT.4287070",
      "street": "R PRESINHO",
      "house": "337",
      "postcode": "4515-424",
      "city": "MEDAS",
      "lon": "-8.433812484156102",
      "lat": "41.06224345784003"
    },
    {
      "id": "pt.ine.add.PTCONT.4353568",
      "street": "R PRESINHO",
      "house": "439",
      "postcode": "4515-424",
      "city": "MEDAS",
      "lon": "-8.434085532810865",
      "lat": "41.0621166817358"
    }
  ]
}