{
  "data": {
    "distrito": "Leiria",
    "concelho": "Porto de Mós",
    "freguesia": "União das freguesias de Alvados e Alcaria",
    "OBJECTID": 453,
    "BGRI2021": "10161500124",
    "DT21": "10",
    "DTMN21": "1016",
    "DTMNFR21": "101615",
    "DTMNFRSEC21": "101615001",
    "SECNUM21": "001",
    "SSNUM21": "24",
    "SECSSNUM21": "00124",
    "OBJECTID_1": 97990,
    "DT": "10",
    "CC": "16",
    "fr": "15",
    "SEC": "001",
    "SS": "24"
  },
  "addresses": [
    {
      "id": "pt.ine.add.PTCONT.2003749",
      "street": "R BARREIRO DA MATA",
      "house": "181",
      "postcode": "2480-032",
      "city": "ALVADOS",
      "lon": "-8.764991875302462",
      "lat": "39.55347828580354"
    },
    {
      "id": "pt.ine.add.PTCONT.2042911",
      "street": "R AGOSTINHA",
      "house": "62",
      "postcode": "2480-032",
      "city": "ALVADOS",
      "lon": "-8.765349513777858",
      "lat": "39.553143089641836"
    },
    {
      "id": "pt.ine.add.PTCONT.2072901",
      "street": "R AGOSTINHA",
      "house": "",
      "postcode": "2480-032",
      "city": "ALVADOS",
      "lon": "-8.765464793249931",
      "lat": "39.55302537421533"
    },
    {
      "id": "pt.ine.add.PTCONT.2075493",
      "street": "R AGOSTINHA",
      "house": "36",
      "postcode": "2480-032",
      "city": "ALVADOS",
      "lon": "-8.765163610993861",
      "lat": "39.55317112114542"
    },
    {
      "id": "pt.ine.add.PTCONT.2092916",
      "street": "R COOPERATIVA",
      "house": "5",
      "postcode": "2480-032",
      "city": "ALVADOS",
      "lon": "-8.765788424535444",
      "lat": "39.552789436402556"
    },
    {
      "id": "pt.ine.add.PTCONT.2102435",
      "street": "R FEIRA",
      "house": "",
      "postcode": "2480-032",
      "city": "ALVADOS",
      "lon": "-8.766864997944625",
      "lat": "39.553468086945436"
    },
    {
      "id": "pt.ine.add.PTCONT.2104305",
      "street": "R BARREIRA DE AGUA",
      "house": "8",
      "postcode": "2480-032",
      "city": "ALVADOS",
      "lon": "-8.768630616871361",
      "lat": "39.553152214984244"
    },
    {
      "id": "pt.ine.add.PTCONT.2115321",
      "street": "R 7 DE ABRIL",
      "house": "26",
      "postcode": "2480-032",
      "city": "ALVADOS",
      "lon": "-8.76656914374292",
      "lat": "39.55292028569239"
    },
    {
      "id": "pt.ine.add.PTCONT.2116990",
      "street": "R FEIRA",
      "house": "120",
      "postcode": "2480-032",
      "city": "ALVADOS",
      "lon": "-8.767374200491528",
      "lat": "39.55316808517052"
    },
    {
      "id": "pt.ine.add.PTCONT.2126212",
      "street": "R 7 DE ABRIL",
      "house": "",
      "postcode": "2480-032",
      "city": "ALVADOS",
      "lon": "-8.76652113260442",
      "lat": "39.55275842514388"
    },
    {
      "id": "pt.ine.add.PTCONT.2196939",
      "street": "LG FEIRA",
      "house": "",
      "postcode": "2480-032",
      "city": "ALVADOS",
      "lon": "-8.766422321286605",
      "lat": "39.55340745245251"
    },
    {
      "id": "pt.ine.add.PTCONT.2228562",
      "street": "R PORTELA",
      "house": "33",
      "postcode": "2480-032",
      "city": "ALVADOS",
      "lon": "-8.765813738269635",
      "lat": "39.55301446834876"
    }
  ]
}