{
  "data": {
    "distrito": "Lisboa",
    "concelho": "Vila Franca de Xira",
    "freguesia": "Vila Franca de Xira",
    "OBJECTID": 497,
    "BGRI2021": "11140900410",
    "DT21": "11",
    "DTMN21": "1114",
    "DTMNFR21": "111409",
    "DTMNFRSEC21": "111409004",
    "SECNUM21": "004",
    "SSNUM21": "10",
    "SECSSNUM21": "00410",
    "OBJECTID_1": 117609,
    "DT": "11",
    "CC": "14",
    "fr": "09",
    "SEC": "004",
    "SS": "10"
  },
  "addresses": [
    {
      "id": "pt.ine.add.PTCONT.2301073",
      "street": "R MANUEL DA SILVA BURRICO",
      "house": "2",
      "postcode": "2600-185",
      "city": "VILA FRANCA DE XIRA",
      "lon": "-8.992659746820989",
      "lat": "38.95078066214469"
    },
    {
      "id": "pt.ine.add.PTCONT.2319313",
      "street": "CC COSTA BRANCA",
      "house": "3",
      "postcode": "2600-132",
      "city": "VILA FRANCA DE XIRA",
      "lon": "-8.992434688009206",
      "lat": "38.95092987587882"
    },
    {
      "id": "pt.ine.add.PTCONT.2319386",
      "street": "R MANUEL CUSTÓDIO",
      "house": "6",
      "postcode": "2600-184",
      "city": "VILA FRANCA DE XIRA",
      "lon": "-8.992201518639492",
      "lat": "38.951045256832685"
    },
    {
      "id": "pt.ine.add.PTCONT.2337367",
      "street": "R JOSE ANTONIO FELIX",
      "house": "7",
      "postcode": "2600-168",
      "city": "VILA FRANCA DE XIRA",
      "lon": "-8.99209662021604",
      "lat": "38.950955952796555"
    },
    {
      "id": "pt.ine.add.PTCONT.2337368",
      "street": "R JOSE ANTONIO FELIX",
      "house": "9",
      "postcode": "2600-168",
      "city": "VILA FRANCA DE XIRA",
      "lon": "-8.99209662021604",
      "lat": "38.950955952796555"
    },
    {
      "id": "pt.ine.add.PTCONT.2355286",
      "street": "EN 10",
      "house": "",
      "postcode": "2600-209",
      "city": "VILA FRANCA DE XIRA",
      "lon": "-8.992395117978232",
      "lat": "38.94892704199558"
    },
    {
      "id": "pt.ine.add.PTCONT.2420051",
      "street": "TV EMANUEL LOPES JORDAO",
      "house": "1",
      "postcode": "2600-109",
      "city": "VILA FRANCA DE XIRA",
      "lon": "-8.99280220257197",
      "lat": "38.95035494891884"
    },
    {
      "id": "pt.ine.add.PTCONT.2447854",
      "street": "R LUIS DE CAMÕES",
      "house": "15",
      "postcode": "2600-181",
      "city": "VILA FRANCA DE XIRA",
      "lon": "-8.99010558691282",
      "lat": "38.95133990208263"
    },
    {
      "id": "pt.ine.add.PTCONT.2447855",
      "street": "BR NOVA COLONIA FILA 2",
      "house": "3",
      "postcode": "2600-022",
      "city": "VILA FRANCA DE XIRA",
      "lon": "-8.991845155882386",
      "lat": "38.95019215605982"
    },
    {
      "id": "pt.ine.add.PTCONT.2461559",
      "street": "R JOSE ANTONIO FELIX",
      "house": "5",
      "postcode": "2600-168",
      "city": "VILA FRANCA DE XIRA",
      "lon": "-8.9919814919721",
      "lat": "38.95097481531539"
    },
    {
      "id": "pt.ine.add.PTCONT.2461560",
      "street": "R JOSE ANTÓNIO FÉLIX",
      "house": "2",
      "postcode": "2600-168",
      "city": "VILA FRANCA DE XIRA",
      "lon": "-8.991890302365242",
      "lat": "38.95106556248851"
    },
    {
      "id": "pt.ine.add.PTCONT.2465960",
      "street": "R JOSE ANTONIO FELIX",
      "house": "3",
      "postcode": "2600-168",
      "city": "VILA FRANCA DE XIRA",
      "lon": "-8.9919814919721",
      "lat": "38.95097481531539"
    },
    {
      "id": "pt.ine.add.PTCONT.2469426",
      "street": "R LUIS DE CAMÕES",
      "house": "3",
      "postcode": "2600-181",
      "city": "VILA FRANCA DE XIRA",
      "lon": "-8.99031342730152",
      "lat": "38.951356390956256"
    },
    {
      "id": "pt.ine.add.PTCONT.2496992",
      "street": "CC COSTA BRANCA",
      "house": "13",
      "postcode": "2600-132",
      "city": "VILA FRANCA DE XIRA",
      "lon": "-8.992317408175381",
      "lat": "38.95108944178847"
    },
    {
      "id": "pt.ine.add.PTCONT.2496993",
      "street": "CC COSTA BRANCA",
      "house": "13",
      "postcode": "2600-132",
      "city": "VILA FRANCA DE XIRA",
      "lon": "-8.992317408175381",
      "lat": "38.95108944178847"
    },
    {
      "id": "pt.ine.add.PTCONT.2496994",
      "street": "R FAUSTINO DOS REIS SOUSA",
      "house": "3",
      "postcode": "2600-144",
      "city": "VILA FRANCA DE XIRA",
      "lon": "-8.992183993827476",
      "lat": "38.95073069402345"
    },
    {
      "id": "pt.ine.add.PTCONT.2510535",
      "street": "EN 10",
      "house": "",
      "postcode": "2600-209",
      "city": "VILA FRANCA DE XIRA",
      "lon": "-8.991997724339043",
      "lat": "38.94945240889227"
    },
    {
      "id": "pt.ine.add.PTCONT.2510536",
      "street": "EN 10",
      "house": "",
      "postcode": "2600-209",
      "city": "VILA FRANCA DE XIRA",
      "lon": "-8.991997724339043",
      "lat": "38.94945240889227"
    },
    {
      "id": "pt.ine.add.PTCONT.2591416",
      "street": "CC COSTA BRANCA",
      "house": "11",
      "postcode": "2600-132",
      "city": "VILA FRANCA DE XIRA",
      "lon": "-8.992087803638878",
      "lat": "38.951181208032814"
    },
    {
      "id": "pt.ine.add.PTCONT.2599913",
      "street": "R FAUSTINO DOS REIS SOUSA",
      "house": "1",
      "postcode": "2600-144",
      "city": "VILA FRANCA DE XIRA",
      "lon": "-8.99219455762945",
      "lat": "38.95069558745464"
    },
    {
      "id": "pt.ine.add.PTCONT.2600411",
      "street": "R JOSE ANTÓNIO FÉLIX",
      "house": "4",
      "postcode": "2600-168",
      "city": "VILA FRANCA DE XIRA",
      "lon": "-8.991971044449999",
      "lat": "38.95106496833857"
    },
    {
      "id": "pt.ine.add.PTCONT.2624465",
      "street": "R BARRETO POEIRA",
      "house": "",
      "postcode": "2600-109",
      "city": "VILA FRANCA DE XIRA",
      "lon": "-8.992288466794037",
      "lat": "38.95060324368858"
    },
    {
      "id": "pt.ine.add.PTCONT.2624466",
      "street": "R BARRETO POEIRA",
      "house": "",
      "postcode": "2600-109",
      "city": "VILA FRANCA DE XIRA",
      "lon": "-8.992288466794037",
      "lat": "38.95060324368858"
    },
    {
      "id": "pt.ine.add.PTCONT.2624467",
      "street": "R BARRETO POEIRA",
      "house": "",
      "postcode": "2600-109",
      "city": "VILA FRANCA DE XIRA",
      "lon": "-8.992288466794037",
      "lat": "38.95060324368858"
    },
    {
      "id": "pt.ine.add.PTCONT.2624468",
      "street": "R BARRETO POEIRA",
      "house": "",
      "postcode": "2600-109",
      "city": "VILA FRANCA DE XIRA",
      "lon": "-8.992288466794037",
      "lat": "38.95060324368858"
    },
    {
      "id": "pt.ine.add.PTCONT.2624469",
      "street": "R BARRETO POEIRA",
      "house": "",
      "postcode": "2600-109",
      "city": "VILA FRANCA DE XIRA",
      "lon": "-8.992288466794037",
      "lat": "38.95060324368858"
    },
    {
      "id": "pt.ine.add.PTCONT.2628031",
      "street": "R BARRETO POEIRA",
      "house": "",
      "postcode": "2600-109",
      "city": "VILA FRANCA DE XIRA",
      "lon": "-8.992288466794037",
      "lat": "38.95060324368858"
    },
    {
      "id": "pt.ine.add.PTCONT.2662890",
      "street": "R LUIS DE CAMÕES",
      "house": "21",
      "postcode": "2600-181",
      "city": "VILA FRANCA DE XIRA",
      "lon": "-8.990060749950178",
      "lat": "38.951448322683824"
    },
    {
      "id": "pt.ine.add.PTCONT.2689535",
      "street": "R FAUSTINO DOS REIS SOUSA",
      "house": "6",
      "postcode": "2600-144",
      "city": "VILA FRANCA DE XIRA",
      "lon": "-8.992164522860952",
      "lat": "38.950847361642374"
    },
    {
      "id": "pt.ine.add.PTCONT.2689536",
      "street": "R FAUSTINO REIS SOUSA",
      "house": "8",
      "postcode": "2600-144",
      "city": "VILA FRANCA DE XIRA",
      "lon": "-8.992164522860952",
      "lat": "38.950847361642374"
    },
    {
      "id": "pt.ine.add.PTCONT.2715674",
      "street": "R FAUSTINO DOS REIS SOUSA",
      "house": "9",
      "postcode": "2600-144",
      "city": "VILA FRANCA DE XIRA",
      "lon": "-8.992368795480726",
      "lat": "38.95081082998417"
    },
    {
      "id": "pt.ine.add.PTCONT.2724622",
      "street": "R LUIS DE CAMÕES",
      "house": "11",
      "postcode": "2600-181",
      "city": "VILA FRANCA DE XIRA",
      "lon": "-8.99016239226417",
      "lat": "38.95126742403203"
    },
    {
      "id": "pt.ine.add.PTCONT.2724628",
      "street": "R LUIS DE CAMÕES",
      "house": "11",
      "postcode": "2600-181",
      "city": "VILA FRANCA DE XIRA",
      "lon": "-8.99016239226417",
      "lat": "38.95126742403203"
    },
    {
      "id": "pt.ine.add.PTCONT.2732430",
      "street": "R FAUSTINO DOS REIS SOUSA",
      "house": "11",
      "postcode": "2600-144",
      "city": "VILA FRANCA DE XIRA",
      "lon": "-8.992406530829662",
      "lat": "38.95082756483768"
    },
    {
      "id": "pt.ine.add.PTCONT.2751966",
      "street": "R FAUSTINO DOS REIS SOUSA",
      "house": "16",
      "postcode": "2600-144",
      "city": "VILA FRANCA DE XIRA",
      "lon": "-8.992464529846323",
      "lat": "38.95085416063707"
    },
    {
      "id": "pt.ine.add.PTCONT.2771920",
      "street": "BR NOVA COLONIA FILA 3",
      "house": "2",
      "postcode": "2600-022",
      "city": "VILA FRANCA DE XIRA",
      "lon": "-8.991927418723309",
      "lat": "38.95031765736669"
    },
    {
      "id": "pt.ine.add.PTCONT.2771982",
      "street": "BR NOVA COLONIA FILA 3",
      "house": "2",
      "postcode": "2600-022",
      "city": "VILA FRANCA DE XIRA",
      "lon": "-8.991927418723309",
      "lat": "38.95031765736669"
    },
    {
      "id": "pt.ine.add.PTCONT.2802629",
      "street": "BR NOVA COLONIA FILA 1",
      "house": "1",
      "postcode": "2600-153",
      "city": "VILA FRANCA DE XIRA",
      "lon": "-8.991672465233941",
      "lat": "38.95022044940746"
    },
    {
      "id": "pt.ine.add.PTCONT.2802630",
      "street": "BR NOVA COLONIA FILA 1",
      "house": "1",
      "postcode": "2600-153",
      "city": "VILA FRANCA DE XIRA",
      "lon": "-8.991672465233941",
      "lat": "38.95022044940746"
    },
    {
      "id": "pt.ine.add.PTCONT.2802631",
      "street": "BR NOVA COLONIA FILA 1",
      "house": "1",
      "postcode": "2600-153",
      "city": "VILA FRANCA DE XIRA",
      "lon": "-8.991672465233941",
      "lat": "38.95022044940746"
    },
    {
      "id": "pt.ine.add.PTCONT.2803611",
      "street": "R BARRETO POEIRA",
      "house": "",
      "postcode": "2600-109",
      "city": "VILA FRANCA DE XIRA",
      "lon": "-8.992575896358995",
      "lat": "38.95059310699712"
    },
    {
      "id": "pt.ine.add.PTCONT.2803612",
      "street": "R BARRETO POEIRA",
      "house": "",
      "postcode": "2600-109",
      "city": "VILA FRANCA DE XIRA",
      "lon": "-8.992575896358995",
      "lat": "38.95059310699712"
    },
    {
      "id": "pt.ine.add.PTCONT.2803613",
      "street": "R BARRETO POEIRA",
      "house": "",
      "postcode": "2600-109",
      "city": "VILA FRANCA DE XIRA",
      "lon": "-8.992575896358995",
      "lat": "38.95059310699712"
    },
    {
      "id": "pt.ine.add.PTCONT.2803614",
      "street": "R BARRETO POEIRA",
      "house": "",
      "postcode": "2600-109",
      "city": "VILA FRANCA DE XIRA",
      "lon": "-8.992575896358995",
      "lat": "38.95059310699712"
    },
    {
      "id": "pt.ine.add.PTCONT.2803615",
      "street": "R BARRETO POEIRA",
      "house": "",
      "postcode": "2600-109",
      "city": "VILA FRANCA DE XIRA",
      "lon": "-8.992575896358995",
      "lat": "38.95059310699712"
    },
    {
      "id": "pt.ine.add.PTCONT.2805985",
      "street": "R BARRETO POEIRA",
      "house": "",
      "postcode": "2600-109",
      "city": "VILA FRANCA DE XIRA",
      "lon": "-8.992575896358995",
      "lat": "38.95059310699712"
    },
    {
      "id": "pt.ine.add.PTCONT.2805986",
      "street": "R BARRETO POEIRA",
      "house": "",
      "postcode": "2600-109",
      "city": "VILA FRANCA DE XIRA",
      "lon": "-8.992575896358995",
      "lat": "38.95059310699712"
    },
    {
      "id": "pt.ine.add.PTCONT.2805987",
      "street": "R BARRETO POEIRA",
      "house": "",
      "postcode": "2600-109",
      "city": "VILA FRANCA DE XIRA",
      "lon": "-8.992575896358995",
      "lat": "38.95059310699712"
    },
    {
      "id": "pt.ine.add.PTCONT.2805988",
      "street": "R BARRETO POEIRA",
      "house": "",
      "postcode": "2600-109",
      "city": "VILA FRANCA DE XIRA",
      "lon": "-8.992575896358995",
      "lat": "38.95059310699712"
    },
    {
      "id": "pt.ine.add.PTCONT.2805989",
      "street": "R BARRETO POEIRA",
      "house": "",
      "postcode": "2600-109",
      "city": "VILA FRANCA DE XIRA",
      "lon": "-8.992575896358995",
      "lat": "38.95059310699712"
    },
    {
      "id": "pt.ine.add.PTCONT.2805990",
      "street": "R BARRETO POEIRA",
      "house": "",
      "postcode": "2600-109",
      "city": "VILA FRANCA DE XIRA",
      "lon": "-8.992575896358995",
      "lat": "38.95059310699712"
    },
    {
      "id": "pt.ine.add.PTCONT.2808969",
      "street": "TV EMANUEL LOPES JORDAO",
      "house": "4",
      "postcode": "2600-109",
      "city": "VILA FRANCA DE XIRA",
      "lon": "-8.99274811342546",
      "lat": "38.95043245881524"
    },
    {
      "id": "pt.ine.add.PTCONT.2877778",
      "street": "BR NOVA COLONIA FILA 1",
      "house": "2",
      "postcode": "2600-153",
      "city": "VILA FRANCA DE XIRA",
      "lon": "-8.991705547225488",
      "lat": "38.95009409942393"
    },
    {
      "id": "pt.ine.add.PTCONT.2914011",
      "street": "R FAUSTINO DOS REIS SOUSA",
      "house": "2",
      "postcode": "2600-144",
      "city": "VILA FRANCA DE XIRA",
      "lon": "-8.992025456021958",
      "lat": "38.95079433949041"
    },
    {
      "id": "pt.ine.add.PTCONT.2915126",
      "street": "R FAUSTINO DOS REIS SOUSA",
      "house": "2",
      "postcode": "2600-144",
      "city": "VILA FRANCA DE XIRA",
      "lon": "-8.992025456021958",
      "lat": "38.95079433949041"
    },
    {
      "id": "pt.ine.add.PTCONT.2937856",
      "street": "CC COSTA BRANCA",
      "house": "15",
      "postcode": "2600-132",
      "city": "VILA FRANCA DE XIRA",
      "lon": "-8.992535803871217",
      "lat": "38.951024780474576"
    },
    {
      "id": "pt.ine.add.PTCONT.2948983",
      "street": "EN 10",
      "house": "",
      "postcode": "2600-209",
      "city": "VILA FRANCA DE XIRA",
      "lon": "-8.992175858770684",
      "lat": "38.94891964846395"
    },
    {
      "id": "pt.ine.add.PTCONT.2968739",
      "street": "R LUIS DE CAMÕES",
      "house": "29",
      "postcode": "2600-181",
      "city": "VILA FRANCA DE XIRA",
      "lon": "-8.990050625324134",
      "lat": "38.95156549600928"
    },
    {
      "id": "pt.ine.add.PTCONT.2983569",
      "street": "CC COSTA BRANCA",
      "house": "1",
      "postcode": "2600-132",
      "city": "VILA FRANCA DE XIRA",
      "lon": "-8.990154328877917",
      "lat": "38.95155572690253"
    },
    {
      "id": "pt.ine.add.PTCONT.2983570",
      "street": "BR NOVA COLONIA FILA 1",
      "house": "5",
      "postcode": "2600-153",
      "city": "VILA FRANCA DE XIRA",
      "lon": "-8.991911971271279",
      "lat": "38.9499934968849"
    },
    {
      "id": "pt.ine.add.PTCONT.3014496",
      "street": "BR NOVA COLONIA FILA 1",
      "house": "",
      "postcode": "2600-153",
      "city": "VILA FRANCA DE XIRA",
      "lon": "-8.991634819445423",
      "lat": "38.94996851310178"
    },
    {
      "id": "pt.ine.add.PTCONT.3032835",
      "street": "R FAUSTINO DOS REIS SOUSA",
      "house": "4A",
      "postcode": "2600-144",
      "city": "VILA FRANCA DE XIRA",
      "lon": "-8.992106523959242",
      "lat": "38.95082076569251"
    },
    {
      "id": "pt.ine.add.PTCONT.3089317",
      "street": "R MANUEL DA SILVA BURRICO",
      "house": "4",
      "postcode": "2600-185",
      "city": "VILA FRANCA DE XIRA",
      "lon": "-8.992637656844892",
      "lat": "38.9508618933575"
    },
    {
      "id": "pt.ine.add.PTCONT.3089318",
      "street": "CC COSTA BRANCA",
      "house": "32",
      "postcode": "2600-132",
      "city": "VILA FRANCA DE XIRA",
      "lon": "-8.992637656844892",
      "lat": "38.9508618933575"
    },
    {
      "id": "pt.ine.add.PTCONT.3089319",
      "street": "R MANUEL DA SILVA BURRICO",
      "house": "4",
      "postcode": "2600-185",
      "city": "VILA FRANCA DE XIRA",
      "lon": "-8.992637656844892",
      "lat": "38.9508618933575"
    },
    {
      "id": "pt.ine.add.PTCONT.3089419",
      "street": "BR NOVA COLONIA FILA 1",
      "house": "1",
      "postcode": "2600-153",
      "city": "VILA FRANCA DE XIRA",
      "lon": "-8.991821108855602",
      "lat": "38.95011126445305"
    },
    {
      "id": "pt.ine.add.PTCONT.3116494",
      "street": "R MANUEL DA SILVA BURRICO",
      "house": "1A",
      "postcode": "2600-185",
      "city": "VILA FRANCA DE XIRA",
      "lon": "-8.992700144630463",
      "lat": "38.95073981143496"
    },
    {
      "id": "pt.ine.add.PTCONT.3116495",
      "street": "R MANUEL DA SILVA BURRICO",
      "house": "1A",
      "postcode": "2600-185",
      "city": "VILA FRANCA DE XIRA",
      "lon": "-8.992700144630463",
      "lat": "38.95073981143496"
    },
    {
      "id": "pt.ine.add.PTCONT.3116496",
      "street": "R MANUEL DA SILVA BURRICO",
      "house": "1A",
      "postcode": "2600-185",
      "city": "VILA FRANCA DE XIRA",
      "lon": "-8.992700144630463",
      "lat": "38.95073981143496"
    },
    {
      "id": "pt.ine.add.PTCONT.3116497",
      "street": "R MANUEL CUSTÓDIO",
      "house": "3",
      "postcode": "2600-184",
      "city": "VILA FRANCA DE XIRA",
      "lon": "-8.992406224477412",
      "lat": "38.95098370327176"
    },
    {
      "id": "pt.ine.add.PTCONT.3116576",
      "street": "R MANUEL CUSTÓDIO",
      "house": "4",
      "postcode": "2600-184",
      "city": "VILA FRANCA DE XIRA",
      "lon": "-8.992268768753716",
      "lat": "38.950882624739016"
    },
    {
      "id": "pt.ine.add.PTCONT.3116577",
      "street": "R MANUEL CUSTÓDIO",
      "house": "4",
      "postcode": "2600-184",
      "city": "VILA FRANCA DE XIRA",
      "lon": "-8.992268768753716",
      "lat": "38.950882624739016"
    },
    {
      "id": "pt.ine.add.PTCONT.3117380",
      "street": "R MANUEL DA SILVA BURRICO",
      "house": "1A",
      "postcode": "2600-185",
      "city": "VILA FRANCA DE XIRA",
      "lon": "-8.992700144630463",
      "lat": "38.95073981143496"
    },
    {
      "id": "pt.ine.add.PTCONT.3117667",
      "street": "R MANUEL DA SILVA BURRICO",
      "house": "1A",
      "postcode": "2600-185",
      "city": "VILA FRANCA DE XIRA",
      "lon": "-8.992700144630463",
      "lat": "38.95073981143496"
    },
    {
      "id": "pt.ine.add.PTCONT.3125576",
      "street": "R BARRETO POEIRA",
      "house": "",
      "postcode": "2600-109",
      "city": "VILA FRANCA DE XIRA",
      "lon": "-8.99240334831728",
      "lat": "38.95053419946319"
    },
    {
      "id": "pt.ine.add.PTCONT.3125577",
      "street": "R BARRETO POEIRA",
      "house": "",
      "postcode": "2600-109",
      "city": "VILA FRANCA DE XIRA",
      "lon": "-8.99240334831728",
      "lat": "38.95053419946319"
    },
    {
      "id": "pt.ine.add.PTCONT.3125578",
      "street": "R BARRETO POEIRA",
      "house": "",
      "postcode": "2600-109",
      "city": "VILA FRANCA DE XIRA",
      "lon": "-8.99240334831728",
      "lat": "38.95053419946319"
    },
    {
      "id": "pt.ine.add.PTCONT.3125579",
      "street": "R BARRETO POEIRA",
      "house": "",
      "postcode": "2600-109",
      "city": "VILA FRANCA DE XIRA",
      "lon": "-8.99240334831728",
      "lat": "38.95053419946319"
    },
    {
      "id": "pt.ine.add.PTCONT.3125580",
      "street": "R BARRETO POEIRA",
      "house": "",
      "postcode": "2600-109",
      "city": "VILA FRANCA DE XIRA",
      "lon": "-8.99240334831728",
      "lat": "38.95053419946319"
    },
    {
      "id": "pt.ine.add.PTCONT.3125581",
      "street": "R BARRETO POEIRA",
      "house": "",
      "postcode": "2600-109",
      "city": "VILA FRANCA DE XIRA",
      "lon": "-8.99240334831728",
      "lat": "38.95053419946319"
    },
    {
      "id": "pt.ine.add.PTCONT.3125582",
      "street": "R BARRETO POEIRA",
      "house": "",
      "postcode": "2600-109",
      "city": "VILA FRANCA DE XIRA",
      "lon": "-8.99240334831728",
      "lat": "38.95053419946319"
    },
    {
      "id": "pt.ine.add.PTCONT.3125583",
      "street": "R BARRETO POEIRA",
      "house": "",
      "postcode": "2600-109",
      "city": "VILA FRANCA DE XIRA",
      "lon": "-8.99240334831728",
      "lat": "38.95053419946319"
    },
    {
      "id": "pt.ine.add.PTCONT.3125584",
      "street": "R BARRETO POEIRA",
      "house": "",
      "postcode": "2600-109",
      "city": "VILA FRANCA DE XIRA",
      "lon": "-8.99240334831728",
      "lat": "38.95053419946319"
    },
    {
      "id": "pt.ine.add.PTCONT.3125585",
      "street": "R BARRETO POEIRA",
      "house": "",
      "postcode": "2600-109",
      "city": "VILA FRANCA DE XIRA",
      "lon": "-8.99240334831728",
      "lat": "38.95053419946319"
    },
    {
      "id": "pt.ine.add.PTCONT.3125586",
      "street": "R BARRETO POEIRA",
      "house": "",
      "postcode": "2600-109",
      "city": "VILA FRANCA DE XIRA",
      "lon": "-8.99240334831728",
      "lat": "38.95053419946319"
    },
    {
      "id": "pt.ine.add.PTCONT.3125749",
      "street": "BR NOVA COLONIA FILA 2",
      "house": "2",
      "postcode": "2600-022",
      "city": "VILA FRANCA DE XIRA",
      "lon": "-8.991811422006593",
      "lat": "38.95026446518532"
    },
    {
      "id": "pt.ine.add.PTCONT.3126825",
      "street": "R BARRETO POEIRA",
      "house": "",
      "postcode": "2600-109",
      "city": "VILA FRANCA DE XIRA",
      "lon": "-8.99240334831728",
      "lat": "38.95053419946319"
    },
    {
      "id": "pt.ine.add.PTCONT.3127109",
      "street": "R BARRETO POEIRA",
      "house": "",
      "postcode": "2600-109",
      "city": "VILA FRANCA DE XIRA",
      "lon": "-8.99240334831728",
      "lat": "38.95053419946319"
    },
    {
      "id": "pt.ine.add.PTCONT.3163462",
      "street": "BR NOVA COLONIA FILA 1",
      "house": "3",
      "postcode": "2600-153",
      "city": "VILA FRANCA DE XIRA",
      "lon": "-8.991785527468867",
      "lat": "38.95003045770251"
    },
    {
      "id": "pt.ine.add.PTCONT.3205310",
      "street": "R JOSE ANTÓNIO FÉLIX",
      "house": "8",
      "postcode": "2600-168",
      "city": "VILA FRANCA DE XIRA",
      "lon": "-8.992097489980626",
      "lat": "38.95102800730677"
    },
    {
      "id": "pt.ine.add.PTCONT.3210712",
      "street": "R FAUSTINO DOS REIS SOUSA",
      "house": "5",
      "postcode": "2600-144",
      "city": "VILA FRANCA DE XIRA",
      "lon": "-8.992249090562504",
      "lat": "38.950753949906904"
    },
    {
      "id": "pt.ine.add.PTCONT.3218536",
      "street": "R JOSE ANTÓNIO FÉLIX",
      "house": "6",
      "postcode": "2600-168",
      "city": "VILA FRANCA DE XIRA",
      "lon": "-8.992040034522088",
      "lat": "38.95104644539509"
    },
    {
      "id": "pt.ine.add.PTCONT.3228151",
      "street": "EN 10",
      "house": "",
      "postcode": "2600-209",
      "city": "VILA FRANCA DE XIRA",
      "lon": "-8.992327652434604",
      "lat": "38.94907166055955"
    },
    {
      "id": "pt.ine.add.PTCONT.3228157",
      "street": "BR NOVA COLONIA FILA 2",
      "house": "1",
      "postcode": "2600-022",
      "city": "VILA FRANCA DE XIRA",
      "lon": "-8.991708155260612",
      "lat": "38.95031026300601"
    },
    {
      "id": "pt.ine.add.PTCONT.3239435",
      "street": "R MANUEL CUSTÓDIO",
      "house": "9",
      "postcode": "2600-184",
      "city": "VILA FRANCA DE XIRA",
      "lon": "-8.992355890501107",
      "lat": "38.951046124603366"
    },
    {
      "id": "pt.ine.add.PTCONT.3239436",
      "street": "R MANUEL CUSTÓDIO",
      "house": "9",
      "postcode": "2600-184",
      "city": "VILA FRANCA DE XIRA",
      "lon": "-8.992355890501107",
      "lat": "38.951046124603366"
    },
    {
      "id": "pt.ine.add.PTCONT.3261473",
      "street": "R LUIS DE CAMÕES",
      "house": "19",
      "postcode": "2600-181",
      "city": "VILA FRANCA DE XIRA",
      "lon": "-8.990117880846931",
      "lat": "38.951402865108385"
    },
    {
      "id": "pt.ine.add.PTCONT.3261474",
      "street": "R MANUEL CUSTÓDIO",
      "house": "8",
      "postcode": "2600-184",
      "city": "VILA FRANCA DE XIRA",
      "lon": "-8.992133289690935",
      "lat": "38.95112682756586"
    },
    {
      "id": "pt.ine.add.PTCONT.3273808",
      "street": "TV EMANUEL LOPES JORDAO",
      "house": "2",
      "postcode": "2600-109",
      "city": "VILA FRANCA DE XIRA",
      "lon": "-8.992847452651302",
      "lat": "38.95028112426987"
    },
    {
      "id": "pt.ine.add.PTCONT.3292402",
      "street": "R LUIS DE CAMÕES",
      "house": "27",
      "postcode": "2600-181",
      "city": "VILA FRANCA DE XIRA",
      "lon": "-8.990084578526623",
      "lat": "38.95151120101704"
    },
    {
      "id": "pt.ine.add.PTCONT.3292403",
      "street": "R LUIS DE CAMÕES",
      "house": "27",
      "postcode": "2600-181",
      "city": "VILA FRANCA DE XIRA",
      "lon": "-8.990084578526623",
      "lat": "38.95151120101704"
    },
    {
      "id": "pt.ine.add.PTCONT.3301392",
      "street": "R MANUEL DA SILVA BURRICO",
      "house": "A",
      "postcode": "2600-185",
      "city": "VILA FRANCA DE XIRA",
      "lon": "-8.992743515285806",
      "lat": "38.95064702703352"
    },
    {
      "id": "pt.ine.add.PTCONT.3301393",
      "street": "R MANUEL SILVA BURRICO",
      "house": "1",
      "postcode": "2600-185",
      "city": "VILA FRANCA DE XIRA",
      "lon": "-8.992743515285806",
      "lat": "38.95064702703352"
    },
    {
      "id": "pt.ine.add.PTCONT.3301394",
      "street": "R MANUEL DA SILVA BURRICO",
      "house": "A",
      "postcode": "2600-185",
      "city": "VILA FRANCA DE XIRA",
      "lon": "-8.992743515285806",
      "lat": "38.95064702703352"
    },
    {
      "id": "pt.ine.add.PTCONT.3301395",
      "street": "R MANUEL DA SILVA BURRICO",
      "house": "A",
      "postcode": "2600-185",
      "city": "VILA FRANCA DE XIRA",
      "lon": "-8.992743515285806",
      "lat": "38.95064702703352"
    },
    {
      "id": "pt.ine.add.PTCONT.3301396",
      "street": "R MANUEL DA SILVA BURRICO",
      "house": "A",
      "postcode": "2600-185",
      "city": "VILA FRANCA DE XIRA",
      "lon": "-8.992743515285806",
      "lat": "38.95064702703352"
    },
    {
      "id": "pt.ine.add.PTCONT.3301397",
      "street": "R MANUEL DA SILVA BURRICO",
      "house": "A",
      "postcode": "2600-185",
      "city": "VILA FRANCA DE XIRA",
      "lon": "-8.992743515285806",
      "lat": "38.95064702703352"
    },
    {
      "id": "pt.ine.add.PTCONT.3301398",
      "street": "R MANUEL DA SILVA BURRICO",
      "house": "A",
      "postcode": "2600-185",
      "city": "VILA FRANCA DE XIRA",
      "lon": "-8.992743515285806",
      "lat": "38.95064702703352"
    },
    {
      "id": "pt.ine.add.PTCONT.3302739",
      "street": "R MANUEL DA SILVA BURRICO",
      "house": "A",
      "postcode": "2600-185",
      "city": "VILA FRANCA DE XIRA",
      "lon": "-8.992743515285806",
      "lat": "38.95064702703352"
    },
    {
      "id": "pt.ine.add.PTCONT.3306329",
      "street": "R MANUEL DA SILVA BURRICO",
      "house": "8",
      "postcode": "2600-185",
      "city": "VILA FRANCA DE XIRA",
      "lon": "-8.992595910248157",
      "lat": "38.950917438190174"
    },
    {
      "id": "pt.ine.add.PTCONT.3306330",
      "street": "R FAUSTINO DOS REIS SOUSA",
      "house": "7",
      "postcode": "2600-144",
      "city": "VILA FRANCA DE XIRA",
      "lon": "-8.992298662311844",
      "lat": "38.95078003313934"
    },
    {
      "id": "pt.ine.add.PTCONT.3329159",
      "street": "CC COSTA BRANCA",
      "house": "7A",
      "postcode": "2600-132",
      "city": "VILA FRANCA DE XIRA",
      "lon": "-8.99189193279109",
      "lat": "38.951200664699186"
    },
    {
      "id": "pt.ine.add.PTCONT.3402935",
      "street": "CC COSTA BRANCA",
      "house": "9",
      "postcode": "2600-132",
      "city": "VILA FRANCA DE XIRA",
      "lon": "-8.991983774806327",
      "lat": "38.951163958407854"
    },
    {
      "id": "pt.ine.add.PTCONT.3412989",
      "street": "BR NOVA COLONIA FILA 1",
      "house": "",
      "postcode": "2600-153",
      "city": "VILA FRANCA DE XIRA",
      "lon": "-8.991830686986154",
      "lat": "38.949949056900444"
    },
    {
      "id": "pt.ine.add.PTCONT.3438545",
      "street": "R BARRETO POEIRA",
      "house": "3",
      "postcode": "2600-109",
      "city": "VILA FRANCA DE XIRA",
      "lon": "-8.992726518362854",
      "lat": "38.95047948899539"
    },
    {
      "id": "pt.ine.add.PTCONT.3440848",
      "street": "BR NOVA COLONIA FILA 3",
      "house": "2",
      "postcode": "2600-022",
      "city": "VILA FRANCA DE XIRA",
      "lon": "-8.991927418723309",
      "lat": "38.95031765736669"
    }
  ]
}