{
  "data": {
    "distrito": "Coimbra",
    "concelho": "Figueira da Foz",
    "freguesia": "Quiaios",
    "OBJECTID": 212,
    "BGRI2021": "06052400306",
    "DT21": "06",
    "DTMN21": "0605",
    "DTMNFR21": "060524",
    "DTMNFRSEC21": "060524003",
    "SECNUM21": "003",
    "SSNUM21": "06",
    "SECSSNUM21": "00306",
    "OBJECTID_1": 50959,
    "DT": "06",
    "CC": "05",
    "fr": "24",
    "SEC": "003",
    "SS": "06"
  },
  "addresses": [
    {
      "id": "pt.ine.add.PTCONT.1100282",
      "street": "TV RUA DO MOSQUEIRO",
      "house": "5",
      "postcode": "3080-438",
      "city": "FIGUEIRA DA FOZ",
      "lon": "-8.836044020005755",
      "lat": "40.195622779262415"
    },
    {
      "id": "pt.ine.add.PTCONT.1102774",
      "street": "LUGAR PORTO SABROSO",
      "house": "44",
      "postcode": "3080-532",
      "city": "FIGUEIRA DA FOZ",
      "lon": "-8.835701370081821",
      "lat": "40.19086980599002"
    },
    {
      "id": "pt.ine.add.PTCONT.1106901",
      "street": "R MOSQUEIRO",
      "house": "",
      "postcode": "3080-438",
      "city": "FIGUEIRA DA FOZ",
      "lon": "-8.836330971817086",
      "lat": "40.196116354282765"
    },
    {
      "id": "pt.ine.add.PTCONT.1165640",
      "street": "LUGAR PORTO SABROSO",
      "house": "42",
      "postcode": "3080-437",
      "city": "FIGUEIRA DA FOZ",
      "lon": "-8.835465780482773",
      "lat": "40.19079918928978"
    },
    {
      "id": "pt.ine.add.PTCONT.1168155",
      "street": "R MOSQUEIRO DE CIMA",
      "house": "",
      "postcode": "3080-438",
      "city": "FIGUEIRA DA FOZ",
      "lon": "-8.836143173223233",
      "lat": "40.196126500747155"
    },
    {
      "id": "pt.ine.add.PTCONT.1172104",
      "street": "R MOSQUEIRO",
      "house": "21",
      "postcode": "3080-438",
      "city": "FIGUEIRA DA FOZ",
      "lon": "-8.836470215679602",
      "lat": "40.195953404308"
    },
    {
      "id": "pt.ine.add.PTCONT.1188302",
      "street": "R AVEIRO",
      "house": "93",
      "postcode": "3080-438",
      "city": "FIGUEIRA DA FOZ",
      "lon": "-8.832820647334486",
      "lat": "40.19394021494752"
    },
    {
      "id": "pt.ine.add.PTCONT.1250295",
      "street": "R MOSQUEIROS",
      "house": "902",
      "postcode": "3080-532",
      "city": "FIGUEIRA DA FOZ",
      "lon": "-8.83523488645528",
      "lat": "40.19232256771999"
    },
    {
      "id": "pt.ine.add.PTCONT.1250296",
      "street": "R MOSQUEIROS",
      "house": "902",
      "postcode": "3080-532",
      "city": "FIGUEIRA DA FOZ",
      "lon": "-8.83523488645528",
      "lat": "40.19232256771999"
    },
    {
      "id": "pt.ine.add.PTCONT.1268286",
      "street": "R MOSQUEIROS",
      "house": "",
      "postcode": "3080-532",
      "city": "FIGUEIRA DA FOZ",
      "lon": "-8.835663659342268",
      "lat": "40.19290534229617"
    },
    {
      "id": "pt.ine.add.PTCONT.1292060",
      "street": "R MOSQUEIROS",
      "house": "",
      "postcode": "3080-443",
      "city": "FIGUEIRA DA FOZ",
      "lon": "-8.83625025886779",
      "lat": "40.191713017258365"
    },
    {
      "id": "pt.ine.add.PTCONT.1294097",
      "street": "R MOSQUEIRO DE CIMA",
      "house": "6",
      "postcode": "3080-438",
      "city": "FIGUEIRA DA FOZ",
      "lon": "-8.833214940794745",
      "lat": "40.195738987289346"
    },
    {
      "id": "pt.ine.add.PTCONT.1298535",
      "street": "R PEDREIRAS",
      "house": "25",
      "postcode": "3080-532",
      "city": "FIGUEIRA DA FOZ",
      "lon": "-8.83442873044761",
      "lat": "40.19272370892557"
    },
    {
      "id": "pt.ine.add.PTCONT.1300047",
      "street": "R MOSQUEIRO DE CIMA",
      "house": "12",
      "postcode": "3080-438",
      "city": "FIGUEIRA DA FOZ",
      "lon": "-8.834003309122277",
      "lat": "40.195887314914906"
    },
    {
      "id": "pt.ine.add.PTCONT.1304793",
      "street": "R MOSQUEIRO DE CIMA",
      "house": "",
      "postcode": "3080-438",
      "city": "FIGUEIRA DA FOZ",
      "lon": "-8.834251771162494",
      "lat": "40.19606592587642"
    },
    {
      "id": "pt.ine.add.PTCONT.1315828",
      "street": "BRENHA",
      "house": "2",
      "postcode": "3080-437",
      "city": "FIGUEIRA DA FOZ",
      "lon": "-8.830723938215312",
      "lat": "40.18988225370931"
    }
  ]
}