{
  "data": {
    "distrito": "Coimbra",
    "concelho": "Figueira da Foz",
    "freguesia": "Quiaios",
    "OBJECTID": 316,
    "BGRI2021": "06052400325",
    "DT21": "06",
    "DTMN21": "0605",
    "DTMNFR21": "060524",
    "DTMNFRSEC21": "060524003",
    "SECNUM21": "003",
    "SSNUM21": "25",
    "SECSSNUM21": "00325",
    "OBJECTID_1": 51308,
    "DT": "06",
    "CC": "05",
    "fr": "24",
    "SEC": "003",
    "SS": "25"
  },
  "addresses": [
    {
      "id": "pt.ine.add.PTCONT.1100156",
      "street": "R MARCOLINO CUSTÓDIO MACHADO",
      "house": "6",
      "postcode": "3080-514",
      "city": "FIGUEIRA DA FOZ",
      "lon": "-8.892219201753202",
      "lat": "40.209695246549"
    },
    {
      "id": "pt.ine.add.PTCONT.1102815",
      "street": "R DR MANUEL DE ALMEIDA",
      "house": "30",
      "postcode": "3080-514",
      "city": "FIGUEIRA DA FOZ",
      "lon": "-8.893611843144537",
      "lat": "40.208182146543855"
    },
    {
      "id": "pt.ine.add.PTCONT.1121464",
      "street": "R VINHITAS",
      "house": "98",
      "postcode": "3080-514",
      "city": "FIGUEIRA DA FOZ",
      "lon": "-8.888318571151135",
      "lat": "40.208559021201594"
    },
    {
      "id": "pt.ine.add.PTCONT.1121465",
      "street": "R ERA VELHA",
      "house": "",
      "postcode": "3080-514",
      "city": "FIGUEIRA DA FOZ",
      "lon": "-8.891873656366972",
      "lat": "40.20714888755511"
    },
    {
      "id": "pt.ine.add.PTCONT.1124432",
      "street": "R MARCOLINO CUSTÓDIO MACHADO",
      "house": "8",
      "postcode": "3080-514",
      "city": "FIGUEIRA DA FOZ",
      "lon": "-8.891902276221325",
      "lat": "40.20971533604018"
    },
    {
      "id": "pt.ine.add.PTCONT.1130706",
      "street": "R MARCOLINO CUSTÓDIO MACHADO",
      "house": "28",
      "postcode": "3080-514",
      "city": "FIGUEIRA DA FOZ",
      "lon": "-8.890472724678366",
      "lat": "40.211084564984525"
    },
    {
      "id": "pt.ine.add.PTCONT.1136031",
      "street": "R DR MANUEL DE ALMEIDA",
      "house": "26",
      "postcode": "3080-514",
      "city": "FIGUEIRA DA FOZ",
      "lon": "-8.89376352349257",
      "lat": "40.20809109247957"
    },
    {
      "id": "pt.ine.add.PTCONT.1136032",
      "street": "R SENHOR DOS AFLITOS",
      "house": "",
      "postcode": "3080-514",
      "city": "FIGUEIRA DA FOZ",
      "lon": "-8.892586883954694",
      "lat": "40.20685602633236"
    },
    {
      "id": "pt.ine.add.PTCONT.1145610",
      "street": "R DR MANUEL DE ALMEIDA",
      "house": "36",
      "postcode": "3080-514",
      "city": "FIGUEIRA DA FOZ",
      "lon": "-8.893276263790769",
      "lat": "40.20863463787002"
    },
    {
      "id": "pt.ine.add.PTCONT.1145611",
      "street": "R DR MANUEL DE ALMEIDA",
      "house": "36",
      "postcode": "3080-514",
      "city": "FIGUEIRA DA FOZ",
      "lon": "-8.893276263790769",
      "lat": "40.20863463787002"
    },
    {
      "id": "pt.ine.add.PTCONT.1147900",
      "street": "R MARCOLINO CUSTÓDIO MACHADO",
      "house": "22",
      "postcode": "3080-514",
      "city": "FIGUEIRA DA FOZ",
      "lon": "-8.890819578785962",
      "lat": "40.21058697940097"
    },
    {
      "id": "pt.ine.add.PTCONT.1169225",
      "street": "R MARCOLINO CUSTÓDIO MACHADO",
      "house": "26",
      "postcode": "3080-514",
      "city": "FIGUEIRA DA FOZ",
      "lon": "-8.890681840440495",
      "lat": "40.21087606457041"
    },
    {
      "id": "pt.ine.add.PTCONT.1176496",
      "street": "ESCNH SENHOR DOS AFLITOS",
      "house": "2",
      "postcode": "3080-514",
      "city": "FIGUEIRA DA FOZ",
      "lon": "-8.893469766067568",
      "lat": "40.20703034502343"
    },
    {
      "id": "pt.ine.add.PTCONT.1184942",
      "street": "R DR MANUEL DE ALMEIDA",
      "house": "40",
      "postcode": "3080-514",
      "city": "FIGUEIRA DA FOZ",
      "lon": "-8.893084015119623",
      "lat": "40.20824865342487"
    },
    {
      "id": "pt.ine.add.PTCONT.1185942",
      "street": "R EMIGRANTES",
      "house": "7",
      "postcode": "3080-514",
      "city": "FIGUEIRA DA FOZ",
      "lon": "-8.891731012809942",
      "lat": "40.20910406834874"
    },
    {
      "id": "pt.ine.add.PTCONT.1185943",
      "street": "R ERA VELHA",
      "house": "",
      "postcode": "3080-514",
      "city": "FIGUEIRA DA FOZ",
      "lon": "-8.892054752586592",
      "lat": "40.20758898168462"
    },
    {
      "id": "pt.ine.add.PTCONT.1187328",
      "street": "R MARCOLINO CUSTÓDIO MACHADO",
      "house": "24",
      "postcode": "3080-514",
      "city": "FIGUEIRA DA FOZ",
      "lon": "-8.890726917724415",
      "lat": "40.21070466052237"
    },
    {
      "id": "pt.ine.add.PTCONT.1188358",
      "street": "R ERA VELHA CASA DA ENCOSTA",
      "house": "",
      "postcode": "3080-514",
      "city": "FIGUEIRA DA FOZ",
      "lon": "-8.89163725096761",
      "lat": "40.20701535082633"
    },
    {
      "id": "pt.ine.add.PTCONT.1194949",
      "street": "ESCNH SENHOR DOS AFLITOS",
      "house": "4",
      "postcode": "3080-514",
      "city": "FIGUEIRA DA FOZ",
      "lon": "-8.89374231595084",
      "lat": "40.20724469216847"
    },
    {
      "id": "pt.ine.add.PTCONT.1194950",
      "street": "R PAIAO",
      "house": "5",
      "postcode": "3080-514",
      "city": "FIGUEIRA DA FOZ",
      "lon": "-8.890855778557933",
      "lat": "40.205399435196874"
    },
    {
      "id": "pt.ine.add.PTCONT.1213136",
      "street": "R EMIGRANTES",
      "house": "4",
      "postcode": "3080-514",
      "city": "FIGUEIRA DA FOZ",
      "lon": "-8.89218044927051",
      "lat": "40.20938029982637"
    },
    {
      "id": "pt.ine.add.PTCONT.1216193",
      "street": "R MARCOLINO CUSTÓDIO MACHADO",
      "house": "20",
      "postcode": "3080-514",
      "city": "FIGUEIRA DA FOZ",
      "lon": "-8.89125215829452",
      "lat": "40.21040403212965"
    },
    {
      "id": "pt.ine.add.PTCONT.1221862",
      "street": "R ERA VELHA CASA DA FIRA VELHA",
      "house": "",
      "postcode": "3080-514",
      "city": "FIGUEIRA DA FOZ",
      "lon": "-8.891353565708652",
      "lat": "40.20685510609914"
    },
    {
      "id": "pt.ine.add.PTCONT.1222889",
      "street": "R VINHITAS",
      "house": "1Z",
      "postcode": "3080-514",
      "city": "FIGUEIRA DA FOZ",
      "lon": "-8.88958382102745",
      "lat": "40.20931624723544"
    },
    {
      "id": "pt.ine.add.PTCONT.1226039",
      "street": "R DR MANUEL DE ALMEIDA",
      "house": "22",
      "postcode": "3080-514",
      "city": "FIGUEIRA DA FOZ",
      "lon": "-8.893827651779613",
      "lat": "40.20752330936602"
    },
    {
      "id": "pt.ine.add.PTCONT.1246678",
      "street": "R ERA VELHA",
      "house": "16",
      "postcode": "3080-514",
      "city": "FIGUEIRA DA FOZ",
      "lon": "-8.891875564242918",
      "lat": "40.20731998415682"
    },
    {
      "id": "pt.ine.add.PTCONT.1247569",
      "street": "R VINHITAS",
      "house": "14",
      "postcode": "3080-514",
      "city": "FIGUEIRA DA FOZ",
      "lon": "-8.889704378838031",
      "lat": "40.20959463721873"
    },
    {
      "id": "pt.ine.add.PTCONT.1248770",
      "street": "R ERA VELHA",
      "house": "35",
      "postcode": "3080-514",
      "city": "FIGUEIRA DA FOZ",
      "lon": "-8.89219879895911",
      "lat": "40.2068135432804"
    },
    {
      "id": "pt.ine.add.PTCONT.1257434",
      "street": "R VINHITAS",
      "house": "",
      "postcode": "3080-514",
      "city": "FIGUEIRA DA FOZ",
      "lon": "-8.890324059573214",
      "lat": "40.21039209582009"
    },
    {
      "id": "pt.ine.add.PTCONT.1275544",
      "street": "R VINHITAS",
      "house": "26",
      "postcode": "3080-514",
      "city": "FIGUEIRA DA FOZ",
      "lon": "-8.888554975553808",
      "lat": "40.2086925646837"
    },
    {
      "id": "pt.ine.add.PTCONT.1290011",
      "street": "R DR MANUEL DE ALMEIDA",
      "house": "24",
      "postcode": "3080-514",
      "city": "FIGUEIRA DA FOZ",
      "lon": "-8.893722248381744",
      "lat": "40.207551019250516"
    },
    {
      "id": "pt.ine.add.PTCONT.1305911",
      "street": "R DR MANUEL DE ALMEIDA",
      "house": "2E",
      "postcode": "3080-514",
      "city": "FIGUEIRA DA FOZ",
      "lon": "-8.893866108645256",
      "lat": "40.20781124033937"
    },
    {
      "id": "pt.ine.add.PTCONT.1305912",
      "street": "R DR MANUEL DE ALMEIDA",
      "house": "2E",
      "postcode": "3080-514",
      "city": "FIGUEIRA DA FOZ",
      "lon": "-8.893866108645256",
      "lat": "40.20781124033937"
    },
    {
      "id": "pt.ine.add.PTCONT.1313988",
      "street": "R PAIAO",
      "house": "6",
      "postcode": "3080-514",
      "city": "FIGUEIRA DA FOZ",
      "lon": "-8.891240537320623",
      "lat": "40.206198427144564"
    },
    {
      "id": "pt.ine.add.PTCONT.1318829",
      "street": "R EMIGRANTES",
      "house": "11",
      "postcode": "3080-514",
      "city": "FIGUEIRA DA FOZ",
      "lon": "-8.891390900286272",
      "lat": "40.20915132561735"
    },
    {
      "id": "pt.ine.add.PTCONT.1323038",
      "street": "R VINHITAS",
      "house": "12",
      "postcode": "3080-514",
      "city": "FIGUEIRA DA FOZ",
      "lon": "-8.889928843781984",
      "lat": "40.20971024441629"
    },
    {
      "id": "pt.ine.add.PTCONT.1328209",
      "street": "R MARCOLINO CUSTÓDIO MACHADO",
      "house": "4",
      "postcode": "3080-514",
      "city": "FIGUEIRA DA FOZ",
      "lon": "-8.892487637854382",
      "lat": "40.20954038823422"
    },
    {
      "id": "pt.ine.add.PTCONT.1330870",
      "street": "R ERA VELHA",
      "house": "37",
      "postcode": "3080-514",
      "city": "FIGUEIRA DA FOZ",
      "lon": "-8.892035273931631",
      "lat": "40.20689566722859"
    },
    {
      "id": "pt.ine.add.PTCONT.1334335",
      "street": "ESCNH SENHOR DOS AFLITOS",
      "house": "6",
      "postcode": "3080-514",
      "city": "FIGUEIRA DA FOZ",
      "lon": "-8.89360278502754",
      "lat": "40.207371689358695"
    },
    {
      "id": "pt.ine.add.PTCONT.1335132",
      "street": "R VINHITAS",
      "house": "20",
      "postcode": "3080-514",
      "city": "FIGUEIRA DA FOZ",
      "lon": "-8.889687927173094",
      "lat": "40.20917147497271"
    },
    {
      "id": "pt.ine.add.PTCONT.1346338",
      "street": "R EMIGRANTES",
      "house": "5",
      "postcode": "3080-514",
      "city": "FIGUEIRA DA FOZ",
      "lon": "-8.89167489647683",
      "lat": "40.209338585345236"
    },
    {
      "id": "pt.ine.add.PTCONT.1348680",
      "street": "R SENHOR DOS AFLITOS",
      "house": "",
      "postcode": "3080-514",
      "city": "FIGUEIRA DA FOZ",
      "lon": "-8.89244654772472",
      "lat": "40.20691098148233"
    },
    {
      "id": "pt.ine.add.PTCONT.1360695",
      "street": "R MARCOLINO CUSTÓDIO MACHADO",
      "house": "16",
      "postcode": "3080-514",
      "city": "FIGUEIRA DA FOZ",
      "lon": "-8.891741354471911",
      "lat": "40.2100315916864"
    }
  ]
}