{
  "data": {
    "distrito": "Coimbra",
    "concelho": "Figueira da Foz",
    "freguesia": "Quiaios",
    "OBJECTID": 325,
    "BGRI2021": "06052400332",
    "DT21": "06",
    "DTMN21": "0605",
    "DTMNFR21": "060524",
    "DTMNFRSEC21": "060524003",
    "SECNUM21": "003",
    "SSNUM21": "32",
    "SECSSNUM21": "00332",
    "OBJECTID_1": 51997,
    "DT": "06",
    "CC": "05",
    "fr": "24",
    "SEC": "003",
    "SS": "32"
  },
  "addresses": [
    {
      "id": "pt.ine.add.PTCONT.1121463",
      "street": "R MARCOLINO CUSTÓDIO MACHADO",
      "house": "19",
      "postcode": "3080-514",
      "city": "FIGUEIRA DA FOZ",
      "lon": "-8.891595489616451",
      "lat": "40.21064493777364"
    },
    {
      "id": "pt.ine.add.PTCONT.1131909",
      "street": "BC FONTE DO CÃO",
      "house": "",
      "postcode": "3080-514",
      "city": "FIGUEIRA DA FOZ",
      "lon": "-8.89043987580131",
      "lat": "40.21235458871145"
    },
    {
      "id": "pt.ine.add.PTCONT.1134951",
      "street": "R MARCOLINO CUSTÓDIO MACHADO",
      "house": "23",
      "postcode": "3080-514",
      "city": "FIGUEIRA DA FOZ",
      "lon": "-8.891224045819982",
      "lat": "40.21104362361381"
    },
    {
      "id": "pt.ine.add.PTCONT.1147899",
      "street": "BC FONTE DO CÃO",
      "house": "",
      "postcode": "3080-514",
      "city": "FIGUEIRA DA FOZ",
      "lon": "-8.890074851594923",
      "lat": "40.212275924828724"
    },
    {
      "id": "pt.ine.add.PTCONT.1162198",
      "street": "BC FONTE DO CÃO",
      "house": "",
      "postcode": "3080-514",
      "city": "FIGUEIRA DA FOZ",
      "lon": "-8.89085449217842",
      "lat": "40.21266707589963"
    },
    {
      "id": "pt.ine.add.PTCONT.1167928",
      "street": "R MARCOLINO CUSTÓDIO MACHADO",
      "house": "33",
      "postcode": "3080-514",
      "city": "FIGUEIRA DA FOZ",
      "lon": "-8.890489683103661",
      "lat": "40.21155275233325"
    },
    {
      "id": "pt.ine.add.PTCONT.1167929",
      "street": "R MARCOLINO CUSTÓDIO MACHADO",
      "house": "27",
      "postcode": "3080-514",
      "city": "FIGUEIRA DA FOZ",
      "lon": "-8.890815254438417",
      "lat": "40.211253432264755"
    },
    {
      "id": "pt.ine.add.PTCONT.1170031",
      "street": "R MARCOLINO CUSTÓDIO MACHADO",
      "house": "1",
      "postcode": "3080-514",
      "city": "FIGUEIRA DA FOZ",
      "lon": "-8.893348170625819",
      "lat": "40.20981391742097"
    },
    {
      "id": "pt.ine.add.PTCONT.1180328",
      "street": "R MARCOLINO CUSTÓDIO MACHADO",
      "house": "35",
      "postcode": "3080-514",
      "city": "FIGUEIRA DA FOZ",
      "lon": "-8.89030295381833",
      "lat": "40.211662042841894"
    },
    {
      "id": "pt.ine.add.PTCONT.1188357",
      "street": "R TALEFE",
      "house": "9",
      "postcode": "3080-514",
      "city": "FIGUEIRA DA FOZ",
      "lon": "-8.890104154860056",
      "lat": "40.21279806582059"
    },
    {
      "id": "pt.ine.add.PTCONT.1196056",
      "street": "R TALEFE",
      "house": "21",
      "postcode": "3080-514",
      "city": "FIGUEIRA DA FOZ",
      "lon": "-8.890672874513843",
      "lat": "40.21323562596668"
    },
    {
      "id": "pt.ine.add.PTCONT.1200153",
      "street": "R MARCOLINO CUSTODIO MACHADO",
      "house": "31",
      "postcode": "3080-514",
      "city": "FIGUEIRA DA FOZ",
      "lon": "-8.890603631420111",
      "lat": "40.21123680590014"
    },
    {
      "id": "pt.ine.add.PTCONT.1202128",
      "street": "BC FONTE DO CÃO",
      "house": "",
      "postcode": "3080-514",
      "city": "FIGUEIRA DA FOZ",
      "lon": "-8.89008950316345",
      "lat": "40.21253699533195"
    },
    {
      "id": "pt.ine.add.PTCONT.1202129",
      "street": "R FONTE MACHADO",
      "house": "12",
      "postcode": "3080-514",
      "city": "FIGUEIRA DA FOZ",
      "lon": "-8.891462572400215",
      "lat": "40.211366267628904"
    },
    {
      "id": "pt.ine.add.PTCONT.1220263",
      "street": "R FONTE DO CÃO",
      "house": "1",
      "postcode": "3080-514",
      "city": "FIGUEIRA DA FOZ",
      "lon": "-8.891023349451308",
      "lat": "40.213062222660376"
    },
    {
      "id": "pt.ine.add.PTCONT.1220264",
      "street": "R FONTE DO CÃO",
      "house": "1",
      "postcode": "3080-514",
      "city": "FIGUEIRA DA FOZ",
      "lon": "-8.891023349451308",
      "lat": "40.213062222660376"
    },
    {
      "id": "pt.ine.add.PTCONT.1248768",
      "street": "R TALEFE",
      "house": "513",
      "postcode": "3080-514",
      "city": "FIGUEIRA DA FOZ",
      "lon": "-8.889866631226738",
      "lat": "40.21256546987471"
    },
    {
      "id": "pt.ine.add.PTCONT.1250172",
      "street": "BC FONTE DO CÃO",
      "house": "",
      "postcode": "3080-514",
      "city": "FIGUEIRA DA FOZ",
      "lon": "-8.890969443710258",
      "lat": "40.21244117994762"
    },
    {
      "id": "pt.ine.add.PTCONT.1286620",
      "street": "R POIARES",
      "house": "",
      "postcode": "3080-515",
      "city": "FIGUEIRA DA FOZ",
      "lon": "-8.893215726600307",
      "lat": "40.21267861124373"
    },
    {
      "id": "pt.ine.add.PTCONT.1287400",
      "street": "R TALEFE",
      "house": "1",
      "postcode": "3080-514",
      "city": "FIGUEIRA DA FOZ",
      "lon": "-8.889814839836538",
      "lat": "40.21213353317268"
    },
    {
      "id": "pt.ine.add.PTCONT.1300093",
      "street": "R TALEFE",
      "house": "15",
      "postcode": "3080-514",
      "city": "FIGUEIRA DA FOZ",
      "lon": "-8.890600192421553",
      "lat": "40.21303797549683"
    },
    {
      "id": "pt.ine.add.PTCONT.1308390",
      "street": "R MARCOLINO CUSTÓDIO MACHADO",
      "house": "23A",
      "postcode": "3080-514",
      "city": "FIGUEIRA DA FOZ",
      "lon": "-8.891081593093844",
      "lat": "40.21090947048002"
    },
    {
      "id": "pt.ine.add.PTCONT.1318785",
      "street": "BC BECO DA FONTE DO CÃO",
      "house": "3",
      "postcode": "3080-514",
      "city": "FIGUEIRA DA FOZ",
      "lon": "-8.890134182169106",
      "lat": "40.21232957121992"
    },
    {
      "id": "pt.ine.add.PTCONT.1322866",
      "street": "R TALEFE",
      "house": "17",
      "postcode": "3080-514",
      "city": "FIGUEIRA DA FOZ",
      "lon": "-8.890507527705644",
      "lat": "40.21315565642723"
    },
    {
      "id": "pt.ine.add.PTCONT.1326926",
      "street": "R TALEFE",
      "house": "11",
      "postcode": "3080-514",
      "city": "FIGUEIRA DA FOZ",
      "lon": "-8.89024701056784",
      "lat": "40.21296824041034"
    },
    {
      "id": "pt.ine.add.PTCONT.1346337",
      "street": "R TALEFE",
      "house": "19",
      "postcode": "3080-514",
      "city": "FIGUEIRA DA FOZ",
      "lon": "-8.890414361457996",
      "lat": "40.21322831189419"
    }
  ]
}