{
  "data": {
    "distrito": "Porto",
    "concelho": "Bai√£o",
    "freguesia": "Valadares",
    "OBJECTID": 133,
    "BGRI2021": "13021900108",
    "DT21": "13",
    "DTMN21": "1302",
    "DTMNFR21": "130219",
    "DTMNFRSEC21": "130219001",
    "SECNUM21": "001",
    "SSNUM21": "08",
    "SECSSNUM21": "00108",
    "OBJECTID_1": 126826,
    "DT": "13",
    "CC": "02",
    "fr": "19",
    "SEC": "001",
    "SS": "08"
  },
  "addresses": [
    {
      "id": "pt.ine.add.PTCONT.3559714",
      "street": "R COVELA BAIXO",
      "house": "333",
      "postcode": "4640-594",
      "city": "VALADARES BAO",
      "lon": "-7.987476568714562",
      "lat": "41.144277333923704"
    },
    {
      "id": "pt.ine.add.PTCONT.3565978",
      "street": "R SOALHEIRO",
      "house": "333",
      "postcode": "4640-594",
      "city": "VALADARES BAO",
      "lon": "-7.986785255154215",
      "lat": "41.14447455481187"
    },
    {
      "id": "pt.ine.add.PTCONT.3598061",
      "street": "R PRINCIPAL DE VALADARES",
      "house": "3283",
      "postcode": "4640-594",
      "city": "VALADARES BAO",
      "lon": "-7.982464812733788",
      "lat": "41.148151786466684"
    },
    {
      "id": "pt.ine.add.PTCONT.3604517",
      "street": "R CRUZEIRO",
      "house": "106",
      "postcode": "4640-580",
      "city": "VALADARES BAO",
      "lon": "-7.979794275778149",
      "lat": "41.143970220429416"
    },
    {
      "id": "pt.ine.add.PTCONT.3618523",
      "street": "R RIBEIRAS",
      "house": "2 CASA",
      "postcode": "4640-580",
      "city": "VALADARES BAO",
      "lon": "-7.98793723198672",
      "lat": "41.140640134314715"
    },
    {
      "id": "pt.ine.add.PTCONT.3630230",
      "street": "R COVELA BAIXO",
      "house": "",
      "postcode": "4640-594",
      "city": "VALADARES BAO",
      "lon": "-7.98775057545806",
      "lat": "41.14425967118561"
    },
    {
      "id": "pt.ine.add.PTCONT.3666400",
      "street": "R PRINCIPAL DE VALADARES",
      "house": "3413",
      "postcode": "4640-594",
      "city": "VALADARES BAO",
      "lon": "-7.98387099574366",
      "lat": "41.14791950240112"
    },
    {
      "id": "pt.ine.add.PTCONT.3675962",
      "street": "R PRINCIPAL DE VALADARES",
      "house": "3283",
      "postcode": "4640-594",
      "city": "VALADARES BAO",
      "lon": "-7.982381323489651",
      "lat": "41.148196699251585"
    },
    {
      "id": "pt.ine.add.PTCONT.3686080",
      "street": "R COVELA BAIXO",
      "house": "272",
      "postcode": "4640-594",
      "city": "VALADARES BAO",
      "lon": "-7.988059781157859",
      "lat": "41.144485171072034"
    },
    {
      "id": "pt.ine.add.PTCONT.3687875",
      "street": "R SOALHEIRO",
      "house": "100",
      "postcode": "4640-594",
      "city": "VALADARES BAO",
      "lon": "-7.98669000206779",
      "lat": "41.144456424971146"
    },
    {
      "id": "pt.ine.add.PTCONT.3687929",
      "street": "R GODINHO",
      "house": "",
      "postcode": "4640-587",
      "city": "VALADARES BAO",
      "lon": "-7.984802161021285",
      "lat": "41.147029269329444"
    },
    {
      "id": "pt.ine.add.PTCONT.3714499",
      "street": "R PRINCIPAL DE VALADARES",
      "house": "3513",
      "postcode": "4640-594",
      "city": "VALADARES BAO",
      "lon": "-7.984729632878981",
      "lat": "41.14749740477597"
    },
    {
      "id": "pt.ine.add.PTCONT.3734195",
      "street": "R PRINCIPAL DE VALADARES",
      "house": "2649",
      "postcode": "4640-594",
      "city": "VALADARES BAO",
      "lon": "-7.979828815325393",
      "lat": "41.144483517496646"
    },
    {
      "id": "pt.ine.add.PTCONT.3745154",
      "street": "CAM TERREIRO",
      "house": "140",
      "postcode": "4640-594",
      "city": "VALADARES BAO",
      "lon": "-7.988261328085352",
      "lat": "41.14491763611414"
    },
    {
      "id": "pt.ine.add.PTCONT.3751072",
      "street": "R PRINCIPAL DE VALADARES",
      "house": "3351",
      "postcode": "4640-594",
      "city": "VALADARES BAO",
      "lon": "-7.98267960467611",
      "lat": "41.147989987965595"
    },
    {
      "id": "pt.ine.add.PTCONT.3851591",
      "street": "CAM TERREIRO",
      "house": "6",
      "postcode": "4640-594",
      "city": "VALADARES BAO",
      "lon": "-7.989190698500725",
      "lat": "41.14480174368391"
    },
    {
      "id": "pt.ine.add.PTCONT.3863111",
      "street": "R PRINCIPAL DE VALADARES",
      "house": "4163",
      "postcode": "4640-594",
      "city": "VALADARES BAO",
      "lon": "-7.990335061853235",
      "lat": "41.14441597825008"
    },
    {
      "id": "pt.ine.add.PTCONT.3867944",
      "street": "R PRINCIPAL DE VALADARES",
      "house": "4163",
      "postcode": "4640-594",
      "city": "VALADARES BAO",
      "lon": "-7.990335061853235",
      "lat": "41.14441597825008"
    },
    {
      "id": "pt.ine.add.PTCONT.3869511",
      "street": "R COVELA BAIXO",
      "house": "290",
      "postcode": "4640-594",
      "city": "VALADARES BAO",
      "lon": "-7.987928872210919",
      "lat": "41.14443097973266"
    },
    {
      "id": "pt.ine.add.PTCONT.3877397",
      "street": "R COVELA BAIXO",
      "house": "449",
      "postcode": "4640-594",
      "city": "VALADARES BAO",
      "lon": "-7.986668262024255",
      "lat": "41.143519939103086"
    },
    {
      "id": "pt.ine.add.PTCONT.3877398",
      "street": "R CRUZEIRO",
      "house": "106",
      "postcode": "4640-580",
      "city": "VALADARES BAO",
      "lon": "-7.979889526244907",
      "lat": "41.143988355969064"
    },
    {
      "id": "pt.ine.add.PTCONT.3911310",
      "street": "R GODINHO",
      "house": "",
      "postcode": "4640-587",
      "city": "VALADARES BAO",
      "lon": "-7.984574896343453",
      "lat": "41.14744317895831"
    },
    {
      "id": "pt.ine.add.PTCONT.3922567",
      "street": "R PRINCIPAL DE VALADARES",
      "house": "",
      "postcode": "4640-594",
      "city": "VALADARES BAO",
      "lon": "-7.986471801497559",
      "lat": "41.146157979784334"
    },
    {
      "id": "pt.ine.add.PTCONT.3945485",
      "street": "R PRINCIPAL DE VALADARES",
      "house": "4227",
      "postcode": "4640-594",
      "city": "VALADARES BAO",
      "lon": "-7.990372280615747",
      "lat": "41.14373168950434"
    },
    {
      "id": "pt.ine.add.PTCONT.3945486",
      "street": "R RIBEIRAS",
      "house": "2",
      "postcode": "4640-580",
      "city": "VALADARES BAO",
      "lon": "-7.988056202613106",
      "lat": "41.1407033150572"
    },
    {
      "id": "pt.ine.add.PTCONT.3947078",
      "street": "R PRINCIPAL DE VALADARES",
      "house": "4239",
      "postcode": "4640-594",
      "city": "VALADARES BAO",
      "lon": "-7.990491493259169",
      "lat": "41.14368681512049"
    },
    {
      "id": "pt.ine.add.PTCONT.4011293",
      "street": "CAM TERREIRO",
      "house": "39",
      "postcode": "4640-594",
      "city": "VALADARES BAO",
      "lon": "-7.988999992971903",
      "lat": "41.14485553170275"
    },
    {
      "id": "pt.ine.add.PTCONT.4020507",
      "street": "R GODINHO",
      "house": "68",
      "postcode": "4640-587",
      "city": "VALADARES BAO",
      "lon": "-7.984408186866645",
      "lat": "41.14741595067951"
    },
    {
      "id": "pt.ine.add.PTCONT.4020508",
      "street": "CAM TERREIRO",
      "house": "",
      "postcode": "4640-594",
      "city": "VALADARES BAO",
      "lon": "-7.988999815557936",
      "lat": "41.14493657112398"
    },
    {
      "id": "pt.ine.add.PTCONT.4037216",
      "street": "AL S TIAGO",
      "house": "",
      "postcode": "4640-580",
      "city": "VALADARES BAO",
      "lon": "-7.982496178406215",
      "lat": "41.1448562163778"
    },
    {
      "id": "pt.ine.add.PTCONT.4075572",
      "street": "R GODINHO",
      "house": "56",
      "postcode": "4640-587",
      "city": "VALADARES BAO",
      "lon": "-7.984396559510565",
      "lat": "41.14728987405998"
    },
    {
      "id": "pt.ine.add.PTCONT.4076669",
      "street": "R PRINCIPAL DE VALADARES",
      "house": "3529",
      "postcode": "4640-594",
      "city": "VALADARES BAO",
      "lon": "-7.984801369766876",
      "lat": "41.1473804399478"
    },
    {
      "id": "pt.ine.add.PTCONT.4116167",
      "street": "R GODINHO",
      "house": "9",
      "postcode": "4640-587",
      "city": "VALADARES BAO",
      "lon": "-7.984348503892586",
      "lat": "41.147469900025314"
    },
    {
      "id": "pt.ine.add.PTCONT.4128823",
      "street": "R PRINCIPAL DE VALADARES",
      "house": "3273",
      "postcode": "4640-594",
      "city": "VALADARES BAO",
      "lon": "-7.9822976278125175",
      "lat": "41.14833165569644"
    },
    {
      "id": "pt.ine.add.PTCONT.4155476",
      "street": "R GODINHO",
      "house": "67",
      "postcode": "4640-587",
      "city": "VALADARES BAO",
      "lon": "-7.984503606235506",
      "lat": "41.14736204740861"
    },
    {
      "id": "pt.ine.add.PTCONT.4240428",
      "street": "R COVELA BAIXO",
      "house": "2",
      "postcode": "4640-594",
      "city": "VALADARES BAO",
      "lon": "-7.9900622682835705",
      "lat": "41.143875375468596"
    },
    {
      "id": "pt.ine.add.PTCONT.4266514",
      "street": "R GODINHO",
      "house": "",
      "postcode": "4640-587",
      "city": "VALADARES BAO",
      "lon": "-7.984790046016409",
      "lat": "41.14711929774312"
    },
    {
      "id": "pt.ine.add.PTCONT.4292233",
      "street": "CAM TERREIRO",
      "house": "45",
      "postcode": "4640-594",
      "city": "VALADARES BAO",
      "lon": "-7.9889280099084665",
      "lat": "41.14508955615254"
    },
    {
      "id": "pt.ine.add.PTCONT.4300392",
      "street": "R PRINCIPAL DE VALADARES",
      "house": "3025",
      "postcode": "4640-594",
      "city": "VALADARES BAO",
      "lon": "-7.981299192855393",
      "lat": "41.14737587786471"
    },
    {
      "id": "pt.ine.add.PTCONT.4320629",
      "street": "R PRINCIPAL DE VALADARES",
      "house": "4183",
      "postcode": "4640-594",
      "city": "VALADARES BAO",
      "lon": "-7.990335432915877",
      "lat": "41.144244895000604"
    },
    {
      "id": "pt.ine.add.PTCONT.4346078",
      "street": "R CRUZEIRO",
      "house": "106",
      "postcode": "4640-580",
      "city": "VALADARES BAO",
      "lon": "-7.979699046348337",
      "lat": "41.14394308043325"
    },
    {
      "id": "pt.ine.add.PTCONT.4359169",
      "street": "R GODINHO",
      "house": "31",
      "postcode": "4640-587",
      "city": "VALADARES BAO",
      "lon": "-7.984551519090202",
      "lat": "41.14724505199732"
    },
    {
      "id": "pt.ine.add.PTCONT.4374375",
      "street": "AL S TIAGO",
      "house": "",
      "postcode": "4640-580",
      "city": "VALADARES BAO",
      "lon": "-7.983104640002834",
      "lat": "41.144433803267354"
    },
    {
      "id": "pt.ine.add.PTCONT.4388559",
      "street": "R RIBEIRAS",
      "house": "2",
      "postcode": "4640-580",
      "city": "VALADARES BAO",
      "lon": "-7.987901201237374",
      "lat": "41.1407751550734"
    },
    {
      "id": "pt.ine.add.PTCONT.4390662",
      "street": "R PRINCIPAL VALADARES",
      "house": "3585",
      "postcode": "4640-594",
      "city": "VALADARES BAO",
      "lon": "-7.985183490013105",
      "lat": "41.14696672882439"
    }
  ]
}