{
  "data": {
    "distrito": "Santar√©m",
    "concelho": "Chamusca",
    "freguesia": "Carregueira",
    "OBJECTID": 97,
    "BGRI2021": "14070700113",
    "DT21": "14",
    "DTMN21": "1407",
    "DTMNFR21": "140707",
    "DTMNFRSEC21": "140707001",
    "SECNUM21": "001",
    "SSNUM21": "13",
    "SECSSNUM21": "00113",
    "OBJECTID_1": 150143,
    "DT": "14",
    "CC": "07",
    "fr": "07",
    "SEC": "001",
    "SS": "13"
  },
  "addresses": [
    {
      "id": "pt.ine.add.PTCONT.4422818",
      "street": "R TRABALHADORES",
      "house": "31",
      "postcode": "2140-674",
      "city": "CARREGUEIRA",
      "lon": "-8.410040773378812",
      "lat": "39.42354437095215"
    },
    {
      "id": "pt.ine.add.PTCONT.4449617",
      "street": "R CASAL DO PINHEIRO",
      "house": "16",
      "postcode": "2140-667",
      "city": "CARREGUEIRA",
      "lon": "-8.409186190768633",
      "lat": "39.424762357297155"
    },
    {
      "id": "pt.ine.add.PTCONT.4485182",
      "street": "R TRABALHADORES",
      "house": "3T",
      "postcode": "2140-674",
      "city": "CARREGUEIRA",
      "lon": "-8.409774487848912",
      "lat": "39.42375216729805"
    },
    {
      "id": "pt.ine.add.PTCONT.4490228",
      "street": "R TRABALHADORES",
      "house": "33",
      "postcode": "2140-674",
      "city": "CARREGUEIRA",
      "lon": "-8.409959730124086",
      "lat": "39.42360761338303"
    },
    {
      "id": "pt.ine.add.PTCONT.4495823",
      "street": "R CASAL DO PINHEIRO",
      "house": "12",
      "postcode": "2140-667",
      "city": "CARREGUEIRA",
      "lon": "-8.409453691333168",
      "lat": "39.42486079994449"
    },
    {
      "id": "pt.ine.add.PTCONT.4520124",
      "street": "R TRABALHADORES",
      "house": "35",
      "postcode": "2140-674",
      "city": "CARREGUEIRA",
      "lon": "-8.40982069163486",
      "lat": "39.423689007875815"
    },
    {
      "id": "pt.ine.add.PTCONT.4544033",
      "street": "TV CASAL DE STA BARBARA",
      "house": "12",
      "postcode": "2140-667",
      "city": "CARREGUEIRA",
      "lon": "-8.409823113707645",
      "lat": "39.42430148319222"
    },
    {
      "id": "pt.ine.add.PTCONT.4548765",
      "street": "R TRABALHADORES",
      "house": "41",
      "postcode": "2140-674",
      "city": "CARREGUEIRA",
      "lon": "-8.409542791597893",
      "lat": "39.423896831314615"
    },
    {
      "id": "pt.ine.add.PTCONT.4573334",
      "street": "R TRABALHADORES",
      "house": "43",
      "postcode": "2140-674",
      "city": "CARREGUEIRA",
      "lon": "-8.409531569689074",
      "lat": "39.42399593580376"
    },
    {
      "id": "pt.ine.add.PTCONT.4588551",
      "street": "TV CASAL DE STA BARBARA",
      "house": "4",
      "postcode": "2140-667",
      "city": "CARREGUEIRA",
      "lon": "-8.409195956190532",
      "lat": "39.42429396627573"
    },
    {
      "id": "pt.ine.add.PTCONT.4600103",
      "street": "R TRABALHADORES",
      "house": "39",
      "postcode": "2140-674",
      "city": "CARREGUEIRA",
      "lon": "-8.409623835564593",
      "lat": "39.423833589174855"
    },
    {
      "id": "pt.ine.add.PTCONT.4640334",
      "street": "R CASAL DO PINHEIRO",
      "house": "10",
      "postcode": "2140-667",
      "city": "CARREGUEIRA",
      "lon": "-8.409628106841721",
      "lat": "39.4249144279158"
    },
    {
      "id": "pt.ine.add.PTCONT.4652771",
      "street": "ESTR GOUXARIA",
      "house": "1",
      "postcode": "2140-674",
      "city": "CARREGUEIRA",
      "lon": "-8.408998635456173",
      "lat": "39.42432145564334"
    }
  ]
}