{
  "data": {
    "distrito": "Setúbal",
    "concelho": "Almada",
    "freguesia": "União das freguesias de Caparica e Trafaria",
    "OBJECTID": 19,
    "BGRI2021": "15031301210",
    "DT21": "15",
    "DTMN21": "1503",
    "DTMNFR21": "150313",
    "DTMNFRSEC21": "150313012",
    "SECNUM21": "012",
    "SSNUM21": "10",
    "SECSSNUM21": "01210",
    "OBJECTID_1": 161854,
    "DT": "15",
    "CC": "03",
    "fr": "13",
    "SEC": "012",
    "SS": "10"
  },
  "addresses": [
    {
      "id": "pt.ine.add.PTCONT.4677171",
      "street": "AZ CALDEIRÃO",
      "house": "3",
      "postcode": "2825-117",
      "city": "CAPARICA",
      "lon": "-9.205669500853585",
      "lat": "38.64794338001116"
    },
    {
      "id": "pt.ine.add.PTCONT.4688415",
      "street": "AZ CALDEIRÃO",
      "house": "7",
      "postcode": "2825-117",
      "city": "CAPARICA",
      "lon": "-9.205548401462405",
      "lat": "38.648295800241186"
    },
    {
      "id": "pt.ine.add.PTCONT.4696353",
      "street": "QTA S LOURENCO",
      "house": "",
      "postcode": "2825-117",
      "city": "CAPARICA",
      "lon": "-9.206054219394645",
      "lat": "38.64909286872838"
    },
    {
      "id": "pt.ine.add.PTCONT.4696354",
      "street": "AZ CALDEIRAO",
      "house": "",
      "postcode": "2825-117",
      "city": "CAPARICA",
      "lon": "-9.206054219394645",
      "lat": "38.64909286872838"
    },
    {
      "id": "pt.ine.add.PTCONT.4696355",
      "street": "AZ CALDEIRAO",
      "house": "",
      "postcode": "2825-117",
      "city": "CAPARICA",
      "lon": "-9.206054219394645",
      "lat": "38.64909286872838"
    },
    {
      "id": "pt.ine.add.PTCONT.4717132",
      "street": "AZ CALDEIRÃO",
      "house": "8",
      "postcode": "2825-117",
      "city": "CAPARICA",
      "lon": "-9.205803089499002",
      "lat": "38.648428584082644"
    },
    {
      "id": "pt.ine.add.PTCONT.4717645",
      "street": "R FERNANDO GIL",
      "house": "8",
      "postcode": "2825-078",
      "city": "CAPARICA",
      "lon": "-9.20355606661074",
      "lat": "38.6471790482198"
    },
    {
      "id": "pt.ine.add.PTCONT.4717646",
      "street": "R FERNANDO GIL",
      "house": "8",
      "postcode": "2825-078",
      "city": "CAPARICA",
      "lon": "-9.20355606661074",
      "lat": "38.6471790482198"
    },
    {
      "id": "pt.ine.add.PTCONT.4717647",
      "street": "R FERNANDO GIL",
      "house": "8",
      "postcode": "2825-078",
      "city": "CAPARICA",
      "lon": "-9.20355606661074",
      "lat": "38.6471790482198"
    },
    {
      "id": "pt.ine.add.PTCONT.4717669",
      "street": "R FERNANDO GIL",
      "house": "8",
      "postcode": "2825-078",
      "city": "CAPARICA",
      "lon": "-9.20355606661074",
      "lat": "38.6471790482198"
    },
    {
      "id": "pt.ine.add.PTCONT.4720641",
      "street": "R FERNANDO GIL",
      "house": "8",
      "postcode": "2825-078",
      "city": "CAPARICA",
      "lon": "-9.20355606661074",
      "lat": "38.6471790482198"
    },
    {
      "id": "pt.ine.add.PTCONT.4747663",
      "street": "EN 10-1 LETRAS LF",
      "house": "3",
      "postcode": "2825-157",
      "city": "CAPARICA",
      "lon": "-9.206687910808956",
      "lat": "38.647681814956734"
    },
    {
      "id": "pt.ine.add.PTCONT.4747679",
      "street": "QTA RENATA",
      "house": "17",
      "postcode": "2825-049",
      "city": "CAPARICA",
      "lon": "-9.206398974762463",
      "lat": "38.648333038541914"
    },
    {
      "id": "pt.ine.add.PTCONT.4750625",
      "street": "AZ CALDEIRÃO",
      "house": "4",
      "postcode": "2825-117",
      "city": "CAPARICA",
      "lon": "-9.205879993477483",
      "lat": "38.64819367222699"
    },
    {
      "id": "pt.ine.add.PTCONT.4816251",
      "street": "R FERNANDO GIL",
      "house": "4",
      "postcode": "2825-078",
      "city": "CAPARICA",
      "lon": "-9.203925463053523",
      "lat": "38.647301778489066"
    },
    {
      "id": "pt.ine.add.PTCONT.4816252",
      "street": "R FERNANDO GIL",
      "house": "4",
      "postcode": "2825-078",
      "city": "CAPARICA",
      "lon": "-9.203925463053523",
      "lat": "38.647301778489066"
    },
    {
      "id": "pt.ine.add.PTCONT.4816253",
      "street": "R FERNANDO GIL",
      "house": "4",
      "postcode": "2825-078",
      "city": "CAPARICA",
      "lon": "-9.203925463053523",
      "lat": "38.647301778489066"
    },
    {
      "id": "pt.ine.add.PTCONT.4816254",
      "street": "R FERNANDO GIL",
      "house": "4",
      "postcode": "2825-078",
      "city": "CAPARICA",
      "lon": "-9.203925463053523",
      "lat": "38.647301778489066"
    },
    {
      "id": "pt.ine.add.PTCONT.4817557",
      "street": "R FERNANDO GIL",
      "house": "4",
      "postcode": "2825-078",
      "city": "CAPARICA",
      "lon": "-9.203925463053523",
      "lat": "38.647301778489066"
    },
    {
      "id": "pt.ine.add.PTCONT.4818245",
      "street": "R FERNANDO GIL",
      "house": "4",
      "postcode": "2825-078",
      "city": "CAPARICA",
      "lon": "-9.203925463053523",
      "lat": "38.647301778489066"
    },
    {
      "id": "pt.ine.add.PTCONT.4818647",
      "street": "EN 10-1",
      "house": "",
      "postcode": "2825-157",
      "city": "CAPARICA",
      "lon": "-9.206514022273197",
      "lat": "38.64757531542819"
    },
    {
      "id": "pt.ine.add.PTCONT.4839779",
      "street": "R AREEIRO",
      "house": "30",
      "postcode": "2825-026",
      "city": "CAPARICA",
      "lon": "-9.205526371061154",
      "lat": "38.6483590578405"
    },
    {
      "id": "pt.ine.add.PTCONT.4846733",
      "street": "AZ CALDEIRÃO",
      "house": "10",
      "postcode": "2825-117",
      "city": "CAPARICA",
      "lon": "-9.20577078283959",
      "lat": "38.6485730074705"
    },
    {
      "id": "pt.ine.add.PTCONT.4861147",
      "street": "AZ CALDEIRÃO",
      "house": "6",
      "postcode": "2825-117",
      "city": "CAPARICA",
      "lon": "-9.205847418440866",
      "lat": "38.64832008221072"
    },
    {
      "id": "pt.ine.add.PTCONT.4871832",
      "street": "R FERNANDO GIL",
      "house": "2",
      "postcode": "2825-078",
      "city": "CAPARICA",
      "lon": "-9.204098944906114",
      "lat": "38.6473812617748"
    },
    {
      "id": "pt.ine.add.PTCONT.4871833",
      "street": "R FERNANDO GIL",
      "house": "2",
      "postcode": "2825-078",
      "city": "CAPARICA",
      "lon": "-9.204098944906114",
      "lat": "38.6473812617748"
    },
    {
      "id": "pt.ine.add.PTCONT.4871834",
      "street": "R FERNANDO GIL",
      "house": "2",
      "postcode": "2825-078",
      "city": "CAPARICA",
      "lon": "-9.204098944906114",
      "lat": "38.6473812617748"
    },
    {
      "id": "pt.ine.add.PTCONT.4871835",
      "street": "R FERNANDO GIL",
      "house": "2",
      "postcode": "2825-078",
      "city": "CAPARICA",
      "lon": "-9.204098944906114",
      "lat": "38.6473812617748"
    },
    {
      "id": "pt.ine.add.PTCONT.4871836",
      "street": "R FERNANDO GIL",
      "house": "2",
      "postcode": "2825-078",
      "city": "CAPARICA",
      "lon": "-9.204098944906114",
      "lat": "38.6473812617748"
    },
    {
      "id": "pt.ine.add.PTCONT.4874495",
      "street": "R FERNANDO GIL",
      "house": "2",
      "postcode": "2825-078",
      "city": "CAPARICA",
      "lon": "-9.204098944906114",
      "lat": "38.6473812617748"
    },
    {
      "id": "pt.ine.add.PTCONT.4878408",
      "street": "AZ CALDEIRÃO",
      "house": "1",
      "postcode": "2825-117",
      "city": "CAPARICA",
      "lon": "-9.205702747512802",
      "lat": "38.64786200364116"
    },
    {
      "id": "pt.ine.add.PTCONT.4905639",
      "street": "R FERNANDO GIL",
      "house": "7",
      "postcode": "2825-078",
      "city": "CAPARICA",
      "lon": "-9.20350226007573",
      "lat": "38.64742275521183"
    },
    {
      "id": "pt.ine.add.PTCONT.4905640",
      "street": "R FERNANDO GIL",
      "house": "7",
      "postcode": "2825-078",
      "city": "CAPARICA",
      "lon": "-9.20350226007573",
      "lat": "38.64742275521183"
    },
    {
      "id": "pt.ine.add.PTCONT.4905641",
      "street": "R FERNANDO GIL",
      "house": "7",
      "postcode": "2825-078",
      "city": "CAPARICA",
      "lon": "-9.20350226007573",
      "lat": "38.64742275521183"
    },
    {
      "id": "pt.ine.add.PTCONT.4905642",
      "street": "R FERNANDO GIL",
      "house": "3",
      "postcode": "2825-078",
      "city": "CAPARICA",
      "lon": "-9.203883544925665",
      "lat": "38.647572400657396"
    },
    {
      "id": "pt.ine.add.PTCONT.4905755",
      "street": "R FERNANDO GIL",
      "house": "3",
      "postcode": "2825-078",
      "city": "CAPARICA",
      "lon": "-9.203883544925665",
      "lat": "38.647572400657396"
    },
    {
      "id": "pt.ine.add.PTCONT.4905756",
      "street": "R FERNANDO GIL",
      "house": "5",
      "postcode": "2825-078",
      "city": "CAPARICA",
      "lon": "-9.203883544925665",
      "lat": "38.647572400657396"
    },
    {
      "id": "pt.ine.add.PTCONT.4905757",
      "street": "R FERNANDO GIL",
      "house": "3",
      "postcode": "2825-078",
      "city": "CAPARICA",
      "lon": "-9.203883544925665",
      "lat": "38.647572400657396"
    },
    {
      "id": "pt.ine.add.PTCONT.4905758",
      "street": "R FERNANDO GIL",
      "house": "3",
      "postcode": "2825-078",
      "city": "CAPARICA",
      "lon": "-9.203883544925665",
      "lat": "38.647572400657396"
    },
    {
      "id": "pt.ine.add.PTCONT.4906019",
      "street": "R FERNANDO GIL",
      "house": "7",
      "postcode": "2825-078",
      "city": "CAPARICA",
      "lon": "-9.20350226007573",
      "lat": "38.64742275521183"
    },
    {
      "id": "pt.ine.add.PTCONT.4906145",
      "street": "R FERNANDO GIL",
      "house": "7",
      "postcode": "2825-078",
      "city": "CAPARICA",
      "lon": "-9.20350226007573",
      "lat": "38.64742275521183"
    },
    {
      "id": "pt.ine.add.PTCONT.4906166",
      "street": "R FERNANDO GIL",
      "house": "3",
      "postcode": "2825-078",
      "city": "CAPARICA",
      "lon": "-9.203883544925665",
      "lat": "38.647572400657396"
    },
    {
      "id": "pt.ine.add.PTCONT.4906709",
      "street": "R FERNANDO GIL",
      "house": "7",
      "postcode": "2825-078",
      "city": "CAPARICA",
      "lon": "-9.20350226007573",
      "lat": "38.64742275521183"
    },
    {
      "id": "pt.ine.add.PTCONT.4910934",
      "street": "R FERNANDO GIL",
      "house": "5",
      "postcode": "2825-078",
      "city": "CAPARICA",
      "lon": "-9.203699516086068",
      "lat": "38.647556069223384"
    },
    {
      "id": "pt.ine.add.PTCONT.4911090",
      "street": "R FERNANDO GIL",
      "house": "5",
      "postcode": "2825-078",
      "city": "CAPARICA",
      "lon": "-9.203699516086068",
      "lat": "38.647556069223384"
    },
    {
      "id": "pt.ine.add.PTCONT.4911091",
      "street": "R FERNANDO GIL",
      "house": "5",
      "postcode": "2825-078",
      "city": "CAPARICA",
      "lon": "-9.203699516086068",
      "lat": "38.647556069223384"
    },
    {
      "id": "pt.ine.add.PTCONT.4911092",
      "street": "R FERNANDO GIL",
      "house": "5",
      "postcode": "2825-078",
      "city": "CAPARICA",
      "lon": "-9.203699516086068",
      "lat": "38.647556069223384"
    },
    {
      "id": "pt.ine.add.PTCONT.4911093",
      "street": "R FERNANDO GIL",
      "house": "5",
      "postcode": "2825-078",
      "city": "CAPARICA",
      "lon": "-9.203699516086068",
      "lat": "38.647556069223384"
    },
    {
      "id": "pt.ine.add.PTCONT.4913484",
      "street": "R FERNANDO GIL",
      "house": "5",
      "postcode": "2825-078",
      "city": "CAPARICA",
      "lon": "-9.203699516086068",
      "lat": "38.647556069223384"
    },
    {
      "id": "pt.ine.add.PTCONT.4932561",
      "street": "EN 10-1 QTA DAS RENATAS",
      "house": "560",
      "postcode": "2825-157",
      "city": "CAPARICA",
      "lon": "-9.206056367094211",
      "lat": "38.64769661752154"
    },
    {
      "id": "pt.ine.add.PTCONT.4932562",
      "street": "EN 10",
      "house": "2",
      "postcode": "2825-157",
      "city": "CAPARICA",
      "lon": "-9.206056367094211",
      "lat": "38.64769661752154"
    },
    {
      "id": "pt.ine.add.PTCONT.4932563",
      "street": "EN 10-1 QTA DAS RENATAS",
      "house": "560",
      "postcode": "2825-157",
      "city": "CAPARICA",
      "lon": "-9.206056367094211",
      "lat": "38.64769661752154"
    },
    {
      "id": "pt.ine.add.PTCONT.4932564",
      "street": "EN 10-1 QTA DAS RENATAS",
      "house": "560",
      "postcode": "2825-157",
      "city": "CAPARICA",
      "lon": "-9.206056367094211",
      "lat": "38.64769661752154"
    },
    {
      "id": "pt.ine.add.PTCONT.4935061",
      "street": "EN 10-1 QTA DAS RENATAS",
      "house": "560",
      "postcode": "2825-157",
      "city": "CAPARICA",
      "lon": "-9.206056367094211",
      "lat": "38.64769661752154"
    },
    {
      "id": "pt.ine.add.PTCONT.4949572",
      "street": "AZ CALDEIRÃO",
      "house": "14",
      "postcode": "2825-117",
      "city": "CAPARICA",
      "lon": "-9.205911963301098",
      "lat": "38.64879691134749"
    },
    {
      "id": "pt.ine.add.PTCONT.4978892",
      "street": "AZ CALDEIRÃO",
      "house": "12",
      "postcode": "2825-117",
      "city": "CAPARICA",
      "lon": "-9.20573834175555",
      "lat": "38.64870842413438"
    },
    {
      "id": "pt.ine.add.PTCONT.5035287",
      "street": "QTA S LOURENÇO",
      "house": "",
      "postcode": "2825-117",
      "city": "CAPARICA",
      "lon": "-9.206236908965781",
      "lat": "38.649019129275125"
    },
    {
      "id": "pt.ine.add.PTCONT.5048829",
      "street": "R FERNANDO GIL",
      "house": "1",
      "postcode": "2825-078",
      "city": "CAPARICA",
      "lon": "-9.20409054393967",
      "lat": "38.647588521493056"
    },
    {
      "id": "pt.ine.add.PTCONT.5048830",
      "street": "R FERNANDO GIL",
      "house": "1",
      "postcode": "2825-078",
      "city": "CAPARICA",
      "lon": "-9.20409054393967",
      "lat": "38.647588521493056"
    },
    {
      "id": "pt.ine.add.PTCONT.5048831",
      "street": "R FERNANDO GIL",
      "house": "1",
      "postcode": "2825-078",
      "city": "CAPARICA",
      "lon": "-9.20409054393967",
      "lat": "38.647588521493056"
    },
    {
      "id": "pt.ine.add.PTCONT.5048832",
      "street": "R FERNANDO GIL",
      "house": "1",
      "postcode": "2825-078",
      "city": "CAPARICA",
      "lon": "-9.20409054393967",
      "lat": "38.647588521493056"
    },
    {
      "id": "pt.ine.add.PTCONT.5048833",
      "street": "R FERNANDO GIL",
      "house": "1",
      "postcode": "2825-078",
      "city": "CAPARICA",
      "lon": "-9.20409054393967",
      "lat": "38.647588521493056"
    },
    {
      "id": "pt.ine.add.PTCONT.5051825",
      "street": "R FERNANDO GIL",
      "house": "1",
      "postcode": "2825-078",
      "city": "CAPARICA",
      "lon": "-9.20409054393967",
      "lat": "38.647588521493056"
    },
    {
      "id": "pt.ine.add.PTCONT.5070505",
      "street": "R FERNANDO GIL",
      "house": "6",
      "postcode": "2825-078",
      "city": "CAPARICA",
      "lon": "-9.203740898721716",
      "lat": "38.6472494202244"
    },
    {
      "id": "pt.ine.add.PTCONT.5070506",
      "street": "R FERNANDO GIL",
      "house": "6",
      "postcode": "2825-078",
      "city": "CAPARICA",
      "lon": "-9.203740898721716",
      "lat": "38.6472494202244"
    },
    {
      "id": "pt.ine.add.PTCONT.5070507",
      "street": "R FERNANDO GIL",
      "house": "6",
      "postcode": "2825-078",
      "city": "CAPARICA",
      "lon": "-9.203740898721716",
      "lat": "38.6472494202244"
    },
    {
      "id": "pt.ine.add.PTCONT.5070540",
      "street": "R FERNANDO GIL",
      "house": "6",
      "postcode": "2825-078",
      "city": "CAPARICA",
      "lon": "-9.203740898721716",
      "lat": "38.6472494202244"
    },
    {
      "id": "pt.ine.add.PTCONT.5070541",
      "street": "R FERNANDO GIL",
      "house": "6",
      "postcode": "2825-078",
      "city": "CAPARICA",
      "lon": "-9.203740898721716",
      "lat": "38.6472494202244"
    },
    {
      "id": "pt.ine.add.PTCONT.5070542",
      "street": "R FERNANDO GIL",
      "house": "6",
      "postcode": "2825-078",
      "city": "CAPARICA",
      "lon": "-9.203740898721716",
      "lat": "38.6472494202244"
    },
    {
      "id": "pt.ine.add.PTCONT.5077908",
      "street": "QTA RENATA",
      "house": "17",
      "postcode": "2825-049",
      "city": "CAPARICA",
      "lon": "-9.20660611083734",
      "lat": "38.648358161595404"
    },
    {
      "id": "pt.ine.add.PTCONT.5117089",
      "street": "PCT BREJOS",
      "house": "7",
      "postcode": "2825-117",
      "city": "CAPARICA",
      "lon": "-9.205427642458606",
      "lat": "38.64790055771003"
    },
    {
      "id": "pt.ine.add.PTCONT.5132365",
      "street": "QTA RENATA",
      "house": "17",
      "postcode": "2825-049",
      "city": "CAPARICA",
      "lon": "-9.206398974762463",
      "lat": "38.648333038541914"
    },
    {
      "id": "pt.ine.add.PTCONT.5134604",
      "street": "R FERNANDO GIL",
      "house": "8",
      "postcode": "2825-078",
      "city": "CAPARICA",
      "lon": "-9.20355606661074",
      "lat": "38.6471790482198"
    }
  ]
}