{
  "data": {
    "distrito": "Vila Real",
    "concelho": "Alijó",
    "freguesia": "Alijó",
    "OBJECTID": 130,
    "BGRI2021": "17010100135",
    "DT21": "17",
    "DTMN21": "1701",
    "DTMNFR21": "170101",
    "DTMNFRSEC21": "170101001",
    "SECNUM21": "001",
    "SSNUM21": "35",
    "SECSSNUM21": "00135",
    "OBJECTID_1": 179599,
    "DT": "17",
    "CC": "01",
    "fr": "01",
    "SEC": "001",
    "SS": "35"
  },
  "addresses": [
    {
      "id": "pt.ine.add.PTCONT.5292158",
      "street": "R JAIME BARBOSA",
      "house": "3",
      "postcode": "5070-021",
      "city": "ALIJÓ",
      "lon": "-7.471617933098774",
      "lat": "41.27596680518994"
    },
    {
      "id": "pt.ine.add.PTCONT.5294101",
      "street": "TV ANTONIO CANDIDO",
      "house": "2",
      "postcode": "5070-029",
      "city": "ALIJÓ",
      "lon": "-7.471725436809061",
      "lat": "41.27595841872486"
    },
    {
      "id": "pt.ine.add.PTCONT.5294102",
      "street": "LG JOAO CASTRO",
      "house": "2",
      "postcode": "5070-027",
      "city": "ALIJÓ",
      "lon": "-7.471725436809061",
      "lat": "41.27595841872486"
    },
    {
      "id": "pt.ine.add.PTCONT.5295049",
      "street": "TV ANTÓNIO CÂNDIDO",
      "house": "",
      "postcode": "5070-029",
      "city": "ALIJÓ",
      "lon": "-7.471736826254062",
      "lat": "41.276012508900585"
    },
    {
      "id": "pt.ine.add.PTCONT.5316073",
      "street": "LG DR VIEIRA",
      "house": "1",
      "postcode": "5070-026",
      "city": "ALIJÓ",
      "lon": "-7.471220629761049",
      "lat": "41.27630667832393"
    },
    {
      "id": "pt.ine.add.PTCONT.5316934",
      "street": "LG DR VIEIRA",
      "house": "",
      "postcode": "5070-026",
      "city": "ALIJÓ",
      "lon": "-7.471150203417332",
      "lat": "41.27618921978885"
    },
    {
      "id": "pt.ine.add.PTCONT.5328640",
      "street": "R ARCA",
      "house": "",
      "postcode": "5070-032",
      "city": "ALIJÓ",
      "lon": "-7.471521818632228",
      "lat": "41.27602928174995"
    },
    {
      "id": "pt.ine.add.PTCONT.5332747",
      "street": "R ARCA",
      "house": "6",
      "postcode": "5070-032",
      "city": "ALIJÓ",
      "lon": "-7.471330134800225",
      "lat": "41.27610021301764"
    },
    {
      "id": "pt.ine.add.PTCONT.5334795",
      "street": "R ANTÓNIO CÂNDIDO",
      "house": "",
      "postcode": "5070-029",
      "city": "ALIJÓ",
      "lon": "-7.471352276528392",
      "lat": "41.27627141864399"
    },
    {
      "id": "pt.ine.add.PTCONT.5336937",
      "street": "LG DR VIEIRA",
      "house": "9",
      "postcode": "5070-026",
      "city": "ALIJÓ",
      "lon": "-7.471174982643134",
      "lat": "41.27609932103072"
    },
    {
      "id": "pt.ine.add.PTCONT.5356156",
      "street": "R ANTÓNIO CÂNDIDO",
      "house": "6",
      "postcode": "5070-029",
      "city": "ALIJÓ",
      "lon": "-7.471711320717866",
      "lat": "41.27617443659967"
    },
    {
      "id": "pt.ine.add.PTCONT.5362133",
      "street": "R MANUEL MANSILHA",
      "house": "2",
      "postcode": "5070-053",
      "city": "ALIJÓ",
      "lon": "-7.471081505858343",
      "lat": "41.275900692797556"
    },
    {
      "id": "pt.ine.add.PTCONT.5363754",
      "street": "R MANUEL MANSILHA",
      "house": "4",
      "postcode": "5070-053",
      "city": "ALIJÓ",
      "lon": "-7.471108377395406",
      "lat": "41.27560371122303"
    },
    {
      "id": "pt.ine.add.PTCONT.5363755",
      "street": "R ARCA",
      "house": "2 A",
      "postcode": "5070-032",
      "city": "ALIJÓ",
      "lon": "-7.471238658515471",
      "lat": "41.275703505679665"
    },
    {
      "id": "pt.ine.add.PTCONT.5371333",
      "street": "LG DR VIEIRA",
      "house": "11",
      "postcode": "5070-026",
      "city": "ALIJÓ",
      "lon": "-7.471199943717698",
      "lat": "41.27599141506359"
    },
    {
      "id": "pt.ine.add.PTCONT.5391634",
      "street": "LG DR VIEIRA",
      "house": "",
      "postcode": "5070-026",
      "city": "ALIJÓ",
      "lon": "-7.471150658249744",
      "lat": "41.27614420178632"
    },
    {
      "id": "pt.ine.add.PTCONT.5401425",
      "street": "R ARCA",
      "house": "",
      "postcode": "5070-032",
      "city": "ALIJÓ",
      "lon": "-7.4714973126650275",
      "lat": "41.27609216978387"
    },
    {
      "id": "pt.ine.add.PTCONT.5412130",
      "street": "R ARCA",
      "house": "S N",
      "postcode": "5070-032",
      "city": "ALIJÓ",
      "lon": "-7.471437638762941",
      "lat": "41.276091826823425"
    },
    {
      "id": "pt.ine.add.PTCONT.5418631",
      "street": "LG DR VIEIRA",
      "house": "",
      "postcode": "5070-026",
      "city": "ALIJÓ",
      "lon": "-7.471221630288667",
      "lat": "41.276207638718446"
    }
  ]
}