{
  "data": {
    "distrito": "Aveiro",
    "concelho": "Vale de Cambra",
    "freguesia": "São Pedro de Castelões",
    "OBJECTID": 151,
    "BGRI2021": "01190200706",
    "DT21": "01",
    "DTMN21": "0119",
    "DTMNFR21": "011902",
    "DTMNFRSEC21": "011902007",
    "SECNUM21": "007",
    "SSNUM21": "06",
    "SECSSNUM21": "00706",
    "OBJECTID_1": 11956,
    "DT": "01",
    "CC": "19",
    "fr": "02",
    "SEC": "007",
    "SS": "06"
  },
  "addresses": [
    {
      "id": "pt.ine.add.PTCONT.313266",
      "street": "R NSA SRA DAS NECESSIDADES",
      "house": "",
      "postcode": "3730-047",
      "city": "VALE DE CAMBRA",
      "lon": "-8.375353174328376",
      "lat": "40.82544017994868"
    },
    {
      "id": "pt.ine.add.PTCONT.318561",
      "street": "R NSA SRA DAS NECESSIDADES",
      "house": "567",
      "postcode": "3730-047",
      "city": "VALE DE CAMBRA",
      "lon": "-8.375246551062332",
      "lat": "40.8254584135674"
    },
    {
      "id": "pt.ine.add.PTCONT.318564",
      "street": "R CENTRAL DE CAVIÃO DE CIMA",
      "house": "146",
      "postcode": "3730-047",
      "city": "VALE DE CAMBRA",
      "lon": "-8.37657798703623",
      "lat": "40.82324040638068"
    },
    {
      "id": "pt.ine.add.PTCONT.320812",
      "street": "R NSA SRA NECESSIDADES",
      "house": "399",
      "postcode": "3730-047",
      "city": "VALE DE CAMBRA",
      "lon": "-8.375004884213707",
      "lat": "40.82419823472727"
    },
    {
      "id": "pt.ine.add.PTCONT.334807",
      "street": "R NSA SRA DAS NECESSIDADES",
      "house": "",
      "postcode": "3730-047",
      "city": "VALE DE CAMBRA",
      "lon": "-8.378032645028721",
      "lat": "40.825542581609945"
    },
    {
      "id": "pt.ine.add.PTCONT.334808",
      "street": "R CENTRAL DE CAVIÃO DE CIMA",
      "house": "",
      "postcode": "3730-047",
      "city": "VALE DE CAMBRA",
      "lon": "-8.379196037705434",
      "lat": "40.822784606871465"
    },
    {
      "id": "pt.ine.add.PTCONT.334811",
      "street": "R MOREIRAS",
      "house": "13",
      "postcode": "3730-047",
      "city": "VALE DE CAMBRA",
      "lon": "-8.378072110302918",
      "lat": "40.82338132212964"
    },
    {
      "id": "pt.ine.add.PTCONT.10648",
      "street": "R CEREJEIRAS",
      "house": "74",
      "postcode": "3730-047",
      "city": "VALE DE CAMBRA",
      "lon": "-8.379861854633189",
      "lat": "40.82332347884433"
    },
    {
      "id": "pt.ine.add.PTCONT.31953",
      "street": "R CENTRAL DE CAVIÃO DE CIMA",
      "house": "66",
      "postcode": "3730-047",
      "city": "VALE DE CAMBRA",
      "lon": "-8.375630198613962",
      "lat": "40.82338648097729"
    },
    {
      "id": "pt.ine.add.PTCONT.42884",
      "street": "R NSA SRA DAS NECESSIDADES",
      "house": "453",
      "postcode": "3730-047",
      "city": "VALE DE CAMBRA",
      "lon": "-8.374970859476006",
      "lat": "40.82462153631767"
    },
    {
      "id": "pt.ine.add.PTCONT.48198",
      "street": "R CENTRAL DE CAVIÃO DE CIMA",
      "house": "",
      "postcode": "3730-047",
      "city": "VALE DE CAMBRA",
      "lon": "-8.376163494484752",
      "lat": "40.8233493391309"
    },
    {
      "id": "pt.ine.add.PTCONT.115173",
      "street": "R CENTRAL DE CAVIÃO DE CIMA",
      "house": "276",
      "postcode": "3730-047",
      "city": "VALE DE CAMBRA",
      "lon": "-8.377929531914413",
      "lat": "40.823291575760365"
    },
    {
      "id": "pt.ine.add.PTCONT.131142",
      "street": "R NSA SRA DAS NECESSIDADES",
      "house": "",
      "postcode": "3730-047",
      "city": "VALE DE CAMBRA",
      "lon": "-8.375114582414785",
      "lat": "40.82502645536583"
    },
    {
      "id": "pt.ine.add.PTCONT.141869",
      "street": "R NSA SRA DAS NECESSIDADES",
      "house": "793",
      "postcode": "3730-047",
      "city": "VALE DE CAMBRA",
      "lon": "-8.3776544643888",
      "lat": "40.82585855521501"
    },
    {
      "id": "pt.ine.add.PTCONT.152211",
      "street": "R CENTRAL DE CAVIÃO DE CIMA",
      "house": "13",
      "postcode": "3730-047",
      "city": "VALE DE CAMBRA",
      "lon": "-8.377538649986837",
      "lat": "40.82337344864377"
    },
    {
      "id": "pt.ine.add.PTCONT.157566",
      "street": "R NSA SRA DAS NECESSIDADES",
      "house": "",
      "postcode": "3730-047",
      "city": "VALE DE CAMBRA",
      "lon": "-8.375151683834673",
      "lat": "40.82544960773262"
    },
    {
      "id": "pt.ine.add.PTCONT.163037",
      "street": "R CEREJEIRAS",
      "house": "140",
      "postcode": "3730-047",
      "city": "VALE DE CAMBRA",
      "lon": "-8.379745750507956",
      "lat": "40.82398108478718"
    },
    {
      "id": "pt.ine.add.PTCONT.181386",
      "street": "TV PRANCHA",
      "house": "14",
      "postcode": "3730-047",
      "city": "VALE DE CAMBRA",
      "lon": "-8.375251134470561",
      "lat": "40.823459316369046"
    },
    {
      "id": "pt.ine.add.PTCONT.184049",
      "street": "R NSA SRA DAS NECESSIDADES",
      "house": "473",
      "postcode": "3730-047",
      "city": "VALE DE CAMBRA",
      "lon": "-8.375007109052591",
      "lat": "40.82481056319163"
    },
    {
      "id": "pt.ine.add.PTCONT.192168",
      "street": "R CENTRAL DE CAVIÃO DE CIMA",
      "house": "298",
      "postcode": "3730-047",
      "city": "VALE DE CAMBRA",
      "lon": "-8.378213561949998",
      "lat": "40.82316490409791"
    },
    {
      "id": "pt.ine.add.PTCONT.205398",
      "street": "R NSA SRA DAS NECESSIDADES",
      "house": "",
      "postcode": "3730-047",
      "city": "VALE DE CAMBRA",
      "lon": "-8.377867479054334",
      "lat": "40.82575904964615"
    },
    {
      "id": "pt.ine.add.PTCONT.216701",
      "street": "R CENTRAL DE CAVIÃO DE CIMA",
      "house": "",
      "postcode": "3730-047",
      "city": "VALE DE CAMBRA",
      "lon": "-8.375796186621107",
      "lat": "40.82339513684441"
    },
    {
      "id": "pt.ine.add.PTCONT.219517",
      "street": "R NSA SRA DAS NECESSIDADES",
      "house": "",
      "postcode": "3730-047",
      "city": "VALE DE CAMBRA",
      "lon": "-8.375032944400965",
      "lat": "40.825395827392015"
    },
    {
      "id": "pt.ine.add.PTCONT.232785",
      "street": "R NSA SRA DAS NECESSIDADES",
      "house": "733",
      "postcode": "3730-047",
      "city": "VALE DE CAMBRA",
      "lon": "-8.377003034287139",
      "lat": "40.8260130173982"
    },
    {
      "id": "pt.ine.add.PTCONT.251707",
      "street": "R NSA SRA DAS NECESSIDADES",
      "house": "345",
      "postcode": "3730-047",
      "city": "VALE DE CAMBRA",
      "lon": "-8.375085833655557",
      "lat": "40.823639761186044"
    },
    {
      "id": "pt.ine.add.PTCONT.265270",
      "street": "TV PRANCHA",
      "house": "8",
      "postcode": "3730-047",
      "city": "VALE DE CAMBRA",
      "lon": "-8.375061438463007",
      "lat": "40.82345070943874"
    },
    {
      "id": "pt.ine.add.PTCONT.268073",
      "street": "R NSA SRA DAS NECESSIDADES",
      "house": "331",
      "postcode": "3730-047",
      "city": "VALE DE CAMBRA",
      "lon": "-8.37508553910397",
      "lat": "40.82355871770055"
    },
    {
      "id": "pt.ine.add.PTCONT.268074",
      "street": "R CEREJEIRAS",
      "house": "36",
      "postcode": "3730-047",
      "city": "VALE DE CAMBRA",
      "lon": "-8.38000299979793",
      "lat": "40.823026015169944"
    },
    {
      "id": "pt.ine.add.PTCONT.289430",
      "street": "R CENTRAL DE CAVIÃO DE CIMA",
      "house": "150",
      "postcode": "3730-047",
      "city": "VALE DE CAMBRA",
      "lon": "-8.377811191262646",
      "lat": "40.82334585621847"
    }
  ]
}