{
  "data": {
    "distrito": "Santarém",
    "concelho": "Coruche",
    "freguesia": "União das freguesias de Coruche, Fajarda e Erra",
    "OBJECTID": 363,
    "BGRI2021": "14090900603",
    "DT21": "14",
    "DTMN21": "1409",
    "DTMNFR21": "140909",
    "DTMNFRSEC21": "140909006",
    "SECNUM21": "006",
    "SSNUM21": "03",
    "SECSSNUM21": "00603",
    "OBJECTID_1": 150848,
    "DT": "14",
    "CC": "09",
    "fr": "09",
    "SEC": "006",
    "SS": "03"
  },
  "addresses": [
    {
      "id": "pt.ine.add.PTCONT.4424771",
      "street": "R COUCO",
      "house": "2",
      "postcode": "2100-169",
      "city": "CORUCHE",
      "lon": "-8.520852390656776",
      "lat": "38.95964321850752"
    },
    {
      "id": "pt.ine.add.PTCONT.4474379",
      "street": "R BALEIAS",
      "house": "15",
      "postcode": "2100-139",
      "city": "CORUCHE",
      "lon": "-8.520196888556779",
      "lat": "38.96003272861169"
    },
    {
      "id": "pt.ine.add.PTCONT.4480604",
      "street": "R COUCO",
      "house": "4",
      "postcode": "2100-169",
      "city": "CORUCHE",
      "lon": "-8.521049551270155",
      "lat": "38.95983172651141"
    },
    {
      "id": "pt.ine.add.PTCONT.4487024",
      "street": "R VIRGILIO CAMPOS PAIS DO AMARAL",
      "house": "2",
      "postcode": "2100-202",
      "city": "CORUCHE",
      "lon": "-8.521120001676552",
      "lat": "38.960056686587876"
    },
    {
      "id": "pt.ine.add.PTCONT.4501682",
      "street": "R BALEIAS",
      "house": "8",
      "postcode": "2100-139",
      "city": "CORUCHE",
      "lon": "-8.520415161213194",
      "lat": "38.959860856811844"
    },
    {
      "id": "pt.ine.add.PTCONT.4501683",
      "street": "R BALEIAS",
      "house": "8",
      "postcode": "2100-139",
      "city": "CORUCHE",
      "lon": "-8.5202885478529",
      "lat": "38.959915323545"
    },
    {
      "id": "pt.ine.add.PTCONT.4552912",
      "street": "R VIRGÍLIO CAMPOS PAIS DO AMARAL",
      "house": "4",
      "postcode": "2100-202",
      "city": "CORUCHE",
      "lon": "-8.521027606842974",
      "lat": "38.96003897818605"
    },
    {
      "id": "pt.ine.add.PTCONT.4558603",
      "street": "R BALEIAS",
      "house": "1",
      "postcode": "2100-139",
      "city": "CORUCHE",
      "lon": "-8.520992111628958",
      "lat": "38.95987695628226"
    },
    {
      "id": "pt.ine.add.PTCONT.4571858",
      "street": "R VIRGILIO CAMPOS PAIS DO AMARAL",
      "house": "2",
      "postcode": "2100-202",
      "city": "CORUCHE",
      "lon": "-8.521039389500496",
      "lat": "38.96008397787623"
    },
    {
      "id": "pt.ine.add.PTCONT.4574600",
      "street": "R COUCO",
      "house": "6",
      "postcode": "2100-169",
      "city": "CORUCHE",
      "lon": "-8.521095994168277",
      "lat": "38.95988561875285"
    },
    {
      "id": "pt.ine.add.PTCONT.4577873",
      "street": "R COUCO",
      "house": "2",
      "postcode": "2100-169",
      "city": "CORUCHE",
      "lon": "-8.520910419399222",
      "lat": "38.95970608010419"
    },
    {
      "id": "pt.ine.add.PTCONT.4640399",
      "street": "R ERRA",
      "house": "2",
      "postcode": "2100-057",
      "city": "CORUCHE",
      "lon": "-8.520590424579273",
      "lat": "38.96026562474944"
    },
    {
      "id": "pt.ine.add.PTCONT.4640400",
      "street": "R ERRA",
      "house": "2",
      "postcode": "2100-057",
      "city": "CORUCHE",
      "lon": "-8.520590424579273",
      "lat": "38.96026562474944"
    },
    {
      "id": "pt.ine.add.PTCONT.4640401",
      "street": "R ERRA",
      "house": "2",
      "postcode": "2100-057",
      "city": "CORUCHE",
      "lon": "-8.520590424579273",
      "lat": "38.96026562474944"
    },
    {
      "id": "pt.ine.add.PTCONT.4640402",
      "street": "R ERRA",
      "house": "2",
      "postcode": "2100-057",
      "city": "CORUCHE",
      "lon": "-8.520590424579273",
      "lat": "38.96026562474944"
    },
    {
      "id": "pt.ine.add.PTCONT.4640403",
      "street": "R ERRA",
      "house": "2",
      "postcode": "2100-057",
      "city": "CORUCHE",
      "lon": "-8.520590424579273",
      "lat": "38.96026562474944"
    },
    {
      "id": "pt.ine.add.PTCONT.4641483",
      "street": "R ERRA",
      "house": "2",
      "postcode": "2100-057",
      "city": "CORUCHE",
      "lon": "-8.520590424579273",
      "lat": "38.96026562474944"
    }
  ]
}