{
  "data": {
    "distrito": "Santarém",
    "concelho": "Coruche",
    "freguesia": "União das freguesias de Coruche, Fajarda e Erra",
    "OBJECTID": 256,
    "BGRI2021": "14090900622",
    "DT21": "14",
    "DTMN21": "1409",
    "DTMNFR21": "140909",
    "DTMNFRSEC21": "140909006",
    "SECNUM21": "006",
    "SSNUM21": "22",
    "SECSSNUM21": "00622",
    "OBJECTID_1": 150789,
    "DT": "14",
    "CC": "09",
    "fr": "09",
    "SEC": "006",
    "SS": "22"
  },
  "addresses": [
    {
      "id": "pt.ine.add.PTCONT.4399519",
      "street": "R PRÍNCIPE",
      "house": "1",
      "postcode": "2100-174",
      "city": "CORUCHE",
      "lon": "-8.52025891923074",
      "lat": "38.962951039948265"
    },
    {
      "id": "pt.ine.add.PTCONT.4426851",
      "street": "R S TOMÉ",
      "house": "4",
      "postcode": "2100-165",
      "city": "CORUCHE",
      "lon": "-8.520860000870742",
      "lat": "38.963156223056906"
    },
    {
      "id": "pt.ine.add.PTCONT.4426852",
      "street": "R S TOMÉ",
      "house": "4",
      "postcode": "2100-165",
      "city": "CORUCHE",
      "lon": "-8.520860000870742",
      "lat": "38.963156223056906"
    },
    {
      "id": "pt.ine.add.PTCONT.4473310",
      "street": "R BOMBEIROS MUNICIPAIS",
      "house": "55",
      "postcode": "2100-180",
      "city": "CORUCHE",
      "lon": "-8.52032809547315",
      "lat": "38.96294180268297"
    },
    {
      "id": "pt.ine.add.PTCONT.4492917",
      "street": "R PRÍNCIPE",
      "house": "9",
      "postcode": "2100-174",
      "city": "CORUCHE",
      "lon": "-8.520444402803703",
      "lat": "38.96311256429136"
    },
    {
      "id": "pt.ine.add.PTCONT.4517440",
      "street": "R PRÍNCIPE",
      "house": "5",
      "postcode": "2100-174",
      "city": "CORUCHE",
      "lon": "-8.520514167848834",
      "lat": "38.963211418155645"
    },
    {
      "id": "pt.ine.add.PTCONT.4527629",
      "street": "R PRÍNCIPE",
      "house": "3",
      "postcode": "2100-174",
      "city": "CORUCHE",
      "lon": "-8.520305314559556",
      "lat": "38.962995924864394"
    },
    {
      "id": "pt.ine.add.PTCONT.4536504",
      "street": "R JOAQUIM INÁCIO DE ALMEIDA ROSADO",
      "house": "44",
      "postcode": "2100-190",
      "city": "CORUCHE",
      "lon": "-8.520618496830023",
      "lat": "38.96330114944975"
    },
    {
      "id": "pt.ine.add.PTCONT.4546714",
      "street": "R S TOMÉ",
      "house": "4",
      "postcode": "2100-165",
      "city": "CORUCHE",
      "lon": "-8.520651293921249",
      "lat": "38.96296775319752"
    },
    {
      "id": "pt.ine.add.PTCONT.4656935",
      "street": "R PRÍNCIPE",
      "house": "9",
      "postcode": "2100-174",
      "city": "CORUCHE",
      "lon": "-8.520444402803703",
      "lat": "38.96311256429136"
    }
  ]
}