{
  "data": {
    "distrito": "Lisboa",
    "concelho": "Odivelas",
    "freguesia": "Odivelas",
    "OBJECTID": 676,
    "BGRI2021": "11160302601",
    "DT21": "11",
    "DTMN21": "1116",
    "DTMNFR21": "111603",
    "DTMNFRSEC21": "111603026",
    "SECNUM21": "026",
    "SSNUM21": "01",
    "SECSSNUM21": "02601",
    "OBJECTID_1": 119681,
    "DT": "11",
    "CC": "16",
    "fr": "03",
    "SEC": "026",
    "SS": "01"
  },
  "addresses": [
    {
      "id": "pt.ine.add.PTCONT.2271573",
      "street": "R NATERCIA FREIRE",
      "house": "2",
      "postcode": "2675-528",
      "city": "ODIVELAS",
      "lon": "-9.189777587455348",
      "lat": "38.795105081901106"
    },
    {
      "id": "pt.ine.add.PTCONT.2271574",
      "street": "R BELA VISTA",
      "house": "20",
      "postcode": "2675-527",
      "city": "ODIVELAS",
      "lon": "-9.189526655618687",
      "lat": "38.795260482493305"
    },
    {
      "id": "pt.ine.add.PTCONT.2283816",
      "street": "R NATERCIA FREIRE",
      "house": "2A",
      "postcode": "2675-528",
      "city": "ODIVELAS",
      "lon": "-9.18972070871319",
      "lat": "38.79515063496173"
    },
    {
      "id": "pt.ine.add.PTCONT.2292700",
      "street": "R MOINHOS",
      "house": "RC",
      "postcode": "2675-529",
      "city": "ODIVELAS",
      "lon": "-9.191007424246974",
      "lat": "38.79498586040165"
    },
    {
      "id": "pt.ine.add.PTCONT.2292701",
      "street": "R MOINHOS",
      "house": "",
      "postcode": "2675-529",
      "city": "ODIVELAS",
      "lon": "-9.191007424246974",
      "lat": "38.79498586040165"
    },
    {
      "id": "pt.ine.add.PTCONT.2292702",
      "street": "R MOINHOS",
      "house": "",
      "postcode": "2675-529",
      "city": "ODIVELAS",
      "lon": "-9.191007424246974",
      "lat": "38.79498586040165"
    },
    {
      "id": "pt.ine.add.PTCONT.2310740",
      "street": "R NATERCIA FREIRE",
      "house": "",
      "postcode": "2675-528",
      "city": "ODIVELAS",
      "lon": "-9.189394134335169",
      "lat": "38.795640005542765"
    },
    {
      "id": "pt.ine.add.PTCONT.2311073",
      "street": "R NATERCIA FREIRE",
      "house": "",
      "postcode": "2675-528",
      "city": "ODIVELAS",
      "lon": "-9.189394134335169",
      "lat": "38.795640005542765"
    },
    {
      "id": "pt.ine.add.PTCONT.2346504",
      "street": "R PORTO DO PINHEIRO",
      "house": "20",
      "postcode": "2675-531",
      "city": "ODIVELAS",
      "lon": "-9.189675737604343",
      "lat": "38.795223103527434"
    },
    {
      "id": "pt.ine.add.PTCONT.2346505",
      "street": "R BELA VISTA",
      "house": "24",
      "postcode": "2675-527",
      "city": "ODIVELAS",
      "lon": "-9.189662101128011",
      "lat": "38.795079103049325"
    },
    {
      "id": "pt.ine.add.PTCONT.2346506",
      "street": "R PORTO DO PINHEIRO",
      "house": "22",
      "postcode": "2675-531",
      "city": "ODIVELAS",
      "lon": "-9.189583002681843",
      "lat": "38.79517890338726"
    },
    {
      "id": "pt.ine.add.PTCONT.2347413",
      "street": "R PORTO DO PINHEIRO",
      "house": "20",
      "postcode": "2675-531",
      "city": "ODIVELAS",
      "lon": "-9.189675737604343",
      "lat": "38.795223103527434"
    },
    {
      "id": "pt.ine.add.PTCONT.2355851",
      "street": "R MARIA GUILHERMINA ASCENSO",
      "house": "4",
      "postcode": "2675-571",
      "city": "ODIVELAS",
      "lon": "-9.192082086912533",
      "lat": "38.796048045732505"
    },
    {
      "id": "pt.ine.add.PTCONT.2355862",
      "street": "R MARIA GUILHERMINA ASCENSO",
      "house": "4",
      "postcode": "2675-571",
      "city": "ODIVELAS",
      "lon": "-9.192082086912533",
      "lat": "38.796048045732505"
    },
    {
      "id": "pt.ine.add.PTCONT.2355863",
      "street": "R MARIA GUILHERMINA ASCENSO",
      "house": "4",
      "postcode": "2675-571",
      "city": "ODIVELAS",
      "lon": "-9.192082086912533",
      "lat": "38.796048045732505"
    },
    {
      "id": "pt.ine.add.PTCONT.2355864",
      "street": "R MARIA GUILHERMINA ASCENSO",
      "house": "4",
      "postcode": "2675-571",
      "city": "ODIVELAS",
      "lon": "-9.192082086912533",
      "lat": "38.796048045732505"
    },
    {
      "id": "pt.ine.add.PTCONT.2355865",
      "street": "R MARIA GUILHERMINA ASCENSO",
      "house": "4",
      "postcode": "2675-571",
      "city": "ODIVELAS",
      "lon": "-9.192082086912533",
      "lat": "38.796048045732505"
    },
    {
      "id": "pt.ine.add.PTCONT.2355866",
      "street": "R MARIA GUILHERMINA ASCENSO",
      "house": "4",
      "postcode": "2675-571",
      "city": "ODIVELAS",
      "lon": "-9.192082086912533",
      "lat": "38.796048045732505"
    },
    {
      "id": "pt.ine.add.PTCONT.2355867",
      "street": "R MARIA GUILHERMINA ASCENSO",
      "house": "4",
      "postcode": "2675-571",
      "city": "ODIVELAS",
      "lon": "-9.192082086912533",
      "lat": "38.796048045732505"
    },
    {
      "id": "pt.ine.add.PTCONT.2355868",
      "street": "R MARIA GUILHERMINA ASCENSO",
      "house": "4",
      "postcode": "2675-571",
      "city": "ODIVELAS",
      "lon": "-9.192082086912533",
      "lat": "38.796048045732505"
    },
    {
      "id": "pt.ine.add.PTCONT.2382221",
      "street": "R NATERCIA FREIRE",
      "house": "",
      "postcode": "2675-528",
      "city": "ODIVELAS",
      "lon": "-9.189962392352534",
      "lat": "38.795148449130544"
    },
    {
      "id": "pt.ine.add.PTCONT.2382222",
      "street": "R NATERCIA FREIRE",
      "house": "3A",
      "postcode": "2675-528",
      "city": "ODIVELAS",
      "lon": "-9.18995287889473",
      "lat": "38.795283651229305"
    },
    {
      "id": "pt.ine.add.PTCONT.2382223",
      "street": "R NATERCIA FREIRE",
      "house": "",
      "postcode": "2675-528",
      "city": "ODIVELAS",
      "lon": "-9.189826947485189",
      "lat": "38.795329828911704"
    },
    {
      "id": "pt.ine.add.PTCONT.2392943",
      "street": "R DR FERNANDO VALLE",
      "house": "",
      "postcode": "2675-692",
      "city": "ODIVELAS",
      "lon": "-9.189921342682135",
      "lat": "38.79626577966693"
    },
    {
      "id": "pt.ine.add.PTCONT.2392944",
      "street": "R DR FERNANDO VALLE",
      "house": "",
      "postcode": "2675-692",
      "city": "ODIVELAS",
      "lon": "-9.189921342682135",
      "lat": "38.79626577966693"
    },
    {
      "id": "pt.ine.add.PTCONT.2392951",
      "street": "R DR FERNANDO VALLE",
      "house": "",
      "postcode": "2675-692",
      "city": "ODIVELAS",
      "lon": "-9.189921342682135",
      "lat": "38.79626577966693"
    },
    {
      "id": "pt.ine.add.PTCONT.2392952",
      "street": "R DR FERNANDO VALLE",
      "house": "",
      "postcode": "2675-692",
      "city": "ODIVELAS",
      "lon": "-9.189921342682135",
      "lat": "38.79626577966693"
    },
    {
      "id": "pt.ine.add.PTCONT.2392953",
      "street": "R DR FERNANDO VALLE",
      "house": "",
      "postcode": "2675-692",
      "city": "ODIVELAS",
      "lon": "-9.189921342682135",
      "lat": "38.79626577966693"
    },
    {
      "id": "pt.ine.add.PTCONT.2392954",
      "street": "R DR FERNANDO VALLE",
      "house": "",
      "postcode": "2675-692",
      "city": "ODIVELAS",
      "lon": "-9.189921342682135",
      "lat": "38.79626577966693"
    },
    {
      "id": "pt.ine.add.PTCONT.2393555",
      "street": "R DR FERNANDO VALLE",
      "house": "",
      "postcode": "2675-692",
      "city": "ODIVELAS",
      "lon": "-9.189921342682135",
      "lat": "38.79626577966693"
    },
    {
      "id": "pt.ine.add.PTCONT.2393699",
      "street": "R DR FERNANDO VALLE",
      "house": "",
      "postcode": "2675-692",
      "city": "ODIVELAS",
      "lon": "-9.189921342682135",
      "lat": "38.79626577966693"
    },
    {
      "id": "pt.ine.add.PTCONT.2420780",
      "street": "R DR FERNANDO VALLE",
      "house": "6",
      "postcode": "2675-692",
      "city": "ODIVELAS",
      "lon": "-9.190199286559448",
      "lat": "38.79638036590107"
    },
    {
      "id": "pt.ine.add.PTCONT.2420781",
      "street": "R DR FERNANDO VALLE",
      "house": "6",
      "postcode": "2675-692",
      "city": "ODIVELAS",
      "lon": "-9.190199286559448",
      "lat": "38.79638036590107"
    },
    {
      "id": "pt.ine.add.PTCONT.2420782",
      "street": "R DR FERNANDO VALLE",
      "house": "6",
      "postcode": "2675-692",
      "city": "ODIVELAS",
      "lon": "-9.190199286559448",
      "lat": "38.79638036590107"
    },
    {
      "id": "pt.ine.add.PTCONT.2420783",
      "street": "R DR FERNANDO VALLE",
      "house": "6",
      "postcode": "2675-692",
      "city": "ODIVELAS",
      "lon": "-9.190199286559448",
      "lat": "38.79638036590107"
    },
    {
      "id": "pt.ine.add.PTCONT.2420784",
      "street": "R DR FERNANDO VALLE",
      "house": "6",
      "postcode": "2675-692",
      "city": "ODIVELAS",
      "lon": "-9.190199286559448",
      "lat": "38.79638036590107"
    },
    {
      "id": "pt.ine.add.PTCONT.2420785",
      "street": "R DR FERNANDO VALLE",
      "house": "6",
      "postcode": "2675-692",
      "city": "ODIVELAS",
      "lon": "-9.190199286559448",
      "lat": "38.79638036590107"
    },
    {
      "id": "pt.ine.add.PTCONT.2420786",
      "street": "R DR FERNANDO VALLE",
      "house": "6",
      "postcode": "2675-692",
      "city": "ODIVELAS",
      "lon": "-9.190199286559448",
      "lat": "38.79638036590107"
    },
    {
      "id": "pt.ine.add.PTCONT.2420787",
      "street": "R DR FERNANDO VALLE",
      "house": "6",
      "postcode": "2675-692",
      "city": "ODIVELAS",
      "lon": "-9.190199286559448",
      "lat": "38.79638036590107"
    },
    {
      "id": "pt.ine.add.PTCONT.2490257",
      "street": "R NATERCIA FREIRE",
      "house": "",
      "postcode": "2675-528",
      "city": "ODIVELAS",
      "lon": "-9.189691634925833",
      "lat": "38.795520215073616"
    },
    {
      "id": "pt.ine.add.PTCONT.2490258",
      "street": "R NATERCIA FREIRE",
      "house": "",
      "postcode": "2675-528",
      "city": "ODIVELAS",
      "lon": "-9.189691634925833",
      "lat": "38.795520215073616"
    },
    {
      "id": "pt.ine.add.PTCONT.2553408",
      "street": "R PARTICULAR",
      "house": "2",
      "postcode": "2675-530",
      "city": "ODIVELAS",
      "lon": "-9.189558183263378",
      "lat": "38.795836692553635"
    },
    {
      "id": "pt.ine.add.PTCONT.2645595",
      "street": "R PARTICULAR",
      "house": "4",
      "postcode": "2675-530",
      "city": "ODIVELAS",
      "lon": "-9.189650919032871",
      "lat": "38.79588089269685"
    },
    {
      "id": "pt.ine.add.PTCONT.2706059",
      "street": "R PORTO DO PINHEIRO",
      "house": "10",
      "postcode": "2675-531",
      "city": "ODIVELAS",
      "lon": "-9.189313040794234",
      "lat": "38.795604707686316"
    },
    {
      "id": "pt.ine.add.PTCONT.2716161",
      "street": "R LAURA AIRES",
      "house": "4",
      "postcode": "2675-563",
      "city": "ODIVELAS",
      "lon": "-9.190794156912167",
      "lat": "38.79613177356796"
    },
    {
      "id": "pt.ine.add.PTCONT.2716169",
      "street": "R LAURA AIRES",
      "house": "4",
      "postcode": "2675-563",
      "city": "ODIVELAS",
      "lon": "-9.190794156912167",
      "lat": "38.79613177356796"
    },
    {
      "id": "pt.ine.add.PTCONT.2716170",
      "street": "R LAURA AIRES",
      "house": "4",
      "postcode": "2675-563",
      "city": "ODIVELAS",
      "lon": "-9.190794156912167",
      "lat": "38.79613177356796"
    },
    {
      "id": "pt.ine.add.PTCONT.2716171",
      "street": "R LAURA AIRES",
      "house": "4",
      "postcode": "2675-563",
      "city": "ODIVELAS",
      "lon": "-9.190794156912167",
      "lat": "38.79613177356796"
    },
    {
      "id": "pt.ine.add.PTCONT.2716172",
      "street": "R LAURA AIRES",
      "house": "4",
      "postcode": "2675-563",
      "city": "ODIVELAS",
      "lon": "-9.190794156912167",
      "lat": "38.79613177356796"
    },
    {
      "id": "pt.ine.add.PTCONT.2716173",
      "street": "R LAURA AIRES",
      "house": "4",
      "postcode": "2675-563",
      "city": "ODIVELAS",
      "lon": "-9.190794156912167",
      "lat": "38.79613177356796"
    },
    {
      "id": "pt.ine.add.PTCONT.2716174",
      "street": "R LAURA AIRES",
      "house": "4",
      "postcode": "2675-563",
      "city": "ODIVELAS",
      "lon": "-9.190794156912167",
      "lat": "38.79613177356796"
    },
    {
      "id": "pt.ine.add.PTCONT.2716175",
      "street": "R LAURA AIRES",
      "house": "4",
      "postcode": "2675-563",
      "city": "ODIVELAS",
      "lon": "-9.190794156912167",
      "lat": "38.79613177356796"
    },
    {
      "id": "pt.ine.add.PTCONT.2716176",
      "street": "R LAURA AIRES",
      "house": "4",
      "postcode": "2675-563",
      "city": "ODIVELAS",
      "lon": "-9.190794156912167",
      "lat": "38.79613177356796"
    },
    {
      "id": "pt.ine.add.PTCONT.2716177",
      "street": "R LAURA AIRES",
      "house": "4",
      "postcode": "2675-563",
      "city": "ODIVELAS",
      "lon": "-9.190794156912167",
      "lat": "38.79613177356796"
    },
    {
      "id": "pt.ine.add.PTCONT.2716178",
      "street": "R LAURA AIRES",
      "house": "4",
      "postcode": "2675-563",
      "city": "ODIVELAS",
      "lon": "-9.190794156912167",
      "lat": "38.79613177356796"
    },
    {
      "id": "pt.ine.add.PTCONT.2716179",
      "street": "R LAURA AIRES",
      "house": "4",
      "postcode": "2675-563",
      "city": "ODIVELAS",
      "lon": "-9.190794156912167",
      "lat": "38.79613177356796"
    },
    {
      "id": "pt.ine.add.PTCONT.2716180",
      "street": "R LAURA AIRES",
      "house": "4",
      "postcode": "2675-563",
      "city": "ODIVELAS",
      "lon": "-9.190794156912167",
      "lat": "38.79613177356796"
    },
    {
      "id": "pt.ine.add.PTCONT.2716181",
      "street": "R LAURA AIRES",
      "house": "4",
      "postcode": "2675-563",
      "city": "ODIVELAS",
      "lon": "-9.190794156912167",
      "lat": "38.79613177356796"
    },
    {
      "id": "pt.ine.add.PTCONT.2716182",
      "street": "R LAURA AIRES",
      "house": "4",
      "postcode": "2675-563",
      "city": "ODIVELAS",
      "lon": "-9.190794156912167",
      "lat": "38.79613177356796"
    },
    {
      "id": "pt.ine.add.PTCONT.2716183",
      "street": "R LAURA AIRES",
      "house": "4",
      "postcode": "2675-563",
      "city": "ODIVELAS",
      "lon": "-9.190794156912167",
      "lat": "38.79613177356796"
    },
    {
      "id": "pt.ine.add.PTCONT.2716184",
      "street": "R LAURA AIRES",
      "house": "4",
      "postcode": "2675-563",
      "city": "ODIVELAS",
      "lon": "-9.190794156912167",
      "lat": "38.79613177356796"
    },
    {
      "id": "pt.ine.add.PTCONT.2716185",
      "street": "R LAURA AIRES",
      "house": "4",
      "postcode": "2675-563",
      "city": "ODIVELAS",
      "lon": "-9.190794156912167",
      "lat": "38.79613177356796"
    },
    {
      "id": "pt.ine.add.PTCONT.2716186",
      "street": "R LAURA AIRES",
      "house": "4",
      "postcode": "2675-563",
      "city": "ODIVELAS",
      "lon": "-9.190794156912167",
      "lat": "38.79613177356796"
    },
    {
      "id": "pt.ine.add.PTCONT.2716187",
      "street": "R LAURA AIRES",
      "house": "4",
      "postcode": "2675-563",
      "city": "ODIVELAS",
      "lon": "-9.190794156912167",
      "lat": "38.79613177356796"
    },
    {
      "id": "pt.ine.add.PTCONT.2716188",
      "street": "R LAURA AIRES",
      "house": "4",
      "postcode": "2675-563",
      "city": "ODIVELAS",
      "lon": "-9.190794156912167",
      "lat": "38.79613177356796"
    },
    {
      "id": "pt.ine.add.PTCONT.2716189",
      "street": "R LAURA AIRES",
      "house": "4",
      "postcode": "2675-563",
      "city": "ODIVELAS",
      "lon": "-9.190794156912167",
      "lat": "38.79613177356796"
    },
    {
      "id": "pt.ine.add.PTCONT.2716190",
      "street": "R LAURA AIRES",
      "house": "4",
      "postcode": "2675-563",
      "city": "ODIVELAS",
      "lon": "-9.190794156912167",
      "lat": "38.79613177356796"
    },
    {
      "id": "pt.ine.add.PTCONT.2716191",
      "street": "R LAURA AIRES",
      "house": "4",
      "postcode": "2675-563",
      "city": "ODIVELAS",
      "lon": "-9.190794156912167",
      "lat": "38.79613177356796"
    },
    {
      "id": "pt.ine.add.PTCONT.2716192",
      "street": "R LAURA AIRES",
      "house": "4",
      "postcode": "2675-563",
      "city": "ODIVELAS",
      "lon": "-9.190794156912167",
      "lat": "38.79613177356796"
    },
    {
      "id": "pt.ine.add.PTCONT.2716193",
      "street": "R LAURA AIRES",
      "house": "4",
      "postcode": "2675-563",
      "city": "ODIVELAS",
      "lon": "-9.190794156912167",
      "lat": "38.79613177356796"
    },
    {
      "id": "pt.ine.add.PTCONT.2716194",
      "street": "R LAURA AIRES",
      "house": "4",
      "postcode": "2675-563",
      "city": "ODIVELAS",
      "lon": "-9.190794156912167",
      "lat": "38.79613177356796"
    },
    {
      "id": "pt.ine.add.PTCONT.2716195",
      "street": "R LAURA AIRES",
      "house": "4",
      "postcode": "2675-563",
      "city": "ODIVELAS",
      "lon": "-9.190794156912167",
      "lat": "38.79613177356796"
    },
    {
      "id": "pt.ine.add.PTCONT.2716196",
      "street": "R LAURA AIRES",
      "house": "4",
      "postcode": "2675-563",
      "city": "ODIVELAS",
      "lon": "-9.190794156912167",
      "lat": "38.79613177356796"
    },
    {
      "id": "pt.ine.add.PTCONT.2716197",
      "street": "R LAURA AIRES C",
      "house": "C",
      "postcode": "2675-563",
      "city": "ODIVELAS",
      "lon": "-9.190794156912167",
      "lat": "38.79613177356796"
    },
    {
      "id": "pt.ine.add.PTCONT.2716198",
      "street": "R LAURA AIRES",
      "house": "4",
      "postcode": "2675-563",
      "city": "ODIVELAS",
      "lon": "-9.190794156912167",
      "lat": "38.79613177356796"
    },
    {
      "id": "pt.ine.add.PTCONT.2716199",
      "street": "R LAURA AIRES",
      "house": "4",
      "postcode": "2675-563",
      "city": "ODIVELAS",
      "lon": "-9.190794156912167",
      "lat": "38.79613177356796"
    },
    {
      "id": "pt.ine.add.PTCONT.2716200",
      "street": "R LAURA AIRES",
      "house": "4",
      "postcode": "2675-563",
      "city": "ODIVELAS",
      "lon": "-9.190794156912167",
      "lat": "38.79613177356796"
    },
    {
      "id": "pt.ine.add.PTCONT.2716201",
      "street": "R LAURA AIRES",
      "house": "4",
      "postcode": "2675-563",
      "city": "ODIVELAS",
      "lon": "-9.190794156912167",
      "lat": "38.79613177356796"
    },
    {
      "id": "pt.ine.add.PTCONT.2716202",
      "street": "R LAURA AIRES",
      "house": "4",
      "postcode": "2675-563",
      "city": "ODIVELAS",
      "lon": "-9.190794156912167",
      "lat": "38.79613177356796"
    },
    {
      "id": "pt.ine.add.PTCONT.2716203",
      "street": "R LAURA AIRES",
      "house": "4",
      "postcode": "2675-563",
      "city": "ODIVELAS",
      "lon": "-9.190794156912167",
      "lat": "38.79613177356796"
    },
    {
      "id": "pt.ine.add.PTCONT.2716204",
      "street": "R LAURA AIRES",
      "house": "4",
      "postcode": "2675-563",
      "city": "ODIVELAS",
      "lon": "-9.190794156912167",
      "lat": "38.79613177356796"
    },
    {
      "id": "pt.ine.add.PTCONT.2716205",
      "street": "R LAURA AIRES",
      "house": "4",
      "postcode": "2675-563",
      "city": "ODIVELAS",
      "lon": "-9.190794156912167",
      "lat": "38.79613177356796"
    },
    {
      "id": "pt.ine.add.PTCONT.2716206",
      "street": "R LAURA AIRES",
      "house": "4",
      "postcode": "2675-563",
      "city": "ODIVELAS",
      "lon": "-9.190794156912167",
      "lat": "38.79613177356796"
    },
    {
      "id": "pt.ine.add.PTCONT.2716207",
      "street": "R LAURA AIRES",
      "house": "4",
      "postcode": "2675-563",
      "city": "ODIVELAS",
      "lon": "-9.190794156912167",
      "lat": "38.79613177356796"
    },
    {
      "id": "pt.ine.add.PTCONT.2716208",
      "street": "R LAURA AIRES",
      "house": "4",
      "postcode": "2675-563",
      "city": "ODIVELAS",
      "lon": "-9.190794156912167",
      "lat": "38.79613177356796"
    },
    {
      "id": "pt.ine.add.PTCONT.2716209",
      "street": "R LAURA AIRES",
      "house": "4",
      "postcode": "2675-563",
      "city": "ODIVELAS",
      "lon": "-9.190794156912167",
      "lat": "38.79613177356796"
    },
    {
      "id": "pt.ine.add.PTCONT.2716210",
      "street": "R PORTO DO PINHEIRO",
      "house": "",
      "postcode": "2675-531",
      "city": "ODIVELAS",
      "lon": "-9.189438574159652",
      "lat": "38.79553151094556"
    },
    {
      "id": "pt.ine.add.PTCONT.2716590",
      "street": "R LAURA AIRES",
      "house": "4",
      "postcode": "2675-563",
      "city": "ODIVELAS",
      "lon": "-9.190794156912167",
      "lat": "38.79613177356796"
    },
    {
      "id": "pt.ine.add.PTCONT.2716919",
      "street": "R LAURA AIRES",
      "house": "4",
      "postcode": "2675-563",
      "city": "ODIVELAS",
      "lon": "-9.190794156912167",
      "lat": "38.79613177356796"
    },
    {
      "id": "pt.ine.add.PTCONT.2716928",
      "street": "R LAURA AIRES",
      "house": "4",
      "postcode": "2675-563",
      "city": "ODIVELAS",
      "lon": "-9.190794156912167",
      "lat": "38.79613177356796"
    },
    {
      "id": "pt.ine.add.PTCONT.2716934",
      "street": "R LAURA AIRES",
      "house": "4",
      "postcode": "2675-563",
      "city": "ODIVELAS",
      "lon": "-9.190794156912167",
      "lat": "38.79613177356796"
    },
    {
      "id": "pt.ine.add.PTCONT.2717066",
      "street": "R LAURA AIRES",
      "house": "4",
      "postcode": "2675-563",
      "city": "ODIVELAS",
      "lon": "-9.190794156912167",
      "lat": "38.79613177356796"
    },
    {
      "id": "pt.ine.add.PTCONT.2741282",
      "street": "R LAURA AIRES",
      "house": "2",
      "postcode": "2675-563",
      "city": "ODIVELAS",
      "lon": "-9.190226894338654",
      "lat": "38.795911713903095"
    },
    {
      "id": "pt.ine.add.PTCONT.2741283",
      "street": "R LAURA AIRES",
      "house": "2",
      "postcode": "2675-563",
      "city": "ODIVELAS",
      "lon": "-9.190226894338654",
      "lat": "38.795911713903095"
    },
    {
      "id": "pt.ine.add.PTCONT.2741442",
      "street": "R LAURA AIRES",
      "house": "2",
      "postcode": "2675-563",
      "city": "ODIVELAS",
      "lon": "-9.190226894338654",
      "lat": "38.795911713903095"
    },
    {
      "id": "pt.ine.add.PTCONT.2741443",
      "street": "R LAURA AIRES",
      "house": "2",
      "postcode": "2675-563",
      "city": "ODIVELAS",
      "lon": "-9.190226894338654",
      "lat": "38.795911713903095"
    },
    {
      "id": "pt.ine.add.PTCONT.2741444",
      "street": "R LAURA AIRES",
      "house": "2",
      "postcode": "2675-563",
      "city": "ODIVELAS",
      "lon": "-9.190226894338654",
      "lat": "38.795911713903095"
    },
    {
      "id": "pt.ine.add.PTCONT.2741445",
      "street": "R LAURA AIRES",
      "house": "2",
      "postcode": "2675-563",
      "city": "ODIVELAS",
      "lon": "-9.190226894338654",
      "lat": "38.795911713903095"
    },
    {
      "id": "pt.ine.add.PTCONT.2741446",
      "street": "R LAURA AIRES",
      "house": "2",
      "postcode": "2675-563",
      "city": "ODIVELAS",
      "lon": "-9.190226894338654",
      "lat": "38.795911713903095"
    },
    {
      "id": "pt.ine.add.PTCONT.2741447",
      "street": "R LAURA AIRES",
      "house": "2",
      "postcode": "2675-563",
      "city": "ODIVELAS",
      "lon": "-9.190226894338654",
      "lat": "38.795911713903095"
    },
    {
      "id": "pt.ine.add.PTCONT.2741448",
      "street": "R LAURA AIRES",
      "house": "2",
      "postcode": "2675-563",
      "city": "ODIVELAS",
      "lon": "-9.190226894338654",
      "lat": "38.795911713903095"
    },
    {
      "id": "pt.ine.add.PTCONT.2741449",
      "street": "R LAURA AIRES",
      "house": "2",
      "postcode": "2675-563",
      "city": "ODIVELAS",
      "lon": "-9.190226894338654",
      "lat": "38.795911713903095"
    },
    {
      "id": "pt.ine.add.PTCONT.2741450",
      "street": "R LAURA AIRES",
      "house": "2",
      "postcode": "2675-563",
      "city": "ODIVELAS",
      "lon": "-9.190226894338654",
      "lat": "38.795911713903095"
    },
    {
      "id": "pt.ine.add.PTCONT.2741451",
      "street": "R LAURA AIRES",
      "house": "2",
      "postcode": "2675-563",
      "city": "ODIVELAS",
      "lon": "-9.190226894338654",
      "lat": "38.795911713903095"
    },
    {
      "id": "pt.ine.add.PTCONT.2741452",
      "street": "R LAURA AIRES",
      "house": "2",
      "postcode": "2675-563",
      "city": "ODIVELAS",
      "lon": "-9.190226894338654",
      "lat": "38.795911713903095"
    },
    {
      "id": "pt.ine.add.PTCONT.2741453",
      "street": "R LAURA AIRES",
      "house": "2",
      "postcode": "2675-563",
      "city": "ODIVELAS",
      "lon": "-9.190226894338654",
      "lat": "38.795911713903095"
    },
    {
      "id": "pt.ine.add.PTCONT.2741454",
      "street": "R LAURA AIRES",
      "house": "2",
      "postcode": "2675-563",
      "city": "ODIVELAS",
      "lon": "-9.190226894338654",
      "lat": "38.795911713903095"
    },
    {
      "id": "pt.ine.add.PTCONT.2741455",
      "street": "R LAURA AIRES",
      "house": "2",
      "postcode": "2675-563",
      "city": "ODIVELAS",
      "lon": "-9.190226894338654",
      "lat": "38.795911713903095"
    },
    {
      "id": "pt.ine.add.PTCONT.2741609",
      "street": "R LAURA AIRES",
      "house": "2",
      "postcode": "2675-563",
      "city": "ODIVELAS",
      "lon": "-9.190226894338654",
      "lat": "38.795911713903095"
    },
    {
      "id": "pt.ine.add.PTCONT.2741610",
      "street": "R LAURA AIRES",
      "house": "2",
      "postcode": "2675-563",
      "city": "ODIVELAS",
      "lon": "-9.190226894338654",
      "lat": "38.795911713903095"
    },
    {
      "id": "pt.ine.add.PTCONT.2741611",
      "street": "R LAURA AIRES",
      "house": "2",
      "postcode": "2675-563",
      "city": "ODIVELAS",
      "lon": "-9.190226894338654",
      "lat": "38.795911713903095"
    },
    {
      "id": "pt.ine.add.PTCONT.2741612",
      "street": "R LAURA AIRES",
      "house": "2",
      "postcode": "2675-563",
      "city": "ODIVELAS",
      "lon": "-9.190226894338654",
      "lat": "38.795911713903095"
    },
    {
      "id": "pt.ine.add.PTCONT.2741613",
      "street": "R LAURA AIRES",
      "house": "2",
      "postcode": "2675-563",
      "city": "ODIVELAS",
      "lon": "-9.190226894338654",
      "lat": "38.795911713903095"
    },
    {
      "id": "pt.ine.add.PTCONT.2741614",
      "street": "R LAURA AIRES",
      "house": "2",
      "postcode": "2675-563",
      "city": "ODIVELAS",
      "lon": "-9.190226894338654",
      "lat": "38.795911713903095"
    },
    {
      "id": "pt.ine.add.PTCONT.2741615",
      "street": "R LAURA AIRES",
      "house": "2",
      "postcode": "2675-563",
      "city": "ODIVELAS",
      "lon": "-9.190226894338654",
      "lat": "38.795911713903095"
    },
    {
      "id": "pt.ine.add.PTCONT.2741616",
      "street": "R LAURA AIRES",
      "house": "2",
      "postcode": "2675-563",
      "city": "ODIVELAS",
      "lon": "-9.190226894338654",
      "lat": "38.795911713903095"
    },
    {
      "id": "pt.ine.add.PTCONT.2741617",
      "street": "R LAURA AIRES",
      "house": "2",
      "postcode": "2675-563",
      "city": "ODIVELAS",
      "lon": "-9.190226894338654",
      "lat": "38.795911713903095"
    },
    {
      "id": "pt.ine.add.PTCONT.2741618",
      "street": "R LAURA AIRES",
      "house": "2",
      "postcode": "2675-563",
      "city": "ODIVELAS",
      "lon": "-9.190226894338654",
      "lat": "38.795911713903095"
    },
    {
      "id": "pt.ine.add.PTCONT.2741619",
      "street": "R LAURA AIRES",
      "house": "2",
      "postcode": "2675-563",
      "city": "ODIVELAS",
      "lon": "-9.190226894338654",
      "lat": "38.795911713903095"
    },
    {
      "id": "pt.ine.add.PTCONT.2741620",
      "street": "R LAURA AIRES",
      "house": "2",
      "postcode": "2675-563",
      "city": "ODIVELAS",
      "lon": "-9.190226894338654",
      "lat": "38.795911713903095"
    },
    {
      "id": "pt.ine.add.PTCONT.2741621",
      "street": "R LAURA AIRES",
      "house": "2",
      "postcode": "2675-563",
      "city": "ODIVELAS",
      "lon": "-9.190226894338654",
      "lat": "38.795911713903095"
    },
    {
      "id": "pt.ine.add.PTCONT.2741622",
      "street": "R LAURA AIRES",
      "house": "2",
      "postcode": "2675-563",
      "city": "ODIVELAS",
      "lon": "-9.190226894338654",
      "lat": "38.795911713903095"
    },
    {
      "id": "pt.ine.add.PTCONT.2741804",
      "street": "R LAURA AIRES",
      "house": "2",
      "postcode": "2675-563",
      "city": "ODIVELAS",
      "lon": "-9.190226894338654",
      "lat": "38.795911713903095"
    },
    {
      "id": "pt.ine.add.PTCONT.2741805",
      "street": "R LAURA AIRES",
      "house": "2",
      "postcode": "2675-563",
      "city": "ODIVELAS",
      "lon": "-9.190226894338654",
      "lat": "38.795911713903095"
    },
    {
      "id": "pt.ine.add.PTCONT.2741806",
      "street": "R LAURA AIRES",
      "house": "2",
      "postcode": "2675-563",
      "city": "ODIVELAS",
      "lon": "-9.190226894338654",
      "lat": "38.795911713903095"
    },
    {
      "id": "pt.ine.add.PTCONT.2741807",
      "street": "R LAURA AIRES A",
      "house": "A",
      "postcode": "2675-563",
      "city": "ODIVELAS",
      "lon": "-9.190226894338654",
      "lat": "38.795911713903095"
    },
    {
      "id": "pt.ine.add.PTCONT.2741808",
      "street": "R LAURA AIRES",
      "house": "2",
      "postcode": "2675-563",
      "city": "ODIVELAS",
      "lon": "-9.190226894338654",
      "lat": "38.795911713903095"
    },
    {
      "id": "pt.ine.add.PTCONT.2741809",
      "street": "R LAURA AIRES",
      "house": "2",
      "postcode": "2675-563",
      "city": "ODIVELAS",
      "lon": "-9.190226894338654",
      "lat": "38.795911713903095"
    },
    {
      "id": "pt.ine.add.PTCONT.2741810",
      "street": "R LAURA AIRES",
      "house": "2",
      "postcode": "2675-563",
      "city": "ODIVELAS",
      "lon": "-9.190226894338654",
      "lat": "38.795911713903095"
    },
    {
      "id": "pt.ine.add.PTCONT.2741811",
      "street": "R LAURA AIRES",
      "house": "2",
      "postcode": "2675-563",
      "city": "ODIVELAS",
      "lon": "-9.190226894338654",
      "lat": "38.795911713903095"
    },
    {
      "id": "pt.ine.add.PTCONT.2741812",
      "street": "R LAURA AIRES",
      "house": "2",
      "postcode": "2675-563",
      "city": "ODIVELAS",
      "lon": "-9.190226894338654",
      "lat": "38.795911713903095"
    },
    {
      "id": "pt.ine.add.PTCONT.2741813",
      "street": "R LAURA AIRES",
      "house": "2",
      "postcode": "2675-563",
      "city": "ODIVELAS",
      "lon": "-9.190226894338654",
      "lat": "38.795911713903095"
    },
    {
      "id": "pt.ine.add.PTCONT.2741814",
      "street": "R LAURA AIRES",
      "house": "EDIFICIO",
      "postcode": "2675-563",
      "city": "ODIVELAS",
      "lon": "-9.190226894338654",
      "lat": "38.795911713903095"
    },
    {
      "id": "pt.ine.add.PTCONT.2741815",
      "street": "R LAURA AIRES",
      "house": "2",
      "postcode": "2675-563",
      "city": "ODIVELAS",
      "lon": "-9.190226894338654",
      "lat": "38.795911713903095"
    },
    {
      "id": "pt.ine.add.PTCONT.2741816",
      "street": "R LAURA AIRES",
      "house": "2",
      "postcode": "2675-563",
      "city": "ODIVELAS",
      "lon": "-9.190226894338654",
      "lat": "38.795911713903095"
    },
    {
      "id": "pt.ine.add.PTCONT.2743872",
      "street": "R LAURA AIRES",
      "house": "2",
      "postcode": "2675-563",
      "city": "ODIVELAS",
      "lon": "-9.190226894338654",
      "lat": "38.795911713903095"
    },
    {
      "id": "pt.ine.add.PTCONT.2743934",
      "street": "R LAURA AIRES",
      "house": "2",
      "postcode": "2675-563",
      "city": "ODIVELAS",
      "lon": "-9.190226894338654",
      "lat": "38.795911713903095"
    },
    {
      "id": "pt.ine.add.PTCONT.2744109",
      "street": "R LAURA AIRES",
      "house": "2",
      "postcode": "2675-563",
      "city": "ODIVELAS",
      "lon": "-9.190226894338654",
      "lat": "38.795911713903095"
    },
    {
      "id": "pt.ine.add.PTCONT.2744153",
      "street": "R LAURA AIRES",
      "house": "2",
      "postcode": "2675-563",
      "city": "ODIVELAS",
      "lon": "-9.190226894338654",
      "lat": "38.795911713903095"
    },
    {
      "id": "pt.ine.add.PTCONT.2753807",
      "street": "R A",
      "house": "3",
      "postcode": "2675-525",
      "city": "ODIVELAS",
      "lon": "-9.191284698854217",
      "lat": "38.79505541147375"
    },
    {
      "id": "pt.ine.add.PTCONT.2805308",
      "street": "R PORTO DO PINHEIRO",
      "house": "20",
      "postcode": "2675-531",
      "city": "ODIVELAS",
      "lon": "-9.189619390614293",
      "lat": "38.79530468267664"
    },
    {
      "id": "pt.ine.add.PTCONT.2832093",
      "street": "R NATERCIA FREIRE",
      "house": "",
      "postcode": "2675-528",
      "city": "ODIVELAS",
      "lon": "-9.189420608804552",
      "lat": "38.79587396733762"
    },
    {
      "id": "pt.ine.add.PTCONT.2841501",
      "street": "R PARTICULAR",
      "house": "",
      "postcode": "2675-530",
      "city": "ODIVELAS",
      "lon": "-9.189476823494866",
      "lat": "38.79578338174883"
    },
    {
      "id": "pt.ine.add.PTCONT.2841502",
      "street": "R PARTICULAR",
      "house": "",
      "postcode": "2675-530",
      "city": "ODIVELAS",
      "lon": "-9.189476823494866",
      "lat": "38.79578338174883"
    },
    {
      "id": "pt.ine.add.PTCONT.2841503",
      "street": "R NATERCIA FREIRE",
      "house": "",
      "postcode": "2675-528",
      "city": "ODIVELAS",
      "lon": "-9.189476823494866",
      "lat": "38.79578338174883"
    },
    {
      "id": "pt.ine.add.PTCONT.2841504",
      "street": "R PARTICULAR",
      "house": "",
      "postcode": "2675-530",
      "city": "ODIVELAS",
      "lon": "-9.189476823494866",
      "lat": "38.79578338174883"
    },
    {
      "id": "pt.ine.add.PTCONT.2858419",
      "street": "R NATERCIA FREIRE",
      "house": "3",
      "postcode": "2675-528",
      "city": "ODIVELAS",
      "lon": "-9.1899982488319",
      "lat": "38.79523820216064"
    },
    {
      "id": "pt.ine.add.PTCONT.2858420",
      "street": "R MOINHOS",
      "house": "18",
      "postcode": "2675-529",
      "city": "ODIVELAS",
      "lon": "-9.191409030391965",
      "lat": "38.79490115388379"
    },
    {
      "id": "pt.ine.add.PTCONT.2858421",
      "street": "R MOINHOS",
      "house": "18",
      "postcode": "2675-529",
      "city": "ODIVELAS",
      "lon": "-9.191409030391965",
      "lat": "38.79490115388379"
    },
    {
      "id": "pt.ine.add.PTCONT.2860553",
      "street": "R MOINHOS",
      "house": "18",
      "postcode": "2675-529",
      "city": "ODIVELAS",
      "lon": "-9.191409030391965",
      "lat": "38.79490115388379"
    },
    {
      "id": "pt.ine.add.PTCONT.2892621",
      "street": "R MARIA GUILHERMINA ASCENSO",
      "house": "2",
      "postcode": "2675-571",
      "city": "ODIVELAS",
      "lon": "-9.192080354132846",
      "lat": "38.79593096089507"
    },
    {
      "id": "pt.ine.add.PTCONT.2892622",
      "street": "R MARIA GUILHERMINA ASCENSO",
      "house": "2",
      "postcode": "2675-571",
      "city": "ODIVELAS",
      "lon": "-9.192080354132846",
      "lat": "38.79593096089507"
    },
    {
      "id": "pt.ine.add.PTCONT.2892623",
      "street": "R MARIA GUILHERMINA ASCENSO",
      "house": "2",
      "postcode": "2675-571",
      "city": "ODIVELAS",
      "lon": "-9.192080354132846",
      "lat": "38.79593096089507"
    },
    {
      "id": "pt.ine.add.PTCONT.2892624",
      "street": "R MARIA GUILHERMINA ASCENSO",
      "house": "2",
      "postcode": "2675-571",
      "city": "ODIVELAS",
      "lon": "-9.192080354132846",
      "lat": "38.79593096089507"
    },
    {
      "id": "pt.ine.add.PTCONT.2892625",
      "street": "R MARIA GUILHERMINA ASCENSO",
      "house": "2",
      "postcode": "2675-571",
      "city": "ODIVELAS",
      "lon": "-9.192080354132846",
      "lat": "38.79593096089507"
    },
    {
      "id": "pt.ine.add.PTCONT.2896796",
      "street": "R MARIA GUILHERMINA ASCENSO",
      "house": "2",
      "postcode": "2675-571",
      "city": "ODIVELAS",
      "lon": "-9.192080354132846",
      "lat": "38.79593096089507"
    },
    {
      "id": "pt.ine.add.PTCONT.2896905",
      "street": "R MARIA GUILHERMINA ASCENSO",
      "house": "2",
      "postcode": "2675-571",
      "city": "ODIVELAS",
      "lon": "-9.192080354132846",
      "lat": "38.79593096089507"
    },
    {
      "id": "pt.ine.add.PTCONT.2905520",
      "street": "R PARTICULAR",
      "house": "",
      "postcode": "2675-530",
      "city": "ODIVELAS",
      "lon": "-9.18936027259266",
      "lat": "38.79568535034225"
    },
    {
      "id": "pt.ine.add.PTCONT.2906136",
      "street": "R PARTICULAR",
      "house": "",
      "postcode": "2675-530",
      "city": "ODIVELAS",
      "lon": "-9.18936027259266",
      "lat": "38.79568535034225"
    },
    {
      "id": "pt.ine.add.PTCONT.2907566",
      "street": "R MOINHOS",
      "house": "3",
      "postcode": "2675-529",
      "city": "ODIVELAS",
      "lon": "-9.19088122779353",
      "lat": "38.795014026144266"
    },
    {
      "id": "pt.ine.add.PTCONT.2907567",
      "street": "R MOINHOS",
      "house": "3",
      "postcode": "2675-529",
      "city": "ODIVELAS",
      "lon": "-9.19088122779353",
      "lat": "38.795014026144266"
    },
    {
      "id": "pt.ine.add.PTCONT.2907568",
      "street": "R MOINHOS",
      "house": "3",
      "postcode": "2675-529",
      "city": "ODIVELAS",
      "lon": "-9.19088122779353",
      "lat": "38.795014026144266"
    },
    {
      "id": "pt.ine.add.PTCONT.2907626",
      "street": "R MOINHOS",
      "house": "3",
      "postcode": "2675-529",
      "city": "ODIVELAS",
      "lon": "-9.19088122779353",
      "lat": "38.795014026144266"
    },
    {
      "id": "pt.ine.add.PTCONT.2932340",
      "street": "R DR FERNANDO VALLE",
      "house": "",
      "postcode": "2675-692",
      "city": "ODIVELAS",
      "lon": "-9.189620381870908",
      "lat": "38.79615140089438"
    },
    {
      "id": "pt.ine.add.PTCONT.2932341",
      "street": "R DR FERNANDO VALLE",
      "house": "",
      "postcode": "2675-692",
      "city": "ODIVELAS",
      "lon": "-9.189620381870908",
      "lat": "38.79615140089438"
    },
    {
      "id": "pt.ine.add.PTCONT.2932342",
      "street": "R DR FERNANDO VALLE",
      "house": "",
      "postcode": "2675-692",
      "city": "ODIVELAS",
      "lon": "-9.189620381870908",
      "lat": "38.79615140089438"
    },
    {
      "id": "pt.ine.add.PTCONT.2932343",
      "street": "R DR FERNANDO VALLE",
      "house": "",
      "postcode": "2675-692",
      "city": "ODIVELAS",
      "lon": "-9.189620381870908",
      "lat": "38.79615140089438"
    },
    {
      "id": "pt.ine.add.PTCONT.2932344",
      "street": "R DR FERNANDO VALLE",
      "house": "",
      "postcode": "2675-692",
      "city": "ODIVELAS",
      "lon": "-9.189620381870908",
      "lat": "38.79615140089438"
    },
    {
      "id": "pt.ine.add.PTCONT.2932345",
      "street": "R DR FERNANDO VALLE",
      "house": "",
      "postcode": "2675-692",
      "city": "ODIVELAS",
      "lon": "-9.189620381870908",
      "lat": "38.79615140089438"
    },
    {
      "id": "pt.ine.add.PTCONT.2932346",
      "street": "R DR FERNANDO VALLE",
      "house": "",
      "postcode": "2675-692",
      "city": "ODIVELAS",
      "lon": "-9.189620381870908",
      "lat": "38.79615140089438"
    },
    {
      "id": "pt.ine.add.PTCONT.2932347",
      "street": "R DR FERNANDO VALLE",
      "house": "",
      "postcode": "2675-692",
      "city": "ODIVELAS",
      "lon": "-9.189620381870908",
      "lat": "38.79615140089438"
    },
    {
      "id": "pt.ine.add.PTCONT.2932358",
      "street": "R MARIA GUILHERMINA ASCENSO",
      "house": "8",
      "postcode": "2675-571",
      "city": "ODIVELAS",
      "lon": "-9.192085419209475",
      "lat": "38.796273208874645"
    },
    {
      "id": "pt.ine.add.PTCONT.2932359",
      "street": "R MARIA GUILHERMINA ASCENSO",
      "house": "8",
      "postcode": "2675-571",
      "city": "ODIVELAS",
      "lon": "-9.192085419209475",
      "lat": "38.796273208874645"
    },
    {
      "id": "pt.ine.add.PTCONT.2933254",
      "street": "R MARIA GUILHERMINA ASCENSO",
      "house": "8",
      "postcode": "2675-571",
      "city": "ODIVELAS",
      "lon": "-9.192085419209475",
      "lat": "38.796273208874645"
    },
    {
      "id": "pt.ine.add.PTCONT.2933255",
      "street": "R MARIA GUILHERMINA ASCENSO",
      "house": "8",
      "postcode": "2675-571",
      "city": "ODIVELAS",
      "lon": "-9.192085419209475",
      "lat": "38.796273208874645"
    },
    {
      "id": "pt.ine.add.PTCONT.2933256",
      "street": "R MARIA GUILHERMINA ASCENSO",
      "house": "8",
      "postcode": "2675-571",
      "city": "ODIVELAS",
      "lon": "-9.192085419209475",
      "lat": "38.796273208874645"
    },
    {
      "id": "pt.ine.add.PTCONT.2933257",
      "street": "R MARIA GUILHERMINA ASCENSO",
      "house": "8",
      "postcode": "2675-571",
      "city": "ODIVELAS",
      "lon": "-9.192085419209475",
      "lat": "38.796273208874645"
    },
    {
      "id": "pt.ine.add.PTCONT.2933258",
      "street": "R MARIA GUILHERMINA ASCENSO",
      "house": "8",
      "postcode": "2675-571",
      "city": "ODIVELAS",
      "lon": "-9.192085419209475",
      "lat": "38.796273208874645"
    },
    {
      "id": "pt.ine.add.PTCONT.2933272",
      "street": "R MARIA GUILHERMINA ASCENSO",
      "house": "8",
      "postcode": "2675-571",
      "city": "ODIVELAS",
      "lon": "-9.192085419209475",
      "lat": "38.796273208874645"
    },
    {
      "id": "pt.ine.add.PTCONT.2937891",
      "street": "R NATERCIA FREIRE",
      "house": "32",
      "postcode": "2675-528",
      "city": "ODIVELAS",
      "lon": "-9.189672207929465",
      "lat": "38.79576359962259"
    },
    {
      "id": "pt.ine.add.PTCONT.2942187",
      "street": "R NATERCIA FREIRE",
      "house": "32",
      "postcode": "2675-528",
      "city": "ODIVELAS",
      "lon": "-9.189672207929465",
      "lat": "38.79576359962259"
    },
    {
      "id": "pt.ine.add.PTCONT.2949753",
      "street": "R MOINHOS",
      "house": "4",
      "postcode": "2675-529",
      "city": "ODIVELAS",
      "lon": "-9.191283766553253",
      "lat": "38.79499236576535"
    },
    {
      "id": "pt.ine.add.PTCONT.2961127",
      "street": "R A",
      "house": "PORTA 2",
      "postcode": "2675-525",
      "city": "ODIVELAS",
      "lon": "-9.191433646240496",
      "lat": "38.795009023752804"
    },
    {
      "id": "pt.ine.add.PTCONT.3051333",
      "street": "R MARIA GUILHERMINA ASCENSO",
      "house": "6",
      "postcode": "2675-571",
      "city": "ODIVELAS",
      "lon": "-9.192095328601978",
      "lat": "38.796165026256645"
    },
    {
      "id": "pt.ine.add.PTCONT.3051334",
      "street": "R MARIA GUILHERMINA ASCENSO",
      "house": "6",
      "postcode": "2675-571",
      "city": "ODIVELAS",
      "lon": "-9.192095328601978",
      "lat": "38.796165026256645"
    },
    {
      "id": "pt.ine.add.PTCONT.3051335",
      "street": "R MARIA GUILHERMINA ASCENSO",
      "house": "6",
      "postcode": "2675-571",
      "city": "ODIVELAS",
      "lon": "-9.192095328601978",
      "lat": "38.796165026256645"
    },
    {
      "id": "pt.ine.add.PTCONT.3051336",
      "street": "R MARIA GUILHERMINA ASCENSO",
      "house": "6",
      "postcode": "2675-571",
      "city": "ODIVELAS",
      "lon": "-9.192095328601978",
      "lat": "38.796165026256645"
    },
    {
      "id": "pt.ine.add.PTCONT.3051337",
      "street": "R MARIA GUILHERMINA ASCENSO",
      "house": "6",
      "postcode": "2675-571",
      "city": "ODIVELAS",
      "lon": "-9.192095328601978",
      "lat": "38.796165026256645"
    },
    {
      "id": "pt.ine.add.PTCONT.3051338",
      "street": "R MARIA GUILHERMINA ASCENSO",
      "house": "6",
      "postcode": "2675-571",
      "city": "ODIVELAS",
      "lon": "-9.192095328601978",
      "lat": "38.796165026256645"
    },
    {
      "id": "pt.ine.add.PTCONT.3051339",
      "street": "R MARIA GUILHERMINA ASCENSO",
      "house": "6",
      "postcode": "2675-571",
      "city": "ODIVELAS",
      "lon": "-9.192095328601978",
      "lat": "38.796165026256645"
    },
    {
      "id": "pt.ine.add.PTCONT.3051363",
      "street": "R MOINHOS",
      "house": "7",
      "postcode": "2675-529",
      "city": "ODIVELAS",
      "lon": "-9.191259816847172",
      "lat": "38.7949295285113"
    },
    {
      "id": "pt.ine.add.PTCONT.3051364",
      "street": "R MOINHOS",
      "house": "7",
      "postcode": "2675-529",
      "city": "ODIVELAS",
      "lon": "-9.191259816847172",
      "lat": "38.7949295285113"
    },
    {
      "id": "pt.ine.add.PTCONT.3051633",
      "street": "R MARIA GUILHERMINA ASCENSO",
      "house": "6",
      "postcode": "2675-571",
      "city": "ODIVELAS",
      "lon": "-9.192095328601978",
      "lat": "38.796165026256645"
    },
    {
      "id": "pt.ine.add.PTCONT.3051635",
      "street": "R MOINHOS",
      "house": "7",
      "postcode": "2675-529",
      "city": "ODIVELAS",
      "lon": "-9.191259816847172",
      "lat": "38.7949295285113"
    },
    {
      "id": "pt.ine.add.PTCONT.3219138",
      "street": "R MARIA GUILHERMINA ASCENSO",
      "house": "10",
      "postcode": "2675-571",
      "city": "ODIVELAS",
      "lon": "-9.192087285312038",
      "lat": "38.79639930023032"
    },
    {
      "id": "pt.ine.add.PTCONT.3219139",
      "street": "R MARIA GUILHERMINA ASCENSO",
      "house": "10",
      "postcode": "2675-571",
      "city": "ODIVELAS",
      "lon": "-9.192087285312038",
      "lat": "38.79639930023032"
    },
    {
      "id": "pt.ine.add.PTCONT.3219140",
      "street": "R MARIA GUILHERMINA ASCENSO",
      "house": "10",
      "postcode": "2675-571",
      "city": "ODIVELAS",
      "lon": "-9.192087285312038",
      "lat": "38.79639930023032"
    },
    {
      "id": "pt.ine.add.PTCONT.3219141",
      "street": "R MARIA GUILHERMINA ASCENSO",
      "house": "10",
      "postcode": "2675-571",
      "city": "ODIVELAS",
      "lon": "-9.192087285312038",
      "lat": "38.79639930023032"
    },
    {
      "id": "pt.ine.add.PTCONT.3220043",
      "street": "R MARIA GUILHERMINA ASCENSO",
      "house": "10",
      "postcode": "2675-571",
      "city": "ODIVELAS",
      "lon": "-9.192087285312038",
      "lat": "38.79639930023032"
    },
    {
      "id": "pt.ine.add.PTCONT.3220044",
      "street": "R MARIA GUILHERMINA ASCENSO",
      "house": "10",
      "postcode": "2675-571",
      "city": "ODIVELAS",
      "lon": "-9.192087285312038",
      "lat": "38.79639930023032"
    },
    {
      "id": "pt.ine.add.PTCONT.3220045",
      "street": "R MARIA GUILHERMINA ASCENSO",
      "house": "10",
      "postcode": "2675-571",
      "city": "ODIVELAS",
      "lon": "-9.192087285312038",
      "lat": "38.79639930023032"
    },
    {
      "id": "pt.ine.add.PTCONT.3220046",
      "street": "R MARIA GUILHERMINA ASCENSO",
      "house": "10",
      "postcode": "2675-571",
      "city": "ODIVELAS",
      "lon": "-9.192087285312038",
      "lat": "38.79639930023032"
    },
    {
      "id": "pt.ine.add.PTCONT.3228635",
      "street": "R PARTICULAR",
      "house": "35",
      "postcode": "2675-530",
      "city": "ODIVELAS",
      "lon": "-9.189747716007965",
      "lat": "38.79542062282408"
    },
    {
      "id": "pt.ine.add.PTCONT.3228636",
      "street": "R PARTICULAR",
      "house": "35",
      "postcode": "2675-530",
      "city": "ODIVELAS",
      "lon": "-9.189747716007965",
      "lat": "38.79542062282408"
    },
    {
      "id": "pt.ine.add.PTCONT.3255630",
      "street": "R PORTO DO PINHEIRO",
      "house": "8",
      "postcode": "2675-531",
      "city": "ODIVELAS",
      "lon": "-9.189267803123718",
      "lat": "38.795659163030095"
    },
    {
      "id": "pt.ine.add.PTCONT.3306213",
      "street": "R NATERCIA FREIRE",
      "house": "",
      "postcode": "2675-528",
      "city": "ODIVELAS",
      "lon": "-9.189716913385588",
      "lat": "38.79567311799338"
    },
    {
      "id": "pt.ine.add.PTCONT.3328410",
      "street": "R LAURA AIRES",
      "house": "8",
      "postcode": "2675-563",
      "city": "ODIVELAS",
      "lon": "-9.191677677163536",
      "lat": "38.795943617558926"
    },
    {
      "id": "pt.ine.add.PTCONT.3328534",
      "street": "R LAURA AIRES",
      "house": "8",
      "postcode": "2675-563",
      "city": "ODIVELAS",
      "lon": "-9.191677677163536",
      "lat": "38.795943617558926"
    },
    {
      "id": "pt.ine.add.PTCONT.3328535",
      "street": "R LAURA AIRES",
      "house": "8",
      "postcode": "2675-563",
      "city": "ODIVELAS",
      "lon": "-9.191677677163536",
      "lat": "38.795943617558926"
    },
    {
      "id": "pt.ine.add.PTCONT.3328536",
      "street": "R LAURA AIRES",
      "house": "8",
      "postcode": "2675-563",
      "city": "ODIVELAS",
      "lon": "-9.191677677163536",
      "lat": "38.795943617558926"
    },
    {
      "id": "pt.ine.add.PTCONT.3328537",
      "street": "R LAURA AIRES",
      "house": "8",
      "postcode": "2675-563",
      "city": "ODIVELAS",
      "lon": "-9.191677677163536",
      "lat": "38.795943617558926"
    },
    {
      "id": "pt.ine.add.PTCONT.3328538",
      "street": "R LAURA AIRES",
      "house": "8",
      "postcode": "2675-563",
      "city": "ODIVELAS",
      "lon": "-9.191677677163536",
      "lat": "38.795943617558926"
    },
    {
      "id": "pt.ine.add.PTCONT.3328539",
      "street": "R LAURA AIRES",
      "house": "8",
      "postcode": "2675-563",
      "city": "ODIVELAS",
      "lon": "-9.191677677163536",
      "lat": "38.795943617558926"
    },
    {
      "id": "pt.ine.add.PTCONT.3328540",
      "street": "R LAURA AIRES",
      "house": "8",
      "postcode": "2675-563",
      "city": "ODIVELAS",
      "lon": "-9.191677677163536",
      "lat": "38.795943617558926"
    },
    {
      "id": "pt.ine.add.PTCONT.3328541",
      "street": "R LAURA AIRES",
      "house": "8",
      "postcode": "2675-563",
      "city": "ODIVELAS",
      "lon": "-9.191677677163536",
      "lat": "38.795943617558926"
    },
    {
      "id": "pt.ine.add.PTCONT.3328542",
      "street": "R LAURA AIRES",
      "house": "8",
      "postcode": "2675-563",
      "city": "ODIVELAS",
      "lon": "-9.191677677163536",
      "lat": "38.795943617558926"
    },
    {
      "id": "pt.ine.add.PTCONT.3328543",
      "street": "R LAURA AIRES",
      "house": "8",
      "postcode": "2675-563",
      "city": "ODIVELAS",
      "lon": "-9.191677677163536",
      "lat": "38.795943617558926"
    },
    {
      "id": "pt.ine.add.PTCONT.3328544",
      "street": "R LAURA AIRES",
      "house": "8",
      "postcode": "2675-563",
      "city": "ODIVELAS",
      "lon": "-9.191677677163536",
      "lat": "38.795943617558926"
    },
    {
      "id": "pt.ine.add.PTCONT.3328545",
      "street": "R LAURA AIRES",
      "house": "8",
      "postcode": "2675-563",
      "city": "ODIVELAS",
      "lon": "-9.191677677163536",
      "lat": "38.795943617558926"
    },
    {
      "id": "pt.ine.add.PTCONT.3328546",
      "street": "R LAURA AIRES",
      "house": "8",
      "postcode": "2675-563",
      "city": "ODIVELAS",
      "lon": "-9.191677677163536",
      "lat": "38.795943617558926"
    },
    {
      "id": "pt.ine.add.PTCONT.3328547",
      "street": "R LAURA AIRES",
      "house": "8",
      "postcode": "2675-563",
      "city": "ODIVELAS",
      "lon": "-9.191677677163536",
      "lat": "38.795943617558926"
    },
    {
      "id": "pt.ine.add.PTCONT.3328548",
      "street": "R LAURA AIRES",
      "house": "8",
      "postcode": "2675-563",
      "city": "ODIVELAS",
      "lon": "-9.191677677163536",
      "lat": "38.795943617558926"
    },
    {
      "id": "pt.ine.add.PTCONT.3328704",
      "street": "R LAURA AIRES",
      "house": "8",
      "postcode": "2675-563",
      "city": "ODIVELAS",
      "lon": "-9.191677677163536",
      "lat": "38.795943617558926"
    },
    {
      "id": "pt.ine.add.PTCONT.3328705",
      "street": "R LAURA AIRES",
      "house": "8",
      "postcode": "2675-563",
      "city": "ODIVELAS",
      "lon": "-9.191677677163536",
      "lat": "38.795943617558926"
    },
    {
      "id": "pt.ine.add.PTCONT.3328706",
      "street": "R LAURA AIRES",
      "house": "8",
      "postcode": "2675-563",
      "city": "ODIVELAS",
      "lon": "-9.191677677163536",
      "lat": "38.795943617558926"
    },
    {
      "id": "pt.ine.add.PTCONT.3328707",
      "street": "R LAURA AIRES",
      "house": "8",
      "postcode": "2675-563",
      "city": "ODIVELAS",
      "lon": "-9.191677677163536",
      "lat": "38.795943617558926"
    },
    {
      "id": "pt.ine.add.PTCONT.3328708",
      "street": "R LAURA AIRES",
      "house": "8",
      "postcode": "2675-563",
      "city": "ODIVELAS",
      "lon": "-9.191677677163536",
      "lat": "38.795943617558926"
    },
    {
      "id": "pt.ine.add.PTCONT.3328709",
      "street": "R LAURA AIRES",
      "house": "8",
      "postcode": "2675-563",
      "city": "ODIVELAS",
      "lon": "-9.191677677163536",
      "lat": "38.795943617558926"
    },
    {
      "id": "pt.ine.add.PTCONT.3328710",
      "street": "R LAURA AIRES",
      "house": "8",
      "postcode": "2675-563",
      "city": "ODIVELAS",
      "lon": "-9.191677677163536",
      "lat": "38.795943617558926"
    },
    {
      "id": "pt.ine.add.PTCONT.3328711",
      "street": "R LAURA AIRES",
      "house": "8",
      "postcode": "2675-563",
      "city": "ODIVELAS",
      "lon": "-9.191677677163536",
      "lat": "38.795943617558926"
    },
    {
      "id": "pt.ine.add.PTCONT.3328712",
      "street": "R LAURA AIRES",
      "house": "8",
      "postcode": "2675-563",
      "city": "ODIVELAS",
      "lon": "-9.191677677163536",
      "lat": "38.795943617558926"
    },
    {
      "id": "pt.ine.add.PTCONT.3328713",
      "street": "R LAURA AIRES",
      "house": "8",
      "postcode": "2675-563",
      "city": "ODIVELAS",
      "lon": "-9.191677677163536",
      "lat": "38.795943617558926"
    },
    {
      "id": "pt.ine.add.PTCONT.3328714",
      "street": "R LAURA AIRES",
      "house": "8",
      "postcode": "2675-563",
      "city": "ODIVELAS",
      "lon": "-9.191677677163536",
      "lat": "38.795943617558926"
    },
    {
      "id": "pt.ine.add.PTCONT.3328715",
      "street": "R LAURA AIRES",
      "house": "8",
      "postcode": "2675-563",
      "city": "ODIVELAS",
      "lon": "-9.191677677163536",
      "lat": "38.795943617558926"
    },
    {
      "id": "pt.ine.add.PTCONT.3328716",
      "street": "R LAURA AIRES",
      "house": "8",
      "postcode": "2675-563",
      "city": "ODIVELAS",
      "lon": "-9.191677677163536",
      "lat": "38.795943617558926"
    },
    {
      "id": "pt.ine.add.PTCONT.3328717",
      "street": "R LAURA AIRES",
      "house": "8",
      "postcode": "2675-563",
      "city": "ODIVELAS",
      "lon": "-9.191677677163536",
      "lat": "38.795943617558926"
    },
    {
      "id": "pt.ine.add.PTCONT.3328872",
      "street": "R LAURA AIRES",
      "house": "8",
      "postcode": "2675-563",
      "city": "ODIVELAS",
      "lon": "-9.191677677163536",
      "lat": "38.795943617558926"
    },
    {
      "id": "pt.ine.add.PTCONT.3328873",
      "street": "R LAURA AIRES",
      "house": "8",
      "postcode": "2675-563",
      "city": "ODIVELAS",
      "lon": "-9.191677677163536",
      "lat": "38.795943617558926"
    },
    {
      "id": "pt.ine.add.PTCONT.3328874",
      "street": "R LAURA AIRES",
      "house": "8",
      "postcode": "2675-563",
      "city": "ODIVELAS",
      "lon": "-9.191677677163536",
      "lat": "38.795943617558926"
    },
    {
      "id": "pt.ine.add.PTCONT.3328875",
      "street": "R LAURA AIRES",
      "house": "8",
      "postcode": "2675-563",
      "city": "ODIVELAS",
      "lon": "-9.191677677163536",
      "lat": "38.795943617558926"
    },
    {
      "id": "pt.ine.add.PTCONT.3330547",
      "street": "R LAURA AIRES",
      "house": "8",
      "postcode": "2675-563",
      "city": "ODIVELAS",
      "lon": "-9.191677677163536",
      "lat": "38.795943617558926"
    },
    {
      "id": "pt.ine.add.PTCONT.3330765",
      "street": "R LAURA AIRES",
      "house": "8",
      "postcode": "2675-563",
      "city": "ODIVELAS",
      "lon": "-9.191677677163536",
      "lat": "38.795943617558926"
    },
    {
      "id": "pt.ine.add.PTCONT.3385790",
      "street": "R PARTICULAR",
      "house": "31",
      "postcode": "2675-530",
      "city": "ODIVELAS",
      "lon": "-9.189612270091304",
      "lat": "38.795602002362905"
    },
    {
      "id": "pt.ine.add.PTCONT.3385791",
      "street": "R NATERCIA FREIRE",
      "house": "31",
      "postcode": "2675-528",
      "city": "ODIVELAS",
      "lon": "-9.189612270091304",
      "lat": "38.795602002362905"
    },
    {
      "id": "pt.ine.add.PTCONT.3385792",
      "street": "R PARTICULAR",
      "house": "31",
      "postcode": "2675-530",
      "city": "ODIVELAS",
      "lon": "-9.189612270091304",
      "lat": "38.795602002362905"
    },
    {
      "id": "pt.ine.add.PTCONT.3385795",
      "street": "R MOINHOS",
      "house": "",
      "postcode": "2675-529",
      "city": "ODIVELAS",
      "lon": "-9.19090531033733",
      "lat": "38.795085870010105"
    },
    {
      "id": "pt.ine.add.PTCONT.3430420",
      "street": "R MOINHOS",
      "house": "",
      "postcode": "2675-529",
      "city": "ODIVELAS",
      "lon": "-9.19078995678113",
      "lat": "38.79506889880943"
    },
    {
      "id": "pt.ine.add.PTCONT.3430421",
      "street": "R MOINHOS",
      "house": "",
      "postcode": "2675-529",
      "city": "ODIVELAS",
      "lon": "-9.19078995678113",
      "lat": "38.79506889880943"
    },
    {
      "id": "pt.ine.add.PTCONT.3436240",
      "street": "R LAURA AIRES",
      "house": "4",
      "postcode": "2675-563",
      "city": "ODIVELAS",
      "lon": "-9.190794156912167",
      "lat": "38.79613177356796"
    },
    {
      "id": "pt.ine.add.PTCONT.3437510",
      "street": "R PORTO DO PINHEIRO",
      "house": "20",
      "postcode": "2675-531",
      "city": "ODIVELAS",
      "lon": "-9.189619390614293",
      "lat": "38.79530468267664"
    },
    {
      "id": "pt.ine.add.PTCONT.3440120",
      "street": "R LAURA AIRES",
      "house": "2",
      "postcode": "2675-563",
      "city": "ODIVELAS",
      "lon": "-9.190226894338654",
      "lat": "38.795911713903095"
    },
    {
      "id": "pt.ine.add.PTCONT.3440348",
      "street": "R MARIA GUILHERMINA ASCENSO",
      "house": "2",
      "postcode": "2675-571",
      "city": "ODIVELAS",
      "lon": "-9.192080354132846",
      "lat": "38.79593096089507"
    },
    {
      "id": "pt.ine.add.PTCONT.3442626",
      "street": "R NATERCIA FREIRE",
      "house": "31",
      "postcode": "2675-528",
      "city": "ODIVELAS",
      "lon": "-9.189612270091304",
      "lat": "38.795602002362905"
    }
  ]
}