{
  "data": {
    "distrito": "Lisboa",
    "concelho": "Odivelas",
    "freguesia": "União das freguesias de Pontinha e Famões",
    "OBJECTID": 519,
    "BGRI2021": "11160802610",
    "DT21": "11",
    "DTMN21": "1116",
    "DTMNFR21": "111608",
    "DTMNFRSEC21": "111608026",
    "SECNUM21": "026",
    "SSNUM21": "10",
    "SECSSNUM21": "02610",
    "OBJECTID_1": 120140,
    "DT": "11",
    "CC": "16",
    "fr": "08",
    "SEC": "026",
    "SS": "10"
  },
  "addresses": [
    {
      "id": "pt.ine.add.PTCONT.2319807",
      "street": "R 25 DE ABRIL",
      "house": "273",
      "postcode": "1685-827",
      "city": "FAMÕES",
      "lon": "-9.220188662459144",
      "lat": "38.79516839028129"
    },
    {
      "id": "pt.ine.add.PTCONT.2379927",
      "street": "R S CRISTÓVÃO",
      "house": "",
      "postcode": "1685-820",
      "city": "FAMÕES",
      "lon": "-9.219211385306062",
      "lat": "38.795240532782"
    },
    {
      "id": "pt.ine.add.PTCONT.2379928",
      "street": "R S CRISTÓVÃO",
      "house": "",
      "postcode": "1685-820",
      "city": "FAMÕES",
      "lon": "-9.219211385306062",
      "lat": "38.795240532782"
    },
    {
      "id": "pt.ine.add.PTCONT.2379929",
      "street": "R S CRISTÓVÃO",
      "house": "",
      "postcode": "1685-820",
      "city": "FAMÕES",
      "lon": "-9.219211385306062",
      "lat": "38.795240532782"
    },
    {
      "id": "pt.ine.add.PTCONT.2379930",
      "street": "R S CRISTÓVÃO",
      "house": "",
      "postcode": "1685-820",
      "city": "FAMÕES",
      "lon": "-9.219211385306062",
      "lat": "38.795240532782"
    },
    {
      "id": "pt.ine.add.PTCONT.2379931",
      "street": "R S CRISTÓVÃO",
      "house": "",
      "postcode": "1685-820",
      "city": "FAMÕES",
      "lon": "-9.219211385306062",
      "lat": "38.795240532782"
    },
    {
      "id": "pt.ine.add.PTCONT.2379932",
      "street": "R S CRISTÓVÃO",
      "house": "",
      "postcode": "1685-820",
      "city": "FAMÕES",
      "lon": "-9.219211385306062",
      "lat": "38.795240532782"
    },
    {
      "id": "pt.ine.add.PTCONT.2382216",
      "street": "R 25 DE ABRIL",
      "house": "",
      "postcode": "1685-827",
      "city": "FAMÕES",
      "lon": "-9.220664896681713",
      "lat": "38.79545220537484"
    },
    {
      "id": "pt.ine.add.PTCONT.2382386",
      "street": "R S CRISTÓVÃO",
      "house": "",
      "postcode": "1685-820",
      "city": "FAMÕES",
      "lon": "-9.219211385306062",
      "lat": "38.795240532782"
    },
    {
      "id": "pt.ine.add.PTCONT.2383308",
      "street": "R S CRISTÓVÃO",
      "house": "",
      "postcode": "1685-820",
      "city": "FAMÕES",
      "lon": "-9.219211385306062",
      "lat": "38.795240532782"
    },
    {
      "id": "pt.ine.add.PTCONT.2438221",
      "street": "R CHAFARIZ",
      "house": "",
      "postcode": "1685-796",
      "city": "FAMÕES",
      "lon": "-9.221181001966826",
      "lat": "38.79608694810641"
    },
    {
      "id": "pt.ine.add.PTCONT.2438382",
      "street": "R 25 DE ABRIL",
      "house": "275",
      "postcode": "1685-827",
      "city": "FAMÕES",
      "lon": "-9.219844497676497",
      "lat": "38.79524365361482"
    },
    {
      "id": "pt.ine.add.PTCONT.2483495",
      "street": "R GEN HUMBERTO DELGADO",
      "house": "",
      "postcode": "1685-802",
      "city": "FAMÕES",
      "lon": "-9.21951799415653",
      "lat": "38.79572409899285"
    },
    {
      "id": "pt.ine.add.PTCONT.2483496",
      "street": "R GEN HUMBERTO DELGADO",
      "house": "",
      "postcode": "1685-802",
      "city": "FAMÕES",
      "lon": "-9.21951799415653",
      "lat": "38.79572409899285"
    },
    {
      "id": "pt.ine.add.PTCONT.2483497",
      "street": "R GEN HUMBERTO DELGADO",
      "house": "",
      "postcode": "1685-802",
      "city": "FAMÕES",
      "lon": "-9.21951799415653",
      "lat": "38.79572409899285"
    },
    {
      "id": "pt.ine.add.PTCONT.2483498",
      "street": "R GEN HUMBERTO DELGADO",
      "house": "",
      "postcode": "1685-802",
      "city": "FAMÕES",
      "lon": "-9.21951799415653",
      "lat": "38.79572409899285"
    },
    {
      "id": "pt.ine.add.PTCONT.2483499",
      "street": "R GEN HUMBERTO DELGADO",
      "house": "",
      "postcode": "1685-802",
      "city": "FAMÕES",
      "lon": "-9.21951799415653",
      "lat": "38.79572409899285"
    },
    {
      "id": "pt.ine.add.PTCONT.2483875",
      "street": "R GEN HUMBERTO DELGADO",
      "house": "",
      "postcode": "1685-802",
      "city": "FAMÕES",
      "lon": "-9.21951799415653",
      "lat": "38.79572409899285"
    },
    {
      "id": "pt.ine.add.PTCONT.2484272",
      "street": "R GEN HUMBERTO DELGADO",
      "house": "",
      "postcode": "1685-802",
      "city": "FAMÕES",
      "lon": "-9.21951799415653",
      "lat": "38.79572409899285"
    },
    {
      "id": "pt.ine.add.PTCONT.2484734",
      "street": "R GEN HUMBERTO DELGADO",
      "house": "",
      "postcode": "1685-802",
      "city": "FAMÕES",
      "lon": "-9.21951799415653",
      "lat": "38.79572409899285"
    },
    {
      "id": "pt.ine.add.PTCONT.2591803",
      "street": "R 25 DE ABRIL",
      "house": "",
      "postcode": "1685-827",
      "city": "FAMÕES",
      "lon": "-9.220849856962714",
      "lat": "38.7955045299029"
    },
    {
      "id": "pt.ine.add.PTCONT.2591804",
      "street": "R 25 DE ABRIL",
      "house": "",
      "postcode": "1685-827",
      "city": "FAMÕES",
      "lon": "-9.220849856962714",
      "lat": "38.7955045299029"
    },
    {
      "id": "pt.ine.add.PTCONT.2591805",
      "street": "R 25 DE ABRIL",
      "house": "",
      "postcode": "1685-827",
      "city": "FAMÕES",
      "lon": "-9.220849856962714",
      "lat": "38.7955045299029"
    },
    {
      "id": "pt.ine.add.PTCONT.2591806",
      "street": "R 25 DE ABRIL",
      "house": "",
      "postcode": "1685-827",
      "city": "FAMÕES",
      "lon": "-9.220849856962714",
      "lat": "38.7955045299029"
    },
    {
      "id": "pt.ine.add.PTCONT.2591811",
      "street": "R ENG ADELINO AMARO DA COSTA",
      "house": "121",
      "postcode": "1685-791",
      "city": "FAMÕES",
      "lon": "-9.22103042931471",
      "lat": "38.796025296214815"
    },
    {
      "id": "pt.ine.add.PTCONT.2607219",
      "street": "R S CRISTÓVÃO",
      "house": "",
      "postcode": "1685-820",
      "city": "FAMÕES",
      "lon": "-9.219086020338727",
      "lat": "38.79532276751961"
    },
    {
      "id": "pt.ine.add.PTCONT.2607220",
      "street": "R S CRISTÓVÃO",
      "house": "",
      "postcode": "1685-820",
      "city": "FAMÕES",
      "lon": "-9.219086020338727",
      "lat": "38.79532276751961"
    },
    {
      "id": "pt.ine.add.PTCONT.2607221",
      "street": "R S CRISTÓVÃO",
      "house": "",
      "postcode": "1685-820",
      "city": "FAMÕES",
      "lon": "-9.219086020338727",
      "lat": "38.79532276751961"
    },
    {
      "id": "pt.ine.add.PTCONT.2607222",
      "street": "R S CRISTÓVÃO",
      "house": "",
      "postcode": "1685-820",
      "city": "FAMÕES",
      "lon": "-9.219086020338727",
      "lat": "38.79532276751961"
    },
    {
      "id": "pt.ine.add.PTCONT.2607223",
      "street": "R S CRISTÓVÃO",
      "house": "",
      "postcode": "1685-820",
      "city": "FAMÕES",
      "lon": "-9.219086020338727",
      "lat": "38.79532276751961"
    },
    {
      "id": "pt.ine.add.PTCONT.2607224",
      "street": "R S CRISTÓVÃO",
      "house": "",
      "postcode": "1685-820",
      "city": "FAMÕES",
      "lon": "-9.219086020338727",
      "lat": "38.79532276751961"
    },
    {
      "id": "pt.ine.add.PTCONT.2607225",
      "street": "R S CRISTÓVÃO",
      "house": "",
      "postcode": "1685-820",
      "city": "FAMÕES",
      "lon": "-9.219086020338727",
      "lat": "38.79532276751961"
    },
    {
      "id": "pt.ine.add.PTCONT.2607226",
      "street": "R S CRISTÓVÃO",
      "house": "",
      "postcode": "1685-820",
      "city": "FAMÕES",
      "lon": "-9.219086020338727",
      "lat": "38.79532276751961"
    },
    {
      "id": "pt.ine.add.PTCONT.2644886",
      "street": "R CHAFARIZ",
      "house": "106",
      "postcode": "1685-796",
      "city": "FAMÕES",
      "lon": "-9.221126060069693",
      "lat": "38.79625860633012"
    },
    {
      "id": "pt.ine.add.PTCONT.2680633",
      "street": "R S CRISTÓVÃO",
      "house": "",
      "postcode": "1685-820",
      "city": "FAMÕES",
      "lon": "-9.220116600732196",
      "lat": "38.794970890935375"
    },
    {
      "id": "pt.ine.add.PTCONT.2680634",
      "street": "R S CRISTÓVÃO",
      "house": "",
      "postcode": "1685-820",
      "city": "FAMÕES",
      "lon": "-9.220116600732196",
      "lat": "38.794970890935375"
    },
    {
      "id": "pt.ine.add.PTCONT.2680635",
      "street": "R S CRISTÓVÃO",
      "house": "",
      "postcode": "1685-820",
      "city": "FAMÕES",
      "lon": "-9.220116600732196",
      "lat": "38.794970890935375"
    },
    {
      "id": "pt.ine.add.PTCONT.2680636",
      "street": "R S CRISTÓVÃO",
      "house": "",
      "postcode": "1685-820",
      "city": "FAMÕES",
      "lon": "-9.220116600732196",
      "lat": "38.794970890935375"
    },
    {
      "id": "pt.ine.add.PTCONT.2680639",
      "street": "R S CRISTÓVÃO",
      "house": "",
      "postcode": "1685-820",
      "city": "FAMÕES",
      "lon": "-9.220116600732196",
      "lat": "38.794970890935375"
    },
    {
      "id": "pt.ine.add.PTCONT.2680971",
      "street": "R S CRISTÓVÃO",
      "house": "",
      "postcode": "1685-820",
      "city": "FAMÕES",
      "lon": "-9.220116600732196",
      "lat": "38.794970890935375"
    },
    {
      "id": "pt.ine.add.PTCONT.2704843",
      "street": "R ENG ADELINO AMARO DA COSTA",
      "house": "137",
      "postcode": "1685-791",
      "city": "FAMÕES",
      "lon": "-9.220806560298804",
      "lat": "38.79568508729685"
    },
    {
      "id": "pt.ine.add.PTCONT.2725201",
      "street": "R S CRISTÓVÃO",
      "house": "",
      "postcode": "1685-820",
      "city": "FAMÕES",
      "lon": "-9.219063686430632",
      "lat": "38.795368013689746"
    },
    {
      "id": "pt.ine.add.PTCONT.2725202",
      "street": "R S CRISTÓVÃO",
      "house": "",
      "postcode": "1685-820",
      "city": "FAMÕES",
      "lon": "-9.219063686430632",
      "lat": "38.795368013689746"
    },
    {
      "id": "pt.ine.add.PTCONT.2725203",
      "street": "R S CRISTÓVÃO",
      "house": "",
      "postcode": "1685-820",
      "city": "FAMÕES",
      "lon": "-9.219063686430632",
      "lat": "38.795368013689746"
    },
    {
      "id": "pt.ine.add.PTCONT.2725204",
      "street": "R S CRISTÓVÃO",
      "house": "",
      "postcode": "1685-820",
      "city": "FAMÕES",
      "lon": "-9.219063686430632",
      "lat": "38.795368013689746"
    },
    {
      "id": "pt.ine.add.PTCONT.2725205",
      "street": "R S CRISTÓVÃO",
      "house": "",
      "postcode": "1685-820",
      "city": "FAMÕES",
      "lon": "-9.219063686430632",
      "lat": "38.795368013689746"
    },
    {
      "id": "pt.ine.add.PTCONT.2725206",
      "street": "R S CRISTÓVÃO",
      "house": "",
      "postcode": "1685-820",
      "city": "FAMÕES",
      "lon": "-9.219063686430632",
      "lat": "38.795368013689746"
    },
    {
      "id": "pt.ine.add.PTCONT.2725207",
      "street": "R S CRISTÓVÃO",
      "house": "",
      "postcode": "1685-820",
      "city": "FAMÕES",
      "lon": "-9.219063686430632",
      "lat": "38.795368013689746"
    },
    {
      "id": "pt.ine.add.PTCONT.2725208",
      "street": "R S CRISTÓVÃO",
      "house": "",
      "postcode": "1685-820",
      "city": "FAMÕES",
      "lon": "-9.219063686430632",
      "lat": "38.795368013689746"
    },
    {
      "id": "pt.ine.add.PTCONT.2773365",
      "street": "R GEN HUMBERTO DELGADO",
      "house": "",
      "postcode": "1685-802",
      "city": "FAMÕES",
      "lon": "-9.220651735030843",
      "lat": "38.79610088344057"
    },
    {
      "id": "pt.ine.add.PTCONT.2773366",
      "street": "R GEN HUMBERTO DELGADO",
      "house": "",
      "postcode": "1685-802",
      "city": "FAMÕES",
      "lon": "-9.220651735030843",
      "lat": "38.79610088344057"
    },
    {
      "id": "pt.ine.add.PTCONT.2773456",
      "street": "R GEN HUMBERTO DELGADO",
      "house": "",
      "postcode": "1685-802",
      "city": "FAMÕES",
      "lon": "-9.220651735030843",
      "lat": "38.79610088344057"
    },
    {
      "id": "pt.ine.add.PTCONT.2773457",
      "street": "R GEN HUMBERTO DELGADO",
      "house": "",
      "postcode": "1685-802",
      "city": "FAMÕES",
      "lon": "-9.220651735030843",
      "lat": "38.79610088344057"
    },
    {
      "id": "pt.ine.add.PTCONT.2773458",
      "street": "R GEN HUMBERTO DELGADO",
      "house": "",
      "postcode": "1685-802",
      "city": "FAMÕES",
      "lon": "-9.220651735030843",
      "lat": "38.79610088344057"
    },
    {
      "id": "pt.ine.add.PTCONT.2773459",
      "street": "R GEN HUMBERTO DELGADO",
      "house": "",
      "postcode": "1685-802",
      "city": "FAMÕES",
      "lon": "-9.220651735030843",
      "lat": "38.79610088344057"
    },
    {
      "id": "pt.ine.add.PTCONT.2773460",
      "street": "R GEN HUMBERTO DELGADO",
      "house": "",
      "postcode": "1685-802",
      "city": "FAMÕES",
      "lon": "-9.220651735030843",
      "lat": "38.79610088344057"
    },
    {
      "id": "pt.ine.add.PTCONT.2779628",
      "street": "R GEN HUMBERTO DELGADO",
      "house": "",
      "postcode": "1685-802",
      "city": "FAMÕES",
      "lon": "-9.220651735030843",
      "lat": "38.79610088344057"
    },
    {
      "id": "pt.ine.add.PTCONT.2803833",
      "street": "R S CRISTÓVÃO",
      "house": "",
      "postcode": "1685-820",
      "city": "FAMÕES",
      "lon": "-9.219143016877277",
      "lat": "38.79528620687763"
    },
    {
      "id": "pt.ine.add.PTCONT.2803834",
      "street": "R S CRISTÓVÃO",
      "house": "",
      "postcode": "1685-820",
      "city": "FAMÕES",
      "lon": "-9.219143016877277",
      "lat": "38.79528620687763"
    },
    {
      "id": "pt.ine.add.PTCONT.2803835",
      "street": "R S CRISTÓVÃO",
      "house": "",
      "postcode": "1685-820",
      "city": "FAMÕES",
      "lon": "-9.219143016877277",
      "lat": "38.79528620687763"
    },
    {
      "id": "pt.ine.add.PTCONT.2803836",
      "street": "R S CRISTÓVÃO",
      "house": "",
      "postcode": "1685-820",
      "city": "FAMÕES",
      "lon": "-9.219143016877277",
      "lat": "38.79528620687763"
    },
    {
      "id": "pt.ine.add.PTCONT.2803943",
      "street": "R S CRISTÓVÃO",
      "house": "",
      "postcode": "1685-820",
      "city": "FAMÕES",
      "lon": "-9.219143016877277",
      "lat": "38.79528620687763"
    },
    {
      "id": "pt.ine.add.PTCONT.2803944",
      "street": "R S CRISTÓVÃO",
      "house": "",
      "postcode": "1685-820",
      "city": "FAMÕES",
      "lon": "-9.219143016877277",
      "lat": "38.79528620687763"
    },
    {
      "id": "pt.ine.add.PTCONT.2803945",
      "street": "R S CRISTÓVÃO",
      "house": "",
      "postcode": "1685-820",
      "city": "FAMÕES",
      "lon": "-9.219143016877277",
      "lat": "38.79528620687763"
    },
    {
      "id": "pt.ine.add.PTCONT.2805799",
      "street": "R S CRISTÓVÃO",
      "house": "",
      "postcode": "1685-820",
      "city": "FAMÕES",
      "lon": "-9.219143016877277",
      "lat": "38.79528620687763"
    },
    {
      "id": "pt.ine.add.PTCONT.2832371",
      "street": "R S CRISTÓVÃO",
      "house": "",
      "postcode": "1685-820",
      "city": "FAMÕES",
      "lon": "-9.219967399287949",
      "lat": "38.79499930206577"
    },
    {
      "id": "pt.ine.add.PTCONT.2832372",
      "street": "R S CRISTÓVÃO",
      "house": "",
      "postcode": "1685-820",
      "city": "FAMÕES",
      "lon": "-9.219967399287949",
      "lat": "38.79499930206577"
    },
    {
      "id": "pt.ine.add.PTCONT.2832373",
      "street": "R S CRISTÓVÃO",
      "house": "",
      "postcode": "1685-820",
      "city": "FAMÕES",
      "lon": "-9.219967399287949",
      "lat": "38.79499930206577"
    },
    {
      "id": "pt.ine.add.PTCONT.2832374",
      "street": "R S CRISTÓVÃO",
      "house": "",
      "postcode": "1685-820",
      "city": "FAMÕES",
      "lon": "-9.219967399287949",
      "lat": "38.79499930206577"
    },
    {
      "id": "pt.ine.add.PTCONT.2832375",
      "street": "R S CRISTÓVÃO",
      "house": "",
      "postcode": "1685-820",
      "city": "FAMÕES",
      "lon": "-9.219967399287949",
      "lat": "38.79499930206577"
    },
    {
      "id": "pt.ine.add.PTCONT.2832624",
      "street": "R S CRISTÓVÃO",
      "house": "",
      "postcode": "1685-820",
      "city": "FAMÕES",
      "lon": "-9.219967399287949",
      "lat": "38.79499930206577"
    },
    {
      "id": "pt.ine.add.PTCONT.2833518",
      "street": "R S CRISTÓVÃO",
      "house": "",
      "postcode": "1685-820",
      "city": "FAMÕES",
      "lon": "-9.219967399287949",
      "lat": "38.79499930206577"
    },
    {
      "id": "pt.ine.add.PTCONT.2833519",
      "street": "R S CRISTÓVÃO",
      "house": "",
      "postcode": "1685-820",
      "city": "FAMÕES",
      "lon": "-9.219967399287949",
      "lat": "38.79499930206577"
    },
    {
      "id": "pt.ine.add.PTCONT.3042096",
      "street": "R GEN HUMBERTO DELGADO",
      "house": "",
      "postcode": "1685-802",
      "city": "FAMÕES",
      "lon": "-9.219170955286335",
      "lat": "38.795610225016446"
    },
    {
      "id": "pt.ine.add.PTCONT.3042097",
      "street": "R GEN HUMBERTO DELGADO",
      "house": "",
      "postcode": "1685-802",
      "city": "FAMÕES",
      "lon": "-9.219170955286335",
      "lat": "38.795610225016446"
    },
    {
      "id": "pt.ine.add.PTCONT.3042098",
      "street": "R GEN HUMBERTO DELGADO",
      "house": "",
      "postcode": "1685-802",
      "city": "FAMÕES",
      "lon": "-9.219170955286335",
      "lat": "38.795610225016446"
    },
    {
      "id": "pt.ine.add.PTCONT.3042099",
      "street": "R GEN HUMBERTO DELGADO",
      "house": "",
      "postcode": "1685-802",
      "city": "FAMÕES",
      "lon": "-9.219170955286335",
      "lat": "38.795610225016446"
    },
    {
      "id": "pt.ine.add.PTCONT.3042100",
      "street": "R GEN HUMBERTO DELGADO",
      "house": "",
      "postcode": "1685-802",
      "city": "FAMÕES",
      "lon": "-9.219170955286335",
      "lat": "38.795610225016446"
    },
    {
      "id": "pt.ine.add.PTCONT.3042101",
      "street": "R GEN HUMBERTO DELGADO",
      "house": "",
      "postcode": "1685-802",
      "city": "FAMÕES",
      "lon": "-9.219170955286335",
      "lat": "38.795610225016446"
    },
    {
      "id": "pt.ine.add.PTCONT.3042102",
      "street": "R GEN HUMBERTO DELGADO",
      "house": "",
      "postcode": "1685-802",
      "city": "FAMÕES",
      "lon": "-9.219170955286335",
      "lat": "38.795610225016446"
    },
    {
      "id": "pt.ine.add.PTCONT.3042103",
      "street": "R GEN HUMBERTO DELGADO",
      "house": "",
      "postcode": "1685-802",
      "city": "FAMÕES",
      "lon": "-9.219170955286335",
      "lat": "38.795610225016446"
    },
    {
      "id": "pt.ine.add.PTCONT.3042118",
      "street": "R S CRISTÓVÃO",
      "house": "",
      "postcode": "1685-820",
      "city": "FAMÕES",
      "lon": "-9.219268381714588",
      "lat": "38.79520397208025"
    },
    {
      "id": "pt.ine.add.PTCONT.3042119",
      "street": "R S CRISTÓVÃO",
      "house": "",
      "postcode": "1685-820",
      "city": "FAMÕES",
      "lon": "-9.219268381714588",
      "lat": "38.79520397208025"
    },
    {
      "id": "pt.ine.add.PTCONT.3042121",
      "street": "R S CRISTÓVÃO",
      "house": "",
      "postcode": "1685-820",
      "city": "FAMÕES",
      "lon": "-9.219268381714588",
      "lat": "38.79520397208025"
    },
    {
      "id": "pt.ine.add.PTCONT.3042122",
      "street": "R S CRISTÓVÃO",
      "house": "",
      "postcode": "1685-820",
      "city": "FAMÕES",
      "lon": "-9.219268381714588",
      "lat": "38.79520397208025"
    },
    {
      "id": "pt.ine.add.PTCONT.3042123",
      "street": "R S CRISTÓVÃO",
      "house": "",
      "postcode": "1685-820",
      "city": "FAMÕES",
      "lon": "-9.219268381714588",
      "lat": "38.79520397208025"
    },
    {
      "id": "pt.ine.add.PTCONT.3042124",
      "street": "R S CRISTÓVÃO",
      "house": "",
      "postcode": "1685-820",
      "city": "FAMÕES",
      "lon": "-9.219268381714588",
      "lat": "38.79520397208025"
    },
    {
      "id": "pt.ine.add.PTCONT.3042400",
      "street": "R S CRISTÓVÃO",
      "house": "",
      "postcode": "1685-820",
      "city": "FAMÕES",
      "lon": "-9.219268381714588",
      "lat": "38.79520397208025"
    },
    {
      "id": "pt.ine.add.PTCONT.3116942",
      "street": "R GEN HUMBERTO DELGADO",
      "house": "109 B",
      "postcode": "1685-802",
      "city": "FAMÕES",
      "lon": "-9.22031647504707",
      "lat": "38.796004918686954"
    },
    {
      "id": "pt.ine.add.PTCONT.3116943",
      "street": "R GEN HUMBERTO DELGADO",
      "house": "109 B",
      "postcode": "1685-802",
      "city": "FAMÕES",
      "lon": "-9.22031647504707",
      "lat": "38.796004918686954"
    },
    {
      "id": "pt.ine.add.PTCONT.3116944",
      "street": "R GEN HUMBERTO DELGADO",
      "house": "109 B",
      "postcode": "1685-802",
      "city": "FAMÕES",
      "lon": "-9.22031647504707",
      "lat": "38.796004918686954"
    },
    {
      "id": "pt.ine.add.PTCONT.3116945",
      "street": "R GEN HUMBERTO DELGADO",
      "house": "109 B",
      "postcode": "1685-802",
      "city": "FAMÕES",
      "lon": "-9.22031647504707",
      "lat": "38.796004918686954"
    },
    {
      "id": "pt.ine.add.PTCONT.3116946",
      "street": "R GEN HUMBERTO DELGADO",
      "house": "109 B",
      "postcode": "1685-802",
      "city": "FAMÕES",
      "lon": "-9.22031647504707",
      "lat": "38.796004918686954"
    },
    {
      "id": "pt.ine.add.PTCONT.3116947",
      "street": "R GEN HUMBERTO DELGADO",
      "house": "109 B",
      "postcode": "1685-802",
      "city": "FAMÕES",
      "lon": "-9.22031647504707",
      "lat": "38.796004918686954"
    },
    {
      "id": "pt.ine.add.PTCONT.3116951",
      "street": "R GEN HUMBERTO DELGADO",
      "house": "109 B",
      "postcode": "1685-802",
      "city": "FAMÕES",
      "lon": "-9.22031647504707",
      "lat": "38.796004918686954"
    },
    {
      "id": "pt.ine.add.PTCONT.3117306",
      "street": "R GEN HUMBERTO DELGADO",
      "house": "109 B",
      "postcode": "1685-802",
      "city": "FAMÕES",
      "lon": "-9.22031647504707",
      "lat": "38.796004918686954"
    },
    {
      "id": "pt.ine.add.PTCONT.3192095",
      "street": "R GEN HUMBERTO DELGADO",
      "house": "",
      "postcode": "1685-802",
      "city": "FAMÕES",
      "lon": "-9.219356051663583",
      "lat": "38.79567155836414"
    },
    {
      "id": "pt.ine.add.PTCONT.3192096",
      "street": "R GEN HUMBERTO DELGADO",
      "house": "",
      "postcode": "1685-802",
      "city": "FAMÕES",
      "lon": "-9.219356051663583",
      "lat": "38.79567155836414"
    },
    {
      "id": "pt.ine.add.PTCONT.3192097",
      "street": "R GEN HUMBERTO DELGADO",
      "house": "",
      "postcode": "1685-802",
      "city": "FAMÕES",
      "lon": "-9.219356051663583",
      "lat": "38.79567155836414"
    },
    {
      "id": "pt.ine.add.PTCONT.3192146",
      "street": "R GEN HUMBERTO DELGADO",
      "house": "",
      "postcode": "1685-802",
      "city": "FAMÕES",
      "lon": "-9.219356051663583",
      "lat": "38.79567155836414"
    },
    {
      "id": "pt.ine.add.PTCONT.3192147",
      "street": "R GEN HUMBERTO DELGADO",
      "house": "",
      "postcode": "1685-802",
      "city": "FAMÕES",
      "lon": "-9.219356051663583",
      "lat": "38.79567155836414"
    },
    {
      "id": "pt.ine.add.PTCONT.3192148",
      "street": "R GEN HUMBERTO DELGADO",
      "house": "",
      "postcode": "1685-802",
      "city": "FAMÕES",
      "lon": "-9.219356051663583",
      "lat": "38.79567155836414"
    },
    {
      "id": "pt.ine.add.PTCONT.3192149",
      "street": "R GEN HUMBERTO DELGADO",
      "house": "",
      "postcode": "1685-802",
      "city": "FAMÕES",
      "lon": "-9.219356051663583",
      "lat": "38.79567155836414"
    },
    {
      "id": "pt.ine.add.PTCONT.3192468",
      "street": "R GEN HUMBERTO DELGADO",
      "house": "",
      "postcode": "1685-802",
      "city": "FAMÕES",
      "lon": "-9.219356051663583",
      "lat": "38.79567155836414"
    },
    {
      "id": "pt.ine.add.PTCONT.3219945",
      "street": "R ENG ADELINO AMARO DA COSTA",
      "house": "",
      "postcode": "1685-791",
      "city": "FAMÕES",
      "lon": "-9.220706814852159",
      "lat": "38.79593823186223"
    },
    {
      "id": "pt.ine.add.PTCONT.3237805",
      "street": "R GEN HUMBERTO DELGADO",
      "house": "108",
      "postcode": "1685-802",
      "city": "FAMÕES",
      "lon": "-9.220825051292433",
      "lat": "38.79614430866037"
    },
    {
      "id": "pt.ine.add.PTCONT.3237806",
      "street": "R GEN HUMBERTO DELGADO",
      "house": "108",
      "postcode": "1685-802",
      "city": "FAMÕES",
      "lon": "-9.220825051292433",
      "lat": "38.79614430866037"
    },
    {
      "id": "pt.ine.add.PTCONT.3237807",
      "street": "R GEN HUMBERTO DELGADO",
      "house": "108",
      "postcode": "1685-802",
      "city": "FAMÕES",
      "lon": "-9.220825051292433",
      "lat": "38.79614430866037"
    },
    {
      "id": "pt.ine.add.PTCONT.3237808",
      "street": "R GEN HUMBERTO DELGADO",
      "house": "108",
      "postcode": "1685-802",
      "city": "FAMÕES",
      "lon": "-9.220825051292433",
      "lat": "38.79614430866037"
    },
    {
      "id": "pt.ine.add.PTCONT.3237809",
      "street": "R GEN HUMBERTO DELGADO",
      "house": "108",
      "postcode": "1685-802",
      "city": "FAMÕES",
      "lon": "-9.220825051292433",
      "lat": "38.79614430866037"
    },
    {
      "id": "pt.ine.add.PTCONT.3237814",
      "street": "R GEN HUMBERTO DELGADO",
      "house": "108",
      "postcode": "1685-802",
      "city": "FAMÕES",
      "lon": "-9.220825051292433",
      "lat": "38.79614430866037"
    },
    {
      "id": "pt.ine.add.PTCONT.3238926",
      "street": "R GEN HUMBERTO DELGADO",
      "house": "108",
      "postcode": "1685-802",
      "city": "FAMÕES",
      "lon": "-9.220825051292433",
      "lat": "38.79614430866037"
    },
    {
      "id": "pt.ine.add.PTCONT.3238927",
      "street": "R GEN HUMBERTO DELGADO",
      "house": "108",
      "postcode": "1685-802",
      "city": "FAMÕES",
      "lon": "-9.220825051292433",
      "lat": "38.79614430866037"
    },
    {
      "id": "pt.ine.add.PTCONT.3255583",
      "street": "R 25 DE ABRIL",
      "house": "",
      "postcode": "1685-827",
      "city": "FAMÕES",
      "lon": "-9.221057971828888",
      "lat": "38.795565646251944"
    },
    {
      "id": "pt.ine.add.PTCONT.3255584",
      "street": "R 25 DE ABRIL",
      "house": "",
      "postcode": "1685-827",
      "city": "FAMÕES",
      "lon": "-9.221057971828888",
      "lat": "38.795565646251944"
    },
    {
      "id": "pt.ine.add.PTCONT.3255585",
      "street": "R 25 ABRIL",
      "house": "151 C",
      "postcode": "1685-827",
      "city": "FAMÕES",
      "lon": "-9.221057971828888",
      "lat": "38.795565646251944"
    },
    {
      "id": "pt.ine.add.PTCONT.3255586",
      "street": "R 25 DE ABRIL",
      "house": "",
      "postcode": "1685-827",
      "city": "FAMÕES",
      "lon": "-9.221057971828888",
      "lat": "38.795565646251944"
    },
    {
      "id": "pt.ine.add.PTCONT.3256256",
      "street": "R 25 DE ABRIL",
      "house": "",
      "postcode": "1685-827",
      "city": "FAMÕES",
      "lon": "-9.221057971828888",
      "lat": "38.795565646251944"
    },
    {
      "id": "pt.ine.add.PTCONT.3292920",
      "street": "R ENG ADELINO AMARO DA COSTA",
      "house": "138",
      "postcode": "1685-791",
      "city": "FAMÕES",
      "lon": "-9.220610364630517",
      "lat": "38.795650882711904"
    },
    {
      "id": "pt.ine.add.PTCONT.3306688",
      "street": "R ENG ADELINO AMARO DA COSTA",
      "house": "138 A",
      "postcode": "1685-791",
      "city": "FAMÕES",
      "lon": "-9.220448284679216",
      "lat": "38.79558933716309"
    },
    {
      "id": "pt.ine.add.PTCONT.3306689",
      "street": "R ENG ADELINO AMARO DA COSTA",
      "house": "122",
      "postcode": "1685-791",
      "city": "FAMÕES",
      "lon": "-9.220856976313442",
      "lat": "38.79597286485547"
    },
    {
      "id": "pt.ine.add.PTCONT.3312532",
      "street": "R ENG ADELINO AMARO DA COSTA",
      "house": "122",
      "postcode": "1685-791",
      "city": "FAMÕES",
      "lon": "-9.220856976313442",
      "lat": "38.79597286485547"
    },
    {
      "id": "pt.ine.add.PTCONT.3348072",
      "street": "R 25 DE ABRIL",
      "house": "",
      "postcode": "1685-827",
      "city": "FAMÕES",
      "lon": "-9.220953982813427",
      "lat": "38.79553959134518"
    },
    {
      "id": "pt.ine.add.PTCONT.3348073",
      "street": "R 25 DE ABRIL",
      "house": "",
      "postcode": "1685-827",
      "city": "FAMÕES",
      "lon": "-9.220953982813427",
      "lat": "38.79553959134518"
    },
    {
      "id": "pt.ine.add.PTCONT.3348074",
      "street": "R 25 DE ABRIL",
      "house": "",
      "postcode": "1685-827",
      "city": "FAMÕES",
      "lon": "-9.220953982813427",
      "lat": "38.79553959134518"
    },
    {
      "id": "pt.ine.add.PTCONT.3348075",
      "street": "R 25 DE ABRIL",
      "house": "",
      "postcode": "1685-827",
      "city": "FAMÕES",
      "lon": "-9.220953982813427",
      "lat": "38.79553959134518"
    },
    {
      "id": "pt.ine.add.PTCONT.3348076",
      "street": "R 25 DE ABRIL",
      "house": "",
      "postcode": "1685-827",
      "city": "FAMÕES",
      "lon": "-9.220953982813427",
      "lat": "38.79553959134518"
    },
    {
      "id": "pt.ine.add.PTCONT.3348079",
      "street": "R 25 DE ABRIL",
      "house": "",
      "postcode": "1685-827",
      "city": "FAMÕES",
      "lon": "-9.220953982813427",
      "lat": "38.79553959134518"
    },
    {
      "id": "pt.ine.add.PTCONT.3348082",
      "street": "R GEN HUMBERTO DELGADO",
      "house": "109 A",
      "postcode": "1685-802",
      "city": "FAMÕES",
      "lon": "-9.220501299656835",
      "lat": "38.79604823730281"
    },
    {
      "id": "pt.ine.add.PTCONT.3348083",
      "street": "R GEN HUMBERTO DELGADO",
      "house": "109 A",
      "postcode": "1685-802",
      "city": "FAMÕES",
      "lon": "-9.220501299656835",
      "lat": "38.79604823730281"
    },
    {
      "id": "pt.ine.add.PTCONT.3348084",
      "street": "R GEN HUMBERTO DELGADO",
      "house": "109 A",
      "postcode": "1685-802",
      "city": "FAMÕES",
      "lon": "-9.220501299656835",
      "lat": "38.79604823730281"
    },
    {
      "id": "pt.ine.add.PTCONT.3348085",
      "street": "R GEN HUMBERTO DELGADO",
      "house": "109 A",
      "postcode": "1685-802",
      "city": "FAMÕES",
      "lon": "-9.220501299656835",
      "lat": "38.79604823730281"
    },
    {
      "id": "pt.ine.add.PTCONT.3348086",
      "street": "R GEN HUMBERTO DELGADO",
      "house": "109 A",
      "postcode": "1685-802",
      "city": "FAMÕES",
      "lon": "-9.220501299656835",
      "lat": "38.79604823730281"
    },
    {
      "id": "pt.ine.add.PTCONT.3348087",
      "street": "R GEN HUMBERTO DELGADO",
      "house": "109 A",
      "postcode": "1685-802",
      "city": "FAMÕES",
      "lon": "-9.220501299656835",
      "lat": "38.79604823730281"
    },
    {
      "id": "pt.ine.add.PTCONT.3348088",
      "street": "R GEN HUMBERTO DELGADO",
      "house": "109 A",
      "postcode": "1685-802",
      "city": "FAMÕES",
      "lon": "-9.220501299656835",
      "lat": "38.79604823730281"
    },
    {
      "id": "pt.ine.add.PTCONT.3348380",
      "street": "R GEN HUMBERTO DELGADO",
      "house": "109 A",
      "postcode": "1685-802",
      "city": "FAMÕES",
      "lon": "-9.220501299656835",
      "lat": "38.79604823730281"
    },
    {
      "id": "pt.ine.add.PTCONT.3385723",
      "street": "R ENG ADELINO AMARO DA COSTA",
      "house": "",
      "postcode": "1685-791",
      "city": "FAMÕES",
      "lon": "-9.221096606133107",
      "lat": "38.7958355179811"
    },
    {
      "id": "pt.ine.add.PTCONT.3403468",
      "street": "R GEN HUMBERTO DELGADO",
      "house": "",
      "postcode": "1685-802",
      "city": "FAMÕES",
      "lon": "-9.219876406065563",
      "lat": "38.79582885842977"
    },
    {
      "id": "pt.ine.add.PTCONT.3403469",
      "street": "R GEN HUMBERTO DELGADO",
      "house": "",
      "postcode": "1685-802",
      "city": "FAMÕES",
      "lon": "-9.219876406065563",
      "lat": "38.79582885842977"
    },
    {
      "id": "pt.ine.add.PTCONT.3403470",
      "street": "R GEN HUMBERTO DELGADO",
      "house": "",
      "postcode": "1685-802",
      "city": "FAMÕES",
      "lon": "-9.219876406065563",
      "lat": "38.79582885842977"
    },
    {
      "id": "pt.ine.add.PTCONT.3403471",
      "street": "R GEN HUMBERTO DELGADO",
      "house": "",
      "postcode": "1685-802",
      "city": "FAMÕES",
      "lon": "-9.219876406065563",
      "lat": "38.79582885842977"
    },
    {
      "id": "pt.ine.add.PTCONT.3403473",
      "street": "R GEN HUMBERTO DELGADO",
      "house": "",
      "postcode": "1685-802",
      "city": "FAMÕES",
      "lon": "-9.219876406065563",
      "lat": "38.79582885842977"
    },
    {
      "id": "pt.ine.add.PTCONT.3403474",
      "street": "R GEN HUMBERTO DELGADO",
      "house": "",
      "postcode": "1685-802",
      "city": "FAMÕES",
      "lon": "-9.219876406065563",
      "lat": "38.79582885842977"
    },
    {
      "id": "pt.ine.add.PTCONT.3403475",
      "street": "R GEN HUMBERTO DELGADO",
      "house": "",
      "postcode": "1685-802",
      "city": "FAMÕES",
      "lon": "-9.219876406065563",
      "lat": "38.79582885842977"
    },
    {
      "id": "pt.ine.add.PTCONT.3403770",
      "street": "R GEN HUMBERTO DELGADO",
      "house": "",
      "postcode": "1685-802",
      "city": "FAMÕES",
      "lon": "-9.219876406065563",
      "lat": "38.79582885842977"
    },
    {
      "id": "pt.ine.add.PTCONT.3411841",
      "street": "R GEN HUMBERTO DELGADO",
      "house": "",
      "postcode": "1685-802",
      "city": "FAMÕES",
      "lon": "-9.219691308851582",
      "lat": "38.79576752592045"
    },
    {
      "id": "pt.ine.add.PTCONT.3411842",
      "street": "R GEN HUMBERTO DELGADO",
      "house": "",
      "postcode": "1685-802",
      "city": "FAMÕES",
      "lon": "-9.219691308851582",
      "lat": "38.79576752592045"
    },
    {
      "id": "pt.ine.add.PTCONT.3411843",
      "street": "R GEN HUMBERTO DELGADO",
      "house": "",
      "postcode": "1685-802",
      "city": "FAMÕES",
      "lon": "-9.219691308851582",
      "lat": "38.79576752592045"
    },
    {
      "id": "pt.ine.add.PTCONT.3411844",
      "street": "R GEN HUMBERTO DELGADO",
      "house": "",
      "postcode": "1685-802",
      "city": "FAMÕES",
      "lon": "-9.219691308851582",
      "lat": "38.79576752592045"
    },
    {
      "id": "pt.ine.add.PTCONT.3411845",
      "street": "R GEN HUMBERTO DELGADO",
      "house": "",
      "postcode": "1685-802",
      "city": "FAMÕES",
      "lon": "-9.219691308851582",
      "lat": "38.79576752592045"
    },
    {
      "id": "pt.ine.add.PTCONT.3411846",
      "street": "R GEN HUMBERTO DELGADO",
      "house": "",
      "postcode": "1685-802",
      "city": "FAMÕES",
      "lon": "-9.219691308851582",
      "lat": "38.79576752592045"
    },
    {
      "id": "pt.ine.add.PTCONT.3411847",
      "street": "R GEN HUMBERTO DELGADO L",
      "house": "L251",
      "postcode": "1685-802",
      "city": "FAMÕES",
      "lon": "-9.219691308851582",
      "lat": "38.79576752592045"
    },
    {
      "id": "pt.ine.add.PTCONT.3412894",
      "street": "R GEN HUMBERTO DELGADO",
      "house": "",
      "postcode": "1685-802",
      "city": "FAMÕES",
      "lon": "-9.219691308851582",
      "lat": "38.79576752592045"
    },
    {
      "id": "pt.ine.add.PTCONT.3421339",
      "street": "R GEN HUMBERTO DELGADO",
      "house": "",
      "postcode": "1685-802",
      "city": "FAMÕES",
      "lon": "-9.219008329909432",
      "lat": "38.795512651662165"
    },
    {
      "id": "pt.ine.add.PTCONT.3421340",
      "street": "R GEN HUMBERTO DELGADO",
      "house": "",
      "postcode": "1685-802",
      "city": "FAMÕES",
      "lon": "-9.219008329909432",
      "lat": "38.795512651662165"
    },
    {
      "id": "pt.ine.add.PTCONT.3421341",
      "street": "R GEN HUMBERTO DELGADO",
      "house": "",
      "postcode": "1685-802",
      "city": "FAMÕES",
      "lon": "-9.219008329909432",
      "lat": "38.795512651662165"
    },
    {
      "id": "pt.ine.add.PTCONT.3421342",
      "street": "R GEN HUMBERTO DELGADO",
      "house": "",
      "postcode": "1685-802",
      "city": "FAMÕES",
      "lon": "-9.219008329909432",
      "lat": "38.795512651662165"
    },
    {
      "id": "pt.ine.add.PTCONT.3421343",
      "street": "R GEN HUMBERTO DELGADO",
      "house": "",
      "postcode": "1685-802",
      "city": "FAMÕES",
      "lon": "-9.219008329909432",
      "lat": "38.795512651662165"
    },
    {
      "id": "pt.ine.add.PTCONT.3421344",
      "street": "R GEN HUMBERTO DELGADO",
      "house": "",
      "postcode": "1685-802",
      "city": "FAMÕES",
      "lon": "-9.219008329909432",
      "lat": "38.795512651662165"
    },
    {
      "id": "pt.ine.add.PTCONT.3421345",
      "street": "R GEN HUMBERTO DELGADO",
      "house": "",
      "postcode": "1685-802",
      "city": "FAMÕES",
      "lon": "-9.219008329909432",
      "lat": "38.795512651662165"
    },
    {
      "id": "pt.ine.add.PTCONT.3421739",
      "street": "R GEN HUMBERTO DELGADO",
      "house": "",
      "postcode": "1685-802",
      "city": "FAMÕES",
      "lon": "-9.219008329909432",
      "lat": "38.795512651662165"
    },
    {
      "id": "pt.ine.add.PTCONT.3430365",
      "street": "R S CRISTÓVÃO",
      "house": "",
      "postcode": "1685-820",
      "city": "FAMÕES",
      "lon": "-9.219795317270396",
      "lat": "38.79503693352904"
    },
    {
      "id": "pt.ine.add.PTCONT.3430366",
      "street": "R S CRISTÓVÃO",
      "house": "",
      "postcode": "1685-820",
      "city": "FAMÕES",
      "lon": "-9.219795317270396",
      "lat": "38.79503693352904"
    },
    {
      "id": "pt.ine.add.PTCONT.3430367",
      "street": "R S CRISTÓVÃO",
      "house": "",
      "postcode": "1685-820",
      "city": "FAMÕES",
      "lon": "-9.219795317270396",
      "lat": "38.79503693352904"
    },
    {
      "id": "pt.ine.add.PTCONT.3430368",
      "street": "R S CRISTÓVÃO",
      "house": "",
      "postcode": "1685-820",
      "city": "FAMÕES",
      "lon": "-9.219795317270396",
      "lat": "38.79503693352904"
    },
    {
      "id": "pt.ine.add.PTCONT.3430369",
      "street": "R S CRISTÓVÃO",
      "house": "",
      "postcode": "1685-820",
      "city": "FAMÕES",
      "lon": "-9.219795317270396",
      "lat": "38.79503693352904"
    },
    {
      "id": "pt.ine.add.PTCONT.3430370",
      "street": "R S CRISTÓVÃO",
      "house": "",
      "postcode": "1685-820",
      "city": "FAMÕES",
      "lon": "-9.219795317270396",
      "lat": "38.79503693352904"
    },
    {
      "id": "pt.ine.add.PTCONT.3430371",
      "street": "R S CRISTÓVÃO",
      "house": "",
      "postcode": "1685-820",
      "city": "FAMÕES",
      "lon": "-9.219795317270396",
      "lat": "38.79503693352904"
    },
    {
      "id": "pt.ine.add.PTCONT.3430372",
      "street": "R S CRISTÓVÃO",
      "house": "",
      "postcode": "1685-820",
      "city": "FAMÕES",
      "lon": "-9.219795317270396",
      "lat": "38.79503693352904"
    },
    {
      "id": "pt.ine.add.PTCONT.3441844",
      "street": "R ENG ADELINO AMARO DA COSTA",
      "house": "122",
      "postcode": "1685-791",
      "city": "FAMÕES",
      "lon": "-9.220856976313442",
      "lat": "38.79597286485547"
    },
    {
      "id": "pt.ine.add.PTCONT.3442097",
      "street": "R GEN HUMBERTO DELGADO",
      "house": "151",
      "postcode": "1685-802",
      "city": "FAMÕES",
      "lon": "-9.221057971828888",
      "lat": "38.795565646251944"
    },
    {
      "id": "pt.ine.add.PTCONT.3446632",
      "street": "R S CRISTÓVÃO",
      "house": "",
      "postcode": "1685-820",
      "city": "FAMÕES",
      "lon": "-9.219268381714588",
      "lat": "38.79520397208025"
    }
  ]
}