{
  "data": {
    "distrito": "Lisboa",
    "concelho": "Lourinhã",
    "freguesia": "União das freguesias de Miragaia e Marteleira",
    "OBJECTID": 55,
    "BGRI2021": "11081300111",
    "DT21": "11",
    "DTMN21": "1108",
    "DTMNFR21": "110813",
    "DTMNFRSEC21": "110813001",
    "SECNUM21": "001",
    "SSNUM21": "11",
    "SECSSNUM21": "00111",
    "OBJECTID_1": 107187,
    "DT": "11",
    "CC": "08",
    "fr": "13",
    "SEC": "001",
    "SS": "11"
  },
  "addresses": [
    {
      "id": "pt.ine.add.PTCONT.2320462",
      "street": "R CAETANO",
      "house": "2",
      "postcode": "2530-331",
      "city": "MARTELEIRA",
      "lon": "-9.265776127247625",
      "lat": "39.19596951239823"
    },
    {
      "id": "pt.ine.add.PTCONT.2324460",
      "street": "R BELA VISTA",
      "house": "9",
      "postcode": "2530-331",
      "city": "MARTELEIRA",
      "lon": "-9.265830375541999",
      "lat": "39.19646437491766"
    },
    {
      "id": "pt.ine.add.PTCONT.2488622",
      "street": "R BELA VISTA",
      "house": "15",
      "postcode": "2530-331",
      "city": "MARTELEIRA",
      "lon": "-9.265488797674353",
      "lat": "39.19753953928694"
    },
    {
      "id": "pt.ine.add.PTCONT.2597176",
      "street": "R BELA VISTA",
      "house": "11",
      "postcode": "2530-331",
      "city": "MARTELEIRA",
      "lon": "-9.265600927064153",
      "lat": "39.19659270492434"
    },
    {
      "id": "pt.ine.add.PTCONT.2626913",
      "street": "R CAETANO",
      "house": "3",
      "postcode": "2530-331",
      "city": "MARTELEIRA",
      "lon": "-9.266621720316492",
      "lat": "39.196006323338395"
    },
    {
      "id": "pt.ine.add.PTCONT.2660510",
      "street": "R BELA VISTA",
      "house": "5",
      "postcode": "2530-331",
      "city": "MARTELEIRA",
      "lon": "-9.265933094941433",
      "lat": "39.19565273796116"
    },
    {
      "id": "pt.ine.add.PTCONT.2668663",
      "street": "R BELA VISTA",
      "house": "15A",
      "postcode": "2530-331",
      "city": "MARTELEIRA",
      "lon": "-9.265548691024447",
      "lat": "39.1976650563273"
    },
    {
      "id": "pt.ine.add.PTCONT.2668664",
      "street": "R BELA VISTA",
      "house": "1",
      "postcode": "2530-331",
      "city": "MARTELEIRA",
      "lon": "-9.266293464455439",
      "lat": "39.19502774385666"
    },
    {
      "id": "pt.ine.add.PTCONT.2739757",
      "street": "AV LIBERDADE",
      "house": "95",
      "postcode": "2530-333",
      "city": "MARTELEIRA",
      "lon": "-9.266116970442997",
      "lat": "39.19484931865028"
    },
    {
      "id": "pt.ine.add.PTCONT.2757542",
      "street": "R CAETANO",
      "house": "4",
      "postcode": "2530-331",
      "city": "MARTELEIRA",
      "lon": "-9.266820497252953",
      "lat": "39.19613048833783"
    },
    {
      "id": "pt.ine.add.PTCONT.2766752",
      "street": "R BELA VISTA",
      "house": "15 B",
      "postcode": "2530-331",
      "city": "MARTELEIRA",
      "lon": "-9.265674267927519",
      "lat": "39.197555750483616"
    },
    {
      "id": "pt.ine.add.PTCONT.2787185",
      "street": "R BELA VISTA",
      "house": "12",
      "postcode": "2530-331",
      "city": "MARTELEIRA",
      "lon": "-9.26547099955384",
      "lat": "39.197872974560035"
    },
    {
      "id": "pt.ine.add.PTCONT.2874331",
      "street": "R CAETANO",
      "house": "",
      "postcode": "2530-331",
      "city": "MARTELEIRA",
      "lon": "-9.266959090668985",
      "lat": "39.19611112533021"
    },
    {
      "id": "pt.ine.add.PTCONT.2986593",
      "street": "R BELA VISTA",
      "house": "13",
      "postcode": "2530-331",
      "city": "MARTELEIRA",
      "lon": "-9.26554232906491",
      "lat": "39.19726880626753"
    },
    {
      "id": "pt.ine.add.PTCONT.3161055",
      "street": "R CAETANO",
      "house": "12",
      "postcode": "2530-331",
      "city": "MARTELEIRA",
      "lon": "-9.267061805079223",
      "lat": "39.19602005468161"
    },
    {
      "id": "pt.ine.add.PTCONT.3205155",
      "street": "R CAETANO",
      "house": "7D",
      "postcode": "2530-331",
      "city": "MARTELEIRA",
      "lon": "-9.266699116996017",
      "lat": "39.195780392988304"
    },
    {
      "id": "pt.ine.add.PTCONT.3234782",
      "street": "R CAETANO",
      "house": "",
      "postcode": "2530-331",
      "city": "MARTELEIRA",
      "lon": "-9.26721023422438",
      "lat": "39.19589251055833"
    },
    {
      "id": "pt.ine.add.PTCONT.3271279",
      "street": "R BELA VISTA",
      "house": "171",
      "postcode": "2530-331",
      "city": "MARTELEIRA",
      "lon": "-9.265646342861869",
      "lat": "39.19797935511097"
    },
    {
      "id": "pt.ine.add.PTCONT.3326585",
      "street": "R CAETANO",
      "house": "3A",
      "postcode": "2530-331",
      "city": "MARTELEIRA",
      "lon": "-9.266433070666787",
      "lat": "39.19579198856677"
    },
    {
      "id": "pt.ine.add.PTCONT.3374137",
      "street": "R CAETANO",
      "house": "1",
      "postcode": "2530-331",
      "city": "MARTELEIRA",
      "lon": "-9.265784519329554",
      "lat": "39.195771274803676"
    },
    {
      "id": "pt.ine.add.PTCONT.3418519",
      "street": "R BELA VISTA",
      "house": "7",
      "postcode": "2530-331",
      "city": "MARTELEIRA",
      "lon": "-9.265899386810187",
      "lat": "39.19571611537277"
    }
  ]
}