{
  "data": {
    "distrito": "Porto",
    "concelho": "Paços de Ferreira",
    "freguesia": "Frazão Arreigada",
    "OBJECTID": 281,
    "BGRI2021": "13091700424",
    "DT21": "13",
    "DTMN21": "1309",
    "DTMNFR21": "130917",
    "DTMNFRSEC21": "130917004",
    "SECNUM21": "004",
    "SSNUM21": "24",
    "SECSSNUM21": "00424",
    "OBJECTID_1": 133830,
    "DT": "13",
    "CC": "09",
    "fr": "17",
    "SEC": "004",
    "SS": "24"
  },
  "addresses": [
    {
      "id": "pt.ine.add.PTCONT.3554966",
      "street": "R QUINTA",
      "house": "458",
      "postcode": "4595-188",
      "city": "FRAZÃO",
      "lon": "-8.406892163508438",
      "lat": "41.257453291313865"
    },
    {
      "id": "pt.ine.add.PTCONT.3580979",
      "street": "R DR MANUEL VILELA",
      "house": "113",
      "postcode": "4595-174",
      "city": "FRAZÃO",
      "lon": "-8.402473844116361",
      "lat": "41.25952567860289"
    },
    {
      "id": "pt.ine.add.PTCONT.3716221",
      "street": "R FAROCA",
      "house": "6",
      "postcode": "4595-191",
      "city": "FRAZÃO",
      "lon": "-8.408254155025606",
      "lat": "41.25786423861331"
    },
    {
      "id": "pt.ine.add.PTCONT.3739272",
      "street": "R FAROCA",
      "house": "32",
      "postcode": "4595-191",
      "city": "FRAZÃO",
      "lon": "-8.408065204668828",
      "lat": "41.25833290930144"
    },
    {
      "id": "pt.ine.add.PTCONT.3844594",
      "street": "R QUINTA",
      "house": "498",
      "postcode": "4595-188",
      "city": "FRAZÃO",
      "lon": "-8.408288061814243",
      "lat": "41.257413946677204"
    },
    {
      "id": "pt.ine.add.PTCONT.3968033",
      "street": "R DR MANUEL VILELA",
      "house": "99",
      "postcode": "4595-174",
      "city": "FRAZÃO",
      "lon": "-8.401732815983719",
      "lat": "41.259230270757755"
    },
    {
      "id": "pt.ine.add.PTCONT.3968034",
      "street": "R DR MANUEL VILELA",
      "house": "97",
      "postcode": "4595-174",
      "city": "FRAZÃO",
      "lon": "-8.401732815983719",
      "lat": "41.259230270757755"
    },
    {
      "id": "pt.ine.add.PTCONT.4018957",
      "street": "R QUINTA",
      "house": "472",
      "postcode": "4595-188",
      "city": "FRAZÃO",
      "lon": "-8.407202547312496",
      "lat": "41.257488569708784"
    },
    {
      "id": "pt.ine.add.PTCONT.4072364",
      "street": "R TRUTA",
      "house": "56",
      "postcode": "4595-185",
      "city": "FRAZÃO",
      "lon": "-8.403285137949286",
      "lat": "41.259496765040964"
    },
    {
      "id": "pt.ine.add.PTCONT.4078470",
      "street": "R QUINTA",
      "house": "494",
      "postcode": "4595-188",
      "city": "FRAZÃO",
      "lon": "-8.40797809302897",
      "lat": "41.25747771662023"
    },
    {
      "id": "pt.ine.add.PTCONT.4144207",
      "street": "R QUINTA",
      "house": "406",
      "postcode": "4595-188",
      "city": "FRAZÃO",
      "lon": "-8.405626093885923",
      "lat": "41.257150151493974"
    },
    {
      "id": "pt.ine.add.PTCONT.4216350",
      "street": "R QUINTA",
      "house": "490",
      "postcode": "4595-188",
      "city": "FRAZÃO",
      "lon": "-8.407668048224334",
      "lat": "41.25752347747317"
    },
    {
      "id": "pt.ine.add.PTCONT.4235438",
      "street": "R QUINTA",
      "house": "434",
      "postcode": "4595-188",
      "city": "FRAZÃO",
      "lon": "-8.406498143106278",
      "lat": "41.25739119804924"
    },
    {
      "id": "pt.ine.add.PTCONT.4248670",
      "street": "R TRUTA",
      "house": "2",
      "postcode": "4595-185",
      "city": "FRAZÃO",
      "lon": "-8.404620487835096",
      "lat": "41.259232501523805"
    },
    {
      "id": "pt.ine.add.PTCONT.4268507",
      "street": "R QUINTA",
      "house": "416",
      "postcode": "4595-188",
      "city": "FRAZÃO",
      "lon": "-8.405972721265186",
      "lat": "41.25729339804414"
    },
    {
      "id": "pt.ine.add.PTCONT.4271763",
      "street": "R QUINTA",
      "house": "418",
      "postcode": "4595-188",
      "city": "FRAZÃO",
      "lon": "-8.405972721265186",
      "lat": "41.25729339804414"
    },
    {
      "id": "pt.ine.add.PTCONT.4315559",
      "street": "R QUINTA",
      "house": "476",
      "postcode": "4595-188",
      "city": "FRAZÃO",
      "lon": "-8.407369671395024",
      "lat": "41.257506180169905"
    },
    {
      "id": "pt.ine.add.PTCONT.4381304",
      "street": "R FAROCA",
      "house": "143",
      "postcode": "4595-191",
      "city": "FRAZÃO",
      "lon": "-8.405992898103685",
      "lat": "41.25927427802654"
    }
  ]
}