{
  "data": {
    "distrito": "Setúbal",
    "concelho": "Almada",
    "freguesia": "União das freguesias de Charneca de Caparica e Sobreda",
    "OBJECTID": 698,
    "BGRI2021": "15031400710",
    "DT21": "15",
    "DTMN21": "1503",
    "DTMNFR21": "150314",
    "DTMNFRSEC21": "150314007",
    "SECNUM21": "007",
    "SSNUM21": "10",
    "SECSSNUM21": "00710",
    "OBJECTID_1": 161695,
    "DT": "15",
    "CC": "03",
    "fr": "14",
    "SEC": "007",
    "SS": "10"
  },
  "addresses": [
    {
      "id": "pt.ine.add.PTCONT.4682527",
      "street": "R ANTÓNIO SANTOS",
      "house": "17",
      "postcode": "2820-037",
      "city": "CHARNECA DA CAPARICA",
      "lon": "-9.169715663139925",
      "lat": "38.589679412929954"
    },
    {
      "id": "pt.ine.add.PTCONT.4686607",
      "street": "PCT ANTÓNIO PEDRO",
      "house": "4",
      "postcode": "2820-036",
      "city": "CHARNECA DA CAPARICA",
      "lon": "-9.172559820440393",
      "lat": "38.5927079148748"
    },
    {
      "id": "pt.ine.add.PTCONT.4693053",
      "street": "AV ILHA DA MADEIRA",
      "house": "11",
      "postcode": "2820-077",
      "city": "CHARNECA DA CAPARICA",
      "lon": "-9.173693090942058",
      "lat": "38.593292374451416"
    },
    {
      "id": "pt.ine.add.PTCONT.4693054",
      "street": "R SANTIAGO AREAL",
      "house": "5",
      "postcode": "2820-130",
      "city": "CHARNECA DA CAPARICA",
      "lon": "-9.171960267794438",
      "lat": "38.593316778141215"
    },
    {
      "id": "pt.ine.add.PTCONT.4697408",
      "street": "PCT ABEL MANTA",
      "house": "32",
      "postcode": "2820-019",
      "city": "CHARNECA DA CAPARICA",
      "lon": "-9.170127613275305",
      "lat": "38.59118911642196"
    },
    {
      "id": "pt.ine.add.PTCONT.4715111",
      "street": "R SANTIAGO AREAL",
      "house": "8",
      "postcode": "2820-130",
      "city": "CHARNECA DA CAPARICA",
      "lon": "-9.172494728454168",
      "lat": "38.59296972647275"
    },
    {
      "id": "pt.ine.add.PTCONT.4717228",
      "street": "AV ANTÓNIO PEDRO",
      "house": "44",
      "postcode": "2820-036",
      "city": "CHARNECA DA CAPARICA",
      "lon": "-9.170782859225003",
      "lat": "38.59046266381546"
    },
    {
      "id": "pt.ine.add.PTCONT.4726746",
      "street": "PCT ANTÓNIO PEDRO",
      "house": "5",
      "postcode": "2820-036",
      "city": "CHARNECA DA CAPARICA",
      "lon": "-9.172431761657743",
      "lat": "38.59258293957176"
    },
    {
      "id": "pt.ine.add.PTCONT.4726747",
      "street": "PCT ABEL MANTA",
      "house": "",
      "postcode": "2820-019",
      "city": "CHARNECA DA CAPARICA",
      "lon": "-9.170414129006485",
      "lat": "38.591159552951396"
    },
    {
      "id": "pt.ine.add.PTCONT.4730188",
      "street": "R ANTÓNIO SANTOS",
      "house": "14",
      "postcode": "2820-037",
      "city": "CHARNECA DA CAPARICA",
      "lon": "-9.169674939903585",
      "lat": "38.59004009588503"
    },
    {
      "id": "pt.ine.add.PTCONT.4752921",
      "street": "AV ANTÓNIO PEDRO",
      "house": "15",
      "postcode": "2820-036",
      "city": "CHARNECA DA CAPARICA",
      "lon": "-9.172839325294813",
      "lat": "38.59219197301119"
    },
    {
      "id": "pt.ine.add.PTCONT.4773848",
      "street": "PCT ABEL MANTA",
      "house": "1",
      "postcode": "2820-019",
      "city": "CHARNECA DA CAPARICA",
      "lon": "-9.16982177200365",
      "lat": "38.59147107590018"
    },
    {
      "id": "pt.ine.add.PTCONT.4785061",
      "street": "R ANTÓNIO SANTOS",
      "house": "1",
      "postcode": "2820-037",
      "city": "CHARNECA DA CAPARICA",
      "lon": "-9.17010727046296",
      "lat": "38.589775032081775"
    },
    {
      "id": "pt.ine.add.PTCONT.4787598",
      "street": "R SANTIAGO AREAL",
      "house": "11",
      "postcode": "2820-130",
      "city": "CHARNECA DA CAPARICA",
      "lon": "-9.172244973200646",
      "lat": "38.593161113537626"
    },
    {
      "id": "pt.ine.add.PTCONT.4796504",
      "street": "R RUI FILIPE",
      "house": "",
      "postcode": "2820-036",
      "city": "CHARNECA DA CAPARICA",
      "lon": "-9.168734036926665",
      "lat": "38.590057434254234"
    },
    {
      "id": "pt.ine.add.PTCONT.4802041",
      "street": "AV ANTÓNIO PEDRO",
      "house": "17",
      "postcode": "2820-036",
      "city": "CHARNECA DA CAPARICA",
      "lon": "-9.172664972022877",
      "lat": "38.59204038510328"
    },
    {
      "id": "pt.ine.add.PTCONT.4810436",
      "street": "R ABEL MANTA",
      "house": "30 A - 32",
      "postcode": "2820-020",
      "city": "CHARNECA DA CAPARICA",
      "lon": "-9.170811585518425",
      "lat": "38.59232163610411"
    },
    {
      "id": "pt.ine.add.PTCONT.4810437",
      "street": "R ABEL MANTA",
      "house": "30 A - 32",
      "postcode": "2820-020",
      "city": "CHARNECA DA CAPARICA",
      "lon": "-9.170811585518425",
      "lat": "38.59232163610411"
    },
    {
      "id": "pt.ine.add.PTCONT.4814644",
      "street": "AV ANTÓNIO PEDRO",
      "house": "44",
      "postcode": "2820-036",
      "city": "CHARNECA DA CAPARICA",
      "lon": "-9.170467950441841",
      "lat": "38.590114141563404"
    },
    {
      "id": "pt.ine.add.PTCONT.4826728",
      "street": "R SA MIRANDA",
      "house": "3",
      "postcode": "2820-124",
      "city": "CHARNECA DA CAPARICA",
      "lon": "-9.172947767668573",
      "lat": "38.59334403982552"
    },
    {
      "id": "pt.ine.add.PTCONT.4844448",
      "street": "R ABEL MANTA",
      "house": "",
      "postcode": "2820-020",
      "city": "CHARNECA DA CAPARICA",
      "lon": "-9.16955380403032",
      "lat": "38.591194199825324"
    },
    {
      "id": "pt.ine.add.PTCONT.4844470",
      "street": "R RUI FILIPE",
      "house": "24",
      "postcode": "2820-036",
      "city": "CHARNECA DA CAPARICA",
      "lon": "-9.168540367881342",
      "lat": "38.590158236590256"
    },
    {
      "id": "pt.ine.add.PTCONT.4848861",
      "street": "PCT ANTÓNIO PEDRO",
      "house": "8",
      "postcode": "2820-036",
      "city": "CHARNECA DA CAPARICA",
      "lon": "-9.172426307129347",
      "lat": "38.59220464989466"
    },
    {
      "id": "pt.ine.add.PTCONT.4855627",
      "street": "R ANTÓNIO SANTOS",
      "house": "18",
      "postcode": "2820-037",
      "city": "CHARNECA DA CAPARICA",
      "lon": "-9.169947902516633",
      "lat": "38.58986652472794"
    },
    {
      "id": "pt.ine.add.PTCONT.4855628",
      "street": "R ANTÓNIO SANTOS",
      "house": "18",
      "postcode": "2820-037",
      "city": "CHARNECA DA CAPARICA",
      "lon": "-9.169947902516633",
      "lat": "38.58986652472794"
    },
    {
      "id": "pt.ine.add.PTCONT.4865300",
      "street": "R SA MIRANDA",
      "house": "6",
      "postcode": "2820-124",
      "city": "CHARNECA DA CAPARICA",
      "lon": "-9.173020655166951",
      "lat": "38.593622641645226"
    },
    {
      "id": "pt.ine.add.PTCONT.4874544",
      "street": "AV ANTONIO PEDRO",
      "house": "",
      "postcode": "2820-026",
      "city": "CHARNECA DA CAPARICA",
      "lon": "-9.171194379246772",
      "lat": "38.59114362620054"
    },
    {
      "id": "pt.ine.add.PTCONT.4875542",
      "street": "R ANTÓNIO SANTOS",
      "house": "12",
      "postcode": "2820-037",
      "city": "CHARNECA DA CAPARICA",
      "lon": "-9.16953852285127",
      "lat": "38.59013138468418"
    },
    {
      "id": "pt.ine.add.PTCONT.4878975",
      "street": "R SA DE MIRANDA",
      "house": "",
      "postcode": "2820-124",
      "city": "CHARNECA DA CAPARICA",
      "lon": "-9.172695803927194",
      "lat": "38.593382310637324"
    },
    {
      "id": "pt.ine.add.PTCONT.4878976",
      "street": "AV ANTÓNIO PEDRO",
      "house": "43",
      "postcode": "2820-036",
      "city": "CHARNECA DA CAPARICA",
      "lon": "-9.170879724786596",
      "lat": "38.59081311897324"
    },
    {
      "id": "pt.ine.add.PTCONT.4878977",
      "street": "PCT ANTÓNIO PEDRO",
      "house": "6",
      "postcode": "2820-036",
      "city": "CHARNECA DA CAPARICA",
      "lon": "-9.172315699122082",
      "lat": "38.592493889795904"
    },
    {
      "id": "pt.ine.add.PTCONT.4885254",
      "street": "AV ANTÓNIO PEDRO",
      "house": "",
      "postcode": "2820-571",
      "city": "CHARNECA DA CAPARICA",
      "lon": "-9.173443244334434",
      "lat": "38.59268204852255"
    },
    {
      "id": "pt.ine.add.PTCONT.4895914",
      "street": "R CLEMENTINA MOURA",
      "house": "5-7",
      "postcode": "2819-505",
      "city": "SOBREDA",
      "lon": "-9.170826427704288",
      "lat": "38.5918945579611"
    },
    {
      "id": "pt.ine.add.PTCONT.4895915",
      "street": "R CLEMENTINA MOURA",
      "house": "5-7",
      "postcode": "2819-505",
      "city": "SOBREDA",
      "lon": "-9.170826427704288",
      "lat": "38.5918945579611"
    },
    {
      "id": "pt.ine.add.PTCONT.4898445",
      "street": "AV ILHA DA MADEIRA",
      "house": "11",
      "postcode": "2820-077",
      "city": "CHARNECA DA CAPARICA",
      "lon": "-9.17289818109799",
      "lat": "38.593884963330495"
    },
    {
      "id": "pt.ine.add.PTCONT.4901221",
      "street": "R SA MIRANDA",
      "house": "15",
      "postcode": "2820-124",
      "city": "CHARNECA DA CAPARICA",
      "lon": "-9.173339269067188",
      "lat": "38.59343064086985"
    },
    {
      "id": "pt.ine.add.PTCONT.4913112",
      "street": "R SANTIAGO AREAL",
      "house": "7",
      "postcode": "2820-130",
      "city": "CHARNECA DA CAPARICA",
      "lon": "-9.172120030158696",
      "lat": "38.5932523034265"
    },
    {
      "id": "pt.ine.add.PTCONT.4919041",
      "street": "AV ANTÓNIO PEDRO",
      "house": "39",
      "postcode": "2820-036",
      "city": "CHARNECA DA CAPARICA",
      "lon": "-9.169839955525255",
      "lat": "38.58954319105335"
    },
    {
      "id": "pt.ine.add.PTCONT.4930683",
      "street": "R ANTÓNIO SANTOS",
      "house": "16",
      "postcode": "2820-037",
      "city": "CHARNECA DA CAPARICA",
      "lon": "-9.169811486140746",
      "lat": "38.58995781383858"
    },
    {
      "id": "pt.ine.add.PTCONT.4934259",
      "street": "R ABEL MANTA",
      "house": "6",
      "postcode": "2820-020",
      "city": "CHARNECA DA CAPARICA",
      "lon": "-9.170316157027154",
      "lat": "38.591529751517946"
    },
    {
      "id": "pt.ine.add.PTCONT.4938608",
      "street": "R SA DE MIRANDA",
      "house": "12",
      "postcode": "2820-124",
      "city": "CHARNECA DA CAPARICA",
      "lon": "-9.173202200575773",
      "lat": "38.59347689944787"
    },
    {
      "id": "pt.ine.add.PTCONT.4956689",
      "street": "AV ANTONIO PEDRO",
      "house": "",
      "postcode": "2819-505",
      "city": "SOBREDA",
      "lon": "-9.170804774093895",
      "lat": "38.59039040505757"
    },
    {
      "id": "pt.ine.add.PTCONT.4956690",
      "street": "AV ANTONIO PEDRO",
      "house": "",
      "postcode": "2819-505",
      "city": "SOBREDA",
      "lon": "-9.170804774093895",
      "lat": "38.59039040505757"
    },
    {
      "id": "pt.ine.add.PTCONT.4962337",
      "street": "R RUI FILIPE",
      "house": "21",
      "postcode": "2820-036",
      "city": "CHARNECA DA CAPARICA",
      "lon": "-9.169052517529796",
      "lat": "38.58985643818542"
    },
    {
      "id": "pt.ine.add.PTCONT.4965913",
      "street": "PCT ABEL MANTA",
      "house": "L 2",
      "postcode": "2820-019",
      "city": "CHARNECA DA CAPARICA",
      "lon": "-9.16999210158785",
      "lat": "38.59134345409346"
    },
    {
      "id": "pt.ine.add.PTCONT.4973014",
      "street": "R ANTONIO SANTOS",
      "house": "15 15A",
      "postcode": "2820-037",
      "city": "CHARNECA DA CAPARICA",
      "lon": "-9.169590722772151",
      "lat": "38.589770600132034"
    },
    {
      "id": "pt.ine.add.PTCONT.4976821",
      "street": "R SA DE MIRANDA",
      "house": "11",
      "postcode": "2820-124",
      "city": "CHARNECA DA CAPARICA",
      "lon": "-9.173452734327238",
      "lat": "38.59333955172668"
    },
    {
      "id": "pt.ine.add.PTCONT.4976832",
      "street": "PCT ANTÓNIO PEDRO",
      "house": "9",
      "postcode": "2820-036",
      "city": "CHARNECA DA CAPARICA",
      "lon": "-9.172612006780447",
      "lat": "38.59234712931702"
    },
    {
      "id": "pt.ine.add.PTCONT.4979376",
      "street": "PCT ANTÓNIO PEDRO",
      "house": "7",
      "postcode": "2820-036",
      "city": "CHARNECA DA CAPARICA",
      "lon": "-9.172188030663982",
      "lat": "38.5923959349033"
    },
    {
      "id": "pt.ine.add.PTCONT.4991137",
      "street": "R SANTIAGO AREAL",
      "house": "2",
      "postcode": "2820-130",
      "city": "CHARNECA DA CAPARICA",
      "lon": "-9.173006750918946",
      "lat": "38.59265890396056"
    },
    {
      "id": "pt.ine.add.PTCONT.5018557",
      "street": "R SANTIAGO ARIAL",
      "house": "13",
      "postcode": "2820-571",
      "city": "CHARNECA DA CAPARICA",
      "lon": "-9.172767954890038",
      "lat": "38.59281416255424"
    },
    {
      "id": "pt.ine.add.PTCONT.5020092",
      "street": "AV ILHA DA MADEIRA",
      "house": "35",
      "postcode": "2820-077",
      "city": "CHARNECA DA CAPARICA",
      "lon": "-9.173580796229087",
      "lat": "38.593464525852774"
    },
    {
      "id": "pt.ine.add.PTCONT.5028165",
      "street": "R SANTIAGO AREAL",
      "house": "13",
      "postcode": "2820-130",
      "city": "CHARNECA DA CAPARICA",
      "lon": "-9.17234657338891",
      "lat": "38.59304310666771"
    },
    {
      "id": "pt.ine.add.PTCONT.5035018",
      "street": "AV ILHA DA MADEIRA",
      "house": "15",
      "postcode": "2820-077",
      "city": "CHARNECA DA CAPARICA",
      "lon": "-9.173295572663763",
      "lat": "38.593584166104094"
    },
    {
      "id": "pt.ine.add.PTCONT.5035019",
      "street": "R SA DE MIRANDA",
      "house": "5",
      "postcode": "2820-124",
      "city": "CHARNECA DA CAPARICA",
      "lon": "-9.173197911552633",
      "lat": "38.59317967196476"
    },
    {
      "id": "pt.ine.add.PTCONT.5038974",
      "street": "R ANTÓNIO SANTOS",
      "house": "11",
      "postcode": "2820-037",
      "city": "CHARNECA DA CAPARICA",
      "lon": "-9.169374880624993",
      "lat": "38.58992564856224"
    },
    {
      "id": "pt.ine.add.PTCONT.5042610",
      "street": "R SANTIAGO AREAL",
      "house": "4",
      "postcode": "2820-130",
      "city": "CHARNECA DA CAPARICA",
      "lon": "-9.172836293794232",
      "lat": "38.59277752320071"
    },
    {
      "id": "pt.ine.add.PTCONT.5048032",
      "street": "R RUI FILIPE",
      "house": "",
      "postcode": "2820-036",
      "city": "CHARNECA DA CAPARICA",
      "lon": "-9.169188157982644",
      "lat": "38.58971110848477"
    },
    {
      "id": "pt.ine.add.PTCONT.5075509",
      "street": "R ABEL MANTA",
      "house": "10A",
      "postcode": "2820-020",
      "city": "CHARNECA DA CAPARICA",
      "lon": "-9.172727980766208",
      "lat": "38.59402159621852"
    },
    {
      "id": "pt.ine.add.PTCONT.5080432",
      "street": "R ABEL MANTA",
      "house": "33",
      "postcode": "2820-020",
      "city": "CHARNECA DA CAPARICA",
      "lon": "-9.168415425182049",
      "lat": "38.59024942256239"
    },
    {
      "id": "pt.ine.add.PTCONT.5087552",
      "street": "R CLEMENTINA MOURA",
      "house": "1-3",
      "postcode": "2819-505",
      "city": "SOBREDA",
      "lon": "-9.171071191094372",
      "lat": "38.592153620765664"
    },
    {
      "id": "pt.ine.add.PTCONT.5087553",
      "street": "R CLEMENTINA MOURA",
      "house": "1-3",
      "postcode": "2819-505",
      "city": "SOBREDA",
      "lon": "-9.171071191094372",
      "lat": "38.592153620765664"
    },
    {
      "id": "pt.ine.add.PTCONT.5097377",
      "street": "AV ANTÓNIO PEDRO",
      "house": "13",
      "postcode": "2820-036",
      "city": "CHARNECA DA CAPARICA",
      "lon": "-9.173153085059562",
      "lat": "38.592459426418195"
    },
    {
      "id": "pt.ine.add.PTCONT.5112321",
      "street": "R SANTIAGO AREAL",
      "house": "6",
      "postcode": "2820-130",
      "city": "CHARNECA DA CAPARICA",
      "lon": "-9.172676663038507",
      "lat": "38.59285100577051"
    },
    {
      "id": "pt.ine.add.PTCONT.5112410",
      "street": "R ABEL MANTA",
      "house": "",
      "postcode": "2819-505",
      "city": "SOBREDA",
      "lon": "-9.170559880272505",
      "lat": "38.591716760221516"
    },
    {
      "id": "pt.ine.add.PTCONT.5112411",
      "street": "R ABEL MANTA",
      "house": "",
      "postcode": "2819-505",
      "city": "SOBREDA",
      "lon": "-9.170559880272505",
      "lat": "38.591716760221516"
    },
    {
      "id": "pt.ine.add.PTCONT.5118114",
      "street": "AV ANTONIO PEDRO",
      "house": "39",
      "postcode": "2820-036",
      "city": "CHARNECA DA CAPARICA",
      "lon": "-9.171071772799536",
      "lat": "38.591396939215436"
    }
  ]
}