{
  "data": {
    "distrito": "Viseu",
    "concelho": "Lamego",
    "freguesia": "Figueira",
    "OBJECTID": 384,
    "BGRI2021": "18050900107",
    "DT21": "18",
    "DTMN21": "1805",
    "DTMNFR21": "180509",
    "DTMNFRSEC21": "180509001",
    "SECNUM21": "001",
    "SSNUM21": "07",
    "SECSSNUM21": "00107",
    "OBJECTID_1": 191380,
    "DT": "18",
    "CC": "05",
    "fr": "09",
    "SEC": "001",
    "SS": "07"
  },
  "addresses": [
    {
      "id": "pt.ine.add.PTCONT.5436121",
      "street": "TV QUINTA",
      "house": "22",
      "postcode": "5100-530",
      "city": "FIGUEIRA LMG",
      "lon": "-7.762661241290731",
      "lat": "41.10319984741254"
    },
    {
      "id": "pt.ine.add.PTCONT.5439887",
      "street": "TV QUINTA",
      "house": "17",
      "postcode": "5100-530",
      "city": "FIGUEIRA LMG",
      "lon": "-7.762506793384582",
      "lat": "41.10314532403892"
    },
    {
      "id": "pt.ine.add.PTCONT.5448402",
      "street": "R OUTEIRO",
      "house": "15",
      "postcode": "5100-530",
      "city": "FIGUEIRA LMG",
      "lon": "-7.76280403837034",
      "lat": "41.103209310893554"
    },
    {
      "id": "pt.ine.add.PTCONT.5462765",
      "street": "R OUTEIRO",
      "house": "37",
      "postcode": "5100-530",
      "city": "FIGUEIRA LMG",
      "lon": "-7.762438356737152",
      "lat": "41.10261384142135"
    },
    {
      "id": "pt.ine.add.PTCONT.5467517",
      "street": "R OUTEIRO",
      "house": "50",
      "postcode": "5100-530",
      "city": "FIGUEIRA LMG",
      "lon": "-7.762580039110448",
      "lat": "41.10282139946872"
    },
    {
      "id": "pt.ine.add.PTCONT.5484034",
      "street": "R ESBORRALHADA",
      "house": "3",
      "postcode": "5100-530",
      "city": "FIGUEIRA LMG",
      "lon": "-7.762377824673819",
      "lat": "41.102793735643594"
    },
    {
      "id": "pt.ine.add.PTCONT.5484035",
      "street": "R POCO DAS PATAS",
      "house": "",
      "postcode": "5100-530",
      "city": "FIGUEIRA LMG",
      "lon": "-7.762377824673819",
      "lat": "41.102793735643594"
    },
    {
      "id": "pt.ine.add.PTCONT.5484036",
      "street": "R NSA SRA DE FÁTIMA",
      "house": "",
      "postcode": "5100-530",
      "city": "FIGUEIRA LMG",
      "lon": "-7.762352902785644",
      "lat": "41.102991753319564"
    },
    {
      "id": "pt.ine.add.PTCONT.5486980",
      "street": "TV ALAMBIQUE",
      "house": "",
      "postcode": "5100-530",
      "city": "FIGUEIRA LMG",
      "lon": "-7.762188679545287",
      "lat": "41.102559011213344"
    },
    {
      "id": "pt.ine.add.PTCONT.5494761",
      "street": "TV ALAMBIQUE",
      "house": "",
      "postcode": "5100-530",
      "city": "FIGUEIRA LMG",
      "lon": "-7.762246729834997",
      "lat": "41.10282032709714"
    },
    {
      "id": "pt.ine.add.PTCONT.5507305",
      "street": "TV ALAMBIQUE",
      "house": "",
      "postcode": "5100-530",
      "city": "FIGUEIRA LMG",
      "lon": "-7.762307971328405",
      "lat": "41.10251437294121"
    },
    {
      "id": "pt.ine.add.PTCONT.5507306",
      "street": "TV QUINTA",
      "house": "23",
      "postcode": "5100-530",
      "city": "FIGUEIRA LMG",
      "lon": "-7.7627219753246886",
      "lat": "41.10298393590904"
    },
    {
      "id": "pt.ine.add.PTCONT.5516688",
      "street": "TV QUINTA",
      "house": "25",
      "postcode": "5100-530",
      "city": "FIGUEIRA LMG",
      "lon": "-7.762674056012774",
      "lat": "41.10303780854488"
    },
    {
      "id": "pt.ine.add.PTCONT.5545525",
      "street": "TV FORNO",
      "house": "31",
      "postcode": "5100-530",
      "city": "FIGUEIRA LMG",
      "lon": "-7.762508362596184",
      "lat": "41.102866191185264"
    },
    {
      "id": "pt.ine.add.PTCONT.5545623",
      "street": "OUTEIRO",
      "house": "20",
      "postcode": "5100-530",
      "city": "FIGUEIRA LMG",
      "lon": "-7.762601772040912",
      "lat": "41.10319065174342"
    },
    {
      "id": "pt.ine.add.PTCONT.5583983",
      "street": "R OUTEIRO",
      "house": "",
      "postcode": "5100-530",
      "city": "FIGUEIRA LMG",
      "lon": "-7.762780837416211",
      "lat": "41.1031011829455"
    },
    {
      "id": "pt.ine.add.PTCONT.5585845",
      "street": "R OUTEIRO",
      "house": "",
      "postcode": "5100-530",
      "city": "FIGUEIRA LMG",
      "lon": "-7.762282796092702",
      "lat": "41.102757412040226"
    },
    {
      "id": "pt.ine.add.PTCONT.5595341",
      "street": "",
      "house": "",
      "postcode": "5100-530",
      "city": "FIGUEIRA LMG",
      "lon": "-7.762059054822432",
      "lat": "41.10232447816019"
    },
    {
      "id": "pt.ine.add.PTCONT.5595342",
      "street": "",
      "house": "",
      "postcode": "5100-530",
      "city": "FIGUEIRA LMG",
      "lon": "-7.762059054822432",
      "lat": "41.10232447816019"
    },
    {
      "id": "pt.ine.add.PTCONT.5602420",
      "street": "R FONTE",
      "house": "",
      "postcode": "5100-530",
      "city": "FIGUEIRA LMG",
      "lon": "-7.762189844776485",
      "lat": "41.10235191263211"
    },
    {
      "id": "pt.ine.add.PTCONT.5605114",
      "street": "LUGAR DE SOBRE A MINA",
      "house": "2",
      "postcode": "5100-530",
      "city": "FIGUEIRA LMG",
      "lon": "-7.761939915305604",
      "lat": "41.10234210331869"
    },
    {
      "id": "pt.ine.add.PTCONT.5613634",
      "street": "LG POÇO DAS PATAS",
      "house": "48",
      "postcode": "5100-530",
      "city": "FIGUEIRA LMG",
      "lon": "-7.762485415355527",
      "lat": "41.102713041743776"
    },
    {
      "id": "pt.ine.add.PTCONT.5622907",
      "street": "R OUTEIRO",
      "house": "46",
      "postcode": "5100-530",
      "city": "FIGUEIRA LMG",
      "lon": "-7.762461253209958",
      "lat": "41.10277599516014"
    },
    {
      "id": "pt.ine.add.PTCONT.5624942",
      "street": "TV QUINTA",
      "house": "19",
      "postcode": "5100-530",
      "city": "FIGUEIRA LMG",
      "lon": "-7.762661696681578",
      "lat": "41.103118808842865"
    },
    {
      "id": "pt.ine.add.PTCONT.5628697",
      "street": "TV FORNO",
      "house": "23",
      "postcode": "5100-530",
      "city": "FIGUEIRA LMG",
      "lon": "-7.7624722964929465",
      "lat": "41.10292910631226"
    },
    {
      "id": "pt.ine.add.PTCONT.5666455",
      "street": "TV FORNO",
      "house": "40",
      "postcode": "5100-530",
      "city": "FIGUEIRA LMG",
      "lon": "-7.762662961646405",
      "lat": "41.1028937016989"
    }
  ]
}