{
  "data": {
    "distrito": "Aveiro",
    "concelho": "Mealhada",
    "freguesia": "União das freguesias da Mealhada, Ventosa do Bairro e Antes",
    "OBJECTID": 317,
    "BGRI2021": "01110900411",
    "DT21": "01",
    "DTMN21": "0111",
    "DTMNFR21": "011109",
    "DTMNFRSEC21": "011109004",
    "SECNUM21": "004",
    "SSNUM21": "11",
    "SECSSNUM21": "00411",
    "OBJECTID_1": 8028,
    "DT": "01",
    "CC": "11",
    "fr": "09",
    "SEC": "004",
    "SS": "11"
  },
  "addresses": [
    {
      "id": "pt.ine.add.PTCONT.290911",
      "street": "R FLORES",
      "house": "28",
      "postcode": "3050-332",
      "city": "MEALHADA",
      "lon": "-8.45082776888778",
      "lat": "40.37829104771434"
    },
    {
      "id": "pt.ine.add.PTCONT.299029",
      "street": "AV QUINTA DA NORA",
      "house": "3",
      "postcode": "3050-336",
      "city": "MEALHADA",
      "lon": "-8.451345509590015",
      "lat": "40.37820857386331"
    },
    {
      "id": "pt.ine.add.PTCONT.301512",
      "street": "R DR PADRE ANTÓNIO ANTUNES BREDA",
      "house": "52",
      "postcode": "3050-327",
      "city": "MEALHADA",
      "lon": "-8.450286813721391",
      "lat": "40.37844562760808"
    },
    {
      "id": "pt.ine.add.PTCONT.310739",
      "street": "R DR PADRE ANTÓNIO ANTUNES BREDA",
      "house": "38",
      "postcode": "3050-327",
      "city": "MEALHADA",
      "lon": "-8.45051071781119",
      "lat": "40.37848103563826"
    },
    {
      "id": "pt.ine.add.PTCONT.338893",
      "street": "R FLORES",
      "house": "18",
      "postcode": "3050-332",
      "city": "MEALHADA",
      "lon": "-8.450415288343953",
      "lat": "40.378220135518404"
    },
    {
      "id": "pt.ine.add.PTCONT.12135",
      "street": "R DR PADRE ANTÓNIO ANTUNES BREDA",
      "house": "56",
      "postcode": "3050-327",
      "city": "MEALHADA",
      "lon": "-8.450132845428405",
      "lat": "40.37825693248163"
    },
    {
      "id": "pt.ine.add.PTCONT.16272",
      "street": "R DR COSTA SIMÕES",
      "house": "22",
      "postcode": "3050-326",
      "city": "MEALHADA",
      "lon": "-8.451158880365659",
      "lat": "40.37858732189415"
    },
    {
      "id": "pt.ine.add.PTCONT.25348",
      "street": "R DR PADRE ANTÓNIO ANTUNES BREDA",
      "house": "34",
      "postcode": "3050-327",
      "city": "MEALHADA",
      "lon": "-8.450522746919798",
      "lat": "40.378535036137535"
    },
    {
      "id": "pt.ine.add.PTCONT.38873",
      "street": "R DR PADRE ANTÓNIO ANTUNES BREDA",
      "house": "64",
      "postcode": "3050-327",
      "city": "MEALHADA",
      "lon": "-8.449838542356375",
      "lat": "40.378275750065704"
    },
    {
      "id": "pt.ine.add.PTCONT.51555",
      "street": "R PERPENDICULAR A DAS FLARES",
      "house": "1",
      "postcode": "3050-327",
      "city": "MEALHADA",
      "lon": "-8.450203245089725",
      "lat": "40.378202705952475"
    },
    {
      "id": "pt.ine.add.PTCONT.54889",
      "street": "R DR PADRE ANTÓNIO ANTUNES BREDA",
      "house": "8",
      "postcode": "3050-327",
      "city": "MEALHADA",
      "lon": "-8.45101782770255",
      "lat": "40.37864174324792"
    },
    {
      "id": "pt.ine.add.PTCONT.63010",
      "street": "R DR PADRE ANTÓNIO ANTUNES BREDA",
      "house": "14",
      "postcode": "3050-327",
      "city": "MEALHADA",
      "lon": "-8.45084098274169",
      "lat": "40.37859720133168"
    },
    {
      "id": "pt.ine.add.PTCONT.76561",
      "street": "AV QUINTA DA NORA",
      "house": "39",
      "postcode": "3050-336",
      "city": "MEALHADA",
      "lon": "-8.450285251194906",
      "lat": "40.37811242520217"
    },
    {
      "id": "pt.ine.add.PTCONT.80157",
      "street": "R FLORES",
      "house": "2",
      "postcode": "3050-332",
      "city": "MEALHADA",
      "lon": "-8.450262038069182",
      "lat": "40.37818453355724"
    },
    {
      "id": "pt.ine.add.PTCONT.82095",
      "street": "R DR COSTA SIMÕES",
      "house": "8",
      "postcode": "3050-326",
      "city": "MEALHADA",
      "lon": "-8.451299297315801",
      "lat": "40.378397818329894"
    },
    {
      "id": "pt.ine.add.PTCONT.160599",
      "street": "R DR PADRE ANTÓNIO ANTUNES BREDA",
      "house": "52 A",
      "postcode": "3050-327",
      "city": "MEALHADA",
      "lon": "-8.450227851630336",
      "lat": "40.37842777813505"
    },
    {
      "id": "pt.ine.add.PTCONT.160600",
      "street": "R DR PADRE ANTÓNIO ANTUNES BREDA",
      "house": "54",
      "postcode": "3050-327",
      "city": "MEALHADA",
      "lon": "-8.450180580659952",
      "lat": "40.37839188540608"
    },
    {
      "id": "pt.ine.add.PTCONT.169771",
      "street": "R DR PADRE ANTÓNIO ANTUNES BREDA",
      "house": "26",
      "postcode": "3050-327",
      "city": "MEALHADA",
      "lon": "-8.450640586917762",
      "lat": "40.37855272381134"
    },
    {
      "id": "pt.ine.add.PTCONT.169773",
      "street": "R FLORES",
      "house": "26",
      "postcode": "3050-332",
      "city": "MEALHADA",
      "lon": "-8.45071005615918",
      "lat": "40.37830037663908"
    },
    {
      "id": "pt.ine.add.PTCONT.181111",
      "street": "R DR PADRE ANTÓNIO ANTUNES BREDA",
      "house": "50",
      "postcode": "3050-327",
      "city": "MEALHADA",
      "lon": "-8.450381229169611",
      "lat": "40.3784903965481"
    },
    {
      "id": "pt.ine.add.PTCONT.190854",
      "street": "R DR PADRE ANTÓNIO ANTUNES BREDA",
      "house": "28",
      "postcode": "3050-327",
      "city": "MEALHADA",
      "lon": "-8.450581582370805",
      "lat": "40.378525869049945"
    },
    {
      "id": "pt.ine.add.PTCONT.207065",
      "street": "R BECO DOS CARRIS",
      "house": "1",
      "postcode": "3050-327",
      "city": "MEALHADA",
      "lon": "-8.450887492607261",
      "lat": "40.378470995336954"
    },
    {
      "id": "pt.ine.add.PTCONT.220901",
      "street": "R DR PADRE ANTÓNIO ANTUNES BREDA",
      "house": "46",
      "postcode": "3050-327",
      "city": "MEALHADA",
      "lon": "-8.450440022350227",
      "lat": "40.37847222406253"
    },
    {
      "id": "pt.ine.add.PTCONT.226253",
      "street": "R DR PADRE ANTÓNIO ANTUNES BREDA",
      "house": "68",
      "postcode": "3050-327",
      "city": "MEALHADA",
      "lon": "-8.449744127565033",
      "lat": "40.37823098067845"
    },
    {
      "id": "pt.ine.add.PTCONT.245333",
      "street": "R FLORES",
      "house": "24",
      "postcode": "3050-332",
      "city": "MEALHADA",
      "lon": "-8.450639318584527",
      "lat": "40.37828255971421"
    },
    {
      "id": "pt.ine.add.PTCONT.256038",
      "street": "R DR PADRE ANTÓNIO ANTUNES BREDA",
      "house": "12",
      "postcode": "3050-327",
      "city": "MEALHADA",
      "lon": "-8.45093531413116",
      "lat": "40.37862395887724"
    },
    {
      "id": "pt.ine.add.PTCONT.256039",
      "street": "R DR PADRE ANTÓNIO ANTUNES BREDA",
      "house": "12",
      "postcode": "3050-327",
      "city": "MEALHADA",
      "lon": "-8.45093531413116",
      "lat": "40.37862395887724"
    },
    {
      "id": "pt.ine.add.PTCONT.260654",
      "street": "R FLORES",
      "house": "14",
      "postcode": "3050-332",
      "city": "MEALHADA",
      "lon": "-8.45034459316796",
      "lat": "40.37821132388284"
    },
    {
      "id": "pt.ine.add.PTCONT.282783",
      "street": "R DR PADRE ANTÓNIO ANTUNES BREDA",
      "house": "18",
      "postcode": "3050-327",
      "city": "MEALHADA",
      "lon": "-8.450782020373834",
      "lat": "40.37857935214274"
    }
  ]
}