{
  "data": {
    "distrito": "Lisboa",
    "concelho": "Lourinhã",
    "freguesia": "União das freguesias de Lourinhã e Atalaia",
    "OBJECTID": 707,
    "BGRI2021": "11081200212",
    "DT21": "11",
    "DTMN21": "1108",
    "DTMNFR21": "110812",
    "DTMNFRSEC21": "110812002",
    "SECNUM21": "002",
    "SSNUM21": "12",
    "SECSSNUM21": "00212",
    "OBJECTID_1": 107335,
    "DT": "11",
    "CC": "08",
    "fr": "12",
    "SEC": "002",
    "SS": "12"
  },
  "addresses": [
    {
      "id": "pt.ine.add.PTCONT.2453748",
      "street": "R NAVEGANTES",
      "house": "4",
      "postcode": "2530-272",
      "city": "LOURINHÃ",
      "lon": "-9.324939359139366",
      "lat": "39.26110337251536"
    },
    {
      "id": "pt.ine.add.PTCONT.2580466",
      "street": "R POR SOL",
      "house": "7",
      "postcode": "2530-268",
      "city": "LOURINHÃ",
      "lon": "-9.325210358162739",
      "lat": "39.26068627845582"
    },
    {
      "id": "pt.ine.add.PTCONT.2722045",
      "street": "R POR DO SOL",
      "house": "1",
      "postcode": "2530-268",
      "city": "LOURINHÃ",
      "lon": "-9.32482808788237",
      "lat": "39.26069019138159"
    },
    {
      "id": "pt.ine.add.PTCONT.2729995",
      "street": "R POR DO SOL",
      "house": "7",
      "postcode": "2530-268",
      "city": "LOURINHÃ",
      "lon": "-9.324901404336737",
      "lat": "39.26091461491599"
    },
    {
      "id": "pt.ine.add.PTCONT.2935129",
      "street": "R POR DO SOL",
      "house": "9",
      "postcode": "2530-268",
      "city": "LOURINHÃ",
      "lon": "-9.32482519650072",
      "lat": "39.261203617468695"
    },
    {
      "id": "pt.ine.add.PTCONT.2937750",
      "street": "R POR DO SOL",
      "house": "9",
      "postcode": "2530-268",
      "city": "LOURINHÃ",
      "lon": "-9.32482519650072",
      "lat": "39.261203617468695"
    },
    {
      "id": "pt.ine.add.PTCONT.2937751",
      "street": "R POR DO SOL",
      "house": "9",
      "postcode": "2530-268",
      "city": "LOURINHÃ",
      "lon": "-9.32482519650072",
      "lat": "39.261203617468695"
    },
    {
      "id": "pt.ine.add.PTCONT.2956933",
      "street": "R POR DO SOL",
      "house": "5",
      "postcode": "2530-268",
      "city": "LOURINHÃ",
      "lon": "-9.324854000857567",
      "lat": "39.260852051389044"
    },
    {
      "id": "pt.ine.add.PTCONT.3132359",
      "street": "BC MIRAMAR",
      "house": "2",
      "postcode": "2530-263",
      "city": "LOURINHÃ",
      "lon": "-9.324977306536816",
      "lat": "39.26060760151832"
    },
    {
      "id": "pt.ine.add.PTCONT.3234749",
      "street": "R STA JUSTA",
      "house": "6",
      "postcode": "2530-264",
      "city": "LOURINHÃ",
      "lon": "-9.32486207720417",
      "lat": "39.26064480873481"
    },
    {
      "id": "pt.ine.add.PTCONT.3400525",
      "street": "R POR DO SOL",
      "house": "3",
      "postcode": "2530-268",
      "city": "LOURINHÃ",
      "lon": "-9.324841349359662",
      "lat": "39.260789132177834"
    }
  ]
}