{
  "data": {
    "distrito": "Santarém",
    "concelho": "Santarém",
    "freguesia": "Gançaria",
    "OBJECTID": 1005,
    "BGRI2021": "14162800109",
    "DT21": "14",
    "DTMN21": "1416",
    "DTMNFR21": "141628",
    "DTMNFRSEC21": "141628001",
    "SECNUM21": "001",
    "SSNUM21": "09",
    "SECSSNUM21": "00109",
    "OBJECTID_1": 154300,
    "DT": "14",
    "CC": "16",
    "fr": "28",
    "SEC": "001",
    "SS": "09"
  },
  "addresses": [
    {
      "id": "pt.ine.add.PTCONT.4394477",
      "street": "R ALTO DO SOBREIRO CASA DO SOBREIRO",
      "house": "",
      "postcode": "2025-601",
      "city": "GANÇARIA",
      "lon": "-8.882414952234841",
      "lat": "39.40330267984869"
    },
    {
      "id": "pt.ine.add.PTCONT.4398731",
      "street": "R S SEBASTIÃO",
      "house": "",
      "postcode": "2025-601",
      "city": "GANÇARIA",
      "lon": "-8.882421645967849",
      "lat": "39.4028432809406"
    },
    {
      "id": "pt.ine.add.PTCONT.4400699",
      "street": "R S SEBASTIÃO",
      "house": "4",
      "postcode": "2025-601",
      "city": "GANÇARIA",
      "lon": "-8.881903480832117",
      "lat": "39.40324292413873"
    },
    {
      "id": "pt.ine.add.PTCONT.4402693",
      "street": "R DR TORRES PAULO",
      "house": "21",
      "postcode": "2025-601",
      "city": "GANÇARIA",
      "lon": "-8.884049971053157",
      "lat": "39.40420184209026"
    },
    {
      "id": "pt.ine.add.PTCONT.4423265",
      "street": "R DR TORRES PAULO",
      "house": "15",
      "postcode": "2025-601",
      "city": "GANÇARIA",
      "lon": "-8.883872453591547",
      "lat": "39.40388774369784"
    },
    {
      "id": "pt.ine.add.PTCONT.4448051",
      "street": "R DR TORRES PAULO",
      "house": "5",
      "postcode": "2025-601",
      "city": "GANÇARIA",
      "lon": "-8.883185682345854",
      "lat": "39.40372104107616"
    },
    {
      "id": "pt.ine.add.PTCONT.4452766",
      "street": "R S SEBASTIÃO",
      "house": "32",
      "postcode": "2025-601",
      "city": "GANÇARIA",
      "lon": "-8.882793035938583",
      "lat": "39.40283188133528"
    },
    {
      "id": "pt.ine.add.PTCONT.4454656",
      "street": "R DR SILVINO SEQUEIRA",
      "house": "73",
      "postcode": "2025-601",
      "city": "GANÇARIA",
      "lon": "-8.882520975740885",
      "lat": "39.40344610854584"
    },
    {
      "id": "pt.ine.add.PTCONT.4496288",
      "street": "R S SEBASTIÃO",
      "house": "10",
      "postcode": "2025-601",
      "city": "GANÇARIA",
      "lon": "-8.881982432233684",
      "lat": "39.4030262485196"
    },
    {
      "id": "pt.ine.add.PTCONT.4497648",
      "street": "R DR TORRES PAULO",
      "house": "",
      "postcode": "2025-601",
      "city": "GANÇARIA",
      "lon": "-8.883418925812403",
      "lat": "39.4038186137589"
    },
    {
      "id": "pt.ine.add.PTCONT.4497649",
      "street": "R ALTO DO SOBREIRO",
      "house": "4",
      "postcode": "2025-601",
      "city": "GANÇARIA",
      "lon": "-8.882553007410387",
      "lat": "39.403184699902"
    },
    {
      "id": "pt.ine.add.PTCONT.4502260",
      "street": "R S SEBASTIÃO",
      "house": "2",
      "postcode": "2025-601",
      "city": "GANÇARIA",
      "lon": "-8.881823469626639",
      "lat": "39.40336052978119"
    },
    {
      "id": "pt.ine.add.PTCONT.4503637",
      "street": "R ALTO DO SOBREIRO",
      "house": "",
      "postcode": "2025-601",
      "city": "GANÇARIA",
      "lon": "-8.882124630212394",
      "lat": "39.403295542395576"
    },
    {
      "id": "pt.ine.add.PTCONT.4503638",
      "street": "R S SEBASTIÃO",
      "house": "8",
      "postcode": "2025-601",
      "city": "GANÇARIA",
      "lon": "-8.881971786452269",
      "lat": "39.40311638681163"
    },
    {
      "id": "pt.ine.add.PTCONT.4509093",
      "street": "R DR SILVINO SEQUEIRA",
      "house": "75",
      "postcode": "2025-601",
      "city": "GANÇARIA",
      "lon": "-8.882625842813479",
      "lat": "39.403481460884805"
    },
    {
      "id": "pt.ine.add.PTCONT.4509921",
      "street": "R DR TORRES PAULO",
      "house": "",
      "postcode": "2025-601",
      "city": "GANÇARIA",
      "lon": "-8.883325666947085",
      "lat": "39.40378318728392"
    },
    {
      "id": "pt.ine.add.PTCONT.4516611",
      "street": "R DR TORRES PAULO",
      "house": "25",
      "postcode": "2025-601",
      "city": "GANÇARIA",
      "lon": "-8.884505724862782",
      "lat": "39.40447811556887"
    },
    {
      "id": "pt.ine.add.PTCONT.4521277",
      "street": "R BERNARDINA PIEDADE VITORINO",
      "house": "",
      "postcode": "2025-601",
      "city": "GANÇARIA",
      "lon": "-8.883622097715042",
      "lat": "39.403276884738"
    },
    {
      "id": "pt.ine.add.PTCONT.4521371",
      "street": "R BERNARDINA PIEDADE VITORINO",
      "house": "",
      "postcode": "2025-601",
      "city": "GANÇARIA",
      "lon": "-8.883622097715042",
      "lat": "39.403276884738"
    },
    {
      "id": "pt.ine.add.PTCONT.4529972",
      "street": "R DR TORRES PAULO",
      "house": "",
      "postcode": "2025-601",
      "city": "GANÇARIA",
      "lon": "-8.883428604724525",
      "lat": "39.40363841183604"
    },
    {
      "id": "pt.ine.add.PTCONT.4561950",
      "street": "R DR TORRES PAULO",
      "house": "1",
      "postcode": "2025-601",
      "city": "GANÇARIA",
      "lon": "-8.882975464778808",
      "lat": "39.40360530555884"
    },
    {
      "id": "pt.ine.add.PTCONT.4595307",
      "street": "R DR SILVINO SEQUEIRA",
      "house": "77",
      "postcode": "2025-601",
      "city": "GANÇARIA",
      "lon": "-8.88277753193727",
      "lat": "39.40355253932572"
    },
    {
      "id": "pt.ine.add.PTCONT.4613910",
      "street": "R DR SILVINO SEQUEIRA",
      "house": "65",
      "postcode": "2025-601",
      "city": "GANÇARIA",
      "lon": "-8.882288505641247",
      "lat": "39.40342058487606"
    },
    {
      "id": "pt.ine.add.PTCONT.4618069",
      "street": "R DR TORRES PAULO",
      "house": "13",
      "postcode": "2025-601",
      "city": "GANÇARIA",
      "lon": "-8.883697158252115",
      "lat": "39.403780791099905"
    },
    {
      "id": "pt.ine.add.PTCONT.4649068",
      "street": "R DR TORRES PAULO",
      "house": "",
      "postcode": "2025-601",
      "city": "GANÇARIA",
      "lon": "-8.883406351631749",
      "lat": "39.40372862510478"
    },
    {
      "id": "pt.ine.add.PTCONT.4657390",
      "street": "R ALTO DO SOBREIRO",
      "house": "2",
      "postcode": "2025-601",
      "city": "GANÇARIA",
      "lon": "-8.882636198580025",
      "lat": "39.40336430348194"
    },
    {
      "id": "pt.ine.add.PTCONT.4660544",
      "street": "",
      "house": "",
      "postcode": "2025-601",
      "city": "GANÇARIA",
      "lon": "-8.892737429778808",
      "lat": "39.40449671352703"
    }
  ]
}