{
  "data": {
    "distrito": "Évora",
    "concelho": "Mora",
    "freguesia": "Pavia",
    "OBJECTID": 179,
    "BGRI2021": "07070400218",
    "DT21": "07",
    "DTMN21": "0707",
    "DTMNFR21": "070704",
    "DTMNFRSEC21": "070704002",
    "SECNUM21": "002",
    "SSNUM21": "18",
    "SECSSNUM21": "00218",
    "OBJECTID_1": 62179,
    "DT": "07",
    "CC": "07",
    "fr": "04",
    "SEC": "002",
    "SS": "18"
  },
  "addresses": [
    {
      "id": "pt.ine.add.PTCONT.1370228",
      "street": "CATARINA FRANCISCA LOPES PARRACHA",
      "house": "",
      "postcode": "7490-406",
      "city": "PAVIA",
      "lon": "-7.912911314551074",
      "lat": "38.91383336359355"
    },
    {
      "id": "pt.ine.add.PTCONT.1372538",
      "street": "CATARINA FRANCISCA LOPES PARRACHA",
      "house": "",
      "postcode": "7490-406",
      "city": "PAVIA",
      "lon": "-7.918633307006208",
      "lat": "38.91277207842102"
    },
    {
      "id": "pt.ine.add.PTCONT.1374940",
      "street": "MTE OLIVEIRAS",
      "house": "",
      "postcode": "7490-406",
      "city": "PAVIA",
      "lon": "-7.900044630902047",
      "lat": "38.92422147601005"
    },
    {
      "id": "pt.ine.add.PTCONT.1375234",
      "street": "",
      "house": "",
      "postcode": "7490-406",
      "city": "PAVIA",
      "lon": "-7.928703344944259",
      "lat": "38.92321224567681"
    },
    {
      "id": "pt.ine.add.PTCONT.1375702",
      "street": "COURELA JOAQUIM PAIS",
      "house": "",
      "postcode": "7490-406",
      "city": "PAVIA",
      "lon": "-7.9314071427439465",
      "lat": "38.91313714478579"
    },
    {
      "id": "pt.ine.add.PTCONT.1389029",
      "street": "",
      "house": "",
      "postcode": "7490-406",
      "city": "PAVIA",
      "lon": "-7.928645481627359",
      "lat": "38.92328420722332"
    },
    {
      "id": "pt.ine.add.PTCONT.1383939",
      "street": "",
      "house": "",
      "postcode": "7490-406",
      "city": "PAVIA",
      "lon": "-7.927204692961731",
      "lat": "38.92306548630284"
    },
    {
      "id": "pt.ine.add.PTCONT.1387513",
      "street": "MTE CRUZ",
      "house": "",
      "postcode": "7490-406",
      "city": "PAVIA",
      "lon": "-7.903990730615411",
      "lat": "38.92708477659833"
    },
    {
      "id": "pt.ine.add.PTCONT.1403661",
      "street": "",
      "house": "",
      "postcode": "7490-406",
      "city": "PAVIA",
      "lon": "-7.908670680437975",
      "lat": "38.9204100387532"
    },
    {
      "id": "pt.ine.add.PTCONT.1407300",
      "street": "MTE FERREIRA",
      "house": "",
      "postcode": "7490-406",
      "city": "PAVIA",
      "lon": "-7.905011307470565",
      "lat": "38.925285204823176"
    },
    {
      "id": "pt.ine.add.PTCONT.1439516",
      "street": "",
      "house": "",
      "postcode": "7490-406",
      "city": "PAVIA",
      "lon": "-7.930003736343115",
      "lat": "38.92414232475919"
    },
    {
      "id": "pt.ine.add.PTCONT.1410082",
      "street": "MTE SOBRAL NOVO",
      "house": "",
      "postcode": "7490-406",
      "city": "PAVIA",
      "lon": "-7.901159514175743",
      "lat": "38.92534967813358"
    },
    {
      "id": "pt.ine.add.PTCONT.1413991",
      "street": "CATARINA FRANCISCA LOPES PARRACHA",
      "house": "",
      "postcode": "7490-406",
      "city": "PAVIA",
      "lon": "-7.918494572020567",
      "lat": "38.91289793371652"
    },
    {
      "id": "pt.ine.add.PTCONT.1414731",
      "street": "MTE PINHEIROS",
      "house": "",
      "postcode": "7490-406",
      "city": "PAVIA",
      "lon": "-7.902872718185867",
      "lat": "38.92690241996754"
    },
    {
      "id": "pt.ine.add.PTCONT.1416279",
      "street": "MTE JOAQUIM PEDRAS COURELA DA VIUVA",
      "house": "",
      "postcode": "7490-406",
      "city": "PAVIA",
      "lon": "-7.931713548725087",
      "lat": "38.92302831240872"
    },
    {
      "id": "pt.ine.add.PTCONT.1422445",
      "street": "CATARINA FRANCISCA LOPES PARRACHA",
      "house": "",
      "postcode": "7490-406",
      "city": "PAVIA",
      "lon": "-7.918679588030853",
      "lat": "38.912718116185566"
    },
    {
      "id": "pt.ine.add.PTCONT.1425195",
      "street": "MTE JUNQUEIRA",
      "house": "",
      "postcode": "7490-406",
      "city": "PAVIA",
      "lon": "-7.904062094501201",
      "lat": "38.92640932783097"
    },
    {
      "id": "pt.ine.add.PTCONT.1425899",
      "street": "CATARINA FRANCISCA LOPES PARRACHA",
      "house": "",
      "postcode": "7490-406",
      "city": "PAVIA",
      "lon": "-7.918737398568331",
      "lat": "38.91266417510152"
    },
    {
      "id": "pt.ine.add.PTCONT.1427569",
      "street": "COURELA MONTE DAS VÁRZEAS",
      "house": "",
      "postcode": "7490-406",
      "city": "PAVIA",
      "lon": "-7.929865101953629",
      "lat": "38.92423216206296"
    },
    {
      "id": "pt.ine.add.PTCONT.1434618",
      "street": "CATARINA FRANCISCA LOPES PARRACHA",
      "house": "",
      "postcode": "7490-406",
      "city": "PAVIA",
      "lon": "-7.918540798989284",
      "lat": "38.91286198718631"
    },
    {
      "id": "pt.ine.add.PTCONT.1448763",
      "street": "CATARINA FRANCISCA LOPES PARRACHA",
      "house": "",
      "postcode": "7490-406",
      "city": "PAVIA",
      "lon": "-7.918587053026949",
      "lat": "38.912817032813095"
    },
    {
      "id": "pt.ine.add.PTCONT.1450392",
      "street": "LOURENÇO GATO",
      "house": "",
      "postcode": "7490-406",
      "city": "PAVIA",
      "lon": "-7.9299461047892414",
      "lat": "38.924133216620454"
    },
    {
      "id": "pt.ine.add.PTCONT.1451013",
      "street": "",
      "house": "",
      "postcode": "7490-406",
      "city": "PAVIA",
      "lon": "-7.927251000261454",
      "lat": "38.92300251295174"
    },
    {
      "id": "pt.ine.add.PTCONT.1458395",
      "street": "MTE JANELINHA ADELINO ALMEIDA",
      "house": "",
      "postcode": "7490-406",
      "city": "PAVIA",
      "lon": "-7.898402150914859",
      "lat": "38.92574051249595"
    },
    {
      "id": "pt.ine.add.PTCONT.1459490",
      "street": "COURELA JOAQUIM PAIS COURELA JOAQUIM PAIS 2",
      "house": "",
      "postcode": "7490-406",
      "city": "PAVIA",
      "lon": "-7.932072026382789",
      "lat": "38.91449848057521"
    },
    {
      "id": "pt.ine.add.PTCONT.1463142",
      "street": "MTE CARAGO",
      "house": "",
      "postcode": "7490-406",
      "city": "PAVIA",
      "lon": "-7.934037623295175",
      "lat": "38.916654730032555"
    },
    {
      "id": "pt.ine.add.PTCONT.1463923",
      "street": "MTE COURELA NOVA",
      "house": "",
      "postcode": "7490-406",
      "city": "PAVIA",
      "lon": "-7.937035316222299",
      "lat": "38.920911516324004"
    }
  ]
}