{
  "data": {
    "distrito": "Aveiro",
    "concelho": "Aveiro",
    "freguesia": "Esgueira",
    "OBJECTID": 393,
    "BGRI2021": "01050500614",
    "DT21": "01",
    "DTMN21": "0105",
    "DTMNFR21": "010505",
    "DTMNFRSEC21": "010505006",
    "SECNUM21": "006",
    "SSNUM21": "14",
    "SECSSNUM21": "00614",
    "OBJECTID_1": 3371,
    "DT": "01",
    "CC": "05",
    "fr": "05",
    "SEC": "006",
    "SS": "14"
  },
  "addresses": [
    {
      "id": "pt.ine.add.PTCONT.313752",
      "street": "R RAPOSA",
      "house": "95C",
      "postcode": "3800-330",
      "city": "AVEIRO",
      "lon": "-8.62915550003242",
      "lat": "40.664510469433985"
    },
    {
      "id": "pt.ine.add.PTCONT.332522",
      "street": "R CASAL",
      "house": "65",
      "postcode": "3800-330",
      "city": "AVEIRO",
      "lon": "-8.631605400327627",
      "lat": "40.66318517246105"
    },
    {
      "id": "pt.ine.add.PTCONT.3097",
      "street": "R RAPOSA",
      "house": "",
      "postcode": "3800-330",
      "city": "AVEIRO",
      "lon": "-8.631513479994977",
      "lat": "40.66354577370223"
    },
    {
      "id": "pt.ine.add.PTCONT.26941",
      "street": "R ARROCHEIRAS DE BAIXO",
      "house": "",
      "postcode": "3800-308",
      "city": "AVEIRO",
      "lon": "-8.628326121367696",
      "lat": "40.66429790687205"
    },
    {
      "id": "pt.ine.add.PTCONT.26942",
      "street": "R RAPOSA",
      "house": "95 B",
      "postcode": "3800-330",
      "city": "AVEIRO",
      "lon": "-8.629084147215735",
      "lat": "40.66445674528954"
    },
    {
      "id": "pt.ine.add.PTCONT.35072",
      "street": "R RAPOSA",
      "house": "",
      "postcode": "3800-330",
      "city": "AVEIRO",
      "lon": "-8.632669263903052",
      "lat": "40.664711443258945"
    },
    {
      "id": "pt.ine.add.PTCONT.40621",
      "street": "R RAPOSA",
      "house": "95A",
      "postcode": "3800-330",
      "city": "AVEIRO",
      "lon": "-8.629060029455374",
      "lat": "40.664393813115026"
    },
    {
      "id": "pt.ine.add.PTCONT.46140",
      "street": "R CHAO",
      "house": "65",
      "postcode": "3800-330",
      "city": "AVEIRO",
      "lon": "-8.63206799196414",
      "lat": "40.66337228174312"
    },
    {
      "id": "pt.ine.add.PTCONT.48382",
      "street": "R RAPOSA",
      "house": "59",
      "postcode": "3800-330",
      "city": "AVEIRO",
      "lon": "-8.631714106985275",
      "lat": "40.663490876867"
    },
    {
      "id": "pt.ine.add.PTCONT.59623",
      "street": "R RAPOSA",
      "house": "",
      "postcode": "3800-330",
      "city": "AVEIRO",
      "lon": "-8.632335398147173",
      "lat": "40.66434367777818"
    },
    {
      "id": "pt.ine.add.PTCONT.66123",
      "street": "R RAPOSA",
      "house": "",
      "postcode": "3800-330",
      "city": "AVEIRO",
      "lon": "-8.631501051479795",
      "lat": "40.66346478135263"
    },
    {
      "id": "pt.ine.add.PTCONT.75607",
      "street": "R RAPOSA",
      "house": "",
      "postcode": "3800-330",
      "city": "AVEIRO",
      "lon": "-8.63221466051549",
      "lat": "40.66401101068453"
    },
    {
      "id": "pt.ine.add.PTCONT.115696",
      "street": "R CENTRAL",
      "house": "86",
      "postcode": "3800-297",
      "city": "AVEIRO",
      "lon": "-8.628689842510875",
      "lat": "40.66390912660385"
    },
    {
      "id": "pt.ine.add.PTCONT.118351",
      "street": "R RAPOSA",
      "house": "95",
      "postcode": "3800-330",
      "city": "AVEIRO",
      "lon": "-8.629166057838216",
      "lat": "40.66433932699173"
    },
    {
      "id": "pt.ine.add.PTCONT.121027",
      "street": "R RAPOSA",
      "house": "",
      "postcode": "3800-330",
      "city": "AVEIRO",
      "lon": "-8.63251895854633",
      "lat": "40.665171353975445"
    },
    {
      "id": "pt.ine.add.PTCONT.129203",
      "street": "R RAPOSA",
      "house": "12",
      "postcode": "3800-330",
      "city": "AVEIRO",
      "lon": "-8.629379582482628",
      "lat": "40.664428460559755"
    },
    {
      "id": "pt.ine.add.PTCONT.233314",
      "street": "R RAPOSA",
      "house": "32",
      "postcode": "3800-330",
      "city": "AVEIRO",
      "lon": "-8.630334966663753",
      "lat": "40.66409116131232"
    },
    {
      "id": "pt.ine.add.PTCONT.244349",
      "street": "R RAPOSA",
      "house": "95",
      "postcode": "3800-330",
      "city": "AVEIRO",
      "lon": "-8.629273954525045",
      "lat": "40.664536975815025"
    },
    {
      "id": "pt.ine.add.PTCONT.254956",
      "street": "R RAPOSA",
      "house": "",
      "postcode": "3800-330",
      "city": "AVEIRO",
      "lon": "-8.631535722802749",
      "lat": "40.663356570364314"
    },
    {
      "id": "pt.ine.add.PTCONT.257792",
      "street": "R ARROCHEIRAS DE BAIXO",
      "house": "5",
      "postcode": "3800-308",
      "city": "AVEIRO",
      "lon": "-8.628455467866749",
      "lat": "40.664198295838155"
    },
    {
      "id": "pt.ine.add.PTCONT.257793",
      "street": "R RAPOSA",
      "house": "59",
      "postcode": "3800-330",
      "city": "AVEIRO",
      "lon": "-8.631655316006615",
      "lat": "40.66353615627585"
    },
    {
      "id": "pt.ine.add.PTCONT.263174",
      "street": "R RAPOSA",
      "house": "",
      "postcode": "3800-330",
      "city": "AVEIRO",
      "lon": "-8.632263505912409",
      "lat": "40.66421791705813"
    },
    {
      "id": "pt.ine.add.PTCONT.276004",
      "street": "R CH√ÉO DA SENHORA",
      "house": "",
      "postcode": "3800-330",
      "city": "AVEIRO",
      "lon": "-8.631596524948447",
      "lat": "40.663581435654834"
    },
    {
      "id": "pt.ine.add.PTCONT.284567",
      "street": "R RAPOSA",
      "house": "",
      "postcode": "3800-330",
      "city": "AVEIRO",
      "lon": "-8.63187065247882",
      "lat": "40.66386841540115"
    }
  ]
}