{
  "data": {
    "distrito": "Bragança",
    "concelho": "Mogadouro",
    "freguesia": "Peredo da Bemposta",
    "OBJECTID": 411,
    "BGRI2021": "04081300113",
    "DT21": "04",
    "DTMN21": "0408",
    "DTMNFR21": "040813",
    "DTMNFRSEC21": "040813001",
    "SECNUM21": "001",
    "SSNUM21": "13",
    "SECSSNUM21": "00113",
    "OBJECTID_1": 38206,
    "DT": "04",
    "CC": "08",
    "fr": "13",
    "SEC": "001",
    "SS": "13"
  },
  "addresses": [
    {
      "id": "pt.ine.add.PTCONT.857533",
      "street": "R TRAPA",
      "house": "",
      "postcode": "5200-352",
      "city": "PEREDO DA BEMPOSTA",
      "lon": "-6.555621342213879",
      "lat": "41.270633149755376"
    },
    {
      "id": "pt.ine.add.PTCONT.858850",
      "street": "R TRAPA",
      "house": "",
      "postcode": "5200-352",
      "city": "PEREDO DA BEMPOSTA",
      "lon": "-6.555938483242762",
      "lat": "41.2713397891651"
    },
    {
      "id": "pt.ine.add.PTCONT.884842",
      "street": "R CAPELA",
      "house": "",
      "postcode": "5200-352",
      "city": "PEREDO DA BEMPOSTA",
      "lon": "-6.552554377239757",
      "lat": "41.27359833079062"
    },
    {
      "id": "pt.ine.add.PTCONT.890491",
      "street": "R MALHADA",
      "house": "",
      "postcode": "5200-352",
      "city": "PEREDO DA BEMPOSTA",
      "lon": "-6.554352641595224",
      "lat": "41.27425327340328"
    },
    {
      "id": "pt.ine.add.PTCONT.901268",
      "street": "R EIRAS",
      "house": "",
      "postcode": "5200-352",
      "city": "PEREDO DA BEMPOSTA",
      "lon": "-6.560110643785726",
      "lat": "41.27452118726426"
    },
    {
      "id": "pt.ine.add.PTCONT.906882",
      "street": "R SOL",
      "house": "",
      "postcode": "5200-352",
      "city": "PEREDO DA BEMPOSTA",
      "lon": "-6.553616622239338",
      "lat": "41.27458531821088"
    },
    {
      "id": "pt.ine.add.PTCONT.907498",
      "street": "R DE CHÃO DAS EIRAS",
      "house": "",
      "postcode": "5200-352",
      "city": "PEREDO DA BEMPOSTA",
      "lon": "-6.555833736126894",
      "lat": "41.27222072231966"
    },
    {
      "id": "pt.ine.add.PTCONT.911151",
      "street": "R PARAISO",
      "house": "",
      "postcode": "5200-352",
      "city": "PEREDO DA BEMPOSTA",
      "lon": "-6.554845907810149",
      "lat": "41.27260334686002"
    },
    {
      "id": "pt.ine.add.PTCONT.919349",
      "street": "R PARAISO",
      "house": "",
      "postcode": "5200-352",
      "city": "PEREDO DA BEMPOSTA",
      "lon": "-6.553881492138185",
      "lat": "41.27349949822217"
    },
    {
      "id": "pt.ine.add.PTCONT.922493",
      "street": "R FLORES",
      "house": "",
      "postcode": "5200-352",
      "city": "PEREDO DA BEMPOSTA",
      "lon": "-6.553772807103764",
      "lat": "41.27454244262551"
    },
    {
      "id": "pt.ine.add.PTCONT.949566",
      "street": "AV NSA SRA DE FÁTIMA",
      "house": "",
      "postcode": "5200-352",
      "city": "PEREDO DA BEMPOSTA",
      "lon": "-6.555871056229754",
      "lat": "41.27265341416685"
    }
  ]
}