{
  "data": {
    "distrito": "Lisboa",
    "concelho": "Cascais",
    "freguesia": "União das freguesias de Cascais e Estoril",
    "OBJECTID": 884,
    "BGRI2021": "11050806112",
    "DT21": "11",
    "DTMN21": "1105",
    "DTMNFR21": "110508",
    "DTMNFRSEC21": "110508061",
    "SECNUM21": "061",
    "SSNUM21": "12",
    "SECSSNUM21": "06112",
    "OBJECTID_1": 101752,
    "DT": "11",
    "CC": "05",
    "fr": "08",
    "SEC": "061",
    "SS": "12"
  },
  "addresses": [
    {
      "id": "pt.ine.add.PTCONT.2922377",
      "street": "R FIALHO DE ALMEIDA",
      "house": "219",
      "postcode": "2750-664",
      "city": "CASCAIS",
      "lon": "-9.43514542761484",
      "lat": "38.715009674219125"
    },
    {
      "id": "pt.ine.add.PTCONT.2939829",
      "street": "R FERREIRA DE ANDRADE",
      "house": "46",
      "postcode": "2750-571",
      "city": "CASCAIS",
      "lon": "-9.43534568931206",
      "lat": "38.7140075908955"
    },
    {
      "id": "pt.ine.add.PTCONT.2953297",
      "street": "R FIALHO DE ALMEIDA",
      "house": "175",
      "postcode": "2750-664",
      "city": "CASCAIS",
      "lon": "-9.435127723390357",
      "lat": "38.71466757948289"
    },
    {
      "id": "pt.ine.add.PTCONT.2953298",
      "street": "R FIALHO DE ALMEIDA",
      "house": "175",
      "postcode": "2750-664",
      "city": "CASCAIS",
      "lon": "-9.435127723390357",
      "lat": "38.71466757948289"
    },
    {
      "id": "pt.ine.add.PTCONT.2953299",
      "street": "R FIALHO DE ALMEIDA",
      "house": "175",
      "postcode": "2750-664",
      "city": "CASCAIS",
      "lon": "-9.435127723390357",
      "lat": "38.71466757948289"
    },
    {
      "id": "pt.ine.add.PTCONT.2962806",
      "street": "R COBRE",
      "house": "322",
      "postcode": "2750-321",
      "city": "CASCAIS",
      "lon": "-9.43580367916187",
      "lat": "38.713903403877495"
    },
    {
      "id": "pt.ine.add.PTCONT.3018265",
      "street": "R FERREIRA DE ANDRADE",
      "house": "71",
      "postcode": "2750-571",
      "city": "CASCAIS",
      "lon": "-9.435582174452216",
      "lat": "38.71373472592488"
    },
    {
      "id": "pt.ine.add.PTCONT.3027553",
      "street": "R FIALHO DE ALMEIDA",
      "house": "63",
      "postcode": "2750-664",
      "city": "CASCAIS",
      "lon": "-9.43477656789157",
      "lat": "38.71368965241584"
    },
    {
      "id": "pt.ine.add.PTCONT.3036534",
      "street": "R FERREIRA DE ANDRADE",
      "house": "91",
      "postcode": "2750-571",
      "city": "CASCAIS",
      "lon": "-9.435776766283539",
      "lat": "38.713687519373515"
    },
    {
      "id": "pt.ine.add.PTCONT.3066954",
      "street": "R COBRE",
      "house": "394",
      "postcode": "2750-321",
      "city": "CASCAIS",
      "lon": "-9.43536551892508",
      "lat": "38.71446676182622"
    },
    {
      "id": "pt.ine.add.PTCONT.3084067",
      "street": "R FERREIRA DE ANDRADE",
      "house": "384",
      "postcode": "2750-571",
      "city": "CASCAIS",
      "lon": "-9.43559476065243",
      "lat": "38.714428177270406"
    },
    {
      "id": "pt.ine.add.PTCONT.3103442",
      "street": "R COBRE",
      "house": "248",
      "postcode": "2750-322",
      "city": "CASCAIS",
      "lon": "-9.435676472342726",
      "lat": "38.7132292450225"
    },
    {
      "id": "pt.ine.add.PTCONT.3185097",
      "street": "R COBRE",
      "house": "322",
      "postcode": "2750-321",
      "city": "CASCAIS",
      "lon": "-9.435806785354151",
      "lat": "38.71407451523645"
    },
    {
      "id": "pt.ine.add.PTCONT.3186051",
      "street": "PCT MIGUEL TORGA",
      "house": "72",
      "postcode": "2750-674",
      "city": "CASCAIS",
      "lon": "-9.434936676222467",
      "lat": "38.71364283120275"
    },
    {
      "id": "pt.ine.add.PTCONT.3198671",
      "street": "R FIALHO DE ALMEIDA",
      "house": "39",
      "postcode": "2750-664",
      "city": "CASCAIS",
      "lon": "-9.4347499848921",
      "lat": "38.71349177934361"
    },
    {
      "id": "pt.ine.add.PTCONT.3211110",
      "street": "R RAMALHO ORTIGÃO",
      "house": "62",
      "postcode": "2750-575",
      "city": "CASCAIS",
      "lon": "-9.43512936448004",
      "lat": "38.71285701680793"
    },
    {
      "id": "pt.ine.add.PTCONT.3213383",
      "street": "R FIALHO DE ALMEIDA",
      "house": "125",
      "postcode": "2750-664",
      "city": "CASCAIS",
      "lon": "-9.435038763382314",
      "lat": "38.71420017072744"
    },
    {
      "id": "pt.ine.add.PTCONT.3213384",
      "street": "R FIALHO DE ALMEIDA",
      "house": "125",
      "postcode": "2750-664",
      "city": "CASCAIS",
      "lon": "-9.435038763382314",
      "lat": "38.71420017072744"
    },
    {
      "id": "pt.ine.add.PTCONT.3222652",
      "street": "R COBRE",
      "house": "274",
      "postcode": "2750-321",
      "city": "CASCAIS",
      "lon": "-9.435704692454115",
      "lat": "38.71351717647151"
    },
    {
      "id": "pt.ine.add.PTCONT.3222653",
      "street": "R COBRE",
      "house": "274",
      "postcode": "2750-321",
      "city": "CASCAIS",
      "lon": "-9.435704692454115",
      "lat": "38.71351717647151"
    },
    {
      "id": "pt.ine.add.PTCONT.3268724",
      "street": "R FIALHO DE ALMEIDA",
      "house": "60",
      "postcode": "2750-664",
      "city": "CASCAIS",
      "lon": "-9.434882366001471",
      "lat": "38.71318404406916"
    },
    {
      "id": "pt.ine.add.PTCONT.3284512",
      "street": "R RAMALHO ORTIGÃO",
      "house": "36",
      "postcode": "2750-575",
      "city": "CASCAIS",
      "lon": "-9.434855292861611",
      "lat": "38.71295915340818"
    },
    {
      "id": "pt.ine.add.PTCONT.3314918",
      "street": "R FIALHO DE ALMEIDA",
      "house": "58",
      "postcode": "2750-664",
      "city": "CASCAIS",
      "lon": "-9.43531828749624",
      "lat": "38.713764688677294"
    },
    {
      "id": "pt.ine.add.PTCONT.3398133",
      "street": "R COBRE",
      "house": "204",
      "postcode": "2750-322",
      "city": "CASCAIS",
      "lon": "-9.435600966740218",
      "lat": "38.71286977890408"
    },
    {
      "id": "pt.ine.add.PTCONT.3422141",
      "street": "R FIALHO DE ALMEIDA",
      "house": "191",
      "postcode": "2750-664",
      "city": "CASCAIS",
      "lon": "-9.435094872940862",
      "lat": "38.714758022166485"
    },
    {
      "id": "pt.ine.add.PTCONT.3424659",
      "street": "R FERREIRA DE ANDRADE",
      "house": "45",
      "postcode": "2750-571",
      "city": "CASCAIS",
      "lon": "-9.435421902929761",
      "lat": "38.71377254215496"
    },
    {
      "id": "pt.ine.add.PTCONT.3432862",
      "street": "R COBRE",
      "house": "454",
      "postcode": "2750-321",
      "city": "CASCAIS",
      "lon": "-9.435234771862405",
      "lat": "38.7148645562046"
    },
    {
      "id": "pt.ine.add.PTCONT.3443195",
      "street": "R FIALHO DE ALMEIDA",
      "house": "36",
      "postcode": "2750-664",
      "city": "CASCAIS",
      "lon": "-9.434919626989224",
      "lat": "38.71333675979446"
    },
    {
      "id": "pt.ine.add.PTCONT.3444800",
      "street": "R FIALHO DE ALMEIDA",
      "house": "19",
      "postcode": "2750-664",
      "city": "CASCAIS",
      "lon": "-9.434666419093242",
      "lat": "38.71332156373008"
    },
    {
      "id": "pt.ine.add.PTCONT.2312562",
      "street": "R FERREIRA DE ANDRADE",
      "house": "3",
      "postcode": "2750-571",
      "city": "CASCAIS",
      "lon": "-9.434859807674146",
      "lat": "38.71384185619894"
    },
    {
      "id": "pt.ine.add.PTCONT.2312563",
      "street": "R FERREIRA DE ANDRADE",
      "house": "3",
      "postcode": "2750-571",
      "city": "CASCAIS",
      "lon": "-9.434859807674146",
      "lat": "38.71384185619894"
    },
    {
      "id": "pt.ine.add.PTCONT.2314032",
      "street": "R FIALHO DE ALMEIDA",
      "house": "41",
      "postcode": "2750-664",
      "city": "CASCAIS",
      "lon": "-9.43513737079512",
      "lat": "38.71329830418365"
    },
    {
      "id": "pt.ine.add.PTCONT.2326546",
      "street": "PCT MIGUEL TORGA",
      "house": "48",
      "postcode": "2750-674",
      "city": "CASCAIS",
      "lon": "-9.435464612810327",
      "lat": "38.71359191270058"
    },
    {
      "id": "pt.ine.add.PTCONT.2326547",
      "street": "R COBRE",
      "house": "366",
      "postcode": "2750-321",
      "city": "CASCAIS",
      "lon": "-9.435613990570028",
      "lat": "38.714220786328106"
    },
    {
      "id": "pt.ine.add.PTCONT.2349623",
      "street": "R COBRE",
      "house": "454",
      "postcode": "2750-321",
      "city": "CASCAIS",
      "lon": "-9.4352942071784",
      "lat": "38.71497198636459"
    },
    {
      "id": "pt.ine.add.PTCONT.2356756",
      "street": "R RAMALHO ORTIGÃO",
      "house": "6",
      "postcode": "2750-575",
      "city": "CASCAIS",
      "lon": "-9.43478730572128",
      "lat": "38.71301395652475"
    },
    {
      "id": "pt.ine.add.PTCONT.2356757",
      "street": "R RAMALHO ORTIGÃO",
      "house": "6",
      "postcode": "2750-575",
      "city": "CASCAIS",
      "lon": "-9.43478730572128",
      "lat": "38.71301395652475"
    },
    {
      "id": "pt.ine.add.PTCONT.2438966",
      "street": "R JOÃO GRAVE",
      "house": "132",
      "postcode": "2750-669",
      "city": "CASCAIS",
      "lon": "-9.435459600362373",
      "lat": "38.71268219243281"
    },
    {
      "id": "pt.ine.add.PTCONT.2477555",
      "street": "R FERREIRA DE ANDRADE",
      "house": "17",
      "postcode": "2750-571",
      "city": "CASCAIS",
      "lon": "-9.435078043214956",
      "lat": "38.71383041826719"
    },
    {
      "id": "pt.ine.add.PTCONT.2484508",
      "street": "R RAMALHO ORTIGÃO",
      "house": "24",
      "postcode": "2750-575",
      "city": "CASCAIS",
      "lon": "-9.43463901990021",
      "lat": "38.71307866128026"
    },
    {
      "id": "pt.ine.add.PTCONT.2505443",
      "street": "R COBRE",
      "house": "190",
      "postcode": "2750-322",
      "city": "CASCAIS",
      "lon": "-9.435644656432235",
      "lat": "38.712743184555485"
    },
    {
      "id": "pt.ine.add.PTCONT.2523243",
      "street": "R COBRE",
      "house": "464",
      "postcode": "2750-321",
      "city": "CASCAIS",
      "lon": "-9.43519369486805",
      "lat": "38.71513524417474"
    },
    {
      "id": "pt.ine.add.PTCONT.2555586",
      "street": "R COBRE",
      "house": "266",
      "postcode": "2750-322",
      "city": "CASCAIS",
      "lon": "-9.435603091617736",
      "lat": "38.7129868551278"
    },
    {
      "id": "pt.ine.add.PTCONT.2577454",
      "street": "R FIALHO DE ALMEIDA",
      "house": "147",
      "postcode": "2750-664",
      "city": "CASCAIS",
      "lon": "-9.43506600106811",
      "lat": "38.71443406714413"
    },
    {
      "id": "pt.ine.add.PTCONT.2577459",
      "street": "R FIALHO DE ALMEIDA",
      "house": "137A",
      "postcode": "2750-664",
      "city": "CASCAIS",
      "lon": "-9.435109855982347",
      "lat": "38.71431647885854"
    },
    {
      "id": "pt.ine.add.PTCONT.2657112",
      "street": "R FIALHO DE ALMEIDA",
      "house": "203",
      "postcode": "2750-664",
      "city": "CASCAIS",
      "lon": "-9.435108328580293",
      "lat": "38.71486596449411"
    },
    {
      "id": "pt.ine.add.PTCONT.2657205",
      "street": "R FIALHO DE ALMEIDA",
      "house": "203",
      "postcode": "2750-664",
      "city": "CASCAIS",
      "lon": "-9.435108328580293",
      "lat": "38.71486596449411"
    },
    {
      "id": "pt.ine.add.PTCONT.2658145",
      "street": "R FERREIRA DE ANDRADE",
      "house": "22",
      "postcode": "2750-571",
      "city": "CASCAIS",
      "lon": "-9.435173105314162",
      "lat": "38.71400050552116"
    },
    {
      "id": "pt.ine.add.PTCONT.2733622",
      "street": "R FERREIRA DE ANDRADE",
      "house": "31",
      "postcode": "2750-571",
      "city": "CASCAIS",
      "lon": "-9.435237988237517",
      "lat": "38.713774590776886"
    },
    {
      "id": "pt.ine.add.PTCONT.2746823",
      "street": "R COBRE",
      "house": "220",
      "postcode": "2750-322",
      "city": "CASCAIS",
      "lon": "-9.435304233526322",
      "lat": "38.71299018439821"
    },
    {
      "id": "pt.ine.add.PTCONT.2764610",
      "street": "PCT MIGUEL TORGA",
      "house": "61",
      "postcode": "2750-674",
      "city": "CASCAIS",
      "lon": "-9.435155074542676",
      "lat": "38.713640399001726"
    },
    {
      "id": "pt.ine.add.PTCONT.2831914",
      "street": "R FERREIRA DE ANDRADE",
      "house": "68",
      "postcode": "2750-571",
      "city": "CASCAIS",
      "lon": "-9.43562009108247",
      "lat": "38.7139234648293"
    },
    {
      "id": "pt.ine.add.PTCONT.2851283",
      "street": "R COBRE",
      "house": "148",
      "postcode": "2750-322",
      "city": "CASCAIS",
      "lon": "-9.435617364887854",
      "lat": "38.71313982673646"
    },
    {
      "id": "pt.ine.add.PTCONT.2852639",
      "street": "R COBRE",
      "house": "",
      "postcode": "2750-321",
      "city": "CASCAIS",
      "lon": "-9.435256290770107",
      "lat": "38.71478324738226"
    },
    {
      "id": "pt.ine.add.PTCONT.2852640",
      "street": "R COBRE",
      "house": "",
      "postcode": "2750-321",
      "city": "CASCAIS",
      "lon": "-9.435256290770107",
      "lat": "38.71478324738226"
    },
    {
      "id": "pt.ine.add.PTCONT.2852641",
      "street": "R COBRE",
      "house": "",
      "postcode": "2750-321",
      "city": "CASCAIS",
      "lon": "-9.435256290770107",
      "lat": "38.71478324738226"
    },
    {
      "id": "pt.ine.add.PTCONT.2852642",
      "street": "R COBRE",
      "house": "",
      "postcode": "2750-321",
      "city": "CASCAIS",
      "lon": "-9.435256290770107",
      "lat": "38.71478324738226"
    },
    {
      "id": "pt.ine.add.PTCONT.2852643",
      "street": "R COBRE",
      "house": "",
      "postcode": "2750-321",
      "city": "CASCAIS",
      "lon": "-9.435256290770107",
      "lat": "38.71478324738226"
    },
    {
      "id": "pt.ine.add.PTCONT.2856705",
      "street": "R FIALHO DE ALMEIDA",
      "house": "109",
      "postcode": "2750-664",
      "city": "CASCAIS",
      "lon": "-9.434944518201155",
      "lat": "38.71407511268887"
    },
    {
      "id": "pt.ine.add.PTCONT.2891099",
      "street": "R FIALHO DE ALMEIDA",
      "house": "161",
      "postcode": "2750-664",
      "city": "CASCAIS",
      "lon": "-9.435090624587415",
      "lat": "38.71452386974039"
    }
  ]
}