{
  "data": {
    "distrito": "Faro",
    "concelho": "Castro Marim",
    "freguesia": "Castro Marim",
    "OBJECTID": 96,
    "BGRI2021": "08040200519",
    "DT21": "08",
    "DTMN21": "0804",
    "DTMNFR21": "080402",
    "DTMNFRSEC21": "080402005",
    "SECNUM21": "005",
    "SSNUM21": "19",
    "SECSSNUM21": "00519",
    "OBJECTID_1": 65612,
    "DT": "08",
    "CC": "04",
    "fr": "02",
    "SEC": "005",
    "SS": "19"
  },
  "addresses": [
    {
      "id": "pt.ine.add.PTCONT.1495858",
      "street": "SAPAL CARRASQUEIRA",
      "house": "",
      "postcode": "8950-256",
      "city": "CASTRO MARIM",
      "lon": "-7.432785212241155",
      "lat": "37.2032947263214"
    },
    {
      "id": "pt.ine.add.PTCONT.1537189",
      "street": "CPO ENTERREIRO",
      "house": "",
      "postcode": "8950-283",
      "city": "CASTRO MARIM",
      "lon": "-7.448706704238852",
      "lat": "37.21396591349331"
    },
    {
      "id": "pt.ine.add.PTCONT.1550958",
      "street": "CPO LEZIRIA",
      "house": "",
      "postcode": "8950-256",
      "city": "CASTRO MARIM",
      "lon": "-7.438035220982729",
      "lat": "37.20934454827149"
    },
    {
      "id": "pt.ine.add.PTCONT.1583180",
      "street": "SAPAL CARRASQUEIRA",
      "house": "",
      "postcode": "8950-256",
      "city": "CASTRO MARIM",
      "lon": "-7.435330211224428",
      "lat": "37.204598222467126"
    },
    {
      "id": "pt.ine.add.PTCONT.1590287",
      "street": "CPO LEZIRIA NOVA",
      "house": "",
      "postcode": "8950-256",
      "city": "CASTRO MARIM",
      "lon": "-7.447572885347478",
      "lat": "37.20604828768911"
    },
    {
      "id": "pt.ine.add.PTCONT.1641064",
      "street": "CPO LEZIRIA",
      "house": "",
      "postcode": "8950-256",
      "city": "CASTRO MARIM",
      "lon": "-7.437686348820391",
      "lat": "37.20930645927102"
    },
    {
      "id": "pt.ine.add.PTCONT.1687005",
      "street": "CPO ENTERREIRO",
      "house": "",
      "postcode": "8950-283",
      "city": "CASTRO MARIM",
      "lon": "-7.448490953427649",
      "lat": "37.21415388344573"
    },
    {
      "id": "pt.ine.add.PTCONT.1712677",
      "street": "CPO ENTERREIRO",
      "house": "",
      "postcode": "8950-283",
      "city": "CASTRO MARIM",
      "lon": "-7.447563852333614",
      "lat": "37.2145179443991"
    },
    {
      "id": "pt.ine.add.PTCONT.1718423",
      "street": "CPO LEZIRIA NOVA",
      "house": "",
      "postcode": "8950-256",
      "city": "CASTRO MARIM",
      "lon": "-7.4452962823400055",
      "lat": "37.20741367135556"
    }
  ]
}