{
  "data": {
    "distrito": "Vila Real",
    "concelho": "Boticas",
    "freguesia": "Alturas do Barroso e Cerdedo",
    "OBJECTID": 302,
    "BGRI2021": "17021700111",
    "DT21": "17",
    "DTMN21": "1702",
    "DTMNFR21": "170217",
    "DTMNFRSEC21": "170217001",
    "SECNUM21": "001",
    "SSNUM21": "11",
    "SECSSNUM21": "00111",
    "OBJECTID_1": 180346,
    "DT": "17",
    "CC": "02",
    "fr": "17",
    "SEC": "001",
    "SS": "11"
  },
  "addresses": [
    {
      "id": "pt.ine.add.PTCONT.5313427",
      "street": "R DO MIRANTE",
      "house": "",
      "postcode": "5460-350",
      "city": "CERDEDO",
      "lon": "-7.87894935633916",
      "lat": "41.66303405556261"
    },
    {
      "id": "pt.ine.add.PTCONT.5318920",
      "street": "R DO MIRANTE",
      "house": "",
      "postcode": "5460-350",
      "city": "CERDEDO",
      "lon": "-7.877305480101402",
      "lat": "41.66276930486825"
    },
    {
      "id": "pt.ine.add.PTCONT.5337016",
      "street": "R DO MIRANTE",
      "house": "10",
      "postcode": "5460-350",
      "city": "CERDEDO",
      "lon": "-7.877006242914384",
      "lat": "41.66253454530685"
    },
    {
      "id": "pt.ine.add.PTCONT.5362630",
      "street": "R DO MIRANTE",
      "house": "6",
      "postcode": "5460-350",
      "city": "CERDEDO",
      "lon": "-7.876801631783254",
      "lat": "41.66266013941684"
    },
    {
      "id": "pt.ine.add.PTCONT.5364862",
      "street": "R DO MIRANTE",
      "house": "",
      "postcode": "5460-350",
      "city": "CERDEDO",
      "lon": "-7.876717157213034",
      "lat": "41.66276799403453"
    },
    {
      "id": "pt.ine.add.PTCONT.5406387",
      "street": "R DO MIRANTE",
      "house": "",
      "postcode": "5460-350",
      "city": "CERDEDO",
      "lon": "-7.876607311357636",
      "lat": "41.66321792817973"
    },
    {
      "id": "pt.ine.add.PTCONT.5412053",
      "street": "R DO MIRANTE",
      "house": "",
      "postcode": "5460-350",
      "city": "CERDEDO",
      "lon": "-7.876513509870867",
      "lat": "41.66265049298509"
    },
    {
      "id": "pt.ine.add.PTCONT.5420748",
      "street": "R DO MIRANTE",
      "house": "",
      "postcode": "5460-350",
      "city": "CERDEDO",
      "lon": "-7.8785768313737545",
      "lat": "41.66311426348268"
    },
    {
      "id": "pt.ine.add.PTCONT.5426027",
      "street": "SIT DO COVELO DO MONTE",
      "house": "",
      "postcode": "5460-350",
      "city": "CERDEDO",
      "lon": "-7.859385007375561",
      "lat": "41.675639149488305"
    }
  ]
}