{
  "data": {
    "distrito": "Castelo Branco",
    "concelho": "Fundão",
    "freguesia": "Pêro Viseu",
    "OBJECTID": 202,
    "BGRI2021": "05042100138",
    "DT21": "05",
    "DTMN21": "0504",
    "DTMNFR21": "050421",
    "DTMNFRSEC21": "050421001",
    "SECNUM21": "001",
    "SSNUM21": "38",
    "SECSSNUM21": "00138",
    "OBJECTID_1": 44097,
    "DT": "05",
    "CC": "04",
    "fr": "21",
    "SEC": "001",
    "SS": "38"
  },
  "addresses": [
    {
      "id": "pt.ine.add.PTCONT.957156",
      "street": "R ADEGAS",
      "house": "11",
      "postcode": "6230-547",
      "city": "PÊRO VISEU",
      "lon": "-7.444178539871167",
      "lat": "40.207675654152325"
    },
    {
      "id": "pt.ine.add.PTCONT.973231",
      "street": "R DIREITA",
      "house": "42",
      "postcode": "6230-534",
      "city": "PÊRO VISEU",
      "lon": "-7.444041974032099",
      "lat": "40.20724256452512"
    },
    {
      "id": "pt.ine.add.PTCONT.982353",
      "street": "R SENHOR DOS PASSOS",
      "house": "13",
      "postcode": "6230-539",
      "city": "PÊRO VISEU",
      "lon": "-7.443989886206396",
      "lat": "40.207746577307056"
    },
    {
      "id": "pt.ine.add.PTCONT.984655",
      "street": "R TENDAS",
      "house": "1",
      "postcode": "6230-560",
      "city": "PÊRO VISEU",
      "lon": "-7.443935355365434",
      "lat": "40.207331987445684"
    },
    {
      "id": "pt.ine.add.PTCONT.988175",
      "street": "R MESTRE REDONDO",
      "house": "9",
      "postcode": "6230-537",
      "city": "PÊRO VISEU",
      "lon": "-7.4437951428218065",
      "lat": "40.20725910643721"
    },
    {
      "id": "pt.ine.add.PTCONT.989186",
      "street": "R PROF JOSE MARGARIDO",
      "house": "1",
      "postcode": "6230-541",
      "city": "PÊRO VISEU",
      "lon": "-7.443852591704611",
      "lat": "40.20738552925136"
    },
    {
      "id": "pt.ine.add.PTCONT.989187",
      "street": "R DIREITA",
      "house": "26",
      "postcode": "6230-534",
      "city": "PÊRO VISEU",
      "lon": "-7.443962585013693",
      "lat": "40.20696291315679"
    },
    {
      "id": "pt.ine.add.PTCONT.999254",
      "street": "R MESTRE REDONDO",
      "house": "16",
      "postcode": "6230-537",
      "city": "PÊRO VISEU",
      "lon": "-7.443794321806845",
      "lat": "40.207340153439404"
    },
    {
      "id": "pt.ine.add.PTCONT.1000390",
      "street": "R TENDAS",
      "house": "3",
      "postcode": "6230-560",
      "city": "PÊRO VISEU",
      "lon": "-7.443935993802082",
      "lat": "40.20726895088659"
    },
    {
      "id": "pt.ine.add.PTCONT.1014360",
      "street": "R DIREITA",
      "house": "36",
      "postcode": "6230-534",
      "city": "PÊRO VISEU",
      "lon": "-7.444007924033326",
      "lat": "40.20712528686724"
    },
    {
      "id": "pt.ine.add.PTCONT.1020472",
      "street": "R ADEGAS",
      "house": "7",
      "postcode": "6230-547",
      "city": "PÊRO VISEU",
      "lon": "-7.444015291854609",
      "lat": "40.20755760748298"
    },
    {
      "id": "pt.ine.add.PTCONT.1022063",
      "street": "R PROF JOSE MARGARIDO",
      "house": "3",
      "postcode": "6230-541",
      "city": "PÊRO VISEU",
      "lon": "-7.443910679262119",
      "lat": "40.20744891547923"
    },
    {
      "id": "pt.ine.add.PTCONT.1033467",
      "street": "R PROF JOSE MARGARIDO",
      "house": "5",
      "postcode": "6230-541",
      "city": "PÊRO VISEU",
      "lon": "-7.44396904053186",
      "lat": "40.207485286010716"
    },
    {
      "id": "pt.ine.add.PTCONT.1040674",
      "street": "R MESTRE REDONDO",
      "house": "3",
      "postcode": "6230-537",
      "city": "PÊRO VISEU",
      "lon": "-7.443832020303602",
      "lat": "40.20709722225093"
    },
    {
      "id": "pt.ine.add.PTCONT.1044812",
      "street": "R TENDAS",
      "house": "",
      "postcode": "6230-560",
      "city": "PÊRO VISEU",
      "lon": "-7.443853412651488",
      "lat": "40.20730448224883"
    },
    {
      "id": "pt.ine.add.PTCONT.1050807",
      "street": "LG PRAÇA",
      "house": "14",
      "postcode": "6230-529",
      "city": "PÊRO VISEU",
      "lon": "-7.443915604489388",
      "lat": "40.20696263344608"
    },
    {
      "id": "pt.ine.add.PTCONT.1058433",
      "street": "LG PRAÇA",
      "house": "13",
      "postcode": "6230-529",
      "city": "PÊRO VISEU",
      "lon": "-7.443903312107536",
      "lat": "40.20701659485439"
    },
    {
      "id": "pt.ine.add.PTCONT.1065392",
      "street": "R ADEGAS",
      "house": "17",
      "postcode": "6230-547",
      "city": "PÊRO VISEU",
      "lon": "-7.444188552836209",
      "lat": "40.20784682328349"
    },
    {
      "id": "pt.ine.add.PTCONT.1085823",
      "street": "R DIREITA",
      "house": "46",
      "postcode": "6230-534",
      "city": "PÊRO VISEU",
      "lon": "-7.444040879737353",
      "lat": "40.207350627200356"
    },
    {
      "id": "pt.ine.add.PTCONT.1088084",
      "street": "R DIREITA",
      "house": "32",
      "postcode": "6230-534",
      "city": "PÊRO VISEU",
      "lon": "-7.44404407141382",
      "lat": "40.20703544439183"
    }
  ]
}