{
  "data": {
    "distrito": "Faro",
    "concelho": "Lagoa",
    "freguesia": "Ferragudo",
    "OBJECTID": 11,
    "BGRI2021": "08060200102",
    "DT21": "08",
    "DTMN21": "0806",
    "DTMNFR21": "080602",
    "DTMNFRSEC21": "080602001",
    "SECNUM21": "001",
    "SSNUM21": "02",
    "SECSSNUM21": "00102",
    "OBJECTID_1": 67220,
    "DT": "08",
    "CC": "06",
    "fr": "02",
    "SEC": "001",
    "SS": "02"
  },
  "addresses": [
    {
      "id": "pt.ine.add.PTCONT.1466969",
      "street": "URB VALE DA AZINHAGA CASA TEMPESTADE",
      "house": "",
      "postcode": "8400-276",
      "city": "FERRAGUDO",
      "lon": "-8.513753036120509",
      "lat": "37.11004361497407"
    },
    {
      "id": "pt.ine.add.PTCONT.1479018",
      "street": "ESTR FAROL",
      "house": "",
      "postcode": "8400-276",
      "city": "FERRAGUDO",
      "lon": "-8.513982707975503",
      "lat": "37.108727329429755"
    },
    {
      "id": "pt.ine.add.PTCONT.1490859",
      "street": "FAROL DA PONTA DO ALTAR",
      "house": "",
      "postcode": "8400-271",
      "city": "FERRAGUDO",
      "lon": "-8.519537078523124",
      "lat": "37.105852995947735"
    },
    {
      "id": "pt.ine.add.PTCONT.1493308",
      "street": "CASA BRANCA",
      "house": "",
      "postcode": "8400-270",
      "city": "FERRAGUDO",
      "lon": "-8.517840547349913",
      "lat": "37.10851664121502"
    },
    {
      "id": "pt.ine.add.PTCONT.1498823",
      "street": "CASA GOLFINHO",
      "house": "8E9",
      "postcode": "8400-270",
      "city": "FERRAGUDO",
      "lon": "-8.518353562599026",
      "lat": "37.109848544570866"
    },
    {
      "id": "pt.ine.add.PTCONT.1505026",
      "street": "URB VILAMAR",
      "house": "",
      "postcode": "8400-276",
      "city": "FERRAGUDO",
      "lon": "-8.513497835631423",
      "lat": "37.11075627148067"
    },
    {
      "id": "pt.ine.add.PTCONT.1513271",
      "street": "",
      "house": "",
      "postcode": "8400-270",
      "city": "FERRAGUDO",
      "lon": "-8.517742165934662",
      "lat": "37.10908462835776"
    },
    {
      "id": "pt.ine.add.PTCONT.1516182",
      "street": "URB VALE DA AZINHAGA",
      "house": "",
      "postcode": "8400-276",
      "city": "FERRAGUDO",
      "lon": "-8.513526719763025",
      "lat": "37.1097830338442"
    },
    {
      "id": "pt.ine.add.PTCONT.1522044",
      "street": "URB VALE DA AZINHAGA HARBRO VILA",
      "house": "28",
      "postcode": "8400-276",
      "city": "FERRAGUDO",
      "lon": "-8.512302848833082",
      "lat": "37.110273526714586"
    },
    {
      "id": "pt.ine.add.PTCONT.1529229",
      "street": "URB VALE DA AZINHAGA",
      "house": "",
      "postcode": "8400-276",
      "city": "FERRAGUDO",
      "lon": "-8.512395324345285",
      "lat": "37.11076881401551"
    },
    {
      "id": "pt.ine.add.PTCONT.1530974",
      "street": "URB VALE DA AZINHAGA",
      "house": "",
      "postcode": "8400-276",
      "city": "FERRAGUDO",
      "lon": "-8.511429657280017",
      "lat": "37.11115034438822"
    },
    {
      "id": "pt.ine.add.PTCONT.1537055",
      "street": "",
      "house": "",
      "postcode": "8400-270",
      "city": "FERRAGUDO",
      "lon": "-8.515928276357666",
      "lat": "37.110811523468634"
    },
    {
      "id": "pt.ine.add.PTCONT.1554421",
      "street": "LAZULI",
      "house": "",
      "postcode": "8400-270",
      "city": "FERRAGUDO",
      "lon": "-8.517490423937236",
      "lat": "37.1082474586598"
    },
    {
      "id": "pt.ine.add.PTCONT.1573213",
      "street": "URB VALE DA AZINHAGA A NOSSA CASA",
      "house": "30",
      "postcode": "8400-276",
      "city": "FERRAGUDO",
      "lon": "-8.512921941449067",
      "lat": "37.11033461939564"
    },
    {
      "id": "pt.ine.add.PTCONT.1586904",
      "street": "CASA MARROLOS",
      "house": "",
      "postcode": "8400-270",
      "city": "FERRAGUDO",
      "lon": "-8.51804843278145",
      "lat": "37.109579217545964"
    },
    {
      "id": "pt.ine.add.PTCONT.1624074",
      "street": "",
      "house": "",
      "postcode": "8400-270",
      "city": "FERRAGUDO",
      "lon": "-8.518731325998816",
      "lat": "37.10891021402893"
    },
    {
      "id": "pt.ine.add.PTCONT.1628069",
      "street": "BON BI NI",
      "house": "",
      "postcode": "8400-270",
      "city": "FERRAGUDO",
      "lon": "-8.517946085032342",
      "lat": "37.109363295340984"
    },
    {
      "id": "pt.ine.add.PTCONT.1630619",
      "street": "URB VILAMAR ELENA",
      "house": "15",
      "postcode": "8400-276",
      "city": "FERRAGUDO",
      "lon": "-8.512633924629663",
      "lat": "37.11123660175635"
    },
    {
      "id": "pt.ine.add.PTCONT.1630620",
      "street": "URB VILAMAR VILA GOLFINHO",
      "house": "1",
      "postcode": "8400-276",
      "city": "FERRAGUDO",
      "lon": "-8.513704133678845",
      "lat": "37.111512499874735"
    },
    {
      "id": "pt.ine.add.PTCONT.1636527",
      "street": "",
      "house": "",
      "postcode": "8400-270",
      "city": "FERRAGUDO",
      "lon": "-8.517866876680076",
      "lat": "37.10927344638034"
    },
    {
      "id": "pt.ine.add.PTCONT.1642296",
      "street": "URB VALE DA AZINHAGA",
      "house": "",
      "postcode": "8400-276",
      "city": "FERRAGUDO",
      "lon": "-8.514074154388688",
      "lat": "37.1090153749618"
    },
    {
      "id": "pt.ine.add.PTCONT.1654798",
      "street": "GAMBUZINOS",
      "house": "",
      "postcode": "8400-270",
      "city": "FERRAGUDO",
      "lon": "-8.518123080365278",
      "lat": "37.10876802100732"
    },
    {
      "id": "pt.ine.add.PTCONT.1665298",
      "street": "URB VILAMAR VILLA ALCARROSA",
      "house": "14",
      "postcode": "8400-276",
      "city": "FERRAGUDO",
      "lon": "-8.512319355849863",
      "lat": "37.11132771424999"
    },
    {
      "id": "pt.ine.add.PTCONT.1668343",
      "street": "URB VALE DA AZINHAGA CASA BENTC",
      "house": "14",
      "postcode": "8400-276",
      "city": "FERRAGUDO",
      "lon": "-8.512056505058647",
      "lat": "37.110508589934824"
    },
    {
      "id": "pt.ine.add.PTCONT.1668344",
      "street": "URB VALE DA AZINHAGA LISNAMARA",
      "house": "13",
      "postcode": "8400-276",
      "city": "FERRAGUDO",
      "lon": "-8.511891875679268",
      "lat": "37.11133809127368"
    },
    {
      "id": "pt.ine.add.PTCONT.1668470",
      "street": "",
      "house": "",
      "postcode": "8400-270",
      "city": "FERRAGUDO",
      "lon": "-8.515894116462958",
      "lat": "37.11073053835429"
    },
    {
      "id": "pt.ine.add.PTCONT.1673246",
      "street": "URB VALE DA AZINHAGA TRE SORELLE",
      "house": "",
      "postcode": "8400-276",
      "city": "FERRAGUDO",
      "lon": "-8.512718038048568",
      "lat": "37.110055943728284"
    },
    {
      "id": "pt.ine.add.PTCONT.1676584",
      "street": "",
      "house": "",
      "postcode": "8400-270",
      "city": "FERRAGUDO",
      "lon": "-8.51760593221372",
      "lat": "37.10884178394848"
    },
    {
      "id": "pt.ine.add.PTCONT.1676585",
      "street": "",
      "house": "",
      "postcode": "8400-270",
      "city": "FERRAGUDO",
      "lon": "-8.517107553322363",
      "lat": "37.108176614394644"
    },
    {
      "id": "pt.ine.add.PTCONT.1686333",
      "street": "",
      "house": "",
      "postcode": "8400-270",
      "city": "FERRAGUDO",
      "lon": "-8.518266048646177",
      "lat": "37.10811879327176"
    },
    {
      "id": "pt.ine.add.PTCONT.1698707",
      "street": "URB VALE DA AZINHAGA",
      "house": "",
      "postcode": "8400-276",
      "city": "FERRAGUDO",
      "lon": "-8.513270166808205",
      "lat": "37.11022537618974"
    },
    {
      "id": "pt.ine.add.PTCONT.1704222",
      "street": "CASA NA AREIA",
      "house": "",
      "postcode": "8400-270",
      "city": "FERRAGUDO",
      "lon": "-8.517895522161865",
      "lat": "37.10826416593535"
    },
    {
      "id": "pt.ine.add.PTCONT.1707208",
      "street": "CASAMAR",
      "house": "",
      "postcode": "8400-270",
      "city": "FERRAGUDO",
      "lon": "-8.518418600168781",
      "lat": "37.10936176077699"
    },
    {
      "id": "pt.ine.add.PTCONT.1713043",
      "street": "URB VILAMAR",
      "house": "3",
      "postcode": "8400-276",
      "city": "FERRAGUDO",
      "lon": "-8.51375921451557",
      "lat": "37.111278047461134"
    },
    {
      "id": "pt.ine.add.PTCONT.1718706",
      "street": "URB VALE DA AZINHAGA",
      "house": "",
      "postcode": "8400-276",
      "city": "FERRAGUDO",
      "lon": "-8.511832257079915",
      "lat": "37.110662486650284"
    },
    {
      "id": "pt.ine.add.PTCONT.1727355",
      "street": "",
      "house": "",
      "postcode": "8400-270",
      "city": "FERRAGUDO",
      "lon": "-8.51603878593068",
      "lat": "37.11041470020307"
    },
    {
      "id": "pt.ine.add.PTCONT.1749481",
      "street": "CASA MARUSCHKA",
      "house": "",
      "postcode": "8400-270",
      "city": "FERRAGUDO",
      "lon": "-8.51834735559566",
      "lat": "37.108623122903246"
    },
    {
      "id": "pt.ine.add.PTCONT.1760177",
      "street": "CASA AZUL",
      "house": "",
      "postcode": "8400-270",
      "city": "FERRAGUDO",
      "lon": "-8.519284649072947",
      "lat": "37.10931389025776"
    },
    {
      "id": "pt.ine.add.PTCONT.1774524",
      "street": "CASA PONTA DO ALTAR",
      "house": "",
      "postcode": "8400-270",
      "city": "FERRAGUDO",
      "lon": "-8.517413539181437",
      "lat": "37.10861714261013"
    },
    {
      "id": "pt.ine.add.PTCONT.1781592",
      "street": "URB VALE DA AZINHAGA",
      "house": "",
      "postcode": "8400-276",
      "city": "FERRAGUDO",
      "lon": "-8.513144925559208",
      "lat": "37.109928427813706"
    },
    {
      "id": "pt.ine.add.PTCONT.1787410",
      "street": "ESTR FAROL",
      "house": "",
      "postcode": "8400-276",
      "city": "FERRAGUDO",
      "lon": "-8.51446692143996",
      "lat": "37.10881587908101"
    },
    {
      "id": "pt.ine.add.PTCONT.1798370",
      "street": "SIT PINTADINHO",
      "house": "7",
      "postcode": "8400-270",
      "city": "FERRAGUDO",
      "lon": "-8.518836097308732",
      "lat": "37.10960368955796"
    },
    {
      "id": "pt.ine.add.PTCONT.1810695",
      "street": "URB VALE DA AZINHAGA CASA DA PRAIA",
      "house": "",
      "postcode": "8400-276",
      "city": "FERRAGUDO",
      "lon": "-8.512529072587613",
      "lat": "37.110516089259086"
    },
    {
      "id": "pt.ine.add.PTCONT.1819935",
      "street": "URB VILAMAR",
      "house": "",
      "postcode": "8400-276",
      "city": "FERRAGUDO",
      "lon": "-8.513710829937299",
      "lat": "37.11060240774941"
    },
    {
      "id": "pt.ine.add.PTCONT.1821150",
      "street": "URB VALE DA AZINHAGA",
      "house": "12",
      "postcode": "8400-276",
      "city": "FERRAGUDO",
      "lon": "-8.512126478045165",
      "lat": "37.11100394934576"
    },
    {
      "id": "pt.ine.add.PTCONT.1836505",
      "street": "VL WALDEMAR",
      "house": "",
      "postcode": "8400-270",
      "city": "FERRAGUDO",
      "lon": "-8.51828204437085",
      "lat": "37.10905584399526"
    },
    {
      "id": "pt.ine.add.PTCONT.1846943",
      "street": "CASA DA AVO",
      "house": "",
      "postcode": "8400-270",
      "city": "FERRAGUDO",
      "lon": "-8.519117219988852",
      "lat": "37.10957574288135"
    }
  ]
}