{
  "data": {
    "distrito": "Faro",
    "concelho": "Lagoa",
    "freguesia": "Ferragudo",
    "OBJECTID": 62,
    "BGRI2021": "08060200107",
    "DT21": "08",
    "DTMN21": "0806",
    "DTMNFR21": "080602",
    "DTMNFRSEC21": "080602001",
    "SECNUM21": "001",
    "SSNUM21": "07",
    "SECSSNUM21": "00107",
    "OBJECTID_1": 66774,
    "DT": "08",
    "CC": "06",
    "fr": "02",
    "SEC": "001",
    "SS": "07"
  },
  "addresses": [
    {
      "id": "pt.ine.add.PTCONT.1475830",
      "street": "MTE DA BELA VISTA",
      "house": "",
      "postcode": "8400-275",
      "city": "FERRAGUDO",
      "lon": "-8.516213276132966",
      "lat": "37.116018727443205"
    },
    {
      "id": "pt.ine.add.PTCONT.1484001",
      "street": "MTE VALE DA AREIA",
      "house": "",
      "postcode": "8400-275",
      "city": "FERRAGUDO",
      "lon": "-8.516968981370399",
      "lat": "37.11638571741413"
    },
    {
      "id": "pt.ine.add.PTCONT.1484002",
      "street": "MTE DA BELA VISTA",
      "house": "",
      "postcode": "8400-275",
      "city": "FERRAGUDO",
      "lon": "-8.516570002158034",
      "lat": "37.1153598009854"
    },
    {
      "id": "pt.ine.add.PTCONT.1516193",
      "street": "MTE ROCHA",
      "house": "",
      "postcode": "8400-275",
      "city": "FERRAGUDO",
      "lon": "-8.515201651550182",
      "lat": "37.111741959037275"
    },
    {
      "id": "pt.ine.add.PTCONT.1542791",
      "street": "EM 530 ARCA NOE",
      "house": "",
      "postcode": "8400-275",
      "city": "FERRAGUDO",
      "lon": "-8.514189169442638",
      "lat": "37.11400687747364"
    },
    {
      "id": "pt.ine.add.PTCONT.1548065",
      "street": "R DR COELHO CARVALHO",
      "house": "8",
      "postcode": "8400-258",
      "city": "FERRAGUDO",
      "lon": "-8.520281607950873",
      "lat": "37.11951063065799"
    },
    {
      "id": "pt.ine.add.PTCONT.1552968",
      "street": "CASA DA INFANTA",
      "house": "",
      "postcode": "8400-275",
      "city": "FERRAGUDO",
      "lon": "-8.518093358654404",
      "lat": "37.11178666858763"
    },
    {
      "id": "pt.ine.add.PTCONT.1583444",
      "street": "AL GAMA",
      "house": "",
      "postcode": "8400-270",
      "city": "FERRAGUDO",
      "lon": "-8.517256117462757",
      "lat": "37.110861292450224"
    },
    {
      "id": "pt.ine.add.PTCONT.1586905",
      "street": "MTE VALE DA AREIA",
      "house": "",
      "postcode": "8400-275",
      "city": "FERRAGUDO",
      "lon": "-8.516833555310651",
      "lat": "37.11630506047497"
    },
    {
      "id": "pt.ine.add.PTCONT.1592140",
      "street": "CASA DA INFANTA",
      "house": "APART 11",
      "postcode": "8400-270",
      "city": "FERRAGUDO",
      "lon": "-8.517813230180785",
      "lat": "37.112012842773304"
    },
    {
      "id": "pt.ine.add.PTCONT.1613727",
      "street": "URB VALE DA AREIA",
      "house": "",
      "postcode": "8400-275",
      "city": "FERRAGUDO",
      "lon": "-8.51510736519788",
      "lat": "37.11312989490827"
    },
    {
      "id": "pt.ine.add.PTCONT.1630622",
      "street": "URB VALE DA AREIA",
      "house": "",
      "postcode": "8400-275",
      "city": "FERRAGUDO",
      "lon": "-8.5156746348861",
      "lat": "37.11183053985079"
    },
    {
      "id": "pt.ine.add.PTCONT.1636528",
      "street": "URB VALE DA AREIA",
      "house": "",
      "postcode": "8400-275",
      "city": "FERRAGUDO",
      "lon": "-8.517055048159454",
      "lat": "37.11337590048748"
    },
    {
      "id": "pt.ine.add.PTCONT.1644090",
      "street": "CASA DA INFANTA",
      "house": "",
      "postcode": "8400-275",
      "city": "FERRAGUDO",
      "lon": "-8.517945777024229",
      "lat": "37.111525840342914"
    },
    {
      "id": "pt.ine.add.PTCONT.1666973",
      "street": "URB VALE DA AREIA",
      "house": "",
      "postcode": "8400-275",
      "city": "FERRAGUDO",
      "lon": "-8.515199953140716",
      "lat": "37.113643200560574"
    },
    {
      "id": "pt.ine.add.PTCONT.1689907",
      "street": "EM 530",
      "house": "",
      "postcode": "8400-275",
      "city": "FERRAGUDO",
      "lon": "-8.519972535181411",
      "lat": "37.11847542214517"
    },
    {
      "id": "pt.ine.add.PTCONT.1757221",
      "street": "EM 530",
      "house": "",
      "postcode": "8400-275",
      "city": "FERRAGUDO",
      "lon": "-8.51533985651724",
      "lat": "37.114615893899874"
    },
    {
      "id": "pt.ine.add.PTCONT.1760181",
      "street": "URB VALE DA AREIA",
      "house": "",
      "postcode": "8400-275",
      "city": "FERRAGUDO",
      "lon": "-8.51624960230404",
      "lat": "37.11206295883333"
    },
    {
      "id": "pt.ine.add.PTCONT.1775384",
      "street": "MTE NSA SRA F√ÅTIMA",
      "house": "",
      "postcode": "8400-275",
      "city": "FERRAGUDO",
      "lon": "-8.519178739100013",
      "lat": "37.11726158024256"
    },
    {
      "id": "pt.ine.add.PTCONT.1790082",
      "street": "R DR COELHO CARVALHO",
      "house": "",
      "postcode": "8400-258",
      "city": "FERRAGUDO",
      "lon": "-8.521039010598997",
      "lat": "37.11799437627093"
    },
    {
      "id": "pt.ine.add.PTCONT.1806298",
      "street": "URB VALE DA AREIA",
      "house": "",
      "postcode": "8400-275",
      "city": "FERRAGUDO",
      "lon": "-8.516838506503861",
      "lat": "37.11282695513568"
    },
    {
      "id": "pt.ine.add.PTCONT.1831252",
      "street": "R DR COELHO CARVALHO VILA MONTE LUZ",
      "house": "",
      "postcode": "8400-258",
      "city": "FERRAGUDO",
      "lon": "-8.520588531960655",
      "lat": "37.11791475409916"
    },
    {
      "id": "pt.ine.add.PTCONT.1843486",
      "street": "MTE VALE DA AREIA",
      "house": "",
      "postcode": "8400-275",
      "city": "FERRAGUDO",
      "lon": "-8.51720626214124",
      "lat": "37.11658318195072"
    },
    {
      "id": "pt.ine.add.PTCONT.1845557",
      "street": "ESTR MOLHE CASA MOLHE",
      "house": "",
      "postcode": "8400-270",
      "city": "FERRAGUDO",
      "lon": "-8.518278368914835",
      "lat": "37.110551615681686"
    },
    {
      "id": "pt.ine.add.PTCONT.1846761",
      "street": "R DR COELHO CARVALHO CASA SUL",
      "house": "",
      "postcode": "8400-258",
      "city": "FERRAGUDO",
      "lon": "-8.520172818225376",
      "lat": "37.11803324965624"
    }
  ]
}