{
  "data": {
    "distrito": "Braga",
    "concelho": "Terras de Bouro",
    "freguesia": "Carvalheira",
    "OBJECTID": 329,
    "BGRI2021": "03100400123",
    "DT21": "03",
    "DTMN21": "0310",
    "DTMNFR21": "031004",
    "DTMNFRSEC21": "031004001",
    "SECNUM21": "001",
    "SSNUM21": "23",
    "SECSSNUM21": "00123",
    "OBJECTID_1": 29202,
    "DT": "03",
    "CC": "10",
    "fr": "04",
    "SEC": "001",
    "SS": "23"
  },
  "addresses": [
    {
      "id": "pt.ine.add.PTCONT.463530",
      "street": "R PASSADICO",
      "house": "17",
      "postcode": "4840-040",
      "city": "CARVALHEIRA",
      "lon": "-8.22446637575092",
      "lat": "41.746930524625235"
    },
    {
      "id": "pt.ine.add.PTCONT.469357",
      "street": "R TERREIRO DA RES",
      "house": "35",
      "postcode": "4840-040",
      "city": "CARVALHEIRA",
      "lon": "-8.224022983686112",
      "lat": "41.7479482674091"
    },
    {
      "id": "pt.ine.add.PTCONT.499116",
      "street": "R MARTINGOS",
      "house": "41",
      "postcode": "4840-040",
      "city": "CARVALHEIRA",
      "lon": "-8.223278038979068",
      "lat": "41.748272978980204"
    },
    {
      "id": "pt.ine.add.PTCONT.510917",
      "street": "R TERREIRO DA RES",
      "house": "40",
      "postcode": "4840-040",
      "city": "CARVALHEIRA",
      "lon": "-8.22342239866643",
      "lat": "41.74833588982166"
    },
    {
      "id": "pt.ine.add.PTCONT.513710",
      "street": "R PASSADICO",
      "house": "26",
      "postcode": "4840-040",
      "city": "CARVALHEIRA",
      "lon": "-8.22277229997407",
      "lat": "41.74770615674855"
    },
    {
      "id": "pt.ine.add.PTCONT.525343",
      "street": "R PASSADICO FAMILIA MANUEL SANTOS",
      "house": "",
      "postcode": "4840-040",
      "city": "CARVALHEIRA",
      "lon": "-8.224093911334217",
      "lat": "41.747092882475044"
    },
    {
      "id": "pt.ine.add.PTCONT.530582",
      "street": "R TORRE",
      "house": "20",
      "postcode": "4840-040",
      "city": "CARVALHEIRA",
      "lon": "-8.2244906630554",
      "lat": "41.747101571085395"
    },
    {
      "id": "pt.ine.add.PTCONT.564493",
      "street": "R TERREIRO DA RES",
      "house": "",
      "postcode": "4840-040",
      "city": "CARVALHEIRA",
      "lon": "-8.224287084914916",
      "lat": "41.74766895086458"
    },
    {
      "id": "pt.ine.add.PTCONT.567075",
      "street": "R MARTINGOS",
      "house": "42",
      "postcode": "4840-040",
      "city": "CARVALHEIRA",
      "lon": "-8.22324223560425",
      "lat": "41.74846207972419"
    },
    {
      "id": "pt.ine.add.PTCONT.568708",
      "street": "R TERREIRO DA RES",
      "house": "",
      "postcode": "4840-040",
      "city": "CARVALHEIRA",
      "lon": "-8.224263192745767",
      "lat": "41.747777011348965"
    },
    {
      "id": "pt.ine.add.PTCONT.581041",
      "street": "R TERREIRO DA RES",
      "house": "39",
      "postcode": "4840-040",
      "city": "CARVALHEIRA",
      "lon": "-8.223710777092077",
      "lat": "41.74821861781542"
    },
    {
      "id": "pt.ine.add.PTCONT.591222",
      "street": "R PAREDE NOVA",
      "house": "48",
      "postcode": "4840-040",
      "city": "CARVALHEIRA",
      "lon": "-8.221573880955107",
      "lat": "41.750498157831615"
    },
    {
      "id": "pt.ine.add.PTCONT.614804",
      "street": "R PASSADICO",
      "house": "24",
      "postcode": "4840-040",
      "city": "CARVALHEIRA",
      "lon": "-8.223613268521449",
      "lat": "41.747273331295176"
    },
    {
      "id": "pt.ine.add.PTCONT.632515",
      "street": "R PASSADICO",
      "house": "27",
      "postcode": "4840-040",
      "city": "CARVALHEIRA",
      "lon": "-8.223854249552083",
      "lat": "41.747651286595264"
    },
    {
      "id": "pt.ine.add.PTCONT.633834",
      "street": "R TERREIRO DA RES",
      "house": "",
      "postcode": "4840-040",
      "city": "CARVALHEIRA",
      "lon": "-8.223938965418363",
      "lat": "41.74804737191872"
    },
    {
      "id": "pt.ine.add.PTCONT.646446",
      "street": "R TORRE",
      "house": "28",
      "postcode": "4840-040",
      "city": "CARVALHEIRA",
      "lon": "-8.224094432530702",
      "lat": "41.74746202397769"
    },
    {
      "id": "pt.ine.add.PTCONT.666995",
      "street": "R TERREIRO DA RES",
      "house": "34",
      "postcode": "4840-040",
      "city": "CARVALHEIRA",
      "lon": "-8.224143107454358",
      "lat": "41.74787614461778"
    },
    {
      "id": "pt.ine.add.PTCONT.717551",
      "street": "R PASSADICO",
      "house": "",
      "postcode": "4840-040",
      "city": "CARVALHEIRA",
      "lon": "-8.223794441157764",
      "lat": "41.747867416868516"
    },
    {
      "id": "pt.ine.add.PTCONT.717560",
      "street": "R PASSADICO",
      "house": "21",
      "postcode": "4840-040",
      "city": "CARVALHEIRA",
      "lon": "-8.22420241831995",
      "lat": "41.74730887957822"
    },
    {
      "id": "pt.ine.add.PTCONT.723722",
      "street": "R PAREDE NOVA",
      "house": "47",
      "postcode": "4840-040",
      "city": "CARVALHEIRA",
      "lon": "-8.221958518553267",
      "lat": "41.7504258333947"
    },
    {
      "id": "pt.ine.add.PTCONT.750485",
      "street": "R TAPADO",
      "house": "",
      "postcode": "4840-040",
      "city": "CARVALHEIRA",
      "lon": "-8.224359092422205",
      "lat": "41.747578859094006"
    },
    {
      "id": "pt.ine.add.PTCONT.764676",
      "street": "R TERREIRO DA RES",
      "house": "40",
      "postcode": "4840-040",
      "city": "CARVALHEIRA",
      "lon": "-8.223554559078215",
      "lat": "41.74827276164854"
    },
    {
      "id": "pt.ine.add.PTCONT.764677",
      "street": "R TAPADO",
      "house": "",
      "postcode": "4840-040",
      "city": "CARVALHEIRA",
      "lon": "-8.223962693208502",
      "lat": "41.747822266651426"
    },
    {
      "id": "pt.ine.add.PTCONT.771388",
      "street": "R TORRE",
      "house": "25",
      "postcode": "4840-040",
      "city": "CARVALHEIRA",
      "lon": "-8.223890177521348",
      "lat": "41.7475522201458"
    },
    {
      "id": "pt.ine.add.PTCONT.816344",
      "street": "R PASSADICO",
      "house": "19",
      "postcode": "4840-040",
      "city": "CARVALHEIRA",
      "lon": "-8.224370413612641",
      "lat": "41.74708365973347"
    },
    {
      "id": "pt.ine.add.PTCONT.845775",
      "street": "R PASSADICO",
      "house": "22",
      "postcode": "4840-040",
      "city": "CARVALHEIRA",
      "lon": "-8.223877647765537",
      "lat": "41.74719209159625"
    }
  ]
}