{
  "data": {
    "distrito": "Leiria",
    "concelho": "Bombarral",
    "freguesia": "Pó",
    "OBJECTID": 105,
    "BGRI2021": "10050500127",
    "DT21": "10",
    "DTMN21": "1005",
    "DTMNFR21": "100505",
    "DTMNFRSEC21": "100505001",
    "SECNUM21": "001",
    "SSNUM21": "27",
    "SECSSNUM21": "00127",
    "OBJECTID_1": 87278,
    "DT": "10",
    "CC": "05",
    "fr": "05",
    "SEC": "001",
    "SS": "27"
  },
  "addresses": [
    {
      "id": "pt.ine.add.PTCONT.1986664",
      "street": "R CARLOS NASCIMENTO LEITÃO",
      "house": "7",
      "postcode": "2540-502",
      "city": "PÓ",
      "lon": "-9.216202447161026",
      "lat": "39.30990258385466"
    },
    {
      "id": "pt.ine.add.PTCONT.1995621",
      "street": "R JOÃO AFONSO",
      "house": "16",
      "postcode": "2540-513",
      "city": "PÓ",
      "lon": "-9.219202044294423",
      "lat": "39.311189650043374"
    },
    {
      "id": "pt.ine.add.PTCONT.2007171",
      "street": "R CARLOS LUIS MORGADO",
      "house": "17",
      "postcode": "2540-501",
      "city": "PÓ",
      "lon": "-9.216650184906397",
      "lat": "39.310366778460846"
    },
    {
      "id": "pt.ine.add.PTCONT.2007172",
      "street": "R JOÃO AFONSO",
      "house": "8",
      "postcode": "2540-513",
      "city": "PÓ",
      "lon": "-9.218893952775627",
      "lat": "39.310760190729184"
    },
    {
      "id": "pt.ine.add.PTCONT.2015238",
      "street": "R SALVADOR CARVALHO DOS SANTOS",
      "house": "2",
      "postcode": "2540-524",
      "city": "PÓ",
      "lon": "-9.217245354612578",
      "lat": "39.30986585464702"
    },
    {
      "id": "pt.ine.add.PTCONT.2015239",
      "street": "R SALVADOR CARVALHO DOS SANTOS",
      "house": "2",
      "postcode": "2540-524",
      "city": "PÓ",
      "lon": "-9.217245354612578",
      "lat": "39.30986585464702"
    },
    {
      "id": "pt.ine.add.PTCONT.2015240",
      "street": "R SALVADOR CARVALHO DOS SANTOS",
      "house": "2",
      "postcode": "2540-524",
      "city": "PÓ",
      "lon": "-9.217245354612578",
      "lat": "39.30986585464702"
    },
    {
      "id": "pt.ine.add.PTCONT.2015241",
      "street": "R SALVADOR CARVALHO DOS SANTOS",
      "house": "2",
      "postcode": "2540-524",
      "city": "PÓ",
      "lon": "-9.217245354612578",
      "lat": "39.30986585464702"
    },
    {
      "id": "pt.ine.add.PTCONT.2015242",
      "street": "R SALVADOR CARVALHO DOS SANTOS",
      "house": "2",
      "postcode": "2540-524",
      "city": "PÓ",
      "lon": "-9.217245354612578",
      "lat": "39.30986585464702"
    },
    {
      "id": "pt.ine.add.PTCONT.2015248",
      "street": "R SALVADOR CARVALHO DOS SANTOS",
      "house": "2",
      "postcode": "2540-524",
      "city": "PÓ",
      "lon": "-9.217245354612578",
      "lat": "39.30986585464702"
    },
    {
      "id": "pt.ine.add.PTCONT.2015249",
      "street": "R SALVADOR CARVALHO DOS SANTOS",
      "house": "4",
      "postcode": "2540-524",
      "city": "PÓ",
      "lon": "-9.217465472827495",
      "lat": "39.30985479743683"
    },
    {
      "id": "pt.ine.add.PTCONT.2020099",
      "street": "R SALVADOR CARVALHO DOS SANTOS",
      "house": "6",
      "postcode": "2540-524",
      "city": "PÓ",
      "lon": "-9.217650952551574",
      "lat": "39.30985306948918"
    },
    {
      "id": "pt.ine.add.PTCONT.2027712",
      "street": "R CARLOS LUIS MORGADO",
      "house": "15",
      "postcode": "2540-501",
      "city": "PÓ",
      "lon": "-9.21654432396893",
      "lat": "39.31026868734892"
    },
    {
      "id": "pt.ine.add.PTCONT.2030554",
      "street": "R CARLOS LUIS MORGADO",
      "house": "19",
      "postcode": "2540-501",
      "city": "PÓ",
      "lon": "-9.21658354629842",
      "lat": "39.31055654468545"
    },
    {
      "id": "pt.ine.add.PTCONT.2043663",
      "street": "R D MARIA TELES DO PO",
      "house": "15",
      "postcode": "2540-509",
      "city": "PÓ",
      "lon": "-9.217866747485282",
      "lat": "39.31181457355785"
    },
    {
      "id": "pt.ine.add.PTCONT.2048505",
      "street": "R JOÃO AFONSO",
      "house": "12",
      "postcode": "2540-513",
      "city": "PÓ",
      "lon": "-9.219070626512439",
      "lat": "39.3109386816052"
    },
    {
      "id": "pt.ine.add.PTCONT.2064223",
      "street": "R D MARIA TELES DO PO",
      "house": "3",
      "postcode": "2540-509",
      "city": "PÓ",
      "lon": "-9.21691494719606",
      "lat": "39.310994800126586"
    },
    {
      "id": "pt.ine.add.PTCONT.2064224",
      "street": "R CARLOS LUIS MORGADO",
      "house": "",
      "postcode": "2540-501",
      "city": "PÓ",
      "lon": "-9.216379250813796",
      "lat": "39.310090084625756"
    },
    {
      "id": "pt.ine.add.PTCONT.2064225",
      "street": "R JOÃO AFONSO",
      "house": "26",
      "postcode": "2540-513",
      "city": "PÓ",
      "lon": "-9.220485164133935",
      "lat": "39.3124386434534"
    },
    {
      "id": "pt.ine.add.PTCONT.2071264",
      "street": "R CARLOS NASCIMENTO LEITÃO",
      "house": "20",
      "postcode": "2540-502",
      "city": "PÓ",
      "lon": "-9.216422565700608",
      "lat": "39.309891528612916"
    },
    {
      "id": "pt.ine.add.PTCONT.2071265",
      "street": "R JOÃO AFONSO",
      "house": "10",
      "postcode": "2540-513",
      "city": "PÓ",
      "lon": "-9.21897663241545",
      "lat": "39.31085849592262"
    },
    {
      "id": "pt.ine.add.PTCONT.2071566",
      "street": "R CARLOS NASCIMENTO LEITÃO",
      "house": "20",
      "postcode": "2540-502",
      "city": "PÓ",
      "lon": "-9.216422565700608",
      "lat": "39.309891528612916"
    },
    {
      "id": "pt.ine.add.PTCONT.2078567",
      "street": "R CARLOS LUIS MORGADO",
      "house": "9",
      "postcode": "2540-501",
      "city": "PÓ",
      "lon": "-9.216276306627254",
      "lat": "39.3101811120837"
    },
    {
      "id": "pt.ine.add.PTCONT.2083939",
      "street": "R CARLOS LUIS MORGADO",
      "house": "5",
      "postcode": "2540-501",
      "city": "PÓ",
      "lon": "-9.216240418195422",
      "lat": "39.31010939041859"
    },
    {
      "id": "pt.ine.add.PTCONT.2083940",
      "street": "R JOÃO AFONSO",
      "house": "24",
      "postcode": "2540-513",
      "city": "PÓ",
      "lon": "-9.22007230568254",
      "lat": "39.311983145194624"
    },
    {
      "id": "pt.ine.add.PTCONT.2086239",
      "street": "R JOÃO AFONSO",
      "house": "22",
      "postcode": "2540-513",
      "city": "PÓ",
      "lon": "-9.219848419635701",
      "lat": "39.31175105499711"
    },
    {
      "id": "pt.ine.add.PTCONT.2133507",
      "street": "R JOÃO AFONSO",
      "house": "20",
      "postcode": "2540-513",
      "city": "PÓ",
      "lon": "-9.219578581933945",
      "lat": "39.3115464140948"
    },
    {
      "id": "pt.ine.add.PTCONT.2138616",
      "street": "R JOÃO AFONSO",
      "house": "18",
      "postcode": "2540-513",
      "city": "PÓ",
      "lon": "-9.219494647161705",
      "lat": "39.311367058540384"
    },
    {
      "id": "pt.ine.add.PTCONT.2153732",
      "street": "R CARLOS LUIS MORGADO A CERCA",
      "house": "21",
      "postcode": "2540-501",
      "city": "PÓ",
      "lon": "-9.216701000351112",
      "lat": "39.310654527837485"
    },
    {
      "id": "pt.ine.add.PTCONT.2161907",
      "street": "R D MARIA TELES DO PO",
      "house": "9",
      "postcode": "2540-509",
      "city": "PÓ",
      "lon": "-9.217209767281187",
      "lat": "39.31131630493627"
    },
    {
      "id": "pt.ine.add.PTCONT.2161908",
      "street": "R D MARIA TELES DO PO",
      "house": "9",
      "postcode": "2540-509",
      "city": "PÓ",
      "lon": "-9.217209767281187",
      "lat": "39.31131630493627"
    },
    {
      "id": "pt.ine.add.PTCONT.2164035",
      "street": "R CARLOS LUIS MORGADO",
      "house": "1",
      "postcode": "2540-501",
      "city": "PÓ",
      "lon": "-9.216192659631874",
      "lat": "39.31001976528431"
    },
    {
      "id": "pt.ine.add.PTCONT.2170675",
      "street": "R CARLOS LUIS MORGADO",
      "house": "",
      "postcode": "2540-501",
      "city": "PÓ",
      "lon": "-9.216323926549128",
      "lat": "39.310261731519944"
    },
    {
      "id": "pt.ine.add.PTCONT.2174912",
      "street": "R JOÃO AFONSO",
      "house": "2",
      "postcode": "2540-513",
      "city": "PÓ",
      "lon": "-9.218317566814353",
      "lat": "39.310225148686484"
    },
    {
      "id": "pt.ine.add.PTCONT.2214688",
      "street": "R CARLOS NASCIMENTO LEITÃO",
      "house": "24",
      "postcode": "2540-502",
      "city": "PÓ",
      "lon": "-9.216955403504016",
      "lat": "39.309859547769406"
    },
    {
      "id": "pt.ine.add.PTCONT.2236488",
      "street": "R JOÃO AFONSO",
      "house": "14",
      "postcode": "2540-513",
      "city": "PÓ",
      "lon": "-9.219153167383991",
      "lat": "39.31102798101519"
    },
    {
      "id": "pt.ine.add.PTCONT.2255109",
      "street": "R JOÃO AFONSO",
      "house": "6",
      "postcode": "2540-513",
      "city": "PÓ",
      "lon": "-9.218482506020285",
      "lat": "39.310394742931805"
    }
  ]
}