{
  "data": {
    "distrito": "Leiria",
    "concelho": "Bombarral",
    "freguesia": "Pó",
    "OBJECTID": 115,
    "BGRI2021": "10050500133",
    "DT21": "10",
    "DTMN21": "1005",
    "DTMNFR21": "100505",
    "DTMNFRSEC21": "100505001",
    "SECNUM21": "001",
    "SSNUM21": "33",
    "SECSSNUM21": "00133",
    "OBJECTID_1": 87438,
    "DT": "10",
    "CC": "05",
    "fr": "05",
    "SEC": "001",
    "SS": "33"
  },
  "addresses": [
    {
      "id": "pt.ine.add.PTCONT.1980031",
      "street": "R D MARIA TELES DO PO",
      "house": "D6",
      "postcode": "2540-509",
      "city": "PÓ",
      "lon": "-9.218805306796307",
      "lat": "39.31252637914303"
    },
    {
      "id": "pt.ine.add.PTCONT.1982296",
      "street": "R D MARIA TELES DO PO",
      "house": "98",
      "postcode": "2540-509",
      "city": "PÓ",
      "lon": "-9.219072779269213",
      "lat": "39.3125779257954"
    },
    {
      "id": "pt.ine.add.PTCONT.1984448",
      "street": "BC BREJOS",
      "house": "5",
      "postcode": "2540-495",
      "city": "PÓ",
      "lon": "-9.219761190189178",
      "lat": "39.3136072999527"
    },
    {
      "id": "pt.ine.add.PTCONT.1986131",
      "street": "R D MARIA TELES DO PO",
      "house": "36",
      "postcode": "2540-509",
      "city": "PÓ",
      "lon": "-9.220125897714228",
      "lat": "39.31319858228121"
    },
    {
      "id": "pt.ine.add.PTCONT.1988885",
      "street": "R CRUZEIRO",
      "house": "39",
      "postcode": "2540-505",
      "city": "PÓ",
      "lon": "-9.214370637240464",
      "lat": "39.31517967115639"
    },
    {
      "id": "pt.ine.add.PTCONT.1994887",
      "street": "R D MARIA TELES DO PO",
      "house": "40",
      "postcode": "2540-509",
      "city": "PÓ",
      "lon": "-9.220530677633537",
      "lat": "39.313131752983885"
    },
    {
      "id": "pt.ine.add.PTCONT.2005819",
      "street": "BC BREJOS",
      "house": "2",
      "postcode": "2540-495",
      "city": "PÓ",
      "lon": "-9.220617504572838",
      "lat": "39.31499537886062"
    },
    {
      "id": "pt.ine.add.PTCONT.2050507",
      "street": "R D MARIA TELES DO PO",
      "house": "341",
      "postcode": "2540-509",
      "city": "PÓ",
      "lon": "-9.219797809957468",
      "lat": "39.31297647202315"
    },
    {
      "id": "pt.ine.add.PTCONT.2052761",
      "street": "R D MARIA TELES DO PO",
      "house": "38C",
      "postcode": "2540-509",
      "city": "PÓ",
      "lon": "-9.220563344256316",
      "lat": "39.31374391994735"
    },
    {
      "id": "pt.ine.add.PTCONT.2061650",
      "street": "R D MARIA TELES DO PO",
      "house": "20",
      "postcode": "2540-509",
      "city": "PÓ",
      "lon": "-9.218094104731788",
      "lat": "39.31227180890399"
    },
    {
      "id": "pt.ine.add.PTCONT.2076265",
      "street": "BC BREJOS",
      "house": "D",
      "postcode": "2540-495",
      "city": "PÓ",
      "lon": "-9.220070998447289",
      "lat": "39.31339724769894"
    },
    {
      "id": "pt.ine.add.PTCONT.2096105",
      "street": "R JOÃO AFONSO",
      "house": "38",
      "postcode": "2540-513",
      "city": "PÓ",
      "lon": "-9.222205512809103",
      "lat": "39.3142149417736"
    },
    {
      "id": "pt.ine.add.PTCONT.2101434",
      "street": "R JOÃO AFONSO",
      "house": "32",
      "postcode": "2540-513",
      "city": "PÓ",
      "lon": "-9.221192595230372",
      "lat": "39.31319762311036"
    },
    {
      "id": "pt.ine.add.PTCONT.2127274",
      "street": "R D MARIA TELES DO PO",
      "house": "38A",
      "postcode": "2540-509",
      "city": "PÓ",
      "lon": "-9.220371999739243",
      "lat": "39.31336741575362"
    },
    {
      "id": "pt.ine.add.PTCONT.2131863",
      "street": "R D MARIA TELES DO PO",
      "house": "18",
      "postcode": "2540-509",
      "city": "PÓ",
      "lon": "-9.217873005584266",
      "lat": "39.31221982784902"
    },
    {
      "id": "pt.ine.add.PTCONT.2168513",
      "street": "R D MARIA TELES DO PO",
      "house": "34",
      "postcode": "2540-509",
      "city": "PÓ",
      "lon": "-9.219353933990227",
      "lat": "39.31276444832754"
    },
    {
      "id": "pt.ine.add.PTCONT.2174072",
      "street": "R D MARIA TELES DO PO",
      "house": "38",
      "postcode": "2540-509",
      "city": "PÓ",
      "lon": "-9.220309434681349",
      "lat": "39.31307077098601"
    },
    {
      "id": "pt.ine.add.PTCONT.2177067",
      "street": "R D MARIA TELES DO PO",
      "house": "26A",
      "postcode": "2540-509",
      "city": "PÓ",
      "lon": "-9.218510709438695",
      "lat": "39.312970466801225"
    },
    {
      "id": "pt.ine.add.PTCONT.2177069",
      "street": "R D MARIA TELES DO PO",
      "house": "42",
      "postcode": "2540-509",
      "city": "PÓ",
      "lon": "-9.220521036423214",
      "lat": "39.31325794025992"
    },
    {
      "id": "pt.ine.add.PTCONT.2208462",
      "street": "R D MARIA TELES DO PO",
      "house": "38B",
      "postcode": "2540-509",
      "city": "PÓ",
      "lon": "-9.22040928811774",
      "lat": "39.31352919243362"
    },
    {
      "id": "pt.ine.add.PTCONT.2210609",
      "street": "R D MARIA TELES DO PO",
      "house": "22",
      "postcode": "2540-509",
      "city": "PÓ",
      "lon": "-9.218361714880238",
      "lat": "39.31233236286272"
    },
    {
      "id": "pt.ine.add.PTCONT.2230630",
      "street": "R JOÃO AFONSO",
      "house": "36",
      "postcode": "2540-513",
      "city": "PÓ",
      "lon": "-9.222075614258394",
      "lat": "39.31406303907228"
    },
    {
      "id": "pt.ine.add.PTCONT.2247730",
      "street": "R D MARIA TELES DO PO",
      "house": "30",
      "postcode": "2540-509",
      "city": "PÓ",
      "lon": "-9.219212590600778",
      "lat": "39.3126216560971"
    },
    {
      "id": "pt.ine.add.PTCONT.2250180",
      "street": "BC BREJOS",
      "house": "8",
      "postcode": "2540-495",
      "city": "PÓ",
      "lon": "-9.219845435857327",
      "lat": "39.31305708989759"
    }
  ]
}