{
  "data": {
    "distrito": "Faro",
    "concelho": "Castro Marim",
    "freguesia": "Castro Marim",
    "OBJECTID": 275,
    "BGRI2021": "08040200103",
    "DT21": "08",
    "DTMN21": "0804",
    "DTMNFR21": "080402",
    "DTMNFRSEC21": "080402001",
    "SECNUM21": "001",
    "SSNUM21": "03",
    "SECSSNUM21": "00103",
    "OBJECTID_1": 65759,
    "DT": "08",
    "CC": "04",
    "fr": "02",
    "SEC": "001",
    "SS": "03"
  },
  "addresses": [
    {
      "id": "pt.ine.add.PTCONT.1475521",
      "street": "",
      "house": "",
      "postcode": "8950-258",
      "city": "CASTRO MARIM",
      "lon": "-7.5189911473439235",
      "lat": "37.219982645413005"
    },
    {
      "id": "pt.ine.add.PTCONT.1605058",
      "street": "",
      "house": "",
      "postcode": "8950-255",
      "city": "CASTRO MARIM",
      "lon": "-7.5301049164740075",
      "lat": "37.22364388957055"
    },
    {
      "id": "pt.ine.add.PTCONT.1635433",
      "street": "",
      "house": "",
      "postcode": "8950-255",
      "city": "CASTRO MARIM",
      "lon": "-7.531587319297094",
      "lat": "37.22567875589188"
    },
    {
      "id": "pt.ine.add.PTCONT.1648075",
      "street": "CAM 1132-1",
      "house": "",
      "postcode": "8950-255",
      "city": "CASTRO MARIM",
      "lon": "-7.531304993741339",
      "lat": "37.22575841474727"
    },
    {
      "id": "pt.ine.add.PTCONT.1672938",
      "street": "",
      "house": "",
      "postcode": "8950-258",
      "city": "CASTRO MARIM",
      "lon": "-7.518293948514776",
      "lat": "37.219816842089735"
    },
    {
      "id": "pt.ine.add.PTCONT.1698366",
      "street": "QTA MONTE MARAVELHA",
      "house": "",
      "postcode": "8950-258",
      "city": "CASTRO MARIM",
      "lon": "-7.5208656196222154",
      "lat": "37.222253947072424"
    },
    {
      "id": "pt.ine.add.PTCONT.1749456",
      "street": "",
      "house": "",
      "postcode": "8950-258",
      "city": "CASTRO MARIM",
      "lon": "-7.51839870897217",
      "lat": "37.21940290979473"
    },
    {
      "id": "pt.ine.add.PTCONT.1759894",
      "street": "",
      "house": "",
      "postcode": "8950-255",
      "city": "CASTRO MARIM",
      "lon": "-7.530240550087574",
      "lat": "37.2235905179644"
    },
    {
      "id": "pt.ine.add.PTCONT.1821367",
      "street": "",
      "house": "",
      "postcode": "8950-258",
      "city": "CASTRO MARIM",
      "lon": "-7.518501055890249",
      "lat": "37.21928630638975"
    },
    {
      "id": "pt.ine.add.PTCONT.1836175",
      "street": "",
      "house": "",
      "postcode": "8950-258",
      "city": "CASTRO MARIM",
      "lon": "-7.518396296161127",
      "lat": "37.21970023878991"
    }
  ]
}