{
  "data": {
    "distrito": "Portalegre",
    "concelho": "Marvão",
    "freguesia": "Santo António das Areias",
    "OBJECTID": 84,
    "BGRI2021": "12100300144",
    "DT21": "12",
    "DTMN21": "1210",
    "DTMNFR21": "121003",
    "DTMNFRSEC21": "121003001",
    "SECNUM21": "001",
    "SSNUM21": "44",
    "SECSSNUM21": "00144",
    "OBJECTID_1": 122823,
    "DT": "12",
    "CC": "10",
    "fr": "03",
    "SEC": "001",
    "SS": "44"
  },
  "addresses": [
    {
      "id": "pt.ine.add.PTCONT.3536514",
      "street": "R JOSE CARRILHO VIDEIRA",
      "house": "8",
      "postcode": "7330-268",
      "city": "SANTO ANTÓNIO DAS AREIAS",
      "lon": "-7.348363798947692",
      "lat": "39.41512033854877"
    },
    {
      "id": "pt.ine.add.PTCONT.3475680",
      "street": "R JOSE CARRILHO VIDEIRA",
      "house": "",
      "postcode": "7330-268",
      "city": "SANTO ANTÓNIO DAS AREIAS",
      "lon": "-7.348778056787921",
      "lat": "39.41545638926167"
    },
    {
      "id": "pt.ine.add.PTCONT.3477506",
      "street": "CANTINHO FLORES",
      "house": "3A",
      "postcode": "7330-268",
      "city": "SANTO ANTÓNIO DAS AREIAS",
      "lon": "-7.348399439406103",
      "lat": "39.41504852342331"
    },
    {
      "id": "pt.ine.add.PTCONT.3477507",
      "street": "LG RICARDO VAZ MONTEIRO",
      "house": "2",
      "postcode": "7330-260",
      "city": "SANTO ANTÓNIO DAS AREIAS",
      "lon": "-7.3494770329154075",
      "lat": "39.415253940217305"
    },
    {
      "id": "pt.ine.add.PTCONT.3484341",
      "street": "R JOSE CARRILHO VIDEIRA",
      "house": "4",
      "postcode": "7330-268",
      "city": "SANTO ANTÓNIO DAS AREIAS",
      "lon": "-7.348559064068166",
      "lat": "39.4153108014366"
    },
    {
      "id": "pt.ine.add.PTCONT.3484780",
      "street": "LG RICARDO VAZ MONTEIRO",
      "house": "3",
      "postcode": "7330-260",
      "city": "SANTO ANTÓNIO DAS AREIAS",
      "lon": "-7.3493472958037245",
      "lat": "39.41543320505913"
    },
    {
      "id": "pt.ine.add.PTCONT.3485431",
      "street": "R JOSE CARRILHO VIDEIRA",
      "house": "4B",
      "postcode": "7330-268",
      "city": "SANTO ANTÓNIO DAS AREIAS",
      "lon": "-7.348478696289214",
      "lat": "39.415229196899965"
    },
    {
      "id": "pt.ine.add.PTCONT.3491976",
      "street": "LG RICARDO VAZ MONTEIRO",
      "house": "5A",
      "postcode": "7330-260",
      "city": "SANTO ANTÓNIO DAS AREIAS",
      "lon": "-7.349229068127742",
      "lat": "39.41562155424854"
    },
    {
      "id": "pt.ine.add.PTCONT.3507359",
      "street": "CANTINHO DAS FLORES",
      "house": "8",
      "postcode": "7330-268",
      "city": "SANTO ANTÓNIO DAS AREIAS",
      "lon": "-7.348563505987434",
      "lat": "39.4149145258812"
    },
    {
      "id": "pt.ine.add.PTCONT.3513075",
      "street": "CANTINHO DAS FLORES",
      "house": "6",
      "postcode": "7330-268",
      "city": "SANTO ANTÓNIO DAS AREIAS",
      "lon": "-7.348516456814764",
      "lat": "39.41496825022541"
    },
    {
      "id": "pt.ine.add.PTCONT.3514884",
      "street": "R JOSE CARRILHO VIDEIRA",
      "house": "",
      "postcode": "7330-268",
      "city": "SANTO ANTÓNIO DAS AREIAS",
      "lon": "-7.347987913457084",
      "lat": "39.4144693023019"
    },
    {
      "id": "pt.ine.add.PTCONT.3520421",
      "street": "R MERCADO",
      "house": "16",
      "postcode": "7330-264",
      "city": "SANTO ANTÓNIO DAS AREIAS",
      "lon": "-7.349416947433253",
      "lat": "39.41439787573941"
    },
    {
      "id": "pt.ine.add.PTCONT.3520422",
      "street": "R MERCADO",
      "house": "16",
      "postcode": "7330-264",
      "city": "SANTO ANTÓNIO DAS AREIAS",
      "lon": "-7.349416947433253",
      "lat": "39.41439787573941"
    },
    {
      "id": "pt.ine.add.PTCONT.3522907",
      "street": "CANTINHO DAS FLORES",
      "house": "4",
      "postcode": "7330-268",
      "city": "SANTO ANTÓNIO DAS AREIAS",
      "lon": "-7.348481018443598",
      "lat": "39.415022052864146"
    },
    {
      "id": "pt.ine.add.PTCONT.3527403",
      "street": "AV 25 DE ABRIL",
      "house": "1",
      "postcode": "7330-251",
      "city": "SANTO ANTÓNIO DAS AREIAS",
      "lon": "-7.349675224961626",
      "lat": "39.415183219589565"
    },
    {
      "id": "pt.ine.add.PTCONT.3529125",
      "street": "R JOSE CARRILHO VIDEIRA",
      "house": "2",
      "postcode": "7330-268",
      "city": "SANTO ANTÓNIO DAS AREIAS",
      "lon": "-7.34863973486465",
      "lat": "39.41536538713131"
    },
    {
      "id": "pt.ine.add.PTCONT.3529126",
      "street": "R JOSE CARRILHO VIDEIRA",
      "house": "2",
      "postcode": "7330-268",
      "city": "SANTO ANTÓNIO DAS AREIAS",
      "lon": "-7.34863973486465",
      "lat": "39.41536538713131"
    },
    {
      "id": "pt.ine.add.PTCONT.3531119",
      "street": "R JOÃO NUNES SEQUIRA",
      "house": "2A",
      "postcode": "7330-267",
      "city": "SANTO ANTÓNIO DAS AREIAS",
      "lon": "-7.3489623184083674",
      "lat": "39.415592735620955"
    },
    {
      "id": "pt.ine.add.PTCONT.3531120",
      "street": "R JOÃO NUNES SEQUIRA",
      "house": "2A",
      "postcode": "7330-267",
      "city": "SANTO ANTÓNIO DAS AREIAS",
      "lon": "-7.3489623184083674",
      "lat": "39.415592735620955"
    }
  ]
}