{
  "data": {
    "distrito": "Lisboa",
    "concelho": "Cascais",
    "freguesia": "União das freguesias de Carcavelos e Parede",
    "OBJECTID": 285,
    "BGRI2021": "11050702509",
    "DT21": "11",
    "DTMN21": "1105",
    "DTMNFR21": "110507",
    "DTMNFRSEC21": "110507025",
    "SECNUM21": "025",
    "SSNUM21": "09",
    "SECSSNUM21": "02509",
    "OBJECTID_1": 101951,
    "DT": "11",
    "CC": "05",
    "fr": "07",
    "SEC": "025",
    "SS": "09"
  },
  "addresses": [
    {
      "id": "pt.ine.add.PTCONT.3202830",
      "street": "R FILIPE RODRIGUES DA SILVA",
      "house": "272",
      "postcode": "2775-090",
      "city": "PAREDE",
      "lon": "-9.3711130689548",
      "lat": "38.70342774692463"
    },
    {
      "id": "pt.ine.add.PTCONT.3202837",
      "street": "R FILIPE RODRIGUES DA SILVA",
      "house": "272",
      "postcode": "2775-090",
      "city": "PAREDE",
      "lon": "-9.3711130689548",
      "lat": "38.70342774692463"
    },
    {
      "id": "pt.ine.add.PTCONT.3222736",
      "street": "R FILIPE RODRIGUES DA SILVA",
      "house": "334",
      "postcode": "2775-090",
      "city": "PAREDE",
      "lon": "-9.371776883094707",
      "lat": "38.703258576681726"
    },
    {
      "id": "pt.ine.add.PTCONT.3241657",
      "street": "R FILIPE RODRIGUES DA SILVA",
      "house": "374 ANEXO",
      "postcode": "2775-090",
      "city": "PAREDE",
      "lon": "-9.372253081443512",
      "lat": "38.70354177861649"
    },
    {
      "id": "pt.ine.add.PTCONT.3278234",
      "street": "R FILIPE RODRIGUES DA SILVA",
      "house": "346 ETA",
      "postcode": "2775-090",
      "city": "PAREDE",
      "lon": "-9.371945248620078",
      "lat": "38.703689164705395"
    },
    {
      "id": "pt.ine.add.PTCONT.3405151",
      "street": "R FILIPE RODRIGUES DA SILVA PORTAO VERDE",
      "house": "330",
      "postcode": "2775-090",
      "city": "PAREDE",
      "lon": "-9.3718088825464",
      "lat": "38.70378068700273"
    },
    {
      "id": "pt.ine.add.PTCONT.3405313",
      "street": "R FILIPE RODRIGUES DA SILVA PORTAO VERDE",
      "house": "330",
      "postcode": "2775-090",
      "city": "PAREDE",
      "lon": "-9.3718088825464",
      "lat": "38.70378068700273"
    },
    {
      "id": "pt.ine.add.PTCONT.3415871",
      "street": "R FILIPE RODRIGUES DA SILVA",
      "house": "374 ANE",
      "postcode": "2775-090",
      "city": "PAREDE",
      "lon": "-9.372219534193237",
      "lat": "38.70359618064062"
    },
    {
      "id": "pt.ine.add.PTCONT.3424887",
      "street": "R FILIPE RODRIGUES DA SILVA",
      "house": "262",
      "postcode": "2775-090",
      "city": "PAREDE",
      "lon": "-9.371011803404304",
      "lat": "38.7035549276172"
    },
    {
      "id": "pt.ine.add.PTCONT.2332281",
      "street": "R FILIPE RODRIGUES DA SILVA",
      "house": "346 A B",
      "postcode": "2775-090",
      "city": "PAREDE",
      "lon": "-9.371909369929053",
      "lat": "38.70360847514093"
    },
    {
      "id": "pt.ine.add.PTCONT.2332282",
      "street": "R FILIPE RODRIGUES DA SILVA",
      "house": "346 A B",
      "postcode": "2775-090",
      "city": "PAREDE",
      "lon": "-9.371909369929053",
      "lat": "38.70360847514093"
    },
    {
      "id": "pt.ine.add.PTCONT.2332283",
      "street": "R FILIPE RODRIGUES DA SILVA",
      "house": "364",
      "postcode": "2775-090",
      "city": "PAREDE",
      "lon": "-9.372094817419327",
      "lat": "38.70369658755498"
    },
    {
      "id": "pt.ine.add.PTCONT.2396370",
      "street": "R DR MÁRIO AMARAL QTA BOUGAINVILLEA",
      "house": "328",
      "postcode": "2775-124",
      "city": "PAREDE",
      "lon": "-9.369251756342734",
      "lat": "38.70415004531383"
    },
    {
      "id": "pt.ine.add.PTCONT.2396371",
      "street": "R DR MÁRIO AMARAL QTA BOUGAINVILLEA",
      "house": "328",
      "postcode": "2775-124",
      "city": "PAREDE",
      "lon": "-9.369251756342734",
      "lat": "38.70415004531383"
    },
    {
      "id": "pt.ine.add.PTCONT.2523362",
      "street": "R DR MÁRIO AMARAL",
      "house": "184",
      "postcode": "2775-124",
      "city": "PAREDE",
      "lon": "-9.368466899350716",
      "lat": "38.70530232479743"
    },
    {
      "id": "pt.ine.add.PTCONT.2561179",
      "street": "R FILIPE RODRIGUES DA SILVA",
      "house": "260",
      "postcode": "2775-090",
      "city": "PAREDE",
      "lon": "-9.370861924421252",
      "lat": "38.70352949116698"
    },
    {
      "id": "pt.ine.add.PTCONT.2570014",
      "street": "R FILIPE RODRIGUES DA SILVA",
      "house": "320",
      "postcode": "2775-090",
      "city": "PAREDE",
      "lon": "-9.371609766636437",
      "lat": "38.7035666104641"
    },
    {
      "id": "pt.ine.add.PTCONT.2570015",
      "street": "R FILIPE RODRIGUES DA SILVA",
      "house": "320",
      "postcode": "2775-090",
      "city": "PAREDE",
      "lon": "-9.371609766636437",
      "lat": "38.7035666104641"
    },
    {
      "id": "pt.ine.add.PTCONT.2570229",
      "street": "R FILIPE RODRIGUES DA SILVA",
      "house": "320",
      "postcode": "2775-090",
      "city": "PAREDE",
      "lon": "-9.371609766636437",
      "lat": "38.7035666104641"
    },
    {
      "id": "pt.ine.add.PTCONT.2596206",
      "street": "R DR MÁRIO AMARAL",
      "house": "",
      "postcode": "2775-124",
      "city": "PAREDE",
      "lon": "-9.370793737508807",
      "lat": "38.70424182505604"
    },
    {
      "id": "pt.ine.add.PTCONT.2675204",
      "street": "R FILIPE RODRIGUES DA SILVA",
      "house": "296",
      "postcode": "2775-090",
      "city": "PAREDE",
      "lon": "-9.371364989460652",
      "lat": "38.70337103266593"
    },
    {
      "id": "pt.ine.add.PTCONT.2761070",
      "street": "R FILIPE RODRIGUES DA SILVA PORTAO VERDE",
      "house": "",
      "postcode": "2775-090",
      "city": "PAREDE",
      "lon": "-9.371795524451745",
      "lat": "38.70367273556328"
    },
    {
      "id": "pt.ine.add.PTCONT.2898149",
      "street": "R FILIPE RODRIGUES DA SILVA",
      "house": "346",
      "postcode": "2775-090",
      "city": "PAREDE",
      "lon": "-9.372024147738424",
      "lat": "38.70359825121066"
    },
    {
      "id": "pt.ine.add.PTCONT.2898150",
      "street": "R FILIPE RODRIGUES DA SILVA",
      "house": "346",
      "postcode": "2775-090",
      "city": "PAREDE",
      "lon": "-9.372024147738424",
      "lat": "38.70359825121066"
    },
    {
      "id": "pt.ine.add.PTCONT.2898151",
      "street": "R FILIPE RODRIGUES DA SILVA",
      "house": "346",
      "postcode": "2775-090",
      "city": "PAREDE",
      "lon": "-9.372024147738424",
      "lat": "38.70359825121066"
    }
  ]
}