{
  "data": {
    "distrito": "Lisboa",
    "concelho": "Mafra",
    "freguesia": "União das freguesias de Venda do Pinheiro e Santo Estêvão das Galés",
    "OBJECTID": 161,
    "BGRI2021": "11092200609",
    "DT21": "11",
    "DTMN21": "1109",
    "DTMNFR21": "110922",
    "DTMNFRSEC21": "110922006",
    "SECNUM21": "006",
    "SSNUM21": "09",
    "SECSSNUM21": "00609",
    "OBJECTID_1": 109316,
    "DT": "11",
    "CC": "09",
    "fr": "22",
    "SEC": "006",
    "SS": "09"
  },
  "addresses": [
    {
      "id": "pt.ine.add.PTCONT.2426900",
      "street": "CSL CASAIS DO CUCO",
      "house": "",
      "postcode": "2665-411",
      "city": "SANTO ESTEVÃO DAS GALÉS",
      "lon": "-9.251314208069305",
      "lat": "38.91004597421651"
    },
    {
      "id": "pt.ine.add.PTCONT.2463038",
      "street": "R ESCOLA CANTO DA VELHA",
      "house": "",
      "postcode": "2665-402",
      "city": "SANTO ESTEVÃO DAS GALÉS",
      "lon": "-9.255956477865347",
      "lat": "38.90980324957817"
    },
    {
      "id": "pt.ine.add.PTCONT.2500117",
      "street": "LG PORTELA",
      "house": "",
      "postcode": "2665-411",
      "city": "SANTO ESTEVÃO DAS GALÉS",
      "lon": "-9.249291010598647",
      "lat": "38.9089484027646"
    },
    {
      "id": "pt.ine.add.PTCONT.2668889",
      "street": "ESTR VALE BOM",
      "house": "3",
      "postcode": "2665-411",
      "city": "SANTO ESTEVÃO DAS GALÉS",
      "lon": "-9.248271067482856",
      "lat": "38.91007508381183"
    },
    {
      "id": "pt.ine.add.PTCONT.2777147",
      "street": "CSL CUCO",
      "house": "",
      "postcode": "2665-411",
      "city": "SANTO ESTEVÃO DAS GALÉS",
      "lon": "-9.25181637432868",
      "lat": "38.91045550920953"
    },
    {
      "id": "pt.ine.add.PTCONT.2823960",
      "street": "CSL CUCO",
      "house": "",
      "postcode": "2665-411",
      "city": "SANTO ESTEVÃO DAS GALÉS",
      "lon": "-9.251363425390153",
      "lat": "38.91024366833515"
    },
    {
      "id": "pt.ine.add.PTCONT.2855865",
      "street": "PORTELA DO ROGEL",
      "house": "",
      "postcode": "2665-411",
      "city": "SANTO ESTEVÃO DAS GALÉS",
      "lon": "-9.248489658648756",
      "lat": "38.910045972908584"
    },
    {
      "id": "pt.ine.add.PTCONT.2896404",
      "street": "CSL CUCO",
      "house": "",
      "postcode": "2665-411",
      "city": "SANTO ESTEVÃO DAS GALÉS",
      "lon": "-9.251406503718304",
      "lat": "38.909315480472145"
    },
    {
      "id": "pt.ine.add.PTCONT.3012170",
      "street": "R ESCOLA",
      "house": "",
      "postcode": "2665-402",
      "city": "SANTO ESTEVÃO DAS GALÉS",
      "lon": "-9.255499370264154",
      "lat": "38.910059855997346"
    },
    {
      "id": "pt.ine.add.PTCONT.3021275",
      "street": "CSL CUCO",
      "house": "25",
      "postcode": "2665-411",
      "city": "SANTO ESTEVÃO DAS GALÉS",
      "lon": "-9.249402752500636",
      "lat": "38.90872214609316"
    },
    {
      "id": "pt.ine.add.PTCONT.3105519",
      "street": "ESTR PORTELA ROGEL",
      "house": "510",
      "postcode": "2665-411",
      "city": "SANTO ESTEVÃO DAS GALÉS",
      "lon": "-9.249467722815274",
      "lat": "38.90918991630969"
    },
    {
      "id": "pt.ine.add.PTCONT.3105714",
      "street": "ESTR PORTELA DO ROGEL",
      "house": "",
      "postcode": "2665-411",
      "city": "SANTO ESTEVÃO DAS GALÉS",
      "lon": "-9.249467722815274",
      "lat": "38.90918991630969"
    },
    {
      "id": "pt.ine.add.PTCONT.3280756",
      "street": "CSL CUCO",
      "house": "",
      "postcode": "2665-411",
      "city": "SANTO ESTEVÃO DAS GALÉS",
      "lon": "-9.25164227234564",
      "lat": "38.90964650018954"
    },
    {
      "id": "pt.ine.add.PTCONT.3444223",
      "street": "CSL CUCO",
      "house": "",
      "postcode": "2665-411",
      "city": "SANTO ESTEVÃO DAS GALÉS",
      "lon": "-9.251786599983317",
      "lat": "38.91076205037536"
    }
  ]
}