{
  "data": {
    "distrito": "Porto",
    "concelho": "Felgueiras",
    "freguesia": "Uni√£o das freguesias de Macieira da Lixa e Caramos",
    "OBJECTID": 1067,
    "BGRI2021": "13033400314",
    "DT21": "13",
    "DTMN21": "1303",
    "DTMNFR21": "130334",
    "DTMNFRSEC21": "130334003",
    "SECNUM21": "003",
    "SSNUM21": "14",
    "SECSSNUM21": "00314",
    "OBJECTID_1": 128022,
    "DT": "13",
    "CC": "03",
    "fr": "34",
    "SEC": "003",
    "SS": "14"
  },
  "addresses": [
    {
      "id": "pt.ine.add.PTCONT.3566015",
      "street": "TV SENHOR DAS PEDRAS",
      "house": "70",
      "postcode": "4615-380",
      "city": "CARAMOS",
      "lon": "-8.164066706892095",
      "lat": "41.34650165339282"
    },
    {
      "id": "pt.ine.add.PTCONT.3566016",
      "street": "TV SENHOR DAS PEDRAS",
      "house": "",
      "postcode": "4615-380",
      "city": "CARAMOS",
      "lon": "-8.164090240950069",
      "lat": "41.345736299174554"
    },
    {
      "id": "pt.ine.add.PTCONT.3585083",
      "street": "R D NUNO MENDES",
      "house": "106",
      "postcode": "4610-020",
      "city": "CARAMOS",
      "lon": "-8.165426476649777",
      "lat": "41.341747116971895"
    },
    {
      "id": "pt.ine.add.PTCONT.3623711",
      "street": "TV SENHOR DAS PEDRAS",
      "house": "92",
      "postcode": "4615-380",
      "city": "CARAMOS",
      "lon": "-8.163923406450486",
      "lat": "41.34667276959824"
    },
    {
      "id": "pt.ine.add.PTCONT.3643127",
      "street": "R D NUNO MENDES",
      "house": "N 50",
      "postcode": "4610-020",
      "city": "CARAMOS",
      "lon": "-8.165605448274421",
      "lat": "41.34126084517844"
    },
    {
      "id": "pt.ine.add.PTCONT.3684515",
      "street": "TV SENHOR DAS PEDRAS",
      "house": "31",
      "postcode": "4615-380",
      "city": "CARAMOS",
      "lon": "-8.164341344254215",
      "lat": "41.34613241140063"
    },
    {
      "id": "pt.ine.add.PTCONT.3684640",
      "street": "R S MARTINHO",
      "house": "638",
      "postcode": "4615-380",
      "city": "CARAMOS",
      "lon": "-8.163442914953361",
      "lat": "41.34117139444847"
    },
    {
      "id": "pt.ine.add.PTCONT.3734242",
      "street": "R 25 DE ABRIL",
      "house": "28",
      "postcode": "4615-380",
      "city": "CARAMOS",
      "lon": "-8.167661402495247",
      "lat": "41.343133098885836"
    },
    {
      "id": "pt.ine.add.PTCONT.3739427",
      "street": "R 25 DE ABRIL",
      "house": "28",
      "postcode": "4615-380",
      "city": "CARAMOS",
      "lon": "-8.167661402495247",
      "lat": "41.343133098885836"
    },
    {
      "id": "pt.ine.add.PTCONT.3751897",
      "street": "R MONA",
      "house": "",
      "postcode": "4615-380",
      "city": "CARAMOS",
      "lon": "-8.165989085167052",
      "lat": "41.34388092883016"
    },
    {
      "id": "pt.ine.add.PTCONT.3765966",
      "street": "R 25 DE ABRIL",
      "house": "",
      "postcode": "4615-380",
      "city": "CARAMOS",
      "lon": "-8.166718122823033",
      "lat": "41.34429490665792"
    },
    {
      "id": "pt.ine.add.PTCONT.3784036",
      "street": "R MONA",
      "house": "",
      "postcode": "4615-380",
      "city": "CARAMOS",
      "lon": "-8.166180338856753",
      "lat": "41.344051951859115"
    },
    {
      "id": "pt.ine.add.PTCONT.3852593",
      "street": "R SENHOR DAS PEDRAS",
      "house": "110",
      "postcode": "4615-380",
      "city": "CARAMOS",
      "lon": "-8.163648629820958",
      "lat": "41.34675387966598"
    },
    {
      "id": "pt.ine.add.PTCONT.3889272",
      "street": "R S MARTINHO",
      "house": "764",
      "postcode": "4610-020",
      "city": "CARAMOS",
      "lon": "-8.165545518823771",
      "lat": "41.34087368575445"
    },
    {
      "id": "pt.ine.add.PTCONT.3909382",
      "street": "R S MARTINHO",
      "house": "782",
      "postcode": "4610-020",
      "city": "CARAMOS",
      "lon": "-8.165724765705297",
      "lat": "41.34094566790544"
    },
    {
      "id": "pt.ine.add.PTCONT.3944096",
      "street": "TV SENHOR DAS PEDRAS",
      "house": "16",
      "postcode": "4615-380",
      "city": "CARAMOS",
      "lon": "-8.163851567476833",
      "lat": "41.346357645584796"
    },
    {
      "id": "pt.ine.add.PTCONT.3961822",
      "street": "R S MARTINHO",
      "house": "844",
      "postcode": "4610-020",
      "city": "CARAMOS",
      "lon": "-8.166393912314117",
      "lat": "41.341125558347954"
    },
    {
      "id": "pt.ine.add.PTCONT.4220890",
      "street": "R STA MARTA",
      "house": "",
      "postcode": "4615-380",
      "city": "CARAMOS",
      "lon": "-8.168568986580201",
      "lat": "41.342304445815664"
    },
    {
      "id": "pt.ine.add.PTCONT.4220893",
      "street": "R S MARTINHO",
      "house": "750",
      "postcode": "4610-020",
      "city": "CARAMOS",
      "lon": "-8.165366325653906",
      "lat": "41.34090975252061"
    },
    {
      "id": "pt.ine.add.PTCONT.4227072",
      "street": "R MONA",
      "house": "30",
      "postcode": "4615-380",
      "city": "CARAMOS",
      "lon": "-8.166443272412598",
      "lat": "41.34420494563508"
    },
    {
      "id": "pt.ine.add.PTCONT.4232931",
      "street": "R MONA",
      "house": "30",
      "postcode": "4615-380",
      "city": "CARAMOS",
      "lon": "-8.166443272412598",
      "lat": "41.34420494563508"
    },
    {
      "id": "pt.ine.add.PTCONT.4240483",
      "street": "R S MARTINHO",
      "house": "",
      "postcode": "4610-020",
      "city": "CARAMOS",
      "lon": "-8.16604744556724",
      "lat": "41.34114366622585"
    },
    {
      "id": "pt.ine.add.PTCONT.4284175",
      "street": "R S MARTINHO",
      "house": "",
      "postcode": "4610-020",
      "city": "CARAMOS",
      "lon": "-8.16706307195714",
      "lat": "41.341323453090915"
    },
    {
      "id": "pt.ine.add.PTCONT.4307144",
      "street": "R STA MARTA",
      "house": "26",
      "postcode": "4615-380",
      "city": "CARAMOS",
      "lon": "-8.168341704463534",
      "lat": "41.34179128196745"
    },
    {
      "id": "pt.ine.add.PTCONT.4359167",
      "street": "R 25 DE ABRIL",
      "house": "66",
      "postcode": "4615-380",
      "city": "CARAMOS",
      "lon": "-8.167458393840723",
      "lat": "41.34333124979289"
    },
    {
      "id": "pt.ine.add.PTCONT.4359172",
      "street": "R D NUNO MENDES",
      "house": "82",
      "postcode": "4610-020",
      "city": "CARAMOS",
      "lon": "-8.16528295086965",
      "lat": "41.341432013688426"
    }
  ]
}