{
  "data": {
    "distrito": "Ã‰vora",
    "concelho": "Borba",
    "freguesia": "Rio de Moinhos",
    "OBJECTID": 58,
    "BGRI2021": "07030300123",
    "DT21": "07",
    "DTMN21": "0703",
    "DTMNFR21": "070303",
    "DTMNFRSEC21": "070303001",
    "SECNUM21": "001",
    "SSNUM21": "23",
    "SECSSNUM21": "00123",
    "OBJECTID_1": 59111,
    "DT": "07",
    "CC": "03",
    "fr": "03",
    "SEC": "001",
    "SS": "23"
  },
  "addresses": [
    {
      "id": "pt.ine.add.PTCONT.1369916",
      "street": "MTE DA GREDEIRA",
      "house": "",
      "postcode": "7150-328",
      "city": "RIO DE MOINHOS BRB",
      "lon": "-7.504790553408361",
      "lat": "38.78825789392061"
    },
    {
      "id": "pt.ine.add.PTCONT.1374646",
      "street": "R BUSCANHAS",
      "house": "21",
      "postcode": "7150-371",
      "city": "RIO DE MOINHOS BRB",
      "lon": "-7.5011935984018665",
      "lat": "38.796760023292705"
    },
    {
      "id": "pt.ine.add.PTCONT.1378298",
      "street": "MTE TALISCA",
      "house": "",
      "postcode": "7150-326",
      "city": "RIO DE MOINHOS BRB",
      "lon": "-7.488231871395795",
      "lat": "38.78021365621289"
    },
    {
      "id": "pt.ine.add.PTCONT.1379839",
      "street": "QTA NOVA DA RUIVINHA",
      "house": "",
      "postcode": "7150-340",
      "city": "RIO DE MOINHOS BRB",
      "lon": "-7.493368112092268",
      "lat": "38.783673922025294"
    },
    {
      "id": "pt.ine.add.PTCONT.1384772",
      "street": "MTE DA GREDEIRA",
      "house": "",
      "postcode": "7150-328",
      "city": "RIO DE MOINHOS BRB",
      "lon": "-7.50596075272161",
      "lat": "38.78868755429666"
    },
    {
      "id": "pt.ine.add.PTCONT.1395597",
      "street": "R BUSCANHAS",
      "house": "5",
      "postcode": "7150-371",
      "city": "RIO DE MOINHOS BRB",
      "lon": "-7.500700965596052",
      "lat": "38.79649612760544"
    },
    {
      "id": "pt.ine.add.PTCONT.1396477",
      "street": "R ALDEIA",
      "house": "",
      "postcode": "7150-364",
      "city": "RIO DE MOINHOS BRB",
      "lon": "-7.504237439507135",
      "lat": "38.798812240879464"
    },
    {
      "id": "pt.ine.add.PTCONT.1397025",
      "street": "R BUSCANHAS",
      "house": "15",
      "postcode": "7150-371",
      "city": "RIO DE MOINHOS BRB",
      "lon": "-7.50108857401018",
      "lat": "38.79692159833737"
    },
    {
      "id": "pt.ine.add.PTCONT.1397026",
      "street": "R BUSCANHAS",
      "house": "17",
      "postcode": "7150-371",
      "city": "RIO DE MOINHOS BRB",
      "lon": "-7.50108857401018",
      "lat": "38.79692159833737"
    },
    {
      "id": "pt.ine.add.PTCONT.1402409",
      "street": "R BUSCANHAS",
      "house": "13",
      "postcode": "7150-371",
      "city": "RIO DE MOINHOS BRB",
      "lon": "-7.50100744501132",
      "lat": "38.79698421512503"
    },
    {
      "id": "pt.ine.add.PTCONT.1410923",
      "street": "MTE DA GREDEIRA",
      "house": "",
      "postcode": "7150-328",
      "city": "RIO DE MOINHOS BRB",
      "lon": "-7.507791467393284",
      "lat": "38.78860728551766"
    },
    {
      "id": "pt.ine.add.PTCONT.1417961",
      "street": "MTE DA GREDEIRA",
      "house": "",
      "postcode": "7150-328",
      "city": "RIO DE MOINHOS BRB",
      "lon": "-7.507918852777919",
      "lat": "38.7885178874803"
    },
    {
      "id": "pt.ine.add.PTCONT.1421214",
      "street": "R BUSCANHAS",
      "house": "3",
      "postcode": "7150-371",
      "city": "RIO DE MOINHOS BRB",
      "lon": "-7.500598249395661",
      "lat": "38.79639648420825"
    },
    {
      "id": "pt.ine.add.PTCONT.1428473",
      "street": "QTA DO MORGADO",
      "house": "",
      "postcode": "7150-329",
      "city": "RIO DE MOINHOS BRB",
      "lon": "-7.501329334677536",
      "lat": "38.78659978301533"
    },
    {
      "id": "pt.ine.add.PTCONT.1432227",
      "street": "R BUSCANHAS",
      "house": "7",
      "postcode": "7150-371",
      "city": "RIO DE MOINHOS BRB",
      "lon": "-7.500861472021058",
      "lat": "38.796569059773944"
    },
    {
      "id": "pt.ine.add.PTCONT.1432439",
      "street": "R BUSCANHAS",
      "house": "25",
      "postcode": "7150-371",
      "city": "RIO DE MOINHOS BRB",
      "lon": "-7.501192882514392",
      "lat": "38.79684109095347"
    },
    {
      "id": "pt.ine.add.PTCONT.1434124",
      "street": "R BUSCANHAS",
      "house": "1",
      "postcode": "7150-371",
      "city": "RIO DE MOINHOS BRB",
      "lon": "-7.500528073407665",
      "lat": "38.796522215595814"
    },
    {
      "id": "pt.ine.add.PTCONT.1440822",
      "street": "R BUSCANHAS",
      "house": "",
      "postcode": "7150-371",
      "city": "RIO DE MOINHOS BRB",
      "lon": "-7.501423247100937",
      "lat": "38.796824320641875"
    },
    {
      "id": "pt.ine.add.PTCONT.1441490",
      "street": "R ALDEIA",
      "house": "35",
      "postcode": "7150-364",
      "city": "RIO DE MOINHOS BRB",
      "lon": "-7.504364214423437",
      "lat": "38.79879490722379"
    },
    {
      "id": "pt.ine.add.PTCONT.1446104",
      "street": "MTE DA GREDEIRA",
      "house": "",
      "postcode": "7150-328",
      "city": "RIO DE MOINHOS BRB",
      "lon": "-7.504595851110845",
      "lat": "38.78814875132231"
    },
    {
      "id": "pt.ine.add.PTCONT.1450728",
      "street": "R BUSCANHAS",
      "house": "39",
      "postcode": "7150-344",
      "city": "RIO DE MOINHOS BRB",
      "lon": "-7.502733385655193",
      "lat": "38.79693806086122"
    },
    {
      "id": "pt.ine.add.PTCONT.1452214",
      "street": "R ALDEIA",
      "house": "",
      "postcode": "7150-364",
      "city": "RIO DE MOINHOS BRB",
      "lon": "-7.5042613314970605",
      "lat": "38.798713282056184"
    },
    {
      "id": "pt.ine.add.PTCONT.1455570",
      "street": "R BUSCANHAS",
      "house": "29",
      "postcode": "7150-371",
      "city": "RIO DE MOINHOS BRB",
      "lon": "-7.501500610284312",
      "lat": "38.79683617893785"
    },
    {
      "id": "pt.ine.add.PTCONT.1457554",
      "street": "R BUSCANHAS",
      "house": "37",
      "postcode": "7150-344",
      "city": "RIO DE MOINHOS BRB",
      "lon": "-7.502664879383486",
      "lat": "38.79687463562322"
    },
    {
      "id": "pt.ine.add.PTCONT.1459122",
      "street": "R ALDEIA",
      "house": "",
      "postcode": "7150-364",
      "city": "RIO DE MOINHOS BRB",
      "lon": "-7.504122887754738",
      "lat": "38.79874856868047"
    },
    {
      "id": "pt.ine.add.PTCONT.1459123",
      "street": "MTE DA GREDEIRA",
      "house": "",
      "postcode": "7150-328",
      "city": "RIO DE MOINHOS BRB",
      "lon": "-7.507654304259564",
      "lat": "38.788498455894484"
    },
    {
      "id": "pt.ine.add.PTCONT.1459166",
      "street": "QTA DO MORGADO",
      "house": "",
      "postcode": "7150-329",
      "city": "RIO DE MOINHOS BRB",
      "lon": "-7.501512280667089",
      "lat": "38.78673589140802"
    },
    {
      "id": "pt.ine.add.PTCONT.1459611",
      "street": "MTE DA GREDEIRA",
      "house": "",
      "postcode": "7150-328",
      "city": "RIO DE MOINHOS BRB",
      "lon": "-7.507654304259564",
      "lat": "38.788498455894484"
    },
    {
      "id": "pt.ine.add.PTCONT.1462614",
      "street": "MTE TALISCA",
      "house": "",
      "postcode": "7150-326",
      "city": "RIO DE MOINHOS BRB",
      "lon": "-7.488312911120099",
      "lat": "38.78016005557018"
    },
    {
      "id": "pt.ine.add.PTCONT.1462867",
      "street": "R BUSCANHAS",
      "house": "8",
      "postcode": "7150-371",
      "city": "RIO DE MOINHOS BRB",
      "lon": "-7.500918386570368",
      "lat": "38.796641431300564"
    },
    {
      "id": "pt.ine.add.PTCONT.1465275",
      "street": "R BUSCANHAS",
      "house": "23",
      "postcode": "7150-371",
      "city": "RIO DE MOINHOS BRB",
      "lon": "-7.501361922179854",
      "lat": "38.79676145862819"
    },
    {
      "id": "pt.ine.add.PTCONT.1466617",
      "street": "R BUSCANHAS",
      "house": "35",
      "postcode": "7150-344",
      "city": "RIO DE MOINHOS BRB",
      "lon": "-7.502619235057578",
      "lat": "38.79682934960236"
    }
  ]
}