{
  "data": {
    "distrito": "Viseu",
    "concelho": "Mangualde",
    "freguesia": "União das freguesias de Tavares (Chãs, Várzea e Travanca)",
    "OBJECTID": 222,
    "BGRI2021": "18062200144",
    "DT21": "18",
    "DTMN21": "1806",
    "DTMNFR21": "180622",
    "DTMNFRSEC21": "180622001",
    "SECNUM21": "001",
    "SSNUM21": "44",
    "SECSSNUM21": "00144",
    "OBJECTID_1": 192260,
    "DT": "18",
    "CC": "06",
    "fr": "22",
    "SEC": "001",
    "SS": "44"
  },
  "addresses": [
    {
      "id": "pt.ine.add.PTCONT.5487302",
      "street": "AV BELA VISTA",
      "house": "29",
      "postcode": "3530-380",
      "city": "VÁRZEA DE TAVARES",
      "lon": "-7.585402749964247",
      "lat": "40.61718913413718"
    },
    {
      "id": "pt.ine.add.PTCONT.5503339",
      "street": "AV BELA VISTA",
      "house": "35",
      "postcode": "3530-380",
      "city": "VÁRZEA DE TAVARES",
      "lon": "-7.585392771522366",
      "lat": "40.61696395752058"
    },
    {
      "id": "pt.ine.add.PTCONT.5508776",
      "street": "R CASTELO",
      "house": "3",
      "postcode": "3530-380",
      "city": "VÁRZEA DE TAVARES",
      "lon": "-7.58527408717241",
      "lat": "40.61702643081711"
    },
    {
      "id": "pt.ine.add.PTCONT.5517025",
      "street": "AV BELA VISTA",
      "house": "31",
      "postcode": "3530-380",
      "city": "VÁRZEA DE TAVARES",
      "lon": "-7.58540319120691",
      "lat": "40.61713510519954"
    },
    {
      "id": "pt.ine.add.PTCONT.5536991",
      "street": "AV BELA VISTA",
      "house": "33",
      "postcode": "3530-380",
      "city": "VÁRZEA DE TAVARES",
      "lon": "-7.5854743871819945",
      "lat": "40.61709942212254"
    },
    {
      "id": "pt.ine.add.PTCONT.5545848",
      "street": "R CASTELO",
      "house": "6",
      "postcode": "3530-380",
      "city": "VÁRZEA DE TAVARES",
      "lon": "-7.585014114151996",
      "lat": "40.617025197366914"
    },
    {
      "id": "pt.ine.add.PTCONT.5556681",
      "street": "R CASTELO",
      "house": "8",
      "postcode": "3530-380",
      "city": "VÁRZEA DE TAVARES",
      "lon": "-7.585214119607287",
      "lat": "40.61713420841226"
    },
    {
      "id": "pt.ine.add.PTCONT.5593694",
      "street": "AV BELA VISTA",
      "house": "41",
      "postcode": "3530-380",
      "city": "VÁRZEA DE TAVARES",
      "lon": "-7.585123777726575",
      "lat": "40.61662048499393"
    },
    {
      "id": "pt.ine.add.PTCONT.5597367",
      "street": "AV BELA VISTA",
      "house": "2",
      "postcode": "3530-380",
      "city": "VÁRZEA DE TAVARES",
      "lon": "-7.58524846711331",
      "lat": "40.61726944892308"
    },
    {
      "id": "pt.ine.add.PTCONT.5610013",
      "street": "ESTR PINHEIRO",
      "house": "",
      "postcode": "3530-380",
      "city": "VÁRZEA DE TAVARES",
      "lon": "-7.582094196742111",
      "lat": "40.61858720826506"
    },
    {
      "id": "pt.ine.add.PTCONT.5614197",
      "street": "ESTR PINHEIRO",
      "house": "",
      "postcode": "3530-380",
      "city": "VÁRZEA DE TAVARES",
      "lon": "-7.583158707077036",
      "lat": "40.61847521491894"
    },
    {
      "id": "pt.ine.add.PTCONT.5615511",
      "street": "AV BELA VISTA",
      "house": "27",
      "postcode": "3530-380",
      "city": "VÁRZEA DE TAVARES",
      "lon": "-7.585473578342369",
      "lat": "40.61719847517624"
    },
    {
      "id": "pt.ine.add.PTCONT.5632933",
      "street": "R CASTELO",
      "house": "10",
      "postcode": "3530-380",
      "city": "VÁRZEA DE TAVARES",
      "lon": "-7.585201787660583",
      "lat": "40.617197186111184"
    },
    {
      "id": "pt.ine.add.PTCONT.5638577",
      "street": "AV BELA VISTA",
      "house": "",
      "postcode": "3530-380",
      "city": "VÁRZEA DE TAVARES",
      "lon": "-7.585461320159378",
      "lat": "40.6172524480808"
    },
    {
      "id": "pt.ine.add.PTCONT.5638578",
      "street": "R ESCOLA",
      "house": "4",
      "postcode": "3530-380",
      "city": "VÁRZEA DE TAVARES",
      "lon": "-7.585165159542234",
      "lat": "40.61734109508371"
    },
    {
      "id": "pt.ine.add.PTCONT.5644215",
      "street": "ESTR PINHEIRO",
      "house": "",
      "postcode": "3530-380",
      "city": "VÁRZEA DE TAVARES",
      "lon": "-7.584033327936518",
      "lat": "40.61846136600252"
    },
    {
      "id": "pt.ine.add.PTCONT.5667734",
      "street": "AV BELA VISTA",
      "house": "1",
      "postcode": "3530-380",
      "city": "VÁRZEA DE TAVARES",
      "lon": "-7.585381542919341",
      "lat": "40.61689186289341"
    },
    {
      "id": "pt.ine.add.PTCONT.5669207",
      "street": "R ESCOLA",
      "house": "8",
      "postcode": "3530-380",
      "city": "VÁRZEA DE TAVARES",
      "lon": "-7.584998911843013",
      "lat": "40.61743936310924"
    }
  ]
}