{
  "data": {
    "distrito": "Braga",
    "concelho": "Vizela",
    "freguesia": "Uni達o das freguesias de Caldas de Vizela (S達o Miguel e S達o Jo達o)",
    "OBJECTID": 54,
    "BGRI2021": "03140800813",
    "DT21": "03",
    "DTMN21": "0314",
    "DTMNFR21": "031408",
    "DTMNFRSEC21": "031408008",
    "SECNUM21": "008",
    "SSNUM21": "13",
    "SECSSNUM21": "00813",
    "OBJECTID_1": 33201,
    "DT": "03",
    "CC": "14",
    "fr": "08",
    "SEC": "008",
    "SS": "13"
  },
  "addresses": [
    {
      "id": "pt.ine.add.PTCONT.533735",
      "street": "R JOAQUIM FREITAS RIBEIRO FARIA",
      "house": "106",
      "postcode": "4815-567",
      "city": "VIZELA",
      "lon": "-8.307564528280299",
      "lat": "41.37232331798047"
    },
    {
      "id": "pt.ine.add.PTCONT.550342",
      "street": "R DR PEREIRA REIS",
      "house": "263",
      "postcode": "4815-721",
      "city": "VIZELA",
      "lon": "-8.309238350030782",
      "lat": "41.37246483309334"
    },
    {
      "id": "pt.ine.add.PTCONT.550343",
      "street": "R DR PEREIRA REIS",
      "house": "263",
      "postcode": "4815-721",
      "city": "VIZELA",
      "lon": "-8.309238350030782",
      "lat": "41.37246483309334"
    },
    {
      "id": "pt.ine.add.PTCONT.555307",
      "street": "R JOAQUIM FREITAS RIBEIRO FARIA",
      "house": "190",
      "postcode": "4815-567",
      "city": "VIZELA",
      "lon": "-8.307396536080992",
      "lat": "41.37208046326865"
    },
    {
      "id": "pt.ine.add.PTCONT.555308",
      "street": "R JOAQUIM FREITAS RIBEIRO FARIA",
      "house": "190",
      "postcode": "4815-567",
      "city": "VIZELA",
      "lon": "-8.307396536080992",
      "lat": "41.37208046326865"
    },
    {
      "id": "pt.ine.add.PTCONT.596460",
      "street": "R JOAQUIM FREITAS RIBEIRO FARIA",
      "house": "22",
      "postcode": "4815-567",
      "city": "VIZELA",
      "lon": "-8.307864150843791",
      "lat": "41.37261999689767"
    },
    {
      "id": "pt.ine.add.PTCONT.643460",
      "street": "R DR PEREIRA REIS",
      "house": "",
      "postcode": "4815-721",
      "city": "VIZELA",
      "lon": "-8.309142579434068",
      "lat": "41.37241095535438"
    },
    {
      "id": "pt.ine.add.PTCONT.747743",
      "street": "R COMEND JOAQUIM DE SOUSA OLIVEIRA CASA DA GIESTA",
      "house": "745",
      "postcode": "4815-401",
      "city": "VIZELA",
      "lon": "-8.309582362469515",
      "lat": "41.37149186900378"
    },
    {
      "id": "pt.ine.add.PTCONT.751061",
      "street": "R JOAQUIM FREITAS RIBEIRO FARIA",
      "house": "56",
      "postcode": "4815-567",
      "city": "VIZELA",
      "lon": "-8.307780141605042",
      "lat": "41.37249406779602"
    },
    {
      "id": "pt.ine.add.PTCONT.820523",
      "street": "R JOAQUIM FREITAS RIBEIRO FARIA",
      "house": "344",
      "postcode": "4815-567",
      "city": "VIZELA",
      "lon": "-8.307310630862679",
      "lat": "41.3712432169232"
    },
    {
      "id": "pt.ine.add.PTCONT.820524",
      "street": "R JOAQUIM FREITAS RIBEIRO FARIA",
      "house": "344",
      "postcode": "4815-567",
      "city": "VIZELA",
      "lon": "-8.307310630862679",
      "lat": "41.3712432169232"
    },
    {
      "id": "pt.ine.add.PTCONT.820525",
      "street": "R JOAQUIM FREITAS RIBEIRO FARIA",
      "house": "344",
      "postcode": "4815-567",
      "city": "VIZELA",
      "lon": "-8.307310630862679",
      "lat": "41.3712432169232"
    },
    {
      "id": "pt.ine.add.PTCONT.820526",
      "street": "R JOAQUIM FREITAS RIBEIRO FARIA",
      "house": "344",
      "postcode": "4815-567",
      "city": "VIZELA",
      "lon": "-8.307310630862679",
      "lat": "41.3712432169232"
    }
  ]
}