{
  "data": {
    "distrito": "Faro",
    "concelho": "Tavira",
    "freguesia": "Uni√£o das freguesias de Tavira (Santa Maria e Santiago)",
    "OBJECTID": 63,
    "BGRI2021": "08141202125",
    "DT21": "08",
    "DTMN21": "0814",
    "DTMNFR21": "081412",
    "DTMNFRSEC21": "081412021",
    "SECNUM21": "021",
    "SSNUM21": "25",
    "SECSSNUM21": "02125",
    "OBJECTID_1": 73085,
    "DT": "08",
    "CC": "14",
    "fr": "12",
    "SEC": "021",
    "SS": "25"
  },
  "addresses": [
    {
      "id": "pt.ine.add.PTCONT.1490416",
      "street": "ESTR ASSECA",
      "house": "CP 492 X",
      "postcode": "8800-251",
      "city": "TAVIRA",
      "lon": "-7.65844056240729",
      "lat": "37.14272814621883"
    },
    {
      "id": "pt.ine.add.PTCONT.1499286",
      "street": "ESTR ASSECA",
      "house": "CX 494 X",
      "postcode": "8800-251",
      "city": "TAVIRA",
      "lon": "-7.658043194240138",
      "lat": "37.14327619606343"
    },
    {
      "id": "pt.ine.add.PTCONT.1499287",
      "street": "ESTR ASSECA",
      "house": "CP 491 X",
      "postcode": "8800-251",
      "city": "TAVIRA",
      "lon": "-7.662608715172915",
      "lat": "37.142141059612435"
    },
    {
      "id": "pt.ine.add.PTCONT.1526877",
      "street": "ESTR ASSECA",
      "house": "CP 495 X",
      "postcode": "8800-251",
      "city": "TAVIRA",
      "lon": "-7.657852362382977",
      "lat": "37.1431943363708"
    },
    {
      "id": "pt.ine.add.PTCONT.1527611",
      "street": "ESTR ASSECA",
      "house": "CP 491 X",
      "postcode": "8800-251",
      "city": "TAVIRA",
      "lon": "-7.663014511671656",
      "lat": "37.14204355392006"
    },
    {
      "id": "pt.ine.add.PTCONT.1535962",
      "street": "CXP 550 X",
      "house": "",
      "postcode": "8800-251",
      "city": "TAVIRA",
      "lon": "-7.6569556712111595",
      "lat": "37.14259604321807"
    },
    {
      "id": "pt.ine.add.PTCONT.1555855",
      "street": "ESTR ASSECA",
      "house": "",
      "postcode": "8800-251",
      "city": "TAVIRA",
      "lon": "-7.65906387945051",
      "lat": "37.14384794537321"
    },
    {
      "id": "pt.ine.add.PTCONT.1571688",
      "street": "ESTR BARRETA CAVACO",
      "house": "",
      "postcode": "8800-251",
      "city": "TAVIRA",
      "lon": "-7.6621472293946455",
      "lat": "37.14032811123441"
    },
    {
      "id": "pt.ine.add.PTCONT.1579387",
      "street": "ESTR ASSECA",
      "house": "CX 455 X",
      "postcode": "8800-251",
      "city": "TAVIRA",
      "lon": "-7.664681992587919",
      "lat": "37.14542009089934"
    },
    {
      "id": "pt.ine.add.PTCONT.1593495",
      "street": "ESTR BARRETA",
      "house": "",
      "postcode": "8800-251",
      "city": "TAVIRA",
      "lon": "-7.664444102129727",
      "lat": "37.14019304654886"
    },
    {
      "id": "pt.ine.add.PTCONT.1600970",
      "street": "ESTR ASSECA",
      "house": "",
      "postcode": "8800-251",
      "city": "TAVIRA",
      "lon": "-7.657942235182194",
      "lat": "37.14322172825252"
    },
    {
      "id": "pt.ine.add.PTCONT.1645609",
      "street": "ESTR ASSECA",
      "house": "",
      "postcode": "8800-251",
      "city": "TAVIRA",
      "lon": "-7.659305902319451",
      "lat": "37.14113674572964"
    },
    {
      "id": "pt.ine.add.PTCONT.1674735",
      "street": "ESTR BARRETA",
      "house": "",
      "postcode": "8800-251",
      "city": "TAVIRA",
      "lon": "-7.66659783157527",
      "lat": "37.141372911132656"
    },
    {
      "id": "pt.ine.add.PTCONT.1700218",
      "street": "ESTR BARRETA CAVACO",
      "house": "",
      "postcode": "8800-251",
      "city": "TAVIRA",
      "lon": "-7.662011724592087",
      "lat": "37.14039965697975"
    },
    {
      "id": "pt.ine.add.PTCONT.1752732",
      "street": "ESTR ASSECA",
      "house": "",
      "postcode": "8800-251",
      "city": "TAVIRA",
      "lon": "-7.6653073754545975",
      "lat": "37.14439536137559"
    },
    {
      "id": "pt.ine.add.PTCONT.1761824",
      "street": "ESTR ASSECA MONTANHA DONANA",
      "house": "CP 480 X",
      "postcode": "8800-251",
      "city": "TAVIRA",
      "lon": "-7.657937236134529",
      "lat": "37.142221540282556"
    },
    {
      "id": "pt.ine.add.PTCONT.1765009",
      "street": "ESTR ASSECA",
      "house": "CX 395 X",
      "postcode": "8800-251",
      "city": "TAVIRA",
      "lon": "-7.665484788616317",
      "lat": "37.14848683703792"
    },
    {
      "id": "pt.ine.add.PTCONT.1783088",
      "street": "ESTR ASSECA",
      "house": "",
      "postcode": "8800-251",
      "city": "TAVIRA",
      "lon": "-7.659018408226488",
      "lat": "37.14391984767163"
    },
    {
      "id": "pt.ine.add.PTCONT.1806378",
      "street": "ESTR ASSECA",
      "house": "CX 395 X",
      "postcode": "8800-251",
      "city": "TAVIRA",
      "lon": "-7.66548334617798",
      "lat": "37.14872110475393"
    },
    {
      "id": "pt.ine.add.PTCONT.1806379",
      "street": "ESTR ASSECA",
      "house": "CX 395 X",
      "postcode": "8800-251",
      "city": "TAVIRA",
      "lon": "-7.66548334617798",
      "lat": "37.14872110475393"
    },
    {
      "id": "pt.ine.add.PTCONT.1814978",
      "street": "ESTR ASSECA",
      "house": "CP 490 X",
      "postcode": "8800-251",
      "city": "TAVIRA",
      "lon": "-7.6572916888789475",
      "lat": "37.14285869769416"
    }
  ]
}