{
  "data": {
    "ilha": "Ilha da Madeira (Madeira)",
    "concelho": "Funchal",
    "freguesia": "São Martinho",
    "OBJECTID": 179,
    "BGRI2021": "31030700507",
    "DT21": "31",
    "DTMN21": "3103",
    "DTMNFR21": "310307",
    "DTMNFRSEC21": "310307005",
    "SECNUM21": "005",
    "SSNUM21": "07",
    "SECSSNUM21": "00507",
    "OBJECTID_1": 203671,
    "DT": "31",
    "CC": "03",
    "fr": "07",
    "SEC": "005",
    "SS": "07",
    "BGRI2021_1": "31030700507"
  },
  "addresses": [
    {
      "id": "pt.ine.add.MAD.13273",
      "street": "VR PICO FUNCHO",
      "house": "79 P3",
      "postcode": "9000-753",
      "city": "FUNCHAL",
      "lon": "-16.951202473106232",
      "lat": "32.65361158218142"
    },
    {
      "id": "pt.ine.add.MAD.13274",
      "street": "VR PICO DO FUNCHO",
      "house": "3",
      "postcode": "9000-753",
      "city": "FUNCHAL",
      "lon": "-16.951340232371315",
      "lat": "32.65357336518127"
    },
    {
      "id": "pt.ine.add.MAD.13275",
      "street": "VR PICO DO FUNCHO",
      "house": "3",
      "postcode": "9000-753",
      "city": "FUNCHAL",
      "lon": "-16.951340232371315",
      "lat": "32.65357336518127"
    },
    {
      "id": "pt.ine.add.MAD.13276",
      "street": "VR PICO DO FUNCHO",
      "house": "3A",
      "postcode": "9000-753",
      "city": "FUNCHAL",
      "lon": "-16.951414636445353",
      "lat": "32.65356318938453"
    },
    {
      "id": "pt.ine.add.MAD.13277",
      "street": "R QUEBRADAS",
      "house": "10",
      "postcode": "9000-004",
      "city": "FUNCHAL",
      "lon": "-16.95166962401447",
      "lat": "32.65352314882098"
    },
    {
      "id": "pt.ine.add.MAD.13278",
      "street": "R QUEBRADAS",
      "house": "6",
      "postcode": "9000-004",
      "city": "FUNCHAL",
      "lon": "-16.951986986292642",
      "lat": "32.65340998801649"
    },
    {
      "id": "pt.ine.add.MAD.13279",
      "street": "R QUEBRADAS",
      "house": "1 A",
      "postcode": "9000-004",
      "city": "FUNCHAL",
      "lon": "-16.952076358908865",
      "lat": "32.65359798981044"
    },
    {
      "id": "pt.ine.add.MAD.13280",
      "street": "R QUEBRADAS",
      "house": "",
      "postcode": "9000-004",
      "city": "FUNCHAL",
      "lon": "-16.95170367495475",
      "lat": "32.654108833058125"
    },
    {
      "id": "pt.ine.add.MAD.13281",
      "street": "R QUEBRADAS",
      "house": "1 D",
      "postcode": "9000-004",
      "city": "FUNCHAL",
      "lon": "-16.9519512168404",
      "lat": "32.65372619808172"
    },
    {
      "id": "pt.ine.add.MAD.13282",
      "street": "R QUEBRADAS",
      "house": "1E",
      "postcode": "9000-004",
      "city": "FUNCHAL",
      "lon": "-16.95197115932482",
      "lat": "32.65366275712372"
    },
    {
      "id": "pt.ine.add.MAD.13283",
      "street": "R QUEBRADAS",
      "house": "29B",
      "postcode": "9000-004",
      "city": "FUNCHAL",
      "lon": "-16.952099314955007",
      "lat": "32.65318277363699"
    },
    {
      "id": "pt.ine.add.MAD.13284",
      "street": "TV PICO FUNCHO BAIXO",
      "house": "31",
      "postcode": "9000-232",
      "city": "FUNCHAL",
      "lon": "-16.952469960829454",
      "lat": "32.65306878267343"
    },
    {
      "id": "pt.ine.add.MAD.13285",
      "street": "VR PICO FUNCHO BAIXO",
      "house": "39",
      "postcode": "9000-667",
      "city": "FUNCHAL",
      "lon": "-16.951806870559643",
      "lat": "32.65297087478483"
    },
    {
      "id": "pt.ine.add.MAD.13995",
      "street": "VR PICO FUNCHO DE BAIXO",
      "house": "39 B",
      "postcode": "9000-667",
      "city": "FUNCHAL",
      "lon": "-16.951246551500656",
      "lat": "32.65318701893544"
    },
    {
      "id": "pt.ine.add.MAD.13996",
      "street": "VR PICO FUNCHO DE BAIXO",
      "house": "39 E",
      "postcode": "9000-667",
      "city": "FUNCHAL",
      "lon": "-16.951201376490477",
      "lat": "32.653070478629424"
    },
    {
      "id": "pt.ine.add.MAD.13997",
      "street": "TV QUEBRADAS CIMA",
      "house": "55",
      "postcode": "9000-234",
      "city": "FUNCHAL",
      "lon": "-16.952547180300336",
      "lat": "32.652697815435005"
    },
    {
      "id": "pt.ine.add.MAD.13998",
      "street": "R QUEBRADAS",
      "house": "55",
      "postcode": "9000-004",
      "city": "FUNCHAL",
      "lon": "-16.952555877067642",
      "lat": "32.652607493359"
    },
    {
      "id": "pt.ine.add.MAD.13999",
      "street": "R QUEBRADAS",
      "house": "59",
      "postcode": "9000-004",
      "city": "FUNCHAL",
      "lon": "-16.95241792383928",
      "lat": "32.652636695998936"
    },
    {
      "id": "pt.ine.add.MAD.23317",
      "street": "ENT PARTICULAR RODRIGUES QUINTAL",
      "house": "13",
      "postcode": "9000-281",
      "city": "FUNCHAL",
      "lon": "-16.95150640151035",
      "lat": "32.654842414052695"
    },
    {
      "id": "pt.ine.add.MAD.23318",
      "street": "ENT PARTICULAR RODRIGUES QUINTAL",
      "house": "13",
      "postcode": "9000-281",
      "city": "FUNCHAL",
      "lon": "-16.95150640151035",
      "lat": "32.654842414052695"
    },
    {
      "id": "pt.ine.add.MAD.23319",
      "street": "ENT PARTICULAR RODRIGUES QUINTAL",
      "house": "3",
      "postcode": "9000-281",
      "city": "FUNCHAL",
      "lon": "-16.951564075102457",
      "lat": "32.65455291945655"
    },
    {
      "id": "pt.ine.add.MAD.23320",
      "street": "ENT PARTICULAR RODRIGUES QUINTAL",
      "house": "1",
      "postcode": "9000-281",
      "city": "FUNCHAL",
      "lon": "-16.951529164274657",
      "lat": "32.6544181823217"
    },
    {
      "id": "pt.ine.add.MAD.24051",
      "street": "LEV PICO DO FUNCHO",
      "house": "",
      "postcode": "9000-722",
      "city": "FUNCHAL",
      "lon": "-16.951438616321056",
      "lat": "32.65417608638059"
    },
    {
      "id": "pt.ine.add.MAD.24052",
      "street": "LEV PICO DO FUNCHO",
      "house": "",
      "postcode": "9000-722",
      "city": "FUNCHAL",
      "lon": "-16.95112230906843",
      "lat": "32.65384731433076"
    },
    {
      "id": "pt.ine.add.MAD.54133",
      "street": "VR PICO DO FUNCHO",
      "house": "59",
      "postcode": "9000-753",
      "city": "FUNCHAL",
      "lon": "-16.951791555442874",
      "lat": "32.653737700421395"
    },
    {
      "id": "pt.ine.add.MAD.68420",
      "street": "VR PICO FUNCHO DE BAIXO",
      "house": "28",
      "postcode": "9000-667",
      "city": "FUNCHAL",
      "lon": "-16.95234861682916",
      "lat": "32.65288127861314"
    },
    {
      "id": "pt.ine.add.MAD.71026",
      "street": "R QUEBRADAS",
      "house": "33",
      "postcode": "9000-004",
      "city": "FUNCHAL",
      "lon": "-16.95238017511288",
      "lat": "32.6543327940543"
    },
    {
      "id": "pt.ine.add.MAD.71198",
      "street": "R QUEBRADAS",
      "house": "33",
      "postcode": "9000-004",
      "city": "FUNCHAL",
      "lon": "-16.95238017511288",
      "lat": "32.6543327940543"
    },
    {
      "id": "pt.ine.add.MAD.71199",
      "street": "VR PICO DO FUNCHO",
      "house": "71",
      "postcode": "9000-753",
      "city": "FUNCHAL",
      "lon": "-16.95092703442198",
      "lat": "32.653201005922575"
    },
    {
      "id": "pt.ine.add.MAD.71200",
      "street": "VR PICO DO FUNCHO",
      "house": "1AA",
      "postcode": "9000-753",
      "city": "FUNCHAL",
      "lon": "-16.95187622481168",
      "lat": "32.65370932732041"
    },
    {
      "id": "pt.ine.add.MAD.71201",
      "street": "VR PICO FUNCHO DE BAIXO",
      "house": "39",
      "postcode": "9000-667",
      "city": "FUNCHAL",
      "lon": "-16.952093435462636",
      "lat": "32.65291230485383"
    },
    {
      "id": "pt.ine.add.MAD.73894",
      "street": "ENT PARTICULAR RODRIGUES QUINTAL",
      "house": "7 9",
      "postcode": "9000-281",
      "city": "FUNCHAL",
      "lon": "-16.951482539776407",
      "lat": "32.6547255424109"
    },
    {
      "id": "pt.ine.add.MAD.73895",
      "street": "ENT PARTICULAR RODRIGUES QUINTAL",
      "house": "7 9",
      "postcode": "9000-281",
      "city": "FUNCHAL",
      "lon": "-16.951482539776407",
      "lat": "32.6547255424109"
    },
    {
      "id": "pt.ine.add.MAD.79794",
      "street": "ENT PARTICULAR RODRIGUES QUINTAL",
      "house": "15",
      "postcode": "9000-281",
      "city": "FUNCHAL",
      "lon": "-16.95117818038044",
      "lat": "32.65494672393195"
    },
    {
      "id": "pt.ine.add.MAD.82036",
      "street": "R QUEBRADAS",
      "house": "5",
      "postcode": "9000-004",
      "city": "FUNCHAL",
      "lon": "-16.95220745382348",
      "lat": "32.653253240616195"
    },
    {
      "id": "pt.ine.add.MAD.82037",
      "street": "VR PICO FUNCHO DE BAIXO",
      "house": "30",
      "postcode": "9000-667",
      "city": "FUNCHAL",
      "lon": "-16.952253683332014",
      "lat": "32.65292784906214"
    },
    {
      "id": "pt.ine.add.MAD.85382",
      "street": "CAM POÇO BARRAL",
      "house": "77",
      "postcode": "9000-292",
      "city": "FUNCHAL",
      "lon": "-16.94931325773484",
      "lat": "32.65547173805453"
    },
    {
      "id": "pt.ine.add.MAD.85383",
      "street": "VR PICO FUNCHO DE BAIXO",
      "house": "33",
      "postcode": "9000-667",
      "city": "FUNCHAL",
      "lon": "-16.95240523432091",
      "lat": "32.6530337151318"
    },
    {
      "id": "pt.ine.add.MAD.90907",
      "street": "R QUEBRADAS",
      "house": "8",
      "postcode": "9000-004",
      "city": "FUNCHAL",
      "lon": "-16.9518598847117",
      "lat": "32.6534480399298"
    },
    {
      "id": "pt.ine.add.MAD.90908",
      "street": "VR PICO DO FUNCHO",
      "house": "59 A",
      "postcode": "9000-753",
      "city": "FUNCHAL",
      "lon": "-16.951674522637465",
      "lat": "32.65374853950953"
    },
    {
      "id": "pt.ine.add.MAD.93583",
      "street": "CAM PICO DO FUNCHO",
      "house": "",
      "postcode": "9000-291",
      "city": "FUNCHAL",
      "lon": "-16.949437427345753",
      "lat": "32.65529845402782"
    },
    {
      "id": "pt.ine.add.MAD.93585",
      "street": "TV PICO FUNCHO BAIXO",
      "house": "71",
      "postcode": "9000-232",
      "city": "FUNCHAL",
      "lon": "-16.95178281311434",
      "lat": "32.65284498753522"
    },
    {
      "id": "pt.ine.add.MAD.98259",
      "street": "VR PICO FUNCHO BAIXO",
      "house": "39",
      "postcode": "9000-667",
      "city": "FUNCHAL",
      "lon": "-16.95162668007419",
      "lat": "32.65301877092163"
    },
    {
      "id": "pt.ine.add.MAD.100631",
      "street": "VR PICO DO FUNCHO",
      "house": "31 RIC",
      "postcode": "9000-753",
      "city": "FUNCHAL",
      "lon": "-16.95199274404118",
      "lat": "32.65318443156952"
    },
    {
      "id": "pt.ine.add.MAD.105315",
      "street": "VR PICO DO FUNCHO",
      "house": "73",
      "postcode": "9000-753",
      "city": "FUNCHAL",
      "lon": "-16.95100339699654",
      "lat": "32.65328098669753"
    },
    {
      "id": "pt.ine.add.MAD.105453",
      "street": "VR PICO DO FUNCHO",
      "house": "2",
      "postcode": "9000-753",
      "city": "FUNCHAL",
      "lon": "-16.95119024878915",
      "lat": "32.65353962286281"
    },
    {
      "id": "pt.ine.add.MAD.105776",
      "street": "CAM POCO BARRAL",
      "house": "13",
      "postcode": "9000-155",
      "city": "FUNCHAL",
      "lon": "-16.95150640151035",
      "lat": "32.654842414052695"
    },
    {
      "id": "pt.ine.add.MAD.106494",
      "street": "VR PICO DO FUNCHO",
      "house": "67",
      "postcode": "9000-753",
      "city": "FUNCHAL",
      "lon": "-16.95104034496775",
      "lat": "32.65301887055253"
    },
    {
      "id": "pt.ine.add.MAD.120238",
      "street": "VR PICO FUNCHO",
      "house": "",
      "postcode": "9000-753",
      "city": "FUNCHAL",
      "lon": "-16.951552591466665",
      "lat": "32.65353398778566"
    }
  ]
}