{
  "data": {
    "distrito": "Évora",
    "concelho": "Redondo",
    "freguesia": "Redondo",
    "OBJECTID": 211,
    "BGRI2021": "07100200602",
    "DT21": "07",
    "DTMN21": "0710",
    "DTMNFR21": "071002",
    "DTMNFRSEC21": "071002006",
    "SECNUM21": "006",
    "SSNUM21": "02",
    "SECSSNUM21": "00602",
    "OBJECTID_1": 62937,
    "DT": "07",
    "CC": "10",
    "fr": "02",
    "SEC": "006",
    "SS": "02"
  },
  "addresses": [
    {
      "id": "pt.ine.add.PTCONT.1370300",
      "street": "R AMEIXIEIRAS",
      "house": "2",
      "postcode": "7170-126",
      "city": "REDONDO",
      "lon": "-7.544495692907349",
      "lat": "38.64983586986515"
    },
    {
      "id": "pt.ine.add.PTCONT.1372497",
      "street": "R RUINHA",
      "house": "15",
      "postcode": "7170-065",
      "city": "REDONDO",
      "lon": "-7.545125545838963",
      "lat": "38.65002258645774"
    },
    {
      "id": "pt.ine.add.PTCONT.1373732",
      "street": "R DAS AMEIXIEIRAS",
      "house": "1-1 A",
      "postcode": "7170-126",
      "city": "REDONDO",
      "lon": "-7.545013549377627",
      "lat": "38.64967070411536"
    },
    {
      "id": "pt.ine.add.PTCONT.1373733",
      "street": "R DAS AMEIXIEIRAS",
      "house": "1-1 A",
      "postcode": "7170-126",
      "city": "REDONDO",
      "lon": "-7.545013549377627",
      "lat": "38.64967070411536"
    },
    {
      "id": "pt.ine.add.PTCONT.1380465",
      "street": "R AMEIXIEIRAS",
      "house": "3",
      "postcode": "7170-126",
      "city": "REDONDO",
      "lon": "-7.544864368475023",
      "lat": "38.649651937668224"
    },
    {
      "id": "pt.ine.add.PTCONT.1385429",
      "street": "R AMEIXIEIRAS",
      "house": "",
      "postcode": "7170-126",
      "city": "REDONDO",
      "lon": "-7.544323833094578",
      "lat": "38.6497809558587"
    },
    {
      "id": "pt.ine.add.PTCONT.1387055",
      "street": "TV FALE",
      "house": "7",
      "postcode": "7170-064",
      "city": "REDONDO",
      "lon": "-7.545513604907642",
      "lat": "38.64976068197735"
    },
    {
      "id": "pt.ine.add.PTCONT.1387592",
      "street": "R RUINHA",
      "house": "5",
      "postcode": "7170-065",
      "city": "REDONDO",
      "lon": "-7.54514501042648",
      "lat": "38.649748039934515"
    },
    {
      "id": "pt.ine.add.PTCONT.1393589",
      "street": "R AMEIXIEIRAS",
      "house": "15",
      "postcode": "7170-126",
      "city": "REDONDO",
      "lon": "-7.544532103247338",
      "lat": "38.64960038804079"
    },
    {
      "id": "pt.ine.add.PTCONT.1398166",
      "street": "R RUINHA",
      "house": "1",
      "postcode": "7170-065",
      "city": "REDONDO",
      "lon": "-7.5451518325479725",
      "lat": "38.649617350088"
    },
    {
      "id": "pt.ine.add.PTCONT.1399263",
      "street": "R RUINHA",
      "house": "8",
      "postcode": "7170-065",
      "city": "REDONDO",
      "lon": "-7.544977694440687",
      "lat": "38.64997459076113"
    },
    {
      "id": "pt.ine.add.PTCONT.1405755",
      "street": "R AMEIXIEIRAS",
      "house": "7",
      "postcode": "7170-126",
      "city": "REDONDO",
      "lon": "-7.5447610611006",
      "lat": "38.649642409946885"
    },
    {
      "id": "pt.ine.add.PTCONT.1407180",
      "street": "R AMEIXIEIRAS",
      "house": "13",
      "postcode": "7170-126",
      "city": "REDONDO",
      "lon": "-7.544608632273362",
      "lat": "38.649610377594406"
    },
    {
      "id": "pt.ine.add.PTCONT.1407984",
      "street": "R AMEIXIEIRAS",
      "house": "11",
      "postcode": "7170-126",
      "city": "REDONDO",
      "lon": "-7.544689927357111",
      "lat": "38.64961138198188"
    },
    {
      "id": "pt.ine.add.PTCONT.1413243",
      "street": "R RUINHA",
      "house": "6",
      "postcode": "7170-065",
      "city": "REDONDO",
      "lon": "-7.544981700067513",
      "lat": "38.64993257869241"
    },
    {
      "id": "pt.ine.add.PTCONT.1413244",
      "street": "R RUINHA",
      "house": "6A",
      "postcode": "7170-065",
      "city": "REDONDO",
      "lon": "-7.544981700067513",
      "lat": "38.64993257869241"
    },
    {
      "id": "pt.ine.add.PTCONT.1414664",
      "street": "R RUINHA",
      "house": "11",
      "postcode": "7170-065",
      "city": "REDONDO",
      "lon": "-7.545137916178397",
      "lat": "38.64991455037267"
    },
    {
      "id": "pt.ine.add.PTCONT.1416378",
      "street": "TV FALE",
      "house": "1",
      "postcode": "7170-064",
      "city": "REDONDO",
      "lon": "-7.546067467050657",
      "lat": "38.65002731707899"
    },
    {
      "id": "pt.ine.add.PTCONT.1416379",
      "street": "R AMEIXIEIRAS",
      "house": "",
      "postcode": "7170-126",
      "city": "REDONDO",
      "lon": "-7.544587440014536",
      "lat": "38.64985434785141"
    },
    {
      "id": "pt.ine.add.PTCONT.1419055",
      "street": "R RUINHA",
      "house": "10",
      "postcode": "7170-065",
      "city": "REDONDO",
      "lon": "-7.5449736737018345",
      "lat": "38.6500202771935"
    },
    {
      "id": "pt.ine.add.PTCONT.1421586",
      "street": "R RUINHA",
      "house": "13",
      "postcode": "7170-065",
      "city": "REDONDO",
      "lon": "-7.545125987596544",
      "lat": "38.649968539547494"
    },
    {
      "id": "pt.ine.add.PTCONT.1421587",
      "street": "R RUINHA",
      "house": "13",
      "postcode": "7170-065",
      "city": "REDONDO",
      "lon": "-7.545125987596544",
      "lat": "38.649968539547494"
    },
    {
      "id": "pt.ine.add.PTCONT.1421592",
      "street": "R AMEIXIEIRAS",
      "house": "",
      "postcode": "7170-126",
      "city": "REDONDO",
      "lon": "-7.54414026550666",
      "lat": "38.64975300722034"
    },
    {
      "id": "pt.ine.add.PTCONT.1421759",
      "street": "TV FALE",
      "house": "9",
      "postcode": "7170-064",
      "city": "REDONDO",
      "lon": "-7.545426558590389",
      "lat": "38.6497358370226"
    },
    {
      "id": "pt.ine.add.PTCONT.1422437",
      "street": "R AMEIXIEIRAS",
      "house": "19",
      "postcode": "7170-126",
      "city": "REDONDO",
      "lon": "-7.544302321631686",
      "lat": "38.649610623448766"
    },
    {
      "id": "pt.ine.add.PTCONT.1426701",
      "street": "R AMEIXIEIRAS",
      "house": "",
      "postcode": "7170-126",
      "city": "REDONDO",
      "lon": "-7.544220525612813",
      "lat": "38.64977142765932"
    },
    {
      "id": "pt.ine.add.PTCONT.1432034",
      "street": "TV FALE",
      "house": "",
      "postcode": "7170-064",
      "city": "REDONDO",
      "lon": "-7.545850246491511",
      "lat": "38.64990011216007"
    },
    {
      "id": "pt.ine.add.PTCONT.1433922",
      "street": "LG VALADO",
      "house": "12",
      "postcode": "7170-066",
      "city": "REDONDO",
      "lon": "-7.5453540557689385",
      "lat": "38.65001925232791"
    },
    {
      "id": "pt.ine.add.PTCONT.1433923",
      "street": "LG VALADO",
      "house": "12",
      "postcode": "7170-066",
      "city": "REDONDO",
      "lon": "-7.5453540557689385",
      "lat": "38.65001925232791"
    },
    {
      "id": "pt.ine.add.PTCONT.1435270",
      "street": "R RUINHA",
      "house": "9",
      "postcode": "7170-065",
      "city": "REDONDO",
      "lon": "-7.545126944733907",
      "lat": "38.649851437906854"
    },
    {
      "id": "pt.ine.add.PTCONT.1435271",
      "street": "R RUINHA",
      "house": "3",
      "postcode": "7170-065",
      "city": "REDONDO",
      "lon": "-7.54516287760204",
      "lat": "38.649671454734985"
    },
    {
      "id": "pt.ine.add.PTCONT.1439847",
      "street": "TV DA FALÉ",
      "house": "3 C-5-5 A",
      "postcode": "7170-064",
      "city": "REDONDO",
      "lon": "-7.545666972208923",
      "lat": "38.64983613463265"
    },
    {
      "id": "pt.ine.add.PTCONT.1439848",
      "street": "TV DA FALÉ",
      "house": "3 C-5-5 A",
      "postcode": "7170-064",
      "city": "REDONDO",
      "lon": "-7.545666972208923",
      "lat": "38.64983613463265"
    },
    {
      "id": "pt.ine.add.PTCONT.1439849",
      "street": "TV DA FALÉ",
      "house": "3 C-5-5 A",
      "postcode": "7170-064",
      "city": "REDONDO",
      "lon": "-7.545666972208923",
      "lat": "38.64983613463265"
    },
    {
      "id": "pt.ine.add.PTCONT.1441865",
      "street": "R RUINHA",
      "house": "10 A",
      "postcode": "7170-065",
      "city": "REDONDO",
      "lon": "-7.544984226869123",
      "lat": "38.64983413189496"
    },
    {
      "id": "pt.ine.add.PTCONT.1442518",
      "street": "TV FALE",
      "house": "",
      "postcode": "7170-064",
      "city": "REDONDO",
      "lon": "-7.546033447590518",
      "lat": "38.64997309722211"
    },
    {
      "id": "pt.ine.add.PTCONT.1446512",
      "street": "TV FALE",
      "house": "",
      "postcode": "7170-064",
      "city": "REDONDO",
      "lon": "-7.545907092389187",
      "lat": "38.649972463031"
    },
    {
      "id": "pt.ine.add.PTCONT.1460202",
      "street": "R AMEIXIEIRAS",
      "house": "",
      "postcode": "7170-126",
      "city": "REDONDO",
      "lon": "-7.54440401956432",
      "lat": "38.64980838398977"
    },
    {
      "id": "pt.ine.add.PTCONT.1466523",
      "street": "R RUINHA",
      "house": "7",
      "postcode": "7170-065",
      "city": "REDONDO",
      "lon": "-7.54512969178766",
      "lat": "38.64979839888781"
    }
  ]
}