{
  "data": {
    "distrito": "Lisboa",
    "concelho": "Lourinhã",
    "freguesia": "Santa Bárbara",
    "OBJECTID": 264,
    "BGRI2021": "11080600222",
    "DT21": "11",
    "DTMN21": "1108",
    "DTMNFR21": "110806",
    "DTMNFRSEC21": "110806002",
    "SECNUM21": "002",
    "SSNUM21": "22",
    "SECSSNUM21": "00222",
    "OBJECTID_1": 107673,
    "DT": "11",
    "CC": "08",
    "fr": "06",
    "SEC": "002",
    "SS": "22"
  },
  "addresses": [
    {
      "id": "pt.ine.add.PTCONT.2344319",
      "street": "R MERENDEIRO",
      "house": "18",
      "postcode": "2530-741",
      "city": "SANTA BÁRBARA LNH",
      "lon": "-9.315436753584171",
      "lat": "39.21544470855474"
    },
    {
      "id": "pt.ine.add.PTCONT.2389738",
      "street": "R MERENDEIRO",
      "house": "32",
      "postcode": "2530-741",
      "city": "SANTA BÁRBARA LNH",
      "lon": "-9.31474779442464",
      "lat": "39.21647850114632"
    },
    {
      "id": "pt.ine.add.PTCONT.2453811",
      "street": "R STA BARBARA",
      "house": "35",
      "postcode": "2530-740",
      "city": "SANTA BÁRBARA LNH",
      "lon": "-9.314253191614956",
      "lat": "39.20976427029079"
    },
    {
      "id": "pt.ine.add.PTCONT.2580534",
      "street": "R STA BARBARA",
      "house": "25",
      "postcode": "2530-740",
      "city": "SANTA BÁRBARA LNH",
      "lon": "-9.314836953971895",
      "lat": "39.21005558179364"
    },
    {
      "id": "pt.ine.add.PTCONT.2613118",
      "street": "R MERENDEIRO",
      "house": "14",
      "postcode": "2530-741",
      "city": "SANTA BÁRBARA LNH",
      "lon": "-9.315855112745876",
      "lat": "39.214845997277216"
    },
    {
      "id": "pt.ine.add.PTCONT.2613119",
      "street": "TV BARROS",
      "house": "4",
      "postcode": "2530-731",
      "city": "SANTA BÁRBARA LNH",
      "lon": "-9.315351337441342",
      "lat": "39.21518437166766"
    },
    {
      "id": "pt.ine.add.PTCONT.2946553",
      "street": "R STA BARBARA",
      "house": "31",
      "postcode": "2530-740",
      "city": "SANTA BÁRBARA LNH",
      "lon": "-9.31447493925971",
      "lat": "39.209870106042466"
    },
    {
      "id": "pt.ine.add.PTCONT.3030371",
      "street": "R CASAL GRAVETO",
      "house": "3",
      "postcode": "2530-736",
      "city": "SANTA BÁRBARA LNH",
      "lon": "-9.314585911309804",
      "lat": "39.21027429725484"
    },
    {
      "id": "pt.ine.add.PTCONT.3051914",
      "street": "R STA BARBARA",
      "house": "29",
      "postcode": "2530-740",
      "city": "SANTA BÁRBARA LNH",
      "lon": "-9.314614450604545",
      "lat": "39.20990471921315"
    },
    {
      "id": "pt.ine.add.PTCONT.3113886",
      "street": "R MERENDEIRO",
      "house": "20",
      "postcode": "2530-741",
      "city": "SANTA BÁRBARA LNH",
      "lon": "-9.315438566258912",
      "lat": "39.2155527745117"
    },
    {
      "id": "pt.ine.add.PTCONT.3164696",
      "street": "R STA BARBARA",
      "house": "19",
      "postcode": "2530-740",
      "city": "SANTA BÁRBARA LNH",
      "lon": "-9.315384030690707",
      "lat": "39.21023017119667"
    },
    {
      "id": "pt.ine.add.PTCONT.3188947",
      "street": "R STA BARBARA",
      "house": "33",
      "postcode": "2530-740",
      "city": "SANTA BÁRBARA LNH",
      "lon": "-9.314369702280947",
      "lat": "39.209808124018565"
    },
    {
      "id": "pt.ine.add.PTCONT.3312008",
      "street": "R JOSE HENRIQUES",
      "house": "3",
      "postcode": "2530-745",
      "city": "SANTA BÁRBARA LNH",
      "lon": "-9.314152631690273",
      "lat": "39.20998145885035"
    },
    {
      "id": "pt.ine.add.PTCONT.3317915",
      "street": "TV FONTE VELHA",
      "house": "3",
      "postcode": "2530-741",
      "city": "SANTA BÁRBARA LNH",
      "lon": "-9.315284996985188",
      "lat": "39.21468065127036"
    },
    {
      "id": "pt.ine.add.PTCONT.3326435",
      "street": "R MERENDEIRO",
      "house": "10",
      "postcode": "2530-741",
      "city": "SANTA BÁRBARA LNH",
      "lon": "-9.316149568639736",
      "lat": "39.21238408724281"
    },
    {
      "id": "pt.ine.add.PTCONT.3433828",
      "street": "TV BARROS",
      "house": "2",
      "postcode": "2530-731",
      "city": "SANTA BÁRBARA LNH",
      "lon": "-9.315352998924066",
      "lat": "39.215283432135784"
    }
  ]
}