{
  "data": {
    "distrito": "Vila Real",
    "concelho": "Ribeira de Pena",
    "freguesia": "União das freguesias de Ribeira de Pena (Salvador) e Santo Aleixo de Além-Tâmega",
    "OBJECTID": 92,
    "BGRI2021": "17090900210",
    "DT21": "17",
    "DTMN21": "1709",
    "DTMNFR21": "170909",
    "DTMNFRSEC21": "170909002",
    "SECNUM21": "002",
    "SSNUM21": "10",
    "SECSSNUM21": "00210",
    "OBJECTID_1": 184604,
    "DT": "17",
    "CC": "09",
    "fr": "09",
    "SEC": "002",
    "SS": "10"
  },
  "addresses": [
    {
      "id": "pt.ine.add.PTCONT.5293794",
      "street": "R CAMILO CASTELO BRANCO",
      "house": "",
      "postcode": "4870-157",
      "city": "RIBEIRA DE PENA",
      "lon": "-7.797322268509495",
      "lat": "41.5182433147659"
    },
    {
      "id": "pt.ine.add.PTCONT.5298710",
      "street": "LOTEAM DAS BOUCINHAS",
      "house": "",
      "postcode": "4870-161",
      "city": "RIBEIRA DE PENA",
      "lon": "-7.797042868224287",
      "lat": "41.51898981430782"
    },
    {
      "id": "pt.ine.add.PTCONT.5309191",
      "street": "R CAMILO CASTELO BRANCO",
      "house": "",
      "postcode": "4870-157",
      "city": "RIBEIRA DE PENA",
      "lon": "-7.796645946276996",
      "lat": "41.51929478303486"
    },
    {
      "id": "pt.ine.add.PTCONT.5312067",
      "street": "R FRANCISCO ALVES MOIMENTA",
      "house": "",
      "postcode": "4870-189",
      "city": "",
      "lon": "-7.796215415297623",
      "lat": "41.519149461842154"
    },
    {
      "id": "pt.ine.add.PTCONT.5319935",
      "street": "R D AFONSO IV",
      "house": "",
      "postcode": "4870-159",
      "city": "RIBEIRA DE PENA",
      "lon": "-7.796395706642578",
      "lat": "41.52134691711178"
    },
    {
      "id": "pt.ine.add.PTCONT.5333603",
      "street": "R FRANCISCO ALVES MOIMENTA",
      "house": "",
      "postcode": "4870-189",
      "city": "",
      "lon": "-7.796230103310445",
      "lat": "41.51862728432628"
    },
    {
      "id": "pt.ine.add.PTCONT.5336168",
      "street": "R FRANCISCO ALVES MOIMENTA",
      "house": "",
      "postcode": "4870-189",
      "city": "",
      "lon": "-7.795699764355385",
      "lat": "41.51924699199512"
    },
    {
      "id": "pt.ine.add.PTCONT.5350293",
      "street": "R CAMILO CASTELO BRANCO",
      "house": "",
      "postcode": "4870-157",
      "city": "RIBEIRA DE PENA",
      "lon": "-7.796650609581339",
      "lat": "41.51839441642299"
    },
    {
      "id": "pt.ine.add.PTCONT.5370157",
      "street": "R FRANCISCO ALVES MOIMENTA",
      "house": "",
      "postcode": "4870-189",
      "city": "",
      "lon": "-7.796145450605519",
      "lat": "41.518780100976834"
    },
    {
      "id": "pt.ine.add.PTCONT.5377428",
      "street": "R FRANCISCO ALVES MOIMENTA",
      "house": "",
      "postcode": "4870-189",
      "city": "",
      "lon": "-7.7957599913383415",
      "lat": "41.51918414206109"
    },
    {
      "id": "pt.ine.add.PTCONT.5378558",
      "street": "R CAMILO CASTELO BRANCO",
      "house": "13",
      "postcode": "4870-157",
      "city": "RIBEIRA DE PENA",
      "lon": "-7.796410640643796",
      "lat": "41.51846574456005"
    },
    {
      "id": "pt.ine.add.PTCONT.5378559",
      "street": "R CAMILO CASTELO BRANCO",
      "house": "",
      "postcode": "4870-157",
      "city": "RIBEIRA DE PENA",
      "lon": "-7.796410640643796",
      "lat": "41.51846574456005"
    },
    {
      "id": "pt.ine.add.PTCONT.5378573",
      "street": "R FRANCISCO ALVES MOIMENTA",
      "house": "",
      "postcode": "4870-189",
      "city": "",
      "lon": "-7.7961798958244755",
      "lat": "41.51906832356969"
    },
    {
      "id": "pt.ine.add.PTCONT.5380691",
      "street": "R D AFONSO IV",
      "house": "",
      "postcode": "4870-159",
      "city": "RIBEIRA DE PENA",
      "lon": "-7.796084685347525",
      "lat": "41.52125596810014"
    },
    {
      "id": "pt.ine.add.PTCONT.5380708",
      "street": "R CAMILO CASTELO BRANCO",
      "house": "",
      "postcode": "4870-157",
      "city": "RIBEIRA DE PENA",
      "lon": "-7.7965649786426905",
      "lat": "41.51873631038768"
    },
    {
      "id": "pt.ine.add.PTCONT.5389459",
      "street": "R FRANCISCO ALVES MOIMENTA",
      "house": "",
      "postcode": "4870-189",
      "city": "",
      "lon": "-7.795964023902425",
      "lat": "41.51911270995095"
    },
    {
      "id": "pt.ine.add.PTCONT.5389460",
      "street": "R FRANCISCO ALVES MOIMENTA",
      "house": "",
      "postcode": "4870-189",
      "city": "",
      "lon": "-7.795964023902425",
      "lat": "41.51911270995095"
    },
    {
      "id": "pt.ine.add.PTCONT.5389461",
      "street": "R FRANCISCO ALVES MOIMENTA",
      "house": "",
      "postcode": "4870-189",
      "city": "",
      "lon": "-7.795964023902425",
      "lat": "41.51911270995095"
    },
    {
      "id": "pt.ine.add.PTCONT.5389462",
      "street": "R FRANCISCO ALVES MOIMENTA",
      "house": "",
      "postcode": "4870-189",
      "city": "",
      "lon": "-7.795964023902425",
      "lat": "41.51911270995095"
    },
    {
      "id": "pt.ine.add.PTCONT.5389463",
      "street": "R FRANCISCO ALVES MOIMENTA",
      "house": "",
      "postcode": "4870-189",
      "city": "",
      "lon": "-7.795964023902425",
      "lat": "41.51911270995095"
    },
    {
      "id": "pt.ine.add.PTCONT.5395166",
      "street": "R CAMILO CASTELO BRANCO",
      "house": "",
      "postcode": "4870-157",
      "city": "RIBEIRA DE PENA",
      "lon": "-7.797058713927909",
      "lat": "41.51824254496502"
    },
    {
      "id": "pt.ine.add.PTCONT.5398773",
      "street": "R D AFONSO IV",
      "house": "",
      "postcode": "4870-159",
      "city": "RIBEIRA DE PENA",
      "lon": "-7.79587020842511",
      "lat": "41.52103024440565"
    },
    {
      "id": "pt.ine.add.PTCONT.5401896",
      "street": "LOTEAM DAS BOUCINHAS",
      "house": "4",
      "postcode": "4870-188",
      "city": "RIBEIRA DE PENA",
      "lon": "-7.797278695808095",
      "lat": "41.519719811132944"
    },
    {
      "id": "pt.ine.add.PTCONT.5409260",
      "street": "LUGAR DO PICANHOL",
      "house": "",
      "postcode": "4870-156",
      "city": "RIBEIRA DE PENA",
      "lon": "-7.796023082501907",
      "lat": "41.51927495150171"
    },
    {
      "id": "pt.ine.add.PTCONT.5412673",
      "street": "R CAMILO CASTELO BRANCO",
      "house": "",
      "postcode": "4870-157",
      "city": "RIBEIRA DE PENA",
      "lon": "-7.796842658922403",
      "lat": "41.51832294768337"
    },
    {
      "id": "pt.ine.add.PTCONT.5414626",
      "street": "QTA PICANHOL",
      "house": "",
      "postcode": "4870-156",
      "city": "RIBEIRA DE PENA",
      "lon": "-7.795854755638588",
      "lat": "41.51939150743382"
    },
    {
      "id": "pt.ine.add.PTCONT.5421612",
      "street": "R CAMILO CASTELO BRANCO",
      "house": "",
      "postcode": "4870-157",
      "city": "RIBEIRA DE PENA",
      "lon": "-7.797514270159325",
      "lat": "41.51818084856636"
    },
    {
      "id": "pt.ine.add.PTCONT.5424966",
      "street": "R CAMILO CASTELO BRANCO",
      "house": "",
      "postcode": "4870-157",
      "city": "RIBEIRA DE PENA",
      "lon": "-7.796410640643796",
      "lat": "41.51846574456005"
    }
  ]
}