{
  "data": {
    "distrito": "Guarda",
    "concelho": "Celorico da Beira",
    "freguesia": "União das freguesias de Celorico (São Pedro e Santa Maria) e Vila Boa do Mondego",
    "OBJECTID": 161,
    "BGRI2021": "09032400234",
    "DT21": "09",
    "DTMN21": "0903",
    "DTMNFR21": "090324",
    "DTMNFRSEC21": "090324002",
    "SECNUM21": "002",
    "SSNUM21": "34",
    "SECSSNUM21": "00234",
    "OBJECTID_1": 76273,
    "DT": "09",
    "CC": "03",
    "fr": "24",
    "SEC": "002",
    "SS": "34"
  },
  "addresses": [
    {
      "id": "pt.ine.add.PTCONT.1901387",
      "street": "R DO BARROCO D EL-REI",
      "house": "1",
      "postcode": "6360-333",
      "city": "CELORICO DA BEIRA",
      "lon": "-7.395793518719506",
      "lat": "40.633207983196215"
    },
    {
      "id": "pt.ine.add.PTCONT.1924872",
      "street": "R SACADURA CABRAL",
      "house": "1",
      "postcode": "6360-350",
      "city": "CELORICO DA BEIRA",
      "lon": "-7.395195908292946",
      "lat": "40.633807507419604"
    },
    {
      "id": "pt.ine.add.PTCONT.1933864",
      "street": "R DO BARROCO D EL-REI",
      "house": "11",
      "postcode": "6360-333",
      "city": "CELORICO DA BEIRA",
      "lon": "-7.395343094247927",
      "lat": "40.63332217272022"
    },
    {
      "id": "pt.ine.add.PTCONT.1934947",
      "street": "R SACADURA CABRAL",
      "house": "14",
      "postcode": "6360-350",
      "city": "CELORICO DA BEIRA",
      "lon": "-7.395517115033335",
      "lat": "40.633620452472684"
    },
    {
      "id": "pt.ine.add.PTCONT.1940156",
      "street": "R DO BARROCO D EL-REI",
      "house": "7",
      "postcode": "6360-333",
      "city": "CELORICO DA BEIRA",
      "lon": "-7.395461981819993",
      "lat": "40.6332598965213"
    },
    {
      "id": "pt.ine.add.PTCONT.1946079",
      "street": "R SACADURA CABRAL",
      "house": "32",
      "postcode": "6360-350",
      "city": "CELORICO DA BEIRA",
      "lon": "-7.394993192310482",
      "lat": "40.63396830359656"
    },
    {
      "id": "pt.ine.add.PTCONT.1950646",
      "street": "R SACADURA CABRAL",
      "house": "16C",
      "postcode": "6360-350",
      "city": "CELORICO DA BEIRA",
      "lon": "-7.395362272944205",
      "lat": "40.633727524506654"
    },
    {
      "id": "pt.ine.add.PTCONT.1950647",
      "street": "R SACADURA CABRAL",
      "house": "16 B",
      "postcode": "6360-350",
      "city": "CELORICO DA BEIRA",
      "lon": "-7.395362272944205",
      "lat": "40.633727524506654"
    },
    {
      "id": "pt.ine.add.PTCONT.1950648",
      "street": "R SACADURA CABRAL",
      "house": "16 A",
      "postcode": "6360-350",
      "city": "CELORICO DA BEIRA",
      "lon": "-7.395362272944205",
      "lat": "40.633727524506654"
    },
    {
      "id": "pt.ine.add.PTCONT.1950801",
      "street": "R SACADURA CABRAL",
      "house": "",
      "postcode": "6360-350",
      "city": "CELORICO DA BEIRA",
      "lon": "-7.395076821193245",
      "lat": "40.633887792248956"
    },
    {
      "id": "pt.ine.add.PTCONT.1951024",
      "street": "R SACADURA CABRAL",
      "house": "",
      "postcode": "6360-350",
      "city": "CELORICO DA BEIRA",
      "lon": "-7.395612562278884",
      "lat": "40.63354001621451"
    },
    {
      "id": "pt.ine.add.PTCONT.1953747",
      "street": "R CALOUSTE GULBENKIAN",
      "house": "",
      "postcode": "6360-294",
      "city": "CELORICO DA BEIRA",
      "lon": "-7.3966684555145505",
      "lat": "40.6310343325648"
    },
    {
      "id": "pt.ine.add.PTCONT.1962827",
      "street": "R BARROCO D EL-REI",
      "house": "",
      "postcode": "6360-333",
      "city": "CELORICO DA BEIRA",
      "lon": "-7.394638012037777",
      "lat": "40.634020063415626"
    },
    {
      "id": "pt.ine.add.PTCONT.1962881",
      "street": "R SACADURA CABRAL",
      "house": "6",
      "postcode": "6360-350",
      "city": "CELORICO DA BEIRA",
      "lon": "-7.394638012037777",
      "lat": "40.634020063415626"
    },
    {
      "id": "pt.ine.add.PTCONT.1963513",
      "street": "R SACADURA CABRAL FRA AUT",
      "house": "FRA AUT",
      "postcode": "6360-350",
      "city": "CELORICO DA BEIRA",
      "lon": "-7.394638012037777",
      "lat": "40.634020063415626"
    },
    {
      "id": "pt.ine.add.PTCONT.1967449",
      "street": "R SACADURA CABRAL",
      "house": "48",
      "postcode": "6360-350",
      "city": "CELORICO DA BEIRA",
      "lon": "-7.3943498775290495",
      "lat": "40.63442344970693"
    },
    {
      "id": "pt.ine.add.PTCONT.1977285",
      "street": "R BARROCO D EL-REI",
      "house": "",
      "postcode": "6360-333",
      "city": "CELORICO DA BEIRA",
      "lon": "-7.394638012037777",
      "lat": "40.634020063415626"
    },
    {
      "id": "pt.ine.add.PTCONT.1977833",
      "street": "R SACADURA CABRAL",
      "house": "",
      "postcode": "6360-350",
      "city": "CELORICO DA BEIRA",
      "lon": "-7.395076821193245",
      "lat": "40.633887792248956"
    },
    {
      "id": "pt.ine.add.PTCONT.1869082",
      "street": "R SACADURA CABRAL",
      "house": "6",
      "postcode": "6360-350",
      "city": "CELORICO DA BEIRA",
      "lon": "-7.39574336847215",
      "lat": "40.633468810748774"
    },
    {
      "id": "pt.ine.add.PTCONT.1877577",
      "street": "R SACADURA CABRAL",
      "house": "",
      "postcode": "6360-350",
      "city": "CELORICO DA BEIRA",
      "lon": "-7.394897644534186",
      "lat": "40.63405774378485"
    },
    {
      "id": "pt.ine.add.PTCONT.1890347",
      "street": "R DO BARROCO D EL-REI",
      "house": "19",
      "postcode": "6360-333",
      "city": "CELORICO DA BEIRA",
      "lon": "-7.395044634908023",
      "lat": "40.63359041843182"
    }
  ]
}