{
  "data": {
    "ilha": "Ilha da Madeira (Madeira)",
    "concelho": "Machico",
    "freguesia": "Água de Pena",
    "OBJECTID": 155,
    "BGRI2021": "31040100302",
    "DT21": "31",
    "DTMN21": "3104",
    "DTMNFR21": "310401",
    "DTMNFRSEC21": "310401003",
    "SECNUM21": "003",
    "SSNUM21": "02",
    "SECSSNUM21": "00302",
    "OBJECTID_1": 204477,
    "DT": "31",
    "CC": "04",
    "fr": "01",
    "SEC": "003",
    "SS": "02",
    "BGRI2021_1": "31040100302"
  },
  "addresses": [
    {
      "id": "pt.ine.add.MAD.36354",
      "street": "ESTR FRANCISCO ÁLVARES NOBREGA",
      "house": "67",
      "postcode": "9200-209",
      "city": "ÁGUA DE PENA",
      "lon": "-16.769831891254956",
      "lat": "32.70790774685146"
    },
    {
      "id": "pt.ine.add.MAD.36355",
      "street": "ESTR FRANCISCO ÁLVARES NOBREGA",
      "house": "4",
      "postcode": "9200-209",
      "city": "ÁGUA DE PENA",
      "lon": "-16.769807375813905",
      "lat": "32.708286890730854"
    },
    {
      "id": "pt.ine.add.MAD.36356",
      "street": "ESTR FRANCISCO ÁLVARES NOBREGA",
      "house": "6",
      "postcode": "9200-209",
      "city": "ÁGUA DE PENA",
      "lon": "-16.769660740159807",
      "lat": "32.7084242455014"
    },
    {
      "id": "pt.ine.add.MAD.37215",
      "street": "CAM QUEIMADA BAIXO E",
      "house": "E",
      "postcode": "9200-202",
      "city": "ÁGUA DE PENA",
      "lon": "-16.76946058508736",
      "lat": "32.708012196696195"
    },
    {
      "id": "pt.ine.add.MAD.37216",
      "street": "CAM QUEIMADA DE BAIXO",
      "house": "F 3",
      "postcode": "9200-202",
      "city": "ÁGUA DE PENA",
      "lon": "-16.769438187508328",
      "lat": "32.70795839881789"
    },
    {
      "id": "pt.ine.add.MAD.37217",
      "street": "CAM QUEIMADA BAIXO G",
      "house": "G",
      "postcode": "9200-202",
      "city": "ÁGUA DE PENA",
      "lon": "-16.769436763307237",
      "lat": "32.70788626694473"
    },
    {
      "id": "pt.ine.add.MAD.37218",
      "street": "CAM QUEIMADA DE BAIXO",
      "house": "I 3",
      "postcode": "9200-202",
      "city": "ÁGUA DE PENA",
      "lon": "-16.769392146295484",
      "lat": "32.70778768765358"
    },
    {
      "id": "pt.ine.add.MAD.37219",
      "street": "CAM QUEIMADA DE BAIXO URB POR DO SOL",
      "house": "H",
      "postcode": "9200-202",
      "city": "ÁGUA DE PENA",
      "lon": "-16.769185779278427",
      "lat": "32.70760120092639"
    },
    {
      "id": "pt.ine.add.MAD.37220",
      "street": "CAM QUEIMADA DE BAIXO",
      "house": "E 2",
      "postcode": "9200-202",
      "city": "ÁGUA DE PENA",
      "lon": "-16.76903736387396",
      "lat": "32.707648390114"
    },
    {
      "id": "pt.ine.add.MAD.37221",
      "street": "CAM QUEIMADA DE BAIXO",
      "house": "C 2",
      "postcode": "9200-202",
      "city": "ÁGUA DE PENA",
      "lon": "-16.769085362214465",
      "lat": "32.70791828278329"
    },
    {
      "id": "pt.ine.add.MAD.37222",
      "street": "CAM QUEIMADA BAIXO CASA B",
      "house": "CASA B",
      "postcode": "9200-202",
      "city": "ÁGUA DE PENA",
      "lon": "-16.769139397711104",
      "lat": "32.707953596306325"
    },
    {
      "id": "pt.ine.add.MAD.37223",
      "street": "CAM QUEIMADA BAIXO C",
      "house": "C",
      "postcode": "9200-202",
      "city": "ÁGUA DE PENA",
      "lon": "-16.76876435333414",
      "lat": "32.70786869789849"
    },
    {
      "id": "pt.ine.add.MAD.37224",
      "street": "CAM QUEIMADA DE BAIXO",
      "house": "I LO TE 1",
      "postcode": "9200-202",
      "city": "ÁGUA DE PENA",
      "lon": "-16.768895341738965",
      "lat": "32.70747903297224"
    },
    {
      "id": "pt.ine.add.MAD.37225",
      "street": "ESTR FRANCISCO ÁLVARES NOBREGA",
      "house": "18",
      "postcode": "9200-209",
      "city": "ÁGUA DE PENA",
      "lon": "-16.76928192357094",
      "lat": "32.70706772333504"
    },
    {
      "id": "pt.ine.add.MAD.37226",
      "street": "ESTR FRANCISCO ÁLVARES NOBREGA",
      "house": "18",
      "postcode": "9200-209",
      "city": "ÁGUA DE PENA",
      "lon": "-16.76928192357094",
      "lat": "32.70706772333504"
    },
    {
      "id": "pt.ine.add.MAD.38061",
      "street": "ESTR FRANCISCO ÁLVARES NOBREGA",
      "house": "71",
      "postcode": "9200-209",
      "city": "ÁGUA DE PENA",
      "lon": "-16.76990084586765",
      "lat": "32.707618165586915"
    },
    {
      "id": "pt.ine.add.MAD.38062",
      "street": "ESTR FRANCISCO ÁLVARES NOBREGA",
      "house": "79",
      "postcode": "9200-209",
      "city": "ÁGUA DE PENA",
      "lon": "-16.770646125068666",
      "lat": "32.70754450953527"
    },
    {
      "id": "pt.ine.add.MAD.38063",
      "street": "CAM QUEIMADA BAIXO",
      "house": "17",
      "postcode": "9200-202",
      "city": "ÁGUA DE PENA",
      "lon": "-16.768199292821546",
      "lat": "32.70734454734051"
    },
    {
      "id": "pt.ine.add.MAD.54165",
      "street": "CAM QUEIMADA DE BAIXO",
      "house": "2 1 L2",
      "postcode": "9200-202",
      "city": "ÁGUA DE PENA",
      "lon": "-16.769237500579056",
      "lat": "32.707519300100145"
    },
    {
      "id": "pt.ine.add.MAD.54166",
      "street": "CAM QUEIMADA DE BAIXO",
      "house": "E1",
      "postcode": "9200-202",
      "city": "ÁGUA DE PENA",
      "lon": "-16.76880434271938",
      "lat": "32.70773284876387"
    },
    {
      "id": "pt.ine.add.MAD.54167",
      "street": "CAM QUEIMADA BAIXO H",
      "house": "H",
      "postcode": "9200-202",
      "city": "ÁGUA DE PENA",
      "lon": "-16.768854284802423",
      "lat": "32.7075607832077"
    },
    {
      "id": "pt.ine.add.MAD.54168",
      "street": "ESTR FRANCISCO ÁLVARES NOBREGA",
      "house": "",
      "postcode": "9200-209",
      "city": "ÁGUA DE PENA",
      "lon": "-16.76985731620894",
      "lat": "32.70811482484506"
    },
    {
      "id": "pt.ine.add.MAD.61173",
      "street": "CAM QUEIMADA BAIXO CASA G",
      "house": "CASA G",
      "postcode": "9200-202",
      "city": "ÁGUA DE PENA",
      "lon": "-16.76885517462348",
      "lat": "32.707605865645064"
    },
    {
      "id": "pt.ine.add.MAD.61174",
      "street": "CAM QUEIMADA DE BAIXO",
      "house": "11",
      "postcode": "9200-202",
      "city": "ÁGUA DE PENA",
      "lon": "-16.768060296726752",
      "lat": "32.70732846953143"
    },
    {
      "id": "pt.ine.add.MAD.63370",
      "street": "CAM URBANIZACAO POR SOL A",
      "house": "A",
      "postcode": "9200-203",
      "city": "ÁGUA DE PENA",
      "lon": "-16.76952991443096",
      "lat": "32.70828178809806"
    },
    {
      "id": "pt.ine.add.MAD.63371",
      "street": "CAM QUEIMADA DE BAIXO",
      "house": "E 2",
      "postcode": "9200-202",
      "city": "ÁGUA DE PENA",
      "lon": "-16.769120026226727",
      "lat": "32.70805307861853"
    },
    {
      "id": "pt.ine.add.MAD.63372",
      "street": "ESTR FRANCISCO ÁLVARES NOBREGA",
      "house": "",
      "postcode": "9200-209",
      "city": "ÁGUA DE PENA",
      "lon": "-16.768827260738803",
      "lat": "32.707272556516244"
    },
    {
      "id": "pt.ine.add.MAD.69007",
      "street": "CAM QUEIMADA BAIXO J",
      "house": "J",
      "postcode": "9200-202",
      "city": "ÁGUA DE PENA",
      "lon": "-16.769401564838333",
      "lat": "32.70772442175409"
    },
    {
      "id": "pt.ine.add.MAD.74374",
      "street": "CAM QUEIMADA BAIXO CASA E",
      "house": "CASA E",
      "postcode": "9200-202",
      "city": "ÁGUA DE PENA",
      "lon": "-16.769018882235",
      "lat": "32.70779295484869"
    },
    {
      "id": "pt.ine.add.MAD.74375",
      "street": "ESTR FRANCISCO ÁLVARES NOBREGA",
      "house": "80",
      "postcode": "9200-209",
      "city": "ÁGUA DE PENA",
      "lon": "-16.770743175838433",
      "lat": "32.707597252853134"
    },
    {
      "id": "pt.ine.add.MAD.76380",
      "street": "ESTR FRANCISCO ÁLVARES NOBREGA",
      "house": "83",
      "postcode": "9200-209",
      "city": "ÁGUA DE PENA",
      "lon": "-16.770881994522732",
      "lat": "32.707604311177754"
    },
    {
      "id": "pt.ine.add.MAD.88784",
      "street": "CAM QUEIMADA DE BAIXO",
      "house": "F 2",
      "postcode": "9200-202",
      "city": "ÁGUA DE PENA",
      "lon": "-16.76906011710073",
      "lat": "32.70772022104998"
    },
    {
      "id": "pt.ine.add.MAD.92557",
      "street": "CAM QUEIMADA BAIXO CASA D",
      "house": "CASA D",
      "postcode": "9200-202",
      "city": "ÁGUA DE PENA",
      "lon": "-16.769030792808287",
      "lat": "32.70785591977671"
    },
    {
      "id": "pt.ine.add.MAD.92558",
      "street": "CAM QUEIMADA DE BAIXO",
      "house": "17",
      "postcode": "9200-202",
      "city": "ÁGUA DE PENA",
      "lon": "-16.768376509919946",
      "lat": "32.707675750889194"
    },
    {
      "id": "pt.ine.add.MAD.95765",
      "street": "ESTR FRANCISCO ÁLVARES NOBREGA",
      "house": "4",
      "postcode": "9200-209",
      "city": "ÁGUA DE PENA",
      "lon": "-16.769769308786305",
      "lat": "32.70743964245666"
    },
    {
      "id": "pt.ine.add.MAD.95766",
      "street": "ESTR FRANCISCO ÁLVARES NOBREGA",
      "house": "4",
      "postcode": "9200-209",
      "city": "ÁGUA DE PENA",
      "lon": "-16.769769308786305",
      "lat": "32.70743964245666"
    },
    {
      "id": "pt.ine.add.MAD.95767",
      "street": "ESTR FRANCISCO ÁLVARES NOBREGA",
      "house": "4",
      "postcode": "9200-209",
      "city": "ÁGUA DE PENA",
      "lon": "-16.769769308786305",
      "lat": "32.70743964245666"
    },
    {
      "id": "pt.ine.add.MAD.95768",
      "street": "ESTR FRANCISCO ÁLVARES NOBREGA",
      "house": "4",
      "postcode": "9200-209",
      "city": "ÁGUA DE PENA",
      "lon": "-16.769769308786305",
      "lat": "32.70743964245666"
    },
    {
      "id": "pt.ine.add.MAD.95769",
      "street": "ESTR FRANCISCO ÁLVARES NOBREGA",
      "house": "4",
      "postcode": "9200-209",
      "city": "ÁGUA DE PENA",
      "lon": "-16.769769308786305",
      "lat": "32.70743964245666"
    },
    {
      "id": "pt.ine.add.MAD.98954",
      "street": "CAM QUEIMADA DE BAIXO",
      "house": "D1",
      "postcode": "9200-202",
      "city": "ÁGUA DE PENA",
      "lon": "-16.76879510171169",
      "lat": "32.707805131120345"
    },
    {
      "id": "pt.ine.add.MAD.100333",
      "street": "ESTR FRANCISCO ÁLVARES NOBREGA",
      "house": "4",
      "postcode": "9200-209",
      "city": "ÁGUA DE PENA",
      "lon": "-16.769769308786305",
      "lat": "32.70743964245666"
    },
    {
      "id": "pt.ine.add.MAD.101399",
      "street": "CAM QUEIMADA DE BAIXO",
      "house": "26",
      "postcode": "9200-202",
      "city": "ÁGUA DE PENA",
      "lon": "-16.76828140765941",
      "lat": "32.70718104724722"
    },
    {
      "id": "pt.ine.add.MAD.101901",
      "street": "CAM QUEIMADA DE BAIXO URB POR DO SOL",
      "house": "L",
      "postcode": "9200-202",
      "city": "ÁGUA DE PENA",
      "lon": "-16.769474081259325",
      "lat": "32.70761517036618"
    },
    {
      "id": "pt.ine.add.MAD.105247",
      "street": "CAM QUEIMADA DE BAIXO",
      "house": "A1",
      "postcode": "9200-202",
      "city": "ÁGUA DE PENA",
      "lon": "-16.768725075653432",
      "lat": "32.70804061297158"
    },
    {
      "id": "pt.ine.add.MAD.106223",
      "street": "ESTR FRANCISCO ÁLVARES NOBREGA",
      "house": "4",
      "postcode": "9200-209",
      "city": "ÁGUA DE PENA",
      "lon": "-16.769769308786305",
      "lat": "32.70743964245666"
    },
    {
      "id": "pt.ine.add.MAD.116624",
      "street": "CAM QUEIMADA DE BAIXO",
      "house": "B",
      "postcode": "9200-202",
      "city": "ÁGUA DE PENA",
      "lon": "-16.76951746933272",
      "lat": "32.70819177378552"
    },
    {
      "id": "pt.ine.add.MAD.116625",
      "street": "CAM QUEIMADA DE BAIXO",
      "house": "21 C",
      "postcode": "9200-202",
      "city": "ÁGUA DE PENA",
      "lon": "-16.769516045055095",
      "lat": "32.70811964191818"
    },
    {
      "id": "pt.ine.add.MAD.116635",
      "street": "CAM QUEIMADA DE BAIXO",
      "house": "D",
      "postcode": "9200-202",
      "city": "ÁGUA DE PENA",
      "lon": "-16.769483160725397",
      "lat": "32.70807501105288"
    },
    {
      "id": "pt.ine.add.MAD.116636",
      "street": "CAM QUEIMADA DE BAIXO",
      "house": "K",
      "postcode": "9200-202",
      "city": "ÁGUA DE PENA",
      "lon": "-16.769432312711622",
      "lat": "32.70766085483545"
    },
    {
      "id": "pt.ine.add.MAD.116722",
      "street": "CAM QUEIMADA DE BAIXO",
      "house": "H",
      "postcode": "9200-202",
      "city": "ÁGUA DE PENA",
      "lon": "-16.76938254972233",
      "lat": "32.70784193706768"
    },
    {
      "id": "pt.ine.add.MAD.116742",
      "street": "CAM QUEIMADA DE BAIXO",
      "house": "B",
      "postcode": "9200-202",
      "city": "ÁGUA DE PENA",
      "lon": "-16.768744447577294",
      "lat": "32.70794113070527"
    },
    {
      "id": "pt.ine.add.MAD.116851",
      "street": "CAM QUEIMADA DE BAIXO",
      "house": "F",
      "postcode": "9200-202",
      "city": "ÁGUA DE PENA",
      "lon": "-16.768835091026084",
      "lat": "32.707669281977196"
    },
    {
      "id": "pt.ine.add.MAD.120819",
      "street": "VR DA FONTINHA",
      "house": "2",
      "postcode": "9200-209",
      "city": "ÁGUA DE PENA",
      "lon": "-16.769701581923044",
      "lat": "32.707251199510004"
    }
  ]
}