{
  "data": {
    "distrito": "Set√∫bal",
    "concelho": "Almada",
    "freguesia": "Costa da Caparica",
    "OBJECTID": 52,
    "BGRI2021": "15030302307",
    "DT21": "15",
    "DTMN21": "1503",
    "DTMNFR21": "150303",
    "DTMNFRSEC21": "150303023",
    "SECNUM21": "023",
    "SSNUM21": "07",
    "SECSSNUM21": "02307",
    "OBJECTID_1": 161150,
    "DT": "15",
    "CC": "03",
    "fr": "03",
    "SEC": "023",
    "SS": "07"
  },
  "addresses": [
    {
      "id": "pt.ine.add.PTCONT.4667002",
      "street": "R PROF SALAZAR SOUSA ANEXO",
      "house": "29 A",
      "postcode": "2825-402",
      "city": "COSTA DE CAPARICA",
      "lon": "-9.236641312573756",
      "lat": "38.645943781917296"
    },
    {
      "id": "pt.ine.add.PTCONT.4686722",
      "street": "R PROF SALAZAR SOUSA",
      "house": "27",
      "postcode": "2825-402",
      "city": "COSTA DE CAPARICA",
      "lon": "-9.236777608604738",
      "lat": "38.645843408802925"
    },
    {
      "id": "pt.ine.add.PTCONT.4736392",
      "street": "R HOLBECHE CASTELO BRANCO",
      "house": "2",
      "postcode": "2825-335",
      "city": "COSTA DE CAPARICA",
      "lon": "-9.236734847889652",
      "lat": "38.646050994605645"
    },
    {
      "id": "pt.ine.add.PTCONT.4949997",
      "street": "R HOLBECHE CASTELO BRANCO",
      "house": "2A",
      "postcode": "2825-335",
      "city": "COSTA DE CAPARICA",
      "lon": "-9.236871973100655",
      "lat": "38.64600466112955"
    },
    {
      "id": "pt.ine.add.PTCONT.4949998",
      "street": "R TEIXEIRA DA CUNHA",
      "house": "2",
      "postcode": "2825-410",
      "city": "COSTA DE CAPARICA",
      "lon": "-9.236506673846975",
      "lat": "38.64615223438094"
    },
    {
      "id": "pt.ine.add.PTCONT.4982920",
      "street": "R PROF SALAZAR SOUSA",
      "house": "29 A",
      "postcode": "2825-402",
      "city": "COSTA DE CAPARICA",
      "lon": "-9.236628170054034",
      "lat": "38.64583581075985"
    },
    {
      "id": "pt.ine.add.PTCONT.5063493",
      "street": "R TEIXEIRA DA CUNHA",
      "house": "4",
      "postcode": "2825-410",
      "city": "COSTA DE CAPARICA",
      "lon": "-9.236459629984902",
      "lat": "38.64608061470401"
    },
    {
      "id": "pt.ine.add.PTCONT.5070698",
      "street": "R TEIXEIRA DA CUNHA",
      "house": "6",
      "postcode": "2825-410",
      "city": "COSTA DE CAPARICA",
      "lon": "-9.236503496625161",
      "lat": "38.64594508199613"
    }
  ]
}