{
  "data": {
    "distrito": "Leiria",
    "concelho": "Caldas da Rainha",
    "freguesia": "Alvorninha",
    "OBJECTID": 749,
    "BGRI2021": "10060200212",
    "DT21": "10",
    "DTMN21": "1006",
    "DTMNFR21": "100602",
    "DTMNFRSEC21": "100602002",
    "SECNUM21": "002",
    "SSNUM21": "12",
    "SECSSNUM21": "00212",
    "OBJECTID_1": 88403,
    "DT": "10",
    "CC": "06",
    "fr": "02",
    "SEC": "002",
    "SS": "12"
  },
  "addresses": [
    {
      "id": "pt.ine.add.PTCONT.1988864",
      "street": "R CEMITÉRIO",
      "house": "",
      "postcode": "2500-351",
      "city": "ALVORNINHA",
      "lon": "-9.034201798638815",
      "lat": "39.37897915368821"
    },
    {
      "id": "pt.ine.add.PTCONT.1994506",
      "street": "R CESTEIRO",
      "house": "8",
      "postcode": "2500-351",
      "city": "ALVORNINHA",
      "lon": "-9.032015878029739",
      "lat": "39.380473200693345"
    },
    {
      "id": "pt.ine.add.PTCONT.2034352",
      "street": "R CESTEIRO",
      "house": "4",
      "postcode": "2500-351",
      "city": "ALVORNINHA",
      "lon": "-9.031767155387744",
      "lat": "39.38098851776832"
    },
    {
      "id": "pt.ine.add.PTCONT.2051040",
      "street": "R CEMITÉRIO",
      "house": "7",
      "postcode": "2500-351",
      "city": "ALVORNINHA",
      "lon": "-9.033265610673096",
      "lat": "39.38018432375171"
    },
    {
      "id": "pt.ine.add.PTCONT.2051041",
      "street": "R CEMITÉRIO",
      "house": "1",
      "postcode": "2500-351",
      "city": "ALVORNINHA",
      "lon": "-9.03211980825354",
      "lat": "39.381337064292275"
    },
    {
      "id": "pt.ine.add.PTCONT.2065855",
      "street": "R IGREJA",
      "house": "2",
      "postcode": "2500-334",
      "city": "ALVORNINHA",
      "lon": "-9.037039501701788",
      "lat": "39.38213659332467"
    },
    {
      "id": "pt.ine.add.PTCONT.2084533",
      "street": "EM 567",
      "house": "30",
      "postcode": "2500-334",
      "city": "ALVORNINHA",
      "lon": "-9.033548110217724",
      "lat": "39.38229876932071"
    },
    {
      "id": "pt.ine.add.PTCONT.2087484",
      "street": "R IGREJA",
      "house": "N 6",
      "postcode": "2500-334",
      "city": "ALVORNINHA",
      "lon": "-9.036758541127785",
      "lat": "39.38194963001138"
    },
    {
      "id": "pt.ine.add.PTCONT.2113932",
      "street": "R VALINHO",
      "house": "6",
      "postcode": "2500-351",
      "city": "ALVORNINHA",
      "lon": "-9.031409310924854",
      "lat": "39.380234697720105"
    },
    {
      "id": "pt.ine.add.PTCONT.2116735",
      "street": "R IGREJA",
      "house": "8",
      "postcode": "2500-334",
      "city": "ALVORNINHA",
      "lon": "-9.036260104888653",
      "lat": "39.381998534735665"
    },
    {
      "id": "pt.ine.add.PTCONT.2132570",
      "street": "ESTR ACHADA",
      "house": "5",
      "postcode": "2500-334",
      "city": "ALVORNINHA",
      "lon": "-9.037486520021362",
      "lat": "39.38170078653818"
    },
    {
      "id": "pt.ine.add.PTCONT.2185865",
      "street": "R IGREJA",
      "house": "4",
      "postcode": "2500-334",
      "city": "ALVORNINHA",
      "lon": "-9.036922637897556",
      "lat": "39.3820744525942"
    },
    {
      "id": "pt.ine.add.PTCONT.2221631",
      "street": "R CESTEIRO",
      "house": "2",
      "postcode": "2500-351",
      "city": "ALVORNINHA",
      "lon": "-9.031895964328049",
      "lat": "39.38107759227239"
    },
    {
      "id": "pt.ine.add.PTCONT.2231160",
      "street": "R CESTEIRO",
      "house": "14",
      "postcode": "2500-351",
      "city": "ALVORNINHA",
      "lon": "-9.031283967055673",
      "lat": "39.38041580425263"
    },
    {
      "id": "pt.ine.add.PTCONT.2232229",
      "street": "ESTR ACHADA",
      "house": "3",
      "postcode": "2500-334",
      "city": "ALVORNINHA",
      "lon": "-9.037523311043334",
      "lat": "39.381853618537534"
    }
  ]
}