{
  "data": {
    "distrito": "Porto",
    "concelho": "Maia",
    "freguesia": "Castêlo da Maia",
    "OBJECTID": 50,
    "BGRI2021": "13061801201",
    "DT21": "13",
    "DTMN21": "1306",
    "DTMNFR21": "130618",
    "DTMNFRSEC21": "130618012",
    "SECNUM21": "012",
    "SSNUM21": "01",
    "SECSSNUM21": "01201",
    "OBJECTID_1": 130577,
    "DT": "13",
    "CC": "06",
    "fr": "18",
    "SEC": "012",
    "SS": "01"
  },
  "addresses": [
    {
      "id": "pt.ine.add.PTCONT.3684139",
      "street": "AV ESTEVÃO DE OLIVEIRA MAIA",
      "house": "200",
      "postcode": "4475-632",
      "city": "MAIA",
      "lon": "-8.61351184200592",
      "lat": "41.26106256506805"
    },
    {
      "id": "pt.ine.add.PTCONT.3742099",
      "street": "TV ESTEVÃO DE OLIVEIRA MAIA",
      "house": "1T6",
      "postcode": "4475-633",
      "city": "MAIA",
      "lon": "-8.61385471277321",
      "lat": "41.260628933027284"
    },
    {
      "id": "pt.ine.add.PTCONT.3754568",
      "street": "TV ESTEVÃO DE OLIVEIRA MAIA",
      "house": "37",
      "postcode": "4475-633",
      "city": "MAIA",
      "lon": "-8.615526499176724",
      "lat": "41.26079301976398"
    },
    {
      "id": "pt.ine.add.PTCONT.3766963",
      "street": "TV ESTEVÃO DE OLIVEIRA MAIA",
      "house": "210",
      "postcode": "4475-633",
      "city": "MAIA",
      "lon": "-8.613508608881292",
      "lat": "41.26062137349763"
    },
    {
      "id": "pt.ine.add.PTCONT.3808877",
      "street": "R AUGUSTO NOGUEIRA DA SILVA",
      "house": "226",
      "postcode": "4475-615",
      "city": "MAIA",
      "lon": "-8.615885862687286",
      "lat": "41.26098060131461"
    },
    {
      "id": "pt.ine.add.PTCONT.3844326",
      "street": "TV ESTEVÃO DE OLIVEIRA MAIA",
      "house": "220",
      "postcode": "4475-633",
      "city": "MAIA",
      "lon": "-8.613365420792691",
      "lat": "41.26062197086783"
    },
    {
      "id": "pt.ine.add.PTCONT.3929133",
      "street": "AV ESTEVÃO DE OLIVEIRA MAIA",
      "house": "174",
      "postcode": "4475-632",
      "city": "MAIA",
      "lon": "-8.613941409136562",
      "lat": "41.26106077186135"
    },
    {
      "id": "pt.ine.add.PTCONT.3999030",
      "street": "VIA DIAGONAL",
      "house": "37",
      "postcode": "4475-627",
      "city": "MAIA",
      "lon": "-8.615510591424187",
      "lat": "41.26025283531383"
    },
    {
      "id": "pt.ine.add.PTCONT.3999031",
      "street": "VIA DIAGONAL",
      "house": "37",
      "postcode": "4475-627",
      "city": "MAIA",
      "lon": "-8.615510591424187",
      "lat": "41.26025283531383"
    },
    {
      "id": "pt.ine.add.PTCONT.3999032",
      "street": "VIA DIAGONAL",
      "house": "37",
      "postcode": "4475-627",
      "city": "MAIA",
      "lon": "-8.615510591424187",
      "lat": "41.26025283531383"
    },
    {
      "id": "pt.ine.add.PTCONT.3999033",
      "street": "VIA DIAGONAL",
      "house": "37",
      "postcode": "4475-627",
      "city": "MAIA",
      "lon": "-8.615510591424187",
      "lat": "41.26025283531383"
    },
    {
      "id": "pt.ine.add.PTCONT.3999034",
      "street": "VIA DIAGONAL",
      "house": "37",
      "postcode": "4475-627",
      "city": "MAIA",
      "lon": "-8.615510591424187",
      "lat": "41.26025283531383"
    },
    {
      "id": "pt.ine.add.PTCONT.3999035",
      "street": "VIA DIAGONAL",
      "house": "37",
      "postcode": "4475-627",
      "city": "MAIA",
      "lon": "-8.615510591424187",
      "lat": "41.26025283531383"
    },
    {
      "id": "pt.ine.add.PTCONT.3999036",
      "street": "VIA DIAGONAL",
      "house": "37",
      "postcode": "4475-627",
      "city": "MAIA",
      "lon": "-8.615510591424187",
      "lat": "41.26025283531383"
    },
    {
      "id": "pt.ine.add.PTCONT.3999037",
      "street": "VIA DIAGONAL",
      "house": "37",
      "postcode": "4475-627",
      "city": "MAIA",
      "lon": "-8.615510591424187",
      "lat": "41.26025283531383"
    },
    {
      "id": "pt.ine.add.PTCONT.3999038",
      "street": "VIA DIAGONAL",
      "house": "37",
      "postcode": "4475-627",
      "city": "MAIA",
      "lon": "-8.615510591424187",
      "lat": "41.26025283531383"
    },
    {
      "id": "pt.ine.add.PTCONT.3999039",
      "street": "VIA DIAGONAL",
      "house": "37",
      "postcode": "4475-627",
      "city": "MAIA",
      "lon": "-8.615510591424187",
      "lat": "41.26025283531383"
    },
    {
      "id": "pt.ine.add.PTCONT.3999040",
      "street": "VIA DIAGONAL",
      "house": "37",
      "postcode": "4475-627",
      "city": "MAIA",
      "lon": "-8.615510591424187",
      "lat": "41.26025283531383"
    },
    {
      "id": "pt.ine.add.PTCONT.3999041",
      "street": "VIA DIAGONAL",
      "house": "37",
      "postcode": "4475-627",
      "city": "MAIA",
      "lon": "-8.615510591424187",
      "lat": "41.26025283531383"
    },
    {
      "id": "pt.ine.add.PTCONT.3999042",
      "street": "VIA DIAGONAL",
      "house": "37",
      "postcode": "4475-627",
      "city": "MAIA",
      "lon": "-8.615510591424187",
      "lat": "41.26025283531383"
    },
    {
      "id": "pt.ine.add.PTCONT.3999043",
      "street": "VIA DIAGONAL",
      "house": "37",
      "postcode": "4475-627",
      "city": "MAIA",
      "lon": "-8.615510591424187",
      "lat": "41.26025283531383"
    },
    {
      "id": "pt.ine.add.PTCONT.3999044",
      "street": "VIA DIAGONAL",
      "house": "37",
      "postcode": "4475-627",
      "city": "MAIA",
      "lon": "-8.615510591424187",
      "lat": "41.26025283531383"
    },
    {
      "id": "pt.ine.add.PTCONT.3999045",
      "street": "VIA DIAGONAL",
      "house": "57",
      "postcode": "4475-627",
      "city": "MAIA",
      "lon": "-8.615510591424187",
      "lat": "41.26025283531383"
    },
    {
      "id": "pt.ine.add.PTCONT.3999046",
      "street": "VIA DIAGONAL",
      "house": "37",
      "postcode": "4475-627",
      "city": "MAIA",
      "lon": "-8.615510591424187",
      "lat": "41.26025283531383"
    },
    {
      "id": "pt.ine.add.PTCONT.3999047",
      "street": "VIA DIAGONAL",
      "house": "37",
      "postcode": "4475-627",
      "city": "MAIA",
      "lon": "-8.615510591424187",
      "lat": "41.26025283531383"
    },
    {
      "id": "pt.ine.add.PTCONT.3999048",
      "street": "VIA DIAGONAL",
      "house": "37",
      "postcode": "4475-627",
      "city": "MAIA",
      "lon": "-8.615510591424187",
      "lat": "41.26025283531383"
    },
    {
      "id": "pt.ine.add.PTCONT.3999049",
      "street": "VIA DIAGONAL",
      "house": "37",
      "postcode": "4475-627",
      "city": "MAIA",
      "lon": "-8.615510591424187",
      "lat": "41.26025283531383"
    },
    {
      "id": "pt.ine.add.PTCONT.3999050",
      "street": "VIA DIAGONAL",
      "house": "37",
      "postcode": "4475-627",
      "city": "MAIA",
      "lon": "-8.615510591424187",
      "lat": "41.26025283531383"
    },
    {
      "id": "pt.ine.add.PTCONT.3999051",
      "street": "VIA DIAGONAL",
      "house": "37",
      "postcode": "4475-627",
      "city": "MAIA",
      "lon": "-8.615510591424187",
      "lat": "41.26025283531383"
    },
    {
      "id": "pt.ine.add.PTCONT.3999052",
      "street": "VIA DIAGONAL",
      "house": "37",
      "postcode": "4475-627",
      "city": "MAIA",
      "lon": "-8.615510591424187",
      "lat": "41.26025283531383"
    },
    {
      "id": "pt.ine.add.PTCONT.3999053",
      "street": "VIA DIAGONAL",
      "house": "37",
      "postcode": "4475-627",
      "city": "MAIA",
      "lon": "-8.615510591424187",
      "lat": "41.26025283531383"
    },
    {
      "id": "pt.ine.add.PTCONT.3999054",
      "street": "VIA DIAGONAL",
      "house": "37",
      "postcode": "4475-627",
      "city": "MAIA",
      "lon": "-8.615510591424187",
      "lat": "41.26025283531383"
    },
    {
      "id": "pt.ine.add.PTCONT.3999055",
      "street": "VIA DIAGONAL",
      "house": "37",
      "postcode": "4475-627",
      "city": "MAIA",
      "lon": "-8.615510591424187",
      "lat": "41.26025283531383"
    },
    {
      "id": "pt.ine.add.PTCONT.3999056",
      "street": "VIA DIAGONAL",
      "house": "37",
      "postcode": "4475-627",
      "city": "MAIA",
      "lon": "-8.615510591424187",
      "lat": "41.26025283531383"
    },
    {
      "id": "pt.ine.add.PTCONT.3999057",
      "street": "VIA DIAGONAL",
      "house": "37",
      "postcode": "4475-627",
      "city": "MAIA",
      "lon": "-8.615510591424187",
      "lat": "41.26025283531383"
    },
    {
      "id": "pt.ine.add.PTCONT.3999058",
      "street": "VIA DIAGONAL",
      "house": "37",
      "postcode": "4475-627",
      "city": "MAIA",
      "lon": "-8.615510591424187",
      "lat": "41.26025283531383"
    },
    {
      "id": "pt.ine.add.PTCONT.3999059",
      "street": "VIA DIAGONAL",
      "house": "37",
      "postcode": "4475-627",
      "city": "MAIA",
      "lon": "-8.615510591424187",
      "lat": "41.26025283531383"
    },
    {
      "id": "pt.ine.add.PTCONT.3999060",
      "street": "VIA DIAGONAL",
      "house": "37",
      "postcode": "4475-627",
      "city": "MAIA",
      "lon": "-8.615510591424187",
      "lat": "41.26025283531383"
    },
    {
      "id": "pt.ine.add.PTCONT.3999061",
      "street": "VIA DIAGONAL",
      "house": "37",
      "postcode": "4475-627",
      "city": "MAIA",
      "lon": "-8.615510591424187",
      "lat": "41.26025283531383"
    },
    {
      "id": "pt.ine.add.PTCONT.3999062",
      "street": "VIA DIAGONAL",
      "house": "37",
      "postcode": "4475-627",
      "city": "MAIA",
      "lon": "-8.615510591424187",
      "lat": "41.26025283531383"
    },
    {
      "id": "pt.ine.add.PTCONT.4003155",
      "street": "VIA DIAGONAL",
      "house": "37",
      "postcode": "4475-627",
      "city": "MAIA",
      "lon": "-8.615510591424187",
      "lat": "41.26025283531383"
    },
    {
      "id": "pt.ine.add.PTCONT.4003165",
      "street": "VIA DIAGONAL",
      "house": "37",
      "postcode": "4475-627",
      "city": "MAIA",
      "lon": "-8.615510591424187",
      "lat": "41.26025283531383"
    },
    {
      "id": "pt.ine.add.PTCONT.4003174",
      "street": "VIA DIAGONAL",
      "house": "37",
      "postcode": "4475-627",
      "city": "MAIA",
      "lon": "-8.615510591424187",
      "lat": "41.26025283531383"
    },
    {
      "id": "pt.ine.add.PTCONT.4012234",
      "street": "TV ESTEVÃO DE OLIVEIRA MAIA",
      "house": "142",
      "postcode": "4475-633",
      "city": "MAIA",
      "lon": "-8.614272212528036",
      "lat": "41.26060918060684"
    },
    {
      "id": "pt.ine.add.PTCONT.4055439",
      "street": "TV ESTEVÃO DE OLIVEIRA MAIA",
      "house": "114",
      "postcode": "4475-633",
      "city": "MAIA",
      "lon": "-8.614558720858138",
      "lat": "41.26062599125034"
    },
    {
      "id": "pt.ine.add.PTCONT.4057919",
      "street": "R AUGUSTO NOGUEIRA SILVA",
      "house": "188",
      "postcode": "4475-615",
      "city": "MAIA",
      "lon": "-8.615846882933058",
      "lat": "41.26054856389595"
    },
    {
      "id": "pt.ine.add.PTCONT.4110390",
      "street": "TV ESTEVÃO DE OLIVEIRA MAIA",
      "house": "",
      "postcode": "4475-633",
      "city": "MAIA",
      "lon": "-8.61442746512141",
      "lat": "41.26062654004369"
    },
    {
      "id": "pt.ine.add.PTCONT.4110391",
      "street": "TV ESTEVAO OLIVEIRA MAIA",
      "house": "192",
      "postcode": "4475-633",
      "city": "MAIA",
      "lon": "-8.613699460318445",
      "lat": "41.260611572817304"
    },
    {
      "id": "pt.ine.add.PTCONT.4110392",
      "street": "TV ESTEVAO OLIVEIRA MAIA",
      "house": "192",
      "postcode": "4475-633",
      "city": "MAIA",
      "lon": "-8.613699460318445",
      "lat": "41.260611572817304"
    },
    {
      "id": "pt.ine.add.PTCONT.4133869",
      "street": "AV ESTEVAO OLIVEIRA MAIA",
      "house": "200",
      "postcode": "4475-632",
      "city": "MAIA",
      "lon": "-8.61362925224693",
      "lat": "41.26080095374609"
    },
    {
      "id": "pt.ine.add.PTCONT.4140388",
      "street": "AV ESTEVÃO DE OLIVEIRA MAIA",
      "house": "188",
      "postcode": "4475-632",
      "city": "MAIA",
      "lon": "-8.613714693155783",
      "lat": "41.2610617184757"
    },
    {
      "id": "pt.ine.add.PTCONT.4140389",
      "street": "TV ESTEVÃO DE OLIVEIRA MAIA",
      "house": "212",
      "postcode": "4475-633",
      "city": "MAIA",
      "lon": "-8.61343708080912",
      "lat": "41.260630676115014"
    },
    {
      "id": "pt.ine.add.PTCONT.4143385",
      "street": "VIA DIAGONAL",
      "house": "233",
      "postcode": "4475-627",
      "city": "MAIA",
      "lon": "-8.610032104290935",
      "lat": "41.26005955897012"
    },
    {
      "id": "pt.ine.add.PTCONT.4143386",
      "street": "VIA DIAGONAL",
      "house": "233",
      "postcode": "4475-627",
      "city": "MAIA",
      "lon": "-8.610032104290935",
      "lat": "41.26005955897012"
    },
    {
      "id": "pt.ine.add.PTCONT.4143387",
      "street": "VIA DIAGONAL",
      "house": "233",
      "postcode": "4475-627",
      "city": "MAIA",
      "lon": "-8.610032104290935",
      "lat": "41.26005955897012"
    },
    {
      "id": "pt.ine.add.PTCONT.4143390",
      "street": "VIA DIAGONAL",
      "house": "233",
      "postcode": "4475-627",
      "city": "MAIA",
      "lon": "-8.610032104290935",
      "lat": "41.26005955897012"
    },
    {
      "id": "pt.ine.add.PTCONT.4143391",
      "street": "VIA DIAGONAL",
      "house": "233",
      "postcode": "4475-627",
      "city": "MAIA",
      "lon": "-8.610032104290935",
      "lat": "41.26005955897012"
    },
    {
      "id": "pt.ine.add.PTCONT.4143392",
      "street": "VIA DIAGONAL",
      "house": "233",
      "postcode": "4475-627",
      "city": "MAIA",
      "lon": "-8.610032104290935",
      "lat": "41.26005955897012"
    },
    {
      "id": "pt.ine.add.PTCONT.4143393",
      "street": "VIA DIAGONAL",
      "house": "233",
      "postcode": "4475-627",
      "city": "MAIA",
      "lon": "-8.610032104290935",
      "lat": "41.26005955897012"
    },
    {
      "id": "pt.ine.add.PTCONT.4143394",
      "street": "VIA DIAGONAL",
      "house": "233",
      "postcode": "4475-627",
      "city": "MAIA",
      "lon": "-8.610032104290935",
      "lat": "41.26005955897012"
    },
    {
      "id": "pt.ine.add.PTCONT.4143395",
      "street": "VIA DIAGONAL",
      "house": "233",
      "postcode": "4475-627",
      "city": "MAIA",
      "lon": "-8.610032104290935",
      "lat": "41.26005955897012"
    },
    {
      "id": "pt.ine.add.PTCONT.4143396",
      "street": "VIA DIAGONAL",
      "house": "233",
      "postcode": "4475-627",
      "city": "MAIA",
      "lon": "-8.610032104290935",
      "lat": "41.26005955897012"
    },
    {
      "id": "pt.ine.add.PTCONT.4147507",
      "street": "VIA DIAGONAL",
      "house": "233",
      "postcode": "4475-627",
      "city": "MAIA",
      "lon": "-8.610032104290935",
      "lat": "41.26005955897012"
    },
    {
      "id": "pt.ine.add.PTCONT.4147514",
      "street": "VIA DIAGONAL",
      "house": "233",
      "postcode": "4475-627",
      "city": "MAIA",
      "lon": "-8.610032104290935",
      "lat": "41.26005955897012"
    },
    {
      "id": "pt.ine.add.PTCONT.4175920",
      "street": "R LUIS PAIVA FERNANDES",
      "house": "10",
      "postcode": "4475-633",
      "city": "MAIA",
      "lon": "-8.615538895369774",
      "lat": "41.26085599711438"
    },
    {
      "id": "pt.ine.add.PTCONT.4221839",
      "street": "AV ESTEVÃO DE OLIVEIRA MAIA",
      "house": "126",
      "postcode": "4475-632",
      "city": "MAIA",
      "lon": "-8.614442504629206",
      "lat": "41.26104967385324"
    },
    {
      "id": "pt.ine.add.PTCONT.4267530",
      "street": "VIA DIAGONAL",
      "house": "235",
      "postcode": "4475-627",
      "city": "MAIA",
      "lon": "-8.610045936171629",
      "lat": "41.26032062308237"
    },
    {
      "id": "pt.ine.add.PTCONT.4267531",
      "street": "VIA DIAGONAL",
      "house": "235",
      "postcode": "4475-627",
      "city": "MAIA",
      "lon": "-8.610045936171629",
      "lat": "41.26032062308237"
    },
    {
      "id": "pt.ine.add.PTCONT.4267534",
      "street": "VIA DIAGONAL",
      "house": "235",
      "postcode": "4475-627",
      "city": "MAIA",
      "lon": "-8.610045936171629",
      "lat": "41.26032062308237"
    },
    {
      "id": "pt.ine.add.PTCONT.4267535",
      "street": "VIA DIAGONAL",
      "house": "235",
      "postcode": "4475-627",
      "city": "MAIA",
      "lon": "-8.610045936171629",
      "lat": "41.26032062308237"
    },
    {
      "id": "pt.ine.add.PTCONT.4267536",
      "street": "VIA DIAGONAL",
      "house": "235",
      "postcode": "4475-627",
      "city": "MAIA",
      "lon": "-8.610045936171629",
      "lat": "41.26032062308237"
    },
    {
      "id": "pt.ine.add.PTCONT.4267537",
      "street": "VIA DIAGONAL",
      "house": "235",
      "postcode": "4475-627",
      "city": "MAIA",
      "lon": "-8.610045936171629",
      "lat": "41.26032062308237"
    },
    {
      "id": "pt.ine.add.PTCONT.4267538",
      "street": "VIA DIAGONAL",
      "house": "235",
      "postcode": "4475-627",
      "city": "MAIA",
      "lon": "-8.610045936171629",
      "lat": "41.26032062308237"
    },
    {
      "id": "pt.ine.add.PTCONT.4267539",
      "street": "VIA DIAGONAL",
      "house": "235",
      "postcode": "4475-627",
      "city": "MAIA",
      "lon": "-8.610045936171629",
      "lat": "41.26032062308237"
    },
    {
      "id": "pt.ine.add.PTCONT.4267540",
      "street": "VIA DIAGONAL",
      "house": "235",
      "postcode": "4475-627",
      "city": "MAIA",
      "lon": "-8.610045936171629",
      "lat": "41.26032062308237"
    },
    {
      "id": "pt.ine.add.PTCONT.4267541",
      "street": "VIA DIAGONAL",
      "house": "235",
      "postcode": "4475-627",
      "city": "MAIA",
      "lon": "-8.610045936171629",
      "lat": "41.26032062308237"
    },
    {
      "id": "pt.ine.add.PTCONT.4267542",
      "street": "VIA DIAGONAL",
      "house": "235",
      "postcode": "4475-627",
      "city": "MAIA",
      "lon": "-8.610045936171629",
      "lat": "41.26032062308237"
    },
    {
      "id": "pt.ine.add.PTCONT.4267543",
      "street": "VIA DIAGONAL",
      "house": "235",
      "postcode": "4475-627",
      "city": "MAIA",
      "lon": "-8.610045936171629",
      "lat": "41.26032062308237"
    },
    {
      "id": "pt.ine.add.PTCONT.4284691",
      "street": "VIA DIAGONAL",
      "house": "197",
      "postcode": "4475-627",
      "city": "MAIA",
      "lon": "-8.61047385956454",
      "lat": "41.26009374496802"
    },
    {
      "id": "pt.ine.add.PTCONT.4284877",
      "street": "VIA DIAGONAL",
      "house": "197",
      "postcode": "4475-627",
      "city": "MAIA",
      "lon": "-8.61047385956454",
      "lat": "41.26009374496802"
    },
    {
      "id": "pt.ine.add.PTCONT.4284878",
      "street": "VIA DIAGONAL",
      "house": "197",
      "postcode": "4475-627",
      "city": "MAIA",
      "lon": "-8.61047385956454",
      "lat": "41.26009374496802"
    },
    {
      "id": "pt.ine.add.PTCONT.4284879",
      "street": "VIA DIAGONAL",
      "house": "197",
      "postcode": "4475-627",
      "city": "MAIA",
      "lon": "-8.61047385956454",
      "lat": "41.26009374496802"
    },
    {
      "id": "pt.ine.add.PTCONT.4284880",
      "street": "VIA DIAGONAL",
      "house": "197",
      "postcode": "4475-627",
      "city": "MAIA",
      "lon": "-8.61047385956454",
      "lat": "41.26009374496802"
    },
    {
      "id": "pt.ine.add.PTCONT.4284881",
      "street": "VIA DIAGONAL",
      "house": "197",
      "postcode": "4475-627",
      "city": "MAIA",
      "lon": "-8.61047385956454",
      "lat": "41.26009374496802"
    },
    {
      "id": "pt.ine.add.PTCONT.4284882",
      "street": "VIA DIAGONAL",
      "house": "197",
      "postcode": "4475-627",
      "city": "MAIA",
      "lon": "-8.61047385956454",
      "lat": "41.26009374496802"
    },
    {
      "id": "pt.ine.add.PTCONT.4284883",
      "street": "VIA DIAGONAL",
      "house": "197",
      "postcode": "4475-627",
      "city": "MAIA",
      "lon": "-8.61047385956454",
      "lat": "41.26009374496802"
    },
    {
      "id": "pt.ine.add.PTCONT.4284884",
      "street": "VIA DIAGONAL",
      "house": "197",
      "postcode": "4475-627",
      "city": "MAIA",
      "lon": "-8.61047385956454",
      "lat": "41.26009374496802"
    },
    {
      "id": "pt.ine.add.PTCONT.4284885",
      "street": "VIA DIAGONAL",
      "house": "197",
      "postcode": "4475-627",
      "city": "MAIA",
      "lon": "-8.61047385956454",
      "lat": "41.26009374496802"
    },
    {
      "id": "pt.ine.add.PTCONT.4284886",
      "street": "VIA DIAGONAL",
      "house": "197",
      "postcode": "4475-627",
      "city": "MAIA",
      "lon": "-8.61047385956454",
      "lat": "41.26009374496802"
    },
    {
      "id": "pt.ine.add.PTCONT.4285158",
      "street": "VIA DIAGONAL",
      "house": "197",
      "postcode": "4475-627",
      "city": "MAIA",
      "lon": "-8.61047385956454",
      "lat": "41.26009374496802"
    },
    {
      "id": "pt.ine.add.PTCONT.4294165",
      "street": "TV ESTEVÃO DE OLIVEIRA MAIA",
      "house": "170",
      "postcode": "4475-633",
      "city": "MAIA",
      "lon": "-8.614009965308243",
      "lat": "41.2606462930274"
    },
    {
      "id": "pt.ine.add.PTCONT.4294166",
      "street": "TV ESTEVÃO DE OLIVEIRA MAIA",
      "house": "170",
      "postcode": "4475-633",
      "city": "MAIA",
      "lon": "-8.614009965308243",
      "lat": "41.2606462930274"
    },
    {
      "id": "pt.ine.add.PTCONT.4301322",
      "street": "AV ESTEVÃO DE OLIVEIRA MAIA",
      "house": "148",
      "postcode": "4475-632",
      "city": "MAIA",
      "lon": "-8.614203856286046",
      "lat": "41.26105067131548"
    },
    {
      "id": "pt.ine.add.PTCONT.4353244",
      "street": "AV ESTEVÃO DE OLIVEIRA MAIA",
      "house": "24",
      "postcode": "4475-632",
      "city": "MAIA",
      "lon": "-8.61592272091474",
      "lat": "41.26112451370131"
    },
    {
      "id": "pt.ine.add.PTCONT.4353245",
      "street": "AV ESTEVÃO DE OLIVEIRA MAIA",
      "house": "82",
      "postcode": "4475-632",
      "city": "MAIA",
      "lon": "-8.614967729490349",
      "lat": "41.2610744894172"
    },
    {
      "id": "pt.ine.add.PTCONT.4380587",
      "street": "TV ESTEVÃO DE OLIVEIRA MAIA",
      "house": "200",
      "postcode": "4475-633",
      "city": "MAIA",
      "lon": "-8.613568402562855",
      "lat": "41.26063913236052"
    }
  ]
}