{
  "data": {
    "distrito": "Portalegre",
    "concelho": "Elvas",
    "freguesia": "Assunção, Ajuda, Salvador e Santo Ildefonso",
    "OBJECTID": 51,
    "BGRI2021": "12071200629",
    "DT21": "12",
    "DTMN21": "1207",
    "DTMNFR21": "120712",
    "DTMNFRSEC21": "120712006",
    "SECNUM21": "006",
    "SSNUM21": "29",
    "SECSSNUM21": "00629",
    "OBJECTID_1": 121829,
    "DT": "12",
    "CC": "07",
    "fr": "12",
    "SEC": "006",
    "SS": "29"
  },
  "addresses": [
    {
      "id": "pt.ine.add.PTCONT.3538455",
      "street": "R DR JOAO CAMOESAS",
      "house": "N13",
      "postcode": "7350-214",
      "city": "ELVAS",
      "lon": "-7.170980350786934",
      "lat": "38.866434408982"
    },
    {
      "id": "pt.ine.add.PTCONT.3461421",
      "street": "HORTA DA CARVALHA",
      "house": "",
      "postcode": "7350-313",
      "city": "ELVAS",
      "lon": "-7.160946265394212",
      "lat": "38.86125295999402"
    },
    {
      "id": "pt.ine.add.PTCONT.3465042",
      "street": "R DR JOÃO CAMOESAS",
      "house": "",
      "postcode": "7350-214",
      "city": "ELVAS",
      "lon": "-7.170607163094278",
      "lat": "38.862494973585356"
    },
    {
      "id": "pt.ine.add.PTCONT.3481080",
      "street": "QTA D CLARA",
      "house": "",
      "postcode": "7350-313",
      "city": "ELVAS",
      "lon": "-7.167169946747363",
      "lat": "38.86533171399093"
    },
    {
      "id": "pt.ine.add.PTCONT.3481081",
      "street": "QTA D CLARA",
      "house": "",
      "postcode": "7350-313",
      "city": "ELVAS",
      "lon": "-7.167169946747363",
      "lat": "38.86533171399093"
    },
    {
      "id": "pt.ine.add.PTCONT.3486852",
      "street": "ESTR CARVALHA QTA DO TESOUREIRO GERAL",
      "house": "27",
      "postcode": "7350-313",
      "city": "ELVAS",
      "lon": "-7.168839825414737",
      "lat": "38.86754069785086"
    },
    {
      "id": "pt.ine.add.PTCONT.3500428",
      "street": "URB REVOLTILHO",
      "house": "",
      "postcode": "7350-214",
      "city": "ELVAS",
      "lon": "-7.170980350786934",
      "lat": "38.866434408982"
    },
    {
      "id": "pt.ine.add.PTCONT.3500429",
      "street": "URB REVOLTILHO",
      "house": "13",
      "postcode": "7350-214",
      "city": "ELVAS",
      "lon": "-7.170980350786934",
      "lat": "38.866434408982"
    },
    {
      "id": "pt.ine.add.PTCONT.3500430",
      "street": "URB REVOLTILHO",
      "house": "",
      "postcode": "7350-214",
      "city": "ELVAS",
      "lon": "-7.170980350786934",
      "lat": "38.866434408982"
    },
    {
      "id": "pt.ine.add.PTCONT.3500431",
      "street": "R DR JOAO CAMOESAS",
      "house": "13",
      "postcode": "7350-214",
      "city": "ELVAS",
      "lon": "-7.170980350786934",
      "lat": "38.866434408982"
    },
    {
      "id": "pt.ine.add.PTCONT.3500432",
      "street": "URB REVOLTILHO",
      "house": "",
      "postcode": "7350-214",
      "city": "ELVAS",
      "lon": "-7.170980350786934",
      "lat": "38.866434408982"
    },
    {
      "id": "pt.ine.add.PTCONT.3500433",
      "street": "URB REVOLTILHO",
      "house": "",
      "postcode": "7350-214",
      "city": "ELVAS",
      "lon": "-7.170980350786934",
      "lat": "38.866434408982"
    },
    {
      "id": "pt.ine.add.PTCONT.3500434",
      "street": "R DR JOAO CAMOESAS",
      "house": "13",
      "postcode": "7350-214",
      "city": "ELVAS",
      "lon": "-7.170980350786934",
      "lat": "38.866434408982"
    },
    {
      "id": "pt.ine.add.PTCONT.3500435",
      "street": "URB REVOLTILHO",
      "house": "",
      "postcode": "7350-214",
      "city": "ELVAS",
      "lon": "-7.170980350786934",
      "lat": "38.866434408982"
    },
    {
      "id": "pt.ine.add.PTCONT.3500436",
      "street": "URB REVOLTILHO",
      "house": "",
      "postcode": "7350-214",
      "city": "ELVAS",
      "lon": "-7.170980350786934",
      "lat": "38.866434408982"
    },
    {
      "id": "pt.ine.add.PTCONT.3500437",
      "street": "URB REVOLTILHO",
      "house": "",
      "postcode": "7350-214",
      "city": "ELVAS",
      "lon": "-7.170980350786934",
      "lat": "38.866434408982"
    },
    {
      "id": "pt.ine.add.PTCONT.3500438",
      "street": "URB REVOLTILHO",
      "house": "",
      "postcode": "7350-214",
      "city": "ELVAS",
      "lon": "-7.170980350786934",
      "lat": "38.866434408982"
    },
    {
      "id": "pt.ine.add.PTCONT.3500455",
      "street": "URB REVOLTILHO",
      "house": "",
      "postcode": "7350-214",
      "city": "ELVAS",
      "lon": "-7.170980350786934",
      "lat": "38.866434408982"
    },
    {
      "id": "pt.ine.add.PTCONT.3500456",
      "street": "R DR JOAO CAMOESAS",
      "house": "13",
      "postcode": "7350-214",
      "city": "ELVAS",
      "lon": "-7.170980350786934",
      "lat": "38.866434408982"
    },
    {
      "id": "pt.ine.add.PTCONT.3500457",
      "street": "R DR JOAO CAMOESAS T ELVAS",
      "house": "T ELVAS",
      "postcode": "7350-214",
      "city": "ELVAS",
      "lon": "-7.170980350786934",
      "lat": "38.866434408982"
    },
    {
      "id": "pt.ine.add.PTCONT.3500458",
      "street": "URB REVOLTILHO",
      "house": "",
      "postcode": "7350-214",
      "city": "ELVAS",
      "lon": "-7.170980350786934",
      "lat": "38.866434408982"
    },
    {
      "id": "pt.ine.add.PTCONT.3500459",
      "street": "URB REVOLTILHO",
      "house": "13",
      "postcode": "7350-214",
      "city": "ELVAS",
      "lon": "-7.170980350786934",
      "lat": "38.866434408982"
    },
    {
      "id": "pt.ine.add.PTCONT.3500460",
      "street": "URB REVOLTILHO",
      "house": "",
      "postcode": "7350-214",
      "city": "ELVAS",
      "lon": "-7.170980350786934",
      "lat": "38.866434408982"
    },
    {
      "id": "pt.ine.add.PTCONT.3500461",
      "street": "R DR JOAO CAMOESAS",
      "house": "13",
      "postcode": "7350-214",
      "city": "ELVAS",
      "lon": "-7.170980350786934",
      "lat": "38.866434408982"
    },
    {
      "id": "pt.ine.add.PTCONT.3500462",
      "street": "URB REVOLTILHO",
      "house": "",
      "postcode": "7350-214",
      "city": "ELVAS",
      "lon": "-7.170980350786934",
      "lat": "38.866434408982"
    },
    {
      "id": "pt.ine.add.PTCONT.3500463",
      "street": "URB REVOLTILHO",
      "house": "",
      "postcode": "7350-214",
      "city": "ELVAS",
      "lon": "-7.170980350786934",
      "lat": "38.866434408982"
    },
    {
      "id": "pt.ine.add.PTCONT.3500464",
      "street": "URB REVOLTILHO",
      "house": "",
      "postcode": "7350-214",
      "city": "ELVAS",
      "lon": "-7.170980350786934",
      "lat": "38.866434408982"
    },
    {
      "id": "pt.ine.add.PTCONT.3500826",
      "street": "R DR JOAO CAMOESAS",
      "house": "13",
      "postcode": "7350-214",
      "city": "ELVAS",
      "lon": "-7.170980350786934",
      "lat": "38.866434408982"
    },
    {
      "id": "pt.ine.add.PTCONT.3500881",
      "street": "URB REVOLTILHO",
      "house": "",
      "postcode": "7350-214",
      "city": "ELVAS",
      "lon": "-7.170980350786934",
      "lat": "38.866434408982"
    },
    {
      "id": "pt.ine.add.PTCONT.3518986",
      "street": "QTA CARVALHA",
      "house": "",
      "postcode": "7350-214",
      "city": "ELVAS",
      "lon": "-7.162287333514678",
      "lat": "38.861759538723966"
    },
    {
      "id": "pt.ine.add.PTCONT.3533366",
      "street": "ESTR CARVALHA",
      "house": "",
      "postcode": "7350-313",
      "city": "ELVAS",
      "lon": "-7.168244042897582",
      "lat": "38.8662428291806"
    }
  ]
}