{
  "data": {
    "distrito": "Viana do Castelo",
    "concelho": "Valença",
    "freguesia": "Boivão",
    "OBJECTID": 495,
    "BGRI2021": "16080200103",
    "DT21": "16",
    "DTMN21": "1608",
    "DTMNFR21": "160802",
    "DTMNFRSEC21": "160802001",
    "SECNUM21": "001",
    "SSNUM21": "03",
    "SECSSNUM21": "00103",
    "OBJECTID_1": 177246,
    "DT": "16",
    "CC": "08",
    "fr": "02",
    "SEC": "001",
    "SS": "03"
  },
  "addresses": [
    {
      "id": "pt.ine.add.PTCONT.5135488",
      "street": "AV BOUCELO",
      "house": "1",
      "postcode": "4930-070",
      "city": "BOIVÃO",
      "lon": "-8.535949004435867",
      "lat": "42.00896601175813"
    },
    {
      "id": "pt.ine.add.PTCONT.5137675",
      "street": "R VALE",
      "house": "3",
      "postcode": "4930-070",
      "city": "BOIVÃO",
      "lon": "-8.533764947771726",
      "lat": "42.009108701060455"
    },
    {
      "id": "pt.ine.add.PTCONT.5141071",
      "street": "AV IGREJA",
      "house": "",
      "postcode": "4930-070",
      "city": "BOIVÃO",
      "lon": "-8.537365848397695",
      "lat": "42.009672269882195"
    },
    {
      "id": "pt.ine.add.PTCONT.5141087",
      "street": "R CRUZ",
      "house": "3",
      "postcode": "4930-070",
      "city": "BOIVÃO",
      "lon": "-8.536538506708657",
      "lat": "42.00864883549879"
    },
    {
      "id": "pt.ine.add.PTCONT.5150343",
      "street": "AV BOUCEIO",
      "house": "7",
      "postcode": "4930-070",
      "city": "BOIVÃO",
      "lon": "-8.533608641783626",
      "lat": "42.00920827981639"
    },
    {
      "id": "pt.ine.add.PTCONT.5154873",
      "street": "R VALE",
      "house": "12",
      "postcode": "4930-070",
      "city": "BOIVÃO",
      "lon": "-8.533281022829266",
      "lat": "42.00893933158318"
    },
    {
      "id": "pt.ine.add.PTCONT.5161740",
      "street": "R VALE",
      "house": "11",
      "postcode": "4930-070",
      "city": "BOIVÃO",
      "lon": "-8.534207062190326",
      "lat": "42.00838691484691"
    },
    {
      "id": "pt.ine.add.PTCONT.5165230",
      "street": "R VALE",
      "house": "10",
      "postcode": "4930-070",
      "city": "BOIVÃO",
      "lon": "-8.5340259944284",
      "lat": "42.00838754738925"
    },
    {
      "id": "pt.ine.add.PTCONT.5167315",
      "street": "R VALE",
      "house": "1",
      "postcode": "4930-070",
      "city": "BOIVÃO",
      "lon": "-8.534236747356433",
      "lat": "42.00926910783559"
    },
    {
      "id": "pt.ine.add.PTCONT.5168457",
      "street": "R CASTELO FRAIAO",
      "house": "3",
      "postcode": "4930-070",
      "city": "BOIVÃO",
      "lon": "-8.536596199424315",
      "lat": "42.00631684806532"
    },
    {
      "id": "pt.ine.add.PTCONT.5170686",
      "street": "R EIRA DA PEDREIRA",
      "house": "4",
      "postcode": "4930-070",
      "city": "BOIVÃO",
      "lon": "-8.534681801868494",
      "lat": "42.00901546698647"
    },
    {
      "id": "pt.ine.add.PTCONT.5171803",
      "street": "AV BOUCELO",
      "house": "2",
      "postcode": "4930-070",
      "city": "BOIVÃO",
      "lon": "-8.535731494114351",
      "lat": "42.00893076276733"
    },
    {
      "id": "pt.ine.add.PTCONT.5175287",
      "street": "R CASTELO FRAIAO",
      "house": "4",
      "postcode": "4930-070",
      "city": "BOIVÃO",
      "lon": "-8.536270515475444",
      "lat": "42.00635400450077"
    },
    {
      "id": "pt.ine.add.PTCONT.5179049",
      "street": "R VALE",
      "house": "8",
      "postcode": "4930-070",
      "city": "BOIVÃO",
      "lon": "-8.53388345708674",
      "lat": "42.00875716928371"
    },
    {
      "id": "pt.ine.add.PTCONT.5179050",
      "street": "R CASTELO FRAIAO",
      "house": "1",
      "postcode": "4930-070",
      "city": "BOIVÃO",
      "lon": "-8.53792036232586",
      "lat": "42.007644634494056"
    },
    {
      "id": "pt.ine.add.PTCONT.5179494",
      "street": "R EIRA DA PEDREIRA",
      "house": "2",
      "postcode": "4930-070",
      "city": "BOIVÃO",
      "lon": "-8.534936205744184",
      "lat": "42.009158625150945"
    },
    {
      "id": "pt.ine.add.PTCONT.5212093",
      "street": "R EIRA DA PEDREIRA",
      "house": "7",
      "postcode": "4930-070",
      "city": "BOIVÃO",
      "lon": "-8.534295180780404",
      "lat": "42.00896280070004"
    },
    {
      "id": "pt.ine.add.PTCONT.5218130",
      "street": "R VALE",
      "house": "7",
      "postcode": "4930-070",
      "city": "BOIVÃO",
      "lon": "-8.533449682190447",
      "lat": "42.00888472532477"
    },
    {
      "id": "pt.ine.add.PTCONT.5232531",
      "street": "R DU VAL",
      "house": "2",
      "postcode": "4930-070",
      "city": "BOIVÃO",
      "lon": "-8.534224053861283",
      "lat": "42.00917011889343"
    },
    {
      "id": "pt.ine.add.PTCONT.5247405",
      "street": "R VALE",
      "house": "9",
      "postcode": "4930-070",
      "city": "BOIVÃO",
      "lon": "-8.533869069030038",
      "lat": "42.008388095361596"
    },
    {
      "id": "pt.ine.add.PTCONT.5247961",
      "street": "R EIRA DA PEDREIRA",
      "house": "",
      "postcode": "4930-070",
      "city": "BOIVÃO",
      "lon": "-8.535104864248652",
      "lat": "42.00910401646628"
    },
    {
      "id": "pt.ine.add.PTCONT.5247962",
      "street": "R CRUZ",
      "house": "1",
      "postcode": "4930-070",
      "city": "BOIVÃO",
      "lon": "-8.537105683598664",
      "lat": "42.008619831668796"
    },
    {
      "id": "pt.ine.add.PTCONT.5252266",
      "street": "R EIRA DA PEDREIRA",
      "house": "5",
      "postcode": "4930-070",
      "city": "BOIVÃO",
      "lon": "-8.534393448582989",
      "lat": "42.00923254803433"
    },
    {
      "id": "pt.ine.add.PTCONT.5253612",
      "street": "AV BOUCELO",
      "house": "3",
      "postcode": "4930-070",
      "city": "BOIVÃO",
      "lon": "-8.535358418642941",
      "lat": "42.009112131260785"
    },
    {
      "id": "pt.ine.add.PTCONT.5255551",
      "street": "R CRUZ",
      "house": "2",
      "postcode": "4930-070",
      "city": "BOIVÃO",
      "lon": "-8.53652489967294",
      "lat": "42.00840580156561"
    },
    {
      "id": "pt.ine.add.PTCONT.5256732",
      "street": "R EIRA DA PEDREIRA",
      "house": "6",
      "postcode": "4930-070",
      "city": "BOIVÃO",
      "lon": "-8.534549526980918",
      "lat": "42.009096956898006"
    },
    {
      "id": "pt.ine.add.PTCONT.5257908",
      "street": "R VALE",
      "house": "6",
      "postcode": "4930-070",
      "city": "BOIVÃO",
      "lon": "-8.533992720151076",
      "lat": "42.00885582105915"
    },
    {
      "id": "pt.ine.add.PTCONT.5259042",
      "street": "R VALE",
      "house": "",
      "postcode": "4930-070",
      "city": "BOIVÃO",
      "lon": "-8.533244019083646",
      "lat": "42.00881341818819"
    },
    {
      "id": "pt.ine.add.PTCONT.5259758",
      "street": "R EIRA DA PEDREIRA",
      "house": "",
      "postcode": "4930-070",
      "city": "BOIVÃO",
      "lon": "-8.534548791128604",
      "lat": "42.00897992011561"
    },
    {
      "id": "pt.ine.add.PTCONT.5259759",
      "street": "R VALE",
      "house": "4",
      "postcode": "4930-070",
      "city": "BOIVÃO",
      "lon": "-8.533812159552802",
      "lat": "42.00893747874312"
    },
    {
      "id": "pt.ine.add.PTCONT.5262497",
      "street": "R VALE",
      "house": "5",
      "postcode": "4930-070",
      "city": "BOIVÃO",
      "lon": "-8.534114224472452",
      "lat": "42.008981439048355"
    },
    {
      "id": "pt.ine.add.PTCONT.5262507",
      "street": "AV BOUCEIO",
      "house": "8",
      "postcode": "4930-070",
      "city": "BOIVÃO",
      "lon": "-8.533439699467612",
      "lat": "42.00921787215678"
    },
    {
      "id": "pt.ine.add.PTCONT.5271762",
      "street": "R VALE",
      "house": "",
      "postcode": "4930-070",
      "city": "BOIVÃO",
      "lon": "-8.534052624246366",
      "lat": "42.008783587616556"
    },
    {
      "id": "pt.ine.add.PTCONT.5273513",
      "street": "AV BOUCEIO",
      "house": "10",
      "postcode": "4930-070",
      "city": "BOIVÃO",
      "lon": "-8.533053529292177",
      "lat": "42.00923722433597"
    },
    {
      "id": "pt.ine.add.PTCONT.5275222",
      "street": "R EIRA DA PEDREIRA",
      "house": "02",
      "postcode": "4930-070",
      "city": "BOIVÃO",
      "lon": "-8.535080211501352",
      "lat": "42.00902307555264"
    },
    {
      "id": "pt.ine.add.PTCONT.5279820",
      "street": "R CASTELO FRAIAO",
      "house": "2",
      "postcode": "4930-070",
      "city": "BOIVÃO",
      "lon": "-8.536855093788127",
      "lat": "42.00717122568132"
    }
  ]
}