{
  "data": {
    "distrito": "Setúbal",
    "concelho": "Seixal",
    "freguesia": "Fernão Ferro",
    "OBJECTID": 298,
    "BGRI2021": "15100601710",
    "DT21": "15",
    "DTMN21": "1510",
    "DTMNFR21": "151006",
    "DTMNFRSEC21": "151006017",
    "SECNUM21": "017",
    "SSNUM21": "10",
    "SECSSNUM21": "01710",
    "OBJECTID_1": 168160,
    "DT": "15",
    "CC": "10",
    "fr": "06",
    "SEC": "017",
    "SS": "10"
  },
  "addresses": [
    {
      "id": "pt.ine.add.PTCONT.4663771",
      "street": "R RESENDE DIAS",
      "house": "",
      "postcode": "2865-554",
      "city": "FERNÃO FERRO",
      "lon": "-9.079690994480305",
      "lat": "38.56815610324436"
    },
    {
      "id": "pt.ine.add.PTCONT.4716993",
      "street": "R RESENDE DIAS",
      "house": "401",
      "postcode": "2865-554",
      "city": "FERNÃO FERRO",
      "lon": "-9.079673366846555",
      "lat": "38.56856161224448"
    },
    {
      "id": "pt.ine.add.PTCONT.4716994",
      "street": "R RESENDE DIAS",
      "house": "401",
      "postcode": "2865-554",
      "city": "FERNÃO FERRO",
      "lon": "-9.079673366846555",
      "lat": "38.56856161224448"
    },
    {
      "id": "pt.ine.add.PTCONT.4734045",
      "street": "R RESENDE DIAS",
      "house": "",
      "postcode": "2865-554",
      "city": "FERNÃO FERRO",
      "lon": "-9.079640484437673",
      "lat": "38.56867898401596"
    },
    {
      "id": "pt.ine.add.PTCONT.4735404",
      "street": "R RESENDE DIAS",
      "house": "",
      "postcode": "2865-554",
      "city": "FERNÃO FERRO",
      "lon": "-9.079640484437673",
      "lat": "38.56867898401596"
    },
    {
      "id": "pt.ine.add.PTCONT.4824816",
      "street": "R JOAQUIM SIMÕES DA HORA",
      "house": "15",
      "postcode": "2865-513",
      "city": "FERNÃO FERRO",
      "lon": "-9.07983983899406",
      "lat": "38.56887768759284"
    },
    {
      "id": "pt.ine.add.PTCONT.4824817",
      "street": "R JOAQUIM SIMÕES DA HORA",
      "house": "15",
      "postcode": "2865-513",
      "city": "FERNÃO FERRO",
      "lon": "-9.07983983899406",
      "lat": "38.56887768759284"
    },
    {
      "id": "pt.ine.add.PTCONT.4850495",
      "street": "R RAUL FERRÃO",
      "house": "",
      "postcode": "2865-529",
      "city": "FERNÃO FERRO",
      "lon": "-9.080007623239364",
      "lat": "38.56780222460894"
    },
    {
      "id": "pt.ine.add.PTCONT.4865128",
      "street": "R RAUL FERRÃO",
      "house": "",
      "postcode": "2865-529",
      "city": "FERNÃO FERRO",
      "lon": "-9.079914652317484",
      "lat": "38.56858668515578"
    },
    {
      "id": "pt.ine.add.PTCONT.4921192",
      "street": "R RAUL FERRÃO",
      "house": "",
      "postcode": "2865-529",
      "city": "FERNÃO FERRO",
      "lon": "-9.07989359783518",
      "lat": "38.56873098574662"
    },
    {
      "id": "pt.ine.add.PTCONT.4934334",
      "street": "R BARBOSA DU BOCAGE",
      "house": "",
      "postcode": "2865-754",
      "city": "FERNÃO FERRO",
      "lon": "-9.079786685728934",
      "lat": "38.5675788081317"
    },
    {
      "id": "pt.ine.add.PTCONT.4970395",
      "street": "R RESENDE DIAS",
      "house": "",
      "postcode": "2865-554",
      "city": "FERNÃO FERRO",
      "lon": "-9.079691939923455",
      "lat": "38.56822816074618"
    },
    {
      "id": "pt.ine.add.PTCONT.5029124",
      "street": "R RESENDE DIAS",
      "house": "",
      "postcode": "2865-554",
      "city": "FERNÃO FERRO",
      "lon": "-9.07975758590154",
      "lat": "38.567984409965725"
    },
    {
      "id": "pt.ine.add.PTCONT.5061806",
      "street": "R BARBOSA DU BOCAGE",
      "house": "",
      "postcode": "2865-754",
      "city": "FERNÃO FERRO",
      "lon": "-9.079936422401095",
      "lat": "38.567622637705426"
    },
    {
      "id": "pt.ine.add.PTCONT.5065528",
      "street": "R RESENDE DIAS",
      "house": "",
      "postcode": "2865-554",
      "city": "FERNÃO FERRO",
      "lon": "-9.079701403681117",
      "lat": "38.568074945771535"
    },
    {
      "id": "pt.ine.add.PTCONT.5090618",
      "street": "R RESENDE DIAS",
      "house": "",
      "postcode": "2865-554",
      "city": "FERNÃO FERRO",
      "lon": "-9.079693121732143",
      "lat": "38.56831823262218"
    },
    {
      "id": "pt.ine.add.PTCONT.5090619",
      "street": "R RESENDE DIAS",
      "house": "",
      "postcode": "2865-554",
      "city": "FERNÃO FERRO",
      "lon": "-9.079767522252055",
      "lat": "38.56786722373392"
    },
    {
      "id": "pt.ine.add.PTCONT.5098254",
      "street": "R RESENDE DIAS",
      "house": "10",
      "postcode": "2865-554",
      "city": "FERNÃO FERRO",
      "lon": "-9.079681176154738",
      "lat": "38.568282296653685"
    },
    {
      "id": "pt.ine.add.PTCONT.5098255",
      "street": "R RESENDE DIAS",
      "house": "10",
      "postcode": "2865-554",
      "city": "FERNÃO FERRO",
      "lon": "-9.079681176154738",
      "lat": "38.568282296653685"
    }
  ]
}