{
  "data": {
    "distrito": "Lisboa",
    "concelho": "Cascais",
    "freguesia": "União das freguesias de Cascais e Estoril",
    "OBJECTID": 1268,
    "BGRI2021": "11050805507",
    "DT21": "11",
    "DTMN21": "1105",
    "DTMNFR21": "110508",
    "DTMNFRSEC21": "110508055",
    "SECNUM21": "055",
    "SSNUM21": "07",
    "SECSSNUM21": "05507",
    "OBJECTID_1": 100568,
    "DT": "11",
    "CC": "05",
    "fr": "08",
    "SEC": "055",
    "SS": "07"
  },
  "addresses": [
    {
      "id": "pt.ine.add.PTCONT.3000109",
      "street": "AV REPUBLICA",
      "house": "59",
      "postcode": "2765-573",
      "city": "ESTORIL",
      "lon": "-9.394103270321693",
      "lat": "38.71386521011863"
    },
    {
      "id": "pt.ine.add.PTCONT.3066704",
      "street": "R D AFONSO HENRIQUES A",
      "house": "A 9",
      "postcode": "2765-571",
      "city": "ESTORIL",
      "lon": "-9.394494912798887",
      "lat": "38.71586970520331"
    },
    {
      "id": "pt.ine.add.PTCONT.3066705",
      "street": "R D AFONSO HENRIQUES",
      "house": "149 G",
      "postcode": "2765-571",
      "city": "ESTORIL",
      "lon": "-9.394494912798887",
      "lat": "38.71586970520331"
    },
    {
      "id": "pt.ine.add.PTCONT.3070874",
      "street": "R D AFONSO HENRIQUES",
      "house": "AP 12",
      "postcode": "2765-571",
      "city": "ESTORIL",
      "lon": "-9.394494912798887",
      "lat": "38.71586970520331"
    },
    {
      "id": "pt.ine.add.PTCONT.3071357",
      "street": "R D AFONSO HENRIQUES A",
      "house": "A 3",
      "postcode": "2765-571",
      "city": "ESTORIL",
      "lon": "-9.394494912798887",
      "lat": "38.71586970520331"
    },
    {
      "id": "pt.ine.add.PTCONT.3093344",
      "street": "R D AFONSO HENRIQUES",
      "house": "149 A",
      "postcode": "2765-571",
      "city": "ESTORIL",
      "lon": "-9.394306656392883",
      "lat": "38.71497096501871"
    },
    {
      "id": "pt.ine.add.PTCONT.3093345",
      "street": "R D AFONSO HENRIQUES",
      "house": "149 A",
      "postcode": "2765-571",
      "city": "ESTORIL",
      "lon": "-9.394306656392883",
      "lat": "38.71497096501871"
    },
    {
      "id": "pt.ine.add.PTCONT.3093346",
      "street": "R D AFONSO HENRIQUES",
      "house": "149 A",
      "postcode": "2765-571",
      "city": "ESTORIL",
      "lon": "-9.394306656392883",
      "lat": "38.71497096501871"
    },
    {
      "id": "pt.ine.add.PTCONT.3093347",
      "street": "R D AFONSO HENRIQUES",
      "house": "149 A",
      "postcode": "2765-571",
      "city": "ESTORIL",
      "lon": "-9.394306656392883",
      "lat": "38.71497096501871"
    },
    {
      "id": "pt.ine.add.PTCONT.3130078",
      "street": "AV REPUBLICA",
      "house": "59",
      "postcode": "2765-571",
      "city": "ESTORIL",
      "lon": "-9.394130374670585",
      "lat": "38.71409911835086"
    },
    {
      "id": "pt.ine.add.PTCONT.3158380",
      "street": "R D AFONSO HENRIQUES",
      "house": "1723",
      "postcode": "2765-573",
      "city": "ESTORIL",
      "lon": "-9.395479942725135",
      "lat": "38.71500334021338"
    },
    {
      "id": "pt.ine.add.PTCONT.3158381",
      "street": "R D AFONSO HENRIQUES",
      "house": "1723",
      "postcode": "2765-573",
      "city": "ESTORIL",
      "lon": "-9.395479942725135",
      "lat": "38.71500334021338"
    },
    {
      "id": "pt.ine.add.PTCONT.3315175",
      "street": "AV D NUNO ÁLVARES PEREIRA",
      "house": "4",
      "postcode": "2765-203",
      "city": "ESTORIL",
      "lon": "-9.395265292450157",
      "lat": "38.71325816133932"
    },
    {
      "id": "pt.ine.add.PTCONT.3324550",
      "street": "R RIBATEJO S",
      "house": "145",
      "postcode": "2765-274",
      "city": "ESTORIL",
      "lon": "-9.395166068646008",
      "lat": "38.71611467759258"
    },
    {
      "id": "pt.ine.add.PTCONT.3342849",
      "street": "R BRASIL",
      "house": "60",
      "postcode": "2765-203",
      "city": "ESTORIL",
      "lon": "-9.396799569760486",
      "lat": "38.71420541235577"
    },
    {
      "id": "pt.ine.add.PTCONT.3393769",
      "street": "R D AFONSO HENRIQUES",
      "house": "1801 A",
      "postcode": "2765-573",
      "city": "ESTORIL",
      "lon": "-9.395140025525457",
      "lat": "38.71398013084638"
    },
    {
      "id": "pt.ine.add.PTCONT.3407547",
      "street": "AV REPUBLICA",
      "house": "329 1",
      "postcode": "2765-273",
      "city": "ESTORIL",
      "lon": "-9.394633709568872",
      "lat": "38.71657080902002"
    },
    {
      "id": "pt.ine.add.PTCONT.3452525",
      "street": "R D AFONSO HENRIQUES CONDOMINIO ESTORIL REAL",
      "house": "149 E",
      "postcode": "2765-571",
      "city": "ESTORIL",
      "lon": "-9.394421192632997",
      "lat": "38.71560026923677"
    },
    {
      "id": "pt.ine.add.PTCONT.2278314",
      "street": "R D AFONSO HENRIQUES",
      "house": "1771",
      "postcode": "2765-573",
      "city": "ESTORIL",
      "lon": "-9.394714936300934",
      "lat": "38.71465128979364"
    },
    {
      "id": "pt.ine.add.PTCONT.2287307",
      "street": "R D AFONSO HENRIQUES VILLANOVA",
      "house": "1787",
      "postcode": "2765-573",
      "city": "ESTORIL",
      "lon": "-9.394777414354404",
      "lat": "38.71428129927962"
    },
    {
      "id": "pt.ine.add.PTCONT.2296455",
      "street": "R D AFONSO HENRIQUES",
      "house": "1789",
      "postcode": "2765-573",
      "city": "ESTORIL",
      "lon": "-9.394541816633922",
      "lat": "38.71395956389929"
    },
    {
      "id": "pt.ine.add.PTCONT.2303654",
      "street": "R D AFONSO HENRIQUES",
      "house": "149 C",
      "postcode": "2765-571",
      "city": "ESTORIL",
      "lon": "-9.394379900540336",
      "lat": "38.71521338308851"
    },
    {
      "id": "pt.ine.add.PTCONT.2303655",
      "street": "R D AFONSO HENRIQUES",
      "house": "149 C",
      "postcode": "2765-571",
      "city": "ESTORIL",
      "lon": "-9.394379900540336",
      "lat": "38.71521338308851"
    },
    {
      "id": "pt.ine.add.PTCONT.2303656",
      "street": "R D AFONSO HENRIQUES",
      "house": "149 C",
      "postcode": "2765-571",
      "city": "ESTORIL",
      "lon": "-9.394379900540336",
      "lat": "38.71521338308851"
    },
    {
      "id": "pt.ine.add.PTCONT.2304134",
      "street": "R D AFONSO HENRIQUES",
      "house": "149 C",
      "postcode": "2765-571",
      "city": "ESTORIL",
      "lon": "-9.394379900540336",
      "lat": "38.71521338308851"
    },
    {
      "id": "pt.ine.add.PTCONT.2305181",
      "street": "R D AFONSO HENRIQUES A",
      "house": "A 10",
      "postcode": "2765-571",
      "city": "ESTORIL",
      "lon": "-9.394446874085498",
      "lat": "38.71575312326237"
    },
    {
      "id": "pt.ine.add.PTCONT.2305182",
      "street": "R D AFONSO HENRIQUES A",
      "house": "A 8",
      "postcode": "2765-571",
      "city": "ESTORIL",
      "lon": "-9.394446874085498",
      "lat": "38.71575312326237"
    },
    {
      "id": "pt.ine.add.PTCONT.2305183",
      "street": "R D AFONSO HENRIQUES",
      "house": "149 F",
      "postcode": "2765-571",
      "city": "ESTORIL",
      "lon": "-9.394446874085498",
      "lat": "38.71575312326237"
    },
    {
      "id": "pt.ine.add.PTCONT.2314217",
      "street": "R D AFONSO HENRIQUES",
      "house": "1845",
      "postcode": "2765-573",
      "city": "ESTORIL",
      "lon": "-9.395321409172512",
      "lat": "38.71383404922352"
    },
    {
      "id": "pt.ine.add.PTCONT.2332297",
      "street": "R RIBATEJO CASA DAS FAIAS",
      "house": "189 A",
      "postcode": "2765-274",
      "city": "ESTORIL",
      "lon": "-9.395298308474914",
      "lat": "38.715788972319785"
    },
    {
      "id": "pt.ine.add.PTCONT.2332307",
      "street": "R D AFONSO HENRIQUES",
      "house": "1769",
      "postcode": "2765-573",
      "city": "ESTORIL",
      "lon": "-9.394757907867715",
      "lat": "38.71447967949821"
    },
    {
      "id": "pt.ine.add.PTCONT.2349592",
      "street": "AV REPUBLICA",
      "house": "159",
      "postcode": "2765-571",
      "city": "ESTORIL",
      "lon": "-9.394276860354838",
      "lat": "38.714583954768095"
    },
    {
      "id": "pt.ine.add.PTCONT.2359355",
      "street": "AV D NUNO ÁLVARES PEREIRA",
      "house": "",
      "postcode": "2765-260",
      "city": "ESTORIL",
      "lon": "-9.394439093713798",
      "lat": "38.713348147598865"
    },
    {
      "id": "pt.ine.add.PTCONT.2396384",
      "street": "R D AFONSO HENRIQUES A",
      "house": "A 7",
      "postcode": "2765-571",
      "city": "ESTORIL",
      "lon": "-9.394292628863859",
      "lat": "38.714826992931854"
    },
    {
      "id": "pt.ine.add.PTCONT.2424141",
      "street": "R D AFONSO HENRIQUES",
      "house": "1887",
      "postcode": "2765-573",
      "city": "ESTORIL",
      "lon": "-9.395479802413593",
      "lat": "38.71368821557252"
    },
    {
      "id": "pt.ine.add.PTCONT.2477724",
      "street": "R D AFONSO HENRIQUES",
      "house": "1755",
      "postcode": "2765-573",
      "city": "ESTORIL",
      "lon": "-9.394878083110168",
      "lat": "38.7147756370636"
    },
    {
      "id": "pt.ine.add.PTCONT.2483927",
      "street": "R D AFONSO HENRIQUES",
      "house": "1755",
      "postcode": "2765-573",
      "city": "ESTORIL",
      "lon": "-9.394878083110168",
      "lat": "38.7147756370636"
    },
    {
      "id": "pt.ine.add.PTCONT.2520890",
      "street": "R BRASIL",
      "house": "86",
      "postcode": "2765-203",
      "city": "ESTORIL",
      "lon": "-9.396540419228675",
      "lat": "38.71450546782529"
    },
    {
      "id": "pt.ine.add.PTCONT.2556008",
      "street": "R D AFONSO HENRIQUES CONDOMINIO ESTORIL REAL",
      "house": "149 E",
      "postcode": "2765-571",
      "city": "ESTORIL",
      "lon": "-9.394421192632997",
      "lat": "38.71560026923677"
    },
    {
      "id": "pt.ine.add.PTCONT.2556009",
      "street": "R D AFONSO HENRIQUES A",
      "house": "A 6",
      "postcode": "2765-571",
      "city": "ESTORIL",
      "lon": "-9.394421192632997",
      "lat": "38.71560026923677"
    },
    {
      "id": "pt.ine.add.PTCONT.2556010",
      "street": "R D AFONSO HENRIQUES CONDOMINIO ESTORIL REAL",
      "house": "149 E",
      "postcode": "2765-571",
      "city": "ESTORIL",
      "lon": "-9.394421192632997",
      "lat": "38.71560026923677"
    },
    {
      "id": "pt.ine.add.PTCONT.2597052",
      "street": "R BRASIL",
      "house": "116",
      "postcode": "2765-203",
      "city": "ESTORIL",
      "lon": "-9.39496126795533",
      "lat": "38.713621751832726"
    },
    {
      "id": "pt.ine.add.PTCONT.2641238",
      "street": "R D AFONSO HENRIQUES B",
      "house": "B 1",
      "postcode": "2765-571",
      "city": "ESTORIL",
      "lon": "-9.3943715712993",
      "lat": "38.7153936272066"
    },
    {
      "id": "pt.ine.add.PTCONT.2658347",
      "street": "AV REPUBLICA",
      "house": "59",
      "postcode": "2765-571",
      "city": "ESTORIL",
      "lon": "-9.39415811225734",
      "lat": "38.71436905059379"
    },
    {
      "id": "pt.ine.add.PTCONT.2658348",
      "street": "R D AFONSO HENRIQUES",
      "house": "1697",
      "postcode": "2765-573",
      "city": "ESTORIL",
      "lon": "-9.395844456140162",
      "lat": "38.71481024163512"
    },
    {
      "id": "pt.ine.add.PTCONT.2666622",
      "street": "R D AFONSO HENRIQUES",
      "house": "149 B",
      "postcode": "2765-571",
      "city": "ESTORIL",
      "lon": "-9.394377684447502",
      "lat": "38.715087299014534"
    },
    {
      "id": "pt.ine.add.PTCONT.2666623",
      "street": "R D AFONSO HENRIQUES",
      "house": "149 B",
      "postcode": "2765-571",
      "city": "ESTORIL",
      "lon": "-9.394377684447502",
      "lat": "38.715087299014534"
    },
    {
      "id": "pt.ine.add.PTCONT.2666624",
      "street": "R D AFONSO HENRIQUES",
      "house": "149 B",
      "postcode": "2765-571",
      "city": "ESTORIL",
      "lon": "-9.394377684447502",
      "lat": "38.715087299014534"
    },
    {
      "id": "pt.ine.add.PTCONT.2675221",
      "street": "R RIBATEJO",
      "house": "182",
      "postcode": "2765-274",
      "city": "ESTORIL",
      "lon": "-9.396158068336023",
      "lat": "38.715644571003516"
    },
    {
      "id": "pt.ine.add.PTCONT.2675222",
      "street": "R RIBATEJO",
      "house": "182",
      "postcode": "2765-274",
      "city": "ESTORIL",
      "lon": "-9.396158068336023",
      "lat": "38.715644571003516"
    },
    {
      "id": "pt.ine.add.PTCONT.2675223",
      "street": "R RIBATEJO",
      "house": "182",
      "postcode": "2765-274",
      "city": "ESTORIL",
      "lon": "-9.396158068336023",
      "lat": "38.715644571003516"
    },
    {
      "id": "pt.ine.add.PTCONT.2733493",
      "street": "R D AFONSO HENRIQUES",
      "house": "149 H",
      "postcode": "2765-571",
      "city": "ESTORIL",
      "lon": "-9.394520594520198",
      "lat": "38.716022559201534"
    },
    {
      "id": "pt.ine.add.PTCONT.2735077",
      "street": "R D AFONSO HENRIQUES",
      "house": "1753",
      "postcode": "2765-573",
      "city": "ESTORIL",
      "lon": "-9.395040438615169",
      "lat": "38.71485495407676"
    },
    {
      "id": "pt.ine.add.PTCONT.2737717",
      "street": "R RIBATEJO",
      "house": "215",
      "postcode": "2765-274",
      "city": "ESTORIL",
      "lon": "-9.395582201908944",
      "lat": "38.71558773723895"
    },
    {
      "id": "pt.ine.add.PTCONT.2737746",
      "street": "R RIBATEJO",
      "house": "215",
      "postcode": "2765-274",
      "city": "ESTORIL",
      "lon": "-9.395582201908944",
      "lat": "38.71558773723895"
    },
    {
      "id": "pt.ine.add.PTCONT.2737747",
      "street": "R RIBATEJO",
      "house": "215",
      "postcode": "2765-274",
      "city": "ESTORIL",
      "lon": "-9.395582201908944",
      "lat": "38.71558773723895"
    },
    {
      "id": "pt.ine.add.PTCONT.2737748",
      "street": "R RIBATEJO",
      "house": "215",
      "postcode": "2765-274",
      "city": "ESTORIL",
      "lon": "-9.395582201908944",
      "lat": "38.71558773723895"
    },
    {
      "id": "pt.ine.add.PTCONT.2737749",
      "street": "R RIBATEJO",
      "house": "215",
      "postcode": "2765-274",
      "city": "ESTORIL",
      "lon": "-9.395582201908944",
      "lat": "38.71558773723895"
    },
    {
      "id": "pt.ine.add.PTCONT.2737750",
      "street": "AV D NUNO ÁLVARES PEREIRA",
      "house": "2",
      "postcode": "2765-260",
      "city": "ESTORIL",
      "lon": "-9.395013199386064",
      "lat": "38.713305921270205"
    },
    {
      "id": "pt.ine.add.PTCONT.2830620",
      "street": "R D AFONSO HENRIQUES",
      "house": "1901",
      "postcode": "2765-573",
      "city": "ESTORIL",
      "lon": "-9.395430971592132",
      "lat": "38.71352660397558"
    },
    {
      "id": "pt.ine.add.PTCONT.2899979",
      "street": "R D AFONSO HENRIQUES BELMONTE",
      "house": "1673",
      "postcode": "2765-573",
      "city": "ESTORIL",
      "lon": "-9.39607071081346",
      "lat": "38.714600620208216"
    },
    {
      "id": "pt.ine.add.PTCONT.2899980",
      "street": "R D AFONSO HENRIQUES BELMONTE",
      "house": "1673",
      "postcode": "2765-573",
      "city": "ESTORIL",
      "lon": "-9.39607071081346",
      "lat": "38.714600620208216"
    }
  ]
}