{
  "data": {
    "distrito": "Lisboa",
    "concelho": "Cascais",
    "freguesia": "União das freguesias de Cascais e Estoril",
    "OBJECTID": 1065,
    "BGRI2021": "11050805510",
    "DT21": "11",
    "DTMN21": "1105",
    "DTMNFR21": "110508",
    "DTMNFRSEC21": "110508055",
    "SECNUM21": "055",
    "SSNUM21": "10",
    "SECSSNUM21": "05510",
    "OBJECTID_1": 101688,
    "DT": "11",
    "CC": "05",
    "fr": "08",
    "SEC": "055",
    "SS": "10"
  },
  "addresses": [
    {
      "id": "pt.ine.add.PTCONT.2933339",
      "street": "R MALMEQUERES",
      "house": "",
      "postcode": "2765-070",
      "city": "ESTORIL",
      "lon": "-9.380670874992607",
      "lat": "38.7176124120895"
    },
    {
      "id": "pt.ine.add.PTCONT.2972934",
      "street": "R MALMEQUERES",
      "house": "",
      "postcode": "2765-070",
      "city": "ESTORIL",
      "lon": "-9.380753066246664",
      "lat": "38.717710619865066"
    },
    {
      "id": "pt.ine.add.PTCONT.3000123",
      "street": "R MANJERICOS",
      "house": "168D",
      "postcode": "2765-071",
      "city": "ESTORIL",
      "lon": "-9.380825391579517",
      "lat": "38.717241446530146"
    },
    {
      "id": "pt.ine.add.PTCONT.3009088",
      "street": "R MALMEQUERES",
      "house": "",
      "postcode": "2765-070",
      "city": "ESTORIL",
      "lon": "-9.38120803165922",
      "lat": "38.71742652414489"
    },
    {
      "id": "pt.ine.add.PTCONT.3027685",
      "street": "R MALMEQUERES",
      "house": "",
      "postcode": "2765-070",
      "city": "ESTORIL",
      "lon": "-9.380818750803765",
      "lat": "38.71752075672729"
    },
    {
      "id": "pt.ine.add.PTCONT.3066404",
      "street": "R MANJERICOS",
      "house": "140",
      "postcode": "2765-071",
      "city": "ESTORIL",
      "lon": "-9.380651237162072",
      "lat": "38.717144220206315"
    },
    {
      "id": "pt.ine.add.PTCONT.3066405",
      "street": "R MANJERICOS",
      "house": "140",
      "postcode": "2765-071",
      "city": "ESTORIL",
      "lon": "-9.380651237162072",
      "lat": "38.717144220206315"
    },
    {
      "id": "pt.ine.add.PTCONT.3066406",
      "street": "R MANJERICOS",
      "house": "140",
      "postcode": "2765-071",
      "city": "ESTORIL",
      "lon": "-9.380651237162072",
      "lat": "38.717144220206315"
    },
    {
      "id": "pt.ine.add.PTCONT.3074583",
      "street": "R ALECRIM",
      "house": "217",
      "postcode": "2765-061",
      "city": "ESTORIL",
      "lon": "-9.381609903855743",
      "lat": "38.71739520983672"
    },
    {
      "id": "pt.ine.add.PTCONT.3084316",
      "street": "R ALECRIM",
      "house": "137",
      "postcode": "2765-061",
      "city": "ESTORIL",
      "lon": "-9.381591200186133",
      "lat": "38.7169810544753"
    },
    {
      "id": "pt.ine.add.PTCONT.3090648",
      "street": "R LUIZ MARQUES",
      "house": "22",
      "postcode": "2765-448",
      "city": "ESTORIL",
      "lon": "-9.381694188854283",
      "lat": "38.7169529314107"
    },
    {
      "id": "pt.ine.add.PTCONT.3130085",
      "street": "R MALMEQUERES",
      "house": "",
      "postcode": "2765-070",
      "city": "ESTORIL",
      "lon": "-9.381294982412824",
      "lat": "38.7171373487765"
    },
    {
      "id": "pt.ine.add.PTCONT.3136003",
      "street": "R MANJERICOS",
      "house": "168H",
      "postcode": "2765-071",
      "city": "ESTORIL",
      "lon": "-9.380764625737301",
      "lat": "38.71705293293261"
    },
    {
      "id": "pt.ine.add.PTCONT.3145692",
      "street": "R MALMEQUERES S ANTÓNIO",
      "house": "",
      "postcode": "2765-070",
      "city": "ESTORIL",
      "lon": "-9.380533085222988",
      "lat": "38.717622890165075"
    },
    {
      "id": "pt.ine.add.PTCONT.3213584",
      "street": "R MALMEQUERES NATIVIDADE",
      "house": "4",
      "postcode": "2765-070",
      "city": "ESTORIL",
      "lon": "-9.38090648630577",
      "lat": "38.71727661186761"
    },
    {
      "id": "pt.ine.add.PTCONT.3250388",
      "street": "R ALECRIM",
      "house": "157",
      "postcode": "2765-061",
      "city": "ESTORIL",
      "lon": "-9.381641099491336",
      "lat": "38.717205714564976"
    },
    {
      "id": "pt.ine.add.PTCONT.3259377",
      "street": "R MANJERICOS",
      "house": "168A",
      "postcode": "2765-071",
      "city": "ESTORIL",
      "lon": "-9.380926971395214",
      "lat": "38.71713226969304"
    },
    {
      "id": "pt.ine.add.PTCONT.3370769",
      "street": "R MALMEQUERES",
      "house": "",
      "postcode": "2765-070",
      "city": "ESTORIL",
      "lon": "-9.380746802427856",
      "lat": "38.71735037791954"
    },
    {
      "id": "pt.ine.add.PTCONT.3379760",
      "street": "R MANJERICOS",
      "house": "168F",
      "postcode": "2765-071",
      "city": "ESTORIL",
      "lon": "-9.380834694587305",
      "lat": "38.717115239155305"
    },
    {
      "id": "pt.ine.add.PTCONT.3395839",
      "street": "R MALMEQUERES S ANTÓNIO",
      "house": "",
      "postcode": "2765-070",
      "city": "ESTORIL",
      "lon": "-9.380703169317826",
      "lat": "38.71748595937478"
    },
    {
      "id": "pt.ine.add.PTCONT.3415905",
      "street": "R MANJERICOS",
      "house": "14",
      "postcode": "2765-071",
      "city": "ESTORIL",
      "lon": "-9.380252653020017",
      "lat": "38.7173646582692"
    },
    {
      "id": "pt.ine.add.PTCONT.3415906",
      "street": "R MANJERICOS",
      "house": "88",
      "postcode": "2765-071",
      "city": "ESTORIL",
      "lon": "-9.380126985208896",
      "lat": "38.71741103742834"
    },
    {
      "id": "pt.ine.add.PTCONT.2278318",
      "street": "R LUIZ MARQUES",
      "house": "53",
      "postcode": "2765-448",
      "city": "ESTORIL",
      "lon": "-9.381973840766223",
      "lat": "38.71716612958144"
    },
    {
      "id": "pt.ine.add.PTCONT.2287313",
      "street": "R MANJERICOS",
      "house": "168",
      "postcode": "2765-071",
      "city": "ESTORIL",
      "lon": "-9.380948239497016",
      "lat": "38.71703295775659"
    },
    {
      "id": "pt.ine.add.PTCONT.2424144",
      "street": "R MALMEQUERES LAR TERESA E TO",
      "house": "",
      "postcode": "2765-070",
      "city": "ESTORIL",
      "lon": "-9.380889916461893",
      "lat": "38.71764610524046"
    },
    {
      "id": "pt.ine.add.PTCONT.2424145",
      "street": "R MALMEQUERES",
      "house": "",
      "postcode": "2765-070",
      "city": "ESTORIL",
      "lon": "-9.380918921470778",
      "lat": "38.7173305254596"
    },
    {
      "id": "pt.ine.add.PTCONT.2459746",
      "street": "R LUIZ MARQUES",
      "house": "30",
      "postcode": "2765-448",
      "city": "ESTORIL",
      "lon": "-9.381799058126607",
      "lat": "38.71703288080726"
    },
    {
      "id": "pt.ine.add.PTCONT.2459747",
      "street": "R ALECRIM",
      "house": "147",
      "postcode": "2765-061",
      "city": "ESTORIL",
      "lon": "-9.381581898521738",
      "lat": "38.71710726189069"
    },
    {
      "id": "pt.ine.add.PTCONT.2477740",
      "street": "R MANJERICOS CASA DOS POCINHOS",
      "house": "2100",
      "postcode": "2765-071",
      "city": "ESTORIL",
      "lon": "-9.381371220441622",
      "lat": "38.716893326321696"
    },
    {
      "id": "pt.ine.add.PTCONT.2491938",
      "street": "R MANJERICOS",
      "house": "168C",
      "postcode": "2765-071",
      "city": "ESTORIL",
      "lon": "-9.380836104024207",
      "lat": "38.71719629359562"
    },
    {
      "id": "pt.ine.add.PTCONT.2505637",
      "street": "R MANJERICOS",
      "house": "168B",
      "postcode": "2765-071",
      "city": "ESTORIL",
      "lon": "-9.380916572245278",
      "lat": "38.71719543473247"
    },
    {
      "id": "pt.ine.add.PTCONT.2530764",
      "street": "R MANJERICOS TORRALTA",
      "house": "196",
      "postcode": "2765-071",
      "city": "ESTORIL",
      "lon": "-9.38120004247908",
      "lat": "38.716967215717574"
    },
    {
      "id": "pt.ine.add.PTCONT.2530765",
      "street": "R MANJERICOS TORRALTA",
      "house": "196",
      "postcode": "2765-071",
      "city": "ESTORIL",
      "lon": "-9.38120004247908",
      "lat": "38.716967215717574"
    },
    {
      "id": "pt.ine.add.PTCONT.2530766",
      "street": "R MANJERICOS TORRALTA",
      "house": "196",
      "postcode": "2765-071",
      "city": "ESTORIL",
      "lon": "-9.38120004247908",
      "lat": "38.716967215717574"
    },
    {
      "id": "pt.ine.add.PTCONT.2530767",
      "street": "R MANJERICOS TORRALTA",
      "house": "196",
      "postcode": "2765-071",
      "city": "ESTORIL",
      "lon": "-9.38120004247908",
      "lat": "38.716967215717574"
    },
    {
      "id": "pt.ine.add.PTCONT.2530768",
      "street": "R MANJERICOS TORRALTA",
      "house": "196",
      "postcode": "2765-071",
      "city": "ESTORIL",
      "lon": "-9.38120004247908",
      "lat": "38.716967215717574"
    },
    {
      "id": "pt.ine.add.PTCONT.2530769",
      "street": "R MANJERICOS TORRALTA",
      "house": "196",
      "postcode": "2765-071",
      "city": "ESTORIL",
      "lon": "-9.38120004247908",
      "lat": "38.716967215717574"
    },
    {
      "id": "pt.ine.add.PTCONT.2566444",
      "street": "R MALMEQUERES S ANTÓNIO",
      "house": "",
      "postcode": "2765-070",
      "city": "ESTORIL",
      "lon": "-9.380658596542846",
      "lat": "38.71756750452029"
    },
    {
      "id": "pt.ine.add.PTCONT.2658356",
      "street": "R MALMEQUERES O SONHO DE CRIANCA",
      "house": "",
      "postcode": "2765-070",
      "city": "ESTORIL",
      "lon": "-9.381072591876556",
      "lat": "38.71757209356035"
    },
    {
      "id": "pt.ine.add.PTCONT.2686554",
      "street": "R MANJERICOS",
      "house": "174",
      "postcode": "2765-071",
      "city": "ESTORIL",
      "lon": "-9.381050445355708",
      "lat": "38.716959805011044"
    },
    {
      "id": "pt.ine.add.PTCONT.2782523",
      "street": "R MALMEQUERES",
      "house": "",
      "postcode": "2765-070",
      "city": "ESTORIL",
      "lon": "-9.38095466087639",
      "lat": "38.717402205742204"
    },
    {
      "id": "pt.ine.add.PTCONT.2818125",
      "street": "R ALECRIM",
      "house": "167",
      "postcode": "2765-061",
      "city": "ESTORIL",
      "lon": "-9.381573537014166",
      "lat": "38.71728750558058"
    },
    {
      "id": "pt.ine.add.PTCONT.2818157",
      "street": "R MANJERICOS - CASA DOS POCINHOS",
      "house": "218A",
      "postcode": "2765-071",
      "city": "ESTORIL",
      "lon": "-9.38135010963135",
      "lat": "38.717001644374385"
    },
    {
      "id": "pt.ine.add.PTCONT.2869534",
      "street": "R MANJERICOS",
      "house": "168G",
      "postcode": "2765-071",
      "city": "ESTORIL",
      "lon": "-9.38083375496586",
      "lat": "38.71706120286112"
    },
    {
      "id": "pt.ine.add.PTCONT.2886389",
      "street": "R MANJERICOS",
      "house": "168E",
      "postcode": "2765-071",
      "city": "ESTORIL",
      "lon": "-9.380789339189693",
      "lat": "38.71715175410443"
    },
    {
      "id": "pt.ine.add.PTCONT.2891201",
      "street": "R MANJERICOS",
      "house": "193",
      "postcode": "2765-071",
      "city": "ESTORIL",
      "lon": "-9.38054871749238",
      "lat": "38.71719936051206"
    },
    {
      "id": "pt.ine.add.PTCONT.2891244",
      "street": "R MANJERICOS",
      "house": "193",
      "postcode": "2765-071",
      "city": "ESTORIL",
      "lon": "-9.38054871749238",
      "lat": "38.71719936051206"
    },
    {
      "id": "pt.ine.add.PTCONT.2896971",
      "street": "R MANJERICOS",
      "house": "193",
      "postcode": "2765-071",
      "city": "ESTORIL",
      "lon": "-9.38054871749238",
      "lat": "38.71719936051206"
    }
  ]
}