{
  "data": {
    "ilha": "Ilha do Faial (Açores)",
    "concelho": "Horta",
    "freguesia": "Cedros",
    "OBJECTID": 312,
    "BGRI2021": "47010300119",
    "DT21": "47",
    "DTMN21": "4701",
    "DTMNFR21": "470103",
    "DTMNFRSEC21": "470103001",
    "SECNUM21": "001",
    "SSNUM21": "19",
    "SECSSNUM21": "00119",
    "OBJECTID_1": 209934,
    "DT": "47",
    "CC": "01",
    "fr": "03",
    "SEC": "001",
    "SS": "19",
    "BGRI2021_1": "47010300119"
  },
  "addresses": [
    {
      "id": "pt.ine.add.AC26.39908",
      "street": "R CIMA",
      "house": "29",
      "postcode": "9900-341",
      "city": "CEDROS HRT",
      "lon": "-28.713582940318435",
      "lat": "38.632313379674706"
    },
    {
      "id": "pt.ine.add.AC26.39909",
      "street": "R CIMA",
      "house": "",
      "postcode": "9900-341",
      "city": "CEDROS HRT",
      "lon": "-28.7111829823539",
      "lat": "38.63235752626159"
    },
    {
      "id": "pt.ine.add.AC26.39910",
      "street": "R CIMA",
      "house": "19",
      "postcode": "9900-341",
      "city": "CEDROS HRT",
      "lon": "-28.71110567430758",
      "lat": "38.63297140729448"
    },
    {
      "id": "pt.ine.add.AC26.40215",
      "street": "CAN INÊS",
      "house": "15",
      "postcode": "9900-341",
      "city": "CEDROS HRT",
      "lon": "-28.709979869902735",
      "lat": "38.63345644510492"
    },
    {
      "id": "pt.ine.add.AC26.40216",
      "street": "CAN INÊS",
      "house": "14",
      "postcode": "9900-341",
      "city": "CEDROS HRT",
      "lon": "-28.70864027332578",
      "lat": "38.63364723145235"
    },
    {
      "id": "pt.ine.add.AC26.40222",
      "street": "CAN LARGA",
      "house": "",
      "postcode": "9900-343",
      "city": "CEDROS HRT",
      "lon": "-28.714616958104582",
      "lat": "38.62749534715962"
    },
    {
      "id": "pt.ine.add.AC26.40223",
      "street": "CAN LARGA",
      "house": "",
      "postcode": "9900-343",
      "city": "CEDROS HRT",
      "lon": "-28.714398672663766",
      "lat": "38.627011950863796"
    },
    {
      "id": "pt.ine.add.AC26.40547",
      "street": "R CIMA",
      "house": "23",
      "postcode": "9900-341",
      "city": "CEDROS HRT",
      "lon": "-28.712115979278014",
      "lat": "38.63246101635626"
    },
    {
      "id": "pt.ine.add.AC26.52024",
      "street": "CAN SOUSA",
      "house": "20",
      "postcode": "9900-341",
      "city": "CEDROS HRT",
      "lon": "-28.711614963796542",
      "lat": "38.6326485696456"
    },
    {
      "id": "pt.ine.add.AC26.61891",
      "street": "R CIMA",
      "house": "17",
      "postcode": "9900-341",
      "city": "CEDROS HRT",
      "lon": "-28.710283231939467",
      "lat": "38.63268607207171"
    },
    {
      "id": "pt.ine.add.AC26.67550",
      "street": "R CIMA",
      "house": "16A",
      "postcode": "9900-341",
      "city": "CEDROS HRT",
      "lon": "-28.709786276299145",
      "lat": "38.63304476779723"
    },
    {
      "id": "pt.ine.add.AC26.72397",
      "street": "CAN LARGA",
      "house": "30",
      "postcode": "9900-343",
      "city": "CEDROS HRT",
      "lon": "-28.71424950363954",
      "lat": "38.62653655222807"
    },
    {
      "id": "pt.ine.add.AC26.75008",
      "street": "R CIMA",
      "house": "26",
      "postcode": "9900-341",
      "city": "CEDROS HRT",
      "lon": "-28.712406296969792",
      "lat": "38.63259193181901"
    },
    {
      "id": "pt.ine.add.AC26.83998",
      "street": "R CIMA",
      "house": "22",
      "postcode": "9900-341",
      "city": "CEDROS HRT",
      "lon": "-28.711623019905694",
      "lat": "38.63250427527873"
    },
    {
      "id": "pt.ine.add.AC26.85171",
      "street": "R CIMA",
      "house": "31",
      "postcode": "9900-341",
      "city": "CEDROS HRT",
      "lon": "-28.71405721986322",
      "lat": "38.632450606799466"
    },
    {
      "id": "pt.ine.add.AC26.86856",
      "street": "CAN LARGA",
      "house": "13",
      "postcode": "9900-343",
      "city": "CEDROS HRT",
      "lon": "-28.714798856256227",
      "lat": "38.63175489813971"
    },
    {
      "id": "pt.ine.add.AC26.97825",
      "street": "R CASCALHO DE CIMA",
      "house": "16",
      "postcode": "9900-341",
      "city": "CEDROS HRT",
      "lon": "-28.710099132684284",
      "lat": "38.633157337462"
    }
  ]
}