{
  "data": {
    "distrito": "Leiria",
    "concelho": "Alcoba√ßa",
    "freguesia": "Benedita",
    "OBJECTID": 1215,
    "BGRI2021": "10010500516",
    "DT21": "10",
    "DTMN21": "1001",
    "DTMNFR21": "100105",
    "DTMNFRSEC21": "100105005",
    "SECNUM21": "005",
    "SSNUM21": "16",
    "SECSSNUM21": "00516",
    "OBJECTID_1": 84720,
    "DT": "10",
    "CC": "01",
    "fr": "05",
    "SEC": "005",
    "SS": "16"
  },
  "addresses": [
    {
      "id": "pt.ine.add.PTCONT.2029528",
      "street": "R D MARIA PIA",
      "house": "105",
      "postcode": "2475-042",
      "city": "BENEDITA",
      "lon": "-8.958457543767365",
      "lat": "39.43171829126061"
    },
    {
      "id": "pt.ine.add.PTCONT.2036015",
      "street": "R D MARIA PIA",
      "house": "71",
      "postcode": "2475-042",
      "city": "BENEDITA",
      "lon": "-8.959226522953212",
      "lat": "39.42995648638378"
    },
    {
      "id": "pt.ine.add.PTCONT.2045547",
      "street": "TV PATOLEIRA",
      "house": "7",
      "postcode": "2475-042",
      "city": "BENEDITA",
      "lon": "-8.959314304132251",
      "lat": "39.430505283947426"
    },
    {
      "id": "pt.ine.add.PTCONT.2054569",
      "street": "R D MARIA PIA",
      "house": "91",
      "postcode": "2475-042",
      "city": "BENEDITA",
      "lon": "-8.958819396051215",
      "lat": "39.43088708816773"
    },
    {
      "id": "pt.ine.add.PTCONT.2054570",
      "street": "TV PATOLEIA",
      "house": "4",
      "postcode": "2475-042",
      "city": "BENEDITA",
      "lon": "-8.959142443937",
      "lat": "39.430704656406796"
    },
    {
      "id": "pt.ine.add.PTCONT.2058981",
      "street": "ESTR D MARIA PIA",
      "house": "95",
      "postcode": "2475-042",
      "city": "BENEDITA",
      "lon": "-8.958627920363705",
      "lat": "39.431392833749506"
    },
    {
      "id": "pt.ine.add.PTCONT.2058982",
      "street": "BC RIO SECO",
      "house": "8",
      "postcode": "2475-042",
      "city": "BENEDITA",
      "lon": "-8.959030563777642",
      "lat": "39.4310657269495"
    },
    {
      "id": "pt.ine.add.PTCONT.2067474",
      "street": "TV PATOLEIA",
      "house": "2",
      "postcode": "2475-042",
      "city": "BENEDITA",
      "lon": "-8.958944059922812",
      "lat": "39.43062500297445"
    },
    {
      "id": "pt.ine.add.PTCONT.2078165",
      "street": "R D MARIA PIA",
      "house": "81",
      "postcode": "2475-042",
      "city": "BENEDITA",
      "lon": "-8.958999681043741",
      "lat": "39.43041744930533"
    },
    {
      "id": "pt.ine.add.PTCONT.2094461",
      "street": "R RAFAEL SILVA",
      "house": "6",
      "postcode": "2475-042",
      "city": "BENEDITA",
      "lon": "-8.958875311808303",
      "lat": "39.43168830540575"
    },
    {
      "id": "pt.ine.add.PTCONT.2113634",
      "street": "R D MARIA PIA",
      "house": "69",
      "postcode": "2475-042",
      "city": "BENEDITA",
      "lon": "-8.9592488985373",
      "lat": "39.42988427223916"
    },
    {
      "id": "pt.ine.add.PTCONT.2122844",
      "street": "R D MARIA PIA",
      "house": "89",
      "postcode": "2475-042",
      "city": "BENEDITA",
      "lon": "-8.958818758199605",
      "lat": "39.43083305128558"
    },
    {
      "id": "pt.ine.add.PTCONT.2124509",
      "street": "R RIO SECO",
      "house": "14",
      "postcode": "2475-021",
      "city": "BENEDITA",
      "lon": "-8.959832942620116",
      "lat": "39.43213184783944"
    },
    {
      "id": "pt.ine.add.PTCONT.2129965",
      "street": "R D MARIA PIA",
      "house": "103",
      "postcode": "2475-042",
      "city": "BENEDITA",
      "lon": "-8.958537563160567",
      "lat": "39.431609640623336"
    },
    {
      "id": "pt.ine.add.PTCONT.2138923",
      "street": "ESTR D MARIA PIA",
      "house": "107",
      "postcode": "2475-042",
      "city": "BENEDITA",
      "lon": "-8.958622896620822",
      "lat": "39.4319512972382"
    },
    {
      "id": "pt.ine.add.PTCONT.2159197",
      "street": "R RAFAEL SILVA",
      "house": "5",
      "postcode": "2475-042",
      "city": "BENEDITA",
      "lon": "-8.959048770250073",
      "lat": "39.43162402552241"
    },
    {
      "id": "pt.ine.add.PTCONT.2165990",
      "street": "R RAFAEL SILVA",
      "house": "1",
      "postcode": "2475-042",
      "city": "BENEDITA",
      "lon": "-8.958594355322994",
      "lat": "39.43150115477534"
    },
    {
      "id": "pt.ine.add.PTCONT.2168224",
      "street": "R D MARIA PIA",
      "house": "77",
      "postcode": "2475-042",
      "city": "BENEDITA",
      "lon": "-8.959078634737235",
      "lat": "39.430218736821956"
    },
    {
      "id": "pt.ine.add.PTCONT.2198288",
      "street": "R D AGRIA PIA",
      "house": "109",
      "postcode": "2475-042",
      "city": "BENEDITA",
      "lon": "-8.958390625275667",
      "lat": "39.431952945492824"
    },
    {
      "id": "pt.ine.add.PTCONT.2198289",
      "street": "VENDA REGA",
      "house": "42",
      "postcode": "2475-042",
      "city": "BENEDITA",
      "lon": "-8.958390625275667",
      "lat": "39.431952945492824"
    },
    {
      "id": "pt.ine.add.PTCONT.2210265",
      "street": "R PRAIA",
      "house": "7",
      "postcode": "2475-021",
      "city": "BENEDITA",
      "lon": "-8.96157743444454",
      "lat": "39.43232659416804"
    },
    {
      "id": "pt.ine.add.PTCONT.2244917",
      "street": "R D MARIA PIA",
      "house": "79",
      "postcode": "2475-042",
      "city": "BENEDITA",
      "lon": "-8.959044751921477",
      "lat": "39.43030003954419"
    },
    {
      "id": "pt.ine.add.PTCONT.2251838",
      "street": "R D MARIA PIA",
      "house": "75",
      "postcode": "2475-042",
      "city": "BENEDITA",
      "lon": "-8.959135318617902",
      "lat": "39.430101244557264"
    },
    {
      "id": "pt.ine.add.PTCONT.2258607",
      "street": "R D MARIA PIA",
      "house": "87",
      "postcode": "2475-042",
      "city": "BENEDITA",
      "lon": "-8.95886382963782",
      "lat": "39.43071564159685"
    },
    {
      "id": "pt.ine.add.PTCONT.2264569",
      "street": "ESTR D MARIA PIA",
      "house": "93",
      "postcode": "2475-042",
      "city": "BENEDITA",
      "lon": "-8.958752692125586",
      "lat": "39.43113975491375"
    },
    {
      "id": "pt.ine.add.PTCONT.2268531",
      "street": "R D MARIA PIA",
      "house": "71",
      "postcode": "2475-042",
      "city": "BENEDITA",
      "lon": "-8.959226522953212",
      "lat": "39.42995648638378"
    }
  ]
}