{
  "data": {
    "distrito": "Setúbal",
    "concelho": "Seixal",
    "freguesia": "União das freguesias do Seixal, Arrentela e Aldeia de Paio Pires",
    "OBJECTID": 578,
    "BGRI2021": "15100703811",
    "DT21": "15",
    "DTMN21": "1510",
    "DTMNFR21": "151007",
    "DTMNFRSEC21": "151007038",
    "SECNUM21": "038",
    "SSNUM21": "11",
    "SECSSNUM21": "03811",
    "OBJECTID_1": 167203,
    "DT": "15",
    "CC": "10",
    "fr": "07",
    "SEC": "038",
    "SS": "11"
  },
  "addresses": [
    {
      "id": "pt.ine.add.PTCONT.4669177",
      "street": "R CÂNDIDO DOS REIS",
      "house": "157",
      "postcode": "2840-503",
      "city": "SEIXAL",
      "lon": "-9.106032531313113",
      "lat": "38.64190539801337"
    },
    {
      "id": "pt.ine.add.PTCONT.4669178",
      "street": "R CÂNDIDO DOS REIS",
      "house": "157",
      "postcode": "2840-503",
      "city": "SEIXAL",
      "lon": "-9.106032531313113",
      "lat": "38.64190539801337"
    },
    {
      "id": "pt.ine.add.PTCONT.4673023",
      "street": "R LEONEL PEREIRA FERNANDES",
      "house": "10",
      "postcode": "2840-517",
      "city": "SEIXAL",
      "lon": "-9.101745000802287",
      "lat": "38.6433642456762"
    },
    {
      "id": "pt.ine.add.PTCONT.4673024",
      "street": "R LEONEL PEREIRA FERNANDES",
      "house": "10",
      "postcode": "2840-517",
      "city": "SEIXAL",
      "lon": "-9.101745000802287",
      "lat": "38.6433642456762"
    },
    {
      "id": "pt.ine.add.PTCONT.4673025",
      "street": "R LEONEL PEREIRA FERNANDES",
      "house": "10",
      "postcode": "2840-517",
      "city": "SEIXAL",
      "lon": "-9.101745000802287",
      "lat": "38.6433642456762"
    },
    {
      "id": "pt.ine.add.PTCONT.4673026",
      "street": "R LEONEL PEREIRA FERNANDES",
      "house": "10",
      "postcode": "2840-517",
      "city": "SEIXAL",
      "lon": "-9.101745000802287",
      "lat": "38.6433642456762"
    },
    {
      "id": "pt.ine.add.PTCONT.4673027",
      "street": "R LEONEL PEREIRA FERNANDES",
      "house": "10",
      "postcode": "2840-517",
      "city": "SEIXAL",
      "lon": "-9.101745000802287",
      "lat": "38.6433642456762"
    },
    {
      "id": "pt.ine.add.PTCONT.4673028",
      "street": "R LEONEL PEREIRA FERNANDES",
      "house": "10",
      "postcode": "2840-517",
      "city": "SEIXAL",
      "lon": "-9.101745000802287",
      "lat": "38.6433642456762"
    },
    {
      "id": "pt.ine.add.PTCONT.4673029",
      "street": "R LEONEL PEREIRA FERNANDES",
      "house": "10",
      "postcode": "2840-517",
      "city": "SEIXAL",
      "lon": "-9.101745000802287",
      "lat": "38.6433642456762"
    },
    {
      "id": "pt.ine.add.PTCONT.4673180",
      "street": "R LEONEL PEREIRA FERNANDES",
      "house": "10",
      "postcode": "2840-517",
      "city": "SEIXAL",
      "lon": "-9.101745000802287",
      "lat": "38.6433642456762"
    },
    {
      "id": "pt.ine.add.PTCONT.4673358",
      "street": "R LEONEL PEREIRA FERNANDES",
      "house": "10",
      "postcode": "2840-517",
      "city": "SEIXAL",
      "lon": "-9.101745000802287",
      "lat": "38.6433642456762"
    },
    {
      "id": "pt.ine.add.PTCONT.4676419",
      "street": "R CANDIDO REIS",
      "house": "47",
      "postcode": "2840-503",
      "city": "SEIXAL",
      "lon": "-9.103838017661767",
      "lat": "38.64355408028856"
    },
    {
      "id": "pt.ine.add.PTCONT.4676420",
      "street": "PC LUIS CAMOES",
      "house": "47",
      "postcode": "2840-488",
      "city": "SEIXAL",
      "lon": "-9.103838017661767",
      "lat": "38.64355408028856"
    },
    {
      "id": "pt.ine.add.PTCONT.4676421",
      "street": "PC LUIS CAMOES",
      "house": "47",
      "postcode": "2840-488",
      "city": "SEIXAL",
      "lon": "-9.103838017661767",
      "lat": "38.64355408028856"
    },
    {
      "id": "pt.ine.add.PTCONT.4676422",
      "street": "PC LUIS CAMOES",
      "house": "47",
      "postcode": "2840-488",
      "city": "SEIXAL",
      "lon": "-9.103838017661767",
      "lat": "38.64355408028856"
    },
    {
      "id": "pt.ine.add.PTCONT.4676423",
      "street": "PC LUIS CAMOES",
      "house": "47",
      "postcode": "2840-488",
      "city": "SEIXAL",
      "lon": "-9.103838017661767",
      "lat": "38.64355408028856"
    },
    {
      "id": "pt.ine.add.PTCONT.4676843",
      "street": "LG BARROCA",
      "house": "12",
      "postcode": "2840-479",
      "city": "SEIXAL",
      "lon": "-9.105904702872431",
      "lat": "38.64264511847211"
    },
    {
      "id": "pt.ine.add.PTCONT.4680199",
      "street": "R CÂNDIDO DOS REIS",
      "house": "749",
      "postcode": "2840-503",
      "city": "SEIXAL",
      "lon": "-9.106138571407975",
      "lat": "38.64210269240946"
    },
    {
      "id": "pt.ine.add.PTCONT.4681015",
      "street": "R OLIVENCA",
      "house": "AG",
      "postcode": "2840-519",
      "city": "SEIXAL",
      "lon": "-9.099888332255281",
      "lat": "38.642812099706326"
    },
    {
      "id": "pt.ine.add.PTCONT.4681016",
      "street": "R OLIVENCA",
      "house": "AG",
      "postcode": "2840-519",
      "city": "SEIXAL",
      "lon": "-9.099888332255281",
      "lat": "38.642812099706326"
    },
    {
      "id": "pt.ine.add.PTCONT.4683686",
      "street": "R OLIVENCA",
      "house": "42",
      "postcode": "2840-519",
      "city": "SEIXAL",
      "lon": "-9.099930155908279",
      "lat": "38.642505481373234"
    },
    {
      "id": "pt.ine.add.PTCONT.4683687",
      "street": "R OLIVENCA",
      "house": "54",
      "postcode": "2840-519",
      "city": "SEIXAL",
      "lon": "-9.099788226256502",
      "lat": "38.64220038162006"
    },
    {
      "id": "pt.ine.add.PTCONT.4683726",
      "street": "R CÂNDIDO REIS",
      "house": "71",
      "postcode": "2840-503",
      "city": "SEIXAL",
      "lon": "-9.105290010267817",
      "lat": "38.643055589333315"
    },
    {
      "id": "pt.ine.add.PTCONT.4683727",
      "street": "R CÂNDIDO REIS",
      "house": "71",
      "postcode": "2840-503",
      "city": "SEIXAL",
      "lon": "-9.105290010267817",
      "lat": "38.643055589333315"
    },
    {
      "id": "pt.ine.add.PTCONT.4683737",
      "street": "R CÂNDIDO DOS REIS",
      "house": "9",
      "postcode": "2840-503",
      "city": "SEIXAL",
      "lon": "-9.104283978168613",
      "lat": "38.64340625046031"
    },
    {
      "id": "pt.ine.add.PTCONT.4686810",
      "street": "R CÂNDIDO DOS REIS",
      "house": "153",
      "postcode": "2840-503",
      "city": "SEIXAL",
      "lon": "-9.106091415337955",
      "lat": "38.64201300446835"
    },
    {
      "id": "pt.ine.add.PTCONT.4686811",
      "street": "R CÂNDIDO DOS REIS",
      "house": "143",
      "postcode": "2840-503",
      "city": "SEIXAL",
      "lon": "-9.106208331237015",
      "lat": "38.6421651682521"
    },
    {
      "id": "pt.ine.add.PTCONT.4691176",
      "street": "PC LUIS CAMÕES",
      "house": "43",
      "postcode": "2840-488",
      "city": "SEIXAL",
      "lon": "-9.10378083687161",
      "lat": "38.6435725708113"
    },
    {
      "id": "pt.ine.add.PTCONT.4694624",
      "street": "R CÂNDIDO DOS REIS",
      "house": "113",
      "postcode": "2840-503",
      "city": "SEIXAL",
      "lon": "-9.106214178290017",
      "lat": "38.64259750440624"
    },
    {
      "id": "pt.ine.add.PTCONT.4694625",
      "street": "R CÂNDIDO DOS REIS",
      "house": "113",
      "postcode": "2840-503",
      "city": "SEIXAL",
      "lon": "-9.106214178290017",
      "lat": "38.64259750440624"
    },
    {
      "id": "pt.ine.add.PTCONT.4694626",
      "street": "LG BARROCA",
      "house": "26",
      "postcode": "2840-479",
      "city": "SEIXAL",
      "lon": "-9.106019914358013",
      "lat": "38.642671184373505"
    },
    {
      "id": "pt.ine.add.PTCONT.4708028",
      "street": "R OLIVENCA",
      "house": "38",
      "postcode": "2840-519",
      "city": "SEIXAL",
      "lon": "-9.100001242231967",
      "lat": "38.642667038192805"
    },
    {
      "id": "pt.ine.add.PTCONT.4708029",
      "street": "PC LUIS CAMÕES",
      "house": "49",
      "postcode": "2840-488",
      "city": "SEIXAL",
      "lon": "-9.103883835188764",
      "lat": "38.64354469205506"
    },
    {
      "id": "pt.ine.add.PTCONT.4720215",
      "street": "R OLIVENCA",
      "house": "66",
      "postcode": "2840-519",
      "city": "SEIXAL",
      "lon": "-9.099645934863037",
      "lat": "38.641868260598855"
    },
    {
      "id": "pt.ine.add.PTCONT.4720216",
      "street": "R OLIVENCA",
      "house": "66",
      "postcode": "2840-519",
      "city": "SEIXAL",
      "lon": "-9.099645934863037",
      "lat": "38.641868260598855"
    },
    {
      "id": "pt.ine.add.PTCONT.4720217",
      "street": "R OLIVENCA",
      "house": "66",
      "postcode": "2840-519",
      "city": "SEIXAL",
      "lon": "-9.099645934863037",
      "lat": "38.641868260598855"
    },
    {
      "id": "pt.ine.add.PTCONT.4720218",
      "street": "R OLIVENCA",
      "house": "66",
      "postcode": "2840-519",
      "city": "SEIXAL",
      "lon": "-9.099645934863037",
      "lat": "38.641868260598855"
    },
    {
      "id": "pt.ine.add.PTCONT.4720228",
      "street": "R OLIVENCA",
      "house": "66",
      "postcode": "2840-519",
      "city": "SEIXAL",
      "lon": "-9.099645934863037",
      "lat": "38.641868260598855"
    },
    {
      "id": "pt.ine.add.PTCONT.4720253",
      "street": "R CANDIDO REIS",
      "house": "87",
      "postcode": "2840-503",
      "city": "SEIXAL",
      "lon": "-9.105713117050707",
      "lat": "38.64291695201585"
    },
    {
      "id": "pt.ine.add.PTCONT.4720290",
      "street": "R CÂNDIDO REIS",
      "house": "69",
      "postcode": "2840-503",
      "city": "SEIXAL",
      "lon": "-9.105267162607708",
      "lat": "38.64306478722721"
    },
    {
      "id": "pt.ine.add.PTCONT.4720325",
      "street": "PC LUIS CAMÕES",
      "house": "19",
      "postcode": "2840-488",
      "city": "SEIXAL",
      "lon": "-9.103070238332277",
      "lat": "38.643686561276375"
    },
    {
      "id": "pt.ine.add.PTCONT.4720326",
      "street": "PC LUIS CAMÕES",
      "house": "19",
      "postcode": "2840-488",
      "city": "SEIXAL",
      "lon": "-9.103070238332277",
      "lat": "38.643686561276375"
    },
    {
      "id": "pt.ine.add.PTCONT.4720831",
      "street": "R OLIVENCA",
      "house": "66",
      "postcode": "2840-519",
      "city": "SEIXAL",
      "lon": "-9.099645934863037",
      "lat": "38.641868260598855"
    },
    {
      "id": "pt.ine.add.PTCONT.4724218",
      "street": "R CÂNDIDO REIS",
      "house": "59",
      "postcode": "2840-503",
      "city": "SEIXAL",
      "lon": "-9.105130076522908",
      "lat": "38.64311997449806"
    },
    {
      "id": "pt.ine.add.PTCONT.4725148",
      "street": "BC ALPENDRE",
      "house": "1",
      "postcode": "2840-475",
      "city": "SEIXAL",
      "lon": "-9.106212229258407",
      "lat": "38.6424533923585"
    },
    {
      "id": "pt.ine.add.PTCONT.4725149",
      "street": "BC ALPENDRE",
      "house": "1",
      "postcode": "2840-475",
      "city": "SEIXAL",
      "lon": "-9.106212229258407",
      "lat": "38.6424533923585"
    },
    {
      "id": "pt.ine.add.PTCONT.4732041",
      "street": "R D MARIA II",
      "house": "49",
      "postcode": "2840-510",
      "city": "SEIXAL",
      "lon": "-9.102669970004664",
      "lat": "38.64381599175273"
    },
    {
      "id": "pt.ine.add.PTCONT.4738718",
      "street": "PC LUIS CAMÕES",
      "house": "15",
      "postcode": "2840-488",
      "city": "SEIXAL",
      "lon": "-9.102909694114643",
      "lat": "38.6437059083935"
    },
    {
      "id": "pt.ine.add.PTCONT.4738719",
      "street": "PC LUIS CAMÕES",
      "house": "15",
      "postcode": "2840-488",
      "city": "SEIXAL",
      "lon": "-9.102909694114643",
      "lat": "38.6437059083935"
    },
    {
      "id": "pt.ine.add.PTCONT.4749773",
      "street": "R LEONEL PEREIRA FERNANDES",
      "house": "6",
      "postcode": "2840-517",
      "city": "SEIXAL",
      "lon": "-9.101297217083651",
      "lat": "38.6433769606695"
    },
    {
      "id": "pt.ine.add.PTCONT.4749774",
      "street": "R LEONEL PEREIRA FERNANDES",
      "house": "6",
      "postcode": "2840-517",
      "city": "SEIXAL",
      "lon": "-9.101297217083651",
      "lat": "38.6433769606695"
    },
    {
      "id": "pt.ine.add.PTCONT.4749775",
      "street": "R LEONEL PEREIRA FERNANDES",
      "house": "6",
      "postcode": "2840-517",
      "city": "SEIXAL",
      "lon": "-9.101297217083651",
      "lat": "38.6433769606695"
    },
    {
      "id": "pt.ine.add.PTCONT.4749776",
      "street": "R LEONEL PEREIRA FERNANDES",
      "house": "6",
      "postcode": "2840-517",
      "city": "SEIXAL",
      "lon": "-9.101297217083651",
      "lat": "38.6433769606695"
    },
    {
      "id": "pt.ine.add.PTCONT.4749777",
      "street": "R LEONEL PEREIRA FERNANDES",
      "house": "6",
      "postcode": "2840-517",
      "city": "SEIXAL",
      "lon": "-9.101297217083651",
      "lat": "38.6433769606695"
    },
    {
      "id": "pt.ine.add.PTCONT.4749778",
      "street": "R LEONEL PEREIRA FERNANDES",
      "house": "6",
      "postcode": "2840-517",
      "city": "SEIXAL",
      "lon": "-9.101297217083651",
      "lat": "38.6433769606695"
    },
    {
      "id": "pt.ine.add.PTCONT.4749779",
      "street": "R LEONEL PEREIRA FERNANDES",
      "house": "6",
      "postcode": "2840-517",
      "city": "SEIXAL",
      "lon": "-9.101297217083651",
      "lat": "38.6433769606695"
    },
    {
      "id": "pt.ine.add.PTCONT.4749780",
      "street": "R LEONEL PEREIRA FERNANDES",
      "house": "6",
      "postcode": "2840-517",
      "city": "SEIXAL",
      "lon": "-9.101297217083651",
      "lat": "38.6433769606695"
    },
    {
      "id": "pt.ine.add.PTCONT.4749787",
      "street": "R LEONEL PEREIRA FERNANDES",
      "house": "6",
      "postcode": "2840-517",
      "city": "SEIXAL",
      "lon": "-9.101297217083651",
      "lat": "38.6433769606695"
    },
    {
      "id": "pt.ine.add.PTCONT.4749788",
      "street": "R LEONEL PEREIRA FERNANDES",
      "house": "6",
      "postcode": "2840-517",
      "city": "SEIXAL",
      "lon": "-9.101297217083651",
      "lat": "38.6433769606695"
    },
    {
      "id": "pt.ine.add.PTCONT.4749789",
      "street": "R LEONEL PEREIRA FERNANDES",
      "house": "6",
      "postcode": "2840-517",
      "city": "SEIXAL",
      "lon": "-9.101297217083651",
      "lat": "38.6433769606695"
    },
    {
      "id": "pt.ine.add.PTCONT.4752189",
      "street": "R LIBERDADE",
      "house": "2B",
      "postcode": "2840-397",
      "city": "SEIXAL",
      "lon": "-9.099739394703969",
      "lat": "38.64284035456483"
    },
    {
      "id": "pt.ine.add.PTCONT.4752190",
      "street": "R LIBERDADE",
      "house": "2B",
      "postcode": "2840-397",
      "city": "SEIXAL",
      "lon": "-9.099739394703969",
      "lat": "38.64284035456483"
    },
    {
      "id": "pt.ine.add.PTCONT.4755883",
      "street": "R CÂNDIDO DOS REIS",
      "house": "1",
      "postcode": "2840-503",
      "city": "SEIXAL",
      "lon": "-9.104135284353784",
      "lat": "38.64345252492069"
    },
    {
      "id": "pt.ine.add.PTCONT.4757169",
      "street": "BC ALPENDRE",
      "house": "2",
      "postcode": "2840-475",
      "city": "SEIXAL",
      "lon": "-9.106234589334274",
      "lat": "38.64240816627087"
    },
    {
      "id": "pt.ine.add.PTCONT.4764209",
      "street": "AV VASCO DA GAMA",
      "house": "8",
      "postcode": "2840-745",
      "city": "SEIXAL",
      "lon": "-9.099282064236595",
      "lat": "38.64299726903331"
    },
    {
      "id": "pt.ine.add.PTCONT.4764210",
      "street": "R OLIVENCA",
      "house": "32",
      "postcode": "2840-519",
      "city": "SEIXAL",
      "lon": "-9.100060481084066",
      "lat": "38.64280166883628"
    },
    {
      "id": "pt.ine.add.PTCONT.4764568",
      "street": "BC ALPENDRE",
      "house": "6",
      "postcode": "2840-475",
      "city": "SEIXAL",
      "lon": "-9.10615419732448",
      "lat": "38.64240883500303"
    },
    {
      "id": "pt.ine.add.PTCONT.4767987",
      "street": "R LIBERDADE",
      "house": "",
      "postcode": "2840-397",
      "city": "SEIXAL",
      "lon": "-9.099372006397108",
      "lat": "38.64285239782088"
    },
    {
      "id": "pt.ine.add.PTCONT.4767988",
      "street": "R OLIVENCA",
      "house": "62",
      "postcode": "2840-519",
      "city": "SEIXAL",
      "lon": "-9.09968123534824",
      "lat": "38.6419310250758"
    },
    {
      "id": "pt.ine.add.PTCONT.4768012",
      "street": "R CÂNDIDO DOS REIS",
      "house": "35",
      "postcode": "2840-503",
      "city": "SEIXAL",
      "lon": "-9.10474093499326",
      "lat": "38.643222295536944"
    },
    {
      "id": "pt.ine.add.PTCONT.4768013",
      "street": "R CÂNDIDO DOS REIS",
      "house": "35",
      "postcode": "2840-503",
      "city": "SEIXAL",
      "lon": "-9.10474093499326",
      "lat": "38.643222295536944"
    },
    {
      "id": "pt.ine.add.PTCONT.4768014",
      "street": "R CÂNDIDO DOS REIS",
      "house": "35",
      "postcode": "2840-503",
      "city": "SEIXAL",
      "lon": "-9.10474093499326",
      "lat": "38.643222295536944"
    },
    {
      "id": "pt.ine.add.PTCONT.4768015",
      "street": "R CÂNDIDO DOS REIS",
      "house": "35",
      "postcode": "2840-503",
      "city": "SEIXAL",
      "lon": "-9.10474093499326",
      "lat": "38.643222295536944"
    },
    {
      "id": "pt.ine.add.PTCONT.4771524",
      "street": "R CÂNDIDO DOS REIS",
      "house": "91",
      "postcode": "2840-503",
      "city": "SEIXAL",
      "lon": "-9.105839082951292",
      "lat": "38.64288888058076"
    },
    {
      "id": "pt.ine.add.PTCONT.4771525",
      "street": "R CÂNDIDO DOS REIS",
      "house": "91",
      "postcode": "2840-503",
      "city": "SEIXAL",
      "lon": "-9.105839082951292",
      "lat": "38.64288888058076"
    },
    {
      "id": "pt.ine.add.PTCONT.4774849",
      "street": "R OLIVENCA",
      "house": "36",
      "postcode": "2840-519",
      "city": "SEIXAL",
      "lon": "-9.100025058786406",
      "lat": "38.6427298974737"
    },
    {
      "id": "pt.ine.add.PTCONT.4774924",
      "street": "R OLIVENCA",
      "house": "JP",
      "postcode": "2840-519",
      "city": "SEIXAL",
      "lon": "-9.099875879417509",
      "lat": "38.64274013846468"
    },
    {
      "id": "pt.ine.add.PTCONT.4777313",
      "street": "LG BARROCA",
      "house": "24",
      "postcode": "2840-479",
      "city": "SEIXAL",
      "lon": "-9.105985825871786",
      "lat": "38.6426984919282"
    },
    {
      "id": "pt.ine.add.PTCONT.4780370",
      "street": "R OLIVENCA",
      "house": "50",
      "postcode": "2840-519",
      "city": "SEIXAL",
      "lon": "-9.099835616680876",
      "lat": "38.64230808624064"
    },
    {
      "id": "pt.ine.add.PTCONT.4784405",
      "street": "R OLIVENCA",
      "house": "46",
      "postcode": "2840-519",
      "city": "SEIXAL",
      "lon": "-9.099883007250133",
      "lat": "38.64241579083817"
    },
    {
      "id": "pt.ine.add.PTCONT.4784406",
      "street": "R CÂNDIDO DOS REIS",
      "house": "141",
      "postcode": "2840-503",
      "city": "SEIXAL",
      "lon": "-9.106220303026305",
      "lat": "38.642201100731455"
    },
    {
      "id": "pt.ine.add.PTCONT.4784407",
      "street": "R CÂNDIDO REIS",
      "house": "51",
      "postcode": "2840-503",
      "city": "SEIXAL",
      "lon": "-9.10500410992678",
      "lat": "38.6431480451774"
    },
    {
      "id": "pt.ine.add.PTCONT.4784408",
      "street": "R CÂNDIDO REIS",
      "house": "51",
      "postcode": "2840-503",
      "city": "SEIXAL",
      "lon": "-9.10500410992678",
      "lat": "38.6431480451774"
    },
    {
      "id": "pt.ine.add.PTCONT.4785723",
      "street": "R CÂNDIDO REIS",
      "house": "51",
      "postcode": "2840-503",
      "city": "SEIXAL",
      "lon": "-9.10500410992678",
      "lat": "38.6431480451774"
    },
    {
      "id": "pt.ine.add.PTCONT.4788754",
      "street": "R CÂNDIDO DOS REIS",
      "house": "47",
      "postcode": "2840-503",
      "city": "SEIXAL",
      "lon": "-9.104923960372675",
      "lat": "38.643166727085635"
    },
    {
      "id": "pt.ine.add.PTCONT.4792343",
      "street": "BC ALPENDRE",
      "house": "9",
      "postcode": "2840-475",
      "city": "SEIXAL",
      "lon": "-9.106097261656735",
      "lat": "38.64244534064881"
    },
    {
      "id": "pt.ine.add.PTCONT.4792349",
      "street": "PC LUIS DE CAMÕES",
      "house": "59",
      "postcode": "2840-488",
      "city": "SEIXAL",
      "lon": "-9.104066740523544",
      "lat": "38.643480117921335"
    },
    {
      "id": "pt.ine.add.PTCONT.4798235",
      "street": "R LIBERDADE",
      "house": "4",
      "postcode": "2840-397",
      "city": "SEIXAL",
      "lon": "-9.099715699361576",
      "lat": "38.642786502244114"
    },
    {
      "id": "pt.ine.add.PTCONT.4798236",
      "street": "R LIBERDADE",
      "house": "4",
      "postcode": "2840-397",
      "city": "SEIXAL",
      "lon": "-9.099715699361576",
      "lat": "38.642786502244114"
    },
    {
      "id": "pt.ine.add.PTCONT.4798237",
      "street": "R LIBERDADE",
      "house": "4",
      "postcode": "2840-397",
      "city": "SEIXAL",
      "lon": "-9.099715699361576",
      "lat": "38.642786502244114"
    },
    {
      "id": "pt.ine.add.PTCONT.4798323",
      "street": "R CÂNDIDO DOS REIS",
      "house": "99",
      "postcode": "2840-503",
      "city": "SEIXAL",
      "lon": "-9.106044466912463",
      "lat": "38.642788084378694"
    },
    {
      "id": "pt.ine.add.PTCONT.4798324",
      "street": "R CÂNDIDO REIS",
      "house": "63",
      "postcode": "2840-503",
      "city": "SEIXAL",
      "lon": "-9.105175771908153",
      "lat": "38.64310157875871"
    },
    {
      "id": "pt.ine.add.PTCONT.4802288",
      "street": "R D MARIA II",
      "house": "41",
      "postcode": "2840-510",
      "city": "SEIXAL",
      "lon": "-9.102521031550774",
      "lat": "38.64384425016112"
    },
    {
      "id": "pt.ine.add.PTCONT.4813615",
      "street": "PC LUIS CAMÕES",
      "house": "27",
      "postcode": "2840-488",
      "city": "SEIXAL",
      "lon": "-9.103425780835156",
      "lat": "38.64364758059749"
    },
    {
      "id": "pt.ine.add.PTCONT.4813616",
      "street": "PC LUIS CAMÕES",
      "house": "27",
      "postcode": "2840-488",
      "city": "SEIXAL",
      "lon": "-9.103425780835156",
      "lat": "38.64364758059749"
    },
    {
      "id": "pt.ine.add.PTCONT.4816745",
      "street": "R OLIVENCA",
      "house": "52",
      "postcode": "2840-519",
      "city": "SEIXAL",
      "lon": "-9.099800436880631",
      "lat": "38.64225432883898"
    },
    {
      "id": "pt.ine.add.PTCONT.4820836",
      "street": "R CÂNDIDO DOS REIS",
      "house": "169",
      "postcode": "2840-503",
      "city": "SEIXAL",
      "lon": "-9.10586821712519",
      "lat": "38.64164553198345"
    },
    {
      "id": "pt.ine.add.PTCONT.4820846",
      "street": "R CÂNDIDO DOS REIS",
      "house": "83",
      "postcode": "2840-503",
      "city": "SEIXAL",
      "lon": "-9.10561024211096",
      "lat": "38.642953839368786"
    },
    {
      "id": "pt.ine.add.PTCONT.4827675",
      "street": "LG BARROCA",
      "house": "18",
      "postcode": "2840-479",
      "city": "SEIXAL",
      "lon": "-9.105961760579197",
      "lat": "38.64261761992146"
    },
    {
      "id": "pt.ine.add.PTCONT.4833768",
      "street": "R CÂNDIDO DOS REIS",
      "house": "167",
      "postcode": "2840-503",
      "city": "SEIXAL",
      "lon": "-9.105880066884287",
      "lat": "38.64167245749896"
    },
    {
      "id": "pt.ine.add.PTCONT.4836506",
      "street": "R CÂNDIDO DOS REIS",
      "house": "49",
      "postcode": "2840-503",
      "city": "SEIXAL",
      "lon": "-9.104969777503328",
      "lat": "38.64315733843121"
    },
    {
      "id": "pt.ine.add.PTCONT.4836507",
      "street": "R CÂNDIDO DOS REIS",
      "house": "49",
      "postcode": "2840-503",
      "city": "SEIXAL",
      "lon": "-9.104969777503328",
      "lat": "38.64315733843121"
    },
    {
      "id": "pt.ine.add.PTCONT.4836508",
      "street": "R CÂNDIDO DOS REIS",
      "house": "25",
      "postcode": "2840-503",
      "city": "SEIXAL",
      "lon": "-9.104615332911072",
      "lat": "38.643277386819406"
    },
    {
      "id": "pt.ine.add.PTCONT.4836509",
      "street": "R CÂNDIDO DOS REIS",
      "house": "25",
      "postcode": "2840-503",
      "city": "SEIXAL",
      "lon": "-9.104615332911072",
      "lat": "38.643277386819406"
    },
    {
      "id": "pt.ine.add.PTCONT.4836510",
      "street": "R CÂNDIDO DOS REIS",
      "house": "25",
      "postcode": "2840-503",
      "city": "SEIXAL",
      "lon": "-9.104615332911072",
      "lat": "38.643277386819406"
    },
    {
      "id": "pt.ine.add.PTCONT.4841911",
      "street": "R CÂNDIDO DOS REIS",
      "house": "161",
      "postcode": "2840-503",
      "city": "SEIXAL",
      "lon": "-9.105962284770968",
      "lat": "38.64180689403893"
    },
    {
      "id": "pt.ine.add.PTCONT.4848208",
      "street": "R LIBERDADE",
      "house": "4B",
      "postcode": "2840-397",
      "city": "SEIXAL",
      "lon": "-9.099680277413446",
      "lat": "38.6427147307724"
    },
    {
      "id": "pt.ine.add.PTCONT.4848333",
      "street": "R CÂNDIDO DOS REIS",
      "house": "107",
      "postcode": "2840-503",
      "city": "SEIXAL",
      "lon": "-9.106192061769647",
      "lat": "38.642660744495174"
    },
    {
      "id": "pt.ine.add.PTCONT.4850900",
      "street": "R CÂNDIDO DOS REIS",
      "house": "135",
      "postcode": "2840-503",
      "city": "SEIXAL",
      "lon": "-9.106197821191667",
      "lat": "38.64223731981376"
    },
    {
      "id": "pt.ine.add.PTCONT.4850901",
      "street": "R CÂNDIDO DOS REIS",
      "house": "135",
      "postcode": "2840-503",
      "city": "SEIXAL",
      "lon": "-9.106197821191667",
      "lat": "38.64223731981376"
    },
    {
      "id": "pt.ine.add.PTCONT.4850902",
      "street": "R CÂNDIDO DOS REIS",
      "house": "135",
      "postcode": "2840-503",
      "city": "SEIXAL",
      "lon": "-9.106197821191667",
      "lat": "38.64223731981376"
    },
    {
      "id": "pt.ine.add.PTCONT.4850903",
      "street": "PC LUIS CAMÕES",
      "house": "23",
      "postcode": "2840-488",
      "city": "SEIXAL",
      "lon": "-9.103242145795273",
      "lat": "38.643658111685376"
    },
    {
      "id": "pt.ine.add.PTCONT.4856782",
      "street": "R CÂNDIDO DOS REIS",
      "house": "31",
      "postcode": "2840-503",
      "city": "SEIXAL",
      "lon": "-9.104683876332588",
      "lat": "38.6432497935016"
    },
    {
      "id": "pt.ine.add.PTCONT.4856798",
      "street": "R D MARIA II",
      "house": "39",
      "postcode": "2840-510",
      "city": "SEIXAL",
      "lon": "-9.102486577107046",
      "lat": "38.64384453568261"
    },
    {
      "id": "pt.ine.add.PTCONT.4859234",
      "street": "R CÂNDIDO DOS REIS",
      "house": "117",
      "postcode": "2840-503",
      "city": "SEIXAL",
      "lon": "-9.106236538407511",
      "lat": "38.64255227831879"
    },
    {
      "id": "pt.ine.add.PTCONT.4861804",
      "street": "R OLIVENCA",
      "house": "60",
      "postcode": "2840-519",
      "city": "SEIXAL",
      "lon": "-9.099705172364837",
      "lat": "38.6420028914576"
    },
    {
      "id": "pt.ine.add.PTCONT.4861805",
      "street": "R CÂNDIDO REIS",
      "house": "123",
      "postcode": "2840-503",
      "city": "SEIXAL",
      "lon": "-9.106291768549232",
      "lat": "38.64238967456531"
    },
    {
      "id": "pt.ine.add.PTCONT.4866155",
      "street": "R CÂNDIDO DOS REIS",
      "house": "11",
      "postcode": "2840-503",
      "city": "SEIXAL",
      "lon": "-9.104318189221967",
      "lat": "38.64338795039876"
    },
    {
      "id": "pt.ine.add.PTCONT.4867537",
      "street": "LG BARROCA",
      "house": "16",
      "postcode": "2840-479",
      "city": "SEIXAL",
      "lon": "-9.1059615170125",
      "lat": "38.642599605914405"
    },
    {
      "id": "pt.ine.add.PTCONT.4868763",
      "street": "LG BARROCA",
      "house": "28",
      "postcode": "2840-479",
      "city": "SEIXAL",
      "lon": "-9.106054733589733",
      "lat": "38.64269791882817"
    },
    {
      "id": "pt.ine.add.PTCONT.4868764",
      "street": "PC LUIS CAMÕES",
      "house": "7",
      "postcode": "2840-488",
      "city": "SEIXAL",
      "lon": "-9.102829300575678",
      "lat": "38.64370657485963"
    },
    {
      "id": "pt.ine.add.PTCONT.4872189",
      "street": "PC LUIS CAMÕES",
      "house": "17",
      "postcode": "2840-488",
      "city": "SEIXAL",
      "lon": "-9.10300145102407",
      "lat": "38.64369613964053"
    },
    {
      "id": "pt.ine.add.PTCONT.4872190",
      "street": "PC LUIS CAMÕES",
      "house": "17",
      "postcode": "2840-488",
      "city": "SEIXAL",
      "lon": "-9.10300145102407",
      "lat": "38.64369613964053"
    },
    {
      "id": "pt.ine.add.PTCONT.4872191",
      "street": "PC LUIS CAMÕES",
      "house": "17",
      "postcode": "2840-488",
      "city": "SEIXAL",
      "lon": "-9.10300145102407",
      "lat": "38.64369613964053"
    },
    {
      "id": "pt.ine.add.PTCONT.4872192",
      "street": "PC LUIS CAMÕES",
      "house": "17",
      "postcode": "2840-488",
      "city": "SEIXAL",
      "lon": "-9.10300145102407",
      "lat": "38.64369613964053"
    },
    {
      "id": "pt.ine.add.PTCONT.4872193",
      "street": "R D MARIA II",
      "house": "35",
      "postcode": "2840-510",
      "city": "SEIXAL",
      "lon": "-9.102417668218129",
      "lat": "38.643845106695174"
    },
    {
      "id": "pt.ine.add.PTCONT.4875800",
      "street": "R OLIVENCA",
      "house": "A",
      "postcode": "2840-519",
      "city": "SEIXAL",
      "lon": "-9.099851941970307",
      "lat": "38.64266827213215"
    },
    {
      "id": "pt.ine.add.PTCONT.4884730",
      "street": "LG BARROCA",
      "house": "4",
      "postcode": "2840-479",
      "city": "SEIXAL",
      "lon": "-9.105814530691763",
      "lat": "38.64277198053055"
    },
    {
      "id": "pt.ine.add.PTCONT.4887771",
      "street": "R CÂNDIDO DOS REIS",
      "house": "151",
      "postcode": "2840-503",
      "city": "SEIXAL",
      "lon": "-9.106114993358025",
      "lat": "38.64205784844163"
    },
    {
      "id": "pt.ine.add.PTCONT.4892053",
      "street": "R CÂNDIDO DOS REIS",
      "house": "23",
      "postcode": "2840-503",
      "city": "SEIXAL",
      "lon": "-9.104569515655102",
      "lat": "38.643286775336406"
    },
    {
      "id": "pt.ine.add.PTCONT.4895896",
      "street": "LG BARROCA",
      "house": "22",
      "postcode": "2840-479",
      "city": "SEIXAL",
      "lon": "-9.105951615577096",
      "lat": "38.6427167924698"
    },
    {
      "id": "pt.ine.add.PTCONT.4908266",
      "street": "R CÂNDIDO REIS",
      "house": "61",
      "postcode": "2840-503",
      "city": "SEIXAL",
      "lon": "-9.105152924218489",
      "lat": "38.64311077663059"
    },
    {
      "id": "pt.ine.add.PTCONT.4908267",
      "street": "R CÂNDIDO REIS",
      "house": "61",
      "postcode": "2840-503",
      "city": "SEIXAL",
      "lon": "-9.105152924218489",
      "lat": "38.64311077663059"
    },
    {
      "id": "pt.ine.add.PTCONT.4908268",
      "street": "R CÂNDIDO REIS",
      "house": "61",
      "postcode": "2840-503",
      "city": "SEIXAL",
      "lon": "-9.105152924218489",
      "lat": "38.64311077663059"
    },
    {
      "id": "pt.ine.add.PTCONT.4920059",
      "street": "R CÂNDIDO DOS REIS",
      "house": "155",
      "postcode": "2840-503",
      "city": "SEIXAL",
      "lon": "-9.106067715553948",
      "lat": "38.641959153485324"
    },
    {
      "id": "pt.ine.add.PTCONT.4923968",
      "street": "R D MARIA II",
      "house": "43",
      "postcode": "2840-510",
      "city": "SEIXAL",
      "lon": "-9.10257833425736",
      "lat": "38.64383476725872"
    },
    {
      "id": "pt.ine.add.PTCONT.4927352",
      "street": "R CÂNDIDO DOS REIS",
      "house": "21",
      "postcode": "2840-503",
      "city": "SEIXAL",
      "lon": "-9.10454678943635",
      "lat": "38.64330498009758"
    },
    {
      "id": "pt.ine.add.PTCONT.4927359",
      "street": "PC LUIS CAMÕES",
      "house": "35",
      "postcode": "2840-488",
      "city": "SEIXAL",
      "lon": "-9.10359756656185",
      "lat": "38.643610123478524"
    },
    {
      "id": "pt.ine.add.PTCONT.4930138",
      "street": "LG BARROCA",
      "house": "30",
      "postcode": "2840-479",
      "city": "SEIXAL",
      "lon": "-9.106089309247702",
      "lat": "38.64270663926598"
    },
    {
      "id": "pt.ine.add.PTCONT.4930139",
      "street": "R CÂNDIDO REIS",
      "house": "73",
      "postcode": "2840-503",
      "city": "SEIXAL",
      "lon": "-9.105312857922016",
      "lat": "38.643046391435036"
    },
    {
      "id": "pt.ine.add.PTCONT.4933605",
      "street": "R CÂNDIDO DOS REIS",
      "house": "41",
      "postcode": "2840-503",
      "city": "SEIXAL",
      "lon": "-9.104866780178636",
      "lat": "38.643185218132786"
    },
    {
      "id": "pt.ine.add.PTCONT.4933606",
      "street": "PC LUIS CAMÕES",
      "house": "25",
      "postcode": "2840-488",
      "city": "SEIXAL",
      "lon": "-9.103322539270264",
      "lat": "38.643657444936224"
    },
    {
      "id": "pt.ine.add.PTCONT.4938180",
      "street": "R OLIVENCA",
      "house": "44",
      "postcode": "2840-519",
      "city": "SEIXAL",
      "lon": "-9.099906581564264",
      "lat": "38.64246063610844"
    },
    {
      "id": "pt.ine.add.PTCONT.4941698",
      "street": "R CÂNDIDO DOS REIS",
      "house": "163",
      "postcode": "2840-503",
      "city": "SEIXAL",
      "lon": "-9.105938706930992",
      "lat": "38.64176205003064"
    },
    {
      "id": "pt.ine.add.PTCONT.4941699",
      "street": "R CÂNDIDO DOS REIS",
      "house": "163",
      "postcode": "2840-503",
      "city": "SEIXAL",
      "lon": "-9.105938706930992",
      "lat": "38.64176205003064"
    },
    {
      "id": "pt.ine.add.PTCONT.4941713",
      "street": "R CÂNDIDO DOS REIS",
      "house": "85",
      "postcode": "2840-503",
      "city": "SEIXAL",
      "lon": "-9.105667421923572",
      "lat": "38.64293534796235"
    },
    {
      "id": "pt.ine.add.PTCONT.4941747",
      "street": "R D MARIA II",
      "house": "51",
      "postcode": "2840-510",
      "city": "SEIXAL",
      "lon": "-9.102715787859848",
      "lat": "38.643806603973026"
    },
    {
      "id": "pt.ine.add.PTCONT.4945166",
      "street": "R LEONEL PEREIRA FERNANDES",
      "house": "8",
      "postcode": "2840-517",
      "city": "SEIXAL",
      "lon": "-9.101550002674536",
      "lat": "38.64338387621356"
    },
    {
      "id": "pt.ine.add.PTCONT.4945167",
      "street": "R LEONEL PEREIRA FERNANDES",
      "house": "8",
      "postcode": "2840-517",
      "city": "SEIXAL",
      "lon": "-9.101550002674536",
      "lat": "38.64338387621356"
    },
    {
      "id": "pt.ine.add.PTCONT.4945168",
      "street": "R LEONEL PEREIRA FERNANDES",
      "house": "8",
      "postcode": "2840-517",
      "city": "SEIXAL",
      "lon": "-9.101550002674536",
      "lat": "38.64338387621356"
    },
    {
      "id": "pt.ine.add.PTCONT.4945169",
      "street": "R LEONEL PEREIRA FERNANDES",
      "house": "8",
      "postcode": "2840-517",
      "city": "SEIXAL",
      "lon": "-9.101550002674536",
      "lat": "38.64338387621356"
    },
    {
      "id": "pt.ine.add.PTCONT.4945170",
      "street": "R LEONEL PEREIRA FERNANDES",
      "house": "8",
      "postcode": "2840-517",
      "city": "SEIXAL",
      "lon": "-9.101550002674536",
      "lat": "38.64338387621356"
    },
    {
      "id": "pt.ine.add.PTCONT.4945171",
      "street": "R LEONEL PEREIRA FERNANDES",
      "house": "8",
      "postcode": "2840-517",
      "city": "SEIXAL",
      "lon": "-9.101550002674536",
      "lat": "38.64338387621356"
    },
    {
      "id": "pt.ine.add.PTCONT.4945172",
      "street": "R LEONEL PEREIRA FERNANDES",
      "house": "8",
      "postcode": "2840-517",
      "city": "SEIXAL",
      "lon": "-9.101550002674536",
      "lat": "38.64338387621356"
    },
    {
      "id": "pt.ine.add.PTCONT.4945179",
      "street": "R LIBERDADE",
      "house": "1",
      "postcode": "2840-397",
      "city": "SEIXAL",
      "lon": "-9.099603514554767",
      "lat": "38.64298560560867"
    },
    {
      "id": "pt.ine.add.PTCONT.4945589",
      "street": "R LEONEL PEREIRA FERNANDES",
      "house": "8",
      "postcode": "2840-517",
      "city": "SEIXAL",
      "lon": "-9.101550002674536",
      "lat": "38.64338387621356"
    },
    {
      "id": "pt.ine.add.PTCONT.4946806",
      "street": "PC LUIS CAMÕES",
      "house": "37",
      "postcode": "2840-488",
      "city": "SEIXAL",
      "lon": "-9.103689201741359",
      "lat": "38.64359134718053"
    },
    {
      "id": "pt.ine.add.PTCONT.4963473",
      "street": "LG BARROCA",
      "house": "14",
      "postcode": "2840-479",
      "city": "SEIXAL",
      "lon": "-9.10592742853708",
      "lat": "38.642626913452276"
    },
    {
      "id": "pt.ine.add.PTCONT.4963506",
      "street": "PC LUIS CAMÕES",
      "house": "3",
      "postcode": "2840-488",
      "city": "SEIXAL",
      "lon": "-9.10277199800652",
      "lat": "38.64371605788342"
    },
    {
      "id": "pt.ine.add.PTCONT.4963507",
      "street": "PC LUIS CAMÕES",
      "house": "3",
      "postcode": "2840-488",
      "city": "SEIXAL",
      "lon": "-9.10277199800652",
      "lat": "38.64371605788342"
    },
    {
      "id": "pt.ine.add.PTCONT.4966864",
      "street": "R CÂNDIDO REIS",
      "house": "65",
      "postcode": "2840-503",
      "city": "SEIXAL",
      "lon": "-9.10519861959191",
      "lat": "38.64309238088243"
    },
    {
      "id": "pt.ine.add.PTCONT.4966865",
      "street": "R CÂNDIDO REIS",
      "house": "55",
      "postcode": "2840-503",
      "city": "SEIXAL",
      "lon": "-9.105049927034463",
      "lat": "38.64313865649184"
    },
    {
      "id": "pt.ine.add.PTCONT.4966876",
      "street": "R CÂNDIDO DOS REIS",
      "house": "17",
      "postcode": "2840-503",
      "city": "SEIXAL",
      "lon": "-9.104455276455989",
      "lat": "38.64333276406712"
    },
    {
      "id": "pt.ine.add.PTCONT.4974345",
      "street": "R OLIVENCA",
      "house": "1",
      "postcode": "2840-519",
      "city": "SEIXAL",
      "lon": "-9.099923996517289",
      "lat": "38.642901885148945"
    },
    {
      "id": "pt.ine.add.PTCONT.4974346",
      "street": "R OLIVENCA",
      "house": "1",
      "postcode": "2840-519",
      "city": "SEIXAL",
      "lon": "-9.099923996517289",
      "lat": "38.642901885148945"
    },
    {
      "id": "pt.ine.add.PTCONT.4980264",
      "street": "R CÂNDIDO REIS",
      "house": "57",
      "postcode": "2840-503",
      "city": "SEIXAL",
      "lon": "-9.10509562245263",
      "lat": "38.64312026078346"
    },
    {
      "id": "pt.ine.add.PTCONT.4980265",
      "street": "R CÂNDIDO REIS",
      "house": "57",
      "postcode": "2840-503",
      "city": "SEIXAL",
      "lon": "-9.10509562245263",
      "lat": "38.64312026078346"
    },
    {
      "id": "pt.ine.add.PTCONT.4980266",
      "street": "R CÂNDIDO REIS",
      "house": "57",
      "postcode": "2840-503",
      "city": "SEIXAL",
      "lon": "-9.10509562245263",
      "lat": "38.64312026078346"
    },
    {
      "id": "pt.ine.add.PTCONT.4981765",
      "street": "R CÂNDIDO REIS",
      "house": "79",
      "postcode": "2840-503",
      "city": "SEIXAL",
      "lon": "-9.10541573315112",
      "lat": "38.643009504340505"
    },
    {
      "id": "pt.ine.add.PTCONT.4992284",
      "street": "R OLIVENCA",
      "house": "30",
      "postcode": "2840-519",
      "city": "SEIXAL",
      "lon": "-9.100186328056758",
      "lat": "38.64276459644326"
    },
    {
      "id": "pt.ine.add.PTCONT.4992304",
      "street": "BC ALPENDRE",
      "house": "8",
      "postcode": "2840-475",
      "city": "SEIXAL",
      "lon": "-9.10610838083284",
      "lat": "38.64241822411432"
    },
    {
      "id": "pt.ine.add.PTCONT.4992323",
      "street": "BC ALPENDRE",
      "house": "8",
      "postcode": "2840-475",
      "city": "SEIXAL",
      "lon": "-9.10610838083284",
      "lat": "38.64241822411432"
    },
    {
      "id": "pt.ine.add.PTCONT.4992324",
      "street": "BC ALPENDRE",
      "house": "8",
      "postcode": "2840-475",
      "city": "SEIXAL",
      "lon": "-9.10610838083284",
      "lat": "38.64241822411432"
    },
    {
      "id": "pt.ine.add.PTCONT.4992325",
      "street": "BC ALPENDRE",
      "house": "8",
      "postcode": "2840-475",
      "city": "SEIXAL",
      "lon": "-9.10610838083284",
      "lat": "38.64241822411432"
    },
    {
      "id": "pt.ine.add.PTCONT.4992326",
      "street": "BC ALPENDRE",
      "house": "8",
      "postcode": "2840-475",
      "city": "SEIXAL",
      "lon": "-9.10610838083284",
      "lat": "38.64241822411432"
    },
    {
      "id": "pt.ine.add.PTCONT.4992327",
      "street": "BC ALPENDRE",
      "house": "8",
      "postcode": "2840-475",
      "city": "SEIXAL",
      "lon": "-9.10610838083284",
      "lat": "38.64241822411432"
    },
    {
      "id": "pt.ine.add.PTCONT.4994184",
      "street": "R CÂNDIDO REIS",
      "house": "67",
      "postcode": "2840-503",
      "city": "SEIXAL",
      "lon": "-9.10523283025938",
      "lat": "38.6430740805574"
    },
    {
      "id": "pt.ine.add.PTCONT.4994264",
      "street": "R CÂNDIDO REIS",
      "house": "67",
      "postcode": "2840-503",
      "city": "SEIXAL",
      "lon": "-9.10523283025938",
      "lat": "38.6430740805574"
    },
    {
      "id": "pt.ine.add.PTCONT.4994265",
      "street": "R CÂNDIDO REIS",
      "house": "67",
      "postcode": "2840-503",
      "city": "SEIXAL",
      "lon": "-9.10523283025938",
      "lat": "38.6430740805574"
    },
    {
      "id": "pt.ine.add.PTCONT.4994266",
      "street": "R CÂNDIDO REIS",
      "house": "67",
      "postcode": "2840-503",
      "city": "SEIXAL",
      "lon": "-9.10523283025938",
      "lat": "38.6430740805574"
    },
    {
      "id": "pt.ine.add.PTCONT.4999792",
      "street": "R CÂNDIDO REIS",
      "house": "129",
      "postcode": "2840-503",
      "city": "SEIXAL",
      "lon": "-9.10625597483033",
      "lat": "38.64229088415359"
    },
    {
      "id": "pt.ine.add.PTCONT.5003235",
      "street": "R CÂNDIDO DOS REIS",
      "house": "159",
      "postcode": "2840-503",
      "city": "SEIXAL",
      "lon": "-9.105997468910035",
      "lat": "38.64186064953423"
    },
    {
      "id": "pt.ine.add.PTCONT.5003250",
      "street": "R CÂNDIDO DOS REIS",
      "house": "15",
      "postcode": "2840-503",
      "city": "SEIXAL",
      "lon": "-9.104432550193582",
      "lat": "38.64335096880654"
    },
    {
      "id": "pt.ine.add.PTCONT.5006692",
      "street": "R CÂNDIDO DOS REIS",
      "house": "165",
      "postcode": "2840-503",
      "city": "SEIXAL",
      "lon": "-9.105915129120898",
      "lat": "38.64171720601687"
    },
    {
      "id": "pt.ine.add.PTCONT.5012558",
      "street": "R OLIVENCA",
      "house": "48",
      "postcode": "2840-519",
      "city": "SEIXAL",
      "lon": "-9.099859432965875",
      "lat": "38.64237094556247"
    },
    {
      "id": "pt.ine.add.PTCONT.5012559",
      "street": "R CÂNDIDO DOS REIS",
      "house": "97",
      "postcode": "2840-503",
      "city": "SEIXAL",
      "lon": "-9.10598740910436",
      "lat": "38.64281558297023"
    },
    {
      "id": "pt.ine.add.PTCONT.5018172",
      "street": "R CÂNDIDO DOS REIS",
      "house": "45",
      "postcode": "2840-503",
      "city": "SEIXAL",
      "lon": "-9.104901112629259",
      "lat": "38.64317592490892"
    },
    {
      "id": "pt.ine.add.PTCONT.5025847",
      "street": "R CÂNDIDO DOS REIS",
      "house": "19",
      "postcode": "2840-503",
      "city": "SEIXAL",
      "lon": "-9.104512456876522",
      "lat": "38.64331427321868"
    },
    {
      "id": "pt.ine.add.PTCONT.5029301",
      "street": "R CÂNDIDO DOS REIS",
      "house": "145",
      "postcode": "2840-503",
      "city": "SEIXAL",
      "lon": "-9.10617351221122",
      "lat": "38.6421384338381"
    },
    {
      "id": "pt.ine.add.PTCONT.5032119",
      "street": "R CÂNDIDO REIS",
      "house": "75",
      "postcode": "2840-503",
      "city": "SEIXAL",
      "lon": "-9.105335705570301",
      "lat": "38.64303719353237"
    },
    {
      "id": "pt.ine.add.PTCONT.5040183",
      "street": "R OLIVENCA",
      "house": "40",
      "postcode": "2840-519",
      "city": "SEIXAL",
      "lon": "-9.099977667788885",
      "lat": "38.64262219294485"
    },
    {
      "id": "pt.ine.add.PTCONT.5040184",
      "street": "R OLIVENCA",
      "house": "40",
      "postcode": "2840-519",
      "city": "SEIXAL",
      "lon": "-9.099977667788885",
      "lat": "38.64262219294485"
    },
    {
      "id": "pt.ine.add.PTCONT.5043716",
      "street": "R CÂNDIDO DOS REIS",
      "house": "121",
      "postcode": "2840-503",
      "city": "SEIXAL",
      "lon": "-9.106247413909044",
      "lat": "38.64250714776619"
    },
    {
      "id": "pt.ine.add.PTCONT.5047410",
      "street": "R CÂNDIDO DOS REIS",
      "house": "13",
      "postcode": "2840-503",
      "city": "SEIXAL",
      "lon": "-9.104386854455091",
      "lat": "38.64336936425931"
    },
    {
      "id": "pt.ine.add.PTCONT.5047910",
      "street": "R CÂNDIDO DOS REIS",
      "house": "13",
      "postcode": "2840-503",
      "city": "SEIXAL",
      "lon": "-9.104386854455091",
      "lat": "38.64336936425931"
    },
    {
      "id": "pt.ine.add.PTCONT.5051267",
      "street": "BC ALPENDRE",
      "house": "4",
      "postcode": "2840-475",
      "city": "SEIXAL",
      "lon": "-9.106200135616115",
      "lat": "38.64240845287712"
    },
    {
      "id": "pt.ine.add.PTCONT.5051308",
      "street": "PC LUIS CAMÕES",
      "house": "33",
      "postcode": "2840-488",
      "city": "SEIXAL",
      "lon": "-9.103528779403291",
      "lat": "38.64361970215108"
    },
    {
      "id": "pt.ine.add.PTCONT.5051309",
      "street": "PC LUIS CAMÕES",
      "house": "21",
      "postcode": "2840-488",
      "city": "SEIXAL",
      "lon": "-9.103150388970919",
      "lat": "38.64366788062619"
    },
    {
      "id": "pt.ine.add.PTCONT.5051310",
      "street": "PC LUIS CAMÕES",
      "house": "21",
      "postcode": "2840-488",
      "city": "SEIXAL",
      "lon": "-9.103150388970919",
      "lat": "38.64366788062619"
    },
    {
      "id": "pt.ine.add.PTCONT.5055106",
      "street": "BC ALPENDRE",
      "house": "3",
      "postcode": "2840-475",
      "city": "SEIXAL",
      "lon": "-9.10616629093825",
      "lat": "38.64245377448954"
    },
    {
      "id": "pt.ine.add.PTCONT.5055119",
      "street": "R CÂNDIDO REIS",
      "house": "77",
      "postcode": "2840-503",
      "city": "SEIXAL",
      "lon": "-9.105370037887198",
      "lat": "38.643027900172314"
    },
    {
      "id": "pt.ine.add.PTCONT.5055124",
      "street": "R CÂNDIDO DOS REIS",
      "house": "3",
      "postcode": "2840-503",
      "city": "SEIXAL",
      "lon": "-9.104192464954409",
      "lat": "38.64343403422673"
    },
    {
      "id": "pt.ine.add.PTCONT.5062011",
      "street": "R OLIVENCA",
      "house": "56",
      "postcode": "2840-519",
      "city": "SEIXAL",
      "lon": "-9.099764531098646",
      "lat": "38.64214652930116"
    },
    {
      "id": "pt.ine.add.PTCONT.5062027",
      "street": "R CANDIDO REIS",
      "house": "131",
      "postcode": "2840-503",
      "city": "SEIXAL",
      "lon": "-9.106209671175577",
      "lat": "38.64226424529031"
    },
    {
      "id": "pt.ine.add.PTCONT.5062090",
      "street": "PC LUIS DE CAMÕES",
      "house": "51",
      "postcode": "2840-488",
      "city": "SEIXAL",
      "lon": "-9.103941015929376",
      "lat": "38.643526201482516"
    },
    {
      "id": "pt.ine.add.PTCONT.5066313",
      "street": "R LIBERDADE",
      "house": "2",
      "postcode": "2840-397",
      "city": "SEIXAL",
      "lon": "-9.099786664485533",
      "lat": "38.642939052169524"
    },
    {
      "id": "pt.ine.add.PTCONT.5081654",
      "street": "R CÂNDIDO DOS REIS",
      "house": "101",
      "postcode": "2840-503",
      "city": "SEIXAL",
      "lon": "-9.106146366930288",
      "lat": "38.642679140625845"
    },
    {
      "id": "pt.ine.add.PTCONT.5081655",
      "street": "R CÂNDIDO DOS REIS",
      "house": "29",
      "postcode": "2840-503",
      "city": "SEIXAL",
      "lon": "-9.104661028531329",
      "lat": "38.643258991278614"
    },
    {
      "id": "pt.ine.add.PTCONT.5087094",
      "street": "R SEIXAL FUTEBOL CLUBE",
      "house": "6",
      "postcode": "2840-523",
      "city": "SEIXAL",
      "lon": "-9.099759943874332",
      "lat": "38.642660024364766"
    },
    {
      "id": "pt.ine.add.PTCONT.5090875",
      "street": "R D MARIA II",
      "house": "33",
      "postcode": "2840-510",
      "city": "SEIXAL",
      "lon": "-9.102371850297159",
      "lat": "38.64385449435886"
    },
    {
      "id": "pt.ine.add.PTCONT.5094376",
      "street": "R D MARIA II",
      "house": "37",
      "postcode": "2840-510",
      "city": "SEIXAL",
      "lon": "-9.10245212266283",
      "lat": "38.64384482119396"
    },
    {
      "id": "pt.ine.add.PTCONT.5096732",
      "street": "R CÂNDIDO DOS REIS",
      "house": "39",
      "postcode": "2840-503",
      "city": "SEIXAL",
      "lon": "-9.104832447718955",
      "lat": "38.643194511346685"
    },
    {
      "id": "pt.ine.add.PTCONT.5101079",
      "street": "R OLIVENCA",
      "house": "58",
      "postcode": "2840-519",
      "city": "SEIXAL",
      "lon": "-9.09974071497458",
      "lat": "38.642083669955554"
    },
    {
      "id": "pt.ine.add.PTCONT.5101080",
      "street": "R OLIVENCA",
      "house": "68",
      "postcode": "2840-519",
      "city": "SEIXAL",
      "lon": "-9.099644966947864",
      "lat": "38.641796204426235"
    },
    {
      "id": "pt.ine.add.PTCONT.5104799",
      "street": "R CÂNDIDO DOS REIS",
      "house": "37",
      "postcode": "2840-503",
      "city": "SEIXAL",
      "lon": "-9.104786630545664",
      "lat": "38.6432038999478"
    },
    {
      "id": "pt.ine.add.PTCONT.5114432",
      "street": "R CÂNDIDO REIS",
      "house": "81",
      "postcode": "2840-503",
      "city": "SEIXAL",
      "lon": "-9.105507367064204",
      "lat": "38.6429907266324"
    },
    {
      "id": "pt.ine.add.PTCONT.5114433",
      "street": "R CÂNDIDO DOS REIS",
      "house": "33",
      "postcode": "2840-503",
      "city": "SEIXAL",
      "lon": "-9.104695117789653",
      "lat": "38.64323168410256"
    },
    {
      "id": "pt.ine.add.PTCONT.5114567",
      "street": "R D MARIA II",
      "house": "45",
      "postcode": "2840-510",
      "city": "SEIXAL",
      "lon": "-9.102612667326007",
      "lat": "38.64382547469968"
    },
    {
      "id": "pt.ine.add.PTCONT.5119510",
      "street": "R D MARIA II",
      "house": "31",
      "postcode": "2840-510",
      "city": "SEIXAL",
      "lon": "-9.102348759327262",
      "lat": "38.643845677667144"
    },
    {
      "id": "pt.ine.add.PTCONT.5128168",
      "street": "R CÂNDIDO DOS REIS",
      "house": "5",
      "postcode": "2840-503",
      "city": "SEIXAL",
      "lon": "-9.104238160784938",
      "lat": "38.64341563884891"
    },
    {
      "id": "pt.ine.add.PTCONT.5128529",
      "street": "R CÂNDIDO DOS REIS",
      "house": "171",
      "postcode": "2840-503",
      "city": "SEIXAL",
      "lon": "-9.105856367375146",
      "lat": "38.6416186064665"
    },
    {
      "id": "pt.ine.add.PTCONT.5128530",
      "street": "R CÂNDIDO DOS REIS",
      "house": "13",
      "postcode": "2840-503",
      "city": "SEIXAL",
      "lon": "-9.104386854455091",
      "lat": "38.64336936425931"
    },
    {
      "id": "pt.ine.add.PTCONT.5131479",
      "street": "R OLIVENCA",
      "house": "48",
      "postcode": "2840-519",
      "city": "SEIXAL",
      "lon": "-9.099859432965875",
      "lat": "38.64237094556247"
    },
    {
      "id": "pt.ine.add.PTCONT.5131995",
      "street": "PC LUIS DE CAMÕES",
      "house": "53",
      "postcode": "2840-488",
      "city": "SEIXAL",
      "lon": "-9.1039981966401",
      "lat": "38.64350771088234"
    },
    {
      "id": "pt.ine.add.PTCONT.5133325",
      "street": "LG BARROCA",
      "house": "20",
      "postcode": "2840-479",
      "city": "SEIXAL",
      "lon": "-9.105917039930048",
      "lat": "38.64270807199113"
    }
  ]
}