{
  "data": {
    "distrito": "Coimbra",
    "concelho": "Oliveira do Hospital",
    "freguesia": "União das freguesias de Oliveira do Hospital e São Paio de Gramaços",
    "OBJECTID": 606,
    "BGRI2021": "06112400313",
    "DT21": "06",
    "DTMN21": "0611",
    "DTMNFR21": "061124",
    "DTMNFRSEC21": "061124003",
    "SECNUM21": "003",
    "SSNUM21": "13",
    "SECSSNUM21": "00313",
    "OBJECTID_1": 54571,
    "DT": "06",
    "CC": "11",
    "fr": "24",
    "SEC": "003",
    "SS": "13"
  },
  "addresses": [
    {
      "id": "pt.ine.add.PTCONT.1100558",
      "street": "R DR ANTÓNIO SIMÕES PEREIRA",
      "house": "29",
      "postcode": "3400-112",
      "city": "OLIVEIRA DO HOSPITAL",
      "lon": "-7.862745510156427",
      "lat": "40.36483100773877"
    },
    {
      "id": "pt.ine.add.PTCONT.1109677",
      "street": "R DR ANTÓNIO SIMÕES PEREIRA",
      "house": "5",
      "postcode": "3400-112",
      "city": "OLIVEIRA DO HOSPITAL",
      "lon": "-7.863637871346943",
      "lat": "40.365436466416156"
    },
    {
      "id": "pt.ine.add.PTCONT.1117367",
      "street": "R DR ANTÓNIO SIMÕES PEREIRA",
      "house": "13",
      "postcode": "3400-112",
      "city": "OLIVEIRA DO HOSPITAL",
      "lon": "-7.862813991129248",
      "lat": "40.36537150458152"
    },
    {
      "id": "pt.ine.add.PTCONT.1124994",
      "street": "R DR ANTÓNIO SIMÕES PEREIRA",
      "house": "31",
      "postcode": "3400-112",
      "city": "OLIVEIRA DO HOSPITAL",
      "lon": "-7.8627339888199215",
      "lat": "40.36476794151122"
    },
    {
      "id": "pt.ine.add.PTCONT.1142524",
      "street": "R D JOSEFINA DA FONSECA",
      "house": "21",
      "postcode": "3400-107",
      "city": "OLIVEIRA DO HOSPITAL",
      "lon": "-7.862403762871821",
      "lat": "40.3649112588595"
    },
    {
      "id": "pt.ine.add.PTCONT.1152323",
      "street": "R D JOSEFINA DA FONSECA",
      "house": "19",
      "postcode": "3400-107",
      "city": "OLIVEIRA DO HOSPITAL",
      "lon": "-7.862404015052358",
      "lat": "40.36484822015703"
    },
    {
      "id": "pt.ine.add.PTCONT.1162758",
      "street": "R DR ANTÓNIO SIMÕES PEREIRA",
      "house": "1",
      "postcode": "3400-112",
      "city": "OLIVEIRA DO HOSPITAL",
      "lon": "-7.863955786681908",
      "lat": "40.3654282010985"
    },
    {
      "id": "pt.ine.add.PTCONT.1162759",
      "street": "R D JOSEFINA DA FONSECA",
      "house": "17",
      "postcode": "3400-107",
      "city": "OLIVEIRA DO HOSPITAL",
      "lon": "-7.86241604043275",
      "lat": "40.364785209009945"
    },
    {
      "id": "pt.ine.add.PTCONT.1167911",
      "street": "R D JOSEFINA DA FONSECA",
      "house": "31",
      "postcode": "3400-107",
      "city": "OLIVEIRA DO HOSPITAL",
      "lon": "-7.862425940442113",
      "lat": "40.365253524058176"
    },
    {
      "id": "pt.ine.add.PTCONT.1222372",
      "street": "R DR ANTÓNIO SIMÕES PEREIRA",
      "house": "15",
      "postcode": "3400-112",
      "city": "OLIVEIRA DO HOSPITAL",
      "lon": "-7.862814170988241",
      "lat": "40.36532647693906"
    },
    {
      "id": "pt.ine.add.PTCONT.1222460",
      "street": "R DR ANTÓNIO SIMÕES PEREIRA",
      "house": "27",
      "postcode": "3400-112",
      "city": "OLIVEIRA DO HOSPITAL",
      "lon": "-7.862756995535266",
      "lat": "40.36490307949371"
    },
    {
      "id": "pt.ine.add.PTCONT.1245161",
      "street": "R D JOSEFINA DA FONSECA",
      "house": "29",
      "postcode": "3400-107",
      "city": "OLIVEIRA DO HOSPITAL",
      "lon": "-7.862437965876225",
      "lat": "40.365190512913394"
    },
    {
      "id": "pt.ine.add.PTCONT.1250571",
      "street": "R DR ANTÓNIO SIMÕES PEREIRA",
      "house": "17",
      "postcode": "3400-112",
      "city": "OLIVEIRA DO HOSPITAL",
      "lon": "-7.862802649505908",
      "lat": "40.365263410723266"
    },
    {
      "id": "pt.ine.add.PTCONT.1252820",
      "street": "R DR VIRGÍLIO FERREIRA",
      "house": "22",
      "postcode": "3400-117",
      "city": "OLIVEIRA DO HOSPITAL",
      "lon": "-7.864155217152944",
      "lat": "40.36560877729368"
    },
    {
      "id": "pt.ine.add.PTCONT.1252821",
      "street": "R DR VIRGÍLIO FERREIRA",
      "house": "22",
      "postcode": "3400-117",
      "city": "OLIVEIRA DO HOSPITAL",
      "lon": "-7.864155217152944",
      "lat": "40.36560877729368"
    },
    {
      "id": "pt.ine.add.PTCONT.1252822",
      "street": "R DR VIRGÍLIO FERREIRA",
      "house": "22",
      "postcode": "3400-117",
      "city": "OLIVEIRA DO HOSPITAL",
      "lon": "-7.864155217152944",
      "lat": "40.36560877729368"
    },
    {
      "id": "pt.ine.add.PTCONT.1252823",
      "street": "R DR VIRGÍLIO FERREIRA",
      "house": "22",
      "postcode": "3400-117",
      "city": "OLIVEIRA DO HOSPITAL",
      "lon": "-7.864155217152944",
      "lat": "40.36560877729368"
    },
    {
      "id": "pt.ine.add.PTCONT.1252877",
      "street": "R DR VIRGÍLIO FERREIRA",
      "house": "22",
      "postcode": "3400-117",
      "city": "OLIVEIRA DO HOSPITAL",
      "lon": "-7.864155217152944",
      "lat": "40.36560877729368"
    },
    {
      "id": "pt.ine.add.PTCONT.1252878",
      "street": "R DR VIRGÍLIO FERREIRA",
      "house": "22",
      "postcode": "3400-117",
      "city": "OLIVEIRA DO HOSPITAL",
      "lon": "-7.864155217152944",
      "lat": "40.36560877729368"
    },
    {
      "id": "pt.ine.add.PTCONT.1252879",
      "street": "R DR VIRGÍLIO FERREIRA",
      "house": "22",
      "postcode": "3400-117",
      "city": "OLIVEIRA DO HOSPITAL",
      "lon": "-7.864155217152944",
      "lat": "40.36560877729368"
    },
    {
      "id": "pt.ine.add.PTCONT.1252880",
      "street": "R DR VIRGÍLIO FERREIRA",
      "house": "22",
      "postcode": "3400-117",
      "city": "OLIVEIRA DO HOSPITAL",
      "lon": "-7.864155217152944",
      "lat": "40.36560877729368"
    },
    {
      "id": "pt.ine.add.PTCONT.1252881",
      "street": "R DR ANTÓNIO SIMÕES PEREIRA",
      "house": "11",
      "postcode": "3400-112",
      "city": "OLIVEIRA DO HOSPITAL",
      "lon": "-7.863143248412375",
      "lat": "40.36547133535369"
    },
    {
      "id": "pt.ine.add.PTCONT.1253894",
      "street": "R DR VIRGÍLIO FERREIRA",
      "house": "22",
      "postcode": "3400-117",
      "city": "OLIVEIRA DO HOSPITAL",
      "lon": "-7.864155217152944",
      "lat": "40.36560877729368"
    },
    {
      "id": "pt.ine.add.PTCONT.1253953",
      "street": "R DR VIRGÍLIO FERREIRA",
      "house": "22",
      "postcode": "3400-117",
      "city": "OLIVEIRA DO HOSPITAL",
      "lon": "-7.864155217152944",
      "lat": "40.36560877729368"
    },
    {
      "id": "pt.ine.add.PTCONT.1261714",
      "street": "R DR ANTÓNIO SIMÕES PEREIRA",
      "house": "9",
      "postcode": "3400-112",
      "city": "OLIVEIRA DO HOSPITAL",
      "lon": "-7.863378750727202",
      "lat": "40.36546287922113"
    },
    {
      "id": "pt.ine.add.PTCONT.1264200",
      "street": "R D JOSEFINA DA FONSECA",
      "house": "25",
      "postcode": "3400-107",
      "city": "OLIVEIRA DO HOSPITAL",
      "lon": "-7.862403258508351",
      "lat": "40.36503733626228"
    },
    {
      "id": "pt.ine.add.PTCONT.1268041",
      "street": "R D JOSEFINA DA FONSECA",
      "house": "35",
      "postcode": "3400-107",
      "city": "OLIVEIRA DO HOSPITAL",
      "lon": "-7.862436633063991",
      "lat": "40.36552371745675"
    },
    {
      "id": "pt.ine.add.PTCONT.1268042",
      "street": "R D JOSEFINA DA FONSECA",
      "house": "35",
      "postcode": "3400-107",
      "city": "OLIVEIRA DO HOSPITAL",
      "lon": "-7.862436633063991",
      "lat": "40.36552371745675"
    },
    {
      "id": "pt.ine.add.PTCONT.1268043",
      "street": "R D JOSEFINA DA FONSECA",
      "house": "35",
      "postcode": "3400-107",
      "city": "OLIVEIRA DO HOSPITAL",
      "lon": "-7.862436633063991",
      "lat": "40.36552371745675"
    },
    {
      "id": "pt.ine.add.PTCONT.1268044",
      "street": "R D JOSEFINA DA FONSECA",
      "house": "35",
      "postcode": "3400-107",
      "city": "OLIVEIRA DO HOSPITAL",
      "lon": "-7.862436633063991",
      "lat": "40.36552371745675"
    },
    {
      "id": "pt.ine.add.PTCONT.1268045",
      "street": "R D JOSEFINA DA FONSECA",
      "house": "35",
      "postcode": "3400-107",
      "city": "OLIVEIRA DO HOSPITAL",
      "lon": "-7.862436633063991",
      "lat": "40.36552371745675"
    },
    {
      "id": "pt.ine.add.PTCONT.1268310",
      "street": "R D JOSEFINA DA FONSECA",
      "house": "35",
      "postcode": "3400-107",
      "city": "OLIVEIRA DO HOSPITAL",
      "lon": "-7.862436633063991",
      "lat": "40.36552371745675"
    },
    {
      "id": "pt.ine.add.PTCONT.1270129",
      "street": "R D JOSEFINA DA FONSECA",
      "house": "27",
      "postcode": "3400-107",
      "city": "OLIVEIRA DO HOSPITAL",
      "lon": "-7.862414743556281",
      "lat": "40.36510940804759"
    },
    {
      "id": "pt.ine.add.PTCONT.1276075",
      "street": "R DR ANTÓNIO SIMÕES PEREIRA",
      "house": "23",
      "postcode": "3400-112",
      "city": "OLIVEIRA DO HOSPITAL",
      "lon": "-7.862780038316959",
      "lat": "40.36502921193981"
    },
    {
      "id": "pt.ine.add.PTCONT.1278127",
      "street": "R DR ANTÓNIO SIMÕES PEREIRA",
      "house": "3",
      "postcode": "3400-112",
      "city": "OLIVEIRA DO HOSPITAL",
      "lon": "-7.863779151129932",
      "lat": "40.36543679550693"
    },
    {
      "id": "pt.ine.add.PTCONT.1282274",
      "street": "R DR ANTÓNIO SIMÕES PEREIRA",
      "house": "25",
      "postcode": "3400-112",
      "city": "OLIVEIRA DO HOSPITAL",
      "lon": "-7.862768480938149",
      "lat": "40.36497515124668"
    },
    {
      "id": "pt.ine.add.PTCONT.1284326",
      "street": "R D JOSEFINA DA FONSECA",
      "house": "37",
      "postcode": "3400-107",
      "city": "OLIVEIRA DO HOSPITAL",
      "lon": "-7.8624477580181855",
      "lat": "40.36568584451068"
    },
    {
      "id": "pt.ine.add.PTCONT.1284328",
      "street": "R D JOSEFINA DA FONSECA",
      "house": "37",
      "postcode": "3400-107",
      "city": "OLIVEIRA DO HOSPITAL",
      "lon": "-7.8624477580181855",
      "lat": "40.36568584451068"
    },
    {
      "id": "pt.ine.add.PTCONT.1284329",
      "street": "R D JOSEFINA DA FONSECA",
      "house": "37",
      "postcode": "3400-107",
      "city": "OLIVEIRA DO HOSPITAL",
      "lon": "-7.8624477580181855",
      "lat": "40.36568584451068"
    },
    {
      "id": "pt.ine.add.PTCONT.1284330",
      "street": "R D JOSEFINA DA FONSECA",
      "house": "37",
      "postcode": "3400-107",
      "city": "OLIVEIRA DO HOSPITAL",
      "lon": "-7.8624477580181855",
      "lat": "40.36568584451068"
    },
    {
      "id": "pt.ine.add.PTCONT.1284331",
      "street": "R D JOSEFINA DA FONSECA",
      "house": "37",
      "postcode": "3400-107",
      "city": "OLIVEIRA DO HOSPITAL",
      "lon": "-7.8624477580181855",
      "lat": "40.36568584451068"
    },
    {
      "id": "pt.ine.add.PTCONT.1284550",
      "street": "R D JOSEFINA DA FONSECA",
      "house": "37",
      "postcode": "3400-107",
      "city": "OLIVEIRA DO HOSPITAL",
      "lon": "-7.8624477580181855",
      "lat": "40.36568584451068"
    },
    {
      "id": "pt.ine.add.PTCONT.1298653",
      "street": "R DR ANTÓNIO SIMÕES PEREIRA",
      "house": "19",
      "postcode": "3400-112",
      "city": "OLIVEIRA DO HOSPITAL",
      "lon": "-7.862791235968656",
      "lat": "40.365173327919514"
    },
    {
      "id": "pt.ine.add.PTCONT.1302067",
      "street": "R DR ANTÓNIO SIMÕES PEREIRA",
      "house": "7",
      "postcode": "3400-112",
      "city": "OLIVEIRA DO HOSPITAL",
      "lon": "-7.863472973167943",
      "lat": "40.365454093316465"
    },
    {
      "id": "pt.ine.add.PTCONT.1322636",
      "street": "R D JOSEFINA DA FONSECA",
      "house": "23",
      "postcode": "3400-107",
      "city": "OLIVEIRA DO HOSPITAL",
      "lon": "-7.862391737456948",
      "lat": "40.36497427000382"
    },
    {
      "id": "pt.ine.add.PTCONT.1335608",
      "street": "R D JOSEFINA DA FONSECA",
      "house": "33",
      "postcode": "3400-107",
      "city": "OLIVEIRA DO HOSPITAL",
      "lon": "-7.86242568827839",
      "lat": "40.365316562756306"
    },
    {
      "id": "pt.ine.add.PTCONT.1344378",
      "street": "R DR ANTÓNIO SIMÕES PEREIRA",
      "house": "21",
      "postcode": "3400-112",
      "city": "OLIVEIRA DO HOSPITAL",
      "lon": "-7.862779750509058",
      "lat": "40.36510125617109"
    },
    {
      "id": "pt.ine.add.PTCONT.1349279",
      "street": "R DO CASTANHEIRINHO",
      "house": "1",
      "postcode": "3400-104",
      "city": "OLIVEIRA DO HOSPITAL",
      "lon": "-7.862777519962586",
      "lat": "40.365659598932915"
    }
  ]
}