{
  "data": {
    "distrito": "Porto",
    "concelho": "Vila Nova de Gaia",
    "freguesia": "União das freguesias de Mafamude e Vilar do Paraíso",
    "OBJECTID": 985,
    "BGRI2021": "13172702808",
    "DT21": "13",
    "DTMN21": "1317",
    "DTMNFR21": "131727",
    "DTMNFRSEC21": "131727028",
    "SECNUM21": "028",
    "SSNUM21": "08",
    "SECSSNUM21": "02808",
    "OBJECTID_1": 145352,
    "DT": "13",
    "CC": "17",
    "fr": "27",
    "SEC": "028",
    "SS": "08"
  },
  "addresses": [
    {
      "id": "pt.ine.add.PTCONT.3580469",
      "street": "AL CEDROS",
      "house": "ENTRADA 1",
      "postcode": "4430-055",
      "city": "VILA NOVA DE GAIA",
      "lon": "-8.61101263466055",
      "lat": "41.10952154154416"
    },
    {
      "id": "pt.ine.add.PTCONT.3580575",
      "street": "AL CEDROS",
      "house": "ENTRADA 1",
      "postcode": "4430-055",
      "city": "VILA NOVA DE GAIA",
      "lon": "-8.61101263466055",
      "lat": "41.10952154154416"
    },
    {
      "id": "pt.ine.add.PTCONT.3580576",
      "street": "AL CEDROS",
      "house": "ENTRADA 1",
      "postcode": "4430-055",
      "city": "VILA NOVA DE GAIA",
      "lon": "-8.61101263466055",
      "lat": "41.10952154154416"
    },
    {
      "id": "pt.ine.add.PTCONT.3580577",
      "street": "AL CEDROS",
      "house": "ENTRADA 1",
      "postcode": "4430-055",
      "city": "VILA NOVA DE GAIA",
      "lon": "-8.61101263466055",
      "lat": "41.10952154154416"
    },
    {
      "id": "pt.ine.add.PTCONT.3580578",
      "street": "AL CEDROS",
      "house": "ENTRADA 1",
      "postcode": "4430-055",
      "city": "VILA NOVA DE GAIA",
      "lon": "-8.61101263466055",
      "lat": "41.10952154154416"
    },
    {
      "id": "pt.ine.add.PTCONT.3580579",
      "street": "AL CEDROS",
      "house": "ENTRADA 1",
      "postcode": "4430-055",
      "city": "VILA NOVA DE GAIA",
      "lon": "-8.61101263466055",
      "lat": "41.10952154154416"
    },
    {
      "id": "pt.ine.add.PTCONT.3580580",
      "street": "AL CEDROS",
      "house": "ENTRADA 1",
      "postcode": "4430-055",
      "city": "VILA NOVA DE GAIA",
      "lon": "-8.61101263466055",
      "lat": "41.10952154154416"
    },
    {
      "id": "pt.ine.add.PTCONT.3580581",
      "street": "AL CEDROS",
      "house": "ENTRADA 1",
      "postcode": "4430-055",
      "city": "VILA NOVA DE GAIA",
      "lon": "-8.61101263466055",
      "lat": "41.10952154154416"
    },
    {
      "id": "pt.ine.add.PTCONT.3613774",
      "street": "R CORUJEIRAS",
      "house": "100",
      "postcode": "4430-071",
      "city": "VILA NOVA DE GAIA",
      "lon": "-8.608983852152278",
      "lat": "41.108845603021635"
    },
    {
      "id": "pt.ine.add.PTCONT.3615695",
      "street": "R CORUJEIRAS",
      "house": "100",
      "postcode": "4430-071",
      "city": "VILA NOVA DE GAIA",
      "lon": "-8.608983852152278",
      "lat": "41.108845603021635"
    },
    {
      "id": "pt.ine.add.PTCONT.3673185",
      "street": "AL CEDROS",
      "house": "ENTRADA 1",
      "postcode": "4430-055",
      "city": "VILA NOVA DE GAIA",
      "lon": "-8.61063108917736",
      "lat": "41.109442083775875"
    },
    {
      "id": "pt.ine.add.PTCONT.3673186",
      "street": "AL CEDROS",
      "house": "ENTRADA 1",
      "postcode": "4430-055",
      "city": "VILA NOVA DE GAIA",
      "lon": "-8.61063108917736",
      "lat": "41.109442083775875"
    },
    {
      "id": "pt.ine.add.PTCONT.3673187",
      "street": "AL CEDROS",
      "house": "ENTRADA 1",
      "postcode": "4430-055",
      "city": "VILA NOVA DE GAIA",
      "lon": "-8.61063108917736",
      "lat": "41.109442083775875"
    },
    {
      "id": "pt.ine.add.PTCONT.3673188",
      "street": "AL CEDROS",
      "house": "ENTRADA 1",
      "postcode": "4430-055",
      "city": "VILA NOVA DE GAIA",
      "lon": "-8.61063108917736",
      "lat": "41.109442083775875"
    },
    {
      "id": "pt.ine.add.PTCONT.3673189",
      "street": "AL CEDROS",
      "house": "ENTRADA 1",
      "postcode": "4430-055",
      "city": "VILA NOVA DE GAIA",
      "lon": "-8.61063108917736",
      "lat": "41.109442083775875"
    },
    {
      "id": "pt.ine.add.PTCONT.3673190",
      "street": "AL CEDROS",
      "house": "1",
      "postcode": "4430-055",
      "city": "VILA NOVA DE GAIA",
      "lon": "-8.61063108917736",
      "lat": "41.109442083775875"
    },
    {
      "id": "pt.ine.add.PTCONT.3673191",
      "street": "AL CEDROS ENTR",
      "house": "ENTR 1",
      "postcode": "4430-055",
      "city": "VILA NOVA DE GAIA",
      "lon": "-8.61063108917736",
      "lat": "41.109442083775875"
    },
    {
      "id": "pt.ine.add.PTCONT.3673746",
      "street": "AL CEDROS",
      "house": "ENTRADA 1",
      "postcode": "4430-055",
      "city": "VILA NOVA DE GAIA",
      "lon": "-8.61063108917736",
      "lat": "41.109442083775875"
    },
    {
      "id": "pt.ine.add.PTCONT.3748937",
      "street": "R MANUEL PINTO CANEDO",
      "house": "210",
      "postcode": "4430-140",
      "city": "VILA NOVA DE GAIA",
      "lon": "-8.610308457046825",
      "lat": "41.10763353156722"
    },
    {
      "id": "pt.ine.add.PTCONT.3846898",
      "street": "R MANUEL PINTO CANEDO",
      "house": "216",
      "postcode": "4430-140",
      "city": "VILA NOVA DE GAIA",
      "lon": "-8.610295444236414",
      "lat": "41.107480510251264"
    },
    {
      "id": "pt.ine.add.PTCONT.3893097",
      "street": "AL CEDROS B I",
      "house": "B I EN1",
      "postcode": "4430-055",
      "city": "VILA NOVA DE GAIA",
      "lon": "-8.61024960978922",
      "lat": "41.109371628889384"
    },
    {
      "id": "pt.ine.add.PTCONT.3893098",
      "street": "AL CEDROS",
      "house": "ENTRADA 1",
      "postcode": "4430-055",
      "city": "VILA NOVA DE GAIA",
      "lon": "-8.61024960978922",
      "lat": "41.109371628889384"
    },
    {
      "id": "pt.ine.add.PTCONT.3893099",
      "street": "AL CEDROS ENTR",
      "house": "ENTR 1",
      "postcode": "4430-055",
      "city": "VILA NOVA DE GAIA",
      "lon": "-8.61024960978922",
      "lat": "41.109371628889384"
    },
    {
      "id": "pt.ine.add.PTCONT.3893100",
      "street": "AL CEDROS",
      "house": "ENTRADA 1",
      "postcode": "4430-055",
      "city": "VILA NOVA DE GAIA",
      "lon": "-8.61024960978922",
      "lat": "41.109371628889384"
    },
    {
      "id": "pt.ine.add.PTCONT.3893101",
      "street": "AL CEDROS",
      "house": "ENTRADA 1",
      "postcode": "4430-055",
      "city": "VILA NOVA DE GAIA",
      "lon": "-8.61024960978922",
      "lat": "41.109371628889384"
    },
    {
      "id": "pt.ine.add.PTCONT.3893469",
      "street": "AL CEDROS",
      "house": "ENTRADA 1",
      "postcode": "4430-055",
      "city": "VILA NOVA DE GAIA",
      "lon": "-8.61024960978922",
      "lat": "41.109371628889384"
    },
    {
      "id": "pt.ine.add.PTCONT.3893756",
      "street": "AL CEDROS",
      "house": "ENTRADA 1",
      "postcode": "4430-055",
      "city": "VILA NOVA DE GAIA",
      "lon": "-8.61024960978922",
      "lat": "41.109371628889384"
    },
    {
      "id": "pt.ine.add.PTCONT.3903311",
      "street": "AL CEDROS",
      "house": "ENTRADA2",
      "postcode": "4430-055",
      "city": "VILA NOVA DE GAIA",
      "lon": "-8.610677730240768",
      "lat": "41.10930682413291"
    },
    {
      "id": "pt.ine.add.PTCONT.3903312",
      "street": "AL CEDROS",
      "house": "2",
      "postcode": "4430-055",
      "city": "VILA NOVA DE GAIA",
      "lon": "-8.610677730240768",
      "lat": "41.10930682413291"
    },
    {
      "id": "pt.ine.add.PTCONT.3903313",
      "street": "AL CEDROS",
      "house": "ENT 2",
      "postcode": "4430-055",
      "city": "VILA NOVA DE GAIA",
      "lon": "-8.610677730240768",
      "lat": "41.10930682413291"
    },
    {
      "id": "pt.ine.add.PTCONT.3903314",
      "street": "AL CEDROS",
      "house": "ENTRADA2",
      "postcode": "4430-055",
      "city": "VILA NOVA DE GAIA",
      "lon": "-8.610677730240768",
      "lat": "41.10930682413291"
    },
    {
      "id": "pt.ine.add.PTCONT.3903315",
      "street": "AL CEDROS ENTR",
      "house": "ENTR 2",
      "postcode": "4430-055",
      "city": "VILA NOVA DE GAIA",
      "lon": "-8.610677730240768",
      "lat": "41.10930682413291"
    },
    {
      "id": "pt.ine.add.PTCONT.3903316",
      "street": "AL CEDROS",
      "house": "ENTRADA2",
      "postcode": "4430-055",
      "city": "VILA NOVA DE GAIA",
      "lon": "-8.610677730240768",
      "lat": "41.10930682413291"
    },
    {
      "id": "pt.ine.add.PTCONT.3903317",
      "street": "AL CEDROS",
      "house": "2",
      "postcode": "4430-055",
      "city": "VILA NOVA DE GAIA",
      "lon": "-8.610677730240768",
      "lat": "41.10930682413291"
    },
    {
      "id": "pt.ine.add.PTCONT.3903318",
      "street": "AL CEDROS",
      "house": "2",
      "postcode": "4430-055",
      "city": "VILA NOVA DE GAIA",
      "lon": "-8.610677730240768",
      "lat": "41.10930682413291"
    },
    {
      "id": "pt.ine.add.PTCONT.4008676",
      "street": "AL CEDROS",
      "house": "2",
      "postcode": "4430-055",
      "city": "VILA NOVA DE GAIA",
      "lon": "-8.610296121204033",
      "lat": "41.10921836109193"
    },
    {
      "id": "pt.ine.add.PTCONT.4008677",
      "street": "AL CEDROS",
      "house": "2",
      "postcode": "4430-055",
      "city": "VILA NOVA DE GAIA",
      "lon": "-8.610296121204033",
      "lat": "41.10921836109193"
    },
    {
      "id": "pt.ine.add.PTCONT.4008678",
      "street": "AL CEDROS",
      "house": "2",
      "postcode": "4430-055",
      "city": "VILA NOVA DE GAIA",
      "lon": "-8.610296121204033",
      "lat": "41.10921836109193"
    },
    {
      "id": "pt.ine.add.PTCONT.4008679",
      "street": "AL CEDROS",
      "house": "ENTRADA",
      "postcode": "4430-055",
      "city": "VILA NOVA DE GAIA",
      "lon": "-8.610296121204033",
      "lat": "41.10921836109193"
    },
    {
      "id": "pt.ine.add.PTCONT.4008680",
      "street": "AL CEDROS",
      "house": "ENTRADA2",
      "postcode": "4430-055",
      "city": "VILA NOVA DE GAIA",
      "lon": "-8.610296121204033",
      "lat": "41.10921836109193"
    },
    {
      "id": "pt.ine.add.PTCONT.4008681",
      "street": "AL CEDROS ENTR",
      "house": "ENTR 2",
      "postcode": "4430-055",
      "city": "VILA NOVA DE GAIA",
      "lon": "-8.610296121204033",
      "lat": "41.10921836109193"
    },
    {
      "id": "pt.ine.add.PTCONT.4009463",
      "street": "AL CEDROS ENTR",
      "house": "ENTR 2",
      "postcode": "4430-055",
      "city": "VILA NOVA DE GAIA",
      "lon": "-8.610296121204033",
      "lat": "41.10921836109193"
    },
    {
      "id": "pt.ine.add.PTCONT.4009803",
      "street": "AL CEDROS ENTR",
      "house": "ENTR 2",
      "postcode": "4430-055",
      "city": "VILA NOVA DE GAIA",
      "lon": "-8.610296121204033",
      "lat": "41.10921836109193"
    },
    {
      "id": "pt.ine.add.PTCONT.4041758",
      "street": "R MANUEL PINTO CANEDO",
      "house": "232",
      "postcode": "4430-140",
      "city": "VILA NOVA DE GAIA",
      "lon": "-8.610282757420244",
      "lat": "41.10737250970251"
    },
    {
      "id": "pt.ine.add.PTCONT.4146757",
      "street": "R CORUJEIRAS",
      "house": "84",
      "postcode": "4430-071",
      "city": "VILA NOVA DE GAIA",
      "lon": "-8.609008637043562",
      "lat": "41.108980566983504"
    },
    {
      "id": "pt.ine.add.PTCONT.4146777",
      "street": "R CORUJEIRAS",
      "house": "92",
      "postcode": "4430-071",
      "city": "VILA NOVA DE GAIA",
      "lon": "-8.609008637043562",
      "lat": "41.108980566983504"
    },
    {
      "id": "pt.ine.add.PTCONT.4264173",
      "street": "AL CEDROS ENTR",
      "house": "ENTR 2",
      "postcode": "4430-055",
      "city": "VILA NOVA DE GAIA",
      "lon": "-8.611118538389004",
      "lat": "41.10935001820321"
    },
    {
      "id": "pt.ine.add.PTCONT.4264174",
      "street": "AL CEDROS",
      "house": "2",
      "postcode": "4430-055",
      "city": "VILA NOVA DE GAIA",
      "lon": "-8.611118538389004",
      "lat": "41.10935001820321"
    },
    {
      "id": "pt.ine.add.PTCONT.4264175",
      "street": "AL CEDROS",
      "house": "ENT 2",
      "postcode": "4430-055",
      "city": "VILA NOVA DE GAIA",
      "lon": "-8.611118538389004",
      "lat": "41.10935001820321"
    },
    {
      "id": "pt.ine.add.PTCONT.4264176",
      "street": "AL CEDROS B L E",
      "house": "B L E2",
      "postcode": "4430-055",
      "city": "VILA NOVA DE GAIA",
      "lon": "-8.611118538389004",
      "lat": "41.10935001820321"
    },
    {
      "id": "pt.ine.add.PTCONT.4264177",
      "street": "AL CEDROS",
      "house": "2",
      "postcode": "4430-055",
      "city": "VILA NOVA DE GAIA",
      "lon": "-8.611118538389004",
      "lat": "41.10935001820321"
    },
    {
      "id": "pt.ine.add.PTCONT.4264178",
      "street": "AL CEDROS",
      "house": "2",
      "postcode": "4430-055",
      "city": "VILA NOVA DE GAIA",
      "lon": "-8.611118538389004",
      "lat": "41.10935001820321"
    },
    {
      "id": "pt.ine.add.PTCONT.4264179",
      "street": "AL CEDROS",
      "house": "ENTRADA2",
      "postcode": "4430-055",
      "city": "VILA NOVA DE GAIA",
      "lon": "-8.611118538389004",
      "lat": "41.10935001820321"
    },
    {
      "id": "pt.ine.add.PTCONT.4264180",
      "street": "AL CEDROS",
      "house": "2",
      "postcode": "4430-055",
      "city": "VILA NOVA DE GAIA",
      "lon": "-8.611118538389004",
      "lat": "41.10935001820321"
    },
    {
      "id": "pt.ine.add.PTCONT.4375310",
      "street": "AL CEDROS",
      "house": "ENTRADA 1",
      "postcode": "4430-055",
      "city": "VILA NOVA DE GAIA",
      "lon": "-8.61024960978922",
      "lat": "41.109371628889384"
    }
  ]
}