{
  "data": {
    "distrito": "Aveiro",
    "concelho": "Castelo de Paiva",
    "freguesia": "União das freguesias de Raiva, Pedorido e Paraíso",
    "OBJECTID": 319,
    "BGRI2021": "01061000124",
    "DT21": "01",
    "DTMN21": "0106",
    "DTMNFR21": "010610",
    "DTMNFRSEC21": "010610001",
    "SECNUM21": "001",
    "SSNUM21": "24",
    "SECSSNUM21": "00124",
    "OBJECTID_1": 3943,
    "DT": "01",
    "CC": "06",
    "fr": "10",
    "SEC": "001",
    "SS": "24"
  },
  "addresses": [
    {
      "id": "pt.ine.add.PTCONT.322597",
      "street": "R CRUZEIRO",
      "house": "",
      "postcode": "4550-612",
      "city": "RAIVA",
      "lon": "-8.353305714937154",
      "lat": "41.03339473465329"
    },
    {
      "id": "pt.ine.add.PTCONT.322598",
      "street": "AV CRUZEIRO",
      "house": "",
      "postcode": "4550-612",
      "city": "RAIVA",
      "lon": "-8.352256929432874",
      "lat": "41.03269437675242"
    },
    {
      "id": "pt.ine.add.PTCONT.322599",
      "street": "AV CRUZEIRO",
      "house": "",
      "postcode": "4550-612",
      "city": "RAIVA",
      "lon": "-8.352256929432874",
      "lat": "41.03269437675242"
    },
    {
      "id": "pt.ine.add.PTCONT.327410",
      "street": "AV CRUZEIRO",
      "house": "",
      "postcode": "4550-612",
      "city": "RAIVA",
      "lon": "-8.351852203729695",
      "lat": "41.03256908152868"
    },
    {
      "id": "pt.ine.add.PTCONT.338191",
      "street": "AV CRUZEIRO",
      "house": "",
      "postcode": "4550-612",
      "city": "RAIVA",
      "lon": "-8.35251880982668",
      "lat": "41.03277491969406"
    },
    {
      "id": "pt.ine.add.PTCONT.339625",
      "street": "R CRUZEIRO",
      "house": "",
      "postcode": "4550-612",
      "city": "RAIVA",
      "lon": "-8.35251880982668",
      "lat": "41.03277491969406"
    },
    {
      "id": "pt.ine.add.PTCONT.350460",
      "street": "R CRUZEIRO",
      "house": "",
      "postcode": "4550-612",
      "city": "RAIVA",
      "lon": "-8.352054596221793",
      "lat": "41.032640733837816"
    },
    {
      "id": "pt.ine.add.PTCONT.1829",
      "street": "AV CRUZEIRO",
      "house": "",
      "postcode": "4550-612",
      "city": "RAIVA",
      "lon": "-8.352840267878372",
      "lat": "41.03289136677238"
    },
    {
      "id": "pt.ine.add.PTCONT.40794",
      "street": "R CRUZEIRO",
      "house": "",
      "postcode": "4550-612",
      "city": "RAIVA",
      "lon": "-8.35299527629448",
      "lat": "41.033017135199565"
    },
    {
      "id": "pt.ine.add.PTCONT.169002",
      "street": "AV CRUZEIRO",
      "house": "",
      "postcode": "4550-612",
      "city": "RAIVA",
      "lon": "-8.351113600106482",
      "lat": "41.032165275026664"
    },
    {
      "id": "pt.ine.add.PTCONT.222820",
      "street": "AV CRUZEIRO",
      "house": "",
      "postcode": "4550-612",
      "city": "RAIVA",
      "lon": "-8.35134018952663",
      "lat": "41.0323629468912"
    },
    {
      "id": "pt.ine.add.PTCONT.224392",
      "street": "AV CRUZEIRO",
      "house": "",
      "postcode": "4550-612",
      "city": "RAIVA",
      "lon": "-8.35134018952663",
      "lat": "41.0323629468912"
    }
  ]
}