{
  "data": {
    "distrito": "Vila Real",
    "concelho": "Vila Real",
    "freguesia": "Lordelo",
    "OBJECTID": 468,
    "BGRI2021": "17141400112",
    "DT21": "17",
    "DTMN21": "1714",
    "DTMNFR21": "171414",
    "DTMNFRSEC21": "171414001",
    "SECNUM21": "001",
    "SSNUM21": "12",
    "SECSSNUM21": "00112",
    "OBJECTID_1": 187394,
    "DT": "17",
    "CC": "14",
    "fr": "14",
    "SEC": "001",
    "SS": "12"
  },
  "addresses": [
    {
      "id": "pt.ine.add.PTCONT.5290386",
      "street": "LUGAR DO CROMO",
      "house": "",
      "postcode": "5000-186",
      "city": "VILA REAL",
      "lon": "-7.7687674271405225",
      "lat": "41.31609856911137"
    },
    {
      "id": "pt.ine.add.PTCONT.5298578",
      "street": "R PROF EVERARDO PITREZ",
      "house": "",
      "postcode": "5000-195",
      "city": "VILA REAL",
      "lon": "-7.770348658422587",
      "lat": "41.317391151768"
    },
    {
      "id": "pt.ine.add.PTCONT.5306979",
      "street": "BR PEDREGAL",
      "house": "",
      "postcode": "5000-186",
      "city": "VILA REAL",
      "lon": "-7.7705321924807365",
      "lat": "41.316599367901624"
    },
    {
      "id": "pt.ine.add.PTCONT.5312313",
      "street": "BR PEDREGAL",
      "house": "",
      "postcode": "5000-186",
      "city": "VILA REAL",
      "lon": "-7.770352003253105",
      "lat": "41.31678788660514"
    },
    {
      "id": "pt.ine.add.PTCONT.5315410",
      "street": "R NOSSO SENHOR DOS AFLITOS",
      "house": "",
      "postcode": "5000-195",
      "city": "VILA REAL",
      "lon": "-7.770627085788111",
      "lat": "41.31671672027372"
    },
    {
      "id": "pt.ine.add.PTCONT.5316418",
      "street": "R NOSSO SENHOR DOS AFLITOS",
      "house": "",
      "postcode": "5000-195",
      "city": "VILA REAL",
      "lon": "-7.7706402755888515",
      "lat": "41.31649165891445"
    },
    {
      "id": "pt.ine.add.PTCONT.5326213",
      "street": "R PROF EVERARDO PITREZ",
      "house": "",
      "postcode": "5000-195",
      "city": "VILA REAL",
      "lon": "-7.76944250188563",
      "lat": "41.31711816897957"
    },
    {
      "id": "pt.ine.add.PTCONT.5333280",
      "street": "LUGAR DO CROMO",
      "house": "",
      "postcode": "5000-186",
      "city": "VILA REAL",
      "lon": "-7.769821178403616",
      "lat": "41.31559766913397"
    },
    {
      "id": "pt.ine.add.PTCONT.5335988",
      "street": "R PROF EVERARDO PITREZ",
      "house": "27",
      "postcode": "5000-195",
      "city": "VILA REAL",
      "lon": "-7.769776250773553",
      "lat": "41.317236276434926"
    },
    {
      "id": "pt.ine.add.PTCONT.5335989",
      "street": "R PROF EVERARDO PITREZ",
      "house": "27",
      "postcode": "5000-195",
      "city": "VILA REAL",
      "lon": "-7.769776250773553",
      "lat": "41.317236276434926"
    },
    {
      "id": "pt.ine.add.PTCONT.5353469",
      "street": "R PROF EVERARDO PITREZ",
      "house": "13",
      "postcode": "5000-195",
      "city": "VILA REAL",
      "lon": "-7.768417427168772",
      "lat": "41.316754761192"
    },
    {
      "id": "pt.ine.add.PTCONT.5354799",
      "street": "R ANTONINHO PIMENTEL",
      "house": "",
      "postcode": "5000-185",
      "city": "VILA REAL",
      "lon": "-7.768384058356701",
      "lat": "41.316313453800234"
    },
    {
      "id": "pt.ine.add.PTCONT.5358116",
      "street": "R EVERARDO PITRAZ",
      "house": "11",
      "postcode": "5000-186",
      "city": "VILA REAL",
      "lon": "-7.767951559418836",
      "lat": "41.316771292469184"
    },
    {
      "id": "pt.ine.add.PTCONT.5365240",
      "street": "",
      "house": "",
      "postcode": "5000-186",
      "city": "VILA REAL",
      "lon": "-7.7694616511186485",
      "lat": "41.31582163679711"
    },
    {
      "id": "pt.ine.add.PTCONT.5365698",
      "street": "R PROF EVERARDO PITREZ",
      "house": "",
      "postcode": "5000-195",
      "city": "VILA REAL",
      "lon": "-7.768977333341711",
      "lat": "41.31700864900658"
    },
    {
      "id": "pt.ine.add.PTCONT.5368529",
      "street": "BR PEDREGAL",
      "house": "",
      "postcode": "5000-186",
      "city": "VILA REAL",
      "lon": "-7.7698864856025756",
      "lat": "41.316741398009334"
    },
    {
      "id": "pt.ine.add.PTCONT.5372884",
      "street": "R NOSSO SENHOR DOS AFLITOS",
      "house": "",
      "postcode": "5000-195",
      "city": "VILA REAL",
      "lon": "-7.770563031339226",
      "lat": "41.3174998765454"
    },
    {
      "id": "pt.ine.add.PTCONT.5378168",
      "street": "R NSO SR AFLITOS",
      "house": "9",
      "postcode": "5000-195",
      "city": "VILA REAL",
      "lon": "-7.770582208424256",
      "lat": "41.316194340212924"
    },
    {
      "id": "pt.ine.add.PTCONT.5389094",
      "street": "R NOSSO SENHOR DOS AFLITOS",
      "house": "",
      "postcode": "5000-195",
      "city": "VILA REAL",
      "lon": "-7.7705906588792555",
      "lat": "41.316824654941954"
    },
    {
      "id": "pt.ine.add.PTCONT.5405941",
      "street": "R NOSSO SENHOR DOS AFLITOS",
      "house": "",
      "postcode": "5000-195",
      "city": "VILA REAL",
      "lon": "-7.770565526025487",
      "lat": "41.31704967866656"
    },
    {
      "id": "pt.ine.add.PTCONT.5412532",
      "street": "R NOSSO SENHOR DOS AFLITOS",
      "house": "",
      "postcode": "5000-195",
      "city": "VILA REAL",
      "lon": "-7.770359291635854",
      "lat": "41.31547330856708"
    },
    {
      "id": "pt.ine.add.PTCONT.5419024",
      "street": "R PROF EVERARDO PITREZ",
      "house": "19",
      "postcode": "5000-195",
      "city": "VILA REAL",
      "lon": "-7.768881941337465",
      "lat": "41.31698133485508"
    }
  ]
}