{
  "data": {
    "ilha": "Ilha do Pico (Açores)",
    "concelho": "Madalena",
    "freguesia": "Madalena",
    "OBJECTID": 47,
    "BGRI2021": "46020400207",
    "DT21": "46",
    "DTMN21": "4602",
    "DTMNFR21": "460204",
    "DTMNFRSEC21": "460204002",
    "SECNUM21": "002",
    "SSNUM21": "07",
    "SECSSNUM21": "00207",
    "OBJECTID_1": 209374,
    "DT": "46",
    "CC": "02",
    "fr": "04",
    "SEC": "002",
    "SS": "07",
    "BGRI2021_1": "46020400207"
  },
  "addresses": [
    {
      "id": "pt.ine.add.AC26.40754",
      "street": "R CAP MOR",
      "house": "",
      "postcode": "9950-365",
      "city": "MADALENA (PICO)",
      "lon": "-28.517620893803542",
      "lat": "38.520666679279294"
    },
    {
      "id": "pt.ine.add.AC26.40755",
      "street": "R CAP MOR",
      "house": "",
      "postcode": "9950-365",
      "city": "MADALENA (PICO)",
      "lon": "-28.517905763528255",
      "lat": "38.521122566685314"
    },
    {
      "id": "pt.ine.add.AC26.40756",
      "street": "R CONCEIÇÃO",
      "house": "39",
      "postcode": "9950-365",
      "city": "MADALENA (PICO)",
      "lon": "-28.517873253567625",
      "lat": "38.52121310198951"
    },
    {
      "id": "pt.ine.add.AC26.40757",
      "street": "R CONCEIÇÃO",
      "house": "39",
      "postcode": "9950-365",
      "city": "MADALENA (PICO)",
      "lon": "-28.5176599124321",
      "lat": "38.521432140897275"
    },
    {
      "id": "pt.ine.add.AC26.40758",
      "street": "R CONCEIÇÃO",
      "house": "",
      "postcode": "9950-365",
      "city": "MADALENA (PICO)",
      "lon": "-28.517374810631445",
      "lat": "38.52205762163206"
    },
    {
      "id": "pt.ine.add.AC26.40759",
      "street": "R CONCEIÇÃO",
      "house": "25",
      "postcode": "9950-365",
      "city": "MADALENA (PICO)",
      "lon": "-28.517026879905075",
      "lat": "38.52242258578035"
    },
    {
      "id": "pt.ine.add.AC26.40760",
      "street": "R CONCEIÇÃO",
      "house": "19",
      "postcode": "9950-365",
      "city": "MADALENA (PICO)",
      "lon": "-28.516545114523044",
      "lat": "38.52296951023486"
    },
    {
      "id": "pt.ine.add.AC26.40761",
      "street": "R CONCEIÇÃO",
      "house": "17",
      "postcode": "9950-365",
      "city": "MADALENA (PICO)",
      "lon": "-28.51641033728931",
      "lat": "38.52310642672838"
    },
    {
      "id": "pt.ine.add.AC26.40762",
      "street": "R CONCEIÇÃO",
      "house": "11",
      "postcode": "9950-365",
      "city": "MADALENA (PICO)",
      "lon": "-28.51531660726271",
      "lat": "38.52346302077743"
    },
    {
      "id": "pt.ine.add.AC26.41091",
      "street": "R CAP MOR",
      "house": "",
      "postcode": "9950-365",
      "city": "MADALENA (PICO)",
      "lon": "-28.51651497351767",
      "lat": "38.51934732500499"
    },
    {
      "id": "pt.ine.add.AC26.41095",
      "street": "R CAP MOR",
      "house": "",
      "postcode": "9950-365",
      "city": "MADALENA (PICO)",
      "lon": "-28.5160053130583",
      "lat": "38.51911061820199"
    },
    {
      "id": "pt.ine.add.AC26.41096",
      "street": "R CAP MOR",
      "house": "10",
      "postcode": "9950-365",
      "city": "MADALENA (PICO)",
      "lon": "-28.516138634753077",
      "lat": "38.51945132441387"
    },
    {
      "id": "pt.ine.add.AC26.41097",
      "street": "R CAP MOR",
      "house": "8",
      "postcode": "9950-365",
      "city": "MADALENA (PICO)",
      "lon": "-28.516142793252087",
      "lat": "38.51964952102953"
    },
    {
      "id": "pt.ine.add.AC26.41098",
      "street": "R CAP MOR",
      "house": "",
      "postcode": "9950-365",
      "city": "MADALENA (PICO)",
      "lon": "-28.516283425036175",
      "lat": "38.51979188191407"
    },
    {
      "id": "pt.ine.add.AC26.41099",
      "street": "R CAP MOR",
      "house": "",
      "postcode": "9950-365",
      "city": "MADALENA (PICO)",
      "lon": "-28.516353930188835",
      "lat": "38.519872071223155"
    },
    {
      "id": "pt.ine.add.AC26.41100",
      "street": "R CAP MOR",
      "house": "3",
      "postcode": "9950-365",
      "city": "MADALENA (PICO)",
      "lon": "-28.51650584107362",
      "lat": "38.52000527435917"
    },
    {
      "id": "pt.ine.add.AC26.41101",
      "street": "R CAP MOR",
      "house": "2",
      "postcode": "9950-365",
      "city": "MADALENA (PICO)",
      "lon": "-28.516576157604284",
      "lat": "38.5200764545877"
    },
    {
      "id": "pt.ine.add.AC26.41102",
      "street": "R CAP MOR",
      "house": "1",
      "postcode": "9950-365",
      "city": "MADALENA (PICO)",
      "lon": "-28.516658508885296",
      "lat": "38.52017451301954"
    },
    {
      "id": "pt.ine.add.AC26.41438",
      "street": "ESTR LONGITUDINAL",
      "house": "",
      "postcode": "9950-322",
      "city": "MADALENA (PICO)",
      "lon": "-28.513166348207612",
      "lat": "38.52431086828227"
    },
    {
      "id": "pt.ine.add.AC26.41439",
      "street": "CAN TERRAS",
      "house": "",
      "postcode": "9950-322",
      "city": "MADALENA (PICO)",
      "lon": "-28.512260493878244",
      "lat": "38.52323219571196"
    },
    {
      "id": "pt.ine.add.AC26.41440",
      "street": "ESTR LONGITUDINAL",
      "house": "",
      "postcode": "9950-322",
      "city": "MADALENA (PICO)",
      "lon": "-28.511492524697445",
      "lat": "38.52326013597521"
    },
    {
      "id": "pt.ine.add.AC26.41441",
      "street": "ESTR LONGITUDINAL",
      "house": "68",
      "postcode": "9950-322",
      "city": "MADALENA (PICO)",
      "lon": "-28.510241021158162",
      "lat": "38.523204195919824"
    },
    {
      "id": "pt.ine.add.AC26.41442",
      "street": "ESTR LONGITUDINAL",
      "house": "68",
      "postcode": "9950-322",
      "city": "MADALENA (PICO)",
      "lon": "-28.510241021158162",
      "lat": "38.523204195919824"
    },
    {
      "id": "pt.ine.add.AC26.57010",
      "street": "R CAP MOR",
      "house": "",
      "postcode": "9950-365",
      "city": "MADALENA (PICO)",
      "lon": "-28.516259670288303",
      "lat": "38.51920644954787"
    },
    {
      "id": "pt.ine.add.AC26.58555",
      "street": "R CONCEIÇÃO",
      "house": "",
      "postcode": "9950-365",
      "city": "MADALENA (PICO)",
      "lon": "-28.51747983750329",
      "lat": "38.521596679954094"
    },
    {
      "id": "pt.ine.add.AC26.58556",
      "street": "R CAP MOR",
      "house": "11",
      "postcode": "9950-365",
      "city": "MADALENA (PICO)",
      "lon": "-28.51651856582413",
      "lat": "38.519518494783036"
    },
    {
      "id": "pt.ine.add.AC26.62849",
      "street": "R CAP MOR",
      "house": "",
      "postcode": "9950-365",
      "city": "MADALENA (PICO)",
      "lon": "-28.51725953968113",
      "lat": "38.520392010008365"
    },
    {
      "id": "pt.ine.add.AC26.68743",
      "street": "R CAP MOR",
      "house": "",
      "postcode": "9950-365",
      "city": "MADALENA (PICO)",
      "lon": "-28.51601186373024",
      "lat": "38.520516309385485"
    },
    {
      "id": "pt.ine.add.AC26.68746",
      "street": "CAN TERRAS",
      "house": "",
      "postcode": "9950-322",
      "city": "MADALENA (PICO)",
      "lon": "-28.510814555437502",
      "lat": "38.52210641831208"
    },
    {
      "id": "pt.ine.add.AC26.70538",
      "street": "R CAP MOR",
      "house": "4",
      "postcode": "9950-365",
      "city": "MADALENA (PICO)",
      "lon": "-28.51643552468246",
      "lat": "38.51993409408474"
    },
    {
      "id": "pt.ine.add.AC26.73639",
      "street": "R CAP MOR",
      "house": "9",
      "postcode": "9950-365",
      "city": "MADALENA (PICO)",
      "lon": "-28.516129246752534",
      "lat": "38.519550571222666"
    },
    {
      "id": "pt.ine.add.AC26.78606",
      "street": "R CONCEIÇÃO",
      "house": "27",
      "postcode": "9950-365",
      "city": "MADALENA (PICO)",
      "lon": "-28.51703286217067",
      "lat": "38.52216117823882"
    },
    {
      "id": "pt.ine.add.AC26.81514",
      "street": "R CONCEIÇÃO",
      "house": "",
      "postcode": "9950-365",
      "city": "MADALENA (PICO)",
      "lon": "-28.517404672817793",
      "lat": "38.52184096146401"
    },
    {
      "id": "pt.ine.add.AC26.82883",
      "street": "R CAP MOR",
      "house": "",
      "postcode": "9950-365",
      "city": "MADALENA (PICO)",
      "lon": "-28.515304114936903",
      "lat": "38.519038593287014"
    },
    {
      "id": "pt.ine.add.AC26.83258",
      "street": "R CAP MOR",
      "house": "7",
      "postcode": "9950-365",
      "city": "MADALENA (PICO)",
      "lon": "-28.51621329810729",
      "lat": "38.519729710431264"
    },
    {
      "id": "pt.ine.add.AC26.84701",
      "street": "R CAP MOR",
      "house": "",
      "postcode": "9950-365",
      "city": "MADALENA (PICO)",
      "lon": "-28.516520456523974",
      "lat": "38.519608584137764"
    },
    {
      "id": "pt.ine.add.AC26.88171",
      "street": "R LADEIRA DO FUDERNE",
      "house": "",
      "postcode": "9950-365",
      "city": "MADALENA (PICO)",
      "lon": "-28.513496975688675",
      "lat": "38.51873755876914"
    },
    {
      "id": "pt.ine.add.AC26.88849",
      "street": "R CAP MOR",
      "house": "",
      "postcode": "9950-365",
      "city": "MADALENA (PICO)",
      "lon": "-28.51737591604419",
      "lat": "38.5204716041979"
    },
    {
      "id": "pt.ine.add.AC26.92526",
      "street": "ESTR LONGITUDINAL",
      "house": "54",
      "postcode": "9950-322",
      "city": "MADALENA (PICO)",
      "lon": "-28.513849379180524",
      "lat": "38.52460842499674"
    },
    {
      "id": "pt.ine.add.AC26.93234",
      "street": "R CAP MOR",
      "house": "",
      "postcode": "9950-365",
      "city": "MADALENA (PICO)",
      "lon": "-28.51711947225342",
      "lat": "38.520276677169775"
    },
    {
      "id": "pt.ine.add.AC26.93235",
      "street": "R CONCEIÇÃO",
      "house": "13",
      "postcode": "9950-365",
      "city": "MADALENA (PICO)",
      "lon": "-28.515598390482392",
      "lat": "38.523225077341316"
    },
    {
      "id": "pt.ine.add.AC26.94139",
      "street": "R CAP MOR",
      "house": "",
      "postcode": "9950-365",
      "city": "MADALENA (PICO)",
      "lon": "-28.517749116893988",
      "lat": "38.52076414228427"
    },
    {
      "id": "pt.ine.add.AC26.96787",
      "street": "R CONCEIÇÃO",
      "house": "23",
      "postcode": "9950-365",
      "city": "MADALENA (PICO)",
      "lon": "-28.516664452181352",
      "lat": "38.52264355462778"
    },
    {
      "id": "pt.ine.add.AC26.103885",
      "street": "ESTR LONGITUDINAL",
      "house": "",
      "postcode": "9950-322",
      "city": "MADALENA (PICO)",
      "lon": "-28.51041586399722",
      "lat": "38.52333711110081"
    }
  ]
}