{
  "data": {
    "ilha": "Ilha do Pico (Açores)",
    "concelho": "Madalena",
    "freguesia": "Madalena",
    "OBJECTID": 51,
    "BGRI2021": "46020400211",
    "DT21": "46",
    "DTMN21": "4602",
    "DTMNFR21": "460204",
    "DTMNFRSEC21": "460204002",
    "SECNUM21": "002",
    "SSNUM21": "11",
    "SECSSNUM21": "00211",
    "OBJECTID_1": 209477,
    "DT": "46",
    "CC": "02",
    "fr": "04",
    "SEC": "002",
    "SS": "11",
    "BGRI2021_1": "46020400211"
  },
  "addresses": [
    {
      "id": "pt.ine.add.AC26.39775",
      "street": "R GEN ANTÓNIO RIBEIRO",
      "house": "",
      "postcode": "9950-361",
      "city": "MADALENA (PICO)",
      "lon": "-28.528029588115032",
      "lat": "38.52415386174339"
    },
    {
      "id": "pt.ine.add.AC26.39776",
      "street": "R GEN ANTÓNIO RIBEIRO",
      "house": "15",
      "postcode": "9950-361",
      "city": "MADALENA (PICO)",
      "lon": "-28.529210485304663",
      "lat": "38.52629215874378"
    },
    {
      "id": "pt.ine.add.AC26.39777",
      "street": "TV ARMAO",
      "house": "2",
      "postcode": "9950-301",
      "city": "MADALENA (PICO)",
      "lon": "-28.529170142428132",
      "lat": "38.52655401522953"
    },
    {
      "id": "pt.ine.add.AC26.39778",
      "street": "R GEN ANTÓNIO RIBEIRO",
      "house": "",
      "postcode": "9950-361",
      "city": "MADALENA (PICO)",
      "lon": "-28.52916248801941",
      "lat": "38.526734342459925"
    },
    {
      "id": "pt.ine.add.AC26.39779",
      "street": "R GEN ANTÓNIO RIBEIRO",
      "house": "5",
      "postcode": "9950-361",
      "city": "MADALENA (PICO)",
      "lon": "-28.529217705705815",
      "lat": "38.527175177927255"
    },
    {
      "id": "pt.ine.add.AC26.39780",
      "street": "TV ARMAO",
      "house": "4",
      "postcode": "9950-301",
      "city": "MADALENA (PICO)",
      "lon": "-28.528802966559343",
      "lat": "38.52654979936125"
    },
    {
      "id": "pt.ine.add.AC26.40427",
      "street": "R CONSAO MIGUEL ANTÓNIO DA SILVEIRA",
      "house": "18",
      "postcode": "9950-365",
      "city": "MADALENA (PICO)",
      "lon": "-28.52677597875352",
      "lat": "38.526170740639934"
    },
    {
      "id": "pt.ine.add.AC26.40428",
      "street": "R CONSAO MIGUEL ANTÓNIO DA SILVEIRA",
      "house": "",
      "postcode": "9950-365",
      "city": "MADALENA (PICO)",
      "lon": "-28.525160914933856",
      "lat": "38.52574122407669"
    },
    {
      "id": "pt.ine.add.AC26.40429",
      "street": "R CONSAO MIGUEL ANTÓNIO DA SILVEIRA",
      "house": "",
      "postcode": "9950-365",
      "city": "MADALENA (PICO)",
      "lon": "-28.524251760968582",
      "lat": "38.5250591893347"
    },
    {
      "id": "pt.ine.add.AC26.40748",
      "street": "R CONSAO MIGUEL ANTÓNIO DA SILVEIRA",
      "house": "54",
      "postcode": "9950-365",
      "city": "MADALENA (PICO)",
      "lon": "-28.52179821742182",
      "lat": "38.52348708407165"
    },
    {
      "id": "pt.ine.add.AC26.40749",
      "street": "R CONSAO MIGUEL ANTÓNIO DA SILVEIRA",
      "house": "76",
      "postcode": "9950-365",
      "city": "MADALENA (PICO)",
      "lon": "-28.520327866748243",
      "lat": "38.52229866313268"
    },
    {
      "id": "pt.ine.add.AC26.40750",
      "street": "R CAP MOR",
      "house": "",
      "postcode": "9950-365",
      "city": "MADALENA (PICO)",
      "lon": "-28.51821503794211",
      "lat": "38.520010156537644"
    },
    {
      "id": "pt.ine.add.AC26.40751",
      "street": "R DORES",
      "house": "",
      "postcode": "9950-365",
      "city": "MADALENA (PICO)",
      "lon": "-28.51891077716382",
      "lat": "38.51873052734913"
    },
    {
      "id": "pt.ine.add.AC26.40752",
      "street": "R DORES",
      "house": "",
      "postcode": "9950-365",
      "city": "MADALENA (PICO)",
      "lon": "-28.519681635270576",
      "lat": "38.51829698902234"
    },
    {
      "id": "pt.ine.add.AC26.40753",
      "street": "R MIGUEL ANTÓNIO DA SILVEIRA",
      "house": "",
      "postcode": "9950-365",
      "city": "MADALENA (PICO)",
      "lon": "-28.523870274047226",
      "lat": "38.52491997370481"
    },
    {
      "id": "pt.ine.add.AC26.46074",
      "street": "R GEN ANTÓNIO RIBEIRO",
      "house": "41",
      "postcode": "9950-361",
      "city": "MADALENA (PICO)",
      "lon": "-28.528192685392924",
      "lat": "38.52318751654115"
    },
    {
      "id": "pt.ine.add.AC26.49097",
      "street": "TV ARMAO",
      "house": "",
      "postcode": "9950-301",
      "city": "MADALENA (PICO)",
      "lon": "-28.52853230239105",
      "lat": "38.526769606340295"
    },
    {
      "id": "pt.ine.add.AC26.52145",
      "street": "R CONSAO MIGUEL ANTÓNIO DA SILVEIRA",
      "house": "8",
      "postcode": "9950-365",
      "city": "MADALENA (PICO)",
      "lon": "-28.527953169753445",
      "lat": "38.52650682551747"
    },
    {
      "id": "pt.ine.add.AC26.53785",
      "street": "R CONSAO MIGUEL ANTÓNIO DA SILVEIRA",
      "house": "",
      "postcode": "9950-365",
      "city": "MADALENA (PICO)",
      "lon": "-28.521202356103494",
      "lat": "38.522972168257986"
    },
    {
      "id": "pt.ine.add.AC26.57006",
      "street": "R GEN ANTÓNIO RIBEIRO",
      "house": "1",
      "postcode": "9950-361",
      "city": "MADALENA (PICO)",
      "lon": "-28.529249605822656",
      "lat": "38.527598295206595"
    },
    {
      "id": "pt.ine.add.AC26.57007",
      "street": "R MIGUEL ANTONIO SILVEIRA",
      "house": "6",
      "postcode": "9950-365",
      "city": "MADALENA (PICO)",
      "lon": "-28.52790611735316",
      "lat": "38.52699405324609"
    },
    {
      "id": "pt.ine.add.AC26.57008",
      "street": "R GEN ANTÓNIO RIBEIRO",
      "house": "19",
      "postcode": "9950-361",
      "city": "MADALENA (PICO)",
      "lon": "-28.529251235527454",
      "lat": "38.52550763782632"
    },
    {
      "id": "pt.ine.add.AC26.58404",
      "street": "R CONS MIGUEL ANTONIO SILVEIRA",
      "house": "36",
      "postcode": "9950-365",
      "city": "MADALENA (PICO)",
      "lon": "-28.52388611267839",
      "lat": "38.52512702904288"
    },
    {
      "id": "pt.ine.add.AC26.58405",
      "street": "R CONS MIGUEL ANTONIO SILVEIRA",
      "house": "42",
      "postcode": "9950-365",
      "city": "MADALENA (PICO)",
      "lon": "-28.523269756189638",
      "lat": "38.524729538706666"
    },
    {
      "id": "pt.ine.add.AC26.62848",
      "street": "R CONSAO MIGUEL ANTÓNIO DA SILVEIRA",
      "house": "",
      "postcode": "9950-365",
      "city": "MADALENA (PICO)",
      "lon": "-28.527208111896496",
      "lat": "38.52653457010744"
    },
    {
      "id": "pt.ine.add.AC26.68609",
      "street": "R CONSAO MIGUEL ANTÓNIO DA SILVEIRA",
      "house": "74",
      "postcode": "9950-365",
      "city": "MADALENA (PICO)",
      "lon": "-28.520626973848394",
      "lat": "38.52233983541435"
    },
    {
      "id": "pt.ine.add.AC26.68610",
      "street": "R DORES",
      "house": "",
      "postcode": "9950-365",
      "city": "MADALENA (PICO)",
      "lon": "-28.517853193554743",
      "lat": "38.52025815561558"
    },
    {
      "id": "pt.ine.add.AC26.70532",
      "street": "R GEN ANTÓNIO RIBEIRO",
      "house": "13",
      "postcode": "9950-361",
      "city": "MADALENA (PICO)",
      "lon": "-28.529049929866478",
      "lat": "38.52629425586829"
    },
    {
      "id": "pt.ine.add.AC26.73634",
      "street": "R GEN ANTÓNIO RIBEIRO",
      "house": "",
      "postcode": "9950-361",
      "city": "MADALENA (PICO)",
      "lon": "-28.528313270489754",
      "lat": "38.52346529484678"
    },
    {
      "id": "pt.ine.add.AC26.73637",
      "street": "R CONSAO MIGUEL ANTÓNIO DA SILVEIRA",
      "house": "",
      "postcode": "9950-365",
      "city": "MADALENA (PICO)",
      "lon": "-28.522430656964357",
      "lat": "38.523559963807045"
    },
    {
      "id": "pt.ine.add.AC26.73638",
      "street": "R CONS MIGUEL ANTONIO SILVEIRA",
      "house": "60",
      "postcode": "9950-365",
      "city": "MADALENA (PICO)",
      "lon": "-28.52132974320104",
      "lat": "38.52357427507595"
    },
    {
      "id": "pt.ine.add.AC26.76235",
      "street": "R GEN ANTÓNIO RIBEIRO",
      "house": "27",
      "postcode": "9950-361",
      "city": "MADALENA (PICO)",
      "lon": "-28.52891678231386",
      "lat": "38.524881210658776"
    },
    {
      "id": "pt.ine.add.AC26.76236",
      "street": "R GEN ANTÓNIO RIBEIRO",
      "house": "27",
      "postcode": "9950-361",
      "city": "MADALENA (PICO)",
      "lon": "-28.52891678231386",
      "lat": "38.524881210658776"
    },
    {
      "id": "pt.ine.add.AC26.76237",
      "street": "R GEN ANTÓNIO RIBEIRO",
      "house": "27",
      "postcode": "9950-361",
      "city": "MADALENA (PICO)",
      "lon": "-28.52891678231386",
      "lat": "38.524881210658776"
    },
    {
      "id": "pt.ine.add.AC26.76238",
      "street": "R GEN ANTÓNIO RIBEIRO",
      "house": "7",
      "postcode": "9950-361",
      "city": "MADALENA (PICO)",
      "lon": "-28.529144128018494",
      "lat": "38.52695085496853"
    },
    {
      "id": "pt.ine.add.AC26.78602",
      "street": "TV ARMAO",
      "house": "5",
      "postcode": "9950-301",
      "city": "MADALENA (PICO)",
      "lon": "-28.528819391778832",
      "lat": "38.52678388029505"
    },
    {
      "id": "pt.ine.add.AC26.82801",
      "street": "R GEN ANTÓNIO RIBEIRO",
      "house": "23",
      "postcode": "9950-361",
      "city": "MADALENA (PICO)",
      "lon": "-28.529012911761875",
      "lat": "38.52508721658973"
    },
    {
      "id": "pt.ine.add.AC26.106711",
      "street": "R GEN ANTÓNIO RIBEIRO",
      "house": "39",
      "postcode": "9950-361",
      "city": "MADALENA (PICO)",
      "lon": "-28.528253263658765",
      "lat": "38.523339919034235"
    },
    {
      "id": "pt.ine.add.AC26.107035",
      "street": "R MIGUEL ANTÓNIO DA SILVEIRA",
      "house": "",
      "postcode": "9950-365",
      "city": "MADALENA (PICO)",
      "lon": "-28.521469444322264",
      "lat": "38.52367158472694"
    },
    {
      "id": "pt.ine.add.AC26.108086",
      "street": "R DORES",
      "house": "",
      "postcode": "9950-365",
      "city": "MADALENA (PICO)",
      "lon": "-28.518308400359857",
      "lat": "38.519540353906514"
    },
    {
      "id": "pt.ine.add.AC26.108317",
      "street": "R CONSAO MIGUEL ANTÓNIO DA SILVEIRA",
      "house": "56",
      "postcode": "9950-365",
      "city": "MADALENA (PICO)",
      "lon": "-28.521507073170625",
      "lat": "38.523824289053415"
    }
  ]
}