{
  "data": {
    "ilha": "Ilha do Pico (AÃ§ores)",
    "concelho": "Madalena",
    "freguesia": "Madalena",
    "OBJECTID": 55,
    "BGRI2021": "46020400215",
    "DT21": "46",
    "DTMN21": "4602",
    "DTMNFR21": "460204",
    "DTMNFRSEC21": "460204002",
    "SECNUM21": "002",
    "SSNUM21": "15",
    "SECSSNUM21": "00215",
    "OBJECTID_1": 209458,
    "DT": "46",
    "CC": "02",
    "fr": "04",
    "SEC": "002",
    "SS": "15",
    "BGRI2021_1": "46020400215"
  },
  "addresses": [
    {
      "id": "pt.ine.add.AC26.43054",
      "street": "R DR ARRIAGA NUNES",
      "house": "48",
      "postcode": "9950-305",
      "city": "MADALENA (PICO)",
      "lon": "-28.514683982418354",
      "lat": "38.52721092920885"
    },
    {
      "id": "pt.ine.add.AC26.43055",
      "street": "ESTR LONGITUDINAL",
      "house": "45",
      "postcode": "9950-322",
      "city": "MADALENA (PICO)",
      "lon": "-28.516400714041318",
      "lat": "38.52592711254531"
    },
    {
      "id": "pt.ine.add.AC26.43056",
      "street": "TV VALVERDE",
      "house": "",
      "postcode": "9950-305",
      "city": "MADALENA (PICO)",
      "lon": "-28.520637343238782",
      "lat": "38.52773751303484"
    },
    {
      "id": "pt.ine.add.AC26.52139",
      "street": "R SECRETA PIO TELES BETTENCOURT",
      "house": "64",
      "postcode": "9950-305",
      "city": "MADALENA (PICO)",
      "lon": "-28.517957572467736",
      "lat": "38.52850221161701"
    },
    {
      "id": "pt.ine.add.AC26.52140",
      "street": "TV VALVERDE",
      "house": "5",
      "postcode": "9950-305",
      "city": "MADALENA (PICO)",
      "lon": "-28.519614841202884",
      "lat": "38.528210369952596"
    },
    {
      "id": "pt.ine.add.AC26.53776",
      "street": "R SECRETA PIO TELES BETTENCOURT",
      "house": "66",
      "postcode": "9950-305",
      "city": "MADALENA (PICO)",
      "lon": "-28.517640537218917",
      "lat": "38.528154878537975"
    },
    {
      "id": "pt.ine.add.AC26.53777",
      "street": "ESTR LONGITUDINAL",
      "house": "37",
      "postcode": "9950-322",
      "city": "MADALENA (PICO)",
      "lon": "-28.51763841507722",
      "lat": "38.52641571117509"
    },
    {
      "id": "pt.ine.add.AC26.57002",
      "street": "TV VALVERDE",
      "house": "3",
      "postcode": "9950-305",
      "city": "MADALENA (PICO)",
      "lon": "-28.51960175871572",
      "lat": "38.528679130952"
    },
    {
      "id": "pt.ine.add.AC26.58396",
      "street": "ESTR LONGITUDINAL",
      "house": "41",
      "postcode": "9950-322",
      "city": "MADALENA (PICO)",
      "lon": "-28.516724164116308",
      "lat": "38.52658075285085"
    },
    {
      "id": "pt.ine.add.AC26.70526",
      "street": "TV VALVERDE",
      "house": "9",
      "postcode": "9950-305",
      "city": "MADALENA (PICO)",
      "lon": "-28.520259640393267",
      "lat": "38.52777846398027"
    },
    {
      "id": "pt.ine.add.AC26.73499",
      "street": "ESTR LONGITUDINAL",
      "house": "43",
      "postcode": "9950-322",
      "city": "MADALENA (PICO)",
      "lon": "-28.516874695593767",
      "lat": "38.52610119966707"
    }
  ]
}