{
  "data": {
    "ilha": "Ilha do Pico (AÃ§ores)",
    "concelho": "Madalena",
    "freguesia": "Madalena",
    "OBJECTID": 59,
    "BGRI2021": "46020400219",
    "DT21": "46",
    "DTMN21": "4602",
    "DTMNFR21": "460204",
    "DTMNFRSEC21": "460204002",
    "SECNUM21": "002",
    "SSNUM21": "19",
    "SECSSNUM21": "00219",
    "OBJECTID_1": 209478,
    "DT": "46",
    "CC": "02",
    "fr": "04",
    "SEC": "002",
    "SS": "19",
    "BGRI2021_1": "46020400219"
  },
  "addresses": [
    {
      "id": "pt.ine.add.AC26.39769",
      "street": "R ESCOLA CARDEAL COSTA NUNES",
      "house": "",
      "postcode": "9950-361",
      "city": "MADALENA (PICO)",
      "lon": "-28.53038736238898",
      "lat": "38.53094466369123"
    },
    {
      "id": "pt.ine.add.AC26.44361",
      "street": "R D JAIME GARCIA GOULART",
      "house": "22",
      "postcode": "9950-361",
      "city": "MADALENA (PICO)",
      "lon": "-28.529803207656727",
      "lat": "38.53098834425746"
    },
    {
      "id": "pt.ine.add.AC26.44667",
      "street": "R D JAIME GARCIA GOULART",
      "house": "34",
      "postcode": "9950-361",
      "city": "MADALENA (PICO)",
      "lon": "-28.529485556219928",
      "lat": "38.53007333650361"
    },
    {
      "id": "pt.ine.add.AC26.44668",
      "street": "R D JAIME GARCIA GOULART",
      "house": "36",
      "postcode": "9950-361",
      "city": "MADALENA (PICO)",
      "lon": "-28.52935596559048",
      "lat": "38.52991282511417"
    },
    {
      "id": "pt.ine.add.AC26.44669",
      "street": "R JAIME GARCIA GOULART",
      "house": "40",
      "postcode": "9950-361",
      "city": "MADALENA (PICO)",
      "lon": "-28.529249694584756",
      "lat": "38.529770031665045"
    },
    {
      "id": "pt.ine.add.AC26.44670",
      "street": "R JAIME GARCIA GOULART",
      "house": "54",
      "postcode": "9950-361",
      "city": "MADALENA (PICO)",
      "lon": "-28.52914976967528",
      "lat": "38.52884316701091"
    },
    {
      "id": "pt.ine.add.AC26.44671",
      "street": "R JAIME GARCIA GOULART",
      "house": "58",
      "postcode": "9950-361",
      "city": "MADALENA (PICO)",
      "lon": "-28.529403630221072",
      "lat": "38.528371260092285"
    },
    {
      "id": "pt.ine.add.AC26.44672",
      "street": "R JAIME GARCIA GOULART",
      "house": "",
      "postcode": "9950-361",
      "city": "MADALENA (PICO)",
      "lon": "-28.529711564718852",
      "lat": "38.52828613452283"
    },
    {
      "id": "pt.ine.add.AC26.44673",
      "street": "R JAIME GARCIA GOULART",
      "house": "",
      "postcode": "9950-361",
      "city": "MADALENA (PICO)",
      "lon": "-28.529711564718852",
      "lat": "38.52828613452283"
    },
    {
      "id": "pt.ine.add.AC26.44674",
      "street": "R JAIME GARCIA GOULART",
      "house": "",
      "postcode": "9950-361",
      "city": "MADALENA (PICO)",
      "lon": "-28.529711564718852",
      "lat": "38.52828613452283"
    },
    {
      "id": "pt.ine.add.AC26.44675",
      "street": "R JAIME GARCIA GOULART",
      "house": "",
      "postcode": "9950-361",
      "city": "MADALENA (PICO)",
      "lon": "-28.529711564718852",
      "lat": "38.52828613452283"
    },
    {
      "id": "pt.ine.add.AC26.44681",
      "street": "R NOVA",
      "house": "",
      "postcode": "9950-361",
      "city": "MADALENA (PICO)",
      "lon": "-28.530170996676546",
      "lat": "38.53047890152793"
    },
    {
      "id": "pt.ine.add.AC26.46070",
      "street": "R JAIME GARCIA GOULART",
      "house": "56",
      "postcode": "9950-361",
      "city": "MADALENA (PICO)",
      "lon": "-28.52938775025706",
      "lat": "38.52870488785187"
    },
    {
      "id": "pt.ine.add.AC26.46071",
      "street": "R JAIME GARCIA GOULART",
      "house": "56",
      "postcode": "9950-361",
      "city": "MADALENA (PICO)",
      "lon": "-28.52938775025706",
      "lat": "38.52870488785187"
    },
    {
      "id": "pt.ine.add.AC26.46072",
      "street": "R JAIME GARCIA GOULART",
      "house": "56",
      "postcode": "9950-361",
      "city": "MADALENA (PICO)",
      "lon": "-28.52938775025706",
      "lat": "38.52870488785187"
    },
    {
      "id": "pt.ine.add.AC26.49095",
      "street": "R D JAIME GARCIA GOULART",
      "house": "",
      "postcode": "9950-361",
      "city": "MADALENA (PICO)",
      "lon": "-28.529816775505072",
      "lat": "38.53108729186358"
    },
    {
      "id": "pt.ine.add.AC26.52142",
      "street": "R JAIME GARCIA GOULART",
      "house": "46",
      "postcode": "9950-361",
      "city": "MADALENA (PICO)",
      "lon": "-28.529131192388743",
      "lat": "38.52959135244507"
    },
    {
      "id": "pt.ine.add.AC26.52143",
      "street": "R JAIME GARCIA GOULART",
      "house": "56",
      "postcode": "9950-361",
      "city": "MADALENA (PICO)",
      "lon": "-28.529875728839436",
      "lat": "38.52899588664978"
    },
    {
      "id": "pt.ine.add.AC26.52144",
      "street": "R JAIME GARCIA GOULART",
      "house": "56",
      "postcode": "9950-361",
      "city": "MADALENA (PICO)",
      "lon": "-28.529875728839436",
      "lat": "38.52899588664978"
    },
    {
      "id": "pt.ine.add.AC26.58399",
      "street": "R D JAIME GARCIA GOULART",
      "house": "32",
      "postcode": "9950-361",
      "city": "MADALENA (PICO)",
      "lon": "-28.529618772174192",
      "lat": "38.530405016149224"
    },
    {
      "id": "pt.ine.add.AC26.66627",
      "street": "R D JAIME GARCIA GOULART",
      "house": "",
      "postcode": "9950-302",
      "city": "MADALENA (PICO)",
      "lon": "-28.52988787930209",
      "lat": "38.53119449891759"
    },
    {
      "id": "pt.ine.add.AC26.66628",
      "street": "R GEN ANTONIO RIBEIRO",
      "house": "",
      "postcode": "9950-361",
      "city": "MADALENA (PICO)",
      "lon": "-28.529069080989142",
      "lat": "38.52936687976872"
    },
    {
      "id": "pt.ine.add.AC26.70531",
      "street": "R D JAIME GARCIA GOULART",
      "house": "",
      "postcode": "9950-361",
      "city": "MADALENA (PICO)",
      "lon": "-28.529822520322547",
      "lat": "38.53081687612143"
    },
    {
      "id": "pt.ine.add.AC26.76234",
      "street": "R JAIME GARCIA GOULART",
      "house": "44",
      "postcode": "9950-361",
      "city": "MADALENA (PICO)",
      "lon": "-28.529166742984845",
      "lat": "38.52964495622549"
    },
    {
      "id": "pt.ine.add.AC26.80696",
      "street": "ARRM ESCOLA SECUNDARIA",
      "house": "",
      "postcode": "9950-361",
      "city": "MADALENA (PICO)",
      "lon": "-28.530314540323058",
      "lat": "38.530756377203666"
    },
    {
      "id": "pt.ine.add.AC26.81929",
      "street": "R D JAIME GARCIA GOULART",
      "house": "38",
      "postcode": "9950-361",
      "city": "MADALENA (PICO)",
      "lon": "-28.5293194610396",
      "lat": "38.529814177069305"
    },
    {
      "id": "pt.ine.add.AC26.82769",
      "street": "R JAIME GARCIA GOULART",
      "house": "42",
      "postcode": "9950-361",
      "city": "MADALENA (PICO)",
      "lon": "-28.529202102914795",
      "lat": "38.52968955112683"
    },
    {
      "id": "pt.ine.add.AC26.87031",
      "street": "R JAIME GARCIA GOULART",
      "house": "56",
      "postcode": "9950-361",
      "city": "MADALENA (PICO)",
      "lon": "-28.529875728839436",
      "lat": "38.52899588664978"
    },
    {
      "id": "pt.ine.add.AC26.87225",
      "street": "R D JAIME GARCIA GOULART",
      "house": "30",
      "postcode": "9950-361",
      "city": "MADALENA (PICO)",
      "lon": "-28.52970134388781",
      "lat": "38.53051207349184"
    },
    {
      "id": "pt.ine.add.AC26.88754",
      "street": "R JAIME GARCIA GOULART",
      "house": "",
      "postcode": "9950-361",
      "city": "MADALENA (PICO)",
      "lon": "-28.529711564718852",
      "lat": "38.52828613452283"
    },
    {
      "id": "pt.ine.add.AC26.95361",
      "street": "R D JAIME GARCIA GOULART",
      "house": "28",
      "postcode": "9950-361",
      "city": "MADALENA (PICO)",
      "lon": "-28.529749699857547",
      "lat": "38.53062858924534"
    }
  ]
}