{
  "data": {
    "ilha": "Ilha do Pico (AÃ§ores)",
    "concelho": "Madalena",
    "freguesia": "Madalena",
    "OBJECTID": 62,
    "BGRI2021": "46020400222",
    "DT21": "46",
    "DTMN21": "4602",
    "DTMNFR21": "460204",
    "DTMNFRSEC21": "460204002",
    "SECNUM21": "002",
    "SSNUM21": "22",
    "SECSSNUM21": "00222",
    "OBJECTID_1": 209503,
    "DT": "46",
    "CC": "02",
    "fr": "04",
    "SEC": "002",
    "SS": "22",
    "BGRI2021_1": "46020400222"
  },
  "addresses": [
    {
      "id": "pt.ine.add.AC26.41081",
      "street": "R CONS AVELAR",
      "house": "28",
      "postcode": "9950-362",
      "city": "MADALENA (PICO)",
      "lon": "-28.51597980796575",
      "lat": "38.53265504655355"
    },
    {
      "id": "pt.ine.add.AC26.41082",
      "street": "R CONS AVELAR",
      "house": "34",
      "postcode": "9950-362",
      "city": "MADALENA (PICO)",
      "lon": "-28.515547125256713",
      "lat": "38.532264148829256"
    },
    {
      "id": "pt.ine.add.AC26.41083",
      "street": "R CONS AVELAR",
      "house": "38",
      "postcode": "9950-362",
      "city": "MADALENA (PICO)",
      "lon": "-28.514699155071412",
      "lat": "38.5323111692339"
    },
    {
      "id": "pt.ine.add.AC26.41084",
      "street": "R CONS AVELAR",
      "house": "40",
      "postcode": "9950-362",
      "city": "MADALENA (PICO)",
      "lon": "-28.514548920990997",
      "lat": "38.53225904480347"
    },
    {
      "id": "pt.ine.add.AC26.41085",
      "street": "R CONS AVELAR",
      "house": "56",
      "postcode": "9950-362",
      "city": "MADALENA (PICO)",
      "lon": "-28.51344749310759",
      "lat": "38.53225526680801"
    },
    {
      "id": "pt.ine.add.AC26.41086",
      "street": "R CONS AVELAR",
      "house": "21",
      "postcode": "9950-362",
      "city": "MADALENA (PICO)",
      "lon": "-28.513297826256327",
      "lat": "38.53223016753777"
    },
    {
      "id": "pt.ine.add.AC26.41087",
      "street": "R CONS AVELAR",
      "house": "60",
      "postcode": "9950-362",
      "city": "MADALENA (PICO)",
      "lon": "-28.513127674490367",
      "lat": "38.53232248065889"
    },
    {
      "id": "pt.ine.add.AC26.41088",
      "street": "R CONS AVELAR",
      "house": "66",
      "postcode": "9950-362",
      "city": "MADALENA (PICO)",
      "lon": "-28.512621705049877",
      "lat": "38.532265939906026"
    },
    {
      "id": "pt.ine.add.AC26.41422",
      "street": "R DR ARRIAGA NUNES",
      "house": "12",
      "postcode": "9950-362",
      "city": "MADALENA (PICO)",
      "lon": "-28.512391300846254",
      "lat": "38.53112447266368"
    },
    {
      "id": "pt.ine.add.AC26.41423",
      "street": "R DR ARRIAGA NUNES",
      "house": "18",
      "postcode": "9950-362",
      "city": "MADALENA (PICO)",
      "lon": "-28.51303428289204",
      "lat": "38.53060251594814"
    },
    {
      "id": "pt.ine.add.AC26.41424",
      "street": "R DR ARRIAGA NUNES",
      "house": "36",
      "postcode": "9950-362",
      "city": "MADALENA (PICO)",
      "lon": "-28.514571346630248",
      "lat": "38.52895158168305"
    },
    {
      "id": "pt.ine.add.AC26.42736",
      "street": "R MAESTRO SIMARIA",
      "house": "5",
      "postcode": "9950-305",
      "city": "MADALENA (PICO)",
      "lon": "-28.51724491972335",
      "lat": "38.53062011047243"
    },
    {
      "id": "pt.ine.add.AC26.42737",
      "street": "R MAESTRO SIMARIA",
      "house": "19",
      "postcode": "9950-305",
      "city": "MADALENA (PICO)",
      "lon": "-28.51887742409097",
      "lat": "38.52914811074941"
    },
    {
      "id": "pt.ine.add.AC26.43053",
      "street": "R MAESTRO SIMARIA",
      "house": "7",
      "postcode": "9950-305",
      "city": "MADALENA (PICO)",
      "lon": "-28.517368807666966",
      "lat": "38.53051036833469"
    },
    {
      "id": "pt.ine.add.AC26.46062",
      "street": "R CONS AVELAR",
      "house": "",
      "postcode": "9950-362",
      "city": "MADALENA (PICO)",
      "lon": "-28.512357345639952",
      "lat": "38.53224232134135"
    },
    {
      "id": "pt.ine.add.AC26.46065",
      "street": "R SECRETARIO TELES BETTENCOURT",
      "house": "83",
      "postcode": "9950-305",
      "city": "MADALENA (PICO)",
      "lon": "-28.518458488879553",
      "lat": "38.52886518160194"
    },
    {
      "id": "pt.ine.add.AC26.49094",
      "street": "R MAESTRO SIMARIA",
      "house": "13",
      "postcode": "9950-305",
      "city": "MADALENA (PICO)",
      "lon": "-28.51827515327091",
      "lat": "38.529966946444965"
    },
    {
      "id": "pt.ine.add.AC26.51976",
      "street": "R CONS AVELAR",
      "house": "36",
      "postcode": "9950-362",
      "city": "MADALENA (PICO)",
      "lon": "-28.515200779349495",
      "lat": "38.53216049577408"
    },
    {
      "id": "pt.ine.add.AC26.51977",
      "street": "R DR ARRIAGA NUNES",
      "house": "16",
      "postcode": "9950-362",
      "city": "MADALENA (PICO)",
      "lon": "-28.512879943486084",
      "lat": "38.53090188588961"
    },
    {
      "id": "pt.ine.add.AC26.62076",
      "street": "R DR ARRIAGA NUNES",
      "house": "42",
      "postcode": "9950-362",
      "city": "MADALENA (PICO)",
      "lon": "-28.514564115481928",
      "lat": "38.528059549255104"
    },
    {
      "id": "pt.ine.add.AC26.62080",
      "street": "R SECRETARIO TELES BETTENCOURT",
      "house": "85",
      "postcode": "9950-305",
      "city": "MADALENA (PICO)",
      "lon": "-28.517849511297683",
      "lat": "38.528819010692764"
    },
    {
      "id": "pt.ine.add.AC26.62691",
      "street": "R DR ARRIAGA NUNES",
      "house": "6",
      "postcode": "9950-362",
      "city": "MADALENA (PICO)",
      "lon": "-28.512195230552678",
      "lat": "38.531622630997624"
    },
    {
      "id": "pt.ine.add.AC26.66499",
      "street": "R SECRETARIO TELES BETTENCOURT",
      "house": "",
      "postcode": "9950-305",
      "city": "MADALENA (PICO)",
      "lon": "-28.518815344807635",
      "lat": "38.528923631952274"
    },
    {
      "id": "pt.ine.add.AC26.70316",
      "street": "R DR ARRIAGA NUNES",
      "house": "40",
      "postcode": "9950-362",
      "city": "MADALENA (PICO)",
      "lon": "-28.51433908708188",
      "lat": "38.52826972192532"
    },
    {
      "id": "pt.ine.add.AC26.73496",
      "street": "R DR ARRIAGA NUNES",
      "house": "22",
      "postcode": "9950-362",
      "city": "MADALENA (PICO)",
      "lon": "-28.51330689682372",
      "lat": "38.53047283300728"
    },
    {
      "id": "pt.ine.add.AC26.76063",
      "street": "R CONS AVELAR",
      "house": "50",
      "postcode": "9950-362",
      "city": "MADALENA (PICO)",
      "lon": "-28.513768632789734",
      "lat": "38.532251114586664"
    },
    {
      "id": "pt.ine.add.AC26.76064",
      "street": "R DR ARRIAGA NUNES",
      "house": "26",
      "postcode": "9950-362",
      "city": "MADALENA (PICO)",
      "lon": "-28.513257202270676",
      "lat": "38.52974355422233"
    },
    {
      "id": "pt.ine.add.AC26.78478",
      "street": "R CONS AVELAR",
      "house": "42",
      "postcode": "9950-362",
      "city": "MADALENA (PICO)",
      "lon": "-28.514377448593372",
      "lat": "38.53228829723848"
    },
    {
      "id": "pt.ine.add.AC26.78479",
      "street": "R CONS AVELAR",
      "house": "48",
      "postcode": "9950-362",
      "city": "MADALENA (PICO)",
      "lon": "-28.513906641721807",
      "lat": "38.53226735264731"
    },
    {
      "id": "pt.ine.add.AC26.78486",
      "street": "R MAESTRO SIMARIA",
      "house": "11",
      "postcode": "9950-305",
      "city": "MADALENA (PICO)",
      "lon": "-28.5181065280562",
      "lat": "38.53013133789746"
    },
    {
      "id": "pt.ine.add.AC26.79424",
      "street": "R DR ARRIAGA NUNES",
      "house": "28",
      "postcode": "9950-362",
      "city": "MADALENA (PICO)",
      "lon": "-28.513266783817883",
      "lat": "38.52965331663662"
    },
    {
      "id": "pt.ine.add.AC26.80103",
      "street": "R CONS AVELAR",
      "house": "68",
      "postcode": "9950-362",
      "city": "MADALENA (PICO)",
      "lon": "-28.512450986356942",
      "lat": "38.53233122526494"
    },
    {
      "id": "pt.ine.add.AC26.80411",
      "street": "R DR ARRIAGA NUNES",
      "house": "8",
      "postcode": "9950-362",
      "city": "MADALENA (PICO)",
      "lon": "-28.512200475527038",
      "lat": "38.53132518798589"
    },
    {
      "id": "pt.ine.add.AC26.82166",
      "street": "R DR ARRIAGA NUNES",
      "house": "",
      "postcode": "9950-362",
      "city": "MADALENA (PICO)",
      "lon": "-28.51385636760779",
      "lat": "38.52932128449894"
    },
    {
      "id": "pt.ine.add.AC26.83751",
      "street": "R DR ARRIAGA NUNES",
      "house": "20",
      "postcode": "9950-362",
      "city": "MADALENA (PICO)",
      "lon": "-28.51294045508679",
      "lat": "38.53050460350114"
    },
    {
      "id": "pt.ine.add.AC26.84700",
      "street": "R CONS AVELAR",
      "house": "",
      "postcode": "9950-362",
      "city": "MADALENA (PICO)",
      "lon": "-28.51449888803298",
      "lat": "38.53206144199946"
    },
    {
      "id": "pt.ine.add.AC26.86453",
      "street": "R MAESTRO SIMARIA",
      "house": "9",
      "postcode": "9950-305",
      "city": "MADALENA (PICO)",
      "lon": "-28.51778804864021",
      "lat": "38.530261626617026"
    },
    {
      "id": "pt.ine.add.AC26.86982",
      "street": "R MAESTRO SIMARIA",
      "house": "1",
      "postcode": "9950-362",
      "city": "MADALENA (PICO)",
      "lon": "-28.516723091469167",
      "lat": "38.53144690697098"
    },
    {
      "id": "pt.ine.add.AC26.92601",
      "street": "R SECRETARIO TELES BETTENCOURT",
      "house": "",
      "postcode": "9950-305",
      "city": "MADALENA (PICO)",
      "lon": "-28.51620021986956",
      "lat": "38.528398825803926"
    },
    {
      "id": "pt.ine.add.AC26.98028",
      "street": "R DR ARRIAGA NUNES",
      "house": "10",
      "postcode": "9950-362",
      "city": "MADALENA (PICO)",
      "lon": "-28.51237081484693",
      "lat": "38.53124188515605"
    },
    {
      "id": "pt.ine.add.AC26.98174",
      "street": "R CONS AVELAR",
      "house": "",
      "postcode": "9950-362",
      "city": "MADALENA (PICO)",
      "lon": "-28.51487043842675",
      "lat": "38.53227290740648"
    },
    {
      "id": "pt.ine.add.AC26.100004",
      "street": "R CONS AVELAR",
      "house": "54",
      "postcode": "9950-362",
      "city": "MADALENA (PICO)",
      "lon": "-28.513595083354733",
      "lat": "38.532181267675284"
    },
    {
      "id": "pt.ine.add.AC26.100856",
      "street": "R FILARMÃNICA LIRA MADALENSE",
      "house": "30",
      "postcode": "9950-362",
      "city": "MADALENA (PICO)",
      "lon": "-28.515907021293938",
      "lat": "38.532466750419275"
    },
    {
      "id": "pt.ine.add.AC26.101067",
      "street": "R DR ARRIAGA NUNES",
      "house": "24",
      "postcode": "9950-362",
      "city": "MADALENA (PICO)",
      "lon": "-28.513274710662955",
      "lat": "38.53003169182951"
    }
  ]
}