{
  "data": {
    "distrito": "Setúbal",
    "concelho": "Setúbal",
    "freguesia": "União das freguesias de Azeitão (São Lourenço e São Simão)",
    "OBJECTID": 1060,
    "BGRI2021": "15120901209",
    "DT21": "15",
    "DTMN21": "1512",
    "DTMNFR21": "151209",
    "DTMNFRSEC21": "151209012",
    "SECNUM21": "012",
    "SSNUM21": "09",
    "SECSSNUM21": "01209",
    "OBJECTID_1": 170850,
    "DT": "15",
    "CC": "12",
    "fr": "09",
    "SEC": "012",
    "SS": "09"
  },
  "addresses": [
    {
      "id": "pt.ine.add.PTCONT.4668717",
      "street": "R DR AGOSTINHO MACHADO FARIA",
      "house": "45 B",
      "postcode": "2925-499",
      "city": "AZEITÃO",
      "lon": "-9.019709348287762",
      "lat": "38.52277401440137"
    },
    {
      "id": "pt.ine.add.PTCONT.4675959",
      "street": "R PATRICIO NUNES",
      "house": "9",
      "postcode": "2925-579",
      "city": "AZEITÃO",
      "lon": "-9.018835643774604",
      "lat": "38.52352831109406"
    },
    {
      "id": "pt.ine.add.PTCONT.4675961",
      "street": "R JOSE ANTÓNIO FERNANDES",
      "house": "56",
      "postcode": "2925-537",
      "city": "AZEITÃO",
      "lon": "-9.020374697413505",
      "lat": "38.52279599932485"
    },
    {
      "id": "pt.ine.add.PTCONT.4719485",
      "street": "R ESCOLA PREPARATORIA",
      "house": "31",
      "postcode": "2925-522",
      "city": "AZEITÃO",
      "lon": "-9.020658063809218",
      "lat": "38.523460461876276"
    },
    {
      "id": "pt.ine.add.PTCONT.4745881",
      "street": "R CONVENTO DA ARRÁBIDA",
      "house": "34",
      "postcode": "2925-519",
      "city": "AZEITÃO",
      "lon": "-9.019645636621574",
      "lat": "38.523188876093876"
    },
    {
      "id": "pt.ine.add.PTCONT.4812634",
      "street": "PCT PORFIRIO XAVIER DE BASTO",
      "house": "3",
      "postcode": "2925-522",
      "city": "AZEITÃO",
      "lon": "-9.019227915735406",
      "lat": "38.52372352450877"
    },
    {
      "id": "pt.ine.add.PTCONT.4814361",
      "street": "R JOAQUIM PEDRO DA ASSUNÇAO RASTEIRO",
      "house": "2",
      "postcode": "2925-535",
      "city": "AZEITÃO",
      "lon": "-9.019557751303502",
      "lat": "38.522567972513265"
    },
    {
      "id": "pt.ine.add.PTCONT.4814362",
      "street": "R JOAQUIM PEDRO DA ASSUNÇAO RASTEIRO",
      "house": "2",
      "postcode": "2925-535",
      "city": "AZEITÃO",
      "lon": "-9.019557751303502",
      "lat": "38.522567972513265"
    },
    {
      "id": "pt.ine.add.PTCONT.4814363",
      "street": "R JOAQUIM PEDRO DA ASSUNÇAO RASTEIRO",
      "house": "2",
      "postcode": "2925-535",
      "city": "AZEITÃO",
      "lon": "-9.019557751303502",
      "lat": "38.522567972513265"
    },
    {
      "id": "pt.ine.add.PTCONT.4820417",
      "street": "R JOSE ANTÓNIO FERNANDES",
      "house": "50",
      "postcode": "2925-537",
      "city": "AZEITÃO",
      "lon": "-9.020245256024424",
      "lat": "38.522526732728906"
    },
    {
      "id": "pt.ine.add.PTCONT.4821431",
      "street": "R JOAQUIM PEDRO DA ASSUNÇÃO RASTEIRO",
      "house": "14",
      "postcode": "2925-535",
      "city": "AZEITÃO",
      "lon": "-9.020048126739015",
      "lat": "38.522348061172615"
    },
    {
      "id": "pt.ine.add.PTCONT.4845068",
      "street": "R ESCOLA PREPARATORIA",
      "house": "25",
      "postcode": "2925-522",
      "city": "AZEITÃO",
      "lon": "-9.019722941718861",
      "lat": "38.5238819256051"
    },
    {
      "id": "pt.ine.add.PTCONT.4858729",
      "street": "R CONVENTO DA ARRÁBIDA",
      "house": "28",
      "postcode": "2925-519",
      "city": "AZEITÃO",
      "lon": "-9.019120746069701",
      "lat": "38.52340003867916"
    },
    {
      "id": "pt.ine.add.PTCONT.4868331",
      "street": "R ESCOLA PREPARATORIA",
      "house": "21",
      "postcode": "2925-522",
      "city": "AZEITÃO",
      "lon": "-9.019426041175278",
      "lat": "38.52398326405505"
    },
    {
      "id": "pt.ine.add.PTCONT.4871562",
      "street": "R PATRICIO NUNES",
      "house": "11",
      "postcode": "2925-579",
      "city": "AZEITÃO",
      "lon": "-9.018940824793539",
      "lat": "38.52368966382208"
    },
    {
      "id": "pt.ine.add.PTCONT.4878486",
      "street": "R ESCOLA PREPARATORIA",
      "house": "29",
      "postcode": "2925-522",
      "city": "AZEITÃO",
      "lon": "-9.020419270276237",
      "lat": "38.52362442008276"
    },
    {
      "id": "pt.ine.add.PTCONT.4907252",
      "street": "R JOSE ANTÓNIO FERNANDES",
      "house": "62",
      "postcode": "2925-537",
      "city": "AZEITÃO",
      "lon": "-9.02059752604351",
      "lat": "38.523199681646275"
    },
    {
      "id": "pt.ine.add.PTCONT.4910677",
      "street": "R JOAQUIM PEDRO DA ASSUNÇAO RASTEIRO",
      "house": "16",
      "postcode": "2925-535",
      "city": "AZEITÃO",
      "lon": "-9.020127723602391",
      "lat": "38.52229340874431"
    },
    {
      "id": "pt.ine.add.PTCONT.4970909",
      "street": "R PATRICIO NUNES",
      "house": "15",
      "postcode": "2925-579",
      "city": "AZEITÃO",
      "lon": "-9.01920918106638",
      "lat": "38.52406597957473"
    },
    {
      "id": "pt.ine.add.PTCONT.4973685",
      "street": "R JOSE ANTÓNIO FERNANDES",
      "house": "52",
      "postcode": "2925-537",
      "city": "AZEITÃO",
      "lon": "-9.020303469593994",
      "lat": "38.52259835763099"
    },
    {
      "id": "pt.ine.add.PTCONT.4991796",
      "street": "R CONVENTO DA ARRÁBIDA",
      "house": "30",
      "postcode": "2925-519",
      "city": "AZEITÃO",
      "lon": "-9.019395486202132",
      "lat": "38.52336192645703"
    },
    {
      "id": "pt.ine.add.PTCONT.4999279",
      "street": "R PATRICIO NUNES",
      "house": "17",
      "postcode": "2925-579",
      "city": "AZEITÃO",
      "lon": "-9.019234211830913",
      "lat": "38.524236946783994"
    },
    {
      "id": "pt.ine.add.PTCONT.5006196",
      "street": "R JOSE ANTÓNIO FERNANDES",
      "house": "60 58",
      "postcode": "2925-537",
      "city": "AZEITÃO",
      "lon": "-9.02050358672028",
      "lat": "38.52302022872047"
    },
    {
      "id": "pt.ine.add.PTCONT.5006197",
      "street": "R JOSE ANTÓNIO FERNANDES",
      "house": "60 58",
      "postcode": "2925-537",
      "city": "AZEITÃO",
      "lon": "-9.02050358672028",
      "lat": "38.52302022872047"
    },
    {
      "id": "pt.ine.add.PTCONT.5020748",
      "street": "R ESCOLA PREPARATORIA",
      "house": "27B",
      "postcode": "2925-522",
      "city": "AZEITÃO",
      "lon": "-9.01997397751193",
      "lat": "38.52378093380049"
    },
    {
      "id": "pt.ine.add.PTCONT.5029602",
      "street": "R DR AGOSTINHO MACHADO FARIA",
      "house": "45",
      "postcode": "2925-499",
      "city": "AZEITÃO",
      "lon": "-9.01971034290373",
      "lat": "38.52285508108207"
    },
    {
      "id": "pt.ine.add.PTCONT.5052013",
      "street": "R JOAQUIM PEDRO DA ASSUNÇAO RASTEIRO",
      "house": "8",
      "postcode": "2925-535",
      "city": "AZEITÃO",
      "lon": "-9.01974031973868",
      "lat": "38.522494524259855"
    },
    {
      "id": "pt.ine.add.PTCONT.5052014",
      "street": "R JOAQUIM PEDRO DA ASSUNÇAO RASTEIRO",
      "house": "8",
      "postcode": "2925-535",
      "city": "AZEITÃO",
      "lon": "-9.01974031973868",
      "lat": "38.522494524259855"
    },
    {
      "id": "pt.ine.add.PTCONT.5054601",
      "street": "PCT PADRE PEDRO MESQUITA CARNEIRO",
      "house": "25",
      "postcode": "2925-580",
      "city": "AZEITÃO",
      "lon": "-9.020027437937358",
      "lat": "38.523465240317314"
    },
    {
      "id": "pt.ine.add.PTCONT.5068862",
      "street": "R CONVENTO DA ARRÁBIDA",
      "house": "38",
      "postcode": "2925-519",
      "city": "AZEITÃO",
      "lon": "-9.019942644146873",
      "lat": "38.523096544524286"
    },
    {
      "id": "pt.ine.add.PTCONT.5082976",
      "street": "R PATRICIO NUNES",
      "house": "13",
      "postcode": "2925-579",
      "city": "AZEITÃO",
      "lon": "-9.019068938268408",
      "lat": "38.5238508429343"
    },
    {
      "id": "pt.ine.add.PTCONT.5083159",
      "street": "PCT PORFIRIO XAVIER DE BASTO",
      "house": "2",
      "postcode": "2925-580",
      "city": "AZEITÃO",
      "lon": "-9.019342133548179",
      "lat": "38.5236866270979"
    },
    {
      "id": "pt.ine.add.PTCONT.5084438",
      "street": "R JOAQUIM PEDRO DA ASSUNÇAO RASTEIRO",
      "house": "12",
      "postcode": "2925-535",
      "city": "AZEITÃO",
      "lon": "-9.019877135286574",
      "lat": "38.52243043047615"
    },
    {
      "id": "pt.ine.add.PTCONT.5084440",
      "street": "R JOAQUIM PEDRO DA ASSUNÇAO RASTEIRO",
      "house": "12",
      "postcode": "2925-535",
      "city": "AZEITÃO",
      "lon": "-9.019877135286574",
      "lat": "38.52243043047615"
    },
    {
      "id": "pt.ine.add.PTCONT.5124186",
      "street": "R ESCOLA PREPARATORIA",
      "house": "29",
      "postcode": "2925-522",
      "city": "AZEITÃO",
      "lon": "-9.020259852814178",
      "lat": "38.523715710475436"
    }
  ]
}