{
  "data": {
    "distrito": "Setúbal",
    "concelho": "Setúbal",
    "freguesia": "União das freguesias de Azeitão (São Lourenço e São Simão)",
    "OBJECTID": 666,
    "BGRI2021": "15120901210",
    "DT21": "15",
    "DTMN21": "1512",
    "DTMNFR21": "151209",
    "DTMNFRSEC21": "151209012",
    "SECNUM21": "012",
    "SSNUM21": "10",
    "SECSSNUM21": "01210",
    "OBJECTID_1": 170182,
    "DT": "15",
    "CC": "12",
    "fr": "09",
    "SEC": "012",
    "SS": "10"
  },
  "addresses": [
    {
      "id": "pt.ine.add.PTCONT.4672541",
      "street": "R ARTUR HORTA",
      "house": "19",
      "postcode": "2925-510",
      "city": "AZEITÃO",
      "lon": "-9.021285859201901",
      "lat": "38.52415834449323"
    },
    {
      "id": "pt.ine.add.PTCONT.4698046",
      "street": "R ARTUR HORTA",
      "house": "9 11",
      "postcode": "2925-510",
      "city": "AZEITÃO",
      "lon": "-9.020830094979212",
      "lat": "38.524396015074885"
    },
    {
      "id": "pt.ine.add.PTCONT.4705199",
      "street": "R ESCOLA PREPARATORIA",
      "house": "36 38",
      "postcode": "2925-522",
      "city": "AZEITÃO",
      "lon": "-9.020777038348784",
      "lat": "38.52381088150301"
    },
    {
      "id": "pt.ine.add.PTCONT.4751938",
      "street": "R ESCOLA PREPARATORIA",
      "house": "46",
      "postcode": "2925-522",
      "city": "AZEITÃO",
      "lon": "-9.02098110178356",
      "lat": "38.523620161196526"
    },
    {
      "id": "pt.ine.add.PTCONT.4835008",
      "street": "R FREDERICO FRANCO DE PAIVA",
      "house": "3",
      "postcode": "2925-163",
      "city": "AZEITÃO",
      "lon": "-9.020351063717609",
      "lat": "38.52460683546484"
    },
    {
      "id": "pt.ine.add.PTCONT.4867045",
      "street": "R ESCOLA PREPARATORIA",
      "house": "32",
      "postcode": "2925-522",
      "city": "AZEITÃO",
      "lon": "-9.020640331662618",
      "lat": "38.52388398375014"
    },
    {
      "id": "pt.ine.add.PTCONT.5054691",
      "street": "R ESCOLA PREPARATORIA",
      "house": "50",
      "postcode": "2925-522",
      "city": "AZEITÃO",
      "lon": "-9.021382077757035",
      "lat": "38.52359009527378"
    },
    {
      "id": "pt.ine.add.PTCONT.5076979",
      "street": "R ARTUR HORTA",
      "house": "15",
      "postcode": "2925-510",
      "city": "AZEITÃO",
      "lon": "-9.021057977467763",
      "lat": "38.5242771800025"
    },
    {
      "id": "pt.ine.add.PTCONT.5104405",
      "street": "R ARTUR HORTA",
      "house": "25 31",
      "postcode": "2925-510",
      "city": "AZEITÃO",
      "lon": "-9.02171879918804",
      "lat": "38.52392985360116"
    },
    {
      "id": "pt.ine.add.PTCONT.5123011",
      "street": "R ESCOLA PREPARATORIA",
      "house": "52",
      "postcode": "2925-522",
      "city": "AZEITÃO",
      "lon": "-9.021470815441813",
      "lat": "38.523346199477096"
    }
  ]
}