{
  "data": {
    "distrito": "Faro",
    "concelho": "Loul√©",
    "freguesia": "Almancil",
    "OBJECTID": 667,
    "BGRI2021": "08080101013",
    "DT21": "08",
    "DTMN21": "0808",
    "DTMNFR21": "080801",
    "DTMNFRSEC21": "080801010",
    "SECNUM21": "010",
    "SSNUM21": "13",
    "SECSSNUM21": "01013",
    "OBJECTID_1": 69696,
    "DT": "08",
    "CC": "08",
    "fr": "01",
    "SEC": "010",
    "SS": "13"
  },
  "addresses": [
    {
      "id": "pt.ine.add.PTCONT.1493612",
      "street": "CAM ESCANXINAS",
      "house": "",
      "postcode": "8135-016",
      "city": "ALMANCIL",
      "lon": "-8.048026549827082",
      "lat": "37.08333075070754"
    },
    {
      "id": "pt.ine.add.PTCONT.1495045",
      "street": "CAM ESCANXINAS",
      "house": "",
      "postcode": "8135-016",
      "city": "ALMANCIL",
      "lon": "-8.048026549827082",
      "lat": "37.08333075070754"
    },
    {
      "id": "pt.ine.add.PTCONT.1538109",
      "street": "ESTR ESCANXINAS",
      "house": "",
      "postcode": "8135-016",
      "city": "ALMANCIL",
      "lon": "-8.0481167049361",
      "lat": "37.08316862284667"
    },
    {
      "id": "pt.ine.add.PTCONT.1538110",
      "street": "ESTR ESCANXINAS",
      "house": "",
      "postcode": "8135-016",
      "city": "ALMANCIL",
      "lon": "-8.0481167049361",
      "lat": "37.08316862284667"
    },
    {
      "id": "pt.ine.add.PTCONT.1574134",
      "street": "CAM ESCANXINAS",
      "house": "",
      "postcode": "8135-016",
      "city": "ALMANCIL",
      "lon": "-8.049882205282053",
      "lat": "37.08338613155432"
    },
    {
      "id": "pt.ine.add.PTCONT.1589710",
      "street": "R MANUEL VINHAS",
      "house": "392A",
      "postcode": "8135-016",
      "city": "ALMANCIL",
      "lon": "-8.049679368555749",
      "lat": "37.083746416810456"
    },
    {
      "id": "pt.ine.add.PTCONT.1591063",
      "street": "R MANUEL VINHAS",
      "house": "392A",
      "postcode": "8135-016",
      "city": "ALMANCIL",
      "lon": "-8.049679368555749",
      "lat": "37.083746416810456"
    },
    {
      "id": "pt.ine.add.PTCONT.1686417",
      "street": "CAM ESCANXINAS",
      "house": "CP-344",
      "postcode": "8135-016",
      "city": "ALMANCIL",
      "lon": "-8.047902795187747",
      "lat": "37.08336670464219"
    },
    {
      "id": "pt.ine.add.PTCONT.1687510",
      "street": "R ESCANXINAS",
      "house": "705 E",
      "postcode": "8135-016",
      "city": "ALMANCIL",
      "lon": "-8.048520696188552",
      "lat": "37.08397086343491"
    },
    {
      "id": "pt.ine.add.PTCONT.1703382",
      "street": "CAM ESCANXINAS",
      "house": "",
      "postcode": "8135-016",
      "city": "ALMANCIL",
      "lon": "-8.048015444074638",
      "lat": "37.08320459301721"
    },
    {
      "id": "pt.ine.add.PTCONT.1713359",
      "street": "ESTR ESCANXINAS",
      "house": "",
      "postcode": "8135-016",
      "city": "ALMANCIL",
      "lon": "-8.049928265450914",
      "lat": "37.082403998092616"
    },
    {
      "id": "pt.ine.add.PTCONT.1713360",
      "street": "ESTR ESCANXINAS",
      "house": "",
      "postcode": "8135-016",
      "city": "ALMANCIL",
      "lon": "-8.049928265450914",
      "lat": "37.082403998092616"
    },
    {
      "id": "pt.ine.add.PTCONT.1714748",
      "street": "ESTR ESCANXINAS",
      "house": "378 A",
      "postcode": "8135-016",
      "city": "ALMANCIL",
      "lon": "-8.049928265450914",
      "lat": "37.082403998092616"
    },
    {
      "id": "pt.ine.add.PTCONT.1723193",
      "street": "ESTR ESCANXINAS",
      "house": "",
      "postcode": "8135-016",
      "city": "ALMANCIL",
      "lon": "-8.049297403358445",
      "lat": "37.083358687657935"
    },
    {
      "id": "pt.ine.add.PTCONT.1726272",
      "street": "ESTR ESCANXINAS",
      "house": "",
      "postcode": "8135-016",
      "city": "ALMANCIL",
      "lon": "-8.048397411989647",
      "lat": "37.08358331561244"
    },
    {
      "id": "pt.ine.add.PTCONT.1775657",
      "street": "CAM ESCANXINAS",
      "house": "",
      "postcode": "8135-016",
      "city": "ALMANCIL",
      "lon": "-8.049307360670158",
      "lat": "37.08453008485428"
    },
    {
      "id": "pt.ine.add.PTCONT.1830826",
      "street": "R PEREIRAS AIMANCIL",
      "house": "",
      "postcode": "8135-022",
      "city": "ALMANCIL",
      "lon": "-8.04875598143962",
      "lat": "37.08478199336584"
    },
    {
      "id": "pt.ine.add.PTCONT.1830827",
      "street": "R PEREIRAS AIMANCIL",
      "house": "",
      "postcode": "8135-022",
      "city": "ALMANCIL",
      "lon": "-8.04875598143962",
      "lat": "37.08478199336584"
    },
    {
      "id": "pt.ine.add.PTCONT.1832499",
      "street": "R PEREIRAS AIMANCIL",
      "house": "",
      "postcode": "8135-022",
      "city": "ALMANCIL",
      "lon": "-8.04875598143962",
      "lat": "37.08478199336584"
    },
    {
      "id": "pt.ine.add.PTCONT.1848417",
      "street": "R ESCANXINAS",
      "house": "",
      "postcode": "8135-016",
      "city": "ALMANCIL",
      "lon": "-8.049791905750485",
      "lat": "37.08368342106275"
    }
  ]
}