{
  "data": {
    "distrito": "Porto",
    "concelho": "Paredes",
    "freguesia": "Sobreira",
    "OBJECTID": 980,
    "BGRI2021": "13102000115",
    "DT21": "13",
    "DTMN21": "1310",
    "DTMNFR21": "131020",
    "DTMNFRSEC21": "131020001",
    "SECNUM21": "001",
    "SSNUM21": "15",
    "SECSSNUM21": "00115",
    "OBJECTID_1": 135395,
    "DT": "13",
    "CC": "10",
    "fr": "20",
    "SEC": "001",
    "SS": "15"
  },
  "addresses": [
    {
      "id": "pt.ine.add.PTCONT.3670960",
      "street": "LG IGREJA",
      "house": "3",
      "postcode": "4585-708",
      "city": "SOBREIRA",
      "lon": "-8.38964797356496",
      "lat": "41.146983149876526"
    },
    {
      "id": "pt.ine.add.PTCONT.3706905",
      "street": "R S PEDRO",
      "house": "600",
      "postcode": "4585-404",
      "city": "SOBREIRA",
      "lon": "-8.390477976998344",
      "lat": "41.14599981953932"
    },
    {
      "id": "pt.ine.add.PTCONT.3758554",
      "street": "R CENTRAL VALINHOS",
      "house": "70",
      "postcode": "4585-486",
      "city": "SOBREIRA",
      "lon": "-8.390485828557738",
      "lat": "41.148007781635286"
    },
    {
      "id": "pt.ine.add.PTCONT.3861797",
      "street": "R ACUDE",
      "house": "95",
      "postcode": "4585-502",
      "city": "SOBREIRA",
      "lon": "-8.390225378189818",
      "lat": "41.14842256525429"
    },
    {
      "id": "pt.ine.add.PTCONT.4104838",
      "street": "R AÃ‡UDE",
      "house": "101",
      "postcode": "4585-502",
      "city": "SOBREIRA",
      "lon": "-8.390535519978656",
      "lat": "41.14852992527821"
    },
    {
      "id": "pt.ine.add.PTCONT.4262023",
      "street": "R CENTRAL DOS VALINHOS",
      "house": "70",
      "postcode": "4585-486",
      "city": "SOBREIRA",
      "lon": "-8.390785748680212",
      "lat": "41.14854737459472"
    },
    {
      "id": "pt.ine.add.PTCONT.4268610",
      "street": "R ACUDE",
      "house": "53",
      "postcode": "4585-502",
      "city": "SOBREIRA",
      "lon": "-8.389891623673444",
      "lat": "41.1483692833768"
    },
    {
      "id": "pt.ine.add.PTCONT.4361077",
      "street": "R ACUDE",
      "house": "55",
      "postcode": "4585-502",
      "city": "SOBREIRA",
      "lon": "-8.389951255282986",
      "lat": "41.1483871592162"
    }
  ]
}