{
  "data": {
    "distrito": "Faro",
    "concelho": "Albufeira",
    "freguesia": "Ferreiras",
    "OBJECTID": 122,
    "BGRI2021": "08010400609",
    "DT21": "08",
    "DTMN21": "0801",
    "DTMNFR21": "080104",
    "DTMNFRSEC21": "080104006",
    "SECNUM21": "006",
    "SSNUM21": "09",
    "SECSSNUM21": "00609",
    "OBJECTID_1": 64594,
    "DT": "08",
    "CC": "01",
    "fr": "04",
    "SEC": "006",
    "SS": "09"
  },
  "addresses": [
    {
      "id": "pt.ine.add.PTCONT.1486152",
      "street": "URB TEXUGUEIRAS",
      "house": "",
      "postcode": "8200-556",
      "city": "FERREIRAS",
      "lon": "-8.23874779500484",
      "lat": "37.13901806306031"
    },
    {
      "id": "pt.ine.add.PTCONT.1489754",
      "street": "",
      "house": "",
      "postcode": "8200-556",
      "city": "FERREIRAS",
      "lon": "-8.23665660265666",
      "lat": "37.14065983874207"
    },
    {
      "id": "pt.ine.add.PTCONT.1489928",
      "street": "QTA MIRASOL",
      "house": "",
      "postcode": "8200-556",
      "city": "FERREIRAS",
      "lon": "-8.2412080872971",
      "lat": "37.143728390999414"
    },
    {
      "id": "pt.ine.add.PTCONT.1495696",
      "street": "SIT CANAIS",
      "house": "",
      "postcode": "8200-556",
      "city": "FERREIRAS",
      "lon": "-8.240603799794215",
      "lat": "37.14621586585432"
    },
    {
      "id": "pt.ine.add.PTCONT.1544961",
      "street": "",
      "house": "",
      "postcode": "8200-556",
      "city": "FERREIRAS",
      "lon": "-8.240394407572115",
      "lat": "37.1414134054143"
    },
    {
      "id": "pt.ine.add.PTCONT.1504520",
      "street": "",
      "house": "",
      "postcode": "8200-556",
      "city": "FERREIRAS",
      "lon": "-8.240716143298188",
      "lat": "37.146062583764774"
    },
    {
      "id": "pt.ine.add.PTCONT.1504524",
      "street": "QTA MIRASOL",
      "house": "",
      "postcode": "8200-556",
      "city": "FERREIRAS",
      "lon": "-8.241647792797046",
      "lat": "37.14424159339531"
    },
    {
      "id": "pt.ine.add.PTCONT.1512856",
      "street": "",
      "house": "",
      "postcode": "8200-556",
      "city": "FERREIRAS",
      "lon": "-8.23583634768429",
      "lat": "37.14167875081942"
    },
    {
      "id": "pt.ine.add.PTCONT.1512857",
      "street": "URB TEXUGUEIRAS",
      "house": "",
      "postcode": "8200-556",
      "city": "FERREIRAS",
      "lon": "-8.238072508287237",
      "lat": "37.13902767355401"
    },
    {
      "id": "pt.ine.add.PTCONT.1519185",
      "street": "",
      "house": "",
      "postcode": "8200-556",
      "city": "FERREIRAS",
      "lon": "-8.239406686210506",
      "lat": "37.14337860672179"
    },
    {
      "id": "pt.ine.add.PTCONT.1522365",
      "street": "QTA MIRASOL VILA GREFORIO",
      "house": "",
      "postcode": "8200-556",
      "city": "FERREIRAS",
      "lon": "-8.241613678003334",
      "lat": "37.14399833842662"
    },
    {
      "id": "pt.ine.add.PTCONT.1522366",
      "street": "",
      "house": "",
      "postcode": "8200-556",
      "city": "FERREIRAS",
      "lon": "-8.241108682194197",
      "lat": "37.14506205037318"
    },
    {
      "id": "pt.ine.add.PTCONT.1524821",
      "street": "URB TEXUGUEIRAS",
      "house": "10",
      "postcode": "8200-556",
      "city": "FERREIRAS",
      "lon": "-8.23900721230005",
      "lat": "37.13941429832868"
    },
    {
      "id": "pt.ine.add.PTCONT.1550866",
      "street": "CAM CANAIS",
      "house": "",
      "postcode": "8200-556",
      "city": "FERREIRAS",
      "lon": "-8.23624484442019",
      "lat": "37.144111258738135"
    },
    {
      "id": "pt.ine.add.PTCONT.1565226",
      "street": "",
      "house": "CXP 313 Z",
      "postcode": "8200-556",
      "city": "FERREIRAS",
      "lon": "-8.239298274118127",
      "lat": "37.14634319101858"
    },
    {
      "id": "pt.ine.add.PTCONT.1568775",
      "street": "QTA MIRASOL",
      "house": "",
      "postcode": "8200-556",
      "city": "FERREIRAS",
      "lon": "-8.240825394075157",
      "lat": "37.14372873939309"
    },
    {
      "id": "pt.ine.add.PTCONT.1574813",
      "street": "",
      "house": "",
      "postcode": "8200-556",
      "city": "FERREIRAS",
      "lon": "-8.236611692222112",
      "lat": "37.140740973417046"
    },
    {
      "id": "pt.ine.add.PTCONT.1579709",
      "street": "",
      "house": "",
      "postcode": "8200-556",
      "city": "FERREIRAS",
      "lon": "-8.238750513869293",
      "lat": "37.14097336227285"
    },
    {
      "id": "pt.ine.add.PTCONT.1583055",
      "street": "QTA MIRASOL CASA S PEDRO",
      "house": "",
      "postcode": "8200-556",
      "city": "FERREIRAS",
      "lon": "-8.241276237275043",
      "lat": "37.14416083764695"
    },
    {
      "id": "pt.ine.add.PTCONT.1589667",
      "street": "",
      "house": "",
      "postcode": "8200-556",
      "city": "FERREIRAS",
      "lon": "-8.237285536374598",
      "lat": "37.139668120948244"
    },
    {
      "id": "pt.ine.add.PTCONT.1589753",
      "street": "URB URBANICAL",
      "house": "15",
      "postcode": "8200-565",
      "city": "FERREIRAS",
      "lon": "-8.238589762333616",
      "lat": "37.138684811282424"
    },
    {
      "id": "pt.ine.add.PTCONT.1596722",
      "street": "",
      "house": "",
      "postcode": "8200-556",
      "city": "FERREIRAS",
      "lon": "-8.241074222954698",
      "lat": "37.14457550941563"
    },
    {
      "id": "pt.ine.add.PTCONT.1599577",
      "street": "",
      "house": "",
      "postcode": "8200-556",
      "city": "FERREIRAS",
      "lon": "-8.237398223260675",
      "lat": "37.13976713853729"
    },
    {
      "id": "pt.ine.add.PTCONT.1611636",
      "street": "",
      "house": "",
      "postcode": "8200-556",
      "city": "FERREIRAS",
      "lon": "-8.23561300301298",
      "lat": "37.1429854816497"
    },
    {
      "id": "pt.ine.add.PTCONT.1620466",
      "street": "CANAIS",
      "house": "",
      "postcode": "8200-556",
      "city": "FERREIRAS",
      "lon": "-8.235545566769387",
      "lat": "37.14305762476595"
    },
    {
      "id": "pt.ine.add.PTCONT.1620467",
      "street": "CANAIS C",
      "house": "C P480T",
      "postcode": "8200-556",
      "city": "FERREIRAS",
      "lon": "-8.23968830456334",
      "lat": "37.143540544658364"
    },
    {
      "id": "pt.ine.add.PTCONT.1628477",
      "street": "",
      "house": "",
      "postcode": "8200-556",
      "city": "FERREIRAS",
      "lon": "-8.240851317897192",
      "lat": "37.14613454574558"
    },
    {
      "id": "pt.ine.add.PTCONT.1628576",
      "street": "",
      "house": "",
      "postcode": "8200-556",
      "city": "FERREIRAS",
      "lon": "-8.237926491800405",
      "lat": "37.139244057352535"
    },
    {
      "id": "pt.ine.add.PTCONT.1629245",
      "street": "",
      "house": "",
      "postcode": "8200-556",
      "city": "FERREIRAS",
      "lon": "-8.238196599808473",
      "lat": "37.139234807590285"
    },
    {
      "id": "pt.ine.add.PTCONT.1629246",
      "street": "",
      "house": "",
      "postcode": "8200-556",
      "city": "FERREIRAS",
      "lon": "-8.23880697829702",
      "lat": "37.14110847101188"
    },
    {
      "id": "pt.ine.add.PTCONT.1634075",
      "street": "",
      "house": "",
      "postcode": "8200-556",
      "city": "FERREIRAS",
      "lon": "-8.235802496276726",
      "lat": "37.141615705921645"
    },
    {
      "id": "pt.ine.add.PTCONT.1637056",
      "street": "",
      "house": "",
      "postcode": "8200-556",
      "city": "FERREIRAS",
      "lon": "-8.240480021437326",
      "lat": "37.14624300983661"
    },
    {
      "id": "pt.ine.add.PTCONT.1637057",
      "street": "",
      "house": "",
      "postcode": "8200-556",
      "city": "FERREIRAS",
      "lon": "-8.235264286184961",
      "lat": "37.1431389629371"
    },
    {
      "id": "pt.ine.add.PTCONT.1637058",
      "street": "",
      "house": "",
      "postcode": "8200-556",
      "city": "FERREIRAS",
      "lon": "-8.235072275822933",
      "lat": "37.14264354512629"
    },
    {
      "id": "pt.ine.add.PTCONT.1640986",
      "street": "",
      "house": "",
      "postcode": "8200-556",
      "city": "FERREIRAS",
      "lon": "-8.244302806339475",
      "lat": "37.143320051218865"
    },
    {
      "id": "pt.ine.add.PTCONT.1647712",
      "street": "",
      "house": "",
      "postcode": "8200-565",
      "city": "FERREIRAS",
      "lon": "-8.237970479647185",
      "lat": "37.138496137950966"
    },
    {
      "id": "pt.ine.add.PTCONT.1648993",
      "street": "CASA SIMINOAG",
      "house": "",
      "postcode": "8200-556",
      "city": "FERREIRAS",
      "lon": "-8.243764479153286",
      "lat": "37.14465412381613"
    },
    {
      "id": "pt.ine.add.PTCONT.1649747",
      "street": "",
      "house": "",
      "postcode": "8200-556",
      "city": "FERREIRAS",
      "lon": "-8.24243662964879",
      "lat": "37.144889631584874"
    },
    {
      "id": "pt.ine.add.PTCONT.1653285",
      "street": "",
      "house": "",
      "postcode": "8200-556",
      "city": "FERREIRAS",
      "lon": "-8.23581391001366",
      "lat": "37.141732833888405"
    },
    {
      "id": "pt.ine.add.PTCONT.1656422",
      "street": "URB TEXUGUEIRAS",
      "house": "",
      "postcode": "8200-565",
      "city": "FERREIRAS",
      "lon": "-8.2389048629154",
      "lat": "37.138657498644136"
    },
    {
      "id": "pt.ine.add.PTCONT.1657949",
      "street": "QTA PALMEIRAS",
      "house": "",
      "postcode": "8200-556",
      "city": "FERREIRAS",
      "lon": "-8.240725165231304",
      "lat": "37.14448572085088"
    },
    {
      "id": "pt.ine.add.PTCONT.1658488",
      "street": "",
      "house": "",
      "postcode": "8200-565",
      "city": "FERREIRAS",
      "lon": "-8.238803267680366",
      "lat": "37.13844133466406"
    },
    {
      "id": "pt.ine.add.PTCONT.1658521",
      "street": "BC MADRESSILVAS",
      "house": "",
      "postcode": "8200-556",
      "city": "FERREIRAS",
      "lon": "-8.237188734056197",
      "lat": "37.14294806610955"
    },
    {
      "id": "pt.ine.add.PTCONT.1658524",
      "street": "R URBANIZAÇÃO TEXUGUEIRAS",
      "house": "12",
      "postcode": "8200-556",
      "city": "FERREIRAS",
      "lon": "-8.239355954864957",
      "lat": "37.139296848357176"
    },
    {
      "id": "pt.ine.add.PTCONT.1662758",
      "street": "",
      "house": "",
      "postcode": "8200-556",
      "city": "FERREIRAS",
      "lon": "-8.241106939879357",
      "lat": "37.14383661040934"
    },
    {
      "id": "pt.ine.add.PTCONT.1663496",
      "street": "QTA MIRASOL",
      "house": "",
      "postcode": "8200-556",
      "city": "FERREIRAS",
      "lon": "-8.240936134690092",
      "lat": "37.14244913325937"
    },
    {
      "id": "pt.ine.add.PTCONT.1676543",
      "street": "",
      "house": "",
      "postcode": "8200-556",
      "city": "FERREIRAS",
      "lon": "-8.241997857989514",
      "lat": "37.14503420505995"
    },
    {
      "id": "pt.ine.add.PTCONT.1676544",
      "street": "QTA MIRASOL",
      "house": "",
      "postcode": "8200-556",
      "city": "FERREIRAS",
      "lon": "-8.241332952493458",
      "lat": "37.14446714627121"
    },
    {
      "id": "pt.ine.add.PTCONT.1676546",
      "street": "",
      "house": "",
      "postcode": "8200-556",
      "city": "FERREIRAS",
      "lon": "-8.239293626077037",
      "lat": "37.14301828399097"
    },
    {
      "id": "pt.ine.add.PTCONT.1676547",
      "street": "BC AROEIRAS",
      "house": "",
      "postcode": "8200-556",
      "city": "FERREIRAS",
      "lon": "-8.239292089494144",
      "lat": "37.14191899182521"
    },
    {
      "id": "pt.ine.add.PTCONT.1680727",
      "street": "BC MADRESSILVAS",
      "house": "",
      "postcode": "8200-556",
      "city": "FERREIRAS",
      "lon": "-8.238189868903754",
      "lat": "37.14250566329131"
    },
    {
      "id": "pt.ine.add.PTCONT.1689469",
      "street": "URB TEXUGUEIRAS",
      "house": "",
      "postcode": "8200-565",
      "city": "FERREIRAS",
      "lon": "-8.238116631565417",
      "lat": "37.13837887065323"
    },
    {
      "id": "pt.ine.add.PTCONT.1692466",
      "street": "ESTR PADERNE",
      "house": "CX P 197 B",
      "postcode": "8200-565",
      "city": "FERREIRAS",
      "lon": "-8.235858736574126",
      "lat": "37.141588625370495"
    },
    {
      "id": "pt.ine.add.PTCONT.1694631",
      "street": "CANAIS",
      "house": "",
      "postcode": "8200-556",
      "city": "FERREIRAS",
      "lon": "-8.239609262315089",
      "lat": "37.14336040367826"
    },
    {
      "id": "pt.ine.add.PTCONT.1697199",
      "street": "BC MADRESSILVAS",
      "house": "",
      "postcode": "8200-556",
      "city": "FERREIRAS",
      "lon": "-8.23832464789542",
      "lat": "37.14229829986262"
    },
    {
      "id": "pt.ine.add.PTCONT.1715608",
      "street": "URB TEXUGUEIRAS",
      "house": "",
      "postcode": "8200-556",
      "city": "FERREIRAS",
      "lon": "-8.238387672910058",
      "lat": "37.13904541527499"
    },
    {
      "id": "pt.ine.add.PTCONT.1718308",
      "street": "",
      "house": "",
      "postcode": "8200-556",
      "city": "FERREIRAS",
      "lon": "-8.23883055475417",
      "lat": "37.14187435135436"
    },
    {
      "id": "pt.ine.add.PTCONT.1721139",
      "street": "BC MADRESSILVAS",
      "house": "",
      "postcode": "8200-556",
      "city": "FERREIRAS",
      "lon": "-8.238122024485406",
      "lat": "37.14228045834157"
    },
    {
      "id": "pt.ine.add.PTCONT.1721140",
      "street": "ZN ALFARROBEIRAS URBANIZAÇÃO TEXUGUEIRAS",
      "house": "",
      "postcode": "8200-565",
      "city": "FERREIRAS",
      "lon": "-8.238284906103802",
      "lat": "37.137982254651675"
    },
    {
      "id": "pt.ine.add.PTCONT.1726881",
      "street": "BC JASMIM",
      "house": "",
      "postcode": "8200-556",
      "city": "FERREIRAS",
      "lon": "-8.238687427849696",
      "lat": "37.14417218243691"
    },
    {
      "id": "pt.ine.add.PTCONT.1733766",
      "street": "R AROEIRAS",
      "house": "",
      "postcode": "8200-556",
      "city": "FERREIRAS",
      "lon": "-8.239175559943213",
      "lat": "37.139071744716645"
    },
    {
      "id": "pt.ine.add.PTCONT.1735394",
      "street": "QTA MIRADOURO",
      "house": "",
      "postcode": "8200-556",
      "city": "FERREIRAS",
      "lon": "-8.236625648643166",
      "lat": "37.14272329413993"
    },
    {
      "id": "pt.ine.add.PTCONT.1753970",
      "street": "QTA MIRASOL",
      "house": "",
      "postcode": "8200-556",
      "city": "FERREIRAS",
      "lon": "-8.241027637934755",
      "lat": "37.14347625860335"
    },
    {
      "id": "pt.ine.add.PTCONT.1769084",
      "street": "BC MADRESSILVAS",
      "house": "",
      "postcode": "8200-556",
      "city": "FERREIRAS",
      "lon": "-8.237255896863381",
      "lat": "37.14267768904352"
    },
    {
      "id": "pt.ine.add.PTCONT.1769085",
      "street": "BC MADRESSILVAS",
      "house": "",
      "postcode": "8200-556",
      "city": "FERREIRAS",
      "lon": "-8.238167619589932",
      "lat": "37.142694905670105"
    },
    {
      "id": "pt.ine.add.PTCONT.1769086",
      "street": "BC MADRESSILVAS",
      "house": "",
      "postcode": "8200-556",
      "city": "FERREIRAS",
      "lon": "-8.238167619589932",
      "lat": "37.142694905670105"
    },
    {
      "id": "pt.ine.add.PTCONT.1769090",
      "street": "",
      "house": "",
      "postcode": "8200-556",
      "city": "FERREIRAS",
      "lon": "-8.236500084054272",
      "lat": "37.1414348874139"
    },
    {
      "id": "pt.ine.add.PTCONT.1769091",
      "street": "TEXUGUEIRAS FERREIRAS",
      "house": "CX 170A",
      "postcode": "8200-556",
      "city": "FERREIRAS",
      "lon": "-8.237510117977465",
      "lat": "37.13928947784465"
    },
    {
      "id": "pt.ine.add.PTCONT.1781199",
      "street": "QTA MIRASOL",
      "house": "",
      "postcode": "8200-556",
      "city": "FERREIRAS",
      "lon": "-8.241356157474714",
      "lat": "37.14495369743979"
    },
    {
      "id": "pt.ine.add.PTCONT.1786026",
      "street": "QTA MIRASOL",
      "house": "",
      "postcode": "8200-556",
      "city": "FERREIRAS",
      "lon": "-8.240688985974218",
      "lat": "37.1427827501198"
    },
    {
      "id": "pt.ine.add.PTCONT.1786897",
      "street": "BC JASMIM",
      "house": "",
      "postcode": "8200-556",
      "city": "FERREIRAS",
      "lon": "-8.238608224625143",
      "lat": "37.14387490314259"
    },
    {
      "id": "pt.ine.add.PTCONT.1789712",
      "street": "BC MADRESSILVAS",
      "house": "",
      "postcode": "8200-556",
      "city": "FERREIRAS",
      "lon": "-8.237705882276686",
      "lat": "37.142506091364"
    },
    {
      "id": "pt.ine.add.PTCONT.1805213",
      "street": "",
      "house": "",
      "postcode": "8200-556",
      "city": "FERREIRAS",
      "lon": "-8.23924850304407",
      "lat": "37.14294623958871"
    },
    {
      "id": "pt.ine.add.PTCONT.1813132",
      "street": "",
      "house": "",
      "postcode": "8200-556",
      "city": "FERREIRAS",
      "lon": "-8.235455619205213",
      "lat": "37.14312978728261"
    },
    {
      "id": "pt.ine.add.PTCONT.1821753",
      "street": "",
      "house": "",
      "postcode": "8200-556",
      "city": "FERREIRAS",
      "lon": "-8.240225628288869",
      "lat": "37.14144960047393"
    },
    {
      "id": "pt.ine.add.PTCONT.1827627",
      "street": "BC MADRESSILVAS",
      "house": "",
      "postcode": "8200-556",
      "city": "FERREIRAS",
      "lon": "-8.237516173463028",
      "lat": "37.143695658078734"
    },
    {
      "id": "pt.ine.add.PTCONT.1833272",
      "street": "URB TEXUGUEIRAS",
      "house": "",
      "postcode": "8200-565",
      "city": "FERREIRAS",
      "lon": "-8.237790599743867",
      "lat": "37.13864046668323"
    },
    {
      "id": "pt.ine.add.PTCONT.1838702",
      "street": "QTA MIRASOL",
      "house": "",
      "postcode": "8200-556",
      "city": "FERREIRAS",
      "lon": "-8.241783287312018",
      "lat": "37.144538819034686"
    },
    {
      "id": "pt.ine.add.PTCONT.1847364",
      "street": "QTA MIRASOL",
      "house": "",
      "postcode": "8200-556",
      "city": "FERREIRAS",
      "lon": "-8.240949705480826",
      "lat": "37.14408003977772"
    }
  ]
}