{
  "data": {
    "distrito": "Braga",
    "concelho": "Cabeceiras de Basto",
    "freguesia": "Uni√£o das freguesias de Refojos de Basto, Outeiro e Painzela",
    "OBJECTID": 294,
    "BGRI2021": "03042100208",
    "DT21": "03",
    "DTMN21": "0304",
    "DTMNFR21": "030421",
    "DTMNFRSEC21": "030421002",
    "SECNUM21": "002",
    "SSNUM21": "08",
    "SECSSNUM21": "00208",
    "OBJECTID_1": 23762,
    "DT": "03",
    "CC": "04",
    "fr": "21",
    "SEC": "002",
    "SS": "08"
  },
  "addresses": [
    {
      "id": "pt.ine.add.PTCONT.486714",
      "street": "",
      "house": "",
      "postcode": "4860-247",
      "city": "PAINZELA",
      "lon": "-8.02065925045754",
      "lat": "41.52815954982591"
    },
    {
      "id": "pt.ine.add.PTCONT.493612",
      "street": "",
      "house": "",
      "postcode": "4860-247",
      "city": "PAINZELA",
      "lon": "-8.021903411477023",
      "lat": "41.529295238933926"
    },
    {
      "id": "pt.ine.add.PTCONT.495405",
      "street": "EM 524",
      "house": "",
      "postcode": "4860-247",
      "city": "PAINZELA",
      "lon": "-8.019999061490093",
      "lat": "41.52884319153876"
    },
    {
      "id": "pt.ine.add.PTCONT.523575",
      "street": "EM 524",
      "house": "",
      "postcode": "4860-247",
      "city": "PAINZELA",
      "lon": "-8.019962347122894",
      "lat": "41.529284341793705"
    },
    {
      "id": "pt.ine.add.PTCONT.525388",
      "street": "EM 524",
      "house": "",
      "postcode": "4860-247",
      "city": "PAINZELA",
      "lon": "-8.02003541477693",
      "lat": "41.52860912838325"
    },
    {
      "id": "pt.ine.add.PTCONT.537322",
      "street": "",
      "house": "",
      "postcode": "4860-247",
      "city": "PAINZELA",
      "lon": "-8.022084003156737",
      "lat": "41.52879120041824"
    },
    {
      "id": "pt.ine.add.PTCONT.537330",
      "street": "",
      "house": "",
      "postcode": "4860-247",
      "city": "PAINZELA",
      "lon": "-8.02485351440156",
      "lat": "41.52777641080549"
    },
    {
      "id": "pt.ine.add.PTCONT.543218",
      "street": "",
      "house": "",
      "postcode": "4860-247",
      "city": "PAINZELA",
      "lon": "-8.023222312564332",
      "lat": "41.52877428610085"
    },
    {
      "id": "pt.ine.add.PTCONT.586969",
      "street": "",
      "house": "",
      "postcode": "4860-247",
      "city": "PAINZELA",
      "lon": "-8.025619076293884",
      "lat": "41.52854245232603"
    },
    {
      "id": "pt.ine.add.PTCONT.594281",
      "street": "",
      "house": "",
      "postcode": "4860-247",
      "city": "PAINZELA",
      "lon": "-8.020201642189608",
      "lat": "41.52948266064112"
    },
    {
      "id": "pt.ine.add.PTCONT.620628",
      "street": "",
      "house": "",
      "postcode": "4860-247",
      "city": "PAINZELA",
      "lon": "-8.020072034224224",
      "lat": "41.52822200078859"
    },
    {
      "id": "pt.ine.add.PTCONT.620629",
      "street": "",
      "house": "",
      "postcode": "4860-247",
      "city": "PAINZELA",
      "lon": "-8.025297031513368",
      "lat": "41.52765977796398"
    },
    {
      "id": "pt.ine.add.PTCONT.631959",
      "street": "",
      "house": "",
      "postcode": "4860-247",
      "city": "PAINZELA",
      "lon": "-8.023031136644455",
      "lat": "41.52845897012254"
    },
    {
      "id": "pt.ine.add.PTCONT.637985",
      "street": "",
      "house": "",
      "postcode": "4860-247",
      "city": "PAINZELA",
      "lon": "-8.021065915935678",
      "lat": "41.52857412175123"
    },
    {
      "id": "pt.ine.add.PTCONT.644255",
      "street": "",
      "house": "",
      "postcode": "4860-247",
      "city": "PAINZELA",
      "lon": "-8.024973736159337",
      "lat": "41.527533421150366"
    },
    {
      "id": "pt.ine.add.PTCONT.686971",
      "street": "",
      "house": "",
      "postcode": "4860-247",
      "city": "PAINZELA",
      "lon": "-8.023414265995637",
      "lat": "41.52863040848572"
    },
    {
      "id": "pt.ine.add.PTCONT.701915",
      "street": "",
      "house": "",
      "postcode": "4860-247",
      "city": "PAINZELA",
      "lon": "-8.021533176868918",
      "lat": "41.52859258364053"
    },
    {
      "id": "pt.ine.add.PTCONT.710724",
      "street": "ARMANDO ANDRADE BASTOS",
      "house": "",
      "postcode": "4860-247",
      "city": "PAINZELA",
      "lon": "-8.026001856584797",
      "lat": "41.52892997303992"
    },
    {
      "id": "pt.ine.add.PTCONT.737624",
      "street": "EM 524",
      "house": "",
      "postcode": "4860-247",
      "city": "PAINZELA",
      "lon": "-8.020009318455369",
      "lat": "41.52983361996178"
    },
    {
      "id": "pt.ine.add.PTCONT.740476",
      "street": "EM 524",
      "house": "",
      "postcode": "4860-247",
      "city": "PAINZELA",
      "lon": "-8.02072657565029",
      "lat": "41.53079772987285"
    },
    {
      "id": "pt.ine.add.PTCONT.749740",
      "street": "EM 524",
      "house": "",
      "postcode": "4860-247",
      "city": "PAINZELA",
      "lon": "-8.020056917579788",
      "lat": "41.530022746607685"
    },
    {
      "id": "pt.ine.add.PTCONT.762761",
      "street": "",
      "house": "",
      "postcode": "4860-247",
      "city": "PAINZELA",
      "lon": "-8.024611353305085",
      "lat": "41.529288821754676"
    },
    {
      "id": "pt.ine.add.PTCONT.805178",
      "street": "",
      "house": "",
      "postcode": "4860-247",
      "city": "PAINZELA",
      "lon": "-8.021305568293103",
      "lat": "41.528565351179054"
    },
    {
      "id": "pt.ine.add.PTCONT.810104",
      "street": "EM 524",
      "house": "",
      "postcode": "4860-247",
      "city": "PAINZELA",
      "lon": "-8.020237603869402",
      "lat": "41.529473692138794"
    },
    {
      "id": "pt.ine.add.PTCONT.810117",
      "street": "",
      "house": "",
      "postcode": "4860-247",
      "city": "PAINZELA",
      "lon": "-8.024263921276749",
      "lat": "41.52926148204357"
    },
    {
      "id": "pt.ine.add.PTCONT.824293",
      "street": "",
      "house": "",
      "postcode": "4860-247",
      "city": "PAINZELA",
      "lon": "-8.020994397941077",
      "lat": "41.52835796074546"
    },
    {
      "id": "pt.ine.add.PTCONT.827624",
      "street": "",
      "house": "",
      "postcode": "4860-247",
      "city": "PAINZELA",
      "lon": "-8.02188066583718",
      "lat": "41.528583916441285"
    },
    {
      "id": "pt.ine.add.PTCONT.849377",
      "street": "EM 524",
      "house": "",
      "postcode": "4860-247",
      "city": "PAINZELA",
      "lon": "-8.020737996984039",
      "lat": "41.531121877852456"
    }
  ]
}