{
  "data": {
    "distrito": "Santarém",
    "concelho": "Salvaterra de Magos",
    "freguesia": "Marinhais",
    "OBJECTID": 489,
    "BGRI2021": "14150200312",
    "DT21": "14",
    "DTMN21": "1415",
    "DTMNFR21": "141502",
    "DTMNFRSEC21": "141502003",
    "SECNUM21": "003",
    "SSNUM21": "12",
    "SECSSNUM21": "00312",
    "OBJECTID_1": 153563,
    "DT": "14",
    "CC": "15",
    "fr": "02",
    "SEC": "003",
    "SS": "12"
  },
  "addresses": [
    {
      "id": "pt.ine.add.PTCONT.4409847",
      "street": "R ESTAÇÃO",
      "house": "",
      "postcode": "2125-136",
      "city": "MARINHAIS",
      "lon": "-8.68886789383371",
      "lat": "39.059885778928255"
    },
    {
      "id": "pt.ine.add.PTCONT.4413390",
      "street": "R 17 DE NOVEMBRO",
      "house": "14",
      "postcode": "2125-126",
      "city": "MARINHAIS",
      "lon": "-8.690676268729113",
      "lat": "39.0577153296816"
    },
    {
      "id": "pt.ine.add.PTCONT.4413391",
      "street": "R 17 DE NOVEMBRO",
      "house": "14",
      "postcode": "2125-126",
      "city": "MARINHAIS",
      "lon": "-8.690676268729113",
      "lat": "39.0577153296816"
    },
    {
      "id": "pt.ine.add.PTCONT.4416585",
      "street": "R LAGOA",
      "house": "74",
      "postcode": "2125-142",
      "city": "MARINHAIS",
      "lon": "-8.695092356117486",
      "lat": "39.05515399703625"
    },
    {
      "id": "pt.ine.add.PTCONT.4419490",
      "street": "R 17 DE NOVEMBRO",
      "house": "",
      "postcode": "2125-126",
      "city": "MARINHAIS",
      "lon": "-8.690548056192124",
      "lat": "39.05757182138872"
    },
    {
      "id": "pt.ine.add.PTCONT.4419498",
      "street": "R JOÃO PINTO FIGUEIREDO",
      "house": "31",
      "postcode": "2125-181",
      "city": "MARINHAIS",
      "lon": "-8.695107150350676",
      "lat": "39.058477720708424"
    },
    {
      "id": "pt.ine.add.PTCONT.4423537",
      "street": "R 17 DE NOVEMBRO",
      "house": "",
      "postcode": "2125-126",
      "city": "MARINHAIS",
      "lon": "-8.690722621093487",
      "lat": "39.057733123215236"
    },
    {
      "id": "pt.ine.add.PTCONT.4424018",
      "street": "R ESTAÇÃO",
      "house": "7",
      "postcode": "2125-136",
      "city": "MARINHAIS",
      "lon": "-8.688819351603122",
      "lat": "39.05958876037032"
    },
    {
      "id": "pt.ine.add.PTCONT.4442551",
      "street": "R ESTAÇÃO",
      "house": "3",
      "postcode": "2125-136",
      "city": "MARINHAIS",
      "lon": "-8.688786952051027",
      "lat": "39.05987715705391"
    },
    {
      "id": "pt.ine.add.PTCONT.4444711",
      "street": "R ESTAÇÃO",
      "house": "30",
      "postcode": "2125-136",
      "city": "MARINHAIS",
      "lon": "-8.688832430913278",
      "lat": "39.05830962265828"
    },
    {
      "id": "pt.ine.add.PTCONT.4452426",
      "street": "R LAGOA",
      "house": "80",
      "postcode": "2125-142",
      "city": "MARINHAIS",
      "lon": "-8.696144110690328",
      "lat": "39.055211977261486"
    },
    {
      "id": "pt.ine.add.PTCONT.4457021",
      "street": "R ESTAÇÃO",
      "house": "",
      "postcode": "2125-136",
      "city": "MARINHAIS",
      "lon": "-8.68925567944228",
      "lat": "39.05924439268616"
    },
    {
      "id": "pt.ine.add.PTCONT.4467470",
      "street": "R ESTAÇÃO",
      "house": "18",
      "postcode": "2125-136",
      "city": "MARINHAIS",
      "lon": "-8.689098742392598",
      "lat": "39.059857655883356"
    },
    {
      "id": "pt.ine.add.PTCONT.4471675",
      "street": "R ESTAÇÃO",
      "house": "30",
      "postcode": "2125-136",
      "city": "MARINHAIS",
      "lon": "-8.688729867897585",
      "lat": "39.05849026281777"
    },
    {
      "id": "pt.ine.add.PTCONT.4473682",
      "street": "R ESTAÇÃO",
      "house": "10",
      "postcode": "2125-136",
      "city": "MARINHAIS",
      "lon": "-8.690246243190664",
      "lat": "39.060329580849185"
    },
    {
      "id": "pt.ine.add.PTCONT.4479028",
      "street": "R LAGOA",
      "house": "76",
      "postcode": "2125-142",
      "city": "MARINHAIS",
      "lon": "-8.69568187775808",
      "lat": "39.05519619271411"
    },
    {
      "id": "pt.ine.add.PTCONT.4484332",
      "street": "R ESTAÇÃO",
      "house": "10",
      "postcode": "2125-136",
      "city": "MARINHAIS",
      "lon": "-8.689518256759087",
      "lat": "39.06031504124717"
    },
    {
      "id": "pt.ine.add.PTCONT.4485980",
      "street": "R LAGOA",
      "house": "72 B",
      "postcode": "2125-142",
      "city": "MARINHAIS",
      "lon": "-8.694814959585289",
      "lat": "39.05513731823718"
    },
    {
      "id": "pt.ine.add.PTCONT.4485995",
      "street": "R 17 DE NOVEMBRO",
      "house": "4",
      "postcode": "2125-126",
      "city": "MARINHAIS",
      "lon": "-8.68902430753139",
      "lat": "39.05773222341812"
    },
    {
      "id": "pt.ine.add.PTCONT.4494534",
      "street": "R JOAO PINTO FIGUEIREDO",
      "house": "73",
      "postcode": "2125-181",
      "city": "MARINHAIS",
      "lon": "-8.697218183061345",
      "lat": "39.05517075671088"
    },
    {
      "id": "pt.ine.add.PTCONT.4494546",
      "street": "R JOÃO PINTO FIGUEIREDO",
      "house": "55",
      "postcode": "2125-181",
      "city": "MARINHAIS",
      "lon": "-8.695691598005107",
      "lat": "39.0564211761318"
    },
    {
      "id": "pt.ine.add.PTCONT.4494547",
      "street": "R JOÃO PINTO FIGUEIREDO",
      "house": "15",
      "postcode": "2125-181",
      "city": "MARINHAIS",
      "lon": "-8.694217297541782",
      "lat": "39.059905201672436"
    },
    {
      "id": "pt.ine.add.PTCONT.4494548",
      "street": "R JOÃO PINTO FIGUEIREDO",
      "house": "15",
      "postcode": "2125-181",
      "city": "MARINHAIS",
      "lon": "-8.694217297541782",
      "lat": "39.059905201672436"
    },
    {
      "id": "pt.ine.add.PTCONT.4496572",
      "street": "R JOÃO PINTO FIGUEIREDO",
      "house": "19",
      "postcode": "2125-181",
      "city": "MARINHAIS",
      "lon": "-8.694468682140348",
      "lat": "39.059552696668185"
    },
    {
      "id": "pt.ine.add.PTCONT.4498051",
      "street": "R 17 DE NOVEMBRO",
      "house": "32",
      "postcode": "2125-126",
      "city": "MARINHAIS",
      "lon": "-8.691551007626495",
      "lat": "39.057296795934185"
    },
    {
      "id": "pt.ine.add.PTCONT.4498996",
      "street": "R ESTAÇÃO",
      "house": "6",
      "postcode": "2125-136",
      "city": "MARINHAIS",
      "lon": "-8.689291717869501",
      "lat": "39.06089260636775"
    },
    {
      "id": "pt.ine.add.PTCONT.4500245",
      "street": "R JOÃO PINTO FIGUEIREDO",
      "house": "59",
      "postcode": "2125-181",
      "city": "MARINHAIS",
      "lon": "-8.696301874201597",
      "lat": "39.0561660185511"
    },
    {
      "id": "pt.ine.add.PTCONT.4504038",
      "street": "R JOÃO PINTO FIGUEIREDO",
      "house": "21",
      "postcode": "2125-181",
      "city": "MARINHAIS",
      "lon": "-8.694479307830502",
      "lat": "39.059435547104435"
    },
    {
      "id": "pt.ine.add.PTCONT.4507949",
      "street": "R LAGOA",
      "house": "72",
      "postcode": "2125-142",
      "city": "MARINHAIS",
      "lon": "-8.694306233239136",
      "lat": "39.05508572184271"
    },
    {
      "id": "pt.ine.add.PTCONT.4513440",
      "street": "R 17 DE NOVEMBRO",
      "house": "56",
      "postcode": "2125-126",
      "city": "MARINHAIS",
      "lon": "-8.69243690293831",
      "lat": "39.05536492929038"
    },
    {
      "id": "pt.ine.add.PTCONT.4513441",
      "street": "R JOÃO PINTO FIGUEIREDO QTA PILRE",
      "house": "7",
      "postcode": "2125-181",
      "city": "MARINHAIS",
      "lon": "-8.691636517661388",
      "lat": "39.06081834713681"
    },
    {
      "id": "pt.ine.add.PTCONT.4520613",
      "street": "R 17 DE NOVEMBRO",
      "house": "28",
      "postcode": "2125-126",
      "city": "MARINHAIS",
      "lon": "-8.69135780515057",
      "lat": "39.057703061758126"
    },
    {
      "id": "pt.ine.add.PTCONT.4520614",
      "street": "R LAGOA",
      "house": "84",
      "postcode": "2125-142",
      "city": "MARINHAIS",
      "lon": "-8.69665276759022",
      "lat": "39.05525455839088"
    },
    {
      "id": "pt.ine.add.PTCONT.4526882",
      "street": "R LAGOA",
      "house": "74 A",
      "postcode": "2125-142",
      "city": "MARINHAIS",
      "lon": "-8.69531192012891",
      "lat": "39.05516194639783"
    },
    {
      "id": "pt.ine.add.PTCONT.4529687",
      "street": "R ESTAÇÃO",
      "house": "16",
      "postcode": "2125-136",
      "city": "MARINHAIS",
      "lon": "-8.68906563744729",
      "lat": "39.060055980278435"
    },
    {
      "id": "pt.ine.add.PTCONT.4531488",
      "street": "R JOÃO PINTO FIGUEIREDO",
      "house": "29",
      "postcode": "2125-181",
      "city": "MARINHAIS",
      "lon": "-8.694566666297826",
      "lat": "39.058795589019596"
    },
    {
      "id": "pt.ine.add.PTCONT.4531945",
      "street": "R LAGOA",
      "house": "78",
      "postcode": "2125-142",
      "city": "MARINHAIS",
      "lon": "-8.695889818207872",
      "lat": "39.05519518947886"
    },
    {
      "id": "pt.ine.add.PTCONT.4535902",
      "street": "R ESTAÇÃO",
      "house": "26",
      "postcode": "2125-136",
      "city": "MARINHAIS",
      "lon": "-8.689480941080083",
      "lat": "39.05850469725616"
    },
    {
      "id": "pt.ine.add.PTCONT.4539460",
      "street": "R 17 DE NOVEMBRO",
      "house": "52",
      "postcode": "2125-126",
      "city": "MARINHAIS",
      "lon": "-8.692334495406723",
      "lat": "39.05556358708584"
    },
    {
      "id": "pt.ine.add.PTCONT.4539473",
      "street": "R JOÃO PINTO FIGUEIREDO",
      "house": "25",
      "postcode": "2125-181",
      "city": "MARINHAIS",
      "lon": "-8.694799150363284",
      "lat": "39.05897462096712"
    },
    {
      "id": "pt.ine.add.PTCONT.4540016",
      "street": "R 17 DE NOVEMBRO",
      "house": "36",
      "postcode": "2125-126",
      "city": "MARINHAIS",
      "lon": "-8.691964629033077",
      "lat": "39.05700657222407"
    },
    {
      "id": "pt.ine.add.PTCONT.4550101",
      "street": "R ESTAÇÃO",
      "house": "",
      "postcode": "2125-136",
      "city": "MARINHAIS",
      "lon": "-8.690263685835529",
      "lat": "39.059608891828375"
    },
    {
      "id": "pt.ine.add.PTCONT.4551798",
      "street": "R LAGOA",
      "house": "82",
      "postcode": "2125-142",
      "city": "MARINHAIS",
      "lon": "-8.696386922595037",
      "lat": "39.05523782751494"
    },
    {
      "id": "pt.ine.add.PTCONT.4558043",
      "street": "R 17 DE NOVEMBRO",
      "house": "18",
      "postcode": "2125-126",
      "city": "MARINHAIS",
      "lon": "-8.69090732208004",
      "lat": "39.05771422480966"
    },
    {
      "id": "pt.ine.add.PTCONT.4558535",
      "street": "R ESTAÇÃO",
      "house": "22",
      "postcode": "2125-136",
      "city": "MARINHAIS",
      "lon": "-8.69090732208004",
      "lat": "39.05771422480966"
    },
    {
      "id": "pt.ine.add.PTCONT.4562270",
      "street": "R JOÃO PINTO FIGUEIREDO",
      "house": "27",
      "postcode": "2125-181",
      "city": "MARINHAIS",
      "lon": "-8.69480856216781",
      "lat": "39.05870434849428"
    },
    {
      "id": "pt.ine.add.PTCONT.4566466",
      "street": "R JOÃO PINTO FIGUEIREDO",
      "house": "17",
      "postcode": "2125-181",
      "city": "MARINHAIS",
      "lon": "-8.694388952495451",
      "lat": "39.05969720154386"
    },
    {
      "id": "pt.ine.add.PTCONT.4570625",
      "street": "R 17 DE NOVEMBRO",
      "house": "40",
      "postcode": "2125-126",
      "city": "MARINHAIS",
      "lon": "-8.6922165830563",
      "lat": "39.056726129774006"
    },
    {
      "id": "pt.ine.add.PTCONT.4570645",
      "street": "R JOÃO PINTO FIGUEIREDO",
      "house": "57",
      "postcode": "2125-181",
      "city": "MARINHAIS",
      "lon": "-8.696407348704017",
      "lat": "39.056354668229915"
    },
    {
      "id": "pt.ine.add.PTCONT.4572717",
      "street": "R 17 DE NOVEMBRO",
      "house": "58",
      "postcode": "2125-126",
      "city": "MARINHAIS",
      "lon": "-8.692482117166751",
      "lat": "39.055238606351736"
    },
    {
      "id": "pt.ine.add.PTCONT.4573945",
      "street": "R 17 DE NOVEMBRO",
      "house": "26",
      "postcode": "2125-126",
      "city": "MARINHAIS",
      "lon": "-8.691672139972935",
      "lat": "39.05800781420768"
    },
    {
      "id": "pt.ine.add.PTCONT.4573946",
      "street": "R JOÃO PINTO FIGUEIREDO",
      "house": "23",
      "postcode": "2125-181",
      "city": "MARINHAIS",
      "lon": "-8.694628069116972",
      "lat": "39.05925467952249"
    },
    {
      "id": "pt.ine.add.PTCONT.4585425",
      "street": "R JOÃO PINTO FIGUEIREDO",
      "house": "69",
      "postcode": "2125-181",
      "city": "MARINHAIS",
      "lon": "-8.696955275181978",
      "lat": "39.05552332354314"
    },
    {
      "id": "pt.ine.add.PTCONT.4595602",
      "street": "R JOÃO PINTO FIGUEIREDO",
      "house": "41",
      "postcode": "2125-181",
      "city": "MARINHAIS",
      "lon": "-8.69547248085692",
      "lat": "39.057926497733924"
    },
    {
      "id": "pt.ine.add.PTCONT.4599698",
      "street": "R JOAO PINTO FIGUEIREDO",
      "house": "3",
      "postcode": "2125-181",
      "city": "MARINHAIS",
      "lon": "-8.692829765805882",
      "lat": "39.0612269744381"
    },
    {
      "id": "pt.ine.add.PTCONT.4605635",
      "street": "R 17 DE NOVEMBRO",
      "house": "14",
      "postcode": "2125-126",
      "city": "MARINHAIS",
      "lon": "-8.690526721439927",
      "lat": "39.057797112726426"
    },
    {
      "id": "pt.ine.add.PTCONT.4605636",
      "street": "R LAGOA",
      "house": "74 B",
      "postcode": "2125-142",
      "city": "MARINHAIS",
      "lon": "-8.695473794410354",
      "lat": "39.05517918111404"
    },
    {
      "id": "pt.ine.add.PTCONT.4614217",
      "street": "R 17 DE NOVEMBRO",
      "house": "",
      "postcode": "2125-126",
      "city": "MARINHAIS",
      "lon": "-8.691509408719435",
      "lat": "39.05788248745361"
    },
    {
      "id": "pt.ine.add.PTCONT.4614218",
      "street": "R 17 DE NOVEMBRO",
      "house": "42",
      "postcode": "2125-126",
      "city": "MARINHAIS",
      "lon": "-8.692330687126454",
      "lat": "39.056545431183004"
    },
    {
      "id": "pt.ine.add.PTCONT.4614224",
      "street": "R JOÃO PINTO FIGUEIREDO",
      "house": "1",
      "postcode": "2125-181",
      "city": "MARINHAIS",
      "lon": "-8.693614032542458",
      "lat": "39.06105206392444"
    },
    {
      "id": "pt.ine.add.PTCONT.4616349",
      "street": "R JOÃO PINTO FIGUEIREDO",
      "house": "5",
      "postcode": "2125-181",
      "city": "MARINHAIS",
      "lon": "-8.691579958181439",
      "lat": "39.06097174667812"
    },
    {
      "id": "pt.ine.add.PTCONT.4630901",
      "street": "R 17 DE NOVEMBRO",
      "house": "24",
      "postcode": "2125-126",
      "city": "MARINHAIS",
      "lon": "-8.69133633108889",
      "lat": "39.057910338751505"
    },
    {
      "id": "pt.ine.add.PTCONT.4630909",
      "street": "R JOÃO PINTO FIGUEIREDO",
      "house": "63",
      "postcode": "2125-181",
      "city": "MARINHAIS",
      "lon": "-8.696819225769232",
      "lat": "39.05584825393912"
    },
    {
      "id": "pt.ine.add.PTCONT.4631282",
      "street": "R LAGOA",
      "house": "72 A",
      "postcode": "2125-142",
      "city": "MARINHAIS",
      "lon": "-8.694595324362568",
      "lat": "39.0551203607052"
    },
    {
      "id": "pt.ine.add.PTCONT.4635355",
      "street": "R 17 NOVEMBRO",
      "house": "8",
      "postcode": "2125-126",
      "city": "MARINHAIS",
      "lon": "-8.689867440425132",
      "lat": "39.05770117865485"
    },
    {
      "id": "pt.ine.add.PTCONT.4639541",
      "street": "R ESTAÇÃO",
      "house": "4",
      "postcode": "2125-136",
      "city": "MARINHAIS",
      "lon": "-8.68935061469682",
      "lat": "39.06103644658417"
    },
    {
      "id": "pt.ine.add.PTCONT.4640911",
      "street": "R 17 DE NOVEMBRO",
      "house": "30",
      "postcode": "2125-126",
      "city": "MARINHAIS",
      "lon": "-8.691634643315773",
      "lat": "39.057647690830734"
    },
    {
      "id": "pt.ine.add.PTCONT.4640912",
      "street": "R JOÃO PINTO FIGUEIREDO CASAL DOS AVOS",
      "house": "51",
      "postcode": "2125-181",
      "city": "MARINHAIS",
      "lon": "-8.695649819338154",
      "lat": "39.05697984727317"
    },
    {
      "id": "pt.ine.add.PTCONT.4643722",
      "street": "R ESTAÇÃO",
      "house": "24",
      "postcode": "2125-136",
      "city": "MARINHAIS",
      "lon": "-8.689261544667142",
      "lat": "39.05999199319134"
    },
    {
      "id": "pt.ine.add.PTCONT.4645775",
      "street": "R ESTAÇÃO",
      "house": "12",
      "postcode": "2125-136",
      "city": "MARINHAIS",
      "lon": "-8.689068180577712",
      "lat": "39.06038024071563"
    },
    {
      "id": "pt.ine.add.PTCONT.4645774",
      "street": "R ESTAÇÃO",
      "house": "12",
      "postcode": "2125-136",
      "city": "MARINHAIS",
      "lon": "-8.689068180577712",
      "lat": "39.06038024071563"
    },
    {
      "id": "pt.ine.add.PTCONT.4650548",
      "street": "R JOÃO PINTO FIGUEIREDO",
      "house": "45",
      "postcode": "2125-181",
      "city": "MARINHAIS",
      "lon": "-8.695700532577819",
      "lat": "39.05754707977895"
    },
    {
      "id": "pt.ine.add.PTCONT.4655598",
      "street": "R 17 DE NOVEMBRO",
      "house": "20",
      "postcode": "2125-126",
      "city": "MARINHAIS",
      "lon": "-8.691254753053679",
      "lat": "39.05782065346127"
    },
    {
      "id": "pt.ine.add.PTCONT.4655619",
      "street": "R JOÃO PINTO FIGUEIREDO",
      "house": "71",
      "postcode": "2125-181",
      "city": "MARINHAIS",
      "lon": "-8.697046332326039",
      "lat": "39.05535173933429"
    },
    {
      "id": "pt.ine.add.PTCONT.4657683",
      "street": "R JOÃO PINTO FIGUEIREDO",
      "house": "35",
      "postcode": "2125-181",
      "city": "MARINHAIS",
      "lon": "-8.695334705738881",
      "lat": "39.05803525287984"
    }
  ]
}