{
  "data": {
    "distrito": "Aveiro",
    "concelho": "Albergaria-A-Velha",
    "freguesia": "Albergaria-a-Velha e Valmaior",
    "OBJECTID": 350,
    "BGRI2021": "01020900204",
    "DT21": "01",
    "DTMN21": "0102",
    "DTMNFR21": "010209",
    "DTMNFRSEC21": "010209002",
    "SECNUM21": "002",
    "SSNUM21": "04",
    "SECSSNUM21": "00204",
    "OBJECTID_1": 463,
    "DT": "01",
    "CC": "02",
    "fr": "09",
    "SEC": "002",
    "SS": "04"
  },
  "addresses": [
    {
      "id": "pt.ine.add.PTCONT.294626",
      "street": "PÃ“VOA DE MOUQUIM",
      "house": "",
      "postcode": "3850-829",
      "city": "VALMAIOR",
      "lon": "-8.437807138455717",
      "lat": "40.68907355218646"
    },
    {
      "id": "pt.ine.add.PTCONT.308127",
      "street": "R AREEIROS",
      "house": "CASA 4",
      "postcode": "3850-829",
      "city": "VALMAIOR",
      "lon": "-8.436307708325202",
      "lat": "40.692346351370915"
    },
    {
      "id": "pt.ine.add.PTCONT.345420",
      "street": "R AREEIROS",
      "house": "",
      "postcode": "3850-829",
      "city": "VALMAIOR",
      "lon": "-8.435816364399479",
      "lat": "40.693572333976654"
    },
    {
      "id": "pt.ine.add.PTCONT.351459",
      "street": "R LOMBINHA",
      "house": "",
      "postcode": "3850-829",
      "city": "VALMAIOR",
      "lon": "-8.436327321123876",
      "lat": "40.688843315481954"
    },
    {
      "id": "pt.ine.add.PTCONT.13513",
      "street": "R BOUCA",
      "house": "",
      "postcode": "3850-829",
      "city": "VALMAIOR",
      "lon": "-8.437604429081757",
      "lat": "40.68872288794637"
    },
    {
      "id": "pt.ine.add.PTCONT.18713",
      "street": "EN 16",
      "house": "",
      "postcode": "3850-835",
      "city": "VALMAIOR",
      "lon": "-8.435928533813266",
      "lat": "40.68698931041941"
    },
    {
      "id": "pt.ine.add.PTCONT.67166",
      "street": "R AREEIROS",
      "house": "CASA 5",
      "postcode": "3850-829",
      "city": "VALMAIOR",
      "lon": "-8.436285026655918",
      "lat": "40.692562533295806"
    },
    {
      "id": "pt.ine.add.PTCONT.67167",
      "street": "R AREEIROS",
      "house": "CASA 2",
      "postcode": "3850-829",
      "city": "VALMAIOR",
      "lon": "-8.436353234535162",
      "lat": "40.69195000745268"
    },
    {
      "id": "pt.ine.add.PTCONT.67168",
      "street": "R AREEIROS",
      "house": "CASA 1",
      "postcode": "3850-829",
      "city": "VALMAIOR",
      "lon": "-8.436434905045065",
      "lat": "40.691697650126926"
    },
    {
      "id": "pt.ine.add.PTCONT.91396",
      "street": "EN 16",
      "house": "",
      "postcode": "3850-835",
      "city": "VALMAIOR",
      "lon": "-8.435839817606066",
      "lat": "40.68568380242443"
    },
    {
      "id": "pt.ine.add.PTCONT.105837",
      "street": "R AREEIROS",
      "house": "",
      "postcode": "3850-829",
      "city": "VALMAIOR",
      "lon": "-8.436857450375436",
      "lat": "40.69095812099341"
    },
    {
      "id": "pt.ine.add.PTCONT.115430",
      "street": "R AREEIROS",
      "house": "",
      "postcode": "3850-829",
      "city": "VALMAIOR",
      "lon": "-8.436381581343111",
      "lat": "40.690374040433504"
    },
    {
      "id": "pt.ine.add.PTCONT.128267",
      "street": "R AREEIROS",
      "house": "6",
      "postcode": "3850-829",
      "city": "VALMAIOR",
      "lon": "-8.436202905682274",
      "lat": "40.692715835585375"
    },
    {
      "id": "pt.ine.add.PTCONT.130706",
      "street": "R BOUCA",
      "house": "",
      "postcode": "3850-829",
      "city": "VALMAIOR",
      "lon": "-8.4372148173255",
      "lat": "40.68889501182582"
    },
    {
      "id": "pt.ine.add.PTCONT.130705",
      "street": "R AREEIROS",
      "house": "",
      "postcode": "3850-829",
      "city": "VALMAIOR",
      "lon": "-8.436611627278541",
      "lat": "40.69153509389437"
    },
    {
      "id": "pt.ine.add.PTCONT.134204",
      "street": "R BOUCA",
      "house": "",
      "postcode": "3850-829",
      "city": "VALMAIOR",
      "lon": "-8.436437466065495",
      "lat": "40.689653485450066"
    },
    {
      "id": "pt.ine.add.PTCONT.146413",
      "street": "R AREEIROS",
      "house": "CASA 3",
      "postcode": "3850-829",
      "city": "VALMAIOR",
      "lon": "-8.436306851128554",
      "lat": "40.692157246550444"
    },
    {
      "id": "pt.ine.add.PTCONT.155400",
      "street": "R BOUCA",
      "house": "",
      "postcode": "3850-829",
      "city": "VALMAIOR",
      "lon": "-8.437119358725694",
      "lat": "40.68871516114858"
    },
    {
      "id": "pt.ine.add.PTCONT.176652",
      "street": "R CABECO",
      "house": "628",
      "postcode": "3850-835",
      "city": "VALMAIOR",
      "lon": "-8.43643663848114",
      "lat": "40.68686190511575"
    },
    {
      "id": "pt.ine.add.PTCONT.208515",
      "street": "R BOUCA",
      "house": "",
      "postcode": "3850-829",
      "city": "VALMAIOR",
      "lon": "-8.436816153559494",
      "lat": "40.68967950520885"
    },
    {
      "id": "pt.ine.add.PTCONT.216947",
      "street": "R BOUCA",
      "house": "",
      "postcode": "3850-829",
      "city": "VALMAIOR",
      "lon": "-8.436341845178655",
      "lat": "40.689437614166984"
    },
    {
      "id": "pt.ine.add.PTCONT.236015",
      "street": "R CABECO",
      "house": "643",
      "postcode": "3850-835",
      "city": "VALMAIOR",
      "lon": "-8.436259968901066",
      "lat": "40.687033466169424"
    },
    {
      "id": "pt.ine.add.PTCONT.238627",
      "street": "R BOUCA",
      "house": "",
      "postcode": "3850-829",
      "city": "VALMAIOR",
      "lon": "-8.438012517863749",
      "lat": "40.69000954065124"
    },
    {
      "id": "pt.ine.add.PTCONT.244119",
      "street": "R BOUCA",
      "house": "",
      "postcode": "3850-829",
      "city": "VALMAIOR",
      "lon": "-8.437071465953116",
      "lat": "40.688589215791495"
    },
    {
      "id": "pt.ine.add.PTCONT.248568",
      "street": "R LOMBINHA",
      "house": "",
      "postcode": "3850-829",
      "city": "VALMAIOR",
      "lon": "-8.436269803444771",
      "lat": "40.68920367067638"
    },
    {
      "id": "pt.ine.add.PTCONT.256818",
      "street": "R BOUCA",
      "house": "",
      "postcode": "3850-829",
      "city": "VALMAIOR",
      "lon": "-8.437889620570028",
      "lat": "40.68900129364562"
    },
    {
      "id": "pt.ine.add.PTCONT.261152",
      "street": "R LOMBINHA",
      "house": "",
      "postcode": "3850-829",
      "city": "VALMAIOR",
      "lon": "-8.435974296250325",
      "lat": "40.68925847687557"
    },
    {
      "id": "pt.ine.add.PTCONT.268386",
      "street": "R BOUCA",
      "house": "",
      "postcode": "3850-829",
      "city": "VALMAIOR",
      "lon": "-8.438032278775324",
      "lat": "40.6891540037151"
    },
    {
      "id": "pt.ine.add.PTCONT.277138",
      "street": "EN 16",
      "house": "",
      "postcode": "3850-829",
      "city": "VALMAIOR",
      "lon": "-8.435886717042433",
      "lat": "40.68820510939697"
    },
    {
      "id": "pt.ine.add.PTCONT.287006",
      "street": "EN 16",
      "house": "",
      "postcode": "3850-829",
      "city": "VALMAIOR",
      "lon": "-8.436049277231906",
      "lat": "40.68752930005141"
    }
  ]
}