{
  "data": {
    "distrito": "Lisboa",
    "concelho": "Alenquer",
    "freguesia": "União das freguesias de Carregado e Cadafais",
    "OBJECTID": 329,
    "BGRI2021": "11012001013",
    "DT21": "11",
    "DTMN21": "1101",
    "DTMNFR21": "110120",
    "DTMNFRSEC21": "110120010",
    "SECNUM21": "010",
    "SSNUM21": "13",
    "SECSSNUM21": "01013",
    "OBJECTID_1": 99366,
    "DT": "11",
    "CC": "01",
    "fr": "20",
    "SEC": "010",
    "SS": "13"
  },
  "addresses": [
    {
      "id": "pt.ine.add.PTCONT.2313716",
      "street": "R PRINCIPAL",
      "house": "71",
      "postcode": "2580-509",
      "city": "CARREGADO",
      "lon": "-8.987503358079081",
      "lat": "39.02566233921232"
    },
    {
      "id": "pt.ine.add.PTCONT.2350181",
      "street": "R PRINCIPAL",
      "house": "67",
      "postcode": "2580-509",
      "city": "CARREGADO",
      "lon": "-8.987433752563081",
      "lat": "39.025635826519434"
    },
    {
      "id": "pt.ine.add.PTCONT.2386392",
      "street": "R QUINTA DO VISCONDE",
      "house": "",
      "postcode": "2580-132",
      "city": "CADAFAIS",
      "lon": "-9.001072121658636",
      "lat": "39.02473347342517"
    },
    {
      "id": "pt.ine.add.PTCONT.2492023",
      "street": "R PRINCIPAL",
      "house": "75",
      "postcode": "2580-509",
      "city": "CARREGADO",
      "lon": "-8.987607820669867",
      "lat": "39.02570661152679"
    },
    {
      "id": "pt.ine.add.PTCONT.2640961",
      "street": "R PRINCIPAL",
      "house": "63",
      "postcode": "2580-509",
      "city": "CARREGADO",
      "lon": "-8.987271339892406",
      "lat": "39.0255739634051"
    },
    {
      "id": "pt.ine.add.PTCONT.2674837",
      "street": "R PRINCIPAL",
      "house": "59",
      "postcode": "2580-509",
      "city": "CARREGADO",
      "lon": "-8.987189971081468",
      "lat": "39.02552952169678"
    },
    {
      "id": "pt.ine.add.PTCONT.2701218",
      "street": "CSL FONTAÍNHAS",
      "house": "",
      "postcode": "2580-591",
      "city": "CARREGADO",
      "lon": "-8.994438560830856",
      "lat": "39.02810641186929"
    },
    {
      "id": "pt.ine.add.PTCONT.2701844",
      "street": "R LUIS DE CAMÕES CASAL DA ALAGOA",
      "house": "",
      "postcode": "2580-508",
      "city": "CARREGADO",
      "lon": "-8.992121084174459",
      "lat": "39.02841174162018"
    },
    {
      "id": "pt.ine.add.PTCONT.2908227",
      "street": "QTA CESAR",
      "house": "",
      "postcode": "2580-132",
      "city": "CADAFAIS",
      "lon": "-8.991650798529422",
      "lat": "39.023902446337694"
    },
    {
      "id": "pt.ine.add.PTCONT.2908228",
      "street": "QTA CESAR",
      "house": "",
      "postcode": "2580-132",
      "city": "CADAFAIS",
      "lon": "-8.991650798529422",
      "lat": "39.023902446337694"
    },
    {
      "id": "pt.ine.add.PTCONT.2915245",
      "street": "QTA CESAR",
      "house": "",
      "postcode": "2580-132",
      "city": "CADAFAIS",
      "lon": "-8.991650798529422",
      "lat": "39.023902446337694"
    },
    {
      "id": "pt.ine.add.PTCONT.2954153",
      "street": "R QUINTA DO VISC CASAL S CRISTÓVÃO",
      "house": "",
      "postcode": "2580-132",
      "city": "CADAFAIS",
      "lon": "-8.995832837064068",
      "lat": "39.02310595326713"
    },
    {
      "id": "pt.ine.add.PTCONT.2961060",
      "street": "R ESCOLA",
      "house": "2",
      "postcode": "2580-509",
      "city": "CARREGADO",
      "lon": "-8.987097272439794",
      "lat": "39.0255031778866"
    },
    {
      "id": "pt.ine.add.PTCONT.3120236",
      "street": "R PRINCIPAL",
      "house": "65",
      "postcode": "2580-509",
      "city": "CARREGADO",
      "lon": "-8.98734094528841",
      "lat": "39.025600476196544"
    },
    {
      "id": "pt.ine.add.PTCONT.3268454",
      "street": "R ESCOLA",
      "house": "4",
      "postcode": "2580-509",
      "city": "CARREGADO",
      "lon": "-8.987141725090467",
      "lat": "39.02535873237217"
    },
    {
      "id": "pt.ine.add.PTCONT.3424196",
      "street": "R GRECIA",
      "house": "",
      "postcode": "2580-132",
      "city": "CADAFAIS",
      "lon": "-8.9954991455732",
      "lat": "39.02225270789735"
    }
  ]
}