{
  "data": {
    "distrito": "Lisboa",
    "concelho": "Alenquer",
    "freguesia": "União das freguesias de Abrigada e Cabanas de Torres",
    "OBJECTID": 536,
    "BGRI2021": "11011700425",
    "DT21": "11",
    "DTMN21": "1101",
    "DTMNFR21": "110117",
    "DTMNFRSEC21": "110117004",
    "SECNUM21": "004",
    "SSNUM21": "25",
    "SECSSNUM21": "00425",
    "OBJECTID_1": 99028,
    "DT": "11",
    "CC": "01",
    "fr": "17",
    "SEC": "004",
    "SS": "25"
  },
  "addresses": [
    {
      "id": "pt.ine.add.PTCONT.2304467",
      "street": "R LIBERDADE",
      "house": "",
      "postcode": "2580-030",
      "city": "ABRIGADA",
      "lon": "-9.02525896586273",
      "lat": "39.14999692855337"
    },
    {
      "id": "pt.ine.add.PTCONT.2329628",
      "street": "R LIBERDADE",
      "house": "4",
      "postcode": "2580-030",
      "city": "ABRIGADA",
      "lon": "-9.023084602167335",
      "lat": "39.14635658969832"
    },
    {
      "id": "pt.ine.add.PTCONT.2331614",
      "street": "",
      "house": "",
      "postcode": "2580-030",
      "city": "ABRIGADA",
      "lon": "-9.027354811137227",
      "lat": "39.15472770821571"
    },
    {
      "id": "pt.ine.add.PTCONT.2347178",
      "street": "",
      "house": "",
      "postcode": "2580-270",
      "city": "ABRIGADA",
      "lon": "-9.04898875465934",
      "lat": "39.16010817232817"
    },
    {
      "id": "pt.ine.add.PTCONT.2349961",
      "street": "R LIBERDADE",
      "house": "6A",
      "postcode": "2580-030",
      "city": "ABRIGADA",
      "lon": "-9.023274541371237",
      "lat": "39.14674245310256"
    },
    {
      "id": "pt.ine.add.PTCONT.2374628",
      "street": "R LIBERDADE",
      "house": "36",
      "postcode": "2580-030",
      "city": "ABRIGADA",
      "lon": "-9.024482576554336",
      "lat": "39.148057293015206"
    },
    {
      "id": "pt.ine.add.PTCONT.2395803",
      "street": "",
      "house": "",
      "postcode": "2580-063",
      "city": "ABRIGADA",
      "lon": "-9.039195248236071",
      "lat": "39.16598541398168"
    },
    {
      "id": "pt.ine.add.PTCONT.2405363",
      "street": "LG 25 DE ABRIL",
      "house": "9",
      "postcode": "2580-003",
      "city": "ABRIGADA",
      "lon": "-9.02148811338074",
      "lat": "39.14634174825721"
    },
    {
      "id": "pt.ine.add.PTCONT.2414167",
      "street": "LG 25 DE ABRIL",
      "house": "5",
      "postcode": "2580-003",
      "city": "ABRIGADA",
      "lon": "-9.021629626787094",
      "lat": "39.146556844742946"
    },
    {
      "id": "pt.ine.add.PTCONT.2414168",
      "street": "LG 25 DE ABRIL",
      "house": "5",
      "postcode": "2580-003",
      "city": "ABRIGADA",
      "lon": "-9.021629626787094",
      "lat": "39.146556844742946"
    },
    {
      "id": "pt.ine.add.PTCONT.2423496",
      "street": "R FRANCISCO GORJÃO HENRIQUES",
      "house": "",
      "postcode": "2580-023",
      "city": "ABRIGADA",
      "lon": "-9.023440609107366",
      "lat": "39.15257791348102"
    },
    {
      "id": "pt.ine.add.PTCONT.2460329",
      "street": "R LIBERDADE",
      "house": "10",
      "postcode": "2580-030",
      "city": "ABRIGADA",
      "lon": "-9.023106377393752",
      "lat": "39.14716708061743"
    },
    {
      "id": "pt.ine.add.PTCONT.2477045",
      "street": "",
      "house": "",
      "postcode": "2580-030",
      "city": "ABRIGADA",
      "lon": "-9.025771026310172",
      "lat": "39.153902172685086"
    },
    {
      "id": "pt.ine.add.PTCONT.2491379",
      "street": "R LIBERDADE",
      "house": "28",
      "postcode": "2580-030",
      "city": "ABRIGADA",
      "lon": "-9.023976584378381",
      "lat": "39.14737660715592"
    },
    {
      "id": "pt.ine.add.PTCONT.2498292",
      "street": "R LIBERDADE",
      "house": "21",
      "postcode": "2580-030",
      "city": "ABRIGADA",
      "lon": "-9.02391784377272",
      "lat": "39.14730499775206"
    },
    {
      "id": "pt.ine.add.PTCONT.2498293",
      "street": "R LIBERDADE",
      "house": "30",
      "postcode": "2580-030",
      "city": "ABRIGADA",
      "lon": "-9.024083180832795",
      "lat": "39.147573952889154"
    },
    {
      "id": "pt.ine.add.PTCONT.2513640",
      "street": "",
      "house": "",
      "postcode": "2580-070",
      "city": "ABRIGADA",
      "lon": "-9.049862935609076",
      "lat": "39.16060570547285"
    },
    {
      "id": "pt.ine.add.PTCONT.2513644",
      "street": "R LIBERDADE",
      "house": "24",
      "postcode": "2580-030",
      "city": "ABRIGADA",
      "lon": "-9.023871010320223",
      "lat": "39.147260319212755"
    },
    {
      "id": "pt.ine.add.PTCONT.2531799",
      "street": "R LIBERDADE",
      "house": "2A",
      "postcode": "2580-030",
      "city": "ABRIGADA",
      "lon": "-9.02175289234987",
      "lat": "39.146240649289254"
    },
    {
      "id": "pt.ine.add.PTCONT.2585942",
      "street": "R FRANCISCO PINHEIRO GORJÃO",
      "house": "",
      "postcode": "2580-023",
      "city": "ABRIGADA",
      "lon": "-9.023691696952021",
      "lat": "39.153224520029035"
    },
    {
      "id": "pt.ine.add.PTCONT.2595882",
      "street": "",
      "house": "",
      "postcode": "2580-063",
      "city": "ABRIGADA",
      "lon": "-9.037693262829535",
      "lat": "39.167059940608674"
    },
    {
      "id": "pt.ine.add.PTCONT.2630693",
      "street": "R LIBERDADE",
      "house": "16",
      "postcode": "2580-030",
      "city": "ABRIGADA",
      "lon": "-9.02361280315037",
      "lat": "39.146965051502534"
    },
    {
      "id": "pt.ine.add.PTCONT.2665951",
      "street": "R LIBERDADE",
      "house": "22",
      "postcode": "2580-030",
      "city": "ABRIGADA",
      "lon": "-9.023812383444405",
      "lat": "39.147197716185524"
    },
    {
      "id": "pt.ine.add.PTCONT.2709971",
      "street": "",
      "house": "",
      "postcode": "2580-270",
      "city": "ABRIGADA",
      "lon": "-9.04693003348625",
      "lat": "39.16016036366123"
    },
    {
      "id": "pt.ine.add.PTCONT.2709972",
      "street": "",
      "house": "",
      "postcode": "2580-270",
      "city": "ABRIGADA",
      "lon": "-9.04693003348625",
      "lat": "39.16016036366123"
    },
    {
      "id": "pt.ine.add.PTCONT.2737156",
      "street": "R LIBERDADE",
      "house": "20",
      "postcode": "2580-030",
      "city": "ABRIGADA",
      "lon": "-9.023776889512288",
      "lat": "39.1471349363395"
    },
    {
      "id": "pt.ine.add.PTCONT.2737157",
      "street": "R LIBERDADE",
      "house": "",
      "postcode": "2580-030",
      "city": "ABRIGADA",
      "lon": "-9.02503541371075",
      "lat": "39.14878265454514"
    },
    {
      "id": "pt.ine.add.PTCONT.2760151",
      "street": "R LIBERDADE",
      "house": "18",
      "postcode": "2580-030",
      "city": "ABRIGADA",
      "lon": "-9.02372971572072",
      "lat": "39.14706323843788"
    },
    {
      "id": "pt.ine.add.PTCONT.2760152",
      "street": "R LIBERDADE",
      "house": "32",
      "postcode": "2580-030",
      "city": "ABRIGADA",
      "lon": "-9.024236271143428",
      "lat": "39.14778895761743"
    },
    {
      "id": "pt.ine.add.PTCONT.2760153",
      "street": "R LIBERDADE",
      "house": "44",
      "postcode": "2580-030",
      "city": "ABRIGADA",
      "lon": "-9.025585418310419",
      "lat": "39.14928285258447"
    },
    {
      "id": "pt.ine.add.PTCONT.2805397",
      "street": "R LIBERDADE",
      "house": "38",
      "postcode": "2580-030",
      "city": "ABRIGADA",
      "lon": "-9.02461446767864",
      "lat": "39.14842558344512"
    },
    {
      "id": "pt.ine.add.PTCONT.2851233",
      "street": "R LIBERDADE",
      "house": "12",
      "postcode": "2580-030",
      "city": "ABRIGADA",
      "lon": "-9.023463120923402",
      "lat": "39.14702023893175"
    },
    {
      "id": "pt.ine.add.PTCONT.2891121",
      "street": "",
      "house": "",
      "postcode": "2580-656",
      "city": "ABRIGADA",
      "lon": "-9.02646265310657",
      "lat": "39.150960495673374"
    },
    {
      "id": "pt.ine.add.PTCONT.2926158",
      "street": "",
      "house": "",
      "postcode": "2580-063",
      "city": "ABRIGADA",
      "lon": "-9.039632922068055",
      "lat": "39.16582888642092"
    },
    {
      "id": "pt.ine.add.PTCONT.3006321",
      "street": "",
      "house": "",
      "postcode": "2580-270",
      "city": "ABRIGADA",
      "lon": "-9.051766523446767",
      "lat": "39.15040348696032"
    },
    {
      "id": "pt.ine.add.PTCONT.3008422",
      "street": "R CURRAIS",
      "house": "",
      "postcode": "2580-030",
      "city": "ABRIGADA",
      "lon": "-9.0242757481697",
      "lat": "39.15367041984254"
    },
    {
      "id": "pt.ine.add.PTCONT.3083526",
      "street": "R CARDELAS",
      "house": "2",
      "postcode": "2580-030",
      "city": "ABRIGADA",
      "lon": "-9.024799751112923",
      "lat": "39.15577411732813"
    },
    {
      "id": "pt.ine.add.PTCONT.3149013",
      "street": "LG 25 DE ABRIL",
      "house": "2",
      "postcode": "2580-003",
      "city": "ABRIGADA",
      "lon": "-9.0217348563479",
      "lat": "39.14664611546666"
    },
    {
      "id": "pt.ine.add.PTCONT.3219890",
      "street": "R LIBERDADE",
      "house": "8",
      "postcode": "2580-030",
      "city": "ABRIGADA",
      "lon": "-9.023495663938816",
      "lat": "39.1468488515746"
    },
    {
      "id": "pt.ine.add.PTCONT.3260121",
      "street": "R LIBERDADE",
      "house": "36",
      "postcode": "2580-030",
      "city": "ABRIGADA",
      "lon": "-9.024412495514138",
      "lat": "39.14800378520911"
    },
    {
      "id": "pt.ine.add.PTCONT.3265564",
      "street": "R LIBERDADE",
      "house": "36",
      "postcode": "2580-030",
      "city": "ABRIGADA",
      "lon": "-9.024412495514138",
      "lat": "39.14800378520911"
    },
    {
      "id": "pt.ine.add.PTCONT.3286483",
      "street": "R LIBERDADE",
      "house": "46",
      "postcode": "2580-030",
      "city": "ABRIGADA",
      "lon": "-9.025819712137189",
      "lat": "39.14951524784514"
    },
    {
      "id": "pt.ine.add.PTCONT.3314422",
      "street": "R FRANCISCO PINHEIRO GORJÃO",
      "house": "1",
      "postcode": "2580-023",
      "city": "ABRIGADA",
      "lon": "-9.021770914538102",
      "lat": "39.14675392816043"
    },
    {
      "id": "pt.ine.add.PTCONT.3415228",
      "street": "LG 25 DE ABRIL",
      "house": "9",
      "postcode": "2580-003",
      "city": "ABRIGADA",
      "lon": "-9.021570209817062",
      "lat": "39.14643119546915"
    },
    {
      "id": "pt.ine.add.PTCONT.3415229",
      "street": "R LIBERDADE",
      "house": "42",
      "postcode": "2580-030",
      "city": "ABRIGADA",
      "lon": "-9.025373690829854",
      "lat": "39.149005247579176"
    },
    {
      "id": "pt.ine.add.PTCONT.3457466",
      "street": "R LIBERDADE",
      "house": "6",
      "postcode": "2580-030",
      "city": "ABRIGADA",
      "lon": "-9.02315558806503",
      "lat": "39.14648214983975"
    }
  ]
}