{
  "data": {
    "distrito": "Lisboa",
    "concelho": "Mafra",
    "freguesia": "União das freguesias de Venda do Pinheiro e Santo Estêvão das Galés",
    "OBJECTID": 712,
    "BGRI2021": "11092200749",
    "DT21": "11",
    "DTMN21": "1109",
    "DTMNFR21": "110922",
    "DTMNFRSEC21": "110922007",
    "SECNUM21": "007",
    "SSNUM21": "49",
    "SECSSNUM21": "00749",
    "OBJECTID_1": 108805,
    "DT": "11",
    "CC": "09",
    "fr": "22",
    "SEC": "007",
    "SS": "49"
  },
  "addresses": [
    {
      "id": "pt.ine.add.PTCONT.2324864",
      "street": "R CAMPO DO RIO",
      "house": "9",
      "postcode": "2665-415",
      "city": "SANTO ESTEVÃO DAS GALÉS",
      "lon": "-9.258070213473768",
      "lat": "38.907864297143256"
    },
    {
      "id": "pt.ine.add.PTCONT.2334992",
      "street": "TV BECO",
      "house": "6",
      "postcode": "2665-415",
      "city": "SANTO ESTEVÃO DAS GALÉS",
      "lon": "-9.258624061999392",
      "lat": "38.9078949888148"
    },
    {
      "id": "pt.ine.add.PTCONT.2369390",
      "street": "R CAMPO DO RIO",
      "house": "8",
      "postcode": "2665-415",
      "city": "SANTO ESTEVÃO DAS GALÉS",
      "lon": "-9.258531564256167",
      "lat": "38.90787786551476"
    },
    {
      "id": "pt.ine.add.PTCONT.2381550",
      "street": "R 25 DE ABRIL",
      "house": "8",
      "postcode": "2665-415",
      "city": "SANTO ESTEVÃO DAS GALÉS",
      "lon": "-9.259043576545176",
      "lat": "38.90744957476099"
    },
    {
      "id": "pt.ine.add.PTCONT.2494183",
      "street": "R BAIXO",
      "house": "",
      "postcode": "2665-415",
      "city": "SANTO ESTEVÃO DAS GALÉS",
      "lon": "-9.25887821761742",
      "lat": "38.90792856828003"
    },
    {
      "id": "pt.ine.add.PTCONT.2713712",
      "street": "R CAMPO DO RIO",
      "house": "12",
      "postcode": "2665-415",
      "city": "SANTO ESTEVÃO DAS GALÉS",
      "lon": "-9.258437786683015",
      "lat": "38.90777968675729"
    },
    {
      "id": "pt.ine.add.PTCONT.2935724",
      "street": "R CAMPO DO RIO",
      "house": "",
      "postcode": "2665-415",
      "city": "SANTO ESTEVÃO DAS GALÉS",
      "lon": "-9.25712218631887",
      "lat": "38.90769327836284"
    },
    {
      "id": "pt.ine.add.PTCONT.3068870",
      "street": "R BAIXO",
      "house": "3",
      "postcode": "2665-415",
      "city": "SANTO ESTEVÃO DAS GALÉS",
      "lon": "-9.258571981908895",
      "lat": "38.907517174881534"
    },
    {
      "id": "pt.ine.add.PTCONT.3371909",
      "street": "R 25 DE ABRIL",
      "house": "4",
      "postcode": "2665-415",
      "city": "SANTO ESTEVÃO DAS GALÉS",
      "lon": "-9.258959618171323",
      "lat": "38.907243211413196"
    }
  ]
}