{
  "data": {
    "distrito": "Faro",
    "concelho": "Loul√©",
    "freguesia": "Quarteira",
    "OBJECTID": 1492,
    "BGRI2021": "08080502706",
    "DT21": "08",
    "DTMN21": "0808",
    "DTMNFR21": "080805",
    "DTMNFRSEC21": "080805027",
    "SECNUM21": "027",
    "SSNUM21": "06",
    "SECSSNUM21": "02706",
    "OBJECTID_1": 68839,
    "DT": "08",
    "CC": "08",
    "fr": "05",
    "SEC": "027",
    "SS": "06"
  },
  "addresses": [
    {
      "id": "pt.ine.add.PTCONT.1493729",
      "street": "CAM PINHAIS",
      "house": "7",
      "postcode": "8125-427",
      "city": "QUARTEIRA",
      "lon": "-8.117619341892473",
      "lat": "37.09411000872801"
    },
    {
      "id": "pt.ine.add.PTCONT.1505430",
      "street": "VOLTA DO MEIO-DIA",
      "house": "40",
      "postcode": "8125-549",
      "city": "QUARTEIRA",
      "lon": "-8.116696925898921",
      "lat": "37.09434416235501"
    },
    {
      "id": "pt.ine.add.PTCONT.1543160",
      "street": "CAM MIRADOURO CASA DOS PINHOES",
      "house": "30",
      "postcode": "8125-424",
      "city": "QUARTEIRA",
      "lon": "-8.115628212566564",
      "lat": "37.09484860771363"
    },
    {
      "id": "pt.ine.add.PTCONT.1545691",
      "street": "VOLTA DO MEIO-DIA",
      "house": "34",
      "postcode": "8125-549",
      "city": "QUARTEIRA",
      "lon": "-8.116168303533927",
      "lat": "37.09410981033034"
    },
    {
      "id": "pt.ine.add.PTCONT.1561092",
      "street": "VOLTA DO MEIO-DIA",
      "house": "36",
      "postcode": "8125-549",
      "city": "QUARTEIRA",
      "lon": "-8.116314647536052",
      "lat": "37.093587211646366"
    },
    {
      "id": "pt.ine.add.PTCONT.1563514",
      "street": "CAM MIRADOURO",
      "house": "31",
      "postcode": "8125-424",
      "city": "QUARTEIRA",
      "lon": "-8.116044407921663",
      "lat": "37.09483965765155"
    },
    {
      "id": "pt.ine.add.PTCONT.1566545",
      "street": "VOLTA DO OCASO CASA AMORET",
      "house": "19",
      "postcode": "8125-536",
      "city": "QUARTEIRA",
      "lon": "-8.115043551027217",
      "lat": "37.09375822777667"
    },
    {
      "id": "pt.ine.add.PTCONT.1574868",
      "street": "VOLTA DO OCASO",
      "house": "22",
      "postcode": "8125-536",
      "city": "QUARTEIRA",
      "lon": "-8.11575210190945",
      "lat": "37.09416381423062"
    },
    {
      "id": "pt.ine.add.PTCONT.1574869",
      "street": "CAM PINHAIS",
      "house": "8",
      "postcode": "8125-427",
      "city": "QUARTEIRA",
      "lon": "-8.11765316017",
      "lat": "37.09374958590429"
    },
    {
      "id": "pt.ine.add.PTCONT.1592511",
      "street": "CAM MIRADOURO VILA GOLFINHO",
      "house": "",
      "postcode": "8125-424",
      "city": "QUARTEIRA",
      "lon": "-8.116730541150261",
      "lat": "37.09494788254856"
    },
    {
      "id": "pt.ine.add.PTCONT.1592519",
      "street": "VOLTA DO OCASO",
      "house": "24",
      "postcode": "8125-536",
      "city": "QUARTEIRA",
      "lon": "-8.115043448356243",
      "lat": "37.0941907404393"
    },
    {
      "id": "pt.ine.add.PTCONT.1598346",
      "street": "VOLTA DO OCASO",
      "house": "25",
      "postcode": "8125-536",
      "city": "QUARTEIRA",
      "lon": "-8.114661043052726",
      "lat": "37.094028489319875"
    },
    {
      "id": "pt.ine.add.PTCONT.1607827",
      "street": "VOLTA DO OCASO",
      "house": "20",
      "postcode": "8125-536",
      "city": "QUARTEIRA",
      "lon": "-8.115392254846283",
      "lat": "37.09373124833857"
    },
    {
      "id": "pt.ine.add.PTCONT.1612289",
      "street": "VOLTA DO MEIO-DIA",
      "house": "32",
      "postcode": "8125-549",
      "city": "QUARTEIRA",
      "lon": "-8.116089454185339",
      "lat": "37.094605386453324"
    },
    {
      "id": "pt.ine.add.PTCONT.1617773",
      "street": "VOLTA MEIO DIA",
      "house": "41",
      "postcode": "8125-549",
      "city": "QUARTEIRA",
      "lon": "-8.116651864122963",
      "lat": "37.09465952991092"
    },
    {
      "id": "pt.ine.add.PTCONT.1617774",
      "street": "CAM PINHAIS",
      "house": "6",
      "postcode": "8125-427",
      "city": "QUARTEIRA",
      "lon": "-8.11746181113374",
      "lat": "37.094371297780505"
    },
    {
      "id": "pt.ine.add.PTCONT.1621320",
      "street": "CAM PINHAIS",
      "house": "17",
      "postcode": "8125-427",
      "city": "QUARTEIRA",
      "lon": "-8.114616196364635",
      "lat": "37.09342476669693"
    },
    {
      "id": "pt.ine.add.PTCONT.1623751",
      "street": "CAM PINHAIS VILA DON ROSA",
      "house": "10",
      "postcode": "8125-427",
      "city": "QUARTEIRA",
      "lon": "-8.117282089744133",
      "lat": "37.093154831977174"
    },
    {
      "id": "pt.ine.add.PTCONT.1633241",
      "street": "VOLTA DO OCASO",
      "house": "23",
      "postcode": "8125-536",
      "city": "QUARTEIRA",
      "lon": "-8.115392133180109",
      "lat": "37.094253867805286"
    },
    {
      "id": "pt.ine.add.PTCONT.1679333",
      "street": "CAM MIRADOURO",
      "house": "27",
      "postcode": "8125-424",
      "city": "QUARTEIRA",
      "lon": "-8.11460466985934",
      "lat": "37.094569121355114"
    },
    {
      "id": "pt.ine.add.PTCONT.1688932",
      "street": "CAM PINHAIS",
      "house": "9",
      "postcode": "8125-427",
      "city": "QUARTEIRA",
      "lon": "-8.117484502175245",
      "lat": "37.09342517927304"
    },
    {
      "id": "pt.ine.add.PTCONT.1696531",
      "street": "VOLTA DO OCASO CASA MIRANDA",
      "house": "18",
      "postcode": "8125-536",
      "city": "QUARTEIRA",
      "lon": "-8.114649853716363",
      "lat": "37.09378519919462"
    },
    {
      "id": "pt.ine.add.PTCONT.1713484",
      "street": "VOLTA DO MEIO-DIA",
      "house": "37",
      "postcode": "8125-549",
      "city": "QUARTEIRA",
      "lon": "-8.116652117432015",
      "lat": "37.09348814145942"
    },
    {
      "id": "pt.ine.add.PTCONT.1713485",
      "street": "CAM MIRADOURO",
      "house": "26",
      "postcode": "8125-424",
      "city": "QUARTEIRA",
      "lon": "-8.11464973350835",
      "lat": "37.09428078661454"
    },
    {
      "id": "pt.ine.add.PTCONT.1721730",
      "street": "CAM PINHAIS VILA ROYALE",
      "house": "12",
      "postcode": "8125-427",
      "city": "QUARTEIRA",
      "lon": "-8.116787258967872",
      "lat": "37.09273126283588"
    },
    {
      "id": "pt.ine.add.PTCONT.1763019",
      "street": "CAM MIRADOURO",
      "house": "28",
      "postcode": "8125-424",
      "city": "QUARTEIRA",
      "lon": "-8.11484084573138",
      "lat": "37.09474036088632"
    },
    {
      "id": "pt.ine.add.PTCONT.1775816",
      "street": "VOLTA DO OCASO KING VILLA",
      "house": "21",
      "postcode": "8125-536",
      "city": "QUARTEIRA",
      "lon": "-8.11572969159977",
      "lat": "37.09378536235478"
    },
    {
      "id": "pt.ine.add.PTCONT.1781959",
      "street": "VOLTA DO MEIO-DIA",
      "house": "35",
      "postcode": "8125-549",
      "city": "QUARTEIRA",
      "lon": "-8.116213368987806",
      "lat": "37.093785432248474"
    },
    {
      "id": "pt.ine.add.PTCONT.1781960",
      "street": "VOLTA DO MEIO-DIA",
      "house": "29",
      "postcode": "8125-549",
      "city": "QUARTEIRA",
      "lon": "-8.11522326134842",
      "lat": "37.09487557937022"
    },
    {
      "id": "pt.ine.add.PTCONT.1781961",
      "street": "CAM PINHAIS",
      "house": "4",
      "postcode": "8125-427",
      "city": "QUARTEIRA",
      "lon": "-8.117360512152853",
      "lat": "37.09467764749161"
    },
    {
      "id": "pt.ine.add.PTCONT.1790518",
      "street": "CAM MIRADOURO",
      "house": "1",
      "postcode": "8125-424",
      "city": "QUARTEIRA",
      "lon": "-8.117112980110317",
      "lat": "37.09499298814557"
    },
    {
      "id": "pt.ine.add.PTCONT.1790519",
      "street": "VOLTA DO MEIO-DIA",
      "house": "33",
      "postcode": "8125-549",
      "city": "QUARTEIRA",
      "lon": "-8.116123255795772",
      "lat": "37.09435309225824"
    },
    {
      "id": "pt.ine.add.PTCONT.1796711",
      "street": "VOLTA DO MEIO-DIA",
      "house": "38",
      "postcode": "8125-549",
      "city": "QUARTEIRA",
      "lon": "-8.116865755663078",
      "lat": "37.093857608845056"
    },
    {
      "id": "pt.ine.add.PTCONT.1802454",
      "street": "CAM PINHAIS",
      "house": "16",
      "postcode": "8125-427",
      "city": "QUARTEIRA",
      "lon": "-8.115088648802985",
      "lat": "37.093316711246146"
    },
    {
      "id": "pt.ine.add.PTCONT.1808205",
      "street": "CAM PINHAIS CASA VILAMOURA",
      "house": "14",
      "postcode": "8125-427",
      "city": "QUARTEIRA",
      "lon": "-8.115696119846273",
      "lat": "37.09302846017"
    },
    {
      "id": "pt.ine.add.PTCONT.1813926",
      "street": "CAM PINHAIS",
      "house": "13",
      "postcode": "8125-427",
      "city": "QUARTEIRA",
      "lon": "-8.116382301602721",
      "lat": "37.092839334603816"
    },
    {
      "id": "pt.ine.add.PTCONT.1838878",
      "street": "VOLTA DO MEIO-DIA",
      "house": "39",
      "postcode": "8125-549",
      "city": "QUARTEIRA",
      "lon": "-8.116843207020164",
      "lat": "37.0941008941365"
    },
    {
      "id": "pt.ine.add.PTCONT.1845898",
      "street": "CAM PINHAIS",
      "house": "11",
      "postcode": "8125-427",
      "city": "QUARTEIRA",
      "lon": "-8.11704592470711",
      "lat": "37.092929533169055"
    }
  ]
}