{
  "data": {
    "distrito": "Braga",
    "concelho": "Vieira do Minho",
    "freguesia": "Vieira do Minho",
    "OBJECTID": 32,
    "BGRI2021": "03112000113",
    "DT21": "03",
    "DTMN21": "0311",
    "DTMNFR21": "031120",
    "DTMNFRSEC21": "031120001",
    "SECNUM21": "001",
    "SSNUM21": "13",
    "SECSSNUM21": "00113",
    "OBJECTID_1": 29858,
    "DT": "03",
    "CC": "11",
    "fr": "20",
    "SEC": "001",
    "SS": "13"
  },
  "addresses": [
    {
      "id": "pt.ine.add.PTCONT.466539",
      "street": "R DAS EIRAS",
      "house": "242",
      "postcode": "4850-545",
      "city": "VIEIRA DO MINHO",
      "lon": "-8.152006697621177",
      "lat": "41.62101445905199"
    },
    {
      "id": "pt.ine.add.PTCONT.514173",
      "street": "",
      "house": "",
      "postcode": "4850-545",
      "city": "VIEIRA DO MINHO",
      "lon": "-8.151766695046433",
      "lat": "41.62093346530512"
    },
    {
      "id": "pt.ine.add.PTCONT.575158",
      "street": "",
      "house": "",
      "postcode": "4850-545",
      "city": "VIEIRA DO MINHO",
      "lon": "-8.149318853703305",
      "lat": "41.62070874499992"
    },
    {
      "id": "pt.ine.add.PTCONT.594473",
      "street": "",
      "house": "",
      "postcode": "4850-545",
      "city": "VIEIRA DO MINHO",
      "lon": "-8.150590474934859",
      "lat": "41.61973616312291"
    },
    {
      "id": "pt.ine.add.PTCONT.623899",
      "street": "R DE FUNDEVILA",
      "house": "359",
      "postcode": "4850-545",
      "city": "VIEIRA DO MINHO",
      "lon": "-8.15049455527329",
      "lat": "41.61999728389369"
    },
    {
      "id": "pt.ine.add.PTCONT.634095",
      "street": "",
      "house": "",
      "postcode": "4850-545",
      "city": "VIEIRA DO MINHO",
      "lon": "-8.153000348654539",
      "lat": "41.622924502426564"
    },
    {
      "id": "pt.ine.add.PTCONT.696795",
      "street": "",
      "house": "",
      "postcode": "4850-545",
      "city": "VIEIRA DO MINHO",
      "lon": "-8.149979044533977",
      "lat": "41.6216720417197"
    },
    {
      "id": "pt.ine.add.PTCONT.709385",
      "street": "R SANGUINHEDO",
      "house": "1187",
      "postcode": "4850-545",
      "city": "VIEIRA DO MINHO",
      "lon": "-8.154286753502225",
      "lat": "41.62178837642261"
    },
    {
      "id": "pt.ine.add.PTCONT.814586",
      "street": "R SANGUINHEDO",
      "house": "281",
      "postcode": "4850-545",
      "city": "VIEIRA DO MINHO",
      "lon": "-8.151335136114342",
      "lat": "41.622365116493974"
    }
  ]
}