{
  "data": {
    "distrito": "Braga",
    "concelho": "Vieira do Minho",
    "freguesia": "Vieira do Minho",
    "OBJECTID": 37,
    "BGRI2021": "03112000132",
    "DT21": "03",
    "DTMN21": "0311",
    "DTMNFR21": "031120",
    "DTMNFRSEC21": "031120001",
    "SECNUM21": "001",
    "SSNUM21": "32",
    "SECSSNUM21": "00132",
    "OBJECTID_1": 29862,
    "DT": "03",
    "CC": "11",
    "fr": "20",
    "SEC": "001",
    "SS": "32"
  },
  "addresses": [
    {
      "id": "pt.ine.add.PTCONT.502256",
      "street": "AV IMACULADA CONCEIÇÃO",
      "house": "711",
      "postcode": "4850-522",
      "city": "VIEIRA DO MINHO",
      "lon": "-8.141292878775811",
      "lat": "41.630928743395266"
    },
    {
      "id": "pt.ine.add.PTCONT.507995",
      "street": "R DR ANTÓNIO LUIS DOS REIS RIBEIRO",
      "house": "2",
      "postcode": "4850-529",
      "city": "VIEIRA DO MINHO",
      "lon": "-8.140261009060985",
      "lat": "41.632729541059625"
    },
    {
      "id": "pt.ine.add.PTCONT.507996",
      "street": "R DR ANTÓNIO LUIS DOS REIS RIBEIRO",
      "house": "2",
      "postcode": "4850-529",
      "city": "VIEIRA DO MINHO",
      "lon": "-8.140261009060985",
      "lat": "41.632729541059625"
    },
    {
      "id": "pt.ine.add.PTCONT.514078",
      "street": "R DR ANTÓNIO LUIS DOS REIS RIBEIRO",
      "house": "248",
      "postcode": "4850-529",
      "city": "VIEIRA DO MINHO",
      "lon": "-8.14105417062994",
      "lat": "41.63083885153827"
    },
    {
      "id": "pt.ine.add.PTCONT.514168",
      "street": "R DR ANTÓNIO LUIS DOS REIS RIBEIRO",
      "house": "248",
      "postcode": "4850-529",
      "city": "VIEIRA DO MINHO",
      "lon": "-8.14105417062994",
      "lat": "41.63083885153827"
    },
    {
      "id": "pt.ine.add.PTCONT.514169",
      "street": "R DR ANTÓNIO LUIS DOS REIS RIBEIRO",
      "house": "",
      "postcode": "4850-529",
      "city": "VIEIRA DO MINHO",
      "lon": "-8.14092354595776",
      "lat": "41.63137748196293"
    },
    {
      "id": "pt.ine.add.PTCONT.549931",
      "street": "R DR ANTÓNIO LUIS DOS REIS RIBEIRO",
      "house": "96",
      "postcode": "4850-529",
      "city": "VIEIRA DO MINHO",
      "lon": "-8.140620965710633",
      "lat": "41.63206324849826"
    },
    {
      "id": "pt.ine.add.PTCONT.549933",
      "street": "R DR ANTÓNIO LUIS DOS REIS RIBEIRO",
      "house": "96",
      "postcode": "4850-529",
      "city": "VIEIRA DO MINHO",
      "lon": "-8.140620965710633",
      "lat": "41.63206324849826"
    },
    {
      "id": "pt.ine.add.PTCONT.573840",
      "street": "R DR ANTÓNIO LUIS DOS REIS RIBEIRO",
      "house": "106",
      "postcode": "4850-529",
      "city": "VIEIRA DO MINHO",
      "lon": "-8.140704949525476",
      "lat": "41.63186516281251"
    },
    {
      "id": "pt.ine.add.PTCONT.575042",
      "street": "R DR ANTÓNIO LUIS DOS REIS RIBEIRO",
      "house": "",
      "postcode": "4850-529",
      "city": "VIEIRA DO MINHO",
      "lon": "-8.140548983463866",
      "lat": "41.63227033698311"
    },
    {
      "id": "pt.ine.add.PTCONT.581352",
      "street": "R DR ANTONIO LUIS DOS REIS RIBEIRO",
      "house": "118",
      "postcode": "4850-529",
      "city": "VIEIRA DO MINHO",
      "lon": "-8.140960837986205",
      "lat": "41.63113425405395"
    },
    {
      "id": "pt.ine.add.PTCONT.581353",
      "street": "R DR ANTONIO LUIS DOS REIS RIBEIRO",
      "house": "118",
      "postcode": "4850-529",
      "city": "VIEIRA DO MINHO",
      "lon": "-8.140960837986205",
      "lat": "41.63113425405395"
    },
    {
      "id": "pt.ine.add.PTCONT.582460",
      "street": "R DR ANTONIO LUIS DOS REIS RIBEIRO",
      "house": "118",
      "postcode": "4850-529",
      "city": "VIEIRA DO MINHO",
      "lon": "-8.140960837986205",
      "lat": "41.63113425405395"
    },
    {
      "id": "pt.ine.add.PTCONT.584518",
      "street": "AV IMACULADA CONCEIÇÃO",
      "house": "619",
      "postcode": "4850-522",
      "city": "VIEIRA DO MINHO",
      "lon": "-8.141880997302911",
      "lat": "41.631513936949645"
    },
    {
      "id": "pt.ine.add.PTCONT.585858",
      "street": "AV IMACULADA CONCEIÇÃO",
      "house": "619",
      "postcode": "4850-522",
      "city": "VIEIRA DO MINHO",
      "lon": "-8.141880997302911",
      "lat": "41.631513936949645"
    },
    {
      "id": "pt.ine.add.PTCONT.638758",
      "street": "AV IMACULADA CONCEIÇÃO",
      "house": "587",
      "postcode": "4850-522",
      "city": "VIEIRA DO MINHO",
      "lon": "-8.141953029828043",
      "lat": "41.63171201160861"
    },
    {
      "id": "pt.ine.add.PTCONT.662719",
      "street": "LG PROF BRÁS DA MOTA",
      "house": "103",
      "postcode": "4850-525",
      "city": "VIEIRA DO MINHO",
      "lon": "-8.141425110924581",
      "lat": "41.63266643723378"
    },
    {
      "id": "pt.ine.add.PTCONT.670151",
      "street": "R DR ANTÓNIO LUIS DOS REIS RIBEIRO",
      "house": "158",
      "postcode": "4850-529",
      "city": "VIEIRA DO MINHO",
      "lon": "-8.140864372521856",
      "lat": "41.631552003616115"
    },
    {
      "id": "pt.ine.add.PTCONT.696761",
      "street": "AV IMACULADA CONCEIÇÃO",
      "house": "643",
      "postcode": "4850-522",
      "city": "VIEIRA DO MINHO",
      "lon": "-8.141712953458141",
      "lat": "41.63127985488549"
    },
    {
      "id": "pt.ine.add.PTCONT.697426",
      "street": "AV IMACULADA CONCEIÇÃO",
      "house": "643",
      "postcode": "4850-522",
      "city": "VIEIRA DO MINHO",
      "lon": "-8.141712953458141",
      "lat": "41.63127985488549"
    },
    {
      "id": "pt.ine.add.PTCONT.717728",
      "street": "R DR ANTÓNIO LUIS DOS REIS RIBEIRO",
      "house": "132",
      "postcode": "4850-529",
      "city": "VIEIRA DO MINHO",
      "lon": "-8.140752936398844",
      "lat": "41.63172110132414"
    },
    {
      "id": "pt.ine.add.PTCONT.764990",
      "street": "R ENG MANUEL TRAVESSA DE MATOS",
      "house": "40",
      "postcode": "4850-525",
      "city": "VIEIRA DO MINHO",
      "lon": "-8.141245366829013",
      "lat": "41.632134500448636"
    },
    {
      "id": "pt.ine.add.PTCONT.829390",
      "street": "AV IMACULADA CONCEIÇÃO",
      "house": "685",
      "postcode": "4850-522",
      "city": "VIEIRA DO MINHO",
      "lon": "-8.141523556014977",
      "lat": "41.63111534439827"
    },
    {
      "id": "pt.ine.add.PTCONT.847614",
      "street": "LG PROF BRÁS DA MOTA",
      "house": "103",
      "postcode": "4850-525",
      "city": "VIEIRA DO MINHO",
      "lon": "-8.141209104256646",
      "lat": "41.6327744963714"
    },
    {
      "id": "pt.ine.add.PTCONT.849237",
      "street": "R DR ANTONIO LUIS REIS RIBEIRO",
      "house": "198",
      "postcode": "4850-529",
      "city": "VIEIRA DO MINHO",
      "lon": "-8.140960837986205",
      "lat": "41.63113425405395"
    }
  ]
}