{
  "data": {
    "ilha": "Ilha de São Miguel (Açores)",
    "concelho": "Vila Franca do Campo",
    "freguesia": "Vila Franca do Campo (São Pedro)",
    "OBJECTID": 7,
    "BGRI2021": "42060500115",
    "DT21": "42",
    "DTMN21": "4206",
    "DTMNFR21": "420605",
    "DTMNFRSEC21": "420605001",
    "SECNUM21": "001",
    "SSNUM21": "15",
    "SECSSNUM21": "00115",
    "OBJECTID_1": 207704,
    "DT": "42",
    "CC": "06",
    "fr": "05",
    "SEC": "001",
    "SS": "15",
    "BGRI2021_1": "42060500115"
  },
  "addresses": [
    {
      "id": "pt.ine.add.AC26.36591",
      "street": "R S PEDRO",
      "house": "5",
      "postcode": "9680-137",
      "city": "VILA FRANCA DO CAMPO",
      "lon": "-25.43802329887353",
      "lat": "37.71485975429278"
    },
    {
      "id": "pt.ine.add.AC26.36592",
      "street": "R FOLE",
      "house": "5",
      "postcode": "9680-145",
      "city": "VILA FRANCA DO CAMPO",
      "lon": "-25.43817433725741",
      "lat": "37.71469051841002"
    },
    {
      "id": "pt.ine.add.AC26.36593",
      "street": "R NSA SRA DA NATIVIDADE",
      "house": "30",
      "postcode": "9680-127",
      "city": "VILA FRANCA DO CAMPO",
      "lon": "-25.438343708038957",
      "lat": "37.71472881241665"
    },
    {
      "id": "pt.ine.add.AC26.48432",
      "street": "R NSA SRA DA NATIVIDADE",
      "house": "26",
      "postcode": "9680-127",
      "city": "VILA FRANCA DO CAMPO",
      "lon": "-25.438287566358607",
      "lat": "37.7147010311392"
    },
    {
      "id": "pt.ine.add.AC26.57887",
      "street": "R GONÇALO VELHO",
      "house": "65",
      "postcode": "9680-159",
      "city": "VILA FRANCA DO CAMPO",
      "lon": "-25.438326691520327",
      "lat": "37.714998961584364"
    },
    {
      "id": "pt.ine.add.AC26.64518",
      "street": "R GONÇALO VELHO",
      "house": "56",
      "postcode": "9680-159",
      "city": "VILA FRANCA DO CAMPO",
      "lon": "-25.438290963442345",
      "lat": "37.71507960060539"
    },
    {
      "id": "pt.ine.add.AC26.67806",
      "street": "R S PEDRO",
      "house": "9",
      "postcode": "9680-137",
      "city": "VILA FRANCA DO CAMPO",
      "lon": "-25.43801006507233",
      "lat": "37.71494970379336"
    },
    {
      "id": "pt.ine.add.AC26.67807",
      "street": "R GONÇALO VELHO",
      "house": "63",
      "postcode": "9680-159",
      "city": "VILA FRANCA DO CAMPO",
      "lon": "-25.438259207777264",
      "lat": "37.71497103002314"
    },
    {
      "id": "pt.ine.add.AC26.78152",
      "street": "R S PEDRO",
      "house": "1",
      "postcode": "9680-137",
      "city": "VILA FRANCA DO CAMPO",
      "lon": "-25.438106286304667",
      "lat": "37.71468961670887"
    },
    {
      "id": "pt.ine.add.AC26.78153",
      "street": "R GONÇALO VELHO",
      "house": "69",
      "postcode": "9680-159",
      "city": "VILA FRANCA DO CAMPO",
      "lon": "-25.43844011026007",
      "lat": "37.71500046419621"
    },
    {
      "id": "pt.ine.add.AC26.80984",
      "street": "R NSA SRA DA NATIVIDADE",
      "house": "36",
      "postcode": "9680-127",
      "city": "VILA FRANCA DO CAMPO",
      "lon": "-25.438650126662697",
      "lat": "37.714723859166924"
    },
    {
      "id": "pt.ine.add.AC26.92256",
      "street": "R PADRE LUCINDO TEIXEIRA MENDES DE ANDRADE",
      "house": "34",
      "postcode": "9680-168",
      "city": "VILA FRANCA DO CAMPO",
      "lon": "-25.438714395483636",
      "lat": "37.71490496021119"
    },
    {
      "id": "pt.ine.add.AC26.92257",
      "street": "R PADRE LUCINDO TEIXEIRA MENDES DE ANDRADE",
      "house": "36",
      "postcode": "9680-168",
      "city": "VILA FRANCA DO CAMPO",
      "lon": "-25.438712504380593",
      "lat": "37.714995060037154"
    },
    {
      "id": "pt.ine.add.AC26.92308",
      "street": "R GONÇALO VELHO",
      "house": "79",
      "postcode": "9680-159",
      "city": "VILA FRANCA DO CAMPO",
      "lon": "-25.438609292768632",
      "lat": "37.71504776781967"
    },
    {
      "id": "pt.ine.add.AC26.94521",
      "street": "R PADRE LUCINDO TEIXEIRA MENDES DE ANDRADE",
      "house": "32",
      "postcode": "9680-168",
      "city": "VILA FRANCA DO CAMPO",
      "lon": "-25.43871534103199",
      "lat": "37.71485991029766"
    },
    {
      "id": "pt.ine.add.AC26.100605",
      "street": "R GONÇALO VELHO",
      "house": "67",
      "postcode": "9680-159",
      "city": "VILA FRANCA DO CAMPO",
      "lon": "-25.438394553613882",
      "lat": "37.71500887314569"
    },
    {
      "id": "pt.ine.add.AC26.103823",
      "street": "R GONÇALO VELHO",
      "house": "77",
      "postcode": "9680-159",
      "city": "VILA FRANCA DO CAMPO",
      "lon": "-25.438519125114453",
      "lat": "37.715019535922956"
    },
    {
      "id": "pt.ine.add.AC26.103824",
      "street": "R GONÇALO VELHO",
      "house": "83",
      "postcode": "9680-159",
      "city": "VILA FRANCA DO CAMPO",
      "lon": "-25.438677154949886",
      "lat": "37.71505767922002"
    },
    {
      "id": "pt.ine.add.AC26.107426",
      "street": "R NSA SRA DA NATIVIDADE",
      "house": "34",
      "postcode": "9680-127",
      "city": "VILA FRANCA DO CAMPO",
      "lon": "-25.43852536650074",
      "lat": "37.71472220652038"
    }
  ]
}