{
  "data": {
    "distrito": "Porto",
    "concelho": "Matosinhos",
    "freguesia": "União das freguesias de São Mamede de Infesta e Senhora da Hora",
    "OBJECTID": 1330,
    "BGRI2021": "13081403408",
    "DT21": "13",
    "DTMN21": "1308",
    "DTMNFR21": "130814",
    "DTMNFRSEC21": "130814034",
    "SECNUM21": "034",
    "SSNUM21": "08",
    "SECSSNUM21": "03408",
    "OBJECTID_1": 133407,
    "DT": "13",
    "CC": "08",
    "fr": "14",
    "SEC": "034",
    "SS": "08"
  },
  "addresses": [
    {
      "id": "pt.ine.add.PTCONT.3542123",
      "street": "R CENTRAL DO SEIXO",
      "house": "194",
      "postcode": "4465-064",
      "city": "SÃO MAMEDE DE INFESTA",
      "lon": "-8.62932033859279",
      "lat": "41.18445312410769"
    },
    {
      "id": "pt.ine.add.PTCONT.3542124",
      "street": "R CENTRAL DO SEIXO",
      "house": "194",
      "postcode": "4465-064",
      "city": "SÃO MAMEDE DE INFESTA",
      "lon": "-8.62932033859279",
      "lat": "41.18445312410769"
    },
    {
      "id": "pt.ine.add.PTCONT.3542125",
      "street": "R CENTRAL DO SEIXO",
      "house": "116",
      "postcode": "4465-064",
      "city": "SÃO MAMEDE DE INFESTA",
      "lon": "-8.629114909681796",
      "lat": "41.18464043584389"
    },
    {
      "id": "pt.ine.add.PTCONT.3542126",
      "street": "R CENTRAL DO SEIXO",
      "house": "93",
      "postcode": "4465-064",
      "city": "SÃO MAMEDE DE INFESTA",
      "lon": "-8.628900573986268",
      "lat": "41.18475413757558"
    },
    {
      "id": "pt.ine.add.PTCONT.3561234",
      "street": "R DAMÃO",
      "house": "219",
      "postcode": "4465-118",
      "city": "SÃO MAMEDE DE INFESTA",
      "lon": "-8.627503541009869",
      "lat": "41.18390444171566"
    },
    {
      "id": "pt.ine.add.PTCONT.3561271",
      "street": "R DAMÃO",
      "house": "219",
      "postcode": "4465-118",
      "city": "SÃO MAMEDE DE INFESTA",
      "lon": "-8.627503541009869",
      "lat": "41.18390444171566"
    },
    {
      "id": "pt.ine.add.PTCONT.3561272",
      "street": "R DAMÃO",
      "house": "219",
      "postcode": "4465-118",
      "city": "SÃO MAMEDE DE INFESTA",
      "lon": "-8.627503541009869",
      "lat": "41.18390444171566"
    },
    {
      "id": "pt.ine.add.PTCONT.3561273",
      "street": "R DAMÃO",
      "house": "219",
      "postcode": "4465-118",
      "city": "SÃO MAMEDE DE INFESTA",
      "lon": "-8.627503541009869",
      "lat": "41.18390444171566"
    },
    {
      "id": "pt.ine.add.PTCONT.3561274",
      "street": "R DAMÃO",
      "house": "219",
      "postcode": "4465-118",
      "city": "SÃO MAMEDE DE INFESTA",
      "lon": "-8.627503541009869",
      "lat": "41.18390444171566"
    },
    {
      "id": "pt.ine.add.PTCONT.3561275",
      "street": "R DAMÃO",
      "house": "219",
      "postcode": "4465-118",
      "city": "SÃO MAMEDE DE INFESTA",
      "lon": "-8.627503541009869",
      "lat": "41.18390444171566"
    },
    {
      "id": "pt.ine.add.PTCONT.3561276",
      "street": "R DAMÃO",
      "house": "219",
      "postcode": "4465-118",
      "city": "SÃO MAMEDE DE INFESTA",
      "lon": "-8.627503541009869",
      "lat": "41.18390444171566"
    },
    {
      "id": "pt.ine.add.PTCONT.3561277",
      "street": "R DAMÃO",
      "house": "219",
      "postcode": "4465-118",
      "city": "SÃO MAMEDE DE INFESTA",
      "lon": "-8.627503541009869",
      "lat": "41.18390444171566"
    },
    {
      "id": "pt.ine.add.PTCONT.3561278",
      "street": "R DAMÃO",
      "house": "219",
      "postcode": "4465-118",
      "city": "SÃO MAMEDE DE INFESTA",
      "lon": "-8.627503541009869",
      "lat": "41.18390444171566"
    },
    {
      "id": "pt.ine.add.PTCONT.3561279",
      "street": "R DAMÃO",
      "house": "219",
      "postcode": "4465-118",
      "city": "SÃO MAMEDE DE INFESTA",
      "lon": "-8.627503541009869",
      "lat": "41.18390444171566"
    },
    {
      "id": "pt.ine.add.PTCONT.3561280",
      "street": "R DAMÃO",
      "house": "219",
      "postcode": "4465-118",
      "city": "SÃO MAMEDE DE INFESTA",
      "lon": "-8.627503541009869",
      "lat": "41.18390444171566"
    },
    {
      "id": "pt.ine.add.PTCONT.3561281",
      "street": "R DAMÃO",
      "house": "219",
      "postcode": "4465-118",
      "city": "SÃO MAMEDE DE INFESTA",
      "lon": "-8.627503541009869",
      "lat": "41.18390444171566"
    },
    {
      "id": "pt.ine.add.PTCONT.3567598",
      "street": "TV PISOEIRO",
      "house": "94",
      "postcode": "4465-364",
      "city": "SÃO MAMEDE DE INFESTA",
      "lon": "-8.628626725887196",
      "lat": "41.18470556734105"
    },
    {
      "id": "pt.ine.add.PTCONT.3603540",
      "street": "R DAMÃO",
      "house": "121",
      "postcode": "4465-118",
      "city": "SÃO MAMEDE DE INFESTA",
      "lon": "-8.628811039543896",
      "lat": "41.18385836987007"
    },
    {
      "id": "pt.ine.add.PTCONT.3603541",
      "street": "R DAMÃO",
      "house": "121",
      "postcode": "4465-118",
      "city": "SÃO MAMEDE DE INFESTA",
      "lon": "-8.628811039543896",
      "lat": "41.18385836987007"
    },
    {
      "id": "pt.ine.add.PTCONT.3603542",
      "street": "R DAMÃO",
      "house": "121",
      "postcode": "4465-118",
      "city": "SÃO MAMEDE DE INFESTA",
      "lon": "-8.628811039543896",
      "lat": "41.18385836987007"
    },
    {
      "id": "pt.ine.add.PTCONT.3603543",
      "street": "R DAMÃO",
      "house": "121",
      "postcode": "4465-118",
      "city": "SÃO MAMEDE DE INFESTA",
      "lon": "-8.628811039543896",
      "lat": "41.18385836987007"
    },
    {
      "id": "pt.ine.add.PTCONT.3603544",
      "street": "R DAMÃO",
      "house": "121",
      "postcode": "4465-118",
      "city": "SÃO MAMEDE DE INFESTA",
      "lon": "-8.628811039543896",
      "lat": "41.18385836987007"
    },
    {
      "id": "pt.ine.add.PTCONT.3603545",
      "street": "R DAMÃO",
      "house": "121",
      "postcode": "4465-118",
      "city": "SÃO MAMEDE DE INFESTA",
      "lon": "-8.628811039543896",
      "lat": "41.18385836987007"
    },
    {
      "id": "pt.ine.add.PTCONT.3603546",
      "street": "R DAMÃO",
      "house": "121",
      "postcode": "4465-118",
      "city": "SÃO MAMEDE DE INFESTA",
      "lon": "-8.628811039543896",
      "lat": "41.18385836987007"
    },
    {
      "id": "pt.ine.add.PTCONT.3603561",
      "street": "R DAMÃO",
      "house": "121",
      "postcode": "4465-118",
      "city": "SÃO MAMEDE DE INFESTA",
      "lon": "-8.628811039543896",
      "lat": "41.18385836987007"
    },
    {
      "id": "pt.ine.add.PTCONT.3603562",
      "street": "R DAMÃO",
      "house": "121",
      "postcode": "4465-118",
      "city": "SÃO MAMEDE DE INFESTA",
      "lon": "-8.628811039543896",
      "lat": "41.18385836987007"
    },
    {
      "id": "pt.ine.add.PTCONT.3603563",
      "street": "R DAMÃO",
      "house": "121",
      "postcode": "4465-118",
      "city": "SÃO MAMEDE DE INFESTA",
      "lon": "-8.628811039543896",
      "lat": "41.18385836987007"
    },
    {
      "id": "pt.ine.add.PTCONT.3603564",
      "street": "R DAMÃO",
      "house": "121",
      "postcode": "4465-118",
      "city": "SÃO MAMEDE DE INFESTA",
      "lon": "-8.628811039543896",
      "lat": "41.18385836987007"
    },
    {
      "id": "pt.ine.add.PTCONT.3603645",
      "street": "R DAMÃO",
      "house": "121",
      "postcode": "4465-118",
      "city": "SÃO MAMEDE DE INFESTA",
      "lon": "-8.628811039543896",
      "lat": "41.18385836987007"
    },
    {
      "id": "pt.ine.add.PTCONT.3625410",
      "street": "TV ORMUZ",
      "house": "77",
      "postcode": "4465-223",
      "city": "SÃO MAMEDE DE INFESTA",
      "lon": "-8.62771929802238",
      "lat": "41.18607812145908"
    },
    {
      "id": "pt.ine.add.PTCONT.3638369",
      "street": "R DAMÃO",
      "house": "115",
      "postcode": "4465-118",
      "city": "SÃO MAMEDE DE INFESTA",
      "lon": "-8.628779718489287",
      "lat": "41.18416994096106"
    },
    {
      "id": "pt.ine.add.PTCONT.3638370",
      "street": "R DAMÃO",
      "house": "115",
      "postcode": "4465-118",
      "city": "SÃO MAMEDE DE INFESTA",
      "lon": "-8.628779718489287",
      "lat": "41.18416994096106"
    },
    {
      "id": "pt.ine.add.PTCONT.3638371",
      "street": "R DAMÃO",
      "house": "115",
      "postcode": "4465-118",
      "city": "SÃO MAMEDE DE INFESTA",
      "lon": "-8.628779718489287",
      "lat": "41.18416994096106"
    },
    {
      "id": "pt.ine.add.PTCONT.3638372",
      "street": "R DAMÃO",
      "house": "115",
      "postcode": "4465-118",
      "city": "SÃO MAMEDE DE INFESTA",
      "lon": "-8.628779718489287",
      "lat": "41.18416994096106"
    },
    {
      "id": "pt.ine.add.PTCONT.3638373",
      "street": "R DAMÃO",
      "house": "115",
      "postcode": "4465-118",
      "city": "SÃO MAMEDE DE INFESTA",
      "lon": "-8.628779718489287",
      "lat": "41.18416994096106"
    },
    {
      "id": "pt.ine.add.PTCONT.3638374",
      "street": "R DAMÃO",
      "house": "115",
      "postcode": "4465-118",
      "city": "SÃO MAMEDE DE INFESTA",
      "lon": "-8.628779718489287",
      "lat": "41.18416994096106"
    },
    {
      "id": "pt.ine.add.PTCONT.3638375",
      "street": "R DAMÃO",
      "house": "115",
      "postcode": "4465-118",
      "city": "SÃO MAMEDE DE INFESTA",
      "lon": "-8.628779718489287",
      "lat": "41.18416994096106"
    },
    {
      "id": "pt.ine.add.PTCONT.3638376",
      "street": "R DAMÃO",
      "house": "115",
      "postcode": "4465-118",
      "city": "SÃO MAMEDE DE INFESTA",
      "lon": "-8.628779718489287",
      "lat": "41.18416994096106"
    },
    {
      "id": "pt.ine.add.PTCONT.3638377",
      "street": "R DAMÃO",
      "house": "115",
      "postcode": "4465-118",
      "city": "SÃO MAMEDE DE INFESTA",
      "lon": "-8.628779718489287",
      "lat": "41.18416994096106"
    },
    {
      "id": "pt.ine.add.PTCONT.3638378",
      "street": "R DAMÃO",
      "house": "115",
      "postcode": "4465-118",
      "city": "SÃO MAMEDE DE INFESTA",
      "lon": "-8.628779718489287",
      "lat": "41.18416994096106"
    },
    {
      "id": "pt.ine.add.PTCONT.3638379",
      "street": "R DAMÃO",
      "house": "115",
      "postcode": "4465-118",
      "city": "SÃO MAMEDE DE INFESTA",
      "lon": "-8.628779718489287",
      "lat": "41.18416994096106"
    },
    {
      "id": "pt.ine.add.PTCONT.3638381",
      "street": "R DAMÃO",
      "house": "115",
      "postcode": "4465-118",
      "city": "SÃO MAMEDE DE INFESTA",
      "lon": "-8.628779718489287",
      "lat": "41.18416994096106"
    },
    {
      "id": "pt.ine.add.PTCONT.3638382",
      "street": "R CENTRAL DO SEIXO",
      "house": "118",
      "postcode": "4465-064",
      "city": "SÃO MAMEDE DE INFESTA",
      "lon": "-8.629198135386341",
      "lat": "41.18461306448924"
    },
    {
      "id": "pt.ine.add.PTCONT.3684053",
      "street": "TV ORMUZ",
      "house": "77",
      "postcode": "4465-223",
      "city": "SÃO MAMEDE DE INFESTA",
      "lon": "-8.62783448125067",
      "lat": "41.18609634037695"
    },
    {
      "id": "pt.ine.add.PTCONT.3697148",
      "street": "R ORMUZ",
      "house": "239",
      "postcode": "4465-223",
      "city": "SÃO MAMEDE DE INFESTA",
      "lon": "-8.627360945646034",
      "lat": "41.18411441276386"
    },
    {
      "id": "pt.ine.add.PTCONT.3701134",
      "street": "R ORMUZ",
      "house": "239",
      "postcode": "4465-223",
      "city": "SÃO MAMEDE DE INFESTA",
      "lon": "-8.627360945646034",
      "lat": "41.18411441276386"
    },
    {
      "id": "pt.ine.add.PTCONT.3716013",
      "street": "R CENTRAL DO SEIXO",
      "house": "96",
      "postcode": "4465-064",
      "city": "SÃO MAMEDE DE INFESTA",
      "lon": "-8.628805965847995",
      "lat": "41.18486075052858"
    },
    {
      "id": "pt.ine.add.PTCONT.3743185",
      "street": "TV PISOEIRO",
      "house": "114",
      "postcode": "4465-364",
      "city": "SÃO MAMEDE DE INFESTA",
      "lon": "-8.629031683907453",
      "lat": "41.184667807138666"
    },
    {
      "id": "pt.ine.add.PTCONT.3745842",
      "street": "R DAMÃO",
      "house": "55",
      "postcode": "4465-118",
      "city": "SÃO MAMEDE DE INFESTA",
      "lon": "-8.629778128102611",
      "lat": "41.1840793110293"
    },
    {
      "id": "pt.ine.add.PTCONT.3745843",
      "street": "R DAMÃO",
      "house": "55",
      "postcode": "4465-118",
      "city": "SÃO MAMEDE DE INFESTA",
      "lon": "-8.629778128102611",
      "lat": "41.1840793110293"
    },
    {
      "id": "pt.ine.add.PTCONT.3745844",
      "street": "R DAMÃO",
      "house": "55",
      "postcode": "4465-118",
      "city": "SÃO MAMEDE DE INFESTA",
      "lon": "-8.629778128102611",
      "lat": "41.1840793110293"
    },
    {
      "id": "pt.ine.add.PTCONT.3745845",
      "street": "R DAMÃO",
      "house": "55",
      "postcode": "4465-118",
      "city": "SÃO MAMEDE DE INFESTA",
      "lon": "-8.629778128102611",
      "lat": "41.1840793110293"
    },
    {
      "id": "pt.ine.add.PTCONT.3745846",
      "street": "R DAMÃO",
      "house": "55",
      "postcode": "4465-118",
      "city": "SÃO MAMEDE DE INFESTA",
      "lon": "-8.629778128102611",
      "lat": "41.1840793110293"
    },
    {
      "id": "pt.ine.add.PTCONT.3745847",
      "street": "R DAMÃO",
      "house": "55",
      "postcode": "4465-118",
      "city": "SÃO MAMEDE DE INFESTA",
      "lon": "-8.629778128102611",
      "lat": "41.1840793110293"
    },
    {
      "id": "pt.ine.add.PTCONT.3745848",
      "street": "R DAMÃO",
      "house": "55",
      "postcode": "4465-118",
      "city": "SÃO MAMEDE DE INFESTA",
      "lon": "-8.629778128102611",
      "lat": "41.1840793110293"
    },
    {
      "id": "pt.ine.add.PTCONT.3745849",
      "street": "R DAMÃO",
      "house": "55",
      "postcode": "4465-118",
      "city": "SÃO MAMEDE DE INFESTA",
      "lon": "-8.629778128102611",
      "lat": "41.1840793110293"
    },
    {
      "id": "pt.ine.add.PTCONT.3745850",
      "street": "R DAMÃO",
      "house": "55",
      "postcode": "4465-118",
      "city": "SÃO MAMEDE DE INFESTA",
      "lon": "-8.629778128102611",
      "lat": "41.1840793110293"
    },
    {
      "id": "pt.ine.add.PTCONT.3745851",
      "street": "R DAMÃO",
      "house": "55",
      "postcode": "4465-118",
      "city": "SÃO MAMEDE DE INFESTA",
      "lon": "-8.629778128102611",
      "lat": "41.1840793110293"
    },
    {
      "id": "pt.ine.add.PTCONT.3745852",
      "street": "R DAMÃO",
      "house": "55",
      "postcode": "4465-118",
      "city": "SÃO MAMEDE DE INFESTA",
      "lon": "-8.629778128102611",
      "lat": "41.1840793110293"
    },
    {
      "id": "pt.ine.add.PTCONT.3745853",
      "street": "R DAMÃO",
      "house": "55",
      "postcode": "4465-118",
      "city": "SÃO MAMEDE DE INFESTA",
      "lon": "-8.629778128102611",
      "lat": "41.1840793110293"
    },
    {
      "id": "pt.ine.add.PTCONT.3781309",
      "street": "R CENTRAL DO SEIXO",
      "house": "302",
      "postcode": "4465-064",
      "city": "SÃO MAMEDE DE INFESTA",
      "lon": "-8.628911070731744",
      "lat": "41.185440052579715"
    },
    {
      "id": "pt.ine.add.PTCONT.3819434",
      "street": "R CENTRAL DO SEIXO",
      "house": "292",
      "postcode": "4465-064",
      "city": "SÃO MAMEDE DE INFESTA",
      "lon": "-8.628949111398583",
      "lat": "41.185374145720125"
    },
    {
      "id": "pt.ine.add.PTCONT.3844706",
      "street": "R CENTRAL DO SEIXO",
      "house": "318 A",
      "postcode": "4465-064",
      "city": "SÃO MAMEDE DE INFESTA",
      "lon": "-8.6287383080966",
      "lat": "41.18568905281095"
    },
    {
      "id": "pt.ine.add.PTCONT.3848418",
      "street": "R CENTRAL DO SEIXO",
      "house": "318 A",
      "postcode": "4465-064",
      "city": "SÃO MAMEDE DE INFESTA",
      "lon": "-8.6287383080966",
      "lat": "41.18568905281095"
    },
    {
      "id": "pt.ine.add.PTCONT.3857944",
      "street": "R CENTRAL DO SEIXO",
      "house": "248",
      "postcode": "4465-064",
      "city": "SÃO MAMEDE DE INFESTA",
      "lon": "-8.629095105213661",
      "lat": "41.1850642337994"
    },
    {
      "id": "pt.ine.add.PTCONT.3867621",
      "street": "TV PISOEIRO",
      "house": "94",
      "postcode": "4465-364",
      "city": "SÃO MAMEDE DE INFESTA",
      "lon": "-8.628745979003494",
      "lat": "41.18471405850665"
    },
    {
      "id": "pt.ine.add.PTCONT.3871699",
      "street": "R CENTRAL DO SEIXO",
      "house": "92",
      "postcode": "4465-064",
      "city": "SÃO MAMEDE DE INFESTA",
      "lon": "-8.628980662944",
      "lat": "41.184756163615624"
    },
    {
      "id": "pt.ine.add.PTCONT.3874457",
      "street": "R ORMUZ",
      "house": "253",
      "postcode": "4465-222",
      "city": "SÃO MAMEDE DE INFESTA",
      "lon": "-8.627372098753806",
      "lat": "41.18428775623897"
    },
    {
      "id": "pt.ine.add.PTCONT.3924441",
      "street": "R CENTRAL DO SEIXO",
      "house": "170",
      "postcode": "4465-064",
      "city": "SÃO MAMEDE DE INFESTA",
      "lon": "-8.629529337521847",
      "lat": "41.184278478270976"
    },
    {
      "id": "pt.ine.add.PTCONT.3924442",
      "street": "R AMIEIRA",
      "house": "145",
      "postcode": "4465-021",
      "city": "SÃO MAMEDE DE INFESTA",
      "lon": "-8.629529337521847",
      "lat": "41.184278478270976"
    },
    {
      "id": "pt.ine.add.PTCONT.3935831",
      "street": "R CENTRAL DO SEIXO",
      "house": "222",
      "postcode": "4465-064",
      "city": "SÃO MAMEDE DE INFESTA",
      "lon": "-8.629116964548272",
      "lat": "41.184804080159296"
    },
    {
      "id": "pt.ine.add.PTCONT.3948550",
      "street": "R CENTRAL DO SEIXO",
      "house": "96",
      "postcode": "4465-064",
      "city": "SÃO MAMEDE DE INFESTA",
      "lon": "-8.62871054955617",
      "lat": "41.18485215685539"
    },
    {
      "id": "pt.ine.add.PTCONT.3955570",
      "street": "R ORMUZ",
      "house": "309",
      "postcode": "4465-222",
      "city": "SÃO MAMEDE DE INFESTA",
      "lon": "-8.627339389876518",
      "lat": "41.18469309016582"
    },
    {
      "id": "pt.ine.add.PTCONT.3955571",
      "street": "R CENTRAL DO SEIXO",
      "house": "96",
      "postcode": "4465-064",
      "city": "SÃO MAMEDE DE INFESTA",
      "lon": "-8.62862698395932",
      "lat": "41.18483450781678"
    },
    {
      "id": "pt.ine.add.PTCONT.3999738",
      "street": "R DAMÃO",
      "house": "71",
      "postcode": "4465-118",
      "city": "SÃO MAMEDE DE INFESTA",
      "lon": "-8.629504072731182",
      "lat": "41.18408949683449"
    },
    {
      "id": "pt.ine.add.PTCONT.3999739",
      "street": "R DAMÃO",
      "house": "71",
      "postcode": "4465-118",
      "city": "SÃO MAMEDE DE INFESTA",
      "lon": "-8.629504072731182",
      "lat": "41.18408949683449"
    },
    {
      "id": "pt.ine.add.PTCONT.3999740",
      "street": "R DAMÃO",
      "house": "71",
      "postcode": "4465-118",
      "city": "SÃO MAMEDE DE INFESTA",
      "lon": "-8.629504072731182",
      "lat": "41.18408949683449"
    },
    {
      "id": "pt.ine.add.PTCONT.3999744",
      "street": "R DAMÃO",
      "house": "71",
      "postcode": "4465-118",
      "city": "SÃO MAMEDE DE INFESTA",
      "lon": "-8.629504072731182",
      "lat": "41.18408949683449"
    },
    {
      "id": "pt.ine.add.PTCONT.3999745",
      "street": "R DAMÃO",
      "house": "71",
      "postcode": "4465-118",
      "city": "SÃO MAMEDE DE INFESTA",
      "lon": "-8.629504072731182",
      "lat": "41.18408949683449"
    },
    {
      "id": "pt.ine.add.PTCONT.3999746",
      "street": "R DAMÃO",
      "house": "71",
      "postcode": "4465-118",
      "city": "SÃO MAMEDE DE INFESTA",
      "lon": "-8.629504072731182",
      "lat": "41.18408949683449"
    },
    {
      "id": "pt.ine.add.PTCONT.3999747",
      "street": "R DAMÃO",
      "house": "71",
      "postcode": "4465-118",
      "city": "SÃO MAMEDE DE INFESTA",
      "lon": "-8.629504072731182",
      "lat": "41.18408949683449"
    },
    {
      "id": "pt.ine.add.PTCONT.3999748",
      "street": "R DAMÃO",
      "house": "71",
      "postcode": "4465-118",
      "city": "SÃO MAMEDE DE INFESTA",
      "lon": "-8.629504072731182",
      "lat": "41.18408949683449"
    },
    {
      "id": "pt.ine.add.PTCONT.3999749",
      "street": "R DAMÃO",
      "house": "71",
      "postcode": "4465-118",
      "city": "SÃO MAMEDE DE INFESTA",
      "lon": "-8.629504072731182",
      "lat": "41.18408949683449"
    },
    {
      "id": "pt.ine.add.PTCONT.3999750",
      "street": "R DAMÃO",
      "house": "71",
      "postcode": "4465-118",
      "city": "SÃO MAMEDE DE INFESTA",
      "lon": "-8.629504072731182",
      "lat": "41.18408949683449"
    },
    {
      "id": "pt.ine.add.PTCONT.3999751",
      "street": "R DAMÃO",
      "house": "71",
      "postcode": "4465-118",
      "city": "SÃO MAMEDE DE INFESTA",
      "lon": "-8.629504072731182",
      "lat": "41.18408949683449"
    },
    {
      "id": "pt.ine.add.PTCONT.4007650",
      "street": "R CENTRAL SEIXO",
      "house": "318",
      "postcode": "4465-064",
      "city": "SÃO MAMEDE DE INFESTA",
      "lon": "-8.628792344272808",
      "lat": "41.185694084173484"
    },
    {
      "id": "pt.ine.add.PTCONT.4007651",
      "street": "R CENTRAL SEIXO",
      "house": "318",
      "postcode": "4465-064",
      "city": "SÃO MAMEDE DE INFESTA",
      "lon": "-8.628792344272808",
      "lat": "41.185694084173484"
    },
    {
      "id": "pt.ine.add.PTCONT.4023845",
      "street": "R DAMÃO",
      "house": "143",
      "postcode": "4465-118",
      "city": "SÃO MAMEDE DE INFESTA",
      "lon": "-8.628397194300273",
      "lat": "41.18387073036069"
    },
    {
      "id": "pt.ine.add.PTCONT.4023846",
      "street": "R DAMÃO",
      "house": "143",
      "postcode": "4465-118",
      "city": "SÃO MAMEDE DE INFESTA",
      "lon": "-8.628397194300273",
      "lat": "41.18387073036069"
    },
    {
      "id": "pt.ine.add.PTCONT.4023847",
      "street": "R DAMÃO",
      "house": "143",
      "postcode": "4465-118",
      "city": "SÃO MAMEDE DE INFESTA",
      "lon": "-8.628397194300273",
      "lat": "41.18387073036069"
    },
    {
      "id": "pt.ine.add.PTCONT.4023848",
      "street": "R DAMÃO",
      "house": "143",
      "postcode": "4465-118",
      "city": "SÃO MAMEDE DE INFESTA",
      "lon": "-8.628397194300273",
      "lat": "41.18387073036069"
    },
    {
      "id": "pt.ine.add.PTCONT.4023849",
      "street": "R DAMÃO",
      "house": "143",
      "postcode": "4465-118",
      "city": "SÃO MAMEDE DE INFESTA",
      "lon": "-8.628397194300273",
      "lat": "41.18387073036069"
    },
    {
      "id": "pt.ine.add.PTCONT.4023850",
      "street": "R DAMÃO",
      "house": "143",
      "postcode": "4465-118",
      "city": "SÃO MAMEDE DE INFESTA",
      "lon": "-8.628397194300273",
      "lat": "41.18387073036069"
    },
    {
      "id": "pt.ine.add.PTCONT.4023851",
      "street": "R DAMÃO",
      "house": "143",
      "postcode": "4465-118",
      "city": "SÃO MAMEDE DE INFESTA",
      "lon": "-8.628397194300273",
      "lat": "41.18387073036069"
    },
    {
      "id": "pt.ine.add.PTCONT.4023852",
      "street": "R DAMÃO",
      "house": "143",
      "postcode": "4465-118",
      "city": "SÃO MAMEDE DE INFESTA",
      "lon": "-8.628397194300273",
      "lat": "41.18387073036069"
    },
    {
      "id": "pt.ine.add.PTCONT.4023853",
      "street": "R DAMÃO",
      "house": "143",
      "postcode": "4465-118",
      "city": "SÃO MAMEDE DE INFESTA",
      "lon": "-8.628397194300273",
      "lat": "41.18387073036069"
    },
    {
      "id": "pt.ine.add.PTCONT.4023854",
      "street": "R DAMÃO",
      "house": "143",
      "postcode": "4465-118",
      "city": "SÃO MAMEDE DE INFESTA",
      "lon": "-8.628397194300273",
      "lat": "41.18387073036069"
    },
    {
      "id": "pt.ine.add.PTCONT.4030099",
      "street": "R DAMÃO",
      "house": "143",
      "postcode": "4465-118",
      "city": "SÃO MAMEDE DE INFESTA",
      "lon": "-8.628397194300273",
      "lat": "41.18387073036069"
    },
    {
      "id": "pt.ine.add.PTCONT.4032328",
      "street": "R DAMÃO",
      "house": "199",
      "postcode": "4465-118",
      "city": "SÃO MAMEDE DE INFESTA",
      "lon": "-8.627744944802336",
      "lat": "41.183879251166765"
    },
    {
      "id": "pt.ine.add.PTCONT.4032329",
      "street": "R DAMÃO",
      "house": "199",
      "postcode": "4465-118",
      "city": "SÃO MAMEDE DE INFESTA",
      "lon": "-8.627744944802336",
      "lat": "41.183879251166765"
    },
    {
      "id": "pt.ine.add.PTCONT.4032330",
      "street": "R DAMÃO",
      "house": "199",
      "postcode": "4465-118",
      "city": "SÃO MAMEDE DE INFESTA",
      "lon": "-8.627744944802336",
      "lat": "41.183879251166765"
    },
    {
      "id": "pt.ine.add.PTCONT.4032331",
      "street": "R DAMÃO",
      "house": "199",
      "postcode": "4465-118",
      "city": "SÃO MAMEDE DE INFESTA",
      "lon": "-8.627744944802336",
      "lat": "41.183879251166765"
    },
    {
      "id": "pt.ine.add.PTCONT.4032332",
      "street": "R DAMÃO",
      "house": "199",
      "postcode": "4465-118",
      "city": "SÃO MAMEDE DE INFESTA",
      "lon": "-8.627744944802336",
      "lat": "41.183879251166765"
    },
    {
      "id": "pt.ine.add.PTCONT.4032333",
      "street": "R DAMÃO",
      "house": "199",
      "postcode": "4465-118",
      "city": "SÃO MAMEDE DE INFESTA",
      "lon": "-8.627744944802336",
      "lat": "41.183879251166765"
    },
    {
      "id": "pt.ine.add.PTCONT.4032334",
      "street": "R DAMÃO",
      "house": "199",
      "postcode": "4465-118",
      "city": "SÃO MAMEDE DE INFESTA",
      "lon": "-8.627744944802336",
      "lat": "41.183879251166765"
    },
    {
      "id": "pt.ine.add.PTCONT.4032335",
      "street": "R DAMÃO",
      "house": "199",
      "postcode": "4465-118",
      "city": "SÃO MAMEDE DE INFESTA",
      "lon": "-8.627744944802336",
      "lat": "41.183879251166765"
    },
    {
      "id": "pt.ine.add.PTCONT.4032336",
      "street": "R DAMÃO",
      "house": "199",
      "postcode": "4465-118",
      "city": "SÃO MAMEDE DE INFESTA",
      "lon": "-8.627744944802336",
      "lat": "41.183879251166765"
    },
    {
      "id": "pt.ine.add.PTCONT.4032337",
      "street": "R DAMÃO",
      "house": "199",
      "postcode": "4465-118",
      "city": "SÃO MAMEDE DE INFESTA",
      "lon": "-8.627744944802336",
      "lat": "41.183879251166765"
    },
    {
      "id": "pt.ine.add.PTCONT.4032338",
      "street": "R DAMÃO",
      "house": "199",
      "postcode": "4465-118",
      "city": "SÃO MAMEDE DE INFESTA",
      "lon": "-8.627744944802336",
      "lat": "41.183879251166765"
    },
    {
      "id": "pt.ine.add.PTCONT.4035642",
      "street": "R DAMÃO",
      "house": "199",
      "postcode": "4465-118",
      "city": "SÃO MAMEDE DE INFESTA",
      "lon": "-8.627744944802336",
      "lat": "41.183879251166765"
    },
    {
      "id": "pt.ine.add.PTCONT.4038834",
      "street": "TV PISOEIRO",
      "house": "108",
      "postcode": "4465-364",
      "city": "SÃO MAMEDE DE INFESTA",
      "lon": "-8.628708933568351",
      "lat": "41.18454313620575"
    },
    {
      "id": "pt.ine.add.PTCONT.4049430",
      "street": "R DAMÃO",
      "house": "179",
      "postcode": "4465-118",
      "city": "SÃO MAMEDE DE INFESTA",
      "lon": "-8.627958583407999",
      "lat": "41.183886482344654"
    },
    {
      "id": "pt.ine.add.PTCONT.4049431",
      "street": "R DAMÃO",
      "house": "179",
      "postcode": "4465-118",
      "city": "SÃO MAMEDE DE INFESTA",
      "lon": "-8.627958583407999",
      "lat": "41.183886482344654"
    },
    {
      "id": "pt.ine.add.PTCONT.4049432",
      "street": "R DAMÃO",
      "house": "179",
      "postcode": "4465-118",
      "city": "SÃO MAMEDE DE INFESTA",
      "lon": "-8.627958583407999",
      "lat": "41.183886482344654"
    },
    {
      "id": "pt.ine.add.PTCONT.4049433",
      "street": "R DAMÃO",
      "house": "179",
      "postcode": "4465-118",
      "city": "SÃO MAMEDE DE INFESTA",
      "lon": "-8.627958583407999",
      "lat": "41.183886482344654"
    },
    {
      "id": "pt.ine.add.PTCONT.4049434",
      "street": "R DAMÃO",
      "house": "179",
      "postcode": "4465-118",
      "city": "SÃO MAMEDE DE INFESTA",
      "lon": "-8.627958583407999",
      "lat": "41.183886482344654"
    },
    {
      "id": "pt.ine.add.PTCONT.4049435",
      "street": "R DAMÃO",
      "house": "179",
      "postcode": "4465-118",
      "city": "SÃO MAMEDE DE INFESTA",
      "lon": "-8.627958583407999",
      "lat": "41.183886482344654"
    },
    {
      "id": "pt.ine.add.PTCONT.4049436",
      "street": "R DAMÃO",
      "house": "179",
      "postcode": "4465-118",
      "city": "SÃO MAMEDE DE INFESTA",
      "lon": "-8.627958583407999",
      "lat": "41.183886482344654"
    },
    {
      "id": "pt.ine.add.PTCONT.4049437",
      "street": "R DAMÃO",
      "house": "179",
      "postcode": "4465-118",
      "city": "SÃO MAMEDE DE INFESTA",
      "lon": "-8.627958583407999",
      "lat": "41.183886482344654"
    },
    {
      "id": "pt.ine.add.PTCONT.4049438",
      "street": "R DAMÃO",
      "house": "179",
      "postcode": "4465-118",
      "city": "SÃO MAMEDE DE INFESTA",
      "lon": "-8.627958583407999",
      "lat": "41.183886482344654"
    },
    {
      "id": "pt.ine.add.PTCONT.4049439",
      "street": "R DAMÃO",
      "house": "179",
      "postcode": "4465-118",
      "city": "SÃO MAMEDE DE INFESTA",
      "lon": "-8.627958583407999",
      "lat": "41.183886482344654"
    },
    {
      "id": "pt.ine.add.PTCONT.4049440",
      "street": "R DAMÃO",
      "house": "179",
      "postcode": "4465-118",
      "city": "SÃO MAMEDE DE INFESTA",
      "lon": "-8.627958583407999",
      "lat": "41.183886482344654"
    },
    {
      "id": "pt.ine.add.PTCONT.4049472",
      "street": "R DAMÃO",
      "house": "179",
      "postcode": "4465-118",
      "city": "SÃO MAMEDE DE INFESTA",
      "lon": "-8.627958583407999",
      "lat": "41.183886482344654"
    },
    {
      "id": "pt.ine.add.PTCONT.4058619",
      "street": "R CENTRAL DO SEIXO",
      "house": "98",
      "postcode": "4465-064",
      "city": "SÃO MAMEDE DE INFESTA",
      "lon": "-8.629066317057093",
      "lat": "41.184772276274906"
    },
    {
      "id": "pt.ine.add.PTCONT.4171584",
      "street": "R DAMAO",
      "house": "159",
      "postcode": "4465-118",
      "city": "SÃO MAMEDE DE INFESTA",
      "lon": "-8.628167447596132",
      "lat": "41.183861138074725"
    },
    {
      "id": "pt.ine.add.PTCONT.4171585",
      "street": "R DAMAO",
      "house": "159",
      "postcode": "4465-118",
      "city": "SÃO MAMEDE DE INFESTA",
      "lon": "-8.628167447596132",
      "lat": "41.183861138074725"
    },
    {
      "id": "pt.ine.add.PTCONT.4171758",
      "street": "R DAMAO",
      "house": "194",
      "postcode": "4465-118",
      "city": "SÃO MAMEDE DE INFESTA",
      "lon": "-8.628167447596132",
      "lat": "41.183861138074725"
    },
    {
      "id": "pt.ine.add.PTCONT.4171759",
      "street": "R DAMAO",
      "house": "85",
      "postcode": "4465-118",
      "city": "SÃO MAMEDE DE INFESTA",
      "lon": "-8.628167447596132",
      "lat": "41.183861138074725"
    },
    {
      "id": "pt.ine.add.PTCONT.4171760",
      "street": "R DAMAO",
      "house": "159",
      "postcode": "4465-118",
      "city": "SÃO MAMEDE DE INFESTA",
      "lon": "-8.628167447596132",
      "lat": "41.183861138074725"
    },
    {
      "id": "pt.ine.add.PTCONT.4171761",
      "street": "R DAMAO",
      "house": "159",
      "postcode": "4465-118",
      "city": "SÃO MAMEDE DE INFESTA",
      "lon": "-8.628167447596132",
      "lat": "41.183861138074725"
    },
    {
      "id": "pt.ine.add.PTCONT.4171762",
      "street": "R DAMAO",
      "house": "159",
      "postcode": "4465-118",
      "city": "SÃO MAMEDE DE INFESTA",
      "lon": "-8.628167447596132",
      "lat": "41.183861138074725"
    },
    {
      "id": "pt.ine.add.PTCONT.4171763",
      "street": "R DAMAO",
      "house": "159",
      "postcode": "4465-118",
      "city": "SÃO MAMEDE DE INFESTA",
      "lon": "-8.628167447596132",
      "lat": "41.183861138074725"
    },
    {
      "id": "pt.ine.add.PTCONT.4171764",
      "street": "R DAMAO",
      "house": "159",
      "postcode": "4465-118",
      "city": "SÃO MAMEDE DE INFESTA",
      "lon": "-8.628167447596132",
      "lat": "41.183861138074725"
    },
    {
      "id": "pt.ine.add.PTCONT.4173246",
      "street": "R DAMAO",
      "house": "159",
      "postcode": "4465-118",
      "city": "SÃO MAMEDE DE INFESTA",
      "lon": "-8.628167447596132",
      "lat": "41.183861138074725"
    },
    {
      "id": "pt.ine.add.PTCONT.4173530",
      "street": "R DAMAO",
      "house": "159",
      "postcode": "4465-118",
      "city": "SÃO MAMEDE DE INFESTA",
      "lon": "-8.628167447596132",
      "lat": "41.183861138074725"
    },
    {
      "id": "pt.ine.add.PTCONT.4196134",
      "street": "R DAMAO",
      "house": "85",
      "postcode": "4465-118",
      "city": "SÃO MAMEDE DE INFESTA",
      "lon": "-8.629289541360114",
      "lat": "41.18409042126406"
    },
    {
      "id": "pt.ine.add.PTCONT.4196135",
      "street": "R DAMAO",
      "house": "85",
      "postcode": "4465-118",
      "city": "SÃO MAMEDE DE INFESTA",
      "lon": "-8.629289541360114",
      "lat": "41.18409042126406"
    },
    {
      "id": "pt.ine.add.PTCONT.4196136",
      "street": "R DAMAO",
      "house": "85",
      "postcode": "4465-118",
      "city": "SÃO MAMEDE DE INFESTA",
      "lon": "-8.629289541360114",
      "lat": "41.18409042126406"
    },
    {
      "id": "pt.ine.add.PTCONT.4196137",
      "street": "R DAMAO",
      "house": "85",
      "postcode": "4465-118",
      "city": "SÃO MAMEDE DE INFESTA",
      "lon": "-8.629289541360114",
      "lat": "41.18409042126406"
    },
    {
      "id": "pt.ine.add.PTCONT.4196138",
      "street": "R DAMAO",
      "house": "159",
      "postcode": "4465-118",
      "city": "SÃO MAMEDE DE INFESTA",
      "lon": "-8.629289541360114",
      "lat": "41.18409042126406"
    },
    {
      "id": "pt.ine.add.PTCONT.4196139",
      "street": "R DAMAO",
      "house": "85",
      "postcode": "4465-118",
      "city": "SÃO MAMEDE DE INFESTA",
      "lon": "-8.629289541360114",
      "lat": "41.18409042126406"
    },
    {
      "id": "pt.ine.add.PTCONT.4196140",
      "street": "R DAMAO",
      "house": "85",
      "postcode": "4465-118",
      "city": "SÃO MAMEDE DE INFESTA",
      "lon": "-8.629289541360114",
      "lat": "41.18409042126406"
    },
    {
      "id": "pt.ine.add.PTCONT.4196141",
      "street": "R DAMAO",
      "house": "85",
      "postcode": "4465-118",
      "city": "SÃO MAMEDE DE INFESTA",
      "lon": "-8.629289541360114",
      "lat": "41.18409042126406"
    },
    {
      "id": "pt.ine.add.PTCONT.4196142",
      "street": "R DAMAO",
      "house": "85",
      "postcode": "4465-118",
      "city": "SÃO MAMEDE DE INFESTA",
      "lon": "-8.629289541360114",
      "lat": "41.18409042126406"
    },
    {
      "id": "pt.ine.add.PTCONT.4196143",
      "street": "R DAMAO",
      "house": "85",
      "postcode": "4465-118",
      "city": "SÃO MAMEDE DE INFESTA",
      "lon": "-8.629289541360114",
      "lat": "41.18409042126406"
    },
    {
      "id": "pt.ine.add.PTCONT.4196144",
      "street": "R DAMAO",
      "house": "85",
      "postcode": "4465-118",
      "city": "SÃO MAMEDE DE INFESTA",
      "lon": "-8.629289541360114",
      "lat": "41.18409042126406"
    },
    {
      "id": "pt.ine.add.PTCONT.4200803",
      "street": "R DAMAO",
      "house": "85",
      "postcode": "4465-118",
      "city": "SÃO MAMEDE DE INFESTA",
      "lon": "-8.629289541360114",
      "lat": "41.18409042126406"
    },
    {
      "id": "pt.ine.add.PTCONT.4203600",
      "street": "R CENTRAL DO SEIXO",
      "house": "210",
      "postcode": "4465-064",
      "city": "SÃO MAMEDE DE INFESTA",
      "lon": "-8.629246294857456",
      "lat": "41.18449289363866"
    },
    {
      "id": "pt.ine.add.PTCONT.4203601",
      "street": "R CENTRAL DO SEIXO",
      "house": "210",
      "postcode": "4465-064",
      "city": "SÃO MAMEDE DE INFESTA",
      "lon": "-8.629246294857456",
      "lat": "41.18449289363866"
    },
    {
      "id": "pt.ine.add.PTCONT.4216049",
      "street": "R CENTRAL DO SEIXO",
      "house": "96",
      "postcode": "4465-064",
      "city": "SÃO MAMEDE DE INFESTA",
      "lon": "-8.628832154153372",
      "lat": "41.18474838479846"
    },
    {
      "id": "pt.ine.add.PTCONT.4225809",
      "street": "R CENTRAL DO SEIXO",
      "house": "96",
      "postcode": "4465-064",
      "city": "SÃO MAMEDE DE INFESTA",
      "lon": "-8.628555472683432",
      "lat": "41.18483481546432"
    },
    {
      "id": "pt.ine.add.PTCONT.4250058",
      "street": "TV PISOEIRO",
      "house": "",
      "postcode": "4465-364",
      "city": "SÃO MAMEDE DE INFESTA",
      "lon": "-8.628480242958178",
      "lat": "41.184246978114146"
    },
    {
      "id": "pt.ine.add.PTCONT.4250283",
      "street": "R DAMÃO",
      "house": "119",
      "postcode": "4465-118",
      "city": "SÃO MAMEDE DE INFESTA",
      "lon": "-8.628758456563864",
      "lat": "41.18400966585028"
    },
    {
      "id": "pt.ine.add.PTCONT.4250284",
      "street": "R DAMÃO",
      "house": "119",
      "postcode": "4465-118",
      "city": "SÃO MAMEDE DE INFESTA",
      "lon": "-8.628758456563864",
      "lat": "41.18400966585028"
    },
    {
      "id": "pt.ine.add.PTCONT.4250285",
      "street": "R DAMÃO",
      "house": "119",
      "postcode": "4465-118",
      "city": "SÃO MAMEDE DE INFESTA",
      "lon": "-8.628758456563864",
      "lat": "41.18400966585028"
    },
    {
      "id": "pt.ine.add.PTCONT.4250286",
      "street": "R DAMÃO",
      "house": "119",
      "postcode": "4465-118",
      "city": "SÃO MAMEDE DE INFESTA",
      "lon": "-8.628758456563864",
      "lat": "41.18400966585028"
    },
    {
      "id": "pt.ine.add.PTCONT.4250287",
      "street": "R DAMÃO",
      "house": "119",
      "postcode": "4465-118",
      "city": "SÃO MAMEDE DE INFESTA",
      "lon": "-8.628758456563864",
      "lat": "41.18400966585028"
    },
    {
      "id": "pt.ine.add.PTCONT.4250288",
      "street": "R DAMÃO",
      "house": "119",
      "postcode": "4465-118",
      "city": "SÃO MAMEDE DE INFESTA",
      "lon": "-8.628758456563864",
      "lat": "41.18400966585028"
    },
    {
      "id": "pt.ine.add.PTCONT.4250499",
      "street": "R DAMÃO",
      "house": "119",
      "postcode": "4465-118",
      "city": "SÃO MAMEDE DE INFESTA",
      "lon": "-8.628758456563864",
      "lat": "41.18400966585028"
    },
    {
      "id": "pt.ine.add.PTCONT.4250500",
      "street": "R DAMÃO",
      "house": "119",
      "postcode": "4465-118",
      "city": "SÃO MAMEDE DE INFESTA",
      "lon": "-8.628758456563864",
      "lat": "41.18400966585028"
    },
    {
      "id": "pt.ine.add.PTCONT.4250501",
      "street": "R DAMÃO",
      "house": "119",
      "postcode": "4465-118",
      "city": "SÃO MAMEDE DE INFESTA",
      "lon": "-8.628758456563864",
      "lat": "41.18400966585028"
    },
    {
      "id": "pt.ine.add.PTCONT.4250502",
      "street": "R DAMÃO",
      "house": "119",
      "postcode": "4465-118",
      "city": "SÃO MAMEDE DE INFESTA",
      "lon": "-8.628758456563864",
      "lat": "41.18400966585028"
    },
    {
      "id": "pt.ine.add.PTCONT.4250503",
      "street": "R DAMÃO",
      "house": "119",
      "postcode": "4465-118",
      "city": "SÃO MAMEDE DE INFESTA",
      "lon": "-8.628758456563864",
      "lat": "41.18400966585028"
    },
    {
      "id": "pt.ine.add.PTCONT.4251920",
      "street": "R DAMÃO",
      "house": "119",
      "postcode": "4465-118",
      "city": "SÃO MAMEDE DE INFESTA",
      "lon": "-8.628758456563864",
      "lat": "41.18400966585028"
    },
    {
      "id": "pt.ine.add.PTCONT.4264723",
      "street": "R CENTRAL DO SEIXO",
      "house": "318",
      "postcode": "4465-064",
      "city": "SÃO MAMEDE DE INFESTA",
      "lon": "-8.628870851396474",
      "lat": "41.18557283293117"
    },
    {
      "id": "pt.ine.add.PTCONT.4268225",
      "street": "TV PISOEIRO",
      "house": "110",
      "postcode": "4465-364",
      "city": "SÃO MAMEDE DE INFESTA",
      "lon": "-8.628829001245126",
      "lat": "41.18465967539192"
    },
    {
      "id": "pt.ine.add.PTCONT.4268226",
      "street": "TV PISOEIRO",
      "house": "110",
      "postcode": "4465-364",
      "city": "SÃO MAMEDE DE INFESTA",
      "lon": "-8.628829001245126",
      "lat": "41.18465967539192"
    },
    {
      "id": "pt.ine.add.PTCONT.4284130",
      "street": "TV ORMUZ",
      "house": "77",
      "postcode": "4465-223",
      "city": "SÃO MAMEDE DE INFESTA",
      "lon": "-8.627814106059168",
      "lat": "41.186005679872416"
    },
    {
      "id": "pt.ine.add.PTCONT.4296421",
      "street": "R CENTRAL DO SEIXO",
      "house": "228",
      "postcode": "4465-064",
      "city": "SÃO MAMEDE DE INFESTA",
      "lon": "-8.629139632013848",
      "lat": "41.184923334538865"
    },
    {
      "id": "pt.ine.add.PTCONT.4331198",
      "street": "TV PISOEIRO",
      "house": "112",
      "postcode": "4465-364",
      "city": "SÃO MAMEDE DE INFESTA",
      "lon": "-8.62891256667203",
      "lat": "41.184677324285445"
    },
    {
      "id": "pt.ine.add.PTCONT.4347759",
      "street": "R CENTRAL DO SEIXO",
      "house": "318 A",
      "postcode": "4465-064",
      "city": "SÃO MAMEDE DE INFESTA",
      "lon": "-8.628849065130376",
      "lat": "41.18569681055994"
    },
    {
      "id": "pt.ine.add.PTCONT.4376256",
      "street": "R DAMÃO",
      "house": "71",
      "postcode": "4465-118",
      "city": "SÃO MAMEDE DE INFESTA",
      "lon": "-8.629504072731182",
      "lat": "41.18408949683449"
    },
    {
      "id": "pt.ine.add.PTCONT.4381203",
      "street": "R CENTRAL DO SEIXO",
      "house": "302",
      "postcode": "4465-064",
      "city": "SÃO MAMEDE DE INFESTA",
      "lon": "-8.628899030075061",
      "lat": "41.18550309669146"
    },
    {
      "id": "pt.ine.add.PTCONT.4381297",
      "street": "R CENTRAL DO SEIXO",
      "house": "96",
      "postcode": "4465-064",
      "city": "SÃO MAMEDE DE INFESTA",
      "lon": "-8.628832154153372",
      "lat": "41.18474838479846"
    },
    {
      "id": "pt.ine.add.PTCONT.4383118",
      "street": "R DAMÃO",
      "house": "143",
      "postcode": "4465-118",
      "city": "SÃO MAMEDE DE INFESTA",
      "lon": "-8.628397194300273",
      "lat": "41.18387073036069"
    },
    {
      "id": "pt.ine.add.PTCONT.4385098",
      "street": "R DAMAO",
      "house": "159",
      "postcode": "4465-118",
      "city": "SÃO MAMEDE DE INFESTA",
      "lon": "-8.628167447596132",
      "lat": "41.183861138074725"
    }
  ]
}