{
  "data": {
    "ilha": "Ilha da Madeira (Madeira)",
    "concelho": "Funchal",
    "freguesia": "SÃ£o Roque",
    "OBJECTID": 105,
    "BGRI2021": "31030900206",
    "DT21": "31",
    "DTMN21": "3103",
    "DTMNFR21": "310309",
    "DTMNFRSEC21": "310309002",
    "SECNUM21": "002",
    "SSNUM21": "06",
    "SECSSNUM21": "00206",
    "OBJECTID_1": 204350,
    "DT": "31",
    "CC": "03",
    "fr": "09",
    "SEC": "002",
    "SS": "06",
    "BGRI2021_1": "31030900206"
  },
  "addresses": [
    {
      "id": "pt.ine.add.MAD.31905",
      "street": "CAM SALAO",
      "house": "17",
      "postcode": "9020-332",
      "city": "FUNCHAL",
      "lon": "-16.92413619925843",
      "lat": "32.66561862202387"
    },
    {
      "id": "pt.ine.add.MAD.31906",
      "street": "BC CARVALHAL",
      "house": "4",
      "postcode": "9020-029",
      "city": "FUNCHAL",
      "lon": "-16.924304806271223",
      "lat": "32.66552584868314"
    },
    {
      "id": "pt.ine.add.MAD.31907",
      "street": "BC CARVALHAL",
      "house": "12",
      "postcode": "9020-029",
      "city": "FUNCHAL",
      "lon": "-16.924785054480015",
      "lat": "32.66504950783618"
    },
    {
      "id": "pt.ine.add.MAD.31908",
      "street": "BC CARVALHAL",
      "house": "11",
      "postcode": "9020-029",
      "city": "FUNCHAL",
      "lon": "-16.924755424068767",
      "lat": "32.664662157423095"
    },
    {
      "id": "pt.ine.add.MAD.31909",
      "street": "BC CARVALHAL",
      "house": "9",
      "postcode": "9020-029",
      "city": "FUNCHAL",
      "lon": "-16.92454106484967",
      "lat": "32.66510736335268"
    },
    {
      "id": "pt.ine.add.MAD.31910",
      "street": "BC CARVALHAL",
      "house": "4",
      "postcode": "9020-029",
      "city": "FUNCHAL",
      "lon": "-16.92440407594801",
      "lat": "32.66468558483798"
    },
    {
      "id": "pt.ine.add.MAD.31911",
      "street": "BC CARVALHAL",
      "house": "1",
      "postcode": "9020-029",
      "city": "FUNCHAL",
      "lon": "-16.924186622563585",
      "lat": "32.66498653810566"
    },
    {
      "id": "pt.ine.add.MAD.31912",
      "street": "BC CARVALHAL",
      "house": "5",
      "postcode": "9020-029",
      "city": "FUNCHAL",
      "lon": "-16.924394162831828",
      "lat": "32.66521784149595"
    },
    {
      "id": "pt.ine.add.MAD.31913",
      "street": "BC CARVALHAL",
      "house": "3",
      "postcode": "9020-029",
      "city": "FUNCHAL",
      "lon": "-16.924024973617268",
      "lat": "32.66540387857002"
    },
    {
      "id": "pt.ine.add.MAD.31914",
      "street": "BC CARVALHAL",
      "house": "1",
      "postcode": "9020-029",
      "city": "FUNCHAL",
      "lon": "-16.92387768397901",
      "lat": "32.66549632462786"
    },
    {
      "id": "pt.ine.add.MAD.31915",
      "street": "CAM SALAO",
      "house": "11 A",
      "postcode": "9020-332",
      "city": "FUNCHAL",
      "lon": "-16.923681769130425",
      "lat": "32.66530993573027"
    },
    {
      "id": "pt.ine.add.MAD.31916",
      "street": "CAM SALAO",
      "house": "11",
      "postcode": "9020-332",
      "city": "FUNCHAL",
      "lon": "-16.923565296163535",
      "lat": "32.665347796545035"
    },
    {
      "id": "pt.ine.add.MAD.31917",
      "street": "CAM SALAO",
      "house": "1C",
      "postcode": "9020-332",
      "city": "FUNCHAL",
      "lon": "-16.9236403253693",
      "lat": "32.6648686537641"
    },
    {
      "id": "pt.ine.add.MAD.32771",
      "street": "CAM SALAO",
      "house": "57",
      "postcode": "9020-332",
      "city": "FUNCHAL",
      "lon": "-16.924026192522287",
      "lat": "32.664465912702944"
    },
    {
      "id": "pt.ine.add.MAD.32772",
      "street": "RAMP QUINTA CARVALHAL",
      "house": "14",
      "postcode": "9020-197",
      "city": "FUNCHAL",
      "lon": "-16.924720961041135",
      "lat": "32.66404941306095"
    },
    {
      "id": "pt.ine.add.MAD.32773",
      "street": "CAM VELHO QUINTA",
      "house": "14 CASA 6",
      "postcode": "9020-130",
      "city": "FUNCHAL",
      "lon": "-16.92503491716109",
      "lat": "32.66377403435887"
    },
    {
      "id": "pt.ine.add.MAD.32774",
      "street": "CAM VELHO QUINTA",
      "house": "8",
      "postcode": "9020-130",
      "city": "FUNCHAL",
      "lon": "-16.925736831872022",
      "lat": "32.66369111228331"
    },
    {
      "id": "pt.ine.add.MAD.32775",
      "street": "CAM VELHO QUINTA",
      "house": "14 CASA 1",
      "postcode": "9020-130",
      "city": "FUNCHAL",
      "lon": "-16.925558151471016",
      "lat": "32.6638110982396"
    },
    {
      "id": "pt.ine.add.MAD.32776",
      "street": "CAM VELHO QUINTA",
      "house": "14",
      "postcode": "9020-130",
      "city": "FUNCHAL",
      "lon": "-16.925612991311265",
      "lat": "32.66388240628808"
    },
    {
      "id": "pt.ine.add.MAD.32777",
      "street": "CAM VELHO QUINTA",
      "house": "16A",
      "postcode": "9020-130",
      "city": "FUNCHAL",
      "lon": "-16.925703868579316",
      "lat": "32.664142554278946"
    },
    {
      "id": "pt.ine.add.MAD.32778",
      "street": "CAM VELHO QUINTA",
      "house": "221",
      "postcode": "9020-130",
      "city": "FUNCHAL",
      "lon": "-16.925513346697432",
      "lat": "32.664704639231495"
    },
    {
      "id": "pt.ine.add.MAD.32779",
      "street": "CAM VELHO QUINTA",
      "house": "22C CASA 2",
      "postcode": "9020-130",
      "city": "FUNCHAL",
      "lon": "-16.925056983352828",
      "lat": "32.66430580034659"
    },
    {
      "id": "pt.ine.add.MAD.32780",
      "street": "CAM VELHO QUINTA",
      "house": "24 CASA 3",
      "postcode": "9020-130",
      "city": "FUNCHAL",
      "lon": "-16.925087581659003",
      "lat": "32.6647382294332"
    },
    {
      "id": "pt.ine.add.MAD.32781",
      "street": "CAM VELHO QUINTA",
      "house": "26 D",
      "postcode": "9020-130",
      "city": "FUNCHAL",
      "lon": "-16.92501703163254",
      "lat": "32.66492870513172"
    },
    {
      "id": "pt.ine.add.MAD.32782",
      "street": "CAM VELHO QUINTA",
      "house": "26A",
      "postcode": "9020-130",
      "city": "FUNCHAL",
      "lon": "-16.925453843053642",
      "lat": "32.664912983051664"
    },
    {
      "id": "pt.ine.add.MAD.33647",
      "street": "CAM VELHO QUINTA",
      "house": "32",
      "postcode": "9020-130",
      "city": "FUNCHAL",
      "lon": "-16.92502321899017",
      "lat": "32.66521720924408"
    },
    {
      "id": "pt.ine.add.MAD.33648",
      "street": "CAM VELHO QUINTA",
      "house": "48",
      "postcode": "9020-130",
      "city": "FUNCHAL",
      "lon": "-16.924668749668328",
      "lat": "32.66559241544933"
    },
    {
      "id": "pt.ine.add.MAD.34491",
      "street": "CAM SALAO APARTAMENTOS SALAO",
      "house": "1",
      "postcode": "9020-332",
      "city": "FUNCHAL",
      "lon": "-16.92316029936641",
      "lat": "32.66485797581767"
    },
    {
      "id": "pt.ine.add.MAD.34492",
      "street": "CAM SALAO APARTAMENTOS SALAO",
      "house": "1",
      "postcode": "9020-332",
      "city": "FUNCHAL",
      "lon": "-16.92316029936641",
      "lat": "32.66485797581767"
    },
    {
      "id": "pt.ine.add.MAD.34493",
      "street": "CAM SALAO APARTAMENTOS SALAO",
      "house": "1",
      "postcode": "9020-332",
      "city": "FUNCHAL",
      "lon": "-16.92316029936641",
      "lat": "32.66485797581767"
    },
    {
      "id": "pt.ine.add.MAD.34494",
      "street": "CAM SALAO APARTAMENTOS SALAO",
      "house": "1",
      "postcode": "9020-332",
      "city": "FUNCHAL",
      "lon": "-16.92316029936641",
      "lat": "32.66485797581767"
    },
    {
      "id": "pt.ine.add.MAD.34495",
      "street": "CAM SALAO F",
      "house": "F",
      "postcode": "9020-332",
      "city": "FUNCHAL",
      "lon": "-16.92316029936641",
      "lat": "32.66485797581767"
    },
    {
      "id": "pt.ine.add.MAD.34496",
      "street": "RAMP QUINTA CARVALHAL",
      "house": "1D",
      "postcode": "9020-197",
      "city": "FUNCHAL",
      "lon": "-16.924180689301053",
      "lat": "32.66371498913422"
    },
    {
      "id": "pt.ine.add.MAD.34497",
      "street": "CAM S ROQUE",
      "house": "53",
      "postcode": "9020-122",
      "city": "FUNCHAL",
      "lon": "-16.922979717152323",
      "lat": "32.66439177020367"
    },
    {
      "id": "pt.ine.add.MAD.34498",
      "street": "CAM S ROQUE",
      "house": "51",
      "postcode": "9020-122",
      "city": "FUNCHAL",
      "lon": "-16.92288263089379",
      "lat": "32.664339145947295"
    },
    {
      "id": "pt.ine.add.MAD.34499",
      "street": "CAM S ROQUE",
      "house": "49",
      "postcode": "9020-122",
      "city": "FUNCHAL",
      "lon": "-16.922859382372014",
      "lat": "32.664249315017784"
    },
    {
      "id": "pt.ine.add.MAD.34500",
      "street": "CAM S ROQUE",
      "house": "47",
      "postcode": "9020-122",
      "city": "FUNCHAL",
      "lon": "-16.92291016453821",
      "lat": "32.66413129322794"
    },
    {
      "id": "pt.ine.add.MAD.34501",
      "street": "CAM S ROQUE",
      "house": "45",
      "postcode": "9020-122",
      "city": "FUNCHAL",
      "lon": "-16.92281249923",
      "lat": "32.664051621603576"
    },
    {
      "id": "pt.ine.add.MAD.35349",
      "street": "CAM S ROQUE",
      "house": "45A",
      "postcode": "9020-122",
      "city": "FUNCHAL",
      "lon": "-16.92293885690541",
      "lat": "32.66397753509781"
    },
    {
      "id": "pt.ine.add.MAD.35350",
      "street": "CAM S ROQUE",
      "house": "45",
      "postcode": "9020-122",
      "city": "FUNCHAL",
      "lon": "-16.923410378104915",
      "lat": "32.66359152046024"
    },
    {
      "id": "pt.ine.add.MAD.35351",
      "street": "CAM S ROQUE",
      "house": "31A",
      "postcode": "9020-122",
      "city": "FUNCHAL",
      "lon": "-16.92263269305607",
      "lat": "32.66362147837694"
    },
    {
      "id": "pt.ine.add.MAD.35352",
      "street": "CAM S ROQUE",
      "house": "31 RC",
      "postcode": "9020-122",
      "city": "FUNCHAL",
      "lon": "-16.922863510963747",
      "lat": "32.66344658505436"
    },
    {
      "id": "pt.ine.add.MAD.35353",
      "street": "CAM S ROQUE",
      "house": "29B",
      "postcode": "9020-122",
      "city": "FUNCHAL",
      "lon": "-16.922914292725334",
      "lat": "32.6633285632658"
    },
    {
      "id": "pt.ine.add.MAD.35354",
      "street": "CAM S ROQUE",
      "house": "3",
      "postcode": "9020-122",
      "city": "FUNCHAL",
      "lon": "-16.922914292725334",
      "lat": "32.6633285632658"
    },
    {
      "id": "pt.ine.add.MAD.35355",
      "street": "CAM S ROQUE",
      "house": "29",
      "postcode": "9020-122",
      "city": "FUNCHAL",
      "lon": "-16.92247806735622",
      "lat": "32.66337132353988"
    },
    {
      "id": "pt.ine.add.MAD.35356",
      "street": "CAM S ROQUE",
      "house": "25 B",
      "postcode": "9020-122",
      "city": "FUNCHAL",
      "lon": "-16.922301160291667",
      "lat": "32.663076416242234"
    },
    {
      "id": "pt.ine.add.MAD.35357",
      "street": "CAM S ROQUE",
      "house": "25A",
      "postcode": "9020-122",
      "city": "FUNCHAL",
      "lon": "-16.922416858641526",
      "lat": "32.66300249359795"
    },
    {
      "id": "pt.ine.add.MAD.35358",
      "street": "CAM S ROQUE",
      "house": "25",
      "postcode": "9020-122",
      "city": "FUNCHAL",
      "lon": "-16.922350591123372",
      "lat": "32.66289528425972"
    },
    {
      "id": "pt.ine.add.MAD.35359",
      "street": "CAM S ROQUE",
      "house": "23",
      "postcode": "9020-122",
      "city": "FUNCHAL",
      "lon": "-16.92279882450663",
      "lat": "32.66291547153715"
    },
    {
      "id": "pt.ine.add.MAD.35360",
      "street": "CAM S ROQUE",
      "house": "21",
      "postcode": "9020-122",
      "city": "FUNCHAL",
      "lon": "-16.922463586067213",
      "lat": "32.662695140792636"
    },
    {
      "id": "pt.ine.add.MAD.36219",
      "street": "ESTR DR JOÃO ABEL FREITAS",
      "house": "174B",
      "postcode": "9020-211",
      "city": "FUNCHAL",
      "lon": "-16.92349896343505",
      "lat": "32.66324745072117"
    },
    {
      "id": "pt.ine.add.MAD.36220",
      "street": "ESTR DR JOÃO ABEL FREITAS",
      "house": "174C",
      "postcode": "9020-211",
      "city": "FUNCHAL",
      "lon": "-16.923607866487558",
      "lat": "32.663354005697784"
    },
    {
      "id": "pt.ine.add.MAD.55063",
      "street": "CAM SALAO",
      "house": "57",
      "postcode": "9020-332",
      "city": "FUNCHAL",
      "lon": "-16.924064545766917",
      "lat": "32.66476294236161"
    },
    {
      "id": "pt.ine.add.MAD.55064",
      "street": "CAM VELHO QUINTA",
      "house": "4",
      "postcode": "9020-130",
      "city": "FUNCHAL",
      "lon": "-16.92555894666969",
      "lat": "32.66335113125642"
    },
    {
      "id": "pt.ine.add.MAD.55245",
      "street": "CAM VELHO QUINTA",
      "house": "22C CASA 1",
      "postcode": "9020-130",
      "city": "FUNCHAL",
      "lon": "-16.924981019862834",
      "lat": "32.664243834897995"
    },
    {
      "id": "pt.ine.add.MAD.55246",
      "street": "CAM S ROQUE",
      "house": "53 A",
      "postcode": "9020-122",
      "city": "FUNCHAL",
      "lon": "-16.922970024268146",
      "lat": "32.66443701240493"
    },
    {
      "id": "pt.ine.add.MAD.58646",
      "street": "CAM VELHO QUINTA",
      "house": "10",
      "postcode": "9020-130",
      "city": "FUNCHAL",
      "lon": "-16.925781980368296",
      "lat": "32.66380766261957"
    },
    {
      "id": "pt.ine.add.MAD.58648",
      "street": "CAM S ROQUE",
      "house": "61",
      "postcode": "9020-122",
      "city": "FUNCHAL",
      "lon": "-16.922954308208308",
      "lat": "32.66469879634303"
    },
    {
      "id": "pt.ine.add.MAD.59914",
      "street": "BC CARVALHAL",
      "house": "3",
      "postcode": "9020-029",
      "city": "FUNCHAL",
      "lon": "-16.924566855004453",
      "lat": "32.66481836862229"
    },
    {
      "id": "pt.ine.add.MAD.59915",
      "street": "CAM VELHO QUINTA",
      "house": "12",
      "postcode": "9020-130",
      "city": "FUNCHAL",
      "lon": "-16.92583798094901",
      "lat": "32.66393306506872"
    },
    {
      "id": "pt.ine.add.MAD.65278",
      "street": "CAM SALAO",
      "house": "57",
      "postcode": "9020-332",
      "city": "FUNCHAL",
      "lon": "-16.92376050021269",
      "lat": "32.664506062070686"
    },
    {
      "id": "pt.ine.add.MAD.65279",
      "street": "CAM S ROQUE",
      "house": "63",
      "postcode": "9020-122",
      "city": "FUNCHAL",
      "lon": "-16.92294480843029",
      "lat": "32.664753054306935"
    },
    {
      "id": "pt.ine.add.MAD.65280",
      "street": "CAM S ROQUE",
      "house": "27",
      "postcode": "9020-122",
      "city": "FUNCHAL",
      "lon": "-16.92262593445269",
      "lat": "32.663305926479275"
    },
    {
      "id": "pt.ine.add.MAD.67770",
      "street": "CAM S ROQUE",
      "house": "55 A",
      "postcode": "9020-122",
      "city": "FUNCHAL",
      "lon": "-16.922918662609913",
      "lat": "32.66452798692085"
    },
    {
      "id": "pt.ine.add.MAD.68995",
      "street": "ESTR DR JOÃO ABEL FREITAS",
      "house": "6",
      "postcode": "9020-158",
      "city": "FUNCHAL",
      "lon": "-16.92622907556448",
      "lat": "32.66327771307641"
    },
    {
      "id": "pt.ine.add.MAD.68996",
      "street": "CAM VELHO QUINTA",
      "house": "6",
      "postcode": "9020-130",
      "city": "FUNCHAL",
      "lon": "-16.92573393063221",
      "lat": "32.66355587600633"
    },
    {
      "id": "pt.ine.add.MAD.68997",
      "street": "CAM VELHO QUINTA",
      "house": "6",
      "postcode": "9020-130",
      "city": "FUNCHAL",
      "lon": "-16.92573393063221",
      "lat": "32.66355587600633"
    },
    {
      "id": "pt.ine.add.MAD.68998",
      "street": "CAM VELHO QUINTA",
      "house": "24 CASA 2",
      "postcode": "9020-130",
      "city": "FUNCHAL",
      "lon": "-16.92499146061053",
      "lat": "32.664730685642766"
    },
    {
      "id": "pt.ine.add.MAD.69000",
      "street": "CAM SALAO",
      "house": "65",
      "postcode": "9020-332",
      "city": "FUNCHAL",
      "lon": "-16.922999260568027",
      "lat": "32.66480633201516"
    },
    {
      "id": "pt.ine.add.MAD.69001",
      "street": "CAM S ROQUE",
      "house": "59",
      "postcode": "9020-122",
      "city": "FUNCHAL",
      "lon": "-16.92311418782143",
      "lat": "32.66469634562757"
    },
    {
      "id": "pt.ine.add.MAD.69002",
      "street": "CAM S ROQUE",
      "house": "45 3ESQ",
      "postcode": "9020-122",
      "city": "FUNCHAL",
      "lon": "-16.922800102546162",
      "lat": "32.6639706430612"
    },
    {
      "id": "pt.ine.add.MAD.73791",
      "street": "CAM SALAO",
      "house": "57",
      "postcode": "9020-332",
      "city": "FUNCHAL",
      "lon": "-16.92379537447463",
      "lat": "32.66464080815204"
    },
    {
      "id": "pt.ine.add.MAD.73792",
      "street": "CAM VELHO QUINTA",
      "house": "26C",
      "postcode": "9020-130",
      "city": "FUNCHAL",
      "lon": "-16.925176524722005",
      "lat": "32.66490822026743"
    },
    {
      "id": "pt.ine.add.MAD.73794",
      "street": "R CÃNEGO ANTÃNIO LOPES DE ANDRADE",
      "house": "3",
      "postcode": "9020-211",
      "city": "FUNCHAL",
      "lon": "-16.9229323627542",
      "lat": "32.6626789379057"
    },
    {
      "id": "pt.ine.add.MAD.76891",
      "street": "CAM VELHO QUINTA",
      "house": "26 B",
      "postcode": "9020-130",
      "city": "FUNCHAL",
      "lon": "-16.925314893813237",
      "lat": "32.66489707810806"
    },
    {
      "id": "pt.ine.add.MAD.77070",
      "street": "CAM S ROQUE",
      "house": "55C",
      "postcode": "9020-122",
      "city": "FUNCHAL",
      "lon": "-16.92301439705017",
      "lat": "32.6645175007851"
    },
    {
      "id": "pt.ine.add.MAD.78900",
      "street": "CAM S ROQUE",
      "house": "47",
      "postcode": "9020-122",
      "city": "FUNCHAL",
      "lon": "-16.922754378418986",
      "lat": "32.66382704421038"
    },
    {
      "id": "pt.ine.add.MAD.83364",
      "street": "CAM VELHO QUINTA",
      "house": "14",
      "postcode": "9020-130",
      "city": "FUNCHAL",
      "lon": "-16.925349428778862",
      "lat": "32.66402173221688"
    },
    {
      "id": "pt.ine.add.MAD.85218",
      "street": "RAMP QUINTA CARVALHAL",
      "house": "1",
      "postcode": "9020-197",
      "city": "FUNCHAL",
      "lon": "-16.924058421168123",
      "lat": "32.66348237751536"
    },
    {
      "id": "pt.ine.add.MAD.85418",
      "street": "RAMP QUINTA CARVALHAL",
      "house": "2",
      "postcode": "9020-197",
      "city": "FUNCHAL",
      "lon": "-16.924112679878792",
      "lat": "32.66352663899379"
    },
    {
      "id": "pt.ine.add.MAD.85419",
      "street": "RAMP QUINTA CARVALHAL",
      "house": "1E",
      "postcode": "9020-197",
      "city": "FUNCHAL",
      "lon": "-16.924395599166015",
      "lat": "32.66379286130088"
    },
    {
      "id": "pt.ine.add.MAD.85420",
      "street": "ESTR DR JOÃO ABEL FREITAS",
      "house": "176",
      "postcode": "9020-197",
      "city": "FUNCHAL",
      "lon": "-16.92372665543809",
      "lat": "32.66342433408361"
    },
    {
      "id": "pt.ine.add.MAD.89939",
      "street": "CAM SALAO",
      "house": "13",
      "postcode": "9020-332",
      "city": "FUNCHAL",
      "lon": "-16.923663929688196",
      "lat": "32.66547254629053"
    },
    {
      "id": "pt.ine.add.MAD.89941",
      "street": "CAM S ROQUE",
      "house": "29 C",
      "postcode": "9020-122",
      "city": "FUNCHAL",
      "lon": "-16.922836400289363",
      "lat": "32.66317643874625"
    },
    {
      "id": "pt.ine.add.MAD.89942",
      "street": "R CÃNEGO ANTÃNIO LOPES DE ANDRADE",
      "house": "1",
      "postcode": "9020-211",
      "city": "FUNCHAL",
      "lon": "-16.923140280549244",
      "lat": "32.662928275306186"
    },
    {
      "id": "pt.ine.add.MAD.94350",
      "street": "CAM SALAO",
      "house": "15",
      "postcode": "9020-332",
      "city": "FUNCHAL",
      "lon": "-16.923782721571662",
      "lat": "32.66554287449415"
    },
    {
      "id": "pt.ine.add.MAD.94351",
      "street": "CAM VELHO QUINTA",
      "house": "22",
      "postcode": "9020-130",
      "city": "FUNCHAL",
      "lon": "-16.925102904763968",
      "lat": "32.66445841395428"
    },
    {
      "id": "pt.ine.add.MAD.94353",
      "street": "CAM S ROQUE",
      "house": "55",
      "postcode": "9020-122",
      "city": "FUNCHAL",
      "lon": "-16.92308881422857",
      "lat": "32.66450734134854"
    },
    {
      "id": "pt.ine.add.MAD.94354",
      "street": "CAM S ROQUE",
      "house": "45",
      "postcode": "9020-122",
      "city": "FUNCHAL",
      "lon": "-16.923096996854436",
      "lat": "32.66389394256177"
    },
    {
      "id": "pt.ine.add.MAD.101398",
      "street": "ESTR DR JOÃO ABEL FREITAS",
      "house": "174",
      "postcode": "9020-211",
      "city": "FUNCHAL",
      "lon": "-16.92335808528086",
      "lat": "32.66314138584759"
    },
    {
      "id": "pt.ine.add.MAD.101996",
      "street": "CAM SALAO",
      "house": "19",
      "postcode": "9020-332",
      "city": "FUNCHAL",
      "lon": "-16.924382896692684",
      "lat": "32.665686987823186"
    },
    {
      "id": "pt.ine.add.MAD.103165",
      "street": "CAM VELHO QUINTA",
      "house": "6",
      "postcode": "9020-130",
      "city": "FUNCHAL",
      "lon": "-16.925597110891854",
      "lat": "32.66363914457137"
    },
    {
      "id": "pt.ine.add.MAD.103241",
      "street": "CAM SALAO APARTAMENTOS SALAO",
      "house": "1",
      "postcode": "9020-332",
      "city": "FUNCHAL",
      "lon": "-16.92316029936641",
      "lat": "32.66485797581767"
    },
    {
      "id": "pt.ine.add.MAD.103517",
      "street": "CAM S ROQUE",
      "house": "PORTA 4",
      "postcode": "9020-122",
      "city": "FUNCHAL",
      "lon": "-16.922914292725334",
      "lat": "32.6633285632658"
    },
    {
      "id": "pt.ine.add.MAD.103901",
      "street": "CAM SALAO",
      "house": "5",
      "postcode": "9020-332",
      "city": "FUNCHAL",
      "lon": "-16.923272294951126",
      "lat": "32.66510878320993"
    },
    {
      "id": "pt.ine.add.MAD.104208",
      "street": "CAM S ROQUE",
      "house": "55 B",
      "postcode": "9020-122",
      "city": "FUNCHAL",
      "lon": "-16.92295218362146",
      "lat": "32.66459962292712"
    },
    {
      "id": "pt.ine.add.MAD.104244",
      "street": "CAM VELHO QUINTA",
      "house": "2",
      "postcode": "9020-130",
      "city": "FUNCHAL",
      "lon": "-16.926360072609995",
      "lat": "32.663420001240596"
    },
    {
      "id": "pt.ine.add.MAD.106707",
      "street": "RAMP DA QTA CARVALHAL",
      "house": "2-4",
      "postcode": "9020-197",
      "city": "FUNCHAL",
      "lon": "-16.924049501890913",
      "lat": "32.66356368282557"
    },
    {
      "id": "pt.ine.add.MAD.106708",
      "street": "RAMP DA QTA CARVALHAL",
      "house": "2-4",
      "postcode": "9020-197",
      "city": "FUNCHAL",
      "lon": "-16.924049501890913",
      "lat": "32.66356368282557"
    },
    {
      "id": "pt.ine.add.MAD.110399",
      "street": "CAM SALAO",
      "house": "7",
      "postcode": "9020-332",
      "city": "FUNCHAL",
      "lon": "-16.92346627651822",
      "lat": "32.66520501518625"
    },
    {
      "id": "pt.ine.add.MAD.110464",
      "street": "CAM VELHO QUINTA",
      "house": "14 CASA 3",
      "postcode": "9020-130",
      "city": "FUNCHAL",
      "lon": "-16.925375796334613",
      "lat": "32.663759784642856"
    },
    {
      "id": "pt.ine.add.MAD.110465",
      "street": "CAM VELHO QUINTA",
      "house": "18",
      "postcode": "9020-130",
      "city": "FUNCHAL",
      "lon": "-16.925440498846307",
      "lat": "32.66429089616906"
    },
    {
      "id": "pt.ine.add.MAD.110466",
      "street": "CAM VELHO QUINTA",
      "house": "28",
      "postcode": "9020-130",
      "city": "FUNCHAL",
      "lon": "-16.92530868297518",
      "lat": "32.6651046039814"
    },
    {
      "id": "pt.ine.add.MAD.110520",
      "street": "CAM VELHO QUINTA",
      "house": "30",
      "postcode": "9020-130",
      "city": "FUNCHAL",
      "lon": "-16.925129032419406",
      "lat": "32.66517951066535"
    },
    {
      "id": "pt.ine.add.MAD.110641",
      "street": "CAM S ROQUE",
      "house": "25A",
      "postcode": "9020-122",
      "city": "FUNCHAL",
      "lon": "-16.922416858641526",
      "lat": "32.66300249359795"
    },
    {
      "id": "pt.ine.add.MAD.110642",
      "street": "R CÃNEGO ANTÃNIO LOPES DE ANDRADE",
      "house": "9",
      "postcode": "9020-211",
      "city": "FUNCHAL",
      "lon": "-16.922567466860727",
      "lat": "32.66256728672994"
    },
    {
      "id": "pt.ine.add.MAD.110678",
      "street": "R CÃNEGO ANTÃNIO LOPES DE ANDRADE",
      "house": "9",
      "postcode": "9020-211",
      "city": "FUNCHAL",
      "lon": "-16.922567466860727",
      "lat": "32.66256728672994"
    },
    {
      "id": "pt.ine.add.MAD.110679",
      "street": "R CÃNEGO ANTÃNIO LOPES DE ANDRADE",
      "house": "7",
      "postcode": "9020-211",
      "city": "FUNCHAL",
      "lon": "-16.922749818145583",
      "lat": "32.66261860457049"
    },
    {
      "id": "pt.ine.add.MAD.110680",
      "street": "R CÃNEGO ANTÃNIO LOPES DE ANDRADE",
      "house": "5",
      "postcode": "9020-211",
      "city": "FUNCHAL",
      "lon": "-16.92265698217682",
      "lat": "32.66276432697462"
    },
    {
      "id": "pt.ine.add.MAD.111761",
      "street": "BC CARVALHAL",
      "house": "6",
      "postcode": "9020-029",
      "city": "FUNCHAL",
      "lon": "-16.924409653908317",
      "lat": "32.66544307190649"
    },
    {
      "id": "pt.ine.add.MAD.112923",
      "street": "BC CARVALHAL",
      "house": "10",
      "postcode": "9020-029",
      "city": "FUNCHAL",
      "lon": "-16.924767217072684",
      "lat": "32.665212118482955"
    },
    {
      "id": "pt.ine.add.MAD.112924",
      "street": "CAM VELHO QUINTA",
      "house": "22B",
      "postcode": "9020-130",
      "city": "FUNCHAL",
      "lon": "-16.925341648361606",
      "lat": "32.664653162067246"
    },
    {
      "id": "pt.ine.add.MAD.113162",
      "street": "CAM S ROQUE",
      "house": "35",
      "postcode": "9020-122",
      "city": "FUNCHAL",
      "lon": "-16.922666406575175",
      "lat": "32.663702130258606"
    },
    {
      "id": "pt.ine.add.MAD.113163",
      "street": "CAM S ROQUE",
      "house": "25 B",
      "postcode": "9020-122",
      "city": "FUNCHAL",
      "lon": "-16.922418982507022",
      "lat": "32.663101667070336"
    },
    {
      "id": "pt.ine.add.MAD.113255",
      "street": "CAM SALAO",
      "house": "9",
      "postcode": "9020-332",
      "city": "FUNCHAL",
      "lon": "-16.92357228386657",
      "lat": "32.66517633365829"
    },
    {
      "id": "pt.ine.add.MAD.113521",
      "street": "CAM VELHO QUINTA",
      "house": "46",
      "postcode": "9020-130",
      "city": "FUNCHAL",
      "lon": "-16.924887556157625",
      "lat": "32.66535457165563"
    },
    {
      "id": "pt.ine.add.MAD.113639",
      "street": "CAM VELHO QUINTA",
      "house": "24 CASA1",
      "postcode": "9020-130",
      "city": "FUNCHAL",
      "lon": "-16.92515909823053",
      "lat": "32.664592832468216"
    },
    {
      "id": "pt.ine.add.MAD.114183",
      "street": "CAM S ROQUE",
      "house": "45",
      "postcode": "9020-122",
      "city": "FUNCHAL",
      "lon": "-16.922905143028814",
      "lat": "32.66389688330576"
    },
    {
      "id": "pt.ine.add.MAD.120004",
      "street": "CAM S ROQUE",
      "house": "45 A",
      "postcode": "9020-122",
      "city": "FUNCHAL",
      "lon": "-16.922993115401365",
      "lat": "32.66402179706681"
    },
    {
      "id": "pt.ine.add.MAD.122652",
      "street": "BC CARVALHAL ENT 7",
      "house": "2",
      "postcode": "9020-029",
      "city": "FUNCHAL",
      "lon": "-16.924441077497914",
      "lat": "32.66491950402358"
    },
    {
      "id": "pt.ine.add.MAD.127567",
      "street": "CAM SÃO ROQUE",
      "house": "31",
      "postcode": "9020-122",
      "city": "FUNCHAL",
      "lon": "-16.92281118410144",
      "lat": "32.663492480685726"
    },
    {
      "id": "pt.ine.add.MAD.127813",
      "street": "CAM VELHO QUINTA",
      "house": "14",
      "postcode": "9020-130",
      "city": "FUNCHAL",
      "lon": "-16.925069599625044",
      "lat": "32.663899764284686"
    },
    {
      "id": "pt.ine.add.MAD.128619",
      "street": "CAM S ROQUE",
      "house": "21",
      "postcode": "9020-122",
      "city": "FUNCHAL",
      "lon": "-16.92232425450566",
      "lat": "32.6626612008395"
    },
    {
      "id": "pt.ine.add.MAD.129471",
      "street": "RAMP QUINTA CARVALHAL",
      "house": "12",
      "postcode": "9020-197",
      "city": "FUNCHAL",
      "lon": "-16.924339379136352",
      "lat": "32.66415447258942"
    }
  ]
}