{
  "data": {
    "distrito": "Coimbra",
    "concelho": "Pampilhosa da Serra",
    "freguesia": "Portela do Fojo-Machio",
    "OBJECTID": 17,
    "BGRI2021": "06121200209",
    "DT21": "06",
    "DTMN21": "0612",
    "DTMNFR21": "061212",
    "DTMNFRSEC21": "061212002",
    "SECNUM21": "002",
    "SSNUM21": "09",
    "SECSSNUM21": "00209",
    "OBJECTID_1": 55341,
    "DT": "06",
    "CC": "12",
    "fr": "12",
    "SEC": "002",
    "SS": "09"
  },
  "addresses": [
    {
      "id": "pt.ine.add.PTCONT.1124001",
      "street": "R ESCOLA",
      "house": "",
      "postcode": "3320-133",
      "city": "MACHIO",
      "lon": "-7.979016816643392",
      "lat": "40.00245754927408"
    },
    {
      "id": "pt.ine.add.PTCONT.1124002",
      "street": "R BARROCA",
      "house": "",
      "postcode": "3320-133",
      "city": "MACHIO",
      "lon": "-7.979767900853178",
      "lat": "40.00174705641531"
    },
    {
      "id": "pt.ine.add.PTCONT.1134516",
      "street": "R CABEFO",
      "house": "",
      "postcode": "3320-133",
      "city": "MACHIO",
      "lon": "-7.980986113566637",
      "lat": "40.001613568903466"
    },
    {
      "id": "pt.ine.add.PTCONT.1154568",
      "street": "R ESCOLA",
      "house": "",
      "postcode": "3320-133",
      "city": "MACHIO",
      "lon": "-7.978484608421704",
      "lat": "40.00477143068557"
    },
    {
      "id": "pt.ine.add.PTCONT.1158589",
      "street": "R BARROCA",
      "house": "",
      "postcode": "3320-133",
      "city": "MACHIO",
      "lon": "-7.979686046892794",
      "lat": "40.00169291094569"
    },
    {
      "id": "pt.ine.add.PTCONT.1192732",
      "street": "R EIRA",
      "house": "",
      "postcode": "3320-133",
      "city": "MACHIO",
      "lon": "-7.980503690052725",
      "lat": "40.00263964037321"
    },
    {
      "id": "pt.ine.add.PTCONT.1204586",
      "street": "R LOMBA",
      "house": "",
      "postcode": "3320-133",
      "city": "MACHIO",
      "lon": "-7.979264280095565",
      "lat": "40.00177340757881"
    },
    {
      "id": "pt.ine.add.PTCONT.1218387",
      "street": "R CABECO",
      "house": "",
      "postcode": "3320-133",
      "city": "MACHIO",
      "lon": "-7.9809163493844375",
      "lat": "40.001388322536876"
    },
    {
      "id": "pt.ine.add.PTCONT.1238858",
      "street": "R LOMBA",
      "house": "",
      "postcode": "3320-133",
      "city": "MACHIO",
      "lon": "-7.9796037090269785",
      "lat": "40.00185491335198"
    },
    {
      "id": "pt.ine.add.PTCONT.1242964",
      "street": "R LAGAR",
      "house": "",
      "postcode": "3320-133",
      "city": "MACHIO",
      "lon": "-7.979649805900131",
      "lat": "40.002188203433946"
    },
    {
      "id": "pt.ine.add.PTCONT.1245049",
      "street": "R LOMBA",
      "house": "",
      "postcode": "3320-133",
      "city": "MACHIO",
      "lon": "-7.979521996320504",
      "lat": "40.0017377246205"
    },
    {
      "id": "pt.ine.add.PTCONT.1247124",
      "street": "TV EIRA",
      "house": "",
      "postcode": "3320-133",
      "city": "MACHIO",
      "lon": "-7.9810443073405954",
      "lat": "40.00177575670489"
    },
    {
      "id": "pt.ine.add.PTCONT.1326506",
      "street": "R LOMBA",
      "house": "",
      "postcode": "3320-133",
      "city": "MACHIO",
      "lon": "-7.979194056310479",
      "lat": "40.00175530196184"
    },
    {
      "id": "pt.ine.add.PTCONT.1341057",
      "street": "R CABECO",
      "house": "",
      "postcode": "3320-133",
      "city": "MACHIO",
      "lon": "-7.98077598181612",
      "lat": "40.00131608859966"
    },
    {
      "id": "pt.ine.add.PTCONT.1349988",
      "street": "R LOMBA",
      "house": "",
      "postcode": "3320-133",
      "city": "MACHIO",
      "lon": "-7.9798599958232135",
      "lat": "40.00245866724187"
    },
    {
      "id": "pt.ine.add.PTCONT.1357683",
      "street": "R LOMBA",
      "house": "",
      "postcode": "3320-133",
      "city": "MACHIO",
      "lon": "-7.980142020256542",
      "lat": "40.00202674269298"
    }
  ]
}