{
  "data": {
    "distrito": "Coimbra",
    "concelho": "Pampilhosa da Serra",
    "freguesia": "Portela do Fojo-Machio",
    "OBJECTID": 1,
    "BGRI2021": "06121200222",
    "DT21": "06",
    "DTMN21": "0612",
    "DTMNFR21": "061212",
    "DTMNFRSEC21": "061212002",
    "SECNUM21": "002",
    "SSNUM21": "22",
    "SECSSNUM21": "00222",
    "OBJECTID_1": 55446,
    "DT": "06",
    "CC": "12",
    "fr": "12",
    "SEC": "002",
    "SS": "22"
  },
  "addresses": [
    {
      "id": "pt.ine.add.PTCONT.1100194",
      "street": "R JAIME FERNANDES SIMÕES",
      "house": "",
      "postcode": "3320-135",
      "city": "MACHIO",
      "lon": "-8.003640911421542",
      "lat": "40.01688855363575"
    },
    {
      "id": "pt.ine.add.PTCONT.1107406",
      "street": "R COMISSAO DE MELHORAMENTOS",
      "house": "",
      "postcode": "3320-135",
      "city": "MACHIO",
      "lon": "-8.003418563294595",
      "lat": "40.01678023099728"
    },
    {
      "id": "pt.ine.add.PTCONT.1107407",
      "street": "R JAIME FERNANDES SIMÕES",
      "house": "",
      "postcode": "3320-135",
      "city": "MACHIO",
      "lon": "-8.002658468952054",
      "lat": "40.016112921365234"
    },
    {
      "id": "pt.ine.add.PTCONT.1136527",
      "street": "R ÁLVARO DE ALMEIDA GARCIA MARGARIDO",
      "house": "",
      "postcode": "3320-135",
      "city": "MACHIO",
      "lon": "-8.002063491813157",
      "lat": "40.01486039237179"
    },
    {
      "id": "pt.ine.add.PTCONT.1150651",
      "street": "R ÁLVARO DE ALMEIDA GARCIA MARGARIDO",
      "house": "",
      "postcode": "3320-135",
      "city": "MACHIO",
      "lon": "-8.002391059307962",
      "lat": "40.01506790425765"
    },
    {
      "id": "pt.ine.add.PTCONT.1166805",
      "street": "TV HENRIQUE TRINDADE RAMOS",
      "house": "",
      "postcode": "3320-135",
      "city": "MACHIO",
      "lon": "-8.002145706272067",
      "lat": "40.01474340507408"
    },
    {
      "id": "pt.ine.add.PTCONT.1182704",
      "street": "R JAIME FERNANDES SIMÕES",
      "house": "",
      "postcode": "3320-135",
      "city": "MACHIO",
      "lon": "-8.002635196975133",
      "lat": "40.01603183963807"
    },
    {
      "id": "pt.ine.add.PTCONT.1195291",
      "street": "R SANTO ANTÓNIO",
      "house": "",
      "postcode": "3320-135",
      "city": "MACHIO",
      "lon": "-8.002031006265893",
      "lat": "40.01347340502006"
    },
    {
      "id": "pt.ine.add.PTCONT.1200612",
      "street": "R JAIME FERNANDES SIMÕES",
      "house": "",
      "postcode": "3320-135",
      "city": "MACHIO",
      "lon": "-8.004085592826005",
      "lat": "40.01711420377964"
    },
    {
      "id": "pt.ine.add.PTCONT.1201079",
      "street": "R SANTO ANTÓNIO",
      "house": "",
      "postcode": "3320-135",
      "city": "MACHIO",
      "lon": "-8.002169510785253",
      "lat": "40.01454529618629"
    },
    {
      "id": "pt.ine.add.PTCONT.1235619",
      "street": "R JAIME FERNANDES SIMÕES",
      "house": "",
      "postcode": "3320-135",
      "city": "MACHIO",
      "lon": "-8.00313795708741",
      "lat": "40.01650973156435"
    },
    {
      "id": "pt.ine.add.PTCONT.1270457",
      "street": "R SANTO ANTÓNIO",
      "house": "",
      "postcode": "3320-135",
      "city": "MACHIO",
      "lon": "-8.002264435076324",
      "lat": "40.01390596513305"
    },
    {
      "id": "pt.ine.add.PTCONT.1270458",
      "street": "R SANTO ANTÓNIO",
      "house": "",
      "postcode": "3320-135",
      "city": "MACHIO",
      "lon": "-8.00229907482667",
      "lat": "40.014167183255054"
    },
    {
      "id": "pt.ine.add.PTCONT.1277995",
      "street": "R JAIME FERNANDES SIMÕES",
      "house": "",
      "postcode": "3320-135",
      "city": "MACHIO",
      "lon": "-8.003021029937905",
      "lat": "40.01640152633919"
    },
    {
      "id": "pt.ine.add.PTCONT.1299090",
      "street": "R SANTO ANTÓNIO",
      "house": "",
      "postcode": "3320-135",
      "city": "MACHIO",
      "lon": "-8.002089122096685",
      "lat": "40.013707631253276"
    },
    {
      "id": "pt.ine.add.PTCONT.1299091",
      "street": "R SANTO ANTÓNIO",
      "house": "",
      "postcode": "3320-135",
      "city": "MACHIO",
      "lon": "-8.002286416231923",
      "lat": "40.01466250845077"
    },
    {
      "id": "pt.ine.add.PTCONT.1314773",
      "street": "TV HENRIQUE TRINDADE RAMOS",
      "house": "",
      "postcode": "3320-135",
      "city": "MACHIO",
      "lon": "-8.002052002808108",
      "lat": "40.014743299146076"
    },
    {
      "id": "pt.ine.add.PTCONT.1334720",
      "street": "R ÁLVARO DE ALMEIDA GARCIA MARGARIDO",
      "house": "",
      "postcode": "3320-135",
      "city": "MACHIO",
      "lon": "-8.00225079585795",
      "lat": "40.014914641047675"
    },
    {
      "id": "pt.ine.add.PTCONT.1341031",
      "street": "LG MANUEL CRISTÓVÃO FAMILIA RIBEIRO",
      "house": "",
      "postcode": "3320-135",
      "city": "MACHIO",
      "lon": "-8.002577266068183",
      "lat": "40.01569854610508"
    }
  ]
}