{
  "data": {
    "distrito": "Santarém",
    "concelho": "Golegã",
    "freguesia": "Golegã",
    "OBJECTID": 114,
    "BGRI2021": "14120200411",
    "DT21": "14",
    "DTMN21": "1412",
    "DTMNFR21": "141202",
    "DTMNFRSEC21": "141202004",
    "SECNUM21": "004",
    "SSNUM21": "11",
    "SECSSNUM21": "00411",
    "OBJECTID_1": 151835,
    "DT": "14",
    "CC": "12",
    "fr": "02",
    "SEC": "004",
    "SS": "11"
  },
  "addresses": [
    {
      "id": "pt.ine.add.PTCONT.4395062",
      "street": "R LARANJEIRAS",
      "house": "8",
      "postcode": "2150-150",
      "city": "GOLEGÃ",
      "lon": "-8.478687866638529",
      "lat": "39.40485114802227"
    },
    {
      "id": "pt.ine.add.PTCONT.4415061",
      "street": "R D MARIA AMELIA CÂMARA PINA",
      "house": "5",
      "postcode": "2150-175",
      "city": "GOLEGÃ",
      "lon": "-8.478339697844081",
      "lat": "39.404879202964715"
    },
    {
      "id": "pt.ine.add.PTCONT.4478606",
      "street": "R BONJARDIM",
      "house": "8",
      "postcode": "2150-156",
      "city": "GOLEGÃ",
      "lon": "-8.478421767885308",
      "lat": "39.40504108707213"
    },
    {
      "id": "pt.ine.add.PTCONT.4485986",
      "street": "R SACADURA CABRAL",
      "house": "4",
      "postcode": "2150-275",
      "city": "GOLEGÃ",
      "lon": "-8.478213230024856",
      "lat": "39.40513177676563"
    },
    {
      "id": "pt.ine.add.PTCONT.4502540",
      "street": "R D MARIA AMELIA CÂMARA PINA",
      "house": "9",
      "postcode": "2150-175",
      "city": "GOLEGÃ",
      "lon": "-8.478247128040481",
      "lat": "39.40494252726552"
    },
    {
      "id": "pt.ine.add.PTCONT.4539478",
      "street": "R SACADURA CABRAL",
      "house": "8",
      "postcode": "2150-275",
      "city": "GOLEGÃ",
      "lon": "-8.478096596356684",
      "lat": "39.40502403756487"
    },
    {
      "id": "pt.ine.add.PTCONT.4543395",
      "street": "R SACADURA CABRAL",
      "house": "6",
      "postcode": "2150-275",
      "city": "GOLEGÃ",
      "lon": "-8.47815491314586",
      "lat": "39.40507790718032"
    },
    {
      "id": "pt.ine.add.PTCONT.4560149",
      "street": "R BONJARDIM",
      "house": "4",
      "postcode": "2150-156",
      "city": "GOLEGÃ",
      "lon": "-8.478572299223993",
      "lat": "39.404959576353775"
    },
    {
      "id": "pt.ine.add.PTCONT.4572719",
      "street": "R SACADURA CABRAL",
      "house": "2",
      "postcode": "2150-275",
      "city": "GOLEGÃ",
      "lon": "-8.478271546993673",
      "lat": "39.405185646320795"
    },
    {
      "id": "pt.ine.add.PTCONT.4591754",
      "street": "R LARANJEIRAS",
      "house": "6",
      "postcode": "2150-150",
      "city": "GOLEGÃ",
      "lon": "-8.478582931641775",
      "lat": "39.40476138874043"
    },
    {
      "id": "pt.ine.add.PTCONT.4597068",
      "street": "R D MARIA AMELIA CÂMARA PINA",
      "house": "3",
      "postcode": "2150-175",
      "city": "GOLEGÃ",
      "lon": "-8.478420746255535",
      "lat": "39.40483392697232"
    },
    {
      "id": "pt.ine.add.PTCONT.4610083",
      "street": "R BONJARDIM",
      "house": "10",
      "postcode": "2150-156",
      "city": "GOLEGÃ",
      "lon": "-8.478363850625447",
      "lat": "39.40506828023789"
    },
    {
      "id": "pt.ine.add.PTCONT.4612024",
      "street": "R BONJARDIM",
      "house": "6",
      "postcode": "2150-156",
      "city": "GOLEGÃ",
      "lon": "-8.478491250766465",
      "lat": "39.405004852451"
    },
    {
      "id": "pt.ine.add.PTCONT.4624713",
      "street": "R D MARIA AMELIA CÂMARA PINA",
      "house": "7",
      "postcode": "2150-175",
      "city": "GOLEGÃ",
      "lon": "-8.478293390762127",
      "lat": "39.404906361643825"
    }
  ]
}