{
  "data": {
    "distrito": "Leiria",
    "concelho": "Pombal",
    "freguesia": "Almagreira",
    "OBJECTID": 938,
    "BGRI2021": "10150300216",
    "DT21": "10",
    "DTMN21": "1015",
    "DTMNFR21": "101503",
    "DTMNFRSEC21": "101503002",
    "SECNUM21": "002",
    "SSNUM21": "16",
    "SECSSNUM21": "00216",
    "OBJECTID_1": 97752,
    "DT": "10",
    "CC": "15",
    "fr": "03",
    "SEC": "002",
    "SS": "16"
  },
  "addresses": [
    {
      "id": "pt.ine.add.PTCONT.1987830",
      "street": "R CANTO",
      "house": "6",
      "postcode": "3105-004",
      "city": "ALMAGREIRA PBL",
      "lon": "-8.663722378226884",
      "lat": "39.99136653254937"
    },
    {
      "id": "pt.ine.add.PTCONT.1998700",
      "street": "TV PELITOS",
      "house": "3",
      "postcode": "3105-004",
      "city": "ALMAGREIRA PBL",
      "lon": "-8.664282001487932",
      "lat": "39.98954472777942"
    },
    {
      "id": "pt.ine.add.PTCONT.2016454",
      "street": "R D INÊS SUL",
      "house": "16",
      "postcode": "3105-004",
      "city": "ALMAGREIRA PBL",
      "lon": "-8.662177417416553",
      "lat": "39.98841057278233"
    },
    {
      "id": "pt.ine.add.PTCONT.2018470",
      "street": "R D INÊS SUL",
      "house": "20",
      "postcode": "3105-004",
      "city": "ALMAGREIRA PBL",
      "lon": "-8.662174360421417",
      "lat": "39.988014316149865"
    },
    {
      "id": "pt.ine.add.PTCONT.2028200",
      "street": "R ROSSIO",
      "house": "15",
      "postcode": "3105-004",
      "city": "ALMAGREIRA PBL",
      "lon": "-8.665316232968443",
      "lat": "39.990044327649066"
    },
    {
      "id": "pt.ine.add.PTCONT.2042736",
      "street": "TV ROSEIRAL",
      "house": "3",
      "postcode": "3105-004",
      "city": "ALMAGREIRA PBL",
      "lon": "-8.664593463146884",
      "lat": "39.99045292075987"
    },
    {
      "id": "pt.ine.add.PTCONT.2051580",
      "street": "R CANTO",
      "house": "14",
      "postcode": "3105-004",
      "city": "ALMAGREIRA PBL",
      "lon": "-8.662859937372826",
      "lat": "39.990370795507104"
    },
    {
      "id": "pt.ine.add.PTCONT.2056112",
      "street": "R CANTO",
      "house": "1",
      "postcode": "3105-004",
      "city": "ALMAGREIRA PBL",
      "lon": "-8.663864552786544",
      "lat": "39.9915820290396"
    },
    {
      "id": "pt.ine.add.PTCONT.2058378",
      "street": "R CANTO",
      "house": "10",
      "postcode": "3105-004",
      "city": "ALMAGREIRA PBL",
      "lon": "-8.663576233494792",
      "lat": "39.9906377037699"
    },
    {
      "id": "pt.ine.add.PTCONT.2066792",
      "street": "TV ROSEIRAL",
      "house": "1",
      "postcode": "3105-004",
      "city": "ALMAGREIRA PBL",
      "lon": "-8.664084852523251",
      "lat": "39.991301829542294"
    },
    {
      "id": "pt.ine.add.PTCONT.2075262",
      "street": "R CANTO",
      "house": "8",
      "postcode": "3105-004",
      "city": "ALMAGREIRA PBL",
      "lon": "-8.663567520797613",
      "lat": "39.99102500789315"
    },
    {
      "id": "pt.ine.add.PTCONT.2077553",
      "street": "R D INÊS SUL",
      "house": "",
      "postcode": "3105-004",
      "city": "ALMAGREIRA PBL",
      "lon": "-8.662140000922424",
      "lat": "39.988113540631815"
    },
    {
      "id": "pt.ine.add.PTCONT.2079801",
      "street": "R ROSSIO",
      "house": "5",
      "postcode": "3105-004",
      "city": "ALMAGREIRA PBL",
      "lon": "-8.665083255889416",
      "lat": "39.99019850167565"
    },
    {
      "id": "pt.ine.add.PTCONT.2083188",
      "street": "R CANTO",
      "house": "18",
      "postcode": "3105-004",
      "city": "ALMAGREIRA PBL",
      "lon": "-8.662450285957554",
      "lat": "39.990390679425346"
    },
    {
      "id": "pt.ine.add.PTCONT.2098838",
      "street": "R CANTO",
      "house": "14",
      "postcode": "3105-004",
      "city": "ALMAGREIRA PBL",
      "lon": "-8.662579146816004",
      "lat": "39.990399096984866"
    },
    {
      "id": "pt.ine.add.PTCONT.2128255",
      "street": "R CANTO",
      "house": "12",
      "postcode": "3105-004",
      "city": "ALMAGREIRA PBL",
      "lon": "-8.663304226002348",
      "lat": "39.99028770867811"
    },
    {
      "id": "pt.ine.add.PTCONT.2200723",
      "street": "TV ROSEIRAL",
      "house": "5",
      "postcode": "3105-004",
      "city": "ALMAGREIRA PBL",
      "lon": "-8.664601960610694",
      "lat": "39.990038599081245"
    },
    {
      "id": "pt.ine.add.PTCONT.2201056",
      "street": "R D INÊS SUL",
      "house": "14",
      "postcode": "3105-004",
      "city": "ALMAGREIRA PBL",
      "lon": "-8.66183851132721",
      "lat": "39.98849317461893"
    },
    {
      "id": "pt.ine.add.PTCONT.2209720",
      "street": "R D INÊS SUL",
      "house": "12",
      "postcode": "3105-004",
      "city": "ALMAGREIRA PBL",
      "lon": "-8.661384258824631",
      "lat": "39.98880145497843"
    },
    {
      "id": "pt.ine.add.PTCONT.2234512",
      "street": "R D INÊS SUL",
      "house": "18",
      "postcode": "3105-004",
      "city": "ALMAGREIRA PBL",
      "lon": "-8.66209400286078",
      "lat": "39.98822182436989"
    },
    {
      "id": "pt.ine.add.PTCONT.2260243",
      "street": "R CANTO",
      "house": "16",
      "postcode": "3105-004",
      "city": "ALMAGREIRA PBL",
      "lon": "-8.662731285202785",
      "lat": "39.99038939574474"
    }
  ]
}