{
  "data": {
    "distrito": "Viana do Castelo",
    "concelho": "Viana do Castelo",
    "freguesia": "Perre",
    "OBJECTID": 675,
    "BGRI2021": "16092600212",
    "DT21": "16",
    "DTMN21": "1609",
    "DTMNFR21": "160926",
    "DTMNFRSEC21": "160926002",
    "SECNUM21": "002",
    "SSNUM21": "12",
    "SECSSNUM21": "00212",
    "OBJECTID_1": 178768,
    "DT": "16",
    "CC": "09",
    "fr": "26",
    "SEC": "002",
    "SS": "12"
  },
  "addresses": [
    {
      "id": "pt.ine.add.PTCONT.5137918",
      "street": "CAM PORTELAS",
      "house": "54",
      "postcode": "4925-583",
      "city": "PERRE",
      "lon": "-8.779294619864018",
      "lat": "41.72385673868723"
    },
    {
      "id": "pt.ine.add.PTCONT.5141816",
      "street": "CAM PORTELAS",
      "house": "160",
      "postcode": "4925-583",
      "city": "PERRE",
      "lon": "-8.77914930743519",
      "lat": "41.72494697104666"
    },
    {
      "id": "pt.ine.add.PTCONT.5144186",
      "street": "QLHA NINA",
      "house": "",
      "postcode": "4925-578",
      "city": "PERRE",
      "lon": "-8.776521602958798",
      "lat": "41.725375872425765"
    },
    {
      "id": "pt.ine.add.PTCONT.5151814",
      "street": "LG AMÉRICO",
      "house": "3",
      "postcode": "4925-580",
      "city": "PERRE",
      "lon": "-8.774071291798156",
      "lat": "41.72430915461385"
    },
    {
      "id": "pt.ine.add.PTCONT.5151951",
      "street": "QLHA NINA",
      "house": "184",
      "postcode": "4925-578",
      "city": "PERRE",
      "lon": "-8.776135244372204",
      "lat": "41.72519796651554"
    },
    {
      "id": "pt.ine.add.PTCONT.5155231",
      "street": "CAM PORTELAS",
      "house": "1308",
      "postcode": "4925-583",
      "city": "PERRE",
      "lon": "-8.775200294284033",
      "lat": "41.725446287352945"
    },
    {
      "id": "pt.ine.add.PTCONT.5156219",
      "street": "CAM TIA MATILDE",
      "house": "221",
      "postcode": "4925-583",
      "city": "PERRE",
      "lon": "-8.77868630228016",
      "lat": "41.725516789388635"
    },
    {
      "id": "pt.ine.add.PTCONT.5163548",
      "street": "CAM TIA MATILDE",
      "house": "",
      "postcode": "4925-583",
      "city": "PERRE",
      "lon": "-8.778484074992242",
      "lat": "41.725725004267055"
    },
    {
      "id": "pt.ine.add.PTCONT.5168782",
      "street": "QLHA NINA",
      "house": "174",
      "postcode": "4925-578",
      "city": "PERRE",
      "lon": "-8.776292909400834",
      "lat": "41.72534113901451"
    },
    {
      "id": "pt.ine.add.PTCONT.5173364",
      "street": "CAM PORTELAS",
      "house": "",
      "postcode": "4925-583",
      "city": "PERRE",
      "lon": "-8.774598876131842",
      "lat": "41.72539562584139"
    },
    {
      "id": "pt.ine.add.PTCONT.5174415",
      "street": "CAM PORTELAS",
      "house": "300",
      "postcode": "4925-583",
      "city": "PERRE",
      "lon": "-8.7787482832208",
      "lat": "41.725705513186824"
    },
    {
      "id": "pt.ine.add.PTCONT.5174437",
      "street": "CAM TIA MATILDE",
      "house": "",
      "postcode": "4925-583",
      "city": "PERRE",
      "lon": "-8.778149152234032",
      "lat": "41.72468248685195"
    },
    {
      "id": "pt.ine.add.PTCONT.5174558",
      "street": "CAM PORTELAS",
      "house": "1179",
      "postcode": "4925-583",
      "city": "PERRE",
      "lon": "-8.774007122024818",
      "lat": "41.72631727782552"
    },
    {
      "id": "pt.ine.add.PTCONT.5175579",
      "street": "CAM TIA MATILDE",
      "house": "60",
      "postcode": "4925-583",
      "city": "PERRE",
      "lon": "-8.778893333525543",
      "lat": "41.72458827264214"
    },
    {
      "id": "pt.ine.add.PTCONT.5183111",
      "street": "CAM PORTELAS",
      "house": "1401",
      "postcode": "4925-583",
      "city": "PERRE",
      "lon": "-8.774596458150173",
      "lat": "41.72515254668341"
    },
    {
      "id": "pt.ine.add.PTCONT.5183696",
      "street": "ESTR CENTRO PAROQUIAL",
      "house": "395",
      "postcode": "4925-580",
      "city": "PERRE",
      "lon": "-8.774860319459249",
      "lat": "41.723890592745676"
    },
    {
      "id": "pt.ine.add.PTCONT.5185906",
      "street": "CAM TIA MATILDE",
      "house": "64",
      "postcode": "4925-583",
      "city": "PERRE",
      "lon": "-8.778628589225537",
      "lat": "41.72455374647248"
    },
    {
      "id": "pt.ine.add.PTCONT.5199685",
      "street": "ESTR PISCO",
      "house": "729",
      "postcode": "4925-581",
      "city": "PERRE",
      "lon": "-8.774019374929754",
      "lat": "41.72392229654913"
    },
    {
      "id": "pt.ine.add.PTCONT.5200767",
      "street": "CC JACA",
      "house": "29",
      "postcode": "4925-580",
      "city": "PERRE",
      "lon": "-8.773551198323565",
      "lat": "41.72518538751003"
    },
    {
      "id": "pt.ine.add.PTCONT.5226623",
      "street": "ESTR PISCO",
      "house": "861",
      "postcode": "4925-581",
      "city": "PERRE",
      "lon": "-8.773585194534476",
      "lat": "41.72497811908505"
    },
    {
      "id": "pt.ine.add.PTCONT.5226624",
      "street": "ESTR PISCO",
      "house": "860",
      "postcode": "4925-581",
      "city": "PERRE",
      "lon": "-8.773858556440935",
      "lat": "41.724670478384475"
    },
    {
      "id": "pt.ine.add.PTCONT.5231015",
      "street": "ESTR PISCO",
      "house": "",
      "postcode": "4925-581",
      "city": "PERRE",
      "lon": "-8.774400728230285",
      "lat": "41.72238958493247"
    },
    {
      "id": "pt.ine.add.PTCONT.5233453",
      "street": "ESTR PISCO",
      "house": "663",
      "postcode": "4925-581",
      "city": "PERRE",
      "lon": "-8.774843195824728",
      "lat": "41.723377492627094"
    },
    {
      "id": "pt.ine.add.PTCONT.5233454",
      "street": "ESTR PISCO",
      "house": "663",
      "postcode": "4925-581",
      "city": "PERRE",
      "lon": "-8.774843195824728",
      "lat": "41.723377492627094"
    },
    {
      "id": "pt.ine.add.PTCONT.5245304",
      "street": "ESTR PISCO",
      "house": "787",
      "postcode": "4925-581",
      "city": "PERRE",
      "lon": "-8.773986006891626",
      "lat": "41.724192585669016"
    },
    {
      "id": "pt.ine.add.PTCONT.5255796",
      "street": "CAM TIA MATILDE",
      "house": "100",
      "postcode": "4925-583",
      "city": "PERRE",
      "lon": "-8.778270227550353",
      "lat": "41.72477184144692"
    },
    {
      "id": "pt.ine.add.PTCONT.5258117",
      "street": "ESTR PISCO",
      "house": "527",
      "postcode": "4925-581",
      "city": "PERRE",
      "lon": "-8.774349437647418",
      "lat": "41.72206574745188"
    },
    {
      "id": "pt.ine.add.PTCONT.5258118",
      "street": "ESTR PISCO",
      "house": "505",
      "postcode": "4925-581",
      "city": "PERRE",
      "lon": "-8.774324061075056",
      "lat": "41.7219308375074"
    },
    {
      "id": "pt.ine.add.PTCONT.5259541",
      "street": "CAM PORTELAS",
      "house": "1287",
      "postcode": "4925-583",
      "city": "PERRE",
      "lon": "-8.77493823641873",
      "lat": "41.72568184061297"
    },
    {
      "id": "pt.ine.add.PTCONT.5261504",
      "street": "ESTR IGREJA",
      "house": "1709",
      "postcode": "4925-583",
      "city": "PERRE",
      "lon": "-8.77933531125003",
      "lat": "41.72192077144387"
    },
    {
      "id": "pt.ine.add.PTCONT.5261633",
      "street": "ESTR PISCO",
      "house": "717",
      "postcode": "4925-581",
      "city": "PERRE",
      "lon": "-8.774427337580065",
      "lat": "41.72385699634834"
    },
    {
      "id": "pt.ine.add.PTCONT.5269831",
      "street": "ESTR IGREJA",
      "house": "1555",
      "postcode": "4925-576",
      "city": "PERRE",
      "lon": "-8.779254057934274",
      "lat": "41.72340679511302"
    },
    {
      "id": "pt.ine.add.PTCONT.5273729",
      "street": "ESTR PISCO",
      "house": "773",
      "postcode": "4925-581",
      "city": "PERRE",
      "lon": "-8.774068517988368",
      "lat": "41.724030063646104"
    },
    {
      "id": "pt.ine.add.PTCONT.5278829",
      "street": "CC JACA",
      "house": "41",
      "postcode": "4925-580",
      "city": "PERRE",
      "lon": "-8.773528146641445",
      "lat": "41.72528455373879"
    },
    {
      "id": "pt.ine.add.PTCONT.5278830",
      "street": "LG AMÉRICO",
      "house": "1",
      "postcode": "4925-580",
      "city": "PERRE",
      "lon": "-8.77401370994245",
      "lat": "41.72456157192081"
    },
    {
      "id": "pt.ine.add.PTCONT.5285439",
      "street": "CAM PORTELAS",
      "house": "250",
      "postcode": "4925-583",
      "city": "PERRE",
      "lon": "-8.779081080099294",
      "lat": "41.72533450215035"
    }
  ]
}