{
  "data": {
    "distrito": "Lisboa",
    "concelho": "Sintra",
    "freguesia": "Uni達o das freguesias de Sintra (Santa Maria e S達o Miguel, S達o Martinho e S達o Pedro de Penaferrim)",
    "OBJECTID": 1384,
    "BGRI2021": "11112801805",
    "DT21": "11",
    "DTMN21": "1111",
    "DTMNFR21": "111128",
    "DTMNFRSEC21": "111128018",
    "SECNUM21": "018",
    "SSNUM21": "05",
    "SECSSNUM21": "01805",
    "OBJECTID_1": 112303,
    "DT": "11",
    "CC": "11",
    "fr": "28",
    "SEC": "018",
    "SS": "05"
  },
  "addresses": [
    {
      "id": "pt.ine.add.PTCONT.2338250",
      "street": "R PAPOILAS",
      "house": "7",
      "postcode": "2710-665",
      "city": "SINTRA",
      "lon": "-9.394451579108287",
      "lat": "38.81663861731402"
    },
    {
      "id": "pt.ine.add.PTCONT.2391132",
      "street": "R PADRE AMARO TEIXEIRA DE AZEVEDO CASA DA AVO",
      "house": "42",
      "postcode": "2710-633",
      "city": "SINTRA",
      "lon": "-9.394366551312231",
      "lat": "38.816387323591236"
    },
    {
      "id": "pt.ine.add.PTCONT.2427965",
      "street": "R PADRE AMARO TEIXEIRA DE AZEVEDO",
      "house": "34",
      "postcode": "2710-633",
      "city": "SINTRA",
      "lon": "-9.393789396890629",
      "lat": "38.81630347799243"
    },
    {
      "id": "pt.ine.add.PTCONT.2427966",
      "street": "R PADRE AMARO TEIXEIRA DE AZEVEDO",
      "house": "34",
      "postcode": "2710-633",
      "city": "SINTRA",
      "lon": "-9.393789396890629",
      "lat": "38.81630347799243"
    },
    {
      "id": "pt.ine.add.PTCONT.2518508",
      "street": "LG SALOIA",
      "house": "30",
      "postcode": "2710-668",
      "city": "SINTRA",
      "lon": "-9.393330848930601",
      "lat": "38.81641651649523"
    },
    {
      "id": "pt.ine.add.PTCONT.2604735",
      "street": "R PADRE AMARO TEIXEIRA DE AZEVEDO",
      "house": "40",
      "postcode": "2710-633",
      "city": "SINTRA",
      "lon": "-9.394182370047869",
      "lat": "38.816389312031184"
    },
    {
      "id": "pt.ine.add.PTCONT.2649452",
      "street": "R PADRE AMARO TEIXEIRA DE AZEVEDO",
      "house": "46",
      "postcode": "2710-633",
      "city": "SINTRA",
      "lon": "-9.394689821908688",
      "lat": "38.81643787820952"
    },
    {
      "id": "pt.ine.add.PTCONT.2783849",
      "street": "R PADRE AMARO TEIXEIRA DE AZEVEDO",
      "house": "30",
      "postcode": "2710-633",
      "city": "SINTRA",
      "lon": "-9.393349585747853",
      "lat": "38.816173110103826"
    },
    {
      "id": "pt.ine.add.PTCONT.2839888",
      "street": "R DAS PAPOILAS",
      "house": "9",
      "postcode": "2710-665",
      "city": "SINTRA",
      "lon": "-9.394532476458568",
      "lat": "38.81665575891283"
    },
    {
      "id": "pt.ine.add.PTCONT.2892373",
      "street": "R PADRE AMARO TEIXEIRA DE AZEVEDO",
      "house": "32",
      "postcode": "2710-633",
      "city": "SINTRA",
      "lon": "-9.393579970466792",
      "lat": "38.81617963201311"
    },
    {
      "id": "pt.ine.add.PTCONT.2958392",
      "street": "R PADRE AMARO TEIXEIRA DE AZEVEDO CASAL DE SANTA ANA",
      "house": "36",
      "postcode": "2710-633",
      "city": "SINTRA",
      "lon": "-9.393881646230765",
      "lat": "38.816311489971056"
    },
    {
      "id": "pt.ine.add.PTCONT.3115389",
      "street": "R PAPOILAS",
      "house": "11",
      "postcode": "2710-665",
      "city": "SINTRA",
      "lon": "-9.394624567423731",
      "lat": "38.81665476444746"
    },
    {
      "id": "pt.ine.add.PTCONT.3428823",
      "street": "R PADRE AMARO TEIXEIRA DE AZEVEDO",
      "house": "30 A",
      "postcode": "2710-633",
      "city": "SINTRA",
      "lon": "-9.393475892526046",
      "lat": "38.81615373228673"
    }
  ]
}