{
  "data": {
    "distrito": "Lisboa",
    "concelho": "Sintra",
    "freguesia": "União das freguesias de Sintra (Santa Maria e São Miguel, São Martinho e São Pedro de Penaferrim)",
    "OBJECTID": 593,
    "BGRI2021": "11112801808",
    "DT21": "11",
    "DTMN21": "1111",
    "DTMNFR21": "111128",
    "DTMNFRSEC21": "111128018",
    "SECNUM21": "018",
    "SSNUM21": "08",
    "SECSSNUM21": "01808",
    "OBJECTID_1": 111395,
    "DT": "11",
    "CC": "11",
    "fr": "28",
    "SEC": "018",
    "SS": "08"
  },
  "addresses": [
    {
      "id": "pt.ine.add.PTCONT.2429893",
      "street": "ESTR LABRUSCAS",
      "house": "17",
      "postcode": "2710-655",
      "city": "SINTRA",
      "lon": "-9.400715859938591",
      "lat": "38.81539081950513"
    },
    {
      "id": "pt.ine.add.PTCONT.2455117",
      "street": "R D ANTÓNIO CORREIA DE SA",
      "house": "57",
      "postcode": "2710-635",
      "city": "SINTRA",
      "lon": "-9.39921488745268",
      "lat": "38.81645197428281"
    },
    {
      "id": "pt.ine.add.PTCONT.2469353",
      "street": "R D ANTÓNIO CORREIA DE SA",
      "house": "55",
      "postcode": "2710-635",
      "city": "SINTRA",
      "lon": "-9.399239185910742",
      "lat": "38.8165237714064"
    },
    {
      "id": "pt.ine.add.PTCONT.2518491",
      "street": "CAM MURTAL",
      "house": "",
      "postcode": "2710-663",
      "city": "SINTRA",
      "lon": "-9.399451415917943",
      "lat": "38.81485507207704"
    },
    {
      "id": "pt.ine.add.PTCONT.2554552",
      "street": "R D ANTÓNIO CORREIA DE SA",
      "house": "53",
      "postcode": "2710-635",
      "city": "SINTRA",
      "lon": "-9.398927742252093",
      "lat": "38.81649111637095"
    },
    {
      "id": "pt.ine.add.PTCONT.2557163",
      "street": "R D ANTONIO CORREIA SA",
      "house": "41",
      "postcode": "2710-635",
      "city": "SINTRA",
      "lon": "-9.398895759237815",
      "lat": "38.81663558390128"
    },
    {
      "id": "pt.ine.add.PTCONT.2604895",
      "street": "AZ CANCELINHO",
      "house": "1A N17",
      "postcode": "2710-653",
      "city": "SINTRA",
      "lon": "-9.399730847211412",
      "lat": "38.81568073830533"
    },
    {
      "id": "pt.ine.add.PTCONT.2757240",
      "street": "R JASMINS",
      "house": "16 16A",
      "postcode": "2710-653",
      "city": "SINTRA",
      "lon": "-9.398789320575696",
      "lat": "38.81582605669316"
    },
    {
      "id": "pt.ine.add.PTCONT.2846672",
      "street": "R D ANTONIO CORREIA SA",
      "house": "47",
      "postcode": "2710-635",
      "city": "SINTRA",
      "lon": "-9.39862203728072",
      "lat": "38.81678267051653"
    },
    {
      "id": "pt.ine.add.PTCONT.2932968",
      "street": "R JASMINS",
      "house": "4",
      "postcode": "2710-653",
      "city": "SINTRA",
      "lon": "-9.398629244787237",
      "lat": "38.81653938829958"
    },
    {
      "id": "pt.ine.add.PTCONT.2994769",
      "street": "R VISC D'ASSECA",
      "house": "49",
      "postcode": "2710-635",
      "city": "SINTRA",
      "lon": "-9.399056120828368",
      "lat": "38.816588808360066"
    },
    {
      "id": "pt.ine.add.PTCONT.3013237",
      "street": "AZ CANCELINHO",
      "house": "",
      "postcode": "2710-653",
      "city": "SINTRA",
      "lon": "-9.39912713239403",
      "lat": "38.81604758513989"
    },
    {
      "id": "pt.ine.add.PTCONT.3088140",
      "street": "R VISC D'ASSECA",
      "house": "43 45",
      "postcode": "2710-635",
      "city": "SINTRA",
      "lon": "-9.398804943843635",
      "lat": "38.81670862839732"
    },
    {
      "id": "pt.ine.add.PTCONT.3104653",
      "street": "ESTR LABRUSCAS",
      "house": "15",
      "postcode": "2710-655",
      "city": "SINTRA",
      "lon": "-9.400825527735483",
      "lat": "38.815731916728645"
    },
    {
      "id": "pt.ine.add.PTCONT.3197492",
      "street": "R JASMINS",
      "house": "10",
      "postcode": "2710-653",
      "city": "SINTRA",
      "lon": "-9.398477206707225",
      "lat": "38.816405921876665"
    },
    {
      "id": "pt.ine.add.PTCONT.3245452",
      "street": "CAM MURTAL",
      "house": "",
      "postcode": "2710-663",
      "city": "SINTRA",
      "lon": "-9.399863420797342",
      "lat": "38.81471549165405"
    },
    {
      "id": "pt.ine.add.PTCONT.3254019",
      "street": "R D ANTÓNIO CORREIA DE SA",
      "house": "61",
      "postcode": "2710-635",
      "city": "SINTRA",
      "lon": "-9.399336408272983",
      "lat": "38.81616241518893"
    },
    {
      "id": "pt.ine.add.PTCONT.3254020",
      "street": "R D ANTÓNIO CORREIA DE SA",
      "house": "61",
      "postcode": "2710-635",
      "city": "SINTRA",
      "lon": "-9.399336408272983",
      "lat": "38.81616241518893"
    },
    {
      "id": "pt.ine.add.PTCONT.3254021",
      "street": "R D ANTÓNIO CORREIA DE SA",
      "house": "61",
      "postcode": "2710-635",
      "city": "SINTRA",
      "lon": "-9.399336408272983",
      "lat": "38.81616241518893"
    },
    {
      "id": "pt.ine.add.PTCONT.3254022",
      "street": "R D ANTÓNIO CORREIA DE SA",
      "house": "61",
      "postcode": "2710-635",
      "city": "SINTRA",
      "lon": "-9.399336408272983",
      "lat": "38.81616241518893"
    },
    {
      "id": "pt.ine.add.PTCONT.3254023",
      "street": "R D ANTÓNIO CORREIA DE SA",
      "house": "61",
      "postcode": "2710-635",
      "city": "SINTRA",
      "lon": "-9.399336408272983",
      "lat": "38.81616241518893"
    },
    {
      "id": "pt.ine.add.PTCONT.3254024",
      "street": "R D ANTÓNIO CORREIA DE SA",
      "house": "61",
      "postcode": "2710-635",
      "city": "SINTRA",
      "lon": "-9.399336408272983",
      "lat": "38.81616241518893"
    },
    {
      "id": "pt.ine.add.PTCONT.3254025",
      "street": "R D ANTÓNIO CORREIA DE SA",
      "house": "61",
      "postcode": "2710-635",
      "city": "SINTRA",
      "lon": "-9.399336408272983",
      "lat": "38.81616241518893"
    },
    {
      "id": "pt.ine.add.PTCONT.3254026",
      "street": "R D ANTÓNIO CORREIA DE SA",
      "house": "61",
      "postcode": "2710-635",
      "city": "SINTRA",
      "lon": "-9.399336408272983",
      "lat": "38.81616241518893"
    },
    {
      "id": "pt.ine.add.PTCONT.3291022",
      "street": "R JASMINS",
      "house": "8",
      "postcode": "2710-653",
      "city": "SINTRA",
      "lon": "-9.398364165350205",
      "lat": "38.81652424459015"
    },
    {
      "id": "pt.ine.add.PTCONT.3349128",
      "street": "R D ANTÓNIO CORREIA DE SA",
      "house": "53",
      "postcode": "2710-635",
      "city": "SINTRA",
      "lon": "-9.399124869939072",
      "lat": "38.816570048180566"
    },
    {
      "id": "pt.ine.add.PTCONT.3349129",
      "street": "R D ANTÓNIO CORREIA DE SA",
      "house": "53",
      "postcode": "2710-635",
      "city": "SINTRA",
      "lon": "-9.399124869939072",
      "lat": "38.816570048180566"
    },
    {
      "id": "pt.ine.add.PTCONT.3355659",
      "street": "ESTR LABRUSCAS",
      "house": "13 CASA",
      "postcode": "2710-655",
      "city": "SINTRA",
      "lon": "-9.40074478971074",
      "lat": "38.81572378532138"
    },
    {
      "id": "pt.ine.add.PTCONT.3373545",
      "street": "ESTR LABRUSCAS",
      "house": "13 CASA",
      "postcode": "2710-655",
      "city": "SINTRA",
      "lon": "-9.40066293413311",
      "lat": "38.81565261306117"
    },
    {
      "id": "pt.ine.add.PTCONT.3384082",
      "street": "R D ANTÓNIO CORREIA DE SA",
      "house": "53",
      "postcode": "2710-635",
      "city": "SINTRA",
      "lon": "-9.399171553165557",
      "lat": "38.81660557247568"
    }
  ]
}