{
  "data": {
    "distrito": "Porto",
    "concelho": "Gondomar",
    "freguesia": "Uni√£o das freguesias de Melres e Medas",
    "OBJECTID": 932,
    "BGRI2021": "13041600314",
    "DT21": "13",
    "DTMN21": "1304",
    "DTMNFR21": "130416",
    "DTMNFRSEC21": "130416003",
    "SECNUM21": "003",
    "SSNUM21": "14",
    "SECSSNUM21": "00314",
    "OBJECTID_1": 128446,
    "DT": "13",
    "CC": "04",
    "fr": "16",
    "SEC": "003",
    "SS": "14"
  },
  "addresses": [
    {
      "id": "pt.ine.add.PTCONT.3546541",
      "street": "R MINAS SOBRIDO",
      "house": "280",
      "postcode": "4515-462",
      "city": "MELRES",
      "lon": "-8.425711277667723",
      "lat": "41.07309674181209"
    },
    {
      "id": "pt.ine.add.PTCONT.3604791",
      "street": "R REBENTAO",
      "house": "120",
      "postcode": "4515-425",
      "city": "MEDAS",
      "lon": "-8.432572595792163",
      "lat": "41.06691102657228"
    },
    {
      "id": "pt.ine.add.PTCONT.3694794",
      "street": "R 1 DE DEZEMBRO",
      "house": "12",
      "postcode": "4515-470",
      "city": "MELRES",
      "lon": "-8.426020762032621",
      "lat": "41.07312296906804"
    },
    {
      "id": "pt.ine.add.PTCONT.3844651",
      "street": "AV CENTRAL",
      "house": "",
      "postcode": "4515-346",
      "city": "MEDAS",
      "lon": "-8.430447321716535",
      "lat": "41.06788901730012"
    },
    {
      "id": "pt.ine.add.PTCONT.3910471",
      "street": "R S BARBARA",
      "house": "60",
      "postcode": "4515-578",
      "city": "MELRES",
      "lon": "-8.425433421069231",
      "lat": "41.072151973908426"
    },
    {
      "id": "pt.ine.add.PTCONT.3921261",
      "street": "AV JOSE JOAQUIM FERREIRA",
      "house": "665",
      "postcode": "4515-462",
      "city": "MELRES",
      "lon": "-8.424720587498964",
      "lat": "41.072396901676825"
    },
    {
      "id": "pt.ine.add.PTCONT.3934465",
      "street": "R MINAS SOBRIDO",
      "house": "85",
      "postcode": "4515-462",
      "city": "MELRES",
      "lon": "-8.424507050488707",
      "lat": "41.072541513952224"
    },
    {
      "id": "pt.ine.add.PTCONT.4021205",
      "street": "R 1 DE DEZEMBRO",
      "house": "3",
      "postcode": "4515-470",
      "city": "MELRES",
      "lon": "-8.42675695501102",
      "lat": "41.072778924203284"
    },
    {
      "id": "pt.ine.add.PTCONT.4030819",
      "street": "R MINAS DE SOBRIDO",
      "house": "70",
      "postcode": "4515-462",
      "city": "MELRES",
      "lon": "-8.4241147561847",
      "lat": "41.07262354585014"
    },
    {
      "id": "pt.ine.add.PTCONT.4051848",
      "street": "R REBENTAO",
      "house": "49",
      "postcode": "4515-425",
      "city": "MEDAS",
      "lon": "-8.43342843814317",
      "lat": "41.06673771357847"
    },
    {
      "id": "pt.ine.add.PTCONT.4070534",
      "street": "AV CENTRAL DE VILA COVA",
      "house": "2355",
      "postcode": "4515-346",
      "city": "MEDAS",
      "lon": "-8.43128912884881",
      "lat": "41.06723851722648"
    },
    {
      "id": "pt.ine.add.PTCONT.4129091",
      "street": "R REBENTAO",
      "house": "",
      "postcode": "4515-425",
      "city": "MEDAS",
      "lon": "-8.433497815128637",
      "lat": "41.066296311550055"
    },
    {
      "id": "pt.ine.add.PTCONT.4139882",
      "street": "R VALE",
      "house": "78",
      "postcode": "4515-602",
      "city": "MELRES",
      "lon": "-8.426693536506138",
      "lat": "41.07189664420084"
    },
    {
      "id": "pt.ine.add.PTCONT.4162272",
      "street": "R REBENTAO",
      "house": "120",
      "postcode": "4515-425",
      "city": "MEDAS",
      "lon": "-8.432643531385422",
      "lat": "41.066811792558944"
    },
    {
      "id": "pt.ine.add.PTCONT.4180018",
      "street": "AV CENTRAL DE VILA COVA",
      "house": "2445",
      "postcode": "4515-346",
      "city": "MEDAS",
      "lon": "-8.430268086139222",
      "lat": "41.067718393889294"
    },
    {
      "id": "pt.ine.add.PTCONT.4248332",
      "street": "R S BARBARA",
      "house": "120",
      "postcode": "4515-578",
      "city": "MELRES",
      "lon": "-8.426529160566576",
      "lat": "41.07239231071629"
    },
    {
      "id": "pt.ine.add.PTCONT.4277721",
      "street": "R S BARBARA",
      "house": "90",
      "postcode": "4515-578",
      "city": "MELRES",
      "lon": "-8.426005466447103",
      "lat": "41.07235762497962"
    },
    {
      "id": "pt.ine.add.PTCONT.4327411",
      "street": "R S BARBARA",
      "house": "120",
      "postcode": "4515-578",
      "city": "MELRES",
      "lon": "-8.426542140062832",
      "lat": "41.0726353993223"
    },
    {
      "id": "pt.ine.add.PTCONT.4382224",
      "street": "R S BARBARA",
      "house": "120",
      "postcode": "4515-578",
      "city": "MELRES",
      "lon": "-8.426948294433792",
      "lat": "41.07299454458332"
    }
  ]
}