{
  "data": {
    "distrito": "Coimbra",
    "concelho": "Penacova",
    "freguesia": "Uni√£o das freguesias de Oliveira do Mondego e Travanca do Mondego",
    "OBJECTID": 69,
    "BGRI2021": "06131300113",
    "DT21": "06",
    "DTMN21": "0613",
    "DTMNFR21": "061313",
    "DTMNFRSEC21": "061313001",
    "SECNUM21": "001",
    "SSNUM21": "13",
    "SECSSNUM21": "00113",
    "OBJECTID_1": 56005,
    "DT": "06",
    "CC": "13",
    "fr": "13",
    "SEC": "001",
    "SS": "13"
  },
  "addresses": [
    {
      "id": "pt.ine.add.PTCONT.1103407",
      "street": "R ROSEIRA",
      "house": "1",
      "postcode": "3360-134",
      "city": "OLIVEIRA DO MONDEGO",
      "lon": "-8.224560052579196",
      "lat": "40.309879082728756"
    },
    {
      "id": "pt.ine.add.PTCONT.1115710",
      "street": "R S VICENTE",
      "house": "2",
      "postcode": "3360-134",
      "city": "OLIVEIRA DO MONDEGO",
      "lon": "-8.223959858557905",
      "lat": "40.30969944133766"
    },
    {
      "id": "pt.ine.add.PTCONT.1119865",
      "street": "R CALHABE",
      "house": "8",
      "postcode": "3360-134",
      "city": "OLIVEIRA DO MONDEGO",
      "lon": "-8.225583550361872",
      "lat": "40.30991429199938"
    },
    {
      "id": "pt.ine.add.PTCONT.1136586",
      "street": "R ALMAS",
      "house": "2",
      "postcode": "3360-134",
      "city": "OLIVEIRA DO MONDEGO",
      "lon": "-8.223924905068943",
      "lat": "40.30995162876696"
    },
    {
      "id": "pt.ine.add.PTCONT.1136587",
      "street": "R ALMAS",
      "house": "2",
      "postcode": "3360-134",
      "city": "OLIVEIRA DO MONDEGO",
      "lon": "-8.223924905068943",
      "lat": "40.30995162876696"
    },
    {
      "id": "pt.ine.add.PTCONT.1172636",
      "street": "R FLORIANO DA SILVA",
      "house": "7",
      "postcode": "3360-134",
      "city": "OLIVEIRA DO MONDEGO",
      "lon": "-8.22261581928592",
      "lat": "40.3074490600489"
    },
    {
      "id": "pt.ine.add.PTCONT.1185884",
      "street": "R CABECO DA EIRA",
      "house": "2",
      "postcode": "3360-134",
      "city": "OLIVEIRA DO MONDEGO",
      "lon": "-8.222665917741818",
      "lat": "40.30975448450842"
    },
    {
      "id": "pt.ine.add.PTCONT.1195261",
      "street": "R FLORIANO DA SILVA",
      "house": "1",
      "postcode": "3360-134",
      "city": "OLIVEIRA DO MONDEGO",
      "lon": "-8.222510685250098",
      "lat": "40.308007495800666"
    },
    {
      "id": "pt.ine.add.PTCONT.1292606",
      "street": "R FLORIANO DA SILVA",
      "house": "9",
      "postcode": "3360-134",
      "city": "OLIVEIRA DO MONDEGO",
      "lon": "-8.22228585309976",
      "lat": "40.306999028966565"
    },
    {
      "id": "pt.ine.add.PTCONT.1318443",
      "street": "R FLORIANO DA SILVA",
      "house": "S",
      "postcode": "3360-134",
      "city": "OLIVEIRA DO MONDEGO",
      "lon": "-8.222616187807397",
      "lat": "40.3077282370009"
    },
    {
      "id": "pt.ine.add.PTCONT.1318444",
      "street": "R FLORIANO DA SILVA",
      "house": "S",
      "postcode": "3360-134",
      "city": "OLIVEIRA DO MONDEGO",
      "lon": "-8.222616187807397",
      "lat": "40.3077282370009"
    },
    {
      "id": "pt.ine.add.PTCONT.1318719",
      "street": "R ALMAS",
      "house": "3",
      "postcode": "3360-134",
      "city": "OLIVEIRA DO MONDEGO",
      "lon": "-8.223725137277608",
      "lat": "40.31011388825297"
    },
    {
      "id": "pt.ine.add.PTCONT.1334779",
      "street": "R ALMAS",
      "house": "1",
      "postcode": "3360-134",
      "city": "OLIVEIRA DO MONDEGO",
      "lon": "-8.224478009536657",
      "lat": "40.31010429039062"
    },
    {
      "id": "pt.ine.add.PTCONT.1336127",
      "street": "R S VICENTE",
      "house": "4",
      "postcode": "3360-134",
      "city": "OLIVEIRA DO MONDEGO",
      "lon": "-8.22360652544246",
      "lat": "40.30938451826999"
    },
    {
      "id": "pt.ine.add.PTCONT.1336128",
      "street": "R CALHABE",
      "house": "4",
      "postcode": "3360-134",
      "city": "OLIVEIRA DO MONDEGO",
      "lon": "-8.225348556478647",
      "lat": "40.310121611006764"
    },
    {
      "id": "pt.ine.add.PTCONT.1336129",
      "street": "R CALHABE",
      "house": "2",
      "postcode": "3360-134",
      "city": "OLIVEIRA DO MONDEGO",
      "lon": "-8.22500741791279",
      "lat": "40.31013088820636"
    },
    {
      "id": "pt.ine.add.PTCONT.1361002",
      "street": "R FLORIANO DA SILVA",
      "house": "3",
      "postcode": "3360-134",
      "city": "OLIVEIRA DO MONDEGO",
      "lon": "-8.22258099265709",
      "lat": "40.30780030996138"
    },
    {
      "id": "pt.ine.add.PTCONT.1362499",
      "street": "R CALHABE",
      "house": "10",
      "postcode": "3360-134",
      "city": "OLIVEIRA DO MONDEGO",
      "lon": "-8.226630899743181",
      "lat": "40.310183621481535"
    }
  ]
}