{
  "data": {
    "distrito": "Castelo Branco",
    "concelho": "Oleiros",
    "freguesia": "Oleiros-Amieira",
    "OBJECTID": 44,
    "BGRI2021": "05061400315",
    "DT21": "05",
    "DTMN21": "0506",
    "DTMNFR21": "050614",
    "DTMNFRSEC21": "050614003",
    "SECNUM21": "003",
    "SSNUM21": "15",
    "SECSSNUM21": "00315",
    "OBJECTID_1": 44827,
    "DT": "05",
    "CC": "06",
    "fr": "14",
    "SEC": "003",
    "SS": "15"
  },
  "addresses": [
    {
      "id": "pt.ine.add.PTCONT.952517",
      "street": "",
      "house": "",
      "postcode": "6160-050",
      "city": "AMIEIRA OLR",
      "lon": "-7.917417374146209",
      "lat": "39.969063322306695"
    },
    {
      "id": "pt.ine.add.PTCONT.957456",
      "street": "",
      "house": "",
      "postcode": "6160-050",
      "city": "AMIEIRA OLR",
      "lon": "-7.917588368399157",
      "lat": "39.970522650385355"
    },
    {
      "id": "pt.ine.add.PTCONT.970103",
      "street": "",
      "house": "",
      "postcode": "6160-050",
      "city": "AMIEIRA OLR",
      "lon": "-7.9177331569446325",
      "lat": "39.96914496556244"
    },
    {
      "id": "pt.ine.add.PTCONT.988144",
      "street": "",
      "house": "",
      "postcode": "6160-050",
      "city": "AMIEIRA OLR",
      "lon": "-7.916850961047845",
      "lat": "39.970512270821885"
    },
    {
      "id": "pt.ine.add.PTCONT.992138",
      "street": "",
      "house": "",
      "postcode": "6160-050",
      "city": "AMIEIRA OLR",
      "lon": "-7.926026590246491",
      "lat": "39.96709764894761"
    },
    {
      "id": "pt.ine.add.PTCONT.1004361",
      "street": "",
      "house": "",
      "postcode": "6160-050",
      "city": "AMIEIRA OLR",
      "lon": "-7.923420915945082",
      "lat": "39.96562494773018"
    },
    {
      "id": "pt.ine.add.PTCONT.1004977",
      "street": "HORTA DA JUNCA",
      "house": "",
      "postcode": "6160-050",
      "city": "AMIEIRA OLR",
      "lon": "-7.919125613988108",
      "lat": "39.969291644062444"
    },
    {
      "id": "pt.ine.add.PTCONT.1027879",
      "street": "",
      "house": "",
      "postcode": "6160-052",
      "city": "AMIEIRA OLR",
      "lon": "-7.925068411322175",
      "lat": "39.966564565157654"
    },
    {
      "id": "pt.ine.add.PTCONT.1032271",
      "street": "",
      "house": "",
      "postcode": "6160-050",
      "city": "AMIEIRA OLR",
      "lon": "-7.9193409910192205",
      "lat": "39.96778799985719"
    },
    {
      "id": "pt.ine.add.PTCONT.1048568",
      "street": "",
      "house": "",
      "postcode": "6160-050",
      "city": "AMIEIRA OLR",
      "lon": "-7.916746408167281",
      "lat": "39.97025990117826"
    }
  ]
}