{
  "data": {
    "distrito": "Aveiro",
    "concelho": "Santa Maria da Feira",
    "freguesia": "Mozelos",
    "OBJECTID": 1665,
    "BGRI2021": "01091600207",
    "DT21": "01",
    "DTMN21": "0109",
    "DTMNFR21": "010916",
    "DTMNFRSEC21": "010916002",
    "SECNUM21": "002",
    "SSNUM21": "07",
    "SECSSNUM21": "00207",
    "OBJECTID_1": 6473,
    "DT": "01",
    "CC": "09",
    "fr": "16",
    "SEC": "002",
    "SS": "07"
  },
  "addresses": [
    {
      "id": "pt.ine.add.PTCONT.292448",
      "street": "R CEDRO",
      "house": "287",
      "postcode": "4535-198",
      "city": "MOZELOS VFR",
      "lon": "-8.568981828875783",
      "lat": "40.99521379068131"
    },
    {
      "id": "pt.ine.add.PTCONT.292449",
      "street": "R CEDRO",
      "house": "287",
      "postcode": "4535-198",
      "city": "MOZELOS VFR",
      "lon": "-8.568981828875783",
      "lat": "40.99521379068131"
    },
    {
      "id": "pt.ine.add.PTCONT.292450",
      "street": "R CEDRO",
      "house": "287",
      "postcode": "4535-198",
      "city": "MOZELOS VFR",
      "lon": "-8.568981828875783",
      "lat": "40.99521379068131"
    },
    {
      "id": "pt.ine.add.PTCONT.292451",
      "street": "R CEDRO",
      "house": "287",
      "postcode": "4535-198",
      "city": "MOZELOS VFR",
      "lon": "-8.568981828875783",
      "lat": "40.99521379068131"
    },
    {
      "id": "pt.ine.add.PTCONT.298687",
      "street": "R CARLOS MARTINS",
      "house": "224",
      "postcode": "4535-537",
      "city": "MOZELOS VFR",
      "lon": "-8.571380395821587",
      "lat": "40.99488953518198"
    },
    {
      "id": "pt.ine.add.PTCONT.298688",
      "street": "R CARLOS MARTINS",
      "house": "224",
      "postcode": "4535-537",
      "city": "MOZELOS VFR",
      "lon": "-8.571380395821587",
      "lat": "40.99488953518198"
    },
    {
      "id": "pt.ine.add.PTCONT.298689",
      "street": "R CARLOS MARTINS",
      "house": "224",
      "postcode": "4535-537",
      "city": "MOZELOS VFR",
      "lon": "-8.571380395821587",
      "lat": "40.99488953518198"
    },
    {
      "id": "pt.ine.add.PTCONT.298690",
      "street": "R CARLOS MARTINS",
      "house": "224",
      "postcode": "4535-537",
      "city": "MOZELOS VFR",
      "lon": "-8.571380395821587",
      "lat": "40.99488953518198"
    },
    {
      "id": "pt.ine.add.PTCONT.298691",
      "street": "R CARLOS MARTINS",
      "house": "224",
      "postcode": "4535-537",
      "city": "MOZELOS VFR",
      "lon": "-8.571380395821587",
      "lat": "40.99488953518198"
    },
    {
      "id": "pt.ine.add.PTCONT.298692",
      "street": "R CARLOS MARTINS",
      "house": "224",
      "postcode": "4535-537",
      "city": "MOZELOS VFR",
      "lon": "-8.571380395821587",
      "lat": "40.99488953518198"
    },
    {
      "id": "pt.ine.add.PTCONT.298693",
      "street": "R CARLOS MARTINS",
      "house": "224",
      "postcode": "4535-537",
      "city": "MOZELOS VFR",
      "lon": "-8.571380395821587",
      "lat": "40.99488953518198"
    },
    {
      "id": "pt.ine.add.PTCONT.298694",
      "street": "R CARLOS MARTINS",
      "house": "224",
      "postcode": "4535-537",
      "city": "MOZELOS VFR",
      "lon": "-8.571380395821587",
      "lat": "40.99488953518198"
    },
    {
      "id": "pt.ine.add.PTCONT.324478",
      "street": "TV CEDRO",
      "house": "180",
      "postcode": "4535-246",
      "city": "MOZELOS VFR",
      "lon": "-8.568769865415659",
      "lat": "40.99551174395789"
    },
    {
      "id": "pt.ine.add.PTCONT.324479",
      "street": "TV CEDRO",
      "house": "180",
      "postcode": "4535-246",
      "city": "MOZELOS VFR",
      "lon": "-8.568769865415659",
      "lat": "40.99551174395789"
    },
    {
      "id": "pt.ine.add.PTCONT.324480",
      "street": "TV CEDRO",
      "house": "180",
      "postcode": "4535-246",
      "city": "MOZELOS VFR",
      "lon": "-8.568769865415659",
      "lat": "40.99551174395789"
    },
    {
      "id": "pt.ine.add.PTCONT.324481",
      "street": "TV CEDRO",
      "house": "180",
      "postcode": "4535-246",
      "city": "MOZELOS VFR",
      "lon": "-8.568769865415659",
      "lat": "40.99551174395789"
    },
    {
      "id": "pt.ine.add.PTCONT.343638",
      "street": "R CARLOS MARTINS",
      "house": "234",
      "postcode": "4535-537",
      "city": "MOZELOS VFR",
      "lon": "-8.571236829558181",
      "lat": "40.994746007216065"
    },
    {
      "id": "pt.ine.add.PTCONT.345692",
      "street": "R SOBRAL",
      "house": "192",
      "postcode": "4535-207",
      "city": "MOZELOS VFR",
      "lon": "-8.57136217299451",
      "lat": "40.995727032814386"
    },
    {
      "id": "pt.ine.add.PTCONT.347635",
      "street": "R SOBRAL",
      "house": "194",
      "postcode": "4535-207",
      "city": "MOZELOS VFR",
      "lon": "-8.571303406298991",
      "lat": "40.99582630687607"
    },
    {
      "id": "pt.ine.add.PTCONT.348327",
      "street": "R S BRÁS",
      "house": "74",
      "postcode": "4535-228",
      "city": "MOZELOS VFR",
      "lon": "-8.569770479214032",
      "lat": "40.995859137605414"
    },
    {
      "id": "pt.ine.add.PTCONT.349573",
      "street": "PCT CARLOS MARTINS",
      "house": "66",
      "postcode": "4535-540",
      "city": "MOZELOS VFR",
      "lon": "-8.571698528524234",
      "lat": "40.99447411330492"
    },
    {
      "id": "pt.ine.add.PTCONT.350812",
      "street": "PCT CARLOS MARTINS",
      "house": "38",
      "postcode": "4535-540",
      "city": "MOZELOS VFR",
      "lon": "-8.57155448522057",
      "lat": "40.994258550679234"
    },
    {
      "id": "pt.ine.add.PTCONT.8991",
      "street": "R CARLOS MARTINS",
      "house": "234",
      "postcode": "4535-537",
      "city": "MOZELOS VFR",
      "lon": "-8.571236829558181",
      "lat": "40.994746007216065"
    },
    {
      "id": "pt.ine.add.PTCONT.8992",
      "street": "R CARLOS MARTINS",
      "house": "234",
      "postcode": "4535-537",
      "city": "MOZELOS VFR",
      "lon": "-8.571236829558181",
      "lat": "40.994746007216065"
    },
    {
      "id": "pt.ine.add.PTCONT.8993",
      "street": "R CARLOS MARTINS",
      "house": "234",
      "postcode": "4535-537",
      "city": "MOZELOS VFR",
      "lon": "-8.571236829558181",
      "lat": "40.994746007216065"
    },
    {
      "id": "pt.ine.add.PTCONT.8994",
      "street": "R CARLOS MARTINS",
      "house": "234",
      "postcode": "4535-537",
      "city": "MOZELOS VFR",
      "lon": "-8.571236829558181",
      "lat": "40.994746007216065"
    },
    {
      "id": "pt.ine.add.PTCONT.8995",
      "street": "R CARLOS MARTINS",
      "house": "234",
      "postcode": "4535-537",
      "city": "MOZELOS VFR",
      "lon": "-8.571236829558181",
      "lat": "40.994746007216065"
    },
    {
      "id": "pt.ine.add.PTCONT.8996",
      "street": "R CARLOS MARTINS",
      "house": "234",
      "postcode": "4535-537",
      "city": "MOZELOS VFR",
      "lon": "-8.571236829558181",
      "lat": "40.994746007216065"
    },
    {
      "id": "pt.ine.add.PTCONT.8997",
      "street": "R CARLOS MARTINS",
      "house": "234",
      "postcode": "4535-537",
      "city": "MOZELOS VFR",
      "lon": "-8.571236829558181",
      "lat": "40.994746007216065"
    },
    {
      "id": "pt.ine.add.PTCONT.8998",
      "street": "R CARLOS MARTINS",
      "house": "234",
      "postcode": "4535-537",
      "city": "MOZELOS VFR",
      "lon": "-8.571236829558181",
      "lat": "40.994746007216065"
    },
    {
      "id": "pt.ine.add.PTCONT.8999",
      "street": "R CARLOS MARTINS",
      "house": "234",
      "postcode": "4535-537",
      "city": "MOZELOS VFR",
      "lon": "-8.571236829558181",
      "lat": "40.994746007216065"
    },
    {
      "id": "pt.ine.add.PTCONT.9000",
      "street": "R CARLOS MARTINS",
      "house": "234",
      "postcode": "4535-537",
      "city": "MOZELOS VFR",
      "lon": "-8.571236829558181",
      "lat": "40.994746007216065"
    },
    {
      "id": "pt.ine.add.PTCONT.10323",
      "street": "R CARLOS MARTINS",
      "house": "234",
      "postcode": "4535-537",
      "city": "MOZELOS VFR",
      "lon": "-8.571236829558181",
      "lat": "40.994746007216065"
    },
    {
      "id": "pt.ine.add.PTCONT.24990",
      "street": "R CARLOS MARTINS",
      "house": "401",
      "postcode": "4535-537",
      "city": "MOZELOS VFR",
      "lon": "-8.570073353072369",
      "lat": "40.994930515502894"
    },
    {
      "id": "pt.ine.add.PTCONT.27662",
      "street": "R S BRÁS",
      "house": "68",
      "postcode": "4535-228",
      "city": "MOZELOS VFR",
      "lon": "-8.569996047751077",
      "lat": "40.995822264510714"
    },
    {
      "id": "pt.ine.add.PTCONT.27673",
      "street": "R CEDRO",
      "house": "305",
      "postcode": "4535-198",
      "city": "MOZELOS VFR",
      "lon": "-8.568804273858266",
      "lat": "40.995322517182494"
    },
    {
      "id": "pt.ine.add.PTCONT.27674",
      "street": "R CEDRO",
      "house": "305",
      "postcode": "4535-198",
      "city": "MOZELOS VFR",
      "lon": "-8.568804273858266",
      "lat": "40.995322517182494"
    },
    {
      "id": "pt.ine.add.PTCONT.27675",
      "street": "R CEDRO",
      "house": "305",
      "postcode": "4535-198",
      "city": "MOZELOS VFR",
      "lon": "-8.568804273858266",
      "lat": "40.995322517182494"
    },
    {
      "id": "pt.ine.add.PTCONT.27676",
      "street": "R CEDRO",
      "house": "305",
      "postcode": "4535-198",
      "city": "MOZELOS VFR",
      "lon": "-8.568804273858266",
      "lat": "40.995322517182494"
    },
    {
      "id": "pt.ine.add.PTCONT.30265",
      "street": "R CEDRO",
      "house": "243",
      "postcode": "4535-198",
      "city": "MOZELOS VFR",
      "lon": "-8.569407827926248",
      "lat": "40.99493303632554"
    },
    {
      "id": "pt.ine.add.PTCONT.30266",
      "street": "R GESTO",
      "house": "128",
      "postcode": "4535-201",
      "city": "MOZELOS VFR",
      "lon": "-8.57250887250459",
      "lat": "40.99480419779446"
    },
    {
      "id": "pt.ine.add.PTCONT.30412",
      "street": "R GESTO",
      "house": "128",
      "postcode": "4535-201",
      "city": "MOZELOS VFR",
      "lon": "-8.57250887250459",
      "lat": "40.99480419779446"
    },
    {
      "id": "pt.ine.add.PTCONT.30413",
      "street": "R GESTO",
      "house": "128",
      "postcode": "4535-201",
      "city": "MOZELOS VFR",
      "lon": "-8.57250887250459",
      "lat": "40.99480419779446"
    },
    {
      "id": "pt.ine.add.PTCONT.30414",
      "street": "R GESTO",
      "house": "128",
      "postcode": "4535-201",
      "city": "MOZELOS VFR",
      "lon": "-8.57250887250459",
      "lat": "40.99480419779446"
    },
    {
      "id": "pt.ine.add.PTCONT.30415",
      "street": "R GESTO",
      "house": "128",
      "postcode": "4535-201",
      "city": "MOZELOS VFR",
      "lon": "-8.57250887250459",
      "lat": "40.99480419779446"
    },
    {
      "id": "pt.ine.add.PTCONT.30416",
      "street": "R GESTO",
      "house": "128",
      "postcode": "4535-201",
      "city": "MOZELOS VFR",
      "lon": "-8.57250887250459",
      "lat": "40.99480419779446"
    },
    {
      "id": "pt.ine.add.PTCONT.30417",
      "street": "R GESTO",
      "house": "128",
      "postcode": "4535-201",
      "city": "MOZELOS VFR",
      "lon": "-8.57250887250459",
      "lat": "40.99480419779446"
    },
    {
      "id": "pt.ine.add.PTCONT.31646",
      "street": "R CEDRO",
      "house": "243",
      "postcode": "4535-198",
      "city": "MOZELOS VFR",
      "lon": "-8.569407827926248",
      "lat": "40.99493303632554"
    },
    {
      "id": "pt.ine.add.PTCONT.39744",
      "street": "TV CEDRO",
      "house": "156",
      "postcode": "4535-246",
      "city": "MOZELOS VFR",
      "lon": "-8.568984675772667",
      "lat": "40.99564600101176"
    },
    {
      "id": "pt.ine.add.PTCONT.49344",
      "street": "R CEDRO",
      "house": "31",
      "postcode": "4535-198",
      "city": "MOZELOS VFR",
      "lon": "-8.571659951704618",
      "lat": "40.994033034302866"
    },
    {
      "id": "pt.ine.add.PTCONT.49345",
      "street": "R CEDRO",
      "house": "31",
      "postcode": "4535-198",
      "city": "MOZELOS VFR",
      "lon": "-8.571659951704618",
      "lat": "40.994033034302866"
    },
    {
      "id": "pt.ine.add.PTCONT.49346",
      "street": "R CEDRO",
      "house": "31",
      "postcode": "4535-198",
      "city": "MOZELOS VFR",
      "lon": "-8.571659951704618",
      "lat": "40.994033034302866"
    },
    {
      "id": "pt.ine.add.PTCONT.49347",
      "street": "R CEDRO",
      "house": "31",
      "postcode": "4535-198",
      "city": "MOZELOS VFR",
      "lon": "-8.571659951704618",
      "lat": "40.994033034302866"
    },
    {
      "id": "pt.ine.add.PTCONT.49348",
      "street": "R CEDRO",
      "house": "31",
      "postcode": "4535-198",
      "city": "MOZELOS VFR",
      "lon": "-8.571659951704618",
      "lat": "40.994033034302866"
    },
    {
      "id": "pt.ine.add.PTCONT.49349",
      "street": "R CARLOS MARTINS",
      "house": "375",
      "postcode": "4535-537",
      "city": "MOZELOS VFR",
      "lon": "-8.57018162085765",
      "lat": "40.99512820639597"
    },
    {
      "id": "pt.ine.add.PTCONT.73558",
      "street": "R CARLOS MARTINS",
      "house": "383",
      "postcode": "4535-537",
      "city": "MOZELOS VFR",
      "lon": "-8.570133726411294",
      "lat": "40.99507436034139"
    },
    {
      "id": "pt.ine.add.PTCONT.79003",
      "street": "R S BRÁS",
      "house": "22",
      "postcode": "4535-228",
      "city": "MOZELOS VFR",
      "lon": "-8.570424248113909",
      "lat": "40.99587466848812"
    },
    {
      "id": "pt.ine.add.PTCONT.79010",
      "street": "R GESTO",
      "house": "58",
      "postcode": "4535-201",
      "city": "MOZELOS VFR",
      "lon": "-8.57223063290251",
      "lat": "40.99406688024791"
    },
    {
      "id": "pt.ine.add.PTCONT.90485",
      "street": "TV CEDRO",
      "house": "114",
      "postcode": "4535-246",
      "city": "MOZELOS VFR",
      "lon": "-8.569354757601065",
      "lat": "40.99589673002904"
    },
    {
      "id": "pt.ine.add.PTCONT.90486",
      "street": "R CARLOS MARTINS",
      "house": "210",
      "postcode": "4535-537",
      "city": "MOZELOS VFR",
      "lon": "-8.571488428830719",
      "lat": "40.995051207311725"
    },
    {
      "id": "pt.ine.add.PTCONT.90487",
      "street": "R CARLOS MARTINS",
      "house": "210",
      "postcode": "4535-537",
      "city": "MOZELOS VFR",
      "lon": "-8.571488428830719",
      "lat": "40.995051207311725"
    },
    {
      "id": "pt.ine.add.PTCONT.90488",
      "street": "R CARLOS MARTINS",
      "house": "210",
      "postcode": "4535-537",
      "city": "MOZELOS VFR",
      "lon": "-8.571488428830719",
      "lat": "40.995051207311725"
    },
    {
      "id": "pt.ine.add.PTCONT.90489",
      "street": "R CARLOS MARTINS",
      "house": "210",
      "postcode": "4535-537",
      "city": "MOZELOS VFR",
      "lon": "-8.571488428830719",
      "lat": "40.995051207311725"
    },
    {
      "id": "pt.ine.add.PTCONT.90580",
      "street": "R CARLOS MARTINS",
      "house": "210",
      "postcode": "4535-537",
      "city": "MOZELOS VFR",
      "lon": "-8.571488428830719",
      "lat": "40.995051207311725"
    },
    {
      "id": "pt.ine.add.PTCONT.90581",
      "street": "R CARLOS MARTINS",
      "house": "210",
      "postcode": "4535-537",
      "city": "MOZELOS VFR",
      "lon": "-8.571488428830719",
      "lat": "40.995051207311725"
    },
    {
      "id": "pt.ine.add.PTCONT.90582",
      "street": "R CARLOS MARTINS",
      "house": "210",
      "postcode": "4535-537",
      "city": "MOZELOS VFR",
      "lon": "-8.571488428830719",
      "lat": "40.995051207311725"
    },
    {
      "id": "pt.ine.add.PTCONT.90583",
      "street": "R CARLOS MARTINS",
      "house": "210",
      "postcode": "4535-537",
      "city": "MOZELOS VFR",
      "lon": "-8.571488428830719",
      "lat": "40.995051207311725"
    },
    {
      "id": "pt.ine.add.PTCONT.90584",
      "street": "R CARLOS MARTINS",
      "house": "210",
      "postcode": "4535-537",
      "city": "MOZELOS VFR",
      "lon": "-8.571488428830719",
      "lat": "40.995051207311725"
    },
    {
      "id": "pt.ine.add.PTCONT.90585",
      "street": "R CARLOS MARTINS",
      "house": "210",
      "postcode": "4535-537",
      "city": "MOZELOS VFR",
      "lon": "-8.571488428830719",
      "lat": "40.995051207311725"
    },
    {
      "id": "pt.ine.add.PTCONT.90586",
      "street": "R CARLOS MARTINS",
      "house": "210",
      "postcode": "4535-537",
      "city": "MOZELOS VFR",
      "lon": "-8.571488428830719",
      "lat": "40.995051207311725"
    },
    {
      "id": "pt.ine.add.PTCONT.90587",
      "street": "R CARLOS MARTINS",
      "house": "210",
      "postcode": "4535-537",
      "city": "MOZELOS VFR",
      "lon": "-8.571488428830719",
      "lat": "40.995051207311725"
    },
    {
      "id": "pt.ine.add.PTCONT.90588",
      "street": "R CARLOS MARTINS",
      "house": "210",
      "postcode": "4535-537",
      "city": "MOZELOS VFR",
      "lon": "-8.571488428830719",
      "lat": "40.995051207311725"
    },
    {
      "id": "pt.ine.add.PTCONT.90589",
      "street": "R CARLOS MARTINS",
      "house": "210",
      "postcode": "4535-537",
      "city": "MOZELOS VFR",
      "lon": "-8.571488428830719",
      "lat": "40.995051207311725"
    },
    {
      "id": "pt.ine.add.PTCONT.90590",
      "street": "R CARLOS MARTINS",
      "house": "210",
      "postcode": "4535-537",
      "city": "MOZELOS VFR",
      "lon": "-8.571488428830719",
      "lat": "40.995051207311725"
    },
    {
      "id": "pt.ine.add.PTCONT.90591",
      "street": "R CARLOS MARTINS",
      "house": "210",
      "postcode": "4535-537",
      "city": "MOZELOS VFR",
      "lon": "-8.571488428830719",
      "lat": "40.995051207311725"
    },
    {
      "id": "pt.ine.add.PTCONT.92300",
      "street": "LG SOBRAL",
      "house": "314",
      "postcode": "4535-162",
      "city": "MOZELOS VFR",
      "lon": "-8.569773687845077",
      "lat": "40.99634537411919"
    },
    {
      "id": "pt.ine.add.PTCONT.92301",
      "street": "R S BRÁS",
      "house": "90",
      "postcode": "4535-228",
      "city": "MOZELOS VFR",
      "lon": "-8.569592389231836",
      "lat": "40.995886825888"
    },
    {
      "id": "pt.ine.add.PTCONT.95065",
      "street": "R GESTO",
      "house": "148",
      "postcode": "4535-201",
      "city": "MOZELOS VFR",
      "lon": "-8.572058581181269",
      "lat": "40.995004014646824"
    },
    {
      "id": "pt.ine.add.PTCONT.95066",
      "street": "R GESTO",
      "house": "148",
      "postcode": "4535-201",
      "city": "MOZELOS VFR",
      "lon": "-8.572058581181269",
      "lat": "40.995004014646824"
    },
    {
      "id": "pt.ine.add.PTCONT.95067",
      "street": "R GESTO",
      "house": "148",
      "postcode": "4535-201",
      "city": "MOZELOS VFR",
      "lon": "-8.572058581181269",
      "lat": "40.995004014646824"
    },
    {
      "id": "pt.ine.add.PTCONT.95068",
      "street": "R GESTO",
      "house": "148",
      "postcode": "4535-201",
      "city": "MOZELOS VFR",
      "lon": "-8.572058581181269",
      "lat": "40.995004014646824"
    },
    {
      "id": "pt.ine.add.PTCONT.95069",
      "street": "R CARLOS MARTINS",
      "house": "148",
      "postcode": "4535-537",
      "city": "MOZELOS VFR",
      "lon": "-8.572058581181269",
      "lat": "40.995004014646824"
    },
    {
      "id": "pt.ine.add.PTCONT.96254",
      "street": "R CARLOS MARTINS",
      "house": "148A",
      "postcode": "4535-537",
      "city": "MOZELOS VFR",
      "lon": "-8.572058581181269",
      "lat": "40.995004014646824"
    },
    {
      "id": "pt.ine.add.PTCONT.105121",
      "street": "R SARG HENRIQUE",
      "house": "26",
      "postcode": "4535-229",
      "city": "MOZELOS VFR",
      "lon": "-8.570069554963156",
      "lat": "40.99615515628686"
    },
    {
      "id": "pt.ine.add.PTCONT.113941",
      "street": "PCT CARLOS MARTINS",
      "house": "38",
      "postcode": "4535-540",
      "city": "MOZELOS VFR",
      "lon": "-8.57155448522057",
      "lat": "40.994258550679234"
    },
    {
      "id": "pt.ine.add.PTCONT.113942",
      "street": "PCT CARLOS MARTINS",
      "house": "38",
      "postcode": "4535-540",
      "city": "MOZELOS VFR",
      "lon": "-8.57155448522057",
      "lat": "40.994258550679234"
    },
    {
      "id": "pt.ine.add.PTCONT.113943",
      "street": "PCT CARLOS MARTINS",
      "house": "38",
      "postcode": "4535-540",
      "city": "MOZELOS VFR",
      "lon": "-8.57155448522057",
      "lat": "40.994258550679234"
    },
    {
      "id": "pt.ine.add.PTCONT.113944",
      "street": "PCT CARLOS MARTINS",
      "house": "38",
      "postcode": "4535-540",
      "city": "MOZELOS VFR",
      "lon": "-8.57155448522057",
      "lat": "40.994258550679234"
    },
    {
      "id": "pt.ine.add.PTCONT.113945",
      "street": "PCT CARLOS MARTINS",
      "house": "38",
      "postcode": "4535-540",
      "city": "MOZELOS VFR",
      "lon": "-8.57155448522057",
      "lat": "40.994258550679234"
    },
    {
      "id": "pt.ine.add.PTCONT.121723",
      "street": "R GESTO",
      "house": "78",
      "postcode": "4535-201",
      "city": "MOZELOS VFR",
      "lon": "-8.572327081188124",
      "lat": "40.99427361878001"
    },
    {
      "id": "pt.ine.add.PTCONT.121725",
      "street": "R S BRÁS",
      "house": "2",
      "postcode": "4535-228",
      "city": "MOZELOS VFR",
      "lon": "-8.570769495476416",
      "lat": "40.995963404268174"
    },
    {
      "id": "pt.ine.add.PTCONT.121738",
      "street": "R GESTO",
      "house": "78",
      "postcode": "4535-201",
      "city": "MOZELOS VFR",
      "lon": "-8.572327081188124",
      "lat": "40.99427361878001"
    },
    {
      "id": "pt.ine.add.PTCONT.121739",
      "street": "R GESTO",
      "house": "78",
      "postcode": "4535-201",
      "city": "MOZELOS VFR",
      "lon": "-8.572327081188124",
      "lat": "40.99427361878001"
    },
    {
      "id": "pt.ine.add.PTCONT.125899",
      "street": "R GESTO",
      "house": "142",
      "postcode": "4535-201",
      "city": "MOZELOS VFR",
      "lon": "-8.572295850592752",
      "lat": "40.994940078676976"
    },
    {
      "id": "pt.ine.add.PTCONT.125900",
      "street": "R GESTO",
      "house": "142",
      "postcode": "4535-201",
      "city": "MOZELOS VFR",
      "lon": "-8.572295850592752",
      "lat": "40.994940078676976"
    },
    {
      "id": "pt.ine.add.PTCONT.125901",
      "street": "R GESTO",
      "house": "142",
      "postcode": "4535-201",
      "city": "MOZELOS VFR",
      "lon": "-8.572295850592752",
      "lat": "40.994940078676976"
    },
    {
      "id": "pt.ine.add.PTCONT.125902",
      "street": "R GESTO",
      "house": "142",
      "postcode": "4535-201",
      "city": "MOZELOS VFR",
      "lon": "-8.572295850592752",
      "lat": "40.994940078676976"
    },
    {
      "id": "pt.ine.add.PTCONT.125903",
      "street": "R GESTO",
      "house": "142",
      "postcode": "4535-201",
      "city": "MOZELOS VFR",
      "lon": "-8.572295850592752",
      "lat": "40.994940078676976"
    },
    {
      "id": "pt.ine.add.PTCONT.125912",
      "street": "R GESTO",
      "house": "142",
      "postcode": "4535-201",
      "city": "MOZELOS VFR",
      "lon": "-8.572295850592752",
      "lat": "40.994940078676976"
    },
    {
      "id": "pt.ine.add.PTCONT.159755",
      "street": "TV CEDRO",
      "house": "142",
      "postcode": "4535-246",
      "city": "MOZELOS VFR",
      "lon": "-8.569115998638035",
      "lat": "40.99573555043941"
    },
    {
      "id": "pt.ine.add.PTCONT.167090",
      "street": "R CEDRO",
      "house": "257",
      "postcode": "4535-198",
      "city": "MOZELOS VFR",
      "lon": "-8.56920638688751",
      "lat": "40.99502384463831"
    },
    {
      "id": "pt.ine.add.PTCONT.167091",
      "street": "R CARLOS MARTINS",
      "house": "367",
      "postcode": "4535-537",
      "city": "MOZELOS VFR",
      "lon": "-8.57022957486159",
      "lat": "40.99519105681053"
    },
    {
      "id": "pt.ine.add.PTCONT.171865",
      "street": "R GESTO",
      "house": "16",
      "postcode": "4535-201",
      "city": "MOZELOS VFR",
      "lon": "-8.572098532680291",
      "lat": "40.99386027740056"
    },
    {
      "id": "pt.ine.add.PTCONT.175723",
      "street": "R S BRÁS",
      "house": "36",
      "postcode": "4535-228",
      "city": "MOZELOS VFR",
      "lon": "-8.570233857450962",
      "lat": "40.99583937218871"
    },
    {
      "id": "pt.ine.add.PTCONT.196011",
      "street": "PCT CARLOS MARTINS",
      "house": "20",
      "postcode": "4535-540",
      "city": "MOZELOS VFR",
      "lon": "-8.571482523570117",
      "lat": "40.994159773674944"
    },
    {
      "id": "pt.ine.add.PTCONT.196012",
      "street": "PCT CARLOS MARTINS",
      "house": "20",
      "postcode": "4535-540",
      "city": "MOZELOS VFR",
      "lon": "-8.571482523570117",
      "lat": "40.994159773674944"
    },
    {
      "id": "pt.ine.add.PTCONT.196013",
      "street": "PCT CARLOS MARTINS",
      "house": "20",
      "postcode": "4535-540",
      "city": "MOZELOS VFR",
      "lon": "-8.571482523570117",
      "lat": "40.994159773674944"
    },
    {
      "id": "pt.ine.add.PTCONT.196014",
      "street": "PCT CARLOS MARTINS",
      "house": "20",
      "postcode": "4535-540",
      "city": "MOZELOS VFR",
      "lon": "-8.571482523570117",
      "lat": "40.994159773674944"
    },
    {
      "id": "pt.ine.add.PTCONT.196015",
      "street": "PCT CARLOS MARTINS",
      "house": "20",
      "postcode": "4535-540",
      "city": "MOZELOS VFR",
      "lon": "-8.571482523570117",
      "lat": "40.994159773674944"
    },
    {
      "id": "pt.ine.add.PTCONT.196016",
      "street": "PCT CARLOS MARTINS",
      "house": "20",
      "postcode": "4535-540",
      "city": "MOZELOS VFR",
      "lon": "-8.571482523570117",
      "lat": "40.994159773674944"
    },
    {
      "id": "pt.ine.add.PTCONT.212590",
      "street": "R CEDRO",
      "house": "173",
      "postcode": "4535-198",
      "city": "MOZELOS VFR",
      "lon": "-8.570083513142196",
      "lat": "40.99466934338832"
    },
    {
      "id": "pt.ine.add.PTCONT.223244",
      "street": "PCT CARLOS MARTINS",
      "house": "66",
      "postcode": "4535-540",
      "city": "MOZELOS VFR",
      "lon": "-8.571698528524234",
      "lat": "40.99447411330492"
    },
    {
      "id": "pt.ine.add.PTCONT.223245",
      "street": "PCT CARLOS MARTINS",
      "house": "66",
      "postcode": "4535-540",
      "city": "MOZELOS VFR",
      "lon": "-8.571698528524234",
      "lat": "40.99447411330492"
    },
    {
      "id": "pt.ine.add.PTCONT.223246",
      "street": "PCT CARLOS MARTINS",
      "house": "66",
      "postcode": "4535-540",
      "city": "MOZELOS VFR",
      "lon": "-8.571698528524234",
      "lat": "40.99447411330492"
    },
    {
      "id": "pt.ine.add.PTCONT.223247",
      "street": "PCT CARLOS MARTINS",
      "house": "66",
      "postcode": "4535-540",
      "city": "MOZELOS VFR",
      "lon": "-8.571698528524234",
      "lat": "40.99447411330492"
    },
    {
      "id": "pt.ine.add.PTCONT.223248",
      "street": "PCT CARLOS MARTINS",
      "house": "66",
      "postcode": "4535-540",
      "city": "MOZELOS VFR",
      "lon": "-8.571698528524234",
      "lat": "40.99447411330492"
    },
    {
      "id": "pt.ine.add.PTCONT.223249",
      "street": "PCT CARLOS MARTINS",
      "house": "66",
      "postcode": "4535-540",
      "city": "MOZELOS VFR",
      "lon": "-8.571698528524234",
      "lat": "40.99447411330492"
    },
    {
      "id": "pt.ine.add.PTCONT.223250",
      "street": "PCT CARLOS MARTINS",
      "house": "66",
      "postcode": "4535-540",
      "city": "MOZELOS VFR",
      "lon": "-8.571698528524234",
      "lat": "40.99447411330492"
    },
    {
      "id": "pt.ine.add.PTCONT.223251",
      "street": "PCT CARLOS MARTINS",
      "house": "66",
      "postcode": "4535-540",
      "city": "MOZELOS VFR",
      "lon": "-8.571698528524234",
      "lat": "40.99447411330492"
    },
    {
      "id": "pt.ine.add.PTCONT.223252",
      "street": "PCT CARLOS MARTINS",
      "house": "66",
      "postcode": "4535-540",
      "city": "MOZELOS VFR",
      "lon": "-8.571698528524234",
      "lat": "40.99447411330492"
    },
    {
      "id": "pt.ine.add.PTCONT.223253",
      "street": "PCT CARLOS MARTINS",
      "house": "66",
      "postcode": "4535-540",
      "city": "MOZELOS VFR",
      "lon": "-8.571698528524234",
      "lat": "40.99447411330492"
    },
    {
      "id": "pt.ine.add.PTCONT.223254",
      "street": "PCT CARLOS MARTINS",
      "house": "66",
      "postcode": "4535-540",
      "city": "MOZELOS VFR",
      "lon": "-8.571698528524234",
      "lat": "40.99447411330492"
    },
    {
      "id": "pt.ine.add.PTCONT.224401",
      "street": "PCT CARLOS MARTINS",
      "house": "66",
      "postcode": "4535-540",
      "city": "MOZELOS VFR",
      "lon": "-8.571698528524234",
      "lat": "40.99447411330492"
    },
    {
      "id": "pt.ine.add.PTCONT.224408",
      "street": "PCT CARLOS MARTINS",
      "house": "66",
      "postcode": "4535-540",
      "city": "MOZELOS VFR",
      "lon": "-8.571698528524234",
      "lat": "40.99447411330492"
    },
    {
      "id": "pt.ine.add.PTCONT.225928",
      "street": "R GESTO",
      "house": "136",
      "postcode": "4535-201",
      "city": "MOZELOS VFR",
      "lon": "-8.572438283753007",
      "lat": "40.99491252211569"
    },
    {
      "id": "pt.ine.add.PTCONT.225929",
      "street": "R GESTO",
      "house": "136",
      "postcode": "4535-201",
      "city": "MOZELOS VFR",
      "lon": "-8.572438283753007",
      "lat": "40.99491252211569"
    },
    {
      "id": "pt.ine.add.PTCONT.225930",
      "street": "R GESTO",
      "house": "136",
      "postcode": "4535-201",
      "city": "MOZELOS VFR",
      "lon": "-8.572438283753007",
      "lat": "40.99491252211569"
    },
    {
      "id": "pt.ine.add.PTCONT.225931",
      "street": "R GESTO",
      "house": "136",
      "postcode": "4535-201",
      "city": "MOZELOS VFR",
      "lon": "-8.572438283753007",
      "lat": "40.99491252211569"
    },
    {
      "id": "pt.ine.add.PTCONT.225932",
      "street": "R GESTO",
      "house": "136",
      "postcode": "4535-201",
      "city": "MOZELOS VFR",
      "lon": "-8.572438283753007",
      "lat": "40.99491252211569"
    },
    {
      "id": "pt.ine.add.PTCONT.225933",
      "street": "R GESTO",
      "house": "136",
      "postcode": "4535-201",
      "city": "MOZELOS VFR",
      "lon": "-8.572438283753007",
      "lat": "40.99491252211569"
    },
    {
      "id": "pt.ine.add.PTCONT.225934",
      "street": "R GESTO",
      "house": "136",
      "postcode": "4535-201",
      "city": "MOZELOS VFR",
      "lon": "-8.572438283753007",
      "lat": "40.99491252211569"
    },
    {
      "id": "pt.ine.add.PTCONT.228599",
      "street": "R CARLOS MARTINS",
      "house": "244",
      "postcode": "4535-537",
      "city": "MOZELOS VFR",
      "lon": "-8.571059100749883",
      "lat": "40.99482772403347"
    },
    {
      "id": "pt.ine.add.PTCONT.228600",
      "street": "R CARLOS MARTINS",
      "house": "244",
      "postcode": "4535-537",
      "city": "MOZELOS VFR",
      "lon": "-8.571059100749883",
      "lat": "40.99482772403347"
    },
    {
      "id": "pt.ine.add.PTCONT.228601",
      "street": "R CARLOS MARTINS",
      "house": "244",
      "postcode": "4535-537",
      "city": "MOZELOS VFR",
      "lon": "-8.571059100749883",
      "lat": "40.99482772403347"
    },
    {
      "id": "pt.ine.add.PTCONT.228602",
      "street": "R CARLOS MARTINS",
      "house": "244",
      "postcode": "4535-537",
      "city": "MOZELOS VFR",
      "lon": "-8.571059100749883",
      "lat": "40.99482772403347"
    },
    {
      "id": "pt.ine.add.PTCONT.228603",
      "street": "R CARLOS MARTINS",
      "house": "244",
      "postcode": "4535-537",
      "city": "MOZELOS VFR",
      "lon": "-8.571059100749883",
      "lat": "40.99482772403347"
    },
    {
      "id": "pt.ine.add.PTCONT.228604",
      "street": "R CARLOS MARTINS",
      "house": "244",
      "postcode": "4535-537",
      "city": "MOZELOS VFR",
      "lon": "-8.571059100749883",
      "lat": "40.99482772403347"
    },
    {
      "id": "pt.ine.add.PTCONT.228605",
      "street": "R CARLOS MARTINS",
      "house": "244",
      "postcode": "4535-537",
      "city": "MOZELOS VFR",
      "lon": "-8.571059100749883",
      "lat": "40.99482772403347"
    },
    {
      "id": "pt.ine.add.PTCONT.228606",
      "street": "R CARLOS MARTINS",
      "house": "244",
      "postcode": "4535-537",
      "city": "MOZELOS VFR",
      "lon": "-8.571059100749883",
      "lat": "40.99482772403347"
    },
    {
      "id": "pt.ine.add.PTCONT.237474",
      "street": "R CEDRO",
      "house": "211",
      "postcode": "4535-198",
      "city": "MOZELOS VFR",
      "lon": "-8.569621152771854",
      "lat": "40.99484218266044"
    },
    {
      "id": "pt.ine.add.PTCONT.238235",
      "street": "R CARLOS MARTINS",
      "house": "262",
      "postcode": "4535-537",
      "city": "MOZELOS VFR",
      "lon": "-8.57082218787986",
      "lat": "40.9949456837458"
    },
    {
      "id": "pt.ine.add.PTCONT.238236",
      "street": "R CARLOS MARTINS",
      "house": "262",
      "postcode": "4535-537",
      "city": "MOZELOS VFR",
      "lon": "-8.57082218787986",
      "lat": "40.9949456837458"
    },
    {
      "id": "pt.ine.add.PTCONT.238237",
      "street": "R CARLOS MARTINS",
      "house": "262",
      "postcode": "4535-537",
      "city": "MOZELOS VFR",
      "lon": "-8.57082218787986",
      "lat": "40.9949456837458"
    },
    {
      "id": "pt.ine.add.PTCONT.238238",
      "street": "R CARLOS MARTINS",
      "house": "262",
      "postcode": "4535-537",
      "city": "MOZELOS VFR",
      "lon": "-8.57082218787986",
      "lat": "40.9949456837458"
    },
    {
      "id": "pt.ine.add.PTCONT.238239",
      "street": "R CARLOS MARTINS",
      "house": "262",
      "postcode": "4535-537",
      "city": "MOZELOS VFR",
      "lon": "-8.57082218787986",
      "lat": "40.9949456837458"
    },
    {
      "id": "pt.ine.add.PTCONT.238240",
      "street": "R CARLOS MARTINS",
      "house": "262",
      "postcode": "4535-537",
      "city": "MOZELOS VFR",
      "lon": "-8.57082218787986",
      "lat": "40.9949456837458"
    },
    {
      "id": "pt.ine.add.PTCONT.238241",
      "street": "R CARLOS MARTINS",
      "house": "262",
      "postcode": "4535-537",
      "city": "MOZELOS VFR",
      "lon": "-8.57082218787986",
      "lat": "40.9949456837458"
    },
    {
      "id": "pt.ine.add.PTCONT.238242",
      "street": "R CARLOS MARTINS",
      "house": "262",
      "postcode": "4535-537",
      "city": "MOZELOS VFR",
      "lon": "-8.57082218787986",
      "lat": "40.9949456837458"
    },
    {
      "id": "pt.ine.add.PTCONT.238243",
      "street": "R CARLOS MARTINS",
      "house": "262",
      "postcode": "4535-537",
      "city": "MOZELOS VFR",
      "lon": "-8.57082218787986",
      "lat": "40.9949456837458"
    },
    {
      "id": "pt.ine.add.PTCONT.238244",
      "street": "R CARLOS MARTINS",
      "house": "262",
      "postcode": "4535-537",
      "city": "MOZELOS VFR",
      "lon": "-8.57082218787986",
      "lat": "40.9949456837458"
    },
    {
      "id": "pt.ine.add.PTCONT.238245",
      "street": "R CARLOS MARTINS",
      "house": "262",
      "postcode": "4535-537",
      "city": "MOZELOS VFR",
      "lon": "-8.57082218787986",
      "lat": "40.9949456837458"
    },
    {
      "id": "pt.ine.add.PTCONT.238246",
      "street": "R CARLOS MARTINS",
      "house": "262",
      "postcode": "4535-537",
      "city": "MOZELOS VFR",
      "lon": "-8.57082218787986",
      "lat": "40.9949456837458"
    },
    {
      "id": "pt.ine.add.PTCONT.238247",
      "street": "R CARLOS MARTINS",
      "house": "262",
      "postcode": "4535-537",
      "city": "MOZELOS VFR",
      "lon": "-8.57082218787986",
      "lat": "40.9949456837458"
    },
    {
      "id": "pt.ine.add.PTCONT.238248",
      "street": "R CARLOS MARTINS",
      "house": "262",
      "postcode": "4535-537",
      "city": "MOZELOS VFR",
      "lon": "-8.57082218787986",
      "lat": "40.9949456837458"
    },
    {
      "id": "pt.ine.add.PTCONT.238249",
      "street": "R CARLOS MARTINS",
      "house": "262",
      "postcode": "4535-537",
      "city": "MOZELOS VFR",
      "lon": "-8.57082218787986",
      "lat": "40.9949456837458"
    },
    {
      "id": "pt.ine.add.PTCONT.242096",
      "street": "R CEDRO",
      "house": "19",
      "postcode": "4535-198",
      "city": "MOZELOS VFR",
      "lon": "-8.571837797028468",
      "lat": "40.99396932532387"
    },
    {
      "id": "pt.ine.add.PTCONT.242097",
      "street": "R CEDRO",
      "house": "19",
      "postcode": "4535-198",
      "city": "MOZELOS VFR",
      "lon": "-8.571837797028468",
      "lat": "40.99396932532387"
    },
    {
      "id": "pt.ine.add.PTCONT.242098",
      "street": "R CEDRO",
      "house": "19",
      "postcode": "4535-198",
      "city": "MOZELOS VFR",
      "lon": "-8.571837797028468",
      "lat": "40.99396932532387"
    },
    {
      "id": "pt.ine.add.PTCONT.243902",
      "street": "R CEDRO",
      "house": "19",
      "postcode": "4535-198",
      "city": "MOZELOS VFR",
      "lon": "-8.571837797028468",
      "lat": "40.99396932532387"
    },
    {
      "id": "pt.ine.add.PTCONT.244989",
      "street": "TV CEDRO",
      "house": "150",
      "postcode": "4535-246",
      "city": "MOZELOS VFR",
      "lon": "-8.569020685189336",
      "lat": "40.99569989248279"
    },
    {
      "id": "pt.ine.add.PTCONT.260426",
      "street": "R GESTO",
      "house": "104",
      "postcode": "4535-201",
      "city": "MOZELOS VFR",
      "lon": "-8.572423350752066",
      "lat": "40.99445334408321"
    },
    {
      "id": "pt.ine.add.PTCONT.260427",
      "street": "R SOBRAL",
      "house": "6",
      "postcode": "4535-207",
      "city": "MOZELOS VFR",
      "lon": "-8.570578866264636",
      "lat": "40.99589209102489"
    },
    {
      "id": "pt.ine.add.PTCONT.271986",
      "street": "R SOBRAL",
      "house": "210",
      "postcode": "4535-207",
      "city": "MOZELOS VFR",
      "lon": "-8.571066609499216",
      "lat": "40.99596227584304"
    },
    {
      "id": "pt.ine.add.PTCONT.274286",
      "street": "TV CEDRO",
      "house": "134",
      "postcode": "4535-246",
      "city": "MOZELOS VFR",
      "lon": "-8.569163833407552",
      "lat": "40.995780392531294"
    },
    {
      "id": "pt.ine.add.PTCONT.274287",
      "street": "R CARLOS MARTINS",
      "house": "391",
      "postcode": "4535-537",
      "city": "MOZELOS VFR",
      "lon": "-8.570097656974946",
      "lat": "40.99501146483386"
    },
    {
      "id": "pt.ine.add.PTCONT.285142",
      "street": "TV CEDRO",
      "house": "126",
      "postcode": "4535-246",
      "city": "MOZELOS VFR",
      "lon": "-8.569259087699997",
      "lat": "40.99580704598713"
    }
  ]
}