{
  "data": {
    "distrito": "Viseu",
    "concelho": "Mortágua",
    "freguesia": "União das freguesias de Mortágua, Vale de Remígio, Cortegaça e Almaça",
    "OBJECTID": 121,
    "BGRI2021": "18081100440",
    "DT21": "18",
    "DTMN21": "1808",
    "DTMNFR21": "180811",
    "DTMNFRSEC21": "180811004",
    "SECNUM21": "004",
    "SSNUM21": "40",
    "SECSSNUM21": "00440",
    "OBJECTID_1": 193272,
    "DT": "18",
    "CC": "08",
    "fr": "11",
    "SEC": "004",
    "SS": "40"
  },
  "addresses": [
    {
      "id": "pt.ine.add.PTCONT.5454426",
      "street": "R SAUDADE",
      "house": "21",
      "postcode": "3450-213",
      "city": "MORTÁGUA",
      "lon": "-8.235877307633332",
      "lat": "40.38775046494335"
    },
    {
      "id": "pt.ine.add.PTCONT.5458009",
      "street": "R SAUDADE",
      "house": "25",
      "postcode": "3450-213",
      "city": "MORTÁGUA",
      "lon": "-8.235711987973577",
      "lat": "40.387462432805556"
    },
    {
      "id": "pt.ine.add.PTCONT.5490467",
      "street": "R SAUDADE",
      "house": "8",
      "postcode": "3450-213",
      "city": "MORTÁGUA",
      "lon": "-8.236501463805823",
      "lat": "40.38772289180119"
    },
    {
      "id": "pt.ine.add.PTCONT.5507065",
      "street": "R DR BRAULIO AFONSO DE SOUSA",
      "house": "4",
      "postcode": "3450-223",
      "city": "MORTÁGUA",
      "lon": "-8.236088380276525",
      "lat": "40.38714690250523"
    },
    {
      "id": "pt.ine.add.PTCONT.5521965",
      "street": "R TEÓFILO DE ABREU",
      "house": "12",
      "postcode": "3450-228",
      "city": "MORTÁGUA",
      "lon": "-8.237031691724486",
      "lat": "40.38788451716015"
    },
    {
      "id": "pt.ine.add.PTCONT.5619033",
      "street": "R SAUDADE",
      "house": "23",
      "postcode": "3450-213",
      "city": "MORTÁGUA",
      "lon": "-8.23579463395046",
      "lat": "40.38759744332635"
    },
    {
      "id": "pt.ine.add.PTCONT.5632295",
      "street": "R SAUDADE",
      "house": "6",
      "postcode": "3450-213",
      "city": "MORTÁGUA",
      "lon": "-8.236737354986063",
      "lat": "40.387947820437866"
    },
    {
      "id": "pt.ine.add.PTCONT.5636075",
      "street": "R SAUDADE",
      "house": "12",
      "postcode": "3450-213",
      "city": "MORTÁGUA",
      "lon": "-8.236089079778953",
      "lat": "40.38760618708214"
    },
    {
      "id": "pt.ine.add.PTCONT.5637987",
      "street": "R DR BRAULIO AFONSO DE SOUSA",
      "house": "12",
      "postcode": "3450-223",
      "city": "MORTÁGUA",
      "lon": "-8.236747531112739",
      "lat": "40.38690316264081"
    },
    {
      "id": "pt.ine.add.PTCONT.5643631",
      "street": "R DR BRAULIO AFONSO DE SOUSA",
      "house": "10",
      "postcode": "3450-223",
      "city": "MORTÁGUA",
      "lon": "-8.236559303172111",
      "lat": "40.38703841507159"
    }
  ]
}