{
  "data": {
    "distrito": "Guarda",
    "concelho": "Fornos de Algodres",
    "freguesia": "União das freguesias de Juncais, Vila Ruiva e Vila Soeiro do Chão",
    "OBJECTID": 259,
    "BGRI2021": "09051800152",
    "DT21": "09",
    "DTMN21": "0905",
    "DTMNFR21": "090518",
    "DTMNFRSEC21": "090518001",
    "SECNUM21": "001",
    "SSNUM21": "52",
    "SECSSNUM21": "00152",
    "OBJECTID_1": 77054,
    "DT": "09",
    "CC": "05",
    "fr": "18",
    "SEC": "001",
    "SS": "52"
  },
  "addresses": [
    {
      "id": "pt.ine.add.PTCONT.1904256",
      "street": "R DO CALVÁRIO",
      "house": "",
      "postcode": "6370-411",
      "city": "VILA SOEIRO DO CHÃO",
      "lon": "-7.489595833673674",
      "lat": "40.61750551249498"
    },
    {
      "id": "pt.ine.add.PTCONT.1909138",
      "street": "R DO OUTEIRO",
      "house": "20",
      "postcode": "6370-332",
      "city": "JUNCAIS",
      "lon": "-7.507748010712011",
      "lat": "40.609842782305826"
    },
    {
      "id": "pt.ine.add.PTCONT.1915796",
      "street": "R DA ESCOLA",
      "house": "17",
      "postcode": "6370-332",
      "city": "JUNCAIS",
      "lon": "-7.505221358826248",
      "lat": "40.61089168323022"
    },
    {
      "id": "pt.ine.add.PTCONT.1925703",
      "street": "R DO OUTEIRO",
      "house": "18",
      "postcode": "6370-332",
      "city": "JUNCAIS",
      "lon": "-7.507546726909678",
      "lat": "40.60988671809556"
    },
    {
      "id": "pt.ine.add.PTCONT.1934750",
      "street": "R DO OUTEIRO",
      "house": "6",
      "postcode": "6370-332",
      "city": "JUNCAIS",
      "lon": "-7.507239271008909",
      "lat": "40.60991206791787"
    },
    {
      "id": "pt.ine.add.PTCONT.1937957",
      "street": "R DA ESCOLA",
      "house": "7",
      "postcode": "6370-332",
      "city": "JUNCAIS",
      "lon": "-7.506907343220647",
      "lat": "40.61002733587466"
    },
    {
      "id": "pt.ine.add.PTCONT.1937958",
      "street": "R DO OUTEIRO",
      "house": "2",
      "postcode": "6370-332",
      "city": "JUNCAIS",
      "lon": "-7.507097064399788",
      "lat": "40.609956323041544"
    },
    {
      "id": "pt.ine.add.PTCONT.1941799",
      "street": "R DO OUTEIRO",
      "house": "14",
      "postcode": "6370-332",
      "city": "JUNCAIS",
      "lon": "-7.507392789004565",
      "lat": "40.60992190488035"
    },
    {
      "id": "pt.ine.add.PTCONT.1942980",
      "street": "R DO OUTEIRO",
      "house": "8",
      "postcode": "6370-332",
      "city": "JUNCAIS",
      "lon": "-7.507286617165847",
      "lat": "40.6099033193095"
    },
    {
      "id": "pt.ine.add.PTCONT.1942981",
      "street": "R DO OUTEIRO",
      "house": "10",
      "postcode": "6370-332",
      "city": "JUNCAIS",
      "lon": "-7.50733387930979",
      "lat": "40.60990357539003"
    },
    {
      "id": "pt.ine.add.PTCONT.1944078",
      "street": "R OUTEIRO",
      "house": "30",
      "postcode": "6370-332",
      "city": "JUNCAIS",
      "lon": "-7.508091416081055",
      "lat": "40.60976359469204"
    },
    {
      "id": "pt.ine.add.PTCONT.1944079",
      "street": "ESTR JUNCAIS",
      "house": "1",
      "postcode": "6370-332",
      "city": "JUNCAIS",
      "lon": "-7.508091416081055",
      "lat": "40.60976359469204"
    },
    {
      "id": "pt.ine.add.PTCONT.1953958",
      "street": "R DA ESCOLA",
      "house": "9",
      "postcode": "6370-332",
      "city": "JUNCAIS",
      "lon": "-7.506978572758411",
      "lat": "40.609991701391614"
    },
    {
      "id": "pt.ine.add.PTCONT.1967613",
      "street": "R DO OUTEIRO",
      "house": "26",
      "postcode": "6370-332",
      "city": "JUNCAIS",
      "lon": "-7.508102476517743",
      "lat": "40.609844701019966"
    },
    {
      "id": "pt.ine.add.PTCONT.1970586",
      "street": "R DO OUTEIRO",
      "house": "3",
      "postcode": "6370-332",
      "city": "JUNCAIS",
      "lon": "-7.50703781859456",
      "lat": "40.60997401223192"
    },
    {
      "id": "pt.ine.add.PTCONT.1973566",
      "street": "R DA ESCOLA",
      "house": "9",
      "postcode": "6370-332",
      "city": "JUNCAIS",
      "lon": "-7.506871476233282",
      "lat": "40.61007216722136"
    },
    {
      "id": "pt.ine.add.PTCONT.1851002",
      "street": "R DA ESCOLA",
      "house": "11",
      "postcode": "6370-332",
      "city": "JUNCAIS",
      "lon": "-7.506812314338786",
      "lat": "40.610080851587284"
    },
    {
      "id": "pt.ine.add.PTCONT.1853011",
      "street": "MTE RICARDO",
      "house": "",
      "postcode": "6370-332",
      "city": "JUNCAIS",
      "lon": "-7.508241974612621",
      "lat": "40.61262805077482"
    },
    {
      "id": "pt.ine.add.PTCONT.1858941",
      "street": "R DO OUTEIRO",
      "house": "22",
      "postcode": "6370-332",
      "city": "JUNCAIS",
      "lon": "-7.507948538991427",
      "lat": "40.60987988854864"
    },
    {
      "id": "pt.ine.add.PTCONT.1860881",
      "street": "R DO OUTEIRO",
      "house": "24",
      "postcode": "6370-332",
      "city": "JUNCAIS",
      "lon": "-7.5080432310700465",
      "lat": "40.60986239072914"
    },
    {
      "id": "pt.ine.add.PTCONT.1874642",
      "street": "R DO OUTEIRO",
      "house": "4",
      "postcode": "6370-332",
      "city": "JUNCAIS",
      "lon": "-7.50716820973918",
      "lat": "40.60992969314778"
    },
    {
      "id": "pt.ine.add.PTCONT.1875821",
      "street": "R DO OUTEIRO",
      "house": "16",
      "postcode": "6370-332",
      "city": "JUNCAIS",
      "lon": "-7.507452118657323",
      "lat": "40.609895210798136"
    },
    {
      "id": "pt.ine.add.PTCONT.1888381",
      "street": "R DO OUTEIRO",
      "house": "28",
      "postcode": "6370-332",
      "city": "JUNCAIS",
      "lon": "-7.508008539670296",
      "lat": "40.60978115650162"
    }
  ]
}