{
  "data": {
    "distrito": "Leiria",
    "concelho": "Batalha",
    "freguesia": "São Mamede",
    "OBJECTID": 343,
    "BGRI2021": "10040300203",
    "DT21": "10",
    "DTMN21": "1004",
    "DTMNFR21": "100403",
    "DTMNFRSEC21": "100403002",
    "SECNUM21": "002",
    "SSNUM21": "03",
    "SECSSNUM21": "00203",
    "OBJECTID_1": 86882,
    "DT": "10",
    "CC": "04",
    "fr": "03",
    "SEC": "002",
    "SS": "03"
  },
  "addresses": [
    {
      "id": "pt.ine.add.PTCONT.2010802",
      "street": "R CASAIS",
      "house": "15",
      "postcode": "2495-013",
      "city": "SÃO MAMEDE",
      "lon": "-8.709518946308014",
      "lat": "39.60573568330208"
    },
    {
      "id": "pt.ine.add.PTCONT.2039286",
      "street": "R LARANJEIRAS",
      "house": "1",
      "postcode": "2495-013",
      "city": "SÃO MAMEDE",
      "lon": "-8.709639701486974",
      "lat": "39.604852424898844"
    },
    {
      "id": "pt.ine.add.PTCONT.2041361",
      "street": "R ENCOSTA",
      "house": "1",
      "postcode": "2495-031",
      "city": "SÃO MAMEDE",
      "lon": "-8.711965440119954",
      "lat": "39.60030146869749"
    },
    {
      "id": "pt.ine.add.PTCONT.2064220",
      "street": "R CASAIS",
      "house": "17",
      "postcode": "2495-013",
      "city": "SÃO MAMEDE",
      "lon": "-8.709805467989815",
      "lat": "39.60518485113531"
    },
    {
      "id": "pt.ine.add.PTCONT.2098440",
      "street": "R VALE TOUREEN",
      "house": "3",
      "postcode": "2495-013",
      "city": "SÃO MAMEDE",
      "lon": "-8.712370643324958",
      "lat": "39.602821334216664"
    },
    {
      "id": "pt.ine.add.PTCONT.2107903",
      "street": "R PRINCIPAL",
      "house": "21",
      "postcode": "2495-031",
      "city": "SÃO MAMEDE",
      "lon": "-8.713138226854767",
      "lat": "39.59992634381325"
    },
    {
      "id": "pt.ine.add.PTCONT.2122860",
      "street": "R CASAIS",
      "house": "23",
      "postcode": "2495-013",
      "city": "SÃO MAMEDE",
      "lon": "-8.711694293679328",
      "lat": "39.6040946530942"
    },
    {
      "id": "pt.ine.add.PTCONT.2135577",
      "street": "R ESTRADA MIRA AIRE",
      "house": "17",
      "postcode": "2495-031",
      "city": "SÃO MAMEDE",
      "lon": "-8.713480360582132",
      "lat": "39.60046503936304"
    },
    {
      "id": "pt.ine.add.PTCONT.2173879",
      "street": "R LARANJEIRAS",
      "house": "2",
      "postcode": "2495-013",
      "city": "SÃO MAMEDE",
      "lon": "-8.709918087728743",
      "lat": "39.604724948976624"
    },
    {
      "id": "pt.ine.add.PTCONT.2181545",
      "street": "R VALE",
      "house": "1",
      "postcode": "2495-031",
      "city": "SÃO MAMEDE",
      "lon": "-8.712812470939415",
      "lat": "39.59995498977304"
    },
    {
      "id": "pt.ine.add.PTCONT.2192046",
      "street": "R DOS CASAIS",
      "house": "21",
      "postcode": "2495-016",
      "city": "SÃO MAMEDE",
      "lon": "-8.710721324784362",
      "lat": "39.604206187044866"
    },
    {
      "id": "pt.ine.add.PTCONT.2198533",
      "street": "R PRINCIPAL",
      "house": "19",
      "postcode": "2495-031",
      "city": "SÃO MAMEDE",
      "lon": "-8.713326530933655",
      "lat": "39.60016858544319"
    },
    {
      "id": "pt.ine.add.PTCONT.2204514",
      "street": "R CASAIS",
      "house": "2S",
      "postcode": "2495-013",
      "city": "SÃO MAMEDE",
      "lon": "-8.713151603839165",
      "lat": "39.602925518784566"
    },
    {
      "id": "pt.ine.add.PTCONT.2256528",
      "street": "R CASAIS",
      "house": "25",
      "postcode": "2495-013",
      "city": "SÃO MAMEDE",
      "lon": "-8.711950062218527",
      "lat": "39.6040483454875"
    },
    {
      "id": "pt.ine.add.PTCONT.2264945",
      "street": "R VALE",
      "house": "3",
      "postcode": "2495-031",
      "city": "SÃO MAMEDE",
      "lon": "-8.712764325499363",
      "lat": "39.59976608855129"
    },
    {
      "id": "pt.ine.add.PTCONT.2266958",
      "street": "R ALECRIM",
      "house": "1",
      "postcode": "2495-013",
      "city": "SÃO MAMEDE",
      "lon": "-8.709537229275448",
      "lat": "39.60513214189326"
    },
    {
      "id": "pt.ine.add.PTCONT.2267477",
      "street": "R CASAIS",
      "house": "29",
      "postcode": "2495-013",
      "city": "SÃO MAMEDE",
      "lon": "-8.71267770721649",
      "lat": "39.603342193225906"
    }
  ]
}