{
  "data": {
    "distrito": "Leiria",
    "concelho": "Batalha",
    "freguesia": "São Mamede",
    "OBJECTID": 387,
    "BGRI2021": "10040300222",
    "DT21": "10",
    "DTMN21": "1004",
    "DTMNFR21": "100403",
    "DTMNFRSEC21": "100403002",
    "SECNUM21": "002",
    "SSNUM21": "22",
    "SECSSNUM21": "00222",
    "OBJECTID_1": 86961,
    "DT": "10",
    "CC": "04",
    "fr": "03",
    "SEC": "002",
    "SS": "22"
  },
  "addresses": [
    {
      "id": "pt.ine.add.PTCONT.1981732",
      "street": "R SANTO ANTÓNIO",
      "house": "17",
      "postcode": "2495-011",
      "city": "SÃO MAMEDE",
      "lon": "-8.722814105037136",
      "lat": "39.60963191974775"
    },
    {
      "id": "pt.ine.add.PTCONT.1983930",
      "street": "R SANTO ANTÓNIO",
      "house": "13",
      "postcode": "2495-011",
      "city": "SÃO MAMEDE",
      "lon": "-8.722339839859247",
      "lat": "39.610003601387795"
    },
    {
      "id": "pt.ine.add.PTCONT.1988380",
      "street": "R SANTO ANTÓNIO",
      "house": "3",
      "postcode": "2495-011",
      "city": "SÃO MAMEDE",
      "lon": "-8.721252023786498",
      "lat": "39.61080170430749"
    },
    {
      "id": "pt.ine.add.PTCONT.2007058",
      "street": "R J NARCISO",
      "house": "6",
      "postcode": "2495-017",
      "city": "SÃO MAMEDE",
      "lon": "-8.71956867790458",
      "lat": "39.61002662943724"
    },
    {
      "id": "pt.ine.add.PTCONT.2008072",
      "street": "R PASSADEIRAS",
      "house": "16",
      "postcode": "2495-017",
      "city": "SÃO MAMEDE",
      "lon": "-8.717313375089766",
      "lat": "39.60769624486123"
    },
    {
      "id": "pt.ine.add.PTCONT.2010763",
      "street": "R CASAL DAS ANTONIAS",
      "house": "9",
      "postcode": "2495-011",
      "city": "SÃO MAMEDE",
      "lon": "-8.720708929484312",
      "lat": "39.60716573825841"
    },
    {
      "id": "pt.ine.add.PTCONT.2034592",
      "street": "R CASAL ANTONIAS",
      "house": "4",
      "postcode": "2495-011",
      "city": "SÃO MAMEDE",
      "lon": "-8.72030141113176",
      "lat": "39.607167798577834"
    },
    {
      "id": "pt.ine.add.PTCONT.2043209",
      "street": "R SANTO ANTÓNIO",
      "house": "11",
      "postcode": "2495-011",
      "city": "SÃO MAMEDE",
      "lon": "-8.722025608434166",
      "lat": "39.610023208069045"
    },
    {
      "id": "pt.ine.add.PTCONT.2048498",
      "street": "R CARVALHOS",
      "house": "1",
      "postcode": "2495-011",
      "city": "SÃO MAMEDE",
      "lon": "-8.722713238899054",
      "lat": "39.60872275324063"
    },
    {
      "id": "pt.ine.add.PTCONT.2052619",
      "street": "CAM CHOUCAS DO POÇO",
      "house": "2",
      "postcode": "2495-011",
      "city": "SÃO MAMEDE",
      "lon": "-8.72257889617303",
      "lat": "39.6079848840156"
    },
    {
      "id": "pt.ine.add.PTCONT.2075799",
      "street": "R SANTO ANTÓNIO",
      "house": "1",
      "postcode": "2495-011",
      "city": "SÃO MAMEDE",
      "lon": "-8.720925306588695",
      "lat": "39.610722297357675"
    },
    {
      "id": "pt.ine.add.PTCONT.2096054",
      "street": "TV ANTÓNIO GERMANO",
      "house": "1",
      "postcode": "2495-017",
      "city": "SÃO MAMEDE",
      "lon": "-8.718854563587003",
      "lat": "39.608192861391565"
    },
    {
      "id": "pt.ine.add.PTCONT.2105610",
      "street": "R CARVALHOS",
      "house": "5",
      "postcode": "2495-011",
      "city": "SÃO MAMEDE",
      "lon": "-8.722533773096906",
      "lat": "39.608156240604735"
    },
    {
      "id": "pt.ine.add.PTCONT.2107904",
      "street": "R J NARCISO",
      "house": "8",
      "postcode": "2495-017",
      "city": "SÃO MAMEDE",
      "lon": "-8.719497295144317",
      "lat": "39.60984685540216"
    },
    {
      "id": "pt.ine.add.PTCONT.2115848",
      "street": "R ANTONIAS",
      "house": "5",
      "postcode": "2495-011",
      "city": "SÃO MAMEDE",
      "lon": "-8.721078927660615",
      "lat": "39.606857637880815"
    },
    {
      "id": "pt.ine.add.PTCONT.2120595",
      "street": "R J NARCISO",
      "house": "12",
      "postcode": "2495-017",
      "city": "SÃO MAMEDE",
      "lon": "-8.71912051635354",
      "lat": "39.609353386995096"
    },
    {
      "id": "pt.ine.add.PTCONT.2127099",
      "street": "R PASSADEIRAS",
      "house": "12",
      "postcode": "2495-017",
      "city": "SÃO MAMEDE",
      "lon": "-8.717332360818283",
      "lat": "39.6085698012723"
    },
    {
      "id": "pt.ine.add.PTCONT.2135601",
      "street": "R PASSADEIRAS",
      "house": "14",
      "postcode": "2495-017",
      "city": "SÃO MAMEDE",
      "lon": "-8.717188096787849",
      "lat": "39.60803012340414"
    },
    {
      "id": "pt.ine.add.PTCONT.2138612",
      "street": "TV ANTÓNIO GERMANO",
      "house": "3",
      "postcode": "2495-017",
      "city": "SÃO MAMEDE",
      "lon": "-8.718222400067082",
      "lat": "39.60779074436969"
    },
    {
      "id": "pt.ine.add.PTCONT.2142419",
      "street": "R JOAQUIM NARCISO",
      "house": "14",
      "postcode": "2495-017",
      "city": "SÃO MAMEDE",
      "lon": "-8.717685305065826",
      "lat": "39.609000348479725"
    },
    {
      "id": "pt.ine.add.PTCONT.2146621",
      "street": "R CASAL DAS ANTONIAS",
      "house": "3",
      "postcode": "2495-011",
      "city": "SÃO MAMEDE",
      "lon": "-8.721393526167946",
      "lat": "39.60688306552973"
    },
    {
      "id": "pt.ine.add.PTCONT.2150464",
      "street": "R SANTO ANTÓNIO",
      "house": "9",
      "postcode": "2495-011",
      "city": "SÃO MAMEDE",
      "lon": "-8.72193436496186",
      "lat": "39.61024883843996"
    },
    {
      "id": "pt.ine.add.PTCONT.2153873",
      "street": "R CASAL DAS ANTONIAS",
      "house": "7",
      "postcode": "2495-011",
      "city": "SÃO MAMEDE",
      "lon": "-8.720824068853242",
      "lat": "39.60701204162511"
    },
    {
      "id": "pt.ine.add.PTCONT.2176638",
      "street": "R SANTO ANTÓNIO",
      "house": "15",
      "postcode": "2495-011",
      "city": "SÃO MAMEDE",
      "lon": "-8.722371946411682",
      "lat": "39.609670190048995"
    },
    {
      "id": "pt.ine.add.PTCONT.2177004",
      "street": "R CARVALHOS",
      "house": "7",
      "postcode": "2495-011",
      "city": "SÃO MAMEDE",
      "lon": "-8.721901436307874",
      "lat": "39.607736131089375"
    },
    {
      "id": "pt.ine.add.PTCONT.2187618",
      "street": "R SANTO ANTÓNIO",
      "house": "5",
      "postcode": "2495-011",
      "city": "SÃO MAMEDE",
      "lon": "-8.721215415333475",
      "lat": "39.61060374188961"
    },
    {
      "id": "pt.ine.add.PTCONT.2194852",
      "street": "CAM CHOUCAS DO POÇO",
      "house": "4",
      "postcode": "2495-011",
      "city": "SÃO MAMEDE",
      "lon": "-8.722228369490319",
      "lat": "39.60784255442788"
    },
    {
      "id": "pt.ine.add.PTCONT.2198535",
      "street": "R CARVALHOS",
      "house": "3",
      "postcode": "2495-011",
      "city": "SÃO MAMEDE",
      "lon": "-8.722686819682837",
      "lat": "39.60835361186676"
    },
    {
      "id": "pt.ine.add.PTCONT.2212397",
      "street": "R CARVALHOS",
      "house": "",
      "postcode": "2495-011",
      "city": "SÃO MAMEDE",
      "lon": "-8.722699914667396",
      "lat": "39.60852467306189"
    },
    {
      "id": "pt.ine.add.PTCONT.2216857",
      "street": "R CASAL DAS ANTONIAS",
      "house": "1",
      "postcode": "2495-011",
      "city": "SÃO MAMEDE",
      "lon": "-8.722202334855197",
      "lat": "39.607518444530875"
    },
    {
      "id": "pt.ine.add.PTCONT.2238254",
      "street": "R SANTO ANTÓNIO",
      "house": "7",
      "postcode": "2495-011",
      "city": "SÃO MAMEDE",
      "lon": "-8.72165773310428",
      "lat": "39.610583488605286"
    }
  ]
}