{
  "data": {
    "distrito": "Leiria",
    "concelho": "Leiria",
    "freguesia": "União das freguesias de Leiria, Pousos, Barreira e Cortes",
    "OBJECTID": 722,
    "BGRI2021": "10093301602",
    "DT21": "10",
    "DTMN21": "1009",
    "DTMNFR21": "100933",
    "DTMNFRSEC21": "100933016",
    "SECNUM21": "016",
    "SSNUM21": "02",
    "SECSSNUM21": "01602",
    "OBJECTID_1": 90530,
    "DT": "10",
    "CC": "09",
    "fr": "33",
    "SEC": "016",
    "SS": "02"
  },
  "addresses": [
    {
      "id": "pt.ine.add.PTCONT.1982741",
      "street": "R PADARIA",
      "house": "",
      "postcode": "2410-065",
      "city": "LEIRIA",
      "lon": "-8.800904950780163",
      "lat": "39.69363742580823"
    },
    {
      "id": "pt.ine.add.PTCONT.1989358",
      "street": "R NSA SRA DA AGONIA",
      "house": "925",
      "postcode": "2410-267",
      "city": "LEIRIA",
      "lon": "-8.800965463808934",
      "lat": "39.68781883583767"
    },
    {
      "id": "pt.ine.add.PTCONT.2002642",
      "street": "LG D ANTÓNIO ANTUNES",
      "house": "16",
      "postcode": "2410-065",
      "city": "LEIRIA",
      "lon": "-8.802328330712443",
      "lat": "39.691332557496196"
    },
    {
      "id": "pt.ine.add.PTCONT.2024214",
      "street": "R S SILVESTRE",
      "house": "",
      "postcode": "2410-023",
      "city": "LEIRIA",
      "lon": "-8.802324417467123",
      "lat": "39.690927284606545"
    },
    {
      "id": "pt.ine.add.PTCONT.2027309",
      "street": "R PADARIA",
      "house": "182",
      "postcode": "2410-065",
      "city": "LEIRIA",
      "lon": "-8.801397460966012",
      "lat": "39.69272492948981"
    },
    {
      "id": "pt.ine.add.PTCONT.2034204",
      "street": "R PADARIA",
      "house": "102",
      "postcode": "2410-065",
      "city": "LEIRIA",
      "lon": "-8.802182002087228",
      "lat": "39.691873794612654"
    },
    {
      "id": "pt.ine.add.PTCONT.2046336",
      "street": "R PADARIA",
      "house": "28E",
      "postcode": "2410-065",
      "city": "LEIRIA",
      "lon": "-8.800961677117193",
      "lat": "39.69347498143945"
    },
    {
      "id": "pt.ine.add.PTCONT.2048660",
      "street": "R PADARIA",
      "house": "237",
      "postcode": "2410-065",
      "city": "LEIRIA",
      "lon": "-8.80060717550243",
      "lat": "39.69298165887753"
    },
    {
      "id": "pt.ine.add.PTCONT.2064242",
      "street": "R PADARIA",
      "house": "235",
      "postcode": "2410-065",
      "city": "LEIRIA",
      "lon": "-8.800736276772144",
      "lat": "39.69307098230119"
    },
    {
      "id": "pt.ine.add.PTCONT.2064245",
      "street": "R S SILVESTRE",
      "house": "182",
      "postcode": "2410-267",
      "city": "LEIRIA",
      "lon": "-8.801566539919376",
      "lat": "39.68970675682351"
    },
    {
      "id": "pt.ine.add.PTCONT.2076758",
      "street": "R PADARIA",
      "house": "240",
      "postcode": "2410-065",
      "city": "LEIRIA",
      "lon": "-8.801087307479529",
      "lat": "39.693204061930544"
    },
    {
      "id": "pt.ine.add.PTCONT.2076770",
      "street": "R S SILVESTRE",
      "house": "254",
      "postcode": "2410-267",
      "city": "LEIRIA",
      "lon": "-8.80181672526632",
      "lat": "39.69026372350802"
    },
    {
      "id": "pt.ine.add.PTCONT.2101350",
      "street": "R S SILVESTRE",
      "house": "16",
      "postcode": "2410-267",
      "city": "LEIRIA",
      "lon": "-8.801155530359347",
      "lat": "39.68818701193413"
    },
    {
      "id": "pt.ine.add.PTCONT.2101351",
      "street": "R S SILVESTRE",
      "house": "284",
      "postcode": "2410-267",
      "city": "LEIRIA",
      "lon": "-8.80166735418295",
      "lat": "39.69048974777745"
    },
    {
      "id": "pt.ine.add.PTCONT.2143524",
      "street": "LG LARGO D ANTÓNIO ANTUNES",
      "house": "6",
      "postcode": "2410-065",
      "city": "LEIRIA",
      "lon": "-8.802350688750513",
      "lat": "39.69123335642286"
    },
    {
      "id": "pt.ine.add.PTCONT.2143525",
      "street": "R PADARIA",
      "house": "",
      "postcode": "2410-065",
      "city": "LEIRIA",
      "lon": "-8.802011139283348",
      "lat": "39.69228908094284"
    },
    {
      "id": "pt.ine.add.PTCONT.2213416",
      "street": "R S SILVESTRE",
      "house": "208",
      "postcode": "2410-267",
      "city": "LEIRIA",
      "lon": "-8.801591156944118",
      "lat": "39.68984171362609"
    },
    {
      "id": "pt.ine.add.PTCONT.2215508",
      "street": "R S SILVESTRE",
      "house": "",
      "postcode": "2410-023",
      "city": "LEIRIA",
      "lon": "-8.80226473994688",
      "lat": "39.69078352347043"
    },
    {
      "id": "pt.ine.add.PTCONT.2217795",
      "street": "R S SILVESTRE",
      "house": "296",
      "postcode": "2410-267",
      "city": "LEIRIA",
      "lon": "-8.802076051037831",
      "lat": "39.69055944651362"
    },
    {
      "id": "pt.ine.add.PTCONT.2224199",
      "street": "R PADARIA",
      "house": "144",
      "postcode": "2410-065",
      "city": "LEIRIA",
      "lon": "-8.801709956082144",
      "lat": "39.6924889599297"
    },
    {
      "id": "pt.ine.add.PTCONT.2229061",
      "street": "R FRADES",
      "house": "9",
      "postcode": "2410-065",
      "city": "LEIRIA",
      "lon": "-8.80238383433391",
      "lat": "39.69104402751366"
    },
    {
      "id": "pt.ine.add.PTCONT.2259380",
      "street": "R PADARIA",
      "house": "40",
      "postcode": "2410-065",
      "city": "LEIRIA",
      "lon": "-8.80224994666126",
      "lat": "39.69166625211467"
    },
    {
      "id": "pt.ine.add.PTCONT.2261446",
      "street": "R VISC DA BARREIRA",
      "house": "61",
      "postcode": "2410-192",
      "city": "LEIRIA",
      "lon": "-8.7996079479765",
      "lat": "39.69454553388056"
    }
  ]
}