{
  "data": {
    "distrito": "Portalegre",
    "concelho": "Marvão",
    "freguesia": "São Salvador da Aramenha",
    "OBJECTID": 198,
    "BGRI2021": "12100400242",
    "DT21": "12",
    "DTMN21": "1210",
    "DTMNFR21": "121004",
    "DTMNFRSEC21": "121004002",
    "SECNUM21": "002",
    "SSNUM21": "42",
    "SECSSNUM21": "00242",
    "OBJECTID_1": 122800,
    "DT": "12",
    "CC": "10",
    "fr": "04",
    "SEC": "002",
    "SS": "42"
  },
  "addresses": [
    {
      "id": "pt.ine.add.PTCONT.3459052",
      "street": "EN 359",
      "house": "",
      "postcode": "7330-301",
      "city": "SÃO SALVADOR DA ARAMENHA",
      "lon": "-7.402003221483875",
      "lat": "39.36796689475007"
    },
    {
      "id": "pt.ine.add.PTCONT.3459681",
      "street": "SIT COVÃO",
      "house": "",
      "postcode": "7330-309",
      "city": "SÃO SALVADOR DA ARAMENHA",
      "lon": "-7.3942593490021595",
      "lat": "39.36504473965937"
    },
    {
      "id": "pt.ine.add.PTCONT.3462086",
      "street": "EN 359",
      "house": "",
      "postcode": "7330-301",
      "city": "SÃO SALVADOR DA ARAMENHA",
      "lon": "-7.402223588810624",
      "lat": "39.36797728609054"
    },
    {
      "id": "pt.ine.add.PTCONT.3473945",
      "street": "SIT PONTE DA MADALENA",
      "house": "",
      "postcode": "7330-327",
      "city": "SÃO SALVADOR DA ARAMENHA",
      "lon": "-7.3926719632431785",
      "lat": "39.36702520531096"
    },
    {
      "id": "pt.ine.add.PTCONT.3487057",
      "street": "SIT COVÃO",
      "house": "4",
      "postcode": "7330-309",
      "city": "SÃO SALVADOR DA ARAMENHA",
      "lon": "-7.395029620775474",
      "lat": "39.365725155580215"
    },
    {
      "id": "pt.ine.add.PTCONT.3513675",
      "street": "SIT PONTE DA MADALENA",
      "house": "",
      "postcode": "7330-327",
      "city": "SÃO SALVADOR DA ARAMENHA",
      "lon": "-7.3910290980403754",
      "lat": "39.36656438858992"
    },
    {
      "id": "pt.ine.add.PTCONT.3519934",
      "street": "SIT COVÃO",
      "house": "",
      "postcode": "7330-309",
      "city": "SÃO SALVADOR DA ARAMENHA",
      "lon": "-7.396476947272861",
      "lat": "39.36602255159063"
    },
    {
      "id": "pt.ine.add.PTCONT.3524533",
      "street": "EN 359",
      "house": "",
      "postcode": "7330-339",
      "city": "SÃO SALVADOR DA ARAMENHA",
      "lon": "-7.3900701150249795",
      "lat": "39.367269824896546"
    },
    {
      "id": "pt.ine.add.PTCONT.3526378",
      "street": "SIT PONTE DA MADALENA",
      "house": "",
      "postcode": "7330-327",
      "city": "SÃO SALVADOR DA ARAMENHA",
      "lon": "-7.391505486308672",
      "lat": "39.36650437629634"
    }
  ]
}