{
  "data": {
    "distrito": "Portalegre",
    "concelho": "Marvão",
    "freguesia": "São Salvador da Aramenha",
    "OBJECTID": 158,
    "BGRI2021": "12100400245",
    "DT21": "12",
    "DTMN21": "1210",
    "DTMNFR21": "121004",
    "DTMNFRSEC21": "121004002",
    "SECNUM21": "002",
    "SSNUM21": "45",
    "SECSSNUM21": "00245",
    "OBJECTID_1": 122841,
    "DT": "12",
    "CC": "10",
    "fr": "04",
    "SEC": "002",
    "SS": "45"
  },
  "addresses": [
    {
      "id": "pt.ine.add.PTCONT.3468251",
      "street": "SIT FAZENDA VERMELHA",
      "house": "",
      "postcode": "7330-314",
      "city": "SÃO SALVADOR DA ARAMENHA",
      "lon": "-7.384426138974612",
      "lat": "39.373124245234195"
    },
    {
      "id": "pt.ine.add.PTCONT.3468810",
      "street": "CP 9",
      "house": "",
      "postcode": "7330-314",
      "city": "SÃO SALVADOR DA ARAMENHA",
      "lon": "-7.382902273922627",
      "lat": "39.37129501197878"
    },
    {
      "id": "pt.ine.add.PTCONT.3478086",
      "street": "CPO 10",
      "house": "CP 10",
      "postcode": "7330-314",
      "city": "SÃO SALVADOR DA ARAMENHA",
      "lon": "-7.382797454834349",
      "lat": "39.37133036425495"
    },
    {
      "id": "pt.ine.add.PTCONT.3487970",
      "street": "SIT FAZENDA VERMELHA",
      "house": "",
      "postcode": "7330-314",
      "city": "SÃO SALVADOR DA ARAMENHA",
      "lon": "-7.382080871534316",
      "lat": "39.373226223335834"
    },
    {
      "id": "pt.ine.add.PTCONT.3498002",
      "street": "SEM DEFINICAO",
      "house": "CXA 7",
      "postcode": "7330-314",
      "city": "SÃO SALVADOR DA ARAMENHA",
      "lon": "-7.383603938219807",
      "lat": "39.371875983089566"
    },
    {
      "id": "pt.ine.add.PTCONT.3512408",
      "street": "SEM DEFINICAO",
      "house": "6",
      "postcode": "7330-314",
      "city": "SÃO SALVADOR DA ARAMENHA",
      "lon": "-7.383217404961542",
      "lat": "39.371125909748436"
    },
    {
      "id": "pt.ine.add.PTCONT.3514856",
      "street": "SEM DEFINICAO",
      "house": "",
      "postcode": "7330-314",
      "city": "SÃO SALVADOR DA ARAMENHA",
      "lon": "-7.383847233397085",
      "lat": "39.371913578007415"
    },
    {
      "id": "pt.ine.add.PTCONT.3524806",
      "street": "SEM DEFINICAO",
      "house": "CX 8",
      "postcode": "7330-314",
      "city": "SÃO SALVADOR DA ARAMENHA",
      "lon": "-7.3839219148021025",
      "lat": "39.372526536453044"
    }
  ]
}