{
  "data": {
    "distrito": "Santarém",
    "concelho": "Ourém",
    "freguesia": "Alburitel",
    "OBJECTID": 908,
    "BGRI2021": "14210100133",
    "DT21": "14",
    "DTMN21": "1421",
    "DTMNFR21": "142101",
    "DTMNFRSEC21": "142101001",
    "SECNUM21": "001",
    "SSNUM21": "33",
    "SECSSNUM21": "00133",
    "OBJECTID_1": 158296,
    "DT": "14",
    "CC": "21",
    "fr": "01",
    "SEC": "001",
    "SS": "33"
  },
  "addresses": [
    {
      "id": "pt.ine.add.PTCONT.4397478",
      "street": "ESTR FONTAÍNHAS",
      "house": "130",
      "postcode": "2490-007",
      "city": "ALBURITEL",
      "lon": "-8.518589103762219",
      "lat": "39.65877408615055"
    },
    {
      "id": "pt.ine.add.PTCONT.4407462",
      "street": "R BELA VISTA",
      "house": "5",
      "postcode": "2490-007",
      "city": "ALBURITEL",
      "lon": "-8.517896717477544",
      "lat": "39.6515890372219"
    },
    {
      "id": "pt.ine.add.PTCONT.4407886",
      "street": "ESTR FONTAÍNHAS",
      "house": "128",
      "postcode": "2490-007",
      "city": "ALBURITEL",
      "lon": "-8.518935820818012",
      "lat": "39.65825955344244"
    },
    {
      "id": "pt.ine.add.PTCONT.4409660",
      "street": "BC PELONIOS",
      "house": "5",
      "postcode": "2490-006",
      "city": "ALBURITEL",
      "lon": "-8.517029797289059",
      "lat": "39.650736269018125"
    },
    {
      "id": "pt.ine.add.PTCONT.4409877",
      "street": "ESTR FONTAÍNHAS",
      "house": "4",
      "postcode": "2490-007",
      "city": "ALBURITEL",
      "lon": "-8.51846677534099",
      "lat": "39.64933547109276"
    },
    {
      "id": "pt.ine.add.PTCONT.4413515",
      "street": "BC PELONIOS",
      "house": "12",
      "postcode": "2490-006",
      "city": "ALBURITEL",
      "lon": "-8.516773922500867",
      "lat": "39.65081817482585"
    },
    {
      "id": "pt.ine.add.PTCONT.4419621",
      "street": "R DR ÁLVARO TELES",
      "house": "48",
      "postcode": "2490-020",
      "city": "ALBURITEL",
      "lon": "-8.51770967282554",
      "lat": "39.649374007256945"
    },
    {
      "id": "pt.ine.add.PTCONT.4432307",
      "street": "R DR ÁLVARO TELES",
      "house": "32",
      "postcode": "2490-020",
      "city": "ALBURITEL",
      "lon": "-8.517178469928336",
      "lat": "39.65023140202203"
    },
    {
      "id": "pt.ine.add.PTCONT.4432392",
      "street": "ESTR FONTAÍNHAS",
      "house": "90",
      "postcode": "2490-007",
      "city": "ALBURITEL",
      "lon": "-8.519177239109341",
      "lat": "39.65557475616372"
    },
    {
      "id": "pt.ine.add.PTCONT.4452527",
      "street": "R DR ÁLVARO TELES",
      "house": "50",
      "postcode": "2490-020",
      "city": "ALBURITEL",
      "lon": "-8.517954689352091",
      "lat": "39.64943624266236"
    },
    {
      "id": "pt.ine.add.PTCONT.4456339",
      "street": "EN 113",
      "house": "",
      "postcode": "2490-008",
      "city": "ALBURITEL",
      "lon": "-8.510773387183374",
      "lat": "39.65935817781514"
    },
    {
      "id": "pt.ine.add.PTCONT.4459198",
      "street": "ESTR FONTAÍNHAS",
      "house": "24",
      "postcode": "2490-007",
      "city": "ALBURITEL",
      "lon": "-8.518464574974463",
      "lat": "39.65103774571495"
    },
    {
      "id": "pt.ine.add.PTCONT.4461200",
      "street": "R DR ÁLVARO TELES",
      "house": "30",
      "postcode": "2490-020",
      "city": "ALBURITEL",
      "lon": "-8.517083717766527",
      "lat": "39.64995250740846"
    },
    {
      "id": "pt.ine.add.PTCONT.4465797",
      "street": "BC PELONIOS",
      "house": "6",
      "postcode": "2490-006",
      "city": "ALBURITEL",
      "lon": "-8.516818684469767",
      "lat": "39.65048477887791"
    },
    {
      "id": "pt.ine.add.PTCONT.4467368",
      "street": "R DAMIÃO DE GOIS",
      "house": "3",
      "postcode": "2490-048",
      "city": "ALBURITEL",
      "lon": "-8.51195485859046",
      "lat": "39.65378819147442"
    },
    {
      "id": "pt.ine.add.PTCONT.4468631",
      "street": "R DR ÁLVARO TELES",
      "house": "10",
      "postcode": "2490-020",
      "city": "ALBURITEL",
      "lon": "-8.515250361735678",
      "lat": "39.651318566081294"
    },
    {
      "id": "pt.ine.add.PTCONT.4472668",
      "street": "R DR ÁLVARO TELES",
      "house": "8",
      "postcode": "2490-020",
      "city": "ALBURITEL",
      "lon": "-8.513764103556356",
      "lat": "39.65225113686589"
    },
    {
      "id": "pt.ine.add.PTCONT.4475316",
      "street": "R DR ÁLVARO TELES",
      "house": "20",
      "postcode": "2490-020",
      "city": "ALBURITEL",
      "lon": "-8.516249376535056",
      "lat": "39.650774872750574"
    },
    {
      "id": "pt.ine.add.PTCONT.4484308",
      "street": "R DR ÁLVARO TELES",
      "house": "28",
      "postcode": "2490-020",
      "city": "ALBURITEL",
      "lon": "-8.516944703770077",
      "lat": "39.650097074167526"
    },
    {
      "id": "pt.ine.add.PTCONT.4484379",
      "street": "ESTR FONTAÍNHAS",
      "house": "",
      "postcode": "2490-007",
      "city": "ALBURITEL",
      "lon": "-8.518777412327722",
      "lat": "39.65282003452653"
    },
    {
      "id": "pt.ine.add.PTCONT.4486555",
      "street": "ESTR FONTAÍNHAS",
      "house": "8",
      "postcode": "2490-007",
      "city": "ALBURITEL",
      "lon": "-8.518502527847136",
      "lat": "39.64947945977852"
    },
    {
      "id": "pt.ine.add.PTCONT.4487509",
      "street": "R SOL POENTE",
      "house": "6",
      "postcode": "2490-020",
      "city": "ALBURITEL",
      "lon": "-8.512674053376847",
      "lat": "39.65320040786885"
    },
    {
      "id": "pt.ine.add.PTCONT.4490986",
      "street": "R LAMEIRA DO PALHEIRO",
      "house": "309",
      "postcode": "2490-049",
      "city": "ALBURITEL",
      "lon": "-8.51634754395258",
      "lat": "39.653782787559194"
    },
    {
      "id": "pt.ine.add.PTCONT.4492823",
      "street": "BC PELONIOS",
      "house": "10",
      "postcode": "2490-006",
      "city": "ALBURITEL",
      "lon": "-8.516540801938564",
      "lat": "39.6508009312054"
    },
    {
      "id": "pt.ine.add.PTCONT.4499253",
      "street": "R DR ÁLVARO TELES",
      "house": "26",
      "postcode": "2490-020",
      "city": "ALBURITEL",
      "lon": "-8.516863645202017",
      "lat": "39.65018740906059"
    },
    {
      "id": "pt.ine.add.PTCONT.4501079",
      "street": "ESTR FONTAÍNHAS",
      "house": "22",
      "postcode": "2490-007",
      "city": "ALBURITEL",
      "lon": "-8.518381717532684",
      "lat": "39.650803846267706"
    },
    {
      "id": "pt.ine.add.PTCONT.4512918",
      "street": "R ARTUR VIEIRA DIAS",
      "house": "4",
      "postcode": "2490-012",
      "city": "ALBURITEL",
      "lon": "-8.518303114336707",
      "lat": "39.6492369401729"
    },
    {
      "id": "pt.ine.add.PTCONT.4529280",
      "street": "BC PELONIOS",
      "house": "14",
      "postcode": "2490-006",
      "city": "ALBURITEL",
      "lon": "-8.516565298222318",
      "lat": "39.651017011250055"
    },
    {
      "id": "pt.ine.add.PTCONT.4529729",
      "street": "ESTR FONTAÍNHAS",
      "house": "42",
      "postcode": "2490-007",
      "city": "ALBURITEL",
      "lon": "-8.519041906382794",
      "lat": "39.654287248111565"
    },
    {
      "id": "pt.ine.add.PTCONT.4531843",
      "street": "ESTR FONTAÍNHAS",
      "house": "14",
      "postcode": "2490-007",
      "city": "ALBURITEL",
      "lon": "-8.518622487650614",
      "lat": "39.65010052440752"
    },
    {
      "id": "pt.ine.add.PTCONT.4541425",
      "street": "BC RIBEIRO",
      "house": "12",
      "postcode": "2490-007",
      "city": "ALBURITEL",
      "lon": "-8.517116188007012",
      "lat": "39.6516096337401"
    },
    {
      "id": "pt.ine.add.PTCONT.4543939",
      "street": "ESTR FONTAÍNHAS",
      "house": "10",
      "postcode": "2490-007",
      "city": "ALBURITEL",
      "lon": "-8.518515428881905",
      "lat": "39.64970458463059"
    },
    {
      "id": "pt.ine.add.PTCONT.4549698",
      "street": "R DR ÁLVARO TELES",
      "house": "42",
      "postcode": "2490-020",
      "city": "ALBURITEL",
      "lon": "-8.51748975383359",
      "lat": "39.64963592972366"
    },
    {
      "id": "pt.ine.add.PTCONT.4552349",
      "street": "ESTR FONTAÍNHAS",
      "house": "50",
      "postcode": "2490-007",
      "city": "ALBURITEL",
      "lon": "-8.518752808389703",
      "lat": "39.6525859419811"
    },
    {
      "id": "pt.ine.add.PTCONT.4581083",
      "street": "BC RIBEIRO",
      "house": "6",
      "postcode": "2490-007",
      "city": "ALBURITEL",
      "lon": "-8.51768549910328",
      "lat": "39.65131953564496"
    },
    {
      "id": "pt.ine.add.PTCONT.4581872",
      "street": "BC PELONIOS",
      "house": "20",
      "postcode": "2490-006",
      "city": "ALBURITEL",
      "lon": "-8.517300562939496",
      "lat": "39.65123974918378"
    },
    {
      "id": "pt.ine.add.PTCONT.4591956",
      "street": "ESTR FONTAÍNHAS",
      "house": "126",
      "postcode": "2490-007",
      "city": "ALBURITEL",
      "lon": "-8.518642761933572",
      "lat": "39.65794529232139"
    },
    {
      "id": "pt.ine.add.PTCONT.4595742",
      "street": "BC RIBEIRO",
      "house": "7",
      "postcode": "2490-007",
      "city": "ALBURITEL",
      "lon": "-8.5175015749446",
      "lat": "39.65177047964157"
    },
    {
      "id": "pt.ine.add.PTCONT.4598077",
      "street": "R BELA VISTA",
      "house": "32",
      "postcode": "2490-007",
      "city": "ALBURITEL",
      "lon": "-8.51806328080185",
      "lat": "39.65220994780808"
    },
    {
      "id": "pt.ine.add.PTCONT.4608514",
      "street": "R DR ÁLVARO TELES",
      "house": "2",
      "postcode": "2490-020",
      "city": "ALBURITEL",
      "lon": "-8.512138283038416",
      "lat": "39.65323818426527"
    },
    {
      "id": "pt.ine.add.PTCONT.4612146",
      "street": "BC ALMOINHAS",
      "house": "6",
      "postcode": "2490-004",
      "city": "ALBURITEL",
      "lon": "-8.51767856268761",
      "lat": "39.65006762664669"
    },
    {
      "id": "pt.ine.add.PTCONT.4616861",
      "street": "BC PELONIOS",
      "house": "3",
      "postcode": "2490-006",
      "city": "ALBURITEL",
      "lon": "-8.517098308377589",
      "lat": "39.65048385480667"
    },
    {
      "id": "pt.ine.add.PTCONT.4621137",
      "street": "ESTR FONTAÍNHAS",
      "house": "50",
      "postcode": "2490-007",
      "city": "ALBURITEL",
      "lon": "-8.519198638717542",
      "lat": "39.655232430538454"
    },
    {
      "id": "pt.ine.add.PTCONT.4626329",
      "street": "R LAMEIRA DO PALHEIRO",
      "house": "",
      "postcode": "2490-049",
      "city": "ALBURITEL",
      "lon": "-8.515933927065065",
      "lat": "39.65273036751804"
    },
    {
      "id": "pt.ine.add.PTCONT.4630992",
      "street": "R DR ÁLVARO TELES",
      "house": "38",
      "postcode": "2490-020",
      "city": "ALBURITEL",
      "lon": "-8.517234531595202",
      "lat": "39.64983492157686"
    },
    {
      "id": "pt.ine.add.PTCONT.4631311",
      "street": "BC PELONIOS",
      "house": "8",
      "postcode": "2490-006",
      "city": "ALBURITEL",
      "lon": "-8.51669166829831",
      "lat": "39.6506923526232"
    },
    {
      "id": "pt.ine.add.PTCONT.4631429",
      "street": "ESTR FONTAÍNHAS",
      "house": "20",
      "postcode": "2490-007",
      "city": "ALBURITEL",
      "lon": "-8.518357765565808",
      "lat": "39.65068683855346"
    },
    {
      "id": "pt.ine.add.PTCONT.4637137",
      "street": "R DR ÁLVARO TELES",
      "house": "34",
      "postcode": "2490-020",
      "city": "ALBURITEL",
      "lon": "-8.51730518469434",
      "lat": "39.64996978849281"
    },
    {
      "id": "pt.ine.add.PTCONT.4637464",
      "street": "R DA LAMEIRA DO PALHEIRO",
      "house": "232",
      "postcode": "2490-006",
      "city": "ALBURITEL",
      "lon": "-8.51564567084995",
      "lat": "39.65328072602741"
    },
    {
      "id": "pt.ine.add.PTCONT.4637506",
      "street": "BC ALMOINHAS",
      "house": "4",
      "postcode": "2490-004",
      "city": "ALBURITEL",
      "lon": "-8.517573055829105",
      "lat": "39.64995088874355"
    },
    {
      "id": "pt.ine.add.PTCONT.4659328",
      "street": "R DR ÁLVARO TELES",
      "house": "4",
      "postcode": "2490-020",
      "city": "ALBURITEL",
      "lon": "-8.51298598069196",
      "lat": "39.65271302619529"
    }
  ]
}