{
  "data": {
    "distrito": "Vila Real",
    "concelho": "Vila Real",
    "freguesia": "Torgueda",
    "OBJECTID": 1164,
    "BGRI2021": "17142600103",
    "DT21": "17",
    "DTMN21": "1714",
    "DTMNFR21": "171426",
    "DTMNFRSEC21": "171426001",
    "SECNUM21": "001",
    "SSNUM21": "03",
    "SECSSNUM21": "00103",
    "OBJECTID_1": 187558,
    "DT": "17",
    "CC": "14",
    "fr": "26",
    "SEC": "001",
    "SS": "03"
  },
  "addresses": [
    {
      "id": "pt.ine.add.PTCONT.5289866",
      "street": "R DEMOCRACIA",
      "house": "",
      "postcode": "5000-746",
      "city": "TORGUEDA",
      "lon": "-7.787049195405271",
      "lat": "41.2556109721884"
    },
    {
      "id": "pt.ine.add.PTCONT.5290905",
      "street": "R TERCAS",
      "house": "",
      "postcode": "5000-746",
      "city": "TORGUEDA",
      "lon": "-7.790561359871915",
      "lat": "41.25708916148464"
    },
    {
      "id": "pt.ine.add.PTCONT.5291967",
      "street": "R CENTRAL",
      "house": "",
      "postcode": "5000-746",
      "city": "TORGUEDA",
      "lon": "-7.78548715440694",
      "lat": "41.255417178216256"
    },
    {
      "id": "pt.ine.add.PTCONT.5294805",
      "street": "R CAPELA",
      "house": "",
      "postcode": "5000-746",
      "city": "TORGUEDA",
      "lon": "-7.786688582470538",
      "lat": "41.25611412367551"
    },
    {
      "id": "pt.ine.add.PTCONT.5295952",
      "street": "R BACELO",
      "house": "",
      "postcode": "5000-746",
      "city": "TORGUEDA",
      "lon": "-7.7866446618255",
      "lat": "41.255393654483676"
    },
    {
      "id": "pt.ine.add.PTCONT.5300063",
      "street": "R CADELA",
      "house": "",
      "postcode": "5000-746",
      "city": "TORGUEDA",
      "lon": "-7.786821686016034",
      "lat": "41.25576335977974"
    },
    {
      "id": "pt.ine.add.PTCONT.5304197",
      "street": "LG AMERICO AIRES",
      "house": "",
      "postcode": "5000-746",
      "city": "TORGUEDA",
      "lon": "-7.786904827288178",
      "lat": "41.25583564350849"
    },
    {
      "id": "pt.ine.add.PTCONT.5311311",
      "street": "R DEMOCRACIA",
      "house": "",
      "postcode": "5000-746",
      "city": "TORGUEDA",
      "lon": "-7.7868699356644635",
      "lat": "41.25566445854153"
    },
    {
      "id": "pt.ine.add.PTCONT.5314805",
      "street": "R AZENHA",
      "house": "",
      "postcode": "5000-746",
      "city": "TORGUEDA",
      "lon": "-7.786591605949664",
      "lat": "41.256401966645214"
    },
    {
      "id": "pt.ine.add.PTCONT.5330369",
      "street": "R AMÉRICO AIRES",
      "house": "",
      "postcode": "5000-746",
      "city": "TORGUEDA",
      "lon": "-7.786513509517866",
      "lat": "41.25537525132775"
    },
    {
      "id": "pt.ine.add.PTCONT.5332686",
      "street": "R ALÉM RIBEIRO",
      "house": "",
      "postcode": "5000-746",
      "city": "TORGUEDA",
      "lon": "-7.787865318994422",
      "lat": "41.25697305830484"
    },
    {
      "id": "pt.ine.add.PTCONT.5337005",
      "street": "R CENTRAL",
      "house": "",
      "postcode": "5000-746",
      "city": "TORGUEDA",
      "lon": "-7.7857139023954325",
      "lat": "41.255408858373215"
    },
    {
      "id": "pt.ine.add.PTCONT.5337006",
      "street": "R AZENHA",
      "house": "",
      "postcode": "5000-746",
      "city": "TORGUEDA",
      "lon": "-7.786455167451569",
      "lat": "41.25738301495479"
    },
    {
      "id": "pt.ine.add.PTCONT.5340577",
      "street": "R DEMOCRACIA",
      "house": "",
      "postcode": "5000-746",
      "city": "TORGUEDA",
      "lon": "-7.787273569318541",
      "lat": "41.256052852785096"
    },
    {
      "id": "pt.ine.add.PTCONT.5341404",
      "street": "LG ALBERTO REBELO",
      "house": "",
      "postcode": "5000-746",
      "city": "TORGUEDA",
      "lon": "-7.786035721773114",
      "lat": "41.25547285841474"
    },
    {
      "id": "pt.ine.add.PTCONT.5345441",
      "street": "R CAPELA",
      "house": "",
      "postcode": "5000-746",
      "city": "TORGUEDA",
      "lon": "-7.786798060482908",
      "lat": "41.25571826765625"
    },
    {
      "id": "pt.ine.add.PTCONT.5346284",
      "street": "R DEMOCRACIA",
      "house": "",
      "postcode": "5000-746",
      "city": "TORGUEDA",
      "lon": "-7.786724663040836",
      "lat": "41.25606020695283"
    },
    {
      "id": "pt.ine.add.PTCONT.5356822",
      "street": "R ALÉM RIBEL NO",
      "house": "",
      "postcode": "5000-746",
      "city": "TORGUEDA",
      "lon": "-7.7873632304377445",
      "lat": "41.25715163589354"
    },
    {
      "id": "pt.ine.add.PTCONT.5358378",
      "street": "R CAPELA",
      "house": "",
      "postcode": "5000-746",
      "city": "TORGUEDA",
      "lon": "-7.786640057115349",
      "lat": "41.2540069915778"
    },
    {
      "id": "pt.ine.add.PTCONT.5358379",
      "street": "R CAPELA SEM",
      "house": "SEM",
      "postcode": "5000-746",
      "city": "TORGUEDA",
      "lon": "-7.787047342031514",
      "lat": "41.25596213092334"
    },
    {
      "id": "pt.ine.add.PTCONT.5358380",
      "street": "R CAPELA",
      "house": "",
      "postcode": "5000-746",
      "city": "TORGUEDA",
      "lon": "-7.787047342031514",
      "lat": "41.25596213092334"
    },
    {
      "id": "pt.ine.add.PTCONT.5359206",
      "street": "R AMÉRICO AIRES",
      "house": "",
      "postcode": "5000-746",
      "city": "TORGUEDA",
      "lon": "-7.786334630949761",
      "lat": "41.25535670428931"
    },
    {
      "id": "pt.ine.add.PTCONT.5361484",
      "street": "R TERCAS",
      "house": "",
      "postcode": "5000-746",
      "city": "TORGUEDA",
      "lon": "-7.789692217367589",
      "lat": "41.25672640392783"
    },
    {
      "id": "pt.ine.add.PTCONT.5366431",
      "street": "R DEMOCRACIA",
      "house": "",
      "postcode": "5000-746",
      "city": "TORGUEDA",
      "lon": "-7.7870338895428635",
      "lat": "41.25625022528793"
    },
    {
      "id": "pt.ine.add.PTCONT.5366893",
      "street": "R QUELHA DO FORNO",
      "house": "",
      "postcode": "5000-746",
      "city": "TORGUEDA",
      "lon": "-7.786906824040875",
      "lat": "41.25545747255965"
    },
    {
      "id": "pt.ine.add.PTCONT.5371852",
      "street": "R QUELHA DO FORNO",
      "house": "",
      "postcode": "5000-746",
      "city": "TORGUEDA",
      "lon": "-7.786727279209691",
      "lat": "41.25556498311499"
    },
    {
      "id": "pt.ine.add.PTCONT.5375472",
      "street": "R CAPELA",
      "house": "",
      "postcode": "5000-746",
      "city": "TORGUEDA",
      "lon": "-7.786867843589247",
      "lat": "41.25606063761434"
    },
    {
      "id": "pt.ine.add.PTCONT.5383782",
      "street": "R CAPELA",
      "house": "2",
      "postcode": "5000-746",
      "city": "TORGUEDA",
      "lon": "-7.786738973009183",
      "lat": "41.25561003936037"
    },
    {
      "id": "pt.ine.add.PTCONT.5383783",
      "street": "LG AMERICO AIRES",
      "house": "",
      "postcode": "5000-746",
      "city": "TORGUEDA",
      "lon": "-7.786738973009183",
      "lat": "41.25561003936037"
    },
    {
      "id": "pt.ine.add.PTCONT.5385765",
      "street": "LG ALBERTO REBELO",
      "house": "",
      "postcode": "5000-746",
      "city": "TORGUEDA",
      "lon": "-7.785809021291757",
      "lat": "41.255472174821314"
    },
    {
      "id": "pt.ine.add.PTCONT.5386118",
      "street": "R ALÉM RIBEL NO",
      "house": "",
      "postcode": "5000-746",
      "city": "TORGUEDA",
      "lon": "-7.787615129095528",
      "lat": "41.2569002741367"
    },
    {
      "id": "pt.ine.add.PTCONT.5391401",
      "street": "R CENTRAL",
      "house": "",
      "postcode": "5000-746",
      "city": "TORGUEDA",
      "lon": "-7.785511303991218",
      "lat": "41.2553632258454"
    },
    {
      "id": "pt.ine.add.PTCONT.5397884",
      "street": "LG AMÉRICO AIRES",
      "house": "",
      "postcode": "5000-746",
      "city": "TORGUEDA",
      "lon": "-7.786525012762725",
      "lat": "41.255456323876295"
    },
    {
      "id": "pt.ine.add.PTCONT.5402186",
      "street": "QLHA FORNO",
      "house": "",
      "postcode": "5000-746",
      "city": "TORGUEDA",
      "lon": "-7.786858527054365",
      "lat": "41.255565377888"
    },
    {
      "id": "pt.ine.add.PTCONT.5418430",
      "street": "R AZENHA",
      "house": "",
      "postcode": "5000-746",
      "city": "TORGUEDA",
      "lon": "-7.786772675254052",
      "lat": "41.25600632610959"
    },
    {
      "id": "pt.ine.add.PTCONT.5419352",
      "street": "R DEMOCRACIA",
      "house": "",
      "postcode": "5000-746",
      "city": "TORGUEDA",
      "lon": "-7.787071585576843",
      "lat": "41.25589017008616"
    },
    {
      "id": "pt.ine.add.PTCONT.5420642",
      "street": "R CAMINHO DO BACELO",
      "house": "",
      "postcode": "5000-746",
      "city": "TORGUEDA",
      "lon": "-7.786787650686964",
      "lat": "41.25543010152087"
    },
    {
      "id": "pt.ine.add.PTCONT.5420643",
      "street": "R DEMOCRACIA",
      "house": "",
      "postcode": "5000-746",
      "city": "TORGUEDA",
      "lon": "-7.787082709453943",
      "lat": "41.25604327513326"
    }
  ]
}