{
  "data": {
    "distrito": "Vila Real",
    "concelho": "Vila Real",
    "freguesia": "Torgueda",
    "OBJECTID": 182,
    "BGRI2021": "17142600116",
    "DT21": "17",
    "DTMN21": "1714",
    "DTMNFR21": "171426",
    "DTMNFRSEC21": "171426001",
    "SECNUM21": "001",
    "SSNUM21": "16",
    "SECSSNUM21": "00116",
    "OBJECTID_1": 187868,
    "DT": "17",
    "CC": "14",
    "fr": "26",
    "SEC": "001",
    "SS": "16"
  },
  "addresses": [
    {
      "id": "pt.ine.add.PTCONT.5287359",
      "street": "R BAIRRO NOVO",
      "house": "",
      "postcode": "5000-748",
      "city": "TORGUEDA",
      "lon": "-7.805652610931564",
      "lat": "41.262436550014236"
    },
    {
      "id": "pt.ine.add.PTCONT.5287360",
      "street": "R MALHADINHAS",
      "house": "",
      "postcode": "5000-748",
      "city": "TORGUEDA",
      "lon": "-7.8112840560034265",
      "lat": "41.26263251293286"
    },
    {
      "id": "pt.ine.add.PTCONT.5296954",
      "street": "R SECOLUTO",
      "house": "",
      "postcode": "5000-748",
      "city": "TORGUEDA",
      "lon": "-7.809514715613762",
      "lat": "41.26087173340913"
    },
    {
      "id": "pt.ine.add.PTCONT.5297661",
      "street": "LUGAR DO BAIRRO NOVO",
      "house": "",
      "postcode": "5000-748",
      "city": "TORGUEDA",
      "lon": "-7.8054379988374425",
      "lat": "41.26239992261111"
    },
    {
      "id": "pt.ine.add.PTCONT.5298906",
      "street": "R BAIRRO NOVO",
      "house": "",
      "postcode": "5000-748",
      "city": "TORGUEDA",
      "lon": "-7.80572357874986",
      "lat": "41.26256281070021"
    },
    {
      "id": "pt.ine.add.PTCONT.5312299",
      "street": "R SECOLUTO",
      "house": "",
      "postcode": "5000-748",
      "city": "TORGUEDA",
      "lon": "-7.8102573314336485",
      "lat": "41.26030655306027"
    },
    {
      "id": "pt.ine.add.PTCONT.5321846",
      "street": "R CRESPO",
      "house": "",
      "postcode": "5000-748",
      "city": "TORGUEDA",
      "lon": "-7.810052304540235",
      "lat": "41.260747184169844"
    },
    {
      "id": "pt.ine.add.PTCONT.5322959",
      "street": "LG S JOÃO",
      "house": "",
      "postcode": "5000-748",
      "city": "TORGUEDA",
      "lon": "-7.810328084195542",
      "lat": "41.260477831399726"
    },
    {
      "id": "pt.ine.add.PTCONT.5323965",
      "street": "R MALHADINHAS",
      "house": "",
      "postcode": "5000-748",
      "city": "TORGUEDA",
      "lon": "-7.811424379181157",
      "lat": "41.26321817838958"
    },
    {
      "id": "pt.ine.add.PTCONT.5329382",
      "street": "R ESCOLA",
      "house": "",
      "postcode": "5000-748",
      "city": "TORGUEDA",
      "lon": "-7.805579483953819",
      "lat": "41.26274248496471"
    },
    {
      "id": "pt.ine.add.PTCONT.5329383",
      "street": "R MALHADINHAS",
      "house": "",
      "postcode": "5000-748",
      "city": "TORGUEDA",
      "lon": "-7.810733546757819",
      "lat": "41.26295512420063"
    },
    {
      "id": "pt.ine.add.PTCONT.5335098",
      "street": "R SECOLUTO",
      "house": "",
      "postcode": "5000-748",
      "city": "TORGUEDA",
      "lon": "-7.810114274356188",
      "lat": "41.26027913919837"
    },
    {
      "id": "pt.ine.add.PTCONT.5350710",
      "street": "R LAMEIRAO",
      "house": "",
      "postcode": "5000-748",
      "city": "TORGUEDA",
      "lon": "-7.805745735892157",
      "lat": "41.262905033468655"
    },
    {
      "id": "pt.ine.add.PTCONT.5358437",
      "street": "R FOJO",
      "house": "",
      "postcode": "5000-748",
      "city": "TORGUEDA",
      "lon": "-7.802220916764027",
      "lat": "41.26380438181616"
    },
    {
      "id": "pt.ine.add.PTCONT.5386079",
      "street": "R MALHADINHAS",
      "house": "",
      "postcode": "5000-748",
      "city": "TORGUEDA",
      "lon": "-7.810650857337536",
      "lat": "41.2627838127503"
    },
    {
      "id": "pt.ine.add.PTCONT.5394539",
      "street": "R CRESPO",
      "house": "",
      "postcode": "5000-748",
      "city": "TORGUEDA",
      "lon": "-7.810113475838303",
      "lat": "41.260441212713225"
    },
    {
      "id": "pt.ine.add.PTCONT.5402221",
      "street": "LG S JOÃO",
      "house": "",
      "postcode": "5000-748",
      "city": "TORGUEDA",
      "lon": "-7.810518827691198",
      "lat": "41.26051438282322"
    },
    {
      "id": "pt.ine.add.PTCONT.5403254",
      "street": "R MALHADINHAS",
      "house": "",
      "postcode": "5000-748",
      "city": "TORGUEDA",
      "lon": "-7.810830073154002",
      "lat": "41.262739293518855"
    },
    {
      "id": "pt.ine.add.PTCONT.5405380",
      "street": "R BAIRRO NOVO",
      "house": "",
      "postcode": "5000-748",
      "city": "TORGUEDA",
      "lon": "-7.805866414188107",
      "lat": "41.26263525040257"
    },
    {
      "id": "pt.ine.add.PTCONT.5411880",
      "street": "R CRESPO",
      "house": "",
      "postcode": "5000-748",
      "city": "TORGUEDA",
      "lon": "-7.81020773870845",
      "lat": "41.26068459073965"
    },
    {
      "id": "pt.ine.add.PTCONT.5412998",
      "street": "R BAIRRO NOVO",
      "house": "",
      "postcode": "5000-748",
      "city": "TORGUEDA",
      "lon": "-7.805916123368607",
      "lat": "41.26223920666469"
    },
    {
      "id": "pt.ine.add.PTCONT.5418087",
      "street": "R ESCOLA",
      "house": "",
      "postcode": "5000-748",
      "city": "TORGUEDA",
      "lon": "-7.805424985722236",
      "lat": "41.26261598648793"
    }
  ]
}