{
  "data": {
    "distrito": "Coimbra",
    "concelho": "Arganil",
    "freguesia": "Secarias",
    "OBJECTID": 317,
    "BGRI2021": "06011600109",
    "DT21": "06",
    "DTMN21": "0601",
    "DTMNFR21": "060116",
    "DTMNFRSEC21": "060116001",
    "SECNUM21": "001",
    "SSNUM21": "09",
    "SECSSNUM21": "00109",
    "OBJECTID_1": 47456,
    "DT": "06",
    "CC": "01",
    "fr": "16",
    "SEC": "001",
    "SS": "09"
  },
  "addresses": [
    {
      "id": "pt.ine.add.PTCONT.1153180",
      "street": "EN 342",
      "house": "",
      "postcode": "3300-450",
      "city": "SECARIAS",
      "lon": "-8.036506827093424",
      "lat": "40.241845336765195"
    },
    {
      "id": "pt.ine.add.PTCONT.1203609",
      "street": "R AREIAS",
      "house": "",
      "postcode": "3300-450",
      "city": "SECARIAS",
      "lon": "-8.041141889223217",
      "lat": "40.23831883025149"
    },
    {
      "id": "pt.ine.add.PTCONT.1205025",
      "street": "R Fﾃ。RICA",
      "house": "",
      "postcode": "3300-450",
      "city": "SECARIAS",
      "lon": "-8.040244403892972",
      "lat": "40.24152418654259"
    },
    {
      "id": "pt.ine.add.PTCONT.1215809",
      "street": "R AREIAS",
      "house": "",
      "postcode": "3300-450",
      "city": "SECARIAS",
      "lon": "-8.044337242672178",
      "lat": "40.2391048319555"
    },
    {
      "id": "pt.ine.add.PTCONT.1232494",
      "street": "EN 337",
      "house": "",
      "postcode": "3300-450",
      "city": "SECARIAS",
      "lon": "-8.037161022800245",
      "lat": "40.244619672746346"
    },
    {
      "id": "pt.ine.add.PTCONT.1237390",
      "street": "R Fﾃ。RICA",
      "house": "",
      "postcode": "3300-450",
      "city": "SECARIAS",
      "lon": "-8.038224453595557",
      "lat": "40.24053190784599"
    },
    {
      "id": "pt.ine.add.PTCONT.1237680",
      "street": "EN 337",
      "house": "",
      "postcode": "3300-450",
      "city": "SECARIAS",
      "lon": "-8.037066315745522",
      "lat": "40.24510590820003"
    },
    {
      "id": "pt.ine.add.PTCONT.1239497",
      "street": "R Fﾃ。RICA",
      "house": "",
      "postcode": "3300-450",
      "city": "SECARIAS",
      "lon": "-8.037319707260762",
      "lat": "40.24043209853642"
    },
    {
      "id": "pt.ine.add.PTCONT.1256506",
      "street": "R AREIAS",
      "house": "",
      "postcode": "3300-450",
      "city": "SECARIAS",
      "lon": "-8.037721819642195",
      "lat": "40.23861325433243"
    },
    {
      "id": "pt.ine.add.PTCONT.1261116",
      "street": "R AREIAS",
      "house": "",
      "postcode": "3300-450",
      "city": "SECARIAS",
      "lon": "-8.046718783893933",
      "lat": "40.24226767757896"
    },
    {
      "id": "pt.ine.add.PTCONT.1272764",
      "street": "EN 342",
      "house": "",
      "postcode": "3300-450",
      "city": "SECARIAS",
      "lon": "-8.036519718140086",
      "lat": "40.241043829520535"
    },
    {
      "id": "pt.ine.add.PTCONT.1274426",
      "street": "EN 342",
      "house": "53",
      "postcode": "3300-450",
      "city": "SECARIAS",
      "lon": "-8.037486106838358",
      "lat": "40.2390993743425"
    },
    {
      "id": "pt.ine.add.PTCONT.1287787",
      "street": "EN 342",
      "house": "",
      "postcode": "3300-450",
      "city": "SECARIAS",
      "lon": "-8.036328456897182",
      "lat": "40.243313136160644"
    },
    {
      "id": "pt.ine.add.PTCONT.1297286",
      "street": "R Fﾃ。RICA",
      "house": "",
      "postcode": "3300-450",
      "city": "SECARIAS",
      "lon": "-8.039620783162617",
      "lat": "40.24208204531425"
    },
    {
      "id": "pt.ine.add.PTCONT.1303117",
      "street": "EN 342",
      "house": "",
      "postcode": "3300-450",
      "city": "SECARIAS",
      "lon": "-8.037191594522957",
      "lat": "40.23961246258516"
    },
    {
      "id": "pt.ine.add.PTCONT.1309224",
      "street": "QTA SOITOS",
      "house": "",
      "postcode": "3300-450",
      "city": "SECARIAS",
      "lon": "-8.040235408437907",
      "lat": "40.239506875223746"
    },
    {
      "id": "pt.ine.add.PTCONT.1315130",
      "street": "R AREIAS",
      "house": "",
      "postcode": "3300-450",
      "city": "SECARIAS",
      "lon": "-8.04412610434507",
      "lat": "40.23880747761171"
    },
    {
      "id": "pt.ine.add.PTCONT.1318982",
      "street": "R AREIAS",
      "house": "",
      "postcode": "3300-450",
      "city": "SECARIAS",
      "lon": "-8.04689506492397",
      "lat": "40.24226780902766"
    },
    {
      "id": "pt.ine.add.PTCONT.1337433",
      "street": "EN 342",
      "house": "",
      "postcode": "3300-450",
      "city": "SECARIAS",
      "lon": "-8.037545054347932",
      "lat": "40.23896433566861"
    },
    {
      "id": "pt.ine.add.PTCONT.1365611",
      "street": "EN 337",
      "house": "",
      "postcode": "3300-450",
      "city": "SECARIAS",
      "lon": "-8.036445851268079",
      "lat": "40.24340329244138"
    }
  ]
}