{
  "data": {
    "distrito": "Santarém",
    "concelho": "Abrantes",
    "freguesia": "União das freguesias de Abrantes (São Vicente e São João) e Alferrarede",
    "OBJECTID": 1126,
    "BGRI2021": "14012001514",
    "DT21": "14",
    "DTMN21": "1401",
    "DTMNFR21": "140120",
    "DTMNFRSEC21": "140120015",
    "SECNUM21": "015",
    "SSNUM21": "14",
    "SECSSNUM21": "01514",
    "OBJECTID_1": 147168,
    "DT": "14",
    "CC": "01",
    "fr": "20",
    "SEC": "015",
    "SS": "14"
  },
  "addresses": [
    {
      "id": "pt.ine.add.PTCONT.4491788",
      "street": "R VALE MORENAS",
      "house": "363",
      "postcode": "2200-173",
      "city": "ABRANTES",
      "lon": "-8.19693715904421",
      "lat": "39.48901344685936"
    },
    {
      "id": "pt.ine.add.PTCONT.4528141",
      "street": "R VALE DE MORENAS",
      "house": "",
      "postcode": "2200-173",
      "city": "ABRANTES",
      "lon": "-8.197042824948367",
      "lat": "39.49015727682704"
    },
    {
      "id": "pt.ine.add.PTCONT.4544494",
      "street": "TV VALE DE MORENAS",
      "house": "15",
      "postcode": "2200-173",
      "city": "ABRANTES",
      "lon": "-8.196834505811017",
      "lat": "39.491166174132026"
    },
    {
      "id": "pt.ine.add.PTCONT.4550581",
      "street": "R VALE DE MORENAS",
      "house": "327",
      "postcode": "2200-173",
      "city": "ABRANTES",
      "lon": "-8.19713460618094",
      "lat": "39.488833198440716"
    },
    {
      "id": "pt.ine.add.PTCONT.4567492",
      "street": "R CABEÇO",
      "house": "48",
      "postcode": "2200-160",
      "city": "ABRANTES",
      "lon": "-8.196983375872021",
      "lat": "39.488707183704534"
    },
    {
      "id": "pt.ine.add.PTCONT.4571652",
      "street": "R VALE MORENAS",
      "house": "583",
      "postcode": "2200-173",
      "city": "ABRANTES",
      "lon": "-8.196997102028492",
      "lat": "39.49100395908731"
    },
    {
      "id": "pt.ine.add.PTCONT.4579876",
      "street": "R CABEÇO",
      "house": "306",
      "postcode": "2200-160",
      "city": "ABRANTES",
      "lon": "-8.19914740349846",
      "lat": "39.49074155499567"
    },
    {
      "id": "pt.ine.add.PTCONT.4627090",
      "street": "R VALE DE MORENAS",
      "house": "553",
      "postcode": "2200-173",
      "city": "ABRANTES",
      "lon": "-8.197043402392412",
      "lat": "39.49078776587238"
    },
    {
      "id": "pt.ine.add.PTCONT.4644365",
      "street": "TV VALE DE MORENAS",
      "house": "27",
      "postcode": "2200-173",
      "city": "ABRANTES",
      "lon": "-8.197043773616016",
      "lat": "39.49119308022246"
    }
  ]
}