{
  "data": {
    "distrito": "Castelo Branco",
    "concelho": "Sertã",
    "freguesia": "União das freguesias de Cernache do Bonjardim, Nesperal e Palhais",
    "OBJECTID": 501,
    "BGRI2021": "05091500317",
    "DT21": "05",
    "DTMN21": "0509",
    "DTMNFR21": "050915",
    "DTMNFRSEC21": "050915003",
    "SECNUM21": "003",
    "SSNUM21": "17",
    "SECSSNUM21": "00317",
    "OBJECTID_1": 45853,
    "DT": "05",
    "CC": "09",
    "fr": "15",
    "SEC": "003",
    "SS": "17"
  },
  "addresses": [
    {
      "id": "pt.ine.add.PTCONT.950793",
      "street": "URB ALCOBIA II",
      "house": "",
      "postcode": "6100-201",
      "city": "CERNACHE DO BONJARDIM",
      "lon": "-8.194335706845196",
      "lat": "39.808736270425044"
    },
    {
      "id": "pt.ine.add.PTCONT.950794",
      "street": "R PINHEIROS",
      "house": "",
      "postcode": "6100-266",
      "city": "CERNACHE DO BONJARDIM",
      "lon": "-8.194335706845196",
      "lat": "39.808736270425044"
    },
    {
      "id": "pt.ine.add.PTCONT.950795",
      "street": "R PINHEIROS",
      "house": "",
      "postcode": "6100-266",
      "city": "CERNACHE DO BONJARDIM",
      "lon": "-8.194335706845196",
      "lat": "39.808736270425044"
    },
    {
      "id": "pt.ine.add.PTCONT.950796",
      "street": "R PINHEIROS",
      "house": "",
      "postcode": "6100-266",
      "city": "CERNACHE DO BONJARDIM",
      "lon": "-8.194335706845196",
      "lat": "39.808736270425044"
    },
    {
      "id": "pt.ine.add.PTCONT.950797",
      "street": "R PINHEIROS",
      "house": "",
      "postcode": "6100-266",
      "city": "CERNACHE DO BONJARDIM",
      "lon": "-8.194335706845196",
      "lat": "39.808736270425044"
    },
    {
      "id": "pt.ine.add.PTCONT.950798",
      "street": "R PINHEIROS",
      "house": "",
      "postcode": "6100-266",
      "city": "CERNACHE DO BONJARDIM",
      "lon": "-8.194335706845196",
      "lat": "39.808736270425044"
    },
    {
      "id": "pt.ine.add.PTCONT.950799",
      "street": "QTA ALCOBIA",
      "house": "",
      "postcode": "6100-201",
      "city": "CERNACHE DO BONJARDIM",
      "lon": "-8.192568670879412",
      "lat": "39.80447711512448"
    },
    {
      "id": "pt.ine.add.PTCONT.956005",
      "street": "",
      "house": "",
      "postcode": "6100-321",
      "city": "CERNACHE DO BONJARDIM",
      "lon": "-8.19470527713862",
      "lat": "39.80411574051858"
    },
    {
      "id": "pt.ine.add.PTCONT.963549",
      "street": "URB ALCOBIA",
      "house": "2",
      "postcode": "6100-201",
      "city": "CERNACHE DO BONJARDIM",
      "lon": "-8.193589085427618",
      "lat": "39.80961029203213"
    },
    {
      "id": "pt.ine.add.PTCONT.963550",
      "street": "R PINHEIROS",
      "house": "2",
      "postcode": "6100-266",
      "city": "CERNACHE DO BONJARDIM",
      "lon": "-8.193589085427618",
      "lat": "39.80961029203213"
    },
    {
      "id": "pt.ine.add.PTCONT.963551",
      "street": "R PINHEIROS",
      "house": "2",
      "postcode": "6100-266",
      "city": "CERNACHE DO BONJARDIM",
      "lon": "-8.193589085427618",
      "lat": "39.80961029203213"
    },
    {
      "id": "pt.ine.add.PTCONT.963552",
      "street": "R PINHEIROS",
      "house": "2",
      "postcode": "6100-266",
      "city": "CERNACHE DO BONJARDIM",
      "lon": "-8.193589085427618",
      "lat": "39.80961029203213"
    },
    {
      "id": "pt.ine.add.PTCONT.963553",
      "street": "URB ALCOBIA",
      "house": "2",
      "postcode": "6100-201",
      "city": "CERNACHE DO BONJARDIM",
      "lon": "-8.193589085427618",
      "lat": "39.80961029203213"
    },
    {
      "id": "pt.ine.add.PTCONT.963778",
      "street": "R PINHEIROS",
      "house": "2",
      "postcode": "6100-266",
      "city": "CERNACHE DO BONJARDIM",
      "lon": "-8.193589085427618",
      "lat": "39.80961029203213"
    },
    {
      "id": "pt.ine.add.PTCONT.973607",
      "street": "URB ALCOBIA LOTEAMENTO 6",
      "house": "1",
      "postcode": "6100-201",
      "city": "CERNACHE DO BONJARDIM",
      "lon": "-8.193694069459324",
      "lat": "39.80947513984262"
    },
    {
      "id": "pt.ine.add.PTCONT.973608",
      "street": "URB ALCOBIA LOTEAMENTO 6",
      "house": "1",
      "postcode": "6100-201",
      "city": "CERNACHE DO BONJARDIM",
      "lon": "-8.193694069459324",
      "lat": "39.80947513984262"
    },
    {
      "id": "pt.ine.add.PTCONT.973609",
      "street": "URB ALCOBIA LOTEAMENTO 6",
      "house": "1",
      "postcode": "6100-201",
      "city": "CERNACHE DO BONJARDIM",
      "lon": "-8.193694069459324",
      "lat": "39.80947513984262"
    },
    {
      "id": "pt.ine.add.PTCONT.973610",
      "street": "URB ALCOBIA LOTEAMENTO 6",
      "house": "1",
      "postcode": "6100-201",
      "city": "CERNACHE DO BONJARDIM",
      "lon": "-8.193694069459324",
      "lat": "39.80947513984262"
    },
    {
      "id": "pt.ine.add.PTCONT.990586",
      "street": "URB ALCOBIA",
      "house": "4",
      "postcode": "6100-201",
      "city": "CERNACHE DO BONJARDIM",
      "lon": "-8.193355744177397",
      "lat": "39.80986259526633"
    },
    {
      "id": "pt.ine.add.PTCONT.990587",
      "street": "URB ALCOBIA",
      "house": "4",
      "postcode": "6100-201",
      "city": "CERNACHE DO BONJARDIM",
      "lon": "-8.193355744177397",
      "lat": "39.80986259526633"
    },
    {
      "id": "pt.ine.add.PTCONT.990588",
      "street": "URB ALCOBIA",
      "house": "",
      "postcode": "6100-201",
      "city": "CERNACHE DO BONJARDIM",
      "lon": "-8.193355744177397",
      "lat": "39.80986259526633"
    },
    {
      "id": "pt.ine.add.PTCONT.990589",
      "street": "URB ALCOBIA",
      "house": "4",
      "postcode": "6100-201",
      "city": "CERNACHE DO BONJARDIM",
      "lon": "-8.193355744177397",
      "lat": "39.80986259526633"
    },
    {
      "id": "pt.ine.add.PTCONT.990590",
      "street": "URB ALCOBIA",
      "house": "",
      "postcode": "6100-201",
      "city": "CERNACHE DO BONJARDIM",
      "lon": "-8.193355744177397",
      "lat": "39.80986259526633"
    },
    {
      "id": "pt.ine.add.PTCONT.990591",
      "street": "URB ALCOBIA",
      "house": "4",
      "postcode": "6100-201",
      "city": "CERNACHE DO BONJARDIM",
      "lon": "-8.193355744177397",
      "lat": "39.80986259526633"
    },
    {
      "id": "pt.ine.add.PTCONT.990596",
      "street": "R PRINCIPAL CALVARIA",
      "house": "1",
      "postcode": "6100-212",
      "city": "CERNACHE DO BONJARDIM",
      "lon": "-8.194869683759922",
      "lat": "39.80515140091013"
    },
    {
      "id": "pt.ine.add.PTCONT.998235",
      "street": "RAM CALVARIA",
      "house": "",
      "postcode": "6100-212",
      "city": "CERNACHE DO BONJARDIM",
      "lon": "-8.194425553793417",
      "lat": "39.804710317847835"
    },
    {
      "id": "pt.ine.add.PTCONT.1006582",
      "street": "R PADRE JOSE M PATRICIO",
      "house": "",
      "postcode": "6100-201",
      "city": "CERNACHE DO BONJARDIM",
      "lon": "-8.192888284255782",
      "lat": "39.80947555776489"
    },
    {
      "id": "pt.ine.add.PTCONT.1006583",
      "street": "R PADRE JOSE M PATRICIO",
      "house": "",
      "postcode": "6100-201",
      "city": "CERNACHE DO BONJARDIM",
      "lon": "-8.192888284255782",
      "lat": "39.80947555776489"
    },
    {
      "id": "pt.ine.add.PTCONT.1006584",
      "street": "R PADRE JOSE M PATRICIO",
      "house": "",
      "postcode": "6100-201",
      "city": "CERNACHE DO BONJARDIM",
      "lon": "-8.192888284255782",
      "lat": "39.80947555776489"
    },
    {
      "id": "pt.ine.add.PTCONT.1006585",
      "street": "R PADRE JOSE M PATRICIO",
      "house": "",
      "postcode": "6100-201",
      "city": "CERNACHE DO BONJARDIM",
      "lon": "-8.192888284255782",
      "lat": "39.80947555776489"
    },
    {
      "id": "pt.ine.add.PTCONT.1006586",
      "street": "R PADRE JOSE M PATRICIO",
      "house": "",
      "postcode": "6100-201",
      "city": "CERNACHE DO BONJARDIM",
      "lon": "-8.192888284255782",
      "lat": "39.80947555776489"
    },
    {
      "id": "pt.ine.add.PTCONT.1007713",
      "street": "URB ALCOBIA",
      "house": "5",
      "postcode": "6100-201",
      "city": "CERNACHE DO BONJARDIM",
      "lon": "-8.193250751046058",
      "lat": "39.80998874065157"
    },
    {
      "id": "pt.ine.add.PTCONT.1007714",
      "street": "URB ALCOBIA",
      "house": "5",
      "postcode": "6100-201",
      "city": "CERNACHE DO BONJARDIM",
      "lon": "-8.193250751046058",
      "lat": "39.80998874065157"
    },
    {
      "id": "pt.ine.add.PTCONT.1007715",
      "street": "URB ALCOBIA",
      "house": "5",
      "postcode": "6100-201",
      "city": "CERNACHE DO BONJARDIM",
      "lon": "-8.193250751046058",
      "lat": "39.80998874065157"
    },
    {
      "id": "pt.ine.add.PTCONT.1007716",
      "street": "URB ALCOBIA",
      "house": "5",
      "postcode": "6100-201",
      "city": "CERNACHE DO BONJARDIM",
      "lon": "-8.193250751046058",
      "lat": "39.80998874065157"
    },
    {
      "id": "pt.ine.add.PTCONT.1007717",
      "street": "URB ALCOBIA",
      "house": "5",
      "postcode": "6100-201",
      "city": "CERNACHE DO BONJARDIM",
      "lon": "-8.193250751046058",
      "lat": "39.80998874065157"
    },
    {
      "id": "pt.ine.add.PTCONT.1017615",
      "street": "QTA ALCOBIA",
      "house": "",
      "postcode": "6100-201",
      "city": "CERNACHE DO BONJARDIM",
      "lon": "-8.193596067256534",
      "lat": "39.80425142155652"
    },
    {
      "id": "pt.ine.add.PTCONT.1020000",
      "street": "R ALCOBIA",
      "house": "",
      "postcode": "6100-201",
      "city": "CERNACHE DO BONJARDIM",
      "lon": "-8.191517913295188",
      "lat": "39.80470281135018"
    },
    {
      "id": "pt.ine.add.PTCONT.1045180",
      "street": "R PADRE JOSE M PATRICIO",
      "house": "",
      "postcode": "6100-201",
      "city": "CERNACHE DO BONJARDIM",
      "lon": "-8.192993621114175",
      "lat": "39.80974569829157"
    },
    {
      "id": "pt.ine.add.PTCONT.1045181",
      "street": "R PADRE JOSE M PATRICIO",
      "house": "",
      "postcode": "6100-201",
      "city": "CERNACHE DO BONJARDIM",
      "lon": "-8.192993621114175",
      "lat": "39.80974569829157"
    },
    {
      "id": "pt.ine.add.PTCONT.1045182",
      "street": "R PADRE JOSE M PATRICIO",
      "house": "",
      "postcode": "6100-201",
      "city": "CERNACHE DO BONJARDIM",
      "lon": "-8.192993621114175",
      "lat": "39.80974569829157"
    },
    {
      "id": "pt.ine.add.PTCONT.1045183",
      "street": "R PADRE JOSE M PATRICIO",
      "house": "",
      "postcode": "6100-201",
      "city": "CERNACHE DO BONJARDIM",
      "lon": "-8.192993621114175",
      "lat": "39.80974569829157"
    },
    {
      "id": "pt.ine.add.PTCONT.1045184",
      "street": "R PADRE JOSE M PATRICIO",
      "house": "",
      "postcode": "6100-201",
      "city": "CERNACHE DO BONJARDIM",
      "lon": "-8.192993621114175",
      "lat": "39.80974569829157"
    },
    {
      "id": "pt.ine.add.PTCONT.1045185",
      "street": "R PADRE JOSE M PATRICIO",
      "house": "",
      "postcode": "6100-201",
      "city": "CERNACHE DO BONJARDIM",
      "lon": "-8.192993621114175",
      "lat": "39.80974569829157"
    },
    {
      "id": "pt.ine.add.PTCONT.1053124",
      "street": "R PADRE JOSE M PATRICIO",
      "house": "",
      "postcode": "6100-201",
      "city": "CERNACHE DO BONJARDIM",
      "lon": "-8.192841455148109",
      "lat": "39.80934048445513"
    },
    {
      "id": "pt.ine.add.PTCONT.1053125",
      "street": "R PADRE JOSE M PATRICIO",
      "house": "",
      "postcode": "6100-201",
      "city": "CERNACHE DO BONJARDIM",
      "lon": "-8.192841455148109",
      "lat": "39.80934048445513"
    },
    {
      "id": "pt.ine.add.PTCONT.1053129",
      "street": "R PADRE JOSE M PATRICIO",
      "house": "",
      "postcode": "6100-201",
      "city": "CERNACHE DO BONJARDIM",
      "lon": "-8.192841455148109",
      "lat": "39.80934048445513"
    },
    {
      "id": "pt.ine.add.PTCONT.1053130",
      "street": "R PADRE JOSE M PATRICIO",
      "house": "",
      "postcode": "6100-201",
      "city": "CERNACHE DO BONJARDIM",
      "lon": "-8.192841455148109",
      "lat": "39.80934048445513"
    },
    {
      "id": "pt.ine.add.PTCONT.1053131",
      "street": "R PADRE JOSE M PATRICIO",
      "house": "",
      "postcode": "6100-201",
      "city": "CERNACHE DO BONJARDIM",
      "lon": "-8.192841455148109",
      "lat": "39.80934048445513"
    },
    {
      "id": "pt.ine.add.PTCONT.1053195",
      "street": "R PADRE JOSE M PATRICIO",
      "house": "",
      "postcode": "6100-201",
      "city": "CERNACHE DO BONJARDIM",
      "lon": "-8.192841455148109",
      "lat": "39.80934048445513"
    },
    {
      "id": "pt.ine.add.PTCONT.1055355",
      "street": "R ALCOBIA QTA DA ALCOBIA",
      "house": "",
      "postcode": "6100-201",
      "city": "CERNACHE DO BONJARDIM",
      "lon": "-8.19193820180352",
      "lat": "39.80459452100476"
    },
    {
      "id": "pt.ine.add.PTCONT.1058775",
      "street": "URB ALCOBIA",
      "house": "3",
      "postcode": "6100-201",
      "city": "CERNACHE DO BONJARDIM",
      "lon": "-8.193484085227547",
      "lat": "39.809727431142974"
    },
    {
      "id": "pt.ine.add.PTCONT.1058776",
      "street": "R PINHEIROS",
      "house": "3",
      "postcode": "6100-266",
      "city": "CERNACHE DO BONJARDIM",
      "lon": "-8.193484085227547",
      "lat": "39.809727431142974"
    },
    {
      "id": "pt.ine.add.PTCONT.1058831",
      "street": "URB ALCOBIA",
      "house": "3",
      "postcode": "6100-201",
      "city": "CERNACHE DO BONJARDIM",
      "lon": "-8.193484085227547",
      "lat": "39.809727431142974"
    },
    {
      "id": "pt.ine.add.PTCONT.1058832",
      "street": "URB ALCOBIA",
      "house": "3",
      "postcode": "6100-201",
      "city": "CERNACHE DO BONJARDIM",
      "lon": "-8.193484085227547",
      "lat": "39.809727431142974"
    },
    {
      "id": "pt.ine.add.PTCONT.1058833",
      "street": "R PINHEIROS CERNACHE",
      "house": "CERNACHE",
      "postcode": "6100-266",
      "city": "CERNACHE DO BONJARDIM",
      "lon": "-8.193484085227547",
      "lat": "39.809727431142974"
    },
    {
      "id": "pt.ine.add.PTCONT.1058834",
      "street": "URB ALCOBIA",
      "house": "3",
      "postcode": "6100-201",
      "city": "CERNACHE DO BONJARDIM",
      "lon": "-8.193484085227547",
      "lat": "39.809727431142974"
    },
    {
      "id": "pt.ine.add.PTCONT.1060241",
      "street": "R PINHEIROS",
      "house": "",
      "postcode": "6100-266",
      "city": "CERNACHE DO BONJARDIM",
      "lon": "-8.194429010188516",
      "lat": "39.80860112371359"
    },
    {
      "id": "pt.ine.add.PTCONT.1060242",
      "street": "R PINHEIROS",
      "house": "",
      "postcode": "6100-266",
      "city": "CERNACHE DO BONJARDIM",
      "lon": "-8.194429010188516",
      "lat": "39.80860112371359"
    },
    {
      "id": "pt.ine.add.PTCONT.1060243",
      "street": "R PINHEIROS",
      "house": "",
      "postcode": "6100-266",
      "city": "CERNACHE DO BONJARDIM",
      "lon": "-8.194429010188516",
      "lat": "39.80860112371359"
    },
    {
      "id": "pt.ine.add.PTCONT.1061207",
      "street": "R PINHEIROS",
      "house": "",
      "postcode": "6100-266",
      "city": "CERNACHE DO BONJARDIM",
      "lon": "-8.194429010188516",
      "lat": "39.80860112371359"
    },
    {
      "id": "pt.ine.add.PTCONT.1063106",
      "street": "RAM CALVARIA",
      "house": "",
      "postcode": "6100-323",
      "city": "CERNACHE DO BONJARDIM",
      "lon": "-8.194787701133285",
      "lat": "39.804881249460834"
    },
    {
      "id": "pt.ine.add.PTCONT.1065728",
      "street": "R PADRE JOSE M PATRICIO",
      "house": "",
      "postcode": "6100-201",
      "city": "CERNACHE DO BONJARDIM",
      "lon": "-8.19295848530601",
      "lat": "39.80962863198948"
    },
    {
      "id": "pt.ine.add.PTCONT.1065729",
      "street": "R PADRE JOSE M PATRICIO",
      "house": "",
      "postcode": "6100-201",
      "city": "CERNACHE DO BONJARDIM",
      "lon": "-8.19295848530601",
      "lat": "39.80962863198948"
    },
    {
      "id": "pt.ine.add.PTCONT.1065730",
      "street": "R PADRE JOSE M PATRICIO",
      "house": "",
      "postcode": "6100-201",
      "city": "CERNACHE DO BONJARDIM",
      "lon": "-8.19295848530601",
      "lat": "39.80962863198948"
    },
    {
      "id": "pt.ine.add.PTCONT.1065731",
      "street": "R PADRE JOSE M PATRICIO",
      "house": "",
      "postcode": "6100-201",
      "city": "CERNACHE DO BONJARDIM",
      "lon": "-8.19295848530601",
      "lat": "39.80962863198948"
    },
    {
      "id": "pt.ine.add.PTCONT.1065732",
      "street": "ESTR ALCOBIA",
      "house": "",
      "postcode": "6100-201",
      "city": "CERNACHE DO BONJARDIM",
      "lon": "-8.19295848530601",
      "lat": "39.80962863198948"
    },
    {
      "id": "pt.ine.add.PTCONT.1065733",
      "street": "URB ALCOBIA",
      "house": "8",
      "postcode": "6100-201",
      "city": "CERNACHE DO BONJARDIM",
      "lon": "-8.19295848530601",
      "lat": "39.80962863198948"
    },
    {
      "id": "pt.ine.add.PTCONT.1081563",
      "street": "R PINHEIROS URB ALCOBIA",
      "house": "1",
      "postcode": "6100-266",
      "city": "CERNACHE DO BONJARDIM",
      "lon": "-8.193787390893023",
      "lat": "39.80935800664457"
    },
    {
      "id": "pt.ine.add.PTCONT.1081564",
      "street": "R PINHEIROS URB ALCOBIA",
      "house": "1",
      "postcode": "6100-266",
      "city": "CERNACHE DO BONJARDIM",
      "lon": "-8.193787390893023",
      "lat": "39.80935800664457"
    },
    {
      "id": "pt.ine.add.PTCONT.1081565",
      "street": "URB ALCOBIA",
      "house": "",
      "postcode": "6100-201",
      "city": "CERNACHE DO BONJARDIM",
      "lon": "-8.193787390893023",
      "lat": "39.80935800664457"
    },
    {
      "id": "pt.ine.add.PTCONT.1081647",
      "street": "URB ALCOBIA",
      "house": "1",
      "postcode": "6100-201",
      "city": "CERNACHE DO BONJARDIM",
      "lon": "-8.193787390893023",
      "lat": "39.80935800664457"
    },
    {
      "id": "pt.ine.add.PTCONT.1086446",
      "street": "URB ALCOBIA",
      "house": "6",
      "postcode": "6100-201",
      "city": "CERNACHE DO BONJARDIM",
      "lon": "-8.193145796704435",
      "lat": "39.8101599183886"
    },
    {
      "id": "pt.ine.add.PTCONT.1086523",
      "street": "URB ALCOBIA",
      "house": "101 6",
      "postcode": "6100-201",
      "city": "CERNACHE DO BONJARDIM",
      "lon": "-8.193145796704435",
      "lat": "39.8101599183886"
    },
    {
      "id": "pt.ine.add.PTCONT.1086524",
      "street": "URB ALCOBIA",
      "house": "6",
      "postcode": "6100-201",
      "city": "CERNACHE DO BONJARDIM",
      "lon": "-8.193145796704435",
      "lat": "39.8101599183886"
    },
    {
      "id": "pt.ine.add.PTCONT.1087356",
      "street": "R PINHEIROS",
      "house": "6",
      "postcode": "6100-266",
      "city": "CERNACHE DO BONJARDIM",
      "lon": "-8.193145796704435",
      "lat": "39.8101599183886"
    },
    {
      "id": "pt.ine.add.PTCONT.1089789",
      "street": "URB ALCOBIA",
      "house": "11",
      "postcode": "6100-201",
      "city": "CERNACHE DO BONJARDIM",
      "lon": "-8.192782940436107",
      "lat": "39.809196410638016"
    },
    {
      "id": "pt.ine.add.PTCONT.1089790",
      "street": "URB ALCOBIA",
      "house": "11",
      "postcode": "6100-201",
      "city": "CERNACHE DO BONJARDIM",
      "lon": "-8.192782940436107",
      "lat": "39.809196410638016"
    },
    {
      "id": "pt.ine.add.PTCONT.1089791",
      "street": "R PADRE JOSE M PATRICIO",
      "house": "",
      "postcode": "6100-201",
      "city": "CERNACHE DO BONJARDIM",
      "lon": "-8.192782940436107",
      "lat": "39.809196410638016"
    },
    {
      "id": "pt.ine.add.PTCONT.1089792",
      "street": "R PADRE JOSE M PATRICIO",
      "house": "",
      "postcode": "6100-201",
      "city": "CERNACHE DO BONJARDIM",
      "lon": "-8.192782940436107",
      "lat": "39.809196410638016"
    },
    {
      "id": "pt.ine.add.PTCONT.1089793",
      "street": "R PADRE JOSE M PATRICIO",
      "house": "",
      "postcode": "6100-201",
      "city": "CERNACHE DO BONJARDIM",
      "lon": "-8.192782940436107",
      "lat": "39.809196410638016"
    },
    {
      "id": "pt.ine.add.PTCONT.1090731",
      "street": "URB ALCOBIA",
      "house": "11",
      "postcode": "6100-201",
      "city": "CERNACHE DO BONJARDIM",
      "lon": "-8.192782940436107",
      "lat": "39.809196410638016"
    },
    {
      "id": "pt.ine.add.PTCONT.1096417",
      "street": "R PADRE JOSE M PATRICIO",
      "house": "",
      "postcode": "6100-201",
      "city": "CERNACHE DO BONJARDIM",
      "lon": "-8.192888284255782",
      "lat": "39.80947555776489"
    },
    {
      "id": "pt.ine.add.PTCONT.1096525",
      "street": "URB ALCOBIA",
      "house": "5",
      "postcode": "6100-201",
      "city": "CERNACHE DO BONJARDIM",
      "lon": "-8.193250751046058",
      "lat": "39.80998874065157"
    },
    {
      "id": "pt.ine.add.PTCONT.1098156",
      "street": "R PINHEIROS AQUARIO RESTAURANTE",
      "house": "",
      "postcode": "6100-266",
      "city": "CERNACHE DO BONJARDIM",
      "lon": "-8.19474404802877",
      "lat": "39.80830374241871"
    },
    {
      "id": "pt.ine.add.PTCONT.1099803",
      "street": "RAM CALVARIA",
      "house": "",
      "postcode": "6100-212",
      "city": "CERNACHE DO BONJARDIM",
      "lon": "-8.194810717553901",
      "lat": "39.80450296412662"
    }
  ]
}