{
  "data": {
    "distrito": "Braga",
    "concelho": "Barcelos",
    "freguesia": "Uni√£o das freguesias de Vila Cova e Feitos",
    "OBJECTID": 233,
    "BGRI2021": "0302FH00111",
    "DT21": "03",
    "DTMN21": "0302",
    "DTMNFR21": "0302FH",
    "DTMNFRSEC21": "0302FH001",
    "SECNUM21": "001",
    "SSNUM21": "11",
    "SECSSNUM21": "00111",
    "OBJECTID_1": 21497,
    "DT": "03",
    "CC": "02",
    "fr": "FH",
    "SEC": "001",
    "SS": "11"
  },
  "addresses": [
    {
      "id": "pt.ine.add.PTCONT.480084",
      "street": "R VILA ROMANA",
      "house": "195",
      "postcode": "4750-798",
      "city": "VILA COVA BCL",
      "lon": "-8.710929752113252",
      "lat": "41.547102353802934"
    },
    {
      "id": "pt.ine.add.PTCONT.615910",
      "street": "R MOSTEIRO DO BANHO",
      "house": "1845",
      "postcode": "4750-792",
      "city": "VILA COVA BCL",
      "lon": "-8.71143490348498",
      "lat": "41.54595634163884"
    },
    {
      "id": "pt.ine.add.PTCONT.655863",
      "street": "R MOSTEIRO DO BANHO",
      "house": "1787",
      "postcode": "4750-792",
      "city": "VILA COVA BCL",
      "lon": "-8.712426800849304",
      "lat": "41.54563621850624"
    },
    {
      "id": "pt.ine.add.PTCONT.698233",
      "street": "R MOSTEIRO DO BANHO",
      "house": "1737",
      "postcode": "4750-792",
      "city": "VILA COVA BCL",
      "lon": "-8.713000443123189",
      "lat": "41.54545325264601"
    },
    {
      "id": "pt.ine.add.PTCONT.707068",
      "street": "R MOSTEIRO DO BANHO",
      "house": "1835",
      "postcode": "4750-792",
      "city": "VILA COVA BCL",
      "lon": "-8.712116330951348",
      "lat": "41.54576383433449"
    },
    {
      "id": "pt.ine.add.PTCONT.823274",
      "street": "R MOSTEIRO DO BANHO",
      "house": "1959",
      "postcode": "4750-792",
      "city": "VILA COVA BCL",
      "lon": "-8.710538151476996",
      "lat": "41.54619494497276"
    },
    {
      "id": "pt.ine.add.PTCONT.830189",
      "street": "R VILA ROMANA",
      "house": "239",
      "postcode": "4750-798",
      "city": "VILA COVA BCL",
      "lon": "-8.711642064999502",
      "lat": "41.547684014120236"
    },
    {
      "id": "pt.ine.add.PTCONT.846046",
      "street": "R VILA ROMANA",
      "house": "133",
      "postcode": "4750-798",
      "city": "VILA COVA BCL",
      "lon": "-8.710389240361572",
      "lat": "41.54697001274345"
    }
  ]
}