{
  "data": {
    "distrito": "Beja",
    "concelho": "Odemira",
    "freguesia": "Sabóia",
    "OBJECTID": 1005,
    "BGRI2021": "02110300222",
    "DT21": "02",
    "DTMN21": "0211",
    "DTMNFR21": "021103",
    "DTMNFRSEC21": "021103002",
    "SECNUM21": "002",
    "SSNUM21": "22",
    "SECSSNUM21": "00222",
    "OBJECTID_1": 17990,
    "DT": "02",
    "CC": "11",
    "fr": "03",
    "SEC": "002",
    "SS": "22"
  },
  "addresses": [
    {
      "id": "pt.ine.add.PTCONT.362757",
      "street": "MTE NOVO",
      "house": "",
      "postcode": "7665-824",
      "city": "SABÓIA",
      "lon": "-8.5420530279807",
      "lat": "37.49211240160685"
    },
    {
      "id": "pt.ine.add.PTCONT.365239",
      "street": "MTE CORGO MILHO - CORGO DA FONTE CHAIÇA",
      "house": "",
      "postcode": "7665-824",
      "city": "SABÓIA",
      "lon": "-8.529219607858593",
      "lat": "37.49440863179182"
    },
    {
      "id": "pt.ine.add.PTCONT.372416",
      "street": "VALE BARDINHO",
      "house": "",
      "postcode": "7665-824",
      "city": "SABÓIA",
      "lon": "-8.54719066019777",
      "lat": "37.480534649378065"
    },
    {
      "id": "pt.ine.add.PTCONT.387002",
      "street": "RASAL DE BAIXO",
      "house": "",
      "postcode": "7665-824",
      "city": "SABÓIA",
      "lon": "-8.523353302969104",
      "lat": "37.4796877526968"
    },
    {
      "id": "pt.ine.add.PTCONT.390987",
      "street": "VALE BARDINHO",
      "house": "",
      "postcode": "7665-824",
      "city": "SABÓIA",
      "lon": "-8.545420826992252",
      "lat": "37.479423594973056"
    },
    {
      "id": "pt.ine.add.PTCONT.392627",
      "street": "MTE CHAIÇA",
      "house": "",
      "postcode": "7665-824",
      "city": "SABÓIA",
      "lon": "-8.535990155489724",
      "lat": "37.500170160851305"
    },
    {
      "id": "pt.ine.add.PTCONT.393436",
      "street": "FOZ DA SARNADA",
      "house": "",
      "postcode": "7665-824",
      "city": "SABÓIA",
      "lon": "-8.534456931560793",
      "lat": "37.469361088810516"
    },
    {
      "id": "pt.ine.add.PTCONT.395008",
      "street": "MTE DA CRUZ",
      "house": "",
      "postcode": "7665-824",
      "city": "SABÓIA",
      "lon": "-8.531850220550082",
      "lat": "37.47447861043526"
    },
    {
      "id": "pt.ine.add.PTCONT.398306",
      "street": "MTE DA MENSINHA",
      "house": "",
      "postcode": "7665-824",
      "city": "SABÓIA",
      "lon": "-8.533514554463972",
      "lat": "37.50460248793962"
    },
    {
      "id": "pt.ine.add.PTCONT.399044",
      "street": "FOZ DAS CASINHAS DE BAIXO",
      "house": "",
      "postcode": "7665-824",
      "city": "SABÓIA",
      "lon": "-8.547995303959897",
      "lat": "37.468611546130305"
    },
    {
      "id": "pt.ine.add.PTCONT.399869",
      "street": "MTE CHAIÇA",
      "house": "",
      "postcode": "7665-824",
      "city": "SABÓIA",
      "lon": "-8.535712844773045",
      "lat": "37.49907188583839"
    },
    {
      "id": "pt.ine.add.PTCONT.404826",
      "street": "RASAL DE BAIXO",
      "house": "",
      "postcode": "7665-824",
      "city": "SABÓIA",
      "lon": "-8.522989462841263",
      "lat": "37.479292512185346"
    },
    {
      "id": "pt.ine.add.PTCONT.408856",
      "street": "MTE CHAIÇA",
      "house": "",
      "postcode": "7665-824",
      "city": "SABÓIA",
      "lon": "-8.535770790522403",
      "lat": "37.499332978464345"
    },
    {
      "id": "pt.ine.add.PTCONT.416129",
      "street": "VALE BARDINHO",
      "house": "",
      "postcode": "7665-824",
      "city": "SABÓIA",
      "lon": "-8.54798410631661",
      "lat": "37.48294655326776"
    },
    {
      "id": "pt.ine.add.PTCONT.427280",
      "street": "FOZ DO LAVADOIRO",
      "house": "",
      "postcode": "7665-824",
      "city": "SABÓIA",
      "lon": "-8.547625733289477",
      "lat": "37.48766005262145"
    },
    {
      "id": "pt.ine.add.PTCONT.432203",
      "street": "MTE VALE JANTARES - MAL PENSADO",
      "house": "",
      "postcode": "7665-824",
      "city": "SABÓIA",
      "lon": "-8.518992557926822",
      "lat": "37.50670509969859"
    },
    {
      "id": "pt.ine.add.PTCONT.432944",
      "street": "MTE CORGO GOXO",
      "house": "",
      "postcode": "7665-824",
      "city": "SABÓIA",
      "lon": "-8.515746249514017",
      "lat": "37.502201649094786"
    }
  ]
}