{
  "data": {
    "ilha": "Ilha Terceira (Açores)",
    "concelho": "Praia da Vitória",
    "freguesia": "Porto Martins",
    "OBJECTID": 295,
    "BGRI2021": "43021100111",
    "DT21": "43",
    "DTMN21": "4302",
    "DTMNFR21": "430211",
    "DTMNFRSEC21": "430211001",
    "SECNUM21": "001",
    "SSNUM21": "11",
    "SECSSNUM21": "00111",
    "OBJECTID_1": 208601,
    "DT": "43",
    "CC": "02",
    "fr": "11",
    "SEC": "001",
    "SS": "11",
    "BGRI2021_1": "43021100111"
  },
  "addresses": [
    {
      "id": "pt.ine.add.AC26.1001",
      "street": "CAN SERRA",
      "house": "13",
      "postcode": "9760-132",
      "city": "PORTO MARTINS",
      "lon": "-27.06100539963506",
      "lat": "38.68374373631451"
    },
    {
      "id": "pt.ine.add.AC26.1002",
      "street": "CAN SERRA",
      "house": "9",
      "postcode": "9760-132",
      "city": "PORTO MARTINS",
      "lon": "-27.060154514304003",
      "lat": "38.68365405860213"
    },
    {
      "id": "pt.ine.add.AC26.1003",
      "street": "CAN SERRA",
      "house": "5",
      "postcode": "9760-132",
      "city": "PORTO MARTINS",
      "lon": "-27.059326588689807",
      "lat": "38.68351930382398"
    },
    {
      "id": "pt.ine.add.AC26.1004",
      "street": "CAN SERRA",
      "house": "1",
      "postcode": "9760-132",
      "city": "PORTO MARTINS",
      "lon": "-27.05848726416147",
      "lat": "38.68350170287928"
    },
    {
      "id": "pt.ine.add.AC26.1005",
      "street": "ESTR STA MARGARIDA",
      "house": "80",
      "postcode": "9760-129",
      "city": "PORTO MARTINS",
      "lon": "-27.05826800982945",
      "lat": "38.68251050918994"
    },
    {
      "id": "pt.ine.add.AC26.1006",
      "street": "ESTR PROF DR SOUSA JÚNIOR",
      "house": "92",
      "postcode": "9760-129",
      "city": "PORTO MARTINS",
      "lon": "-27.0592901110872",
      "lat": "38.681113158995146"
    },
    {
      "id": "pt.ine.add.AC26.1007",
      "street": "ESTR PROF DR SOUSA JUNIOR",
      "house": "94",
      "postcode": "9760-090",
      "city": "PORTO MARTINS",
      "lon": "-27.059255501157008",
      "lat": "38.68096898694106"
    },
    {
      "id": "pt.ine.add.AC26.1008",
      "street": "ESTR PROF DR SOUSA JUNIOR",
      "house": "98",
      "postcode": "9760-090",
      "city": "PORTO MARTINS",
      "lon": "-27.05932441612131",
      "lat": "38.68088784535701"
    },
    {
      "id": "pt.ine.add.AC26.1009",
      "street": "ESTR PROF DR SOUSA JUNIOR",
      "house": "102",
      "postcode": "9760-090",
      "city": "PORTO MARTINS",
      "lon": "-27.05943931877461",
      "lat": "38.68080668036857"
    },
    {
      "id": "pt.ine.add.AC26.1010",
      "street": "ESTR PROF DR SOUSA JUNIOR",
      "house": "104",
      "postcode": "9760-090",
      "city": "PORTO MARTINS",
      "lon": "-27.06055424301099",
      "lat": "38.68047266997339"
    },
    {
      "id": "pt.ine.add.AC26.1874",
      "street": "ESTR PROF DR SOUSA JUNIOR",
      "house": "112B",
      "postcode": "9760-090",
      "city": "PORTO MARTINS",
      "lon": "-27.062163326690005",
      "lat": "38.67991309105213"
    },
    {
      "id": "pt.ine.add.AC26.1875",
      "street": "ESTR PROF DR SOUSA JUNIOR",
      "house": "118",
      "postcode": "9760-090",
      "city": "PORTO MARTINS",
      "lon": "-27.062668903738597",
      "lat": "38.67958839458903"
    },
    {
      "id": "pt.ine.add.AC26.1876",
      "street": "ESTR PROF DR SOUSA JUNIOR",
      "house": "120",
      "postcode": "9760-090",
      "city": "PORTO MARTINS",
      "lon": "-27.06287579032388",
      "lat": "38.67952520058841"
    },
    {
      "id": "pt.ine.add.AC26.1877",
      "street": "CAN LUIS BORREIRO",
      "house": "126 A",
      "postcode": "9760-090",
      "city": "PORTO MARTINS",
      "lon": "-27.063588844326578",
      "lat": "38.67981319433234"
    },
    {
      "id": "pt.ine.add.AC26.1878",
      "street": "CAN LUIS BORREIRO",
      "house": "196 D",
      "postcode": "9760-090",
      "city": "PORTO MARTINS",
      "lon": "-27.06394543762206",
      "lat": "38.680029284340485"
    },
    {
      "id": "pt.ine.add.AC26.3609",
      "street": "ESTR MADRE DEUS",
      "house": "27",
      "postcode": "9760-134",
      "city": "PORTO MARTINS",
      "lon": "-27.064244693730572",
      "lat": "38.68040761807216"
    },
    {
      "id": "pt.ine.add.AC26.3610",
      "street": "ESTR MADRE DEUS",
      "house": "21C",
      "postcode": "9760-142",
      "city": "PORTO MARTINS",
      "lon": "-27.06336034648895",
      "lat": "38.68144446321355"
    },
    {
      "id": "pt.ine.add.AC26.3611",
      "street": "ESTR MADRE DEUS",
      "house": "21E",
      "postcode": "9760-142",
      "city": "PORTO MARTINS",
      "lon": "-27.062636699266527",
      "lat": "38.68221086011229"
    },
    {
      "id": "pt.ine.add.AC26.3612",
      "street": "ESTR MADRE DEUS",
      "house": "21",
      "postcode": "9760-142",
      "city": "PORTO MARTINS",
      "lon": "-27.06188991780287",
      "lat": "38.6828330751354"
    },
    {
      "id": "pt.ine.add.AC26.46041",
      "street": "ESTR PROF DR SOUSA JUNIOR",
      "house": "108",
      "postcode": "9760-090",
      "city": "PORTO MARTINS",
      "lon": "-27.061703508148998",
      "lat": "38.67997641750226"
    },
    {
      "id": "pt.ine.add.AC26.46042",
      "street": "ESTR PROF DR SOUSA JUNIOR",
      "house": "108",
      "postcode": "9760-090",
      "city": "PORTO MARTINS",
      "lon": "-27.061703508148998",
      "lat": "38.67997641750226"
    },
    {
      "id": "pt.ine.add.AC26.46043",
      "street": "ESTR PROF DR SOUSA JUNIOR",
      "house": "116",
      "postcode": "9760-090",
      "city": "PORTO MARTINS",
      "lon": "-27.062404525084787",
      "lat": "38.679642607061346"
    },
    {
      "id": "pt.ine.add.AC26.46218",
      "street": "ESTR MADRE DEUS",
      "house": "21 B",
      "postcode": "9760-142",
      "city": "PORTO MARTINS",
      "lon": "-27.063176559875977",
      "lat": "38.68163381145778"
    },
    {
      "id": "pt.ine.add.AC26.46219",
      "street": "ESTR MADRE DEUS",
      "house": "",
      "postcode": "9760-142",
      "city": "PORTO MARTINS",
      "lon": "-27.061568101930515",
      "lat": "38.68295941084416"
    },
    {
      "id": "pt.ine.add.AC26.46220",
      "street": "ESTR MADRE DEUS",
      "house": "",
      "postcode": "9760-142",
      "city": "PORTO MARTINS",
      "lon": "-27.061568101930515",
      "lat": "38.68295941084416"
    },
    {
      "id": "pt.ine.add.AC26.46221",
      "street": "ESTR MADRE DEUS",
      "house": "",
      "postcode": "9760-142",
      "city": "PORTO MARTINS",
      "lon": "-27.061568101930515",
      "lat": "38.68295941084416"
    },
    {
      "id": "pt.ine.add.AC26.46222",
      "street": "ESTR MADRE DEUS",
      "house": "17",
      "postcode": "9760-142",
      "city": "PORTO MARTINS",
      "lon": "-27.061568101930515",
      "lat": "38.68295941084416"
    },
    {
      "id": "pt.ine.add.AC26.47853",
      "street": "CAN SERRA",
      "house": "11",
      "postcode": "9760-132",
      "city": "PORTO MARTINS",
      "lon": "-27.060798430630253",
      "lat": "38.6837258203995"
    },
    {
      "id": "pt.ine.add.AC26.47990",
      "street": "CAN SERRA",
      "house": "3B",
      "postcode": "9760-132",
      "city": "PORTO MARTINS",
      "lon": "-27.05910799732688",
      "lat": "38.68334818943016"
    },
    {
      "id": "pt.ine.add.AC26.47991",
      "street": "ESTR PROF DR SOUSA JUNIOR",
      "house": "122",
      "postcode": "9760-090",
      "city": "PORTO MARTINS",
      "lon": "-27.063002183526983",
      "lat": "38.67944402590478"
    },
    {
      "id": "pt.ine.add.AC26.47992",
      "street": "CAN LUIS BORREIRO",
      "house": "126",
      "postcode": "9760-090",
      "city": "PORTO MARTINS",
      "lon": "-27.06353124878101",
      "lat": "38.67968705971177"
    },
    {
      "id": "pt.ine.add.AC26.52518",
      "street": "ESTR MADRE DEUS",
      "house": "11",
      "postcode": "9760-142",
      "city": "PORTO MARTINS",
      "lon": "-27.061142954698255",
      "lat": "38.68325702481078"
    },
    {
      "id": "pt.ine.add.AC26.56538",
      "street": "ESTR MADRE DEUS",
      "house": "23E",
      "postcode": "9760-142",
      "city": "PORTO MARTINS",
      "lon": "-27.063969121196514",
      "lat": "38.68080429052591"
    },
    {
      "id": "pt.ine.add.AC26.59439",
      "street": "CAN MADRE DEUS",
      "house": "27A",
      "postcode": "9760-142",
      "city": "PORTO MARTINS",
      "lon": "-27.06447462356921",
      "lat": "38.680398479694816"
    },
    {
      "id": "pt.ine.add.AC26.61608",
      "street": "ESTR STA MARGARIDA",
      "house": "84",
      "postcode": "9760-129",
      "city": "PORTO MARTINS",
      "lon": "-27.058761948708106",
      "lat": "38.68196955119421"
    },
    {
      "id": "pt.ine.add.AC26.61764",
      "street": "CAN LUIS BORREIRO",
      "house": "124",
      "postcode": "9760-090",
      "city": "PORTO MARTINS",
      "lon": "-27.063404680823215",
      "lat": "38.6795699743232"
    },
    {
      "id": "pt.ine.add.AC26.64103",
      "street": "CAN SERRA",
      "house": "3C",
      "postcode": "9760-132",
      "city": "PORTO MARTINS",
      "lon": "-27.059016159018604",
      "lat": "38.68351946088165"
    },
    {
      "id": "pt.ine.add.AC26.64104",
      "street": "ESTR STA MARGARIDA",
      "house": "76",
      "postcode": "9760-129",
      "city": "PORTO MARTINS",
      "lon": "-27.05818811301505",
      "lat": "38.6832314967158"
    },
    {
      "id": "pt.ine.add.AC26.64785",
      "street": "ESTR STA MARGARIDA",
      "house": "88",
      "postcode": "9760-129",
      "city": "PORTO MARTINS",
      "lon": "-27.059221611783002",
      "lat": "38.681698963890156"
    },
    {
      "id": "pt.ine.add.AC26.64786",
      "street": "ESTR PROF DR SOUSA JUNIOR",
      "house": "112",
      "postcode": "9760-090",
      "city": "PORTO MARTINS",
      "lon": "-27.062002262388333",
      "lat": "38.67978701062826"
    },
    {
      "id": "pt.ine.add.AC26.65006",
      "street": "ESTR MADRE DEUS",
      "house": "9",
      "postcode": "9760-142",
      "city": "PORTO MARTINS",
      "lon": "-27.061131695026706",
      "lat": "38.683536397920534"
    },
    {
      "id": "pt.ine.add.AC26.67529",
      "street": "ESTR MADRE DEUS",
      "house": "23",
      "postcode": "9760-142",
      "city": "PORTO MARTINS",
      "lon": "-27.06354413213367",
      "lat": "38.68125511467518"
    },
    {
      "id": "pt.ine.add.AC26.71752",
      "street": "ESTR STA MARGARIDA",
      "house": "86",
      "postcode": "9760-129",
      "city": "PORTO MARTINS",
      "lon": "-27.058888254850014",
      "lat": "38.681771227001924"
    },
    {
      "id": "pt.ine.add.AC26.71753",
      "street": "ESTR PROF DR SOUSA JUNIOR",
      "house": "124",
      "postcode": "9760-090",
      "city": "PORTO MARTINS",
      "lon": "-27.063071124434718",
      "lat": "38.67939892948775"
    },
    {
      "id": "pt.ine.add.AC26.72676",
      "street": "ESTR PROF DR SOUSA JUNIOR",
      "house": "112 C",
      "postcode": "9760-090",
      "city": "PORTO MARTINS",
      "lon": "-27.06273803381546",
      "lat": "38.67975958270776"
    },
    {
      "id": "pt.ine.add.AC26.74835",
      "street": "CAN SERRA",
      "house": "3",
      "postcode": "9760-132",
      "city": "PORTO MARTINS",
      "lon": "-27.058648257079575",
      "lat": "38.68353766964133"
    },
    {
      "id": "pt.ine.add.AC26.74836",
      "street": "ESTR STA MARGARIDA",
      "house": "82",
      "postcode": "9760-129",
      "city": "PORTO MARTINS",
      "lon": "-27.058601194429",
      "lat": "38.68222196359633"
    },
    {
      "id": "pt.ine.add.AC26.74837",
      "street": "ESTR PROF DR SOUSA JUNIOR",
      "house": "106",
      "postcode": "9760-090",
      "city": "PORTO MARTINS",
      "lon": "-27.061473594719157",
      "lat": "38.68000357412587"
    },
    {
      "id": "pt.ine.add.AC26.77391",
      "street": "ESTR MADRE DEUS",
      "house": "",
      "postcode": "9760-142",
      "city": "PORTO MARTINS",
      "lon": "-27.062969785945945",
      "lat": "38.68183218363445"
    },
    {
      "id": "pt.ine.add.AC26.81222",
      "street": "CAN SERRA",
      "house": "5",
      "postcode": "9760-132",
      "city": "PORTO MARTINS",
      "lon": "-27.059326588689807",
      "lat": "38.68351930382398"
    },
    {
      "id": "pt.ine.add.AC26.85188",
      "street": "ESTR MADRE DEUS",
      "house": "17",
      "postcode": "9760-142",
      "city": "PORTO MARTINS",
      "lon": "-27.061568101930515",
      "lat": "38.68295941084416"
    },
    {
      "id": "pt.ine.add.AC26.85393",
      "street": "ESTR PROF DR SOUSA JUNIOR",
      "house": "114",
      "postcode": "9760-090",
      "city": "PORTO MARTINS",
      "lon": "-27.062278083997327",
      "lat": "38.67966971001254"
    },
    {
      "id": "pt.ine.add.AC26.85879",
      "street": "ESTR MADRE DEUS",
      "house": "ZSA",
      "postcode": "9760-142",
      "city": "PORTO MARTINS",
      "lon": "-27.06360081170335",
      "lat": "38.680344887031914"
    },
    {
      "id": "pt.ine.add.AC26.87386",
      "street": "ESTR PROF DR SOUSA JUNIOR",
      "house": "",
      "postcode": "9760-090",
      "city": "PORTO MARTINS",
      "lon": "-27.059014256851306",
      "lat": "38.68120341700666"
    },
    {
      "id": "pt.ine.add.AC26.89092",
      "street": "ESTR PROF DR SOUSA JÚNIOR",
      "house": "110",
      "postcode": "9760-090",
      "city": "PORTO MARTINS",
      "lon": "-27.061898876597294",
      "lat": "38.6798861957555"
    },
    {
      "id": "pt.ine.add.AC26.95049",
      "street": "ESTR MADRE DE DEUS",
      "house": "",
      "postcode": "9760-116",
      "city": "CABO DA PRAIA",
      "lon": "-27.06295722292017",
      "lat": "38.68061559075338"
    },
    {
      "id": "pt.ine.add.AC26.95050",
      "street": "ESTR MADRE DE DEUS",
      "house": "11",
      "postcode": "9760-142",
      "city": "PORTO MARTINS",
      "lon": "-27.06295722292017",
      "lat": "38.68061559075338"
    },
    {
      "id": "pt.ine.add.AC26.95051",
      "street": "ESTR MADRE DE DEUS",
      "house": "21 C",
      "postcode": "9760-142",
      "city": "PORTO MARTINS",
      "lon": "-27.06295722292017",
      "lat": "38.68061559075338"
    },
    {
      "id": "pt.ine.add.AC26.95055",
      "street": "ESTR MADRE DE DEUS",
      "house": "",
      "postcode": "9760-131",
      "city": "CABO DA PRAIA",
      "lon": "-27.06295722292017",
      "lat": "38.68061559075338"
    },
    {
      "id": "pt.ine.add.AC26.95056",
      "street": "ESTR MADRE DE DEUS",
      "house": "21 B",
      "postcode": "9760-110",
      "city": "CABO DA PRAIA",
      "lon": "-27.06295722292017",
      "lat": "38.68061559075338"
    },
    {
      "id": "pt.ine.add.AC26.95299",
      "street": "ESTR MADRE DE DEUS",
      "house": "",
      "postcode": "9760-116",
      "city": "CABO DA PRAIA",
      "lon": "-27.06295722292017",
      "lat": "38.68061559075338"
    },
    {
      "id": "pt.ine.add.AC26.97298",
      "street": "ESTR MADRE DE DEUS",
      "house": "23",
      "postcode": "9760-102",
      "city": "CABO DA PRAIA",
      "lon": "-27.06295722292017",
      "lat": "38.68061559075338"
    },
    {
      "id": "pt.ine.add.AC26.97299",
      "street": "ESTR MADRE DE DEUS",
      "house": "",
      "postcode": "9760-131",
      "city": "CABO DA PRAIA",
      "lon": "-27.06295722292017",
      "lat": "38.68061559075338"
    },
    {
      "id": "pt.ine.add.AC26.99097",
      "street": "ESTR STA MARGARIDA",
      "house": "78",
      "postcode": "9760-129",
      "city": "PORTO MARTINS",
      "lon": "-27.058199143211585",
      "lat": "38.682654733036294"
    },
    {
      "id": "pt.ine.add.AC26.101771",
      "street": "ESTR MADRE DEUS",
      "house": "25",
      "postcode": "9760-142",
      "city": "PORTO MARTINS",
      "lon": "-27.064026373141637",
      "lat": "38.68054291554733"
    },
    {
      "id": "pt.ine.add.AC26.103123",
      "street": "ESTR PROF DR SOUSA JUNIOR",
      "house": "112 A",
      "postcode": "9760-090",
      "city": "PORTO MARTINS",
      "lon": "-27.062393223919134",
      "lat": "38.679867909378416"
    },
    {
      "id": "pt.ine.add.AC26.103935",
      "street": "ESTR MADRE DEUS",
      "house": "17",
      "postcode": "9760-142",
      "city": "PORTO MARTINS",
      "lon": "-27.061568101930515",
      "lat": "38.68295941084416"
    },
    {
      "id": "pt.ine.add.AC26.104241",
      "street": "ESTR PROF DR SOUSA JUNIOR",
      "house": "106",
      "postcode": "9760-090",
      "city": "PORTO MARTINS",
      "lon": "-27.061473594719157",
      "lat": "38.68000357412587"
    },
    {
      "id": "pt.ine.add.AC26.104445",
      "street": "CAN SERRA",
      "house": "7",
      "postcode": "9760-132",
      "city": "PORTO MARTINS",
      "lon": "-27.059867063871398",
      "lat": "38.68363618240585"
    }
  ]
}