{
  "data": {
    "distrito": "Faro",
    "concelho": "Albufeira",
    "freguesia": "Albufeira e Olhos de Água",
    "OBJECTID": 229,
    "BGRI2021": "08010604803",
    "DT21": "08",
    "DTMN21": "0801",
    "DTMNFR21": "080106",
    "DTMNFRSEC21": "080106048",
    "SECNUM21": "048",
    "SSNUM21": "03",
    "SECSSNUM21": "04803",
    "OBJECTID_1": 64313,
    "DT": "08",
    "CC": "01",
    "fr": "06",
    "SEC": "048",
    "SS": "03"
  },
  "addresses": [
    {
      "id": "pt.ine.add.PTCONT.1469362",
      "street": "BREJOS",
      "house": "",
      "postcode": "8200-317",
      "city": "ALBUFEIRA",
      "lon": "-8.235528210013639",
      "lat": "37.105122882857785"
    },
    {
      "id": "pt.ine.add.PTCONT.1477959",
      "street": "VILLA ALOHA",
      "house": "17",
      "postcode": "8200-317",
      "city": "ALBUFEIRA",
      "lon": "-8.236090001000248",
      "lat": "37.10459977798361"
    },
    {
      "id": "pt.ine.add.PTCONT.1484798",
      "street": "BREJOS",
      "house": "",
      "postcode": "8200-317",
      "city": "ALBUFEIRA",
      "lon": "-8.2363716030306",
      "lat": "37.10486084223905"
    },
    {
      "id": "pt.ine.add.PTCONT.1492717",
      "street": "BREJOS",
      "house": "",
      "postcode": "8200-317",
      "city": "ALBUFEIRA",
      "lon": "-8.236236432837487",
      "lat": "37.10473481062972"
    },
    {
      "id": "pt.ine.add.PTCONT.1492718",
      "street": "BREJOS",
      "house": "",
      "postcode": "8200-317",
      "city": "ALBUFEIRA",
      "lon": "-8.236236432837487",
      "lat": "37.10473481062972"
    },
    {
      "id": "pt.ine.add.PTCONT.1495597",
      "street": "R ILHA DE S TOMÉ",
      "house": "",
      "postcode": "8200-317",
      "city": "ALBUFEIRA",
      "lon": "-8.235877555581444",
      "lat": "37.10556410291927"
    },
    {
      "id": "pt.ine.add.PTCONT.1504440",
      "street": "R GOLFE",
      "house": "56",
      "postcode": "8200-047",
      "city": "ALBUFEIRA",
      "lon": "-8.236055617226278",
      "lat": "37.10413125346324"
    },
    {
      "id": "pt.ine.add.PTCONT.1512752",
      "street": "R BREJOS",
      "house": "",
      "postcode": "8200-101",
      "city": "ALBUFEIRA",
      "lon": "-8.236032837180044",
      "lat": "37.10392402802128"
    },
    {
      "id": "pt.ine.add.PTCONT.1519772",
      "street": "R DO GOLFE",
      "house": "A55 A",
      "postcode": "8200-047",
      "city": "ALBUFEIRA",
      "lon": "-8.235920862908666",
      "lat": "37.10431158360468"
    },
    {
      "id": "pt.ine.add.PTCONT.1523954",
      "street": "R DO GOLFE",
      "house": "A57 B",
      "postcode": "8200-047",
      "city": "ALBUFEIRA",
      "lon": "-8.236033202919403",
      "lat": "37.1041943475507"
    },
    {
      "id": "pt.ine.add.PTCONT.1527269",
      "street": "BREJOS",
      "house": "L6",
      "postcode": "8200-317",
      "city": "ALBUFEIRA",
      "lon": "-8.235685405829853",
      "lat": "37.10489748047304"
    },
    {
      "id": "pt.ine.add.PTCONT.1544863",
      "street": "BREJOS",
      "house": "",
      "postcode": "8200-317",
      "city": "ALBUFEIRA",
      "lon": "-8.2357198363006",
      "lat": "37.10540204763922"
    },
    {
      "id": "pt.ine.add.PTCONT.1553810",
      "street": "R DO GOLFE",
      "house": "A57 A",
      "postcode": "8200-047",
      "city": "ALBUFEIRA",
      "lon": "-8.235965764840879",
      "lat": "37.10423945937411"
    },
    {
      "id": "pt.ine.add.PTCONT.1580203",
      "street": "R DO GOLFE",
      "house": "A55 B",
      "postcode": "8200-047",
      "city": "ALBUFEIRA",
      "lon": "-8.236257918556358",
      "lat": "37.10398690707121"
    },
    {
      "id": "pt.ine.add.PTCONT.1594220",
      "street": "BREJOS",
      "house": "",
      "postcode": "8200-317",
      "city": "ALBUFEIRA",
      "lon": "-8.235528416258168",
      "lat": "37.10527606389736"
    },
    {
      "id": "pt.ine.add.PTCONT.1594221",
      "street": "BREJOS",
      "house": "",
      "postcode": "8200-317",
      "city": "ALBUFEIRA",
      "lon": "-8.235618064062733",
      "lat": "37.10501467729212"
    },
    {
      "id": "pt.ine.add.PTCONT.1603722",
      "street": "R ILHA DE S TOMÉ",
      "house": "",
      "postcode": "8200-047",
      "city": "ALBUFEIRA",
      "lon": "-8.235405017745187",
      "lat": "37.1055374795455"
    },
    {
      "id": "pt.ine.add.PTCONT.1607043",
      "street": "CASA MARIA",
      "house": "11",
      "postcode": "8200-317",
      "city": "ALBUFEIRA",
      "lon": "-8.235843355205672",
      "lat": "37.10523073815263"
    },
    {
      "id": "pt.ine.add.PTCONT.1620315",
      "street": "R DO GOLFE",
      "house": "A58 B",
      "postcode": "8200-047",
      "city": "ALBUFEIRA",
      "lon": "-8.235853436829776",
      "lat": "37.104365706014136"
    },
    {
      "id": "pt.ine.add.PTCONT.1625457",
      "street": "R BREJOS",
      "house": "",
      "postcode": "8200-101",
      "city": "ALBUFEIRA",
      "lon": "-8.235898095349635",
      "lat": "37.10411336879362"
    },
    {
      "id": "pt.ine.add.PTCONT.1625458",
      "street": "VILLA BREJOS",
      "house": "5",
      "postcode": "8200-317",
      "city": "ALBUFEIRA",
      "lon": "-8.235786497147789",
      "lat": "37.10478025439394"
    },
    {
      "id": "pt.ine.add.PTCONT.1637799",
      "street": "R BREJOS",
      "house": "1",
      "postcode": "8200-101",
      "city": "ALBUFEIRA",
      "lon": "-8.235516353517676",
      "lat": "37.10467236008188"
    },
    {
      "id": "pt.ine.add.PTCONT.1643544",
      "street": "R BREJOS",
      "house": "",
      "postcode": "8200-101",
      "city": "ALBUFEIRA",
      "lon": "-8.235325492608265",
      "lat": "37.10496086589835"
    },
    {
      "id": "pt.ine.add.PTCONT.1658394",
      "street": "R BREJOS",
      "house": "",
      "postcode": "8200-047",
      "city": "ALBUFEIRA",
      "lon": "-8.235796992924266",
      "lat": "37.10422158432866"
    },
    {
      "id": "pt.ine.add.PTCONT.1662862",
      "street": "R ILHA DE S TOMÉ",
      "house": "",
      "postcode": "8200-047",
      "city": "ALBUFEIRA",
      "lon": "-8.236259775742813",
      "lat": "37.105356525868736"
    },
    {
      "id": "pt.ine.add.PTCONT.1669913",
      "street": "TV BREJOS",
      "house": "",
      "postcode": "8200-101",
      "city": "ALBUFEIRA",
      "lon": "-8.235987923311018",
      "lat": "37.103987141629624"
    },
    {
      "id": "pt.ine.add.PTCONT.1675049",
      "street": "R ILHA DE S TOMÉ",
      "house": "",
      "postcode": "8200-047",
      "city": "ALBUFEIRA",
      "lon": "-8.235157311552676",
      "lat": "37.1053845117737"
    },
    {
      "id": "pt.ine.add.PTCONT.1706622",
      "street": "R ILHA DE S TOMÉ",
      "house": "",
      "postcode": "8200-047",
      "city": "ALBUFEIRA",
      "lon": "-8.235618926199605",
      "lat": "37.105654433382135"
    },
    {
      "id": "pt.ine.add.PTCONT.1712510",
      "street": "R BREJOS",
      "house": "",
      "postcode": "8200-101",
      "city": "ALBUFEIRA",
      "lon": "-8.235853156917171",
      "lat": "37.10415846104752"
    },
    {
      "id": "pt.ine.add.PTCONT.1723809",
      "street": "R ILHA SANTIAGO A",
      "house": "A 56 D",
      "postcode": "8200-317",
      "city": "ALBUFEIRA",
      "lon": "-8.236111805339073",
      "lat": "37.10408615136092"
    },
    {
      "id": "pt.ine.add.PTCONT.1733817",
      "street": "BREJOS",
      "house": "",
      "postcode": "8200-317",
      "city": "ALBUFEIRA",
      "lon": "-8.23600041624281",
      "lat": "37.10490621820943"
    },
    {
      "id": "pt.ine.add.PTCONT.1738107",
      "street": "R BREJOS",
      "house": "",
      "postcode": "8200-101",
      "city": "ALBUFEIRA",
      "lon": "-8.235931735197626",
      "lat": "37.104032243674006"
    },
    {
      "id": "pt.ine.add.PTCONT.1741485",
      "street": "R BREJOS",
      "house": "A55 D",
      "postcode": "8200-101",
      "city": "ALBUFEIRA",
      "lon": "-8.236100287138719",
      "lat": "37.10388792680905"
    },
    {
      "id": "pt.ine.add.PTCONT.1750486",
      "street": "R BREJOS",
      "house": "",
      "postcode": "8200-101",
      "city": "ALBUFEIRA",
      "lon": "-8.235740804524626",
      "lat": "37.10426668628122"
    },
    {
      "id": "pt.ine.add.PTCONT.1753200",
      "street": "BREJOS",
      "house": "",
      "postcode": "8200-317",
      "city": "ALBUFEIRA",
      "lon": "-8.23579738215668",
      "lat": "37.10450992514725"
    },
    {
      "id": "pt.ine.add.PTCONT.1805853",
      "street": "R DO GOLFE",
      "house": "A55 A",
      "postcode": "8200-047",
      "city": "ALBUFEIRA",
      "lon": "-8.236179230986481",
      "lat": "37.10403202880265"
    },
    {
      "id": "pt.ine.add.PTCONT.1827537",
      "street": "R BREJOS",
      "house": "",
      "postcode": "8200-101",
      "city": "ALBUFEIRA",
      "lon": "-8.235235698692458",
      "lat": "37.10511412449198"
    },
    {
      "id": "pt.ine.add.PTCONT.1831218",
      "street": "R BREJOS",
      "house": "",
      "postcode": "8200-047",
      "city": "ALBUFEIRA",
      "lon": "-8.235381548506796",
      "lat": "37.104816646997435"
    },
    {
      "id": "pt.ine.add.PTCONT.1847804",
      "street": "BREJOS",
      "house": "",
      "postcode": "8200-317",
      "city": "ALBUFEIRA",
      "lon": "-8.236236750447647",
      "lat": "37.10496908752231"
    }
  ]
}