{
  "data": {
    "distrito": "Faro",
    "concelho": "Albufeira",
    "freguesia": "Albufeira e Olhos de Água",
    "OBJECTID": 582,
    "BGRI2021": "08010604807",
    "DT21": "08",
    "DTMN21": "0801",
    "DTMNFR21": "080106",
    "DTMNFRSEC21": "080106048",
    "SECNUM21": "048",
    "SSNUM21": "07",
    "SECSSNUM21": "04807",
    "OBJECTID_1": 64393,
    "DT": "08",
    "CC": "01",
    "fr": "06",
    "SEC": "048",
    "SS": "07"
  },
  "addresses": [
    {
      "id": "pt.ine.add.PTCONT.1469358",
      "street": "ESTR BREJOS",
      "house": "",
      "postcode": "8200-317",
      "city": "ALBUFEIRA",
      "lon": "-8.231075205852905",
      "lat": "37.10666746821421"
    },
    {
      "id": "pt.ine.add.PTCONT.1472151",
      "street": "SIT BREJOS",
      "house": "",
      "postcode": "8200-317",
      "city": "ALBUFEIRA",
      "lon": "-8.232776158467496",
      "lat": "37.10832401149269"
    },
    {
      "id": "pt.ine.add.PTCONT.1472152",
      "street": "SIT BREJOS",
      "house": "252",
      "postcode": "8200-317",
      "city": "ALBUFEIRA",
      "lon": "-8.232776158467496",
      "lat": "37.10832401149269"
    },
    {
      "id": "pt.ine.add.PTCONT.1478459",
      "street": "SIT BREJOS",
      "house": "M",
      "postcode": "8200-317",
      "city": "ALBUFEIRA",
      "lon": "-8.23215812326878",
      "lat": "37.10889220063919"
    },
    {
      "id": "pt.ine.add.PTCONT.1484797",
      "street": "R POCO AREIA B",
      "house": "B",
      "postcode": "8200-317",
      "city": "ALBUFEIRA",
      "lon": "-8.231986015232698",
      "lat": "37.106315296534206"
    },
    {
      "id": "pt.ine.add.PTCONT.1486878",
      "street": "CAM BREJOS URB PÁTIO DA TORRE",
      "house": "C-D-E-F",
      "postcode": "8200-317",
      "city": "ALBUFEIRA",
      "lon": "-8.232619383153926",
      "lat": "37.10888280377231"
    },
    {
      "id": "pt.ine.add.PTCONT.1486879",
      "street": "CAM BREJOS URB PÁTIO DA TORRE",
      "house": "C-D-E-F",
      "postcode": "8200-317",
      "city": "ALBUFEIRA",
      "lon": "-8.232619383153926",
      "lat": "37.10888280377231"
    },
    {
      "id": "pt.ine.add.PTCONT.1489183",
      "street": "CAM BREJOS URB PÁTIO DA TORRE",
      "house": "C-D-E-F",
      "postcode": "8200-317",
      "city": "ALBUFEIRA",
      "lon": "-8.232619383153926",
      "lat": "37.10888280377231"
    },
    {
      "id": "pt.ine.add.PTCONT.1489533",
      "street": "CAM BREJOS CONDOMÍNIO URBANIZAÇÃO PÁTIO DA TORRE",
      "house": "",
      "postcode": "8200-317",
      "city": "ALBUFEIRA",
      "lon": "-8.232619383153926",
      "lat": "37.10888280377231"
    },
    {
      "id": "pt.ine.add.PTCONT.1495577",
      "street": "SIT BREJOS",
      "house": "",
      "postcode": "8200-317",
      "city": "ALBUFEIRA",
      "lon": "-8.23138121973178",
      "lat": "37.10841528237269"
    },
    {
      "id": "pt.ine.add.PTCONT.1495578",
      "street": "SIT BREJOS",
      "house": "2",
      "postcode": "8200-317",
      "city": "ALBUFEIRA",
      "lon": "-8.232393808021008",
      "lat": "37.10845048143877"
    },
    {
      "id": "pt.ine.add.PTCONT.1524274",
      "street": "ESTR VALE PEDRAS",
      "house": "",
      "postcode": "8200-317",
      "city": "ALBUFEIRA",
      "lon": "-8.231162733400073",
      "lat": "37.10474812540964"
    },
    {
      "id": "pt.ine.add.PTCONT.1527268",
      "street": "R ILHA DE S TOMÉ",
      "house": "13",
      "postcode": "8200-047",
      "city": "ALBUFEIRA",
      "lon": "-8.234865329625652",
      "lat": "37.10577222105088"
    },
    {
      "id": "pt.ine.add.PTCONT.1530058",
      "street": "CAM BREJOS",
      "house": "Q",
      "postcode": "8200-317",
      "city": "ALBUFEIRA",
      "lon": "-8.231977857122043",
      "lat": "37.10869411668563"
    },
    {
      "id": "pt.ine.add.PTCONT.1536221",
      "street": "SIT BREJOS",
      "house": "",
      "postcode": "8200-317",
      "city": "ALBUFEIRA",
      "lon": "-8.232045207747131",
      "lat": "37.108576921993716"
    },
    {
      "id": "pt.ine.add.PTCONT.1544840",
      "street": "ESTR BREJOS",
      "house": "",
      "postcode": "8200-317",
      "city": "ALBUFEIRA",
      "lon": "-8.231221853620651",
      "lat": "37.10697370932528"
    },
    {
      "id": "pt.ine.add.PTCONT.1544841",
      "street": "ESTR BREJOS",
      "house": "",
      "postcode": "8200-317",
      "city": "ALBUFEIRA",
      "lon": "-8.231221853620651",
      "lat": "37.10697370932528"
    },
    {
      "id": "pt.ine.add.PTCONT.1544842",
      "street": "ESTR BREJOS",
      "house": "",
      "postcode": "8200-317",
      "city": "ALBUFEIRA",
      "lon": "-8.231221853620651",
      "lat": "37.10697370932528"
    },
    {
      "id": "pt.ine.add.PTCONT.1544843",
      "street": "ESTR BREJOS D",
      "house": "D",
      "postcode": "8200-317",
      "city": "ALBUFEIRA",
      "lon": "-8.231221853620651",
      "lat": "37.10697370932528"
    },
    {
      "id": "pt.ine.add.PTCONT.1544844",
      "street": "ESTR BREJOS",
      "house": "LETRA E",
      "postcode": "8200-317",
      "city": "ALBUFEIRA",
      "lon": "-8.231221853620651",
      "lat": "37.10697370932528"
    },
    {
      "id": "pt.ine.add.PTCONT.1544845",
      "street": "ESTR BREJOS G",
      "house": "G",
      "postcode": "8200-317",
      "city": "ALBUFEIRA",
      "lon": "-8.231221853620651",
      "lat": "37.10697370932528"
    },
    {
      "id": "pt.ine.add.PTCONT.1544846",
      "street": "ESTR BREJOS H",
      "house": "H",
      "postcode": "8200-317",
      "city": "ALBUFEIRA",
      "lon": "-8.231221853620651",
      "lat": "37.10697370932528"
    },
    {
      "id": "pt.ine.add.PTCONT.1544847",
      "street": "ESTR BREJOS",
      "house": "",
      "postcode": "8200-317",
      "city": "ALBUFEIRA",
      "lon": "-8.231221853620651",
      "lat": "37.10697370932528"
    },
    {
      "id": "pt.ine.add.PTCONT.1544848",
      "street": "ESTR BREJOS",
      "house": "",
      "postcode": "8200-317",
      "city": "ALBUFEIRA",
      "lon": "-8.231221853620651",
      "lat": "37.10697370932528"
    },
    {
      "id": "pt.ine.add.PTCONT.1544849",
      "street": "ESTR BREJOS",
      "house": "",
      "postcode": "8200-317",
      "city": "ALBUFEIRA",
      "lon": "-8.231221853620651",
      "lat": "37.10697370932528"
    },
    {
      "id": "pt.ine.add.PTCONT.1544850",
      "street": "ESTR BREJOS",
      "house": "",
      "postcode": "8200-317",
      "city": "ALBUFEIRA",
      "lon": "-8.231221853620651",
      "lat": "37.10697370932528"
    },
    {
      "id": "pt.ine.add.PTCONT.1544851",
      "street": "ESTR BREJOS",
      "house": "",
      "postcode": "8200-317",
      "city": "ALBUFEIRA",
      "lon": "-8.231221853620651",
      "lat": "37.10697370932528"
    },
    {
      "id": "pt.ine.add.PTCONT.1544852",
      "street": "ESTR BREJOS",
      "house": "",
      "postcode": "8200-317",
      "city": "ALBUFEIRA",
      "lon": "-8.231221853620651",
      "lat": "37.10697370932528"
    },
    {
      "id": "pt.ine.add.PTCONT.1544853",
      "street": "ESTR BREJOS",
      "house": "",
      "postcode": "8200-317",
      "city": "ALBUFEIRA",
      "lon": "-8.231221853620651",
      "lat": "37.10697370932528"
    },
    {
      "id": "pt.ine.add.PTCONT.1544854",
      "street": "ESTR BREJOS",
      "house": "",
      "postcode": "8200-317",
      "city": "ALBUFEIRA",
      "lon": "-8.231221853620651",
      "lat": "37.10697370932528"
    },
    {
      "id": "pt.ine.add.PTCONT.1544857",
      "street": "ESTR BREJOS",
      "house": "",
      "postcode": "8200-317",
      "city": "ALBUFEIRA",
      "lon": "-8.231221853620651",
      "lat": "37.10697370932528"
    },
    {
      "id": "pt.ine.add.PTCONT.1544858",
      "street": "ESTR BREJOS",
      "house": "",
      "postcode": "8200-317",
      "city": "ALBUFEIRA",
      "lon": "-8.231221853620651",
      "lat": "37.10697370932528"
    },
    {
      "id": "pt.ine.add.PTCONT.1544859",
      "street": "ESTR BREJOS U",
      "house": "U",
      "postcode": "8200-317",
      "city": "ALBUFEIRA",
      "lon": "-8.231221853620651",
      "lat": "37.10697370932528"
    },
    {
      "id": "pt.ine.add.PTCONT.1544860",
      "street": "ESTR BREJOS",
      "house": "",
      "postcode": "8200-317",
      "city": "ALBUFEIRA",
      "lon": "-8.231221853620651",
      "lat": "37.10697370932528"
    },
    {
      "id": "pt.ine.add.PTCONT.1544861",
      "street": "ESTR BREJOS",
      "house": "",
      "postcode": "8200-317",
      "city": "ALBUFEIRA",
      "lon": "-8.231221853620651",
      "lat": "37.10697370932528"
    },
    {
      "id": "pt.ine.add.PTCONT.1546907",
      "street": "ESTR BREJOS S",
      "house": "S",
      "postcode": "8200-317",
      "city": "ALBUFEIRA",
      "lon": "-8.231221853620651",
      "lat": "37.10697370932528"
    },
    {
      "id": "pt.ine.add.PTCONT.1550675",
      "street": "R POÇO DA AREIA",
      "house": "C",
      "postcode": "8200-317",
      "city": "ALBUFEIRA",
      "lon": "-8.232064813155144",
      "lat": "37.10635127343348"
    },
    {
      "id": "pt.ine.add.PTCONT.1558802",
      "street": "SIT BREJOS",
      "house": "",
      "postcode": "8200-317",
      "city": "ALBUFEIRA",
      "lon": "-8.232236900457321",
      "lat": "37.10891015611517"
    },
    {
      "id": "pt.ine.add.PTCONT.1568156",
      "street": "SIT BREJOS",
      "house": "",
      "postcode": "8200-317",
      "city": "ALBUFEIRA",
      "lon": "-8.232000276111865",
      "lat": "37.10863102340582"
    },
    {
      "id": "pt.ine.add.PTCONT.1578234",
      "street": "R POÇO DA AREIA VILLA FLOR",
      "house": "7ZOY",
      "postcode": "8200-317",
      "city": "ALBUFEIRA",
      "lon": "-8.231378612020393",
      "lat": "37.10639689740648"
    },
    {
      "id": "pt.ine.add.PTCONT.1580202",
      "street": "ESTR BREJOS LASA DAS MACAS",
      "house": "745Y",
      "postcode": "8200-317",
      "city": "ALBUFEIRA",
      "lon": "-8.231017412298003",
      "lat": "37.105469098317904"
    },
    {
      "id": "pt.ine.add.PTCONT.1582156",
      "street": "URB CONDOMÍNIO PÁTEO DA TORRE",
      "house": "",
      "postcode": "8200-317",
      "city": "ALBUFEIRA",
      "lon": "-8.232079369567433",
      "lat": "37.10889226640025"
    },
    {
      "id": "pt.ine.add.PTCONT.1591567",
      "street": "SIT BREJOS",
      "house": "",
      "postcode": "8200-317",
      "city": "ALBUFEIRA",
      "lon": "-8.232934303302788",
      "lat": "37.108810453823224"
    },
    {
      "id": "pt.ine.add.PTCONT.1597454",
      "street": "R BREJOS",
      "house": "",
      "postcode": "8200-317",
      "city": "ALBUFEIRA",
      "lon": "-8.233485233744842",
      "lat": "37.10854867972845"
    },
    {
      "id": "pt.ine.add.PTCONT.1599590",
      "street": "R BREJOS",
      "house": "",
      "postcode": "8200-317",
      "city": "ALBUFEIRA",
      "lon": "-8.233485233744842",
      "lat": "37.10854867972845"
    },
    {
      "id": "pt.ine.add.PTCONT.1627473",
      "street": "SIT BREJOS",
      "house": "",
      "postcode": "8200-317",
      "city": "ALBUFEIRA",
      "lon": "-8.232741840578479",
      "lat": "37.10789152886288"
    },
    {
      "id": "pt.ine.add.PTCONT.1639948",
      "street": "ESTR DOS BREJOS",
      "house": "CP 730Y",
      "postcode": "8200-317",
      "city": "ALBUFEIRA",
      "lon": "-8.230826555467416",
      "lat": "37.10577561818148"
    },
    {
      "id": "pt.ine.add.PTCONT.1640884",
      "street": "SIT BREJOS",
      "house": "",
      "postcode": "8200-317",
      "city": "ALBUFEIRA",
      "lon": "-8.232911648563103",
      "lat": "37.10869333438355"
    },
    {
      "id": "pt.ine.add.PTCONT.1643542",
      "street": "SIT BREJOS",
      "house": "",
      "postcode": "8200-317",
      "city": "ALBUFEIRA",
      "lon": "-8.232765663619787",
      "lat": "37.108900702226016"
    },
    {
      "id": "pt.ine.add.PTCONT.1649631",
      "street": "ESTR VALE PEDRAS RESTAURANTE LIMA",
      "house": "",
      "postcode": "8200-317",
      "city": "ALBUFEIRA",
      "lon": "-8.231342708785874",
      "lat": "37.10472995512505"
    },
    {
      "id": "pt.ine.add.PTCONT.1666213",
      "street": "R POÇO DA AREIA",
      "house": "",
      "postcode": "8200-317",
      "city": "ALBUFEIRA",
      "lon": "-8.231232511048931",
      "lat": "37.10651415695666"
    },
    {
      "id": "pt.ine.add.PTCONT.1669908",
      "street": "R POÇO DA AREIA",
      "house": "",
      "postcode": "8200-317",
      "city": "ALBUFEIRA",
      "lon": "-8.231862544367596",
      "lat": "37.10653165522868"
    },
    {
      "id": "pt.ine.add.PTCONT.1669909",
      "street": "R POÇO DA AREIA",
      "house": "",
      "postcode": "8200-317",
      "city": "ALBUFEIRA",
      "lon": "-8.231862544367596",
      "lat": "37.10653165522868"
    },
    {
      "id": "pt.ine.add.PTCONT.1669910",
      "street": "R POÇO DA AREIA",
      "house": "",
      "postcode": "8200-317",
      "city": "ALBUFEIRA",
      "lon": "-8.231862544367596",
      "lat": "37.10653165522868"
    },
    {
      "id": "pt.ine.add.PTCONT.1669911",
      "street": "R POÇO DA AREIA",
      "house": "",
      "postcode": "8200-317",
      "city": "ALBUFEIRA",
      "lon": "-8.231862544367596",
      "lat": "37.10653165522868"
    },
    {
      "id": "pt.ine.add.PTCONT.1678444",
      "street": "SIT BREJOS",
      "house": "",
      "postcode": "8200-317",
      "city": "ALBUFEIRA",
      "lon": "-8.231571369391734",
      "lat": "37.10755911231222"
    },
    {
      "id": "pt.ine.add.PTCONT.1678445",
      "street": "SIT BREJOS",
      "house": "715Y",
      "postcode": "8200-317",
      "city": "ALBUFEIRA",
      "lon": "-8.231571369391734",
      "lat": "37.10755911231222"
    },
    {
      "id": "pt.ine.add.PTCONT.1678446",
      "street": "BC ILHA S TOME D",
      "house": "D 18",
      "postcode": "8200-317",
      "city": "ALBUFEIRA",
      "lon": "-8.23580010693871",
      "lat": "37.106528310483625"
    },
    {
      "id": "pt.ine.add.PTCONT.1692322",
      "street": "SIT BREJOS",
      "house": "",
      "postcode": "8200-317",
      "city": "ALBUFEIRA",
      "lon": "-8.231966688603972",
      "lat": "37.108757200581124"
    },
    {
      "id": "pt.ine.add.PTCONT.1695373",
      "street": "BC ILHA DE S TOMÉ",
      "house": "",
      "postcode": "8200-317",
      "city": "ALBUFEIRA",
      "lon": "-8.23608167853619",
      "lat": "37.106762343392575"
    },
    {
      "id": "pt.ine.add.PTCONT.1697321",
      "street": "SIT BREJOS",
      "house": "U",
      "postcode": "8200-317",
      "city": "ALBUFEIRA",
      "lon": "-8.232157513087603",
      "lat": "37.10842364709648"
    },
    {
      "id": "pt.ine.add.PTCONT.1697409",
      "street": "SIT BREJOS",
      "house": "L5",
      "postcode": "8200-317",
      "city": "ALBUFEIRA",
      "lon": "-8.232212779177488",
      "lat": "37.10766670583151"
    },
    {
      "id": "pt.ine.add.PTCONT.1701159",
      "street": "R BREJOS",
      "house": "",
      "postcode": "8200-101",
      "city": "ALBUFEIRA",
      "lon": "-8.232257980244498",
      "lat": "37.1078198491997"
    },
    {
      "id": "pt.ine.add.PTCONT.1703727",
      "street": "R ILHA DE S TOMÉ",
      "house": "",
      "postcode": "8200-047",
      "city": "ALBUFEIRA",
      "lon": "-8.235405902342501",
      "lat": "37.10619525687909"
    },
    {
      "id": "pt.ine.add.PTCONT.1703728",
      "street": "SIT BREJOS",
      "house": "",
      "postcode": "8200-317",
      "city": "ALBUFEIRA",
      "lon": "-8.232045113980273",
      "lat": "37.10850483683164"
    },
    {
      "id": "pt.ine.add.PTCONT.1706583",
      "street": "SIT BREJOS",
      "house": "",
      "postcode": "8200-317",
      "city": "ALBUFEIRA",
      "lon": "-8.232945471025822",
      "lat": "37.10874736983831"
    },
    {
      "id": "pt.ine.add.PTCONT.1706618",
      "street": "SIT BREJOS",
      "house": "",
      "postcode": "8200-317",
      "city": "ALBUFEIRA",
      "lon": "-8.232900315308468",
      "lat": "37.10863026933875"
    },
    {
      "id": "pt.ine.add.PTCONT.1706621",
      "street": "R POÇO DA AREIA",
      "house": "A",
      "postcode": "8200-317",
      "city": "ALBUFEIRA",
      "lon": "-8.231918467527072",
      "lat": "37.106279310207874"
    },
    {
      "id": "pt.ine.add.PTCONT.1712507",
      "street": "R BREJOS",
      "house": "",
      "postcode": "8200-317",
      "city": "ALBUFEIRA",
      "lon": "-8.232617320153912",
      "lat": "37.10730594075994"
    },
    {
      "id": "pt.ine.add.PTCONT.1717648",
      "street": "SIT BREJOS",
      "house": "CP721 Y",
      "postcode": "8200-317",
      "city": "ALBUFEIRA",
      "lon": "-8.231256383354362",
      "lat": "37.10757739476969"
    },
    {
      "id": "pt.ine.add.PTCONT.1723806",
      "street": "SIT BREJOS",
      "house": "",
      "postcode": "8200-317",
      "city": "ALBUFEIRA",
      "lon": "-8.231087233699643",
      "lat": "37.107271172329064"
    },
    {
      "id": "pt.ine.add.PTCONT.1723807",
      "street": "SIT BREJOS",
      "house": "",
      "postcode": "8200-317",
      "city": "ALBUFEIRA",
      "lon": "-8.231087233699643",
      "lat": "37.107271172329064"
    },
    {
      "id": "pt.ine.add.PTCONT.1723808",
      "street": "R BREJOS",
      "house": "",
      "postcode": "8200-317",
      "city": "ALBUFEIRA",
      "lon": "-8.231087233699643",
      "lat": "37.107271172329064"
    },
    {
      "id": "pt.ine.add.PTCONT.1733750",
      "street": "SIT BREJOS",
      "house": "3",
      "postcode": "8200-317",
      "city": "ALBUFEIRA",
      "lon": "-8.232156891186694",
      "lat": "37.107946082870484"
    },
    {
      "id": "pt.ine.add.PTCONT.1735266",
      "street": "R ILHA DE S TOMÉ",
      "house": "14",
      "postcode": "8200-047",
      "city": "ALBUFEIRA",
      "lon": "-8.235146714240594",
      "lat": "37.10587109649258"
    },
    {
      "id": "pt.ine.add.PTCONT.1738082",
      "street": "R ILHA DE S TOMÉ",
      "house": "",
      "postcode": "8200-317",
      "city": "ALBUFEIRA",
      "lon": "-8.235597373062056",
      "lat": "37.106357283386465"
    },
    {
      "id": "pt.ine.add.PTCONT.1743810",
      "street": "SIT BREJOS",
      "house": "",
      "postcode": "8200-317",
      "city": "ALBUFEIRA",
      "lon": "-8.23246134611126",
      "lat": "37.10847745683273"
    },
    {
      "id": "pt.ine.add.PTCONT.1744296",
      "street": "SIT BREJOS",
      "house": "CP 253 K",
      "postcode": "8200-317",
      "city": "ALBUFEIRA",
      "lon": "-8.23253984023524",
      "lat": "37.10827915662037"
    },
    {
      "id": "pt.ine.add.PTCONT.1744297",
      "street": "SIT BREJOS",
      "house": "CP 253 K",
      "postcode": "8200-317",
      "city": "ALBUFEIRA",
      "lon": "-8.23253984023524",
      "lat": "37.10827915662037"
    },
    {
      "id": "pt.ine.add.PTCONT.1744404",
      "street": "SIT BREJOS",
      "house": "301",
      "postcode": "8200-317",
      "city": "ALBUFEIRA",
      "lon": "-8.231864170491555",
      "lat": "37.107784135219724"
    },
    {
      "id": "pt.ine.add.PTCONT.1744405",
      "street": "SIT BREJOS",
      "house": "",
      "postcode": "8200-317",
      "city": "ALBUFEIRA",
      "lon": "-8.231864170491555",
      "lat": "37.107784135219724"
    },
    {
      "id": "pt.ine.add.PTCONT.1747516",
      "street": "SIT BREJOS",
      "house": "",
      "postcode": "8200-317",
      "city": "ALBUFEIRA",
      "lon": "-8.232315043024801",
      "lat": "37.10844153671039"
    },
    {
      "id": "pt.ine.add.PTCONT.1749937",
      "street": "SIT BREJOS V",
      "house": "V",
      "postcode": "8200-317",
      "city": "ALBUFEIRA",
      "lon": "-8.232247505018167",
      "lat": "37.108414561232806"
    },
    {
      "id": "pt.ine.add.PTCONT.1753671",
      "street": "ESTR BREJOS",
      "house": "",
      "postcode": "8200-317",
      "city": "ALBUFEIRA",
      "lon": "-8.230917760984278",
      "lat": "37.10671265148084"
    },
    {
      "id": "pt.ine.add.PTCONT.1753682",
      "street": "ESTR BREJOS",
      "house": "",
      "postcode": "8200-317",
      "city": "ALBUFEIRA",
      "lon": "-8.230917760984278",
      "lat": "37.10671265148084"
    },
    {
      "id": "pt.ine.add.PTCONT.1753860",
      "street": "SIT BREJOS",
      "house": "",
      "postcode": "8200-317",
      "city": "ALBUFEIRA",
      "lon": "-8.23196677058567",
      "lat": "37.10882027509547"
    },
    {
      "id": "pt.ine.add.PTCONT.1753861",
      "street": "ESTR BREJOS CASA JOVIRINE",
      "house": "",
      "postcode": "8200-317",
      "city": "ALBUFEIRA",
      "lon": "-8.230443211466627",
      "lat": "37.10511815530453"
    },
    {
      "id": "pt.ine.add.PTCONT.1768906",
      "street": "SIT BREJOS",
      "house": "",
      "postcode": "8200-317",
      "city": "ALBUFEIRA",
      "lon": "-8.231132420652347",
      "lat": "37.107415305492964"
    },
    {
      "id": "pt.ine.add.PTCONT.1771917",
      "street": "SIT BREJOS",
      "house": "CCI 251 K",
      "postcode": "8200-317",
      "city": "ALBUFEIRA",
      "lon": "-8.232820912179966",
      "lat": "37.10813475010139"
    },
    {
      "id": "pt.ine.add.PTCONT.1771933",
      "street": "SIT BREJOS",
      "house": "",
      "postcode": "8200-317",
      "city": "ALBUFEIRA",
      "lon": "-8.232833166798466",
      "lat": "37.10890064547189"
    },
    {
      "id": "pt.ine.add.PTCONT.1771936",
      "street": "R BREJOS CASA DAS OLIVEIRAS",
      "house": "",
      "postcode": "8200-317",
      "city": "ALBUFEIRA",
      "lon": "-8.23406674233015",
      "lat": "37.1058990529031"
    },
    {
      "id": "pt.ine.add.PTCONT.1774595",
      "street": "SIT BREJOS",
      "house": "CCI 251 K",
      "postcode": "8200-317",
      "city": "ALBUFEIRA",
      "lon": "-8.232820912179966",
      "lat": "37.10813475010139"
    },
    {
      "id": "pt.ine.add.PTCONT.1777835",
      "street": "SIT BREJOS",
      "house": "",
      "postcode": "8200-317",
      "city": "ALBUFEIRA",
      "lon": "-8.23157307243681",
      "lat": "37.10887466661119"
    },
    {
      "id": "pt.ine.add.PTCONT.1777836",
      "street": "SIT BREJOS",
      "house": "",
      "postcode": "8200-317",
      "city": "ALBUFEIRA",
      "lon": "-8.23157307243681",
      "lat": "37.10887466661119"
    },
    {
      "id": "pt.ine.add.PTCONT.1777975",
      "street": "SIT BREJOS",
      "house": "",
      "postcode": "8200-317",
      "city": "ALBUFEIRA",
      "lon": "-8.232540111161661",
      "lat": "37.10848640146381"
    },
    {
      "id": "pt.ine.add.PTCONT.1781092",
      "street": "SIT BREJOS",
      "house": "317 D",
      "postcode": "8200-317",
      "city": "ALBUFEIRA",
      "lon": "-8.231357904063714",
      "lat": "37.10778455579091"
    },
    {
      "id": "pt.ine.add.PTCONT.1781093",
      "street": "SIT BREJOS",
      "house": "317 D",
      "postcode": "8200-317",
      "city": "ALBUFEIRA",
      "lon": "-8.231357904063714",
      "lat": "37.10778455579091"
    },
    {
      "id": "pt.ine.add.PTCONT.1781094",
      "street": "SIT BREJOS",
      "house": "",
      "postcode": "8200-317",
      "city": "ALBUFEIRA",
      "lon": "-8.231357904063714",
      "lat": "37.10778455579091"
    },
    {
      "id": "pt.ine.add.PTCONT.1781095",
      "street": "SIT BREJOS",
      "house": "317 D",
      "postcode": "8200-317",
      "city": "ALBUFEIRA",
      "lon": "-8.231357904063714",
      "lat": "37.10778455579091"
    },
    {
      "id": "pt.ine.add.PTCONT.1786582",
      "street": "URB PÁTEO DA TORRE",
      "house": "",
      "postcode": "8200-317",
      "city": "ALBUFEIRA",
      "lon": "-8.232383110320567",
      "lat": "37.10887399117296"
    },
    {
      "id": "pt.ine.add.PTCONT.1786583",
      "street": "URB PÁTEO DA TORRE",
      "house": "",
      "postcode": "8200-317",
      "city": "ALBUFEIRA",
      "lon": "-8.232383110320567",
      "lat": "37.10887399117296"
    },
    {
      "id": "pt.ine.add.PTCONT.1786584",
      "street": "URB PÁTEO DA TORRE",
      "house": "",
      "postcode": "8200-317",
      "city": "ALBUFEIRA",
      "lon": "-8.232383110320567",
      "lat": "37.10887399117296"
    },
    {
      "id": "pt.ine.add.PTCONT.1786759",
      "street": "URB PÁTEO DA TORRE",
      "house": "",
      "postcode": "8200-317",
      "city": "ALBUFEIRA",
      "lon": "-8.232383110320567",
      "lat": "37.10887399117296"
    },
    {
      "id": "pt.ine.add.PTCONT.1786806",
      "street": "R POÇO DA AREIA",
      "house": "D",
      "postcode": "8200-317",
      "city": "ALBUFEIRA",
      "lon": "-8.232143611152047",
      "lat": "37.10638725028011"
    },
    {
      "id": "pt.ine.add.PTCONT.1789436",
      "street": "SIT BREJOS",
      "house": "257K",
      "postcode": "8200-317",
      "city": "ALBUFEIRA",
      "lon": "-8.231908926159498",
      "lat": "37.107594874152504"
    },
    {
      "id": "pt.ine.add.PTCONT.1789437",
      "street": "SIT BREJOS",
      "house": "257K",
      "postcode": "8200-317",
      "city": "ALBUFEIRA",
      "lon": "-8.231908926159498",
      "lat": "37.107594874152504"
    },
    {
      "id": "pt.ine.add.PTCONT.1789438",
      "street": "SIT BREJOS",
      "house": "257K",
      "postcode": "8200-317",
      "city": "ALBUFEIRA",
      "lon": "-8.231908926159498",
      "lat": "37.107594874152504"
    },
    {
      "id": "pt.ine.add.PTCONT.1789599",
      "street": "SIT BREJOS",
      "house": "",
      "postcode": "8200-317",
      "city": "ALBUFEIRA",
      "lon": "-8.232314725701439",
      "lat": "37.108198249281195"
    },
    {
      "id": "pt.ine.add.PTCONT.1792680",
      "street": "SIT BREJOS",
      "house": "",
      "postcode": "8200-317",
      "city": "ALBUFEIRA",
      "lon": "-8.232607625760581",
      "lat": "37.10849535548381"
    },
    {
      "id": "pt.ine.add.PTCONT.1805733",
      "street": "SIT BREJOS",
      "house": "",
      "postcode": "8200-317",
      "city": "ALBUFEIRA",
      "lon": "-8.232809768064968",
      "lat": "37.10821585537224"
    },
    {
      "id": "pt.ine.add.PTCONT.1807322",
      "street": "R ILHA DE S TOMÉ",
      "house": "15",
      "postcode": "8200-047",
      "city": "ALBUFEIRA",
      "lon": "-8.235259469159638",
      "lat": "37.10606022324269"
    },
    {
      "id": "pt.ine.add.PTCONT.1810062",
      "street": "SIT BREJOS",
      "house": "",
      "postcode": "8200-317",
      "city": "ALBUFEIRA",
      "lon": "-8.232134589839822",
      "lat": "37.10809928264652"
    },
    {
      "id": "pt.ine.add.PTCONT.1847442",
      "street": "ESTR BREJOS",
      "house": "",
      "postcode": "8200-317",
      "city": "ALBUFEIRA",
      "lon": "-8.231221853620651",
      "lat": "37.10697370932528"
    }
  ]
}