{
  "data": {
    "distrito": "Leiria",
    "concelho": "Leiria",
    "freguesia": "Bajouca",
    "OBJECTID": 327,
    "BGRI2021": "10092500117",
    "DT21": "10",
    "DTMN21": "1009",
    "DTMNFR21": "100925",
    "DTMNFRSEC21": "100925001",
    "SECNUM21": "001",
    "SSNUM21": "17",
    "SECSSNUM21": "00117",
    "OBJECTID_1": 90409,
    "DT": "10",
    "CC": "09",
    "fr": "25",
    "SEC": "001",
    "SS": "17"
  },
  "addresses": [
    {
      "id": "pt.ine.add.PTCONT.1997500",
      "street": "R PADRE JERONIMO",
      "house": "1",
      "postcode": "2425-206",
      "city": "BAJOUCA",
      "lon": "-8.773612675631394",
      "lat": "39.892517795344595"
    },
    {
      "id": "pt.ine.add.PTCONT.2011630",
      "street": "R ALECRIM",
      "house": "2",
      "postcode": "2425-202",
      "city": "BAJOUCA",
      "lon": "-8.775370756257521",
      "lat": "39.892976398045334"
    },
    {
      "id": "pt.ine.add.PTCONT.2053204",
      "street": "R SALGUEIROS",
      "house": "6",
      "postcode": "2425-201",
      "city": "BAJOUCA",
      "lon": "-8.774283029376878",
      "lat": "39.89293738555085"
    },
    {
      "id": "pt.ine.add.PTCONT.2088225",
      "street": "R VALE",
      "house": "",
      "postcode": "2425-172",
      "city": "BAJOUCA",
      "lon": "-8.775626286875283",
      "lat": "39.89279485732786"
    },
    {
      "id": "pt.ine.add.PTCONT.2108744",
      "street": "R VALE",
      "house": "15",
      "postcode": "2425-172",
      "city": "BAJOUCA",
      "lon": "-8.774149724959912",
      "lat": "39.89243377163608"
    },
    {
      "id": "pt.ine.add.PTCONT.2128597",
      "street": "R SALGUEIROS",
      "house": "8",
      "postcode": "2425-201",
      "city": "BAJOUCA",
      "lon": "-8.773931782030713",
      "lat": "39.892885289374945"
    },
    {
      "id": "pt.ine.add.PTCONT.2151625",
      "street": "R SALGUEIROS",
      "house": "2",
      "postcode": "2425-201",
      "city": "BAJOUCA",
      "lon": "-8.775122546489749",
      "lat": "39.8926895719252"
    },
    {
      "id": "pt.ine.add.PTCONT.2160472",
      "street": "R VALE",
      "house": "19",
      "postcode": "2425-172",
      "city": "BAJOUCA",
      "lon": "-8.773704530078234",
      "lat": "39.892337162693444"
    },
    {
      "id": "pt.ine.add.PTCONT.2186576",
      "street": "R SALGUEIROS",
      "house": "4",
      "postcode": "2425-201",
      "city": "BAJOUCA",
      "lon": "-8.774400111940746",
      "lat": "39.89295475070539"
    },
    {
      "id": "pt.ine.add.PTCONT.2194163",
      "street": "R VALE",
      "house": "13",
      "postcode": "2425-172",
      "city": "BAJOUCA",
      "lon": "-8.774466147785773",
      "lat": "39.8925130785509"
    },
    {
      "id": "pt.ine.add.PTCONT.2202471",
      "street": "R VALE",
      "house": "17",
      "postcode": "2425-172",
      "city": "BAJOUCA",
      "lon": "-8.773927085432051",
      "lat": "39.892380964478775"
    }
  ]
}