{
  "data": {
    "distrito": "Beja",
    "concelho": "Odemira",
    "freguesia": "Longueira/Almograve",
    "OBJECTID": 768,
    "BGRI2021": "02111700127",
    "DT21": "02",
    "DTMN21": "0211",
    "DTMNFR21": "021117",
    "DTMNFRSEC21": "021117001",
    "SECNUM21": "001",
    "SSNUM21": "27",
    "SECSSNUM21": "00127",
    "OBJECTID_1": 17271,
    "DT": "02",
    "CC": "11",
    "fr": "17",
    "SEC": "001",
    "SS": "27"
  },
  "addresses": [
    {
      "id": "pt.ine.add.PTCONT.455906",
      "street": "CASA NOVA DOS PORTOS BRANCOS",
      "house": "",
      "postcode": "7630-017",
      "city": "LONGUEIRA-ALMOGRAVE",
      "lon": "-8.77608243919229",
      "lat": "37.642966904421826"
    },
    {
      "id": "pt.ine.add.PTCONT.456517",
      "street": "MTE BEBEDOURO DO MEIO",
      "house": "",
      "postcode": "7630-063",
      "city": "LONGUEIRA-ALMOGRAVE",
      "lon": "-8.769030940340643",
      "lat": "37.65047416212684"
    },
    {
      "id": "pt.ine.add.PTCONT.458150",
      "street": "CM 1123 - MTE DA VINHA",
      "house": "",
      "postcode": "7630-084",
      "city": "LONGUEIRA-ALMOGRAVE",
      "lon": "-8.780422564365084",
      "lat": "37.656088300708426"
    },
    {
      "id": "pt.ine.add.PTCONT.353820",
      "street": "MTE DAS VÁRZEAS",
      "house": "",
      "postcode": "7630-017",
      "city": "LONGUEIRA-ALMOGRAVE",
      "lon": "-8.783321965594604",
      "lat": "37.631196592969886"
    },
    {
      "id": "pt.ine.add.PTCONT.355135",
      "street": "QTA NOVA",
      "house": "",
      "postcode": "7630-017",
      "city": "LONGUEIRA-ALMOGRAVE",
      "lon": "-8.772626928646737",
      "lat": "37.63110188277495"
    },
    {
      "id": "pt.ine.add.PTCONT.355387",
      "street": "QTA NOVA",
      "house": "",
      "postcode": "7630-017",
      "city": "LONGUEIRA-ALMOGRAVE",
      "lon": "-8.77084927549643",
      "lat": "37.62988618310067"
    },
    {
      "id": "pt.ine.add.PTCONT.356182",
      "street": "MTE NOVO DA ASSUMADA",
      "house": "",
      "postcode": "7630-063",
      "city": "LONGUEIRA-ALMOGRAVE",
      "lon": "-8.770135823023463",
      "lat": "37.65114392738838"
    },
    {
      "id": "pt.ine.add.PTCONT.358838",
      "street": "MTE DAS ENTRE ÁGUAS",
      "house": "",
      "postcode": "7630-084",
      "city": "LONGUEIRA-ALMOGRAVE",
      "lon": "-8.779712491316216",
      "lat": "37.65392086299358"
    },
    {
      "id": "pt.ine.add.PTCONT.359489",
      "street": "",
      "house": "",
      "postcode": "7630-017",
      "city": "LONGUEIRA-ALMOGRAVE",
      "lon": "-8.785663116017941",
      "lat": "37.648887722380074"
    },
    {
      "id": "pt.ine.add.PTCONT.360315",
      "street": "CM 1122-1 - CASA NOVA",
      "house": "",
      "postcode": "7630-017",
      "city": "LONGUEIRA-ALMOGRAVE",
      "lon": "-8.785514616096538",
      "lat": "37.647456003862544"
    },
    {
      "id": "pt.ine.add.PTCONT.362034",
      "street": "MTE NOVO DAS VÁRZEAS",
      "house": "",
      "postcode": "7630-017",
      "city": "LONGUEIRA-ALMOGRAVE",
      "lon": "-8.773892691820729",
      "lat": "37.62942821751965"
    },
    {
      "id": "pt.ine.add.PTCONT.362732",
      "street": "QTA NOVA DE CIMA",
      "house": "",
      "postcode": "7630-017",
      "city": "LONGUEIRA-ALMOGRAVE",
      "lon": "-8.768811986480829",
      "lat": "37.628770962275105"
    },
    {
      "id": "pt.ine.add.PTCONT.363556",
      "street": "R DA BOAVISTA - MONTE NOVO DA BALCA",
      "house": "",
      "postcode": "7630-017",
      "city": "LONGUEIRA-ALMOGRAVE",
      "lon": "-8.778877562571006",
      "lat": "37.647798851745776"
    },
    {
      "id": "pt.ine.add.PTCONT.365150",
      "street": "MTE BARRANCO DE CIMA",
      "house": "APT 6295",
      "postcode": "7630-063",
      "city": "LONGUEIRA-ALMOGRAVE",
      "lon": "-8.76572730402813",
      "lat": "37.64707725137593"
    },
    {
      "id": "pt.ine.add.PTCONT.367152",
      "street": "QTA FLOR ROSA",
      "house": "",
      "postcode": "7630-017",
      "city": "LONGUEIRA-ALMOGRAVE",
      "lon": "-8.781367215655868",
      "lat": "37.63178397085195"
    },
    {
      "id": "pt.ine.add.PTCONT.368001",
      "street": "QTA NOVA",
      "house": "",
      "postcode": "7630-017",
      "city": "LONGUEIRA-ALMOGRAVE",
      "lon": "-8.772496916441037",
      "lat": "37.63047190721886"
    },
    {
      "id": "pt.ine.add.PTCONT.372517",
      "street": "CM 1123 - MTE DA VINHA",
      "house": "",
      "postcode": "7630-084",
      "city": "LONGUEIRA-ALMOGRAVE",
      "lon": "-8.780116682077752",
      "lat": "37.65609898854779"
    },
    {
      "id": "pt.ine.add.PTCONT.375766",
      "street": "MTE BREJO DA VACA",
      "house": "",
      "postcode": "7630-063",
      "city": "LONGUEIRA-ALMOGRAVE",
      "lon": "-8.765501049641548",
      "lat": "37.644447632808976"
    },
    {
      "id": "pt.ine.add.PTCONT.377345",
      "street": "CM 1123 - MTE VALE PEREIRO",
      "house": "",
      "postcode": "7630-017",
      "city": "LONGUEIRA-ALMOGRAVE",
      "lon": "-8.784802640268955",
      "lat": "37.65545152545684"
    },
    {
      "id": "pt.ine.add.PTCONT.377386",
      "street": "CM 1122-1 - CASA NOVA",
      "house": "",
      "postcode": "7630-017",
      "city": "LONGUEIRA-ALMOGRAVE",
      "lon": "-8.787259740368926",
      "lat": "37.644887588711995"
    },
    {
      "id": "pt.ine.add.PTCONT.377387",
      "street": "CM 1122-1",
      "house": "",
      "postcode": "7630-017",
      "city": "LONGUEIRA-ALMOGRAVE",
      "lon": "-8.788780425425307",
      "lat": "37.64773521718461"
    },
    {
      "id": "pt.ine.add.PTCONT.378180",
      "street": "TV DO CHAFARIZ - MONTE DA VINHA",
      "house": "",
      "postcode": "7630-017",
      "city": "LONGUEIRA-ALMOGRAVE",
      "lon": "-8.78931100744905",
      "lat": "37.65394894549084"
    },
    {
      "id": "pt.ine.add.PTCONT.379783",
      "street": "QTA FLOR DA ROSA",
      "house": "",
      "postcode": "7630-017",
      "city": "LONGUEIRA-ALMOGRAVE",
      "lon": "-8.779888534129055",
      "lat": "37.632404746449446"
    },
    {
      "id": "pt.ine.add.PTCONT.382058",
      "street": "CM 1122-1 - CASA NOVA",
      "house": "",
      "postcode": "7630-017",
      "city": "LONGUEIRA-ALMOGRAVE",
      "lon": "-8.788467295832293",
      "lat": "37.64691707585101"
    },
    {
      "id": "pt.ine.add.PTCONT.382059",
      "street": "MTE DA RIBEIRINHA",
      "house": "",
      "postcode": "7630-017",
      "city": "LONGUEIRA-ALMOGRAVE",
      "lon": "-8.77817344262343",
      "lat": "37.65023531950848"
    },
    {
      "id": "pt.ine.add.PTCONT.382357",
      "street": "VEREDA",
      "house": "",
      "postcode": "7630-084",
      "city": "LONGUEIRA-ALMOGRAVE",
      "lon": "-8.779836278731603",
      "lat": "37.653821077924675"
    },
    {
      "id": "pt.ine.add.PTCONT.382881",
      "street": "MTE ENTRE AGUAS",
      "house": "",
      "postcode": "7630-084",
      "city": "LONGUEIRA-ALMOGRAVE",
      "lon": "-8.779836278731603",
      "lat": "37.653821077924675"
    },
    {
      "id": "pt.ine.add.PTCONT.383767",
      "street": "MTE DO RETIRO",
      "house": "",
      "postcode": "7630-084",
      "city": "LONGUEIRA-ALMOGRAVE",
      "lon": "-8.777446269519398",
      "lat": "37.65132045576845"
    },
    {
      "id": "pt.ine.add.PTCONT.386284",
      "street": "MTE VALE BRAVO",
      "house": "",
      "postcode": "7630-084",
      "city": "LONGUEIRA-ALMOGRAVE",
      "lon": "-8.778514491552079",
      "lat": "37.65298140731968"
    },
    {
      "id": "pt.ine.add.PTCONT.388538",
      "street": "MTE NOVO DA ASSUMADA",
      "house": "",
      "postcode": "7630-063",
      "city": "LONGUEIRA-ALMOGRAVE",
      "lon": "-8.769783173155957",
      "lat": "37.65098365684768"
    },
    {
      "id": "pt.ine.add.PTCONT.390172",
      "street": "MTE BEBEDOURO",
      "house": "",
      "postcode": "7630-063",
      "city": "LONGUEIRA-ALMOGRAVE",
      "lon": "-8.768779353621357",
      "lat": "37.65020522742746"
    },
    {
      "id": "pt.ine.add.PTCONT.395003",
      "street": "R DA BOAVISTA - MONTE NOVO DA BICA",
      "house": "",
      "postcode": "7630-017",
      "city": "LONGUEIRA-ALMOGRAVE",
      "lon": "-8.782459446311806",
      "lat": "37.64794136415397"
    },
    {
      "id": "pt.ine.add.PTCONT.395837",
      "street": "CASA NOVA DOS PORTOS BRANCOS",
      "house": "",
      "postcode": "7630-017",
      "city": "LONGUEIRA-ALMOGRAVE",
      "lon": "-8.779361157858899",
      "lat": "37.64214712636566"
    },
    {
      "id": "pt.ine.add.PTCONT.395877",
      "street": "MTE DAS VÁRZEAS",
      "house": "",
      "postcode": "7630-017",
      "city": "LONGUEIRA-ALMOGRAVE",
      "lon": "-8.783332037719457",
      "lat": "37.63105238207811"
    },
    {
      "id": "pt.ine.add.PTCONT.397411",
      "street": "LG DA PRAIA",
      "house": "",
      "postcode": "7630-017",
      "city": "LONGUEIRA-ALMOGRAVE",
      "lon": "-8.767743600897798",
      "lat": "37.645138769219784"
    },
    {
      "id": "pt.ine.add.PTCONT.398301",
      "street": "QTA NOVA",
      "house": "",
      "postcode": "7630-017",
      "city": "LONGUEIRA-ALMOGRAVE",
      "lon": "-8.770961630594792",
      "lat": "37.62977745912101"
    },
    {
      "id": "pt.ine.add.PTCONT.399826",
      "street": "PORTOS BRANCOS",
      "house": "",
      "postcode": "7630-017",
      "city": "LONGUEIRA-ALMOGRAVE",
      "lon": "-8.780831744051843",
      "lat": "37.64057137414061"
    },
    {
      "id": "pt.ine.add.PTCONT.400706",
      "street": "MTE SOBREIRO ENTRE AGUAS",
      "house": "",
      "postcode": "7630-017",
      "city": "LONGUEIRA-ALMOGRAVE",
      "lon": "-8.7846375289742",
      "lat": "37.650821463215095"
    },
    {
      "id": "pt.ine.add.PTCONT.402289",
      "street": "MTE NOVO ENTRE AGUAS",
      "house": "",
      "postcode": "7630-017",
      "city": "LONGUEIRA-ALMOGRAVE",
      "lon": "-8.779482526741793",
      "lat": "37.64961549527953"
    },
    {
      "id": "pt.ine.add.PTCONT.403977",
      "street": "CM 1122-1 - CASA NOVA",
      "house": "",
      "postcode": "7630-017",
      "city": "LONGUEIRA-ALMOGRAVE",
      "lon": "-8.787372883833752",
      "lat": "37.644868941898416"
    },
    {
      "id": "pt.ine.add.PTCONT.404831",
      "street": "QTA FLOR DA ROSA",
      "house": "",
      "postcode": "7630-017",
      "city": "LONGUEIRA-ALMOGRAVE",
      "lon": "-8.78172815113484",
      "lat": "37.63160179294653"
    },
    {
      "id": "pt.ine.add.PTCONT.405675",
      "street": "MTE VALE BRAVO",
      "house": "",
      "postcode": "7630-084",
      "city": "LONGUEIRA-ALMOGRAVE",
      "lon": "-8.77728831908977",
      "lat": "37.65402422292258"
    },
    {
      "id": "pt.ine.add.PTCONT.405676",
      "street": "CASA NOVA DOS PORTOS BRANCOS",
      "house": "",
      "postcode": "7630-017",
      "city": "LONGUEIRA-ALMOGRAVE",
      "lon": "-8.779658535276797",
      "lat": "37.64377625183526"
    },
    {
      "id": "pt.ine.add.PTCONT.411345",
      "street": "MTE DO BARRANCO",
      "house": "",
      "postcode": "7630-084",
      "city": "LONGUEIRA-ALMOGRAVE",
      "lon": "-8.776561740023578",
      "lat": "37.65124419671387"
    },
    {
      "id": "pt.ine.add.PTCONT.415254",
      "street": "MTE BICA DE BAIXO",
      "house": "",
      "postcode": "7630-017",
      "city": "LONGUEIRA-ALMOGRAVE",
      "lon": "-8.786843214927295",
      "lat": "37.65036778607749"
    },
    {
      "id": "pt.ine.add.PTCONT.416898",
      "street": "LG DA PRAIA",
      "house": "",
      "postcode": "7630-063",
      "city": "LONGUEIRA-ALMOGRAVE",
      "lon": "-8.767556324346728",
      "lat": "37.64496816973016"
    },
    {
      "id": "pt.ine.add.PTCONT.419268",
      "street": "CM 1123 - MTE DA VINHA",
      "house": "",
      "postcode": "7630-084",
      "city": "LONGUEIRA-ALMOGRAVE",
      "lon": "-8.779924509203429",
      "lat": "37.65615410051326"
    },
    {
      "id": "pt.ine.add.PTCONT.419349",
      "street": "CM 1123 - MTE DA VINHA",
      "house": "",
      "postcode": "7630-084",
      "city": "LONGUEIRA-ALMOGRAVE",
      "lon": "-8.779924509203429",
      "lat": "37.65615410051326"
    },
    {
      "id": "pt.ine.add.PTCONT.422221",
      "street": "",
      "house": "",
      "postcode": "7630-084",
      "city": "LONGUEIRA-ALMOGRAVE",
      "lon": "-8.777464131540249",
      "lat": "37.65469898862317"
    },
    {
      "id": "pt.ine.add.PTCONT.422534",
      "street": "R DA BOAVISTA - MONTE DA BICA",
      "house": "",
      "postcode": "7630-017",
      "city": "LONGUEIRA-ALMOGRAVE",
      "lon": "-8.784536571141036",
      "lat": "37.64964175241483"
    },
    {
      "id": "pt.ine.add.PTCONT.424869",
      "street": "QTA NOVA DE CIMA",
      "house": "",
      "postcode": "7630-017",
      "city": "LONGUEIRA-ALMOGRAVE",
      "lon": "-8.77076384780489",
      "lat": "37.626517008920814"
    },
    {
      "id": "pt.ine.add.PTCONT.425633",
      "street": "MTE BREJO DA VACA",
      "house": "",
      "postcode": "7630-063",
      "city": "LONGUEIRA-ALMOGRAVE",
      "lon": "-8.765693738304098",
      "lat": "37.644455609437294"
    },
    {
      "id": "pt.ine.add.PTCONT.428889",
      "street": "MTE NOVO DA ASSUMADA",
      "house": "",
      "postcode": "7630-063",
      "city": "LONGUEIRA-ALMOGRAVE",
      "lon": "-8.769644123772817",
      "lat": "37.65062401971712"
    },
    {
      "id": "pt.ine.add.PTCONT.428893",
      "street": "QTA NOVA",
      "house": "",
      "postcode": "7630-017",
      "city": "LONGUEIRA-ALMOGRAVE",
      "lon": "-8.772260957501986",
      "lat": "37.63069842861455"
    },
    {
      "id": "pt.ine.add.PTCONT.428922",
      "street": "R DA BOAVISTA - MONTE DA BICA",
      "house": "",
      "postcode": "7630-017",
      "city": "LONGUEIRA-ALMOGRAVE",
      "lon": "-8.784637447157639",
      "lat": "37.6495150597555"
    },
    {
      "id": "pt.ine.add.PTCONT.429008",
      "street": "CM 1123 - MTE VALE PEREIRINHO",
      "house": "",
      "postcode": "7630-017",
      "city": "LONGUEIRA-ALMOGRAVE",
      "lon": "-8.78408354787209",
      "lat": "37.654860857499024"
    },
    {
      "id": "pt.ine.add.PTCONT.429798",
      "street": "MTE NOVO DA BICA",
      "house": "",
      "postcode": "7630-017",
      "city": "LONGUEIRA-ALMOGRAVE",
      "lon": "-8.783153912436669",
      "lat": "37.64831594625205"
    },
    {
      "id": "pt.ine.add.PTCONT.432151",
      "street": "CASA NOVA DOS PORTOS BRANCOS",
      "house": "",
      "postcode": "7630-017",
      "city": "LONGUEIRA-ALMOGRAVE",
      "lon": "-8.776127137447272",
      "lat": "37.64289458322497"
    },
    {
      "id": "pt.ine.add.PTCONT.436388",
      "street": "MTE BREJO DA VACA",
      "house": "",
      "postcode": "7630-017",
      "city": "LONGUEIRA-ALMOGRAVE",
      "lon": "-8.765576154335035",
      "lat": "37.644730735685705"
    },
    {
      "id": "pt.ine.add.PTCONT.438097",
      "street": "MTE NOVO DA ASSUMADA",
      "house": "",
      "postcode": "7630-063",
      "city": "LONGUEIRA-ALMOGRAVE",
      "lon": "-8.769895868878898",
      "lat": "37.65091097105674"
    },
    {
      "id": "pt.ine.add.PTCONT.439749",
      "street": "MTE NOVO DAS VÁRZEAS",
      "house": "",
      "postcode": "7630-017",
      "city": "LONGUEIRA-ALMOGRAVE",
      "lon": "-8.774576853098859",
      "lat": "37.629947063529436"
    },
    {
      "id": "pt.ine.add.PTCONT.442924",
      "street": "CASETA PORTOS RÚIVOS",
      "house": "",
      "postcode": "7630-017",
      "city": "LONGUEIRA-ALMOGRAVE",
      "lon": "-8.780901866814968",
      "lat": "37.62776819400291"
    },
    {
      "id": "pt.ine.add.PTCONT.446096",
      "street": "R DA BOAVISTA - MONTE NOVO DA BALCA",
      "house": "",
      "postcode": "7630-017",
      "city": "LONGUEIRA-ALMOGRAVE",
      "lon": "-8.77861516505986",
      "lat": "37.64759306500412"
    },
    {
      "id": "pt.ine.add.PTCONT.448578",
      "street": "MTE DAS VÁRZEAS",
      "house": "",
      "postcode": "7630-017",
      "city": "LONGUEIRA-ALMOGRAVE",
      "lon": "-8.782139020229737",
      "lat": "37.631950912229726"
    },
    {
      "id": "pt.ine.add.PTCONT.448581",
      "street": "CM 1123 - MTE VALE PEREIRO",
      "house": "",
      "postcode": "7630-017",
      "city": "LONGUEIRA-ALMOGRAVE",
      "lon": "-8.784925478206263",
      "lat": "37.65524362424293"
    },
    {
      "id": "pt.ine.add.PTCONT.449414",
      "street": "MTE VALE BRAVO",
      "house": "",
      "postcode": "7630-084",
      "city": "LONGUEIRA-ALMOGRAVE",
      "lon": "-8.77800792887721",
      "lat": "37.6533715940413"
    },
    {
      "id": "pt.ine.add.PTCONT.452600",
      "street": "LG DA PRAIA",
      "house": "",
      "postcode": "7630-063",
      "city": "LONGUEIRA-ALMOGRAVE",
      "lon": "-8.767792383004988",
      "lat": "37.64506271270298"
    },
    {
      "id": "pt.ine.add.PTCONT.452601",
      "street": "QTA NOVA - CASA DOS CANTONEIROS",
      "house": "21",
      "postcode": "7630-063",
      "city": "LONGUEIRA-ALMOGRAVE",
      "lon": "-8.770337559547064",
      "lat": "37.637619282037534"
    },
    {
      "id": "pt.ine.add.PTCONT.453387",
      "street": "R DA BOAVISTA - MONTE NOVO DA BALCA",
      "house": "",
      "postcode": "7630-017",
      "city": "LONGUEIRA-ALMOGRAVE",
      "lon": "-8.778750274146992",
      "lat": "37.64749321905195"
    },
    {
      "id": "pt.ine.add.PTCONT.455012",
      "street": "QTA NOVA DE BAIXO",
      "house": "",
      "postcode": "7630-017",
      "city": "LONGUEIRA-ALMOGRAVE",
      "lon": "-8.771531265488095",
      "lat": "37.632801643032685"
    },
    {
      "id": "pt.ine.add.PTCONT.455857",
      "street": "CM 1122-1 - CASA NOVA",
      "house": "",
      "postcode": "7630-017",
      "city": "LONGUEIRA-ALMOGRAVE",
      "lon": "-8.788510875980492",
      "lat": "37.6467186206606"
    }
  ]
}