{
  "data": {
    "distrito": "Braga",
    "concelho": "Guimarães",
    "freguesia": "Azurém",
    "OBJECTID": 43,
    "BGRI2021": "03080400705",
    "DT21": "03",
    "DTMN21": "0308",
    "DTMNFR21": "030804",
    "DTMNFRSEC21": "030804007",
    "SECNUM21": "007",
    "SSNUM21": "05",
    "SECSSNUM21": "00705",
    "OBJECTID_1": 26638,
    "DT": "03",
    "CC": "08",
    "fr": "04",
    "SEC": "007",
    "SS": "05"
  },
  "addresses": [
    {
      "id": "pt.ine.add.PTCONT.464403",
      "street": "R S TORCATO",
      "house": "87",
      "postcode": "4800-024",
      "city": "GUIMARÃES",
      "lon": "-8.28733348539524",
      "lat": "41.450560833432476"
    },
    {
      "id": "pt.ine.add.PTCONT.467016",
      "street": "R D TERESA",
      "house": "",
      "postcode": "4800-074",
      "city": "GUIMARÃES",
      "lon": "-8.291433769191249",
      "lat": "41.448682446844096"
    },
    {
      "id": "pt.ine.add.PTCONT.475294",
      "street": "R D TERESA",
      "house": "513",
      "postcode": "4800-074",
      "city": "GUIMARÃES",
      "lon": "-8.289269449516198",
      "lat": "41.449405719283625"
    },
    {
      "id": "pt.ine.add.PTCONT.487094",
      "street": "R CAP ALFREDO GUIMARÃES",
      "house": "492",
      "postcode": "4800-026",
      "city": "GUIMARÃES",
      "lon": "-8.293301811969808",
      "lat": "41.44915706893402"
    },
    {
      "id": "pt.ine.add.PTCONT.487095",
      "street": "R CAP ALFREDO GUIMARÃES",
      "house": "448",
      "postcode": "4800-026",
      "city": "GUIMARÃES",
      "lon": "-8.293301811969808",
      "lat": "41.44915706893402"
    },
    {
      "id": "pt.ine.add.PTCONT.487096",
      "street": "R CAP ALFREDO GUIMARÃES",
      "house": "448",
      "postcode": "4800-026",
      "city": "GUIMARÃES",
      "lon": "-8.293301811969808",
      "lat": "41.44915706893402"
    },
    {
      "id": "pt.ine.add.PTCONT.493750",
      "street": "R CAP ALFREDO GUIMARÃES",
      "house": "208",
      "postcode": "4800-026",
      "city": "GUIMARÃES",
      "lon": "-8.293406391789924",
      "lat": "41.44788736945241"
    },
    {
      "id": "pt.ine.add.PTCONT.498863",
      "street": "R S TORCATO",
      "house": "59",
      "postcode": "4800-024",
      "city": "GUIMARÃES",
      "lon": "-8.287632223133532",
      "lat": "41.45037135012878"
    },
    {
      "id": "pt.ine.add.PTCONT.507515",
      "street": "R DR JOAQUIM DE MEIRA",
      "house": "223",
      "postcode": "4800-010",
      "city": "GUIMARÃES",
      "lon": "-8.293057448121465",
      "lat": "41.447113517212706"
    },
    {
      "id": "pt.ine.add.PTCONT.507516",
      "street": "R DR JOAQUIM DE MEIRA",
      "house": "223",
      "postcode": "4800-010",
      "city": "GUIMARÃES",
      "lon": "-8.293057448121465",
      "lat": "41.447113517212706"
    },
    {
      "id": "pt.ine.add.PTCONT.508730",
      "street": "R DR JOAQUIM DE MEIRA",
      "house": "223",
      "postcode": "4800-010",
      "city": "GUIMARÃES",
      "lon": "-8.293057448121465",
      "lat": "41.447113517212706"
    },
    {
      "id": "pt.ine.add.PTCONT.523484",
      "street": "VLA RIBEIRINHO",
      "house": "79",
      "postcode": "4800-024",
      "city": "GUIMARÃES",
      "lon": "-8.287740549965593",
      "lat": "41.45063231839509"
    },
    {
      "id": "pt.ine.add.PTCONT.523485",
      "street": "VLA RIBEIRINHO",
      "house": "79",
      "postcode": "4800-024",
      "city": "GUIMARÃES",
      "lon": "-8.287740549965593",
      "lat": "41.45063231839509"
    },
    {
      "id": "pt.ine.add.PTCONT.523486",
      "street": "VLA RIBEIRINHO",
      "house": "79",
      "postcode": "4800-024",
      "city": "GUIMARÃES",
      "lon": "-8.287740549965593",
      "lat": "41.45063231839509"
    },
    {
      "id": "pt.ine.add.PTCONT.523487",
      "street": "VLA RIBEIRINHO",
      "house": "79",
      "postcode": "4800-024",
      "city": "GUIMARÃES",
      "lon": "-8.287740549965593",
      "lat": "41.45063231839509"
    },
    {
      "id": "pt.ine.add.PTCONT.523488",
      "street": "VLA RIBEIRINHO",
      "house": "79",
      "postcode": "4800-024",
      "city": "GUIMARÃES",
      "lon": "-8.287740549965593",
      "lat": "41.45063231839509"
    },
    {
      "id": "pt.ine.add.PTCONT.523489",
      "street": "VLA RIBEIRINHO",
      "house": "79",
      "postcode": "4800-024",
      "city": "GUIMARÃES",
      "lon": "-8.287740549965593",
      "lat": "41.45063231839509"
    },
    {
      "id": "pt.ine.add.PTCONT.532467",
      "street": "R DR JOAQUIM DE MEIRA",
      "house": "219",
      "postcode": "4800-010",
      "city": "GUIMARÃES",
      "lon": "-8.293177027802528",
      "lat": "41.4470773351734"
    },
    {
      "id": "pt.ine.add.PTCONT.540575",
      "street": "R D TERESA",
      "house": "395",
      "postcode": "4800-074",
      "city": "GUIMARÃES",
      "lon": "-8.290177418110378",
      "lat": "41.448765204375846"
    },
    {
      "id": "pt.ine.add.PTCONT.540576",
      "street": "R D TERESA",
      "house": "395",
      "postcode": "4800-074",
      "city": "GUIMARÃES",
      "lon": "-8.290177418110378",
      "lat": "41.448765204375846"
    },
    {
      "id": "pt.ine.add.PTCONT.554959",
      "street": "R DR JOAQUIM DE MEIRA",
      "house": "227",
      "postcode": "4800-010",
      "city": "GUIMARÃES",
      "lon": "-8.29293791250047",
      "lat": "41.447167706926095"
    },
    {
      "id": "pt.ine.add.PTCONT.561428",
      "street": "VLA RIBEIRINHO",
      "house": "109",
      "postcode": "4800-024",
      "city": "GUIMARÃES",
      "lon": "-8.287824643138586",
      "lat": "41.45076726419956"
    },
    {
      "id": "pt.ine.add.PTCONT.561429",
      "street": "VLA RIBEIRINHO",
      "house": "109",
      "postcode": "4800-024",
      "city": "GUIMARÃES",
      "lon": "-8.287824643138586",
      "lat": "41.45076726419956"
    },
    {
      "id": "pt.ine.add.PTCONT.561430",
      "street": "VLA RIBEIRINHO",
      "house": "109",
      "postcode": "4800-024",
      "city": "GUIMARÃES",
      "lon": "-8.287824643138586",
      "lat": "41.45076726419956"
    },
    {
      "id": "pt.ine.add.PTCONT.561431",
      "street": "VLA RIBEIRINHO",
      "house": "109",
      "postcode": "4800-024",
      "city": "GUIMARÃES",
      "lon": "-8.287824643138586",
      "lat": "41.45076726419956"
    },
    {
      "id": "pt.ine.add.PTCONT.561432",
      "street": "VLA RIBEIRINHO",
      "house": "109",
      "postcode": "4800-024",
      "city": "GUIMARÃES",
      "lon": "-8.287824643138586",
      "lat": "41.45076726419956"
    },
    {
      "id": "pt.ine.add.PTCONT.561434",
      "street": "VLA RIBEIRINHO",
      "house": "109",
      "postcode": "4800-024",
      "city": "GUIMARÃES",
      "lon": "-8.287824643138586",
      "lat": "41.45076726419956"
    },
    {
      "id": "pt.ine.add.PTCONT.580041",
      "street": "R D TERESA",
      "house": "43",
      "postcode": "4800-074",
      "city": "GUIMARÃES",
      "lon": "-8.287823530745246",
      "lat": "41.45029906160257"
    },
    {
      "id": "pt.ine.add.PTCONT.582610",
      "street": "R D TERESA",
      "house": "44",
      "postcode": "4800-074",
      "city": "GUIMARÃES",
      "lon": "-8.287823530745246",
      "lat": "41.45029906160257"
    },
    {
      "id": "pt.ine.add.PTCONT.585763",
      "street": "R D TERESA",
      "house": "",
      "postcode": "4800-074",
      "city": "GUIMARÃES",
      "lon": "-8.291767883063997",
      "lat": "41.448285813710946"
    },
    {
      "id": "pt.ine.add.PTCONT.587322",
      "street": "R CAP ALFREDO GUIMARÃES",
      "house": "16",
      "postcode": "4800-026",
      "city": "GUIMARÃES",
      "lon": "-8.29340568261203",
      "lat": "41.447599244714446"
    },
    {
      "id": "pt.ine.add.PTCONT.588388",
      "street": "R CAP ALFREDO GUIMARÃES",
      "house": "16",
      "postcode": "4800-026",
      "city": "GUIMARÃES",
      "lon": "-8.29340568261203",
      "lat": "41.447599244714446"
    },
    {
      "id": "pt.ine.add.PTCONT.590152",
      "street": "R DR JOAQUIM DE MEIRA",
      "house": "62",
      "postcode": "4800-010",
      "city": "GUIMARÃES",
      "lon": "-8.29323679545523",
      "lat": "41.44705024020792"
    },
    {
      "id": "pt.ine.add.PTCONT.611728",
      "street": "R DR JOAQUIM DE MEIRA",
      "house": "30",
      "postcode": "4800-010",
      "city": "GUIMARÃES",
      "lon": "-8.293440076032887",
      "lat": "41.44698692957037"
    },
    {
      "id": "pt.ine.add.PTCONT.628510",
      "street": "R RIO DE CASTANHEIROS",
      "house": "5",
      "postcode": "4800-078",
      "city": "GUIMARÃES",
      "lon": "-8.29263599841258",
      "lat": "41.450122550519794"
    },
    {
      "id": "pt.ine.add.PTCONT.631526",
      "street": "R HELENA VIEIRA SILVA",
      "house": "122",
      "postcode": "4800-024",
      "city": "GUIMARÃES",
      "lon": "-8.287823894409408",
      "lat": "41.45045212784041"
    },
    {
      "id": "pt.ine.add.PTCONT.631527",
      "street": "R S TORCATO",
      "house": "3",
      "postcode": "4800-024",
      "city": "GUIMARÃES",
      "lon": "-8.287823894409408",
      "lat": "41.45045212784041"
    },
    {
      "id": "pt.ine.add.PTCONT.635932",
      "street": "R DR JOAQUIM DE MEIRA",
      "house": "221",
      "postcode": "4800-010",
      "city": "GUIMARÃES",
      "lon": "-8.29311726010003",
      "lat": "41.44710443010775"
    },
    {
      "id": "pt.ine.add.PTCONT.640376",
      "street": "R S TORCATO",
      "house": "73",
      "postcode": "4800-024",
      "city": "GUIMARÃES",
      "lon": "-8.287476924122473",
      "lat": "41.45048860964829"
    },
    {
      "id": "pt.ine.add.PTCONT.640380",
      "street": "R CAP ALFREDO GUIMARÃES",
      "house": "286",
      "postcode": "4800-026",
      "city": "GUIMARÃES",
      "lon": "-8.293180037525252",
      "lat": "41.44830186533487"
    },
    {
      "id": "pt.ine.add.PTCONT.654747",
      "street": "R CAP ALFREDO GUIMARÃES",
      "house": "68",
      "postcode": "4800-026",
      "city": "GUIMARÃES",
      "lon": "-8.293440630184199",
      "lat": "41.44721202704681"
    },
    {
      "id": "pt.ine.add.PTCONT.654748",
      "street": "R CAP ALFREDO GUIMARÃES",
      "house": "68",
      "postcode": "4800-026",
      "city": "GUIMARÃES",
      "lon": "-8.293440630184199",
      "lat": "41.44721202704681"
    },
    {
      "id": "pt.ine.add.PTCONT.659342",
      "street": "R S TORCATO",
      "house": "79",
      "postcode": "4800-024",
      "city": "GUIMARÃES",
      "lon": "-8.287417193584682",
      "lat": "41.450533709407274"
    },
    {
      "id": "pt.ine.add.PTCONT.671092",
      "street": "R RIO DE CASTANHEIROS",
      "house": "3",
      "postcode": "4800-078",
      "city": "GUIMARÃES",
      "lon": "-8.292701310367645",
      "lat": "41.45010195709486"
    },
    {
      "id": "pt.ine.add.PTCONT.671093",
      "street": "R RIO DE CASTANHEIROS",
      "house": "3",
      "postcode": "4800-078",
      "city": "GUIMARÃES",
      "lon": "-8.292701310367645",
      "lat": "41.45010195709486"
    },
    {
      "id": "pt.ine.add.PTCONT.673941",
      "street": "R CAP ALFREDO GUIMARÃES",
      "house": "250",
      "postcode": "4800-026",
      "city": "GUIMARÃES",
      "lon": "-8.293382923200005",
      "lat": "41.44807648465074"
    },
    {
      "id": "pt.ine.add.PTCONT.673942",
      "street": "R CAP ALFREDO GUIMARÃES",
      "house": "250",
      "postcode": "4800-026",
      "city": "GUIMARÃES",
      "lon": "-8.293382923200005",
      "lat": "41.44807648465074"
    },
    {
      "id": "pt.ine.add.PTCONT.673943",
      "street": "R CAP ALFREDO GUIMARÃES",
      "house": "250",
      "postcode": "4800-026",
      "city": "GUIMARÃES",
      "lon": "-8.293382923200005",
      "lat": "41.44807648465074"
    },
    {
      "id": "pt.ine.add.PTCONT.681552",
      "street": "R CAP ALFREDO GUIMARÃES",
      "house": "132",
      "postcode": "4800-026",
      "city": "GUIMARÃES",
      "lon": "-8.293309725855577",
      "lat": "41.447509339085975"
    },
    {
      "id": "pt.ine.add.PTCONT.684393",
      "street": "R D TERESA",
      "house": "62",
      "postcode": "4800-074",
      "city": "GUIMARÃES",
      "lon": "-8.288026655386888",
      "lat": "41.45016372936714"
    },
    {
      "id": "pt.ine.add.PTCONT.690282",
      "street": "R CAP ALFREDO GUIMARÃES",
      "house": "340",
      "postcode": "4800-026",
      "city": "GUIMARÃES",
      "lon": "-8.29333627360209",
      "lat": "41.44857176567454"
    },
    {
      "id": "pt.ine.add.PTCONT.702244",
      "street": "R D TERESA",
      "house": "42",
      "postcode": "4800-074",
      "city": "GUIMARÃES",
      "lon": "-8.287895249588129",
      "lat": "41.45026294942669"
    },
    {
      "id": "pt.ine.add.PTCONT.702246",
      "street": "R CAP ALFREDO GUIMARÃES",
      "house": "226",
      "postcode": "4800-026",
      "city": "GUIMARÃES",
      "lon": "-8.293286677878525",
      "lat": "41.44786952834023"
    },
    {
      "id": "pt.ine.add.PTCONT.705092",
      "street": "R DR JOAQUIM DE MEIRA",
      "house": "225",
      "postcode": "4800-010",
      "city": "GUIMARÃES",
      "lon": "-8.292997702440752",
      "lat": "41.44714961598411"
    },
    {
      "id": "pt.ine.add.PTCONT.705093",
      "street": "R DR JOAQUIM DE MEIRA",
      "house": "225",
      "postcode": "4800-010",
      "city": "GUIMARÃES",
      "lon": "-8.292997702440752",
      "lat": "41.44714961598411"
    },
    {
      "id": "pt.ine.add.PTCONT.711132",
      "street": "R CAP ALFREDO GUIMARÃES",
      "house": "137",
      "postcode": "4800-026",
      "city": "GUIMARÃES",
      "lon": "-8.29319005692907",
      "lat": "41.44750950566776"
    },
    {
      "id": "pt.ine.add.PTCONT.711133",
      "street": "R CAP ALFREDO GUIMARÃES",
      "house": "132",
      "postcode": "4800-026",
      "city": "GUIMARÃES",
      "lon": "-8.29319005692907",
      "lat": "41.44750950566776"
    },
    {
      "id": "pt.ine.add.PTCONT.711134",
      "street": "R CAP ALFREDO GUIMARÃES",
      "house": "132",
      "postcode": "4800-026",
      "city": "GUIMARÃES",
      "lon": "-8.29319005692907",
      "lat": "41.44750950566776"
    },
    {
      "id": "pt.ine.add.PTCONT.718254",
      "street": "R D TERESA",
      "house": "",
      "postcode": "4800-074",
      "city": "GUIMARÃES",
      "lon": "-8.292235081475717",
      "lat": "41.44848325484416"
    },
    {
      "id": "pt.ine.add.PTCONT.718947",
      "street": "R CAP ALFREDO GUIMARÃES",
      "house": "436",
      "postcode": "4800-026",
      "city": "GUIMARÃES",
      "lon": "-8.293313181114703",
      "lat": "41.448913947075305"
    },
    {
      "id": "pt.ine.add.PTCONT.729097",
      "street": "R S TORCATO",
      "house": "127",
      "postcode": "4800-024",
      "city": "GUIMARÃES",
      "lon": "-8.287190195481875",
      "lat": "41.45069608431057"
    },
    {
      "id": "pt.ine.add.PTCONT.731384",
      "street": "R DR JOAQUIM DE MEIRA",
      "house": "52",
      "postcode": "4800-010",
      "city": "GUIMARÃES",
      "lon": "-8.293308485565895",
      "lat": "41.44700512074935"
    },
    {
      "id": "pt.ine.add.PTCONT.735042",
      "street": "R CAP ALFREDO GUIMARÃES",
      "house": "20",
      "postcode": "4800-026",
      "city": "GUIMARÃES",
      "lon": "-8.293394225385478",
      "lat": "41.44780635104526"
    },
    {
      "id": "pt.ine.add.PTCONT.738035",
      "street": "R CAP ALFREDO GUIMARÃES",
      "house": "132",
      "postcode": "4800-026",
      "city": "GUIMARÃES",
      "lon": "-8.29339349410353",
      "lat": "41.447509222404605"
    },
    {
      "id": "pt.ine.add.PTCONT.761444",
      "street": "R S TORCATO",
      "house": "3",
      "postcode": "4800-024",
      "city": "GUIMARÃES",
      "lon": "-8.287739865788051",
      "lat": "41.45034419371662"
    },
    {
      "id": "pt.ine.add.PTCONT.761445",
      "street": "R S TORCATO",
      "house": "3",
      "postcode": "4800-024",
      "city": "GUIMARÃES",
      "lon": "-8.287739865788051",
      "lat": "41.45034419371662"
    },
    {
      "id": "pt.ine.add.PTCONT.763081",
      "street": "R S TORCATO",
      "house": "3",
      "postcode": "4800-024",
      "city": "GUIMARÃES",
      "lon": "-8.287739865788051",
      "lat": "41.45034419371662"
    },
    {
      "id": "pt.ine.add.PTCONT.771071",
      "street": "R CAP ALFREDO GUIMARÃES",
      "house": "18",
      "postcode": "4800-026",
      "city": "GUIMARÃES",
      "lon": "-8.293393848663104",
      "lat": "41.447653284777765"
    },
    {
      "id": "pt.ine.add.PTCONT.774100",
      "street": "R S TORCATO",
      "house": "",
      "postcode": "4800-024",
      "city": "GUIMARÃES",
      "lon": "-8.287261872484699",
      "lat": "41.45064196473836"
    },
    {
      "id": "pt.ine.add.PTCONT.777071",
      "street": "R CAP ALFREDO GUIMARÃES",
      "house": "89",
      "postcode": "4800-026",
      "city": "GUIMARÃES",
      "lon": "-8.29341718409396",
      "lat": "41.447410146172366"
    },
    {
      "id": "pt.ine.add.PTCONT.777072",
      "street": "R CAP ALFREDO GUIMARÃES",
      "house": "89",
      "postcode": "4800-026",
      "city": "GUIMARÃES",
      "lon": "-8.29341718409396",
      "lat": "41.447410146172366"
    },
    {
      "id": "pt.ine.add.PTCONT.795612",
      "street": "VLA RIBEIRINHO",
      "house": "180",
      "postcode": "4800-024",
      "city": "GUIMARÃES",
      "lon": "-8.28771798319932",
      "lat": "41.45120859987892"
    },
    {
      "id": "pt.ine.add.PTCONT.799096",
      "street": "R DR JOAQUIM DE MEIRA",
      "house": "231",
      "postcode": "4800-010",
      "city": "GUIMARÃES",
      "lon": "-8.292854188860062",
      "lat": "41.44718583107329"
    },
    {
      "id": "pt.ine.add.PTCONT.801063",
      "street": "R D TERESA",
      "house": "48",
      "postcode": "4800-074",
      "city": "GUIMARÃES",
      "lon": "-8.287954979546294",
      "lat": "41.45021784941835"
    },
    {
      "id": "pt.ine.add.PTCONT.811436",
      "street": "R CAP ALFREDO GUIMARÃES",
      "house": "304",
      "postcode": "4800-026",
      "city": "GUIMARÃES",
      "lon": "-8.293348085608898",
      "lat": "41.44850872172854"
    },
    {
      "id": "pt.ine.add.PTCONT.814402",
      "street": "R S TORCATO",
      "house": "151",
      "postcode": "4800-024",
      "city": "GUIMARÃES",
      "lon": "-8.287166622642687",
      "lat": "41.45084918259777"
    },
    {
      "id": "pt.ine.add.PTCONT.817851",
      "street": "R S TORCATO",
      "house": "37",
      "postcode": "4800-024",
      "city": "GUIMARÃES",
      "lon": "-8.287548600658615",
      "lat": "41.450434489896274"
    },
    {
      "id": "pt.ine.add.PTCONT.824717",
      "street": "R CAP ALFREDO GUIMARÃES",
      "house": "80",
      "postcode": "4800-026",
      "city": "GUIMARÃES",
      "lon": "-8.293428862827422",
      "lat": "41.447293078813516"
    },
    {
      "id": "pt.ine.add.PTCONT.828045",
      "street": "PCT ROTARY CLUB DE GUIMARÃES",
      "house": "",
      "postcode": "4800-019",
      "city": "GUIMARÃES",
      "lon": "-8.292609368588773",
      "lat": "41.44983332553361"
    },
    {
      "id": "pt.ine.add.PTCONT.834978",
      "street": "R D TERESA",
      "house": "",
      "postcode": "4800-074",
      "city": "GUIMARÃES",
      "lon": "-8.292186817298777",
      "lat": "41.44832125088984"
    }
  ]
}