{
  "data": {
    "ilha": "Ilha da Madeira (Madeira)",
    "concelho": "Calheta",
    "freguesia": "Arco da Calheta",
    "OBJECTID": 136,
    "BGRI2021": "31010100201",
    "DT21": "31",
    "DTMN21": "3101",
    "DTMNFR21": "310101",
    "DTMNFRSEC21": "310101002",
    "SECNUM21": "002",
    "SSNUM21": "01",
    "SECSSNUM21": "00201",
    "OBJECTID_1": 203369,
    "DT": "31",
    "CC": "01",
    "fr": "01",
    "SEC": "002",
    "SS": "01",
    "BGRI2021_1": "31010100201"
  },
  "addresses": [
    {
      "id": "pt.ine.add.MAD.24306",
      "street": "ER 225",
      "house": "",
      "postcode": "9370-042",
      "city": "ARCO DA CALHETA",
      "lon": "-17.145171347507652",
      "lat": "32.71296836074723"
    },
    {
      "id": "pt.ine.add.MAD.24307",
      "street": "ER 225",
      "house": "85",
      "postcode": "9370-042",
      "city": "ARCO DA CALHETA",
      "lon": "-17.145861927749696",
      "lat": "32.71240643366254"
    },
    {
      "id": "pt.ine.add.MAD.24308",
      "street": "ER 225",
      "house": "83",
      "postcode": "9370-042",
      "city": "ARCO DA CALHETA",
      "lon": "-17.146087142859745",
      "lat": "32.71245668680323"
    },
    {
      "id": "pt.ine.add.MAD.24309",
      "street": "ER 225",
      "house": "81",
      "postcode": "9370-042",
      "city": "ARCO DA CALHETA",
      "lon": "-17.14630536675806",
      "lat": "32.71266036764451"
    },
    {
      "id": "pt.ine.add.MAD.24310",
      "street": "ER 225",
      "house": "79",
      "postcode": "9370-042",
      "city": "ARCO DA CALHETA",
      "lon": "-17.14648296364889",
      "lat": "32.71250401815972"
    },
    {
      "id": "pt.ine.add.MAD.24311",
      "street": "VR LUZIRAO",
      "house": "7",
      "postcode": "9370-050",
      "city": "ARCO DA CALHETA",
      "lon": "-17.146447007645236",
      "lat": "32.71278419624184"
    },
    {
      "id": "pt.ine.add.MAD.24434",
      "street": "TV FONTE",
      "house": "8",
      "postcode": "9370-050",
      "city": "ARCO DA CALHETA",
      "lon": "-17.147244562268263",
      "lat": "32.71268035498542"
    },
    {
      "id": "pt.ine.add.MAD.24435",
      "street": "TV FONTE",
      "house": "10",
      "postcode": "9370-050",
      "city": "ARCO DA CALHETA",
      "lon": "-17.147377270153765",
      "lat": "32.712876480629504"
    },
    {
      "id": "pt.ine.add.MAD.24436",
      "street": "TV FONTE",
      "house": "14",
      "postcode": "9370-050",
      "city": "ARCO DA CALHETA",
      "lon": "-17.14747820602331",
      "lat": "32.71308216858347"
    },
    {
      "id": "pt.ine.add.MAD.24437",
      "street": "VR LUZIRAO",
      "house": "",
      "postcode": "9370-050",
      "city": "ARCO DA CALHETA",
      "lon": "-17.146290519981328",
      "lat": "32.712931166096546"
    },
    {
      "id": "pt.ine.add.MAD.24438",
      "street": "R PADRE JOSE EDUARDO FARIA",
      "house": "",
      "postcode": "9370-050",
      "city": "ARCO DA CALHETA",
      "lon": "-17.14595578539219",
      "lat": "32.71320744148982"
    },
    {
      "id": "pt.ine.add.MAD.24908",
      "street": "TV FONTE",
      "house": "13",
      "postcode": "9370-050",
      "city": "ARCO DA CALHETA",
      "lon": "-17.14757244336418",
      "lat": "32.71300840894242"
    },
    {
      "id": "pt.ine.add.MAD.25076",
      "street": "TV FONTE",
      "house": "",
      "postcode": "9370-050",
      "city": "ARCO DA CALHETA",
      "lon": "-17.14757294981117",
      "lat": "32.71258454778124"
    },
    {
      "id": "pt.ine.add.MAD.25077",
      "street": "R BICA",
      "house": "34",
      "postcode": "9370-085",
      "city": "ARCO DA CALHETA",
      "lon": "-17.148153498448536",
      "lat": "32.712772998937076"
    },
    {
      "id": "pt.ine.add.MAD.25078",
      "street": "ER 225",
      "house": "49",
      "postcode": "9370-042",
      "city": "ARCO DA CALHETA",
      "lon": "-17.14832150638906",
      "lat": "32.71132721764067"
    },
    {
      "id": "pt.ine.add.MAD.25079",
      "street": "R BICA",
      "house": "26",
      "postcode": "9370-085",
      "city": "ARCO DA CALHETA",
      "lon": "-17.148993985305907",
      "lat": "32.71223554034655"
    },
    {
      "id": "pt.ine.add.MAD.25080",
      "street": "R BICA",
      "house": "26",
      "postcode": "9370-085",
      "city": "ARCO DA CALHETA",
      "lon": "-17.148993985305907",
      "lat": "32.71223554034655"
    },
    {
      "id": "pt.ine.add.MAD.25081",
      "street": "R BICA",
      "house": "28",
      "postcode": "9370-085",
      "city": "ARCO DA CALHETA",
      "lon": "-17.148726334493603",
      "lat": "32.7121950380392"
    },
    {
      "id": "pt.ine.add.MAD.25082",
      "street": "IMP ESCOLA",
      "house": "2",
      "postcode": "9370-085",
      "city": "ARCO DA CALHETA",
      "lon": "-17.148900898987762",
      "lat": "32.71191248332131"
    },
    {
      "id": "pt.ine.add.MAD.25083",
      "street": "R BICA",
      "house": "8",
      "postcode": "9370-085",
      "city": "ARCO DA CALHETA",
      "lon": "-17.15003390027766",
      "lat": "32.71245217897017"
    },
    {
      "id": "pt.ine.add.MAD.59574",
      "street": "VR LUZIRAO",
      "house": "",
      "postcode": "9370-050",
      "city": "ARCO DA CALHETA",
      "lon": "-17.146304854330705",
      "lat": "32.713084229045755"
    },
    {
      "id": "pt.ine.add.MAD.60881",
      "street": "IMP ESCOLA",
      "house": "10",
      "postcode": "9370-085",
      "city": "ARCO DA CALHETA",
      "lon": "-17.148102489125048",
      "lat": "32.71198027703441"
    },
    {
      "id": "pt.ine.add.MAD.60887",
      "street": "R PADRE JOSE EDUARDO FARIA",
      "house": "",
      "postcode": "9370-050",
      "city": "ARCO DA CALHETA",
      "lon": "-17.14714592760211",
      "lat": "32.71301571573376"
    },
    {
      "id": "pt.ine.add.MAD.66789",
      "street": "IMP ESCOLA",
      "house": "1",
      "postcode": "9370-085",
      "city": "ARCO DA CALHETA",
      "lon": "-17.149119992578814",
      "lat": "32.712152216776"
    },
    {
      "id": "pt.ine.add.MAD.66796",
      "street": "R PADRE JOSE EDUARDO FARIA",
      "house": "23",
      "postcode": "9370-050",
      "city": "ARCO DA CALHETA",
      "lon": "-17.146795996144544",
      "lat": "32.71310287270425"
    },
    {
      "id": "pt.ine.add.MAD.69296",
      "street": "ER 225",
      "house": "45",
      "postcode": "9370-042",
      "city": "ARCO DA CALHETA",
      "lon": "-17.148868762695372",
      "lat": "32.71146212743478"
    },
    {
      "id": "pt.ine.add.MAD.71931",
      "street": "R BICA",
      "house": "36",
      "postcode": "9370-085",
      "city": "ARCO DA CALHETA",
      "lon": "-17.1478986704136",
      "lat": "32.7128224565121"
    },
    {
      "id": "pt.ine.add.MAD.78450",
      "street": "ER 225",
      "house": "31",
      "postcode": "9370-042",
      "city": "ARCO DA CALHETA",
      "lon": "-17.150120562661787",
      "lat": "32.71206291276844"
    },
    {
      "id": "pt.ine.add.MAD.82127",
      "street": "R PADRE JOSE EDUARDO FARIA",
      "house": "",
      "postcode": "9370-050",
      "city": "ARCO DA CALHETA",
      "lon": "-17.145499654219314",
      "lat": "32.713314449282905"
    },
    {
      "id": "pt.ine.add.MAD.86907",
      "street": "R PADRE JOSE EDUARDO FARIA",
      "house": "",
      "postcode": "9370-050",
      "city": "ARCO DA CALHETA",
      "lon": "-17.14571096986354",
      "lat": "32.71322966882494"
    },
    {
      "id": "pt.ine.add.MAD.86908",
      "street": "R PADRE JOSE EDUARDO FARIA",
      "house": "",
      "postcode": "9370-050",
      "city": "ARCO DA CALHETA",
      "lon": "-17.14571096986354",
      "lat": "32.71322966882494"
    },
    {
      "id": "pt.ine.add.MAD.86909",
      "street": "VR LUZIRAO",
      "house": "",
      "postcode": "9370-050",
      "city": "ARCO DA CALHETA",
      "lon": "-17.14657971400016",
      "lat": "32.71298032279408"
    },
    {
      "id": "pt.ine.add.MAD.92045",
      "street": "ER 225",
      "house": "29",
      "postcode": "9370-042",
      "city": "ARCO DA CALHETA",
      "lon": "-17.150388213532462",
      "lat": "32.71210341208811"
    },
    {
      "id": "pt.ine.add.MAD.104317",
      "street": "R BICA",
      "house": "28",
      "postcode": "9370-085",
      "city": "ARCO DA CALHETA",
      "lon": "-17.148726334493603",
      "lat": "32.7121950380392"
    },
    {
      "id": "pt.ine.add.MAD.105186",
      "street": "ER 225",
      "house": "33",
      "postcode": "9370-042",
      "city": "ARCO DA CALHETA",
      "lon": "-17.14985269568401",
      "lat": "32.71201339844337"
    },
    {
      "id": "pt.ine.add.MAD.129196",
      "street": "TV CONDE",
      "house": "6",
      "postcode": "9370-046",
      "city": "ARCO DA CALHETA",
      "lon": "-17.149226470462207",
      "lat": "32.71169948440083"
    }
  ]
}