{
  "data": {
    "distrito": "Lisboa",
    "concelho": "Odivelas",
    "freguesia": "União das freguesias de Pontinha e Famões",
    "OBJECTID": 149,
    "BGRI2021": "11160800514",
    "DT21": "11",
    "DTMN21": "1116",
    "DTMNFR21": "111608",
    "DTMNFRSEC21": "111608005",
    "SECNUM21": "005",
    "SSNUM21": "14",
    "SECSSNUM21": "00514",
    "OBJECTID_1": 119993,
    "DT": "11",
    "CC": "16",
    "fr": "08",
    "SEC": "005",
    "SS": "14"
  },
  "addresses": [
    {
      "id": "pt.ine.add.PTCONT.2439795",
      "street": "R BEATRIZ COSTA",
      "house": "",
      "postcode": "1679-021",
      "city": "PONTINHA",
      "lon": "-9.217739742132983",
      "lat": "38.78623747016452"
    },
    {
      "id": "pt.ine.add.PTCONT.2528906",
      "street": "R AQUILINO RIBEIRO",
      "house": "297",
      "postcode": "1675-292",
      "city": "PONTINHA",
      "lon": "-9.218182067507824",
      "lat": "38.78656664956397"
    },
    {
      "id": "pt.ine.add.PTCONT.2698616",
      "street": "R BEATRIZ COSTA",
      "house": "310",
      "postcode": "1675-610",
      "city": "PONTINHA",
      "lon": "-9.2181553667899",
      "lat": "38.78632368875595"
    },
    {
      "id": "pt.ine.add.PTCONT.2851330",
      "street": "R BEATRIZ COSTA",
      "house": "",
      "postcode": "1675-170",
      "city": "PONTINHA",
      "lon": "-9.217878374570983",
      "lat": "38.78627221417099"
    },
    {
      "id": "pt.ine.add.PTCONT.2962887",
      "street": "R ALFREDO MARCENEIRO",
      "house": "308",
      "postcode": "1675-288",
      "city": "PONTINHA",
      "lon": "-9.218433042194695",
      "lat": "38.786420194993404"
    },
    {
      "id": "pt.ine.add.PTCONT.3033644",
      "street": "R AQUILINO RIBEIRO",
      "house": "298",
      "postcode": "1675-292",
      "city": "PONTINHA",
      "lon": "-9.218066312348244",
      "lat": "38.78652268577394"
    },
    {
      "id": "pt.ine.add.PTCONT.3042750",
      "street": "R BEATRIZ COSTA",
      "house": "312",
      "postcode": "1675-610",
      "city": "PONTINHA",
      "lon": "-9.217843443477994",
      "lat": "38.78624551525489"
    },
    {
      "id": "pt.ine.add.PTCONT.3051555",
      "street": "R BEATRIZ COSTA",
      "house": "309",
      "postcode": "1675-610",
      "city": "PONTINHA",
      "lon": "-9.218340301579651",
      "lat": "38.78637601770446"
    },
    {
      "id": "pt.ine.add.PTCONT.3231608",
      "street": "R BEATRIZ COSTA",
      "house": "",
      "postcode": "1675-610",
      "city": "PONTINHA",
      "lon": "-9.217693576838313",
      "lat": "38.7862288909472"
    },
    {
      "id": "pt.ine.add.PTCONT.3238046",
      "street": "R AQUILINO RIBEIRO",
      "house": "296",
      "postcode": "1675-292",
      "city": "PONTINHA",
      "lon": "-9.218366456735664",
      "lat": "38.78658295260693"
    }
  ]
}