{
  "data": {
    "distrito": "Viseu",
    "concelho": "Castro Daire",
    "freguesia": "Moledo",
    "OBJECTID": 110,
    "BGRI2021": "18031300107",
    "DT21": "18",
    "DTMN21": "1803",
    "DTMNFR21": "180313",
    "DTMNFRSEC21": "180313001",
    "SECNUM21": "001",
    "SSNUM21": "07",
    "SECSSNUM21": "00107",
    "OBJECTID_1": 189154,
    "DT": "18",
    "CC": "03",
    "fr": "13",
    "SEC": "001",
    "SS": "07"
  },
  "addresses": [
    {
      "id": "pt.ine.add.PTCONT.5470849",
      "street": "TV LARANJEIRAS",
      "house": "1",
      "postcode": "3600-451",
      "city": "MOLEDO CDR",
      "lon": "-7.92699904136761",
      "lat": "40.805213311711796"
    },
    {
      "id": "pt.ine.add.PTCONT.5488958",
      "street": "R 16 DE MARCO",
      "house": "40",
      "postcode": "3600-451",
      "city": "MOLEDO CDR",
      "lon": "-7.925942925728773",
      "lat": "40.80566166696287"
    },
    {
      "id": "pt.ine.add.PTCONT.5509222",
      "street": "R 25 DE ABRIL",
      "house": "1",
      "postcode": "3600-451",
      "city": "MOLEDO CDR",
      "lon": "-7.925290597147146",
      "lat": "40.80583158760418"
    },
    {
      "id": "pt.ine.add.PTCONT.5525958",
      "street": "R 16 DE MARCO",
      "house": "28",
      "postcode": "3600-451",
      "city": "MOLEDO CDR",
      "lon": "-7.926560201165482",
      "lat": "40.80532959110749"
    },
    {
      "id": "pt.ine.add.PTCONT.5559512",
      "street": "R 16 DE MARCO",
      "house": "31",
      "postcode": "3600-451",
      "city": "MOLEDO CDR",
      "lon": "-7.925872633160174",
      "lat": "40.80540039771447"
    },
    {
      "id": "pt.ine.add.PTCONT.5562237",
      "street": "R 25 DE ABRIL",
      "house": "2",
      "postcode": "3600-451",
      "city": "MOLEDO CDR",
      "lon": "-7.92500603620578",
      "lat": "40.80587609939047"
    },
    {
      "id": "pt.ine.add.PTCONT.5578470",
      "street": "R MANUEL ALMEIDA SEQUEIRA",
      "house": "1",
      "postcode": "3600-451",
      "city": "MOLEDO CDR",
      "lon": "-7.925920344289999",
      "lat": "40.805301429142936"
    },
    {
      "id": "pt.ine.add.PTCONT.5593374",
      "street": "TV LARANJEIRAS",
      "house": "4",
      "postcode": "3600-451",
      "city": "MOLEDO CDR",
      "lon": "-7.926774072586797",
      "lat": "40.805149875109784"
    },
    {
      "id": "pt.ine.add.PTCONT.5605997",
      "street": "R 17 DE MARÇO",
      "house": "6",
      "postcode": "3600-451",
      "city": "MOLEDO CDR",
      "lon": "-7.930370460561688",
      "lat": "40.80331023870024"
    },
    {
      "id": "pt.ine.add.PTCONT.5609701",
      "street": "R MANUEL ALMEIDA SEQUEIRA",
      "house": "",
      "postcode": "3600-451",
      "city": "MOLEDO CDR",
      "lon": "-7.926156687988956",
      "lat": "40.80551797165299"
    },
    {
      "id": "pt.ine.add.PTCONT.5621140",
      "street": "R 16 DE MARCO",
      "house": "26",
      "postcode": "3600-451",
      "city": "MOLEDO CDR",
      "lon": "-7.926702466054783",
      "lat": "40.80531183582076"
    },
    {
      "id": "pt.ine.add.PTCONT.5628712",
      "street": "R 25 DE ABRIL",
      "house": "",
      "postcode": "3600-451",
      "city": "MOLEDO CDR",
      "lon": "-7.925432386232283",
      "lat": "40.805966916858885"
    },
    {
      "id": "pt.ine.add.PTCONT.5628713",
      "street": "R MANUEL ALMEIDA SEQUEIRA",
      "house": "3",
      "postcode": "3600-451",
      "city": "MOLEDO CDR",
      "lon": "-7.926003551494579",
      "lat": "40.80522053413192"
    },
    {
      "id": "pt.ine.add.PTCONT.5628725",
      "street": "R 16 DE MARÇO",
      "house": "",
      "postcode": "3600-451",
      "city": "MOLEDO CDR",
      "lon": "-7.930607660171472",
      "lat": "40.80324762067538"
    },
    {
      "id": "pt.ine.add.PTCONT.5643577",
      "street": "TV LARANJEIRAS",
      "house": "",
      "postcode": "3600-451",
      "city": "MOLEDO CDR",
      "lon": "-7.926940038481636",
      "lat": "40.80513216190954"
    }
  ]
}