{
  "data": {
    "distrito": "Santarém",
    "concelho": "Salvaterra de Magos",
    "freguesia": "União das freguesias de Glória do Ribatejo e Granho",
    "OBJECTID": 256,
    "BGRI2021": "14150700222",
    "DT21": "14",
    "DTMN21": "1415",
    "DTMNFR21": "141507",
    "DTMNFRSEC21": "141507002",
    "SECNUM21": "002",
    "SSNUM21": "22",
    "SECSSNUM21": "00222",
    "OBJECTID_1": 153533,
    "DT": "14",
    "CC": "15",
    "fr": "07",
    "SEC": "002",
    "SS": "22"
  },
  "addresses": [
    {
      "id": "pt.ine.add.PTCONT.4396828",
      "street": "R ANTÓNIO AUGUSTO MARTINGIL",
      "house": "",
      "postcode": "2125-012",
      "city": "GLÓRIA DO RIBATEJO",
      "lon": "-8.619545897232538",
      "lat": "39.06981562710587"
    },
    {
      "id": "pt.ine.add.PTCONT.4435255",
      "street": "R ANTÓNIO AUGUSTO MARTINGIL",
      "house": "",
      "postcode": "2125-012",
      "city": "GLÓRIA DO RIBATEJO",
      "lon": "-8.624875341109279",
      "lat": "39.07184700137893"
    },
    {
      "id": "pt.ine.add.PTCONT.4460304",
      "street": "R ANTÓNIO AUGUSTO MARTINGIL",
      "house": "",
      "postcode": "2125-012",
      "city": "GLÓRIA DO RIBATEJO",
      "lon": "-8.62557494330091",
      "lat": "39.07108741287695"
    },
    {
      "id": "pt.ine.add.PTCONT.4464853",
      "street": "R JUNCO",
      "house": "",
      "postcode": "2125-012",
      "city": "GLÓRIA DO RIBATEJO",
      "lon": "-8.619395128904856",
      "lat": "39.069735187716944"
    },
    {
      "id": "pt.ine.add.PTCONT.4478838",
      "street": "R JUNCO",
      "house": "",
      "postcode": "2125-012",
      "city": "GLÓRIA DO RIBATEJO",
      "lon": "-8.62010341495643",
      "lat": "39.06855223928176"
    },
    {
      "id": "pt.ine.add.PTCONT.4494441",
      "street": "R COCHARRINHO",
      "house": "",
      "postcode": "2125-012",
      "city": "GLÓRIA DO RIBATEJO",
      "lon": "-8.624174989000881",
      "lat": "39.069165695453826"
    },
    {
      "id": "pt.ine.add.PTCONT.4507469",
      "street": "R ANTÓNIO AUGUSTO MARTINGIL",
      "house": "",
      "postcode": "2125-012",
      "city": "GLÓRIA DO RIBATEJO",
      "lon": "-8.624996069392635",
      "lat": "39.070927719734335"
    },
    {
      "id": "pt.ine.add.PTCONT.4520418",
      "street": "R ANTÓNIO AUGUSTO MARTINGIL",
      "house": "",
      "postcode": "2125-012",
      "city": "GLÓRIA DO RIBATEJO",
      "lon": "-8.627112130084756",
      "lat": "39.07279234973106"
    },
    {
      "id": "pt.ine.add.PTCONT.4576557",
      "street": "R ANTÓNIO AUGUSTO MARTINGIL",
      "house": "74",
      "postcode": "2125-012",
      "city": "GLÓRIA DO RIBATEJO",
      "lon": "-8.628526497283419",
      "lat": "39.071795516689065"
    },
    {
      "id": "pt.ine.add.PTCONT.4583410",
      "street": "R ANTÓNIO AUGUSTO MARTINGIL",
      "house": "",
      "postcode": "2125-401",
      "city": "GRANHO",
      "lon": "-8.627822187547695",
      "lat": "39.07022218148745"
    },
    {
      "id": "pt.ine.add.PTCONT.4592845",
      "street": "R ANTÓNIO AUGUSTO MARTINGIL",
      "house": "",
      "postcode": "2125-012",
      "city": "GLÓRIA DO RIBATEJO",
      "lon": "-8.625274013629202",
      "lat": "39.07101662274512"
    },
    {
      "id": "pt.ine.add.PTCONT.4601744",
      "street": "R ANTÓNIO AUGUSTO MARTINGIL",
      "house": "6",
      "postcode": "2125-012",
      "city": "GLÓRIA DO RIBATEJO",
      "lon": "-8.626578935480254",
      "lat": "39.067579221623475"
    },
    {
      "id": "pt.ine.add.PTCONT.4631222",
      "street": "R COCHARRINHO",
      "house": "36",
      "postcode": "2125-012",
      "city": "GLÓRIA DO RIBATEJO",
      "lon": "-8.624323451339267",
      "lat": "39.06891285803016"
    }
  ]
}