{
  "data": {
    "distrito": "Santar√©m",
    "concelho": "Rio Maior",
    "freguesia": "Rio Maior",
    "OBJECTID": 149,
    "BGRI2021": "14140800505",
    "DT21": "14",
    "DTMN21": "1414",
    "DTMNFR21": "141408",
    "DTMNFRSEC21": "141408005",
    "SECNUM21": "005",
    "SSNUM21": "05",
    "SECSSNUM21": "00505",
    "OBJECTID_1": 152737,
    "DT": "14",
    "CC": "14",
    "fr": "08",
    "SEC": "005",
    "SS": "05"
  },
  "addresses": [
    {
      "id": "pt.ine.add.PTCONT.4446215",
      "street": "R LATINO COELHO",
      "house": "7",
      "postcode": "2040-315",
      "city": "RIO MAIOR",
      "lon": "-8.93973213180163",
      "lat": "39.337708698918384"
    },
    {
      "id": "pt.ine.add.PTCONT.4446216",
      "street": "R LATINO COELHO",
      "house": "7",
      "postcode": "2040-315",
      "city": "RIO MAIOR",
      "lon": "-8.93973213180163",
      "lat": "39.337708698918384"
    },
    {
      "id": "pt.ine.add.PTCONT.4446217",
      "street": "R LATINO COELHO",
      "house": "7",
      "postcode": "2040-315",
      "city": "RIO MAIOR",
      "lon": "-8.93973213180163",
      "lat": "39.337708698918384"
    },
    {
      "id": "pt.ine.add.PTCONT.4460765",
      "street": "R LATINO COELHO",
      "house": "3",
      "postcode": "2040-315",
      "city": "RIO MAIOR",
      "lon": "-8.939880524835464",
      "lat": "39.33750050821298"
    },
    {
      "id": "pt.ine.add.PTCONT.4494526",
      "street": "R DQ DE COIMBRA",
      "house": "6",
      "postcode": "2040-312",
      "city": "RIO MAIOR",
      "lon": "-8.940125532163666",
      "lat": "39.33762490838241"
    },
    {
      "id": "pt.ine.add.PTCONT.4494527",
      "street": "R DQ DE COIMBRA",
      "house": "6",
      "postcode": "2040-312",
      "city": "RIO MAIOR",
      "lon": "-8.940125532163666",
      "lat": "39.33762490838241"
    },
    {
      "id": "pt.ine.add.PTCONT.4494528",
      "street": "R DQ DE COIMBRA",
      "house": "6",
      "postcode": "2040-312",
      "city": "RIO MAIOR",
      "lon": "-8.940125532163666",
      "lat": "39.33762490838241"
    },
    {
      "id": "pt.ine.add.PTCONT.4494529",
      "street": "R DQ DE COIMBRA",
      "house": "6",
      "postcode": "2040-312",
      "city": "RIO MAIOR",
      "lon": "-8.940125532163666",
      "lat": "39.33762490838241"
    },
    {
      "id": "pt.ine.add.PTCONT.4508075",
      "street": "R LATINO COELHO",
      "house": "3A",
      "postcode": "2040-315",
      "city": "RIO MAIOR",
      "lon": "-8.939694750185625",
      "lat": "39.337483781680426"
    },
    {
      "id": "pt.ine.add.PTCONT.4517482",
      "street": "R DQ DE COIMBRA",
      "house": "2",
      "postcode": "2040-312",
      "city": "RIO MAIOR",
      "lon": "-8.940252281534368",
      "lat": "39.337551973052655"
    },
    {
      "id": "pt.ine.add.PTCONT.4517483",
      "street": "R DQ DE COIMBRA",
      "house": "2",
      "postcode": "2040-312",
      "city": "RIO MAIOR",
      "lon": "-8.940252281534368",
      "lat": "39.337551973052655"
    },
    {
      "id": "pt.ine.add.PTCONT.4517484",
      "street": "R DQ DE COIMBRA",
      "house": "2",
      "postcode": "2040-312",
      "city": "RIO MAIOR",
      "lon": "-8.940252281534368",
      "lat": "39.337551973052655"
    },
    {
      "id": "pt.ine.add.PTCONT.4517485",
      "street": "R DQ DE COIMBRA",
      "house": "2",
      "postcode": "2040-312",
      "city": "RIO MAIOR",
      "lon": "-8.940252281534368",
      "lat": "39.337551973052655"
    },
    {
      "id": "pt.ine.add.PTCONT.4537392",
      "street": "R D AFONSO HENRIQUES",
      "house": "92",
      "postcode": "2040-273",
      "city": "RIO MAIOR",
      "lon": "-8.940248552887049",
      "lat": "39.33722774503561"
    },
    {
      "id": "pt.ine.add.PTCONT.4591366",
      "street": "R LATINO COELHO",
      "house": "7",
      "postcode": "2040-315",
      "city": "RIO MAIOR",
      "lon": "-8.93976806448032",
      "lat": "39.3378075274554"
    },
    {
      "id": "pt.ine.add.PTCONT.4599668",
      "street": "R D AFONSO HENRIQUES",
      "house": "72",
      "postcode": "2040-273",
      "city": "RIO MAIOR",
      "lon": "-8.940016283623281",
      "lat": "39.33720233438129"
    },
    {
      "id": "pt.ine.add.PTCONT.4622635",
      "street": "R DQ DE COIMBRA",
      "house": "8",
      "postcode": "2040-312",
      "city": "RIO MAIOR",
      "lon": "-8.939814560112973",
      "lat": "39.33781621225172"
    },
    {
      "id": "pt.ine.add.PTCONT.4622636",
      "street": "R DQ DE COIMBRA",
      "house": "8",
      "postcode": "2040-312",
      "city": "RIO MAIOR",
      "lon": "-8.939814560112973",
      "lat": "39.33781621225172"
    },
    {
      "id": "pt.ine.add.PTCONT.4622637",
      "street": "R DQ DE COIMBRA",
      "house": "8",
      "postcode": "2040-312",
      "city": "RIO MAIOR",
      "lon": "-8.939814560112973",
      "lat": "39.33781621225172"
    },
    {
      "id": "pt.ine.add.PTCONT.4622964",
      "street": "R DQ DE COIMBRA",
      "house": "8",
      "postcode": "2040-312",
      "city": "RIO MAIOR",
      "lon": "-8.939814560112973",
      "lat": "39.33781621225172"
    },
    {
      "id": "pt.ine.add.PTCONT.4651914",
      "street": "R LATINO COELHO",
      "house": "3B",
      "postcode": "2040-315",
      "city": "RIO MAIOR",
      "lon": "-8.939695578207772",
      "lat": "39.33755583235912"
    }
  ]
}