{
  "data": {
    "distrito": "Leiria",
    "concelho": "Ã“bidos",
    "freguesia": "Vau",
    "OBJECTID": 430,
    "BGRI2021": "10120700125",
    "DT21": "10",
    "DTMN21": "1012",
    "DTMNFR21": "101207",
    "DTMNFRSEC21": "101207001",
    "SECNUM21": "001",
    "SSNUM21": "25",
    "SECSSNUM21": "00125",
    "OBJECTID_1": 93708,
    "DT": "10",
    "CC": "12",
    "fr": "07",
    "SEC": "001",
    "SS": "25"
  },
  "addresses": [
    {
      "id": "pt.ine.add.PTCONT.1981501",
      "street": "R FUNDADORES DA FREGUESIA",
      "house": "28",
      "postcode": "2510-665",
      "city": "VAU",
      "lon": "-9.213822047482035",
      "lat": "39.3654072789291"
    },
    {
      "id": "pt.ine.add.PTCONT.2001030",
      "street": "R FUNDADORES DA FREGUESIA",
      "house": "12",
      "postcode": "2510-665",
      "city": "VAU",
      "lon": "-9.211907492982798",
      "lat": "39.365407030942315"
    },
    {
      "id": "pt.ine.add.PTCONT.2024812",
      "street": "R FUNDADORES DA FREGUESIA CASA BOM SUCESSO",
      "house": "10",
      "postcode": "2510-665",
      "city": "VAU",
      "lon": "-9.21167573638247",
      "lat": "39.36542719308797"
    },
    {
      "id": "pt.ine.add.PTCONT.2034169",
      "street": "R BARREIRO",
      "house": "18",
      "postcode": "2510-664",
      "city": "VAU",
      "lon": "-9.213791780540198",
      "lat": "39.36871308018544"
    },
    {
      "id": "pt.ine.add.PTCONT.2040311",
      "street": "R BARREIRO",
      "house": "22",
      "postcode": "2510-664",
      "city": "VAU",
      "lon": "-9.213270929272149",
      "lat": "39.36879897820397"
    },
    {
      "id": "pt.ine.add.PTCONT.2040312",
      "street": "R BARREIRO",
      "house": "22",
      "postcode": "2510-664",
      "city": "VAU",
      "lon": "-9.213270929272149",
      "lat": "39.36879897820397"
    },
    {
      "id": "pt.ine.add.PTCONT.2048141",
      "street": "R FUNDADORES DA FREGUESIA",
      "house": "24",
      "postcode": "2510-665",
      "city": "VAU",
      "lon": "-9.213391814127695",
      "lat": "39.365348225856806"
    },
    {
      "id": "pt.ine.add.PTCONT.2060298",
      "street": "R CHAFARIZ",
      "house": "13",
      "postcode": "2510-665",
      "city": "VAU",
      "lon": "-9.210264322194885",
      "lat": "39.36494488911126"
    },
    {
      "id": "pt.ine.add.PTCONT.2093094",
      "street": "R CHAFARIZ",
      "house": "1",
      "postcode": "2510-665",
      "city": "VAU",
      "lon": "-9.211068433237317",
      "lat": "39.36517162139045"
    },
    {
      "id": "pt.ine.add.PTCONT.2093698",
      "street": "R FUNDADORES DA FREGUESIA",
      "house": "22",
      "postcode": "2510-665",
      "city": "VAU",
      "lon": "-9.213148733997189",
      "lat": "39.365386509799436"
    },
    {
      "id": "pt.ine.add.PTCONT.2097092",
      "street": "R BARREIRO",
      "house": "26",
      "postcode": "2510-664",
      "city": "VAU",
      "lon": "-9.212422717794748",
      "lat": "39.368725787290444"
    },
    {
      "id": "pt.ine.add.PTCONT.2099700",
      "street": "R FUNDADORES DA FREGUESIA",
      "house": "8",
      "postcode": "2510-665",
      "city": "VAU",
      "lon": "-9.211454196238876",
      "lat": "39.36535719138745"
    },
    {
      "id": "pt.ine.add.PTCONT.2102856",
      "street": "R BARREIRO",
      "house": "20",
      "postcode": "2510-664",
      "city": "VAU",
      "lon": "-9.213432527936195",
      "lat": "39.36874343678059"
    },
    {
      "id": "pt.ine.add.PTCONT.2115540",
      "street": "R CHAFARIZ",
      "house": "7",
      "postcode": "2510-665",
      "city": "VAU",
      "lon": "-9.210486275038479",
      "lat": "39.36504190988853"
    },
    {
      "id": "pt.ine.add.PTCONT.2125784",
      "street": "R FUNDADORES DA FREGUESIA",
      "house": "16",
      "postcode": "2510-665",
      "city": "VAU",
      "lon": "-9.212243248716474",
      "lat": "39.365358883286014"
    },
    {
      "id": "pt.ine.add.PTCONT.2136739",
      "street": "R CHAFARIZ",
      "house": "3",
      "postcode": "2510-665",
      "city": "VAU",
      "lon": "-9.210975066270896",
      "lat": "39.36513645880569"
    },
    {
      "id": "pt.ine.add.PTCONT.2136740",
      "street": "R CHAFARIZ",
      "house": "3",
      "postcode": "2510-665",
      "city": "VAU",
      "lon": "-9.210975066270896",
      "lat": "39.36513645880569"
    },
    {
      "id": "pt.ine.add.PTCONT.2156280",
      "street": "R FUNDADORES DA FREGUESIA",
      "house": "14",
      "postcode": "2510-665",
      "city": "VAU",
      "lon": "-9.212092842723157",
      "lat": "39.36538729866056"
    },
    {
      "id": "pt.ine.add.PTCONT.2162867",
      "street": "R CHAFARIZ",
      "house": "5",
      "postcode": "2510-665",
      "city": "VAU",
      "lon": "-9.210893301033272",
      "lat": "39.36510118868669"
    },
    {
      "id": "pt.ine.add.PTCONT.2191348",
      "street": "R FUNDADORES DA FREGUESIA",
      "house": "18",
      "postcode": "2510-665",
      "city": "VAU",
      "lon": "-9.212463957786332",
      "lat": "39.36537484996811"
    },
    {
      "id": "pt.ine.add.PTCONT.2193006",
      "street": "R FUNDADORES DA FREGUESIA",
      "house": "20",
      "postcode": "2510-665",
      "city": "VAU",
      "lon": "-9.212917948758184",
      "lat": "39.36546971349108"
    },
    {
      "id": "pt.ine.add.PTCONT.2202726",
      "street": "R FUNDADORES DA FREGUESIA CASA DAS SERRADAS",
      "house": "6",
      "postcode": "2510-665",
      "city": "VAU",
      "lon": "-9.211349227165588",
      "lat": "39.365322136624386"
    },
    {
      "id": "pt.ine.add.PTCONT.2202730",
      "street": "R FUNDADORES DA FREGUESIA",
      "house": "26",
      "postcode": "2510-665",
      "city": "VAU",
      "lon": "-9.213543884798275",
      "lat": "39.36542787578351"
    },
    {
      "id": "pt.ine.add.PTCONT.2202731",
      "street": "R FUNDADORES DA FREGUESIA",
      "house": "30",
      "postcode": "2510-665",
      "city": "VAU",
      "lon": "-9.214158218343375",
      "lat": "39.3653861425037"
    },
    {
      "id": "pt.ine.add.PTCONT.2219765",
      "street": "R BARREIRO",
      "house": "28",
      "postcode": "2510-664",
      "city": "VAU",
      "lon": "-9.211273159197553",
      "lat": "39.36942997323247"
    },
    {
      "id": "pt.ine.add.PTCONT.2237469",
      "street": "ESTR FORNOS",
      "house": "17",
      "postcode": "2510-663",
      "city": "VAU",
      "lon": "-9.208617450190902",
      "lat": "39.36650930440669"
    },
    {
      "id": "pt.ine.add.PTCONT.2251378",
      "street": "R BARREIRO",
      "house": "16",
      "postcode": "2510-664",
      "city": "VAU",
      "lon": "-9.213907247405576",
      "lat": "39.368675980272876"
    },
    {
      "id": "pt.ine.add.PTCONT.2268638",
      "street": "R BARREIRO",
      "house": "24",
      "postcode": "2510-664",
      "city": "VAU",
      "lon": "-9.212494411063352",
      "lat": "39.36886022523737"
    }
  ]
}