{
  "data": {
    "distrito": "Lisboa",
    "concelho": "Cadaval",
    "freguesia": "Vilar",
    "OBJECTID": 327,
    "BGRI2021": "11041000124",
    "DT21": "11",
    "DTMN21": "1104",
    "DTMNFR21": "110410",
    "DTMNFRSEC21": "110410001",
    "SECNUM21": "001",
    "SSNUM21": "24",
    "SECSSNUM21": "00124",
    "OBJECTID_1": 100070,
    "DT": "11",
    "CC": "04",
    "fr": "10",
    "SEC": "001",
    "SS": "24"
  },
  "addresses": [
    {
      "id": "pt.ine.add.PTCONT.2273457",
      "street": "R ARNEIROS",
      "house": "20",
      "postcode": "2550-069",
      "city": "VILAR CDV",
      "lon": "-9.112742327983353",
      "lat": "39.18881807061557"
    },
    {
      "id": "pt.ine.add.PTCONT.2414448",
      "street": "R ALEGRIA",
      "house": "7",
      "postcode": "2550-069",
      "city": "VILAR CDV",
      "lon": "-9.113029459969482",
      "lat": "39.18949119528679"
    },
    {
      "id": "pt.ine.add.PTCONT.2451027",
      "street": "R ARNEIROS",
      "house": "3",
      "postcode": "2550-069",
      "city": "VILAR CDV",
      "lon": "-9.112661122464262",
      "lat": "39.18963840779497"
    },
    {
      "id": "pt.ine.add.PTCONT.2607909",
      "street": "R ARNEIROS",
      "house": "9",
      "postcode": "2550-069",
      "city": "VILAR CDV",
      "lon": "-9.112608758365901",
      "lat": "39.190035164420856"
    },
    {
      "id": "pt.ine.add.PTCONT.2654259",
      "street": "R FONTE",
      "house": "42",
      "postcode": "2550-069",
      "city": "VILAR CDV",
      "lon": "-9.11344421761719",
      "lat": "39.19101892824988"
    },
    {
      "id": "pt.ine.add.PTCONT.2674916",
      "street": "R ARNEIROS",
      "house": "4",
      "postcode": "2550-069",
      "city": "VILAR CDV",
      "lon": "-9.11224299139599",
      "lat": "39.18953383628112"
    },
    {
      "id": "pt.ine.add.PTCONT.2719165",
      "street": "TV VALVERDE",
      "house": "9",
      "postcode": "2550-069",
      "city": "VILAR CDV",
      "lon": "-9.10838852770148",
      "lat": "39.18868346090694"
    },
    {
      "id": "pt.ine.add.PTCONT.2805231",
      "street": "ESTR CANAGA",
      "house": "5",
      "postcode": "2550-069",
      "city": "VILAR CDV",
      "lon": "-9.11266015122572",
      "lat": "39.19373668628728"
    },
    {
      "id": "pt.ine.add.PTCONT.2810104",
      "street": "R ARNEIROS",
      "house": "20A",
      "postcode": "2550-069",
      "city": "VILAR CDV",
      "lon": "-9.112710359993008",
      "lat": "39.18901649762652"
    },
    {
      "id": "pt.ine.add.PTCONT.2810105",
      "street": "R ARNEIROS",
      "house": "29",
      "postcode": "2550-069",
      "city": "VILAR CDV",
      "lon": "-9.111104585398706",
      "lat": "39.18923715349778"
    },
    {
      "id": "pt.ine.add.PTCONT.2871721",
      "street": "R ARNEIROS",
      "house": "35",
      "postcode": "2550-069",
      "city": "VILAR CDV",
      "lon": "-9.109631799549318",
      "lat": "39.18819566558152"
    },
    {
      "id": "pt.ine.add.PTCONT.2926412",
      "street": "R ARNEIROS",
      "house": "8",
      "postcode": "2550-069",
      "city": "VILAR CDV",
      "lon": "-9.112189625184408",
      "lat": "39.18985854363329"
    },
    {
      "id": "pt.ine.add.PTCONT.2939942",
      "street": "TV FONTE RIBEIRA",
      "house": "",
      "postcode": "2550-069",
      "city": "VILAR CDV",
      "lon": "-9.108761726315352",
      "lat": "39.1888875017335"
    },
    {
      "id": "pt.ine.add.PTCONT.2939943",
      "street": "R ARNEIROS",
      "house": "25",
      "postcode": "2550-069",
      "city": "VILAR CDV",
      "lon": "-9.112111688669518",
      "lat": "39.189246709569936"
    },
    {
      "id": "pt.ine.add.PTCONT.2963450",
      "street": "R ARNEIROS",
      "house": "7",
      "postcode": "2550-069",
      "city": "VILAR CDV",
      "lon": "-9.112617455767102",
      "lat": "39.18982792592442"
    },
    {
      "id": "pt.ine.add.PTCONT.3176091",
      "street": "EN 115",
      "house": "40",
      "postcode": "2550-069",
      "city": "VILAR CDV",
      "lon": "-9.113903824603163",
      "lat": "39.18994320451874"
    },
    {
      "id": "pt.ine.add.PTCONT.3241191",
      "street": "ESTR CANAGA",
      "house": "",
      "postcode": "2550-069",
      "city": "VILAR CDV",
      "lon": "-9.109888081951048",
      "lat": "39.19500295225694"
    },
    {
      "id": "pt.ine.add.PTCONT.3260564",
      "street": "QTA MARINHA",
      "house": "",
      "postcode": "2550-069",
      "city": "VILAR CDV",
      "lon": "-9.112985097277225",
      "lat": "39.19213067468805"
    },
    {
      "id": "pt.ine.add.PTCONT.3260706",
      "street": "QTA MARINHA",
      "house": "",
      "postcode": "2550-069",
      "city": "VILAR CDV",
      "lon": "-9.112985097277225",
      "lat": "39.19213067468805"
    },
    {
      "id": "pt.ine.add.PTCONT.3268513",
      "street": "R ARNEIROS",
      "house": "23",
      "postcode": "2550-069",
      "city": "VILAR CDV",
      "lon": "-9.112204522840855",
      "lat": "39.18926394383243"
    },
    {
      "id": "pt.ine.add.PTCONT.3302293",
      "street": "R ARNEIROS",
      "house": "12",
      "postcode": "2550-069",
      "city": "VILAR CDV",
      "lon": "-9.112089840821797",
      "lat": "39.19017463380911"
    },
    {
      "id": "pt.ine.add.PTCONT.3333383",
      "street": "R ARNEIROS",
      "house": "37",
      "postcode": "2550-069",
      "city": "VILAR CDV",
      "lon": "-9.1093388643648",
      "lat": "39.18793691183699"
    },
    {
      "id": "pt.ine.add.PTCONT.3446697",
      "street": "ESTR CANAGA",
      "house": "7",
      "postcode": "2550-069",
      "city": "VILAR CDV",
      "lon": "-9.112627305703803",
      "lat": "39.19387207021165"
    },
    {
      "id": "pt.ine.add.PTCONT.3448495",
      "street": "TV VALVERDE",
      "house": "7",
      "postcode": "2550-069",
      "city": "VILAR CDV",
      "lon": "-9.108549054875061",
      "lat": "39.188574030693886"
    }
  ]
}