{
  "data": {
    "distrito": "Setúbal",
    "concelho": "Grândola",
    "freguesia": "União das freguesias de Grândola e Santa Margarida da Serra",
    "OBJECTID": 553,
    "BGRI2021": "15050600811",
    "DT21": "15",
    "DTMN21": "1505",
    "DTMNFR21": "150506",
    "DTMNFRSEC21": "150506008",
    "SECNUM21": "008",
    "SSNUM21": "11",
    "SECSSNUM21": "00811",
    "OBJECTID_1": 163266,
    "DT": "15",
    "CC": "05",
    "fr": "06",
    "SEC": "008",
    "SS": "11"
  },
  "addresses": [
    {
      "id": "pt.ine.add.PTCONT.4665671",
      "street": "R DR EVARISANTO DE SOUSA GAGO",
      "house": "28",
      "postcode": "7570-249",
      "city": "GRÂNDOLA",
      "lon": "-8.557696462455864",
      "lat": "38.207440480398915"
    },
    {
      "id": "pt.ine.add.PTCONT.4665886",
      "street": "R DR EVARISANTO DE SOUSA GAGO",
      "house": "30",
      "postcode": "7570-249",
      "city": "GRÂNDOLA",
      "lon": "-8.556883377115081",
      "lat": "38.20750662206613"
    },
    {
      "id": "pt.ine.add.PTCONT.4682309",
      "street": "R GEN HUMBERTO DELGADO",
      "house": "18",
      "postcode": "7570-265",
      "city": "GRÂNDOLA",
      "lon": "-8.559012511397828",
      "lat": "38.207821007624474"
    },
    {
      "id": "pt.ine.add.PTCONT.4705883",
      "street": "EN 120",
      "house": "",
      "postcode": "7570-125",
      "city": "GRÂNDOLA",
      "lon": "-8.561048235562149",
      "lat": "38.20738744601801"
    },
    {
      "id": "pt.ine.add.PTCONT.4708545",
      "street": "R GEN HUMBERTO DELGADO",
      "house": "9",
      "postcode": "7570-265",
      "city": "GRÂNDOLA",
      "lon": "-8.5600681135854",
      "lat": "38.207629823898735"
    },
    {
      "id": "pt.ine.add.PTCONT.4717413",
      "street": "R GEN HUMBERTO DELGADO",
      "house": "19",
      "postcode": "7570-265",
      "city": "GRÂNDOLA",
      "lon": "-8.559348697878123",
      "lat": "38.20767290523759"
    },
    {
      "id": "pt.ine.add.PTCONT.4718718",
      "street": "R GEN HUMBERTO DELGADO",
      "house": "5",
      "postcode": "7570-265",
      "city": "GRÂNDOLA",
      "lon": "-8.560459910006173",
      "lat": "38.20761638856264"
    },
    {
      "id": "pt.ine.add.PTCONT.4733726",
      "street": "BR TIRANA",
      "house": "",
      "postcode": "7570-218",
      "city": "GRÂNDOLA",
      "lon": "-8.555853026390096",
      "lat": "38.20931615876883"
    },
    {
      "id": "pt.ine.add.PTCONT.4751528",
      "street": "R DR EVARISANTO DE SOUSA GAGO",
      "house": "6",
      "postcode": "7570-249",
      "city": "GRÂNDOLA",
      "lon": "-8.560785447447794",
      "lat": "38.207169041913644"
    },
    {
      "id": "pt.ine.add.PTCONT.4759234",
      "street": "R GEN HUMBERTO DELGADO",
      "house": "31",
      "postcode": "7570-265",
      "city": "GRÂNDOLA",
      "lon": "-8.55830988355639",
      "lat": "38.207703699015646"
    },
    {
      "id": "pt.ine.add.PTCONT.4762752",
      "street": "R GEN HUMBERTO DELGADO",
      "house": "27",
      "postcode": "7570-265",
      "city": "GRÂNDOLA",
      "lon": "-8.55877288369506",
      "lat": "38.20769358613571"
    },
    {
      "id": "pt.ine.add.PTCONT.4766562",
      "street": "R GEN HUMBERTO DELGADO",
      "house": "4",
      "postcode": "7570-265",
      "city": "GRÂNDOLA",
      "lon": "-8.560639507273384",
      "lat": "38.20771320122506"
    },
    {
      "id": "pt.ine.add.PTCONT.4773589",
      "street": "R DR EVARISANTO DE SOUSA GAGO",
      "house": "14",
      "postcode": "7570-249",
      "city": "GRÂNDOLA",
      "lon": "-8.559859897637471",
      "lat": "38.2072296111911"
    },
    {
      "id": "pt.ine.add.PTCONT.4817637",
      "street": "R GEN HUMBERTO DELGADO",
      "house": "12",
      "postcode": "7570-265",
      "city": "GRÂNDOLA",
      "lon": "-8.560022903856193",
      "lat": "38.207758475276385"
    },
    {
      "id": "pt.ine.add.PTCONT.4834338",
      "street": "EN 120",
      "house": "",
      "postcode": "7570-125",
      "city": "GRÂNDOLA",
      "lon": "-8.560828686704445",
      "lat": "38.20792514417517"
    },
    {
      "id": "pt.ine.add.PTCONT.4840502",
      "street": "R GEN HUMBERTO DELGADO",
      "house": "13",
      "postcode": "7570-265",
      "city": "GRÂNDOLA",
      "lon": "-8.55984767836672",
      "lat": "38.20765078913345"
    },
    {
      "id": "pt.ine.add.PTCONT.4844163",
      "street": "R GEN HUMBERTO DELGADO",
      "house": "15",
      "postcode": "7570-265",
      "city": "GRÂNDOLA",
      "lon": "-8.559742546733512",
      "lat": "38.207647595595695"
    },
    {
      "id": "pt.ine.add.PTCONT.4847699",
      "street": "R DR EVARISANTO DE SOUSA GAGO",
      "house": "4A",
      "postcode": "7570-249",
      "city": "GRÂNDOLA",
      "lon": "-8.56102234820362",
      "lat": "38.20714923110923"
    },
    {
      "id": "pt.ine.add.PTCONT.4855409",
      "street": "R GEN HUMBERTO DELGADO",
      "house": "8",
      "postcode": "7570-265",
      "city": "GRÂNDOLA",
      "lon": "-8.560388481646171",
      "lat": "38.207756149817925"
    },
    {
      "id": "pt.ine.add.PTCONT.4855410",
      "street": "R DR EVARISANTO DE SOUSA GAGO",
      "house": "4",
      "postcode": "7570-249",
      "city": "GRÂNDOLA",
      "lon": "-8.561097254815698",
      "lat": "38.20715259585573"
    },
    {
      "id": "pt.ine.add.PTCONT.4869150",
      "street": "R GEN HUMBERTO DELGADO",
      "house": "21",
      "postcode": "7570-265",
      "city": "GRÂNDOLA",
      "lon": "-8.559223107921605",
      "lat": "38.20767336114994"
    },
    {
      "id": "pt.ine.add.PTCONT.4881787",
      "street": "EN 120",
      "house": "",
      "postcode": "7570-125",
      "city": "GRÂNDOLA",
      "lon": "-8.560760876492212",
      "lat": "38.2087288729283"
    },
    {
      "id": "pt.ine.add.PTCONT.4886963",
      "street": "EN 120",
      "house": "",
      "postcode": "7570-125",
      "city": "GRÂNDOLA",
      "lon": "-8.560624602568431",
      "lat": "38.208882594681455"
    },
    {
      "id": "pt.ine.add.PTCONT.4890434",
      "street": "EN 120",
      "house": "",
      "postcode": "7570-125",
      "city": "GRÂNDOLA",
      "lon": "-8.560666931678536",
      "lat": "38.20898745203586"
    },
    {
      "id": "pt.ine.add.PTCONT.4904814",
      "street": "R DR EVARISANTO DE SOUSA GAGO",
      "house": "24",
      "postcode": "7570-249",
      "city": "GRÂNDOLA",
      "lon": "-8.558387755850879",
      "lat": "38.20728871937783"
    },
    {
      "id": "pt.ine.add.PTCONT.4907539",
      "street": "R DR EVARISANTO DE SOUSA GAGO",
      "house": "10",
      "postcode": "7570-249",
      "city": "GRÂNDOLA",
      "lon": "-8.56044201672999",
      "lat": "38.207200466969844"
    },
    {
      "id": "pt.ine.add.PTCONT.4918775",
      "street": "R GEN HUMBERTO DELGADO",
      "house": "1",
      "postcode": "7570-265",
      "city": "GRÂNDOLA",
      "lon": "-8.560889554404623",
      "lat": "38.20758622049114"
    },
    {
      "id": "pt.ine.add.PTCONT.4920367",
      "street": "R DR EVARISANTO DE SOUSA GAGO",
      "house": "8",
      "postcode": "7570-249",
      "city": "GRÂNDOLA",
      "lon": "-8.560624586435177",
      "lat": "38.207181784440415"
    },
    {
      "id": "pt.ine.add.PTCONT.4921799",
      "street": "EN 120",
      "house": "",
      "postcode": "7570-125",
      "city": "GRÂNDOLA",
      "lon": "-8.560186369546217",
      "lat": "38.20839057417482"
    },
    {
      "id": "pt.ine.add.PTCONT.4921800",
      "street": "R DR EVARISANTO DE SOUSA GAGO",
      "house": "141",
      "postcode": "7570-249",
      "city": "GRÂNDOLA",
      "lon": "-8.559586042554619",
      "lat": "38.20725763309773"
    },
    {
      "id": "pt.ine.add.PTCONT.4921984",
      "street": "CATALAES MILHARADAS",
      "house": "156",
      "postcode": "7570-218",
      "city": "GRÂNDOLA",
      "lon": "-8.55556586974415",
      "lat": "38.209019898256074"
    },
    {
      "id": "pt.ine.add.PTCONT.4921985",
      "street": "BR TIRANA",
      "house": "",
      "postcode": "7570-218",
      "city": "GRÂNDOLA",
      "lon": "-8.55556586974415",
      "lat": "38.209019898256074"
    },
    {
      "id": "pt.ine.add.PTCONT.4931252",
      "street": "R GEN HUMBERTO DELGADO",
      "house": "17",
      "postcode": "7570-265",
      "city": "GRÂNDOLA",
      "lon": "-8.55956374869065",
      "lat": "38.20766111626044"
    },
    {
      "id": "pt.ine.add.PTCONT.4940381",
      "street": "R DR EVARISANTO DE SOUSA GAGO",
      "house": "16",
      "postcode": "7570-249",
      "city": "GRÂNDOLA",
      "lon": "-8.559252942474158",
      "lat": "38.207257125581485"
    },
    {
      "id": "pt.ine.add.PTCONT.4949190",
      "street": "R GEN HUMBERTO DELGADO",
      "house": "14",
      "postcode": "7570-265",
      "city": "GRÂNDOLA",
      "lon": "-8.559726274173777",
      "lat": "38.207778991217296"
    },
    {
      "id": "pt.ine.add.PTCONT.4951043",
      "street": "R GEN HUMBERTO DELGADO",
      "house": "121",
      "postcode": "7570-265",
      "city": "GRÂNDOLA",
      "lon": "-8.55984972746244",
      "lat": "38.20776121928797"
    },
    {
      "id": "pt.ine.add.PTCONT.4990972",
      "street": "EN 120",
      "house": "",
      "postcode": "7570-125",
      "city": "GRÂNDOLA",
      "lon": "-8.560961696590352",
      "lat": "38.208207572782236"
    },
    {
      "id": "pt.ine.add.PTCONT.5016689",
      "street": "EN 120",
      "house": "",
      "postcode": "7570-125",
      "city": "GRÂNDOLA",
      "lon": "-8.5606776497609",
      "lat": "38.20855577518676"
    },
    {
      "id": "pt.ine.add.PTCONT.5038843",
      "street": "MTE DA TIA EMILIA",
      "house": "",
      "postcode": "7570-218",
      "city": "GRÂNDOLA",
      "lon": "-8.559918340826107",
      "lat": "38.208717479753545"
    },
    {
      "id": "pt.ine.add.PTCONT.5042418",
      "street": "R DR EVARISANTO DE SOUSA GAGO",
      "house": "2",
      "postcode": "7570-249",
      "city": "GRÂNDOLA",
      "lon": "-8.561241009127402",
      "lat": "38.20716152025189"
    },
    {
      "id": "pt.ine.add.PTCONT.5042427",
      "street": "R DR EVARISTO SOUSA GAGO",
      "house": "",
      "postcode": "7570-249",
      "city": "GRÂNDOLA",
      "lon": "-8.558252624449294",
      "lat": "38.20730007627112"
    },
    {
      "id": "pt.ine.add.PTCONT.5045982",
      "street": "R GEN HUMBERTO DELGADO",
      "house": "6",
      "postcode": "7570-265",
      "city": "GRÂNDOLA",
      "lon": "-8.560490222104256",
      "lat": "38.20774776244889"
    },
    {
      "id": "pt.ine.add.PTCONT.5049792",
      "street": "",
      "house": "",
      "postcode": "7570-218",
      "city": "GRÂNDOLA",
      "lon": "-8.556572643943781",
      "lat": "38.20936761872857"
    },
    {
      "id": "pt.ine.add.PTCONT.5057972",
      "street": "R GEN HUMBERTO DELGADO",
      "house": "29",
      "postcode": "7570-265",
      "city": "GRÂNDOLA",
      "lon": "-8.558515372874075",
      "lat": "38.20769923840564"
    },
    {
      "id": "pt.ine.add.PTCONT.5073110",
      "street": "R DR EVARISANTO DE SOUSA GAGO",
      "house": "12",
      "postcode": "7570-249",
      "city": "GRÂNDOLA",
      "lon": "-8.560042520192736",
      "lat": "38.207219938291416"
    },
    {
      "id": "pt.ine.add.PTCONT.5073111",
      "street": "R GEN HUMBERTO DELGADO",
      "house": "7",
      "postcode": "7570-265",
      "city": "GRÂNDOLA",
      "lon": "-8.560175914421814",
      "lat": "38.20762008684723"
    },
    {
      "id": "pt.ine.add.PTCONT.5076456",
      "street": "R DR EVARISANTO DE SOUSA GAGO",
      "house": "22",
      "postcode": "7570-249",
      "city": "GRÂNDOLA",
      "lon": "-8.558610443965234",
      "lat": "38.20728104858405"
    },
    {
      "id": "pt.ine.add.PTCONT.5082293",
      "street": "R DR EVARISANTO DE SOUSA GAGO",
      "house": "ZA",
      "postcode": "7570-249",
      "city": "GRÂNDOLA",
      "lon": "-8.561172453252151",
      "lat": "38.20715276132491"
    },
    {
      "id": "pt.ine.add.PTCONT.5087343",
      "street": "R GEN HUMBERTO DELGADO",
      "house": "10",
      "postcode": "7570-265",
      "city": "GRÂNDOLA",
      "lon": "-8.560173367029318",
      "lat": "38.20775821541315"
    },
    {
      "id": "pt.ine.add.PTCONT.5110446",
      "street": "R GEN HUMBERTO DELGADO",
      "house": "16",
      "postcode": "7570-265",
      "city": "GRÂNDOLA",
      "lon": "-8.559459470556",
      "lat": "38.207795238678386"
    },
    {
      "id": "pt.ine.add.PTCONT.5117920",
      "street": "R DR EVARISANTO DE SOUSA GAGO",
      "house": "18",
      "postcode": "7570-249",
      "city": "GRÂNDOLA",
      "lon": "-8.55890919673476",
      "lat": "38.20726523582459"
    },
    {
      "id": "pt.ine.add.PTCONT.5119978",
      "street": "R DR EVARISANTO DE SOUSA GAGO",
      "house": "18",
      "postcode": "7570-249",
      "city": "GRÂNDOLA",
      "lon": "-8.55890919673476",
      "lat": "38.20726523582459"
    },
    {
      "id": "pt.ine.add.PTCONT.5123686",
      "street": "",
      "house": "",
      "postcode": "7570-218",
      "city": "GRÂNDOLA",
      "lon": "-8.55707438847305",
      "lat": "38.209257700835565"
    },
    {
      "id": "pt.ine.add.PTCONT.5123700",
      "street": "R GEN HUMBERTO DELGADO",
      "house": "3",
      "postcode": "7570-265",
      "city": "GRÂNDOLA",
      "lon": "-8.560602678383864",
      "lat": "38.20759851760266"
    },
    {
      "id": "pt.ine.add.PTCONT.5131452",
      "street": "R GEN HUMBERTO DELGADO",
      "house": "23",
      "postcode": "7570-265",
      "city": "GRÂNDOLA",
      "lon": "-8.559097570466644",
      "lat": "38.20768282565402"
    }
  ]
}