{
  "data": {
    "distrito": "Viseu",
    "concelho": "Vouzela",
    "freguesia": "São Miguel do Mato",
    "OBJECTID": 109,
    "BGRI2021": "18241000104",
    "DT21": "18",
    "DTMN21": "1824",
    "DTMNFR21": "182410",
    "DTMNFRSEC21": "182410001",
    "SECNUM21": "001",
    "SSNUM21": "04",
    "SECSSNUM21": "00104",
    "OBJECTID_1": 203045,
    "DT": "18",
    "CC": "24",
    "fr": "10",
    "SEC": "001",
    "SS": "04"
  },
  "addresses": [
    {
      "id": "pt.ine.add.PTCONT.5430559",
      "street": "R ESPÍRITO SANTO",
      "house": "",
      "postcode": "3670-190",
      "city": "SÃO MIGUEL DO MATO VZL",
      "lon": "-8.026370122581813",
      "lat": "40.707670629054704"
    },
    {
      "id": "pt.ine.add.PTCONT.5454444",
      "street": "R BELGUINHA",
      "house": "",
      "postcode": "3670-190",
      "city": "SÃO MIGUEL DO MATO VZL",
      "lon": "-8.027303343164093",
      "lat": "40.70869806846101"
    },
    {
      "id": "pt.ine.add.PTCONT.5492399",
      "street": "R ESPÍRITO SANTO",
      "house": "",
      "postcode": "3670-190",
      "city": "SÃO MIGUEL DO MATO VZL",
      "lon": "-8.02712746563349",
      "lat": "40.707671326808985"
    },
    {
      "id": "pt.ine.add.PTCONT.5538236",
      "street": "R BELGUINHA",
      "house": "",
      "postcode": "3670-190",
      "city": "SÃO MIGUEL DO MATO VZL",
      "lon": "-8.026024095443685",
      "lat": "40.70945331640244"
    },
    {
      "id": "pt.ine.add.PTCONT.5538282",
      "street": "R ESPÍRITO SANTO",
      "house": "",
      "postcode": "3670-190",
      "city": "SÃO MIGUEL DO MATO VZL",
      "lon": "-8.026736989275832",
      "lat": "40.70765295749356"
    },
    {
      "id": "pt.ine.add.PTCONT.5543367",
      "street": "R SERRINHA",
      "house": "",
      "postcode": "3670-190",
      "city": "SÃO MIGUEL DO MATO VZL",
      "lon": "-8.027824620183715",
      "lat": "40.70832033126173"
    },
    {
      "id": "pt.ine.add.PTCONT.5579821",
      "street": "BR ESPIRITO SANTO",
      "house": "",
      "postcode": "3670-190",
      "city": "SÃO MIGUEL DO MATO VZL",
      "lon": "-8.026204511393045",
      "lat": "40.70763445544662"
    },
    {
      "id": "pt.ine.add.PTCONT.5605767",
      "street": "R ESPÍRITO SANTO",
      "house": "",
      "postcode": "3670-190",
      "city": "SÃO MIGUEL DO MATO VZL",
      "lon": "-8.026985506693867",
      "lat": "40.707644181123804"
    },
    {
      "id": "pt.ine.add.PTCONT.5651101",
      "street": "R ESPÍRITO SANTO",
      "house": "",
      "postcode": "3670-190",
      "city": "SÃO MIGUEL DO MATO VZL",
      "lon": "-8.027316673148126",
      "lat": "40.70775254617538"
    },
    {
      "id": "pt.ine.add.PTCONT.5656391",
      "street": "BR ESPIRITO SANTO",
      "house": "",
      "postcode": "3670-190",
      "city": "SÃO MIGUEL DO MATO VZL",
      "lon": "-8.028227428825009",
      "lat": "40.708023529931054"
    }
  ]
}