{
  "data": {
    "distrito": "Porto",
    "concelho": "Gondomar",
    "freguesia": "União das freguesias de Gondomar (São Cosme), Valbom e Jovim",
    "OBJECTID": 1150,
    "BGRI2021": "13041501501",
    "DT21": "13",
    "DTMN21": "1304",
    "DTMNFR21": "130415",
    "DTMNFRSEC21": "130415015",
    "SECNUM21": "015",
    "SSNUM21": "01",
    "SECSSNUM21": "01501",
    "OBJECTID_1": 128578,
    "DT": "13",
    "CC": "04",
    "fr": "15",
    "SEC": "015",
    "SS": "01"
  },
  "addresses": [
    {
      "id": "pt.ine.add.PTCONT.3543813",
      "street": "R OURIVES",
      "house": "174",
      "postcode": "4420-522",
      "city": "VALBOM GDM",
      "lon": "-8.559513981361578",
      "lat": "41.137691338883826"
    },
    {
      "id": "pt.ine.add.PTCONT.3543814",
      "street": "R OURIVES",
      "house": "174",
      "postcode": "4420-522",
      "city": "VALBOM GDM",
      "lon": "-8.559513981361578",
      "lat": "41.137691338883826"
    },
    {
      "id": "pt.ine.add.PTCONT.3543860",
      "street": "R OURIVES",
      "house": "174",
      "postcode": "4420-522",
      "city": "VALBOM GDM",
      "lon": "-8.559513981361578",
      "lat": "41.137691338883826"
    },
    {
      "id": "pt.ine.add.PTCONT.3543861",
      "street": "R OURIVES",
      "house": "174",
      "postcode": "4420-522",
      "city": "VALBOM GDM",
      "lon": "-8.559513981361578",
      "lat": "41.137691338883826"
    },
    {
      "id": "pt.ine.add.PTCONT.3545141",
      "street": "R OURIVES",
      "house": "174",
      "postcode": "4420-522",
      "city": "VALBOM GDM",
      "lon": "-8.559513981361578",
      "lat": "41.137691338883826"
    },
    {
      "id": "pt.ine.add.PTCONT.3630872",
      "street": "R OURIVES",
      "house": "144",
      "postcode": "4420-522",
      "city": "VALBOM GDM",
      "lon": "-8.559451923657026",
      "lat": "41.137304379964796"
    },
    {
      "id": "pt.ine.add.PTCONT.3635546",
      "street": "R OURIVES",
      "house": "144",
      "postcode": "4420-522",
      "city": "VALBOM GDM",
      "lon": "-8.559451923657026",
      "lat": "41.137304379964796"
    },
    {
      "id": "pt.ine.add.PTCONT.3688480",
      "street": "R OURIVES",
      "house": "136",
      "postcode": "4420-522",
      "city": "VALBOM GDM",
      "lon": "-8.559451457228205",
      "lat": "41.13723234659825"
    },
    {
      "id": "pt.ine.add.PTCONT.3688481",
      "street": "R OURIVES",
      "house": "136",
      "postcode": "4420-522",
      "city": "VALBOM GDM",
      "lon": "-8.559451457228205",
      "lat": "41.13723234659825"
    },
    {
      "id": "pt.ine.add.PTCONT.3715056",
      "street": "R PROF FILOMENA MONTEIRO",
      "house": "169",
      "postcode": "4420-538",
      "city": "VALBOM GDM",
      "lon": "-8.559121063771656",
      "lat": "41.137710801365635"
    },
    {
      "id": "pt.ine.add.PTCONT.3715057",
      "street": "R PROF FILOMENA MONTEIRO",
      "house": "169",
      "postcode": "4420-538",
      "city": "VALBOM GDM",
      "lon": "-8.559121063771656",
      "lat": "41.137710801365635"
    },
    {
      "id": "pt.ine.add.PTCONT.3715058",
      "street": "R PROF FILOMENA MONTEIRO",
      "house": "169",
      "postcode": "4420-538",
      "city": "VALBOM GDM",
      "lon": "-8.559121063771656",
      "lat": "41.137710801365635"
    },
    {
      "id": "pt.ine.add.PTCONT.3715059",
      "street": "R PROF FILOMENA MONTEIRO",
      "house": "169",
      "postcode": "4420-538",
      "city": "VALBOM GDM",
      "lon": "-8.559121063771656",
      "lat": "41.137710801365635"
    },
    {
      "id": "pt.ine.add.PTCONT.3715060",
      "street": "R PROF FILOMENA MONTEIRO",
      "house": "169",
      "postcode": "4420-538",
      "city": "VALBOM GDM",
      "lon": "-8.559121063771656",
      "lat": "41.137710801365635"
    },
    {
      "id": "pt.ine.add.PTCONT.3720644",
      "street": "R PROF FILOMENA MONTEIRO",
      "house": "169",
      "postcode": "4420-538",
      "city": "VALBOM GDM",
      "lon": "-8.559121063771656",
      "lat": "41.137710801365635"
    },
    {
      "id": "pt.ine.add.PTCONT.3734730",
      "street": "TV CALVÁRIO DA GIESTA",
      "house": "53",
      "postcode": "4420-392",
      "city": "VALBOM GDM",
      "lon": "-8.558996720724508",
      "lat": "41.13690086633402"
    },
    {
      "id": "pt.ine.add.PTCONT.3734731",
      "street": "TV CALVÁRIO DA GIESTA",
      "house": "53",
      "postcode": "4420-392",
      "city": "VALBOM GDM",
      "lon": "-8.558996720724508",
      "lat": "41.13690086633402"
    },
    {
      "id": "pt.ine.add.PTCONT.3734736",
      "street": "TV CALVÁRIO DA GIESTA",
      "house": "53",
      "postcode": "4420-392",
      "city": "VALBOM GDM",
      "lon": "-8.558996720724508",
      "lat": "41.13690086633402"
    },
    {
      "id": "pt.ine.add.PTCONT.3739693",
      "street": "TV CALVÁRIO DA GIESTA",
      "house": "53",
      "postcode": "4420-392",
      "city": "VALBOM GDM",
      "lon": "-8.558996720724508",
      "lat": "41.13690086633402"
    },
    {
      "id": "pt.ine.add.PTCONT.3760248",
      "street": "R PROF FILOMENA MONTEIRO",
      "house": "201",
      "postcode": "4420-538",
      "city": "VALBOM GDM",
      "lon": "-8.559324002243814",
      "lat": "41.137782085791564"
    },
    {
      "id": "pt.ine.add.PTCONT.3760249",
      "street": "R PROF FILOMENA MONTEIRO",
      "house": "201",
      "postcode": "4420-538",
      "city": "VALBOM GDM",
      "lon": "-8.559324002243814",
      "lat": "41.137782085791564"
    },
    {
      "id": "pt.ine.add.PTCONT.3760250",
      "street": "R PROF FILOMENA MONTEIRO",
      "house": "201",
      "postcode": "4420-538",
      "city": "VALBOM GDM",
      "lon": "-8.559324002243814",
      "lat": "41.137782085791564"
    },
    {
      "id": "pt.ine.add.PTCONT.3760251",
      "street": "R PROF FILOMENA MONTEIRO",
      "house": "201",
      "postcode": "4420-538",
      "city": "VALBOM GDM",
      "lon": "-8.559324002243814",
      "lat": "41.137782085791564"
    },
    {
      "id": "pt.ine.add.PTCONT.3760252",
      "street": "R PROF FILOMENA MONTEIRO",
      "house": "201",
      "postcode": "4420-538",
      "city": "VALBOM GDM",
      "lon": "-8.559324002243814",
      "lat": "41.137782085791564"
    },
    {
      "id": "pt.ine.add.PTCONT.3760253",
      "street": "R PROF FILOMENA MONTEIRO",
      "house": "201",
      "postcode": "4420-538",
      "city": "VALBOM GDM",
      "lon": "-8.559324002243814",
      "lat": "41.137782085791564"
    },
    {
      "id": "pt.ine.add.PTCONT.3850933",
      "street": "R OURIVES",
      "house": "106",
      "postcode": "4420-522",
      "city": "VALBOM GDM",
      "lon": "-8.559497814578677",
      "lat": "41.13703407851368"
    },
    {
      "id": "pt.ine.add.PTCONT.3854718",
      "street": "R OURIVES",
      "house": "104",
      "postcode": "4420-522",
      "city": "VALBOM GDM",
      "lon": "-8.559497814578677",
      "lat": "41.13703407851368"
    },
    {
      "id": "pt.ine.add.PTCONT.3863745",
      "street": "R OURIVES",
      "house": "118",
      "postcode": "4420-522",
      "city": "VALBOM GDM",
      "lon": "-8.559498339364616",
      "lat": "41.13711511605328"
    },
    {
      "id": "pt.ine.add.PTCONT.3863746",
      "street": "R OURIVES",
      "house": "108",
      "postcode": "4420-522",
      "city": "VALBOM GDM",
      "lon": "-8.559498339364616",
      "lat": "41.13711511605328"
    },
    {
      "id": "pt.ine.add.PTCONT.3863747",
      "street": "R OURIVES",
      "house": "108",
      "postcode": "4420-522",
      "city": "VALBOM GDM",
      "lon": "-8.559498339364616",
      "lat": "41.13711511605328"
    },
    {
      "id": "pt.ine.add.PTCONT.3943584",
      "street": "TV CALVÁRIO DA GIESTA",
      "house": "45",
      "postcode": "4420-392",
      "city": "VALBOM GDM",
      "lon": "-8.5589247949867",
      "lat": "41.13682909712146"
    },
    {
      "id": "pt.ine.add.PTCONT.3943702",
      "street": "TV CALVÁRIO DA GIESTA",
      "house": "45",
      "postcode": "4420-392",
      "city": "VALBOM GDM",
      "lon": "-8.5589247949867",
      "lat": "41.13682909712146"
    },
    {
      "id": "pt.ine.add.PTCONT.3943703",
      "street": "TV CALVÁRIO DA GIESTA",
      "house": "45",
      "postcode": "4420-392",
      "city": "VALBOM GDM",
      "lon": "-8.5589247949867",
      "lat": "41.13682909712146"
    },
    {
      "id": "pt.ine.add.PTCONT.3943704",
      "street": "TV CALVÁRIO DA GIESTA",
      "house": "45",
      "postcode": "4420-392",
      "city": "VALBOM GDM",
      "lon": "-8.5589247949867",
      "lat": "41.13682909712146"
    },
    {
      "id": "pt.ine.add.PTCONT.3943705",
      "street": "TV CALVÁRIO DA GIESTA",
      "house": "45",
      "postcode": "4420-392",
      "city": "VALBOM GDM",
      "lon": "-8.5589247949867",
      "lat": "41.13682909712146"
    },
    {
      "id": "pt.ine.add.PTCONT.3943706",
      "street": "TV CALVÁRIO DA GIESTA",
      "house": "45",
      "postcode": "4420-392",
      "city": "VALBOM GDM",
      "lon": "-8.5589247949867",
      "lat": "41.13682909712146"
    },
    {
      "id": "pt.ine.add.PTCONT.3943707",
      "street": "TV CALVÁRIO DA GIESTA",
      "house": "45",
      "postcode": "4420-392",
      "city": "VALBOM GDM",
      "lon": "-8.5589247949867",
      "lat": "41.13682909712146"
    },
    {
      "id": "pt.ine.add.PTCONT.3945620",
      "street": "TV CALVÁRIO DA GIESTA",
      "house": "45",
      "postcode": "4420-392",
      "city": "VALBOM GDM",
      "lon": "-8.5589247949867",
      "lat": "41.13682909712146"
    },
    {
      "id": "pt.ine.add.PTCONT.4044434",
      "street": "R OURIVES",
      "house": "122",
      "postcode": "4420-522",
      "city": "VALBOM GDM",
      "lon": "-8.55937667428151",
      "lat": "41.136719373278424"
    },
    {
      "id": "pt.ine.add.PTCONT.4123092",
      "street": "R PROF FILOMENA MONTEIRO",
      "house": "145",
      "postcode": "4420-538",
      "city": "VALBOM GDM",
      "lon": "-8.558882162483757",
      "lat": "41.137603631960594"
    },
    {
      "id": "pt.ine.add.PTCONT.4123093",
      "street": "R PROF FILOMENA MONTEIRO",
      "house": "145",
      "postcode": "4420-538",
      "city": "VALBOM GDM",
      "lon": "-8.558882162483757",
      "lat": "41.137603631960594"
    },
    {
      "id": "pt.ine.add.PTCONT.4123094",
      "street": "R PROF FILOMENA MONTEIRO",
      "house": "145",
      "postcode": "4420-538",
      "city": "VALBOM GDM",
      "lon": "-8.558882162483757",
      "lat": "41.137603631960594"
    },
    {
      "id": "pt.ine.add.PTCONT.4123095",
      "street": "R PROF FILOMENA MONTEIRO",
      "house": "145",
      "postcode": "4420-538",
      "city": "VALBOM GDM",
      "lon": "-8.558882162483757",
      "lat": "41.137603631960594"
    },
    {
      "id": "pt.ine.add.PTCONT.4123096",
      "street": "R PROF FILOMENA MONTEIRO",
      "house": "145",
      "postcode": "4420-538",
      "city": "VALBOM GDM",
      "lon": "-8.558882162483757",
      "lat": "41.137603631960594"
    },
    {
      "id": "pt.ine.add.PTCONT.4127314",
      "street": "R PROF FILOMENA MONTEIRO",
      "house": "145",
      "postcode": "4420-538",
      "city": "VALBOM GDM",
      "lon": "-8.558882162483757",
      "lat": "41.137603631960594"
    },
    {
      "id": "pt.ine.add.PTCONT.4127549",
      "street": "R PROF FILOMENA MONTEIRO",
      "house": "145",
      "postcode": "4420-538",
      "city": "VALBOM GDM",
      "lon": "-8.558882162483757",
      "lat": "41.137603631960594"
    },
    {
      "id": "pt.ine.add.PTCONT.4127556",
      "street": "R PROF FILOMENA MONTEIRO",
      "house": "145",
      "postcode": "4420-538",
      "city": "VALBOM GDM",
      "lon": "-8.558882162483757",
      "lat": "41.137603631960594"
    },
    {
      "id": "pt.ine.add.PTCONT.4215011",
      "street": "R OURIVES",
      "house": "148",
      "postcode": "4420-522",
      "city": "VALBOM GDM",
      "lon": "-8.559452331783634",
      "lat": "41.13736740915978"
    },
    {
      "id": "pt.ine.add.PTCONT.4215012",
      "street": "PCT COOPERATIVA O TELEFONE",
      "house": "104",
      "postcode": "4420-522",
      "city": "VALBOM GDM",
      "lon": "-8.559452331783634",
      "lat": "41.13736740915978"
    },
    {
      "id": "pt.ine.add.PTCONT.4227677",
      "street": "TV CALVÁRIO DA GIESTA",
      "house": "111",
      "postcode": "4420-392",
      "city": "VALBOM GDM",
      "lon": "-8.5588933156307",
      "lat": "41.1374865337167"
    },
    {
      "id": "pt.ine.add.PTCONT.4227678",
      "street": "TV CALVÁRIO DA GIESTA",
      "house": "111",
      "postcode": "4420-392",
      "city": "VALBOM GDM",
      "lon": "-8.5588933156307",
      "lat": "41.1374865337167"
    },
    {
      "id": "pt.ine.add.PTCONT.4227679",
      "street": "TV CALVÁRIO DA GIESTA",
      "house": "111",
      "postcode": "4420-392",
      "city": "VALBOM GDM",
      "lon": "-8.5588933156307",
      "lat": "41.1374865337167"
    },
    {
      "id": "pt.ine.add.PTCONT.4227680",
      "street": "TV CALVÁRIO DA GIESTA",
      "house": "111",
      "postcode": "4420-392",
      "city": "VALBOM GDM",
      "lon": "-8.5588933156307",
      "lat": "41.1374865337167"
    },
    {
      "id": "pt.ine.add.PTCONT.4227681",
      "street": "TV CALVÁRIO DA GIESTA",
      "house": "111",
      "postcode": "4420-392",
      "city": "VALBOM GDM",
      "lon": "-8.5588933156307",
      "lat": "41.1374865337167"
    },
    {
      "id": "pt.ine.add.PTCONT.4227682",
      "street": "TV CALVÁRIO DA GIESTA",
      "house": "111",
      "postcode": "4420-392",
      "city": "VALBOM GDM",
      "lon": "-8.5588933156307",
      "lat": "41.1374865337167"
    },
    {
      "id": "pt.ine.add.PTCONT.4227683",
      "street": "TV CALVÁRIO DA GIESTA",
      "house": "111",
      "postcode": "4420-392",
      "city": "VALBOM GDM",
      "lon": "-8.5588933156307",
      "lat": "41.1374865337167"
    },
    {
      "id": "pt.ine.add.PTCONT.4232027",
      "street": "TV CALVÁRIO DA GIESTA",
      "house": "111",
      "postcode": "4420-392",
      "city": "VALBOM GDM",
      "lon": "-8.5588933156307",
      "lat": "41.1374865337167"
    },
    {
      "id": "pt.ine.add.PTCONT.4294592",
      "street": "TV CALVÁRIO DA GIESTA",
      "house": "67",
      "postcode": "4420-392",
      "city": "VALBOM GDM",
      "lon": "-8.55904581683875",
      "lat": "41.137125794492405"
    },
    {
      "id": "pt.ine.add.PTCONT.4294593",
      "street": "TV CALVÁRIO DA GIESTA",
      "house": "67",
      "postcode": "4420-392",
      "city": "VALBOM GDM",
      "lon": "-8.55904581683875",
      "lat": "41.137125794492405"
    },
    {
      "id": "pt.ine.add.PTCONT.4294594",
      "street": "TV CALVÁRIO DA GIESTA",
      "house": "67",
      "postcode": "4420-392",
      "city": "VALBOM GDM",
      "lon": "-8.55904581683875",
      "lat": "41.137125794492405"
    },
    {
      "id": "pt.ine.add.PTCONT.4294595",
      "street": "TV CALVÁRIO DA GIESTA",
      "house": "67",
      "postcode": "4420-392",
      "city": "VALBOM GDM",
      "lon": "-8.55904581683875",
      "lat": "41.137125794492405"
    },
    {
      "id": "pt.ine.add.PTCONT.4294596",
      "street": "TV CALVÁRIO DA GIESTA",
      "house": "67",
      "postcode": "4420-392",
      "city": "VALBOM GDM",
      "lon": "-8.55904581683875",
      "lat": "41.137125794492405"
    },
    {
      "id": "pt.ine.add.PTCONT.4294597",
      "street": "TV CALVÁRIO DA GIESTA",
      "house": "67",
      "postcode": "4420-392",
      "city": "VALBOM GDM",
      "lon": "-8.55904581683875",
      "lat": "41.137125794492405"
    },
    {
      "id": "pt.ine.add.PTCONT.4294598",
      "street": "TV CALVÁRIO DA GIESTA",
      "house": "67",
      "postcode": "4420-392",
      "city": "VALBOM GDM",
      "lon": "-8.55904581683875",
      "lat": "41.137125794492405"
    },
    {
      "id": "pt.ine.add.PTCONT.4294804",
      "street": "TV CALVÁRIO DA GIESTA",
      "house": "67",
      "postcode": "4420-392",
      "city": "VALBOM GDM",
      "lon": "-8.55904581683875",
      "lat": "41.137125794492405"
    },
    {
      "id": "pt.ine.add.PTCONT.4294805",
      "street": "TV CALVÁRIO DA GIESTA",
      "house": "67",
      "postcode": "4420-392",
      "city": "VALBOM GDM",
      "lon": "-8.55904581683875",
      "lat": "41.137125794492405"
    },
    {
      "id": "pt.ine.add.PTCONT.4294806",
      "street": "TV CALVÁRIO DA GIESTA",
      "house": "67",
      "postcode": "4420-392",
      "city": "VALBOM GDM",
      "lon": "-8.55904581683875",
      "lat": "41.137125794492405"
    },
    {
      "id": "pt.ine.add.PTCONT.4294807",
      "street": "TV CALVÁRIO DA GIESTA",
      "house": "67",
      "postcode": "4420-392",
      "city": "VALBOM GDM",
      "lon": "-8.55904581683875",
      "lat": "41.137125794492405"
    },
    {
      "id": "pt.ine.add.PTCONT.4299009",
      "street": "TV CALVÁRIO DA GIESTA",
      "house": "67",
      "postcode": "4420-392",
      "city": "VALBOM GDM",
      "lon": "-8.55904581683875",
      "lat": "41.137125794492405"
    },
    {
      "id": "pt.ine.add.PTCONT.4327258",
      "street": "R OURIVES",
      "house": "160",
      "postcode": "4420-522",
      "city": "VALBOM GDM",
      "lon": "-8.559489228161082",
      "lat": "41.13754736032817"
    },
    {
      "id": "pt.ine.add.PTCONT.4327259",
      "street": "R OURIVES",
      "house": "160",
      "postcode": "4420-522",
      "city": "VALBOM GDM",
      "lon": "-8.559489228161082",
      "lat": "41.13754736032817"
    },
    {
      "id": "pt.ine.add.PTCONT.4327260",
      "street": "R OURIVES",
      "house": "160",
      "postcode": "4420-522",
      "city": "VALBOM GDM",
      "lon": "-8.559489228161082",
      "lat": "41.13754736032817"
    },
    {
      "id": "pt.ine.add.PTCONT.4327261",
      "street": "R OURIVES",
      "house": "160",
      "postcode": "4420-522",
      "city": "VALBOM GDM",
      "lon": "-8.559489228161082",
      "lat": "41.13754736032817"
    },
    {
      "id": "pt.ine.add.PTCONT.4332212",
      "street": "R OURIVES",
      "house": "160",
      "postcode": "4420-522",
      "city": "VALBOM GDM",
      "lon": "-8.559489228161082",
      "lat": "41.13754736032817"
    },
    {
      "id": "pt.ine.add.PTCONT.4332460",
      "street": "R OURIVES",
      "house": "160",
      "postcode": "4420-522",
      "city": "VALBOM GDM",
      "lon": "-8.559489228161082",
      "lat": "41.13754736032817"
    },
    {
      "id": "pt.ine.add.PTCONT.4372216",
      "street": "R OURIVES",
      "house": "174",
      "postcode": "4420-522",
      "city": "VALBOM GDM",
      "lon": "-8.559513981361578",
      "lat": "41.137691338883826"
    },
    {
      "id": "pt.ine.add.PTCONT.4374127",
      "street": "R OURIVES",
      "house": "106",
      "postcode": "4420-522",
      "city": "VALBOM GDM",
      "lon": "-8.559497814578677",
      "lat": "41.13703407851368"
    }
  ]
}