{
  "data": {
    "distrito": "Aveiro",
    "concelho": "Albergaria-A-Velha",
    "freguesia": "Branca",
    "OBJECTID": 124,
    "BGRI2021": "01020400106",
    "DT21": "01",
    "DTMN21": "0102",
    "DTMNFR21": "010204",
    "DTMNFRSEC21": "010204001",
    "SECNUM21": "001",
    "SSNUM21": "06",
    "SECSSNUM21": "00106",
    "OBJECTID_1": 1382,
    "DT": "01",
    "CC": "02",
    "fr": "04",
    "SEC": "001",
    "SS": "06"
  },
  "addresses": [
    {
      "id": "pt.ine.add.PTCONT.292292",
      "street": "R SOUTO DA BRANCA",
      "house": "",
      "postcode": "3850-588",
      "city": "BRANCA ALB",
      "lon": "-8.47260958275686",
      "lat": "40.76322302035349"
    },
    {
      "id": "pt.ine.add.PTCONT.292387",
      "street": "R SOUTO DA BRANCA",
      "house": "54",
      "postcode": "3850-588",
      "city": "BRANCA ALB",
      "lon": "-8.47289776215827",
      "lat": "40.76399660073828"
    },
    {
      "id": "pt.ine.add.PTCONT.332259",
      "street": "R SOUTO DA BRANCA",
      "house": "2",
      "postcode": "3850-572",
      "city": "BRANCA ALB",
      "lon": "-8.470576114262855",
      "lat": "40.76393137301505"
    },
    {
      "id": "pt.ine.add.PTCONT.26700",
      "street": "R SOUTO DA BRANCA",
      "house": "",
      "postcode": "3850-588",
      "city": "BRANCA ALB",
      "lon": "-8.47321849472962",
      "lat": "40.76418476059393"
    },
    {
      "id": "pt.ine.add.PTCONT.64990",
      "street": "R PONTE DO PINTO",
      "house": "5",
      "postcode": "3850-572",
      "city": "BRANCA ALB",
      "lon": "-8.470034825246078",
      "lat": "40.76462633813905"
    },
    {
      "id": "pt.ine.add.PTCONT.66685",
      "street": "R CANCELA VERMELHA",
      "house": "",
      "postcode": "3850-572",
      "city": "BRANCA ALB",
      "lon": "-8.469635828919719",
      "lat": "40.765356905736006"
    },
    {
      "id": "pt.ine.add.PTCONT.72596",
      "street": "R SOUTO DA BRANCA",
      "house": "50",
      "postcode": "3850-588",
      "city": "BRANCA ALB",
      "lon": "-8.472813804655502",
      "lat": "40.763789733312265"
    },
    {
      "id": "pt.ine.add.PTCONT.120748",
      "street": "R SOUTO DA BRANCA",
      "house": "48",
      "postcode": "3850-588",
      "city": "BRANCA ALB",
      "lon": "-8.472766110778815",
      "lat": "40.763726838814115"
    },
    {
      "id": "pt.ine.add.PTCONT.198999",
      "street": "R PONTE DO PINTO",
      "house": "",
      "postcode": "3850-572",
      "city": "BRANCA ALB",
      "lon": "-8.470140415045098",
      "lat": "40.76442792023672"
    },
    {
      "id": "pt.ine.add.PTCONT.238603",
      "street": "R CANCELA VERMELHA",
      "house": "",
      "postcode": "3850-572",
      "city": "BRANCA ALB",
      "lon": "-8.469928734748269",
      "lat": "40.76472570260843"
    },
    {
      "id": "pt.ine.add.PTCONT.251942",
      "street": "R SOUTO DA BRANCA",
      "house": "52",
      "postcode": "3850-588",
      "city": "BRANCA ALB",
      "lon": "-8.472897120110233",
      "lat": "40.7638705328814"
    },
    {
      "id": "pt.ine.add.PTCONT.257511",
      "street": "R PADARIA",
      "house": "1",
      "postcode": "3850-588",
      "city": "BRANCA ALB",
      "lon": "-8.47319751630304",
      "lat": "40.7647161163006"
    },
    {
      "id": "pt.ine.add.PTCONT.260295",
      "street": "R CANCELA VERMELHA",
      "house": "",
      "postcode": "3850-572",
      "city": "BRANCA ALB",
      "lon": "-8.46956585767845",
      "lat": "40.765573229270956"
    },
    {
      "id": "pt.ine.add.PTCONT.281699",
      "street": "R TALEGRE",
      "house": "4",
      "postcode": "3850-572",
      "city": "BRANCA ALB",
      "lon": "-8.47000215974081",
      "lat": "40.76519374729131"
    },
    {
      "id": "pt.ine.add.PTCONT.284307",
      "street": "LG FEIRA DOS 22",
      "house": "1",
      "postcode": "3850-572",
      "city": "BRANCA ALB",
      "lon": "-8.470139004887889",
      "lat": "40.764148769919856"
    }
  ]
}