{
  "data": {
    "distrito": "Lisboa",
    "concelho": "Cadaval",
    "freguesia": "União das freguesias do Cadaval e Pêro Moniz",
    "OBJECTID": 214,
    "BGRI2021": "11041100413",
    "DT21": "11",
    "DTMN21": "1104",
    "DTMNFR21": "110411",
    "DTMNFRSEC21": "110411004",
    "SECNUM21": "004",
    "SSNUM21": "13",
    "SECSSNUM21": "00413",
    "OBJECTID_1": 99994,
    "DT": "11",
    "CC": "04",
    "fr": "11",
    "SEC": "004",
    "SS": "13"
  },
  "addresses": [
    {
      "id": "pt.ine.add.PTCONT.2365312",
      "street": "R ANTÓNIO LOPES JUNIOR",
      "house": "1",
      "postcode": "2550-481",
      "city": "PÊRO MONIZ",
      "lon": "-9.163490697740407",
      "lat": "39.22017551017537"
    },
    {
      "id": "pt.ine.add.PTCONT.2423821",
      "street": "R JOSE DUARTE",
      "house": "3",
      "postcode": "2550-481",
      "city": "PÊRO MONIZ",
      "lon": "-9.160558175285223",
      "lat": "39.220768862728384"
    },
    {
      "id": "pt.ine.add.PTCONT.2556555",
      "street": "QTA VALE DA PALHA",
      "house": "10",
      "postcode": "2550-478",
      "city": "PÊRO MONIZ",
      "lon": "-9.151171266771524",
      "lat": "39.23307393735503"
    },
    {
      "id": "pt.ine.add.PTCONT.2561862",
      "street": "R JOSE DUARTE",
      "house": "2S",
      "postcode": "2550-481",
      "city": "PÊRO MONIZ",
      "lon": "-9.16292311632831",
      "lat": "39.220162515380565"
    },
    {
      "id": "pt.ine.add.PTCONT.2571288",
      "street": "QTA POMBO",
      "house": "",
      "postcode": "2550-478",
      "city": "PÊRO MONIZ",
      "lon": "-9.128678574870131",
      "lat": "39.23789802961989"
    },
    {
      "id": "pt.ine.add.PTCONT.2658005",
      "street": "R JOSE DUARTE",
      "house": "21",
      "postcode": "2550-481",
      "city": "PÊRO MONIZ",
      "lon": "-9.162645246197892",
      "lat": "39.22016497173189"
    },
    {
      "id": "pt.ine.add.PTCONT.2674974",
      "street": "R JOSE DUARTE",
      "house": "17",
      "postcode": "2550-481",
      "city": "PÊRO MONIZ",
      "lon": "-9.162448421501635",
      "lat": "39.22016671124646"
    },
    {
      "id": "pt.ine.add.PTCONT.2686675",
      "street": "CSL BARREIRO",
      "house": "",
      "postcode": "2550-478",
      "city": "PÊRO MONIZ",
      "lon": "-9.149468635862082",
      "lat": "39.231458521406594"
    },
    {
      "id": "pt.ine.add.PTCONT.2701892",
      "street": "R JOSE DUARTE",
      "house": "11",
      "postcode": "2550-481",
      "city": "PÊRO MONIZ",
      "lon": "-9.161777296166965",
      "lat": "39.22019966142761"
    },
    {
      "id": "pt.ine.add.PTCONT.2707503",
      "street": "QTA S ISABEL",
      "house": "",
      "postcode": "2550-478",
      "city": "PÊRO MONIZ",
      "lon": "-9.150862638598547",
      "lat": "39.23095095773108"
    },
    {
      "id": "pt.ine.add.PTCONT.2782434",
      "street": "R JOSE DUARTE",
      "house": "3I",
      "postcode": "2550-481",
      "city": "PÊRO MONIZ",
      "lon": "-9.163249009379891",
      "lat": "39.220276726177495"
    },
    {
      "id": "pt.ine.add.PTCONT.2899522",
      "street": "TV FERNANDES",
      "house": "13",
      "postcode": "2550-481",
      "city": "PÊRO MONIZ",
      "lon": "-9.16285654370357",
      "lat": "39.220361260500376"
    },
    {
      "id": "pt.ine.add.PTCONT.2908610",
      "street": "",
      "house": "",
      "postcode": "2550-478",
      "city": "PÊRO MONIZ",
      "lon": "-9.135108845390862",
      "lat": "39.2396713274967"
    },
    {
      "id": "pt.ine.add.PTCONT.2947545",
      "street": "R JOSE DUARTE",
      "house": "47",
      "postcode": "2550-481",
      "city": "PÊRO MONIZ",
      "lon": "-9.163776062951877",
      "lat": "39.219893764882094"
    },
    {
      "id": "pt.ine.add.PTCONT.3018142",
      "street": "R BELA VISTA",
      "house": "1",
      "postcode": "2550-481",
      "city": "PÊRO MONIZ",
      "lon": "-9.163974072355114",
      "lat": "39.21997307668909"
    },
    {
      "id": "pt.ine.add.PTCONT.3027437",
      "street": "R BELA VISTA",
      "house": "5",
      "postcode": "2550-481",
      "city": "PÊRO MONIZ",
      "lon": "-9.164080381202378",
      "lat": "39.22011624965084"
    },
    {
      "id": "pt.ine.add.PTCONT.3120392",
      "street": "R JOSE DUARTE",
      "house": "29",
      "postcode": "2550-481",
      "city": "PÊRO MONIZ",
      "lon": "-9.1631815161732",
      "lat": "39.22041242980515"
    },
    {
      "id": "pt.ine.add.PTCONT.3154918",
      "street": "R BELA VISTA",
      "house": "2",
      "postcode": "2550-481",
      "city": "PÊRO MONIZ",
      "lon": "-9.164054195390413",
      "lat": "39.21990931774827"
    },
    {
      "id": "pt.ine.add.PTCONT.3158100",
      "street": "R ANTÓNIO LOPES JUNIOR O CASDL",
      "house": "2",
      "postcode": "2550-481",
      "city": "PÊRO MONIZ",
      "lon": "-9.164128537323103",
      "lat": "39.22024192303065"
    },
    {
      "id": "pt.ine.add.PTCONT.3185913",
      "street": "TV FERNANDES",
      "house": "7",
      "postcode": "2550-481",
      "city": "PÊRO MONIZ",
      "lon": "-9.162808916075825",
      "lat": "39.220271610381324"
    },
    {
      "id": "pt.ine.add.PTCONT.3222519",
      "street": "R BELA VISTA O CANTINHO DA DEBORA",
      "house": "3",
      "postcode": "2550-481",
      "city": "PÊRO MONIZ",
      "lon": "-9.164044857046369",
      "lat": "39.22006252137534"
    },
    {
      "id": "pt.ine.add.PTCONT.3299300",
      "street": "R JOSE DUARTE",
      "house": "",
      "postcode": "2550-481",
      "city": "PÊRO MONIZ",
      "lon": "-9.158124299071543",
      "lat": "39.22061917089787"
    }
  ]
}