{
  "data": {
    "distrito": "Vila Real",
    "concelho": "Chaves",
    "freguesia": "Lama de Arcos",
    "OBJECTID": 1770,
    "BGRI2021": "17031400108",
    "DT21": "17",
    "DTMN21": "1703",
    "DTMNFR21": "170314",
    "DTMNFRSEC21": "170314001",
    "SECNUM21": "001",
    "SSNUM21": "08",
    "SECSSNUM21": "00108",
    "OBJECTID_1": 181406,
    "DT": "17",
    "CC": "03",
    "fr": "14",
    "SEC": "001",
    "SS": "08"
  },
  "addresses": [
    {
      "id": "pt.ine.add.PTCONT.5298148",
      "street": "R DO EIRÃ“",
      "house": "9",
      "postcode": "5400-637",
      "city": "LAMA DE ARCOS",
      "lon": "-7.39380501280622",
      "lat": "41.816182838939596"
    },
    {
      "id": "pt.ine.add.PTCONT.5319961",
      "street": "R DAS EDRAS",
      "house": "",
      "postcode": "5400-636",
      "city": "LAMA DE ARCOS",
      "lon": "-7.394786656777496",
      "lat": "41.816639316275655"
    },
    {
      "id": "pt.ine.add.PTCONT.5337969",
      "street": "LG DO CAMPO",
      "house": "30",
      "postcode": "5400-637",
      "city": "LAMA DE ARCOS",
      "lon": "-7.394357970623902",
      "lat": "41.8162404161732"
    },
    {
      "id": "pt.ine.add.PTCONT.5363649",
      "street": "R DO SOBREIRO",
      "house": "21",
      "postcode": "5400-637",
      "city": "LAMA DE ARCOS",
      "lon": "-7.394531451760216",
      "lat": "41.8168537540748"
    },
    {
      "id": "pt.ine.add.PTCONT.5377655",
      "street": "R DO SOBREIRO",
      "house": "35",
      "postcode": "5400-637",
      "city": "LAMA DE ARCOS",
      "lon": "-7.392266488317386",
      "lat": "41.81601086753614"
    },
    {
      "id": "pt.ine.add.PTCONT.5378758",
      "street": "R AMADOR",
      "house": "6",
      "postcode": "5400-637",
      "city": "LAMA DE ARCOS",
      "lon": "-7.39251661522368",
      "lat": "41.816237562215655"
    },
    {
      "id": "pt.ine.add.PTCONT.5384193",
      "street": "LG DO CAMPO",
      "house": "32",
      "postcode": "5400-637",
      "city": "LAMA DE ARCOS",
      "lon": "-7.394307763930437",
      "lat": "41.816420158654196"
    },
    {
      "id": "pt.ine.add.PTCONT.5388365",
      "street": "R DO SOBREIRO",
      "house": "27",
      "postcode": "5400-637",
      "city": "LAMA DE ARCOS",
      "lon": "-7.393081502962117",
      "lat": "41.816304225779106"
    },
    {
      "id": "pt.ine.add.PTCONT.5391830",
      "street": "R DO SOBREIRO",
      "house": "9",
      "postcode": "5400-637",
      "city": "LAMA DE ARCOS",
      "lon": "-7.3932112900981855",
      "lat": "41.81653014358809"
    },
    {
      "id": "pt.ine.add.PTCONT.5408645",
      "street": "R DAS EDRAS",
      "house": "",
      "postcode": "5400-636",
      "city": "LAMA DE ARCOS",
      "lon": "-7.394678140305094",
      "lat": "41.81665662525533"
    },
    {
      "id": "pt.ine.add.PTCONT.5409632",
      "street": "R DO SOBREIRO",
      "house": "29",
      "postcode": "5400-637",
      "city": "LAMA DE ARCOS",
      "lon": "-7.392731988765889",
      "lat": "41.81634698984761"
    },
    {
      "id": "pt.ine.add.PTCONT.5414367",
      "street": "R DO SOBREIRO",
      "house": "33",
      "postcode": "5400-637",
      "city": "LAMA DE ARCOS",
      "lon": "-7.392276655049955",
      "lat": "41.816172991956705"
    },
    {
      "id": "pt.ine.add.PTCONT.5426402",
      "street": "R DO SOBREIRO",
      "house": "37",
      "postcode": "5400-637",
      "city": "LAMA DE ARCOS",
      "lon": "-7.392340353890436",
      "lat": "41.81586729160012"
    },
    {
      "id": "pt.ine.add.PTCONT.5426890",
      "street": "R DA CALHEIA DAS HORTAS",
      "house": "6",
      "postcode": "5400-637",
      "city": "LAMA DE ARCOS",
      "lon": "-7.39489537996871",
      "lat": "41.816604001983364"
    }
  ]
}