{
  "data": {
    "distrito": "Vila Real",
    "concelho": "Vila Real",
    "freguesia": "União das freguesias de Mouçós e Lamares",
    "OBJECTID": 588,
    "BGRI2021": "17143400401",
    "DT21": "17",
    "DTMN21": "1714",
    "DTMNFR21": "171434",
    "DTMNFRSEC21": "171434004",
    "SECNUM21": "004",
    "SSNUM21": "01",
    "SECSSNUM21": "00401",
    "OBJECTID_1": 187767,
    "DT": "17",
    "CC": "14",
    "fr": "34",
    "SEC": "004",
    "SS": "01"
  },
  "addresses": [
    {
      "id": "pt.ine.add.PTCONT.5291546",
      "street": "",
      "house": "",
      "postcode": "5000-375",
      "city": "VILA REAL",
      "lon": "-7.67128177411782",
      "lat": "41.31219209838152"
    },
    {
      "id": "pt.ine.add.PTCONT.5297596",
      "street": "",
      "house": "",
      "postcode": "5000-375",
      "city": "VILA REAL",
      "lon": "-7.671480719050604",
      "lat": "41.31276915929042"
    },
    {
      "id": "pt.ine.add.PTCONT.5299608",
      "street": "",
      "house": "",
      "postcode": "5000-375",
      "city": "VILA REAL",
      "lon": "-7.671676677968386",
      "lat": "41.31207662870555"
    },
    {
      "id": "pt.ine.add.PTCONT.5313380",
      "street": "",
      "house": "",
      "postcode": "5000-375",
      "city": "VILA REAL",
      "lon": "-7.670718538583778",
      "lat": "41.3124689645654"
    },
    {
      "id": "pt.ine.add.PTCONT.5323638",
      "street": "",
      "house": "",
      "postcode": "5000-375",
      "city": "VILA REAL",
      "lon": "-7.671449085962883",
      "lat": "41.312174761321614"
    },
    {
      "id": "pt.ine.add.PTCONT.5329501",
      "street": "",
      "house": "",
      "postcode": "5000-375",
      "city": "VILA REAL",
      "lon": "-7.671195067392969",
      "lat": "41.31263295174538"
    },
    {
      "id": "pt.ine.add.PTCONT.5339577",
      "street": "",
      "house": "",
      "postcode": "5000-375",
      "city": "VILA REAL",
      "lon": "-7.671196521987084",
      "lat": "41.314118635099554"
    },
    {
      "id": "pt.ine.add.PTCONT.5346414",
      "street": "",
      "house": "",
      "postcode": "5000-375",
      "city": "VILA REAL",
      "lon": "-7.67157765119719",
      "lat": "41.31257145762678"
    },
    {
      "id": "pt.ine.add.PTCONT.5354516",
      "street": "",
      "house": "",
      "postcode": "5000-375",
      "city": "VILA REAL",
      "lon": "-7.67144698970719",
      "lat": "41.3124718884731"
    },
    {
      "id": "pt.ine.add.PTCONT.5354517",
      "street": "",
      "house": "",
      "postcode": "5000-375",
      "city": "VILA REAL",
      "lon": "-7.67144698970719",
      "lat": "41.3124718884731"
    },
    {
      "id": "pt.ine.add.PTCONT.5355272",
      "street": "",
      "house": "",
      "postcode": "5000-375",
      "city": "VILA REAL",
      "lon": "-7.6711854772432275",
      "lat": "41.312299761280215"
    },
    {
      "id": "pt.ine.add.PTCONT.5356600",
      "street": "",
      "house": "",
      "postcode": "5000-375",
      "city": "VILA REAL",
      "lon": "-7.671328778733985",
      "lat": "41.31230033625617"
    },
    {
      "id": "pt.ine.add.PTCONT.5358926",
      "street": "",
      "house": "",
      "postcode": "5000-375",
      "city": "VILA REAL",
      "lon": "-7.671302099252047",
      "lat": "41.31269640995444"
    },
    {
      "id": "pt.ine.add.PTCONT.5368563",
      "street": "",
      "house": "",
      "postcode": "5000-375",
      "city": "VILA REAL",
      "lon": "-7.67116705211948",
      "lat": "41.31321810626556"
    },
    {
      "id": "pt.ine.add.PTCONT.5372936",
      "street": "",
      "house": "",
      "postcode": "5000-375",
      "city": "VILA REAL",
      "lon": "-7.671652032534597",
      "lat": "41.31218457920488"
    },
    {
      "id": "pt.ine.add.PTCONT.5381378",
      "street": "",
      "house": "",
      "postcode": "5000-375",
      "city": "VILA REAL",
      "lon": "-7.671614492727576",
      "lat": "41.31242753961806"
    },
    {
      "id": "pt.ine.add.PTCONT.5391538",
      "street": "",
      "house": "",
      "postcode": "5000-375",
      "city": "VILA REAL",
      "lon": "-7.6715916886537014",
      "lat": "41.31227437835552"
    },
    {
      "id": "pt.ine.add.PTCONT.5409211",
      "street": "",
      "house": "",
      "postcode": "5000-375",
      "city": "VILA REAL",
      "lon": "-7.671410656012231",
      "lat": "41.31254377560406"
    }
  ]
}