{
  "data": {
    "distrito": "Vila Real",
    "concelho": "Vila Real",
    "freguesia": "União das freguesias de Mouçós e Lamares",
    "OBJECTID": 334,
    "BGRI2021": "17143400410",
    "DT21": "17",
    "DTMN21": "1714",
    "DTMNFR21": "171434",
    "DTMNFRSEC21": "171434004",
    "SECNUM21": "004",
    "SSNUM21": "10",
    "SECSSNUM21": "00410",
    "OBJECTID_1": 187598,
    "DT": "17",
    "CC": "14",
    "fr": "34",
    "SEC": "004",
    "SS": "10"
  },
  "addresses": [
    {
      "id": "pt.ine.add.PTCONT.5305884",
      "street": "",
      "house": "",
      "postcode": "5000-351",
      "city": "VILA REAL",
      "lon": "-7.678416165626827",
      "lat": "41.32007207926269"
    },
    {
      "id": "pt.ine.add.PTCONT.5292562",
      "street": "R GALO",
      "house": "",
      "postcode": "5000-372",
      "city": "VILA REAL",
      "lon": "-7.682133001006544",
      "lat": "41.31625995912753"
    },
    {
      "id": "pt.ine.add.PTCONT.5297587",
      "street": "R SRA DA PENA",
      "house": "",
      "postcode": "5000-351",
      "city": "VILA REAL",
      "lon": "-7.67670243522981",
      "lat": "41.319191899333916"
    },
    {
      "id": "pt.ine.add.PTCONT.5304812",
      "street": "R CALÇADA",
      "house": "",
      "postcode": "5000-351",
      "city": "VILA REAL",
      "lon": "-7.677772610441138",
      "lat": "41.319871445101214"
    },
    {
      "id": "pt.ine.add.PTCONT.5306061",
      "street": "",
      "house": "",
      "postcode": "5000-372",
      "city": "VILA REAL",
      "lon": "-7.678522479093192",
      "lat": "41.31680401107538"
    },
    {
      "id": "pt.ine.add.PTCONT.5310350",
      "street": "",
      "house": "",
      "postcode": "5000-372",
      "city": "VILA REAL",
      "lon": "-7.678691551924259",
      "lat": "41.31653455560438"
    },
    {
      "id": "pt.ine.add.PTCONT.5311272",
      "street": "LG ALMAS",
      "house": "",
      "postcode": "5000-351",
      "city": "VILA REAL",
      "lon": "-7.678857314593854",
      "lat": "41.32018187024606"
    },
    {
      "id": "pt.ine.add.PTCONT.5311282",
      "street": "R ENCOSTA",
      "house": "",
      "postcode": "5000-372",
      "city": "VILA REAL",
      "lon": "-7.6815285927299035",
      "lat": "41.31558228171927"
    },
    {
      "id": "pt.ine.add.PTCONT.5313476",
      "street": "R GALO",
      "house": "",
      "postcode": "5000-372",
      "city": "VILA REAL",
      "lon": "-7.6827869276290865",
      "lat": "41.31668571216093"
    },
    {
      "id": "pt.ine.add.PTCONT.5317435",
      "street": "",
      "house": "",
      "postcode": "5000-351",
      "city": "VILA REAL",
      "lon": "-7.676924958395589",
      "lat": "41.31982306828737"
    },
    {
      "id": "pt.ine.add.PTCONT.5317468",
      "street": "R GALO",
      "house": "",
      "postcode": "5000-372",
      "city": "VILA REAL",
      "lon": "-7.68299929300617",
      "lat": "41.31706471510345"
    },
    {
      "id": "pt.ine.add.PTCONT.5323666",
      "street": "LG CAPELA PENA AMIGO",
      "house": "",
      "postcode": "5000-372",
      "city": "VILA REAL",
      "lon": "-7.679862984884791",
      "lat": "41.31638610452087"
    },
    {
      "id": "pt.ine.add.PTCONT.5325642",
      "street": "R ENCOSTA",
      "house": "",
      "postcode": "5000-372",
      "city": "VILA REAL",
      "lon": "-7.681710275666884",
      "lat": "41.31521382605525"
    },
    {
      "id": "pt.ine.add.PTCONT.5327324",
      "street": "R PADRE FERNANDES",
      "house": "",
      "postcode": "5000-372",
      "city": "VILA REAL",
      "lon": "-7.679445245343042",
      "lat": "41.31634844243704"
    },
    {
      "id": "pt.ine.add.PTCONT.5340491",
      "street": "R BACELO",
      "house": "",
      "postcode": "5000-372",
      "city": "VILA REAL",
      "lon": "-7.682902388506369",
      "lat": "41.31726242637316"
    },
    {
      "id": "pt.ine.add.PTCONT.5350344",
      "street": "",
      "house": "",
      "postcode": "5000-351",
      "city": "VILA REAL",
      "lon": "-7.678988690260104",
      "lat": "41.320182388639694"
    },
    {
      "id": "pt.ine.add.PTCONT.5357155",
      "street": "",
      "house": "",
      "postcode": "5000-351",
      "city": "VILA REAL",
      "lon": "-7.679527072629731",
      "lat": "41.32004945001455"
    },
    {
      "id": "pt.ine.add.PTCONT.5359009",
      "street": "",
      "house": "",
      "postcode": "5000-372",
      "city": "VILA REAL",
      "lon": "-7.678288133163787",
      "lat": "41.31615478995323"
    },
    {
      "id": "pt.ine.add.PTCONT.5360975",
      "street": "R CALCADA",
      "house": "",
      "postcode": "5000-351",
      "city": "VILA REAL",
      "lon": "-7.677341840371726",
      "lat": "41.31998679348196"
    },
    {
      "id": "pt.ine.add.PTCONT.5364233",
      "street": "R BACELO",
      "house": "",
      "postcode": "5000-372",
      "city": "VILA REAL",
      "lon": "-7.683328983742207",
      "lat": "41.31775031560089"
    },
    {
      "id": "pt.ine.add.PTCONT.5364497",
      "street": "R ENCOSTA",
      "house": "",
      "postcode": "5000-372",
      "city": "VILA REAL",
      "lon": "-7.68181278844649",
      "lat": "41.315934556379766"
    },
    {
      "id": "pt.ine.add.PTCONT.5364498",
      "street": "R PRADO",
      "house": "",
      "postcode": "5000-372",
      "city": "VILA REAL",
      "lon": "-7.682209897186891",
      "lat": "41.317232703467866"
    },
    {
      "id": "pt.ine.add.PTCONT.5366624",
      "street": "",
      "house": "",
      "postcode": "5000-372",
      "city": "VILA REAL",
      "lon": "-7.678924528080981",
      "lat": "41.317381860693274"
    },
    {
      "id": "pt.ine.add.PTCONT.5369654",
      "street": "",
      "house": "",
      "postcode": "5000-351",
      "city": "VILA REAL",
      "lon": "-7.679754305783557",
      "lat": "41.32000532474776"
    },
    {
      "id": "pt.ine.add.PTCONT.5370126",
      "street": "R CALÇADA",
      "house": "",
      "postcode": "5000-351",
      "city": "VILA REAL",
      "lon": "-7.678237455548252",
      "lat": "41.320008344488954"
    },
    {
      "id": "pt.ine.add.PTCONT.5386739",
      "street": "R PRADO",
      "house": "",
      "postcode": "5000-351",
      "city": "VILA REAL",
      "lon": "-7.684352483090359",
      "lat": "41.31827654830369"
    },
    {
      "id": "pt.ine.add.PTCONT.5386738",
      "street": "R PRADO",
      "house": "",
      "postcode": "5000-351",
      "city": "VILA REAL",
      "lon": "-7.684352483090359",
      "lat": "41.31827654830369"
    },
    {
      "id": "pt.ine.add.PTCONT.5391038",
      "street": "R PRADO",
      "house": "",
      "postcode": "5000-351",
      "city": "VILA REAL",
      "lon": "-7.682831210768458",
      "lat": "41.318927906585884"
    },
    {
      "id": "pt.ine.add.PTCONT.5405008",
      "street": "LG QUINTEIRO DE CIMA",
      "house": "",
      "postcode": "5000-351",
      "city": "VILA REAL",
      "lon": "-7.677150435333689",
      "lat": "41.32003105591519"
    },
    {
      "id": "pt.ine.add.PTCONT.5409225",
      "street": "R PRADO",
      "house": "",
      "postcode": "5000-372",
      "city": "VILA REAL",
      "lon": "-7.682278637392658",
      "lat": "41.31765616549843"
    },
    {
      "id": "pt.ine.add.PTCONT.5411407",
      "street": "",
      "house": "",
      "postcode": "5000-351",
      "city": "VILA REAL",
      "lon": "-7.678291613341625",
      "lat": "41.31909014053396"
    },
    {
      "id": "pt.ine.add.PTCONT.5412757",
      "street": "",
      "house": "",
      "postcode": "5000-372",
      "city": "VILA REAL",
      "lon": "-7.678515603815453",
      "lat": "41.31607465161312"
    },
    {
      "id": "pt.ine.add.PTCONT.5415325",
      "street": "R PRADO",
      "house": "",
      "postcode": "5000-372",
      "city": "VILA REAL",
      "lon": "-7.681918159622023",
      "lat": "41.3162411089864"
    },
    {
      "id": "pt.ine.add.PTCONT.5419103",
      "street": "",
      "house": "",
      "postcode": "5000-351",
      "city": "VILA REAL",
      "lon": "-7.682159857090897",
      "lat": "41.31929444641148"
    }
  ]
}