{
  "data": {
    "distrito": "Vila Real",
    "concelho": "Vila Real",
    "freguesia": "União das freguesias de Mouçós e Lamares",
    "OBJECTID": 623,
    "BGRI2021": "17143400417",
    "DT21": "17",
    "DTMN21": "1714",
    "DTMNFR21": "171434",
    "DTMNFRSEC21": "171434004",
    "SECNUM21": "004",
    "SSNUM21": "17",
    "SECSSNUM21": "00417",
    "OBJECTID_1": 188055,
    "DT": "17",
    "CC": "14",
    "fr": "34",
    "SEC": "004",
    "SS": "17"
  },
  "addresses": [
    {
      "id": "pt.ine.add.PTCONT.5291520",
      "street": "R TRUMBO",
      "house": "",
      "postcode": "5000-369",
      "city": "VILA REAL",
      "lon": "-7.698501892308019",
      "lat": "41.32057286382882"
    },
    {
      "id": "pt.ine.add.PTCONT.5293228",
      "street": "R PEDREIRA",
      "house": "",
      "postcode": "5000-369",
      "city": "VILA REAL",
      "lon": "-7.698681640422727",
      "lat": "41.3204835013854"
    },
    {
      "id": "pt.ine.add.PTCONT.5303743",
      "street": "R EIRA",
      "house": "",
      "postcode": "5000-369",
      "city": "VILA REAL",
      "lon": "-7.699026921569206",
      "lat": "41.32064687782598"
    },
    {
      "id": "pt.ine.add.PTCONT.5307061",
      "street": "R MOINHO",
      "house": "",
      "postcode": "5000-369",
      "city": "VILA REAL",
      "lon": "-7.698390333521547",
      "lat": "41.32118472127184"
    },
    {
      "id": "pt.ine.add.PTCONT.5308074",
      "street": "R MOINHO",
      "house": "",
      "postcode": "5000-369",
      "city": "VILA REAL",
      "lon": "-7.6986293820710054",
      "lat": "41.321158611559525"
    },
    {
      "id": "pt.ine.add.PTCONT.5315443",
      "street": "R PEDREIRA",
      "house": "",
      "postcode": "5000-369",
      "city": "VILA REAL",
      "lon": "-7.699147251104101",
      "lat": "41.3205122700623"
    },
    {
      "id": "pt.ine.add.PTCONT.5323719",
      "street": "R CENTRAL",
      "house": "",
      "postcode": "5000-369",
      "city": "VILA REAL",
      "lon": "-7.698469391100235",
      "lat": "41.32186933126101"
    },
    {
      "id": "pt.ine.add.PTCONT.5325626",
      "street": "R EIRAS",
      "house": "",
      "postcode": "5000-369",
      "city": "VILA REAL",
      "lon": "-7.698391889207602",
      "lat": "41.32095062058572"
    },
    {
      "id": "pt.ine.add.PTCONT.5332266",
      "street": "R MOINHO",
      "house": "",
      "postcode": "5000-369",
      "city": "VILA REAL",
      "lon": "-7.699022261323269",
      "lat": "41.32134917995186"
    },
    {
      "id": "pt.ine.add.PTCONT.5337060",
      "street": "R EIRAS",
      "house": "",
      "postcode": "5000-369",
      "city": "VILA REAL",
      "lon": "-7.69904895626148",
      "lat": "41.32092608799269"
    },
    {
      "id": "pt.ine.add.PTCONT.5339563",
      "street": "R PEDREIRA",
      "house": "",
      "postcode": "5000-369",
      "city": "VILA REAL",
      "lon": "-7.699113392297722",
      "lat": "41.320215007112296"
    },
    {
      "id": "pt.ine.add.PTCONT.5344463",
      "street": "R MOINHO",
      "house": "",
      "postcode": "5000-369",
      "city": "VILA REAL",
      "lon": "-7.699078932009666",
      "lat": "41.32180860264838"
    },
    {
      "id": "pt.ine.add.PTCONT.5345886",
      "street": "R MOINHO",
      "house": "",
      "postcode": "5000-369",
      "city": "VILA REAL",
      "lon": "-7.698265991090494",
      "lat": "41.32192258760711"
    },
    {
      "id": "pt.ine.add.PTCONT.5351347",
      "street": "R MOINHO",
      "house": "",
      "postcode": "5000-369",
      "city": "VILA REAL",
      "lon": "-7.698720026958627",
      "lat": "41.32189728970439"
    },
    {
      "id": "pt.ine.add.PTCONT.5355137",
      "street": "R MOINHO",
      "house": "",
      "postcode": "5000-369",
      "city": "VILA REAL",
      "lon": "-7.698937282436691",
      "lat": "41.32155595369536"
    },
    {
      "id": "pt.ine.add.PTCONT.5368548",
      "street": "R MOINHO",
      "house": "",
      "postcode": "5000-369",
      "city": "VILA REAL",
      "lon": "-7.698577601060557",
      "lat": "41.32176169065243"
    },
    {
      "id": "pt.ine.add.PTCONT.5383516",
      "street": "R MOINHO",
      "house": "",
      "postcode": "5000-369",
      "city": "VILA REAL",
      "lon": "-7.698814559440517",
      "lat": "41.32205071607519"
    },
    {
      "id": "pt.ine.add.PTCONT.5383517",
      "street": "R EIRAS",
      "house": "11",
      "postcode": "5000-369",
      "city": "VILA REAL",
      "lon": "-7.69882262920456",
      "lat": "41.32083519329243"
    },
    {
      "id": "pt.ine.add.PTCONT.5385712",
      "street": "R MOINHO",
      "house": "",
      "postcode": "5000-369",
      "city": "VILA REAL",
      "lon": "-7.698886579743049",
      "lat": "41.32199696320963"
    },
    {
      "id": "pt.ine.add.PTCONT.5385714",
      "street": "R MOINHO",
      "house": "",
      "postcode": "5000-369",
      "city": "VILA REAL",
      "lon": "-7.698437568897848",
      "lat": "41.32126593654379"
    },
    {
      "id": "pt.ine.add.PTCONT.5395595",
      "street": "R TRUMBO",
      "house": "",
      "postcode": "5000-369",
      "city": "VILA REAL",
      "lon": "-7.698309242828851",
      "lat": "41.320806242840305"
    },
    {
      "id": "pt.ine.add.PTCONT.5399581",
      "street": "R MOINHO",
      "house": "",
      "postcode": "5000-369",
      "city": "VILA REAL",
      "lon": "-7.6984370304438325",
      "lat": "41.32134697139381"
    },
    {
      "id": "pt.ine.add.PTCONT.5401742",
      "street": "R EIRA",
      "house": "",
      "postcode": "5000-369",
      "city": "VILA REAL",
      "lon": "-7.698736036129171",
      "lat": "41.321285071472964"
    },
    {
      "id": "pt.ine.add.PTCONT.5406749",
      "street": "R MOINHO",
      "house": "",
      "postcode": "5000-369",
      "city": "VILA REAL",
      "lon": "-7.6988527811834135",
      "lat": "41.32169069638958"
    },
    {
      "id": "pt.ine.add.PTCONT.5409182",
      "street": "R EIRA",
      "house": "",
      "postcode": "5000-369",
      "city": "VILA REAL",
      "lon": "-7.698800535729275",
      "lat": "41.320564986956704"
    }
  ]
}