{
  "data": {
    "distrito": "Porto",
    "concelho": "Penafiel",
    "freguesia": "Canelas",
    "OBJECTID": 85,
    "BGRI2021": "13110500130",
    "DT21": "13",
    "DTMN21": "1311",
    "DTMNFR21": "131105",
    "DTMNFRSEC21": "131105001",
    "SECNUM21": "001",
    "SSNUM21": "30",
    "SECSSNUM21": "00130",
    "OBJECTID_1": 136611,
    "DT": "13",
    "CC": "11",
    "fr": "05",
    "SEC": "001",
    "SS": "30"
  },
  "addresses": [
    {
      "id": "pt.ine.add.PTCONT.3583313",
      "street": "AV BELA VISTA",
      "house": "",
      "postcode": "4575-193",
      "city": "CANELAS PNF",
      "lon": "-8.310781623674197",
      "lat": "41.077743468525874"
    },
    {
      "id": "pt.ine.add.PTCONT.3656504",
      "street": "TV BELA VISTA",
      "house": "",
      "postcode": "4575-193",
      "city": "CANELAS PNF",
      "lon": "-8.311253886900124",
      "lat": "41.07636504950813"
    },
    {
      "id": "pt.ine.add.PTCONT.3698580",
      "street": "AV SILVOSA",
      "house": "",
      "postcode": "4575-178",
      "city": "CANELAS PNF",
      "lon": "-8.312883160780055",
      "lat": "41.08038753376219"
    },
    {
      "id": "pt.ine.add.PTCONT.3698581",
      "street": "AV SILVOSA",
      "house": "",
      "postcode": "4575-178",
      "city": "CANELAS PNF",
      "lon": "-8.312883160780055",
      "lat": "41.08038753376219"
    },
    {
      "id": "pt.ine.add.PTCONT.3698583",
      "street": "TV BELA VISTA",
      "house": "",
      "postcode": "4575-193",
      "city": "CANELAS PNF",
      "lon": "-8.31075513358311",
      "lat": "41.076744008894075"
    },
    {
      "id": "pt.ine.add.PTCONT.3782863",
      "street": "R VALE",
      "house": "",
      "postcode": "4575-195",
      "city": "CANELAS PNF",
      "lon": "-8.312307678659677",
      "lat": "41.07881264178064"
    },
    {
      "id": "pt.ine.add.PTCONT.3790050",
      "street": "TV OUTEIRO",
      "house": "",
      "postcode": "4575-169",
      "city": "CANELAS PNF",
      "lon": "-8.311419820410983",
      "lat": "41.076121671084614"
    },
    {
      "id": "pt.ine.add.PTCONT.3833105",
      "street": "AV BELA VISTA",
      "house": "",
      "postcode": "4575-193",
      "city": "CANELAS PNF",
      "lon": "-8.311027872641866",
      "lat": "41.076392412225395"
    },
    {
      "id": "pt.ine.add.PTCONT.3884520",
      "street": "AV BELA VISTA",
      "house": "",
      "postcode": "4575-193",
      "city": "CANELAS PNF",
      "lon": "-8.31069718763976",
      "lat": "41.077320386793346"
    },
    {
      "id": "pt.ine.add.PTCONT.3893464",
      "street": "R CAMPELOS",
      "house": "",
      "postcode": "4560-244",
      "city": "MILHUNDOS",
      "lon": "-8.313281983739545",
      "lat": "41.078270852105575"
    },
    {
      "id": "pt.ine.add.PTCONT.3939282",
      "street": "AV BELA VISTA",
      "house": "",
      "postcode": "4575-193",
      "city": "CANELAS PNF",
      "lon": "-8.31162800355102",
      "lat": "41.07830043987421"
    },
    {
      "id": "pt.ine.add.PTCONT.4000431",
      "street": "AV BELA VISTA",
      "house": "",
      "postcode": "4575-193",
      "city": "CANELAS PNF",
      "lon": "-8.310568545433336",
      "lat": "41.07815800422064"
    },
    {
      "id": "pt.ine.add.PTCONT.4114164",
      "street": "AV BELA VISTA",
      "house": "",
      "postcode": "4575-193",
      "city": "CANELAS PNF",
      "lon": "-8.311174625369274",
      "lat": "41.07785992050044"
    },
    {
      "id": "pt.ine.add.PTCONT.4135508",
      "street": "AV SILVOSA",
      "house": "",
      "postcode": "4575-178",
      "city": "CANELAS PNF",
      "lon": "-8.311664774741018",
      "lat": "41.07869658119824"
    },
    {
      "id": "pt.ine.add.PTCONT.4164438",
      "street": "AV BELA VISTA",
      "house": "",
      "postcode": "4575-193",
      "city": "CANELAS PNF",
      "lon": "-8.310615877543086",
      "lat": "41.07805888173674"
    },
    {
      "id": "pt.ine.add.PTCONT.4229268",
      "street": "SILVOSA",
      "house": "",
      "postcode": "4575-193",
      "city": "CANELAS PNF",
      "lon": "-8.311146550060565",
      "lat": "41.07627517029456"
    },
    {
      "id": "pt.ine.add.PTCONT.4235827",
      "street": "AV SILVOSA",
      "house": "",
      "postcode": "4575-178",
      "city": "CANELAS PNF",
      "lon": "-8.311605178596821",
      "lat": "41.07866065550364"
    },
    {
      "id": "pt.ine.add.PTCONT.4268903",
      "street": "AV SILVOSA",
      "house": "",
      "postcode": "4575-178",
      "city": "CANELAS PNF",
      "lon": "-8.311856463491283",
      "lat": "41.07917352282944"
    },
    {
      "id": "pt.ine.add.PTCONT.4284936",
      "street": "TV BELA VISTA",
      "house": "",
      "postcode": "4575-193",
      "city": "CANELAS PNF",
      "lon": "-8.310849843596158",
      "lat": "41.07656377265342"
    },
    {
      "id": "pt.ine.add.PTCONT.4375261",
      "street": "AV SILVOSA",
      "house": "",
      "postcode": "4575-178",
      "city": "CANELAS PNF",
      "lon": "-8.312061764557773",
      "lat": "41.08028075827083"
    }
  ]
}