{
  "data": {
    "distrito": "Lisboa",
    "concelho": "Loures",
    "freguesia": "Loures",
    "OBJECTID": 1094,
    "BGRI2021": "11070701916",
    "DT21": "11",
    "DTMN21": "1107",
    "DTMNFR21": "110707",
    "DTMNFRSEC21": "110707019",
    "SECNUM21": "019",
    "SSNUM21": "16",
    "SECSSNUM21": "01916",
    "OBJECTID_1": 107053,
    "DT": "11",
    "CC": "07",
    "fr": "07",
    "SEC": "019",
    "SS": "16"
  },
  "addresses": [
    {
      "id": "pt.ine.add.PTCONT.3086352",
      "street": "R FERNANDO NAMORA",
      "house": "16",
      "postcode": "2670-501",
      "city": "LOURES",
      "lon": "-9.210707089377097",
      "lat": "38.85112186310378"
    },
    {
      "id": "pt.ine.add.PTCONT.3164640",
      "street": "R HORTENSIAS",
      "house": "12",
      "postcode": "2670-559",
      "city": "LOURES",
      "lon": "-9.211291852272605",
      "lat": "38.85246761199471"
    },
    {
      "id": "pt.ine.add.PTCONT.3208909",
      "street": "R PECA",
      "house": "",
      "postcode": "2670-501",
      "city": "LOURES",
      "lon": "-9.211721778204339",
      "lat": "38.85195020686816"
    },
    {
      "id": "pt.ine.add.PTCONT.3208910",
      "street": "R HORTENSIAS",
      "house": "25",
      "postcode": "2670-559",
      "city": "LOURES",
      "lon": "-9.211857317478572",
      "lat": "38.85253445146361"
    },
    {
      "id": "pt.ine.add.PTCONT.3215516",
      "street": "R FERNANDO NAMORA",
      "house": "12",
      "postcode": "2670-501",
      "city": "LOURES",
      "lon": "-9.210441503376892",
      "lat": "38.851079275081915"
    },
    {
      "id": "pt.ine.add.PTCONT.3270688",
      "street": "R HORTENSIAS",
      "house": "15",
      "postcode": "2670-559",
      "city": "LOURES",
      "lon": "-9.211633308347404",
      "lat": "38.85219423011669"
    },
    {
      "id": "pt.ine.add.PTCONT.3382105",
      "street": "R FERNANDO NAMORA",
      "house": "14",
      "postcode": "2670-501",
      "city": "LOURES",
      "lon": "-9.210556544233505",
      "lat": "38.851069206200364"
    },
    {
      "id": "pt.ine.add.PTCONT.3443097",
      "street": "R HORTENSIAS",
      "house": "1",
      "postcode": "2670-559",
      "city": "LOURES",
      "lon": "-9.211226960109038",
      "lat": "38.85274744780666"
    },
    {
      "id": "pt.ine.add.PTCONT.2280287",
      "street": "R FERNANDO NAMORA",
      "house": "8",
      "postcode": "2670-501",
      "city": "LOURES",
      "lon": "-9.21013419355614",
      "lat": "38.85132531571604"
    },
    {
      "id": "pt.ine.add.PTCONT.2417288",
      "street": "R FERNANDO NAMORA",
      "house": "18",
      "postcode": "2670-501",
      "city": "LOURES",
      "lon": "-9.210812107648431",
      "lat": "38.851210970483045"
    },
    {
      "id": "pt.ine.add.PTCONT.2417289",
      "street": "R FERNANDO NAMORA",
      "house": "18",
      "postcode": "2670-501",
      "city": "LOURES",
      "lon": "-9.210812107648431",
      "lat": "38.851210970483045"
    },
    {
      "id": "pt.ine.add.PTCONT.2417290",
      "street": "R FERNANDO NAMORA",
      "house": "18",
      "postcode": "2670-501",
      "city": "LOURES",
      "lon": "-9.210812107648431",
      "lat": "38.851210970483045"
    },
    {
      "id": "pt.ine.add.PTCONT.2421342",
      "street": "R FERNANDO NAMORA",
      "house": "18",
      "postcode": "2670-501",
      "city": "LOURES",
      "lon": "-9.210812107648431",
      "lat": "38.851210970483045"
    },
    {
      "id": "pt.ine.add.PTCONT.2453278",
      "street": "R HORTENSIAS",
      "house": "3",
      "postcode": "2670-559",
      "city": "LOURES",
      "lon": "-9.211206779663359",
      "lat": "38.85293679447376"
    },
    {
      "id": "pt.ine.add.PTCONT.2499902",
      "street": "R FERNANDO NAMORA",
      "house": "10",
      "postcode": "2670-501",
      "city": "LOURES",
      "lon": "-9.210396791306666",
      "lat": "38.85116976391737"
    },
    {
      "id": "pt.ine.add.PTCONT.2516445",
      "street": "R HORTENSIAS",
      "house": "7",
      "postcode": "2670-559",
      "city": "LOURES",
      "lon": "-9.210906496784713",
      "lat": "38.85288552020594"
    },
    {
      "id": "pt.ine.add.PTCONT.2534453",
      "street": "R FERNANDO NAMORA",
      "house": "20",
      "postcode": "2670-501",
      "city": "LOURES",
      "lon": "-9.210985552740262",
      "lat": "38.85125440807029"
    },
    {
      "id": "pt.ine.add.PTCONT.2534454",
      "street": "R FERNANDO NAMORA",
      "house": "20",
      "postcode": "2670-501",
      "city": "LOURES",
      "lon": "-9.210985552740262",
      "lat": "38.85125440807029"
    },
    {
      "id": "pt.ine.add.PTCONT.2534455",
      "street": "R FERNANDO NAMORA",
      "house": "",
      "postcode": "2670-501",
      "city": "LOURES",
      "lon": "-9.210985552740262",
      "lat": "38.85125440807029"
    },
    {
      "id": "pt.ine.add.PTCONT.2534458",
      "street": "R FERNANDO NAMORA",
      "house": "20",
      "postcode": "2670-501",
      "city": "LOURES",
      "lon": "-9.210985552740262",
      "lat": "38.85125440807029"
    },
    {
      "id": "pt.ine.add.PTCONT.2568806",
      "street": "R HORTENSIAS",
      "house": "77",
      "postcode": "2670-559",
      "city": "LOURES",
      "lon": "-9.211390073562773",
      "lat": "38.85210639968428"
    },
    {
      "id": "pt.ine.add.PTCONT.2579848",
      "street": "R HORTENSIAS",
      "house": "6",
      "postcode": "2670-559",
      "city": "LOURES",
      "lon": "-9.211530370941668",
      "lat": "38.85300586801536"
    },
    {
      "id": "pt.ine.add.PTCONT.2588711",
      "street": "R HORTAS",
      "house": "",
      "postcode": "2670-501",
      "city": "LOURES",
      "lon": "-9.211195046766681",
      "lat": "38.851396596672544"
    },
    {
      "id": "pt.ine.add.PTCONT.2684251",
      "street": "R CAMELIAS",
      "house": "13",
      "postcode": "2670-559",
      "city": "LOURES",
      "lon": "-9.211068797695047",
      "lat": "38.85219043420109"
    },
    {
      "id": "pt.ine.add.PTCONT.2684252",
      "street": "R HORTENSIAS",
      "house": "13",
      "postcode": "2670-559",
      "city": "LOURES",
      "lon": "-9.211068797695047",
      "lat": "38.85219043420109"
    },
    {
      "id": "pt.ine.add.PTCONT.2753705",
      "street": "R HORTENCIAS",
      "house": "11",
      "postcode": "2670-332",
      "city": "LOURES",
      "lon": "-9.211512868429017",
      "lat": "38.85260969360645"
    },
    {
      "id": "pt.ine.add.PTCONT.2838055",
      "street": "R HORTENSIAS",
      "house": "11",
      "postcode": "2670-559",
      "city": "LOURES",
      "lon": "-9.21095973646184",
      "lat": "38.85259678447488"
    }
  ]
}