{
  "data": {
    "distrito": "Lisboa",
    "concelho": "Loures",
    "freguesia": "Loures",
    "OBJECTID": 574,
    "BGRI2021": "11070701919",
    "DT21": "11",
    "DTMN21": "1107",
    "DTMNFR21": "110707",
    "DTMNFRSEC21": "110707019",
    "SECNUM21": "019",
    "SSNUM21": "19",
    "SECSSNUM21": "01919",
    "OBJECTID_1": 107048,
    "DT": "11",
    "CC": "07",
    "fr": "07",
    "SEC": "019",
    "SS": "19"
  },
  "addresses": [
    {
      "id": "pt.ine.add.PTCONT.3011394",
      "street": "R DALIAS",
      "house": "10",
      "postcode": "2670-560",
      "city": "LOURES",
      "lon": "-9.212735866001685",
      "lat": "38.853499157987706"
    },
    {
      "id": "pt.ine.add.PTCONT.3011396",
      "street": "R CRAVINAS",
      "house": "",
      "postcode": "2670-560",
      "city": "LOURES",
      "lon": "-9.212367696553981",
      "lat": "38.853529583757734"
    },
    {
      "id": "pt.ine.add.PTCONT.3224871",
      "street": "R CRAVINAS",
      "house": "19",
      "postcode": "2670-560",
      "city": "LOURES",
      "lon": "-9.212584007638469",
      "lat": "38.85412208849894"
    },
    {
      "id": "pt.ine.add.PTCONT.3321789",
      "street": "R GRAVINAS",
      "house": "1",
      "postcode": "2670-559",
      "city": "LOURES",
      "lon": "-9.21218604808317",
      "lat": "38.85305820913934"
    },
    {
      "id": "pt.ine.add.PTCONT.2525112",
      "street": "R CRAVINAS",
      "house": "11",
      "postcode": "2670-560",
      "city": "LOURES",
      "lon": "-9.21240442878572",
      "lat": "38.85367336646871"
    },
    {
      "id": "pt.ine.add.PTCONT.2702730",
      "street": "R DALIAS",
      "house": "",
      "postcode": "2670-560",
      "city": "LOURES",
      "lon": "-9.212153430564824",
      "lat": "38.853072174187396"
    },
    {
      "id": "pt.ine.add.PTCONT.2743696",
      "street": "R DALIAS",
      "house": "14",
      "postcode": "2670-560",
      "city": "LOURES",
      "lon": "-9.212854042615266",
      "lat": "38.85369623344275"
    },
    {
      "id": "pt.ine.add.PTCONT.2776911",
      "street": "R GIPSOFILAS",
      "house": "24",
      "postcode": "2670-561",
      "city": "LOURES",
      "lon": "-9.212421611368477",
      "lat": "38.853285879357465"
    },
    {
      "id": "pt.ine.add.PTCONT.2794639",
      "street": "R DALIAS",
      "house": "16",
      "postcode": "2670-560",
      "city": "LOURES",
      "lon": "-9.212890775916392",
      "lat": "38.8538400159815"
    },
    {
      "id": "pt.ine.add.PTCONT.2838052",
      "street": "R CRAVINAS",
      "house": "13",
      "postcode": "2670-560",
      "city": "LOURES",
      "lon": "-9.212440888904663",
      "lat": "38.85379913640915"
    }
  ]
}