{
  "data": {
    "distrito": "Faro",
    "concelho": "Loul√©",
    "freguesia": "Almancil",
    "OBJECTID": 623,
    "BGRI2021": "08080101507",
    "DT21": "08",
    "DTMN21": "0808",
    "DTMNFR21": "080801",
    "DTMNFRSEC21": "080801015",
    "SECNUM21": "015",
    "SSNUM21": "07",
    "SECSSNUM21": "01507",
    "OBJECTID_1": 69429,
    "DT": "08",
    "CC": "08",
    "fr": "01",
    "SEC": "015",
    "SS": "07"
  },
  "addresses": [
    {
      "id": "pt.ine.add.PTCONT.1519591",
      "street": "CALICOS ESTEVAL CASA VALENTINA",
      "house": "210",
      "postcode": "8135-014",
      "city": "ALMANCIL",
      "lon": "-7.977615279312867",
      "lat": "37.092044753121314"
    },
    {
      "id": "pt.ine.add.PTCONT.1519592",
      "street": "SIT CALICOS",
      "house": "269A",
      "postcode": "8135-014",
      "city": "ALMANCIL",
      "lon": "-7.977537814131935",
      "lat": "37.09142291493837"
    },
    {
      "id": "pt.ine.add.PTCONT.1545578",
      "street": "SIT CALICOS",
      "house": "",
      "postcode": "8135-014",
      "city": "ALMANCIL",
      "lon": "-7.977661154777569",
      "lat": "37.09161230085984"
    },
    {
      "id": "pt.ine.add.PTCONT.1587483",
      "street": "SIT CALICOS",
      "house": "",
      "postcode": "8135-014",
      "city": "ALMANCIL",
      "lon": "-7.977672770783046",
      "lat": "37.09143210257469"
    },
    {
      "id": "pt.ine.add.PTCONT.1781779",
      "street": "SIT CALICOS",
      "house": "",
      "postcode": "8135-014",
      "city": "ALMANCIL",
      "lon": "-7.977638824540967",
      "lat": "37.091531175508884"
    },
    {
      "id": "pt.ine.add.PTCONT.1800756",
      "street": "CALICOS ESTEVAL CASA VAELNTINA II",
      "house": "210A",
      "postcode": "8135-014",
      "city": "ALMANCIL",
      "lon": "-7.977604473168203",
      "lat": "37.091828482754856"
    },
    {
      "id": "pt.ine.add.PTCONT.1808044",
      "street": "CALICOS ESTEUAL",
      "house": "269",
      "postcode": "8135-014",
      "city": "ALMANCIL",
      "lon": "-7.977908572911188",
      "lat": "37.09163064626133"
    },
    {
      "id": "pt.ine.add.PTCONT.1820438",
      "street": "SIT CALICOS",
      "house": "",
      "postcode": "8135-014",
      "city": "ALMANCIL",
      "lon": "-7.977785139672152",
      "lat": "37.09148631385396"
    }
  ]
}