{
  "data": {
    "distrito": "Braga",
    "concelho": "Barcelos",
    "freguesia": "Uni√£o das freguesias de Milhazes, Vilar de Figos e Faria",
    "OBJECTID": 255,
    "BGRI2021": "0302FA00120",
    "DT21": "03",
    "DTMN21": "0302",
    "DTMNFR21": "0302FA",
    "DTMNFRSEC21": "0302FA001",
    "SECNUM21": "001",
    "SSNUM21": "20",
    "SECSSNUM21": "00120",
    "OBJECTID_1": 21414,
    "DT": "03",
    "CC": "02",
    "fr": "FA",
    "SEC": "001",
    "SS": "20"
  },
  "addresses": [
    {
      "id": "pt.ine.add.PTCONT.492844",
      "street": "CANGOSTA DO FRIO",
      "house": "36",
      "postcode": "4755-202",
      "city": "FARIA",
      "lon": "-8.669949555217386",
      "lat": "41.47862912764625"
    },
    {
      "id": "pt.ine.add.PTCONT.494612",
      "street": "R CORTINHAL",
      "house": "674",
      "postcode": "4755-199",
      "city": "FARIA",
      "lon": "-8.67120901245155",
      "lat": "41.47891136533313"
    },
    {
      "id": "pt.ine.add.PTCONT.503566",
      "street": "LG S ANA",
      "house": "143",
      "postcode": "4755-202",
      "city": "FARIA",
      "lon": "-8.667924117256817",
      "lat": "41.47837745169339"
    },
    {
      "id": "pt.ine.add.PTCONT.580608",
      "street": "R CIMO ALDEIA",
      "house": "405",
      "postcode": "4755-202",
      "city": "FARIA",
      "lon": "-8.671177638636241",
      "lat": "41.479460746003944"
    },
    {
      "id": "pt.ine.add.PTCONT.621863",
      "street": "R CIMO DA ALDEIA",
      "house": "157",
      "postcode": "4755-202",
      "city": "FARIA",
      "lon": "-8.668460151084943",
      "lat": "41.479500437529104"
    },
    {
      "id": "pt.ine.add.PTCONT.628541",
      "street": "R CORTINHAL",
      "house": "58",
      "postcode": "4755-199",
      "city": "FARIA",
      "lon": "-8.66870208086508",
      "lat": "41.478346820343845"
    },
    {
      "id": "pt.ine.add.PTCONT.628542",
      "street": "R CORTINHAL",
      "house": "58",
      "postcode": "4755-199",
      "city": "FARIA",
      "lon": "-8.66870208086508",
      "lat": "41.478346820343845"
    },
    {
      "id": "pt.ine.add.PTCONT.641468",
      "street": "R CORTINHAL",
      "house": "360",
      "postcode": "4755-199",
      "city": "FARIA",
      "lon": "-8.672049601436981",
      "lat": "41.479213560227"
    },
    {
      "id": "pt.ine.add.PTCONT.665428",
      "street": "CANGOSTA DO FRIO",
      "house": "125",
      "postcode": "4755-202",
      "city": "FARIA",
      "lon": "-8.669782688086201",
      "lat": "41.478719944683206"
    },
    {
      "id": "pt.ine.add.PTCONT.689168",
      "street": "LG SANTA ANA",
      "house": "174",
      "postcode": "4755-202",
      "city": "FARIA",
      "lon": "-8.66761336065443",
      "lat": "41.478441923018046"
    },
    {
      "id": "pt.ine.add.PTCONT.698086",
      "street": "CANGOSTA DE SANTO AMARO",
      "house": "33",
      "postcode": "4755-202",
      "city": "FARIA",
      "lon": "-8.671678909257434",
      "lat": "41.47926931950342"
    },
    {
      "id": "pt.ine.add.PTCONT.720950",
      "street": "CANGOSTA DE SANTO AMARO",
      "house": "26",
      "postcode": "4755-202",
      "city": "FARIA",
      "lon": "-8.671523866161909",
      "lat": "41.479342076023386"
    },
    {
      "id": "pt.ine.add.PTCONT.742932",
      "street": "LG SANTA ANA",
      "house": "200",
      "postcode": "4755-202",
      "city": "FARIA",
      "lon": "-8.667566729719466",
      "lat": "41.4785952049124"
    },
    {
      "id": "pt.ine.add.PTCONT.746238",
      "street": "R CIMO DA ALDEIA",
      "house": "41",
      "postcode": "4755-202",
      "city": "FARIA",
      "lon": "-8.66768918859016",
      "lat": "41.478927777767936"
    },
    {
      "id": "pt.ine.add.PTCONT.752350",
      "street": "R CIMO DA ALDEIA",
      "house": "299",
      "postcode": "4755-202",
      "city": "FARIA",
      "lon": "-8.669982564748963",
      "lat": "41.47972744141449"
    },
    {
      "id": "pt.ine.add.PTCONT.757738",
      "street": "LG SANTA ANA",
      "house": "224",
      "postcode": "4755-202",
      "city": "FARIA",
      "lon": "-8.667615875865636",
      "lat": "41.47874804175601"
    },
    {
      "id": "pt.ine.add.PTCONT.832886",
      "street": "R CORTINHAL",
      "house": "264",
      "postcode": "4755-199",
      "city": "FARIA",
      "lon": "-8.67099209866148",
      "lat": "41.47874130701913"
    },
    {
      "id": "pt.ine.add.PTCONT.842949",
      "street": "R CIMO DA ALDEIA",
      "house": "131",
      "postcode": "4755-202",
      "city": "FARIA",
      "lon": "-8.668050945763541",
      "lat": "41.47924123014496"
    }
  ]
}