{
  "data": {
    "distrito": "Braga",
    "concelho": "Barcelos",
    "freguesia": "Uni√£o das freguesias de Milhazes, Vilar de Figos e Faria",
    "OBJECTID": 542,
    "BGRI2021": "0302FA00130",
    "DT21": "03",
    "DTMN21": "0302",
    "DTMNFR21": "0302FA",
    "DTMNFRSEC21": "0302FA001",
    "SECNUM21": "001",
    "SSNUM21": "30",
    "SECSSNUM21": "00130",
    "OBJECTID_1": 20080,
    "DT": "03",
    "CC": "02",
    "fr": "FA",
    "SEC": "001",
    "SS": "30"
  },
  "addresses": [
    {
      "id": "pt.ine.add.PTCONT.557597",
      "street": "R AGRA",
      "house": "108",
      "postcode": "4755-202",
      "city": "FARIA",
      "lon": "-8.669174307206585",
      "lat": "41.48044251396779"
    },
    {
      "id": "pt.ine.add.PTCONT.557598",
      "street": "R AGRA",
      "house": "131",
      "postcode": "4755-202",
      "city": "FARIA",
      "lon": "-8.669174307206585",
      "lat": "41.48044251396779"
    },
    {
      "id": "pt.ine.add.PTCONT.650799",
      "street": "R AGRA",
      "house": "150",
      "postcode": "4755-202",
      "city": "FARIA",
      "lon": "-8.66960680128368",
      "lat": "41.48062057417064"
    },
    {
      "id": "pt.ine.add.PTCONT.670842",
      "street": "CIMO DE ALDEIA",
      "house": "",
      "postcode": "4755-587",
      "city": "VILAR DE FIGOS",
      "lon": "-8.669799475591786",
      "lat": "41.48075473281193"
    },
    {
      "id": "pt.ine.add.PTCONT.769128",
      "street": "R AGRA",
      "house": "172",
      "postcode": "4755-202",
      "city": "FARIA",
      "lon": "-8.669810705255816",
      "lat": "41.48066464209081"
    },
    {
      "id": "pt.ine.add.PTCONT.778926",
      "street": "R IGREJA",
      "house": "414",
      "postcode": "4755-204",
      "city": "FARIA",
      "lon": "-8.672717269745995",
      "lat": "41.484648743224014"
    },
    {
      "id": "pt.ine.add.PTCONT.794631",
      "street": "R AGRA",
      "house": "182",
      "postcode": "4755-202",
      "city": "FARIA",
      "lon": "-8.669919275162153",
      "lat": "41.4807631776043"
    },
    {
      "id": "pt.ine.add.PTCONT.841382",
      "street": "R CARCOA",
      "house": "180",
      "postcode": "4755-202",
      "city": "FARIA",
      "lon": "-8.66907517796348",
      "lat": "41.48439565721386"
    }
  ]
}