{
  "data": {
    "ilha": "Ilha Terceira (Açores)",
    "concelho": "Praia da Vitória",
    "freguesia": "Praia da Vitória (Santa Cruz)",
    "OBJECTID": 92,
    "BGRI2021": "43020700424",
    "DT21": "43",
    "DTMN21": "4302",
    "DTMNFR21": "430207",
    "DTMNFRSEC21": "430207004",
    "SECNUM21": "004",
    "SSNUM21": "24",
    "SECSSNUM21": "00424",
    "OBJECTID_1": 208588,
    "DT": "43",
    "CC": "02",
    "fr": "07",
    "SEC": "004",
    "SS": "24",
    "BGRI2021_1": "43020700424"
  },
  "addresses": [
    {
      "id": "pt.ine.add.AC26.3495",
      "street": "VALE FARTO",
      "house": "21",
      "postcode": "9760-581",
      "city": "PRAIA DA VITÓRIA",
      "lon": "-27.093164172072186",
      "lat": "38.72840309140344"
    },
    {
      "id": "pt.ine.add.AC26.3496",
      "street": "PICO CELEIRO",
      "house": "10",
      "postcode": "9760-581",
      "city": "PRAIA DA VITÓRIA",
      "lon": "-27.09179501215945",
      "lat": "38.72831405666763"
    },
    {
      "id": "pt.ine.add.AC26.3497",
      "street": "CAN CIDADE",
      "house": "2",
      "postcode": "9760-435",
      "city": "PRAIA DA VITÓRIA",
      "lon": "-27.079250974578265",
      "lat": "38.72464642702232"
    },
    {
      "id": "pt.ine.add.AC26.3498",
      "street": "CRUZ DE MARCO",
      "house": "102B",
      "postcode": "9760-435",
      "city": "PRAIA DA VITÓRIA",
      "lon": "-27.07646907688329",
      "lat": "38.726585812314596"
    },
    {
      "id": "pt.ine.add.AC26.3499",
      "street": "CRUZ DE MARCO",
      "house": "104",
      "postcode": "9760-435",
      "city": "PRAIA DA VITÓRIA",
      "lon": "-27.076423136522966",
      "lat": "38.72665793658106"
    },
    {
      "id": "pt.ine.add.AC26.3500",
      "street": "CRUZ MARCO",
      "house": "102",
      "postcode": "9760-479",
      "city": "PRAIA DA VITÓRIA",
      "lon": "-27.075582667419685",
      "lat": "38.72603667019431"
    },
    {
      "id": "pt.ine.add.AC26.3501",
      "street": "PICO CELEIRO",
      "house": "18",
      "postcode": "9760-479",
      "city": "PRAIA DA VITÓRIA",
      "lon": "-27.093924418011266",
      "lat": "38.729123425063875"
    },
    {
      "id": "pt.ine.add.AC26.51460",
      "street": "VALE FARTO",
      "house": "25A",
      "postcode": "9760-581",
      "city": "PRAIA DA VITÓRIA",
      "lon": "-27.085001965877623",
      "lat": "38.733509973237915"
    },
    {
      "id": "pt.ine.add.AC26.53743",
      "street": "PICO CELEIRO",
      "house": "8",
      "postcode": "9760-581",
      "city": "PRAIA DA VITÓRIA",
      "lon": "-27.08550074842835",
      "lat": "38.72725543958306"
    },
    {
      "id": "pt.ine.add.AC26.53744",
      "street": "CAN CIDADE",
      "house": "4",
      "postcode": "9760-435",
      "city": "PRAIA DA VITÓRIA",
      "lon": "-27.082370725181843",
      "lat": "38.726536744472284"
    },
    {
      "id": "pt.ine.add.AC26.53745",
      "street": "CRUZ DE MARCO",
      "house": "16",
      "postcode": "9760-435",
      "city": "PRAIA DA VITÓRIA",
      "lon": "-27.076319693679764",
      "lat": "38.726748121935735"
    },
    {
      "id": "pt.ine.add.AC26.56353",
      "street": "PICO CELEIRO",
      "house": "16",
      "postcode": "9760-479",
      "city": "PRAIA DA VITÓRIA",
      "lon": "-27.093832781264968",
      "lat": "38.7294298989452"
    },
    {
      "id": "pt.ine.add.AC26.63154",
      "street": "PICO CELEIRO",
      "house": "12",
      "postcode": "9760-581",
      "city": "PRAIA DA VITÓRIA",
      "lon": "-27.093026082099726",
      "lat": "38.72837616603579"
    },
    {
      "id": "pt.ine.add.AC26.63155",
      "street": "CAN VELHACO",
      "house": "2",
      "postcode": "9760-435",
      "city": "PRAIA DA VITÓRIA",
      "lon": "-27.07972281791569",
      "lat": "38.72480831829953"
    },
    {
      "id": "pt.ine.add.AC26.65802",
      "street": "CAM ROCHA",
      "house": "6",
      "postcode": "9760-479",
      "city": "PRAIA DA VITÓRIA",
      "lon": "-27.084649136122007",
      "lat": "38.72701274128492"
    },
    {
      "id": "pt.ine.add.AC26.82401",
      "street": "PICO CELEIRO",
      "house": "8C",
      "postcode": "9760-581",
      "city": "PRAIA DA VITÓRIA",
      "lon": "-27.091484388975168",
      "lat": "38.728314300140966"
    },
    {
      "id": "pt.ine.add.AC26.82911",
      "street": "PICO CELEIRO",
      "house": "8A",
      "postcode": "9760-479",
      "city": "PRAIA DA VITÓRIA",
      "lon": "-27.084775726632632",
      "lat": "38.72704869667187"
    },
    {
      "id": "pt.ine.add.AC26.84089",
      "street": "CRUZ MARCO",
      "house": "108",
      "postcode": "9760-577",
      "city": "PRAIA DA VITÓRIA",
      "lon": "-27.07672132318404",
      "lat": "38.72579261049405"
    },
    {
      "id": "pt.ine.add.AC26.85875",
      "street": "CRUZ DE MARCO",
      "house": "110",
      "postcode": "9760-435",
      "city": "PRAIA DA VITÓRIA",
      "lon": "-27.07626156859216",
      "lat": "38.72618041780273"
    },
    {
      "id": "pt.ine.add.AC26.87138",
      "street": "VALE FARTO",
      "house": "23",
      "postcode": "9760-581",
      "city": "PRAIA DA VITÓRIA",
      "lon": "-27.084507021410758",
      "lat": "38.733330096700655"
    },
    {
      "id": "pt.ine.add.AC26.106059",
      "street": "R PICO DO CELEIRO",
      "house": "22",
      "postcode": "9760-479",
      "city": "PRAIA DA VITÓRIA",
      "lon": "-27.09416581542704",
      "lat": "38.72897003072817"
    }
  ]
}