{
  "data": {
    "distrito": "Évora",
    "concelho": "Évora",
    "freguesia": "União das freguesias de Bacelo e Senhora da Saúde",
    "OBJECTID": 1372,
    "BGRI2021": "07052200823",
    "DT21": "07",
    "DTMN21": "0705",
    "DTMNFR21": "070522",
    "DTMNFRSEC21": "070522008",
    "SECNUM21": "008",
    "SSNUM21": "23",
    "SECSSNUM21": "00823",
    "OBJECTID_1": 61407,
    "DT": "07",
    "CC": "05",
    "fr": "22",
    "SEC": "008",
    "SS": "23"
  },
  "addresses": [
    {
      "id": "pt.ine.add.PTCONT.1367972",
      "street": "QTA MACEDA E CASITO",
      "house": "",
      "postcode": "7005-837",
      "city": "ÉVORA",
      "lon": "-7.878255183390457",
      "lat": "38.59607376088314"
    },
    {
      "id": "pt.ine.add.PTCONT.1368233",
      "street": "QTA VALE DAVID",
      "house": "",
      "postcode": "7005-837",
      "city": "ÉVORA",
      "lon": "-7.877814237449416",
      "lat": "38.59741504489524"
    },
    {
      "id": "pt.ine.add.PTCONT.1371855",
      "street": "QTA CARRICAS",
      "house": "",
      "postcode": "7005-175",
      "city": "ÉVORA",
      "lon": "-7.880163118907332",
      "lat": "38.59537524816446"
    },
    {
      "id": "pt.ine.add.PTCONT.1372567",
      "street": "MTE MOURA",
      "house": "",
      "postcode": "7005-837",
      "city": "ÉVORA",
      "lon": "-7.88048576938685",
      "lat": "38.598294652524515"
    },
    {
      "id": "pt.ine.add.PTCONT.1374128",
      "street": "QTA HORTA RIBEIRA ESTRADA PIMENTAS",
      "house": "",
      "postcode": "7005-837",
      "city": "ÉVORA",
      "lon": "-7.879661765430253",
      "lat": "38.594320185475894"
    },
    {
      "id": "pt.ine.add.PTCONT.1385397",
      "street": "QTA VALE DAVID",
      "house": "",
      "postcode": "7005-837",
      "city": "ÉVORA",
      "lon": "-7.876908393465035",
      "lat": "38.59713380636317"
    },
    {
      "id": "pt.ine.add.PTCONT.1388358",
      "street": "QTA CIRURGIAO",
      "house": "",
      "postcode": "7005-175",
      "city": "ÉVORA",
      "lon": "-7.881931109474363",
      "lat": "38.59529798074769"
    },
    {
      "id": "pt.ine.add.PTCONT.1388359",
      "street": "QTA DO GALO - ESTRADA DAS PIMENTAS",
      "house": "",
      "postcode": "7005-837",
      "city": "ÉVORA",
      "lon": "-7.878925683172518",
      "lat": "38.594732973667156"
    },
    {
      "id": "pt.ine.add.PTCONT.1398134",
      "street": "QTA VALE DAVID",
      "house": "",
      "postcode": "7005-837",
      "city": "ÉVORA",
      "lon": "-7.877011383483053",
      "lat": "38.59722411533084"
    },
    {
      "id": "pt.ine.add.PTCONT.1399708",
      "street": "QTA QUINTINHA",
      "house": "",
      "postcode": "7005-837",
      "city": "ÉVORA",
      "lon": "-7.878230024193609",
      "lat": "38.59543651342632"
    },
    {
      "id": "pt.ine.add.PTCONT.1407252",
      "street": "QTA CARRICAS",
      "house": "",
      "postcode": "7005-175",
      "city": "ÉVORA",
      "lon": "-7.880289446949354",
      "lat": "38.595357504412604"
    },
    {
      "id": "pt.ine.add.PTCONT.1416797",
      "street": "QTA DA FOGAÇA",
      "house": "",
      "postcode": "7005-837",
      "city": "ÉVORA",
      "lon": "-7.883859827963161",
      "lat": "38.595212020672015"
    },
    {
      "id": "pt.ine.add.PTCONT.1438822",
      "street": "QTA CARRICAS",
      "house": "",
      "postcode": "7005-175",
      "city": "ÉVORA",
      "lon": "-7.880071131808966",
      "lat": "38.595420091108636"
    },
    {
      "id": "pt.ine.add.PTCONT.1444789",
      "street": "QTA LAGEOSA",
      "house": "",
      "postcode": "7005-175",
      "city": "ÉVORA",
      "lon": "-7.879259678794848",
      "lat": "38.598574927532596"
    },
    {
      "id": "pt.ine.add.PTCONT.1452544",
      "street": "QTA PIEDADE",
      "house": "",
      "postcode": "7005-837",
      "city": "ÉVORA",
      "lon": "-7.88585063184833",
      "lat": "38.59375688913639"
    },
    {
      "id": "pt.ine.add.PTCONT.1452545",
      "street": "QTA PIEDADE",
      "house": "",
      "postcode": "7005-837",
      "city": "ÉVORA",
      "lon": "-7.88585063184833",
      "lat": "38.59375688913639"
    },
    {
      "id": "pt.ine.add.PTCONT.1459357",
      "street": "QTA CASAS ALTAS",
      "house": "",
      "postcode": "7005-175",
      "city": "ÉVORA",
      "lon": "-7.8815632642450515",
      "lat": "38.59709255545158"
    }
  ]
}