{
  "data": {
    "distrito": "Setúbal",
    "concelho": "Montijo",
    "freguesia": "União das freguesias de Pegões",
    "OBJECTID": 251,
    "BGRI2021": "15071100216",
    "DT21": "15",
    "DTMN21": "1507",
    "DTMNFR21": "150711",
    "DTMNFRSEC21": "150711002",
    "SECNUM21": "002",
    "SSNUM21": "16",
    "SECSSNUM21": "00216",
    "OBJECTID_1": 164907,
    "DT": "15",
    "CC": "07",
    "fr": "11",
    "SEC": "002",
    "SS": "16"
  },
  "addresses": [
    {
      "id": "pt.ine.add.PTCONT.4717424",
      "street": "R MARTINELO",
      "house": "",
      "postcode": "2985-201",
      "city": "PEGÕES",
      "lon": "-8.580777392655698",
      "lat": "38.68206432515098"
    },
    {
      "id": "pt.ine.add.PTCONT.4723263",
      "street": "R ALENTEJO MONTE DA JUDIA",
      "house": "",
      "postcode": "2985-201",
      "city": "PEGÕES",
      "lon": "-8.5781869561122",
      "lat": "38.6813175245185"
    },
    {
      "id": "pt.ine.add.PTCONT.4723264",
      "street": "R LIBERDADE",
      "house": "",
      "postcode": "2985-201",
      "city": "PEGÕES",
      "lon": "-8.579272471205565",
      "lat": "38.68216015779202"
    },
    {
      "id": "pt.ine.add.PTCONT.4816333",
      "street": "R LIBERDADE",
      "house": "",
      "postcode": "2985-201",
      "city": "PEGÕES",
      "lon": "-8.579144882364615",
      "lat": "38.6819714725972"
    },
    {
      "id": "pt.ine.add.PTCONT.4820149",
      "street": "R MARTINELO",
      "house": "242",
      "postcode": "2985-201",
      "city": "PEGÕES",
      "lon": "-8.579965198429466",
      "lat": "38.682670979500166"
    },
    {
      "id": "pt.ine.add.PTCONT.4829619",
      "street": "R ALENTEJO MONTE DA JUDIA",
      "house": "1",
      "postcode": "2985-201",
      "city": "PEGÕES",
      "lon": "-8.5752103148461",
      "lat": "38.68316648421419"
    },
    {
      "id": "pt.ine.add.PTCONT.4829620",
      "street": "R ALENTEJO MONTE DA JUDIA",
      "house": "1",
      "postcode": "2985-201",
      "city": "PEGÕES",
      "lon": "-8.5752103148461",
      "lat": "38.68316648421419"
    },
    {
      "id": "pt.ine.add.PTCONT.4889040",
      "street": "R LIBERDADE",
      "house": "",
      "postcode": "2985-201",
      "city": "PEGÕES",
      "lon": "-8.57941065778204",
      "lat": "38.682204671461214"
    },
    {
      "id": "pt.ine.add.PTCONT.4915955",
      "street": "R LIBERDADE",
      "house": "",
      "postcode": "2985-201",
      "city": "PEGÕES",
      "lon": "-8.580111236231955",
      "lat": "38.682129930429426"
    },
    {
      "id": "pt.ine.add.PTCONT.4951468",
      "street": "R ALENTEJO",
      "house": "",
      "postcode": "2985-201",
      "city": "PEGÕES",
      "lon": "-8.576604437117169",
      "lat": "38.681873035542786"
    },
    {
      "id": "pt.ine.add.PTCONT.4974680",
      "street": "R LIBERDADE",
      "house": "",
      "postcode": "2985-201",
      "city": "PEGÕES",
      "lon": "-8.57913450846001",
      "lat": "38.68215167584074"
    },
    {
      "id": "pt.ine.add.PTCONT.5031953",
      "street": "R LIBERDADE QTA S CRISTÓVÃO",
      "house": "",
      "postcode": "2985-201",
      "city": "PEGÕES",
      "lon": "-8.580343379566338",
      "lat": "38.682498378445516"
    },
    {
      "id": "pt.ine.add.PTCONT.5061286",
      "street": "R MARTINELO",
      "house": "",
      "postcode": "2985-201",
      "city": "PEGÕES",
      "lon": "-8.58079931074085",
      "lat": "38.681893085761835"
    },
    {
      "id": "pt.ine.add.PTCONT.5071299",
      "street": "R LIBERDADE",
      "house": "",
      "postcode": "2985-201",
      "city": "PEGÕES",
      "lon": "-8.57958416085611",
      "lat": "38.68238417290095"
    },
    {
      "id": "pt.ine.add.PTCONT.5084838",
      "street": "R LIBERDADE",
      "house": "",
      "postcode": "2985-201",
      "city": "PEGÕES",
      "lon": "-8.57919006828163",
      "lat": "38.681845185679244"
    },
    {
      "id": "pt.ine.add.PTCONT.5093543",
      "street": "R LIBERDADE",
      "house": "",
      "postcode": "2985-201",
      "city": "PEGÕES",
      "lon": "-8.579961725207733",
      "lat": "38.68211248540813"
    }
  ]
}