{
  "data": {
    "distrito": "Setúbal",
    "concelho": "Montijo",
    "freguesia": "União das freguesias de Pegões",
    "OBJECTID": 718,
    "BGRI2021": "15071100234",
    "DT21": "15",
    "DTMN21": "1507",
    "DTMNFR21": "150711",
    "DTMNFRSEC21": "150711002",
    "SECNUM21": "002",
    "SSNUM21": "34",
    "SECSSNUM21": "00234",
    "OBJECTID_1": 165004,
    "DT": "15",
    "CC": "07",
    "fr": "11",
    "SEC": "002",
    "SS": "34"
  },
  "addresses": [
    {
      "id": "pt.ine.add.PTCONT.4668512",
      "street": "ESTR PONTAL",
      "house": "5",
      "postcode": "2985-204",
      "city": "PEGÕES",
      "lon": "-8.596567856594632",
      "lat": "38.69093892400565"
    },
    {
      "id": "pt.ine.add.PTCONT.4686785",
      "street": "HRD PONTAL VIVEIROS DE SANTO ISIDRO",
      "house": "",
      "postcode": "2985-204",
      "city": "PEGÕES",
      "lon": "-8.584327238816",
      "lat": "38.696490782243885"
    },
    {
      "id": "pt.ine.add.PTCONT.4706901",
      "street": "R PONTAL",
      "house": "",
      "postcode": "2985-204",
      "city": "PEGÕES",
      "lon": "-8.610248697606686",
      "lat": "38.69486551194649"
    },
    {
      "id": "pt.ine.add.PTCONT.4715551",
      "street": "R PONTAL",
      "house": "",
      "postcode": "2985-204",
      "city": "PEGÕES",
      "lon": "-8.610685178389106",
      "lat": "38.69481868943806"
    },
    {
      "id": "pt.ine.add.PTCONT.4781906",
      "street": "R PONTAL",
      "house": "267",
      "postcode": "2985-204",
      "city": "PEGÕES",
      "lon": "-8.608364837605558",
      "lat": "38.69505334636304"
    },
    {
      "id": "pt.ine.add.PTCONT.4783102",
      "street": "R PONTAL",
      "house": "101",
      "postcode": "2985-204",
      "city": "PEGÕES",
      "lon": "-8.610616332906973",
      "lat": "38.69483698688715"
    },
    {
      "id": "pt.ine.add.PTCONT.4813220",
      "street": "ESTR PONTAL",
      "house": "",
      "postcode": "2985-204",
      "city": "PEGÕES",
      "lon": "-8.6000424982144",
      "lat": "38.691474600198696"
    },
    {
      "id": "pt.ine.add.PTCONT.4813221",
      "street": "R PONTAL",
      "house": "209",
      "postcode": "2985-204",
      "city": "PEGÕES",
      "lon": "-8.609318263111334",
      "lat": "38.694959386134805"
    },
    {
      "id": "pt.ine.add.PTCONT.4837734",
      "street": "R PONTAL",
      "house": "",
      "postcode": "2985-204",
      "city": "PEGÕES",
      "lon": "-8.61076569776571",
      "lat": "38.694827368732675"
    },
    {
      "id": "pt.ine.add.PTCONT.4854329",
      "street": "R ANTÓNIO LUIS FIDALGO",
      "house": "",
      "postcode": "2985-204",
      "city": "PEGÕES",
      "lon": "-8.58611081770725",
      "lat": "38.6858542482426"
    },
    {
      "id": "pt.ine.add.PTCONT.4856142",
      "street": "ESTR PONTAL",
      "house": "",
      "postcode": "2985-204",
      "city": "PEGÕES",
      "lon": "-8.600169221688613",
      "lat": "38.691519134968736"
    },
    {
      "id": "pt.ine.add.PTCONT.4887494",
      "street": "R PONTAL",
      "house": "",
      "postcode": "2985-204",
      "city": "PEGÕES",
      "lon": "-8.610903508448073",
      "lat": "38.694808789440174"
    },
    {
      "id": "pt.ine.add.PTCONT.4891080",
      "street": "HRD PONTAL",
      "house": "",
      "postcode": "2985-201",
      "city": "PEGÕES",
      "lon": "-8.604613172910826",
      "lat": "38.69787907749057"
    },
    {
      "id": "pt.ine.add.PTCONT.4909330",
      "street": "R PONTAL",
      "house": "229 233",
      "postcode": "2985-204",
      "city": "PEGÕES",
      "lon": "-8.609145909292081",
      "lat": "38.69496909602571"
    },
    {
      "id": "pt.ine.add.PTCONT.4928621",
      "street": "HRD PONTAL",
      "house": "",
      "postcode": "2985-204",
      "city": "PEGÕES",
      "lon": "-8.611021328492873",
      "lat": "38.702149950141624"
    },
    {
      "id": "pt.ine.add.PTCONT.4963980",
      "street": "R PONTAL",
      "house": "",
      "postcode": "2985-204",
      "city": "PEGÕES",
      "lon": "-8.610076523616845",
      "lat": "38.69490224694164"
    },
    {
      "id": "pt.ine.add.PTCONT.5021396",
      "street": "ESTR PONTAL",
      "house": "",
      "postcode": "2985-204",
      "city": "PEGÕES",
      "lon": "-8.604424548414299",
      "lat": "38.691907429615895"
    },
    {
      "id": "pt.ine.add.PTCONT.5032103",
      "street": "MTE PONTAL",
      "house": "",
      "postcode": "2985-204",
      "city": "PEGÕES",
      "lon": "-8.604517016996594",
      "lat": "38.697239886284635"
    },
    {
      "id": "pt.ine.add.PTCONT.5039449",
      "street": "ESTR PONTAL",
      "house": "",
      "postcode": "2985-204",
      "city": "PEGÕES",
      "lon": "-8.596741598019047",
      "lat": "38.69114542313268"
    },
    {
      "id": "pt.ine.add.PTCONT.5039450",
      "street": "ESTR PONTAL",
      "house": "",
      "postcode": "2985-204",
      "city": "PEGÕES",
      "lon": "-8.597890845835947",
      "lat": "38.69112284490678"
    },
    {
      "id": "pt.ine.add.PTCONT.5042975",
      "street": "R PONTAL",
      "house": "",
      "postcode": "2985-204",
      "city": "PEGÕES",
      "lon": "-8.610375014287246",
      "lat": "38.69484698017343"
    },
    {
      "id": "pt.ine.add.PTCONT.5079464",
      "street": "R PONTAL",
      "house": "",
      "postcode": "2985-204",
      "city": "PEGÕES",
      "lon": "-8.61085759153513",
      "lat": "38.69481798519257"
    },
    {
      "id": "pt.ine.add.PTCONT.5125546",
      "street": "R PONTAL",
      "house": "",
      "postcode": "2985-204",
      "city": "PEGÕES",
      "lon": "-8.60897397320722",
      "lat": "38.695041861053305"
    }
  ]
}