{
  "data": {
    "distrito": "Lisboa",
    "concelho": "Cascais",
    "freguesia": "Uni√£o das freguesias de Cascais e Estoril",
    "OBJECTID": 162,
    "BGRI2021": "11050801202",
    "DT21": "11",
    "DTMN21": "1105",
    "DTMNFR21": "110508",
    "DTMNFRSEC21": "110508012",
    "SECNUM21": "012",
    "SSNUM21": "02",
    "SECSSNUM21": "01202",
    "OBJECTID_1": 101837,
    "DT": "11",
    "CC": "05",
    "fr": "08",
    "SEC": "012",
    "SS": "02"
  },
  "addresses": [
    {
      "id": "pt.ine.add.PTCONT.2981874",
      "street": "R ACERES",
      "house": "3A",
      "postcode": "2750-597",
      "city": "CASCAIS",
      "lon": "-9.445759689470137",
      "lat": "38.7019379276769"
    },
    {
      "id": "pt.ine.add.PTCONT.3027586",
      "street": "R CAMELIAS",
      "house": "",
      "postcode": "2750-599",
      "city": "CASCAIS",
      "lon": "-9.445853044748466",
      "lat": "38.700756871700655"
    },
    {
      "id": "pt.ine.add.PTCONT.3103144",
      "street": "R AZINHEIRAS",
      "house": "29",
      "postcode": "2750-598",
      "city": "CASCAIS",
      "lon": "-9.445893779909234",
      "lat": "38.701098706690054"
    },
    {
      "id": "pt.ine.add.PTCONT.3120610",
      "street": "R FAIAS",
      "house": "612",
      "postcode": "2750-688",
      "city": "CASCAIS",
      "lon": "-9.446084084583578",
      "lat": "38.70144786977628"
    },
    {
      "id": "pt.ine.add.PTCONT.3308970",
      "street": "R CAMELIAS",
      "house": "81",
      "postcode": "2750-599",
      "city": "CASCAIS",
      "lon": "-9.446335895924111",
      "lat": "38.70076045699179"
    },
    {
      "id": "pt.ine.add.PTCONT.3351581",
      "street": "R CAMELIAS",
      "house": "49",
      "postcode": "2750-599",
      "city": "CASCAIS",
      "lon": "-9.445956642249493",
      "lat": "38.7007647161663"
    },
    {
      "id": "pt.ine.add.PTCONT.2287231",
      "street": "R AZINHEIRAS",
      "house": "27",
      "postcode": "2750-598",
      "city": "CASCAIS",
      "lon": "-9.445744046915744",
      "lat": "38.70108237245057"
    },
    {
      "id": "pt.ine.add.PTCONT.2326815",
      "street": "R FAIAS",
      "house": "566",
      "postcode": "2750-688",
      "city": "CASCAIS",
      "lon": "-9.446181259359946",
      "lat": "38.70110448613035"
    },
    {
      "id": "pt.ine.add.PTCONT.2370862",
      "street": "R ACERES",
      "house": "37",
      "postcode": "2750-597",
      "city": "CASCAIS",
      "lon": "-9.445721259531137",
      "lat": "38.701722174507026"
    },
    {
      "id": "pt.ine.add.PTCONT.2396330",
      "street": "R CHOROES",
      "house": "32",
      "postcode": "2750-601",
      "city": "CASCAIS",
      "lon": "-9.445714508702123",
      "lat": "38.701352934879736"
    },
    {
      "id": "pt.ine.add.PTCONT.2586598",
      "street": "R ACERES",
      "house": "38",
      "postcode": "2750-597",
      "city": "CASCAIS",
      "lon": "-9.44573489277356",
      "lat": "38.7018391214534"
    },
    {
      "id": "pt.ine.add.PTCONT.2586599",
      "street": "R CHOROES",
      "house": "",
      "postcode": "2750-601",
      "city": "CASCAIS",
      "lon": "-9.445730940996214",
      "lat": "38.701622981192244"
    },
    {
      "id": "pt.ine.add.PTCONT.2596083",
      "street": "R CAMELIAS",
      "house": "71",
      "postcode": "2750-599",
      "city": "CASCAIS",
      "lon": "-9.44620947804148",
      "lat": "38.70076187685324"
    },
    {
      "id": "pt.ine.add.PTCONT.2686363",
      "street": "R CAMELIAS",
      "house": "61",
      "postcode": "2750-599",
      "city": "CASCAIS",
      "lon": "-9.44607140291977",
      "lat": "38.700754419792695"
    },
    {
      "id": "pt.ine.add.PTCONT.2764694",
      "street": "R AZINHEIRAS",
      "house": "30",
      "postcode": "2750-598",
      "city": "CASCAIS",
      "lon": "-9.44603169099057",
      "lat": "38.70109715810456"
    },
    {
      "id": "pt.ine.add.PTCONT.2775959",
      "street": "R CHOROES",
      "house": "23",
      "postcode": "2750-601",
      "city": "CASCAIS",
      "lon": "-9.445818436385553",
      "lat": "38.701378791141444"
    },
    {
      "id": "pt.ine.add.PTCONT.2835945",
      "street": "R CHOROES",
      "house": "33",
      "postcode": "2750-601",
      "city": "CASCAIS",
      "lon": "-9.445945514102245",
      "lat": "38.70141339505966"
    }
  ]
}