{
  "data": {
    "distrito": "Lisboa",
    "concelho": "Cascais",
    "freguesia": "Uni√£o das freguesias de Cascais e Estoril",
    "OBJECTID": 859,
    "BGRI2021": "11050801210",
    "DT21": "11",
    "DTMN21": "1105",
    "DTMNFR21": "110508",
    "DTMNFRSEC21": "110508012",
    "SECNUM21": "012",
    "SSNUM21": "10",
    "SECSSNUM21": "01210",
    "OBJECTID_1": 101462,
    "DT": "11",
    "CC": "05",
    "fr": "08",
    "SEC": "012",
    "SS": "10"
  },
  "addresses": [
    {
      "id": "pt.ine.add.PTCONT.2999012",
      "street": "R EUCALIPTOS",
      "house": "902",
      "postcode": "2750-687",
      "city": "CASCAIS",
      "lon": "-9.448996034790262",
      "lat": "38.70353193943253"
    },
    {
      "id": "pt.ine.add.PTCONT.3008993",
      "street": "R PLATANOS",
      "house": "",
      "postcode": "2750-705",
      "city": "CASCAIS",
      "lon": "-9.448283744638447",
      "lat": "38.70292743128716"
    },
    {
      "id": "pt.ine.add.PTCONT.3250268",
      "street": "R EUCALIPTOS",
      "house": "1020 B",
      "postcode": "2750-687",
      "city": "CASCAIS",
      "lon": "-9.44821044405954",
      "lat": "38.70394612459773"
    },
    {
      "id": "pt.ine.add.PTCONT.3268798",
      "street": "R PLATANOS",
      "house": "ANEXO JOTO",
      "postcode": "2750-705",
      "city": "CASCAIS",
      "lon": "-9.44840835123062",
      "lat": "38.702826944956215"
    },
    {
      "id": "pt.ine.add.PTCONT.3370007",
      "street": "R EUCALIPTOS",
      "house": "",
      "postcode": "2750-687",
      "city": "CASCAIS",
      "lon": "-9.447001577210427",
      "lat": "38.7044731543261"
    },
    {
      "id": "pt.ine.add.PTCONT.2432310",
      "street": "R EUCALIPTOS",
      "house": "902",
      "postcode": "2750-687",
      "city": "CASCAIS",
      "lon": "-9.448990814759076",
      "lat": "38.70387429030302"
    },
    {
      "id": "pt.ine.add.PTCONT.2438995",
      "street": "R EUCALIPTOS",
      "house": "1020 A",
      "postcode": "2750-687",
      "city": "CASCAIS",
      "lon": "-9.448224411842569",
      "lat": "38.70408108279486"
    },
    {
      "id": "pt.ine.add.PTCONT.2505565",
      "street": "R EUCALIPTOS",
      "house": "990",
      "postcode": "2750-687",
      "city": "CASCAIS",
      "lon": "-9.44878608606901",
      "lat": "38.70399369428192"
    },
    {
      "id": "pt.ine.add.PTCONT.2532335",
      "street": "R EUCALIPTOS",
      "house": "738",
      "postcode": "2750-687",
      "city": "CASCAIS",
      "lon": "-9.44906948903187",
      "lat": "38.70252225159346"
    },
    {
      "id": "pt.ine.add.PTCONT.2541474",
      "street": "R EUCALIPTOS",
      "house": "990 A",
      "postcode": "2750-687",
      "city": "CASCAIS",
      "lon": "-9.448453447909285",
      "lat": "38.70403346782702"
    },
    {
      "id": "pt.ine.add.PTCONT.2764756",
      "street": "R PLATANOS",
      "house": "CASA CHELB",
      "postcode": "2750-705",
      "city": "CASCAIS",
      "lon": "-9.447116956903523",
      "lat": "38.70386834252063"
    },
    {
      "id": "pt.ine.add.PTCONT.2810777",
      "street": "R EUCALIPTOS",
      "house": "14",
      "postcode": "2750-687",
      "city": "CASCAIS",
      "lon": "-9.448504807484655",
      "lat": "38.70369960556113"
    },
    {
      "id": "pt.ine.add.PTCONT.2872299",
      "street": "R EUCALIPTOS",
      "house": "1040",
      "postcode": "2750-687",
      "city": "CASCAIS",
      "lon": "-9.447961061213174",
      "lat": "38.70413809091737"
    },
    {
      "id": "pt.ine.add.PTCONT.2886186",
      "street": "R EUCALIPTOS",
      "house": "",
      "postcode": "2750-687",
      "city": "CASCAIS",
      "lon": "-9.44736704889542",
      "lat": "38.70434293893954"
    }
  ]
}