{
  "data": {
    "distrito": "Aveiro",
    "concelho": "Oliveira do Bairro",
    "freguesia": "União das freguesias de Bustos, Troviscal e Mamarrosa",
    "OBJECTID": 32,
    "BGRI2021": "01140700508",
    "DT21": "01",
    "DTMN21": "0114",
    "DTMNFR21": "011407",
    "DTMNFRSEC21": "011407005",
    "SECNUM21": "005",
    "SSNUM21": "08",
    "SECSSNUM21": "00508",
    "OBJECTID_1": 9684,
    "DT": "01",
    "CC": "14",
    "fr": "07",
    "SEC": "005",
    "SS": "08"
  },
  "addresses": [
    {
      "id": "pt.ine.add.PTCONT.321925",
      "street": "R CANEIRA",
      "house": "12",
      "postcode": "3770-033",
      "city": "MAMARROSA",
      "lon": "-8.579420328856928",
      "lat": "40.49097505396113"
    },
    {
      "id": "pt.ine.add.PTCONT.325417",
      "street": "R LAGOINHA",
      "house": "3",
      "postcode": "3770-033",
      "city": "MAMARROSA",
      "lon": "-8.576920598114631",
      "lat": "40.48752660956804"
    },
    {
      "id": "pt.ine.add.PTCONT.335688",
      "street": "R FORNOS",
      "house": "1",
      "postcode": "3770-033",
      "city": "MAMARROSA",
      "lon": "-8.578983139078982",
      "lat": "40.49085967138404"
    },
    {
      "id": "pt.ine.add.PTCONT.6955",
      "street": "R LAGOINHA",
      "house": "20",
      "postcode": "3770-033",
      "city": "MAMARROSA",
      "lon": "-8.578614699652707",
      "lat": "40.48865477136603"
    },
    {
      "id": "pt.ine.add.PTCONT.20099",
      "street": "R CANEIRA",
      "house": "24",
      "postcode": "3770-033",
      "city": "MAMARROSA",
      "lon": "-8.579628722782273",
      "lat": "40.492162960256145"
    },
    {
      "id": "pt.ine.add.PTCONT.36336",
      "street": "R LAGOINHA",
      "house": "8",
      "postcode": "3770-033",
      "city": "MAMARROSA",
      "lon": "-8.577794393942185",
      "lat": "40.48767634256962"
    },
    {
      "id": "pt.ine.add.PTCONT.63218",
      "street": "R LAGOINHA",
      "house": "12",
      "postcode": "3770-033",
      "city": "MAMARROSA",
      "lon": "-8.57802027197823",
      "lat": "40.48794563509222"
    },
    {
      "id": "pt.ine.add.PTCONT.69327",
      "street": "R CHÃO DA FONTE",
      "house": "",
      "postcode": "3770-033",
      "city": "MAMARROSA",
      "lon": "-8.5792302501947",
      "lat": "40.49255173073768"
    },
    {
      "id": "pt.ine.add.PTCONT.82284",
      "street": "R LAGOINHA",
      "house": "15",
      "postcode": "3770-033",
      "city": "MAMARROSA",
      "lon": "-8.576551060323666",
      "lat": "40.488725745439126"
    },
    {
      "id": "pt.ine.add.PTCONT.109005",
      "street": "R LAGOINHA",
      "house": "9",
      "postcode": "3770-033",
      "city": "MAMARROSA",
      "lon": "-8.576513365083",
      "lat": "40.48837467971728"
    },
    {
      "id": "pt.ine.add.PTCONT.109099",
      "street": "R FORNOS",
      "house": "3",
      "postcode": "3770-031",
      "city": "MAMARROSA",
      "lon": "-8.578640250902415",
      "lat": "40.49073491826645"
    },
    {
      "id": "pt.ine.add.PTCONT.141540",
      "street": "R CANEIRA",
      "house": "16",
      "postcode": "3770-033",
      "city": "MAMARROSA",
      "lon": "-8.579342297306603",
      "lat": "40.49165976481074"
    },
    {
      "id": "pt.ine.add.PTCONT.148421",
      "street": "R CANEIRA",
      "house": "26",
      "postcode": "3770-033",
      "city": "MAMARROSA",
      "lon": "-8.579618837647512",
      "lat": "40.49245117083401"
    },
    {
      "id": "pt.ine.add.PTCONT.182002",
      "street": "R LAGOINHA",
      "house": "6",
      "postcode": "3770-033",
      "city": "MAMARROSA",
      "lon": "-8.57767549898342",
      "lat": "40.48753271365233"
    },
    {
      "id": "pt.ine.add.PTCONT.185468",
      "street": "R FORNOS",
      "house": "7",
      "postcode": "3770-031",
      "city": "MAMARROSA",
      "lon": "-8.578462135901951",
      "lat": "40.490555496961505"
    },
    {
      "id": "pt.ine.add.PTCONT.189231",
      "street": "R LAGOINHA",
      "house": "10",
      "postcode": "3770-033",
      "city": "MAMARROSA",
      "lon": "-8.577913170504715",
      "lat": "40.4878019610272"
    },
    {
      "id": "pt.ine.add.PTCONT.199597",
      "street": "R LAGOINHA",
      "house": "7",
      "postcode": "3770-033",
      "city": "MAMARROSA",
      "lon": "-8.576701129177268",
      "lat": "40.488229872900675"
    },
    {
      "id": "pt.ine.add.PTCONT.210082",
      "street": "R LAGOINHA",
      "house": "4",
      "postcode": "3770-033",
      "city": "MAMARROSA",
      "lon": "-8.577627133120115",
      "lat": "40.48735279178428"
    },
    {
      "id": "pt.ine.add.PTCONT.215601",
      "street": "R CANEIRA",
      "house": "22",
      "postcode": "3770-033",
      "city": "MAMARROSA",
      "lon": "-8.57965147748028",
      "lat": "40.492036796916196"
    },
    {
      "id": "pt.ine.add.PTCONT.218427",
      "street": "R CANEIRA",
      "house": "4",
      "postcode": "3770-033",
      "city": "MAMARROSA",
      "lon": "-8.57961427838128",
      "lat": "40.48998371192567"
    },
    {
      "id": "pt.ine.add.PTCONT.221162",
      "street": "R LAGOINHA",
      "house": "16",
      "postcode": "3770-033",
      "city": "MAMARROSA",
      "lon": "-8.578293567909489",
      "lat": "40.48825076609221"
    },
    {
      "id": "pt.ine.add.PTCONT.261762",
      "street": "R LAGOINHA",
      "house": "14",
      "postcode": "3770-033",
      "city": "MAMARROSA",
      "lon": "-8.578103903877222",
      "lat": "40.488107410208464"
    },
    {
      "id": "pt.ine.add.PTCONT.269785",
      "street": "R LAGOINHA",
      "house": "24",
      "postcode": "3770-033",
      "city": "MAMARROSA",
      "lon": "-8.57907671550594",
      "lat": "40.48895917285156"
    }
  ]
}