{
  "data": {
    "distrito": "Faro",
    "concelho": "Lagoa",
    "freguesia": "Ferragudo",
    "OBJECTID": 298,
    "BGRI2021": "08060200328",
    "DT21": "08",
    "DTMN21": "0806",
    "DTMNFR21": "080602",
    "DTMNFRSEC21": "080602003",
    "SECNUM21": "003",
    "SSNUM21": "28",
    "SECSSNUM21": "00328",
    "OBJECTID_1": 67225,
    "DT": "08",
    "CC": "06",
    "fr": "02",
    "SEC": "003",
    "SS": "28"
  },
  "addresses": [
    {
      "id": "pt.ine.add.PTCONT.1469814",
      "street": "R INF D HENRIQUE",
      "house": "46",
      "postcode": "8400-230",
      "city": "FERRAGUDO",
      "lon": "-8.521585712751861",
      "lat": "37.125894866174804"
    },
    {
      "id": "pt.ine.add.PTCONT.1469850",
      "street": "R INF D HENRIQUE",
      "house": "18",
      "postcode": "8400-230",
      "city": "FERRAGUDO",
      "lon": "-8.520862775473477",
      "lat": "37.12535659838289"
    },
    {
      "id": "pt.ine.add.PTCONT.1479050",
      "street": "R INF D HENRIQUE",
      "house": "28",
      "postcode": "8400-230",
      "city": "FERRAGUDO",
      "lon": "-8.521235081517888",
      "lat": "37.125544602174124"
    },
    {
      "id": "pt.ine.add.PTCONT.1479051",
      "street": "R INF D HENRIQUE",
      "house": "28",
      "postcode": "8400-230",
      "city": "FERRAGUDO",
      "lon": "-8.521235081517888",
      "lat": "37.125544602174124"
    },
    {
      "id": "pt.ine.add.PTCONT.1485361",
      "street": "R MANUEL TEIXEIRA GOMES",
      "house": "26",
      "postcode": "8400-260",
      "city": "FERRAGUDO",
      "lon": "-8.51888375915629",
      "lat": "37.12565139322642"
    },
    {
      "id": "pt.ine.add.PTCONT.1500738",
      "street": "R INF D HENRIQUE",
      "house": "84",
      "postcode": "8400-230",
      "city": "FERRAGUDO",
      "lon": "-8.52155715776157",
      "lat": "37.12691315468991"
    },
    {
      "id": "pt.ine.add.PTCONT.1500739",
      "street": "R INF D HENRIQUE",
      "house": "90",
      "postcode": "8400-230",
      "city": "FERRAGUDO",
      "lon": "-8.521221685598235",
      "lat": "37.12732873984132"
    },
    {
      "id": "pt.ine.add.PTCONT.1525211",
      "street": "R INF D HENRIQUE",
      "house": "",
      "postcode": "8400-230",
      "city": "FERRAGUDO",
      "lon": "-8.52105453164135",
      "lat": "37.12544607680228"
    },
    {
      "id": "pt.ine.add.PTCONT.1528834",
      "street": "R INF D HENRIQUE",
      "house": "",
      "postcode": "8400-230",
      "city": "FERRAGUDO",
      "lon": "-8.520243737972226",
      "lat": "37.12533158976391"
    },
    {
      "id": "pt.ine.add.PTCONT.1528835",
      "street": "R INF D HENRIQUE",
      "house": "",
      "postcode": "8400-230",
      "city": "FERRAGUDO",
      "lon": "-8.520243737972226",
      "lat": "37.12533158976391"
    },
    {
      "id": "pt.ine.add.PTCONT.1528836",
      "street": "R INF D HENRIQUE",
      "house": "",
      "postcode": "8400-230",
      "city": "FERRAGUDO",
      "lon": "-8.520243737972226",
      "lat": "37.12533158976391"
    },
    {
      "id": "pt.ine.add.PTCONT.1528837",
      "street": "R INF D HENRIQUE",
      "house": "",
      "postcode": "8400-230",
      "city": "FERRAGUDO",
      "lon": "-8.520243737972226",
      "lat": "37.12533158976391"
    },
    {
      "id": "pt.ine.add.PTCONT.1529626",
      "street": "R INF D HENRIQUE",
      "house": "",
      "postcode": "8400-230",
      "city": "FERRAGUDO",
      "lon": "-8.520243737972226",
      "lat": "37.12533158976391"
    },
    {
      "id": "pt.ine.add.PTCONT.1542826",
      "street": "R INF D HENRIQUE",
      "house": "22",
      "postcode": "8400-230",
      "city": "FERRAGUDO",
      "lon": "-8.521133484782753",
      "lat": "37.12548186071594"
    },
    {
      "id": "pt.ine.add.PTCONT.1545328",
      "street": "R MANUEL TEIXEIRA GOMES",
      "house": "30",
      "postcode": "8400-260",
      "city": "FERRAGUDO",
      "lon": "-8.51912038762627",
      "lat": "37.125713697017595"
    },
    {
      "id": "pt.ine.add.PTCONT.1545329",
      "street": "R MANUEL TEIXEIRA GOMES",
      "house": "34",
      "postcode": "8400-260",
      "city": "FERRAGUDO",
      "lon": "-8.519165215687089",
      "lat": "37.125677508739216"
    },
    {
      "id": "pt.ine.add.PTCONT.1548046",
      "street": "R INF D HENRIQUE",
      "house": "70",
      "postcode": "8400-230",
      "city": "FERRAGUDO",
      "lon": "-8.52169048880272",
      "lat": "37.12657932648729"
    },
    {
      "id": "pt.ine.add.PTCONT.1551239",
      "street": "R INF D HENRIQUE",
      "house": "88",
      "postcode": "8400-230",
      "city": "FERRAGUDO",
      "lon": "-8.521322042296799",
      "lat": "37.127148199774176"
    },
    {
      "id": "pt.ine.add.PTCONT.1557637",
      "street": "URB VITORS VILLAGE",
      "house": "",
      "postcode": "8400-219",
      "city": "FERRAGUDO",
      "lon": "-8.51998671394922",
      "lat": "37.125683841294915"
    },
    {
      "id": "pt.ine.add.PTCONT.1559000",
      "street": "URB VITORS VILLAGE",
      "house": "",
      "postcode": "8400-219",
      "city": "FERRAGUDO",
      "lon": "-8.51998671394922",
      "lat": "37.125683841294915"
    },
    {
      "id": "pt.ine.add.PTCONT.1563820",
      "street": "R INF D HENRIQUE",
      "house": "34",
      "postcode": "8400-230",
      "city": "FERRAGUDO",
      "lon": "-8.519603065896405",
      "lat": "37.125477849405264"
    },
    {
      "id": "pt.ine.add.PTCONT.1569268",
      "street": "R INF D HENRIQUE",
      "house": "8",
      "postcode": "8400-230",
      "city": "FERRAGUDO",
      "lon": "-8.52060359535787",
      "lat": "37.12528536120397"
    },
    {
      "id": "pt.ine.add.PTCONT.1578727",
      "street": "R INF D HENRIQUE",
      "house": "48",
      "postcode": "8400-230",
      "city": "FERRAGUDO",
      "lon": "-8.519367078794074",
      "lat": "37.12554169255975"
    },
    {
      "id": "pt.ine.add.PTCONT.1583492",
      "street": "R INF D HENRIQUE",
      "house": "24",
      "postcode": "8400-230",
      "city": "FERRAGUDO",
      "lon": "-8.521178679757165",
      "lat": "37.125517755086626"
    },
    {
      "id": "pt.ine.add.PTCONT.1585018",
      "street": "URB VITORS VILLAGE",
      "house": "45",
      "postcode": "8400-219",
      "city": "FERRAGUDO",
      "lon": "-8.521096430590546",
      "lat": "37.12704081148366"
    },
    {
      "id": "pt.ine.add.PTCONT.1585026",
      "street": "URB VITORS VILLAGE",
      "house": "45",
      "postcode": "8400-219",
      "city": "FERRAGUDO",
      "lon": "-8.521096430590546",
      "lat": "37.12704081148366"
    },
    {
      "id": "pt.ine.add.PTCONT.1592121",
      "street": "URB PASSAGEM",
      "house": "29",
      "postcode": "8400-242",
      "city": "FERRAGUDO",
      "lon": "-8.51806253506541",
      "lat": "37.1256991155974"
    },
    {
      "id": "pt.ine.add.PTCONT.1600292",
      "street": "BC GOA",
      "house": "5",
      "postcode": "8400-228",
      "city": "FERRAGUDO",
      "lon": "-8.518455651414326",
      "lat": "37.12555366920578"
    },
    {
      "id": "pt.ine.add.PTCONT.1620924",
      "street": "R INF D HENRIQUE",
      "house": "26",
      "postcode": "8400-230",
      "city": "FERRAGUDO",
      "lon": "-8.521382149722795",
      "lat": "37.12569730038618"
    },
    {
      "id": "pt.ine.add.PTCONT.1620925",
      "street": "R INF D HENRIQUE",
      "house": "26",
      "postcode": "8400-230",
      "city": "FERRAGUDO",
      "lon": "-8.521382149722795",
      "lat": "37.12569730038618"
    },
    {
      "id": "pt.ine.add.PTCONT.1620926",
      "street": "R INF D HENRIQUE",
      "house": "B26",
      "postcode": "8400-230",
      "city": "FERRAGUDO",
      "lon": "-8.521382149722795",
      "lat": "37.12569730038618"
    },
    {
      "id": "pt.ine.add.PTCONT.1620969",
      "street": "R INF D HENRIQUE",
      "house": "26",
      "postcode": "8400-230",
      "city": "FERRAGUDO",
      "lon": "-8.521382149722795",
      "lat": "37.12569730038618"
    },
    {
      "id": "pt.ine.add.PTCONT.1625708",
      "street": "R MANUEL TEIXEIRA GOMES",
      "house": "38",
      "postcode": "8400-260",
      "city": "FERRAGUDO",
      "lon": "-8.518928495823438",
      "lat": "37.12559718418093"
    },
    {
      "id": "pt.ine.add.PTCONT.1641604",
      "street": "R INF D HENRIQUE",
      "house": "11",
      "postcode": "8400-230",
      "city": "FERRAGUDO",
      "lon": "-8.520648698088701",
      "lat": "37.12530323492698"
    },
    {
      "id": "pt.ine.add.PTCONT.1641605",
      "street": "R INF D HENRIQUE",
      "house": "11",
      "postcode": "8400-230",
      "city": "FERRAGUDO",
      "lon": "-8.520648698088701",
      "lat": "37.12530323492698"
    },
    {
      "id": "pt.ine.add.PTCONT.1641606",
      "street": "R INF D HENRIQUE",
      "house": "11",
      "postcode": "8400-230",
      "city": "FERRAGUDO",
      "lon": "-8.520648698088701",
      "lat": "37.12530323492698"
    },
    {
      "id": "pt.ine.add.PTCONT.1641756",
      "street": "R INF D HENRIQUE",
      "house": "11",
      "postcode": "8400-230",
      "city": "FERRAGUDO",
      "lon": "-8.520648698088701",
      "lat": "37.12530323492698"
    },
    {
      "id": "pt.ine.add.PTCONT.1658914",
      "street": "R INF D HENRIQUE",
      "house": "36",
      "postcode": "8400-230",
      "city": "FERRAGUDO",
      "lon": "-8.521461195350009",
      "lat": "37.125751104927694"
    },
    {
      "id": "pt.ine.add.PTCONT.1664889",
      "street": "R INF D HENRIQUE",
      "house": "12",
      "postcode": "8400-230",
      "city": "FERRAGUDO",
      "lon": "-8.520704961668372",
      "lat": "37.12530305099026"
    },
    {
      "id": "pt.ine.add.PTCONT.1664890",
      "street": "R INF D HENRIQUE",
      "house": "12",
      "postcode": "8400-230",
      "city": "FERRAGUDO",
      "lon": "-8.520704961668372",
      "lat": "37.12530305099026"
    },
    {
      "id": "pt.ine.add.PTCONT.1664891",
      "street": "R INF D HENRIQUE",
      "house": "12",
      "postcode": "8400-230",
      "city": "FERRAGUDO",
      "lon": "-8.520704961668372",
      "lat": "37.12530305099026"
    },
    {
      "id": "pt.ine.add.PTCONT.1667729",
      "street": "R MANUEL TEIXEIRA GOMES",
      "house": "20",
      "postcode": "8400-260",
      "city": "FERRAGUDO",
      "lon": "-8.518771140023105",
      "lat": "37.12563373849144"
    },
    {
      "id": "pt.ine.add.PTCONT.1673278",
      "street": "R INF D HENRIQUE",
      "house": "30",
      "postcode": "8400-230",
      "city": "FERRAGUDO",
      "lon": "-8.521348115269129",
      "lat": "37.12564334839397"
    },
    {
      "id": "pt.ine.add.PTCONT.1678943",
      "street": "BC DAMÃO",
      "house": "",
      "postcode": "8400-246",
      "city": "FERRAGUDO",
      "lon": "-8.518219160929947",
      "lat": "37.12551839536654"
    },
    {
      "id": "pt.ine.add.PTCONT.1683288",
      "street": "R INF D HENRIQUE",
      "house": "52",
      "postcode": "8400-230",
      "city": "FERRAGUDO",
      "lon": "-8.52167734733309",
      "lat": "37.126209935997466"
    },
    {
      "id": "pt.ine.add.PTCONT.1685378",
      "street": "R INF D HENRIQUE",
      "house": "86",
      "postcode": "8400-230",
      "city": "FERRAGUDO",
      "lon": "-8.521512514299689",
      "lat": "37.12698538555507"
    },
    {
      "id": "pt.ine.add.PTCONT.1685379",
      "street": "R MANUEL TEIXEIRA GOMES",
      "house": "18",
      "postcode": "8400-260",
      "city": "FERRAGUDO",
      "lon": "-8.51864722247439",
      "lat": "37.125607109816464"
    },
    {
      "id": "pt.ine.add.PTCONT.1692960",
      "street": "R INF D HENRIQUE",
      "house": "60",
      "postcode": "8400-230",
      "city": "FERRAGUDO",
      "lon": "-8.521689659647883",
      "lat": "37.12641713886277"
    },
    {
      "id": "pt.ine.add.PTCONT.1696120",
      "street": "R MANUEL TEIXEIRA GOMES",
      "house": "10",
      "postcode": "8400-260",
      "city": "FERRAGUDO",
      "lon": "-8.51829884339942",
      "lat": "37.125698348031655"
    },
    {
      "id": "pt.ine.add.PTCONT.1696121",
      "street": "R MANUEL TEIXEIRA GOMES",
      "house": "10",
      "postcode": "8400-260",
      "city": "FERRAGUDO",
      "lon": "-8.51829884339942",
      "lat": "37.125698348031655"
    },
    {
      "id": "pt.ine.add.PTCONT.1707200",
      "street": "R AFONSO ALBUQUERQUE",
      "house": "50",
      "postcode": "8400-249",
      "city": "FERRAGUDO",
      "lon": "-8.519310860809409",
      "lat": "37.12555088629008"
    },
    {
      "id": "pt.ine.add.PTCONT.1710034",
      "street": "R INF D HENRIQUE",
      "house": "",
      "postcode": "8400-230",
      "city": "FERRAGUDO",
      "lon": "-8.519006899198995",
      "lat": "37.125524844380315"
    },
    {
      "id": "pt.ine.add.PTCONT.1716038",
      "street": "R AFONSO ALBUQUERQUE",
      "house": "42",
      "postcode": "8400-249",
      "city": "FERRAGUDO",
      "lon": "-8.519108128200463",
      "lat": "37.125515504248"
    },
    {
      "id": "pt.ine.add.PTCONT.1717560",
      "street": "URB VITORS VILLAGE",
      "house": "1",
      "postcode": "8400-219",
      "city": "FERRAGUDO",
      "lon": "-8.521043200981026",
      "lat": "37.12763568353124"
    },
    {
      "id": "pt.ine.add.PTCONT.1724328",
      "street": "R INF D HENRIQUE",
      "house": "48",
      "postcode": "8400-230",
      "city": "FERRAGUDO",
      "lon": "-8.521642391281073",
      "lat": "37.12597577561136"
    },
    {
      "id": "pt.ine.add.PTCONT.1724329",
      "street": "R INF D HENRIQUE",
      "house": "76",
      "postcode": "8400-230",
      "city": "FERRAGUDO",
      "lon": "-8.521668812109118",
      "lat": "37.12674158787489"
    },
    {
      "id": "pt.ine.add.PTCONT.1724330",
      "street": "R INF D HENRIQUE",
      "house": "22",
      "postcode": "8400-230",
      "city": "FERRAGUDO",
      "lon": "-8.521668812109118",
      "lat": "37.12674158787489"
    },
    {
      "id": "pt.ine.add.PTCONT.1733674",
      "street": "R INF D HENRIQUE",
      "house": "56",
      "postcode": "8400-230",
      "city": "FERRAGUDO",
      "lon": "-8.521688968690588",
      "lat": "37.126281982505624"
    },
    {
      "id": "pt.ine.add.PTCONT.1742165",
      "street": "R INF D HENRIQUE",
      "house": "6E",
      "postcode": "8400-230",
      "city": "FERRAGUDO",
      "lon": "-8.520513573650023",
      "lat": "37.12528565541281"
    },
    {
      "id": "pt.ine.add.PTCONT.1744942",
      "street": "R INF D HENRIQUE",
      "house": "36",
      "postcode": "8400-230",
      "city": "FERRAGUDO",
      "lon": "-8.51946821617264",
      "lat": "37.12551433126515"
    },
    {
      "id": "pt.ine.add.PTCONT.1760163",
      "street": "R MANUEL TEIXEIRA GOMES",
      "house": "8",
      "postcode": "8400-260",
      "city": "FERRAGUDO",
      "lon": "-8.518185996090494",
      "lat": "37.12563564059782"
    },
    {
      "id": "pt.ine.add.PTCONT.1764297",
      "street": "R MANUEL TEIXEIRA GOMES",
      "house": "14",
      "postcode": "8400-260",
      "city": "FERRAGUDO",
      "lon": "-8.51855710898214",
      "lat": "37.125589381685316"
    },
    {
      "id": "pt.ine.add.PTCONT.1769509",
      "street": "URB PASSAGEM",
      "house": "29",
      "postcode": "8400-242",
      "city": "FERRAGUDO",
      "lon": "-8.518107181072752",
      "lat": "37.125626886001335"
    },
    {
      "id": "pt.ine.add.PTCONT.1781632",
      "street": "R INF D HENRIQUE",
      "house": "20",
      "postcode": "8400-230",
      "city": "FERRAGUDO",
      "lon": "-8.520908016215579",
      "lat": "37.12540150328483"
    },
    {
      "id": "pt.ine.add.PTCONT.1785397",
      "street": "BC GOA",
      "house": "",
      "postcode": "8400-228",
      "city": "FERRAGUDO",
      "lon": "-8.518331871097418",
      "lat": "37.12555407148515"
    },
    {
      "id": "pt.ine.add.PTCONT.1785398",
      "street": "R INF D HENRIQUE",
      "house": "46",
      "postcode": "8400-230",
      "city": "FERRAGUDO",
      "lon": "-8.519423342558765",
      "lat": "37.125541509230274"
    },
    {
      "id": "pt.ine.add.PTCONT.1787414",
      "street": "URB VITORS VILLAGE",
      "house": "",
      "postcode": "8400-219",
      "city": "FERRAGUDO",
      "lon": "-8.52125309795504",
      "lat": "37.12686909773434"
    },
    {
      "id": "pt.ine.add.PTCONT.1787415",
      "street": "URB VITORS VILLAGE",
      "house": "",
      "postcode": "8400-219",
      "city": "FERRAGUDO",
      "lon": "-8.521018257592988",
      "lat": "37.12715820476195"
    },
    {
      "id": "pt.ine.add.PTCONT.1788979",
      "street": "URB VITORS VILLAGE",
      "house": "",
      "postcode": "8400-219",
      "city": "FERRAGUDO",
      "lon": "-8.52125309795504",
      "lat": "37.12686909773434"
    },
    {
      "id": "pt.ine.add.PTCONT.1788980",
      "street": "URB VITORS VILLAGE",
      "house": "",
      "postcode": "8400-219",
      "city": "FERRAGUDO",
      "lon": "-8.521018257592988",
      "lat": "37.12715820476195"
    },
    {
      "id": "pt.ine.add.PTCONT.1813511",
      "street": "R INF D HENRIQUE",
      "house": "",
      "postcode": "8400-230",
      "city": "FERRAGUDO",
      "lon": "-8.520142417606154",
      "lat": "37.12532291000995"
    },
    {
      "id": "pt.ine.add.PTCONT.1813512",
      "street": "R INF D HENRIQUE",
      "house": "",
      "postcode": "8400-230",
      "city": "FERRAGUDO",
      "lon": "-8.520142417606154",
      "lat": "37.12532291000995"
    },
    {
      "id": "pt.ine.add.PTCONT.1813513",
      "street": "R INF D HENRIQUE",
      "house": "",
      "postcode": "8400-230",
      "city": "FERRAGUDO",
      "lon": "-8.520142417606154",
      "lat": "37.12532291000995"
    },
    {
      "id": "pt.ine.add.PTCONT.1813514",
      "street": "R INF D HENRIQUE",
      "house": "",
      "postcode": "8400-230",
      "city": "FERRAGUDO",
      "lon": "-8.520142417606154",
      "lat": "37.12532291000995"
    },
    {
      "id": "pt.ine.add.PTCONT.1813515",
      "street": "R INF D HENRIQUE",
      "house": "",
      "postcode": "8400-230",
      "city": "FERRAGUDO",
      "lon": "-8.520142417606154",
      "lat": "37.12532291000995"
    },
    {
      "id": "pt.ine.add.PTCONT.1817161",
      "street": "R MANUEL TEIXEIRA GOMES",
      "house": "28",
      "postcode": "8400-260",
      "city": "FERRAGUDO",
      "lon": "-8.519007722602836",
      "lat": "37.125687032080755"
    },
    {
      "id": "pt.ine.add.PTCONT.1822133",
      "street": "R INF D HENRIQUE",
      "house": "44",
      "postcode": "8400-230",
      "city": "FERRAGUDO",
      "lon": "-8.52151778155341",
      "lat": "37.12581399357752"
    },
    {
      "id": "pt.ine.add.PTCONT.1822178",
      "street": "R INF D HENRIQUE",
      "house": "14",
      "postcode": "8400-230",
      "city": "FERRAGUDO",
      "lon": "-8.520772707730522",
      "lat": "37.1253478823627"
    },
    {
      "id": "pt.ine.add.PTCONT.1826675",
      "street": "BC DAMÃO",
      "house": "1",
      "postcode": "8400-246",
      "city": "FERRAGUDO",
      "lon": "-8.518129138920797",
      "lat": "37.12551868776635"
    }
  ]
}