{
  "data": {
    "distrito": "Faro",
    "concelho": "Lagoa",
    "freguesia": "Ferragudo",
    "OBJECTID": 407,
    "BGRI2021": "08060200329",
    "DT21": "08",
    "DTMN21": "0806",
    "DTMNFR21": "080602",
    "DTMNFRSEC21": "080602003",
    "SECNUM21": "003",
    "SSNUM21": "29",
    "SECSSNUM21": "00329",
    "OBJECTID_1": 67138,
    "DT": "08",
    "CC": "06",
    "fr": "02",
    "SEC": "003",
    "SS": "29"
  },
  "addresses": [
    {
      "id": "pt.ine.add.PTCONT.1490568",
      "street": "CASTELO S JO√ÉO DO ARADE",
      "house": "",
      "postcode": "8400-279",
      "city": "FERRAGUDO",
      "lon": "-8.524928490840864",
      "lat": "37.126019023771484"
    },
    {
      "id": "pt.ine.add.PTCONT.1496187",
      "street": "R DR COELHO CARVALHO CTRO PASTORAL SOCIAL ALGARVE",
      "house": "",
      "postcode": "8400-258",
      "city": "FERRAGUDO",
      "lon": "-8.52466860848693",
      "lat": "37.12581263920442"
    },
    {
      "id": "pt.ine.add.PTCONT.1497831",
      "street": "R DR COELHO CARVALHO CTRO PASTORAL SOCIAL ALGARVE",
      "house": "",
      "postcode": "8400-258",
      "city": "FERRAGUDO",
      "lon": "-8.52466860848693",
      "lat": "37.12581263920442"
    },
    {
      "id": "pt.ine.add.PTCONT.1583466",
      "street": "R DR COELHO CARVALHO CLUBE RIO",
      "house": "",
      "postcode": "8400-258",
      "city": "FERRAGUDO",
      "lon": "-8.525120903997525",
      "lat": "37.12623464145269"
    },
    {
      "id": "pt.ine.add.PTCONT.1583469",
      "street": "R DR COELHO CARVALHO CLUBE RIO",
      "house": "",
      "postcode": "8400-258",
      "city": "FERRAGUDO",
      "lon": "-8.525120903997525",
      "lat": "37.12623464145269"
    },
    {
      "id": "pt.ine.add.PTCONT.1583470",
      "street": "R DR COELHO CARVALHO CLUBE RIO",
      "house": "",
      "postcode": "8400-258",
      "city": "FERRAGUDO",
      "lon": "-8.525120903997525",
      "lat": "37.12623464145269"
    },
    {
      "id": "pt.ine.add.PTCONT.1583471",
      "street": "R DR COELHO CARVALHO CLUBE RIO",
      "house": "",
      "postcode": "8400-258",
      "city": "FERRAGUDO",
      "lon": "-8.525120903997525",
      "lat": "37.12623464145269"
    },
    {
      "id": "pt.ine.add.PTCONT.1583472",
      "street": "R DR COELHO CARVALHO CLUBE RIO",
      "house": "",
      "postcode": "8400-258",
      "city": "FERRAGUDO",
      "lon": "-8.525120903997525",
      "lat": "37.12623464145269"
    },
    {
      "id": "pt.ine.add.PTCONT.1583473",
      "street": "R DR COELHO CARVALHO CLUBE RIO",
      "house": "",
      "postcode": "8400-258",
      "city": "FERRAGUDO",
      "lon": "-8.525120903997525",
      "lat": "37.12623464145269"
    },
    {
      "id": "pt.ine.add.PTCONT.1583474",
      "street": "R DR COELHO CARVALHO CLUBE RIO",
      "house": "",
      "postcode": "8400-258",
      "city": "FERRAGUDO",
      "lon": "-8.525120903997525",
      "lat": "37.12623464145269"
    },
    {
      "id": "pt.ine.add.PTCONT.1583475",
      "street": "R DR COELHO CARVALHO CLUBE RIO",
      "house": "",
      "postcode": "8400-258",
      "city": "FERRAGUDO",
      "lon": "-8.525120903997525",
      "lat": "37.12623464145269"
    },
    {
      "id": "pt.ine.add.PTCONT.1583476",
      "street": "R DR COELHO CARVALHO CLUBE RIO",
      "house": "",
      "postcode": "8400-258",
      "city": "FERRAGUDO",
      "lon": "-8.525120903997525",
      "lat": "37.12623464145269"
    },
    {
      "id": "pt.ine.add.PTCONT.1583477",
      "street": "R DR COELHO CARVALHO CLUBE RIO",
      "house": "",
      "postcode": "8400-258",
      "city": "FERRAGUDO",
      "lon": "-8.525120903997525",
      "lat": "37.12623464145269"
    },
    {
      "id": "pt.ine.add.PTCONT.1583478",
      "street": "R DR COELHO CARVALHO CLUBE RIO",
      "house": "",
      "postcode": "8400-258",
      "city": "FERRAGUDO",
      "lon": "-8.525120903997525",
      "lat": "37.12623464145269"
    },
    {
      "id": "pt.ine.add.PTCONT.1583479",
      "street": "R DR COELHO CARVALHO CLUBE RIO",
      "house": "",
      "postcode": "8400-258",
      "city": "FERRAGUDO",
      "lon": "-8.525120903997525",
      "lat": "37.12623464145269"
    },
    {
      "id": "pt.ine.add.PTCONT.1583480",
      "street": "R DR COELHO CARVALHO CLUBE RIO",
      "house": "",
      "postcode": "8400-258",
      "city": "FERRAGUDO",
      "lon": "-8.525120903997525",
      "lat": "37.12623464145269"
    },
    {
      "id": "pt.ine.add.PTCONT.1583481",
      "street": "R DR COELHO CARVALHO CLUBE RIO",
      "house": "",
      "postcode": "8400-258",
      "city": "FERRAGUDO",
      "lon": "-8.525120903997525",
      "lat": "37.12623464145269"
    },
    {
      "id": "pt.ine.add.PTCONT.1583482",
      "street": "R DR COELHO CARVALHO CLUBE RIO",
      "house": "",
      "postcode": "8400-258",
      "city": "FERRAGUDO",
      "lon": "-8.525120903997525",
      "lat": "37.12623464145269"
    },
    {
      "id": "pt.ine.add.PTCONT.1583483",
      "street": "R DR COELHO CARVALHO CLUBE RIO",
      "house": "",
      "postcode": "8400-258",
      "city": "FERRAGUDO",
      "lon": "-8.525120903997525",
      "lat": "37.12623464145269"
    },
    {
      "id": "pt.ine.add.PTCONT.1606926",
      "street": "",
      "house": "",
      "postcode": "8400-279",
      "city": "FERRAGUDO",
      "lon": "-8.525301693431654",
      "lat": "37.12637821267668"
    },
    {
      "id": "pt.ine.add.PTCONT.1609108",
      "street": "TV SALVA-VIDAS",
      "house": "5",
      "postcode": "8400-256",
      "city": "FERRAGUDO",
      "lon": "-8.525442169445242",
      "lat": "37.127431984888354"
    },
    {
      "id": "pt.ine.add.PTCONT.1619580",
      "street": "R INF D HENRIQUE",
      "house": "",
      "postcode": "8400-230",
      "city": "FERRAGUDO",
      "lon": "-8.524884255560655",
      "lat": "37.12835290826576"
    },
    {
      "id": "pt.ine.add.PTCONT.1662688",
      "street": "R INF D HENRIQUE",
      "house": "3",
      "postcode": "8400-230",
      "city": "FERRAGUDO",
      "lon": "-8.525403899336768",
      "lat": "37.12655808598109"
    },
    {
      "id": "pt.ine.add.PTCONT.1710051",
      "street": "TV SALVA-VIDAS",
      "house": "3",
      "postcode": "8400-256",
      "city": "FERRAGUDO",
      "lon": "-8.525461094041027",
      "lat": "37.12673810816833"
    },
    {
      "id": "pt.ine.add.PTCONT.1795510",
      "street": "R INF D HENRIQUE",
      "house": "",
      "postcode": "8400-230",
      "city": "FERRAGUDO",
      "lon": "-8.522179484754501",
      "lat": "37.12977647567199"
    },
    {
      "id": "pt.ine.add.PTCONT.1819682",
      "street": "TV SALVA-VIDAS",
      "house": "7",
      "postcode": "8400-256",
      "city": "FERRAGUDO",
      "lon": "-8.525196926980804",
      "lat": "37.12788332484471"
    }
  ]
}