{
  "data": {
    "distrito": "Santarém",
    "concelho": "Santarém",
    "freguesia": "União das freguesias da cidade de Santarém",
    "OBJECTID": 626,
    "BGRI2021": "14163300401",
    "DT21": "14",
    "DTMN21": "1416",
    "DTMNFR21": "141633",
    "DTMNFRSEC21": "141633004",
    "SECNUM21": "004",
    "SSNUM21": "01",
    "SECSSNUM21": "00401",
    "OBJECTID_1": 154173,
    "DT": "14",
    "CC": "16",
    "fr": "33",
    "SEC": "004",
    "SS": "01"
  },
  "addresses": [
    {
      "id": "pt.ine.add.PTCONT.4438527",
      "street": "R CARPINTEIROS",
      "house": "10",
      "postcode": "2005-300",
      "city": "SANTARÉM",
      "lon": "-8.71373477743549",
      "lat": "39.23633724440178"
    },
    {
      "id": "pt.ine.add.PTCONT.4446742",
      "street": "R MANTEIGAS",
      "house": "7",
      "postcode": "2005-304",
      "city": "SANTARÉM",
      "lon": "-8.714184018061975",
      "lat": "39.23603776341696"
    },
    {
      "id": "pt.ine.add.PTCONT.4468856",
      "street": "URB QUINTA PINHEIRO",
      "house": "13",
      "postcode": "2005-300",
      "city": "SANTARÉM",
      "lon": "-8.713427112969638",
      "lat": "39.23695127358646"
    },
    {
      "id": "pt.ine.add.PTCONT.4469742",
      "street": "URB QUINTA DO PINHEIRO",
      "house": "",
      "postcode": "2005-304",
      "city": "SANTARÉM",
      "lon": "-8.713997817842156",
      "lat": "39.23593060466502"
    },
    {
      "id": "pt.ine.add.PTCONT.4477833",
      "street": "R CARPINTEIROS",
      "house": "5",
      "postcode": "2005-300",
      "city": "SANTARÉM",
      "lon": "-8.714475198625161",
      "lat": "39.23623447085446"
    },
    {
      "id": "pt.ine.add.PTCONT.4536890",
      "street": "CSL BARACINHO",
      "house": "11",
      "postcode": "2005-300",
      "city": "SANTARÉM",
      "lon": "-8.71360886148473",
      "lat": "39.23651801787709"
    },
    {
      "id": "pt.ine.add.PTCONT.4563855",
      "street": "URB QUINTA PINHEIRO",
      "house": "12",
      "postcode": "2005-300",
      "city": "SANTARÉM",
      "lon": "-8.713505960303875",
      "lat": "39.23668066194679"
    },
    {
      "id": "pt.ine.add.PTCONT.4587847",
      "street": "URB QUINTA DO PINHEIRO",
      "house": "",
      "postcode": "2005-300",
      "city": "SANTARÉM",
      "lon": "-8.71396923689582",
      "lat": "39.23667835251276"
    },
    {
      "id": "pt.ine.add.PTCONT.4609582",
      "street": "R CARPINTEIROS",
      "house": "9",
      "postcode": "2005-300",
      "city": "SANTARÉM",
      "lon": "-8.713814291179164",
      "lat": "39.23614769484715"
    },
    {
      "id": "pt.ine.add.PTCONT.4614729",
      "street": "URB QUINTA DO PINHEIRO",
      "house": "",
      "postcode": "2005-300",
      "city": "SANTARÉM",
      "lon": "-8.714245196545159",
      "lat": "39.23643377908206"
    },
    {
      "id": "pt.ine.add.PTCONT.4631424",
      "street": "URB QUINTA DO PINHEIRO",
      "house": "14",
      "postcode": "2005-074",
      "city": "SANTARÉM",
      "lon": "-8.713635291328067",
      "lat": "39.23691420701595"
    },
    {
      "id": "pt.ine.add.PTCONT.4656143",
      "street": "URB QUINTA DO PINHEIRO",
      "house": "",
      "postcode": "2005-300",
      "city": "SANTARÉM",
      "lon": "-8.714084016029204",
      "lat": "39.236551677960264"
    }
  ]
}