{
  "data": {
    "distrito": "Porto",
    "concelho": "Maia",
    "freguesia": "Castêlo da Maia",
    "OBJECTID": 776,
    "BGRI2021": "13061800203",
    "DT21": "13",
    "DTMN21": "1306",
    "DTMNFR21": "130618",
    "DTMNFRSEC21": "130618002",
    "SECNUM21": "002",
    "SSNUM21": "03",
    "SECSSNUM21": "00203",
    "OBJECTID_1": 130469,
    "DT": "13",
    "CC": "06",
    "fr": "18",
    "SEC": "002",
    "SS": "03"
  },
  "addresses": [
    {
      "id": "pt.ine.add.PTCONT.3554066",
      "street": "R OLIVAL",
      "house": "201",
      "postcode": "4475-713",
      "city": "MAIA",
      "lon": "-8.616490965544495",
      "lat": "41.271837098326"
    },
    {
      "id": "pt.ine.add.PTCONT.3578268",
      "street": "AV ÁLVARO ANES DE MADUREIRA",
      "house": "63",
      "postcode": "4475-178",
      "city": "MAIA",
      "lon": "-8.609819958388089",
      "lat": "41.27354869359877"
    },
    {
      "id": "pt.ine.add.PTCONT.3578269",
      "street": "AV ÁLVARO ANES DE MADUREIRA",
      "house": "63",
      "postcode": "4475-178",
      "city": "MAIA",
      "lon": "-8.609819958388089",
      "lat": "41.27354869359877"
    },
    {
      "id": "pt.ine.add.PTCONT.3578270",
      "street": "AV ÁLVARO ANES DE MADUREIRA",
      "house": "63",
      "postcode": "4475-178",
      "city": "MAIA",
      "lon": "-8.609819958388089",
      "lat": "41.27354869359877"
    },
    {
      "id": "pt.ine.add.PTCONT.3578271",
      "street": "AV ÁLVARO ANES DE MADUREIRA",
      "house": "63",
      "postcode": "4475-178",
      "city": "MAIA",
      "lon": "-8.609819958388089",
      "lat": "41.27354869359877"
    },
    {
      "id": "pt.ine.add.PTCONT.3578272",
      "street": "AV ÁLVARO ANES DE MADUREIRA",
      "house": "63",
      "postcode": "4475-178",
      "city": "MAIA",
      "lon": "-8.609819958388089",
      "lat": "41.27354869359877"
    },
    {
      "id": "pt.ine.add.PTCONT.3578273",
      "street": "AV ÁLVARO ANES DE MADUREIRA",
      "house": "63",
      "postcode": "4475-178",
      "city": "MAIA",
      "lon": "-8.609819958388089",
      "lat": "41.27354869359877"
    },
    {
      "id": "pt.ine.add.PTCONT.3578274",
      "street": "AV ÁLVARO ANES DE MADUREIRA",
      "house": "63",
      "postcode": "4475-178",
      "city": "MAIA",
      "lon": "-8.609819958388089",
      "lat": "41.27354869359877"
    },
    {
      "id": "pt.ine.add.PTCONT.3578354",
      "street": "AV ÁLVARO ANES DE MADUREIRA",
      "house": "63",
      "postcode": "4475-178",
      "city": "MAIA",
      "lon": "-8.609819958388089",
      "lat": "41.27354869359877"
    },
    {
      "id": "pt.ine.add.PTCONT.3585956",
      "street": "R AUGUSTO NOGUEIRA DA SILVA",
      "house": "1703",
      "postcode": "4475-136",
      "city": "MAIA",
      "lon": "-8.609748103078166",
      "lat": "41.27187421603591"
    },
    {
      "id": "pt.ine.add.PTCONT.3599028",
      "street": "R VILARINHO DE BAIXO",
      "house": "860",
      "postcode": "4475-730",
      "city": "MAIA",
      "lon": "-8.6176552914183",
      "lat": "41.2759651150315"
    },
    {
      "id": "pt.ine.add.PTCONT.3612539",
      "street": "R AUGUSTO NOGUEIRA DA SILVA",
      "house": "1803",
      "postcode": "4475-136",
      "city": "MAIA",
      "lon": "-8.609383764741624",
      "lat": "41.27265008228749"
    },
    {
      "id": "pt.ine.add.PTCONT.3648933",
      "street": "TV AREOSA",
      "house": "154",
      "postcode": "4475-678",
      "city": "MAIA",
      "lon": "-8.612888762487794",
      "lat": "41.27049253689939"
    },
    {
      "id": "pt.ine.add.PTCONT.3650256",
      "street": "AV CARLOS DE OLIVEIRA CAMPOS",
      "house": "9",
      "postcode": "4475-690",
      "city": "MAIA",
      "lon": "-8.617857516267472",
      "lat": "41.26780648846398"
    },
    {
      "id": "pt.ine.add.PTCONT.3657095",
      "street": "R VILARINHO DE BAIXO",
      "house": "356",
      "postcode": "4475-730",
      "city": "MAIA",
      "lon": "-8.618624470879398",
      "lat": "41.26823545697522"
    },
    {
      "id": "pt.ine.add.PTCONT.3661815",
      "street": "R MOINHOS",
      "house": "94",
      "postcode": "4475-707",
      "city": "MAIA",
      "lon": "-8.612826377967927",
      "lat": "41.275012888430396"
    },
    {
      "id": "pt.ine.add.PTCONT.3669961",
      "street": "R VILARINHO DE BAIXO",
      "house": "868",
      "postcode": "4475-730",
      "city": "MAIA",
      "lon": "-8.61762008527522",
      "lat": "41.27604630064879"
    },
    {
      "id": "pt.ine.add.PTCONT.3684576",
      "street": "R VILARINHO DE BAIXO",
      "house": "130",
      "postcode": "4475-730",
      "city": "MAIA",
      "lon": "-8.618725811656516",
      "lat": "41.26902739668778"
    },
    {
      "id": "pt.ine.add.PTCONT.3698523",
      "street": "R AUGUSTO NOGUEIRA DA SILVA",
      "house": "1351",
      "postcode": "4475-136",
      "city": "MAIA",
      "lon": "-8.611493294424987",
      "lat": "41.26897663887572"
    },
    {
      "id": "pt.ine.add.PTCONT.3702418",
      "street": "R OLIVAL",
      "house": "20",
      "postcode": "4475-713",
      "city": "MAIA",
      "lon": "-8.616648039175903",
      "lat": "41.2720975595635"
    },
    {
      "id": "pt.ine.add.PTCONT.3708947",
      "street": "R VILARINHO DE BAIXO",
      "house": "484 94",
      "postcode": "4475-730",
      "city": "MAIA",
      "lon": "-8.61767919343284",
      "lat": "41.27274152402693"
    },
    {
      "id": "pt.ine.add.PTCONT.3708948",
      "street": "R VILARINHO DE BAIXO",
      "house": "484 94",
      "postcode": "4475-730",
      "city": "MAIA",
      "lon": "-8.61767919343284",
      "lat": "41.27274152402693"
    },
    {
      "id": "pt.ine.add.PTCONT.3715375",
      "street": "R AUGUSTO NOGUEIRA DA SILVA",
      "house": "1861",
      "postcode": "4475-136",
      "city": "MAIA",
      "lon": "-8.609268541268472",
      "lat": "41.27321782141146"
    },
    {
      "id": "pt.ine.add.PTCONT.3715376",
      "street": "R AUGUSTO NOGUEIRA DA SILVA",
      "house": "1861",
      "postcode": "4475-136",
      "city": "MAIA",
      "lon": "-8.609268541268472",
      "lat": "41.27321782141146"
    },
    {
      "id": "pt.ine.add.PTCONT.3726106",
      "street": "R VILARINHO DE BAIXO",
      "house": "412",
      "postcode": "4475-730",
      "city": "MAIA",
      "lon": "-8.617816680228874",
      "lat": "41.27196658696727"
    },
    {
      "id": "pt.ine.add.PTCONT.3728711",
      "street": "R FERRONHO",
      "house": "51",
      "postcode": "4475-703",
      "city": "MAIA",
      "lon": "-8.613572501500418",
      "lat": "41.27747691708583"
    },
    {
      "id": "pt.ine.add.PTCONT.3742445",
      "street": "R ARMINDO MOREIRA",
      "house": "37",
      "postcode": "4475-178",
      "city": "MAIA",
      "lon": "-8.609842517638846",
      "lat": "41.273368516866576"
    },
    {
      "id": "pt.ine.add.PTCONT.3742446",
      "street": "R ARMINDO MOREIRA",
      "house": "37",
      "postcode": "4475-178",
      "city": "MAIA",
      "lon": "-8.609842517638846",
      "lat": "41.273368516866576"
    },
    {
      "id": "pt.ine.add.PTCONT.3742447",
      "street": "R ARMINDO MOREIRA",
      "house": "37",
      "postcode": "4475-178",
      "city": "MAIA",
      "lon": "-8.609842517638846",
      "lat": "41.273368516866576"
    },
    {
      "id": "pt.ine.add.PTCONT.3742448",
      "street": "R ARMINDO MOREIRA",
      "house": "37",
      "postcode": "4475-178",
      "city": "MAIA",
      "lon": "-8.609842517638846",
      "lat": "41.273368516866576"
    },
    {
      "id": "pt.ine.add.PTCONT.3742615",
      "street": "R ARMINDO MOREIRA",
      "house": "37",
      "postcode": "4475-178",
      "city": "MAIA",
      "lon": "-8.609842517638846",
      "lat": "41.273368516866576"
    },
    {
      "id": "pt.ine.add.PTCONT.3742616",
      "street": "R ARMINDO MOREIRA",
      "house": "37",
      "postcode": "4475-178",
      "city": "MAIA",
      "lon": "-8.609842517638846",
      "lat": "41.273368516866576"
    },
    {
      "id": "pt.ine.add.PTCONT.3742617",
      "street": "R ARMINDO MOREIRA",
      "house": "37",
      "postcode": "4475-178",
      "city": "MAIA",
      "lon": "-8.609842517638846",
      "lat": "41.273368516866576"
    },
    {
      "id": "pt.ine.add.PTCONT.3742618",
      "street": "R ARMINDO MOREIRA",
      "house": "37",
      "postcode": "4475-178",
      "city": "MAIA",
      "lon": "-8.609842517638846",
      "lat": "41.273368516866576"
    },
    {
      "id": "pt.ine.add.PTCONT.3742619",
      "street": "R ARMINDO MOREIRA",
      "house": "37",
      "postcode": "4475-178",
      "city": "MAIA",
      "lon": "-8.609842517638846",
      "lat": "41.273368516866576"
    },
    {
      "id": "pt.ine.add.PTCONT.3745100",
      "street": "R ARMINDO MOREIRA",
      "house": "37",
      "postcode": "4475-178",
      "city": "MAIA",
      "lon": "-8.609842517638846",
      "lat": "41.273368516866576"
    },
    {
      "id": "pt.ine.add.PTCONT.3746516",
      "street": "R ARMINDO MOREIRA",
      "house": "37",
      "postcode": "4475-178",
      "city": "MAIA",
      "lon": "-8.609842517638846",
      "lat": "41.273368516866576"
    },
    {
      "id": "pt.ine.add.PTCONT.3754900",
      "street": "R VILARINHO DE BAIXO",
      "house": "464 468",
      "postcode": "4475-730",
      "city": "MAIA",
      "lon": "-8.61767779520571",
      "lat": "41.27255244243039"
    },
    {
      "id": "pt.ine.add.PTCONT.3754901",
      "street": "R VILARINHO BAIXO",
      "house": "464",
      "postcode": "4475-730",
      "city": "MAIA",
      "lon": "-8.61767779520571",
      "lat": "41.27255244243039"
    },
    {
      "id": "pt.ine.add.PTCONT.3760624",
      "street": "R VILARINHO DE BAIXO",
      "house": "582",
      "postcode": "4475-730",
      "city": "MAIA",
      "lon": "-8.617744992609826",
      "lat": "41.273569630238235"
    },
    {
      "id": "pt.ine.add.PTCONT.3782810",
      "street": "R VILARINHO DE BAIXO",
      "house": "204",
      "postcode": "4475-730",
      "city": "MAIA",
      "lon": "-8.618270389426334",
      "lat": "41.27037994230956"
    },
    {
      "id": "pt.ine.add.PTCONT.3790525",
      "street": "R AUGUSTO NOGUEIRA DA SILVA",
      "house": "1227",
      "postcode": "4475-136",
      "city": "MAIA",
      "lon": "-8.611842168194604",
      "lat": "41.26772360858993"
    },
    {
      "id": "pt.ine.add.PTCONT.3799713",
      "street": "R VILARINHO DE BAIXO",
      "house": "62",
      "postcode": "4475-730",
      "city": "MAIA",
      "lon": "-8.618772746414603",
      "lat": "41.26891914865041"
    },
    {
      "id": "pt.ine.add.PTCONT.3809443",
      "street": "R AUGUSTO NOGUEIRA DA SILVA",
      "house": "1359",
      "postcode": "4475-136",
      "city": "MAIA",
      "lon": "-8.611506608533215",
      "lat": "41.269165671173425"
    },
    {
      "id": "pt.ine.add.PTCONT.3809622",
      "street": "R VILARINHO DE BAIXO",
      "house": "198",
      "postcode": "4475-730",
      "city": "MAIA",
      "lon": "-8.618619674260746",
      "lat": "41.269198923580404"
    },
    {
      "id": "pt.ine.add.PTCONT.3809623",
      "street": "R VILARINHO DE BAIXO",
      "house": "206",
      "postcode": "4475-730",
      "city": "MAIA",
      "lon": "-8.618047838921807",
      "lat": "41.270948142578355"
    },
    {
      "id": "pt.ine.add.PTCONT.3843252",
      "street": "TV AREOSA",
      "house": "154",
      "postcode": "4475-678",
      "city": "MAIA",
      "lon": "-8.612782277902078",
      "lat": "41.27061903898712"
    },
    {
      "id": "pt.ine.add.PTCONT.3843254",
      "street": "R VILARINHO DE BAIXO",
      "house": "240",
      "postcode": "4475-730",
      "city": "MAIA",
      "lon": "-8.61794196314264",
      "lat": "41.27115568436581"
    },
    {
      "id": "pt.ine.add.PTCONT.3850544",
      "street": "R AUGUSTO NOGUEIRA DA SILVA",
      "house": "1439",
      "postcode": "4475-136",
      "city": "MAIA",
      "lon": "-8.61097404745571",
      "lat": "41.26978016659156"
    },
    {
      "id": "pt.ine.add.PTCONT.3857304",
      "street": "R MOINHOS",
      "house": "64",
      "postcode": "4475-707",
      "city": "MAIA",
      "lon": "-8.611733228399618",
      "lat": "41.27568374630791"
    },
    {
      "id": "pt.ine.add.PTCONT.3892496",
      "street": "R VILARINHO DE BAIXO",
      "house": "",
      "postcode": "4475-730",
      "city": "MAIA",
      "lon": "-8.616979178265346",
      "lat": "41.27653522080673"
    },
    {
      "id": "pt.ine.add.PTCONT.3895830",
      "street": "R AUGUSTO NOGUEIRA DA SILVA",
      "house": "",
      "postcode": "4475-136",
      "city": "MAIA",
      "lon": "-8.609771644399675",
      "lat": "41.271829097728215"
    },
    {
      "id": "pt.ine.add.PTCONT.3902917",
      "street": "R AUGUSTO NOGUEIRA DA SILVA",
      "house": "1713",
      "postcode": "4475-136",
      "city": "MAIA",
      "lon": "-8.609712889264797",
      "lat": "41.271955399333834"
    },
    {
      "id": "pt.ine.add.PTCONT.3902919",
      "street": "R VILARINHO DE BAIXO",
      "house": "460",
      "postcode": "4475-730",
      "city": "MAIA",
      "lon": "-8.61762919170634",
      "lat": "41.272435592833055"
    },
    {
      "id": "pt.ine.add.PTCONT.3902920",
      "street": "R VILARINHO DE BAIXO",
      "house": "346",
      "postcode": "4475-730",
      "city": "MAIA",
      "lon": "-8.618611469961742",
      "lat": "41.2680914450392"
    },
    {
      "id": "pt.ine.add.PTCONT.3929197",
      "street": "R MOINHOS",
      "house": "70",
      "postcode": "4475-707",
      "city": "MAIA",
      "lon": "-8.611697028536595",
      "lat": "41.2756298718269"
    },
    {
      "id": "pt.ine.add.PTCONT.3935176",
      "street": "R AUGUSTO NOGUEIRA DA SILVA",
      "house": "1813",
      "postcode": "4475-136",
      "city": "MAIA",
      "lon": "-8.609384419168535",
      "lat": "41.27274012125174"
    },
    {
      "id": "pt.ine.add.PTCONT.3961723",
      "street": "TV NOVA DE QUINTA",
      "house": "81",
      "postcode": "4475-711",
      "city": "MAIA",
      "lon": "-8.615543966792723",
      "lat": "41.27613605682396"
    },
    {
      "id": "pt.ine.add.PTCONT.3996585",
      "street": "R VILARINHO DE BAIXO",
      "house": "388",
      "postcode": "4475-730",
      "city": "MAIA",
      "lon": "-8.618699075242718",
      "lat": "41.26864033008264"
    },
    {
      "id": "pt.ine.add.PTCONT.3997644",
      "street": "R AUGUSTO NOGUEIRA DA SILVA",
      "house": "1479",
      "postcode": "4475-136",
      "city": "MAIA",
      "lon": "-8.610797071806038",
      "lat": "41.270060030337305"
    },
    {
      "id": "pt.ine.add.PTCONT.4018596",
      "street": "R VILARINHO DE BAIXO",
      "house": "470",
      "postcode": "4475-730",
      "city": "MAIA",
      "lon": "-8.617666526504602",
      "lat": "41.272642531518365"
    },
    {
      "id": "pt.ine.add.PTCONT.4025512",
      "street": "AV CARLOS DE OLIVEIRA CAMPOS",
      "house": "406",
      "postcode": "4475-690",
      "city": "MAIA",
      "lon": "-8.618299194272986",
      "lat": "41.267822636296444"
    },
    {
      "id": "pt.ine.add.PTCONT.4030174",
      "street": "R AUGUSTO NOGUEIRA DA SILVA",
      "house": "1479",
      "postcode": "4475-136",
      "city": "MAIA",
      "lon": "-8.610892806889929",
      "lat": "41.27009564976019"
    },
    {
      "id": "pt.ine.add.PTCONT.4030175",
      "street": "R AUGUSTO NOGUEIRA DA SILVA",
      "house": "1479",
      "postcode": "4475-136",
      "city": "MAIA",
      "lon": "-8.610892806889929",
      "lat": "41.27009564976019"
    },
    {
      "id": "pt.ine.add.PTCONT.4031764",
      "street": "R FERRONHO",
      "house": "591",
      "postcode": "4475-703",
      "city": "MAIA",
      "lon": "-8.612855651628895",
      "lat": "41.277380860816386"
    },
    {
      "id": "pt.ine.add.PTCONT.4049832",
      "street": "AV CARLOS DE OLIVEIRA CAMPOS",
      "house": "184",
      "postcode": "4475-690",
      "city": "MAIA",
      "lon": "-8.61408767363325",
      "lat": "41.26798437463421"
    },
    {
      "id": "pt.ine.add.PTCONT.4049833",
      "street": "AV CARLOS DE OLIVEIRA CAMPOS",
      "house": "184",
      "postcode": "4475-690",
      "city": "MAIA",
      "lon": "-8.61408767363325",
      "lat": "41.26798437463421"
    },
    {
      "id": "pt.ine.add.PTCONT.4049838",
      "street": "AV CARLOS DE OLIVEIRA CAMPOS",
      "house": "184",
      "postcode": "4475-690",
      "city": "MAIA",
      "lon": "-8.61408767363325",
      "lat": "41.26798437463421"
    },
    {
      "id": "pt.ine.add.PTCONT.4049839",
      "street": "AV CARLOS DE OLIVEIRA CAMPOS",
      "house": "184",
      "postcode": "4475-690",
      "city": "MAIA",
      "lon": "-8.61408767363325",
      "lat": "41.26798437463421"
    },
    {
      "id": "pt.ine.add.PTCONT.4049840",
      "street": "AV CARLOS DE OLIVEIRA CAMPOS",
      "house": "184",
      "postcode": "4475-690",
      "city": "MAIA",
      "lon": "-8.61408767363325",
      "lat": "41.26798437463421"
    },
    {
      "id": "pt.ine.add.PTCONT.4049841",
      "street": "AV CARLOS DE OLIVEIRA CAMPOS",
      "house": "184",
      "postcode": "4475-690",
      "city": "MAIA",
      "lon": "-8.61408767363325",
      "lat": "41.26798437463421"
    },
    {
      "id": "pt.ine.add.PTCONT.4049842",
      "street": "AV CARLOS DE OLIVEIRA CAMPOS",
      "house": "184",
      "postcode": "4475-690",
      "city": "MAIA",
      "lon": "-8.61408767363325",
      "lat": "41.26798437463421"
    },
    {
      "id": "pt.ine.add.PTCONT.4049843",
      "street": "AV CARLOS DE OLIVEIRA CAMPOS",
      "house": "184",
      "postcode": "4475-690",
      "city": "MAIA",
      "lon": "-8.61408767363325",
      "lat": "41.26798437463421"
    },
    {
      "id": "pt.ine.add.PTCONT.4049844",
      "street": "AV CARLOS DE OLIVEIRA CAMPOS",
      "house": "184",
      "postcode": "4475-690",
      "city": "MAIA",
      "lon": "-8.61408767363325",
      "lat": "41.26798437463421"
    },
    {
      "id": "pt.ine.add.PTCONT.4049845",
      "street": "AV CARLOS DE OLIVEIRA CAMPOS",
      "house": "184",
      "postcode": "4475-690",
      "city": "MAIA",
      "lon": "-8.61408767363325",
      "lat": "41.26798437463421"
    },
    {
      "id": "pt.ine.add.PTCONT.4049846",
      "street": "AV CARLOS DE OLIVEIRA CAMPOS",
      "house": "184",
      "postcode": "4475-690",
      "city": "MAIA",
      "lon": "-8.61408767363325",
      "lat": "41.26798437463421"
    },
    {
      "id": "pt.ine.add.PTCONT.4049847",
      "street": "AV CARLOS DE OLIVEIRA CAMPOS",
      "house": "184",
      "postcode": "4475-690",
      "city": "MAIA",
      "lon": "-8.61408767363325",
      "lat": "41.26798437463421"
    },
    {
      "id": "pt.ine.add.PTCONT.4049848",
      "street": "AV CARLOS DE OLIVEIRA CAMPOS",
      "house": "184",
      "postcode": "4475-690",
      "city": "MAIA",
      "lon": "-8.61408767363325",
      "lat": "41.26798437463421"
    },
    {
      "id": "pt.ine.add.PTCONT.4049849",
      "street": "AV CARLOS DE OLIVEIRA CAMPOS",
      "house": "184",
      "postcode": "4475-690",
      "city": "MAIA",
      "lon": "-8.61408767363325",
      "lat": "41.26798437463421"
    },
    {
      "id": "pt.ine.add.PTCONT.4049850",
      "street": "AV CARLOS DE OLIVEIRA CAMPOS",
      "house": "184",
      "postcode": "4475-690",
      "city": "MAIA",
      "lon": "-8.61408767363325",
      "lat": "41.26798437463421"
    },
    {
      "id": "pt.ine.add.PTCONT.4049851",
      "street": "AV CARLOS DE OLIVEIRA CAMPOS",
      "house": "184",
      "postcode": "4475-690",
      "city": "MAIA",
      "lon": "-8.61408767363325",
      "lat": "41.26798437463421"
    },
    {
      "id": "pt.ine.add.PTCONT.4049852",
      "street": "AV CARLOS DE OLIVEIRA CAMPOS",
      "house": "184",
      "postcode": "4475-690",
      "city": "MAIA",
      "lon": "-8.61408767363325",
      "lat": "41.26798437463421"
    },
    {
      "id": "pt.ine.add.PTCONT.4049853",
      "street": "AV CARLOS DE OLIVEIRA CAMPOS",
      "house": "184",
      "postcode": "4475-690",
      "city": "MAIA",
      "lon": "-8.61408767363325",
      "lat": "41.26798437463421"
    },
    {
      "id": "pt.ine.add.PTCONT.4049857",
      "street": "AV CARLOS DE OLIVEIRA CAMPOS",
      "house": "184",
      "postcode": "4475-690",
      "city": "MAIA",
      "lon": "-8.61408767363325",
      "lat": "41.26798437463421"
    },
    {
      "id": "pt.ine.add.PTCONT.4049858",
      "street": "AV CARLOS DE OLIVEIRA CAMPOS",
      "house": "184",
      "postcode": "4475-690",
      "city": "MAIA",
      "lon": "-8.61408767363325",
      "lat": "41.26798437463421"
    },
    {
      "id": "pt.ine.add.PTCONT.4057921",
      "street": "AV ALVARO ANES DE MADUREIRA",
      "house": "31",
      "postcode": "4475-178",
      "city": "MAIA",
      "lon": "-8.609533918354895",
      "lat": "41.27360390265757"
    },
    {
      "id": "pt.ine.add.PTCONT.4057922",
      "street": "AV ALVARO ANES MADUREIRA",
      "house": "31 B",
      "postcode": "4475-178",
      "city": "MAIA",
      "lon": "-8.609533918354895",
      "lat": "41.27360390265757"
    },
    {
      "id": "pt.ine.add.PTCONT.4057923",
      "street": "AV ALVARO ANES DE MADUREIRA",
      "house": "31",
      "postcode": "4475-178",
      "city": "MAIA",
      "lon": "-8.609533918354895",
      "lat": "41.27360390265757"
    },
    {
      "id": "pt.ine.add.PTCONT.4057924",
      "street": "AV ALVARO ANES DE MADUREIRA",
      "house": "31",
      "postcode": "4475-178",
      "city": "MAIA",
      "lon": "-8.609533918354895",
      "lat": "41.27360390265757"
    },
    {
      "id": "pt.ine.add.PTCONT.4057925",
      "street": "AV ALVARO ANES DE MADUREIRA",
      "house": "31",
      "postcode": "4475-178",
      "city": "MAIA",
      "lon": "-8.609533918354895",
      "lat": "41.27360390265757"
    },
    {
      "id": "pt.ine.add.PTCONT.4057926",
      "street": "AV ALVARO ANES DE MADUREIRA",
      "house": "31",
      "postcode": "4475-178",
      "city": "MAIA",
      "lon": "-8.609533918354895",
      "lat": "41.27360390265757"
    },
    {
      "id": "pt.ine.add.PTCONT.4057927",
      "street": "AV ALVARO ANES DE MADUREIRA",
      "house": "31",
      "postcode": "4475-178",
      "city": "MAIA",
      "lon": "-8.609533918354895",
      "lat": "41.27360390265757"
    },
    {
      "id": "pt.ine.add.PTCONT.4057928",
      "street": "AV ALVARO ANES DE MADUREIRA",
      "house": "31",
      "postcode": "4475-178",
      "city": "MAIA",
      "lon": "-8.609533918354895",
      "lat": "41.27360390265757"
    },
    {
      "id": "pt.ine.add.PTCONT.4057932",
      "street": "AV ALVARO ANES DE MADUREIRA",
      "house": "31",
      "postcode": "4475-178",
      "city": "MAIA",
      "lon": "-8.609533918354895",
      "lat": "41.27360390265757"
    },
    {
      "id": "pt.ine.add.PTCONT.4062118",
      "street": "AV ALVARO ANES DE MADUREIRA",
      "house": "31",
      "postcode": "4475-178",
      "city": "MAIA",
      "lon": "-8.609533918354895",
      "lat": "41.27360390265757"
    },
    {
      "id": "pt.ine.add.PTCONT.4062514",
      "street": "AV ALVARO ANES DE MADUREIRA",
      "house": "31",
      "postcode": "4475-178",
      "city": "MAIA",
      "lon": "-8.609533918354895",
      "lat": "41.27360390265757"
    },
    {
      "id": "pt.ine.add.PTCONT.4064918",
      "street": "R MOINHOS",
      "house": "96",
      "postcode": "4475-707",
      "city": "MAIA",
      "lon": "-8.611601087645418",
      "lat": "41.27556724148619"
    },
    {
      "id": "pt.ine.add.PTCONT.4071399",
      "street": "R VILARINHO DE BAIXO",
      "house": "434",
      "postcode": "4475-730",
      "city": "MAIA",
      "lon": "-8.617783008079636",
      "lat": "41.27225486205974"
    },
    {
      "id": "pt.ine.add.PTCONT.4071404",
      "street": "R AUGUSTO NOGUEIRA DA SILVA",
      "house": "1519",
      "postcode": "4475-136",
      "city": "MAIA",
      "lon": "-8.610728026662258",
      "lat": "41.27041147945634"
    },
    {
      "id": "pt.ine.add.PTCONT.4077638",
      "street": "R VILARINHO DE BAIXO",
      "house": "294",
      "postcode": "4475-730",
      "city": "MAIA",
      "lon": "-8.617884356713036",
      "lat": "41.27143505615046"
    },
    {
      "id": "pt.ine.add.PTCONT.4084151",
      "street": "AV CARLOS DE OLIVEIRA CAMPOS",
      "house": "308",
      "postcode": "4475-690",
      "city": "MAIA",
      "lon": "-8.615579184541915",
      "lat": "41.26795112134384"
    },
    {
      "id": "pt.ine.add.PTCONT.4084152",
      "street": "AV CARLOS DE OLIVEIRA CAMPOS",
      "house": "308",
      "postcode": "4475-690",
      "city": "MAIA",
      "lon": "-8.615579184541915",
      "lat": "41.26795112134384"
    },
    {
      "id": "pt.ine.add.PTCONT.4084153",
      "street": "AV CARLOS DE OLIVEIRA CAMPOS",
      "house": "308",
      "postcode": "4475-690",
      "city": "MAIA",
      "lon": "-8.615579184541915",
      "lat": "41.26795112134384"
    },
    {
      "id": "pt.ine.add.PTCONT.4084154",
      "street": "AV CARLOS DE OLIVEIRA CAMPOS",
      "house": "308",
      "postcode": "4475-690",
      "city": "MAIA",
      "lon": "-8.615579184541915",
      "lat": "41.26795112134384"
    },
    {
      "id": "pt.ine.add.PTCONT.4084155",
      "street": "AV CARLOS DE OLIVEIRA CAMPOS",
      "house": "308",
      "postcode": "4475-690",
      "city": "MAIA",
      "lon": "-8.615579184541915",
      "lat": "41.26795112134384"
    },
    {
      "id": "pt.ine.add.PTCONT.4084156",
      "street": "AV CARLOS DE OLIVEIRA CAMPOS",
      "house": "308",
      "postcode": "4475-690",
      "city": "MAIA",
      "lon": "-8.615579184541915",
      "lat": "41.26795112134384"
    },
    {
      "id": "pt.ine.add.PTCONT.4084157",
      "street": "AV CARLOS DE OLIVEIRA CAMPOS",
      "house": "308",
      "postcode": "4475-690",
      "city": "MAIA",
      "lon": "-8.615579184541915",
      "lat": "41.26795112134384"
    },
    {
      "id": "pt.ine.add.PTCONT.4088639",
      "street": "AV CARLOS DE OLIVEIRA CAMPOS",
      "house": "308",
      "postcode": "4475-690",
      "city": "MAIA",
      "lon": "-8.615579184541915",
      "lat": "41.26795112134384"
    },
    {
      "id": "pt.ine.add.PTCONT.4104032",
      "street": "R AUGUSTO NOGUEIRA DA SILVA",
      "house": "1409",
      "postcode": "4475-136",
      "city": "MAIA",
      "lon": "-8.611127416379851",
      "lat": "41.26953641726759"
    },
    {
      "id": "pt.ine.add.PTCONT.4110443",
      "street": "R AUGUSTO NOGUEIRA DA SILVA",
      "house": "",
      "postcode": "4475-136",
      "city": "MAIA",
      "lon": "-8.61105679755286",
      "lat": "41.269671773032776"
    },
    {
      "id": "pt.ine.add.PTCONT.4110444",
      "street": "R AUGUSTO NOGUEIRA DA SILVA",
      "house": "1037",
      "postcode": "4475-136",
      "city": "MAIA",
      "lon": "-8.611959859932865",
      "lat": "41.26749801477738"
    },
    {
      "id": "pt.ine.add.PTCONT.4123492",
      "street": "R VILARINHO DE BAIXO",
      "house": "208",
      "postcode": "4475-730",
      "city": "MAIA",
      "lon": "-8.618129112650415",
      "lat": "41.270641658478496"
    },
    {
      "id": "pt.ine.add.PTCONT.4129819",
      "street": "R VILARINHO BAIXO",
      "house": "488",
      "postcode": "4475-730",
      "city": "MAIA",
      "lon": "-8.617680591673293",
      "lat": "41.27293060561718"
    },
    {
      "id": "pt.ine.add.PTCONT.4129820",
      "street": "R VILARINHO BAIXO",
      "house": "510",
      "postcode": "4475-730",
      "city": "MAIA",
      "lon": "-8.617680591673293",
      "lat": "41.27293060561718"
    },
    {
      "id": "pt.ine.add.PTCONT.4129823",
      "street": "R FERRONHO",
      "house": "597",
      "postcode": "4475-703",
      "city": "MAIA",
      "lon": "-8.612915658289722",
      "lat": "41.27742563153775"
    },
    {
      "id": "pt.ine.add.PTCONT.4139135",
      "street": "R VILARINHO DE BAIXO",
      "house": "534",
      "postcode": "4475-730",
      "city": "MAIA",
      "lon": "-8.6176707211417",
      "lat": "41.27320977628115"
    },
    {
      "id": "pt.ine.add.PTCONT.4149861",
      "street": "R OLIVAL",
      "house": "202",
      "postcode": "4475-730",
      "city": "MAIA",
      "lon": "-8.615840141715767",
      "lat": "41.270975428944084"
    },
    {
      "id": "pt.ine.add.PTCONT.4162944",
      "street": "AV CARLOS DE OLIVEIRA CAMPOS",
      "house": "274",
      "postcode": "4475-690",
      "city": "MAIA",
      "lon": "-8.615089705348067",
      "lat": "41.26792615902861"
    },
    {
      "id": "pt.ine.add.PTCONT.4162945",
      "street": "AV CARLOS DE OLIVEIRA CAMPOS",
      "house": "274",
      "postcode": "4475-690",
      "city": "MAIA",
      "lon": "-8.615089705348067",
      "lat": "41.26792615902861"
    },
    {
      "id": "pt.ine.add.PTCONT.4162946",
      "street": "AV CARLOS DE OLIVEIRA CAMPOS",
      "house": "274",
      "postcode": "4475-690",
      "city": "MAIA",
      "lon": "-8.615089705348067",
      "lat": "41.26792615902861"
    },
    {
      "id": "pt.ine.add.PTCONT.4162947",
      "street": "AV CARLOS DE OLIVEIRA CAMPOS",
      "house": "274",
      "postcode": "4475-690",
      "city": "MAIA",
      "lon": "-8.615089705348067",
      "lat": "41.26792615902861"
    },
    {
      "id": "pt.ine.add.PTCONT.4162948",
      "street": "AV CARLOS DE OLIVEIRA CAMPOS",
      "house": "274",
      "postcode": "4475-690",
      "city": "MAIA",
      "lon": "-8.615089705348067",
      "lat": "41.26792615902861"
    },
    {
      "id": "pt.ine.add.PTCONT.4162949",
      "street": "AV CARLOS DE OLIVEIRA CAMPOS",
      "house": "274",
      "postcode": "4475-690",
      "city": "MAIA",
      "lon": "-8.615089705348067",
      "lat": "41.26792615902861"
    },
    {
      "id": "pt.ine.add.PTCONT.4162950",
      "street": "AV CARLOS DE OLIVEIRA CAMPOS",
      "house": "274",
      "postcode": "4475-690",
      "city": "MAIA",
      "lon": "-8.615089705348067",
      "lat": "41.26792615902861"
    },
    {
      "id": "pt.ine.add.PTCONT.4162951",
      "street": "AV CARLOS DE OLIVEIRA CAMPOS",
      "house": "274",
      "postcode": "4475-690",
      "city": "MAIA",
      "lon": "-8.615089705348067",
      "lat": "41.26792615902861"
    },
    {
      "id": "pt.ine.add.PTCONT.4162952",
      "street": "AV CARLOS DE OLIVEIRA CAMPOS",
      "house": "274",
      "postcode": "4475-690",
      "city": "MAIA",
      "lon": "-8.615089705348067",
      "lat": "41.26792615902861"
    },
    {
      "id": "pt.ine.add.PTCONT.4162953",
      "street": "AV CARLOS DE OLIVEIRA CAMPOS",
      "house": "274",
      "postcode": "4475-690",
      "city": "MAIA",
      "lon": "-8.615089705348067",
      "lat": "41.26792615902861"
    },
    {
      "id": "pt.ine.add.PTCONT.4162954",
      "street": "AV CARLOS DE OLIVEIRA CAMPOS",
      "house": "274",
      "postcode": "4475-690",
      "city": "MAIA",
      "lon": "-8.615089705348067",
      "lat": "41.26792615902861"
    },
    {
      "id": "pt.ine.add.PTCONT.4163001",
      "street": "R QUINTA",
      "house": "213",
      "postcode": "4475-722",
      "city": "MAIA",
      "lon": "-8.615321837398747",
      "lat": "41.27676727866603"
    },
    {
      "id": "pt.ine.add.PTCONT.4167109",
      "street": "AV CARLOS DE OLIVEIRA CAMPOS",
      "house": "274",
      "postcode": "4475-690",
      "city": "MAIA",
      "lon": "-8.615089705348067",
      "lat": "41.26792615902861"
    },
    {
      "id": "pt.ine.add.PTCONT.4185572",
      "street": "R AUGUSTO NOGUEIRA SILVA",
      "house": "747",
      "postcode": "4475-679",
      "city": "MAIA",
      "lon": "-8.617824326948336",
      "lat": "41.274613779213894"
    },
    {
      "id": "pt.ine.add.PTCONT.4203697",
      "street": "R FERRONHO",
      "house": "505",
      "postcode": "4475-703",
      "city": "MAIA",
      "lon": "-8.612135380604382",
      "lat": "41.27681659799947"
    },
    {
      "id": "pt.ine.add.PTCONT.4203698",
      "street": "R MOINHOS",
      "house": "159",
      "postcode": "4475-707",
      "city": "MAIA",
      "lon": "-8.61195552046138",
      "lat": "41.27507053888232"
    },
    {
      "id": "pt.ine.add.PTCONT.4212576",
      "street": "R AUGUSTO NOGUEIRA DA SILVA",
      "house": "1329",
      "postcode": "4475-136",
      "city": "MAIA",
      "lon": "-8.61174180133498",
      "lat": "41.26868747248323"
    },
    {
      "id": "pt.ine.add.PTCONT.4213961",
      "street": "AV CARLOS DE OLIVEIRA CAMPOS",
      "house": "250",
      "postcode": "4475-690",
      "city": "MAIA",
      "lon": "-8.614743695143716",
      "lat": "41.26793661122578"
    },
    {
      "id": "pt.ine.add.PTCONT.4213962",
      "street": "AV CARLOS DE OLIVEIRA CAMPOS",
      "house": "250",
      "postcode": "4475-690",
      "city": "MAIA",
      "lon": "-8.614743695143716",
      "lat": "41.26793661122578"
    },
    {
      "id": "pt.ine.add.PTCONT.4213963",
      "street": "AV CARLOS DE OLIVEIRA CAMPOS",
      "house": "250",
      "postcode": "4475-690",
      "city": "MAIA",
      "lon": "-8.614743695143716",
      "lat": "41.26793661122578"
    },
    {
      "id": "pt.ine.add.PTCONT.4213964",
      "street": "AV CARLOS DE OLIVEIRA CAMPOS",
      "house": "250",
      "postcode": "4475-690",
      "city": "MAIA",
      "lon": "-8.614743695143716",
      "lat": "41.26793661122578"
    },
    {
      "id": "pt.ine.add.PTCONT.4213965",
      "street": "AV CARLOS DE OLIVEIRA CAMPOS",
      "house": "250",
      "postcode": "4475-690",
      "city": "MAIA",
      "lon": "-8.614743695143716",
      "lat": "41.26793661122578"
    },
    {
      "id": "pt.ine.add.PTCONT.4213966",
      "street": "AV CARLOS DE OLIVEIRA CAMPOS",
      "house": "250",
      "postcode": "4475-690",
      "city": "MAIA",
      "lon": "-8.614743695143716",
      "lat": "41.26793661122578"
    },
    {
      "id": "pt.ine.add.PTCONT.4213967",
      "street": "AV CARLOS DE OLIVEIRA CAMPOS",
      "house": "250",
      "postcode": "4475-690",
      "city": "MAIA",
      "lon": "-8.614743695143716",
      "lat": "41.26793661122578"
    },
    {
      "id": "pt.ine.add.PTCONT.4213968",
      "street": "AV CARLOS DE OLIVEIRA CAMPOS",
      "house": "250",
      "postcode": "4475-690",
      "city": "MAIA",
      "lon": "-8.614743695143716",
      "lat": "41.26793661122578"
    },
    {
      "id": "pt.ine.add.PTCONT.4213969",
      "street": "AV CARLOS DE OLIVEIRA CAMPOS",
      "house": "250",
      "postcode": "4475-690",
      "city": "MAIA",
      "lon": "-8.614743695143716",
      "lat": "41.26793661122578"
    },
    {
      "id": "pt.ine.add.PTCONT.4213970",
      "street": "AV CARLOS DE OLIVEIRA CAMPOS",
      "house": "250",
      "postcode": "4475-690",
      "city": "MAIA",
      "lon": "-8.614743695143716",
      "lat": "41.26793661122578"
    },
    {
      "id": "pt.ine.add.PTCONT.4213971",
      "street": "AV CARLOS DE OLIVEIRA CAMPOS",
      "house": "250",
      "postcode": "4475-690",
      "city": "MAIA",
      "lon": "-8.614743695143716",
      "lat": "41.26793661122578"
    },
    {
      "id": "pt.ine.add.PTCONT.4213972",
      "street": "AV CARLOS DE OLIVEIRA CAMPOS",
      "house": "250",
      "postcode": "4475-690",
      "city": "MAIA",
      "lon": "-8.614743695143716",
      "lat": "41.26793661122578"
    },
    {
      "id": "pt.ine.add.PTCONT.4213973",
      "street": "AV CARLOS DE OLIVEIRA CAMPOS",
      "house": "250",
      "postcode": "4475-690",
      "city": "MAIA",
      "lon": "-8.614743695143716",
      "lat": "41.26793661122578"
    },
    {
      "id": "pt.ine.add.PTCONT.4213974",
      "street": "AV CARLOS DE OLIVEIRA CAMPOS",
      "house": "250",
      "postcode": "4475-690",
      "city": "MAIA",
      "lon": "-8.614743695143716",
      "lat": "41.26793661122578"
    },
    {
      "id": "pt.ine.add.PTCONT.4213975",
      "street": "AV CARLOS DE OLIVEIRA CAMPOS",
      "house": "250",
      "postcode": "4475-690",
      "city": "MAIA",
      "lon": "-8.614743695143716",
      "lat": "41.26793661122578"
    },
    {
      "id": "pt.ine.add.PTCONT.4213976",
      "street": "AV CARLOS DE OLIVEIRA CAMPOS",
      "house": "250",
      "postcode": "4475-690",
      "city": "MAIA",
      "lon": "-8.614743695143716",
      "lat": "41.26793661122578"
    },
    {
      "id": "pt.ine.add.PTCONT.4213977",
      "street": "AV CARLOS DE OLIVEIRA CAMPOS",
      "house": "250",
      "postcode": "4475-690",
      "city": "MAIA",
      "lon": "-8.614743695143716",
      "lat": "41.26793661122578"
    },
    {
      "id": "pt.ine.add.PTCONT.4213985",
      "street": "AV CARLOS DE OLIVEIRA CAMPOS",
      "house": "250",
      "postcode": "4475-690",
      "city": "MAIA",
      "lon": "-8.614743695143716",
      "lat": "41.26793661122578"
    },
    {
      "id": "pt.ine.add.PTCONT.4213986",
      "street": "AV CARLOS DE OLIVEIRA CAMPOS",
      "house": "250",
      "postcode": "4475-690",
      "city": "MAIA",
      "lon": "-8.614743695143716",
      "lat": "41.26793661122578"
    },
    {
      "id": "pt.ine.add.PTCONT.4213987",
      "street": "AV CARLOS DE OLIVEIRA CAMPOS",
      "house": "250",
      "postcode": "4475-690",
      "city": "MAIA",
      "lon": "-8.614743695143716",
      "lat": "41.26793661122578"
    },
    {
      "id": "pt.ine.add.PTCONT.4221840",
      "street": "R FERRONHO",
      "house": "525",
      "postcode": "4475-703",
      "city": "MAIA",
      "lon": "-8.612351335474086",
      "lat": "41.276968769947544"
    },
    {
      "id": "pt.ine.add.PTCONT.4234602",
      "street": "R MOINHOS",
      "house": "60",
      "postcode": "4475-707",
      "city": "MAIA",
      "lon": "-8.611781297639356",
      "lat": "41.27572856726475"
    },
    {
      "id": "pt.ine.add.PTCONT.4260996",
      "street": "R VILARINHO DE BAIXO",
      "house": "620",
      "postcode": "4475-730",
      "city": "MAIA",
      "lon": "-8.617843134424305",
      "lat": "41.273929383621606"
    },
    {
      "id": "pt.ine.add.PTCONT.4267523",
      "street": "R VILARINHO DE BAIXO",
      "house": "490",
      "postcode": "4475-730",
      "city": "MAIA",
      "lon": "-8.617679859259962",
      "lat": "41.2728315628802"
    },
    {
      "id": "pt.ine.add.PTCONT.4273014",
      "street": "R QUINTA",
      "house": "201",
      "postcode": "4475-722",
      "city": "MAIA",
      "lon": "-8.61515560470173",
      "lat": "41.276885028904594"
    },
    {
      "id": "pt.ine.add.PTCONT.4275258",
      "street": "R QUINTA",
      "house": "273",
      "postcode": "4475-722",
      "city": "MAIA",
      "lon": "-8.61602495687562",
      "lat": "41.27662026487641"
    },
    {
      "id": "pt.ine.add.PTCONT.4275436",
      "street": "R VILARINHO DE BAIXO",
      "house": "514",
      "postcode": "4475-730",
      "city": "MAIA",
      "lon": "-8.617669322916012",
      "lat": "41.273020694699845"
    },
    {
      "id": "pt.ine.add.PTCONT.4282666",
      "street": "AV CARLOS DE OLIVEIRA CAMPOS",
      "house": "296",
      "postcode": "4475-690",
      "city": "MAIA",
      "lon": "-8.615376245871127",
      "lat": "41.26794296744059"
    },
    {
      "id": "pt.ine.add.PTCONT.4282667",
      "street": "AV CARLOS DE OLIVEIRA CAMPOS",
      "house": "296",
      "postcode": "4475-690",
      "city": "MAIA",
      "lon": "-8.615376245871127",
      "lat": "41.26794296744059"
    },
    {
      "id": "pt.ine.add.PTCONT.4282668",
      "street": "AV CARLOS DE OLIVEIRA CAMPOS",
      "house": "296",
      "postcode": "4475-690",
      "city": "MAIA",
      "lon": "-8.615376245871127",
      "lat": "41.26794296744059"
    },
    {
      "id": "pt.ine.add.PTCONT.4282669",
      "street": "AV CARLOS DE OLIVEIRA CAMPOS",
      "house": "296",
      "postcode": "4475-690",
      "city": "MAIA",
      "lon": "-8.615376245871127",
      "lat": "41.26794296744059"
    },
    {
      "id": "pt.ine.add.PTCONT.4282670",
      "street": "AV CARLOS DE OLIVEIRA CAMPOS",
      "house": "296",
      "postcode": "4475-690",
      "city": "MAIA",
      "lon": "-8.615376245871127",
      "lat": "41.26794296744059"
    },
    {
      "id": "pt.ine.add.PTCONT.4287871",
      "street": "R VILARINHO DE BAIXO",
      "house": "370",
      "postcode": "4475-730",
      "city": "MAIA",
      "lon": "-8.618565869393498",
      "lat": "41.26837977084865"
    },
    {
      "id": "pt.ine.add.PTCONT.4287875",
      "street": "R AUGUSTO NOGUEIRA DA SILVA",
      "house": "1381",
      "postcode": "4475-136",
      "city": "MAIA",
      "lon": "-8.611341045118698",
      "lat": "41.26937345498261"
    },
    {
      "id": "pt.ine.add.PTCONT.4294396",
      "street": "R FERRONHO",
      "house": "549",
      "postcode": "4475-703",
      "city": "MAIA",
      "lon": "-8.61263883752523",
      "lat": "41.27711163933229"
    },
    {
      "id": "pt.ine.add.PTCONT.4299924",
      "street": "R QUINTA",
      "house": "201",
      "postcode": "4475-722",
      "city": "MAIA",
      "lon": "-8.615108459656557",
      "lat": "41.276966263734856"
    },
    {
      "id": "pt.ine.add.PTCONT.4308080",
      "street": "R VILARINHO DE BAIXO",
      "house": "14",
      "postcode": "4475-730",
      "city": "MAIA",
      "lon": "-8.618795679921448",
      "lat": "41.2687929935037"
    },
    {
      "id": "pt.ine.add.PTCONT.4314571",
      "street": "TV FERRONHO",
      "house": "2",
      "postcode": "4475-704",
      "city": "MAIA",
      "lon": "-8.611985773614087",
      "lat": "41.27594381679138"
    },
    {
      "id": "pt.ine.add.PTCONT.4321952",
      "street": "R AUGUSTO NOGUEIRA DA SILVA",
      "house": "1719",
      "postcode": "4475-136",
      "city": "MAIA",
      "lon": "-8.609677478920617",
      "lat": "41.27200957092905"
    },
    {
      "id": "pt.ine.add.PTCONT.4331153",
      "street": "R VILARINHO BAIXO",
      "house": "504",
      "postcode": "4475-730",
      "city": "MAIA",
      "lon": "-8.617692726002263",
      "lat": "41.272957567038915"
    },
    {
      "id": "pt.ine.add.PTCONT.4331154",
      "street": "R VILARINHO BAIXO",
      "house": "508",
      "postcode": "4475-730",
      "city": "MAIA",
      "lon": "-8.617692726002263",
      "lat": "41.272957567038915"
    },
    {
      "id": "pt.ine.add.PTCONT.4334487",
      "street": "R FERRONHO",
      "house": "",
      "postcode": "4475-703",
      "city": "MAIA",
      "lon": "-8.611126181190688",
      "lat": "41.275911372500104"
    },
    {
      "id": "pt.ine.add.PTCONT.4347031",
      "street": "R MOINHOS",
      "house": "220",
      "postcode": "4475-707",
      "city": "MAIA",
      "lon": "-8.612670762160437",
      "lat": "41.274950507618016"
    },
    {
      "id": "pt.ine.add.PTCONT.4358718",
      "street": "R MOINHOS",
      "house": "94",
      "postcode": "4475-707",
      "city": "MAIA",
      "lon": "-8.612930627742124",
      "lat": "41.27458025414885"
    },
    {
      "id": "pt.ine.add.PTCONT.4366484",
      "street": "R MOINHOS",
      "house": "250",
      "postcode": "4475-707",
      "city": "MAIA",
      "lon": "-8.61298133464613",
      "lat": "41.27498523014986"
    },
    {
      "id": "pt.ine.add.PTCONT.4388798",
      "street": "R AUGUSTO NOGUEIRA DA SILVA",
      "house": "1451",
      "postcode": "4475-136",
      "city": "MAIA",
      "lon": "-8.61093890191505",
      "lat": "41.26987035417853"
    }
  ]
}