{
  "data": {
    "distrito": "Braga",
    "concelho": "Vila Nova de Famalicão",
    "freguesia": "Oliveira (São Mateus)",
    "OBJECTID": 1437,
    "BGRI2021": "03124200116",
    "DT21": "03",
    "DTMN21": "0312",
    "DTMNFR21": "031242",
    "DTMNFRSEC21": "031242001",
    "SECNUM21": "001",
    "SSNUM21": "16",
    "SECSSNUM21": "00116",
    "OBJECTID_1": 30875,
    "DT": "03",
    "CC": "12",
    "fr": "42",
    "SEC": "001",
    "SS": "16"
  },
  "addresses": [
    {
      "id": "pt.ine.add.PTCONT.466712",
      "street": "R PADRE CRUZ",
      "house": "22",
      "postcode": "4765-383",
      "city": "OLIVEIRA (SÃO MATEUS)",
      "lon": "-8.403623147204048",
      "lat": "41.39328805454825"
    },
    {
      "id": "pt.ine.add.PTCONT.466726",
      "street": "R RAUL M FERREIRA RIBA DE AVE",
      "house": "100",
      "postcode": "4765-387",
      "city": "OLIVEIRA (SÃO MATEUS)",
      "lon": "-8.404447009564116",
      "lat": "41.39300699058533"
    },
    {
      "id": "pt.ine.add.PTCONT.475982",
      "street": "R ALFREDO FERREIRA",
      "house": "83",
      "postcode": "4765-380",
      "city": "OLIVEIRA (SÃO MATEUS)",
      "lon": "-8.405969100482004",
      "lat": "41.39385877187024"
    },
    {
      "id": "pt.ine.add.PTCONT.475991",
      "street": "R PADRE CRUZ",
      "house": "58",
      "postcode": "4765-383",
      "city": "OLIVEIRA (SÃO MATEUS)",
      "lon": "-8.404087968904324",
      "lat": "41.39292680060598"
    },
    {
      "id": "pt.ine.add.PTCONT.481735",
      "street": "R ALFREDO FERREIRA",
      "house": "148",
      "postcode": "4765-380",
      "city": "OLIVEIRA (SÃO MATEUS)",
      "lon": "-8.405646563455958",
      "lat": "41.393931568288714"
    },
    {
      "id": "pt.ine.add.PTCONT.482024",
      "street": "R PADRE CRUZ",
      "house": "54",
      "postcode": "4765-383",
      "city": "OLIVEIRA (SÃO MATEUS)",
      "lon": "-8.40392098490301",
      "lat": "41.39302623779388"
    },
    {
      "id": "pt.ine.add.PTCONT.483423",
      "street": "R NARCISO FERREIRA",
      "house": "118",
      "postcode": "4765-381",
      "city": "OLIVEIRA (SÃO MATEUS)",
      "lon": "-8.40442470581559",
      "lat": "41.393394215440466"
    },
    {
      "id": "pt.ine.add.PTCONT.490975",
      "street": "R POÇOS",
      "house": "140",
      "postcode": "4765-775",
      "city": "OLIVEIRA (SÃO MATEUS)",
      "lon": "-8.405263827664594",
      "lat": "41.39390546214512"
    },
    {
      "id": "pt.ine.add.PTCONT.505485",
      "street": "R LUIS DE CAMÕES",
      "house": "114",
      "postcode": "4765-776",
      "city": "OLIVEIRA (SÃO MATEUS)",
      "lon": "-8.404364322550457",
      "lat": "41.3932502937054"
    },
    {
      "id": "pt.ine.add.PTCONT.541233",
      "street": "R SALGADO LOBO",
      "house": "223",
      "postcode": "4765-757",
      "city": "OLIVEIRA (SÃO MATEUS)",
      "lon": "-8.406270813842985",
      "lat": "41.394524352348604"
    },
    {
      "id": "pt.ine.add.PTCONT.541234",
      "street": "R SALGADO LOBO",
      "house": "9",
      "postcode": "4765-757",
      "city": "OLIVEIRA (SÃO MATEUS)",
      "lon": "-8.404046422712751",
      "lat": "41.39443957134662"
    },
    {
      "id": "pt.ine.add.PTCONT.544575",
      "street": "R SALGADO LOBO",
      "house": "139",
      "postcode": "4765-757",
      "city": "OLIVEIRA (SÃO MATEUS)",
      "lon": "-8.405565007690168",
      "lat": "41.39444498967937"
    },
    {
      "id": "pt.ine.add.PTCONT.553256",
      "street": "R ALFREDO FERREIRA",
      "house": "87",
      "postcode": "4765-380",
      "city": "OLIVEIRA (SÃO MATEUS)",
      "lon": "-8.406029563175078",
      "lat": "41.39402070056612"
    },
    {
      "id": "pt.ine.add.PTCONT.562090",
      "street": "R PADRE CRUZ",
      "house": "22",
      "postcode": "4765-383",
      "city": "OLIVEIRA (SÃO MATEUS)",
      "lon": "-8.403683678218956",
      "lat": "41.39346799234827"
    },
    {
      "id": "pt.ine.add.PTCONT.572067",
      "street": "R ALFREDO FERREIRA",
      "house": "146",
      "postcode": "4765-380",
      "city": "OLIVEIRA (SÃO MATEUS)",
      "lon": "-8.405491010053124",
      "lat": "41.39390492459627"
    },
    {
      "id": "pt.ine.add.PTCONT.575870",
      "street": "R ALFREDO FERREIRA",
      "house": "85",
      "postcode": "4765-380",
      "city": "OLIVEIRA (SÃO MATEUS)",
      "lon": "-8.405993390960164",
      "lat": "41.39394875431652"
    },
    {
      "id": "pt.ine.add.PTCONT.588302",
      "street": "R ALFREDO FERREIRA",
      "house": "156",
      "postcode": "4765-380",
      "city": "OLIVEIRA (SÃO MATEUS)",
      "lon": "-8.405695745492046",
      "lat": "41.39425559595688"
    },
    {
      "id": "pt.ine.add.PTCONT.593793",
      "street": "R ALFREDO FERREIRA",
      "house": "95",
      "postcode": "4765-380",
      "city": "OLIVEIRA (SÃO MATEUS)",
      "lon": "-8.406006552994043",
      "lat": "41.39423685124861"
    },
    {
      "id": "pt.ine.add.PTCONT.595965",
      "street": "R SALGADO LOBO",
      "house": "61",
      "postcode": "4765-757",
      "city": "OLIVEIRA (SÃO MATEUS)",
      "lon": "-8.404607655535562",
      "lat": "41.39425816841631"
    },
    {
      "id": "pt.ine.add.PTCONT.608831",
      "street": "EM 574",
      "house": "285",
      "postcode": "4765-778",
      "city": "OLIVEIRA (SÃO MATEUS)",
      "lon": "-8.403816548790576",
      "lat": "41.393791824034196"
    },
    {
      "id": "pt.ine.add.PTCONT.623551",
      "street": "R ALFREDO FERREIRA",
      "house": "97",
      "postcode": "4765-380",
      "city": "OLIVEIRA (SÃO MATEUS)",
      "lon": "-8.405911084995758",
      "lat": "41.394282097645075"
    },
    {
      "id": "pt.ine.add.PTCONT.624122",
      "street": "R LUIS DE CAMÕES",
      "house": "110",
      "postcode": "4765-776",
      "city": "OLIVEIRA (SÃO MATEUS)",
      "lon": "-8.40405351925066",
      "lat": "41.39326903396822"
    },
    {
      "id": "pt.ine.add.PTCONT.628025",
      "street": "R ALFREDO FERREIRA",
      "house": "93",
      "postcode": "4765-380",
      "city": "OLIVEIRA (SÃO MATEUS)",
      "lon": "-8.406174026746868",
      "lat": "41.3942544619502"
    },
    {
      "id": "pt.ine.add.PTCONT.648742",
      "street": "R ALFREDO FERREIRA",
      "house": "89",
      "postcode": "4765-380",
      "city": "OLIVEIRA (SÃO MATEUS)",
      "lon": "-8.406053778468639",
      "lat": "41.39409267516624"
    },
    {
      "id": "pt.ine.add.PTCONT.657294",
      "street": "R ALFREDO FERREIRA",
      "house": "152",
      "postcode": "4765-380",
      "city": "OLIVEIRA (SÃO MATEUS)",
      "lon": "-8.405683149027455",
      "lat": "41.39410255772012"
    },
    {
      "id": "pt.ine.add.PTCONT.661217",
      "street": "R POÇOS",
      "house": "130",
      "postcode": "4765-775",
      "city": "OLIVEIRA (SÃO MATEUS)",
      "lon": "-8.404891886513283",
      "lat": "41.393600205069816"
    },
    {
      "id": "pt.ine.add.PTCONT.667309",
      "street": "EM 574",
      "house": "319",
      "postcode": "4765-778",
      "city": "OLIVEIRA (SÃO MATEUS)",
      "lon": "-8.40408087298872",
      "lat": "41.39409733805434"
    },
    {
      "id": "pt.ine.add.PTCONT.667310",
      "street": "EM 574",
      "house": "319",
      "postcode": "4765-778",
      "city": "OLIVEIRA (SÃO MATEUS)",
      "lon": "-8.40408087298872",
      "lat": "41.39409733805434"
    },
    {
      "id": "pt.ine.add.PTCONT.667313",
      "street": "R POÇOS",
      "house": "132",
      "postcode": "4765-775",
      "city": "OLIVEIRA (SÃO MATEUS)",
      "lon": "-8.404916212916133",
      "lat": "41.39369919166913"
    },
    {
      "id": "pt.ine.add.PTCONT.670342",
      "street": "R POÇOS",
      "house": "136",
      "postcode": "4765-775",
      "city": "OLIVEIRA (SÃO MATEUS)",
      "lon": "-8.405300449779462",
      "lat": "41.394085455617905"
    },
    {
      "id": "pt.ine.add.PTCONT.670349",
      "street": "R ALFREDO FERREIRA",
      "house": "",
      "postcode": "4765-380",
      "city": "OLIVEIRA (SÃO MATEUS)",
      "lon": "-8.406281036886162",
      "lat": "41.39411014388592"
    },
    {
      "id": "pt.ine.add.PTCONT.673611",
      "street": "R LUIS DE CAMÕES",
      "house": "124",
      "postcode": "4765-776",
      "city": "OLIVEIRA (SÃO MATEUS)",
      "lon": "-8.404485351481465",
      "lat": "41.39360116456008"
    },
    {
      "id": "pt.ine.add.PTCONT.685059",
      "street": "R SALGADO LOBO",
      "house": "115",
      "postcode": "4765-757",
      "city": "OLIVEIRA (SÃO MATEUS)",
      "lon": "-8.405337560458591",
      "lat": "41.39438249997313"
    },
    {
      "id": "pt.ine.add.PTCONT.690941",
      "street": "R ALFREDO FERREIRA",
      "house": "128",
      "postcode": "4765-380",
      "city": "OLIVEIRA (SÃO MATEUS)",
      "lon": "-8.404843908875227",
      "lat": "41.39356430235779"
    },
    {
      "id": "pt.ine.add.PTCONT.691378",
      "street": "R PADRE CRUZ",
      "house": "56",
      "postcode": "4765-383",
      "city": "OLIVEIRA (SÃO MATEUS)",
      "lon": "-8.403992464100181",
      "lat": "41.39296304150071"
    },
    {
      "id": "pt.ine.add.PTCONT.692732",
      "street": "R LUIS DE CAMÕES",
      "house": "126",
      "postcode": "4765-776",
      "city": "OLIVEIRA (SÃO MATEUS)",
      "lon": "-8.404688881329834",
      "lat": "41.39366371241336"
    },
    {
      "id": "pt.ine.add.PTCONT.702905",
      "street": "R PADRE CRUZ",
      "house": "60",
      "postcode": "4765-383",
      "city": "OLIVEIRA (SÃO MATEUS)",
      "lon": "-8.404183473602064",
      "lat": "41.39289055963214"
    },
    {
      "id": "pt.ine.add.PTCONT.711779",
      "street": "R LUIS DE CAMÕES",
      "house": "104",
      "postcode": "4765-776",
      "city": "OLIVEIRA (SÃO MATEUS)",
      "lon": "-8.40374215559899",
      "lat": "41.39315271461695"
    },
    {
      "id": "pt.ine.add.PTCONT.721498",
      "street": "EM 574",
      "house": "273",
      "postcode": "4765-778",
      "city": "OLIVEIRA (SÃO MATEUS)",
      "lon": "-8.403612758078488",
      "lat": "41.39366624721425"
    },
    {
      "id": "pt.ine.add.PTCONT.724069",
      "street": "R POCOS",
      "house": "134",
      "postcode": "4765-775",
      "city": "OLIVEIRA (SÃO MATEUS)",
      "lon": "-8.405228820426133",
      "lat": "41.39411263704797"
    },
    {
      "id": "pt.ine.add.PTCONT.731566",
      "street": "R SALGADO LOBO",
      "house": "89",
      "postcode": "4765-757",
      "city": "OLIVEIRA (SÃO MATEUS)",
      "lon": "-8.405134065286815",
      "lat": "41.394328957199384"
    },
    {
      "id": "pt.ine.add.PTCONT.731567",
      "street": "R LUIS DE CAMÕES",
      "house": "120",
      "postcode": "4765-776",
      "city": "OLIVEIRA (SÃO MATEUS)",
      "lon": "-8.40442504276697",
      "lat": "41.39347525069789"
    },
    {
      "id": "pt.ine.add.PTCONT.735759",
      "street": "R ALFREDO FERREIRA",
      "house": "91",
      "postcode": "4765-380",
      "city": "OLIVEIRA (SÃO MATEUS)",
      "lon": "-8.406269532215918",
      "lat": "41.39421821925092"
    },
    {
      "id": "pt.ine.add.PTCONT.752486",
      "street": "R POÇOS",
      "house": "144",
      "postcode": "4765-775",
      "city": "OLIVEIRA (SÃO MATEUS)",
      "lon": "-8.405155501684133",
      "lat": "41.393734642206525"
    },
    {
      "id": "pt.ine.add.PTCONT.761020",
      "street": "R ALFREDO FERREIRA",
      "house": "142",
      "postcode": "4765-380",
      "city": "OLIVEIRA (SÃO MATEUS)",
      "lon": "-8.40520377999464",
      "lat": "41.39384257611728"
    },
    {
      "id": "pt.ine.add.PTCONT.762939",
      "street": "R RAUL M FERREIRA RIBA DE AVE",
      "house": "98",
      "postcode": "4765-387",
      "city": "OLIVEIRA (SÃO MATEUS)",
      "lon": "-8.40441091453239",
      "lat": "41.39295305165505"
    },
    {
      "id": "pt.ine.add.PTCONT.768698",
      "street": "EM 574",
      "house": "299",
      "postcode": "4765-778",
      "city": "OLIVEIRA (SÃO MATEUS)",
      "lon": "-8.403984618887925",
      "lat": "41.393953500603736"
    },
    {
      "id": "pt.ine.add.PTCONT.768699",
      "street": "R LUIS DE CAMÕES",
      "house": "106",
      "postcode": "4765-776",
      "city": "OLIVEIRA (SÃO MATEUS)",
      "lon": "-8.403826040199704",
      "lat": "41.3931975373263"
    },
    {
      "id": "pt.ine.add.PTCONT.771866",
      "street": "R LUIS DE CAMÕES",
      "house": "108",
      "postcode": "4765-776",
      "city": "OLIVEIRA (SÃO MATEUS)",
      "lon": "-8.403897893335541",
      "lat": "41.39322438027595"
    },
    {
      "id": "pt.ine.add.PTCONT.774770",
      "street": "BR RESIDENCIAL QUINTEIRO",
      "house": "112",
      "postcode": "4765-381",
      "city": "OLIVEIRA (SÃO MATEUS)",
      "lon": "-8.40413717981902",
      "lat": "41.39325983294091"
    },
    {
      "id": "pt.ine.add.PTCONT.777721",
      "street": "R LUIS DE CAMÕES",
      "house": "116",
      "postcode": "4765-776",
      "city": "OLIVEIRA (SÃO MATEUS)",
      "lon": "-8.404388535718548",
      "lat": "41.39332226867208"
    },
    {
      "id": "pt.ine.add.PTCONT.777722",
      "street": "R ALFREDO FERREIRA",
      "house": "154",
      "postcode": "4765-380",
      "city": "OLIVEIRA (SÃO MATEUS)",
      "lon": "-8.405695369337966",
      "lat": "41.39416555680367"
    },
    {
      "id": "pt.ine.add.PTCONT.783542",
      "street": "R RAUL M FERREIRA RIBA DE AVE",
      "house": "102",
      "postcode": "4765-387",
      "city": "OLIVEIRA (SÃO MATEUS)",
      "lon": "-8.404483067209117",
      "lat": "41.39305192558556"
    },
    {
      "id": "pt.ine.add.PTCONT.801748",
      "street": "R RAUL M FERREIRA RIBA DE AVE",
      "house": "96",
      "postcode": "4765-387",
      "city": "OLIVEIRA (SÃO MATEUS)",
      "lon": "-8.404386813778052",
      "lat": "41.39290808844319"
    },
    {
      "id": "pt.ine.add.PTCONT.808091",
      "street": "R LUIS DE CAMÕES",
      "house": "122",
      "postcode": "4765-776",
      "city": "OLIVEIRA (SÃO MATEUS)",
      "lon": "-8.404485126796132",
      "lat": "41.39354714105675"
    },
    {
      "id": "pt.ine.add.PTCONT.817092",
      "street": "R ALFREDO FERREIRA",
      "house": "150",
      "postcode": "4765-380",
      "city": "OLIVEIRA (SÃO MATEUS)",
      "lon": "-8.40567081590559",
      "lat": "41.3940125468876"
    },
    {
      "id": "pt.ine.add.PTCONT.818587",
      "street": "R SALGADO LOBO",
      "house": "29",
      "postcode": "4765-757",
      "city": "OLIVEIRA (SÃO MATEUS)",
      "lon": "-8.404356819848568",
      "lat": "41.394321788013045"
    },
    {
      "id": "pt.ine.add.PTCONT.828730",
      "street": "R SALGADO LOBO",
      "house": "235",
      "postcode": "4765-757",
      "city": "OLIVEIRA (SÃO MATEUS)",
      "lon": "-8.406485777213325",
      "lat": "41.39446081381332"
    },
    {
      "id": "pt.ine.add.PTCONT.837835",
      "street": "R POÇOS",
      "house": "138",
      "postcode": "4765-775",
      "city": "OLIVEIRA (SÃO MATEUS)",
      "lon": "-8.405311918471002",
      "lat": "41.39396837642647"
    },
    {
      "id": "pt.ine.add.PTCONT.837855",
      "street": "R RAUL M FERREIRA RIBA DE AVE",
      "house": "94",
      "postcode": "4765-387",
      "city": "OLIVEIRA (SÃO MATEUS)",
      "lon": "-8.404350718851129",
      "lat": "41.392854149492784"
    }
  ]
}