{
  "data": {
    "distrito": "Lisboa",
    "concelho": "Sintra",
    "freguesia": "Rio de Mouro",
    "OBJECTID": 1441,
    "BGRI2021": "11110803512",
    "DT21": "11",
    "DTMN21": "1111",
    "DTMNFR21": "111108",
    "DTMNFRSEC21": "111108035",
    "SECNUM21": "035",
    "SSNUM21": "12",
    "SECSSNUM21": "03512",
    "OBJECTID_1": 111570,
    "DT": "11",
    "CC": "11",
    "fr": "08",
    "SEC": "035",
    "SS": "12"
  },
  "addresses": [
    {
      "id": "pt.ine.add.PTCONT.2269987",
      "street": "PCT SALVAS",
      "house": "3",
      "postcode": "2635-279",
      "city": "RIO DE MOURO",
      "lon": "-9.317967640161472",
      "lat": "38.79375834568161"
    },
    {
      "id": "pt.ine.add.PTCONT.2299773",
      "street": "PCT SALVAS",
      "house": "5",
      "postcode": "2635-279",
      "city": "RIO DE MOURO",
      "lon": "-9.3181691168728",
      "lat": "38.79341401151675"
    },
    {
      "id": "pt.ine.add.PTCONT.2481632",
      "street": "R SOBREIRAS",
      "house": "",
      "postcode": "2635-591",
      "city": "RIO DE MOURO",
      "lon": "-9.317718517317417",
      "lat": "38.79331048907719"
    },
    {
      "id": "pt.ine.add.PTCONT.2661538",
      "street": "AV FREIXOS",
      "house": "7",
      "postcode": "2635-589",
      "city": "RIO DE MOURO",
      "lon": "-9.318151344928234",
      "lat": "38.79303587030989"
    },
    {
      "id": "pt.ine.add.PTCONT.2920080",
      "street": "AV NOGUEIRAS",
      "house": "10",
      "postcode": "2635-293",
      "city": "RIO DE MOURO",
      "lon": "-9.317857182354905",
      "lat": "38.79403870302116"
    },
    {
      "id": "pt.ine.add.PTCONT.2951026",
      "street": "AV NOGUEIRAS",
      "house": "8",
      "postcode": "2635-293",
      "city": "RIO DE MOURO",
      "lon": "-9.31806477486355",
      "lat": "38.79406362079962"
    },
    {
      "id": "pt.ine.add.PTCONT.2982451",
      "street": "AV NOGUEIRAS",
      "house": "4",
      "postcode": "2635-293",
      "city": "RIO DE MOURO",
      "lon": "-9.318493557019284",
      "lat": "38.794239424428355"
    },
    {
      "id": "pt.ine.add.PTCONT.3021982",
      "street": "AV FREIXOS",
      "house": "12",
      "postcode": "2635-589",
      "city": "RIO DE MOURO",
      "lon": "-9.31842947378469",
      "lat": "38.79315014856336"
    },
    {
      "id": "pt.ine.add.PTCONT.3040178",
      "street": "AV NOGUEIRAS",
      "house": "6",
      "postcode": "2635-293",
      "city": "RIO DE MOURO",
      "lon": "-9.318307040877833",
      "lat": "38.794097194141564"
    },
    {
      "id": "pt.ine.add.PTCONT.3059143",
      "street": "AV CHOROES",
      "house": "19",
      "postcode": "2635-592",
      "city": "RIO DE MOURO",
      "lon": "-9.317624635826407",
      "lat": "38.793896938369976"
    },
    {
      "id": "pt.ine.add.PTCONT.3145126",
      "street": "PCT SALVAS",
      "house": "2",
      "postcode": "2635-279",
      "city": "RIO DE MOURO",
      "lon": "-9.318233517761264",
      "lat": "38.79382771034882"
    },
    {
      "id": "pt.ine.add.PTCONT.3253779",
      "street": "AV NOGUEIRAS",
      "house": "2",
      "postcode": "2635-293",
      "city": "RIO DE MOURO",
      "lon": "-9.318679775472454",
      "lat": "38.794363642126996"
    },
    {
      "id": "pt.ine.add.PTCONT.3264005",
      "street": "AV CASTANHEIROS",
      "house": "17",
      "postcode": "2635-279",
      "city": "RIO DE MOURO",
      "lon": "-9.31852481927321",
      "lat": "38.79334734963471"
    },
    {
      "id": "pt.ine.add.PTCONT.3337582",
      "street": "AV CHOROES",
      "house": "17 17A",
      "postcode": "2635-592",
      "city": "RIO DE MOURO",
      "lon": "-9.317575324062867",
      "lat": "38.793699269909595"
    },
    {
      "id": "pt.ine.add.PTCONT.3410402",
      "street": "R SOBREIRAS",
      "house": "10",
      "postcode": "2635-591",
      "city": "RIO DE MOURO",
      "lon": "-9.317946737694381",
      "lat": "38.793191075474596"
    }
  ]
}