{
  "data": {
    "distrito": "Portalegre",
    "concelho": "Crato",
    "freguesia": "União das freguesias de Crato e Mártires, Flor da Rosa e Vale do Peso",
    "OBJECTID": 48,
    "BGRI2021": "12060700315",
    "DT21": "12",
    "DTMN21": "1206",
    "DTMNFR21": "120607",
    "DTMNFRSEC21": "120607003",
    "SECNUM21": "003",
    "SSNUM21": "15",
    "SECSSNUM21": "00315",
    "OBJECTID_1": 121568,
    "DT": "12",
    "CC": "06",
    "fr": "07",
    "SEC": "003",
    "SS": "15"
  },
  "addresses": [
    {
      "id": "pt.ine.add.PTCONT.3539268",
      "street": "R PROF MANUEL SUBTIL",
      "house": "29",
      "postcode": "7430-361",
      "city": "VALE DO PESO",
      "lon": "-7.648234708618003",
      "lat": "39.35040145380251"
    },
    {
      "id": "pt.ine.add.PTCONT.3460122",
      "street": "R PROF MANUEL SUBTIL",
      "house": "",
      "postcode": "7430-361",
      "city": "VALE DO PESO",
      "lon": "-7.648281423221574",
      "lat": "39.35035661268428"
    },
    {
      "id": "pt.ine.add.PTCONT.3463838",
      "street": "R APEADEIRO",
      "house": "10",
      "postcode": "7430-356",
      "city": "VALE DO PESO",
      "lon": "-7.648759731463996",
      "lat": "39.34997129692274"
    },
    {
      "id": "pt.ine.add.PTCONT.3464470",
      "street": "R PROF MANUEL SUBTIL",
      "house": "21",
      "postcode": "7430-361",
      "city": "VALE DO PESO",
      "lon": "-7.647990592604488",
      "lat": "39.35047249369117"
    },
    {
      "id": "pt.ine.add.PTCONT.3469970",
      "street": "R APEADEIRO QTA NOVA",
      "house": "",
      "postcode": "7430-356",
      "city": "VALE DO PESO",
      "lon": "-7.64723772327476",
      "lat": "39.34862288807395"
    },
    {
      "id": "pt.ine.add.PTCONT.3470546",
      "street": "R APEADEIRO",
      "house": "8",
      "postcode": "7430-356",
      "city": "VALE DO PESO",
      "lon": "-7.6487137014835564",
      "lat": "39.349917062476834"
    },
    {
      "id": "pt.ine.add.PTCONT.3471317",
      "street": "R PROF MANUEL SUBTIL",
      "house": "25",
      "postcode": "7430-361",
      "city": "VALE DO PESO",
      "lon": "-7.648037369685947",
      "lat": "39.350418645786796"
    },
    {
      "id": "pt.ine.add.PTCONT.3474331",
      "street": "R D JOÃO DA CAMARA",
      "house": "9",
      "postcode": "7430-358",
      "city": "VALE DO PESO",
      "lon": "-7.647235226977748",
      "lat": "39.350658492749034"
    },
    {
      "id": "pt.ine.add.PTCONT.3474929",
      "street": "SIT CABINE LAGAR DE AZEITE",
      "house": "",
      "postcode": "7430-356",
      "city": "VALE DO PESO",
      "lon": "-7.644714632876827",
      "lat": "39.34610834021724"
    },
    {
      "id": "pt.ine.add.PTCONT.3479820",
      "street": "R PROF MANUEL SUBTIL",
      "house": "27A",
      "postcode": "7430-361",
      "city": "VALE DO PESO",
      "lon": "-7.648176828901435",
      "lat": "39.35038319836273"
    },
    {
      "id": "pt.ine.add.PTCONT.3479821",
      "street": "R PROF MANUEL SUBTIL",
      "house": "13",
      "postcode": "7430-361",
      "city": "VALE DO PESO",
      "lon": "-7.647757952347543",
      "lat": "39.350561595213314"
    },
    {
      "id": "pt.ine.add.PTCONT.3479827",
      "street": "R D JOÃO DA CAMARA",
      "house": "11",
      "postcode": "7430-358",
      "city": "VALE DO PESO",
      "lon": "-7.647316433187561",
      "lat": "39.35065883173421"
    },
    {
      "id": "pt.ine.add.PTCONT.3485251",
      "street": "R PROF MANUEL SUBTIL",
      "house": "15",
      "postcode": "7430-361",
      "city": "VALE DO PESO",
      "lon": "-7.6478162059224415",
      "lat": "39.35052580954868"
    },
    {
      "id": "pt.ine.add.PTCONT.3486517",
      "street": "R D JOÃO DA CAMARA",
      "house": "3A",
      "postcode": "7430-358",
      "city": "VALE DO PESO",
      "lon": "-7.647026723042595",
      "lat": "39.35061258639159"
    },
    {
      "id": "pt.ine.add.PTCONT.3488145",
      "street": "R D JOÃO DA CAMARA",
      "house": "7",
      "postcode": "7430-358",
      "city": "VALE DO PESO",
      "lon": "-7.647131006171575",
      "lat": "39.35063103617465"
    },
    {
      "id": "pt.ine.add.PTCONT.3490921",
      "street": "R PROF MANUEL SUBTIL",
      "house": "9",
      "postcode": "7430-361",
      "city": "VALE DO PESO",
      "lon": "-7.647664771433677",
      "lat": "39.35061524946078"
    },
    {
      "id": "pt.ine.add.PTCONT.3491826",
      "street": "R D JOÃO DA CAMARA",
      "house": "3",
      "postcode": "7430-358",
      "city": "VALE DO PESO",
      "lon": "-7.646945392058376",
      "lat": "39.35063026097286"
    },
    {
      "id": "pt.ine.add.PTCONT.3498486",
      "street": "R APEADEIRO",
      "house": "6A",
      "postcode": "7430-356",
      "city": "VALE DO PESO",
      "lon": "-7.648667733766964",
      "lat": "39.34985382112505"
    },
    {
      "id": "pt.ine.add.PTCONT.3502667",
      "street": "R PROF MANUEL SUBTIL",
      "house": "27",
      "postcode": "7430-361",
      "city": "VALE DO PESO",
      "lon": "-7.648118513363131",
      "lat": "39.350427991096595"
    },
    {
      "id": "pt.ine.add.PTCONT.3509252",
      "street": "R PROF MANUEL SUBTIL",
      "house": "19",
      "postcode": "7430-361",
      "city": "VALE DO PESO",
      "lon": "-7.647920800589073",
      "lat": "39.350499224197165"
    },
    {
      "id": "pt.ine.add.PTCONT.3513481",
      "street": "R PROF MANUEL SUBTIL",
      "house": "5",
      "postcode": "7430-361",
      "city": "VALE DO PESO",
      "lon": "-7.647536787709792",
      "lat": "39.35066875843609"
    },
    {
      "id": "pt.ine.add.PTCONT.3517229",
      "street": "R APEADEIRO",
      "house": "2",
      "postcode": "7430-356",
      "city": "VALE DO PESO",
      "lon": "-7.648540809748435",
      "lat": "39.34975421413643"
    },
    {
      "id": "pt.ine.add.PTCONT.3526584",
      "street": "R APEADEIRO",
      "house": "",
      "postcode": "7430-356",
      "city": "VALE DO PESO",
      "lon": "-7.648170146399672",
      "lat": "39.349671605977576"
    },
    {
      "id": "pt.ine.add.PTCONT.3527216",
      "street": "R SENHORA DA LUZ",
      "house": "",
      "postcode": "7430-363",
      "city": "VALE DO PESO",
      "lon": "-7.648362815793996",
      "lat": "39.35032993027799"
    },
    {
      "id": "pt.ine.add.PTCONT.3528563",
      "street": "R APEADEIRO",
      "house": "12",
      "postcode": "7430-356",
      "city": "VALE DO PESO",
      "lon": "-7.648805885866433",
      "lat": "39.35000751757527"
    },
    {
      "id": "pt.ine.add.PTCONT.3528564",
      "street": "R PROF MANUEL SUBTIL",
      "house": "",
      "postcode": "7430-361",
      "city": "VALE DO PESO",
      "lon": "-7.647688347116677",
      "lat": "39.3505613049227"
    },
    {
      "id": "pt.ine.add.PTCONT.3531589",
      "street": "R PROF MANUEL SUBTIL",
      "house": "7",
      "postcode": "7430-361",
      "city": "VALE DO PESO",
      "lon": "-7.647606767030991",
      "lat": "39.3506150075081"
    }
  ]
}