{
  "data": {
    "distrito": "Portalegre",
    "concelho": "Crato",
    "freguesia": "União das freguesias de Crato e Mártires, Flor da Rosa e Vale do Peso",
    "OBJECTID": 12,
    "BGRI2021": "12060700322",
    "DT21": "12",
    "DTMN21": "1206",
    "DTMNFR21": "120607",
    "DTMNFRSEC21": "120607003",
    "SECNUM21": "003",
    "SSNUM21": "22",
    "SECSSNUM21": "00322",
    "OBJECTID_1": 121410,
    "DT": "12",
    "CC": "06",
    "fr": "07",
    "SEC": "003",
    "SS": "22"
  },
  "addresses": [
    {
      "id": "pt.ine.add.PTCONT.3535284",
      "street": "R APEADEIRO",
      "house": "S3",
      "postcode": "7430-356",
      "city": "VALE DO PESO",
      "lon": "-7.6504816446730795",
      "lat": "39.35431088610155"
    },
    {
      "id": "pt.ine.add.PTCONT.3535449",
      "street": "R APEADEIRO",
      "house": "65",
      "postcode": "7430-356",
      "city": "VALE DO PESO",
      "lon": "-7.6502551326052535",
      "lat": "39.35350831103199"
    },
    {
      "id": "pt.ine.add.PTCONT.3536416",
      "street": "CAM ALMINHAS",
      "house": "2",
      "postcode": "7430-360",
      "city": "VALE DO PESO",
      "lon": "-7.653311590122934",
      "lat": "39.35274633743008"
    },
    {
      "id": "pt.ine.add.PTCONT.3536713",
      "street": "R APEADEIRO",
      "house": "135",
      "postcode": "7430-356",
      "city": "VALE DO PESO",
      "lon": "-7.651779635029766",
      "lat": "39.35620776072658"
    },
    {
      "id": "pt.ine.add.PTCONT.3536714",
      "street": "R APEADEIRO",
      "house": "141",
      "postcode": "7430-356",
      "city": "VALE DO PESO",
      "lon": "-7.652733394383901",
      "lat": "39.35755376478"
    },
    {
      "id": "pt.ine.add.PTCONT.3538282",
      "street": "R APEADEIRO",
      "house": "",
      "postcode": "7430-356",
      "city": "VALE DO PESO",
      "lon": "-7.6502775913999335",
      "lat": "39.35361648990256"
    },
    {
      "id": "pt.ine.add.PTCONT.3463377",
      "street": "CAM ALMINHAS",
      "house": "4",
      "postcode": "7430-360",
      "city": "VALE DO PESO",
      "lon": "-7.653392675636934",
      "lat": "39.352764685969156"
    },
    {
      "id": "pt.ine.add.PTCONT.3463393",
      "street": "R APEADEIRO",
      "house": "55F",
      "postcode": "7430-356",
      "city": "VALE DO PESO",
      "lon": "-7.650119451057995",
      "lat": "39.3529943409562"
    },
    {
      "id": "pt.ine.add.PTCONT.3463394",
      "street": "R APEADEIRO",
      "house": "109",
      "postcode": "7430-356",
      "city": "VALE DO PESO",
      "lon": "-7.651077928514572",
      "lat": "39.35533116408295"
    },
    {
      "id": "pt.ine.add.PTCONT.3463869",
      "street": "R APEADEIRO",
      "house": "SSD",
      "postcode": "7430-356",
      "city": "VALE DO PESO",
      "lon": "-7.650074410365705",
      "lat": "39.35279599690041"
    },
    {
      "id": "pt.ine.add.PTCONT.3464991",
      "street": "R 1 DE MAIO",
      "house": "14",
      "postcode": "7430-360",
      "city": "VALE DO PESO",
      "lon": "-7.650704036476713",
      "lat": "39.352339244105295"
    },
    {
      "id": "pt.ine.add.PTCONT.3466023",
      "street": "R APEADEIRO",
      "house": "85",
      "postcode": "7430-356",
      "city": "VALE DO PESO",
      "lon": "-7.650492874358984",
      "lat": "39.35436497551015"
    },
    {
      "id": "pt.ine.add.PTCONT.3466941",
      "street": "R APEADEIRO",
      "house": "121",
      "postcode": "7430-356",
      "city": "VALE DO PESO",
      "lon": "-7.651434673234131",
      "lat": "39.35575597662209"
    },
    {
      "id": "pt.ine.add.PTCONT.3468709",
      "street": "R APEADEIRO",
      "house": "57",
      "postcode": "7430-356",
      "city": "VALE DO PESO",
      "lon": "-7.650175783277064",
      "lat": "39.35323776755201"
    },
    {
      "id": "pt.ine.add.PTCONT.3468712",
      "street": "R APEADEIRO",
      "house": "73",
      "postcode": "7430-356",
      "city": "VALE DO PESO",
      "lon": "-7.650300484204699",
      "lat": "39.353661620580354"
    },
    {
      "id": "pt.ine.add.PTCONT.3472368",
      "street": "R 1 DE MAIO",
      "house": "6",
      "postcode": "7430-360",
      "city": "VALE DO PESO",
      "lon": "-7.650437767293157",
      "lat": "39.35225707583537"
    },
    {
      "id": "pt.ine.add.PTCONT.3473709",
      "street": "R APEADEIRO",
      "house": "137B",
      "postcode": "7430-356",
      "city": "VALE DO PESO",
      "lon": "-7.652298691312532",
      "lat": "39.35665125602733"
    },
    {
      "id": "pt.ine.add.PTCONT.3474368",
      "street": "R APEADEIRO",
      "house": "93",
      "postcode": "7430-356",
      "city": "VALE DO PESO",
      "lon": "-7.650538041124357",
      "lat": "39.354545305598506"
    },
    {
      "id": "pt.ine.add.PTCONT.3474948",
      "street": "R APEADEIRO",
      "house": "111",
      "postcode": "7430-356",
      "city": "VALE DO PESO",
      "lon": "-7.651135503629353",
      "lat": "39.355394452506054"
    },
    {
      "id": "pt.ine.add.PTCONT.3478383",
      "street": "R APEADEIRO",
      "house": "89",
      "postcode": "7430-356",
      "city": "VALE DO PESO",
      "lon": "-7.650527059233731",
      "lat": "39.35445518866385"
    },
    {
      "id": "pt.ine.add.PTCONT.3481950",
      "street": "R 1 DE MAIO",
      "house": "2",
      "postcode": "7430-360",
      "city": "VALE DO PESO",
      "lon": "-7.650020497811291",
      "lat": "39.35220130170679"
    },
    {
      "id": "pt.ine.add.PTCONT.3482317",
      "street": "CAM ALMINHAS",
      "house": "8",
      "postcode": "7430-360",
      "city": "VALE DO PESO",
      "lon": "-7.6536823990138645",
      "lat": "39.3528109155285"
    },
    {
      "id": "pt.ine.add.PTCONT.3482778",
      "street": "R 1 DE MAIO",
      "house": "22",
      "postcode": "7430-360",
      "city": "VALE DO PESO",
      "lon": "-7.651074159947842",
      "lat": "39.35250290624285"
    },
    {
      "id": "pt.ine.add.PTCONT.3485878",
      "street": "R APEADEIRO",
      "house": "59",
      "postcode": "7430-356",
      "city": "VALE DO PESO",
      "lon": "-7.650198613891091",
      "lat": "39.35329190513589"
    },
    {
      "id": "pt.ine.add.PTCONT.3488420",
      "street": "R APEADEIRO",
      "house": "97",
      "postcode": "7430-356",
      "city": "VALE DO PESO",
      "lon": "-7.650583517905677",
      "lat": "39.35468060125195"
    },
    {
      "id": "pt.ine.add.PTCONT.3492361",
      "street": "R APEADEIRO",
      "house": "125",
      "postcode": "7430-356",
      "city": "VALE DO PESO",
      "lon": "-7.651549824904244",
      "lat": "39.355882553085834"
    },
    {
      "id": "pt.ine.add.PTCONT.3492362",
      "street": "R APEADEIRO",
      "house": "1ZS",
      "postcode": "7430-356",
      "city": "VALE DO PESO",
      "lon": "-7.651549824904244",
      "lat": "39.355882553085834"
    },
    {
      "id": "pt.ine.add.PTCONT.3498481",
      "street": "R APEADEIRO",
      "house": "55H",
      "postcode": "7430-356",
      "city": "VALE DO PESO",
      "lon": "-7.650164988063414",
      "lat": "39.35312062991349"
    },
    {
      "id": "pt.ine.add.PTCONT.3498482",
      "street": "R APEADEIRO",
      "house": "",
      "postcode": "7430-356",
      "city": "VALE DO PESO",
      "lon": "-7.650221382538825",
      "lat": "39.35335504959933"
    },
    {
      "id": "pt.ine.add.PTCONT.3498483",
      "street": "R APEADEIRO",
      "house": "119",
      "postcode": "7430-356",
      "city": "VALE DO PESO",
      "lon": "-7.651388699281153",
      "lat": "39.35569273636961"
    },
    {
      "id": "pt.ine.add.PTCONT.3503940",
      "street": "R APEADEIRO",
      "house": "87",
      "postcode": "7430-356",
      "city": "VALE DO PESO",
      "lon": "-7.650492564515973",
      "lat": "39.3544100099252"
    },
    {
      "id": "pt.ine.add.PTCONT.3506058",
      "street": "R APEADEIRO",
      "house": "139",
      "postcode": "7430-356",
      "city": "VALE DO PESO",
      "lon": "-7.652367006239886",
      "lat": "39.35684068811624"
    },
    {
      "id": "pt.ine.add.PTCONT.3507563",
      "street": "R APEADEIRO",
      "house": "53",
      "postcode": "7430-356",
      "city": "VALE DO PESO",
      "lon": "-7.649973100734298",
      "lat": "39.35234521924942"
    },
    {
      "id": "pt.ine.add.PTCONT.3508026",
      "street": "R 1 DE MAIO",
      "house": "12",
      "postcode": "7430-360",
      "city": "VALE DO PESO",
      "lon": "-7.650658003450341",
      "lat": "39.352285010431515"
    },
    {
      "id": "pt.ine.add.PTCONT.3508027",
      "street": "R 1 DE MAIO",
      "house": "8",
      "postcode": "7430-360",
      "city": "VALE DO PESO",
      "lon": "-7.6505305145898435",
      "lat": "39.35226646758802"
    },
    {
      "id": "pt.ine.add.PTCONT.3512892",
      "street": "R 1 DE MAIO",
      "house": "20",
      "postcode": "7430-360",
      "city": "VALE DO PESO",
      "lon": "-7.650946546764939",
      "lat": "39.352502377625896"
    },
    {
      "id": "pt.ine.add.PTCONT.3512893",
      "street": "R APEADEIRO",
      "house": "127",
      "postcode": "7430-356",
      "city": "VALE DO PESO",
      "lon": "-7.651607277236855",
      "lat": "39.35596385503905"
    },
    {
      "id": "pt.ine.add.PTCONT.3514137",
      "street": "R APEADEIRO",
      "house": "107",
      "postcode": "7430-356",
      "city": "VALE DO PESO",
      "lon": "-7.651031955159191",
      "lat": "39.35526792368863"
    },
    {
      "id": "pt.ine.add.PTCONT.3514766",
      "street": "R APEADEIRO",
      "house": "137",
      "postcode": "7430-356",
      "city": "VALE DO PESO",
      "lon": "-7.651837273292798",
      "lat": "39.35626204191949"
    },
    {
      "id": "pt.ine.add.PTCONT.3515707",
      "street": "R 1 DE MAIO",
      "house": "18",
      "postcode": "7430-360",
      "city": "VALE DO PESO",
      "lon": "-7.650831277834334",
      "lat": "39.35239381430591"
    },
    {
      "id": "pt.ine.add.PTCONT.3515708",
      "street": "R APEADEIRO",
      "house": "81",
      "postcode": "7430-356",
      "city": "VALE DO PESO",
      "lon": "-7.650458751543787",
      "lat": "39.35426575546238"
    },
    {
      "id": "pt.ine.add.PTCONT.3516600",
      "street": "R APEADEIRO",
      "house": "95",
      "postcode": "7430-356",
      "city": "VALE DO PESO",
      "lon": "-7.650549208927656",
      "lat": "39.35460840188271"
    },
    {
      "id": "pt.ine.add.PTCONT.3519149",
      "street": "R 1 DE MAIO",
      "house": "16",
      "postcode": "7430-360",
      "city": "VALE DO PESO",
      "lon": "-7.65076191847248",
      "lat": "39.35235749829619"
    },
    {
      "id": "pt.ine.add.PTCONT.3519860",
      "street": "R APEADEIRO",
      "house": "117",
      "postcode": "7430-356",
      "city": "VALE DO PESO",
      "lon": "-7.651331061830853",
      "lat": "39.35563845495427"
    },
    {
      "id": "pt.ine.add.PTCONT.3520143",
      "street": "R 1 DE MAIO",
      "house": "26",
      "postcode": "7430-360",
      "city": "VALE DO PESO",
      "lon": "-7.651236329254912",
      "lat": "39.35253960637327"
    },
    {
      "id": "pt.ine.add.PTCONT.3520311",
      "street": "R APEADEIRO",
      "house": "75",
      "postcode": "7430-356",
      "city": "VALE DO PESO",
      "lon": "-7.650311589671151",
      "lat": "39.35373372377855"
    },
    {
      "id": "pt.ine.add.PTCONT.3520887",
      "street": "R APEADEIRO",
      "house": "137A",
      "postcode": "7430-356",
      "city": "VALE DO PESO",
      "lon": "-7.652102200443488",
      "lat": "39.35654235843793"
    },
    {
      "id": "pt.ine.add.PTCONT.3524695",
      "street": "R APEADEIRO",
      "house": "103",
      "postcode": "7430-356",
      "city": "VALE DO PESO",
      "lon": "-7.650870770418121",
      "lat": "39.3550871131352"
    },
    {
      "id": "pt.ine.add.PTCONT.3526619",
      "street": "R 1 DE MAIO",
      "house": "28",
      "postcode": "7430-360",
      "city": "VALE DO PESO",
      "lon": "-7.651317413972876",
      "lat": "39.35255795635406"
    },
    {
      "id": "pt.ine.add.PTCONT.3530977",
      "street": "R APEADEIRO",
      "house": "55",
      "postcode": "7430-356",
      "city": "VALE DO PESO",
      "lon": "-7.649983709432129",
      "lat": "39.35248937757447"
    },
    {
      "id": "pt.ine.add.PTCONT.3532307",
      "street": "R 1 DE MAIO",
      "house": "ZOA",
      "postcode": "7430-360",
      "city": "VALE DO PESO",
      "lon": "-7.650993322959194",
      "lat": "39.35244852854654"
    },
    {
      "id": "pt.ine.add.PTCONT.3532977",
      "street": "R APEADEIRO",
      "house": "55E",
      "postcode": "7430-356",
      "city": "VALE DO PESO",
      "lon": "-7.650085205383627",
      "lat": "39.35291313455257"
    },
    {
      "id": "pt.ine.add.PTCONT.3532978",
      "street": "R APEADEIRO",
      "house": "133",
      "postcode": "7430-356",
      "city": "VALE DO PESO",
      "lon": "-7.651722058670437",
      "lat": "39.35614447262327"
    },
    {
      "id": "pt.ine.add.PTCONT.3533443",
      "street": "R 1 DE MAIO",
      "house": "10",
      "postcode": "7430-360",
      "city": "VALE DO PESO",
      "lon": "-7.650588520383037",
      "lat": "39.35226670809194"
    }
  ]
}