{
  "data": {
    "distrito": "Leiria",
    "concelho": "Porto de Mós",
    "freguesia": "Porto de Mós - São João Baptista e São Pedro",
    "OBJECTID": 664,
    "BGRI2021": "10161400109",
    "DT21": "10",
    "DTMN21": "1016",
    "DTMNFR21": "101614",
    "DTMNFRSEC21": "101614001",
    "SECNUM21": "001",
    "SSNUM21": "09",
    "SECSSNUM21": "00109",
    "OBJECTID_1": 97980,
    "DT": "10",
    "CC": "16",
    "fr": "14",
    "SEC": "001",
    "SS": "09"
  },
  "addresses": [
    {
      "id": "pt.ine.add.PTCONT.1988125",
      "street": "R S MARTA",
      "house": "153",
      "postcode": "2480-160",
      "city": "PORTO DE MÓS",
      "lon": "-8.80674494703478",
      "lat": "39.617930087349585"
    },
    {
      "id": "pt.ine.add.PTCONT.1992672",
      "street": "TV PRAGAL",
      "house": "69",
      "postcode": "2480-160",
      "city": "PORTO DE MÓS",
      "lon": "-8.805419739254042",
      "lat": "39.61697404955277"
    },
    {
      "id": "pt.ine.add.PTCONT.2018714",
      "street": "R S PEDRO",
      "house": "978",
      "postcode": "2480-160",
      "city": "PORTO DE MÓS",
      "lon": "-8.807709295358224",
      "lat": "39.61769932465845"
    },
    {
      "id": "pt.ine.add.PTCONT.2025329",
      "street": "R PADRE MANUEL RODRIGUES PIRES",
      "house": "260",
      "postcode": "2480-160",
      "city": "PORTO DE MÓS",
      "lon": "-8.80755345299608",
      "lat": "39.617240888995404"
    },
    {
      "id": "pt.ine.add.PTCONT.2075556",
      "street": "R PADRE MANUEL RODRIGUES PIRES",
      "house": "104",
      "postcode": "2480-160",
      "city": "PORTO DE MÓS",
      "lon": "-8.805928798358938",
      "lat": "39.616628848705744"
    },
    {
      "id": "pt.ine.add.PTCONT.2077796",
      "street": "R S MARTA",
      "house": "113",
      "postcode": "2480-160",
      "city": "PORTO DE MÓS",
      "lon": "-8.806290705092852",
      "lat": "39.61792371371401"
    },
    {
      "id": "pt.ine.add.PTCONT.2128051",
      "street": "R PADRE MANUEL RODRIGUES PIRES",
      "house": "204",
      "postcode": "2480-160",
      "city": "PORTO DE MÓS",
      "lon": "-8.806806347393469",
      "lat": "39.61705608365282"
    },
    {
      "id": "pt.ine.add.PTCONT.2139443",
      "street": "R PADRE MANUEL RODRIGUES PIRES",
      "house": "250",
      "postcode": "2480-160",
      "city": "PORTO DE MÓS",
      "lon": "-8.80728439762335",
      "lat": "39.61711635719156"
    },
    {
      "id": "pt.ine.add.PTCONT.2153462",
      "street": "R PADRE MANUEL RODRIGUES PIRES",
      "house": "204",
      "postcode": "2480-160",
      "city": "PORTO DE MÓS",
      "lon": "-8.807097381148784",
      "lat": "39.61704538890299"
    },
    {
      "id": "pt.ine.add.PTCONT.2154759",
      "street": "TV PRAGAL",
      "house": "91",
      "postcode": "2480-160",
      "city": "PORTO DE MÓS",
      "lon": "-8.805595806267467",
      "lat": "39.61711713735358"
    },
    {
      "id": "pt.ine.add.PTCONT.2192953",
      "street": "R BARRADAS",
      "house": "20",
      "postcode": "2480-160",
      "city": "PORTO DE MÓS",
      "lon": "-8.807455990637584",
      "lat": "39.61799801558309"
    }
  ]
}