{
  "data": {
    "distrito": "Guarda",
    "concelho": "Sabugal",
    "freguesia": "FÃ³ios",
    "OBJECTID": 247,
    "BGRI2021": "09111400126",
    "DT21": "09",
    "DTMN21": "0911",
    "DTMNFR21": "091114",
    "DTMNFRSEC21": "091114001",
    "SECNUM21": "001",
    "SSNUM21": "26",
    "SECSSNUM21": "00126",
    "OBJECTID_1": 81032,
    "DT": "09",
    "CC": "11",
    "fr": "14",
    "SEC": "001",
    "SS": "26"
  },
  "addresses": [
    {
      "id": "pt.ine.add.PTCONT.1906736",
      "street": "TV LADEIRINHA",
      "house": "6",
      "postcode": "6320-141",
      "city": "FOIOS",
      "lon": "-6.888450179517888",
      "lat": "40.289711449553934"
    },
    {
      "id": "pt.ine.add.PTCONT.1906738",
      "street": "R BEIRADA",
      "house": "8",
      "postcode": "6320-141",
      "city": "FOIOS",
      "lon": "-6.8896409490930735",
      "lat": "40.288904763800076"
    },
    {
      "id": "pt.ine.add.PTCONT.1908437",
      "street": "R BEIRADA",
      "house": "",
      "postcode": "6320-141",
      "city": "FOIOS",
      "lon": "-6.8897596779740065",
      "lat": "40.288843002129816"
    },
    {
      "id": "pt.ine.add.PTCONT.1921853",
      "street": "R BEIRADA",
      "house": "9",
      "postcode": "6320-141",
      "city": "FOIOS",
      "lon": "-6.889886039147137",
      "lat": "40.28900645727282"
    },
    {
      "id": "pt.ine.add.PTCONT.1934282",
      "street": "R BEIRADA",
      "house": "7",
      "postcode": "6320-141",
      "city": "FOIOS",
      "lon": "-6.889685503293983",
      "lat": "40.28904032363229"
    },
    {
      "id": "pt.ine.add.PTCONT.1938423",
      "street": "TV LADEIRINHA",
      "house": "6",
      "postcode": "6320-141",
      "city": "FOIOS",
      "lon": "-6.889332616150029",
      "lat": "40.28904553558716"
    },
    {
      "id": "pt.ine.add.PTCONT.1946499",
      "street": "R BEIRAPA",
      "house": "15",
      "postcode": "6320-141",
      "city": "FOIOS",
      "lon": "-6.8913489011684685",
      "lat": "40.28875200669627"
    },
    {
      "id": "pt.ine.add.PTCONT.1960754",
      "street": "TV BEIRADA",
      "house": "3",
      "postcode": "6320-141",
      "city": "FOIOS",
      "lon": "-6.891995226713054",
      "lat": "40.2887769532176"
    },
    {
      "id": "pt.ine.add.PTCONT.1849060",
      "street": "R BEIRADA",
      "house": "5",
      "postcode": "6320-141",
      "city": "FOIOS",
      "lon": "-6.889901591376344",
      "lat": "40.28879950028032"
    },
    {
      "id": "pt.ine.add.PTCONT.1859925",
      "street": "TV LADEIRINHA",
      "house": "4",
      "postcode": "6320-141",
      "city": "FOIOS",
      "lon": "-6.889017182122835",
      "lat": "40.289573462182574"
    },
    {
      "id": "pt.ine.add.PTCONT.1861369",
      "street": "TV LADEIRINHA",
      "house": "8",
      "postcode": "6320-141",
      "city": "FOIOS",
      "lon": "-6.8893765095620285",
      "lat": "40.28921711001236"
    },
    {
      "id": "pt.ine.add.PTCONT.1864447",
      "street": "TV PA BEIRADA",
      "house": "17",
      "postcode": "6320-141",
      "city": "FOIOS",
      "lon": "-6.891715685906091",
      "lat": "40.288629867538"
    },
    {
      "id": "pt.ine.add.PTCONT.1864455",
      "street": "R BEIRADA",
      "house": "13",
      "postcode": "6320-141",
      "city": "FOIOS",
      "lon": "-6.890476218004456",
      "lat": "40.28888672254838"
    },
    {
      "id": "pt.ine.add.PTCONT.1865443",
      "street": "TV BEIRADA",
      "house": "1",
      "postcode": "6320-141",
      "city": "FOIOS",
      "lon": "-6.891878970866897",
      "lat": "40.28870366275725"
    },
    {
      "id": "pt.ine.add.PTCONT.1890471",
      "street": "R BEIRADA",
      "house": "11",
      "postcode": "6320-141",
      "city": "FOIOS",
      "lon": "-6.890251838112334",
      "lat": "40.28893834456714"
    },
    {
      "id": "pt.ine.add.PTCONT.1896670",
      "street": "TV BEIRADA",
      "house": "5",
      "postcode": "6320-141",
      "city": "FOIOS",
      "lon": "-6.892158182952677",
      "lat": "40.28886875531298"
    }
  ]
}