{
  "data": {
    "distrito": "Faro",
    "concelho": "Tavira",
    "freguesia": "Uni√£o das freguesias de Tavira (Santa Maria e Santiago)",
    "OBJECTID": 452,
    "BGRI2021": "08141201113",
    "DT21": "08",
    "DTMN21": "0814",
    "DTMNFR21": "081412",
    "DTMNFRSEC21": "081412011",
    "SECNUM21": "011",
    "SSNUM21": "13",
    "SECSSNUM21": "01113",
    "OBJECTID_1": 74049,
    "DT": "08",
    "CC": "14",
    "fr": "12",
    "SEC": "011",
    "SS": "13"
  },
  "addresses": [
    {
      "id": "pt.ine.add.PTCONT.1467598",
      "street": "R GEORGE ROSADO",
      "house": "",
      "postcode": "8800-381",
      "city": "TAVIRA",
      "lon": "-7.6531614533454295",
      "lat": "37.126740224734505"
    },
    {
      "id": "pt.ine.add.PTCONT.1467599",
      "street": "R GEORGE ROSADO",
      "house": "",
      "postcode": "8800-381",
      "city": "TAVIRA",
      "lon": "-7.6531614533454295",
      "lat": "37.126740224734505"
    },
    {
      "id": "pt.ine.add.PTCONT.1467600",
      "street": "BR 1 MAIO",
      "house": "4",
      "postcode": "8800-381",
      "city": "TAVIRA",
      "lon": "-7.6531614533454295",
      "lat": "37.126740224734505"
    },
    {
      "id": "pt.ine.add.PTCONT.1467601",
      "street": "BR 1 MAIO",
      "house": "4",
      "postcode": "8800-381",
      "city": "TAVIRA",
      "lon": "-7.6531614533454295",
      "lat": "37.126740224734505"
    },
    {
      "id": "pt.ine.add.PTCONT.1467727",
      "street": "R GEORGE ROSADO",
      "house": "",
      "postcode": "8800-381",
      "city": "TAVIRA",
      "lon": "-7.652440761949808",
      "lat": "37.126818399712526"
    },
    {
      "id": "pt.ine.add.PTCONT.1468845",
      "street": "TV COMUNIDADE LUSIADA",
      "house": "5",
      "postcode": "8800-647",
      "city": "TAVIRA",
      "lon": "-7.6531614533454295",
      "lat": "37.126740224734505"
    },
    {
      "id": "pt.ine.add.PTCONT.1468931",
      "street": "BR 1 MAIO",
      "house": "4",
      "postcode": "8800-381",
      "city": "TAVIRA",
      "lon": "-7.6531614533454295",
      "lat": "37.126740224734505"
    },
    {
      "id": "pt.ine.add.PTCONT.1474301",
      "street": "R PELAMES",
      "house": "",
      "postcode": "8800-411",
      "city": "TAVIRA",
      "lon": "-7.652373188153393",
      "lat": "37.12682713625287"
    },
    {
      "id": "pt.ine.add.PTCONT.1483232",
      "street": "R GEORGE ROSADO",
      "house": "",
      "postcode": "8800-381",
      "city": "TAVIRA",
      "lon": "-7.65351444014428",
      "lat": "37.126083883496705"
    },
    {
      "id": "pt.ine.add.PTCONT.1483233",
      "street": "R GEORGE ROSADO",
      "house": "",
      "postcode": "8800-381",
      "city": "TAVIRA",
      "lon": "-7.65351444014428",
      "lat": "37.126083883496705"
    },
    {
      "id": "pt.ine.add.PTCONT.1483234",
      "street": "R GEORGE ROSADO",
      "house": "",
      "postcode": "8800-381",
      "city": "TAVIRA",
      "lon": "-7.65351444014428",
      "lat": "37.126083883496705"
    },
    {
      "id": "pt.ine.add.PTCONT.1483598",
      "street": "R GEORGE ROSADO",
      "house": "",
      "postcode": "8800-381",
      "city": "TAVIRA",
      "lon": "-7.65351444014428",
      "lat": "37.126083883496705"
    },
    {
      "id": "pt.ine.add.PTCONT.1488826",
      "street": "R GEORGE ROSADO",
      "house": "",
      "postcode": "8800-381",
      "city": "TAVIRA",
      "lon": "-7.652643597161799",
      "lat": "37.12677416923309"
    },
    {
      "id": "pt.ine.add.PTCONT.1488827",
      "street": "R GEORGE ROSADO",
      "house": "",
      "postcode": "8800-381",
      "city": "TAVIRA",
      "lon": "-7.652643597161799",
      "lat": "37.12677416923309"
    },
    {
      "id": "pt.ine.add.PTCONT.1488828",
      "street": "R GEORGE ROSADO",
      "house": "",
      "postcode": "8800-381",
      "city": "TAVIRA",
      "lon": "-7.652643597161799",
      "lat": "37.12677416923309"
    },
    {
      "id": "pt.ine.add.PTCONT.1488829",
      "street": "R GEORGE ROSADO",
      "house": "",
      "postcode": "8800-381",
      "city": "TAVIRA",
      "lon": "-7.652643597161799",
      "lat": "37.12677416923309"
    },
    {
      "id": "pt.ine.add.PTCONT.1497609",
      "street": "R GEORGE ROSADO",
      "house": "12",
      "postcode": "8800-381",
      "city": "TAVIRA",
      "lon": "-7.653209308973391",
      "lat": "37.1262898912332"
    },
    {
      "id": "pt.ine.add.PTCONT.1497610",
      "street": "R GEORGE ROSADO",
      "house": "12",
      "postcode": "8800-381",
      "city": "TAVIRA",
      "lon": "-7.653209308973391",
      "lat": "37.1262898912332"
    },
    {
      "id": "pt.ine.add.PTCONT.1497611",
      "street": "R GEORGE ROSADO",
      "house": "12",
      "postcode": "8800-381",
      "city": "TAVIRA",
      "lon": "-7.653209308973391",
      "lat": "37.1262898912332"
    },
    {
      "id": "pt.ine.add.PTCONT.1549495",
      "street": "R GEORGE ROSADO",
      "house": "13",
      "postcode": "8800-381",
      "city": "TAVIRA",
      "lon": "-7.653289101868026",
      "lat": "37.12612802440148"
    },
    {
      "id": "pt.ine.add.PTCONT.1549496",
      "street": "R GEORGE ROSADO",
      "house": "13",
      "postcode": "8800-381",
      "city": "TAVIRA",
      "lon": "-7.653289101868026",
      "lat": "37.12612802440148"
    },
    {
      "id": "pt.ine.add.PTCONT.1549497",
      "street": "R GEORGE ROSADO",
      "house": "13",
      "postcode": "8800-381",
      "city": "TAVIRA",
      "lon": "-7.653289101868026",
      "lat": "37.12612802440148"
    },
    {
      "id": "pt.ine.add.PTCONT.1549498",
      "street": "R 1 MAIO",
      "house": "13",
      "postcode": "8800-360",
      "city": "TAVIRA",
      "lon": "-7.653289101868026",
      "lat": "37.12612802440148"
    },
    {
      "id": "pt.ine.add.PTCONT.1570497",
      "street": "R GEORGE ROSADO",
      "house": "",
      "postcode": "8800-381",
      "city": "TAVIRA",
      "lon": "-7.653286826693612",
      "lat": "37.126488436995125"
    },
    {
      "id": "pt.ine.add.PTCONT.1570498",
      "street": "R GEORGE ROSADO",
      "house": "",
      "postcode": "8800-381",
      "city": "TAVIRA",
      "lon": "-7.653286826693612",
      "lat": "37.126488436995125"
    },
    {
      "id": "pt.ine.add.PTCONT.1570499",
      "street": "R GEORGE ROSADO",
      "house": "",
      "postcode": "8800-381",
      "city": "TAVIRA",
      "lon": "-7.653286826693612",
      "lat": "37.126488436995125"
    },
    {
      "id": "pt.ine.add.PTCONT.1570808",
      "street": "R GEORGE ROSADO",
      "house": "",
      "postcode": "8800-381",
      "city": "TAVIRA",
      "lon": "-7.653286826693612",
      "lat": "37.126488436995125"
    },
    {
      "id": "pt.ine.add.PTCONT.1584787",
      "street": "R GEORGE ROSADO",
      "house": "",
      "postcode": "8800-381",
      "city": "TAVIRA",
      "lon": "-7.6530501205118835",
      "lat": "37.126550552516264"
    },
    {
      "id": "pt.ine.add.PTCONT.1584788",
      "street": "R GEORGE ROSADO",
      "house": "",
      "postcode": "8800-381",
      "city": "TAVIRA",
      "lon": "-7.6530501205118835",
      "lat": "37.126550552516264"
    },
    {
      "id": "pt.ine.add.PTCONT.1584789",
      "street": "R GEORGE ROSADO",
      "house": "",
      "postcode": "8800-381",
      "city": "TAVIRA",
      "lon": "-7.6530501205118835",
      "lat": "37.126550552516264"
    },
    {
      "id": "pt.ine.add.PTCONT.1584790",
      "street": "R GEORGE ROSADO",
      "house": "",
      "postcode": "8800-381",
      "city": "TAVIRA",
      "lon": "-7.6530501205118835",
      "lat": "37.126550552516264"
    },
    {
      "id": "pt.ine.add.PTCONT.1596368",
      "street": "BR 1 MAIO",
      "house": "8",
      "postcode": "8800-381",
      "city": "TAVIRA",
      "lon": "-7.653445957353942",
      "lat": "37.12623678569996"
    },
    {
      "id": "pt.ine.add.PTCONT.1596369",
      "street": "R GEORGE ROSADO",
      "house": "",
      "postcode": "8800-381",
      "city": "TAVIRA",
      "lon": "-7.653445957353942",
      "lat": "37.12623678569996"
    },
    {
      "id": "pt.ine.add.PTCONT.1596370",
      "street": "R GEORGE ROSADO",
      "house": "",
      "postcode": "8800-381",
      "city": "TAVIRA",
      "lon": "-7.653445957353942",
      "lat": "37.12623678569996"
    },
    {
      "id": "pt.ine.add.PTCONT.1596371",
      "street": "R GEORGE ROSADO",
      "house": "",
      "postcode": "8800-381",
      "city": "TAVIRA",
      "lon": "-7.653445957353942",
      "lat": "37.12623678569996"
    },
    {
      "id": "pt.ine.add.PTCONT.1596372",
      "street": "R GEORGE ROSADO",
      "house": "",
      "postcode": "8800-381",
      "city": "TAVIRA",
      "lon": "-7.653445957353942",
      "lat": "37.12623678569996"
    },
    {
      "id": "pt.ine.add.PTCONT.1638572",
      "street": "R GEORGE ROSADO",
      "house": "",
      "postcode": "8800-381",
      "city": "TAVIRA",
      "lon": "-7.653003345134109",
      "lat": "37.126829689968424"
    },
    {
      "id": "pt.ine.add.PTCONT.1638573",
      "street": "R GEORGE ROSADO",
      "house": "",
      "postcode": "8800-381",
      "city": "TAVIRA",
      "lon": "-7.653003345134109",
      "lat": "37.126829689968424"
    },
    {
      "id": "pt.ine.add.PTCONT.1638574",
      "street": "R GEORGE ROSADO",
      "house": "",
      "postcode": "8800-381",
      "city": "TAVIRA",
      "lon": "-7.653003345134109",
      "lat": "37.126829689968424"
    },
    {
      "id": "pt.ine.add.PTCONT.1640148",
      "street": "R GEORGE ROSADO",
      "house": "",
      "postcode": "8800-381",
      "city": "TAVIRA",
      "lon": "-7.653003345134109",
      "lat": "37.126829689968424"
    },
    {
      "id": "pt.ine.add.PTCONT.1651742",
      "street": "R GEORGE ROSADO",
      "house": "",
      "postcode": "8800-381",
      "city": "TAVIRA",
      "lon": "-7.65336633528616",
      "lat": "37.126371621691355"
    },
    {
      "id": "pt.ine.add.PTCONT.1651743",
      "street": "R GEORGE ROSADO",
      "house": "",
      "postcode": "8800-381",
      "city": "TAVIRA",
      "lon": "-7.65336633528616",
      "lat": "37.126371621691355"
    },
    {
      "id": "pt.ine.add.PTCONT.1651744",
      "street": "R GEORGE ROSADO",
      "house": "",
      "postcode": "8800-381",
      "city": "TAVIRA",
      "lon": "-7.65336633528616",
      "lat": "37.126371621691355"
    },
    {
      "id": "pt.ine.add.PTCONT.1651950",
      "street": "R GEORGE ROSADO",
      "house": "",
      "postcode": "8800-381",
      "city": "TAVIRA",
      "lon": "-7.65336633528616",
      "lat": "37.126371621691355"
    },
    {
      "id": "pt.ine.add.PTCONT.1725795",
      "street": "R GEORGE ROSADO",
      "house": "",
      "postcode": "8800-381",
      "city": "TAVIRA",
      "lon": "-7.653229709623634",
      "lat": "37.1266233639731"
    },
    {
      "id": "pt.ine.add.PTCONT.1725796",
      "street": "R GEORGE ROSADO",
      "house": "",
      "postcode": "8800-381",
      "city": "TAVIRA",
      "lon": "-7.653229709623634",
      "lat": "37.1266233639731"
    },
    {
      "id": "pt.ine.add.PTCONT.1725797",
      "street": "R GEORGE ROSADO",
      "house": "",
      "postcode": "8800-381",
      "city": "TAVIRA",
      "lon": "-7.653229709623634",
      "lat": "37.1266233639731"
    },
    {
      "id": "pt.ine.add.PTCONT.1725798",
      "street": "R GEORGE ROSADO",
      "house": "",
      "postcode": "8800-381",
      "city": "TAVIRA",
      "lon": "-7.653229709623634",
      "lat": "37.1266233639731"
    },
    {
      "id": "pt.ine.add.PTCONT.1743567",
      "street": "R 1 MAIO",
      "house": "14",
      "postcode": "8800-360",
      "city": "TAVIRA",
      "lon": "-7.653357300520061",
      "lat": "37.12602017386462"
    },
    {
      "id": "pt.ine.add.PTCONT.1743568",
      "street": "R 1 MAIO",
      "house": "14",
      "postcode": "8800-360",
      "city": "TAVIRA",
      "lon": "-7.653357300520061",
      "lat": "37.12602017386462"
    },
    {
      "id": "pt.ine.add.PTCONT.1743569",
      "street": "R GEORGE ROSADO",
      "house": "14",
      "postcode": "8800-381",
      "city": "TAVIRA",
      "lon": "-7.653357300520061",
      "lat": "37.12602017386462"
    },
    {
      "id": "pt.ine.add.PTCONT.1743922",
      "street": "R 1 MAIO",
      "house": "14",
      "postcode": "8800-360",
      "city": "TAVIRA",
      "lon": "-7.653357300520061",
      "lat": "37.12602017386462"
    },
    {
      "id": "pt.ine.add.PTCONT.1746445",
      "street": "R PELAMES",
      "house": "",
      "postcode": "8800-411",
      "city": "TAVIRA",
      "lon": "-7.652316867145573",
      "lat": "37.12683591839244"
    },
    {
      "id": "pt.ine.add.PTCONT.1761769",
      "street": "R GEORGE ROSADO",
      "house": "",
      "postcode": "8800-381",
      "city": "TAVIRA",
      "lon": "-7.652823471080799",
      "lat": "37.126801929736814"
    },
    {
      "id": "pt.ine.add.PTCONT.1761770",
      "street": "R GEORGE ROSADO",
      "house": "",
      "postcode": "8800-381",
      "city": "TAVIRA",
      "lon": "-7.652823471080799",
      "lat": "37.126801929736814"
    },
    {
      "id": "pt.ine.add.PTCONT.1761771",
      "street": "R GEORGE ROSADO",
      "house": "",
      "postcode": "8800-381",
      "city": "TAVIRA",
      "lon": "-7.652823471080799",
      "lat": "37.126801929736814"
    },
    {
      "id": "pt.ine.add.PTCONT.1761772",
      "street": "R GEORGE ROSADO",
      "house": "",
      "postcode": "8800-381",
      "city": "TAVIRA",
      "lon": "-7.652823471080799",
      "lat": "37.126801929736814"
    },
    {
      "id": "pt.ine.add.PTCONT.1773938",
      "street": "R GEORGE ROSADO",
      "house": "",
      "postcode": "8800-381",
      "city": "TAVIRA",
      "lon": "-7.653129686430883",
      "lat": "37.1264247270611"
    },
    {
      "id": "pt.ine.add.PTCONT.1773939",
      "street": "R GEORGE ROSADO",
      "house": "",
      "postcode": "8800-381",
      "city": "TAVIRA",
      "lon": "-7.653129686430883",
      "lat": "37.1264247270611"
    },
    {
      "id": "pt.ine.add.PTCONT.1773940",
      "street": "R GEORGE ROSADO",
      "house": "",
      "postcode": "8800-381",
      "city": "TAVIRA",
      "lon": "-7.653129686430883",
      "lat": "37.1264247270611"
    },
    {
      "id": "pt.ine.add.PTCONT.1774004",
      "street": "R GEORGE ROSADO",
      "house": "",
      "postcode": "8800-381",
      "city": "TAVIRA",
      "lon": "-7.653129686430883",
      "lat": "37.1264247270611"
    },
    {
      "id": "pt.ine.add.PTCONT.1838917",
      "street": "R GEORGE ROSADO",
      "house": "12",
      "postcode": "8800-381",
      "city": "TAVIRA",
      "lon": "-7.653209308973391",
      "lat": "37.1262898912332"
    },
    {
      "id": "pt.ine.add.PTCONT.1840286",
      "street": "R GEORGE ROSADO",
      "house": "",
      "postcode": "8800-381",
      "city": "TAVIRA",
      "lon": "-7.653445957353942",
      "lat": "37.12623678569996"
    }
  ]
}