{
  "data": {
    "distrito": "Faro",
    "concelho": "Albufeira",
    "freguesia": "Albufeira e Olhos de Água",
    "OBJECTID": 539,
    "BGRI2021": "08010604001",
    "DT21": "08",
    "DTMN21": "0801",
    "DTMNFR21": "080106",
    "DTMNFRSEC21": "080106040",
    "SECNUM21": "040",
    "SSNUM21": "01",
    "SECSSNUM21": "04001",
    "OBJECTID_1": 64743,
    "DT": "08",
    "CC": "01",
    "fr": "06",
    "SEC": "040",
    "SS": "01"
  },
  "addresses": [
    {
      "id": "pt.ine.add.PTCONT.1472181",
      "street": "SIT PATROVES",
      "house": "995 A",
      "postcode": "8200-373",
      "city": "ALBUFEIRA",
      "lon": "-8.292890466365893",
      "lat": "37.08838972768764"
    },
    {
      "id": "pt.ine.add.PTCONT.1472301",
      "street": "CERRO DA AGUIA",
      "house": "7",
      "postcode": "8200-318",
      "city": "ALBUFEIRA",
      "lon": "-8.282095749262858",
      "lat": "37.091228741312136"
    },
    {
      "id": "pt.ine.add.PTCONT.1478591",
      "street": "CERRO DA AGUIA",
      "house": "30",
      "postcode": "8200-318",
      "city": "ALBUFEIRA",
      "lon": "-8.282341892723512",
      "lat": "37.08970318537731"
    },
    {
      "id": "pt.ine.add.PTCONT.1483972",
      "street": "CERRO DA AGUIA",
      "house": "13",
      "postcode": "8200-318",
      "city": "ALBUFEIRA",
      "lon": "-8.282232924721242",
      "lat": "37.090887897730596"
    },
    {
      "id": "pt.ine.add.PTCONT.1489797",
      "street": "CERRO DA AGUIA",
      "house": "12",
      "postcode": "8200-318",
      "city": "ALBUFEIRA",
      "lon": "-8.280884181241985",
      "lat": "37.09150496931499"
    },
    {
      "id": "pt.ine.add.PTCONT.1489798",
      "street": "CERRO DA AGUIA",
      "house": "",
      "postcode": "8200-318",
      "city": "ALBUFEIRA",
      "lon": "-8.281660007492864",
      "lat": "37.09135982920959"
    },
    {
      "id": "pt.ine.add.PTCONT.1500848",
      "street": "CAM CERRO DA AGUIA",
      "house": "",
      "postcode": "8200-310",
      "city": "ALBUFEIRA",
      "lon": "-8.281204164684508",
      "lat": "37.08831478985365"
    },
    {
      "id": "pt.ine.add.PTCONT.1500849",
      "street": "CERRO DA AGUIA",
      "house": "24",
      "postcode": "8200-318",
      "city": "ALBUFEIRA",
      "lon": "-8.282317400090285",
      "lat": "37.09006941468427"
    },
    {
      "id": "pt.ine.add.PTCONT.1502913",
      "street": "",
      "house": "",
      "postcode": "8200-373",
      "city": "ALBUFEIRA",
      "lon": "-8.288435161835762",
      "lat": "37.087755888221785"
    },
    {
      "id": "pt.ine.add.PTCONT.1504621",
      "street": "CERRO DA AGUIA",
      "house": "38",
      "postcode": "8200-318",
      "city": "ALBUFEIRA",
      "lon": "-8.27896066297439",
      "lat": "37.09144427584338"
    },
    {
      "id": "pt.ine.add.PTCONT.1504623",
      "street": "CERRO DA AGUIA",
      "house": "2A",
      "postcode": "8200-318",
      "city": "ALBUFEIRA",
      "lon": "-8.282306064683613",
      "lat": "37.090307000884515"
    },
    {
      "id": "pt.ine.add.PTCONT.1507407",
      "street": "BC AGUIA NEGRA",
      "house": "11",
      "postcode": "8200-373",
      "city": "ALBUFEIRA",
      "lon": "-8.286246980676035",
      "lat": "37.09027271352397"
    },
    {
      "id": "pt.ine.add.PTCONT.1507414",
      "street": "EM 526",
      "house": "",
      "postcode": "8200-373",
      "city": "ALBUFEIRA",
      "lon": "-8.289782844248728",
      "lat": "37.086780961853954"
    },
    {
      "id": "pt.ine.add.PTCONT.1510243",
      "street": "",
      "house": "",
      "postcode": "8200-318",
      "city": "ALBUFEIRA",
      "lon": "-8.278679481974505",
      "lat": "37.091453632000956"
    },
    {
      "id": "pt.ine.add.PTCONT.1510249",
      "street": "CERRO DA AGUIA",
      "house": "6",
      "postcode": "8200-318",
      "city": "ALBUFEIRA",
      "lon": "-8.282073446635556",
      "lat": "37.091327458764695"
    },
    {
      "id": "pt.ine.add.PTCONT.1515567",
      "street": "",
      "house": "",
      "postcode": "8200-373",
      "city": "ALBUFEIRA",
      "lon": "-8.28739026961659",
      "lat": "37.088306903661575"
    },
    {
      "id": "pt.ine.add.PTCONT.1515582",
      "street": "URB ÁGUIA NEGRA",
      "house": "8",
      "postcode": "8200-373",
      "city": "ALBUFEIRA",
      "lon": "-8.286640106709976",
      "lat": "37.09000188489743"
    },
    {
      "id": "pt.ine.add.PTCONT.1520131",
      "street": "",
      "house": "",
      "postcode": "8200-318",
      "city": "ALBUFEIRA",
      "lon": "-8.283405678739884",
      "lat": "37.086798225692455"
    },
    {
      "id": "pt.ine.add.PTCONT.1520132",
      "street": "R AGUIA PESQUEIRA",
      "house": "",
      "postcode": "8200-319",
      "city": "ALBUFEIRA",
      "lon": "-8.278746417792108",
      "lat": "37.091165208155964"
    },
    {
      "id": "pt.ine.add.PTCONT.1523941",
      "street": "R AGUIA IMPERIAL IBERICA",
      "house": "",
      "postcode": "8200-319",
      "city": "ALBUFEIRA",
      "lon": "-8.276346513594996",
      "lat": "37.088987546740526"
    },
    {
      "id": "pt.ine.add.PTCONT.1523979",
      "street": "EM 526 QUINTA DOS GUERREIROS",
      "house": "",
      "postcode": "8200-373",
      "city": "ALBUFEIRA",
      "lon": "-8.288737256696038",
      "lat": "37.086980573543926"
    },
    {
      "id": "pt.ine.add.PTCONT.1524850",
      "street": "R AGUIA IMPERIAL IBERICA",
      "house": "",
      "postcode": "8200-319",
      "city": "ALBUFEIRA",
      "lon": "-8.277282638975393",
      "lat": "37.0903470250257"
    },
    {
      "id": "pt.ine.add.PTCONT.1528123",
      "street": "R AGUIA IMPERIAL IBERICA",
      "house": "",
      "postcode": "8200-319",
      "city": "ALBUFEIRA",
      "lon": "-8.277644381398272",
      "lat": "37.091301716552984"
    },
    {
      "id": "pt.ine.add.PTCONT.1528124",
      "street": "",
      "house": "",
      "postcode": "8200-318",
      "city": "ALBUFEIRA",
      "lon": "-8.283968772937229",
      "lat": "37.087166948755176"
    },
    {
      "id": "pt.ine.add.PTCONT.1528125",
      "street": "R AGUIA PESQUEIRA",
      "house": "",
      "postcode": "8200-319",
      "city": "ALBUFEIRA",
      "lon": "-8.280162537389705",
      "lat": "37.09058677727255"
    },
    {
      "id": "pt.ine.add.PTCONT.1533254",
      "street": "",
      "house": "",
      "postcode": "8200-373",
      "city": "ALBUFEIRA",
      "lon": "-8.28857948212361",
      "lat": "37.0868275988745"
    },
    {
      "id": "pt.ine.add.PTCONT.1533255",
      "street": "BC AGUIA NEGRA",
      "house": "",
      "postcode": "8200-373",
      "city": "ALBUFEIRA",
      "lon": "-8.287304068560143",
      "lat": "37.09017222635289"
    },
    {
      "id": "pt.ine.add.PTCONT.1539265",
      "street": "R AGUIA IMPERIAL IBERICA",
      "house": "",
      "postcode": "8200-319",
      "city": "ALBUFEIRA",
      "lon": "-8.277552038184309",
      "lat": "37.09005835548992"
    },
    {
      "id": "pt.ine.add.PTCONT.1539266",
      "street": "",
      "house": "",
      "postcode": "8200-318",
      "city": "ALBUFEIRA",
      "lon": "-8.28317305730187",
      "lat": "37.08860966733619"
    },
    {
      "id": "pt.ine.add.PTCONT.1539267",
      "street": "CERRO DA AGUIA",
      "house": "1",
      "postcode": "8200-318",
      "city": "ALBUFEIRA",
      "lon": "-8.281966572821938",
      "lat": "37.09164181777242"
    },
    {
      "id": "pt.ine.add.PTCONT.1539268",
      "street": "CERRO DA AGUIA",
      "house": "8",
      "postcode": "8200-318",
      "city": "ALBUFEIRA",
      "lon": "-8.282109199715233",
      "lat": "37.09116851056617"
    },
    {
      "id": "pt.ine.add.PTCONT.1541704",
      "street": "",
      "house": "",
      "postcode": "8200-373",
      "city": "ALBUFEIRA",
      "lon": "-8.28775854326951",
      "lat": "37.08688273630869"
    },
    {
      "id": "pt.ine.add.PTCONT.1542228",
      "street": "SIT PATROVES",
      "house": "CP 784 P",
      "postcode": "8200-373",
      "city": "ALBUFEIRA",
      "lon": "-8.290464197976101",
      "lat": "37.08993379782966"
    },
    {
      "id": "pt.ine.add.PTCONT.1542347",
      "street": "QTA FABIANA",
      "house": "",
      "postcode": "8200-373",
      "city": "ALBUFEIRA",
      "lon": "-8.29096922314625",
      "lat": "37.08939248598015"
    },
    {
      "id": "pt.ine.add.PTCONT.1542348",
      "street": "QTA FABIANA",
      "house": "",
      "postcode": "8200-373",
      "city": "ALBUFEIRA",
      "lon": "-8.29096922314625",
      "lat": "37.08939248598015"
    },
    {
      "id": "pt.ine.add.PTCONT.1542349",
      "street": "QTA FABIANA",
      "house": "",
      "postcode": "8200-373",
      "city": "ALBUFEIRA",
      "lon": "-8.29096922314625",
      "lat": "37.08939248598015"
    },
    {
      "id": "pt.ine.add.PTCONT.1542450",
      "street": "R AGUIA IMPERIAL IBERICA",
      "house": "",
      "postcode": "8200-319",
      "city": "ALBUFEIRA",
      "lon": "-8.277619610077819",
      "lat": "37.09010332656501"
    },
    {
      "id": "pt.ine.add.PTCONT.1544870",
      "street": "",
      "house": "",
      "postcode": "8200-373",
      "city": "ALBUFEIRA",
      "lon": "-8.288197791879826",
      "lat": "37.08717951523823"
    },
    {
      "id": "pt.ine.add.PTCONT.1550693",
      "street": "URB ÁGUIA NEGRA",
      "house": "10",
      "postcode": "8200-373",
      "city": "ALBUFEIRA",
      "lon": "-8.286427398499496",
      "lat": "37.090497747352856"
    },
    {
      "id": "pt.ine.add.PTCONT.1550694",
      "street": "URB ÁGUIA NEGRA",
      "house": "3",
      "postcode": "8200-373",
      "city": "ALBUFEIRA",
      "lon": "-8.287776308708022",
      "lat": "37.0900905153059"
    },
    {
      "id": "pt.ine.add.PTCONT.1550695",
      "street": "URB ÁGUIA NEGRA",
      "house": "23",
      "postcode": "8200-373",
      "city": "ALBUFEIRA",
      "lon": "-8.28707752797138",
      "lat": "37.08938859166843"
    },
    {
      "id": "pt.ine.add.PTCONT.1550696",
      "street": "BC AGUIA NEGRA",
      "house": "",
      "postcode": "8200-373",
      "city": "ALBUFEIRA",
      "lon": "-8.287416582466626",
      "lat": "37.090190101364236"
    },
    {
      "id": "pt.ine.add.PTCONT.1550913",
      "street": "",
      "house": "",
      "postcode": "8200-318",
      "city": "ALBUFEIRA",
      "lon": "-8.283824966712999",
      "lat": "37.088383573635014"
    },
    {
      "id": "pt.ine.add.PTCONT.1550914",
      "street": "CERRO DA AGUIA",
      "house": "9",
      "postcode": "8200-318",
      "city": "ALBUFEIRA",
      "lon": "-8.282139982243855",
      "lat": "37.09111412579149"
    },
    {
      "id": "pt.ine.add.PTCONT.1556925",
      "street": "CERRO DA AGUIA",
      "house": "",
      "postcode": "8200-318",
      "city": "ALBUFEIRA",
      "lon": "-8.278903819180641",
      "lat": "37.09112897204544"
    },
    {
      "id": "pt.ine.add.PTCONT.1559032",
      "street": "CAM CERRO DA AGUIA",
      "house": "",
      "postcode": "8200-310",
      "city": "ALBUFEIRA",
      "lon": "-8.279314624955665",
      "lat": "37.08833515571312"
    },
    {
      "id": "pt.ine.add.PTCONT.1561349",
      "street": "CAM CERRO DA AGUIA",
      "house": "",
      "postcode": "8200-310",
      "city": "ALBUFEIRA",
      "lon": "-8.279989751329685",
      "lat": "37.0884784923886"
    },
    {
      "id": "pt.ine.add.PTCONT.1561350",
      "street": "CERRO DA AGUIA",
      "house": "10",
      "postcode": "8200-318",
      "city": "ALBUFEIRA",
      "lon": "-8.282160050294092",
      "lat": "37.09105875248788"
    },
    {
      "id": "pt.ine.add.PTCONT.1563794",
      "street": "CAM CERRO DA AGUIA",
      "house": "",
      "postcode": "8200-310",
      "city": "ALBUFEIRA",
      "lon": "-8.278572240281278",
      "lat": "37.088309036564524"
    },
    {
      "id": "pt.ine.add.PTCONT.1565552",
      "street": "URB ÁGUIA NEGRA",
      "house": "5",
      "postcode": "8200-373",
      "city": "ALBUFEIRA",
      "lon": "-8.287370605311695",
      "lat": "37.089703584563125"
    },
    {
      "id": "pt.ine.add.PTCONT.1565718",
      "street": "R AGUIA IMPERIAL IBERICA",
      "house": "",
      "postcode": "8200-319",
      "city": "ALBUFEIRA",
      "lon": "-8.277552174988623",
      "lat": "37.09013044075489"
    },
    {
      "id": "pt.ine.add.PTCONT.1565720",
      "street": "CAM CERRO DA AGUIA",
      "house": "",
      "postcode": "8200-310",
      "city": "ALBUFEIRA",
      "lon": "-8.279404206383415",
      "lat": "37.08812779956607"
    },
    {
      "id": "pt.ine.add.PTCONT.1565721",
      "street": "CAM CERRO DA AGUIA",
      "house": "",
      "postcode": "8200-310",
      "city": "ALBUFEIRA",
      "lon": "-8.28143948348536",
      "lat": "37.08786396168914"
    },
    {
      "id": "pt.ine.add.PTCONT.1568672",
      "street": "URB ÁGUIA NEGRA",
      "house": "15",
      "postcode": "8200-373",
      "city": "ALBUFEIRA",
      "lon": "-8.28544736222492",
      "lat": "37.089760134710396"
    },
    {
      "id": "pt.ine.add.PTCONT.1568673",
      "street": "",
      "house": "",
      "postcode": "8200-373",
      "city": "ALBUFEIRA",
      "lon": "-8.286888721556664",
      "lat": "37.09057824614615"
    },
    {
      "id": "pt.ine.add.PTCONT.1576697",
      "street": "R AGUIA PESQUEIRA",
      "house": "39",
      "postcode": "8200-319",
      "city": "ALBUFEIRA",
      "lon": "-8.279319488835311",
      "lat": "37.09086715065703"
    },
    {
      "id": "pt.ine.add.PTCONT.1576698",
      "street": "CERRO DA AGUIA",
      "house": "16",
      "postcode": "8200-318",
      "city": "ALBUFEIRA",
      "lon": "-8.281266190119126",
      "lat": "37.091288236447426"
    },
    {
      "id": "pt.ine.add.PTCONT.1576780",
      "street": "",
      "house": "",
      "postcode": "8200-373",
      "city": "ALBUFEIRA",
      "lon": "-8.287650498008661",
      "lat": "37.08906346195969"
    },
    {
      "id": "pt.ine.add.PTCONT.1577445",
      "street": "",
      "house": "",
      "postcode": "8200-318",
      "city": "ALBUFEIRA",
      "lon": "-8.283744879125274",
      "lat": "37.08769886360176"
    },
    {
      "id": "pt.ine.add.PTCONT.1580857",
      "street": "CERRO DA AGUIA",
      "house": "12",
      "postcode": "8200-318",
      "city": "ALBUFEIRA",
      "lon": "-8.28220267662133",
      "lat": "37.09094228095837"
    },
    {
      "id": "pt.ine.add.PTCONT.1583139",
      "street": "R AGUIA IMPERIAL IBERICA",
      "house": "",
      "postcode": "8200-319",
      "city": "ALBUFEIRA",
      "lon": "-8.276751919171335",
      "lat": "37.089248366137504"
    },
    {
      "id": "pt.ine.add.PTCONT.1585638",
      "street": "R AGUIA PESQUEIRA",
      "house": "42",
      "postcode": "8200-319",
      "city": "ALBUFEIRA",
      "lon": "-8.279376974892532",
      "lat": "37.09151584851903"
    },
    {
      "id": "pt.ine.add.PTCONT.1585639",
      "street": "R AGUIA PESQUEIRA",
      "house": "41",
      "postcode": "8200-319",
      "city": "ALBUFEIRA",
      "lon": "-8.279567687005633",
      "lat": "37.091254303520174"
    },
    {
      "id": "pt.ine.add.PTCONT.1585761",
      "street": "",
      "house": "",
      "postcode": "8200-373",
      "city": "ALBUFEIRA",
      "lon": "-8.28671551284454",
      "lat": "37.088352832938966"
    },
    {
      "id": "pt.ine.add.PTCONT.1588227",
      "street": "",
      "house": "975 A",
      "postcode": "8200-373",
      "city": "ALBUFEIRA",
      "lon": "-8.290019203341155",
      "lat": "37.08686174551674"
    },
    {
      "id": "pt.ine.add.PTCONT.1591728",
      "street": "CERRO DA AGUIA",
      "house": "",
      "postcode": "8200-318",
      "city": "ALBUFEIRA",
      "lon": "-8.28049948285245",
      "lat": "37.09033405999995"
    },
    {
      "id": "pt.ine.add.PTCONT.1591729",
      "street": "CERRO DA AGUIA",
      "house": "",
      "postcode": "8200-318",
      "city": "ALBUFEIRA",
      "lon": "-8.280296570026739",
      "lat": "37.09010003437173"
    },
    {
      "id": "pt.ine.add.PTCONT.1591730",
      "street": "CERRO DA AGUIA",
      "house": "8",
      "postcode": "8200-318",
      "city": "ALBUFEIRA",
      "lon": "-8.28051251065503",
      "lat": "37.09125313291861"
    },
    {
      "id": "pt.ine.add.PTCONT.1594266",
      "street": "",
      "house": "",
      "postcode": "8200-373",
      "city": "ALBUFEIRA",
      "lon": "-8.288096125906504",
      "lat": "37.08696339176662"
    },
    {
      "id": "pt.ine.add.PTCONT.1597472",
      "street": "EM 526 QUINTA DOS GUERREIROS",
      "house": "",
      "postcode": "8200-373",
      "city": "ALBUFEIRA",
      "lon": "-8.288524662523281",
      "lat": "37.08752149325083"
    },
    {
      "id": "pt.ine.add.PTCONT.1597624",
      "street": "CERRO DA AGUIA",
      "house": "18",
      "postcode": "8200-318",
      "city": "ALBUFEIRA",
      "lon": "-8.282287316351423",
      "lat": "37.09049036833822"
    },
    {
      "id": "pt.ine.add.PTCONT.1602471",
      "street": "R AGUIA IMPERIAL IBERICA",
      "house": "",
      "postcode": "8200-319",
      "city": "ALBUFEIRA",
      "lon": "-8.2773065514684",
      "lat": "37.09109488222846"
    },
    {
      "id": "pt.ine.add.PTCONT.1604089",
      "street": "CAM CERRO DA AGUIA",
      "house": "",
      "postcode": "8200-310",
      "city": "ALBUFEIRA",
      "lon": "-8.280079679057124",
      "lat": "37.08845134893513"
    },
    {
      "id": "pt.ine.add.PTCONT.1604090",
      "street": "CERRO DA AGUIA",
      "house": "26",
      "postcode": "8200-318",
      "city": "ALBUFEIRA",
      "lon": "-8.28231347666075",
      "lat": "37.089947669134055"
    },
    {
      "id": "pt.ine.add.PTCONT.1604091",
      "street": "CERRO DA AGUIA",
      "house": "22",
      "postcode": "8200-318",
      "city": "ALBUFEIRA",
      "lon": "-8.282316867931089",
      "lat": "37.090205893791314"
    },
    {
      "id": "pt.ine.add.PTCONT.1605587",
      "street": "QTA FERNANDO - VILA CIDÁLIA",
      "house": "",
      "postcode": "8200-373",
      "city": "ALBUFEIRA",
      "lon": "-8.28846951089457",
      "lat": "37.08805319570399"
    },
    {
      "id": "pt.ine.add.PTCONT.1605593",
      "street": "QTA FERNANDO - VILA CIDÁLIA",
      "house": "",
      "postcode": "8200-373",
      "city": "ALBUFEIRA",
      "lon": "-8.28846951089457",
      "lat": "37.08805319570399"
    },
    {
      "id": "pt.ine.add.PTCONT.1605880",
      "street": "CAM CERRO DA AGUIA",
      "house": "",
      "postcode": "8200-310",
      "city": "ALBUFEIRA",
      "lon": "-8.277582189581763",
      "lat": "37.088166075870724"
    },
    {
      "id": "pt.ine.add.PTCONT.1606252",
      "street": "",
      "house": "",
      "postcode": "8200-373",
      "city": "ALBUFEIRA",
      "lon": "-8.288344410984134",
      "lat": "37.08737755841818"
    },
    {
      "id": "pt.ine.add.PTCONT.1610973",
      "street": "URB ÁGUIA NEGRA",
      "house": "24",
      "postcode": "8200-373",
      "city": "ALBUFEIRA",
      "lon": "-8.287336077192588",
      "lat": "37.089316170285315"
    },
    {
      "id": "pt.ine.add.PTCONT.1611692",
      "street": "CERRO DA AGUIA",
      "house": "",
      "postcode": "8200-318",
      "city": "ALBUFEIRA",
      "lon": "-8.280680076041156",
      "lat": "37.09065821982428"
    },
    {
      "id": "pt.ine.add.PTCONT.1613872",
      "street": "URB ÁGUIA NEGRA",
      "house": "7",
      "postcode": "8200-373",
      "city": "ALBUFEIRA",
      "lon": "-8.286707011086758",
      "lat": "37.08971345655932"
    },
    {
      "id": "pt.ine.add.PTCONT.1616287",
      "street": "CERRO DA AGUIA",
      "house": "37",
      "postcode": "8200-318",
      "city": "ALBUFEIRA",
      "lon": "-8.278825687822316",
      "lat": "37.09144444176756"
    },
    {
      "id": "pt.ine.add.PTCONT.1616429",
      "street": "CERRO DA AGUIA",
      "house": "11",
      "postcode": "8200-318",
      "city": "ALBUFEIRA",
      "lon": "-8.282182436786156",
      "lat": "37.09100294825892"
    },
    {
      "id": "pt.ine.add.PTCONT.1616653",
      "street": "CERRO DA AGUIA",
      "house": "2",
      "postcode": "8200-318",
      "city": "ALBUFEIRA",
      "lon": "-8.279703512262923",
      "lat": "37.09169565885477"
    },
    {
      "id": "pt.ine.add.PTCONT.1617868",
      "street": "",
      "house": "",
      "postcode": "8200-373",
      "city": "ALBUFEIRA",
      "lon": "-8.290428778652107",
      "lat": "37.08912288376979"
    },
    {
      "id": "pt.ine.add.PTCONT.1620496",
      "street": "CERRO DA AGUIA",
      "house": "14",
      "postcode": "8200-318",
      "city": "ALBUFEIRA",
      "lon": "-8.281379652223576",
      "lat": "37.091792692518716"
    },
    {
      "id": "pt.ine.add.PTCONT.1626786",
      "street": "URB ÁGUIA NEGRA",
      "house": "19",
      "postcode": "8200-373",
      "city": "ALBUFEIRA",
      "lon": "-8.285694160808287",
      "lat": "37.08943543299462"
    },
    {
      "id": "pt.ine.add.PTCONT.1626787",
      "street": "EM 526",
      "house": "",
      "postcode": "8200-373",
      "city": "ALBUFEIRA",
      "lon": "-8.293363410290617",
      "lat": "37.08865039926138"
    },
    {
      "id": "pt.ine.add.PTCONT.1626788",
      "street": "EM 526",
      "house": "",
      "postcode": "8200-373",
      "city": "ALBUFEIRA",
      "lon": "-8.293363410290617",
      "lat": "37.08865039926138"
    },
    {
      "id": "pt.ine.add.PTCONT.1632999",
      "street": "CM 1282-2",
      "house": "670 P",
      "postcode": "8200-373",
      "city": "ALBUFEIRA",
      "lon": "-8.290452726743693",
      "lat": "37.08982568491603"
    },
    {
      "id": "pt.ine.add.PTCONT.1635933",
      "street": "EM 526",
      "house": "",
      "postcode": "8200-373",
      "city": "ALBUFEIRA",
      "lon": "-8.288387562144605",
      "lat": "37.08647643367421"
    },
    {
      "id": "pt.ine.add.PTCONT.1635934",
      "street": "URB ÁGUIA NEGRA",
      "house": "22",
      "postcode": "8200-373",
      "city": "ALBUFEIRA",
      "lon": "-8.286549016917068",
      "lat": "37.08945235139928"
    },
    {
      "id": "pt.ine.add.PTCONT.1637808",
      "street": "CERRO DA AGUIA",
      "house": "",
      "postcode": "8200-318",
      "city": "ALBUFEIRA",
      "lon": "-8.280454334796229",
      "lat": "37.090253019997625"
    },
    {
      "id": "pt.ine.add.PTCONT.1637809",
      "street": "CERRO DA AGUIA",
      "house": "",
      "postcode": "8200-318",
      "city": "ALBUFEIRA",
      "lon": "-8.28038672622765",
      "lat": "37.09019002922912"
    },
    {
      "id": "pt.ine.add.PTCONT.1640161",
      "street": "CERRO DA AGUIA",
      "house": "8",
      "postcode": "8200-318",
      "city": "ALBUFEIRA",
      "lon": "-8.281825345699335",
      "lat": "37.08962957183795"
    },
    {
      "id": "pt.ine.add.PTCONT.1640808",
      "street": "R AGUIA IMPERIAL IBERICA",
      "house": "",
      "postcode": "8200-319",
      "city": "ALBUFEIRA",
      "lon": "-8.276009357241579",
      "lat": "37.089132124366685"
    },
    {
      "id": "pt.ine.add.PTCONT.1643547",
      "street": "",
      "house": "",
      "postcode": "8200-373",
      "city": "ALBUFEIRA",
      "lon": "-8.287114151556112",
      "lat": "37.090812231216724"
    },
    {
      "id": "pt.ine.add.PTCONT.1643687",
      "street": "",
      "house": "",
      "postcode": "8200-318",
      "city": "ALBUFEIRA",
      "lon": "-8.282914577423533",
      "lat": "37.08871812228788"
    },
    {
      "id": "pt.ine.add.PTCONT.1647572",
      "street": "BC AGUIA NEGRA",
      "house": "13",
      "postcode": "8200-373",
      "city": "ALBUFEIRA",
      "lon": "-8.285976455481682",
      "lat": "37.08998472084727"
    },
    {
      "id": "pt.ine.add.PTCONT.1647573",
      "street": "BC AGUIA NEGRA",
      "house": "",
      "postcode": "8200-373",
      "city": "ALBUFEIRA",
      "lon": "-8.286999869524857",
      "lat": "37.08992032249994"
    },
    {
      "id": "pt.ine.add.PTCONT.1648882",
      "street": "CERRO DA AGUIA",
      "house": "",
      "postcode": "8200-318",
      "city": "ALBUFEIRA",
      "lon": "-8.280713959279797",
      "lat": "37.090730263078214"
    },
    {
      "id": "pt.ine.add.PTCONT.1649642",
      "street": "URB ÁGUIA NEGRA",
      "house": "18",
      "postcode": "8200-373",
      "city": "ALBUFEIRA",
      "lon": "-8.28550307740466",
      "lat": "37.08949875344484"
    },
    {
      "id": "pt.ine.add.PTCONT.1649842",
      "street": "CERRO DA AGUIA",
      "house": "4",
      "postcode": "8200-318",
      "city": "ALBUFEIRA",
      "lon": "-8.282021034905592",
      "lat": "37.09145867498405"
    },
    {
      "id": "pt.ine.add.PTCONT.1652666",
      "street": "BC AGUIA NEGRA",
      "house": "",
      "postcode": "8200-373",
      "city": "ALBUFEIRA",
      "lon": "-8.287033940638628",
      "lat": "37.090082470487594"
    },
    {
      "id": "pt.ine.add.PTCONT.1658572",
      "street": "CERRO DA AGUIA",
      "house": "",
      "postcode": "8200-318",
      "city": "ALBUFEIRA",
      "lon": "-8.280623592476777",
      "lat": "37.09053214060643"
    },
    {
      "id": "pt.ine.add.PTCONT.1658582",
      "street": "CERRO DA AGUIA",
      "house": "",
      "postcode": "8200-318",
      "city": "ALBUFEIRA",
      "lon": "-8.281500498720817",
      "lat": "37.09031479033092"
    },
    {
      "id": "pt.ine.add.PTCONT.1660635",
      "street": "",
      "house": "",
      "postcode": "8200-373",
      "city": "ALBUFEIRA",
      "lon": "-8.287199208705015",
      "lat": "37.08837923750381"
    },
    {
      "id": "pt.ine.add.PTCONT.1663140",
      "street": "CERRO DA AGUIA",
      "house": "",
      "postcode": "8200-318",
      "city": "ALBUFEIRA",
      "lon": "-8.280479220598462",
      "lat": "37.0914874518854"
    },
    {
      "id": "pt.ine.add.PTCONT.1663141",
      "street": "CERRO DA AGUIA",
      "house": "2",
      "postcode": "8200-318",
      "city": "ALBUFEIRA",
      "lon": "-8.281969886232993",
      "lat": "37.0915795858839"
    },
    {
      "id": "pt.ine.add.PTCONT.1664232",
      "street": "CERRO DA AGUIA",
      "house": "3",
      "postcode": "8200-318",
      "city": "ALBUFEIRA",
      "lon": "-8.279928854008107",
      "lat": "37.09189361496308"
    },
    {
      "id": "pt.ine.add.PTCONT.1664233",
      "street": "CERRO DA AGUIA",
      "house": "3",
      "postcode": "8200-318",
      "city": "ALBUFEIRA",
      "lon": "-8.282007409388225",
      "lat": "37.09152262284097"
    },
    {
      "id": "pt.ine.add.PTCONT.1667256",
      "street": "CAM CERRO DA AGUIA",
      "house": "129 H",
      "postcode": "8200-310",
      "city": "ALBUFEIRA",
      "lon": "-8.278459765619253",
      "lat": "37.088309174467014"
    },
    {
      "id": "pt.ine.add.PTCONT.1667257",
      "street": "CAM CERRO DA AGUIA",
      "house": "129 H",
      "postcode": "8200-310",
      "city": "ALBUFEIRA",
      "lon": "-8.278459765619253",
      "lat": "37.088309174467014"
    },
    {
      "id": "pt.ine.add.PTCONT.1668021",
      "street": "URB ÁGUIA NEGRA",
      "house": "26",
      "postcode": "8200-373",
      "city": "ALBUFEIRA",
      "lon": "-8.287786329527032",
      "lat": "37.08948678679345"
    },
    {
      "id": "pt.ine.add.PTCONT.1669943",
      "street": "",
      "house": "",
      "postcode": "8200-373",
      "city": "ALBUFEIRA",
      "lon": "-8.291216053097411",
      "lat": "37.08909480477245"
    },
    {
      "id": "pt.ine.add.PTCONT.1670120",
      "street": "CAM CERRO DA AGUIA",
      "house": "",
      "postcode": "8200-310",
      "city": "ALBUFEIRA",
      "lon": "-8.277415134978282",
      "lat": "37.08904031533843"
    },
    {
      "id": "pt.ine.add.PTCONT.1672007",
      "street": "CERRO DA AGUIA",
      "house": "5",
      "postcode": "8200-318",
      "city": "ALBUFEIRA",
      "lon": "-8.282054138897843",
      "lat": "37.09140471532627"
    },
    {
      "id": "pt.ine.add.PTCONT.1672691",
      "street": "EM 526",
      "house": "",
      "postcode": "8200-373",
      "city": "ALBUFEIRA",
      "lon": "-8.290863531118001",
      "lat": "37.087239074067554"
    },
    {
      "id": "pt.ine.add.PTCONT.1675570",
      "street": "CERRO DA AGUIA",
      "house": "2",
      "postcode": "8200-318",
      "city": "ALBUFEIRA",
      "lon": "-8.281894822104464",
      "lat": "37.09064769135334"
    },
    {
      "id": "pt.ine.add.PTCONT.1677836",
      "street": "CERRO DA AGUIA",
      "house": "17",
      "postcode": "8200-318",
      "city": "ALBUFEIRA",
      "lon": "-8.282285114792279",
      "lat": "37.09055043898878"
    },
    {
      "id": "pt.ine.add.PTCONT.1678604",
      "street": "CAM CERRO DA AGUIA",
      "house": "",
      "postcode": "8200-310",
      "city": "ALBUFEIRA",
      "lon": "-8.277840812292938",
      "lat": "37.08812971780689"
    },
    {
      "id": "pt.ine.add.PTCONT.1678610",
      "street": "CERRO DA AGUIA",
      "house": "",
      "postcode": "8200-318",
      "city": "ALBUFEIRA",
      "lon": "-8.279478968852889",
      "lat": "37.09191219243426"
    },
    {
      "id": "pt.ine.add.PTCONT.1681392",
      "street": "BC AGUIA NEGRA",
      "house": "12",
      "postcode": "8200-373",
      "city": "ALBUFEIRA",
      "lon": "-8.286167938358073",
      "lat": "37.09011963404111"
    },
    {
      "id": "pt.ine.add.PTCONT.1685915",
      "street": "R AGUIA NEGRA",
      "house": "",
      "postcode": "8200-373",
      "city": "ALBUFEIRA",
      "lon": "-8.288271649457567",
      "lat": "37.09030612451872"
    },
    {
      "id": "pt.ine.add.PTCONT.1686199",
      "street": "BC AGUIA NEGRA",
      "house": "",
      "postcode": "8200-373",
      "city": "ALBUFEIRA",
      "lon": "-8.28762959436082",
      "lat": "37.08984741825142"
    },
    {
      "id": "pt.ine.add.PTCONT.1689526",
      "street": "CERRO DA AGUIA",
      "house": "",
      "postcode": "8200-318",
      "city": "ALBUFEIRA",
      "lon": "-8.284127182550943",
      "lat": "37.08764431330819"
    },
    {
      "id": "pt.ine.add.PTCONT.1691750",
      "street": "BC AGUIA NEGRA",
      "house": "",
      "postcode": "8200-373",
      "city": "ALBUFEIRA",
      "lon": "-8.287585664329464",
      "lat": "37.09037009479343"
    },
    {
      "id": "pt.ine.add.PTCONT.1692343",
      "street": "SESMARIAS",
      "house": "962A",
      "postcode": "8200-385",
      "city": "ALBUFEIRA",
      "lon": "-8.287284862946423",
      "lat": "37.08624359452905"
    },
    {
      "id": "pt.ine.add.PTCONT.1692488",
      "street": "R AGUIA PESQUEIRA",
      "house": "22",
      "postcode": "8200-319",
      "city": "ALBUFEIRA",
      "lon": "-8.27987025091387",
      "lat": "37.09066823544482"
    },
    {
      "id": "pt.ine.add.PTCONT.1695538",
      "street": "R AGUIA PESQUEIRA",
      "house": "",
      "postcode": "8200-319",
      "city": "ALBUFEIRA",
      "lon": "-8.28055624536661",
      "lat": "37.090604309781796"
    },
    {
      "id": "pt.ine.add.PTCONT.1695539",
      "street": "CERRO DA AGUIA",
      "house": "1",
      "postcode": "8200-318",
      "city": "ALBUFEIRA",
      "lon": "-8.281805138898934",
      "lat": "37.09080098535333"
    },
    {
      "id": "pt.ine.add.PTCONT.1698107",
      "street": "",
      "house": "",
      "postcode": "8200-373",
      "city": "ALBUFEIRA",
      "lon": "-8.290329113896172",
      "lat": "37.089879912921674"
    },
    {
      "id": "pt.ine.add.PTCONT.1698108",
      "street": "",
      "house": "",
      "postcode": "8200-373",
      "city": "ALBUFEIRA",
      "lon": "-8.290329113896172",
      "lat": "37.089879912921674"
    },
    {
      "id": "pt.ine.add.PTCONT.1701338",
      "street": "CAM CERRO DA AGUIA",
      "house": "",
      "postcode": "8200-310",
      "city": "ALBUFEIRA",
      "lon": "-8.280349043520637",
      "lat": "37.08815366233079"
    },
    {
      "id": "pt.ine.add.PTCONT.1703773",
      "street": "",
      "house": "",
      "postcode": "8200-373",
      "city": "ALBUFEIRA",
      "lon": "-8.28901269088229",
      "lat": "37.08966539452873"
    },
    {
      "id": "pt.ine.add.PTCONT.1703902",
      "street": "",
      "house": "",
      "postcode": "8200-318",
      "city": "ALBUFEIRA",
      "lon": "-8.278140319643763",
      "lat": "37.091841751683184"
    },
    {
      "id": "pt.ine.add.PTCONT.1703903",
      "street": "",
      "house": "",
      "postcode": "8200-318",
      "city": "ALBUFEIRA",
      "lon": "-8.279175030785959",
      "lat": "37.091786417711745"
    },
    {
      "id": "pt.ine.add.PTCONT.1703904",
      "street": "CERRO DA AGUIA",
      "house": "27",
      "postcode": "8200-318",
      "city": "ALBUFEIRA",
      "lon": "-8.282330179309852",
      "lat": "37.08988903185202"
    },
    {
      "id": "pt.ine.add.PTCONT.1706122",
      "street": "",
      "house": "",
      "postcode": "8200-373",
      "city": "ALBUFEIRA",
      "lon": "-8.288109318111422",
      "lat": "37.087918506795546"
    },
    {
      "id": "pt.ine.add.PTCONT.1706628",
      "street": "",
      "house": "",
      "postcode": "8200-373",
      "city": "ALBUFEIRA",
      "lon": "-8.289964861054498",
      "lat": "37.087780906940836"
    },
    {
      "id": "pt.ine.add.PTCONT.1706810",
      "street": "",
      "house": "",
      "postcode": "8200-318",
      "city": "ALBUFEIRA",
      "lon": "-8.28267825546349",
      "lat": "37.088655345803616"
    },
    {
      "id": "pt.ine.add.PTCONT.1708832",
      "street": "CERRO DA AGUIA",
      "house": "",
      "postcode": "8200-318",
      "city": "ALBUFEIRA",
      "lon": "-8.280657458136972",
      "lat": "37.090595173222184"
    },
    {
      "id": "pt.ine.add.PTCONT.1712628",
      "street": "CAM CERRO DA AGUIA",
      "house": "",
      "postcode": "8200-310",
      "city": "ALBUFEIRA",
      "lon": "-8.280393667140457",
      "lat": "37.08796438260448"
    },
    {
      "id": "pt.ine.add.PTCONT.1712629",
      "street": "CAM CERRO DA AGUIA",
      "house": "",
      "postcode": "8200-310",
      "city": "ALBUFEIRA",
      "lon": "-8.28068589026807",
      "lat": "37.08785589114814"
    },
    {
      "id": "pt.ine.add.PTCONT.1715425",
      "street": "",
      "house": "CCI 782 P",
      "postcode": "8200-373",
      "city": "ALBUFEIRA",
      "lon": "-8.290351776822254",
      "lat": "37.08996097897493"
    },
    {
      "id": "pt.ine.add.PTCONT.1715485",
      "street": "BC AGUIA NEGRA",
      "house": "",
      "postcode": "8200-373",
      "city": "ALBUFEIRA",
      "lon": "-8.287157756789528",
      "lat": "37.09012736310847"
    },
    {
      "id": "pt.ine.add.PTCONT.1715486",
      "street": "EM 526",
      "house": "995 A",
      "postcode": "8200-373",
      "city": "ALBUFEIRA",
      "lon": "-8.29302522776916",
      "lat": "37.0882904285711"
    },
    {
      "id": "pt.ine.add.PTCONT.1721184",
      "street": "EM 526",
      "house": "",
      "postcode": "8200-373",
      "city": "ALBUFEIRA",
      "lon": "-8.28963657461191",
      "lat": "37.086754122946644"
    },
    {
      "id": "pt.ine.add.PTCONT.1726239",
      "street": "BC ÁGUIA NEGRA",
      "house": "A",
      "postcode": "8200-373",
      "city": "ALBUFEIRA",
      "lon": "-8.287484105456866",
      "lat": "37.0902080348428"
    },
    {
      "id": "pt.ine.add.PTCONT.1727009",
      "street": "CERRO DA AGUIA",
      "house": "44",
      "postcode": "8200-318",
      "city": "ALBUFEIRA",
      "lon": "-8.27855646077002",
      "lat": "37.091823220680666"
    },
    {
      "id": "pt.ine.add.PTCONT.1727010",
      "street": "CERRO DA AGUIA",
      "house": "45",
      "postcode": "8200-318",
      "city": "ALBUFEIRA",
      "lon": "-8.278792633966884",
      "lat": "37.09180490943624"
    },
    {
      "id": "pt.ine.add.PTCONT.1729856",
      "street": "CERRO DA AGUIA",
      "house": "25",
      "postcode": "8200-318",
      "city": "ALBUFEIRA",
      "lon": "-8.282318223914105",
      "lat": "37.09000884747115"
    },
    {
      "id": "pt.ine.add.PTCONT.1734216",
      "street": "CERRO DA AGUIA",
      "house": "",
      "postcode": "8200-318",
      "city": "ALBUFEIRA",
      "lon": "-8.281758739658851",
      "lat": "37.09008018928525"
    },
    {
      "id": "pt.ine.add.PTCONT.1734217",
      "street": "CERRO DA AGUIA",
      "house": "16",
      "postcode": "8200-318",
      "city": "ALBUFEIRA",
      "lon": "-8.282281657417883",
      "lat": "37.0906085054415"
    },
    {
      "id": "pt.ine.add.PTCONT.1734493",
      "street": "URB ÁGUIA NEGRA",
      "house": "6",
      "postcode": "8200-373",
      "city": "ALBUFEIRA",
      "lon": "-8.287089358928254",
      "lat": "37.08967691802714"
    },
    {
      "id": "pt.ine.add.PTCONT.1735419",
      "street": "CAM CERRO DA AGUIA",
      "house": "",
      "postcode": "8200-310",
      "city": "ALBUFEIRA",
      "lon": "-8.280000894483656",
      "lat": "37.088424414500174"
    },
    {
      "id": "pt.ine.add.PTCONT.1738324",
      "street": "R AGUIA IMPERIAL IBERICA",
      "house": "",
      "postcode": "8200-319",
      "city": "ALBUFEIRA",
      "lon": "-8.278046835130255",
      "lat": "37.09000368773656"
    },
    {
      "id": "pt.ine.add.PTCONT.1738326",
      "street": "",
      "house": "",
      "postcode": "8200-318",
      "city": "ALBUFEIRA",
      "lon": "-8.2808721460564",
      "lat": "37.091099503857876"
    },
    {
      "id": "pt.ine.add.PTCONT.1741623",
      "street": "R AGUIA IMPERIAL IBERICA",
      "house": "",
      "postcode": "8200-319",
      "city": "ALBUFEIRA",
      "lon": "-8.277452876424537",
      "lat": "37.091148768284405"
    },
    {
      "id": "pt.ine.add.PTCONT.1744172",
      "street": "ENT PATROVES",
      "house": "CP 999 A",
      "postcode": "8200-373",
      "city": "ALBUFEIRA",
      "lon": "-8.293296437253282",
      "lat": "37.08889377807836"
    },
    {
      "id": "pt.ine.add.PTCONT.1744173",
      "street": "ENT PATROVES",
      "house": "CP 999 A",
      "postcode": "8200-373",
      "city": "ALBUFEIRA",
      "lon": "-8.293296437253282",
      "lat": "37.08889377807836"
    },
    {
      "id": "pt.ine.add.PTCONT.1744174",
      "street": "ENT PATROVES",
      "house": "CP 999 A",
      "postcode": "8200-373",
      "city": "ALBUFEIRA",
      "lon": "-8.293296437253282",
      "lat": "37.08889377807836"
    },
    {
      "id": "pt.ine.add.PTCONT.1744332",
      "street": "ENT PATROVES",
      "house": "CP 999 A",
      "postcode": "8200-373",
      "city": "ALBUFEIRA",
      "lon": "-8.293296437253282",
      "lat": "37.08889377807836"
    },
    {
      "id": "pt.ine.add.PTCONT.1744432",
      "street": "URB ÁGUIA NEGRA",
      "house": "25",
      "postcode": "8200-373",
      "city": "ALBUFEIRA",
      "lon": "-8.28751616691688",
      "lat": "37.08937901070178"
    },
    {
      "id": "pt.ine.add.PTCONT.1744594",
      "street": "R AGUIA IMPERIAL IBERICA",
      "house": "",
      "postcode": "8200-319",
      "city": "ALBUFEIRA",
      "lon": "-8.277329286272595",
      "lat": "37.091221004065694"
    },
    {
      "id": "pt.ine.add.PTCONT.1744597",
      "street": "CERRO DA AGUIA",
      "house": "20",
      "postcode": "8200-318",
      "city": "ALBUFEIRA",
      "lon": "-8.282299566794425",
      "lat": "37.090363212262346"
    },
    {
      "id": "pt.ine.add.PTCONT.1747488",
      "street": "URB ÁGUIA NEGRA",
      "house": "17",
      "postcode": "8200-373",
      "city": "ALBUFEIRA",
      "lon": "-8.285323169249319",
      "lat": "37.08952601652839"
    },
    {
      "id": "pt.ine.add.PTCONT.1750494",
      "street": "URB ÁGUIA NEGRA",
      "house": "20",
      "postcode": "8200-373",
      "city": "ALBUFEIRA",
      "lon": "-8.285907956203998",
      "lat": "37.089480211124055"
    },
    {
      "id": "pt.ine.add.PTCONT.1750667",
      "street": "CERRO DA AGUIA",
      "house": "",
      "postcode": "8200-318",
      "city": "ALBUFEIRA",
      "lon": "-8.281512203290399",
      "lat": "37.090549053312685"
    },
    {
      "id": "pt.ine.add.PTCONT.1753797",
      "street": "CERRO DA AGUIA",
      "house": "",
      "postcode": "8200-318",
      "city": "ALBUFEIRA",
      "lon": "-8.280589744333218",
      "lat": "37.09047811863653"
    },
    {
      "id": "pt.ine.add.PTCONT.1759013",
      "street": "",
      "house": "",
      "postcode": "8200-318",
      "city": "ALBUFEIRA",
      "lon": "-8.28317337707388",
      "lat": "37.08877185917978"
    },
    {
      "id": "pt.ine.add.PTCONT.1759437",
      "street": "SIT PATROVES",
      "house": "",
      "postcode": "8200-373",
      "city": "ALBUFEIRA",
      "lon": "-8.290418722961052",
      "lat": "37.0896995805338"
    },
    {
      "id": "pt.ine.add.PTCONT.1759438",
      "street": "SIT PATROVES",
      "house": "",
      "postcode": "8200-373",
      "city": "ALBUFEIRA",
      "lon": "-8.290418722961052",
      "lat": "37.0896995805338"
    },
    {
      "id": "pt.ine.add.PTCONT.1759570",
      "street": "SIT PATROVES",
      "house": "",
      "postcode": "8200-373",
      "city": "ALBUFEIRA",
      "lon": "-8.290418722961052",
      "lat": "37.0896995805338"
    },
    {
      "id": "pt.ine.add.PTCONT.1759781",
      "street": "R AGUIA IMPERIAL IBERICA",
      "house": "",
      "postcode": "8200-319",
      "city": "ALBUFEIRA",
      "lon": "-8.276740059428029",
      "lat": "37.088923996001085"
    },
    {
      "id": "pt.ine.add.PTCONT.1759782",
      "street": "CAM CERRO DA AGUIA",
      "house": "",
      "postcode": "8200-310",
      "city": "ALBUFEIRA",
      "lon": "-8.280180871613307",
      "lat": "37.08843320212543"
    },
    {
      "id": "pt.ine.add.PTCONT.1759783",
      "street": "CAM CERRO DA AGUIA",
      "house": "",
      "postcode": "8200-310",
      "city": "ALBUFEIRA",
      "lon": "-8.28195622949269",
      "lat": "37.08753892970235"
    },
    {
      "id": "pt.ine.add.PTCONT.1759784",
      "street": "CERRO DA AGUIA",
      "house": "14",
      "postcode": "8200-318",
      "city": "ALBUFEIRA",
      "lon": "-8.282259516939218",
      "lat": "37.09078974972745"
    },
    {
      "id": "pt.ine.add.PTCONT.1762210",
      "street": "",
      "house": "",
      "postcode": "8200-373",
      "city": "ALBUFEIRA",
      "lon": "-8.289436585695835",
      "lat": "37.08795280740337"
    },
    {
      "id": "pt.ine.add.PTCONT.1763239",
      "street": "BC AGUIA NEGRA",
      "house": "",
      "postcode": "8200-373",
      "city": "ALBUFEIRA",
      "lon": "-8.286943831360585",
      "lat": "37.090019512662515"
    },
    {
      "id": "pt.ine.add.PTCONT.1763240",
      "street": "SIT PATROVES",
      "house": "CP 954 P",
      "postcode": "8200-373",
      "city": "ALBUFEIRA",
      "lon": "-8.289756037941777",
      "lat": "37.090150991597035"
    },
    {
      "id": "pt.ine.add.PTCONT.1766888",
      "street": "",
      "house": "",
      "postcode": "8200-373",
      "city": "ALBUFEIRA",
      "lon": "-8.28953720127459",
      "lat": "37.08765532225855"
    },
    {
      "id": "pt.ine.add.PTCONT.1771971",
      "street": "URB ÁGUIA NEGRA",
      "house": "16",
      "postcode": "8200-373",
      "city": "ALBUFEIRA",
      "lon": "-8.285300890174913",
      "lat": "37.08963417326757"
    },
    {
      "id": "pt.ine.add.PTCONT.1772186",
      "street": "CERRO DA AGUIA",
      "house": "",
      "postcode": "8200-318",
      "city": "ALBUFEIRA",
      "lon": "-8.280555861325098",
      "lat": "37.090406075343545"
    },
    {
      "id": "pt.ine.add.PTCONT.1778158",
      "street": "CERRO DA AGUIA",
      "house": "11",
      "postcode": "8200-318",
      "city": "ALBUFEIRA",
      "lon": "-8.280738604770082",
      "lat": "37.09183854564524"
    },
    {
      "id": "pt.ine.add.PTCONT.1781106",
      "street": "",
      "house": "",
      "postcode": "8200-373",
      "city": "ALBUFEIRA",
      "lon": "-8.284708546090494",
      "lat": "37.0858864883592"
    },
    {
      "id": "pt.ine.add.PTCONT.1781107",
      "street": "",
      "house": "",
      "postcode": "8200-373",
      "city": "ALBUFEIRA",
      "lon": "-8.284708546090494",
      "lat": "37.0858864883592"
    },
    {
      "id": "pt.ine.add.PTCONT.1786827",
      "street": "QTA FERNANDO",
      "house": "",
      "postcode": "8200-373",
      "city": "ALBUFEIRA",
      "lon": "-8.28821076507465",
      "lat": "37.088026502336426"
    },
    {
      "id": "pt.ine.add.PTCONT.1786829",
      "street": "QTA FERNANDO",
      "house": "",
      "postcode": "8200-373",
      "city": "ALBUFEIRA",
      "lon": "-8.28821076507465",
      "lat": "37.088026502336426"
    },
    {
      "id": "pt.ine.add.PTCONT.1786985",
      "street": "CERRO DA AGUIA",
      "house": "",
      "postcode": "8200-318",
      "city": "ALBUFEIRA",
      "lon": "-8.2817582996976",
      "lat": "37.089854922869876"
    },
    {
      "id": "pt.ine.add.PTCONT.1792692",
      "street": "",
      "house": "",
      "postcode": "8200-373",
      "city": "ALBUFEIRA",
      "lon": "-8.28724339574028",
      "lat": "37.08798271012997"
    },
    {
      "id": "pt.ine.add.PTCONT.1792910",
      "street": "CERRO DA AGUIA",
      "house": "19",
      "postcode": "8200-318",
      "city": "ALBUFEIRA",
      "lon": "-8.282293077309957",
      "lat": "37.0904237163157"
    },
    {
      "id": "pt.ine.add.PTCONT.1797665",
      "street": "CAM CERRO DA AGUIA",
      "house": "",
      "postcode": "8200-310",
      "city": "ALBUFEIRA",
      "lon": "-8.279921640707203",
      "lat": "37.088154192194274"
    },
    {
      "id": "pt.ine.add.PTCONT.1797666",
      "street": "CERRO DA AGUIA",
      "house": "28",
      "postcode": "8200-318",
      "city": "ALBUFEIRA",
      "lon": "-8.282330995142253",
      "lat": "37.08982439452342"
    },
    {
      "id": "pt.ine.add.PTCONT.1798346",
      "street": "CERRO DA AGUIA",
      "house": "15",
      "postcode": "8200-318",
      "city": "ALBUFEIRA",
      "lon": "-8.282277143837192",
      "lat": "37.090672869883534"
    },
    {
      "id": "pt.ine.add.PTCONT.1798779",
      "street": "",
      "house": "",
      "postcode": "8200-373",
      "city": "ALBUFEIRA",
      "lon": "-8.287671492741525",
      "lat": "37.088324558844825"
    },
    {
      "id": "pt.ine.add.PTCONT.1804673",
      "street": "R AGUIA PESQUEIRA",
      "house": "",
      "postcode": "8200-319",
      "city": "ALBUFEIRA",
      "lon": "-8.27952221003718",
      "lat": "37.09100206071421"
    },
    {
      "id": "pt.ine.add.PTCONT.1807341",
      "street": "URB ÁGUIA NEGRA",
      "house": "21",
      "postcode": "8200-373",
      "city": "ALBUFEIRA",
      "lon": "-8.286200503467677",
      "lat": "37.08953389791268"
    },
    {
      "id": "pt.ine.add.PTCONT.1818972",
      "street": "",
      "house": "",
      "postcode": "8200-373",
      "city": "ALBUFEIRA",
      "lon": "-8.291194587275601",
      "lat": "37.089590420707374"
    },
    {
      "id": "pt.ine.add.PTCONT.1827550",
      "street": "",
      "house": "",
      "postcode": "8200-373",
      "city": "ALBUFEIRA",
      "lon": "-8.289359907032601",
      "lat": "37.08895309394426"
    },
    {
      "id": "pt.ine.add.PTCONT.1827642",
      "street": "CAM CERRO DA AGUIA",
      "house": "",
      "postcode": "8200-310",
      "city": "ALBUFEIRA",
      "lon": "-8.279561653190978",
      "lat": "37.08811859455925"
    },
    {
      "id": "pt.ine.add.PTCONT.1831580",
      "street": "CAM CERRO DA AGUIA",
      "house": "",
      "postcode": "8200-310",
      "city": "ALBUFEIRA",
      "lon": "-8.279078393531021",
      "lat": "37.088317425343476"
    },
    {
      "id": "pt.ine.add.PTCONT.1831678",
      "street": "EN 395",
      "house": "",
      "postcode": "8200-373",
      "city": "ALBUFEIRA",
      "lon": "-8.287895507501045",
      "lat": "37.087864721958454"
    },
    {
      "id": "pt.ine.add.PTCONT.1832507",
      "street": "R AGUIA PESQUEIRA",
      "house": "",
      "postcode": "8200-319",
      "city": "ALBUFEIRA",
      "lon": "-8.278634025056666",
      "lat": "37.09121039951279"
    },
    {
      "id": "pt.ine.add.PTCONT.1833173",
      "street": "",
      "house": "",
      "postcode": "8200-373",
      "city": "ALBUFEIRA",
      "lon": "-8.284798415196848",
      "lat": "37.08583230934145"
    },
    {
      "id": "pt.ine.add.PTCONT.1833359",
      "street": "CERRO DA AGUIA",
      "house": "",
      "postcode": "8200-318",
      "city": "ALBUFEIRA",
      "lon": "-8.281928072205313",
      "lat": "37.09039535065456"
    },
    {
      "id": "pt.ine.add.PTCONT.1836064",
      "street": "",
      "house": "",
      "postcode": "8200-318",
      "city": "ALBUFEIRA",
      "lon": "-8.280130238700186",
      "lat": "37.09133470353762"
    },
    {
      "id": "pt.ine.add.PTCONT.1839019",
      "street": "CERRO DA AGUIA",
      "house": "18",
      "postcode": "8200-318",
      "city": "ALBUFEIRA",
      "lon": "-8.281254398487983",
      "lat": "37.091008920193254"
    },
    {
      "id": "pt.ine.add.PTCONT.1839921",
      "street": "R AGUIA IMPERIAL IBERICA",
      "house": "",
      "postcode": "8200-319",
      "city": "ALBUFEIRA",
      "lon": "-8.276009577167192",
      "lat": "37.08924926294803"
    },
    {
      "id": "pt.ine.add.PTCONT.1840294",
      "street": "",
      "house": "",
      "postcode": "8200-373",
      "city": "ALBUFEIRA",
      "lon": "-8.285517338300295",
      "lat": "37.091003518313585"
    },
    {
      "id": "pt.ine.add.PTCONT.1840806",
      "street": "CERRO DA AGUIA",
      "house": "29",
      "postcode": "8200-318",
      "city": "ALBUFEIRA",
      "lon": "-8.282335983140392",
      "lat": "37.089766841546485"
    },
    {
      "id": "pt.ine.add.PTCONT.1841471",
      "street": "EM 526",
      "house": "",
      "postcode": "8200-373",
      "city": "ALBUFEIRA",
      "lon": "-8.289929132551709",
      "lat": "37.08681681123851"
    },
    {
      "id": "pt.ine.add.PTCONT.1842137",
      "street": "R AGUIA IMPERIAL IBERICA",
      "house": "",
      "postcode": "8200-319",
      "city": "ALBUFEIRA",
      "lon": "-8.27794800634268",
      "lat": "37.09126530340932"
    },
    {
      "id": "pt.ine.add.PTCONT.1842376",
      "street": "R AGUIA PESQUEIRA",
      "house": "",
      "postcode": "8200-319",
      "city": "ALBUFEIRA",
      "lon": "-8.279218846386481",
      "lat": "37.091173637724616"
    },
    {
      "id": "pt.ine.add.PTCONT.1844056",
      "street": "CERRO DA AGUIA",
      "house": "6",
      "postcode": "8200-318",
      "city": "ALBUFEIRA",
      "lon": "-8.279882958395913",
      "lat": "37.09142511660649"
    },
    {
      "id": "pt.ine.add.PTCONT.1844099",
      "street": "EM 526 QUINTA DOS GUERREIROS",
      "house": "",
      "postcode": "8200-373",
      "city": "ALBUFEIRA",
      "lon": "-8.288972692782712",
      "lat": "37.086610826370915"
    },
    {
      "id": "pt.ine.add.PTCONT.1848464",
      "street": "CERRO DA AGUIA",
      "house": "23",
      "postcode": "8200-318",
      "city": "ALBUFEIRA",
      "lon": "-8.282320998389062",
      "lat": "37.090128581479966"
    }
  ]
}