{
  "data": {
    "distrito": "Setúbal",
    "concelho": "Alcochete",
    "freguesia": "São Francisco",
    "OBJECTID": 162,
    "BGRI2021": "15020300204",
    "DT21": "15",
    "DTMN21": "1502",
    "DTMNFR21": "150203",
    "DTMNFRSEC21": "150203002",
    "SECNUM21": "002",
    "SSNUM21": "04",
    "SECSSNUM21": "00204",
    "OBJECTID_1": 160728,
    "DT": "15",
    "CC": "02",
    "fr": "03",
    "SEC": "002",
    "SS": "04"
  },
  "addresses": [
    {
      "id": "pt.ine.add.PTCONT.4666927",
      "street": "R PATO TROMBETEIRO",
      "house": "25",
      "postcode": "2890-344",
      "city": "SÃO FRANCISCO",
      "lon": "-8.975238336036426",
      "lat": "38.73167611528482"
    },
    {
      "id": "pt.ine.add.PTCONT.4674078",
      "street": "R GARÇA REAL",
      "house": "157",
      "postcode": "2890-351",
      "city": "SÃO FRANCISCO",
      "lon": "-8.973278603556349",
      "lat": "38.72833024796499"
    },
    {
      "id": "pt.ine.add.PTCONT.4674079",
      "street": "R GARÇA REAL",
      "house": "157",
      "postcode": "2890-351",
      "city": "SÃO FRANCISCO",
      "lon": "-8.973278603556349",
      "lat": "38.72833024796499"
    },
    {
      "id": "pt.ine.add.PTCONT.4681250",
      "street": "R GARÇA REAL",
      "house": "49",
      "postcode": "2890-351",
      "city": "SÃO FRANCISCO",
      "lon": "-8.97379542105005",
      "lat": "38.72925435238901"
    },
    {
      "id": "pt.ine.add.PTCONT.4681251",
      "street": "R GARÇA REAL",
      "house": "49",
      "postcode": "2890-351",
      "city": "SÃO FRANCISCO",
      "lon": "-8.97379542105005",
      "lat": "38.72925435238901"
    },
    {
      "id": "pt.ine.add.PTCONT.4681410",
      "street": "R PATO REAL",
      "house": "38",
      "postcode": "2890-345",
      "city": "SÃO FRANCISCO",
      "lon": "-8.976273693598834",
      "lat": "38.73170468411339"
    },
    {
      "id": "pt.ine.add.PTCONT.4692408",
      "street": "R ALFAIATE",
      "house": "75",
      "postcode": "2890-347",
      "city": "SÃO FRANCISCO",
      "lon": "-8.975372912710448",
      "lat": "38.730405024096825"
    },
    {
      "id": "pt.ine.add.PTCONT.4696264",
      "street": "R PATO TROMBETEIRO",
      "house": "16",
      "postcode": "2890-344",
      "city": "SÃO FRANCISCO",
      "lon": "-8.975596294572037",
      "lat": "38.731799647466715"
    },
    {
      "id": "pt.ine.add.PTCONT.4696265",
      "street": "R PILRITO",
      "house": "38",
      "postcode": "2890-343",
      "city": "SÃO FRANCISCO",
      "lon": "-8.974960239142996",
      "lat": "38.73149795919085"
    },
    {
      "id": "pt.ine.add.PTCONT.4699812",
      "street": "R ALFAIATE",
      "house": "39",
      "postcode": "2890-347",
      "city": "SÃO FRANCISCO",
      "lon": "-8.97554973611057",
      "lat": "38.730773076171054"
    },
    {
      "id": "pt.ine.add.PTCONT.4710399",
      "street": "R ALFAIATE",
      "house": "125",
      "postcode": "2890-347",
      "city": "SÃO FRANCISCO",
      "lon": "-8.974988580439367",
      "lat": "38.72999342649386"
    },
    {
      "id": "pt.ine.add.PTCONT.4713922",
      "street": "R ÁGUIA PESQUEIRA",
      "house": "138",
      "postcode": "2890-348",
      "city": "SÃO FRANCISCO",
      "lon": "-8.97440982714051",
      "lat": "38.72967330646863"
    },
    {
      "id": "pt.ine.add.PTCONT.4717613",
      "street": "R PILRITO",
      "house": "16",
      "postcode": "2890-343",
      "city": "SÃO FRANCISCO",
      "lon": "-8.974974064283632",
      "lat": "38.731696034627866"
    },
    {
      "id": "pt.ine.add.PTCONT.4717624",
      "street": "R ÁGUIA PESQUEIRA",
      "house": "8",
      "postcode": "2890-348",
      "city": "SÃO FRANCISCO",
      "lon": "-8.975078060550166",
      "lat": "38.73075845834843"
    },
    {
      "id": "pt.ine.add.PTCONT.4721640",
      "street": "R PATO REAL",
      "house": "31",
      "postcode": "2890-345",
      "city": "SÃO FRANCISCO",
      "lon": "-8.97590550523817",
      "lat": "38.731689323204726"
    },
    {
      "id": "pt.ine.add.PTCONT.4721646",
      "street": "R PATO TROMBETEIRO",
      "house": "58",
      "postcode": "2890-344",
      "city": "SÃO FRANCISCO",
      "lon": "-8.975695343982313",
      "lat": "38.73142059953019"
    },
    {
      "id": "pt.ine.add.PTCONT.4731302",
      "street": "R ÁGUIA PESQUEIRA",
      "house": "2",
      "postcode": "2890-348",
      "city": "SÃO FRANCISCO",
      "lon": "-8.97510169320938",
      "lat": "38.730812335870574"
    },
    {
      "id": "pt.ine.add.PTCONT.4736177",
      "street": "R GARÇA REAL",
      "house": "109",
      "postcode": "2890-351",
      "city": "SÃO FRANCISCO",
      "lon": "-8.973524720328303",
      "lat": "38.72872482915769"
    },
    {
      "id": "pt.ine.add.PTCONT.4736178",
      "street": "R GARÇA REAL",
      "house": "109",
      "postcode": "2890-351",
      "city": "SÃO FRANCISCO",
      "lon": "-8.973524720328303",
      "lat": "38.72872482915769"
    },
    {
      "id": "pt.ine.add.PTCONT.4739956",
      "street": "R ALFAIATE",
      "house": "67",
      "postcode": "2890-347",
      "city": "SÃO FRANCISCO",
      "lon": "-8.975396757012035",
      "lat": "38.730476915949026"
    },
    {
      "id": "pt.ine.add.PTCONT.4739957",
      "street": "R ALFAIATE",
      "house": "115",
      "postcode": "2890-347",
      "city": "SÃO FRANCISCO",
      "lon": "-8.975012741378622",
      "lat": "38.73009234002124"
    },
    {
      "id": "pt.ine.add.PTCONT.4747603",
      "street": "R ÁGUIA PESQUEIRA",
      "house": "36",
      "postcode": "2890-348",
      "city": "SÃO FRANCISCO",
      "lon": "-8.974949033010455",
      "lat": "38.73054319662859"
    },
    {
      "id": "pt.ine.add.PTCONT.4755336",
      "street": "R ALFAIATE",
      "house": "81",
      "postcode": "2890-347",
      "city": "SÃO FRANCISCO",
      "lon": "-8.975326070351072",
      "lat": "38.730333297927544"
    },
    {
      "id": "pt.ine.add.PTCONT.4758358",
      "street": "R PATO REAL",
      "house": "59",
      "postcode": "2890-345",
      "city": "SÃO FRANCISCO",
      "lon": "-8.975960037875199",
      "lat": "38.731436707333415"
    },
    {
      "id": "pt.ine.add.PTCONT.4758367",
      "street": "R PILRITO",
      "house": "49",
      "postcode": "2890-343",
      "city": "SÃO FRANCISCO",
      "lon": "-8.974601754806532",
      "lat": "38.73132938905422"
    },
    {
      "id": "pt.ine.add.PTCONT.4758368",
      "street": "R PILRITO",
      "house": "49",
      "postcode": "2890-343",
      "city": "SÃO FRANCISCO",
      "lon": "-8.974601754806532",
      "lat": "38.73132938905422"
    },
    {
      "id": "pt.ine.add.PTCONT.4758369",
      "street": "R PILRITO",
      "house": "49",
      "postcode": "2890-343",
      "city": "SÃO FRANCISCO",
      "lon": "-8.974601754806532",
      "lat": "38.73132938905422"
    },
    {
      "id": "pt.ine.add.PTCONT.4758370",
      "street": "R PILRITO",
      "house": "49",
      "postcode": "2890-343",
      "city": "SÃO FRANCISCO",
      "lon": "-8.974601754806532",
      "lat": "38.73132938905422"
    },
    {
      "id": "pt.ine.add.PTCONT.4760921",
      "street": "R PATO TROMBETEIRO",
      "house": "45",
      "postcode": "2890-344",
      "city": "SÃO FRANCISCO",
      "lon": "-8.97528221787933",
      "lat": "38.73149564007986"
    },
    {
      "id": "pt.ine.add.PTCONT.4769139",
      "street": "R GARÇA REAL",
      "house": "65",
      "postcode": "2890-351",
      "city": "SÃO FRANCISCO",
      "lon": "-8.973713239965255",
      "lat": "38.72911081600309"
    },
    {
      "id": "pt.ine.add.PTCONT.4769270",
      "street": "R PATO TROMBETEIRO",
      "house": "38",
      "postcode": "2890-344",
      "city": "SÃO FRANCISCO",
      "lon": "-8.97565167484024",
      "lat": "38.73161908926324"
    },
    {
      "id": "pt.ine.add.PTCONT.4772644",
      "street": "R PILRITO",
      "house": "33",
      "postcode": "2890-343",
      "city": "SÃO FRANCISCO",
      "lon": "-8.97460312858663",
      "lat": "38.73144648257923"
    },
    {
      "id": "pt.ine.add.PTCONT.4772645",
      "street": "R PILRITO",
      "house": "33",
      "postcode": "2890-343",
      "city": "SÃO FRANCISCO",
      "lon": "-8.97460312858663",
      "lat": "38.73144648257923"
    },
    {
      "id": "pt.ine.add.PTCONT.4772646",
      "street": "R PILRITO",
      "house": "33",
      "postcode": "2890-343",
      "city": "SÃO FRANCISCO",
      "lon": "-8.97460312858663",
      "lat": "38.73144648257923"
    },
    {
      "id": "pt.ine.add.PTCONT.4772647",
      "street": "R PILRITO",
      "house": "33",
      "postcode": "2890-343",
      "city": "SÃO FRANCISCO",
      "lon": "-8.97460312858663",
      "lat": "38.73144648257923"
    },
    {
      "id": "pt.ine.add.PTCONT.4778533",
      "street": "R ÁGUIA PESQUEIRA",
      "house": "44",
      "postcode": "2890-348",
      "city": "SÃO FRANCISCO",
      "lon": "-8.974925400557735",
      "lat": "38.73048931907083"
    },
    {
      "id": "pt.ine.add.PTCONT.4781630",
      "street": "R PATO TROMBETEIRO",
      "house": "59",
      "postcode": "2890-344",
      "city": "SÃO FRANCISCO",
      "lon": "-8.975315023357084",
      "lat": "38.73135127647069"
    },
    {
      "id": "pt.ine.add.PTCONT.4781631",
      "street": "R PILRITO",
      "house": "52",
      "postcode": "2890-343",
      "city": "SÃO FRANCISCO",
      "lon": "-8.97501636088921",
      "lat": "38.731380451617426"
    },
    {
      "id": "pt.ine.add.PTCONT.4783724",
      "street": "R PATO REAL",
      "house": "44",
      "postcode": "2890-345",
      "city": "SÃO FRANCISCO",
      "lon": "-8.976272952394828",
      "lat": "38.73164163378392"
    },
    {
      "id": "pt.ine.add.PTCONT.4795466",
      "street": "R ÁGUIA PESQUEIRA",
      "house": "125",
      "postcode": "2890-348",
      "city": "SÃO FRANCISCO",
      "lon": "-8.97415970178869",
      "lat": "38.729918321080866"
    },
    {
      "id": "pt.ine.add.PTCONT.4796209",
      "street": "R ÁGUIA PESQUEIRA",
      "house": "125",
      "postcode": "2890-348",
      "city": "SÃO FRANCISCO",
      "lon": "-8.97415970178869",
      "lat": "38.729918321080866"
    },
    {
      "id": "pt.ine.add.PTCONT.4804275",
      "street": "R PATO TROMBETEIRO",
      "house": "31",
      "postcode": "2890-344",
      "city": "SÃO FRANCISCO",
      "lon": "-8.975248989244706",
      "lat": "38.731603974908275"
    },
    {
      "id": "pt.ine.add.PTCONT.4804276",
      "street": "R PATO TROMBETEIRO",
      "house": "17",
      "postcode": "2890-344",
      "city": "SÃO FRANCISCO",
      "lon": "-8.975215972019875",
      "lat": "38.73173032411099"
    },
    {
      "id": "pt.ine.add.PTCONT.4807797",
      "street": "R ALFAIATE",
      "house": "165",
      "postcode": "2890-347",
      "city": "SÃO FRANCISCO",
      "lon": "-8.974811550508731",
      "lat": "38.72960735907517"
    },
    {
      "id": "pt.ine.add.PTCONT.4807948",
      "street": "R PATO REAL",
      "house": "52",
      "postcode": "2890-345",
      "city": "SÃO FRANCISCO",
      "lon": "-8.976295103804977",
      "lat": "38.731569410384026"
    },
    {
      "id": "pt.ine.add.PTCONT.4818563",
      "street": "R PATO TROMBETEIRO",
      "house": "30",
      "postcode": "2890-344",
      "city": "SÃO FRANCISCO",
      "lon": "-8.97562952276548",
      "lat": "38.73169131254809"
    },
    {
      "id": "pt.ine.add.PTCONT.4822120",
      "street": "R ÁGUIA PESQUEIRA",
      "house": "30",
      "postcode": "2890-348",
      "city": "SÃO FRANCISCO",
      "lon": "-8.974972559780456",
      "lat": "38.73058806698604"
    },
    {
      "id": "pt.ine.add.PTCONT.4839675",
      "street": "R ALFAIATE",
      "house": "53",
      "postcode": "2890-347",
      "city": "SÃO FRANCISCO",
      "lon": "-8.975467549741715",
      "lat": "38.730629541114496"
    },
    {
      "id": "pt.ine.add.PTCONT.4849570",
      "street": "R ALFAIATE",
      "house": "137",
      "postcode": "2890-347",
      "city": "SÃO FRANCISCO",
      "lon": "-8.97491778937627",
      "lat": "38.729840801003334"
    },
    {
      "id": "pt.ine.add.PTCONT.4852805",
      "street": "R PATO TROMBETEIRO",
      "house": "24",
      "postcode": "2890-344",
      "city": "SÃO FRANCISCO",
      "lon": "-8.975607159041449",
      "lat": "38.73174552144565"
    },
    {
      "id": "pt.ine.add.PTCONT.4852806",
      "street": "R PATO TROMBETEIRO",
      "house": "44",
      "postcode": "2890-344",
      "city": "SÃO FRANCISCO",
      "lon": "-8.975650722569979",
      "lat": "38.73153802453968"
    },
    {
      "id": "pt.ine.add.PTCONT.4854377",
      "street": "R GARÇA REAL",
      "house": "33",
      "postcode": "2890-351",
      "city": "SÃO FRANCISCO",
      "lon": "-8.973877602467963",
      "lat": "38.72939788870998"
    },
    {
      "id": "pt.ine.add.PTCONT.4854378",
      "street": "R GARÇA REAL",
      "house": "33",
      "postcode": "2890-351",
      "city": "SÃO FRANCISCO",
      "lon": "-8.973877602467963",
      "lat": "38.72939788870998"
    },
    {
      "id": "pt.ine.add.PTCONT.4854500",
      "street": "R ÁGUIA PESQUEIRA",
      "house": "50",
      "postcode": "2890-348",
      "city": "SÃO FRANCISCO",
      "lon": "-8.974890269070068",
      "lat": "38.73043552430876"
    },
    {
      "id": "pt.ine.add.PTCONT.4865778",
      "street": "R ALFAIATE",
      "house": "47",
      "postcode": "2890-347",
      "city": "SÃO FRANCISCO",
      "lon": "-8.975514498227785",
      "lat": "38.73071027441289"
    },
    {
      "id": "pt.ine.add.PTCONT.4865779",
      "street": "R ALFAIATE",
      "house": "151",
      "postcode": "2890-347",
      "city": "SÃO FRANCISCO",
      "lon": "-8.974870419333115",
      "lat": "38.7297240386548"
    },
    {
      "id": "pt.ine.add.PTCONT.4873881",
      "street": "R PATO TROMBETEIRO",
      "house": "11",
      "postcode": "2890-344",
      "city": "SÃO FRANCISCO",
      "lon": "-8.97518232018312",
      "lat": "38.731802630149716"
    },
    {
      "id": "pt.ine.add.PTCONT.4873882",
      "street": "R ALFAIATE",
      "house": "33",
      "postcode": "2890-347",
      "city": "SÃO FRANCISCO",
      "lon": "-8.975584974055883",
      "lat": "38.730835877917265"
    },
    {
      "id": "pt.ine.add.PTCONT.4889603",
      "street": "R PILRITO",
      "house": "24",
      "postcode": "2890-343",
      "city": "SÃO FRANCISCO",
      "lon": "-8.974973429945159",
      "lat": "38.731641991470234"
    },
    {
      "id": "pt.ine.add.PTCONT.4889604",
      "street": "R PILRITO",
      "house": "44",
      "postcode": "2890-343",
      "city": "SÃO FRANCISCO",
      "lon": "-8.97499410251696",
      "lat": "38.731443667597915"
    },
    {
      "id": "pt.ine.add.PTCONT.4896982",
      "street": "R PATO REAL",
      "house": "39",
      "postcode": "2890-345",
      "city": "SÃO FRANCISCO",
      "lon": "-8.97591636945851",
      "lat": "38.7316351971567"
    },
    {
      "id": "pt.ine.add.PTCONT.4909623",
      "street": "R PATO REAL",
      "house": "58",
      "postcode": "2890-345",
      "city": "SÃO FRANCISCO",
      "lon": "-8.97631725517177",
      "lat": "38.73149718697953"
    },
    {
      "id": "pt.ine.add.PTCONT.4912925",
      "street": "R PATO TROMBETEIRO",
      "house": "52",
      "postcode": "2890-344",
      "city": "SÃO FRANCISCO",
      "lon": "-8.975672980388927",
      "lat": "38.73147480844134"
    },
    {
      "id": "pt.ine.add.PTCONT.4917893",
      "street": "R ALFAIATE",
      "house": "143",
      "postcode": "2890-347",
      "city": "SÃO FRANCISCO",
      "lon": "-8.974893945776138",
      "lat": "38.729768909037894"
    },
    {
      "id": "pt.ine.add.PTCONT.4917989",
      "street": "R PATO TROMBETEIRO",
      "house": "53",
      "postcode": "2890-344",
      "city": "SÃO FRANCISCO",
      "lon": "-8.975292765257713",
      "lat": "38.73141449250533"
    },
    {
      "id": "pt.ine.add.PTCONT.4917992",
      "street": "R ÁGUIA PESQUEIRA",
      "house": "16",
      "postcode": "2890-348",
      "city": "SÃO FRANCISCO",
      "lon": "-8.975031323972795",
      "lat": "38.730695739258884"
    },
    {
      "id": "pt.ine.add.PTCONT.4932851",
      "street": "R ÁGUIA PESQUEIRA",
      "house": "76",
      "postcode": "2890-348",
      "city": "SÃO FRANCISCO",
      "lon": "-8.974773587266345",
      "lat": "38.73029223713336"
    },
    {
      "id": "pt.ine.add.PTCONT.4942775",
      "street": "R ÁGUIA PESQUEIRA",
      "house": "132",
      "postcode": "2890-348",
      "city": "SÃO FRANCISCO",
      "lon": "-8.974422065615283",
      "lat": "38.72973627409664"
    },
    {
      "id": "pt.ine.add.PTCONT.4948651",
      "street": "R ALFAIATE",
      "house": "171",
      "postcode": "2890-347",
      "city": "SÃO FRANCISCO",
      "lon": "-8.974787812788273",
      "lat": "38.72954447427981"
    },
    {
      "id": "pt.ine.add.PTCONT.4949796",
      "street": "R ÁGUIA PESQUEIRA",
      "house": "424",
      "postcode": "2890-348",
      "city": "SÃO FRANCISCO",
      "lon": "-8.974469012329092",
      "lat": "38.72981700784696"
    },
    {
      "id": "pt.ine.add.PTCONT.4957610",
      "street": "R GARÇA REAL",
      "house": "17",
      "postcode": "2890-351",
      "city": "SÃO FRANCISCO",
      "lon": "-8.973924970677128",
      "lat": "38.72951465148783"
    },
    {
      "id": "pt.ine.add.PTCONT.4957611",
      "street": "R GARÇA REAL",
      "house": "17",
      "postcode": "2890-351",
      "city": "SÃO FRANCISCO",
      "lon": "-8.973924970677128",
      "lat": "38.72951465148783"
    },
    {
      "id": "pt.ine.add.PTCONT.4957612",
      "street": "R GARÇA REAL",
      "house": "125",
      "postcode": "2890-351",
      "city": "SÃO FRANCISCO",
      "lon": "-8.973442751446255",
      "lat": "38.72859930695817"
    },
    {
      "id": "pt.ine.add.PTCONT.4957613",
      "street": "R GARÇA REAL",
      "house": "125",
      "postcode": "2890-351",
      "city": "SÃO FRANCISCO",
      "lon": "-8.973442751446255",
      "lat": "38.72859930695817"
    },
    {
      "id": "pt.ine.add.PTCONT.4961129",
      "street": "R PILRITO",
      "house": "58",
      "postcode": "2890-343",
      "city": "SÃO FRANCISCO",
      "lon": "-8.975038619223158",
      "lat": "38.731317235632424"
    },
    {
      "id": "pt.ine.add.PTCONT.4971979",
      "street": "R PILRITO",
      "house": "10",
      "postcode": "2890-343",
      "city": "SÃO FRANCISCO",
      "lon": "-8.974940306497928",
      "lat": "38.731759333407055"
    },
    {
      "id": "pt.ine.add.PTCONT.4975542",
      "street": "R ÁGUIA PESQUEIRA",
      "house": "82",
      "postcode": "2890-348",
      "city": "SÃO FRANCISCO",
      "lon": "-8.974738244614777",
      "lat": "38.7302204279301"
    },
    {
      "id": "pt.ine.add.PTCONT.4979820",
      "street": "R ALFAIATE",
      "house": "25",
      "postcode": "2890-347",
      "city": "SÃO FRANCISCO",
      "lon": "-8.975631817009731",
      "lat": "38.73090760397007"
    },
    {
      "id": "pt.ine.add.PTCONT.4982860",
      "street": "R PATO REAL",
      "house": "45",
      "postcode": "2890-345",
      "city": "SÃO FRANCISCO",
      "lon": "-8.975938627070972",
      "lat": "38.731571981011115"
    },
    {
      "id": "pt.ine.add.PTCONT.4986364",
      "street": "R ÁGUIA PESQUEIRA",
      "house": "77",
      "postcode": "2890-348",
      "city": "SÃO FRANCISCO",
      "lon": "-8.974371331824166",
      "lat": "38.730313148450215"
    },
    {
      "id": "pt.ine.add.PTCONT.4986365",
      "street": "R ÁGUIA PESQUEIRA",
      "house": "77",
      "postcode": "2890-348",
      "city": "SÃO FRANCISCO",
      "lon": "-8.974371331824166",
      "lat": "38.730313148450215"
    },
    {
      "id": "pt.ine.add.PTCONT.4986510",
      "street": "R PATO REAL",
      "house": "17",
      "postcode": "2890-345",
      "city": "SÃO FRANCISCO",
      "lon": "-8.975860989847302",
      "lat": "38.73181575547775"
    },
    {
      "id": "pt.ine.add.PTCONT.4989901",
      "street": "R GARÇA REAL",
      "house": "141",
      "postcode": "2890-351",
      "city": "SÃO FRANCISCO",
      "lon": "-8.973372176105306",
      "lat": "38.72846469484628"
    },
    {
      "id": "pt.ine.add.PTCONT.4989902",
      "street": "R GARÇA REAL",
      "house": "141",
      "postcode": "2890-351",
      "city": "SÃO FRANCISCO",
      "lon": "-8.973372176105306",
      "lat": "38.72846469484628"
    },
    {
      "id": "pt.ine.add.PTCONT.4992669",
      "street": "R ALFAIATE",
      "house": "19",
      "postcode": "2890-347",
      "city": "SÃO FRANCISCO",
      "lon": "-8.975667160902239",
      "lat": "38.73097941288093"
    },
    {
      "id": "pt.ine.add.PTCONT.5000147",
      "street": "R ÁGUIA PESQUEIRA",
      "house": "110",
      "postcode": "2890-348",
      "city": "SÃO FRANCISCO",
      "lon": "-8.974550984424592",
      "lat": "38.72994252926514"
    },
    {
      "id": "pt.ine.add.PTCONT.5001008",
      "street": "R ÁGUIA PESQUEIRA",
      "house": "96",
      "postcode": "2890-348",
      "city": "SÃO FRANCISCO",
      "lon": "-8.9746446671744",
      "lat": "38.73008598223688"
    },
    {
      "id": "pt.ine.add.PTCONT.5026864",
      "street": "R ÁGUIA PESQUEIRA",
      "house": "118",
      "postcode": "2890-348",
      "city": "SÃO FRANCISCO",
      "lon": "-8.974504248849017",
      "lat": "38.72987980994502"
    },
    {
      "id": "pt.ine.add.PTCONT.5026865",
      "street": "R ÁGUIA PESQUEIRA",
      "house": "93",
      "postcode": "2890-348",
      "city": "SÃO FRANCISCO",
      "lon": "-8.974312252037143",
      "lat": "38.73017845423368"
    },
    {
      "id": "pt.ine.add.PTCONT.5029623",
      "street": "R ÁGUIA PESQUEIRA",
      "house": "93",
      "postcode": "2890-348",
      "city": "SÃO FRANCISCO",
      "lon": "-8.974312252037143",
      "lat": "38.73017845423368"
    },
    {
      "id": "pt.ine.add.PTCONT.5035150",
      "street": "R ALFAIATE",
      "house": "157",
      "postcode": "2890-347",
      "city": "SÃO FRANCISCO",
      "lon": "-8.974846787220336",
      "lat": "38.72967016107001"
    },
    {
      "id": "pt.ine.add.PTCONT.5037777",
      "street": "R PATO TROMBETEIRO",
      "house": "39",
      "postcode": "2890-344",
      "city": "SÃO FRANCISCO",
      "lon": "-8.975271353198536",
      "lat": "38.731549766075396"
    },
    {
      "id": "pt.ine.add.PTCONT.5041334",
      "street": "R ÁGUIA PESQUEIRA",
      "house": "39",
      "postcode": "2890-348",
      "city": "SÃO FRANCISCO",
      "lon": "-8.974559226319604",
      "lat": "38.7306450905556"
    },
    {
      "id": "pt.ine.add.PTCONT.5041335",
      "street": "R ÁGUIA PESQUEIRA",
      "house": "39",
      "postcode": "2890-348",
      "city": "SÃO FRANCISCO",
      "lon": "-8.974559226319604",
      "lat": "38.7306450905556"
    },
    {
      "id": "pt.ine.add.PTCONT.5041336",
      "street": "R ÁGUIA PESQUEIRA",
      "house": "39",
      "postcode": "2890-348",
      "city": "SÃO FRANCISCO",
      "lon": "-8.974559226319604",
      "lat": "38.7306450905556"
    },
    {
      "id": "pt.ine.add.PTCONT.5041337",
      "street": "R ALFAIATE",
      "house": "109",
      "postcode": "2890-347",
      "city": "SÃO FRANCISCO",
      "lon": "-8.975048084238031",
      "lat": "38.73016414914069"
    },
    {
      "id": "pt.ine.add.PTCONT.5041543",
      "street": "R ÁGUIA PESQUEIRA",
      "house": "39",
      "postcode": "2890-348",
      "city": "SÃO FRANCISCO",
      "lon": "-8.974559226319604",
      "lat": "38.7306450905556"
    },
    {
      "id": "pt.ine.add.PTCONT.5052701",
      "street": "R PATO REAL",
      "house": "53",
      "postcode": "2890-345",
      "city": "SÃO FRANCISCO",
      "lon": "-8.975937886165005",
      "lat": "38.7315089306748"
    },
    {
      "id": "pt.ine.add.PTCONT.5067202",
      "street": "R ÁGUIA PESQUEIRA",
      "house": "22",
      "postcode": "2890-348",
      "city": "SÃO FRANCISCO",
      "lon": "-8.974996298024363",
      "lat": "38.73065095172705"
    },
    {
      "id": "pt.ine.add.PTCONT.5083694",
      "street": "R ÁGUIA PESQUEIRA",
      "house": "23",
      "postcode": "2890-348",
      "city": "SÃO FRANCISCO",
      "lon": "-8.974617989943521",
      "lat": "38.73075276304162"
    },
    {
      "id": "pt.ine.add.PTCONT.5083695",
      "street": "R ÁGUIA PESQUEIRA",
      "house": "23",
      "postcode": "2890-348",
      "city": "SÃO FRANCISCO",
      "lon": "-8.974617989943521",
      "lat": "38.73075276304162"
    },
    {
      "id": "pt.ine.add.PTCONT.5083696",
      "street": "R ÁGUIA PESQUEIRA",
      "house": "23",
      "postcode": "2890-348",
      "city": "SÃO FRANCISCO",
      "lon": "-8.974617989943521",
      "lat": "38.73075276304162"
    },
    {
      "id": "pt.ine.add.PTCONT.5083697",
      "street": "R ÁGUIA PESQUEIRA",
      "house": "23",
      "postcode": "2890-348",
      "city": "SÃO FRANCISCO",
      "lon": "-8.974617989943521",
      "lat": "38.73075276304162"
    },
    {
      "id": "pt.ine.add.PTCONT.5083698",
      "street": "R ÁGUIA PESQUEIRA",
      "house": "104",
      "postcode": "2890-348",
      "city": "SÃO FRANCISCO",
      "lon": "-8.974597825752166",
      "lat": "38.73001425576134"
    },
    {
      "id": "pt.ine.add.PTCONT.5095986",
      "street": "R PATO TROMBETEIRO",
      "house": "10",
      "postcode": "2890-344",
      "city": "SÃO FRANCISCO",
      "lon": "-8.975597035185427",
      "lat": "38.73186269780545"
    },
    {
      "id": "pt.ine.add.PTCONT.5098898",
      "street": "R ÁGUIA PESQUEIRA",
      "house": "109",
      "postcode": "2890-348",
      "city": "SÃO FRANCISCO",
      "lon": "-8.97423017445559",
      "lat": "38.7300439254543"
    },
    {
      "id": "pt.ine.add.PTCONT.5098899",
      "street": "R ÁGUIA PESQUEIRA",
      "house": "109",
      "postcode": "2890-348",
      "city": "SÃO FRANCISCO",
      "lon": "-8.97423017445559",
      "lat": "38.7300439254543"
    },
    {
      "id": "pt.ine.add.PTCONT.5102420",
      "street": "R ALFAIATE",
      "house": "129",
      "postcode": "2890-347",
      "city": "SÃO FRANCISCO",
      "lon": "-8.974953132012576",
      "lat": "38.72991261015701"
    },
    {
      "id": "pt.ine.add.PTCONT.5108501",
      "street": "R ÁGUIA PESQUEIRA",
      "house": "90",
      "postcode": "2890-348",
      "city": "SÃO FRANCISCO",
      "lon": "-8.97469140300938",
      "lat": "38.73014870149574"
    },
    {
      "id": "pt.ine.add.PTCONT.5117019",
      "street": "R PATO REAL",
      "house": "11",
      "postcode": "2890-345",
      "city": "SÃO FRANCISCO",
      "lon": "-8.975838732094426",
      "lat": "38.731878971607536"
    },
    {
      "id": "pt.ine.add.PTCONT.5126704",
      "street": "R PATO REAL",
      "house": "25",
      "postcode": "2890-345",
      "city": "SÃO FRANCISCO",
      "lon": "-8.97589474684119",
      "lat": "38.731752456442095"
    },
    {
      "id": "pt.ine.add.PTCONT.5128778",
      "street": "R PILRITO",
      "house": "30",
      "postcode": "2890-343",
      "city": "SÃO FRANCISCO",
      "lon": "-8.974961084910404",
      "lat": "38.73157001673627"
    },
    {
      "id": "pt.ine.add.PTCONT.5130469",
      "street": "R ALFAIATE",
      "house": "61",
      "postcode": "2890-347",
      "city": "SÃO FRANCISCO",
      "lon": "-8.97543220622679",
      "lat": "38.73055773213485"
    },
    {
      "id": "pt.ine.add.PTCONT.5133497",
      "street": "R GARÇA REAL",
      "house": "65",
      "postcode": "2890-351",
      "city": "SÃO FRANCISCO",
      "lon": "-8.973713239965255",
      "lat": "38.72911081600309"
    }
  ]
}