{
  "data": {
    "distrito": "Porto",
    "concelho": "Vila do Conde",
    "freguesia": "Macieira da Maia",
    "OBJECTID": 644,
    "BGRI2021": "13161400104",
    "DT21": "13",
    "DTMN21": "1316",
    "DTMNFR21": "131614",
    "DTMNFRSEC21": "131614001",
    "SECNUM21": "001",
    "SSNUM21": "04",
    "SECSSNUM21": "00104",
    "OBJECTID_1": 142767,
    "DT": "13",
    "CC": "16",
    "fr": "14",
    "SEC": "001",
    "SS": "04"
  },
  "addresses": [
    {
      "id": "pt.ine.add.PTCONT.3565372",
      "street": "R PIMENTA",
      "house": "11",
      "postcode": "4485-380",
      "city": "MACIEIRA DA MAIA",
      "lon": "-8.646208146881904",
      "lat": "41.3388161212169"
    },
    {
      "id": "pt.ine.add.PTCONT.3565373",
      "street": "R PIMENTA",
      "house": "11",
      "postcode": "4485-380",
      "city": "MACIEIRA DA MAIA",
      "lon": "-8.646208146881904",
      "lat": "41.3388161212169"
    },
    {
      "id": "pt.ine.add.PTCONT.3565374",
      "street": "R PIMENTA",
      "house": "11",
      "postcode": "4485-380",
      "city": "MACIEIRA DA MAIA",
      "lon": "-8.646208146881904",
      "lat": "41.3388161212169"
    },
    {
      "id": "pt.ine.add.PTCONT.3565375",
      "street": "R PIMENTA",
      "house": "11",
      "postcode": "4485-380",
      "city": "MACIEIRA DA MAIA",
      "lon": "-8.646208146881904",
      "lat": "41.3388161212169"
    },
    {
      "id": "pt.ine.add.PTCONT.3565376",
      "street": "R PIMENTA",
      "house": "11",
      "postcode": "4485-380",
      "city": "MACIEIRA DA MAIA",
      "lon": "-8.646208146881904",
      "lat": "41.3388161212169"
    },
    {
      "id": "pt.ine.add.PTCONT.3565377",
      "street": "R PIMENTA",
      "house": "11",
      "postcode": "4485-380",
      "city": "MACIEIRA DA MAIA",
      "lon": "-8.646208146881904",
      "lat": "41.3388161212169"
    },
    {
      "id": "pt.ine.add.PTCONT.3565378",
      "street": "R PIMENTA",
      "house": "11",
      "postcode": "4485-380",
      "city": "MACIEIRA DA MAIA",
      "lon": "-8.646208146881904",
      "lat": "41.3388161212169"
    },
    {
      "id": "pt.ine.add.PTCONT.3565379",
      "street": "R PIMENTA",
      "house": "11",
      "postcode": "4485-380",
      "city": "MACIEIRA DA MAIA",
      "lon": "-8.646208146881904",
      "lat": "41.3388161212169"
    },
    {
      "id": "pt.ine.add.PTCONT.3565380",
      "street": "R PIMENTA",
      "house": "11",
      "postcode": "4485-380",
      "city": "MACIEIRA DA MAIA",
      "lon": "-8.646208146881904",
      "lat": "41.3388161212169"
    },
    {
      "id": "pt.ine.add.PTCONT.3565384",
      "street": "R PIMENTA",
      "house": "11",
      "postcode": "4485-380",
      "city": "MACIEIRA DA MAIA",
      "lon": "-8.646208146881904",
      "lat": "41.3388161212169"
    },
    {
      "id": "pt.ine.add.PTCONT.3565388",
      "street": "R PIMENTA",
      "house": "11",
      "postcode": "4485-380",
      "city": "MACIEIRA DA MAIA",
      "lon": "-8.646208146881904",
      "lat": "41.3388161212169"
    },
    {
      "id": "pt.ine.add.PTCONT.3575757",
      "street": "R PICOUTOS",
      "house": "230",
      "postcode": "4485-406",
      "city": "MACIEIRA DA MAIA",
      "lon": "-8.66287124538957",
      "lat": "41.341405828447556"
    },
    {
      "id": "pt.ine.add.PTCONT.3588464",
      "street": "R GAIO",
      "house": "91",
      "postcode": "4485-395",
      "city": "MACIEIRA DA MAIA",
      "lon": "-8.660979113753747",
      "lat": "41.3408562711132"
    },
    {
      "id": "pt.ine.add.PTCONT.3601583",
      "street": "CC PINTA",
      "house": "17",
      "postcode": "4485-421",
      "city": "MACIEIRA DA MAIA",
      "lon": "-8.647456820893444",
      "lat": "41.3396029047052"
    },
    {
      "id": "pt.ine.add.PTCONT.3623327",
      "street": "R GAIO",
      "house": "109",
      "postcode": "4485-395",
      "city": "MACIEIRA DA MAIA",
      "lon": "-8.66076247091786",
      "lat": "41.34065917540061"
    },
    {
      "id": "pt.ine.add.PTCONT.3640409",
      "street": "R COMEND",
      "house": "490",
      "postcode": "4485-394",
      "city": "MACIEIRA DA MAIA",
      "lon": "-8.662070360274187",
      "lat": "41.34135548779591"
    },
    {
      "id": "pt.ine.add.PTCONT.3652959",
      "street": "R PIMENTA",
      "house": "85",
      "postcode": "4485-380",
      "city": "MACIEIRA DA MAIA",
      "lon": "-8.647612836393284",
      "lat": "41.33969224792966"
    },
    {
      "id": "pt.ine.add.PTCONT.3679371",
      "street": "R COMEND",
      "house": "482",
      "postcode": "4485-394",
      "city": "MACIEIRA DA MAIA",
      "lon": "-8.66217802880019",
      "lat": "41.34137300100282"
    },
    {
      "id": "pt.ine.add.PTCONT.3679825",
      "street": "R MONTE MANINHO",
      "house": "4",
      "postcode": "4485-398",
      "city": "MACIEIRA DA MAIA",
      "lon": "-8.661245655141576",
      "lat": "41.34131425492812"
    },
    {
      "id": "pt.ine.add.PTCONT.3711281",
      "street": "R PIMENTA",
      "house": "123",
      "postcode": "4485-380",
      "city": "MACIEIRA DA MAIA",
      "lon": "-8.648069009624022",
      "lat": "41.33996933350309"
    },
    {
      "id": "pt.ine.add.PTCONT.3711282",
      "street": "CC PINTA",
      "house": "45",
      "postcode": "4485-421",
      "city": "MACIEIRA DA MAIA",
      "lon": "-8.647862653629193",
      "lat": "41.33955607004968"
    },
    {
      "id": "pt.ine.add.PTCONT.3748195",
      "street": "R COMEND",
      "house": "536",
      "postcode": "4485-394",
      "city": "MACIEIRA DA MAIA",
      "lon": "-8.661496978172963",
      "lat": "41.34136712568036"
    },
    {
      "id": "pt.ine.add.PTCONT.3756363",
      "street": "R PICOUTOS",
      "house": "146",
      "postcode": "4485-406",
      "city": "MACIEIRA DA MAIA",
      "lon": "-8.663643341746308",
      "lat": "41.34085302483353"
    },
    {
      "id": "pt.ine.add.PTCONT.3821233",
      "street": "R PIMENTA",
      "house": "163",
      "postcode": "4485-380",
      "city": "MACIEIRA DA MAIA",
      "lon": "-8.648453363962666",
      "lat": "41.340228730742524"
    },
    {
      "id": "pt.ine.add.PTCONT.3821234",
      "street": "R PIMENTA",
      "house": "163",
      "postcode": "4485-380",
      "city": "MACIEIRA DA MAIA",
      "lon": "-8.648453363962666",
      "lat": "41.340228730742524"
    },
    {
      "id": "pt.ine.add.PTCONT.3839124",
      "street": "R PIMENTA",
      "house": "15",
      "postcode": "4485-380",
      "city": "MACIEIRA DA MAIA",
      "lon": "-8.64647231415172",
      "lat": "41.33898602031651"
    },
    {
      "id": "pt.ine.add.PTCONT.3839279",
      "street": "R PIMENTA",
      "house": "15",
      "postcode": "4485-380",
      "city": "MACIEIRA DA MAIA",
      "lon": "-8.64647231415172",
      "lat": "41.33898602031651"
    },
    {
      "id": "pt.ine.add.PTCONT.3872784",
      "street": "R PICOUTOS",
      "house": "14",
      "postcode": "4485-406",
      "city": "MACIEIRA DA MAIA",
      "lon": "-8.665133770500274",
      "lat": "41.34048598277248"
    },
    {
      "id": "pt.ine.add.PTCONT.3937763",
      "street": "R SOBREIROS",
      "house": "401",
      "postcode": "4485-407",
      "city": "MACIEIRA DA MAIA",
      "lon": "-8.645979608614159",
      "lat": "41.33861905056842"
    },
    {
      "id": "pt.ine.add.PTCONT.3937778",
      "street": "R GAIO",
      "house": "101",
      "postcode": "4485-395",
      "city": "MACIEIRA DA MAIA",
      "lon": "-8.660846607685015",
      "lat": "41.3407218179989"
    },
    {
      "id": "pt.ine.add.PTCONT.3941264",
      "street": "R PIMENTA",
      "house": "103",
      "postcode": "4485-380",
      "city": "MACIEIRA DA MAIA",
      "lon": "-8.647829153032164",
      "lat": "41.33985335372255"
    },
    {
      "id": "pt.ine.add.PTCONT.3945811",
      "street": "R MONTE MANINHO",
      "house": "48",
      "postcode": "4485-398",
      "city": "MACIEIRA DA MAIA",
      "lon": "-8.660718462342194",
      "lat": "41.34112758784339"
    },
    {
      "id": "pt.ine.add.PTCONT.3950551",
      "street": "R GAIO",
      "house": "200",
      "postcode": "4485-395",
      "city": "MACIEIRA DA MAIA",
      "lon": "-8.660409693727269",
      "lat": "41.339877439620544"
    },
    {
      "id": "pt.ine.add.PTCONT.3963069",
      "street": "R PIMENTA",
      "house": "191",
      "postcode": "4485-380",
      "city": "MACIEIRA DA MAIA",
      "lon": "-8.648740939280062",
      "lat": "41.340335491379115"
    },
    {
      "id": "pt.ine.add.PTCONT.3988802",
      "street": "R GAIO",
      "house": "61",
      "postcode": "4485-395",
      "city": "MACIEIRA DA MAIA",
      "lon": "-8.661195539689556",
      "lat": "41.341026355250555"
    },
    {
      "id": "pt.ine.add.PTCONT.4001699",
      "street": "R COMENDADOR",
      "house": "718",
      "postcode": "4485-394",
      "city": "MACIEIRA DA MAIA",
      "lon": "-8.658904338088826",
      "lat": "41.34136099122218"
    },
    {
      "id": "pt.ine.add.PTCONT.4060850",
      "street": "R COMEND",
      "house": "444",
      "postcode": "4485-394",
      "city": "MACIEIRA DA MAIA",
      "lon": "-8.662608192949241",
      "lat": "41.341380026814086"
    },
    {
      "id": "pt.ine.add.PTCONT.4146025",
      "street": "R MONTE MANINHO",
      "house": "28",
      "postcode": "4485-398",
      "city": "MACIEIRA DA MAIA",
      "lon": "-8.660934016102294",
      "lat": "41.3411896278491"
    },
    {
      "id": "pt.ine.add.PTCONT.4146026",
      "street": "R GAIO",
      "house": "",
      "postcode": "4485-395",
      "city": "MACIEIRA DA MAIA",
      "lon": "-8.660894831298078",
      "lat": "41.34077562117804"
    },
    {
      "id": "pt.ine.add.PTCONT.4167770",
      "street": "R GAIO",
      "house": "121",
      "postcode": "4485-395",
      "city": "MACIEIRA DA MAIA",
      "lon": "-8.660641912522673",
      "lat": "41.340524667268774"
    },
    {
      "id": "pt.ine.add.PTCONT.4167771",
      "street": "R GAIO",
      "house": "121",
      "postcode": "4485-395",
      "city": "MACIEIRA DA MAIA",
      "lon": "-8.660641912522673",
      "lat": "41.340524667268774"
    },
    {
      "id": "pt.ine.add.PTCONT.4198087",
      "street": "R PIMENTA",
      "house": "147",
      "postcode": "4485-380",
      "city": "MACIEIRA DA MAIA",
      "lon": "-8.648297416995263",
      "lat": "41.34014839241745"
    },
    {
      "id": "pt.ine.add.PTCONT.4206223",
      "street": "CC PINTA",
      "house": "50",
      "postcode": "4485-421",
      "city": "MACIEIRA DA MAIA",
      "lon": "-8.647839823676474",
      "lat": "41.33969123299555"
    },
    {
      "id": "pt.ine.add.PTCONT.4217970",
      "street": "R COMEND",
      "house": "698",
      "postcode": "4485-394",
      "city": "MACIEIRA DA MAIA",
      "lon": "-8.659142915470465",
      "lat": "41.34131488078088"
    },
    {
      "id": "pt.ine.add.PTCONT.4237132",
      "street": "R PIMENTA",
      "house": "113",
      "postcode": "4485-380",
      "city": "MACIEIRA DA MAIA",
      "lon": "-8.647877294440079",
      "lat": "41.33989815869177"
    },
    {
      "id": "pt.ine.add.PTCONT.4282102",
      "street": "R COMEND",
      "house": "614",
      "postcode": "4485-394",
      "city": "MACIEIRA DA MAIA",
      "lon": "-8.660491906373553",
      "lat": "41.34118265051644"
    },
    {
      "id": "pt.ine.add.PTCONT.4323517",
      "street": "R MONTE MANINHO",
      "house": "70",
      "postcode": "4485-398",
      "city": "MACIEIRA DA MAIA",
      "lon": "-8.660538895056732",
      "lat": "41.341083390626615"
    },
    {
      "id": "pt.ine.add.PTCONT.4336886",
      "street": "R PIMENTA",
      "house": "359",
      "postcode": "4485-380",
      "city": "MACIEIRA DA MAIA",
      "lon": "-8.645369983995534",
      "lat": "41.338576745228295"
    },
    {
      "id": "pt.ine.add.PTCONT.4372096",
      "street": "R PICOUTOS",
      "house": "48",
      "postcode": "4485-406",
      "city": "MACIEIRA DA MAIA",
      "lon": "-8.664810034871218",
      "lat": "41.34034341398973"
    }
  ]
}