{
  "data": {
    "distrito": "Porto",
    "concelho": "Matosinhos",
    "freguesia": "União das freguesias de São Mamede de Infesta e Senhora da Hora",
    "OBJECTID": 1073,
    "BGRI2021": "13081402003",
    "DT21": "13",
    "DTMN21": "1308",
    "DTMNFR21": "130814",
    "DTMNFRSEC21": "130814020",
    "SECNUM21": "020",
    "SSNUM21": "03",
    "SECSSNUM21": "02003",
    "OBJECTID_1": 133574,
    "DT": "13",
    "CC": "08",
    "fr": "14",
    "SEC": "020",
    "SS": "03"
  },
  "addresses": [
    {
      "id": "pt.ine.add.PTCONT.3548069",
      "street": "R AMIEIRA",
      "house": "834",
      "postcode": "4465-021",
      "city": "SÃO MAMEDE DE INFESTA",
      "lon": "-8.623059912498569",
      "lat": "41.18141579939974"
    },
    {
      "id": "pt.ine.add.PTCONT.3647978",
      "street": "R AMIEIRA",
      "house": "814",
      "postcode": "4465-021",
      "city": "SÃO MAMEDE DE INFESTA",
      "lon": "-8.62304987349947",
      "lat": "41.18166796269395"
    },
    {
      "id": "pt.ine.add.PTCONT.3694237",
      "street": "R DIU",
      "house": "612",
      "postcode": "4465-120",
      "city": "SÃO MAMEDE DE INFESTA",
      "lon": "-8.623516622679043",
      "lat": "41.181927101122156"
    },
    {
      "id": "pt.ine.add.PTCONT.3694238",
      "street": "R DIU",
      "house": "612",
      "postcode": "4465-120",
      "city": "SÃO MAMEDE DE INFESTA",
      "lon": "-8.623516622679043",
      "lat": "41.181927101122156"
    },
    {
      "id": "pt.ine.add.PTCONT.3694239",
      "street": "R DIU",
      "house": "612",
      "postcode": "4465-120",
      "city": "SÃO MAMEDE DE INFESTA",
      "lon": "-8.623516622679043",
      "lat": "41.181927101122156"
    },
    {
      "id": "pt.ine.add.PTCONT.3694261",
      "street": "R DIU",
      "house": "612",
      "postcode": "4465-120",
      "city": "SÃO MAMEDE DE INFESTA",
      "lon": "-8.623516622679043",
      "lat": "41.181927101122156"
    },
    {
      "id": "pt.ine.add.PTCONT.3707127",
      "street": "R CRISTÓVÃO FALCÃO",
      "house": "72",
      "postcode": "4465-113",
      "city": "SÃO MAMEDE DE INFESTA",
      "lon": "-8.624711455428926",
      "lat": "41.18073343887374"
    },
    {
      "id": "pt.ine.add.PTCONT.3707128",
      "street": "R CRISTÓVÃO FALCÃO",
      "house": "72",
      "postcode": "4465-113",
      "city": "SÃO MAMEDE DE INFESTA",
      "lon": "-8.624711455428926",
      "lat": "41.18073343887374"
    },
    {
      "id": "pt.ine.add.PTCONT.3707129",
      "street": "R CRISTÓVÃO FALCÃO",
      "house": "72",
      "postcode": "4465-113",
      "city": "SÃO MAMEDE DE INFESTA",
      "lon": "-8.624711455428926",
      "lat": "41.18073343887374"
    },
    {
      "id": "pt.ine.add.PTCONT.3707130",
      "street": "R CRISTÓVÃO FALCÃO",
      "house": "72",
      "postcode": "4465-113",
      "city": "SÃO MAMEDE DE INFESTA",
      "lon": "-8.624711455428926",
      "lat": "41.18073343887374"
    },
    {
      "id": "pt.ine.add.PTCONT.3707131",
      "street": "R CRISTÓVÃO FALCÃO",
      "house": "72",
      "postcode": "4465-113",
      "city": "SÃO MAMEDE DE INFESTA",
      "lon": "-8.624711455428926",
      "lat": "41.18073343887374"
    },
    {
      "id": "pt.ine.add.PTCONT.3707132",
      "street": "R CRISTÓVÃO FALCÃO",
      "house": "72",
      "postcode": "4465-113",
      "city": "SÃO MAMEDE DE INFESTA",
      "lon": "-8.624711455428926",
      "lat": "41.18073343887374"
    },
    {
      "id": "pt.ine.add.PTCONT.3707133",
      "street": "R CRISTÓVÃO FALCÃO",
      "house": "72",
      "postcode": "4465-113",
      "city": "SÃO MAMEDE DE INFESTA",
      "lon": "-8.624711455428926",
      "lat": "41.18073343887374"
    },
    {
      "id": "pt.ine.add.PTCONT.3707140",
      "street": "R CRISTÓVÃO FALCÃO",
      "house": "72",
      "postcode": "4465-113",
      "city": "SÃO MAMEDE DE INFESTA",
      "lon": "-8.624711455428926",
      "lat": "41.18073343887374"
    },
    {
      "id": "pt.ine.add.PTCONT.3707141",
      "street": "R CRISTÓVÃO FALCÃO",
      "house": "72",
      "postcode": "4465-113",
      "city": "SÃO MAMEDE DE INFESTA",
      "lon": "-8.624711455428926",
      "lat": "41.18073343887374"
    },
    {
      "id": "pt.ine.add.PTCONT.3707142",
      "street": "R CRISTÓVÃO FALCÃO",
      "house": "72",
      "postcode": "4465-113",
      "city": "SÃO MAMEDE DE INFESTA",
      "lon": "-8.624711455428926",
      "lat": "41.18073343887374"
    },
    {
      "id": "pt.ine.add.PTCONT.3707143",
      "street": "R CRISTÓVÃO FALCÃO",
      "house": "72",
      "postcode": "4465-113",
      "city": "SÃO MAMEDE DE INFESTA",
      "lon": "-8.624711455428926",
      "lat": "41.18073343887374"
    },
    {
      "id": "pt.ine.add.PTCONT.3707144",
      "street": "R CRISTÓVÃO FALCÃO",
      "house": "72",
      "postcode": "4465-113",
      "city": "SÃO MAMEDE DE INFESTA",
      "lon": "-8.624711455428926",
      "lat": "41.18073343887374"
    },
    {
      "id": "pt.ine.add.PTCONT.3707145",
      "street": "R CRISTÓVÃO FALCÃO",
      "house": "72",
      "postcode": "4465-113",
      "city": "SÃO MAMEDE DE INFESTA",
      "lon": "-8.624711455428926",
      "lat": "41.18073343887374"
    },
    {
      "id": "pt.ine.add.PTCONT.3707146",
      "street": "R CRISTÓVÃO FALCÃO",
      "house": "72",
      "postcode": "4465-113",
      "city": "SÃO MAMEDE DE INFESTA",
      "lon": "-8.624711455428926",
      "lat": "41.18073343887374"
    },
    {
      "id": "pt.ine.add.PTCONT.3707147",
      "street": "R CRISTÓVÃO FALCÃO",
      "house": "72",
      "postcode": "4465-113",
      "city": "SÃO MAMEDE DE INFESTA",
      "lon": "-8.624711455428926",
      "lat": "41.18073343887374"
    },
    {
      "id": "pt.ine.add.PTCONT.3707148",
      "street": "R CRISTÓVÃO FALCÃO",
      "house": "72",
      "postcode": "4465-113",
      "city": "SÃO MAMEDE DE INFESTA",
      "lon": "-8.624711455428926",
      "lat": "41.18073343887374"
    },
    {
      "id": "pt.ine.add.PTCONT.3707149",
      "street": "R CRISTÓVÃO FALCÃO",
      "house": "72",
      "postcode": "4465-113",
      "city": "SÃO MAMEDE DE INFESTA",
      "lon": "-8.624711455428926",
      "lat": "41.18073343887374"
    },
    {
      "id": "pt.ine.add.PTCONT.3707150",
      "street": "R CRISTÓVÃO FALCÃO",
      "house": "72",
      "postcode": "4465-113",
      "city": "SÃO MAMEDE DE INFESTA",
      "lon": "-8.624711455428926",
      "lat": "41.18073343887374"
    },
    {
      "id": "pt.ine.add.PTCONT.3707151",
      "street": "R CRISTÓVÃO FALCÃO",
      "house": "72",
      "postcode": "4465-113",
      "city": "SÃO MAMEDE DE INFESTA",
      "lon": "-8.624711455428926",
      "lat": "41.18073343887374"
    },
    {
      "id": "pt.ine.add.PTCONT.3707153",
      "street": "R CRISTÓVÃO FALCÃO",
      "house": "72",
      "postcode": "4465-113",
      "city": "SÃO MAMEDE DE INFESTA",
      "lon": "-8.624711455428926",
      "lat": "41.18073343887374"
    },
    {
      "id": "pt.ine.add.PTCONT.3746403",
      "street": "R DE DIU",
      "house": "608",
      "postcode": "4465-120",
      "city": "SÃO MAMEDE DE INFESTA",
      "lon": "-8.623541802203373",
      "lat": "41.182107080024174"
    },
    {
      "id": "pt.ine.add.PTCONT.3746404",
      "street": "R DE DIU",
      "house": "608",
      "postcode": "4465-120",
      "city": "SÃO MAMEDE DE INFESTA",
      "lon": "-8.623541802203373",
      "lat": "41.182107080024174"
    },
    {
      "id": "pt.ine.add.PTCONT.3746405",
      "street": "R DE DIU",
      "house": "608",
      "postcode": "4465-120",
      "city": "SÃO MAMEDE DE INFESTA",
      "lon": "-8.623541802203373",
      "lat": "41.182107080024174"
    },
    {
      "id": "pt.ine.add.PTCONT.3746406",
      "street": "R DE DIU",
      "house": "608",
      "postcode": "4465-120",
      "city": "SÃO MAMEDE DE INFESTA",
      "lon": "-8.623541802203373",
      "lat": "41.182107080024174"
    },
    {
      "id": "pt.ine.add.PTCONT.3800424",
      "street": "R AMIEIRA",
      "house": "800",
      "postcode": "4465-021",
      "city": "SÃO MAMEDE DE INFESTA",
      "lon": "-8.62306293230379",
      "lat": "41.18182098035155"
    },
    {
      "id": "pt.ine.add.PTCONT.3814413",
      "street": "R BERNARDIM RIBEIRO",
      "house": "673",
      "postcode": "4465-043",
      "city": "SÃO MAMEDE DE INFESTA",
      "lon": "-8.623489025341684",
      "lat": "41.181422977465665"
    },
    {
      "id": "pt.ine.add.PTCONT.3814414",
      "street": "R BERNARDIM RIBEIRO",
      "house": "673",
      "postcode": "4465-043",
      "city": "SÃO MAMEDE DE INFESTA",
      "lon": "-8.623489025341684",
      "lat": "41.181422977465665"
    },
    {
      "id": "pt.ine.add.PTCONT.3814415",
      "street": "R BERNARDIM RIBEIRO",
      "house": "673",
      "postcode": "4465-043",
      "city": "SÃO MAMEDE DE INFESTA",
      "lon": "-8.623489025341684",
      "lat": "41.181422977465665"
    },
    {
      "id": "pt.ine.add.PTCONT.3814416",
      "street": "R BERNARDIM RIBEIRO",
      "house": "673",
      "postcode": "4465-043",
      "city": "SÃO MAMEDE DE INFESTA",
      "lon": "-8.623489025341684",
      "lat": "41.181422977465665"
    },
    {
      "id": "pt.ine.add.PTCONT.3814417",
      "street": "R BERNARDIM RIBEIRO",
      "house": "673",
      "postcode": "4465-043",
      "city": "SÃO MAMEDE DE INFESTA",
      "lon": "-8.623489025341684",
      "lat": "41.181422977465665"
    },
    {
      "id": "pt.ine.add.PTCONT.3814418",
      "street": "R BERNARDIM RIBEIRO",
      "house": "673",
      "postcode": "4465-043",
      "city": "SÃO MAMEDE DE INFESTA",
      "lon": "-8.623489025341684",
      "lat": "41.181422977465665"
    },
    {
      "id": "pt.ine.add.PTCONT.3814557",
      "street": "R BERNARDIM RIBEIRO",
      "house": "673",
      "postcode": "4465-043",
      "city": "SÃO MAMEDE DE INFESTA",
      "lon": "-8.623489025341684",
      "lat": "41.181422977465665"
    },
    {
      "id": "pt.ine.add.PTCONT.3816255",
      "street": "R BERNARDIM RIBEIRO",
      "house": "673",
      "postcode": "4465-043",
      "city": "SÃO MAMEDE DE INFESTA",
      "lon": "-8.623489025341684",
      "lat": "41.181422977465665"
    },
    {
      "id": "pt.ine.add.PTCONT.3816292",
      "street": "R BERNARDIM RIBEIRO",
      "house": "673",
      "postcode": "4465-043",
      "city": "SÃO MAMEDE DE INFESTA",
      "lon": "-8.623489025341684",
      "lat": "41.181422977465665"
    },
    {
      "id": "pt.ine.add.PTCONT.3839743",
      "street": "R AMIEIRA",
      "house": "771",
      "postcode": "4465-021",
      "city": "SÃO MAMEDE DE INFESTA",
      "lon": "-8.623063737595597",
      "lat": "41.1819290286005"
    },
    {
      "id": "pt.ine.add.PTCONT.3849814",
      "street": "R BERNARDIM RIBEIRO",
      "house": "681",
      "postcode": "4465-043",
      "city": "SÃO MAMEDE DE INFESTA",
      "lon": "-8.623513734403344",
      "lat": "41.18153992824669"
    },
    {
      "id": "pt.ine.add.PTCONT.3849815",
      "street": "R BERNARDIM RIBEIRO",
      "house": "681",
      "postcode": "4465-043",
      "city": "SÃO MAMEDE DE INFESTA",
      "lon": "-8.623513734403344",
      "lat": "41.18153992824669"
    },
    {
      "id": "pt.ine.add.PTCONT.3849816",
      "street": "R BERNARDIM RIBEIRO",
      "house": "681",
      "postcode": "4465-043",
      "city": "SÃO MAMEDE DE INFESTA",
      "lon": "-8.623513734403344",
      "lat": "41.18153992824669"
    },
    {
      "id": "pt.ine.add.PTCONT.3849817",
      "street": "R BERNARDIM RIBEIRO",
      "house": "681",
      "postcode": "4465-043",
      "city": "SÃO MAMEDE DE INFESTA",
      "lon": "-8.623513734403344",
      "lat": "41.18153992824669"
    },
    {
      "id": "pt.ine.add.PTCONT.3849818",
      "street": "R BERNARDIM RIBEIRO",
      "house": "681",
      "postcode": "4465-044",
      "city": "SÃO MAMEDE DE INFESTA",
      "lon": "-8.623513734403344",
      "lat": "41.18153992824669"
    },
    {
      "id": "pt.ine.add.PTCONT.3849819",
      "street": "R BERNARDIM RIBEIRO",
      "house": "681",
      "postcode": "4465-043",
      "city": "SÃO MAMEDE DE INFESTA",
      "lon": "-8.623513734403344",
      "lat": "41.18153992824669"
    },
    {
      "id": "pt.ine.add.PTCONT.3849820",
      "street": "R BERNARDIM RIBEIRO",
      "house": "681",
      "postcode": "4465-043",
      "city": "SÃO MAMEDE DE INFESTA",
      "lon": "-8.623513734403344",
      "lat": "41.18153992824669"
    },
    {
      "id": "pt.ine.add.PTCONT.3849821",
      "street": "R BERNARDIM RIBEIRO",
      "house": "681",
      "postcode": "4465-043",
      "city": "SÃO MAMEDE DE INFESTA",
      "lon": "-8.623513734403344",
      "lat": "41.18153992824669"
    },
    {
      "id": "pt.ine.add.PTCONT.3852494",
      "street": "R BERNARDIM RIBEIRO",
      "house": "681",
      "postcode": "4465-043",
      "city": "SÃO MAMEDE DE INFESTA",
      "lon": "-8.623513734403344",
      "lat": "41.18153992824669"
    },
    {
      "id": "pt.ine.add.PTCONT.3874769",
      "street": "TV BERNARDIM RIBEIRO",
      "house": "92",
      "postcode": "4465-045",
      "city": "SÃO MAMEDE DE INFESTA",
      "lon": "-8.623897192894432",
      "lat": "41.18181742836578"
    },
    {
      "id": "pt.ine.add.PTCONT.3874770",
      "street": "TV BERNARDIM RIBEIRO",
      "house": "92",
      "postcode": "4465-045",
      "city": "SÃO MAMEDE DE INFESTA",
      "lon": "-8.623897192894432",
      "lat": "41.18181742836578"
    },
    {
      "id": "pt.ine.add.PTCONT.3874771",
      "street": "TV BERNARDIM RIBEIRO",
      "house": "92",
      "postcode": "4465-045",
      "city": "SÃO MAMEDE DE INFESTA",
      "lon": "-8.623897192894432",
      "lat": "41.18181742836578"
    },
    {
      "id": "pt.ine.add.PTCONT.3874772",
      "street": "TV BERNARDIM RIBEIRO",
      "house": "92",
      "postcode": "4465-045",
      "city": "SÃO MAMEDE DE INFESTA",
      "lon": "-8.623897192894432",
      "lat": "41.18181742836578"
    },
    {
      "id": "pt.ine.add.PTCONT.3874773",
      "street": "TV BERNARDIM RIBEIRO",
      "house": "92",
      "postcode": "4465-045",
      "city": "SÃO MAMEDE DE INFESTA",
      "lon": "-8.623897192894432",
      "lat": "41.18181742836578"
    },
    {
      "id": "pt.ine.add.PTCONT.3874774",
      "street": "TV BERNARDIM RIBEIRO",
      "house": "92",
      "postcode": "4465-045",
      "city": "SÃO MAMEDE DE INFESTA",
      "lon": "-8.623897192894432",
      "lat": "41.18181742836578"
    },
    {
      "id": "pt.ine.add.PTCONT.3874775",
      "street": "TV BERNARDIM RIBEIRO",
      "house": "92",
      "postcode": "4465-045",
      "city": "SÃO MAMEDE DE INFESTA",
      "lon": "-8.623897192894432",
      "lat": "41.18181742836578"
    },
    {
      "id": "pt.ine.add.PTCONT.3874776",
      "street": "TV BERNARDIM RIBEIRO",
      "house": "92",
      "postcode": "4465-045",
      "city": "SÃO MAMEDE DE INFESTA",
      "lon": "-8.623897192894432",
      "lat": "41.18181742836578"
    },
    {
      "id": "pt.ine.add.PTCONT.3874777",
      "street": "TV BERNARDIM RIBEIRO",
      "house": "92",
      "postcode": "4465-045",
      "city": "SÃO MAMEDE DE INFESTA",
      "lon": "-8.623897192894432",
      "lat": "41.18181742836578"
    },
    {
      "id": "pt.ine.add.PTCONT.3874779",
      "street": "TV BERNARDIM RIBEIRO",
      "house": "92",
      "postcode": "4465-045",
      "city": "SÃO MAMEDE DE INFESTA",
      "lon": "-8.623897192894432",
      "lat": "41.18181742836578"
    },
    {
      "id": "pt.ine.add.PTCONT.3874780",
      "street": "TV BERNARDIM RIBEIRO",
      "house": "92",
      "postcode": "4465-045",
      "city": "SÃO MAMEDE DE INFESTA",
      "lon": "-8.623897192894432",
      "lat": "41.18181742836578"
    },
    {
      "id": "pt.ine.add.PTCONT.3874781",
      "street": "TV BERNARDIM RIBEIRO",
      "house": "92",
      "postcode": "4465-045",
      "city": "SÃO MAMEDE DE INFESTA",
      "lon": "-8.623897192894432",
      "lat": "41.18181742836578"
    },
    {
      "id": "pt.ine.add.PTCONT.3874782",
      "street": "TV BERNARDIM RIBEIRO",
      "house": "92",
      "postcode": "4465-045",
      "city": "SÃO MAMEDE DE INFESTA",
      "lon": "-8.623897192894432",
      "lat": "41.18181742836578"
    },
    {
      "id": "pt.ine.add.PTCONT.3874783",
      "street": "TV BERNARDIM RIBEIRO",
      "house": "92",
      "postcode": "4465-045",
      "city": "SÃO MAMEDE DE INFESTA",
      "lon": "-8.623897192894432",
      "lat": "41.18181742836578"
    },
    {
      "id": "pt.ine.add.PTCONT.3874784",
      "street": "TV BERNARDIM RIBEIRO",
      "house": "92",
      "postcode": "4465-045",
      "city": "SÃO MAMEDE DE INFESTA",
      "lon": "-8.623897192894432",
      "lat": "41.18181742836578"
    },
    {
      "id": "pt.ine.add.PTCONT.3874785",
      "street": "TV BERNARDIM RIBEIRO",
      "house": "92",
      "postcode": "4465-045",
      "city": "SÃO MAMEDE DE INFESTA",
      "lon": "-8.623897192894432",
      "lat": "41.18181742836578"
    },
    {
      "id": "pt.ine.add.PTCONT.3874786",
      "street": "TV BERNARDIM RIBEIRO",
      "house": "92",
      "postcode": "4465-045",
      "city": "SÃO MAMEDE DE INFESTA",
      "lon": "-8.623897192894432",
      "lat": "41.18181742836578"
    },
    {
      "id": "pt.ine.add.PTCONT.3874787",
      "street": "TV BERNARDIM RIBEIRO",
      "house": "92",
      "postcode": "4465-045",
      "city": "SÃO MAMEDE DE INFESTA",
      "lon": "-8.623897192894432",
      "lat": "41.18181742836578"
    },
    {
      "id": "pt.ine.add.PTCONT.3874788",
      "street": "TV BERNARDIM RIBEIRO",
      "house": "92",
      "postcode": "4465-045",
      "city": "SÃO MAMEDE DE INFESTA",
      "lon": "-8.623897192894432",
      "lat": "41.18181742836578"
    },
    {
      "id": "pt.ine.add.PTCONT.3874789",
      "street": "TV BERNARDIM RIBEIRO",
      "house": "92",
      "postcode": "4465-045",
      "city": "SÃO MAMEDE DE INFESTA",
      "lon": "-8.623897192894432",
      "lat": "41.18181742836578"
    },
    {
      "id": "pt.ine.add.PTCONT.3874790",
      "street": "TV BERNARDIM RIBEIRO",
      "house": "92",
      "postcode": "4465-045",
      "city": "SÃO MAMEDE DE INFESTA",
      "lon": "-8.623897192894432",
      "lat": "41.18181742836578"
    },
    {
      "id": "pt.ine.add.PTCONT.3874791",
      "street": "TV BERNARDIM RIBEIRO",
      "house": "92",
      "postcode": "4465-045",
      "city": "SÃO MAMEDE DE INFESTA",
      "lon": "-8.623897192894432",
      "lat": "41.18181742836578"
    },
    {
      "id": "pt.ine.add.PTCONT.3874792",
      "street": "TV BERNARDIM RIBEIRO",
      "house": "92",
      "postcode": "4465-045",
      "city": "SÃO MAMEDE DE INFESTA",
      "lon": "-8.623897192894432",
      "lat": "41.18181742836578"
    },
    {
      "id": "pt.ine.add.PTCONT.3874793",
      "street": "TV BERNARDIM RIBEIRO",
      "house": "92",
      "postcode": "4465-045",
      "city": "SÃO MAMEDE DE INFESTA",
      "lon": "-8.623897192894432",
      "lat": "41.18181742836578"
    },
    {
      "id": "pt.ine.add.PTCONT.3874794",
      "street": "TV BERNARDIM RIBEIRO",
      "house": "92",
      "postcode": "4465-045",
      "city": "SÃO MAMEDE DE INFESTA",
      "lon": "-8.623897192894432",
      "lat": "41.18181742836578"
    },
    {
      "id": "pt.ine.add.PTCONT.3874795",
      "street": "TV BERNARDIM RIBEIRO",
      "house": "92",
      "postcode": "4465-045",
      "city": "SÃO MAMEDE DE INFESTA",
      "lon": "-8.623897192894432",
      "lat": "41.18181742836578"
    },
    {
      "id": "pt.ine.add.PTCONT.3874796",
      "street": "TV BERNARDIM RIBEIRO",
      "house": "92",
      "postcode": "4465-045",
      "city": "SÃO MAMEDE DE INFESTA",
      "lon": "-8.623897192894432",
      "lat": "41.18181742836578"
    },
    {
      "id": "pt.ine.add.PTCONT.3874797",
      "street": "TV BERNARDIM RIBEIRO",
      "house": "92",
      "postcode": "4465-045",
      "city": "SÃO MAMEDE DE INFESTA",
      "lon": "-8.623897192894432",
      "lat": "41.18181742836578"
    },
    {
      "id": "pt.ine.add.PTCONT.3874798",
      "street": "TV BERNARDIM RIBEIRO",
      "house": "92",
      "postcode": "4465-045",
      "city": "SÃO MAMEDE DE INFESTA",
      "lon": "-8.623897192894432",
      "lat": "41.18181742836578"
    },
    {
      "id": "pt.ine.add.PTCONT.3874799",
      "street": "TV BERNARDIM RIBEIRO",
      "house": "92",
      "postcode": "4465-045",
      "city": "SÃO MAMEDE DE INFESTA",
      "lon": "-8.623897192894432",
      "lat": "41.18181742836578"
    },
    {
      "id": "pt.ine.add.PTCONT.3874800",
      "street": "TV BERNARDIM RIBEIRO",
      "house": "92",
      "postcode": "4465-045",
      "city": "SÃO MAMEDE DE INFESTA",
      "lon": "-8.623897192894432",
      "lat": "41.18181742836578"
    },
    {
      "id": "pt.ine.add.PTCONT.3874801",
      "street": "TV BERNARDIM RIBEIRO",
      "house": "92",
      "postcode": "4465-045",
      "city": "SÃO MAMEDE DE INFESTA",
      "lon": "-8.623897192894432",
      "lat": "41.18181742836578"
    },
    {
      "id": "pt.ine.add.PTCONT.3874802",
      "street": "TV BERNARDIM RIBEIRO",
      "house": "92",
      "postcode": "4465-045",
      "city": "SÃO MAMEDE DE INFESTA",
      "lon": "-8.623897192894432",
      "lat": "41.18181742836578"
    },
    {
      "id": "pt.ine.add.PTCONT.3874803",
      "street": "TV BERNARDIM RIBEIRO",
      "house": "92",
      "postcode": "4465-045",
      "city": "SÃO MAMEDE DE INFESTA",
      "lon": "-8.623897192894432",
      "lat": "41.18181742836578"
    },
    {
      "id": "pt.ine.add.PTCONT.3874804",
      "street": "TV BERNARDIM RIBEIRO",
      "house": "92",
      "postcode": "4465-045",
      "city": "SÃO MAMEDE DE INFESTA",
      "lon": "-8.623897192894432",
      "lat": "41.18181742836578"
    },
    {
      "id": "pt.ine.add.PTCONT.3874816",
      "street": "TV BERNARDIM RIBEIRO",
      "house": "92",
      "postcode": "4465-045",
      "city": "SÃO MAMEDE DE INFESTA",
      "lon": "-8.623897192894432",
      "lat": "41.18181742836578"
    },
    {
      "id": "pt.ine.add.PTCONT.3874817",
      "street": "TV BERNARDIM RIBEIRO",
      "house": "92",
      "postcode": "4465-045",
      "city": "SÃO MAMEDE DE INFESTA",
      "lon": "-8.623897192894432",
      "lat": "41.18181742836578"
    },
    {
      "id": "pt.ine.add.PTCONT.3874818",
      "street": "TV BERNARDIM RIBEIRO",
      "house": "92",
      "postcode": "4465-045",
      "city": "SÃO MAMEDE DE INFESTA",
      "lon": "-8.623897192894432",
      "lat": "41.18181742836578"
    },
    {
      "id": "pt.ine.add.PTCONT.3874819",
      "street": "TV BERNARDIM RIBEIRO",
      "house": "92",
      "postcode": "4465-045",
      "city": "SÃO MAMEDE DE INFESTA",
      "lon": "-8.623897192894432",
      "lat": "41.18181742836578"
    },
    {
      "id": "pt.ine.add.PTCONT.3874820",
      "street": "TV BERNARDIM RIBEIRO",
      "house": "92",
      "postcode": "4465-045",
      "city": "SÃO MAMEDE DE INFESTA",
      "lon": "-8.623897192894432",
      "lat": "41.18181742836578"
    },
    {
      "id": "pt.ine.add.PTCONT.3874821",
      "street": "TV BERNARDIM RIBEIRO",
      "house": "92",
      "postcode": "4465-045",
      "city": "SÃO MAMEDE DE INFESTA",
      "lon": "-8.623897192894432",
      "lat": "41.18181742836578"
    },
    {
      "id": "pt.ine.add.PTCONT.3874822",
      "street": "TV BERNARDIM RIBEIRO",
      "house": "92",
      "postcode": "4465-045",
      "city": "SÃO MAMEDE DE INFESTA",
      "lon": "-8.623897192894432",
      "lat": "41.18181742836578"
    },
    {
      "id": "pt.ine.add.PTCONT.3874859",
      "street": "TV BERNARDIM RIBEIRO",
      "house": "92",
      "postcode": "4465-045",
      "city": "SÃO MAMEDE DE INFESTA",
      "lon": "-8.623897192894432",
      "lat": "41.18181742836578"
    },
    {
      "id": "pt.ine.add.PTCONT.3874860",
      "street": "TV BERNARDIM RIBEIRO",
      "house": "92",
      "postcode": "4465-045",
      "city": "SÃO MAMEDE DE INFESTA",
      "lon": "-8.623897192894432",
      "lat": "41.18181742836578"
    },
    {
      "id": "pt.ine.add.PTCONT.3874861",
      "street": "TV BERNARDIM RIBEIRO",
      "house": "92",
      "postcode": "4465-045",
      "city": "SÃO MAMEDE DE INFESTA",
      "lon": "-8.623897192894432",
      "lat": "41.18181742836578"
    },
    {
      "id": "pt.ine.add.PTCONT.3874862",
      "street": "TV BERNARDIM RIBEIRO",
      "house": "92",
      "postcode": "4465-045",
      "city": "SÃO MAMEDE DE INFESTA",
      "lon": "-8.623897192894432",
      "lat": "41.18181742836578"
    },
    {
      "id": "pt.ine.add.PTCONT.3874864",
      "street": "TV BERNARDIM RIBEIRO",
      "house": "92",
      "postcode": "4465-045",
      "city": "SÃO MAMEDE DE INFESTA",
      "lon": "-8.623897192894432",
      "lat": "41.18181742836578"
    },
    {
      "id": "pt.ine.add.PTCONT.3875427",
      "street": "TV BERNARDIM RIBEIRO",
      "house": "92",
      "postcode": "4465-045",
      "city": "SÃO MAMEDE DE INFESTA",
      "lon": "-8.623897192894432",
      "lat": "41.18181742836578"
    },
    {
      "id": "pt.ine.add.PTCONT.3959393",
      "street": "R DE DIU",
      "house": "584",
      "postcode": "4465-120",
      "city": "SÃO MAMEDE DE INFESTA",
      "lon": "-8.623815917587196",
      "lat": "41.182105912463385"
    },
    {
      "id": "pt.ine.add.PTCONT.3959394",
      "street": "R DE DIU",
      "house": "584",
      "postcode": "4465-120",
      "city": "SÃO MAMEDE DE INFESTA",
      "lon": "-8.623815917587196",
      "lat": "41.182105912463385"
    },
    {
      "id": "pt.ine.add.PTCONT.3959395",
      "street": "R DE DIU",
      "house": "584",
      "postcode": "4465-120",
      "city": "SÃO MAMEDE DE INFESTA",
      "lon": "-8.623815917587196",
      "lat": "41.182105912463385"
    },
    {
      "id": "pt.ine.add.PTCONT.3959812",
      "street": "R BERNARDIM RIBEIRO",
      "house": "638",
      "postcode": "4465-043",
      "city": "SÃO MAMEDE DE INFESTA",
      "lon": "-8.62358745905111",
      "lat": "41.181836756420374"
    },
    {
      "id": "pt.ine.add.PTCONT.4003717",
      "street": "R CRISTOVÃO FALCÃO",
      "house": "86",
      "postcode": "4465-113",
      "city": "SÃO MAMEDE DE INFESTA",
      "lon": "-8.624736503063623",
      "lat": "41.18089540949609"
    },
    {
      "id": "pt.ine.add.PTCONT.4003718",
      "street": "R CRISTOVÃO FALCÃO",
      "house": "86",
      "postcode": "4465-113",
      "city": "SÃO MAMEDE DE INFESTA",
      "lon": "-8.624736503063623",
      "lat": "41.18089540949609"
    },
    {
      "id": "pt.ine.add.PTCONT.4003719",
      "street": "R CRISTOVÃO FALCÃO",
      "house": "86",
      "postcode": "4465-113",
      "city": "SÃO MAMEDE DE INFESTA",
      "lon": "-8.624736503063623",
      "lat": "41.18089540949609"
    },
    {
      "id": "pt.ine.add.PTCONT.4003720",
      "street": "R CRISTOVÃO FALCÃO",
      "house": "86",
      "postcode": "4465-113",
      "city": "SÃO MAMEDE DE INFESTA",
      "lon": "-8.624736503063623",
      "lat": "41.18089540949609"
    },
    {
      "id": "pt.ine.add.PTCONT.4003721",
      "street": "R CRISTOVÃO FALCÃO",
      "house": "86",
      "postcode": "4465-113",
      "city": "SÃO MAMEDE DE INFESTA",
      "lon": "-8.624736503063623",
      "lat": "41.18089540949609"
    },
    {
      "id": "pt.ine.add.PTCONT.4003722",
      "street": "R CRISTOVÃO FALCÃO",
      "house": "86",
      "postcode": "4465-113",
      "city": "SÃO MAMEDE DE INFESTA",
      "lon": "-8.624736503063623",
      "lat": "41.18089540949609"
    },
    {
      "id": "pt.ine.add.PTCONT.4003723",
      "street": "R CRISTOVÃO FALCÃO",
      "house": "86",
      "postcode": "4465-113",
      "city": "SÃO MAMEDE DE INFESTA",
      "lon": "-8.624736503063623",
      "lat": "41.18089540949609"
    },
    {
      "id": "pt.ine.add.PTCONT.4003724",
      "street": "R CRISTOVÃO FALCÃO",
      "house": "86",
      "postcode": "4465-113",
      "city": "SÃO MAMEDE DE INFESTA",
      "lon": "-8.624736503063623",
      "lat": "41.18089540949609"
    },
    {
      "id": "pt.ine.add.PTCONT.4003725",
      "street": "R CRISTOVÃO FALCÃO",
      "house": "86",
      "postcode": "4465-113",
      "city": "SÃO MAMEDE DE INFESTA",
      "lon": "-8.624736503063623",
      "lat": "41.18089540949609"
    },
    {
      "id": "pt.ine.add.PTCONT.4003726",
      "street": "R CRISTOVÃO FALCÃO",
      "house": "86",
      "postcode": "4465-113",
      "city": "SÃO MAMEDE DE INFESTA",
      "lon": "-8.624736503063623",
      "lat": "41.18089540949609"
    },
    {
      "id": "pt.ine.add.PTCONT.4003727",
      "street": "R CRISTOVÃO FALCÃO",
      "house": "86",
      "postcode": "4465-113",
      "city": "SÃO MAMEDE DE INFESTA",
      "lon": "-8.624736503063623",
      "lat": "41.18089540949609"
    },
    {
      "id": "pt.ine.add.PTCONT.4003728",
      "street": "R CRISTOVÃO FALCÃO",
      "house": "86",
      "postcode": "4465-113",
      "city": "SÃO MAMEDE DE INFESTA",
      "lon": "-8.624736503063623",
      "lat": "41.18089540949609"
    },
    {
      "id": "pt.ine.add.PTCONT.4003729",
      "street": "R CRISTOVÃO FALCÃO",
      "house": "86",
      "postcode": "4465-113",
      "city": "SÃO MAMEDE DE INFESTA",
      "lon": "-8.624736503063623",
      "lat": "41.18089540949609"
    },
    {
      "id": "pt.ine.add.PTCONT.4003730",
      "street": "R CRISTOVÃO FALCÃO",
      "house": "86",
      "postcode": "4465-113",
      "city": "SÃO MAMEDE DE INFESTA",
      "lon": "-8.624736503063623",
      "lat": "41.18089540949609"
    },
    {
      "id": "pt.ine.add.PTCONT.4003731",
      "street": "R CRISTOVÃO FALCÃO",
      "house": "86",
      "postcode": "4465-113",
      "city": "SÃO MAMEDE DE INFESTA",
      "lon": "-8.624736503063623",
      "lat": "41.18089540949609"
    },
    {
      "id": "pt.ine.add.PTCONT.4003732",
      "street": "R CRISTOVÃO FALCÃO",
      "house": "86",
      "postcode": "4465-113",
      "city": "SÃO MAMEDE DE INFESTA",
      "lon": "-8.624736503063623",
      "lat": "41.18089540949609"
    },
    {
      "id": "pt.ine.add.PTCONT.4003733",
      "street": "R CRISTOVÃO FALCÃO",
      "house": "86",
      "postcode": "4465-113",
      "city": "SÃO MAMEDE DE INFESTA",
      "lon": "-8.624736503063623",
      "lat": "41.18089540949609"
    },
    {
      "id": "pt.ine.add.PTCONT.4003734",
      "street": "R CRISTOVÃO FALCÃO",
      "house": "86",
      "postcode": "4465-113",
      "city": "SÃO MAMEDE DE INFESTA",
      "lon": "-8.624736503063623",
      "lat": "41.18089540949609"
    },
    {
      "id": "pt.ine.add.PTCONT.4003735",
      "street": "R CRISTOVÃO FALCÃO",
      "house": "86",
      "postcode": "4465-113",
      "city": "SÃO MAMEDE DE INFESTA",
      "lon": "-8.624736503063623",
      "lat": "41.18089540949609"
    },
    {
      "id": "pt.ine.add.PTCONT.4003736",
      "street": "R CRISTOVÃO FALCÃO",
      "house": "86",
      "postcode": "4465-113",
      "city": "SÃO MAMEDE DE INFESTA",
      "lon": "-8.624736503063623",
      "lat": "41.18089540949609"
    },
    {
      "id": "pt.ine.add.PTCONT.4003737",
      "street": "R CRISTOVÃO FALCÃO",
      "house": "86",
      "postcode": "4465-113",
      "city": "SÃO MAMEDE DE INFESTA",
      "lon": "-8.624736503063623",
      "lat": "41.18089540949609"
    },
    {
      "id": "pt.ine.add.PTCONT.4003738",
      "street": "R CRISTOVÃO FALCÃO",
      "house": "86",
      "postcode": "4465-113",
      "city": "SÃO MAMEDE DE INFESTA",
      "lon": "-8.624736503063623",
      "lat": "41.18089540949609"
    },
    {
      "id": "pt.ine.add.PTCONT.4003739",
      "street": "R CRISTOVÃO FALCÃO",
      "house": "86",
      "postcode": "4465-113",
      "city": "SÃO MAMEDE DE INFESTA",
      "lon": "-8.624736503063623",
      "lat": "41.18089540949609"
    },
    {
      "id": "pt.ine.add.PTCONT.4003740",
      "street": "R CRISTOVÃO FALCÃO",
      "house": "86",
      "postcode": "4465-113",
      "city": "SÃO MAMEDE DE INFESTA",
      "lon": "-8.624736503063623",
      "lat": "41.18089540949609"
    },
    {
      "id": "pt.ine.add.PTCONT.4003741",
      "street": "R CRISTOVÃO FALCÃO",
      "house": "86",
      "postcode": "4465-113",
      "city": "SÃO MAMEDE DE INFESTA",
      "lon": "-8.624736503063623",
      "lat": "41.18089540949609"
    },
    {
      "id": "pt.ine.add.PTCONT.4003742",
      "street": "R CRISTOVÃO FALCÃO",
      "house": "86",
      "postcode": "4465-113",
      "city": "SÃO MAMEDE DE INFESTA",
      "lon": "-8.624736503063623",
      "lat": "41.18089540949609"
    },
    {
      "id": "pt.ine.add.PTCONT.4003743",
      "street": "R CRISTOVÃO FALCÃO",
      "house": "86",
      "postcode": "4465-113",
      "city": "SÃO MAMEDE DE INFESTA",
      "lon": "-8.624736503063623",
      "lat": "41.18089540949609"
    },
    {
      "id": "pt.ine.add.PTCONT.4003761",
      "street": "R CRISTOVÃO FALCÃO",
      "house": "86",
      "postcode": "4465-113",
      "city": "SÃO MAMEDE DE INFESTA",
      "lon": "-8.624736503063623",
      "lat": "41.18089540949609"
    },
    {
      "id": "pt.ine.add.PTCONT.4117674",
      "street": "R CRISTÓVÃO FALCÃO",
      "house": "50",
      "postcode": "4465-113",
      "city": "SÃO MAMEDE DE INFESTA",
      "lon": "-8.624710310811775",
      "lat": "41.180580370526364"
    },
    {
      "id": "pt.ine.add.PTCONT.4117675",
      "street": "R CRISTÓVÃO FALCÃO",
      "house": "50",
      "postcode": "4465-113",
      "city": "SÃO MAMEDE DE INFESTA",
      "lon": "-8.624710310811775",
      "lat": "41.180580370526364"
    },
    {
      "id": "pt.ine.add.PTCONT.4117676",
      "street": "R CRISTÓVÃO FALCÃO",
      "house": "50",
      "postcode": "4465-113",
      "city": "SÃO MAMEDE DE INFESTA",
      "lon": "-8.624710310811775",
      "lat": "41.180580370526364"
    },
    {
      "id": "pt.ine.add.PTCONT.4117677",
      "street": "R CRISTÓVÃO FALCÃO",
      "house": "50",
      "postcode": "4465-113",
      "city": "SÃO MAMEDE DE INFESTA",
      "lon": "-8.624710310811775",
      "lat": "41.180580370526364"
    },
    {
      "id": "pt.ine.add.PTCONT.4117678",
      "street": "R CRISTÓVÃO FALCÃO",
      "house": "50",
      "postcode": "4465-113",
      "city": "SÃO MAMEDE DE INFESTA",
      "lon": "-8.624710310811775",
      "lat": "41.180580370526364"
    },
    {
      "id": "pt.ine.add.PTCONT.4117679",
      "street": "R CRISTÓVÃO FALCÃO",
      "house": "50",
      "postcode": "4465-113",
      "city": "SÃO MAMEDE DE INFESTA",
      "lon": "-8.624710310811775",
      "lat": "41.180580370526364"
    },
    {
      "id": "pt.ine.add.PTCONT.4117680",
      "street": "R CRISTÓVÃO FALCÃO",
      "house": "50",
      "postcode": "4465-113",
      "city": "SÃO MAMEDE DE INFESTA",
      "lon": "-8.624710310811775",
      "lat": "41.180580370526364"
    },
    {
      "id": "pt.ine.add.PTCONT.4117681",
      "street": "R CRISTÓVÃO FALCÃO",
      "house": "50",
      "postcode": "4465-113",
      "city": "SÃO MAMEDE DE INFESTA",
      "lon": "-8.624710310811775",
      "lat": "41.180580370526364"
    },
    {
      "id": "pt.ine.add.PTCONT.4117682",
      "street": "R CRISTÓVÃO FALCÃO",
      "house": "50",
      "postcode": "4465-113",
      "city": "SÃO MAMEDE DE INFESTA",
      "lon": "-8.624710310811775",
      "lat": "41.180580370526364"
    },
    {
      "id": "pt.ine.add.PTCONT.4117683",
      "street": "R CRISTÓVÃO FALCÃO",
      "house": "50",
      "postcode": "4465-113",
      "city": "SÃO MAMEDE DE INFESTA",
      "lon": "-8.624710310811775",
      "lat": "41.180580370526364"
    },
    {
      "id": "pt.ine.add.PTCONT.4117684",
      "street": "R CRISTÓVÃO FALCÃO",
      "house": "50",
      "postcode": "4465-113",
      "city": "SÃO MAMEDE DE INFESTA",
      "lon": "-8.624710310811775",
      "lat": "41.180580370526364"
    },
    {
      "id": "pt.ine.add.PTCONT.4117685",
      "street": "R CRISTÓVÃO FALCÃO",
      "house": "50",
      "postcode": "4465-113",
      "city": "SÃO MAMEDE DE INFESTA",
      "lon": "-8.624710310811775",
      "lat": "41.180580370526364"
    },
    {
      "id": "pt.ine.add.PTCONT.4117686",
      "street": "R CRISTÓVÃO FALCÃO",
      "house": "50",
      "postcode": "4465-113",
      "city": "SÃO MAMEDE DE INFESTA",
      "lon": "-8.624710310811775",
      "lat": "41.180580370526364"
    },
    {
      "id": "pt.ine.add.PTCONT.4117687",
      "street": "R CRISTÓVÃO FALCÃO",
      "house": "50",
      "postcode": "4465-113",
      "city": "SÃO MAMEDE DE INFESTA",
      "lon": "-8.624710310811775",
      "lat": "41.180580370526364"
    },
    {
      "id": "pt.ine.add.PTCONT.4117688",
      "street": "R CRISTÓVÃO FALCÃO",
      "house": "50",
      "postcode": "4465-113",
      "city": "SÃO MAMEDE DE INFESTA",
      "lon": "-8.624710310811775",
      "lat": "41.180580370526364"
    },
    {
      "id": "pt.ine.add.PTCONT.4117689",
      "street": "R CRISTÓVÃO FALCÃO",
      "house": "50",
      "postcode": "4465-113",
      "city": "SÃO MAMEDE DE INFESTA",
      "lon": "-8.624710310811775",
      "lat": "41.180580370526364"
    },
    {
      "id": "pt.ine.add.PTCONT.4117690",
      "street": "R CRISTÓVÃO FALCÃO",
      "house": "50",
      "postcode": "4465-113",
      "city": "SÃO MAMEDE DE INFESTA",
      "lon": "-8.624710310811775",
      "lat": "41.180580370526364"
    },
    {
      "id": "pt.ine.add.PTCONT.4117691",
      "street": "R CRISTÓVÃO FALCÃO",
      "house": "50",
      "postcode": "4465-113",
      "city": "SÃO MAMEDE DE INFESTA",
      "lon": "-8.624710310811775",
      "lat": "41.180580370526364"
    },
    {
      "id": "pt.ine.add.PTCONT.4117692",
      "street": "R CRISTÓVÃO FALCÃO",
      "house": "50",
      "postcode": "4465-113",
      "city": "SÃO MAMEDE DE INFESTA",
      "lon": "-8.624710310811775",
      "lat": "41.180580370526364"
    },
    {
      "id": "pt.ine.add.PTCONT.4121061",
      "street": "R CRISTÓVÃO FALCÃO",
      "house": "50",
      "postcode": "4465-113",
      "city": "SÃO MAMEDE DE INFESTA",
      "lon": "-8.624710310811775",
      "lat": "41.180580370526364"
    },
    {
      "id": "pt.ine.add.PTCONT.4122213",
      "street": "R CRISTÓVÃO FALCÃO",
      "house": "50",
      "postcode": "4465-113",
      "city": "SÃO MAMEDE DE INFESTA",
      "lon": "-8.624710310811775",
      "lat": "41.180580370526364"
    },
    {
      "id": "pt.ine.add.PTCONT.4261658",
      "street": "R AMIEIRA",
      "house": "824",
      "postcode": "4465-021",
      "city": "SÃO MAMEDE DE INFESTA",
      "lon": "-8.623037284482335",
      "lat": "41.18157797317957"
    },
    {
      "id": "pt.ine.add.PTCONT.4282745",
      "street": "TV BERNARDIM RIBEIRO",
      "house": "70",
      "postcode": "4465-045",
      "city": "SÃO MAMEDE DE INFESTA",
      "lon": "-8.623824071772138",
      "lat": "41.18160163657899"
    },
    {
      "id": "pt.ine.add.PTCONT.4282746",
      "street": "TV BERNARDIM RIBEIRO",
      "house": "70",
      "postcode": "4465-045",
      "city": "SÃO MAMEDE DE INFESTA",
      "lon": "-8.623824071772138",
      "lat": "41.18160163657899"
    },
    {
      "id": "pt.ine.add.PTCONT.4282747",
      "street": "TV BERNARDIM RIBEIRO",
      "house": "70",
      "postcode": "4465-045",
      "city": "SÃO MAMEDE DE INFESTA",
      "lon": "-8.623824071772138",
      "lat": "41.18160163657899"
    },
    {
      "id": "pt.ine.add.PTCONT.4282748",
      "street": "TV BERNARDIM RIBEIRO",
      "house": "70",
      "postcode": "4465-045",
      "city": "SÃO MAMEDE DE INFESTA",
      "lon": "-8.623824071772138",
      "lat": "41.18160163657899"
    },
    {
      "id": "pt.ine.add.PTCONT.4282749",
      "street": "TV BERNARDIM RIBEIRO",
      "house": "70",
      "postcode": "4465-045",
      "city": "SÃO MAMEDE DE INFESTA",
      "lon": "-8.623824071772138",
      "lat": "41.18160163657899"
    },
    {
      "id": "pt.ine.add.PTCONT.4282750",
      "street": "TV BERNARDIM RIBEIRO",
      "house": "70",
      "postcode": "4465-045",
      "city": "SÃO MAMEDE DE INFESTA",
      "lon": "-8.623824071772138",
      "lat": "41.18160163657899"
    },
    {
      "id": "pt.ine.add.PTCONT.4282751",
      "street": "TV BERNARDIM RIBEIRO",
      "house": "70",
      "postcode": "4465-045",
      "city": "SÃO MAMEDE DE INFESTA",
      "lon": "-8.623824071772138",
      "lat": "41.18160163657899"
    },
    {
      "id": "pt.ine.add.PTCONT.4282752",
      "street": "R BERNARDIM RIBEIRO",
      "house": "70",
      "postcode": "4465-040",
      "city": "SÃO MAMEDE DE INFESTA",
      "lon": "-8.623824071772138",
      "lat": "41.18160163657899"
    },
    {
      "id": "pt.ine.add.PTCONT.4282753",
      "street": "TV BERNARDIM RIBEIRO",
      "house": "70",
      "postcode": "4465-045",
      "city": "SÃO MAMEDE DE INFESTA",
      "lon": "-8.623824071772138",
      "lat": "41.18160163657899"
    },
    {
      "id": "pt.ine.add.PTCONT.4282754",
      "street": "TV BERNARDIM RIBEIRO",
      "house": "70",
      "postcode": "4465-045",
      "city": "SÃO MAMEDE DE INFESTA",
      "lon": "-8.623824071772138",
      "lat": "41.18160163657899"
    },
    {
      "id": "pt.ine.add.PTCONT.4282755",
      "street": "TV BERNARDIM RIBEIRO",
      "house": "70",
      "postcode": "4465-045",
      "city": "SÃO MAMEDE DE INFESTA",
      "lon": "-8.623824071772138",
      "lat": "41.18160163657899"
    },
    {
      "id": "pt.ine.add.PTCONT.4282903",
      "street": "TV BERNARDIM RIBEIRO",
      "house": "70",
      "postcode": "4465-045",
      "city": "SÃO MAMEDE DE INFESTA",
      "lon": "-8.623824071772138",
      "lat": "41.18160163657899"
    },
    {
      "id": "pt.ine.add.PTCONT.4282904",
      "street": "TV BERNARDIM RIBEIRO",
      "house": "70",
      "postcode": "4465-045",
      "city": "SÃO MAMEDE DE INFESTA",
      "lon": "-8.623824071772138",
      "lat": "41.18160163657899"
    },
    {
      "id": "pt.ine.add.PTCONT.4282905",
      "street": "TV BERNARDIM RIBEIRO",
      "house": "70",
      "postcode": "4465-045",
      "city": "SÃO MAMEDE DE INFESTA",
      "lon": "-8.623824071772138",
      "lat": "41.18160163657899"
    },
    {
      "id": "pt.ine.add.PTCONT.4282906",
      "street": "TV BERNARDIM RIBEIRO",
      "house": "70",
      "postcode": "4465-045",
      "city": "SÃO MAMEDE DE INFESTA",
      "lon": "-8.623824071772138",
      "lat": "41.18160163657899"
    },
    {
      "id": "pt.ine.add.PTCONT.4282907",
      "street": "TV BERNARDIM RIBEIRO",
      "house": "70",
      "postcode": "4465-045",
      "city": "SÃO MAMEDE DE INFESTA",
      "lon": "-8.623824071772138",
      "lat": "41.18160163657899"
    },
    {
      "id": "pt.ine.add.PTCONT.4282908",
      "street": "TV BERNARDIM RIBEIRO",
      "house": "70",
      "postcode": "4465-045",
      "city": "SÃO MAMEDE DE INFESTA",
      "lon": "-8.623824071772138",
      "lat": "41.18160163657899"
    },
    {
      "id": "pt.ine.add.PTCONT.4282909",
      "street": "TV BERNARDIM RIBEIRO",
      "house": "70",
      "postcode": "4465-045",
      "city": "SÃO MAMEDE DE INFESTA",
      "lon": "-8.623824071772138",
      "lat": "41.18160163657899"
    },
    {
      "id": "pt.ine.add.PTCONT.4282910",
      "street": "TV BERNARDIM RIBEIRO",
      "house": "70",
      "postcode": "4465-045",
      "city": "SÃO MAMEDE DE INFESTA",
      "lon": "-8.623824071772138",
      "lat": "41.18160163657899"
    },
    {
      "id": "pt.ine.add.PTCONT.4282911",
      "street": "TV BERNARDIM RIBEIRO",
      "house": "70",
      "postcode": "4465-045",
      "city": "SÃO MAMEDE DE INFESTA",
      "lon": "-8.623824071772138",
      "lat": "41.18160163657899"
    },
    {
      "id": "pt.ine.add.PTCONT.4282912",
      "street": "TV BERNARDIM RIBEIRO",
      "house": "70",
      "postcode": "4465-045",
      "city": "SÃO MAMEDE DE INFESTA",
      "lon": "-8.623824071772138",
      "lat": "41.18160163657899"
    },
    {
      "id": "pt.ine.add.PTCONT.4282913",
      "street": "TV BERNARDIM RIBEIRO",
      "house": "70",
      "postcode": "4465-045",
      "city": "SÃO MAMEDE DE INFESTA",
      "lon": "-8.623824071772138",
      "lat": "41.18160163657899"
    },
    {
      "id": "pt.ine.add.PTCONT.4282914",
      "street": "TV BERNARDIM RIBEIRO",
      "house": "70",
      "postcode": "4465-045",
      "city": "SÃO MAMEDE DE INFESTA",
      "lon": "-8.623824071772138",
      "lat": "41.18160163657899"
    },
    {
      "id": "pt.ine.add.PTCONT.4282915",
      "street": "TV BERNARDIM RIBEIRO",
      "house": "70",
      "postcode": "4465-045",
      "city": "SÃO MAMEDE DE INFESTA",
      "lon": "-8.623824071772138",
      "lat": "41.18160163657899"
    },
    {
      "id": "pt.ine.add.PTCONT.4283081",
      "street": "TV BERNARDIM RIBEIRO",
      "house": "70",
      "postcode": "4465-045",
      "city": "SÃO MAMEDE DE INFESTA",
      "lon": "-8.623824071772138",
      "lat": "41.18160163657899"
    },
    {
      "id": "pt.ine.add.PTCONT.4285083",
      "street": "TV BERNARDIM RIBEIRO",
      "house": "70",
      "postcode": "4465-045",
      "city": "SÃO MAMEDE DE INFESTA",
      "lon": "-8.623824071772138",
      "lat": "41.18160163657899"
    },
    {
      "id": "pt.ine.add.PTCONT.4285213",
      "street": "TV BERNARDIM RIBEIRO",
      "house": "70",
      "postcode": "4465-045",
      "city": "SÃO MAMEDE DE INFESTA",
      "lon": "-8.623824071772138",
      "lat": "41.18160163657899"
    },
    {
      "id": "pt.ine.add.PTCONT.4285458",
      "street": "TV BERNARDIM RIBEIRO",
      "house": "70",
      "postcode": "4465-045",
      "city": "SÃO MAMEDE DE INFESTA",
      "lon": "-8.623824071772138",
      "lat": "41.18160163657899"
    },
    {
      "id": "pt.ine.add.PTCONT.4301989",
      "street": "R CRISTÓVÃO FALCÃO",
      "house": "32",
      "postcode": "4465-113",
      "city": "SÃO MAMEDE DE INFESTA",
      "lon": "-8.624732799712639",
      "lat": "41.18040018837317"
    },
    {
      "id": "pt.ine.add.PTCONT.4301990",
      "street": "R CRISTÓVÃO FALCÃO",
      "house": "32",
      "postcode": "4465-113",
      "city": "SÃO MAMEDE DE INFESTA",
      "lon": "-8.624732799712639",
      "lat": "41.18040018837317"
    },
    {
      "id": "pt.ine.add.PTCONT.4301991",
      "street": "R CRISTÓVÃO FALCÃO",
      "house": "32",
      "postcode": "4465-113",
      "city": "SÃO MAMEDE DE INFESTA",
      "lon": "-8.624732799712639",
      "lat": "41.18040018837317"
    },
    {
      "id": "pt.ine.add.PTCONT.4301992",
      "street": "R CRISTÓVÃO FALCÃO",
      "house": "32",
      "postcode": "4465-113",
      "city": "SÃO MAMEDE DE INFESTA",
      "lon": "-8.624732799712639",
      "lat": "41.18040018837317"
    },
    {
      "id": "pt.ine.add.PTCONT.4301993",
      "street": "R CRISTÓVÃO FALCÃO",
      "house": "32",
      "postcode": "4465-113",
      "city": "SÃO MAMEDE DE INFESTA",
      "lon": "-8.624732799712639",
      "lat": "41.18040018837317"
    },
    {
      "id": "pt.ine.add.PTCONT.4301994",
      "street": "R CRISTÓVÃO FALCÃO",
      "house": "32",
      "postcode": "4465-113",
      "city": "SÃO MAMEDE DE INFESTA",
      "lon": "-8.624732799712639",
      "lat": "41.18040018837317"
    },
    {
      "id": "pt.ine.add.PTCONT.4301995",
      "street": "R CRISTÓVÃO FALCÃO",
      "house": "32",
      "postcode": "4465-113",
      "city": "SÃO MAMEDE DE INFESTA",
      "lon": "-8.624732799712639",
      "lat": "41.18040018837317"
    },
    {
      "id": "pt.ine.add.PTCONT.4301996",
      "street": "R CRISTÓVÃO FALCÃO",
      "house": "32",
      "postcode": "4465-113",
      "city": "SÃO MAMEDE DE INFESTA",
      "lon": "-8.624732799712639",
      "lat": "41.18040018837317"
    },
    {
      "id": "pt.ine.add.PTCONT.4301997",
      "street": "R CRISTÓVÃO FALCÃO",
      "house": "32",
      "postcode": "4465-113",
      "city": "SÃO MAMEDE DE INFESTA",
      "lon": "-8.624732799712639",
      "lat": "41.18040018837317"
    },
    {
      "id": "pt.ine.add.PTCONT.4301998",
      "street": "R CRISTÓVÃO FALCÃO",
      "house": "32",
      "postcode": "4465-113",
      "city": "SÃO MAMEDE DE INFESTA",
      "lon": "-8.624732799712639",
      "lat": "41.18040018837317"
    },
    {
      "id": "pt.ine.add.PTCONT.4301999",
      "street": "R CRISTÓVÃO FALCÃO",
      "house": "32",
      "postcode": "4465-113",
      "city": "SÃO MAMEDE DE INFESTA",
      "lon": "-8.624732799712639",
      "lat": "41.18040018837317"
    },
    {
      "id": "pt.ine.add.PTCONT.4302000",
      "street": "R CRISTÓVÃO FALCÃO",
      "house": "32",
      "postcode": "4465-113",
      "city": "SÃO MAMEDE DE INFESTA",
      "lon": "-8.624732799712639",
      "lat": "41.18040018837317"
    },
    {
      "id": "pt.ine.add.PTCONT.4302001",
      "street": "R CRISTÓVÃO FALCÃO",
      "house": "32",
      "postcode": "4465-113",
      "city": "SÃO MAMEDE DE INFESTA",
      "lon": "-8.624732799712639",
      "lat": "41.18040018837317"
    },
    {
      "id": "pt.ine.add.PTCONT.4302002",
      "street": "R CRISTÓVÃO FALCÃO",
      "house": "32",
      "postcode": "4465-113",
      "city": "SÃO MAMEDE DE INFESTA",
      "lon": "-8.624732799712639",
      "lat": "41.18040018837317"
    },
    {
      "id": "pt.ine.add.PTCONT.4302003",
      "street": "R CRISTÓVÃO FALCÃO",
      "house": "32",
      "postcode": "4465-113",
      "city": "SÃO MAMEDE DE INFESTA",
      "lon": "-8.624732799712639",
      "lat": "41.18040018837317"
    },
    {
      "id": "pt.ine.add.PTCONT.4302004",
      "street": "R CRISTÓVÃO FALCÃO",
      "house": "32",
      "postcode": "4465-113",
      "city": "SÃO MAMEDE DE INFESTA",
      "lon": "-8.624732799712639",
      "lat": "41.18040018837317"
    },
    {
      "id": "pt.ine.add.PTCONT.4302005",
      "street": "R CRISTÓVÃO FALCÃO",
      "house": "32",
      "postcode": "4465-113",
      "city": "SÃO MAMEDE DE INFESTA",
      "lon": "-8.624732799712639",
      "lat": "41.18040018837317"
    },
    {
      "id": "pt.ine.add.PTCONT.4302006",
      "street": "R CRISTÓVÃO FALCÃO",
      "house": "32",
      "postcode": "4465-113",
      "city": "SÃO MAMEDE DE INFESTA",
      "lon": "-8.624732799712639",
      "lat": "41.18040018837317"
    },
    {
      "id": "pt.ine.add.PTCONT.4302007",
      "street": "R CRISTÓVÃO FALCÃO",
      "house": "32",
      "postcode": "4465-113",
      "city": "SÃO MAMEDE DE INFESTA",
      "lon": "-8.624732799712639",
      "lat": "41.18040018837317"
    },
    {
      "id": "pt.ine.add.PTCONT.4302008",
      "street": "R CRISTÓVÃO FALCÃO",
      "house": "32",
      "postcode": "4465-113",
      "city": "SÃO MAMEDE DE INFESTA",
      "lon": "-8.624732799712639",
      "lat": "41.18040018837317"
    },
    {
      "id": "pt.ine.add.PTCONT.4302009",
      "street": "R CRISTÓVÃO FALCÃO",
      "house": "32",
      "postcode": "4465-113",
      "city": "SÃO MAMEDE DE INFESTA",
      "lon": "-8.624732799712639",
      "lat": "41.18040018837317"
    },
    {
      "id": "pt.ine.add.PTCONT.4302010",
      "street": "R CRISTÓVÃO FALCÃO",
      "house": "32",
      "postcode": "4465-113",
      "city": "SÃO MAMEDE DE INFESTA",
      "lon": "-8.624732799712639",
      "lat": "41.18040018837317"
    },
    {
      "id": "pt.ine.add.PTCONT.4305309",
      "street": "R CRISTÓVÃO FALCÃO",
      "house": "32",
      "postcode": "4465-113",
      "city": "SÃO MAMEDE DE INFESTA",
      "lon": "-8.624732799712639",
      "lat": "41.18040018837317"
    },
    {
      "id": "pt.ine.add.PTCONT.4305339",
      "street": "R CRISTÓVÃO FALCÃO",
      "house": "32",
      "postcode": "4465-113",
      "city": "SÃO MAMEDE DE INFESTA",
      "lon": "-8.624732799712639",
      "lat": "41.18040018837317"
    },
    {
      "id": "pt.ine.add.PTCONT.4306694",
      "street": "R CRISTÓVÃO FALCÃO",
      "house": "32",
      "postcode": "4465-113",
      "city": "SÃO MAMEDE DE INFESTA",
      "lon": "-8.624732799712639",
      "lat": "41.18040018837317"
    },
    {
      "id": "pt.ine.add.PTCONT.4306830",
      "street": "R CRISTÓVÃO FALCÃO",
      "house": "32",
      "postcode": "4465-113",
      "city": "SÃO MAMEDE DE INFESTA",
      "lon": "-8.624732799712639",
      "lat": "41.18040018837317"
    },
    {
      "id": "pt.ine.add.PTCONT.4306853",
      "street": "R CRISTÓVÃO FALCÃO",
      "house": "32",
      "postcode": "4465-113",
      "city": "SÃO MAMEDE DE INFESTA",
      "lon": "-8.624732799712639",
      "lat": "41.18040018837317"
    },
    {
      "id": "pt.ine.add.PTCONT.4379564",
      "street": "R CRISTÓVÃO FALCÃO",
      "house": "32",
      "postcode": "4465-113",
      "city": "SÃO MAMEDE DE INFESTA",
      "lon": "-8.624732799712639",
      "lat": "41.18040018837317"
    },
    {
      "id": "pt.ine.add.PTCONT.4390192",
      "street": "R CRISTÓVÃO FALCÃO",
      "house": "72",
      "postcode": "4465-113",
      "city": "SÃO MAMEDE DE INFESTA",
      "lon": "-8.624711455428926",
      "lat": "41.18073343887374"
    }
  ]
}