{
  "data": {
    "distrito": "Viseu",
    "concelho": "São Pedro do Sul",
    "freguesia": "União das freguesias de Carvalhais e Candal",
    "OBJECTID": 442,
    "BGRI2021": "18162000205",
    "DT21": "18",
    "DTMN21": "1816",
    "DTMNFR21": "181620",
    "DTMNFRSEC21": "181620002",
    "SECNUM21": "002",
    "SSNUM21": "05",
    "SECSSNUM21": "00205",
    "OBJECTID_1": 196939,
    "DT": "18",
    "CC": "16",
    "fr": "20",
    "SEC": "002",
    "SS": "05"
  },
  "addresses": [
    {
      "id": "pt.ine.add.PTCONT.5444329",
      "street": "R ABADES",
      "house": "",
      "postcode": "3660-051",
      "city": "CARVALHAIS SPS",
      "lon": "-8.116878831808846",
      "lat": "40.78011032492064"
    },
    {
      "id": "pt.ine.add.PTCONT.5455441",
      "street": "R ABADES",
      "house": "",
      "postcode": "3660-051",
      "city": "CARVALHAIS SPS",
      "lon": "-8.115422088902719",
      "lat": "40.77875936366048"
    },
    {
      "id": "pt.ine.add.PTCONT.5457205",
      "street": "R ABADES",
      "house": "",
      "postcode": "3660-051",
      "city": "CARVALHAIS SPS",
      "lon": "-8.116938017705603",
      "lat": "40.780299437811216"
    },
    {
      "id": "pt.ine.add.PTCONT.5475220",
      "street": "R LIBERDADE",
      "house": "",
      "postcode": "3660-051",
      "city": "CARVALHAIS SPS",
      "lon": "-8.118702646546394",
      "lat": "40.7825329061831"
    },
    {
      "id": "pt.ine.add.PTCONT.5475221",
      "street": "AV FREGUESIA CARVALHAIS",
      "house": "",
      "postcode": "3660-066",
      "city": "CARVALHAIS SPS",
      "lon": "-8.118205323250566",
      "lat": "40.78145224575167"
    },
    {
      "id": "pt.ine.add.PTCONT.5477044",
      "street": "CC TANQUES",
      "house": "",
      "postcode": "3660-066",
      "city": "CARVALHAIS SPS",
      "lon": "-8.11935576846997",
      "lat": "40.775022830589"
    },
    {
      "id": "pt.ine.add.PTCONT.5478859",
      "street": "R ABADES",
      "house": "",
      "postcode": "3660-051",
      "city": "CARVALHAIS SPS",
      "lon": "-8.114403573425452",
      "lat": "40.777867709747916"
    },
    {
      "id": "pt.ine.add.PTCONT.5484455",
      "street": "R ABADES",
      "house": "",
      "postcode": "3660-051",
      "city": "CARVALHAIS SPS",
      "lon": "-8.115955099037786",
      "lat": "40.779011583618576"
    },
    {
      "id": "pt.ine.add.PTCONT.5491545",
      "street": "TV COSTEIRA",
      "house": "",
      "postcode": "3660-066",
      "city": "CARVALHAIS SPS",
      "lon": "-8.119486072070528",
      "lat": "40.77500483606723"
    },
    {
      "id": "pt.ine.add.PTCONT.5494106",
      "street": "R ABADES",
      "house": "",
      "postcode": "3660-051",
      "city": "CARVALHAIS SPS",
      "lon": "-8.115173342370598",
      "lat": "40.77867828042799"
    },
    {
      "id": "pt.ine.add.PTCONT.5520972",
      "street": "R LIBERDADE",
      "house": "",
      "postcode": "3660-051",
      "city": "CARVALHAIS SPS",
      "lon": "-8.118619762124775",
      "lat": "40.78233478632092"
    },
    {
      "id": "pt.ine.add.PTCONT.5541135",
      "street": "R CAVADAS",
      "house": "",
      "postcode": "3660-066",
      "city": "CARVALHAIS SPS",
      "lon": "-8.120563849979252",
      "lat": "40.77584242210328"
    },
    {
      "id": "pt.ine.add.PTCONT.5548203",
      "street": "AV FREGUESIA CARVALHAIS",
      "house": "",
      "postcode": "3660-066",
      "city": "CARVALHAIS SPS",
      "lon": "-8.116275490778932",
      "lat": "40.77685043472008"
    },
    {
      "id": "pt.ine.add.PTCONT.5552050",
      "street": "AV FREGUESIA DE CARVALHAIS",
      "house": "",
      "postcode": "3660-066",
      "city": "CARVALHAIS SPS",
      "lon": "-8.116382034969291",
      "lat": "40.77712059976575"
    },
    {
      "id": "pt.ine.add.PTCONT.5553898",
      "street": "TV RIBEIRA",
      "house": "",
      "postcode": "3660-051",
      "city": "CARVALHAIS SPS",
      "lon": "-8.11645253411749",
      "lat": "40.7794258856409"
    },
    {
      "id": "pt.ine.add.PTCONT.5576321",
      "street": "AV FREGUESIA CARVALHAIS",
      "house": "",
      "postcode": "3660-066",
      "city": "CARVALHAIS SPS",
      "lon": "-8.115173698380621",
      "lat": "40.77735454790699"
    },
    {
      "id": "pt.ine.add.PTCONT.5579163",
      "street": "R LIBERDADE",
      "house": "",
      "postcode": "3660-051",
      "city": "CARVALHAIS SPS",
      "lon": "-8.118382896804624",
      "lat": "40.78201958214318"
    },
    {
      "id": "pt.ine.add.PTCONT.5586608",
      "street": "R ABADES",
      "house": "",
      "postcode": "3660-051",
      "city": "CARVALHAIS SPS",
      "lon": "-8.117174885149032",
      "lat": "40.78055161019209"
    },
    {
      "id": "pt.ine.add.PTCONT.5587409",
      "street": "AV FREGUESIA CARVALHAIS",
      "house": "",
      "postcode": "3660-066",
      "city": "CARVALHAIS SPS",
      "lon": "-8.11592008745045",
      "lat": "40.77696744714105"
    },
    {
      "id": "pt.ine.add.PTCONT.5587811",
      "street": "TV COSTEIRA",
      "house": "",
      "postcode": "3660-066",
      "city": "CARVALHAIS SPS",
      "lon": "-8.11902414348331",
      "lat": "40.77479766588283"
    },
    {
      "id": "pt.ine.add.PTCONT.5590354",
      "street": "CC TANQUES",
      "house": "",
      "postcode": "3660-066",
      "city": "CARVALHAIS SPS",
      "lon": "-8.119249256748576",
      "lat": "40.77455455844009"
    },
    {
      "id": "pt.ine.add.PTCONT.5599547",
      "street": "R ABADES",
      "house": "",
      "postcode": "3660-051",
      "city": "CARVALHAIS SPS",
      "lon": "-8.115682686871569",
      "lat": "40.778822438181344"
    },
    {
      "id": "pt.ine.add.PTCONT.5605140",
      "street": "CC TANQUES",
      "house": "",
      "postcode": "3660-066",
      "city": "CARVALHAIS SPS",
      "lon": "-8.119343978776797",
      "lat": "40.774752679530316"
    },
    {
      "id": "pt.ine.add.PTCONT.5610435",
      "street": "R LIBERDADE",
      "house": "",
      "postcode": "3660-051",
      "city": "CARVALHAIS SPS",
      "lon": "-8.118548720973992",
      "lat": "40.78215467784138"
    },
    {
      "id": "pt.ine.add.PTCONT.5610459",
      "street": "R CAVADAS",
      "house": "",
      "postcode": "3660-066",
      "city": "CARVALHAIS SPS",
      "lon": "-8.120741502148588",
      "lat": "40.77601353602718"
    },
    {
      "id": "pt.ine.add.PTCONT.5644645",
      "street": "TV COSTEIRA",
      "house": "",
      "postcode": "3660-066",
      "city": "CARVALHAIS SPS",
      "lon": "-8.12037436863338",
      "lat": "40.77559026171066"
    },
    {
      "id": "pt.ine.add.PTCONT.5644646",
      "street": "CC TANQUES",
      "house": "",
      "postcode": "3660-066",
      "city": "CARVALHAIS SPS",
      "lon": "-8.120184897444968",
      "lat": "40.775293076058205"
    },
    {
      "id": "pt.ine.add.PTCONT.5646597",
      "street": "R ABADES",
      "house": "",
      "postcode": "3660-051",
      "city": "CARVALHAIS SPS",
      "lon": "-8.116239324768605",
      "lat": "40.77933580485752"
    },
    {
      "id": "pt.ine.add.PTCONT.5655762",
      "street": "R ABADES",
      "house": "",
      "postcode": "3660-051",
      "city": "CARVALHAIS SPS",
      "lon": "-8.11464041267296",
      "lat": "40.778155907365274"
    },
    {
      "id": "pt.ine.add.PTCONT.5656590",
      "street": "AV FREGUESIA CARVALHAIS",
      "house": "",
      "postcode": "3660-066",
      "city": "CARVALHAIS SPS",
      "lon": "-8.114901191939655",
      "lat": "40.77754360990727"
    },
    {
      "id": "pt.ine.add.PTCONT.5657602",
      "street": "R ABADES",
      "house": "",
      "postcode": "3660-051",
      "city": "CARVALHAIS SPS",
      "lon": "-8.11822897824931",
      "lat": "40.78162334338648"
    },
    {
      "id": "pt.ine.add.PTCONT.5669278",
      "street": "R ABADES",
      "house": "",
      "postcode": "3660-051",
      "city": "CARVALHAIS SPS",
      "lon": "-8.114782522648198",
      "lat": "40.778309014733885"
    }
  ]
}