{
  "data": {
    "distrito": "Viseu",
    "concelho": "São Pedro do Sul",
    "freguesia": "União das freguesias de Carvalhais e Candal",
    "OBJECTID": 565,
    "BGRI2021": "18162000217",
    "DT21": "18",
    "DTMN21": "1816",
    "DTMNFR21": "181620",
    "DTMNFRSEC21": "181620002",
    "SECNUM21": "002",
    "SSNUM21": "17",
    "SECSSNUM21": "00217",
    "OBJECTID_1": 196788,
    "DT": "18",
    "CC": "16",
    "fr": "20",
    "SEC": "002",
    "SS": "17"
  },
  "addresses": [
    {
      "id": "pt.ine.add.PTCONT.5427303",
      "street": "R OLIVAL DO SENHOR",
      "house": "",
      "postcode": "3660-055",
      "city": "CARVALHAIS SPS",
      "lon": "-8.117717037376455",
      "lat": "40.79260933876758"
    },
    {
      "id": "pt.ine.add.PTCONT.5431379",
      "street": "R OLIVAL DO SENHOR",
      "house": "",
      "postcode": "3660-055",
      "city": "CARVALHAIS SPS",
      "lon": "-8.118688534588241",
      "lat": "40.793005682514654"
    },
    {
      "id": "pt.ine.add.PTCONT.5438387",
      "street": "R PRINCIPAL",
      "house": "",
      "postcode": "3660-067",
      "city": "CARVALHAIS SPS",
      "lon": "-8.12435244146182",
      "lat": "40.79106117958075"
    },
    {
      "id": "pt.ine.add.PTCONT.5458933",
      "street": "R PRINCIPAL",
      "house": "",
      "postcode": "3660-067",
      "city": "CARVALHAIS SPS",
      "lon": "-8.123286141141884",
      "lat": "40.790745920026616"
    },
    {
      "id": "pt.ine.add.PTCONT.5480628",
      "street": "R IGREJA",
      "house": "",
      "postcode": "3660-055",
      "city": "CARVALHAIS SPS",
      "lon": "-8.11691183336727",
      "lat": "40.790556097157726"
    },
    {
      "id": "pt.ine.add.PTCONT.5502882",
      "street": "R PRINCIPAL",
      "house": "",
      "postcode": "3660-067",
      "city": "CARVALHAIS SPS",
      "lon": "-8.12287143195156",
      "lat": "40.790880958434705"
    },
    {
      "id": "pt.ine.add.PTCONT.5506103",
      "street": "R CORTE",
      "house": "",
      "postcode": "3660-055",
      "city": "CARVALHAIS SPS",
      "lon": "-8.116366164421905",
      "lat": "40.79314944829379"
    },
    {
      "id": "pt.ine.add.PTCONT.5526596",
      "street": "R OLIVAL DO SENHOR",
      "house": "",
      "postcode": "3660-055",
      "city": "CARVALHAIS SPS",
      "lon": "-8.116603235904996",
      "lat": "40.792753264200506"
    },
    {
      "id": "pt.ine.add.PTCONT.5541765",
      "street": "R PRINCIPAL",
      "house": "",
      "postcode": "3660-067",
      "city": "CARVALHAIS SPS",
      "lon": "-8.12386677737976",
      "lat": "40.790223680074526"
    },
    {
      "id": "pt.ine.add.PTCONT.5545787",
      "street": "TV TAPADA DAS ALMAS",
      "house": "",
      "postcode": "3660-055",
      "city": "CARVALHAIS SPS",
      "lon": "-8.116816787998964",
      "lat": "40.791618669419286"
    },
    {
      "id": "pt.ine.add.PTCONT.5550246",
      "street": "R CONTENCA",
      "house": "",
      "postcode": "3660-055",
      "city": "CARVALHAIS SPS",
      "lon": "-8.115371947404167",
      "lat": "40.789124081312096"
    },
    {
      "id": "pt.ine.add.PTCONT.5555294",
      "street": "R PRINCIPAL",
      "house": "",
      "postcode": "3660-067",
      "city": "CARVALHAIS SPS",
      "lon": "-8.124293222601922",
      "lat": "40.79089008076993"
    },
    {
      "id": "pt.ine.add.PTCONT.5573517",
      "street": "LG POVO",
      "house": "",
      "postcode": "3660-055",
      "city": "CARVALHAIS SPS",
      "lon": "-8.115667196679704",
      "lat": "40.79275312651854"
    },
    {
      "id": "pt.ine.add.PTCONT.5575469",
      "street": "R PRINCIPAL",
      "house": "",
      "postcode": "3660-067",
      "city": "CARVALHAIS SPS",
      "lon": "-8.124162931545406",
      "lat": "40.79059290694314"
    },
    {
      "id": "pt.ine.add.PTCONT.5593992",
      "street": "R OLIVAL DO SENHOR",
      "house": "",
      "postcode": "3660-055",
      "city": "CARVALHAIS SPS",
      "lon": "-8.118250110715168",
      "lat": "40.793113686414834"
    },
    {
      "id": "pt.ine.add.PTCONT.5601379",
      "street": "R PRINCIPAL",
      "house": "",
      "postcode": "3660-067",
      "city": "CARVALHAIS SPS",
      "lon": "-8.12359427382001",
      "lat": "40.790196643035415"
    },
    {
      "id": "pt.ine.add.PTCONT.5609084",
      "street": "R PRINCIPAL",
      "house": "",
      "postcode": "3660-067",
      "city": "CARVALHAIS SPS",
      "lon": "-8.124494568663918",
      "lat": "40.791466413604624"
    },
    {
      "id": "pt.ine.add.PTCONT.5609085",
      "street": "R PRINCIPAL",
      "house": "",
      "postcode": "3660-067",
      "city": "CARVALHAIS SPS",
      "lon": "-8.124506433302908",
      "lat": "40.79134034501319"
    },
    {
      "id": "pt.ine.add.PTCONT.5614069",
      "street": "R OLIVAL DO SENHOR",
      "house": "",
      "postcode": "3660-055",
      "city": "CARVALHAIS SPS",
      "lon": "-8.117977581268137",
      "lat": "40.793158675800754"
    },
    {
      "id": "pt.ine.add.PTCONT.5616962",
      "street": "R PRINCIPAL PISAO SN",
      "house": "SN",
      "postcode": "3660-067",
      "city": "CARVALHAIS SPS",
      "lon": "-8.124387947476482",
      "lat": "40.79135834604533"
    },
    {
      "id": "pt.ine.add.PTCONT.5621783",
      "street": "R OLIVAL DO SENHOR",
      "house": "",
      "postcode": "3660-055",
      "city": "CARVALHAIS SPS",
      "lon": "-8.119055867197602",
      "lat": "40.79288866335082"
    },
    {
      "id": "pt.ine.add.PTCONT.5621798",
      "street": "R IGREJA",
      "house": "",
      "postcode": "3660-055",
      "city": "CARVALHAIS SPS",
      "lon": "-8.11526509407037",
      "lat": "40.789952521662734"
    },
    {
      "id": "pt.ine.add.PTCONT.5629415",
      "street": "R TAPADA DAS ALMAS",
      "house": "",
      "postcode": "3660-055",
      "city": "CARVALHAIS SPS",
      "lon": "-8.116047170077852",
      "lat": "40.78955642147737"
    },
    {
      "id": "pt.ine.add.PTCONT.5633217",
      "street": "R TAPADA DAS ALMAS",
      "house": "",
      "postcode": "3660-055",
      "city": "CARVALHAIS SPS",
      "lon": "-8.115632389889306",
      "lat": "40.78993456794284"
    },
    {
      "id": "pt.ine.add.PTCONT.5636664",
      "street": "R TAPADA DAS ALMAS",
      "house": "",
      "postcode": "3660-055",
      "city": "CARVALHAIS SPS",
      "lon": "-8.115964152810337",
      "lat": "40.78987158295549"
    },
    {
      "id": "pt.ine.add.PTCONT.5642747",
      "street": "R PRINCIPAL",
      "house": "",
      "postcode": "3660-067",
      "city": "CARVALHAIS SPS",
      "lon": "-8.12428131232454",
      "lat": "40.79135833793756"
    },
    {
      "id": "pt.ine.add.PTCONT.5644559",
      "street": "R OLIVAL DO SENHOR",
      "house": "",
      "postcode": "3660-055",
      "city": "CARVALHAIS SPS",
      "lon": "-8.116342600730134",
      "lat": "40.79261815221813"
    },
    {
      "id": "pt.ine.add.PTCONT.5650725",
      "street": "TV TAPADA DAS ALMAS",
      "house": "",
      "postcode": "3660-055",
      "city": "CARVALHAIS SPS",
      "lon": "-8.116236335117616",
      "lat": "40.79115032795481"
    },
    {
      "id": "pt.ine.add.PTCONT.5657601",
      "street": "R OLIVAL DO SENHOR",
      "house": "",
      "postcode": "3660-055",
      "city": "CARVALHAIS SPS",
      "lon": "-8.116567725867133",
      "lat": "40.792609179746904"
    },
    {
      "id": "pt.ine.add.PTCONT.5667088",
      "street": "R PRINCIPAL",
      "house": "",
      "postcode": "3660-067",
      "city": "CARVALHAIS SPS",
      "lon": "-8.12441166297548",
      "lat": "40.791214268430494"
    }
  ]
}