{
  "data": {
    "distrito": "Viana do Castelo",
    "concelho": "Vila Nova de Cerveira",
    "freguesia": "Sapardos",
    "OBJECTID": 349,
    "BGRI2021": "16101200121",
    "DT21": "16",
    "DTMN21": "1610",
    "DTMNFR21": "161012",
    "DTMNFRSEC21": "161012001",
    "SECNUM21": "001",
    "SSNUM21": "21",
    "SECSSNUM21": "00121",
    "OBJECTID_1": 179243,
    "DT": "16",
    "CC": "10",
    "fr": "12",
    "SEC": "001",
    "SS": "21"
  },
  "addresses": [
    {
      "id": "pt.ine.add.PTCONT.5142367",
      "street": "R CARRELA",
      "house": "",
      "postcode": "4920-120",
      "city": "SAPARDOS",
      "lon": "-8.655304392467396",
      "lat": "41.92229861811268"
    },
    {
      "id": "pt.ine.add.PTCONT.5146945",
      "street": "EN 303",
      "house": "",
      "postcode": "4920-120",
      "city": "SAPARDOS",
      "lon": "-8.657184443089617",
      "lat": "41.923703546448564"
    },
    {
      "id": "pt.ine.add.PTCONT.5148121",
      "street": "EN 303",
      "house": "",
      "postcode": "4920-120",
      "city": "SAPARDOS",
      "lon": "-8.65801134076893",
      "lat": "41.92457307425481"
    },
    {
      "id": "pt.ine.add.PTCONT.5157352",
      "street": "R SR DA GUIA",
      "house": "",
      "postcode": "4920-120",
      "city": "SAPARDOS",
      "lon": "-8.659375641109603",
      "lat": "41.92335140505527"
    },
    {
      "id": "pt.ine.add.PTCONT.5211403",
      "street": "EN 303",
      "house": "",
      "postcode": "4920-120",
      "city": "SAPARDOS",
      "lon": "-8.657998252528492",
      "lat": "41.92444709008882"
    },
    {
      "id": "pt.ine.add.PTCONT.5219114",
      "street": "R SENHORA DA GUIA",
      "house": "",
      "postcode": "4920-120",
      "city": "SAPARDOS",
      "lon": "-8.659547058775441",
      "lat": "41.92073970687086"
    },
    {
      "id": "pt.ine.add.PTCONT.5241781",
      "street": "R SENHORA DA GUIA",
      "house": "",
      "postcode": "4920-120",
      "city": "SAPARDOS",
      "lon": "-8.659521987958172",
      "lat": "41.92062278088176"
    },
    {
      "id": "pt.ine.add.PTCONT.5265028",
      "street": "EN 303",
      "house": "",
      "postcode": "4920-120",
      "city": "SAPARDOS",
      "lon": "-8.657633206358858",
      "lat": "41.92403461365301"
    },
    {
      "id": "pt.ine.add.PTCONT.5284040",
      "street": "EN 303",
      "house": "",
      "postcode": "4920-120",
      "city": "SAPARDOS",
      "lon": "-8.656310451821609",
      "lat": "41.92296927430591"
    }
  ]
}