{
  "data": {
    "distrito": "Leiria",
    "concelho": "Alvaiázere",
    "freguesia": "Pelmá",
    "OBJECTID": 290,
    "BGRI2021": "10020500161",
    "DT21": "10",
    "DTMN21": "1002",
    "DTMNFR21": "100205",
    "DTMNFRSEC21": "100205001",
    "SECNUM21": "001",
    "SSNUM21": "61",
    "SECSSNUM21": "00161",
    "OBJECTID_1": 85220,
    "DT": "10",
    "CC": "02",
    "fr": "05",
    "SEC": "001",
    "SS": "61"
  },
  "addresses": [
    {
      "id": "pt.ine.add.PTCONT.1999045",
      "street": "CANTO DA CARRASCOSA",
      "house": "",
      "postcode": "3250-310",
      "city": "PELMÁ",
      "lon": "-8.45325983189187",
      "lat": "39.78385814480167"
    },
    {
      "id": "pt.ine.add.PTCONT.1999402",
      "street": "R EIRA VELHA",
      "house": "",
      "postcode": "3250-310",
      "city": "PELMÁ",
      "lon": "-8.45702459837692",
      "lat": "39.78261380622941"
    },
    {
      "id": "pt.ine.add.PTCONT.1999961",
      "street": "R PORTELA",
      "house": "",
      "postcode": "3250-320",
      "city": "PELMÁ",
      "lon": "-8.452400319288028",
      "lat": "39.784797189667174"
    },
    {
      "id": "pt.ine.add.PTCONT.2037097",
      "street": "R CORTICADA",
      "house": "",
      "postcode": "3250-310",
      "city": "PELMÁ",
      "lon": "-8.460243176559072",
      "lat": "39.786846843398884"
    },
    {
      "id": "pt.ine.add.PTCONT.2056948",
      "street": "R FONTE",
      "house": "",
      "postcode": "3250-310",
      "city": "PELMÁ",
      "lon": "-8.455650661915083",
      "lat": "39.78087036933142"
    },
    {
      "id": "pt.ine.add.PTCONT.2072069",
      "street": "R FONTE",
      "house": "",
      "postcode": "3250-310",
      "city": "PELMÁ",
      "lon": "-8.456058375990326",
      "lat": "39.78068910521982"
    },
    {
      "id": "pt.ine.add.PTCONT.2084148",
      "street": "R FONTE",
      "house": "",
      "postcode": "3250-310",
      "city": "PELMÁ",
      "lon": "-8.458238793512585",
      "lat": "39.78264643704463"
    },
    {
      "id": "pt.ine.add.PTCONT.2086522",
      "street": "R EIRA VELHA",
      "house": "",
      "postcode": "3250-310",
      "city": "PELMÁ",
      "lon": "-8.456745662171448",
      "lat": "39.782875773240306"
    },
    {
      "id": "pt.ine.add.PTCONT.2116062",
      "street": "R FONTE",
      "house": "",
      "postcode": "3250-310",
      "city": "PELMÁ",
      "lon": "-8.456597400299495",
      "lat": "39.78112892321562"
    },
    {
      "id": "pt.ine.add.PTCONT.2127263",
      "street": "R EIRA VELHA",
      "house": "",
      "postcode": "3250-310",
      "city": "PELMÁ",
      "lon": "-8.45694478493048",
      "lat": "39.78301932195789"
    },
    {
      "id": "pt.ine.add.PTCONT.2154131",
      "street": "CANTO DA CARRASCOSA",
      "house": "",
      "postcode": "3250-310",
      "city": "PELMÁ",
      "lon": "-8.453096777815198",
      "lat": "39.78393965308204"
    },
    {
      "id": "pt.ine.add.PTCONT.2154132",
      "street": "R FONTE",
      "house": "",
      "postcode": "3250-310",
      "city": "PELMÁ",
      "lon": "-8.456503341178463",
      "lat": "39.78098508113231"
    },
    {
      "id": "pt.ine.add.PTCONT.2174766",
      "street": "ESTR NABAO",
      "house": "",
      "postcode": "3250-310",
      "city": "PELMÁ",
      "lon": "-8.454093212543151",
      "lat": "39.78232473595269"
    },
    {
      "id": "pt.ine.add.PTCONT.2176939",
      "street": "R EIRA VELHA",
      "house": "",
      "postcode": "3250-310",
      "city": "PELMÁ",
      "lon": "-8.457270667910121",
      "lat": "39.78281126241988"
    },
    {
      "id": "pt.ine.add.PTCONT.2219425",
      "street": "ESTR NABAO",
      "house": "",
      "postcode": "3250-320",
      "city": "PELMÁ",
      "lon": "-8.452022769327641",
      "lat": "39.783933602886705"
    },
    {
      "id": "pt.ine.add.PTCONT.2221518",
      "street": "R FONTE",
      "house": "",
      "postcode": "3250-310",
      "city": "PELMÁ",
      "lon": "-8.456420786887346",
      "lat": "39.78080518086246"
    },
    {
      "id": "pt.ine.add.PTCONT.2227345",
      "street": "R FONTE",
      "house": "",
      "postcode": "3250-310",
      "city": "PELMÁ",
      "lon": "-8.457679912423115",
      "lat": "39.78295422277964"
    },
    {
      "id": "pt.ine.add.PTCONT.2227910",
      "street": "R FONTE",
      "house": "",
      "postcode": "3250-310",
      "city": "PELMÁ",
      "lon": "-8.458144008534333",
      "lat": "39.78234948767593"
    },
    {
      "id": "pt.ine.add.PTCONT.2240999",
      "street": "R FONTE",
      "house": "",
      "postcode": "3250-310",
      "city": "PELMÁ",
      "lon": "-8.458019668862178",
      "lat": "39.7832144608856"
    },
    {
      "id": "pt.ine.add.PTCONT.2256400",
      "street": "R CAMARINHAS",
      "house": "",
      "postcode": "3250-310",
      "city": "PELMÁ",
      "lon": "-8.458851211659665",
      "lat": "39.78874212441272"
    },
    {
      "id": "pt.ine.add.PTCONT.2256401",
      "street": "ESTR NABAO",
      "house": "",
      "postcode": "3250-310",
      "city": "PELMÁ",
      "lon": "-8.453095234247723",
      "lat": "39.78360641646464"
    }
  ]
}