{
  "data": {
    "distrito": "Viseu",
    "concelho": "Viseu",
    "freguesia": "União das freguesias de Barreiros e Cepões",
    "OBJECTID": 1444,
    "BGRI2021": "18233500213",
    "DT21": "18",
    "DTMN21": "1823",
    "DTMNFR21": "182335",
    "DTMNFRSEC21": "182335002",
    "SECNUM21": "002",
    "SSNUM21": "13",
    "SECSSNUM21": "00213",
    "OBJECTID_1": 202444,
    "DT": "18",
    "CC": "23",
    "fr": "35",
    "SEC": "002",
    "SS": "13"
  },
  "addresses": [
    {
      "id": "pt.ine.add.PTCONT.5440982",
      "street": "R NOVA",
      "house": "1",
      "postcode": "3505-100",
      "city": "BARREIROS VIS",
      "lon": "-7.782445820950081",
      "lat": "40.739353411803556"
    },
    {
      "id": "pt.ine.add.PTCONT.5459234",
      "street": "EM 585",
      "house": "16",
      "postcode": "3505-100",
      "city": "BARREIROS VIS",
      "lon": "-7.780684439531556",
      "lat": "40.73885277111835"
    },
    {
      "id": "pt.ine.add.PTCONT.5473369",
      "street": "EM 585",
      "house": "",
      "postcode": "3505-100",
      "city": "BARREIROS VIS",
      "lon": "-7.781577185071242",
      "lat": "40.737936981458994"
    },
    {
      "id": "pt.ine.add.PTCONT.5474250",
      "street": "R PINOUCO",
      "house": "3",
      "postcode": "3505-100",
      "city": "BARREIROS VIS",
      "lon": "-7.783233321581463",
      "lat": "40.738185149033306"
    },
    {
      "id": "pt.ine.add.PTCONT.5482779",
      "street": "R CASAINHO",
      "house": "3",
      "postcode": "3505-100",
      "city": "BARREIROS VIS",
      "lon": "-7.7828711238511366",
      "lat": "40.7395257984763"
    },
    {
      "id": "pt.ine.add.PTCONT.5487937",
      "street": "R PRINCIPAL",
      "house": "12",
      "postcode": "3505-100",
      "city": "BARREIROS VIS",
      "lon": "-7.780660096541313",
      "lat": "40.73897876705694"
    },
    {
      "id": "pt.ine.add.PTCONT.5492293",
      "street": "R PRINCIPAL",
      "house": "34",
      "postcode": "3505-100",
      "city": "BARREIROS VIS",
      "lon": "-7.781021511253039",
      "lat": "40.73554895678358"
    },
    {
      "id": "pt.ine.add.PTCONT.5495422",
      "street": "EM 585",
      "house": "",
      "postcode": "3505-100",
      "city": "BARREIROS VIS",
      "lon": "-7.781386646547594",
      "lat": "40.73590126594369"
    },
    {
      "id": "pt.ine.add.PTCONT.5512540",
      "street": "R PRINCIPAL",
      "house": "10",
      "postcode": "3505-100",
      "city": "BARREIROS VIS",
      "lon": "-7.780848567740706",
      "lat": "40.73915944278636"
    },
    {
      "id": "pt.ine.add.PTCONT.5517645",
      "street": "EM 585",
      "house": "6",
      "postcode": "3505-100",
      "city": "BARREIROS VIS",
      "lon": "-7.78085978909053",
      "lat": "40.7392765422757"
    },
    {
      "id": "pt.ine.add.PTCONT.5544932",
      "street": "R PRINCIPAL",
      "house": "36",
      "postcode": "3505-100",
      "city": "BARREIROS VIS",
      "lon": "-7.781395734283088",
      "lat": "40.73642358500204"
    },
    {
      "id": "pt.ine.add.PTCONT.5551479",
      "street": "R EIRA",
      "house": "1",
      "postcode": "3505-100",
      "city": "BARREIROS VIS",
      "lon": "-7.7827314664110085",
      "lat": "40.739066118654044"
    },
    {
      "id": "pt.ine.add.PTCONT.5573869",
      "street": "EM 585",
      "house": "",
      "postcode": "3505-100",
      "city": "BARREIROS VIS",
      "lon": "-7.782206383946135",
      "lat": "40.7376057102349"
    },
    {
      "id": "pt.ine.add.PTCONT.5573870",
      "street": "EM 585",
      "house": "4",
      "postcode": "3505-100",
      "city": "BARREIROS VIS",
      "lon": "-7.780847095162013",
      "lat": "40.7394385938685"
    },
    {
      "id": "pt.ine.add.PTCONT.5579470",
      "street": "R PINOUCO",
      "house": "5",
      "postcode": "3505-100",
      "city": "BARREIROS VIS",
      "lon": "-7.783483395572753",
      "lat": "40.7379067511462"
    },
    {
      "id": "pt.ine.add.PTCONT.5583181",
      "street": "R PRINCIPAL",
      "house": "20",
      "postcode": "3505-100",
      "city": "BARREIROS VIS",
      "lon": "-7.7808266002020625",
      "lat": "40.7388351950552"
    },
    {
      "id": "pt.ine.add.PTCONT.5588391",
      "street": "R LANCEIRA",
      "house": "N 4",
      "postcode": "3505-100",
      "city": "BARREIROS VIS",
      "lon": "-7.781755759662565",
      "lat": "40.73774841974282"
    },
    {
      "id": "pt.ine.add.PTCONT.5598046",
      "street": "R CASAINHO",
      "house": "1",
      "postcode": "3505-100",
      "city": "BARREIROS VIS",
      "lon": "-7.782373510555422",
      "lat": "40.739596327597106"
    },
    {
      "id": "pt.ine.add.PTCONT.5609122",
      "street": "EM 585",
      "house": "",
      "postcode": "3505-100",
      "city": "BARREIROS VIS",
      "lon": "-7.781410353297131",
      "lat": "40.73814358871392"
    },
    {
      "id": "pt.ine.add.PTCONT.5609504",
      "street": "R NOVA",
      "house": "2",
      "postcode": "3505-100",
      "city": "BARREIROS VIS",
      "lon": "-7.781817885775284",
      "lat": "40.739441552567705"
    },
    {
      "id": "pt.ine.add.PTCONT.5633621",
      "street": "EM 585",
      "house": "24",
      "postcode": "3505-100",
      "city": "BARREIROS VIS",
      "lon": "-7.780911419030266",
      "lat": "40.73846624809509"
    },
    {
      "id": "pt.ine.add.PTCONT.5644915",
      "street": "R NOVA",
      "house": "4",
      "postcode": "3505-100",
      "city": "BARREIROS VIS",
      "lon": "-7.782089423362573",
      "lat": "40.73958645897221"
    },
    {
      "id": "pt.ine.add.PTCONT.5662956",
      "street": "R NOVA",
      "house": "3",
      "postcode": "3505-100",
      "city": "BARREIROS VIS",
      "lon": "-7.782102161641441",
      "lat": "40.73941540236004"
    },
    {
      "id": "pt.ine.add.PTCONT.5668586",
      "street": "R PINOUCO",
      "house": "7",
      "postcode": "3505-100",
      "city": "BARREIROS VIS",
      "lon": "-7.784194749133687",
      "lat": "40.737710793217424"
    }
  ]
}