{
  "data": {
    "distrito": "Porto",
    "concelho": "Lousada",
    "freguesia": "Vilar do Torno e Alentém",
    "OBJECTID": 9,
    "BGRI2021": "13052600115",
    "DT21": "13",
    "DTMN21": "1305",
    "DTMNFR21": "130526",
    "DTMNFRSEC21": "130526001",
    "SECNUM21": "001",
    "SSNUM21": "15",
    "SECSSNUM21": "00115",
    "OBJECTID_1": 129953,
    "DT": "13",
    "CC": "05",
    "fr": "26",
    "SEC": "001",
    "SS": "15"
  },
  "addresses": [
    {
      "id": "pt.ine.add.PTCONT.3543216",
      "street": "R TORNO",
      "house": "205",
      "postcode": "4620-893",
      "city": "VILAR DO TORNO E ALENTÉM",
      "lon": "-8.206248710039658",
      "lat": "41.28602878873206"
    },
    {
      "id": "pt.ine.add.PTCONT.3554003",
      "street": "R S JOSE",
      "house": "444",
      "postcode": "4620-824",
      "city": "VILAR DO TORNO E ALENTÉM",
      "lon": "-8.208337968430326",
      "lat": "41.28621653032851"
    },
    {
      "id": "pt.ine.add.PTCONT.3585808",
      "street": "TV TROVOADA",
      "house": "158",
      "postcode": "4620-893",
      "city": "VILAR DO TORNO E ALENTÉM",
      "lon": "-8.202713619077581",
      "lat": "41.284500268490696"
    },
    {
      "id": "pt.ine.add.PTCONT.3598917",
      "street": "R S JOSE",
      "house": "520",
      "postcode": "4620-824",
      "city": "VILAR DO TORNO E ALENTÉM",
      "lon": "-8.20910232846181",
      "lat": "41.286531174802306"
    },
    {
      "id": "pt.ine.add.PTCONT.3605374",
      "street": "R BOM VIVER",
      "house": "143",
      "postcode": "4620-823",
      "city": "VILAR DO TORNO E ALENTÉM",
      "lon": "-8.212148719261581",
      "lat": "41.28846502306002"
    },
    {
      "id": "pt.ine.add.PTCONT.3615396",
      "street": "R S JOSE",
      "house": "282",
      "postcode": "4620-824",
      "city": "VILAR DO TORNO E ALENTÉM",
      "lon": "-8.20704713205867",
      "lat": "41.284803709243675"
    },
    {
      "id": "pt.ine.add.PTCONT.3683854",
      "street": "R CASTANHEIRA",
      "house": "",
      "postcode": "4620-893",
      "city": "VILAR DO TORNO E ALENTÉM",
      "lon": "-8.204134095023866",
      "lat": "41.2844633841359"
    },
    {
      "id": "pt.ine.add.PTCONT.3721890",
      "street": "R SESOES",
      "house": "153",
      "postcode": "4620-893",
      "city": "VILAR DO TORNO E ALENTÉM",
      "lon": "-8.204028269769333",
      "lat": "41.28594914033729"
    },
    {
      "id": "pt.ine.add.PTCONT.3742442",
      "street": "R S JOSE",
      "house": "240",
      "postcode": "4620-824",
      "city": "VILAR DO TORNO E ALENTÉM",
      "lon": "-8.20677236483586",
      "lat": "41.28461479743097"
    },
    {
      "id": "pt.ine.add.PTCONT.3760502",
      "street": "R BOM VIVER",
      "house": "17",
      "postcode": "4620-890",
      "city": "VILAR DO TORNO E ALENTÉM",
      "lon": "-8.2109914787072",
      "lat": "41.28907809614811"
    },
    {
      "id": "pt.ine.add.PTCONT.3779939",
      "street": "R S JOSE",
      "house": "302",
      "postcode": "4620-824",
      "city": "VILAR DO TORNO E ALENTÉM",
      "lon": "-8.207262163949942",
      "lat": "41.284947637946864"
    },
    {
      "id": "pt.ine.add.PTCONT.3788488",
      "street": "R TORNO",
      "house": "",
      "postcode": "4620-893",
      "city": "VILAR DO TORNO E ALENTÉM",
      "lon": "-8.206547114219862",
      "lat": "41.28600158620344"
    },
    {
      "id": "pt.ine.add.PTCONT.3806048",
      "street": "R BOM VIVER",
      "house": "41",
      "postcode": "4620-890",
      "city": "VILAR DO TORNO E ALENTÉM",
      "lon": "-8.211206168232874",
      "lat": "41.288915875437134"
    },
    {
      "id": "pt.ine.add.PTCONT.3814080",
      "street": "R BOM VIVER",
      "house": "171",
      "postcode": "4620-823",
      "city": "VILAR DO TORNO E ALENTÉM",
      "lon": "-8.212542394337213",
      "lat": "41.28823964753561"
    },
    {
      "id": "pt.ine.add.PTCONT.3831738",
      "street": "TV TROVOADA",
      "house": "",
      "postcode": "4620-893",
      "city": "VILAR DO TORNO E ALENTÉM",
      "lon": "-8.202296219992158",
      "lat": "41.28487869601529"
    },
    {
      "id": "pt.ine.add.PTCONT.3845659",
      "street": "TV TROVOADA",
      "house": "186",
      "postcode": "4620-893",
      "city": "VILAR DO TORNO E ALENTÉM",
      "lon": "-8.202737828284063",
      "lat": "41.284815400449766"
    },
    {
      "id": "pt.ine.add.PTCONT.3870197",
      "street": "TV TROVOADA",
      "house": "",
      "postcode": "4620-893",
      "city": "VILAR DO TORNO E ALENTÉM",
      "lon": "-8.202892733150533",
      "lat": "41.28455418518935"
    },
    {
      "id": "pt.ine.add.PTCONT.3966934",
      "street": "R CASTANHEIRA",
      "house": "68",
      "postcode": "4620-893",
      "city": "VILAR DO TORNO E ALENTÉM",
      "lon": "-8.203656475490824",
      "lat": "41.28433761916779"
    },
    {
      "id": "pt.ine.add.PTCONT.3966935",
      "street": "R CASTANHEIRA",
      "house": "68",
      "postcode": "4620-893",
      "city": "VILAR DO TORNO E ALENTÉM",
      "lon": "-8.203656475490824",
      "lat": "41.28433761916779"
    },
    {
      "id": "pt.ine.add.PTCONT.3998868",
      "street": "TV TROVOADA",
      "house": "177",
      "postcode": "4620-893",
      "city": "VILAR DO TORNO E ALENTÉM",
      "lon": "-8.202976446596265",
      "lat": "41.2846982014318"
    },
    {
      "id": "pt.ine.add.PTCONT.3998869",
      "street": "TV TROVOADA",
      "house": "177",
      "postcode": "4620-893",
      "city": "VILAR DO TORNO E ALENTÉM",
      "lon": "-8.202976446596265",
      "lat": "41.2846982014318"
    },
    {
      "id": "pt.ine.add.PTCONT.4012087",
      "street": "R S JOSE",
      "house": "256",
      "postcode": "4620-824",
      "city": "VILAR DO TORNO E ALENTÉM",
      "lon": "-8.206879890192468",
      "lat": "41.28469576627467"
    },
    {
      "id": "pt.ine.add.PTCONT.4044712",
      "street": "R S JOSE",
      "house": "",
      "postcode": "4620-824",
      "city": "VILAR DO TORNO E ALENTÉM",
      "lon": "-8.209173974192952",
      "lat": "41.28654913585667"
    },
    {
      "id": "pt.ine.add.PTCONT.4090761",
      "street": "R S JOSE",
      "house": "438",
      "postcode": "4620-824",
      "city": "VILAR DO TORNO E ALENTÉM",
      "lon": "-8.20818262725985",
      "lat": "41.28608156894391"
    },
    {
      "id": "pt.ine.add.PTCONT.4090762",
      "street": "R S JOSE",
      "house": "438",
      "postcode": "4620-824",
      "city": "VILAR DO TORNO E ALENTÉM",
      "lon": "-8.20818262725985",
      "lat": "41.28608156894391"
    },
    {
      "id": "pt.ine.add.PTCONT.4123402",
      "street": "R S JOSE",
      "house": "",
      "postcode": "4620-824",
      "city": "VILAR DO TORNO E ALENTÉM",
      "lon": "-8.209245494361284",
      "lat": "41.28645904672392"
    },
    {
      "id": "pt.ine.add.PTCONT.4143244",
      "street": "TV TROVOADA",
      "house": "195",
      "postcode": "4620-893",
      "city": "VILAR DO TORNO E ALENTÉM",
      "lon": "-8.203012373319623",
      "lat": "41.28480622988301"
    },
    {
      "id": "pt.ine.add.PTCONT.4143245",
      "street": "TV TROVOADA",
      "house": "195",
      "postcode": "4620-893",
      "city": "VILAR DO TORNO E ALENTÉM",
      "lon": "-8.203012373319623",
      "lat": "41.28480622988301"
    },
    {
      "id": "pt.ine.add.PTCONT.4182313",
      "street": "TV TROVOADA",
      "house": "",
      "postcode": "4620-893",
      "city": "VILAR DO TORNO E ALENTÉM",
      "lon": "-8.202880709719093",
      "lat": "41.2844731547781"
    },
    {
      "id": "pt.ine.add.PTCONT.4241398",
      "street": "R ESTRADA NACIONAL 15",
      "house": "6",
      "postcode": "4620-891",
      "city": "VILAR DO TORNO E ALENTÉM",
      "lon": "-8.202188652514424",
      "lat": "41.28475270197544"
    },
    {
      "id": "pt.ine.add.PTCONT.4346928",
      "street": "R TORNO",
      "house": "55",
      "postcode": "4620-893",
      "city": "VILAR DO TORNO E ALENTÉM",
      "lon": "-8.204792231545175",
      "lat": "41.28592165461579"
    },
    {
      "id": "pt.ine.add.PTCONT.4346929",
      "street": "R TORNO",
      "house": "55",
      "postcode": "4620-893",
      "city": "VILAR DO TORNO E ALENTÉM",
      "lon": "-8.204792231545175",
      "lat": "41.28592165461579"
    },
    {
      "id": "pt.ine.add.PTCONT.4354681",
      "street": "R BOM VIVER",
      "house": "51",
      "postcode": "4620-890",
      "city": "VILAR DO TORNO E ALENTÉM",
      "lon": "-8.211325515007614",
      "lat": "41.28888878186621"
    }
  ]
}