{
  "data": {
    "distrito": "Aveiro",
    "concelho": "Arouca",
    "freguesia": "União das freguesias de Arouca e Burgo",
    "OBJECTID": 485,
    "BGRI2021": "01042100220",
    "DT21": "01",
    "DTMN21": "0104",
    "DTMNFR21": "010421",
    "DTMNFRSEC21": "010421002",
    "SECNUM21": "002",
    "SSNUM21": "20",
    "SECSSNUM21": "00220",
    "OBJECTID_1": 2307,
    "DT": "01",
    "CC": "04",
    "fr": "21",
    "SEC": "002",
    "SS": "20"
  },
  "addresses": [
    {
      "id": "pt.ine.add.PTCONT.305617",
      "street": "R CAMÕES",
      "house": "",
      "postcode": "4540-164",
      "city": "AROUCA",
      "lon": "-8.252337194728362",
      "lat": "40.936266102266195"
    },
    {
      "id": "pt.ine.add.PTCONT.345634",
      "street": "R CAMÕES",
      "house": "",
      "postcode": "4540-164",
      "city": "AROUCA",
      "lon": "-8.251741826612774",
      "lat": "40.93533922875896"
    },
    {
      "id": "pt.ine.add.PTCONT.8203",
      "street": "R PINHEIRO",
      "house": "",
      "postcode": "4540-182",
      "city": "AROUCA",
      "lon": "-8.249287076957003",
      "lat": "40.93715167946204"
    },
    {
      "id": "pt.ine.add.PTCONT.33805",
      "street": "R CAMÕES",
      "house": "",
      "postcode": "4540-164",
      "city": "AROUCA",
      "lon": "-8.25186080860269",
      "lat": "40.935474177301856"
    },
    {
      "id": "pt.ine.add.PTCONT.33806",
      "street": "R CAMÕES",
      "house": "",
      "postcode": "4540-164",
      "city": "AROUCA",
      "lon": "-8.25186080860269",
      "lat": "40.935474177301856"
    },
    {
      "id": "pt.ine.add.PTCONT.33807",
      "street": "R CAMÕES",
      "house": "",
      "postcode": "4540-164",
      "city": "AROUCA",
      "lon": "-8.25186080860269",
      "lat": "40.935474177301856"
    },
    {
      "id": "pt.ine.add.PTCONT.33808",
      "street": "R CAMÕES",
      "house": "",
      "postcode": "4540-164",
      "city": "AROUCA",
      "lon": "-8.25186080860269",
      "lat": "40.935474177301856"
    },
    {
      "id": "pt.ine.add.PTCONT.46012",
      "street": "R CAMÕES",
      "house": "5",
      "postcode": "4540-164",
      "city": "AROUCA",
      "lon": "-8.251480067940767",
      "lat": "40.93504234151898"
    },
    {
      "id": "pt.ine.add.PTCONT.46013",
      "street": "R CAMÕES",
      "house": "5",
      "postcode": "4540-164",
      "city": "AROUCA",
      "lon": "-8.251480067940767",
      "lat": "40.93504234151898"
    },
    {
      "id": "pt.ine.add.PTCONT.46014",
      "street": "R CAMÕES",
      "house": "5",
      "postcode": "4540-164",
      "city": "AROUCA",
      "lon": "-8.251480067940767",
      "lat": "40.93504234151898"
    },
    {
      "id": "pt.ine.add.PTCONT.46015",
      "street": "R CAMÕES",
      "house": "5",
      "postcode": "4540-164",
      "city": "AROUCA",
      "lon": "-8.251480067940767",
      "lat": "40.93504234151898"
    },
    {
      "id": "pt.ine.add.PTCONT.53848",
      "street": "R PEDRO ÁLVARES CABRAL",
      "house": "",
      "postcode": "4540-163",
      "city": "AROUCA",
      "lon": "-8.250602846799964",
      "lat": "40.93586266950597"
    },
    {
      "id": "pt.ine.add.PTCONT.74925",
      "street": "",
      "house": "",
      "postcode": "4540-182",
      "city": "AROUCA",
      "lon": "-8.25089299147556",
      "lat": "40.938770901728205"
    },
    {
      "id": "pt.ine.add.PTCONT.127900",
      "street": "",
      "house": "",
      "postcode": "4540-181",
      "city": "AROUCA",
      "lon": "-8.251457878827555",
      "lat": "40.935915823512644"
    },
    {
      "id": "pt.ine.add.PTCONT.136438",
      "street": "R ANTERO QUENTAL",
      "house": "10",
      "postcode": "4540-166",
      "city": "AROUCA",
      "lon": "-8.250638229730363",
      "lat": "40.935727562441336"
    },
    {
      "id": "pt.ine.add.PTCONT.151370",
      "street": "R CAMÕES",
      "house": "",
      "postcode": "4540-164",
      "city": "AROUCA",
      "lon": "-8.251741826612774",
      "lat": "40.93533922875896"
    },
    {
      "id": "pt.ine.add.PTCONT.151935",
      "street": "R CAMÕES",
      "house": "",
      "postcode": "4540-164",
      "city": "AROUCA",
      "lon": "-8.251741826612774",
      "lat": "40.93533922875896"
    },
    {
      "id": "pt.ine.add.PTCONT.151937",
      "street": "R CAMÕES",
      "house": "",
      "postcode": "4540-164",
      "city": "AROUCA",
      "lon": "-8.251741826612774",
      "lat": "40.93533922875896"
    },
    {
      "id": "pt.ine.add.PTCONT.158663",
      "street": "R CAMÕES",
      "house": "",
      "postcode": "4540-164",
      "city": "AROUCA",
      "lon": "-8.252027255021462",
      "lat": "40.935591067310874"
    },
    {
      "id": "pt.ine.add.PTCONT.158664",
      "street": "R CAMÕES",
      "house": "",
      "postcode": "4540-164",
      "city": "AROUCA",
      "lon": "-8.252027255021462",
      "lat": "40.935591067310874"
    },
    {
      "id": "pt.ine.add.PTCONT.158665",
      "street": "R CAMÕES",
      "house": "",
      "postcode": "4540-164",
      "city": "AROUCA",
      "lon": "-8.252027255021462",
      "lat": "40.935591067310874"
    },
    {
      "id": "pt.ine.add.PTCONT.158666",
      "street": "R CAMÕES",
      "house": "",
      "postcode": "4540-164",
      "city": "AROUCA",
      "lon": "-8.252027255021462",
      "lat": "40.935591067310874"
    },
    {
      "id": "pt.ine.add.PTCONT.217101",
      "street": "R PEDRO ÁLVARES CABRAL",
      "house": "",
      "postcode": "4540-163",
      "city": "AROUCA",
      "lon": "-8.250815877442644",
      "lat": "40.93546624395065"
    },
    {
      "id": "pt.ine.add.PTCONT.224511",
      "street": "",
      "house": "",
      "postcode": "4540-182",
      "city": "AROUCA",
      "lon": "-8.249346859042003",
      "lat": "40.93738574223303"
    },
    {
      "id": "pt.ine.add.PTCONT.225147",
      "street": "",
      "house": "",
      "postcode": "4540-182",
      "city": "AROUCA",
      "lon": "-8.249560202525446",
      "lat": "40.93716040868704"
    },
    {
      "id": "pt.ine.add.PTCONT.276890",
      "street": "R CAMOES",
      "house": "",
      "postcode": "4540-164",
      "city": "AROUCA",
      "lon": "-8.251599048864554",
      "lat": "40.9351772903404"
    },
    {
      "id": "pt.ine.add.PTCONT.276891",
      "street": "R CAMOES",
      "house": "1764",
      "postcode": "4540-164",
      "city": "AROUCA",
      "lon": "-8.251599048864554",
      "lat": "40.9351772903404"
    },
    {
      "id": "pt.ine.add.PTCONT.276892",
      "street": "R CAMOES",
      "house": "",
      "postcode": "4540-164",
      "city": "AROUCA",
      "lon": "-8.251599048864554",
      "lat": "40.9351772903404"
    },
    {
      "id": "pt.ine.add.PTCONT.276893",
      "street": "CANCELO",
      "house": "6",
      "postcode": "4540-164",
      "city": "AROUCA",
      "lon": "-8.251599048864554",
      "lat": "40.9351772903404"
    },
    {
      "id": "pt.ine.add.PTCONT.281853",
      "street": "R CAMÕES",
      "house": "",
      "postcode": "4540-164",
      "city": "AROUCA",
      "lon": "-8.251408551113112",
      "lat": "40.93488933441665"
    },
    {
      "id": "pt.ine.add.PTCONT.281854",
      "street": "R CAMÕES",
      "house": "",
      "postcode": "4540-164",
      "city": "AROUCA",
      "lon": "-8.251408551113112",
      "lat": "40.93488933441665"
    },
    {
      "id": "pt.ine.add.PTCONT.281855",
      "street": "R CAMÕES",
      "house": "",
      "postcode": "4540-164",
      "city": "AROUCA",
      "lon": "-8.251408551113112",
      "lat": "40.93488933441665"
    },
    {
      "id": "pt.ine.add.PTCONT.281856",
      "street": "R CAMÕES",
      "house": "",
      "postcode": "4540-164",
      "city": "AROUCA",
      "lon": "-8.251408551113112",
      "lat": "40.93488933441665"
    },
    {
      "id": "pt.ine.add.PTCONT.287131",
      "street": "R PEDRO ÁLVARES CABRAL",
      "house": "",
      "postcode": "4540-163",
      "city": "AROUCA",
      "lon": "-8.250946043805428",
      "lat": "40.93521397844108"
    }
  ]
}