{
  "data": {
    "distrito": "Leiria",
    "concelho": "Pombal",
    "freguesia": "Vila Cã",
    "OBJECTID": 2919,
    "BGRI2021": "10151400127",
    "DT21": "10",
    "DTMN21": "1015",
    "DTMNFR21": "101514",
    "DTMNFRSEC21": "101514001",
    "SECNUM21": "001",
    "SSNUM21": "27",
    "SECSSNUM21": "00127",
    "OBJECTID_1": 97455,
    "DT": "10",
    "CC": "15",
    "fr": "14",
    "SEC": "001",
    "SS": "27"
  },
  "addresses": [
    {
      "id": "pt.ine.add.PTCONT.1997204",
      "street": "R PRINCIPAL",
      "house": "",
      "postcode": "3100-807",
      "city": "VILA CÃ",
      "lon": "-8.562962660447557",
      "lat": "39.8859065523033"
    },
    {
      "id": "pt.ine.add.PTCONT.1998053",
      "street": "R PRINCIPAL",
      "house": "53",
      "postcode": "3100-807",
      "city": "VILA CÃ",
      "lon": "-8.561794545871091",
      "lat": "39.88606398342809"
    },
    {
      "id": "pt.ine.add.PTCONT.2029390",
      "street": "R ROSEIRA",
      "house": "22",
      "postcode": "3100-807",
      "city": "VILA CÃ",
      "lon": "-8.564116089991284",
      "lat": "39.88527182841724"
    },
    {
      "id": "pt.ine.add.PTCONT.2093722",
      "street": "R LOUÇÃO",
      "house": "",
      "postcode": "3100-807",
      "city": "VILA CÃ",
      "lon": "-8.562618741381105",
      "lat": "39.885124275583124"
    },
    {
      "id": "pt.ine.add.PTCONT.2185268",
      "street": "R CASAL DA ROSEIRA",
      "house": "24",
      "postcode": "3100-807",
      "city": "VILA CÃ",
      "lon": "-8.564000537388539",
      "lat": "39.88548840974251"
    },
    {
      "id": "pt.ine.add.PTCONT.2201008",
      "street": "R PRINCIPAL",
      "house": "59",
      "postcode": "3100-807",
      "city": "VILA CÃ",
      "lon": "-8.563324564891614",
      "lat": "39.88582415343395"
    },
    {
      "id": "pt.ine.add.PTCONT.2243561",
      "street": "R CASAL DA ROSEIRA",
      "house": "63",
      "postcode": "3100-807",
      "city": "VILA CÃ",
      "lon": "-8.563791627965317",
      "lat": "39.8857323566519"
    },
    {
      "id": "pt.ine.add.PTCONT.2250428",
      "street": "R LOU FAO",
      "house": "9",
      "postcode": "3100-807",
      "city": "VILA CÃ",
      "lon": "-8.5622315496069",
      "lat": "39.884900550508796"
    }
  ]
}