{
  "data": {
    "distrito": "Faro",
    "concelho": "Silves",
    "freguesia": "União das freguesias de Alcantarilha e Pêra",
    "OBJECTID": 489,
    "BGRI2021": "08130900206",
    "DT21": "08",
    "DTMN21": "0813",
    "DTMNFR21": "081309",
    "DTMNFRSEC21": "081309002",
    "SECNUM21": "002",
    "SSNUM21": "06",
    "SECSSNUM21": "00206",
    "OBJECTID_1": 72527,
    "DT": "08",
    "CC": "13",
    "fr": "09",
    "SEC": "002",
    "SS": "06"
  },
  "addresses": [
    {
      "id": "pt.ine.add.PTCONT.1494477",
      "street": "URB BARROCAL",
      "house": "A3",
      "postcode": "8365-204",
      "city": "PÊRA",
      "lon": "-8.341467739177242",
      "lat": "37.116896117812026"
    },
    {
      "id": "pt.ine.add.PTCONT.1497431",
      "street": "URB BARROCAL I",
      "house": "B34",
      "postcode": "8365-204",
      "city": "PÊRA",
      "lon": "-8.33963281370757",
      "lat": "37.11656593495532"
    },
    {
      "id": "pt.ine.add.PTCONT.1520751",
      "street": "URB BARROCAL",
      "house": "A5",
      "postcode": "8365-204",
      "city": "PÊRA",
      "lon": "-8.341275572971586",
      "lat": "37.11657207268772"
    },
    {
      "id": "pt.ine.add.PTCONT.1527306",
      "street": "URB BARROCAL",
      "house": "A12",
      "postcode": "8365-204",
      "city": "PÊRA",
      "lon": "-8.339744815559303",
      "lat": "37.116376516564856"
    },
    {
      "id": "pt.ine.add.PTCONT.1543884",
      "street": "URB BARROCAL",
      "house": "9",
      "postcode": "8365-204",
      "city": "PÊRA",
      "lon": "-8.34043071966555",
      "lat": "37.11621312780777"
    },
    {
      "id": "pt.ine.add.PTCONT.1559699",
      "street": "URB BARROCAL",
      "house": "A7",
      "postcode": "8365-204",
      "city": "PÊRA",
      "lon": "-8.34093726127371",
      "lat": "37.116293336653044"
    },
    {
      "id": "pt.ine.add.PTCONT.1559700",
      "street": "URB BARROCAL I",
      "house": "B38",
      "postcode": "8365-204",
      "city": "PÊRA",
      "lon": "-8.339408441625125",
      "lat": "37.11680961259387"
    },
    {
      "id": "pt.ine.add.PTCONT.1579247",
      "street": "URB BARROCAL",
      "house": "111",
      "postcode": "8365-204",
      "city": "PÊRA",
      "lon": "-8.33996972458041",
      "lat": "37.116331071217935"
    },
    {
      "id": "pt.ine.add.PTCONT.1599126",
      "street": "URB BARROCAL I",
      "house": "B37",
      "postcode": "8365-204",
      "city": "PÊRA",
      "lon": "-8.339464528666934",
      "lat": "37.116746440577664"
    },
    {
      "id": "pt.ine.add.PTCONT.1610484",
      "street": "URB BARROCAL I",
      "house": "B31",
      "postcode": "8365-204",
      "city": "PÊRA",
      "lon": "-8.339328971422706",
      "lat": "37.116548442566895"
    },
    {
      "id": "pt.ine.add.PTCONT.1619110",
      "street": "URB BARROCAL B",
      "house": "B 26",
      "postcode": "8365-211",
      "city": "PÊRA",
      "lon": "-8.338868192026007",
      "lat": "37.11674747699023"
    },
    {
      "id": "pt.ine.add.PTCONT.1671635",
      "street": "URB BARROCAL I",
      "house": "",
      "postcode": "8365-204",
      "city": "PÊRA",
      "lon": "-8.339261828236447",
      "lat": "37.11668371878862"
    },
    {
      "id": "pt.ine.add.PTCONT.1677001",
      "street": "URB BARROCAL CASA MARY",
      "house": "B29",
      "postcode": "8365-211",
      "city": "PÊRA",
      "lon": "-8.338934750588008",
      "lat": "37.11639594687134"
    },
    {
      "id": "pt.ine.add.PTCONT.1696891",
      "street": "URB BARROCAL I",
      "house": "",
      "postcode": "8365-204",
      "city": "PÊRA",
      "lon": "-8.339520640076122",
      "lat": "37.116692279122205"
    },
    {
      "id": "pt.ine.add.PTCONT.1702813",
      "street": "URB BARROCAL I",
      "house": "",
      "postcode": "8365-204",
      "city": "PÊRA",
      "lon": "-8.339576726938382",
      "lat": "37.116629107052226"
    },
    {
      "id": "pt.ine.add.PTCONT.1711470",
      "street": "URB BARROCAL LRBANIZACAO DO BARROCAL",
      "house": "A10",
      "postcode": "8365-204",
      "city": "PÊRA",
      "lon": "-8.34019465787073",
      "lat": "37.11629463603275"
    },
    {
      "id": "pt.ine.add.PTCONT.1728472",
      "street": "URB BARROCAL UMBANIZACAO DO BARROCAL",
      "house": "A13",
      "postcode": "8365-204",
      "city": "PÊRA",
      "lon": "-8.339485686843798",
      "lat": "37.11625081906923"
    },
    {
      "id": "pt.ine.add.PTCONT.1731431",
      "street": "URB BARROCAL I",
      "house": "",
      "postcode": "8365-204",
      "city": "PÊRA",
      "lon": "-8.339295412076167",
      "lat": "37.11662058597676"
    },
    {
      "id": "pt.ine.add.PTCONT.1746267",
      "street": "URB BARROCAL",
      "house": "B23",
      "postcode": "8365-211",
      "city": "PÊRA",
      "lon": "-8.338790234923572",
      "lat": "37.11704496304758"
    },
    {
      "id": "pt.ine.add.PTCONT.1752513",
      "street": "URB BARROCAL",
      "house": "114",
      "postcode": "8365-204",
      "city": "PÊRA",
      "lon": "-8.33901290166948",
      "lat": "37.116170545400614"
    },
    {
      "id": "pt.ine.add.PTCONT.1773773",
      "street": "URB BARROCAL",
      "house": "825",
      "postcode": "8365-211",
      "city": "PÊRA",
      "lon": "-8.33882350239881",
      "lat": "37.11686469273105"
    },
    {
      "id": "pt.ine.add.PTCONT.1794466",
      "street": "URB BARROCAL",
      "house": "BZ8",
      "postcode": "8365-211",
      "city": "PÊRA",
      "lon": "-8.338912564468218",
      "lat": "37.11651312358389"
    },
    {
      "id": "pt.ine.add.PTCONT.1800370",
      "street": "URB BARROCAL B",
      "house": "B 27",
      "postcode": "8365-211",
      "city": "PÊRA",
      "lon": "-8.338924011185423",
      "lat": "37.116585188758506"
    },
    {
      "id": "pt.ine.add.PTCONT.1800371",
      "street": "URB BARROCAL",
      "house": "B24",
      "postcode": "8365-211",
      "city": "PÊRA",
      "lon": "-8.338812470136771",
      "lat": "37.11694580754281"
    },
    {
      "id": "pt.ine.add.PTCONT.1837858",
      "street": "URB BARROCAL I",
      "house": "B30",
      "postcode": "8365-204",
      "city": "PÊRA",
      "lon": "-8.339407537083934",
      "lat": "37.11647622084448"
    }
  ]
}