{
  "data": {
    "distrito": "Faro",
    "concelho": "Silves",
    "freguesia": "União das freguesias de Alcantarilha e Pêra",
    "OBJECTID": 168,
    "BGRI2021": "08130900207",
    "DT21": "08",
    "DTMN21": "0813",
    "DTMNFR21": "081309",
    "DTMNFRSEC21": "081309002",
    "SECNUM21": "002",
    "SSNUM21": "07",
    "SECSSNUM21": "00207",
    "OBJECTID_1": 72238,
    "DT": "08",
    "CC": "13",
    "fr": "09",
    "SEC": "002",
    "SS": "07"
  },
  "addresses": [
    {
      "id": "pt.ine.add.PTCONT.1485756",
      "street": "URB VISTA DO PRADO",
      "house": "7",
      "postcode": "8365-211",
      "city": "PÊRA",
      "lon": "-8.337626173944088",
      "lat": "37.115136722871675"
    },
    {
      "id": "pt.ine.add.PTCONT.1494473",
      "street": "URB BARROCAL IV",
      "house": "10",
      "postcode": "8365-204",
      "city": "PÊRA",
      "lon": "-8.337642636313914",
      "lat": "37.11707398023557"
    },
    {
      "id": "pt.ine.add.PTCONT.1552586",
      "street": "URB BARROCAL II VILA MAGOS",
      "house": "11",
      "postcode": "8365-204",
      "city": "PÊRA",
      "lon": "-8.337507373880872",
      "lat": "37.1169841072016"
    },
    {
      "id": "pt.ine.add.PTCONT.1552587",
      "street": "URB BARROCAL II WING DING DING",
      "house": "9",
      "postcode": "8365-204",
      "city": "PÊRA",
      "lon": "-8.337845409250729",
      "lat": "37.11716373655343"
    },
    {
      "id": "pt.ine.add.PTCONT.1558299",
      "street": "URB BARROCAL II",
      "house": "29",
      "postcode": "8365-204",
      "city": "PÊRA",
      "lon": "-8.33849883523377",
      "lat": "37.11746896779871"
    },
    {
      "id": "pt.ine.add.PTCONT.1558300",
      "street": "URB BARROCAL II",
      "house": "29",
      "postcode": "8365-204",
      "city": "PÊRA",
      "lon": "-8.33849883523377",
      "lat": "37.11746896779871"
    },
    {
      "id": "pt.ine.add.PTCONT.1564383",
      "street": "URB BARROCAL IV",
      "house": "8",
      "postcode": "8365-204",
      "city": "PÊRA",
      "lon": "-8.338081524860327",
      "lat": "37.11710025417781"
    },
    {
      "id": "pt.ine.add.PTCONT.1564824",
      "street": "URB BARROCAL II",
      "house": "23",
      "postcode": "8365-204",
      "city": "PÊRA",
      "lon": "-8.338116057345873",
      "lat": "37.11738853462087"
    },
    {
      "id": "pt.ine.add.PTCONT.1574915",
      "street": "URB BARROCAL II",
      "house": "7",
      "postcode": "8365-204",
      "city": "PÊRA",
      "lon": "-8.338137248769044",
      "lat": "37.11690192396777"
    },
    {
      "id": "pt.ine.add.PTCONT.1580251",
      "street": "URB BARROCAL II",
      "house": "29",
      "postcode": "8365-204",
      "city": "PÊRA",
      "lon": "-8.33840877263829",
      "lat": "37.11745110252568"
    },
    {
      "id": "pt.ine.add.PTCONT.1580252",
      "street": "URB BARROCAL II",
      "house": "29",
      "postcode": "8365-204",
      "city": "PÊRA",
      "lon": "-8.33840877263829",
      "lat": "37.11745110252568"
    },
    {
      "id": "pt.ine.add.PTCONT.1596220",
      "street": "URB BARROCAL IV",
      "house": "4",
      "postcode": "8365-204",
      "city": "PÊRA",
      "lon": "-8.33752883556649",
      "lat": "37.11659661309193"
    },
    {
      "id": "pt.ine.add.PTCONT.1601612",
      "street": "URB BARROCAL II VILLA DO PEDRO",
      "house": "",
      "postcode": "8365-204",
      "city": "PÊRA",
      "lon": "-8.338418953837643",
      "lat": "37.1170546171939"
    },
    {
      "id": "pt.ine.add.PTCONT.1639354",
      "street": "URB BARROCAL II",
      "house": "3",
      "postcode": "8365-204",
      "city": "PÊRA",
      "lon": "-8.33733734031844",
      "lat": "37.1165158474268"
    },
    {
      "id": "pt.ine.add.PTCONT.1646942",
      "street": "URB VISTA DO PRADO",
      "house": "5",
      "postcode": "8365-211",
      "city": "PÊRA",
      "lon": "-8.336817014705643",
      "lat": "37.115489530546576"
    },
    {
      "id": "pt.ine.add.PTCONT.1688487",
      "street": "URB BARROCAL II",
      "house": "5",
      "postcode": "8365-204",
      "city": "PÊRA",
      "lon": "-8.337675373201927",
      "lat": "37.11669547728511"
    },
    {
      "id": "pt.ine.add.PTCONT.1694184",
      "street": "URB BARROCAL II",
      "house": "22",
      "postcode": "8365-204",
      "city": "PÊRA",
      "lon": "-8.33802606778616",
      "lat": "37.117397700818685"
    },
    {
      "id": "pt.ine.add.PTCONT.1702814",
      "street": "URB VISTA DO PRADO",
      "house": "3",
      "postcode": "8365-211",
      "city": "PÊRA",
      "lon": "-8.336243383293578",
      "lat": "37.11556259979212"
    },
    {
      "id": "pt.ine.add.PTCONT.1714229",
      "street": "URB BARROCAL II VILA NOVA",
      "house": "24",
      "postcode": "8365-204",
      "city": "PÊRA",
      "lon": "-8.338206071188852",
      "lat": "37.11738837894217"
    },
    {
      "id": "pt.ine.add.PTCONT.1722766",
      "street": "URB VISTA DO PRADO",
      "house": "6",
      "postcode": "8365-211",
      "city": "PÊRA",
      "lon": "-8.337142992451655",
      "lat": "37.115371831803394"
    },
    {
      "id": "pt.ine.add.PTCONT.1725655",
      "street": "URB BARROCAL II CASA NONA",
      "house": "6",
      "postcode": "8365-204",
      "city": "PÊRA",
      "lon": "-8.33786691778887",
      "lat": "37.11679426357634"
    },
    {
      "id": "pt.ine.add.PTCONT.1731430",
      "street": "URB BARROCAL II",
      "house": "20",
      "postcode": "8365-204",
      "city": "PÊRA",
      "lon": "-8.337846112863343",
      "lat": "37.1174250435971"
    },
    {
      "id": "pt.ine.add.PTCONT.1732415",
      "street": "URB VISTA DO PRADO",
      "house": "1",
      "postcode": "8365-211",
      "city": "PÊRA",
      "lon": "-8.336411167489215",
      "lat": "37.115192876267436"
    },
    {
      "id": "pt.ine.add.PTCONT.1766208",
      "street": "URB VISTA DO PRADO",
      "house": "4",
      "postcode": "8365-211",
      "city": "PÊRA",
      "lon": "-8.3365358489727",
      "lat": "37.11553506645484"
    },
    {
      "id": "pt.ine.add.PTCONT.1770760",
      "street": "URB BARROCAL II VILA MOSA",
      "house": "12",
      "postcode": "8365-204",
      "city": "PÊRA",
      "lon": "-8.337338235783948",
      "lat": "37.11684923921719"
    },
    {
      "id": "pt.ine.add.PTCONT.1779936",
      "street": "URB BARROCAL II LILYMOONA",
      "house": "19",
      "postcode": "8365-204",
      "city": "PÊRA",
      "lon": "-8.337090771973816",
      "lat": "37.116876697118414"
    },
    {
      "id": "pt.ine.add.PTCONT.1796884",
      "street": "URB BARROCAL II VILLA DO PEDRO",
      "house": "",
      "postcode": "8365-204",
      "city": "PÊRA",
      "lon": "-8.338496109216015",
      "lat": "37.11645978195981"
    },
    {
      "id": "pt.ine.add.PTCONT.1812029",
      "street": "URB BARROCAL IV",
      "house": "",
      "postcode": "8365-204",
      "city": "PÊRA",
      "lon": "-8.336740884752198",
      "lat": "37.11647182018708"
    },
    {
      "id": "pt.ine.add.PTCONT.1814775",
      "street": "URB BARROCAL IV",
      "house": "",
      "postcode": "8365-204",
      "city": "PÊRA",
      "lon": "-8.338784945975537",
      "lat": "37.115089665223785"
    },
    {
      "id": "pt.ine.add.PTCONT.1821007",
      "street": "URB BARROCAL II",
      "house": "29",
      "postcode": "8365-204",
      "city": "PÊRA",
      "lon": "-8.338600198320055",
      "lat": "37.1175048346761"
    },
    {
      "id": "pt.ine.add.PTCONT.1821008",
      "street": "URB BARROCAL II",
      "house": "29",
      "postcode": "8365-204",
      "city": "PÊRA",
      "lon": "-8.338600198320055",
      "lat": "37.1175048346761"
    },
    {
      "id": "pt.ine.add.PTCONT.1837856",
      "street": "URB BARROCAL II",
      "house": "21",
      "postcode": "8365-204",
      "city": "PÊRA",
      "lon": "-8.337936078204432",
      "lat": "37.11740686694826"
    },
    {
      "id": "pt.ine.add.PTCONT.1838962",
      "street": "URB VISTA DO PRADO",
      "house": "2",
      "postcode": "8365-211",
      "city": "PÊRA",
      "lon": "-8.336051411045629",
      "lat": "37.115301620192405"
    }
  ]
}