{
  "data": {
    "distrito": "Faro",
    "concelho": "Silves",
    "freguesia": "União das freguesias de Alcantarilha e Pêra",
    "OBJECTID": 218,
    "BGRI2021": "08130900216",
    "DT21": "08",
    "DTMN21": "0813",
    "DTMNFR21": "081309",
    "DTMNFRSEC21": "081309002",
    "SECNUM21": "002",
    "SSNUM21": "16",
    "SECSSNUM21": "00216",
    "OBJECTID_1": 72529,
    "DT": "08",
    "CC": "13",
    "fr": "09",
    "SEC": "002",
    "SS": "16"
  },
  "addresses": [
    {
      "id": "pt.ine.add.PTCONT.1471170",
      "street": "URB AREAIS",
      "house": "61",
      "postcode": "8365-204",
      "city": "PÊRA",
      "lon": "-8.337286937791289",
      "lat": "37.11869650650772"
    },
    {
      "id": "pt.ine.add.PTCONT.1477264",
      "street": "URB AREAIS",
      "house": "26",
      "postcode": "8365-204",
      "city": "PÊRA",
      "lon": "-8.33728773631496",
      "lat": "37.118993855834624"
    },
    {
      "id": "pt.ine.add.PTCONT.1494469",
      "street": "URB BARROCAL II CASA MIA",
      "house": "18",
      "postcode": "8365-204",
      "city": "PÊRA",
      "lon": "-8.337294850378022",
      "lat": "37.11745302614685"
    },
    {
      "id": "pt.ine.add.PTCONT.1527303",
      "street": "URB AREAIS",
      "house": "29",
      "postcode": "8365-204",
      "city": "PÊRA",
      "lon": "-8.337501257261165",
      "lat": "37.118894371026855"
    },
    {
      "id": "pt.ine.add.PTCONT.1527304",
      "street": "URB AREAIS",
      "house": "62",
      "postcode": "8365-204",
      "city": "PÊRA",
      "lon": "-8.337354642982875",
      "lat": "37.11876847491011"
    },
    {
      "id": "pt.ine.add.PTCONT.1607378",
      "street": "URB BARROCAL II",
      "house": "17",
      "postcode": "8365-204",
      "city": "PÊRA",
      "lon": "-8.33720498157372",
      "lat": "37.11750724466069"
    },
    {
      "id": "pt.ine.add.PTCONT.1645427",
      "street": "URB AREAIS CASA FELIZ",
      "house": "53",
      "postcode": "8365-204",
      "city": "PÊRA",
      "lon": "-8.336846060396223",
      "lat": "37.11793136154545"
    },
    {
      "id": "pt.ine.add.PTCONT.1657361",
      "street": "URB AREAIS",
      "house": "25",
      "postcode": "8365-204",
      "city": "PÊRA",
      "lon": "-8.337209069288956",
      "lat": "37.119030033793955"
    },
    {
      "id": "pt.ine.add.PTCONT.1665654",
      "street": "URB AREAIS CASA LATALINA",
      "house": "54",
      "postcode": "8365-204",
      "city": "PÊRA",
      "lon": "-8.336946964352842",
      "lat": "37.11779602867442"
    },
    {
      "id": "pt.ine.add.PTCONT.1677000",
      "street": "URB AREAIS",
      "house": "30",
      "postcode": "8365-204",
      "city": "PÊRA",
      "lon": "-8.33756869628992",
      "lat": "37.118867222863926"
    },
    {
      "id": "pt.ine.add.PTCONT.1725639",
      "street": "URB AREAIS",
      "house": "55",
      "postcode": "8365-204",
      "city": "PÊRA",
      "lon": "-8.337036809515384",
      "lat": "37.1177327997697"
    },
    {
      "id": "pt.ine.add.PTCONT.1731902",
      "street": "URB AREAIS",
      "house": "60",
      "postcode": "8365-204",
      "city": "PÊRA",
      "lon": "-8.337174055783747",
      "lat": "37.11856154143809"
    },
    {
      "id": "pt.ine.add.PTCONT.1743363",
      "street": "URB AREAIS",
      "house": "59",
      "postcode": "8365-204",
      "city": "PÊRA",
      "lon": "-8.337117627019131",
      "lat": "37.11849856415453"
    },
    {
      "id": "pt.ine.add.PTCONT.1746256",
      "street": "URB AREAIS",
      "house": "66",
      "postcode": "8365-204",
      "city": "PÊRA",
      "lon": "-8.33675773530379",
      "lat": "37.11856225727464"
    },
    {
      "id": "pt.ine.add.PTCONT.1755943",
      "street": "URB AREAIS",
      "house": "28",
      "postcode": "8365-204",
      "city": "PÊRA",
      "lon": "-8.337422590440147",
      "lat": "37.118930549127846"
    },
    {
      "id": "pt.ine.add.PTCONT.1779899",
      "street": "URB AREAIS",
      "house": "L 65",
      "postcode": "8365-204",
      "city": "PÊRA",
      "lon": "-8.336971811418946",
      "lat": "37.1186700168998"
    },
    {
      "id": "pt.ine.add.PTCONT.1800369",
      "street": "URB AREAIS",
      "house": "58",
      "postcode": "8365-204",
      "city": "PÊRA",
      "lon": "-8.336948582857842",
      "lat": "37.11839973800294"
    },
    {
      "id": "pt.ine.add.PTCONT.1812004",
      "street": "URB AREAIS",
      "house": "27",
      "postcode": "8365-204",
      "city": "PÊRA",
      "lon": "-8.33735515130277",
      "lat": "37.118957697207705"
    },
    {
      "id": "pt.ine.add.PTCONT.1829131",
      "street": "URB AREAIS CASA GRISWOLOS",
      "house": "57",
      "postcode": "8365-204",
      "city": "PÊRA",
      "lon": "-8.336847219348991",
      "lat": "37.11836386972019"
    },
    {
      "id": "pt.ine.add.PTCONT.1834861",
      "street": "URB AREAIS CASA MISTIQUE",
      "house": "52",
      "postcode": "8365-204",
      "city": "PÊRA",
      "lon": "-8.336756287242567",
      "lat": "37.118021622066394"
    }
  ]
}