{
  "data": {
    "distrito": "Viana do Castelo",
    "concelho": "Caminha",
    "freguesia": "Uni√£o das freguesias de Venade e Azevedo",
    "OBJECTID": 148,
    "BGRI2021": "16022500126",
    "DT21": "16",
    "DTMN21": "1602",
    "DTMNFR21": "160225",
    "DTMNFRSEC21": "160225001",
    "SECNUM21": "001",
    "SSNUM21": "26",
    "SECSSNUM21": "00126",
    "OBJECTID_1": 172678,
    "DT": "16",
    "CC": "02",
    "fr": "25",
    "SEC": "001",
    "SS": "26"
  },
  "addresses": [
    {
      "id": "pt.ine.add.PTCONT.5135807",
      "street": "R LAGUNA",
      "house": "119",
      "postcode": "4910-351",
      "city": "VENADE",
      "lon": "-8.807123459763778",
      "lat": "41.85661295031466"
    },
    {
      "id": "pt.ine.add.PTCONT.5140487",
      "street": "TV VALCOVA",
      "house": "",
      "postcode": "4910-356",
      "city": "VENADE",
      "lon": "-8.809637869905027",
      "lat": "41.85522967688434"
    },
    {
      "id": "pt.ine.add.PTCONT.5146193",
      "street": "R ALDEIA NOVA",
      "house": "",
      "postcode": "4910-351",
      "city": "VENADE",
      "lon": "-8.808117440918272",
      "lat": "41.857228334901805"
    },
    {
      "id": "pt.ine.add.PTCONT.5159877",
      "street": "TV PEREIRINHA",
      "house": "",
      "postcode": "4910-351",
      "city": "VENADE",
      "lon": "-8.805854360443071",
      "lat": "41.85732264243406"
    },
    {
      "id": "pt.ine.add.PTCONT.5186137",
      "street": "TV VALCOVA",
      "house": "57",
      "postcode": "4910-356",
      "city": "VENADE",
      "lon": "-8.809017289126627",
      "lat": "41.855764520878374"
    },
    {
      "id": "pt.ine.add.PTCONT.5200205",
      "street": "R LAGUNA",
      "house": "239",
      "postcode": "4910-351",
      "city": "VENADE",
      "lon": "-8.80676550468071",
      "lat": "41.85693016320635"
    },
    {
      "id": "pt.ine.add.PTCONT.5207639",
      "street": "R ALDEIA NOVA",
      "house": "833",
      "postcode": "4910-351",
      "city": "VENADE",
      "lon": "-8.808332495438489",
      "lat": "41.85706501279393"
    },
    {
      "id": "pt.ine.add.PTCONT.5213828",
      "street": "R ALDEIA NOVA",
      "house": "671",
      "postcode": "4910-351",
      "city": "VENADE",
      "lon": "-8.807750473036323",
      "lat": "41.857833706819804"
    },
    {
      "id": "pt.ine.add.PTCONT.5223311",
      "street": "R ESCUSA",
      "house": "",
      "postcode": "4910-356",
      "city": "VENADE",
      "lon": "-8.809714106014964",
      "lat": "41.85560736313527"
    },
    {
      "id": "pt.ine.add.PTCONT.5226822",
      "street": "R CASTANHEIRINHO",
      "house": "",
      "postcode": "4910-356",
      "city": "VENADE",
      "lon": "-8.807898574855193",
      "lat": "41.853592318981306"
    },
    {
      "id": "pt.ine.add.PTCONT.5231363",
      "street": "R BELA VISTA",
      "house": "647",
      "postcode": "4910-351",
      "city": "VENADE",
      "lon": "-8.807474162448795",
      "lat": "41.85789835210804"
    },
    {
      "id": "pt.ine.add.PTCONT.5233835",
      "street": "TV VALCOVA",
      "house": "58",
      "postcode": "4910-356",
      "city": "VENADE",
      "lon": "-8.80936223632903",
      "lat": "41.855357345296426"
    },
    {
      "id": "pt.ine.add.PTCONT.5241003",
      "street": "R LAGUNA",
      "house": "",
      "postcode": "4910-351",
      "city": "VENADE",
      "lon": "-8.8073300659909",
      "lat": "41.85679180204968"
    },
    {
      "id": "pt.ine.add.PTCONT.5242097",
      "street": "R VALCOVA",
      "house": "",
      "postcode": "4910-356",
      "city": "VENADE",
      "lon": "-8.808815230257276",
      "lat": "41.856017800057344"
    },
    {
      "id": "pt.ine.add.PTCONT.5246577",
      "street": "R PINHEIRO MANSO",
      "house": "",
      "postcode": "4910-351",
      "city": "VENADE",
      "lon": "-8.806421014474509",
      "lat": "41.852790700237655"
    },
    {
      "id": "pt.ine.add.PTCONT.5248120",
      "street": "TV VALCOVA",
      "house": "",
      "postcode": "4910-356",
      "city": "VENADE",
      "lon": "-8.808930531552972",
      "lat": "41.85553094764389"
    },
    {
      "id": "pt.ine.add.PTCONT.5249188",
      "street": "TV PEREIRINHA",
      "house": "2",
      "postcode": "4910-351",
      "city": "VENADE",
      "lon": "-8.80621940260055",
      "lat": "41.857680632378276"
    },
    {
      "id": "pt.ine.add.PTCONT.5250312",
      "street": "R BELA VISTA",
      "house": "581",
      "postcode": "4910-351",
      "city": "VENADE",
      "lon": "-8.806581709549693",
      "lat": "41.85777754381318"
    },
    {
      "id": "pt.ine.add.PTCONT.5253827",
      "street": "R ESCUSA",
      "house": "",
      "postcode": "4910-356",
      "city": "VENADE",
      "lon": "-8.809249213594462",
      "lat": "41.85491685280203"
    },
    {
      "id": "pt.ine.add.PTCONT.5254938",
      "street": "R LAGUNA",
      "house": "",
      "postcode": "4910-351",
      "city": "VENADE",
      "lon": "-8.807775055748143",
      "lat": "41.85673516957077"
    },
    {
      "id": "pt.ine.add.PTCONT.5265809",
      "street": "R ESCUSA",
      "house": "331",
      "postcode": "4910-356",
      "city": "VENADE",
      "lon": "-8.809161982319253",
      "lat": "41.85463826637752"
    },
    {
      "id": "pt.ine.add.PTCONT.5268936",
      "street": "R JOSE MARIA MENDES GUERREIRO",
      "house": "",
      "postcode": "4910-356",
      "city": "VENADE",
      "lon": "-8.807525666840899",
      "lat": "41.85363052223806"
    },
    {
      "id": "pt.ine.add.PTCONT.5271187",
      "street": "R VALCOVA",
      "house": "",
      "postcode": "4910-356",
      "city": "VENADE",
      "lon": "-8.807058996035039",
      "lat": "41.85620818364248"
    },
    {
      "id": "pt.ine.add.PTCONT.5272706",
      "street": "R ALDEIA NOVA",
      "house": "",
      "postcode": "4910-351",
      "city": "VENADE",
      "lon": "-8.808002319878492",
      "lat": "41.857733191749425"
    }
  ]
}