{
  "data": {
    "distrito": "Porto",
    "concelho": "Vila Nova de Gaia",
    "freguesia": "União das freguesias de Gulpilhares e Valadares",
    "OBJECTID": 752,
    "BGRI2021": "13172601005",
    "DT21": "13",
    "DTMN21": "1317",
    "DTMNFR21": "131726",
    "DTMNFRSEC21": "131726010",
    "SECNUM21": "010",
    "SSNUM21": "05",
    "SECSSNUM21": "01005",
    "OBJECTID_1": 145572,
    "DT": "13",
    "CC": "17",
    "fr": "26",
    "SEC": "010",
    "SS": "05"
  },
  "addresses": [
    {
      "id": "pt.ine.add.PTCONT.3551239",
      "street": "R MONTE",
      "house": "197",
      "postcode": "4405-812",
      "city": "VILA NOVA DE GAIA",
      "lon": "-8.622854743964437",
      "lat": "41.07857756768967"
    },
    {
      "id": "pt.ine.add.PTCONT.3557976",
      "street": "PCT PARQUE GONDARIM",
      "house": "CASA 1",
      "postcode": "4405-811",
      "city": "VILA NOVA DE GAIA",
      "lon": "-8.62173370876801",
      "lat": "41.07985195659004"
    },
    {
      "id": "pt.ine.add.PTCONT.3564290",
      "street": "R SALVADOR BRANDÃO",
      "house": "387",
      "postcode": "4405-702",
      "city": "VILA NOVA DE GAIA",
      "lon": "-8.62495587419764",
      "lat": "41.07948707387191"
    },
    {
      "id": "pt.ine.add.PTCONT.3578966",
      "street": "R GONDARIM",
      "house": "123",
      "postcode": "4405-811",
      "city": "VILA NOVA DE GAIA",
      "lon": "-8.621812870613578",
      "lat": "41.07929334400366"
    },
    {
      "id": "pt.ine.add.PTCONT.3634800",
      "street": "R GONDARIM",
      "house": "77",
      "postcode": "4405-811",
      "city": "VILA NOVA DE GAIA",
      "lon": "-8.622048658059423",
      "lat": "41.07899519636141"
    },
    {
      "id": "pt.ine.add.PTCONT.3647515",
      "street": "PCT PARQUE DE GONDARIM",
      "house": "35",
      "postcode": "4405-811",
      "city": "VILA NOVA DE GAIA",
      "lon": "-8.621958399615979",
      "lat": "41.07966190980015"
    },
    {
      "id": "pt.ine.add.PTCONT.3705963",
      "street": "R GONDARIM",
      "house": "41",
      "postcode": "4405-811",
      "city": "VILA NOVA DE GAIA",
      "lon": "-8.622320074712245",
      "lat": "41.07868789249727"
    },
    {
      "id": "pt.ine.add.PTCONT.3705964",
      "street": "R MONTE",
      "house": "227",
      "postcode": "4405-812",
      "city": "VILA NOVA DE GAIA",
      "lon": "-8.62254435916901",
      "lat": "41.078443819455686"
    },
    {
      "id": "pt.ine.add.PTCONT.3725742",
      "street": "PCT PARQUE DE GONDARIM",
      "house": "3",
      "postcode": "4405-811",
      "city": "VILA NOVA DE GAIA",
      "lon": "-8.622091496777344",
      "lat": "41.07995849242329"
    },
    {
      "id": "pt.ine.add.PTCONT.3732241",
      "street": "R GONDARIM",
      "house": "31",
      "postcode": "4405-811",
      "city": "VILA NOVA DE GAIA",
      "lon": "-8.622343539605815",
      "lat": "41.07864277053838"
    },
    {
      "id": "pt.ine.add.PTCONT.3738894",
      "street": "R GONDARIM",
      "house": "47",
      "postcode": "4405-811",
      "city": "VILA NOVA DE GAIA",
      "lon": "-8.622213581185848",
      "lat": "41.07876938477393"
    },
    {
      "id": "pt.ine.add.PTCONT.3828988",
      "street": "R GONDARIM",
      "house": "97",
      "postcode": "4405-811",
      "city": "VILA NOVA DE GAIA",
      "lon": "-8.621930931379584",
      "lat": "41.079166780701655"
    },
    {
      "id": "pt.ine.add.PTCONT.3835394",
      "street": "PCT PARQUE DE GONDARIM",
      "house": "35",
      "postcode": "4405-811",
      "city": "VILA NOVA DE GAIA",
      "lon": "-8.62201856455316",
      "lat": "41.07975169919384"
    },
    {
      "id": "pt.ine.add.PTCONT.3848026",
      "street": "R MONTE",
      "house": "137",
      "postcode": "4405-812",
      "city": "VILA NOVA DE GAIA",
      "lon": "-8.622986104697972",
      "lat": "41.07864004057648"
    },
    {
      "id": "pt.ine.add.PTCONT.3873567",
      "street": "R MONTE",
      "house": "207",
      "postcode": "4405-812",
      "city": "VILA NOVA DE GAIA",
      "lon": "-8.622747182140063",
      "lat": "41.07851499352703"
    },
    {
      "id": "pt.ine.add.PTCONT.3918501",
      "street": "R GONDARIM",
      "house": "19",
      "postcode": "4405-811",
      "city": "VILA NOVA DE GAIA",
      "lon": "-8.622354971586002",
      "lat": "41.07857969073068"
    },
    {
      "id": "pt.ine.add.PTCONT.3957505",
      "street": "R GONDARIM",
      "house": "123",
      "postcode": "4405-811",
      "city": "VILA NOVA DE GAIA",
      "lon": "-8.622003862665098",
      "lat": "41.07937357401272"
    },
    {
      "id": "pt.ine.add.PTCONT.3972752",
      "street": "PCT PARQUE DE GONDARIM",
      "house": "35",
      "postcode": "4405-811",
      "city": "VILA NOVA DE GAIA",
      "lon": "-8.621887402620663",
      "lat": "41.079716237771"
    },
    {
      "id": "pt.ine.add.PTCONT.3983134",
      "street": "R GONDARIM",
      "house": "55",
      "postcode": "4405-811",
      "city": "VILA NOVA DE GAIA",
      "lon": "-8.622142718833949",
      "lat": "41.07884172127104"
    },
    {
      "id": "pt.ine.add.PTCONT.3988597",
      "street": "R SALVADOR BRANDAO",
      "house": "99",
      "postcode": "4405-702",
      "city": "VILA NOVA DE GAIA",
      "lon": "-8.625038633623173",
      "lat": "41.079414684866215"
    },
    {
      "id": "pt.ine.add.PTCONT.3988598",
      "street": "R GONDARIM",
      "house": "131",
      "postcode": "4405-811",
      "city": "VILA NOVA DE GAIA",
      "lon": "-8.621741940576973",
      "lat": "41.07935667607009"
    },
    {
      "id": "pt.ine.add.PTCONT.4029088",
      "street": "R GONDARIM",
      "house": "31",
      "postcode": "4405-811",
      "city": "VILA NOVA DE GAIA",
      "lon": "-8.622450900917555",
      "lat": "41.078678332527275"
    },
    {
      "id": "pt.ine.add.PTCONT.4063613",
      "street": "R GONDARIM",
      "house": "19",
      "postcode": "4405-811",
      "city": "VILA NOVA DE GAIA",
      "lon": "-8.622486331856146",
      "lat": "41.07864216418983"
    },
    {
      "id": "pt.ine.add.PTCONT.4107587",
      "street": "R MONTE",
      "house": "117",
      "postcode": "4405-812",
      "city": "VILA NOVA DE GAIA",
      "lon": "-8.623200961875229",
      "lat": "41.078729171616764"
    },
    {
      "id": "pt.ine.add.PTCONT.4127010",
      "street": "R GONDARIM",
      "house": "165",
      "postcode": "4405-811",
      "city": "VILA NOVA DE GAIA",
      "lon": "-8.621541315805507",
      "lat": "41.0795826383016"
    },
    {
      "id": "pt.ine.add.PTCONT.4127011",
      "street": "R GONDARIM",
      "house": "165",
      "postcode": "4405-811",
      "city": "VILA NOVA DE GAIA",
      "lon": "-8.621541315805507",
      "lat": "41.0795826383016"
    },
    {
      "id": "pt.ine.add.PTCONT.4147147",
      "street": "R GONDARIM",
      "house": "141",
      "postcode": "4405-811",
      "city": "VILA NOVA DE GAIA",
      "lon": "-8.621611712929841",
      "lat": "41.07944727289261"
    },
    {
      "id": "pt.ine.add.PTCONT.4153669",
      "street": "R GONDARIM",
      "house": "47",
      "postcode": "4405-811",
      "city": "VILA NOVA DE GAIA",
      "lon": "-8.622297143868039",
      "lat": "41.07880504791891"
    },
    {
      "id": "pt.ine.add.PTCONT.4179556",
      "street": "R GONDARIM",
      "house": "151",
      "postcode": "4405-811",
      "city": "VILA NOVA DE GAIA",
      "lon": "-8.621552548726598",
      "lat": "41.079492546028625"
    },
    {
      "id": "pt.ine.add.PTCONT.4291945",
      "street": "R GONDARIM",
      "house": "163",
      "postcode": "4405-811",
      "city": "VILA NOVA DE GAIA",
      "lon": "-8.621612979631806",
      "lat": "41.07961835237317"
    },
    {
      "id": "pt.ine.add.PTCONT.4318586",
      "street": "R SALVADOR BRANDÃO",
      "house": "99",
      "postcode": "4405-702",
      "city": "VILA NOVA DE GAIA",
      "lon": "-8.626123044496511",
      "lat": "41.08121094299986"
    },
    {
      "id": "pt.ine.add.PTCONT.4343989",
      "street": "R MONTE",
      "house": "217",
      "postcode": "4405-812",
      "city": "VILA NOVA DE GAIA",
      "lon": "-8.622651787070273",
      "lat": "41.07848838544331"
    },
    {
      "id": "pt.ine.add.PTCONT.4370396",
      "street": "PCT PARQUE DE GONDARIM",
      "house": "2",
      "postcode": "4405-811",
      "city": "VILA NOVA DE GAIA",
      "lon": "-8.621912602629386",
      "lat": "41.07990522464662"
    }
  ]
}