{
  "data": {
    "distrito": "Viseu",
    "concelho": "Mangualde",
    "freguesia": "Uni√£o das freguesias de Mangualde, Mesquitela e Cunha Alta",
    "OBJECTID": 586,
    "BGRI2021": "18061900924",
    "DT21": "18",
    "DTMN21": "1806",
    "DTMNFR21": "180619",
    "DTMNFRSEC21": "180619009",
    "SECNUM21": "009",
    "SSNUM21": "24",
    "SECSSNUM21": "00924",
    "OBJECTID_1": 191657,
    "DT": "18",
    "CC": "06",
    "fr": "19",
    "SEC": "009",
    "SS": "24"
  },
  "addresses": [
    {
      "id": "pt.ine.add.PTCONT.5429296",
      "street": "R FLORBELA ESPANCA",
      "house": "121",
      "postcode": "3530-104",
      "city": "MANGUALDE",
      "lon": "-7.731262038797858",
      "lat": "40.60990917907599"
    },
    {
      "id": "pt.ine.add.PTCONT.5436461",
      "street": "R FLORBELA ESPANCA",
      "house": "12",
      "postcode": "3530-104",
      "city": "MANGUALDE",
      "lon": "-7.728684641737362",
      "lat": "40.610152328981556"
    },
    {
      "id": "pt.ine.add.PTCONT.5438764",
      "street": "R FLORBELA ESPANCA",
      "house": "56",
      "postcode": "3530-104",
      "city": "MANGUALDE",
      "lon": "-7.730257737034047",
      "lat": "40.60989667533671"
    },
    {
      "id": "pt.ine.add.PTCONT.5440240",
      "street": "R FLORBELA ESPANCA",
      "house": "10",
      "postcode": "3530-104",
      "city": "MANGUALDE",
      "lon": "-7.7284251788508005",
      "lat": "40.61007037327318"
    },
    {
      "id": "pt.ine.add.PTCONT.5443888",
      "street": "R ECOLOGICA",
      "house": "",
      "postcode": "3530-104",
      "city": "MANGUALDE",
      "lon": "-7.730953636402854",
      "lat": "40.610106220339546"
    },
    {
      "id": "pt.ine.add.PTCONT.5445782",
      "street": "R FLORBELA ESPANCA",
      "house": "",
      "postcode": "3530-104",
      "city": "MANGUALDE",
      "lon": "-7.73034017834248",
      "lat": "40.60994198891427"
    },
    {
      "id": "pt.ine.add.PTCONT.5458588",
      "street": "R FLORBELA ESPANCA",
      "house": "184",
      "postcode": "3530-104",
      "city": "MANGUALDE",
      "lon": "-7.731262686106272",
      "lat": "40.60980111877895"
    },
    {
      "id": "pt.ine.add.PTCONT.5463812",
      "street": "R FLORBELA ESPANCA",
      "house": "",
      "postcode": "3530-104",
      "city": "MANGUALDE",
      "lon": "-7.729961634808017",
      "lat": "40.610012709942055"
    },
    {
      "id": "pt.ine.add.PTCONT.5467344",
      "street": "R FLORBELA ESPANCA",
      "house": "169",
      "postcode": "3530-104",
      "city": "MANGUALDE",
      "lon": "-7.729725640337294",
      "lat": "40.609957854701015"
    },
    {
      "id": "pt.ine.add.PTCONT.5473329",
      "street": "R ECOLOGICA",
      "house": "",
      "postcode": "3530-104",
      "city": "MANGUALDE",
      "lon": "-7.7300667341497356",
      "lat": "40.61022019661055"
    },
    {
      "id": "pt.ine.add.PTCONT.5478406",
      "street": "R FLORBELA ESPANCA",
      "house": "16",
      "postcode": "3530-104",
      "city": "MANGUALDE",
      "lon": "-7.729334629693176",
      "lat": "40.61013659267146"
    },
    {
      "id": "pt.ine.add.PTCONT.5480285",
      "street": "R FLORBELA ESPANCA",
      "house": "52",
      "postcode": "3530-104",
      "city": "MANGUALDE",
      "lon": "-7.730150528030653",
      "lat": "40.610040384746796"
    },
    {
      "id": "pt.ine.add.PTCONT.5483204",
      "street": "R FLORBELA ESPANCA",
      "house": "",
      "postcode": "3530-104",
      "city": "MANGUALDE",
      "lon": "-7.73032911933426",
      "lat": "40.6098158773778"
    },
    {
      "id": "pt.ine.add.PTCONT.5485655",
      "street": "R FLORBELA ESPANCA",
      "house": "14",
      "postcode": "3530-104",
      "city": "MANGUALDE",
      "lon": "-7.728968225532938",
      "lat": "40.61015332160616"
    },
    {
      "id": "pt.ine.add.PTCONT.5491075",
      "street": "R FLORBELA ESPANCA",
      "house": "8",
      "postcode": "3530-104",
      "city": "MANGUALDE",
      "lon": "-7.728485453672367",
      "lat": "40.60987246978694"
    },
    {
      "id": "pt.ine.add.PTCONT.5505771",
      "street": "R FLORBELA ESPANCA",
      "house": "1",
      "postcode": "3530-104",
      "city": "MANGUALDE",
      "lon": "-7.727776007526468",
      "lat": "40.60995102915798"
    },
    {
      "id": "pt.ine.add.PTCONT.5505772",
      "street": "R FLORBELA ESPANCA",
      "house": "19",
      "postcode": "3530-104",
      "city": "MANGUALDE",
      "lon": "-7.7292892630015295",
      "lat": "40.609821251649315"
    },
    {
      "id": "pt.ine.add.PTCONT.5511282",
      "street": "R FLORBELA ESPANCA",
      "house": "165",
      "postcode": "3530-104",
      "city": "MANGUALDE",
      "lon": "-7.730883334415454",
      "lat": "40.61000691820338"
    },
    {
      "id": "pt.ine.add.PTCONT.5522319",
      "street": "R FLORBELA ESPANCA",
      "house": "",
      "postcode": "3530-104",
      "city": "MANGUALDE",
      "lon": "-7.73112040925884",
      "lat": "40.60988167059549"
    },
    {
      "id": "pt.ine.add.PTCONT.5527325",
      "street": "R FLORBELA ESPANCA",
      "house": "",
      "postcode": "3530-104",
      "city": "MANGUALDE",
      "lon": "-7.73025730441485",
      "lat": "40.609968715524865"
    },
    {
      "id": "pt.ine.add.PTCONT.5527978",
      "street": "R FLORBELA ESPANCA",
      "house": "4",
      "postcode": "3530-104",
      "city": "MANGUALDE",
      "lon": "-7.7281067455271195",
      "lat": "40.60997019979253"
    },
    {
      "id": "pt.ine.add.PTCONT.5538848",
      "street": "R FLORBELA ESPANCA",
      "house": "17",
      "postcode": "3530-104",
      "city": "MANGUALDE",
      "lon": "-7.729311648170879",
      "lat": "40.61002844978751"
    },
    {
      "id": "pt.ine.add.PTCONT.5542378",
      "street": "R FLORBELA ESPANCA",
      "house": "",
      "postcode": "3530-104",
      "city": "MANGUALDE",
      "lon": "-7.73113168560582",
      "lat": "40.6099717619643"
    },
    {
      "id": "pt.ine.add.PTCONT.5553046",
      "street": "R SENHORA DO CASTELO",
      "house": "",
      "postcode": "3530-218",
      "city": "MANGUALDE",
      "lon": "-7.729996649812614",
      "lat": "40.610084873850305"
    },
    {
      "id": "pt.ine.add.PTCONT.5557797",
      "street": "R FLORBELA ESPANCA",
      "house": "18",
      "postcode": "3530-104",
      "city": "MANGUALDE",
      "lon": "-7.72926503481893",
      "lat": "40.609920224271114"
    },
    {
      "id": "pt.ine.add.PTCONT.5559269",
      "street": "R FLORBELA ESPANCA",
      "house": "161",
      "postcode": "3530-104",
      "city": "MANGUALDE",
      "lon": "-7.730635793370345",
      "lat": "40.609906998548865"
    },
    {
      "id": "pt.ine.add.PTCONT.5565940",
      "street": "R SENHORA DO CASTELO",
      "house": "6",
      "postcode": "3530-218",
      "city": "MANGUALDE",
      "lon": "-7.727857413614323",
      "lat": "40.61016743989068"
    },
    {
      "id": "pt.ine.add.PTCONT.5582477",
      "street": "R FLORBELA ESPANCA",
      "house": "159",
      "postcode": "3530-104",
      "city": "MANGUALDE",
      "lon": "-7.730518066202095",
      "lat": "40.60983454655666"
    },
    {
      "id": "pt.ine.add.PTCONT.5584302",
      "street": "R FLORBELA ESPANCA",
      "house": "11",
      "postcode": "3530-104",
      "city": "MANGUALDE",
      "lon": "-7.7284363429609275",
      "lat": "40.61017847492731"
    },
    {
      "id": "pt.ine.add.PTCONT.5588345",
      "street": "R FLORBELA ESPANCA",
      "house": "",
      "postcode": "3530-104",
      "city": "MANGUALDE",
      "lon": "-7.731180028528644",
      "lat": "40.60979182595575"
    },
    {
      "id": "pt.ine.add.PTCONT.5589900",
      "street": "R FLORBELA ESPANCA",
      "house": "13",
      "postcode": "3530-104",
      "city": "MANGUALDE",
      "lon": "-7.728838249624881",
      "lat": "40.61015286673964"
    },
    {
      "id": "pt.ine.add.PTCONT.5591735",
      "street": "R ECOLOGICA",
      "house": "5",
      "postcode": "3530-104",
      "city": "MANGUALDE",
      "lon": "-7.730811844568201",
      "lat": "40.6101057265521"
    },
    {
      "id": "pt.ine.add.PTCONT.5603839",
      "street": "R FLORBELA ESPANCA",
      "house": "",
      "postcode": "3530-104",
      "city": "MANGUALDE",
      "lon": "-7.729619459201477",
      "lat": "40.60993046817882"
    },
    {
      "id": "pt.ine.add.PTCONT.5609184",
      "street": "R FLORBELA ESPANCA",
      "house": "72",
      "postcode": "3530-104",
      "city": "MANGUALDE",
      "lon": "-7.730977862166432",
      "lat": "40.61000724735521"
    },
    {
      "id": "pt.ine.add.PTCONT.5630963",
      "street": "R FLORBELA ESPANCA",
      "house": "38",
      "postcode": "3530-104",
      "city": "MANGUALDE",
      "lon": "-7.729596423121489",
      "lat": "40.60983133036876"
    },
    {
      "id": "pt.ine.add.PTCONT.5634713",
      "street": "R FLORBELA ESPANCA",
      "house": "50",
      "postcode": "3530-104",
      "city": "MANGUALDE",
      "lon": "-7.730067924422104",
      "lat": "40.61002208610422"
    },
    {
      "id": "pt.ine.add.PTCONT.5642383",
      "street": "R FLORBELA ESPANCA",
      "house": "9",
      "postcode": "3530-104",
      "city": "MANGUALDE",
      "lon": "-7.728496617849365",
      "lat": "40.60998057143926"
    },
    {
      "id": "pt.ine.add.PTCONT.5650802",
      "street": "R FLORBELA ESPANCA",
      "house": "3",
      "postcode": "3530-104",
      "city": "MANGUALDE",
      "lon": "-7.728012217861787",
      "lat": "40.609969868291195"
    },
    {
      "id": "pt.ine.add.PTCONT.5650989",
      "street": "R SENHORA DO CASTELO",
      "house": "7",
      "postcode": "3530-218",
      "city": "MANGUALDE",
      "lon": "-7.7279278200550205",
      "lat": "40.610248733804454"
    },
    {
      "id": "pt.ine.add.PTCONT.5653717",
      "street": "R FLORBELA ESPANCA",
      "house": "5",
      "postcode": "3530-104",
      "city": "MANGUALDE",
      "lon": "-7.728236721069514",
      "lat": "40.609970655480524"
    },
    {
      "id": "pt.ine.add.PTCONT.5660891",
      "street": "R FLORBELA ESPANCA",
      "house": "2",
      "postcode": "3530-104",
      "city": "MANGUALDE",
      "lon": "-7.7278705351624914",
      "lat": "40.609951360852506"
    },
    {
      "id": "pt.ine.add.PTCONT.5662908",
      "street": "R FLORBELA ESPANCA",
      "house": "58",
      "postcode": "3530-104",
      "city": "MANGUALDE",
      "lon": "-7.730246407794611",
      "lat": "40.60981558891073"
    }
  ]
}