{
  "data": {
    "distrito": "Viseu",
    "concelho": "S찾o Jo찾o da Pesqueira",
    "freguesia": "Uni찾o das freguesias de Trev천es e Espinhosa",
    "OBJECTID": 359,
    "BGRI2021": "18151600136",
    "DT21": "18",
    "DTMN21": "1815",
    "DTMNFR21": "181516",
    "DTMNFRSEC21": "181516001",
    "SECNUM21": "001",
    "SSNUM21": "36",
    "SECSSNUM21": "00136",
    "OBJECTID_1": 196449,
    "DT": "18",
    "CC": "15",
    "fr": "16",
    "SEC": "001",
    "SS": "36"
  },
  "addresses": [
    {
      "id": "pt.ine.add.PTCONT.5428189",
      "street": "R SACO",
      "house": "163",
      "postcode": "5130-203",
      "city": "ESPINHOSA",
      "lon": "-7.4816401361685205",
      "lat": "41.08871710395977"
    },
    {
      "id": "pt.ine.add.PTCONT.5435456",
      "street": "R DIREITA",
      "house": "72",
      "postcode": "5130-203",
      "city": "ESPINHOSA",
      "lon": "-7.481265959966153",
      "lat": "41.0892462482791"
    },
    {
      "id": "pt.ine.add.PTCONT.5483668",
      "street": "R SACO",
      "house": "167",
      "postcode": "5130-203",
      "city": "ESPINHOSA",
      "lon": "-7.481806658955585",
      "lat": "41.088727049781625"
    },
    {
      "id": "pt.ine.add.PTCONT.5484975",
      "street": "R SACO",
      "house": "161",
      "postcode": "5130-203",
      "city": "ESPINHOSA",
      "lon": "-7.481580987771316",
      "lat": "41.088680751852145"
    },
    {
      "id": "pt.ine.add.PTCONT.5506604",
      "street": "R CIMO DAS CASAS",
      "house": "",
      "postcode": "5130-203",
      "city": "ESPINHOSA",
      "lon": "-7.4816885398832635",
      "lat": "41.088636337878526"
    },
    {
      "id": "pt.ine.add.PTCONT.5525290",
      "street": "R CIMO DAS CASAS",
      "house": "174",
      "postcode": "5130-203",
      "city": "ESPINHOSA",
      "lon": "-7.481901776757314",
      "lat": "41.08873659182073"
    },
    {
      "id": "pt.ine.add.PTCONT.5525747",
      "street": "R DIREITA",
      "house": "58",
      "postcode": "5130-203",
      "city": "ESPINHOSA",
      "lon": "-7.4811933973903315",
      "lat": "41.08936289514691"
    },
    {
      "id": "pt.ine.add.PTCONT.5527348",
      "street": "R DIREITA",
      "house": "",
      "postcode": "5130-203",
      "city": "ESPINHOSA",
      "lon": "-7.481481777996008",
      "lat": "41.089085389543484"
    },
    {
      "id": "pt.ine.add.PTCONT.5528391",
      "street": "TV RUA DO CASO",
      "house": "183",
      "postcode": "5130-203",
      "city": "ESPINHOSA",
      "lon": "-7.481900621037258",
      "lat": "41.088853642700144"
    },
    {
      "id": "pt.ine.add.PTCONT.5562791",
      "street": "R SACO",
      "house": "160",
      "postcode": "5130-203",
      "city": "ESPINHOSA",
      "lon": "-7.481605412019603",
      "lat": "41.088617859042806"
    },
    {
      "id": "pt.ine.add.PTCONT.5571489",
      "street": "R OLIVEIRA BICAL",
      "house": "61",
      "postcode": "5130-203",
      "city": "ESPINHOSA",
      "lon": "-7.481382477997507",
      "lat": "41.089499031023806"
    },
    {
      "id": "pt.ine.add.PTCONT.5588461",
      "street": "R DIREITA",
      "house": "78",
      "postcode": "5130-203",
      "city": "ESPINHOSA",
      "lon": "-7.481471656312996",
      "lat": "41.088905243983966"
    },
    {
      "id": "pt.ine.add.PTCONT.5601804",
      "street": "R DIREITA",
      "house": "76",
      "postcode": "5130-203",
      "city": "ESPINHOSA",
      "lon": "-7.481363124885505",
      "lat": "41.08904870078641"
    },
    {
      "id": "pt.ine.add.PTCONT.5613016",
      "street": "R CIMO DAS CASAS",
      "house": "175",
      "postcode": "5130-203",
      "city": "ESPINHOSA",
      "lon": "-7.4818892535963535",
      "lat": "41.08879955195613"
    },
    {
      "id": "pt.ine.add.PTCONT.5636661",
      "street": "R OLIVEIRA BICAL",
      "house": "60",
      "postcode": "5130-203",
      "city": "ESPINHOSA",
      "lon": "-7.481418803712495",
      "lat": "41.08943620558131"
    },
    {
      "id": "pt.ine.add.PTCONT.5662052",
      "street": "R DIREITA",
      "house": "74",
      "postcode": "5130-203",
      "city": "ESPINHOSA",
      "lon": "-7.481302819555666",
      "lat": "41.089129399397414"
    },
    {
      "id": "pt.ine.add.PTCONT.5662654",
      "street": "R DIREITA",
      "house": "56",
      "postcode": "5130-203",
      "city": "ESPINHOSA",
      "lon": "-7.481240111258138",
      "lat": "41.08945320359264"
    }
  ]
}