{
  "data": {
    "distrito": "Viseu",
    "concelho": "S찾o Jo찾o da Pesqueira",
    "freguesia": "Uni찾o das freguesias de Trev천es e Espinhosa",
    "OBJECTID": 334,
    "BGRI2021": "18151600144",
    "DT21": "18",
    "DTMN21": "1815",
    "DTMNFR21": "181516",
    "DTMNFRSEC21": "181516001",
    "SECNUM21": "001",
    "SSNUM21": "44",
    "SECSSNUM21": "00144",
    "OBJECTID_1": 196069,
    "DT": "18",
    "CC": "15",
    "fr": "16",
    "SEC": "001",
    "SS": "44"
  },
  "addresses": [
    {
      "id": "pt.ine.add.PTCONT.5452242",
      "street": "BR SENHOR DOS AFLITOS",
      "house": "12",
      "postcode": "5130-203",
      "city": "ESPINHOSA",
      "lon": "-7.479080283312862",
      "lat": "41.09242142451605"
    },
    {
      "id": "pt.ine.add.PTCONT.5459363",
      "street": "BR SENHOR DOS AFLITOS",
      "house": "",
      "postcode": "5130-203",
      "city": "ESPINHOSA",
      "lon": "-7.478542749773726",
      "lat": "41.09261646904444"
    },
    {
      "id": "pt.ine.add.PTCONT.5495494",
      "street": "LUGAR DAS HORTAS",
      "house": "2",
      "postcode": "5130-203",
      "city": "ESPINHOSA",
      "lon": "-7.478028574512166",
      "lat": "41.09405425217814"
    },
    {
      "id": "pt.ine.add.PTCONT.5513603",
      "street": "R PAGARINHO",
      "house": "39",
      "postcode": "5130-203",
      "city": "ESPINHOSA",
      "lon": "-7.479669023764471",
      "lat": "41.093064077991215"
    },
    {
      "id": "pt.ine.add.PTCONT.5533422",
      "street": "R PRINCIPAL",
      "house": "4",
      "postcode": "5130-203",
      "city": "ESPINHOSA",
      "lon": "-7.478418549869651",
      "lat": "41.093138019121085"
    },
    {
      "id": "pt.ine.add.PTCONT.5561094",
      "street": "BR SENHOR DOS AFLITOS",
      "house": "8",
      "postcode": "5130-203",
      "city": "ESPINHOSA",
      "lon": "-7.478721719493325",
      "lat": "41.092572463588766"
    },
    {
      "id": "pt.ine.add.PTCONT.5563770",
      "street": "R PAGARINHO",
      "house": "36",
      "postcode": "5130-203",
      "city": "ESPINHOSA",
      "lon": "-7.4791859682559965",
      "lat": "41.092566094930326"
    },
    {
      "id": "pt.ine.add.PTCONT.5579594",
      "street": "BR SENHOR DOS AFLITOS",
      "house": "10",
      "postcode": "5130-203",
      "city": "ESPINHOSA",
      "lon": "-7.478912679815361",
      "lat": "41.09251952152557"
    },
    {
      "id": "pt.ine.add.PTCONT.5643158",
      "street": "R PAGARINHO GARAGEM",
      "house": "",
      "postcode": "5130-203",
      "city": "ESPINHOSA",
      "lon": "-7.478693538211836",
      "lat": "41.09301351958489"
    },
    {
      "id": "pt.ine.add.PTCONT.5649813",
      "street": "BR SENHOR DOS AFLITOS",
      "house": "6",
      "postcode": "5130-203",
      "city": "ESPINHOSA",
      "lon": "-7.478470267999347",
      "lat": "41.09272411016379"
    },
    {
      "id": "pt.ine.add.PTCONT.5657598",
      "street": "R PAGARINHO",
      "house": "40",
      "postcode": "5130-203",
      "city": "ESPINHOSA",
      "lon": "-7.479276359755658",
      "lat": "41.093052846013386"
    }
  ]
}