{
  "data": {
    "distrito": "Viseu",
    "concelho": "Cinf√£es",
    "freguesia": "Tendais",
    "OBJECTID": 346,
    "BGRI2021": "18041600130",
    "DT21": "18",
    "DTMN21": "1804",
    "DTMNFR21": "180416",
    "DTMNFRSEC21": "180416001",
    "SECNUM21": "001",
    "SSNUM21": "30",
    "SECSSNUM21": "00130",
    "OBJECTID_1": 190537,
    "DT": "18",
    "CC": "04",
    "fr": "16",
    "SEC": "001",
    "SS": "30"
  },
  "addresses": [
    {
      "id": "pt.ine.add.PTCONT.5428463",
      "street": "",
      "house": "",
      "postcode": "4690-763",
      "city": "TENDAIS",
      "lon": "-8.049356119912575",
      "lat": "41.01416073709458"
    },
    {
      "id": "pt.ine.add.PTCONT.5428576",
      "street": "",
      "house": "",
      "postcode": "4690-763",
      "city": "TENDAIS",
      "lon": "-8.049677429835468",
      "lat": "41.013899836344635"
    },
    {
      "id": "pt.ine.add.PTCONT.5434030",
      "street": "LUGAR SITIO",
      "house": "",
      "postcode": "4690-756",
      "city": "TENDAIS",
      "lon": "-8.048871228463234",
      "lat": "41.01217936871171"
    },
    {
      "id": "pt.ine.add.PTCONT.5448514",
      "street": "",
      "house": "",
      "postcode": "4690-763",
      "city": "TENDAIS",
      "lon": "-8.049558286990134",
      "lat": "41.01410685613599"
    },
    {
      "id": "pt.ine.add.PTCONT.5448515",
      "street": "",
      "house": "",
      "postcode": "4690-763",
      "city": "TENDAIS",
      "lon": "-8.049558286990134",
      "lat": "41.01410685613599"
    },
    {
      "id": "pt.ine.add.PTCONT.5494942",
      "street": "",
      "house": "",
      "postcode": "4690-763",
      "city": "TENDAIS",
      "lon": "-8.049999065391654",
      "lat": "41.01337780113431"
    },
    {
      "id": "pt.ine.add.PTCONT.5478138",
      "street": "",
      "house": "",
      "postcode": "4690-763",
      "city": "TENDAIS",
      "lon": "-8.049487060528048",
      "lat": "41.014025762974285"
    },
    {
      "id": "pt.ine.add.PTCONT.5488382",
      "street": "LUGAR SITIO",
      "house": "",
      "postcode": "4690-756",
      "city": "TENDAIS",
      "lon": "-8.047110673529781",
      "lat": "41.013069525518524"
    },
    {
      "id": "pt.ine.add.PTCONT.5492731",
      "street": "",
      "house": "",
      "postcode": "4690-763",
      "city": "TENDAIS",
      "lon": "-8.050655443973852",
      "lat": "41.01134322949363"
    },
    {
      "id": "pt.ine.add.PTCONT.5495645",
      "street": "",
      "house": "",
      "postcode": "4690-763",
      "city": "TENDAIS",
      "lon": "-8.049999065391654",
      "lat": "41.01337780113431"
    },
    {
      "id": "pt.ine.add.PTCONT.5505455",
      "street": "LUGAR SITIO",
      "house": "",
      "postcode": "4690-756",
      "city": "TENDAIS",
      "lon": "-8.049609580040675",
      "lat": "41.01114437506135"
    },
    {
      "id": "pt.ine.add.PTCONT.5518509",
      "street": "",
      "house": "",
      "postcode": "4690-763",
      "city": "TENDAIS",
      "lon": "-8.047358230923674",
      "lat": "41.01468153561804"
    },
    {
      "id": "pt.ine.add.PTCONT.5518510",
      "street": "",
      "house": "",
      "postcode": "4690-763",
      "city": "TENDAIS",
      "lon": "-8.04782173366343",
      "lat": "41.01478993483394"
    },
    {
      "id": "pt.ine.add.PTCONT.5522773",
      "street": "LUGAR SITIO",
      "house": "",
      "postcode": "4690-757",
      "city": "TENDAIS",
      "lon": "-8.04959681692354",
      "lat": "41.01183772128546"
    },
    {
      "id": "pt.ine.add.PTCONT.5524189",
      "street": "",
      "house": "",
      "postcode": "4690-763",
      "city": "TENDAIS",
      "lon": "-8.047952551107665",
      "lat": "41.01475401310698"
    },
    {
      "id": "pt.ine.add.PTCONT.5524190",
      "street": "",
      "house": "",
      "postcode": "4690-763",
      "city": "TENDAIS",
      "lon": "-8.047952551107665",
      "lat": "41.01475401310698"
    },
    {
      "id": "pt.ine.add.PTCONT.5528357",
      "street": "",
      "house": "",
      "postcode": "4690-763",
      "city": "TENDAIS",
      "lon": "-8.04769105564841",
      "lat": "41.014717801179984"
    },
    {
      "id": "pt.ine.add.PTCONT.5534431",
      "street": "LUGAR SITIO",
      "house": "",
      "postcode": "4690-756",
      "city": "TENDAIS",
      "lon": "-8.04946648443483",
      "lat": "41.011495451370294"
    },
    {
      "id": "pt.ine.add.PTCONT.5536708",
      "street": "",
      "house": "",
      "postcode": "4690-763",
      "city": "TENDAIS",
      "lon": "-8.048380782716636",
      "lat": "41.014556227223174"
    },
    {
      "id": "pt.ine.add.PTCONT.5536805",
      "street": "LUGAR SITIO",
      "house": "",
      "postcode": "4690-757",
      "city": "TENDAIS",
      "lon": "-8.049883527937736",
      "lat": "41.010721356161845"
    },
    {
      "id": "pt.ine.add.PTCONT.5554230",
      "street": "",
      "house": "",
      "postcode": "4690-763",
      "city": "TENDAIS",
      "lon": "-8.049784502325043",
      "lat": "41.01383688150482"
    },
    {
      "id": "pt.ine.add.PTCONT.5554705",
      "street": "LUGAR SITIO",
      "house": "",
      "postcode": "4690-756",
      "city": "TENDAIS",
      "lon": "-8.046706494353352",
      "lat": "41.01306021865097"
    },
    {
      "id": "pt.ine.add.PTCONT.5558730",
      "street": "",
      "house": "",
      "postcode": "4690-763",
      "city": "TENDAIS",
      "lon": "-8.050156173564062",
      "lat": "41.01133386666288"
    },
    {
      "id": "pt.ine.add.PTCONT.5563058",
      "street": "LG ABEL PINHO ROCHA",
      "house": "",
      "postcode": "4690-763",
      "city": "TENDAIS",
      "lon": "-8.04753621689833",
      "lat": "41.014942801614446"
    },
    {
      "id": "pt.ine.add.PTCONT.5565712",
      "street": "",
      "house": "",
      "postcode": "4690-757",
      "city": "TENDAIS",
      "lon": "-8.05120375942624",
      "lat": "41.0101460062483"
    },
    {
      "id": "pt.ine.add.PTCONT.5565713",
      "street": "",
      "house": "",
      "postcode": "4690-757",
      "city": "TENDAIS",
      "lon": "-8.05120375942624",
      "lat": "41.0101460062483"
    },
    {
      "id": "pt.ine.add.PTCONT.5578539",
      "street": "LUGAR SITIO",
      "house": "",
      "postcode": "4690-757",
      "city": "TENDAIS",
      "lon": "-8.049716807079601",
      "lat": "41.01095535572377"
    },
    {
      "id": "pt.ine.add.PTCONT.5580364",
      "street": "",
      "house": "",
      "postcode": "4690-763",
      "city": "TENDAIS",
      "lon": "-8.049868331116032",
      "lat": "41.01335069295866"
    },
    {
      "id": "pt.ine.add.PTCONT.5584048",
      "street": "",
      "house": "",
      "postcode": "4690-763",
      "city": "TENDAIS",
      "lon": "-8.050285911656468",
      "lat": "41.01215338002178"
    },
    {
      "id": "pt.ine.add.PTCONT.5595252",
      "street": "QUINHAO",
      "house": "614",
      "postcode": "4690-763",
      "city": "TENDAIS",
      "lon": "-8.047167082598747",
      "lat": "41.015401762127574"
    },
    {
      "id": "pt.ine.add.PTCONT.5595282",
      "street": "",
      "house": "",
      "postcode": "4690-763",
      "city": "TENDAIS",
      "lon": "-8.047167082598747",
      "lat": "41.015401762127574"
    },
    {
      "id": "pt.ine.add.PTCONT.5597051",
      "street": "",
      "house": "",
      "postcode": "4690-763",
      "city": "TENDAIS",
      "lon": "-8.04992742011587",
      "lat": "41.013629878628905"
    },
    {
      "id": "pt.ine.add.PTCONT.5602492",
      "street": "",
      "house": "",
      "postcode": "4690-763",
      "city": "TENDAIS",
      "lon": "-8.04904722218576",
      "lat": "41.01400743382725"
    },
    {
      "id": "pt.ine.add.PTCONT.5609754",
      "street": "",
      "house": "",
      "postcode": "4690-763",
      "city": "TENDAIS",
      "lon": "-8.05014180077139",
      "lat": "41.01331487166442"
    },
    {
      "id": "pt.ine.add.PTCONT.5611790",
      "street": "",
      "house": "",
      "postcode": "4690-763",
      "city": "TENDAIS",
      "lon": "-8.05013056804725",
      "lat": "41.01279259596314"
    },
    {
      "id": "pt.ine.add.PTCONT.5619359",
      "street": "LUGAR SITIO",
      "house": "",
      "postcode": "4690-757",
      "city": "TENDAIS",
      "lon": "-8.049788314118851",
      "lat": "41.01081133355415"
    },
    {
      "id": "pt.ine.add.PTCONT.5660628",
      "street": "",
      "house": "",
      "postcode": "4690-763",
      "city": "TENDAIS",
      "lon": "-8.046906324502661",
      "lat": "41.01479825849449"
    },
    {
      "id": "pt.ine.add.PTCONT.5663312",
      "street": "LUGAR SITIO",
      "house": "",
      "postcode": "4690-756",
      "city": "TENDAIS",
      "lon": "-8.049073744562701",
      "lat": "41.011846345751266"
    },
    {
      "id": "pt.ine.add.PTCONT.5667512",
      "street": "",
      "house": "",
      "postcode": "4690-757",
      "city": "TENDAIS",
      "lon": "-8.050847136087564",
      "lat": "41.010145752298506"
    }
  ]
}