{
  "data": {
    "distrito": "Viseu",
    "concelho": "Mangualde",
    "freguesia": "Uni√£o das freguesias de Mangualde, Mesquitela e Cunha Alta",
    "OBJECTID": 270,
    "BGRI2021": "18061900118",
    "DT21": "18",
    "DTMN21": "1806",
    "DTMNFR21": "180619",
    "DTMNFRSEC21": "180619001",
    "SECNUM21": "001",
    "SSNUM21": "18",
    "SECSSNUM21": "00118",
    "OBJECTID_1": 192126,
    "DT": "18",
    "CC": "06",
    "fr": "19",
    "SEC": "001",
    "SS": "18"
  },
  "addresses": [
    {
      "id": "pt.ine.add.PTCONT.5427077",
      "street": "R DIREITA",
      "house": "4",
      "postcode": "3530-176",
      "city": "MANGUALDE",
      "lon": "-7.764858303768087",
      "lat": "40.587868302789644"
    },
    {
      "id": "pt.ine.add.PTCONT.5429169",
      "street": "TV CASALINHO",
      "house": "2",
      "postcode": "3530-227",
      "city": "MANGUALDE",
      "lon": "-7.765236340922254",
      "lat": "40.587860502077326"
    },
    {
      "id": "pt.ine.add.PTCONT.5429180",
      "street": "R DIREITA",
      "house": "6",
      "postcode": "3530-176",
      "city": "MANGUALDE",
      "lon": "-7.764823805990374",
      "lat": "40.58769709301405"
    },
    {
      "id": "pt.ine.add.PTCONT.5445651",
      "street": "R DIREITA",
      "house": "",
      "postcode": "3530-176",
      "city": "MANGUALDE",
      "lon": "-7.7647532793159835",
      "lat": "40.5876338313698"
    },
    {
      "id": "pt.ine.add.PTCONT.5469276",
      "street": "AV MONTES HERMINIOS",
      "house": "",
      "postcode": "3530-116",
      "city": "MANGUALDE",
      "lon": "-7.764564187214815",
      "lat": "40.58765123873514"
    },
    {
      "id": "pt.ine.add.PTCONT.5488399",
      "street": "R CASALINHO",
      "house": "30",
      "postcode": "3530-183",
      "city": "MANGUALDE",
      "lon": "-7.765195821570222",
      "lat": "40.58878791393573"
    },
    {
      "id": "pt.ine.add.PTCONT.5507522",
      "street": "R STA MARTA",
      "house": "6",
      "postcode": "3530-173",
      "city": "MANGUALDE",
      "lon": "-7.764860526489888",
      "lat": "40.58746307351356"
    },
    {
      "id": "pt.ine.add.PTCONT.5507523",
      "street": "R CASALINHO",
      "house": "24",
      "postcode": "3530-183",
      "city": "MANGUALDE",
      "lon": "-7.765352143672708",
      "lat": "40.588284117652854"
    },
    {
      "id": "pt.ine.add.PTCONT.5561679",
      "street": "R STA MARTA",
      "house": "4",
      "postcode": "3530-173",
      "city": "MANGUALDE",
      "lon": "-7.764706772219359",
      "lat": "40.58749860426736"
    },
    {
      "id": "pt.ine.add.PTCONT.5565832",
      "street": "R DIREITA",
      "house": "16",
      "postcode": "3530-176",
      "city": "MANGUALDE",
      "lon": "-7.765331479165933",
      "lat": "40.587743736740904"
    },
    {
      "id": "pt.ine.add.PTCONT.5569438",
      "street": "R DIREITA",
      "house": "12",
      "postcode": "3530-176",
      "city": "MANGUALDE",
      "lon": "-7.764835963857846",
      "lat": "40.58763409500815"
    },
    {
      "id": "pt.ine.add.PTCONT.5585530",
      "street": "R CASALINHO",
      "house": "26",
      "postcode": "3530-183",
      "city": "MANGUALDE",
      "lon": "-7.765304154873108",
      "lat": "40.58841904363482"
    },
    {
      "id": "pt.ine.add.PTCONT.5589781",
      "street": "R CASALINHO",
      "house": "22",
      "postcode": "3530-183",
      "city": "MANGUALDE",
      "lon": "-7.765364202501081",
      "lat": "40.588239129785364"
    },
    {
      "id": "pt.ine.add.PTCONT.5626435",
      "street": "R CASALINHO",
      "house": "20",
      "postcode": "3530-183",
      "city": "MANGUALDE",
      "lon": "-7.765388369432391",
      "lat": "40.58814014895048"
    },
    {
      "id": "pt.ine.add.PTCONT.5649686",
      "street": "R DIREITA",
      "house": "",
      "postcode": "3530-176",
      "city": "MANGUALDE",
      "lon": "-7.764682060929328",
      "lat": "40.587696641010886"
    }
  ]
}