{
  "data": {
    "distrito": "Set√∫bal",
    "concelho": "Palmela",
    "freguesia": "Pinhal Novo",
    "OBJECTID": 162,
    "BGRI2021": "15080301910",
    "DT21": "15",
    "DTMN21": "1508",
    "DTMNFR21": "150803",
    "DTMNFRSEC21": "150803019",
    "SECNUM21": "019",
    "SSNUM21": "10",
    "SECSSNUM21": "01910",
    "OBJECTID_1": 165687,
    "DT": "15",
    "CC": "08",
    "fr": "03",
    "SEC": "019",
    "SS": "10"
  },
  "addresses": [
    {
      "id": "pt.ine.add.PTCONT.4667419",
      "street": "R LAGOA DA PALHA",
      "house": "",
      "postcode": "2955-047",
      "city": "PINHAL NOVO",
      "lon": "-8.89463052451652",
      "lat": "38.63711284407736"
    },
    {
      "id": "pt.ine.add.PTCONT.4667431",
      "street": "R OLHO FERRENHO",
      "house": "",
      "postcode": "2955-082",
      "city": "PINHAL NOVO",
      "lon": "-8.893070912843958",
      "lat": "38.64060012568073"
    },
    {
      "id": "pt.ine.add.PTCONT.4681932",
      "street": "R LAGOA DA PALHA VELHA",
      "house": "",
      "postcode": "2955-081",
      "city": "PINHAL NOVO",
      "lon": "-8.890029769172381",
      "lat": "38.64630397139233"
    },
    {
      "id": "pt.ine.add.PTCONT.4713383",
      "street": "R LAGOA DA PALHA",
      "house": "",
      "postcode": "2955-047",
      "city": "PINHAL NOVO",
      "lon": "-8.89321159941398",
      "lat": "38.63760851111655"
    },
    {
      "id": "pt.ine.add.PTCONT.4722244",
      "street": "R LAGOA PALHA VELHA",
      "house": "11",
      "postcode": "2955-081",
      "city": "PINHAL NOVO",
      "lon": "-8.890355917888817",
      "lat": "38.64018534084724"
    },
    {
      "id": "pt.ine.add.PTCONT.4762358",
      "street": "R PINHAL DA SALGUERINHA",
      "house": "",
      "postcode": "2955-083",
      "city": "PINHAL NOVO",
      "lon": "-8.89397311861026",
      "lat": "38.64119780609997"
    },
    {
      "id": "pt.ine.add.PTCONT.4826044",
      "street": "R LAGOA DA PALHA",
      "house": "",
      "postcode": "2955-047",
      "city": "PINHAL NOVO",
      "lon": "-8.894531453657155",
      "lat": "38.637518855054076"
    },
    {
      "id": "pt.ine.add.PTCONT.4869482",
      "street": "R OLHO FERRENHO",
      "house": "3 B",
      "postcode": "2955-082",
      "city": "PINHAL NOVO",
      "lon": "-8.893036388126264",
      "lat": "38.641681325697405"
    },
    {
      "id": "pt.ine.add.PTCONT.4877656",
      "street": "R LAGOA DA PALHA VELHA QTA DO CHICO",
      "house": "",
      "postcode": "2955-081",
      "city": "PINHAL NOVO",
      "lon": "-8.890319300251075",
      "lat": "38.64543731760715"
    },
    {
      "id": "pt.ine.add.PTCONT.4881056",
      "street": "R PINHAL DA SALGUERINHA QTA DA MATA",
      "house": "",
      "postcode": "2955-083",
      "city": "PINHAL NOVO",
      "lon": "-8.894182455211434",
      "lat": "38.64470060616469"
    },
    {
      "id": "pt.ine.add.PTCONT.4918466",
      "street": "R PINHAL DA SALGUERINHA",
      "house": "",
      "postcode": "2955-083",
      "city": "PINHAL NOVO",
      "lon": "-8.894215629452972",
      "lat": "38.64349330142656"
    },
    {
      "id": "pt.ine.add.PTCONT.4930115",
      "street": "R PINHAL DA SALGUERINHA",
      "house": "",
      "postcode": "2955-083",
      "city": "PINHAL NOVO",
      "lon": "-8.894329771051682",
      "lat": "38.642339518382194"
    },
    {
      "id": "pt.ine.add.PTCONT.4961716",
      "street": "ESTR SALGUEIRINHA",
      "house": "",
      "postcode": "2955-325",
      "city": "PINHAL NOVO",
      "lon": "-8.891584888591419",
      "lat": "38.63800641880368"
    },
    {
      "id": "pt.ine.add.PTCONT.5031833",
      "street": "R LAGOA DO MONTE VELHO QTA DA SAUDADE",
      "house": "",
      "postcode": "2955-079",
      "city": "PINHAL NOVO",
      "lon": "-8.892239928574257",
      "lat": "38.64892902942925"
    },
    {
      "id": "pt.ine.add.PTCONT.5031834",
      "street": "R FONTE DA RAPOSA",
      "house": "",
      "postcode": "2955-080",
      "city": "PINHAL NOVO",
      "lon": "-8.89241091812867",
      "lat": "38.64445088250543"
    },
    {
      "id": "pt.ine.add.PTCONT.5034351",
      "street": "R LAGOA DA PALHA VELHA",
      "house": "",
      "postcode": "2955-081",
      "city": "PINHAL NOVO",
      "lon": "-8.890441620703495",
      "lat": "38.64068924154022"
    },
    {
      "id": "pt.ine.add.PTCONT.5034352",
      "street": "R OLHO FERRENHO",
      "house": "",
      "postcode": "2955-082",
      "city": "PINHAL NOVO",
      "lon": "-8.893163145998143",
      "lat": "38.6395455749493"
    },
    {
      "id": "pt.ine.add.PTCONT.5038410",
      "street": "R LAGOA DA PALHA VELHA",
      "house": "",
      "postcode": "2955-081",
      "city": "PINHAL NOVO",
      "lon": "-8.89027206208763",
      "lat": "38.64313154267305"
    },
    {
      "id": "pt.ine.add.PTCONT.5047667",
      "street": "R LAGOA DA PALHA",
      "house": "",
      "postcode": "2955-047",
      "city": "PINHAL NOVO",
      "lon": "-8.89373588582227",
      "lat": "38.637226761799816"
    },
    {
      "id": "pt.ine.add.PTCONT.5082330",
      "street": "R LAGOA DA PALHA",
      "house": "",
      "postcode": "2955-047",
      "city": "PINHAL NOVO",
      "lon": "-8.891266548353261",
      "lat": "38.63831475892099"
    },
    {
      "id": "pt.ine.add.PTCONT.5088956",
      "street": "ESTR SALGUEIRINHA",
      "house": "",
      "postcode": "2955-325",
      "city": "PINHAL NOVO",
      "lon": "-8.892202867474552",
      "lat": "38.637795223464046"
    },
    {
      "id": "pt.ine.add.PTCONT.5115094",
      "street": "R FONTE DA RAPOSA",
      "house": "",
      "postcode": "2955-080",
      "city": "PINHAL NOVO",
      "lon": "-8.892196303927797",
      "lat": "38.644794584110215"
    },
    {
      "id": "pt.ine.add.PTCONT.5125007",
      "street": "R PINHAL DA SALGUERINHA",
      "house": "",
      "postcode": "2955-083",
      "city": "PINHAL NOVO",
      "lon": "-8.894349596763762",
      "lat": "38.64204212111741"
    }
  ]
}