{
  "data": {
    "distrito": "Guarda",
    "concelho": "Guarda",
    "freguesia": "Gonçalo",
    "OBJECTID": 1018,
    "BGRI2021": "09075700220",
    "DT21": "09",
    "DTMN21": "0907",
    "DTMNFR21": "090757",
    "DTMNFRSEC21": "090757002",
    "SECNUM21": "002",
    "SSNUM21": "20",
    "SECSSNUM21": "00220",
    "OBJECTID_1": 79040,
    "DT": "09",
    "CC": "07",
    "fr": "57",
    "SEC": "002",
    "SS": "20"
  },
  "addresses": [
    {
      "id": "pt.ine.add.PTCONT.1899436",
      "street": "LG TEN DAVID SANTOS",
      "house": "",
      "postcode": "6300-215",
      "city": "SEIXO AMARELO",
      "lon": "-7.341856221220139",
      "lat": "40.444758923717934"
    },
    {
      "id": "pt.ine.add.PTCONT.1902402",
      "street": "R DO OUTEIRO",
      "house": "",
      "postcode": "6300-215",
      "city": "SEIXO AMARELO",
      "lon": "-7.343045884332073",
      "lat": "40.44483009831627"
    },
    {
      "id": "pt.ine.add.PTCONT.1903519",
      "street": "R DO OUTEIRO",
      "house": "",
      "postcode": "6300-215",
      "city": "SEIXO AMARELO",
      "lon": "-7.342950540525944",
      "lat": "40.44491950030912"
    },
    {
      "id": "pt.ine.add.PTCONT.1911251",
      "street": "R DO CHAFARIZ DE CIMA",
      "house": "",
      "postcode": "6300-215",
      "city": "SEIXO AMARELO",
      "lon": "-7.341641429956333",
      "lat": "40.44498258745768"
    },
    {
      "id": "pt.ine.add.PTCONT.1912031",
      "street": "R DO OUTEIRO",
      "house": "",
      "postcode": "6300-215",
      "city": "SEIXO AMARELO",
      "lon": "-7.342691139115703",
      "lat": "40.444926732257485"
    },
    {
      "id": "pt.ine.add.PTCONT.1913438",
      "street": "R DO CHAFARIZ DE CIMA",
      "house": "",
      "postcode": "6300-215",
      "city": "SEIXO AMARELO",
      "lon": "-7.342040682309587",
      "lat": "40.4451113954964"
    },
    {
      "id": "pt.ine.add.PTCONT.1930884",
      "street": "R DA IGREJA",
      "house": "",
      "postcode": "6300-215",
      "city": "SEIXO AMARELO",
      "lon": "-7.341215225004712",
      "lat": "40.44514176513063"
    },
    {
      "id": "pt.ine.add.PTCONT.1931977",
      "street": "R DA IGREJA",
      "house": "",
      "postcode": "6300-215",
      "city": "SEIXO AMARELO",
      "lon": "-7.341499678792809",
      "lat": "40.44500863293019"
    },
    {
      "id": "pt.ine.add.PTCONT.1936399",
      "street": "TV DA PRAÇA",
      "house": "",
      "postcode": "6300-215",
      "city": "SEIXO AMARELO",
      "lon": "-7.342881088964231",
      "lat": "40.44481096114889"
    },
    {
      "id": "pt.ine.add.PTCONT.1937163",
      "street": "BC DA PRAÇA",
      "house": "",
      "postcode": "6300-215",
      "city": "SEIXO AMARELO",
      "lon": "-7.342197597326054",
      "lat": "40.44479728137436"
    },
    {
      "id": "pt.ine.add.PTCONT.1943218",
      "street": "R DO OUTEIRO",
      "house": "",
      "postcode": "6300-215",
      "city": "SEIXO AMARELO",
      "lon": "-7.3430098931899455",
      "lat": "40.4448838845279"
    },
    {
      "id": "pt.ine.add.PTCONT.1946245",
      "street": "R DA IGREJA",
      "house": "",
      "postcode": "6300-215",
      "city": "SEIXO AMARELO",
      "lon": "-7.341251534741682",
      "lat": "40.44506096556787"
    },
    {
      "id": "pt.ine.add.PTCONT.1950411",
      "street": "R DA IGREJA",
      "house": "",
      "postcode": "6300-215",
      "city": "SEIXO AMARELO",
      "lon": "-7.34121681023706",
      "lat": "40.44500669549609"
    },
    {
      "id": "pt.ine.add.PTCONT.1959020",
      "street": "R DA IGREJA",
      "house": "",
      "postcode": "6300-215",
      "city": "SEIXO AMARELO",
      "lon": "-7.341286153628665",
      "lat": "40.44512424027159"
    },
    {
      "id": "pt.ine.add.PTCONT.1960004",
      "street": "R DA IGREJA",
      "house": "",
      "postcode": "6300-215",
      "city": "SEIXO AMARELO",
      "lon": "-7.341761192781243",
      "lat": "40.44482131078507"
    },
    {
      "id": "pt.ine.add.PTCONT.1965851",
      "street": "R DA IGREJA",
      "house": "",
      "postcode": "6300-215",
      "city": "SEIXO AMARELO",
      "lon": "-7.341406445835172",
      "lat": "40.444917940766835"
    },
    {
      "id": "pt.ine.add.PTCONT.1968268",
      "street": "R DA IGREJA",
      "house": "",
      "postcode": "6300-215",
      "city": "SEIXO AMARELO",
      "lon": "-7.341442543917193",
      "lat": "40.444855150423905"
    },
    {
      "id": "pt.ine.add.PTCONT.1971962",
      "street": "R DO CHAFARIZ DE CIMA",
      "house": "",
      "postcode": "6300-215",
      "city": "SEIXO AMARELO",
      "lon": "-7.341972287836591",
      "lat": "40.444912809363764"
    },
    {
      "id": "pt.ine.add.PTCONT.1978267",
      "street": "BC DA PRAÇA",
      "house": "",
      "postcode": "6300-215",
      "city": "SEIXO AMARELO",
      "lon": "-7.342351872645689",
      "lat": "40.444708283146625"
    },
    {
      "id": "pt.ine.add.PTCONT.1852189",
      "street": "R DA IGREJA",
      "house": "",
      "postcode": "6300-215",
      "city": "SEIXO AMARELO",
      "lon": "-7.341145247571014",
      "lat": "40.44507824816702"
    },
    {
      "id": "pt.ine.add.PTCONT.1856181",
      "street": "R DA IGREJA",
      "house": "",
      "postcode": "6300-215",
      "city": "SEIXO AMARELO",
      "lon": "-7.3415125214057015",
      "lat": "40.4449186672104"
    },
    {
      "id": "pt.ine.add.PTCONT.1867546",
      "street": "BC DA PRAÇA",
      "house": "",
      "postcode": "6300-215",
      "city": "SEIXO AMARELO",
      "lon": "-7.342446583836263",
      "lat": "40.44467290952289"
    },
    {
      "id": "pt.ine.add.PTCONT.1886949",
      "street": "R DO CHAFARIZ DE CIMA",
      "house": "",
      "postcode": "6300-215",
      "city": "SEIXO AMARELO",
      "lon": "-7.341807281391207",
      "lat": "40.44491167995476"
    },
    {
      "id": "pt.ine.add.PTCONT.1887508",
      "street": "PC ISIDORO CARDOSO",
      "house": "",
      "postcode": "6300-215",
      "city": "SEIXO AMARELO",
      "lon": "-7.34284731243512",
      "lat": "40.44467564973548"
    },
    {
      "id": "pt.ine.add.PTCONT.1894847",
      "street": "TV DA PRAÇA",
      "house": "",
      "postcode": "6300-215",
      "city": "SEIXO AMARELO",
      "lon": "-7.34296464656132",
      "lat": "40.4447214786495"
    },
    {
      "id": "pt.ine.add.PTCONT.1898490",
      "street": "R DA IGREJA",
      "house": "",
      "postcode": "6300-215",
      "city": "SEIXO AMARELO",
      "lon": "-7.342151402710472",
      "lat": "40.44471591699925"
    }
  ]
}