{
  "data": {
    "distrito": "Beja",
    "concelho": "Odemira",
    "freguesia": "Colos",
    "OBJECTID": 311,
    "BGRI2021": "02111800119",
    "DT21": "02",
    "DTMN21": "0211",
    "DTMNFR21": "021118",
    "DTMNFRSEC21": "021118001",
    "SECNUM21": "001",
    "SSNUM21": "19",
    "SECSSNUM21": "00119",
    "OBJECTID_1": 17109,
    "DT": "02",
    "CC": "11",
    "fr": "18",
    "SEC": "001",
    "SS": "19"
  },
  "addresses": [
    {
      "id": "pt.ine.add.PTCONT.355428",
      "street": "BR MARIANA ROSA",
      "house": "5",
      "postcode": "7630-326",
      "city": "COLOS",
      "lon": "-8.462388733971059",
      "lat": "37.73314911669605"
    },
    {
      "id": "pt.ine.add.PTCONT.370048",
      "street": "R DE RELÍQUIAS",
      "house": "1",
      "postcode": "7630-301",
      "city": "COLOS",
      "lon": "-8.462863448694584",
      "lat": "37.73304340010957"
    },
    {
      "id": "pt.ine.add.PTCONT.386978",
      "street": "R DE RELÍQUIAS",
      "house": "5",
      "postcode": "7630-301",
      "city": "COLOS",
      "lon": "-8.463225260724135",
      "lat": "37.7329596633855"
    },
    {
      "id": "pt.ine.add.PTCONT.391884",
      "street": "TV DO MARTINHO",
      "house": "",
      "postcode": "7630-327",
      "city": "COLOS",
      "lon": "-8.462240001272145",
      "lat": "37.73295175725934"
    },
    {
      "id": "pt.ine.add.PTCONT.392632",
      "street": "BR MARIANA ROSA",
      "house": "3",
      "postcode": "7630-326",
      "city": "COLOS",
      "lon": "-8.46233205301693",
      "lat": "37.73316158311597"
    },
    {
      "id": "pt.ine.add.PTCONT.401492",
      "street": "R DE RELÍQUIAS",
      "house": "3",
      "postcode": "7630-301",
      "city": "COLOS",
      "lon": "-8.46310176387488",
      "lat": "37.732987798578755"
    },
    {
      "id": "pt.ine.add.PTCONT.402300",
      "street": "BR MARIANA ROSA",
      "house": "9",
      "postcode": "7630-326",
      "city": "COLOS",
      "lon": "-8.462526210210678",
      "lat": "37.733117238410294"
    },
    {
      "id": "pt.ine.add.PTCONT.407232",
      "street": "R DE RELÍQUIAS",
      "house": "7",
      "postcode": "7630-301",
      "city": "COLOS",
      "lon": "-8.463328591700211",
      "lat": "37.73292840774652"
    },
    {
      "id": "pt.ine.add.PTCONT.415277",
      "street": "BR MARIANA ROSA",
      "house": "7",
      "postcode": "7630-326",
      "city": "COLOS",
      "lon": "-8.462451645321147",
      "lat": "37.733134120046195"
    },
    {
      "id": "pt.ine.add.PTCONT.428937",
      "street": "BR MARIANA ROSA",
      "house": "13",
      "postcode": "7630-326",
      "city": "COLOS",
      "lon": "-8.462670676311262",
      "lat": "37.733083487134394"
    },
    {
      "id": "pt.ine.add.PTCONT.438156",
      "street": "BR MARIANA ROSA",
      "house": "11",
      "postcode": "7630-326",
      "city": "COLOS",
      "lon": "-8.462596110358577",
      "lat": "37.73310036976561"
    },
    {
      "id": "pt.ine.add.PTCONT.442944",
      "street": "R DE RELÍQUIAS",
      "house": "9",
      "postcode": "7630-301",
      "city": "COLOS",
      "lon": "-8.463411008718671",
      "lat": "37.73291587864895"
    },
    {
      "id": "pt.ine.add.PTCONT.447006",
      "street": "R DE RELIQUIAS",
      "house": "7",
      "postcode": "7630-301",
      "city": "COLOS",
      "lon": "-8.463532749325022",
      "lat": "37.732840024750416"
    }
  ]
}