{
  "data": {
    "distrito": "Setúbal",
    "concelho": "Montijo",
    "freguesia": "União das freguesias de Montijo e Afonsoeiro",
    "OBJECTID": 142,
    "BGRI2021": "15071000705",
    "DT21": "15",
    "DTMN21": "1507",
    "DTMNFR21": "150710",
    "DTMNFRSEC21": "150710007",
    "SECNUM21": "007",
    "SSNUM21": "05",
    "SECSSNUM21": "00705",
    "OBJECTID_1": 164848,
    "DT": "15",
    "CC": "07",
    "fr": "10",
    "SEC": "007",
    "SS": "05"
  },
  "addresses": [
    {
      "id": "pt.ine.add.PTCONT.4693464",
      "street": "R CALDAS XAVIER",
      "house": "15",
      "postcode": "2870-866",
      "city": "MONTIJO",
      "lon": "-8.954344406322004",
      "lat": "38.7017110602984"
    },
    {
      "id": "pt.ine.add.PTCONT.4693465",
      "street": "R CALDAS XAVIER",
      "house": "15 A",
      "postcode": "2870-866",
      "city": "MONTIJO",
      "lon": "-8.954344406322004",
      "lat": "38.7017110602984"
    },
    {
      "id": "pt.ine.add.PTCONT.4693466",
      "street": "R CALDAS XAVIER",
      "house": "19",
      "postcode": "2870-866",
      "city": "MONTIJO",
      "lon": "-8.95426445967479",
      "lat": "38.70175666181236"
    },
    {
      "id": "pt.ine.add.PTCONT.4693467",
      "street": "R CALDAS XAVIER",
      "house": "17",
      "postcode": "2870-866",
      "city": "MONTIJO",
      "lon": "-8.95426445967479",
      "lat": "38.70175666181236"
    },
    {
      "id": "pt.ine.add.PTCONT.4734768",
      "street": "AL DR JOSE AFONSO MANUEL DOS SANTOS",
      "house": "251",
      "postcode": "2870-802",
      "city": "MONTIJO",
      "lon": "-8.953395989851604",
      "lat": "38.702185773694126"
    },
    {
      "id": "pt.ine.add.PTCONT.4734769",
      "street": "AL DR JOSE AFONSO MANUEL DOS SANTOS",
      "house": "251",
      "postcode": "2870-802",
      "city": "MONTIJO",
      "lon": "-8.953395989851604",
      "lat": "38.702185773694126"
    },
    {
      "id": "pt.ine.add.PTCONT.4770758",
      "street": "R ALVES ROCADAS ALVES RUCADAS",
      "house": "3 A",
      "postcode": "2870-864",
      "city": "MONTIJO",
      "lon": "-8.955010161014952",
      "lat": "38.701625310502585"
    },
    {
      "id": "pt.ine.add.PTCONT.4783503",
      "street": "R CALDAS XAVIER",
      "house": "31",
      "postcode": "2870-866",
      "city": "MONTIJO",
      "lon": "-8.954401981999435",
      "lat": "38.70171966392132"
    },
    {
      "id": "pt.ine.add.PTCONT.4787920",
      "street": "R ALVES ROCADAS",
      "house": "7",
      "postcode": "2870-864",
      "city": "MONTIJO",
      "lon": "-8.954790631383162",
      "lat": "38.701527765264636"
    },
    {
      "id": "pt.ine.add.PTCONT.4789121",
      "street": "R ALVES ROCADAS",
      "house": "7",
      "postcode": "2870-864",
      "city": "MONTIJO",
      "lon": "-8.954790631383162",
      "lat": "38.701527765264636"
    },
    {
      "id": "pt.ine.add.PTCONT.4812459",
      "street": "R ALVES ROCADAS",
      "house": "1 A",
      "postcode": "2870-864",
      "city": "MONTIJO",
      "lon": "-8.955056963962525",
      "lat": "38.70169704559195"
    },
    {
      "id": "pt.ine.add.PTCONT.4821583",
      "street": "R PERO VAZ DE CAMINHA",
      "house": "28",
      "postcode": "2870-878",
      "city": "MONTIJO",
      "lon": "-8.954560411321719",
      "lat": "38.70201066006853"
    },
    {
      "id": "pt.ine.add.PTCONT.4821584",
      "street": "R PERO VAZ DE CAMINHA",
      "house": "28",
      "postcode": "2870-878",
      "city": "MONTIJO",
      "lon": "-8.954560411321719",
      "lat": "38.70201066006853"
    },
    {
      "id": "pt.ine.add.PTCONT.4821585",
      "street": "R PERO VAZ DE CAMINHA",
      "house": "28",
      "postcode": "2870-878",
      "city": "MONTIJO",
      "lon": "-8.954560411321719",
      "lat": "38.70201066006853"
    },
    {
      "id": "pt.ine.add.PTCONT.4821586",
      "street": "R PERO VAZ DE CAMINHA",
      "house": "28",
      "postcode": "2870-878",
      "city": "MONTIJO",
      "lon": "-8.954560411321719",
      "lat": "38.70201066006853"
    },
    {
      "id": "pt.ine.add.PTCONT.4821587",
      "street": "R PERO VAZ DE CAMINHA",
      "house": "28",
      "postcode": "2870-878",
      "city": "MONTIJO",
      "lon": "-8.954560411321719",
      "lat": "38.70201066006853"
    },
    {
      "id": "pt.ine.add.PTCONT.4821588",
      "street": "R PERO VAZ DE CAMINHA",
      "house": "28",
      "postcode": "2870-878",
      "city": "MONTIJO",
      "lon": "-8.954560411321719",
      "lat": "38.70201066006853"
    },
    {
      "id": "pt.ine.add.PTCONT.4840989",
      "street": "R CALDAS XAVIER",
      "house": "11",
      "postcode": "2870-866",
      "city": "MONTIJO",
      "lon": "-8.953979155767604",
      "lat": "38.70193882525127"
    },
    {
      "id": "pt.ine.add.PTCONT.4848607",
      "street": "R CALDAS XAVIER",
      "house": "21",
      "postcode": "2870-866",
      "city": "MONTIJO",
      "lon": "-8.954150338286148",
      "lat": "38.70182952727022"
    },
    {
      "id": "pt.ine.add.PTCONT.4850154",
      "street": "R PERO VAZ DE CAMINHA",
      "house": "",
      "postcode": "2870-878",
      "city": "MONTIJO",
      "lon": "-8.954072844308339",
      "lat": "38.70242997688734"
    },
    {
      "id": "pt.ine.add.PTCONT.4850155",
      "street": "R PERO VAZ DE CAMINHA",
      "house": "",
      "postcode": "2870-878",
      "city": "MONTIJO",
      "lon": "-8.954072844308339",
      "lat": "38.70242997688734"
    },
    {
      "id": "pt.ine.add.PTCONT.4850156",
      "street": "R PERO VAZ DE CAMINHA",
      "house": "",
      "postcode": "2870-878",
      "city": "MONTIJO",
      "lon": "-8.954072844308339",
      "lat": "38.70242997688734"
    },
    {
      "id": "pt.ine.add.PTCONT.4850157",
      "street": "R PERO VAZ DE CAMINHA",
      "house": "",
      "postcode": "2870-878",
      "city": "MONTIJO",
      "lon": "-8.954072844308339",
      "lat": "38.70242997688734"
    },
    {
      "id": "pt.ine.add.PTCONT.4850158",
      "street": "R PERO VAZ DE CAMINHA",
      "house": "",
      "postcode": "2870-878",
      "city": "MONTIJO",
      "lon": "-8.954072844308339",
      "lat": "38.70242997688734"
    },
    {
      "id": "pt.ine.add.PTCONT.4850195",
      "street": "R PERO VAZ DE CAMINHA",
      "house": "",
      "postcode": "2870-878",
      "city": "MONTIJO",
      "lon": "-8.954072844308339",
      "lat": "38.70242997688734"
    },
    {
      "id": "pt.ine.add.PTCONT.4855999",
      "street": "AL DR JOSE AFONSO MANUEL SANTOS",
      "house": "283",
      "postcode": "2870-802",
      "city": "MONTIJO",
      "lon": "-8.953545971055036",
      "lat": "38.70242793769904"
    },
    {
      "id": "pt.ine.add.PTCONT.4876749",
      "street": "R CALDAS XAVIER",
      "house": "43",
      "postcode": "2870-866",
      "city": "MONTIJO",
      "lon": "-8.953693335697915",
      "lat": "38.70207595156789"
    },
    {
      "id": "pt.ine.add.PTCONT.4876750",
      "street": "R CALDAS XAVIER",
      "house": "43",
      "postcode": "2870-866",
      "city": "MONTIJO",
      "lon": "-8.953693335697915",
      "lat": "38.70207595156789"
    },
    {
      "id": "pt.ine.add.PTCONT.4890959",
      "street": "AL DR JOSÉ AFONSO MANUEL DOS SANTOS",
      "house": "261-263",
      "postcode": "2870-802",
      "city": "MONTIJO",
      "lon": "-8.95344709224229",
      "lat": "38.702268593346666"
    },
    {
      "id": "pt.ine.add.PTCONT.4892279",
      "street": "AL DR JOSÉ AFONSO MANUEL DOS SANTOS",
      "house": "261",
      "postcode": "2870-802",
      "city": "MONTIJO",
      "lon": "-8.95344709224229",
      "lat": "38.702268593346666"
    },
    {
      "id": "pt.ine.add.PTCONT.4893928",
      "street": "R PERO VAZ DE CAMINHA",
      "house": "46",
      "postcode": "2870-878",
      "city": "MONTIJO",
      "lon": "-8.954418993724925",
      "lat": "38.70211226572715"
    },
    {
      "id": "pt.ine.add.PTCONT.4893929",
      "street": "R PERO VAZ DE CAMINHA",
      "house": "46",
      "postcode": "2870-878",
      "city": "MONTIJO",
      "lon": "-8.954418993724925",
      "lat": "38.70211226572715"
    },
    {
      "id": "pt.ine.add.PTCONT.4893930",
      "street": "R PERO VAZ DE CAMINHA",
      "house": "46",
      "postcode": "2870-878",
      "city": "MONTIJO",
      "lon": "-8.954418993724925",
      "lat": "38.70211226572715"
    },
    {
      "id": "pt.ine.add.PTCONT.4893931",
      "street": "R PERO VAZ DE CAMINHA",
      "house": "46",
      "postcode": "2870-878",
      "city": "MONTIJO",
      "lon": "-8.954418993724925",
      "lat": "38.70211226572715"
    },
    {
      "id": "pt.ine.add.PTCONT.4893932",
      "street": "R PERO VAZ DE CAMINHA",
      "house": "46",
      "postcode": "2870-878",
      "city": "MONTIJO",
      "lon": "-8.954418993724925",
      "lat": "38.70211226572715"
    },
    {
      "id": "pt.ine.add.PTCONT.4894041",
      "street": "R CALDAS XAVIER",
      "house": "1",
      "postcode": "2870-866",
      "city": "MONTIJO",
      "lon": "-8.95460764688518",
      "lat": "38.70161012306844"
    },
    {
      "id": "pt.ine.add.PTCONT.4895813",
      "street": "R PERO VAZ DE CAMINHA",
      "house": "46",
      "postcode": "2870-878",
      "city": "MONTIJO",
      "lon": "-8.954418993724925",
      "lat": "38.70211226572715"
    },
    {
      "id": "pt.ine.add.PTCONT.4912867",
      "street": "R CALDAS XAVIER",
      "house": "49",
      "postcode": "2870-866",
      "city": "MONTIJO",
      "lon": "-8.953601893629514",
      "lat": "38.70212163330099"
    },
    {
      "id": "pt.ine.add.PTCONT.4912868",
      "street": "R CALDAS XAVIER",
      "house": "47",
      "postcode": "2870-866",
      "city": "MONTIJO",
      "lon": "-8.953601893629514",
      "lat": "38.70212163330099"
    },
    {
      "id": "pt.ine.add.PTCONT.4929656",
      "street": "R ALVES ROCADAS",
      "house": "5 A",
      "postcode": "2870-864",
      "city": "MONTIJO",
      "lon": "-8.954951863659131",
      "lat": "38.7015536561824"
    },
    {
      "id": "pt.ine.add.PTCONT.4951484",
      "street": "R CALDAS XAVIER",
      "house": "9",
      "postcode": "2870-866",
      "city": "MONTIJO",
      "lon": "-8.954481722438052",
      "lat": "38.70165604774213"
    },
    {
      "id": "pt.ine.add.PTCONT.4951485",
      "street": "R CALDAS XAVIER",
      "house": "9",
      "postcode": "2870-866",
      "city": "MONTIJO",
      "lon": "-8.954481722438052",
      "lat": "38.70165604774213"
    },
    {
      "id": "pt.ine.add.PTCONT.4951486",
      "street": "R CALDAS XAVIER",
      "house": "9",
      "postcode": "2870-866",
      "city": "MONTIJO",
      "lon": "-8.954481722438052",
      "lat": "38.70165604774213"
    },
    {
      "id": "pt.ine.add.PTCONT.5002484",
      "street": "R CALDAS XAVIER",
      "house": "39",
      "postcode": "2870-866",
      "city": "MONTIJO",
      "lon": "-8.953796272231568",
      "lat": "38.702030189088234"
    },
    {
      "id": "pt.ine.add.PTCONT.5002502",
      "street": "R CALDAS XAVIER",
      "house": "39",
      "postcode": "2870-866",
      "city": "MONTIJO",
      "lon": "-8.953796272231568",
      "lat": "38.702030189088234"
    },
    {
      "id": "pt.ine.add.PTCONT.5009512",
      "street": "R PERO VAZ DE CAMINHA",
      "house": "58",
      "postcode": "2870-878",
      "city": "MONTIJO",
      "lon": "-8.954294726745653",
      "lat": "38.70219806332016"
    },
    {
      "id": "pt.ine.add.PTCONT.5009513",
      "street": "R PERO VAZ DE CAMINHA",
      "house": "58",
      "postcode": "2870-878",
      "city": "MONTIJO",
      "lon": "-8.954294726745653",
      "lat": "38.70219806332016"
    },
    {
      "id": "pt.ine.add.PTCONT.5009514",
      "street": "R PERO VAZ DE CAMINHA",
      "house": "58",
      "postcode": "2870-878",
      "city": "MONTIJO",
      "lon": "-8.954294726745653",
      "lat": "38.70219806332016"
    },
    {
      "id": "pt.ine.add.PTCONT.5009515",
      "street": "R PERO VAZ DE CAMINHA",
      "house": "58",
      "postcode": "2870-878",
      "city": "MONTIJO",
      "lon": "-8.954294726745653",
      "lat": "38.70219806332016"
    },
    {
      "id": "pt.ine.add.PTCONT.5009516",
      "street": "R PERO VAZ DE CAMINHA",
      "house": "58",
      "postcode": "2870-878",
      "city": "MONTIJO",
      "lon": "-8.954294726745653",
      "lat": "38.70219806332016"
    },
    {
      "id": "pt.ine.add.PTCONT.5009517",
      "street": "R PERO VAZ DE CAMINHA",
      "house": "58",
      "postcode": "2870-878",
      "city": "MONTIJO",
      "lon": "-8.954294726745653",
      "lat": "38.70219806332016"
    },
    {
      "id": "pt.ine.add.PTCONT.5020518",
      "street": "R CALDAS XAVIER",
      "house": "33",
      "postcode": "2870-866",
      "city": "MONTIJO",
      "lon": "-8.954059926699411",
      "lat": "38.70196528222325"
    },
    {
      "id": "pt.ine.add.PTCONT.5024709",
      "street": "R PERO VAZ DE CAMINHA",
      "house": "14",
      "postcode": "2870-878",
      "city": "MONTIJO",
      "lon": "-8.954761095457231",
      "lat": "38.70196035727963"
    },
    {
      "id": "pt.ine.add.PTCONT.5024710",
      "street": "R PERO VAZ DE CAMINHA",
      "house": "14",
      "postcode": "2870-878",
      "city": "MONTIJO",
      "lon": "-8.954761095457231",
      "lat": "38.70196035727963"
    },
    {
      "id": "pt.ine.add.PTCONT.5024711",
      "street": "R PERO VAZ DE CAMINHA",
      "house": "14",
      "postcode": "2870-878",
      "city": "MONTIJO",
      "lon": "-8.954761095457231",
      "lat": "38.70196035727963"
    },
    {
      "id": "pt.ine.add.PTCONT.5024712",
      "street": "R PERO VAZ DE CAMINHA",
      "house": "14",
      "postcode": "2870-878",
      "city": "MONTIJO",
      "lon": "-8.954761095457231",
      "lat": "38.70196035727963"
    },
    {
      "id": "pt.ine.add.PTCONT.5024713",
      "street": "R PERO VAZ DE CAMINHA",
      "house": "14",
      "postcode": "2870-878",
      "city": "MONTIJO",
      "lon": "-8.954761095457231",
      "lat": "38.70196035727963"
    },
    {
      "id": "pt.ine.add.PTCONT.5026034",
      "street": "R PERO VAZ DE CAMINHA",
      "house": "14",
      "postcode": "2870-878",
      "city": "MONTIJO",
      "lon": "-8.954761095457231",
      "lat": "38.70196035727963"
    },
    {
      "id": "pt.ine.add.PTCONT.5068605",
      "street": "AL DR JOSE AFONSO MANUEL SANTOS",
      "house": "273",
      "postcode": "2870-802",
      "city": "MONTIJO",
      "lon": "-8.953495941880249",
      "lat": "38.702349322708244"
    },
    {
      "id": "pt.ine.add.PTCONT.5068606",
      "street": "AL DR JOSE AFONSO MANUEL DOS SANTOS",
      "house": "271",
      "postcode": "2870-802",
      "city": "MONTIJO",
      "lon": "-8.953495941880249",
      "lat": "38.702349322708244"
    },
    {
      "id": "pt.ine.add.PTCONT.5125661",
      "street": "AL DR JOSE AFONSO MANUEL DOS SANTOS",
      "house": "281",
      "postcode": "2870-802",
      "city": "MONTIJO",
      "lon": "-8.953545971055036",
      "lat": "38.70242793769904"
    },
    {
      "id": "pt.ine.add.PTCONT.5131693",
      "street": "R ALVES ROCADAS",
      "house": "5 A",
      "postcode": "2870-864",
      "city": "MONTIJO",
      "lon": "-8.954951863659131",
      "lat": "38.7015536561824"
    }
  ]
}