{
  "data": {
    "distrito": "Coimbra",
    "concelho": "Arganil",
    "freguesia": "Pomares",
    "OBJECTID": 54,
    "BGRI2021": "06011200107",
    "DT21": "06",
    "DTMN21": "0601",
    "DTMNFR21": "060112",
    "DTMNFRSEC21": "060112001",
    "SECNUM21": "001",
    "SSNUM21": "07",
    "SECSSNUM21": "00107",
    "OBJECTID_1": 47203,
    "DT": "06",
    "CC": "01",
    "fr": "12",
    "SEC": "001",
    "SS": "07"
  },
  "addresses": [
    {
      "id": "pt.ine.add.PTCONT.1100677",
      "street": "AV ABILIO NUNES BARROSA",
      "house": "",
      "postcode": "3305-265",
      "city": "POMARES AGN",
      "lon": "-7.895813753432086",
      "lat": "40.24130917292232"
    },
    {
      "id": "pt.ine.add.PTCONT.1102016",
      "street": "",
      "house": "",
      "postcode": "3305-265",
      "city": "POMARES AGN",
      "lon": "-7.896110406442512",
      "lat": "40.240490252032544"
    },
    {
      "id": "pt.ine.add.PTCONT.1102020",
      "street": "R JOAQUIM MARQUES",
      "house": "",
      "postcode": "3305-265",
      "city": "POMARES AGN",
      "lon": "-7.896181010663698",
      "lat": "40.240463379157156"
    },
    {
      "id": "pt.ine.add.PTCONT.1106073",
      "street": "R JOAQUIM PEDRO",
      "house": "",
      "postcode": "3305-265",
      "city": "POMARES AGN",
      "lon": "-7.895618378026701",
      "lat": "40.24004795868721"
    },
    {
      "id": "pt.ine.add.PTCONT.1140591",
      "street": "R JOAQUIM MARQUES",
      "house": "",
      "postcode": "3305-265",
      "city": "POMARES AGN",
      "lon": "-7.896051459615161",
      "lat": "40.24054416617531"
    },
    {
      "id": "pt.ine.add.PTCONT.1141008",
      "street": "R ANTÓNIO CASTANHEIRA",
      "house": "",
      "postcode": "3305-265",
      "city": "POMARES AGN",
      "lon": "-7.896195932739721",
      "lat": "40.23955382271747"
    },
    {
      "id": "pt.ine.add.PTCONT.1143854",
      "street": "R ANTÓNIO CASTANHEIRA",
      "house": "",
      "postcode": "3305-265",
      "city": "POMARES AGN",
      "lon": "-7.896101229798034",
      "lat": "40.23975175669297"
    },
    {
      "id": "pt.ine.add.PTCONT.1150734",
      "street": "R ANTÓNIO CASTANHEIRA",
      "house": "",
      "postcode": "3305-265",
      "city": "POMARES AGN",
      "lon": "-7.896195650234093",
      "lat": "40.2396348744507"
    },
    {
      "id": "pt.ine.add.PTCONT.1153186",
      "street": "AV DR PADRE ANTÓNIO NOGUEIRA GONÇALVES",
      "house": "",
      "postcode": "3305-265",
      "city": "POMARES AGN",
      "lon": "-7.896293302094449",
      "lat": "40.23859039997686"
    },
    {
      "id": "pt.ine.add.PTCONT.1157212",
      "street": "R JOAQUIM MARQUES",
      "house": "",
      "postcode": "3305-265",
      "city": "POMARES AGN",
      "lon": "-7.895992889703952",
      "lat": "40.24049001132899"
    },
    {
      "id": "pt.ine.add.PTCONT.1158889",
      "street": "LG COMISSAO MELHORAMENTOS SORGACOSA",
      "house": "",
      "postcode": "3305-265",
      "city": "POMARES AGN",
      "lon": "-7.89550067316423",
      "lat": "40.24010175196783"
    },
    {
      "id": "pt.ine.add.PTCONT.1168369",
      "street": "R JOAQUIM PEDRO",
      "house": "",
      "postcode": "3305-265",
      "city": "POMARES AGN",
      "lon": "-7.895395318157945",
      "lat": "40.23998446007468"
    },
    {
      "id": "pt.ine.add.PTCONT.1171148",
      "street": "R JOAQUIM MARQUES FAMILIA MARQUES ANTINES",
      "house": "",
      "postcode": "3305-265",
      "city": "POMARES AGN",
      "lon": "-7.895886873188769",
      "lat": "40.24056184056563"
    },
    {
      "id": "pt.ine.add.PTCONT.1172841",
      "street": "R JOAQUIM MARQUES",
      "house": "",
      "postcode": "3305-265",
      "city": "POMARES AGN",
      "lon": "-7.89635778760888",
      "lat": "40.24031964792908"
    },
    {
      "id": "pt.ine.add.PTCONT.1181528",
      "street": "R ANTÓNIO CASTANHEIRA",
      "house": "",
      "postcode": "3305-265",
      "city": "POMARES AGN",
      "lon": "-7.896113515153466",
      "lat": "40.23959868304208"
    },
    {
      "id": "pt.ine.add.PTCONT.1185599",
      "street": "AV DR PADRE ANTÓNIO NOGUEIRA GONÇALVES",
      "house": "",
      "postcode": "3305-265",
      "city": "POMARES AGN",
      "lon": "-7.895833207739637",
      "lat": "40.239102789015874"
    },
    {
      "id": "pt.ine.add.PTCONT.1195077",
      "street": "R ANTÓNIO CASTANHEIRA",
      "house": "",
      "postcode": "3305-265",
      "city": "POMARES AGN",
      "lon": "-7.896042409246991",
      "lat": "40.239769647848824"
    },
    {
      "id": "pt.ine.add.PTCONT.1199328",
      "street": "R ANTÓNIO CASTANHEIRA",
      "house": "",
      "postcode": "3305-265",
      "city": "POMARES AGN",
      "lon": "-7.895700419016601",
      "lat": "40.24011116768626"
    },
    {
      "id": "pt.ine.add.PTCONT.1199329",
      "street": "R ANTÓNIO CASTANHEIRA",
      "house": "",
      "postcode": "3305-265",
      "city": "POMARES AGN",
      "lon": "-7.895947862668876",
      "lat": "40.239922552952024"
    },
    {
      "id": "pt.ine.add.PTCONT.1201248",
      "street": "R ANTÓNIO CASTANHEIRA",
      "house": "",
      "postcode": "3305-265",
      "city": "POMARES AGN",
      "lon": "-7.896089729481548",
      "lat": "40.239679686644415"
    },
    {
      "id": "pt.ine.add.PTCONT.1205690",
      "street": "R JOAQUIM PEDRO",
      "house": "",
      "postcode": "3305-265",
      "city": "POMARES AGN",
      "lon": "-7.895536337189389",
      "lat": "40.23998474962973"
    },
    {
      "id": "pt.ine.add.PTCONT.1207055",
      "street": "R PROF JOSE FERNANDESNOGUEIRA",
      "house": "",
      "postcode": "3305-265",
      "city": "POMARES AGN",
      "lon": "-7.895827957561682",
      "lat": "40.24060674884686"
    },
    {
      "id": "pt.ine.add.PTCONT.1211991",
      "street": "AV ABILIO NUNES BARROSA",
      "house": "",
      "postcode": "3305-265",
      "city": "POMARES AGN",
      "lon": "-7.895862929730325",
      "lat": "40.240687872837334"
    },
    {
      "id": "pt.ine.add.PTCONT.1213645",
      "street": "AV ABILIO NUNES BARROSA",
      "house": "",
      "postcode": "3305-265",
      "city": "POMARES AGN",
      "lon": "-7.8958273602110065",
      "lat": "40.24077785802433"
    },
    {
      "id": "pt.ine.add.PTCONT.1222995",
      "street": "AV ABILIO NUNES BARROSA",
      "house": "",
      "postcode": "3305-265",
      "city": "POMARES AGN",
      "lon": "-7.895862143855124",
      "lat": "40.24091301648823"
    },
    {
      "id": "pt.ine.add.PTCONT.1223239",
      "street": "R JOAQUIM MARQUES",
      "house": "",
      "postcode": "3305-265",
      "city": "POMARES AGN",
      "lon": "-7.896711997008241",
      "lat": "40.23984306393906"
    },
    {
      "id": "pt.ine.add.PTCONT.1225608",
      "street": "R JOAQUIM MARQUES",
      "house": "",
      "postcode": "3305-265",
      "city": "POMARES AGN",
      "lon": "-7.89616969850889",
      "lat": "40.24033727464332"
    },
    {
      "id": "pt.ine.add.PTCONT.1227469",
      "street": "R ANTÓNIO CASTANHEIRA",
      "house": "",
      "postcode": "3305-265",
      "city": "POMARES AGN",
      "lon": "-7.895972088467546",
      "lat": "40.23971546891517"
    },
    {
      "id": "pt.ine.add.PTCONT.1230200",
      "street": "R ANTÓNIO CASTANHEIRA",
      "house": "",
      "postcode": "3305-265",
      "city": "POMARES AGN",
      "lon": "-7.895877196054787",
      "lat": "40.239967437183765"
    },
    {
      "id": "pt.ine.add.PTCONT.1232715",
      "street": "R ANTÓNIO CASTANHEIRA",
      "house": "",
      "postcode": "3305-265",
      "city": "POMARES AGN",
      "lon": "-7.895677293305571",
      "lat": "40.24000305050733"
    },
    {
      "id": "pt.ine.add.PTCONT.1247250",
      "street": "AV DR PADRE ANTÓNIO NOGUEIRA GONÇALVES",
      "house": "",
      "postcode": "3305-265",
      "city": "POMARES AGN",
      "lon": "-7.895407227215885",
      "lat": "40.239939455475614"
    },
    {
      "id": "pt.ine.add.PTCONT.1256148",
      "street": "R PROF JOSE FERNANDESNOGUEIRA",
      "house": "",
      "postcode": "3305-265",
      "city": "POMARES AGN",
      "lon": "-7.895523137559918",
      "lat": "40.24039898985787"
    },
    {
      "id": "pt.ine.add.PTCONT.1264761",
      "street": "R JOAQUIM PEDRO",
      "house": "",
      "postcode": "3305-265",
      "city": "POMARES AGN",
      "lon": "-7.895465922133337",
      "lat": "40.239957587632475"
    },
    {
      "id": "pt.ine.add.PTCONT.1264762",
      "street": "AV DR PADRE ANTÓNIO NOGUEIRA GONÇALVES",
      "house": "",
      "postcode": "3305-265",
      "city": "POMARES AGN",
      "lon": "-7.89638797148029",
      "lat": "40.238401471548265"
    },
    {
      "id": "pt.ine.add.PTCONT.1266731",
      "street": "R ANTÓNIO CASTANHEIRA",
      "house": "",
      "postcode": "3305-265",
      "city": "POMARES AGN",
      "lon": "-7.8962428132552205",
      "lat": "40.23958994192171"
    },
    {
      "id": "pt.ine.add.PTCONT.1266735",
      "street": "R ANTÓNIO CASTANHEIRA",
      "house": "",
      "postcode": "3305-265",
      "city": "POMARES AGN",
      "lon": "-7.895865947408804",
      "lat": "40.23982332113615"
    },
    {
      "id": "pt.ine.add.PTCONT.1270679",
      "street": "R JOAQUIM MARQUES",
      "house": "",
      "postcode": "3305-265",
      "city": "POMARES AGN",
      "lon": "-7.8965463781136025",
      "lat": "40.2401579289509"
    },
    {
      "id": "pt.ine.add.PTCONT.1270682",
      "street": "AV DR PADRE ANTÓNIO NOGUEIRA GONÇALVES",
      "house": "",
      "postcode": "3305-265",
      "city": "POMARES AGN",
      "lon": "-7.895501649104908",
      "lat": "40.23982257380749"
    },
    {
      "id": "pt.ine.add.PTCONT.1276593",
      "street": "R ANTÓNIO CASTANHEIRA",
      "house": "",
      "postcode": "3305-265",
      "city": "POMARES AGN",
      "lon": "-7.895971617176631",
      "lat": "40.23985055513061"
    },
    {
      "id": "pt.ine.add.PTCONT.1280825",
      "street": "R ANTÓNIO CASTANHEIRA",
      "house": "",
      "postcode": "3305-265",
      "city": "POMARES AGN",
      "lon": "-7.896007531574615",
      "lat": "40.23966150665675"
    },
    {
      "id": "pt.ine.add.PTCONT.1293273",
      "street": "R ANTÓNIO CASTANHEIRA",
      "house": "",
      "postcode": "3305-265",
      "city": "POMARES AGN",
      "lon": "-7.895806340697863",
      "lat": "40.24006635585487"
    },
    {
      "id": "pt.ine.add.PTCONT.1306995",
      "street": "AV ABILIO NUNES BARROSA",
      "house": "",
      "postcode": "3305-265",
      "city": "POMARES AGN",
      "lon": "-7.895814193619213",
      "lat": "40.241183092488015"
    },
    {
      "id": "pt.ine.add.PTCONT.1312965",
      "street": "R JOAQUIM MARQUES",
      "house": "",
      "postcode": "3305-265",
      "city": "POMARES AGN",
      "lon": "-7.896004358634661",
      "lat": "40.240571087123676"
    },
    {
      "id": "pt.ine.add.PTCONT.1317125",
      "street": "R JOAQUIM PEDRO",
      "house": "",
      "postcode": "3305-265",
      "city": "POMARES AGN",
      "lon": "-7.895442167052465",
      "lat": "40.24002958534712"
    },
    {
      "id": "pt.ine.add.PTCONT.1318976",
      "street": "AV ABILIO NUNES BARROSA",
      "house": "",
      "postcode": "3305-265",
      "city": "POMARES AGN",
      "lon": "-7.8958029134750936",
      "lat": "40.24104798221004"
    },
    {
      "id": "pt.ine.add.PTCONT.1331485",
      "street": "R ANTÓNIO CASTANHEIRA",
      "house": "",
      "postcode": "3305-265",
      "city": "POMARES AGN",
      "lon": "-7.896266598712926",
      "lat": "40.239508938286065"
    },
    {
      "id": "pt.ine.add.PTCONT.1341726",
      "street": "R ANTÓNIO CASTANHEIRA",
      "house": "",
      "postcode": "3305-265",
      "city": "POMARES AGN",
      "lon": "-7.895795217958565",
      "lat": "40.23988621681365"
    },
    {
      "id": "pt.ine.add.PTCONT.1341727",
      "street": "AV DR PADRE ANTÓNIO NOGUEIRA GONÇALVES",
      "house": "",
      "postcode": "3305-265",
      "city": "POMARES AGN",
      "lon": "-7.895939567678867",
      "lat": "40.23893189656569"
    },
    {
      "id": "pt.ine.add.PTCONT.1344860",
      "street": "R ANTÓNIO CASTANHEIRA",
      "house": "",
      "postcode": "3305-265",
      "city": "POMARES AGN",
      "lon": "-7.895853535711696",
      "lat": "40.24001241774224"
    },
    {
      "id": "pt.ine.add.PTCONT.1345985",
      "street": "AV DR PADRE ANTÓNIO NOGUEIRA GONÇALVES",
      "house": "",
      "postcode": "3305-265",
      "city": "POMARES AGN",
      "lon": "-7.8965166717013915",
      "lat": "40.238563839364474"
    },
    {
      "id": "pt.ine.add.PTCONT.1351951",
      "street": "R JOAQUIM MARQUES",
      "house": "",
      "postcode": "3305-265",
      "city": "POMARES AGN",
      "lon": "-7.896286963958619",
      "lat": "40.24040956114243"
    },
    {
      "id": "pt.ine.add.PTCONT.1351952",
      "street": "R JOAQUIM MARQUES",
      "house": "",
      "postcode": "3305-265",
      "city": "POMARES AGN",
      "lon": "-7.89655891327931",
      "lat": "40.239932809278564"
    },
    {
      "id": "pt.ine.add.PTCONT.1356305",
      "street": "R JOAQUIM MARQUES",
      "house": "",
      "postcode": "3305-265",
      "city": "POMARES AGN",
      "lon": "-7.896570946918666",
      "lat": "40.239851781565314"
    }
  ]
}