{
  "data": {
    "distrito": "Santarém",
    "concelho": "Mação",
    "freguesia": "Carvoeiro",
    "OBJECTID": 557,
    "BGRI2021": "14130400120",
    "DT21": "14",
    "DTMN21": "1413",
    "DTMNFR21": "141304",
    "DTMNFRSEC21": "141304001",
    "SECNUM21": "001",
    "SSNUM21": "20",
    "SECSSNUM21": "00120",
    "OBJECTID_1": 152117,
    "DT": "14",
    "CC": "13",
    "fr": "04",
    "SEC": "001",
    "SS": "20"
  },
  "addresses": [
    {
      "id": "pt.ine.add.PTCONT.4394634",
      "street": "R PEDRO ATOS",
      "house": "71",
      "postcode": "6120-313",
      "city": "CARVOEIRO MAC",
      "lon": "-7.922618370355827",
      "lat": "39.62306095304478"
    },
    {
      "id": "pt.ine.add.PTCONT.4398917",
      "street": "R PEDRO DE MATOS",
      "house": "143",
      "postcode": "6120-313",
      "city": "CARVOEIRO MAC",
      "lon": "-7.92267455729272",
      "lat": "39.623736562874576"
    },
    {
      "id": "pt.ine.add.PTCONT.4400880",
      "street": "R PRINCIPAL",
      "house": "188",
      "postcode": "6120-313",
      "city": "CARVOEIRO MAC",
      "lon": "-7.9229107610276515",
      "lat": "39.62265617757675"
    },
    {
      "id": "pt.ine.add.PTCONT.4413276",
      "street": "R PEDRO PATOS",
      "house": "169",
      "postcode": "6120-313",
      "city": "CARVOEIRO MAC",
      "lon": "-7.922627288369251",
      "lat": "39.62396164657359"
    },
    {
      "id": "pt.ine.add.PTCONT.4415733",
      "street": "R PEDRO MATOS",
      "house": "133",
      "postcode": "6120-313",
      "city": "CARVOEIRO MAC",
      "lon": "-7.922639999196012",
      "lat": "39.62361040544382"
    },
    {
      "id": "pt.ine.add.PTCONT.4419363",
      "street": "R PEDRO DE MATOS",
      "house": "5",
      "postcode": "6120-313",
      "city": "CARVOEIRO MAC",
      "lon": "-7.92277119375223",
      "lat": "39.62259287754612"
    },
    {
      "id": "pt.ine.add.PTCONT.4421430",
      "street": "R BRASIL",
      "house": "50",
      "postcode": "6120-313",
      "city": "CARVOEIRO MAC",
      "lon": "-7.923059687824619",
      "lat": "39.6234760634116"
    },
    {
      "id": "pt.ine.add.PTCONT.4441132",
      "street": "R BRASIL",
      "house": "46",
      "postcode": "6120-313",
      "city": "CARVOEIRO MAC",
      "lon": "-7.923071606755665",
      "lat": "39.62338601722207"
    },
    {
      "id": "pt.ine.add.PTCONT.4471174",
      "street": "R PEDRO ATOS",
      "house": "77",
      "postcode": "6120-313",
      "city": "CARVOEIRO MAC",
      "lon": "-7.922571592990043",
      "lat": "39.62312391570296"
    },
    {
      "id": "pt.ine.add.PTCONT.4472620",
      "street": "R PEDRO DE MATOS",
      "house": "225",
      "postcode": "6120-313",
      "city": "CARVOEIRO MAC",
      "lon": "-7.922975518911774",
      "lat": "39.62434956819343"
    },
    {
      "id": "pt.ine.add.PTCONT.4475087",
      "street": "R PEDRO ATOS",
      "house": "89",
      "postcode": "6120-313",
      "city": "CARVOEIRO MAC",
      "lon": "-7.922606205301013",
      "lat": "39.623232059714326"
    },
    {
      "id": "pt.ine.add.PTCONT.4483651",
      "street": "R PEDRO DE MATOS",
      "house": "205",
      "postcode": "6120-313",
      "city": "CARVOEIRO MAC",
      "lon": "-7.922836329814386",
      "lat": "39.624160174123865"
    },
    {
      "id": "pt.ine.add.PTCONT.4483652",
      "street": "R PEDRO ATOS",
      "house": "123",
      "postcode": "6120-313",
      "city": "CARVOEIRO MAC",
      "lon": "-7.922686940498159",
      "lat": "39.62349340241831"
    },
    {
      "id": "pt.ine.add.PTCONT.4496460",
      "street": "R PEDRO DE MATOS",
      "house": "13",
      "postcode": "6120-313",
      "city": "CARVOEIRO MAC",
      "lon": "-7.922724553203618",
      "lat": "39.62261080664362"
    },
    {
      "id": "pt.ine.add.PTCONT.4506477",
      "street": "R SACO",
      "house": "",
      "postcode": "6120-313",
      "city": "CARVOEIRO MAC",
      "lon": "-7.9227676490307",
      "lat": "39.623763751780004"
    },
    {
      "id": "pt.ine.add.PTCONT.4520542",
      "street": "R PEDRO ATOS",
      "house": "45",
      "postcode": "6120-313",
      "city": "CARVOEIRO MAC",
      "lon": "-7.9226536647592605",
      "lat": "39.62294392891854"
    },
    {
      "id": "pt.ine.add.PTCONT.4523462",
      "street": "LG SARG SOUSA",
      "house": "79",
      "postcode": "6120-313",
      "city": "CARVOEIRO MAC",
      "lon": "-7.923119962701657",
      "lat": "39.62280066429964"
    },
    {
      "id": "pt.ine.add.PTCONT.4529819",
      "street": "R PEDRO DE MATOS",
      "house": "187",
      "postcode": "6120-313",
      "city": "CARVOEIRO MAC",
      "lon": "-7.922627070078682",
      "lat": "39.62403370036175"
    },
    {
      "id": "pt.ine.add.PTCONT.4541655",
      "street": "R SACO",
      "house": "26",
      "postcode": "6120-313",
      "city": "CARVOEIRO MAC",
      "lon": "-7.922849121397273",
      "lat": "39.62378191280864"
    },
    {
      "id": "pt.ine.add.PTCONT.4545870",
      "street": "LG SARG SOUSA",
      "house": "61",
      "postcode": "6120-313",
      "city": "CARVOEIRO MAC",
      "lon": "-7.923154385189492",
      "lat": "39.622971855233764"
    },
    {
      "id": "pt.ine.add.PTCONT.4560003",
      "street": "R PEDRO DE MATOS",
      "house": "193",
      "postcode": "6120-313",
      "city": "CARVOEIRO MAC",
      "lon": "-7.922778368664157",
      "lat": "39.62407000147338"
    },
    {
      "id": "pt.ine.add.PTCONT.4566914",
      "street": "LG SARG SOUSA",
      "house": "73",
      "postcode": "6120-313",
      "city": "CARVOEIRO MAC",
      "lon": "-7.9231547390092665",
      "lat": "39.62285476780212"
    },
    {
      "id": "pt.ine.add.PTCONT.4570536",
      "street": "R PEDRO DE MATOS",
      "house": "163",
      "postcode": "6120-313",
      "city": "CARVOEIRO MAC",
      "lon": "-7.922639153377308",
      "lat": "39.62388961388509"
    },
    {
      "id": "pt.ine.add.PTCONT.4585615",
      "street": "TV ESPÍRITO SANTO",
      "house": "13",
      "postcode": "6120-313",
      "city": "CARVOEIRO MAC",
      "lon": "-7.922933618125674",
      "lat": "39.62280032732955"
    },
    {
      "id": "pt.ine.add.PTCONT.4620471",
      "street": "R BRASIL",
      "house": "36",
      "postcode": "6120-313",
      "city": "CARVOEIRO MAC",
      "lon": "-7.923071851808211",
      "lat": "39.623304956698966"
    },
    {
      "id": "pt.ine.add.PTCONT.4622548",
      "street": "R PEDRO DE MATOS",
      "house": "224",
      "postcode": "6120-313",
      "city": "CARVOEIRO MAC",
      "lon": "-7.922929122461831",
      "lat": "39.62428643685587"
    },
    {
      "id": "pt.ine.add.PTCONT.4622549",
      "street": "R PRINCIPAL",
      "house": "",
      "postcode": "6120-313",
      "city": "CARVOEIRO MAC",
      "lon": "-7.922980449423473",
      "lat": "39.622719351069264"
    },
    {
      "id": "pt.ine.add.PTCONT.4627001",
      "street": "R BRASIL",
      "house": "76",
      "postcode": "6120-313",
      "city": "CARVOEIRO MAC",
      "lon": "-7.923024257657892",
      "lat": "39.623638121273274"
    }
  ]
}