{
  "data": {
    "distrito": "Braga",
    "concelho": "Barcelos",
    "freguesia": "Uni√£o das freguesias de Vila Cova e Feitos",
    "OBJECTID": 1383,
    "BGRI2021": "0302FH00213",
    "DT21": "03",
    "DTMN21": "0302",
    "DTMNFR21": "0302FH",
    "DTMNFRSEC21": "0302FH002",
    "SECNUM21": "002",
    "SSNUM21": "13",
    "SECSSNUM21": "00213",
    "OBJECTID_1": 21262,
    "DT": "03",
    "CC": "02",
    "fr": "FH",
    "SEC": "002",
    "SS": "13"
  },
  "addresses": [
    {
      "id": "pt.ine.add.PTCONT.465193",
      "street": "R SEVERINO CACHADA",
      "house": "154",
      "postcode": "4750-793",
      "city": "VILA COVA BCL",
      "lon": "-8.701766345158411",
      "lat": "41.55864577697033"
    },
    {
      "id": "pt.ine.add.PTCONT.497856",
      "street": "R SEVERINO CACHADA",
      "house": "290",
      "postcode": "4750-793",
      "city": "VILA COVA BCL",
      "lon": "-8.700694069070618",
      "lat": "41.559398382370375"
    },
    {
      "id": "pt.ine.add.PTCONT.530952",
      "street": "R SEVERINO CACHADA",
      "house": "200",
      "postcode": "4750-793",
      "city": "VILA COVA BCL",
      "lon": "-8.701240580642413",
      "lat": "41.558837453726845"
    },
    {
      "id": "pt.ine.add.PTCONT.548494",
      "street": "R SEVERINO CACHADA",
      "house": "534",
      "postcode": "4750-793",
      "city": "VILA COVA BCL",
      "lon": "-8.69874977092835",
      "lat": "41.560506415139045"
    },
    {
      "id": "pt.ine.add.PTCONT.551060",
      "street": "R PADRE ISALINO",
      "house": "347",
      "postcode": "4750-793",
      "city": "VILA COVA BCL",
      "lon": "-8.69678946199054",
      "lat": "41.55840017109942"
    },
    {
      "id": "pt.ine.add.PTCONT.569038",
      "street": "R SEVERINO CACHADA",
      "house": "456",
      "postcode": "4750-793",
      "city": "VILA COVA BCL",
      "lon": "-8.699611903991466",
      "lat": "41.560394126407736"
    },
    {
      "id": "pt.ine.add.PTCONT.582347",
      "street": "R SEVERINO CACHADA",
      "house": "364",
      "postcode": "4750-793",
      "city": "VILA COVA BCL",
      "lon": "-8.700400457676714",
      "lat": "41.56009311648827"
    },
    {
      "id": "pt.ine.add.PTCONT.603948",
      "street": "R SEVERINO CACHADA",
      "house": "116",
      "postcode": "4750-793",
      "city": "VILA COVA BCL",
      "lon": "-8.702398249396275",
      "lat": "41.55825549084342"
    },
    {
      "id": "pt.ine.add.PTCONT.621288",
      "street": "R SEVERINO CACHADA",
      "house": "186",
      "postcode": "4750-793",
      "city": "VILA COVA BCL",
      "lon": "-8.701455239824792",
      "lat": "41.55871034104729"
    },
    {
      "id": "pt.ine.add.PTCONT.638270",
      "street": "R PADRE ISALINO",
      "house": "389",
      "postcode": "4750-793",
      "city": "VILA COVA BCL",
      "lon": "-8.696841008237701",
      "lat": "41.558814088878755"
    },
    {
      "id": "pt.ine.add.PTCONT.651412",
      "street": "R SERRALHEIRA",
      "house": "19",
      "postcode": "4750-793",
      "city": "VILA COVA BCL",
      "lon": "-8.699069748297102",
      "lat": "41.55733553641641"
    },
    {
      "id": "pt.ine.add.PTCONT.663762",
      "street": "R PADRE ISALINO",
      "house": "91",
      "postcode": "4750-793",
      "city": "VILA COVA BCL",
      "lon": "-8.698637053725713",
      "lat": "41.5572026097035"
    },
    {
      "id": "pt.ine.add.PTCONT.667742",
      "street": "R PADRE ISALINO",
      "house": "271",
      "postcode": "4750-793",
      "city": "VILA COVA BCL",
      "lon": "-8.697053797558311",
      "lat": "41.558470904625594"
    },
    {
      "id": "pt.ine.add.PTCONT.689317",
      "street": "R SEVERINO CACHADA",
      "house": "242",
      "postcode": "4750-793",
      "city": "VILA COVA BCL",
      "lon": "-8.70093175933963",
      "lat": "41.55916311253677"
    },
    {
      "id": "pt.ine.add.PTCONT.713255",
      "street": "R ESTREMORA",
      "house": "344",
      "postcode": "4750-793",
      "city": "VILA COVA BCL",
      "lon": "-8.70154419190508",
      "lat": "41.55791757524641"
    },
    {
      "id": "pt.ine.add.PTCONT.787817",
      "street": "R PADRE ISALINO QTA MOINHOS DA SERRA",
      "house": "542",
      "postcode": "4750-793",
      "city": "VILA COVA BCL",
      "lon": "-8.696382980017155",
      "lat": "41.5599057818169"
    },
    {
      "id": "pt.ine.add.PTCONT.820111",
      "street": "R ESTREMORA",
      "house": "22",
      "postcode": "4750-793",
      "city": "VILA COVA BCL",
      "lon": "-8.698522033860568",
      "lat": "41.556383837858"
    },
    {
      "id": "pt.ine.add.PTCONT.832057",
      "street": "R LARGATEIRA",
      "house": "177",
      "postcode": "4750-793",
      "city": "VILA COVA BCL",
      "lon": "-8.698638511027609",
      "lat": "41.56011980317002"
    },
    {
      "id": "pt.ine.add.PTCONT.833029",
      "street": "R ESTREMORA",
      "house": "374",
      "postcode": "4750-793",
      "city": "VILA COVA BCL",
      "lon": "-8.701977528716741",
      "lat": "41.558122517457775"
    },
    {
      "id": "pt.ine.add.PTCONT.848250",
      "street": "VILA COVA",
      "house": "",
      "postcode": "4750-795",
      "city": "VILA COVA BCL",
      "lon": "-8.696817112740092",
      "lat": "41.55882320973297"
    },
    {
      "id": "pt.ine.add.PTCONT.844092",
      "street": "R LARGATEIRA",
      "house": "140",
      "postcode": "4750-793",
      "city": "VILA COVA BCL",
      "lon": "-8.699105222521554",
      "lat": "41.56002746976369"
    }
  ]
}