{
  "data": {
    "distrito": "Braga",
    "concelho": "Barcelos",
    "freguesia": "Uni√£o das freguesias de Vila Cova e Feitos",
    "OBJECTID": 1729,
    "BGRI2021": "0302FH00214",
    "DT21": "03",
    "DTMN21": "0302",
    "DTMNFR21": "0302FH",
    "DTMNFRSEC21": "0302FH002",
    "SECNUM21": "002",
    "SSNUM21": "14",
    "SECSSNUM21": "00214",
    "OBJECTID_1": 20367,
    "DT": "03",
    "CC": "02",
    "fr": "FH",
    "SEC": "002",
    "SS": "14"
  },
  "addresses": [
    {
      "id": "pt.ine.add.PTCONT.461056",
      "street": "R SERRA",
      "house": "787",
      "postcode": "4750-795",
      "city": "VILA COVA BCL",
      "lon": "-8.703508234657978",
      "lat": "41.55906932712621"
    },
    {
      "id": "pt.ine.add.PTCONT.467947",
      "street": "R ENGENHOS",
      "house": "",
      "postcode": "4750-793",
      "city": "VILA COVA BCL",
      "lon": "-8.700896026658082",
      "lat": "41.56055886300881"
    },
    {
      "id": "pt.ine.add.PTCONT.478755",
      "street": "R AGUA LEVADA",
      "house": "322",
      "postcode": "4750-795",
      "city": "VILA COVA BCL",
      "lon": "-8.703367003736368",
      "lat": "41.55936714986217"
    },
    {
      "id": "pt.ine.add.PTCONT.478756",
      "street": "R AGUA LEVADA",
      "house": "322",
      "postcode": "4750-795",
      "city": "VILA COVA BCL",
      "lon": "-8.703367003736368",
      "lat": "41.55936714986217"
    },
    {
      "id": "pt.ine.add.PTCONT.484946",
      "street": "R REGATO",
      "house": "84",
      "postcode": "4750-793",
      "city": "VILA COVA BCL",
      "lon": "-8.702575943559719",
      "lat": "41.55938007403351"
    },
    {
      "id": "pt.ine.add.PTCONT.551061",
      "street": "R SERRA",
      "house": "8",
      "postcode": "4750-795",
      "city": "VILA COVA BCL",
      "lon": "-8.704136130341926",
      "lat": "41.55550074277797"
    },
    {
      "id": "pt.ine.add.PTCONT.555327",
      "street": "R SERRA",
      "house": "735",
      "postcode": "4750-795",
      "city": "VILA COVA BCL",
      "lon": "-8.703928489216658",
      "lat": "41.55914827496704"
    },
    {
      "id": "pt.ine.add.PTCONT.603956",
      "street": "R OUTEIRO",
      "house": "982",
      "postcode": "4750-795",
      "city": "VILA COVA BCL",
      "lon": "-8.704336456064716",
      "lat": "41.55783170807207"
    },
    {
      "id": "pt.ine.add.PTCONT.603957",
      "street": "R SERRA",
      "house": "531",
      "postcode": "4750-795",
      "city": "VILA COVA BCL",
      "lon": "-8.70627983313244",
      "lat": "41.55935266706149"
    },
    {
      "id": "pt.ine.add.PTCONT.618991",
      "street": "R OUTEIRO",
      "house": "1051",
      "postcode": "4750-795",
      "city": "VILA COVA BCL",
      "lon": "-8.705126306044853",
      "lat": "41.557683722243745"
    },
    {
      "id": "pt.ine.add.PTCONT.641338",
      "street": "R MOLEIRA",
      "house": "306",
      "postcode": "4750-793",
      "city": "VILA COVA BCL",
      "lon": "-8.702411286772852",
      "lat": "41.559741037524496"
    },
    {
      "id": "pt.ine.add.PTCONT.651415",
      "street": "R OUTEIRO",
      "house": "997",
      "postcode": "4750-795",
      "city": "VILA COVA BCL",
      "lon": "-8.704383213463439",
      "lat": "41.55769642019136"
    },
    {
      "id": "pt.ine.add.PTCONT.652828",
      "street": "R OUTEIRO",
      "house": "997",
      "postcode": "4750-795",
      "city": "VILA COVA BCL",
      "lon": "-8.704383213463439",
      "lat": "41.55769642019136"
    },
    {
      "id": "pt.ine.add.PTCONT.680814",
      "street": "R SERRA",
      "house": "715",
      "postcode": "4750-795",
      "city": "VILA COVA BCL",
      "lon": "-8.703705410374297",
      "lat": "41.55968060068567"
    },
    {
      "id": "pt.ine.add.PTCONT.686333",
      "street": "R OUTEIRO",
      "house": "799",
      "postcode": "4750-795",
      "city": "VILA COVA BCL",
      "lon": "-8.703465183275055",
      "lat": "41.556899647583194"
    },
    {
      "id": "pt.ine.add.PTCONT.701158",
      "street": "R SERRA",
      "house": "78",
      "postcode": "4750-795",
      "city": "VILA COVA BCL",
      "lon": "-8.704474361706048",
      "lat": "41.55579618502269"
    },
    {
      "id": "pt.ine.add.PTCONT.709174",
      "street": "R INGLESES",
      "house": "1",
      "postcode": "4750-795",
      "city": "VILA COVA BCL",
      "lon": "-8.704889191940724",
      "lat": "41.5579820238545"
    },
    {
      "id": "pt.ine.add.PTCONT.725204",
      "street": "R INGLESES",
      "house": "2",
      "postcode": "4750-795",
      "city": "VILA COVA BCL",
      "lon": "-8.704878871700254",
      "lat": "41.5581711529857"
    },
    {
      "id": "pt.ine.add.PTCONT.755165",
      "street": "R SERRA",
      "house": "386",
      "postcode": "4750-795",
      "city": "VILA COVA BCL",
      "lon": "-8.705395413144858",
      "lat": "41.558294635177575"
    },
    {
      "id": "pt.ine.add.PTCONT.784018",
      "street": "R SERRA",
      "house": "797",
      "postcode": "4750-795",
      "city": "VILA COVA BCL",
      "lon": "-8.703518796515661",
      "lat": "41.55890720805623"
    },
    {
      "id": "pt.ine.add.PTCONT.809437",
      "street": "R AGUA LEVADA",
      "house": "249",
      "postcode": "4750-795",
      "city": "VILA COVA BCL",
      "lon": "-8.703745042263748",
      "lat": "41.55873501510807"
    },
    {
      "id": "pt.ine.add.PTCONT.815783",
      "street": "R ENGENHOS",
      "house": "",
      "postcode": "4750-793",
      "city": "VILA COVA BCL",
      "lon": "-8.701092240501808",
      "lat": "41.559693538469304"
    },
    {
      "id": "pt.ine.add.PTCONT.815784",
      "street": "R SEVERINO CACHADA",
      "house": "265",
      "postcode": "4750-793",
      "city": "VILA COVA BCL",
      "lon": "-8.701052574505077",
      "lat": "41.559270560313266"
    },
    {
      "id": "pt.ine.add.PTCONT.827133",
      "street": "R AGUA LEVADA",
      "house": "213",
      "postcode": "4750-795",
      "city": "VILA COVA BCL",
      "lon": "-8.703957794660628",
      "lat": "41.55839181830638"
    }
  ]
}