{
  "data": {
    "distrito": "Aveiro",
    "concelho": "Vale de Cambra",
    "freguesia": "Macieira de Cambra",
    "OBJECTID": 290,
    "BGRI2021": "01190600401",
    "DT21": "01",
    "DTMN21": "0119",
    "DTMNFR21": "011906",
    "DTMNFRSEC21": "011906004",
    "SECNUM21": "004",
    "SSNUM21": "01",
    "SECSSNUM21": "00401",
    "OBJECTID_1": 12213,
    "DT": "01",
    "CC": "19",
    "fr": "06",
    "SEC": "004",
    "SS": "01"
  },
  "addresses": [
    {
      "id": "pt.ine.add.PTCONT.304879",
      "street": "",
      "house": "",
      "postcode": "3730-313",
      "city": "VALE DE CAMBRA",
      "lon": "-8.384991072473383",
      "lat": "40.86309590491676"
    },
    {
      "id": "pt.ine.add.PTCONT.310370",
      "street": "",
      "house": "",
      "postcode": "3730-271",
      "city": "VALE DE CAMBRA",
      "lon": "-8.387531988975878",
      "lat": "40.860686036470796"
    },
    {
      "id": "pt.ine.add.PTCONT.310371",
      "street": "",
      "house": "",
      "postcode": "3730-271",
      "city": "VALE DE CAMBRA",
      "lon": "-8.387531988975878",
      "lat": "40.860686036470796"
    },
    {
      "id": "pt.ine.add.PTCONT.318617",
      "street": "TV DAS ALMINHAS DA BORBOLGA",
      "house": "7",
      "postcode": "3730-271",
      "city": "VALE DE CAMBRA",
      "lon": "-8.38682442348563",
      "lat": "40.86075034785385"
    },
    {
      "id": "pt.ine.add.PTCONT.326112",
      "street": "",
      "house": "",
      "postcode": "3730-313",
      "city": "VALE DE CAMBRA",
      "lon": "-8.384917416753247",
      "lat": "40.8624387125431"
    },
    {
      "id": "pt.ine.add.PTCONT.15378",
      "street": "",
      "house": "",
      "postcode": "3730-271",
      "city": "VALE DE CAMBRA",
      "lon": "-8.385742136331988",
      "lat": "40.860978125223035"
    },
    {
      "id": "pt.ine.add.PTCONT.16424",
      "street": "",
      "house": "",
      "postcode": "3730-271",
      "city": "VALE DE CAMBRA",
      "lon": "-8.38544715837791",
      "lat": "40.86138398870348"
    },
    {
      "id": "pt.ine.add.PTCONT.16425",
      "street": "",
      "house": "",
      "postcode": "3730-271",
      "city": "VALE DE CAMBRA",
      "lon": "-8.38639399083308",
      "lat": "40.86085062798184"
    },
    {
      "id": "pt.ine.add.PTCONT.20598",
      "street": "",
      "house": "",
      "postcode": "3730-271",
      "city": "VALE DE CAMBRA",
      "lon": "-8.386275590464038",
      "lat": "40.86090491694453"
    },
    {
      "id": "pt.ine.add.PTCONT.28785",
      "street": "",
      "house": "",
      "postcode": "3730-313",
      "city": "VALE DE CAMBRA",
      "lon": "-8.385682671427578",
      "lat": "40.86405791019921"
    },
    {
      "id": "pt.ine.add.PTCONT.36871",
      "street": "",
      "house": "",
      "postcode": "3730-271",
      "city": "VALE DE CAMBRA",
      "lon": "-8.385305581346255",
      "lat": "40.861582404805866"
    },
    {
      "id": "pt.ine.add.PTCONT.39755",
      "street": "",
      "house": "",
      "postcode": "3730-313",
      "city": "VALE DE CAMBRA",
      "lon": "-8.385295564958795",
      "lat": "40.862068688042534"
    },
    {
      "id": "pt.ine.add.PTCONT.45160",
      "street": "",
      "house": "",
      "postcode": "3730-313",
      "city": "VALE DE CAMBRA",
      "lon": "-8.386288826178808",
      "lat": "40.86438075544622"
    },
    {
      "id": "pt.ine.add.PTCONT.45161",
      "street": "",
      "house": "",
      "postcode": "3730-313",
      "city": "VALE DE CAMBRA",
      "lon": "-8.384752795696427",
      "lat": "40.86281727500038"
    },
    {
      "id": "pt.ine.add.PTCONT.88528",
      "street": "R NOVA DE TAGIM",
      "house": "16",
      "postcode": "3730-271",
      "city": "VALE DE CAMBRA",
      "lon": "-8.386428762242558",
      "lat": "40.860589269856284"
    },
    {
      "id": "pt.ine.add.PTCONT.93371",
      "street": "",
      "house": "",
      "postcode": "3730-313",
      "city": "VALE DE CAMBRA",
      "lon": "-8.385778039999135",
      "lat": "40.86418376904245"
    },
    {
      "id": "pt.ine.add.PTCONT.125539",
      "street": "",
      "house": "",
      "postcode": "3730-313",
      "city": "VALE DE CAMBRA",
      "lon": "-8.385237046210502",
      "lat": "40.862275927262075"
    },
    {
      "id": "pt.ine.add.PTCONT.133441",
      "street": "",
      "house": "",
      "postcode": "3730-313",
      "city": "VALE DE CAMBRA",
      "lon": "-8.385167144134996",
      "lat": "40.8626092590581"
    },
    {
      "id": "pt.ine.add.PTCONT.144080",
      "street": "",
      "house": "",
      "postcode": "3730-271",
      "city": "VALE DE CAMBRA",
      "lon": "-8.38530452252174",
      "lat": "40.861303257074866"
    },
    {
      "id": "pt.ine.add.PTCONT.144659",
      "street": "",
      "house": "",
      "postcode": "3730-313",
      "city": "VALE DE CAMBRA",
      "lon": "-8.385504822075564",
      "lat": "40.86407630915642"
    },
    {
      "id": "pt.ine.add.PTCONT.147423",
      "street": "",
      "house": "",
      "postcode": "3730-271",
      "city": "VALE DE CAMBRA",
      "lon": "-8.386251115000274",
      "lat": "40.86070686415482"
    },
    {
      "id": "pt.ine.add.PTCONT.174665",
      "street": "",
      "house": "",
      "postcode": "3730-271",
      "city": "VALE DE CAMBRA",
      "lon": "-8.387282400492362",
      "lat": "40.860551514077336"
    },
    {
      "id": "pt.ine.add.PTCONT.179702",
      "street": "",
      "house": "",
      "postcode": "3730-271",
      "city": "VALE DE CAMBRA",
      "lon": "-8.385424120403489",
      "lat": "40.861564135900444"
    },
    {
      "id": "pt.ine.add.PTCONT.181857",
      "street": "",
      "house": "",
      "postcode": "3730-271",
      "city": "VALE DE CAMBRA",
      "lon": "-8.386168262276243",
      "lat": "40.86075207015225"
    },
    {
      "id": "pt.ine.add.PTCONT.197587",
      "street": "",
      "house": "",
      "postcode": "3730-271",
      "city": "VALE DE CAMBRA",
      "lon": "-8.385412943075657",
      "lat": "40.86174425714561"
    },
    {
      "id": "pt.ine.add.PTCONT.221638",
      "street": "QTA UCHA",
      "house": "",
      "postcode": "3730-313",
      "city": "VALE DE CAMBRA",
      "lon": "-8.384718064759918",
      "lat": "40.86304247171034"
    },
    {
      "id": "pt.ine.add.PTCONT.221646",
      "street": "",
      "house": "",
      "postcode": "3730-271",
      "city": "VALE DE CAMBRA",
      "lon": "-8.386816815262218",
      "lat": "40.859760112930445"
    },
    {
      "id": "pt.ine.add.PTCONT.247449",
      "street": "",
      "house": "",
      "postcode": "3730-313",
      "city": "VALE DE CAMBRA",
      "lon": "-8.384835208738245",
      "lat": "40.862655008095444"
    },
    {
      "id": "pt.ine.add.PTCONT.267550",
      "street": "",
      "house": "",
      "postcode": "3730-313",
      "city": "VALE DE CAMBRA",
      "lon": "-8.38480300079269",
      "lat": "40.86354655730427"
    },
    {
      "id": "pt.ine.add.PTCONT.283550",
      "street": "",
      "house": "",
      "postcode": "3730-313",
      "city": "VALE DE CAMBRA",
      "lon": "-8.386005218327123",
      "lat": "40.86466052747635"
    }
  ]
}