{
  "data": {
    "distrito": "Viseu",
    "concelho": "Vouzela",
    "freguesia": "União das freguesias de Fataunços e Figueiredo das Donas",
    "OBJECTID": 252,
    "BGRI2021": "18241400124",
    "DT21": "18",
    "DTMN21": "1824",
    "DTMNFR21": "182414",
    "DTMNFRSEC21": "182414001",
    "SECNUM21": "001",
    "SSNUM21": "24",
    "SECSSNUM21": "00124",
    "OBJECTID_1": 203252,
    "DT": "18",
    "CC": "24",
    "fr": "14",
    "SEC": "001",
    "SS": "24"
  },
  "addresses": [
    {
      "id": "pt.ine.add.PTCONT.5450706",
      "street": "R S MARGARIDA DE CIMA",
      "house": "140",
      "postcode": "3670-095",
      "city": "FATAÚNÇOS",
      "lon": "-8.078174084943036",
      "lat": "40.72586114248838"
    },
    {
      "id": "pt.ine.add.PTCONT.5492091",
      "street": "R ESCOLA",
      "house": "",
      "postcode": "3670-095",
      "city": "FATAÚNÇOS",
      "lon": "-8.079676498757829",
      "lat": "40.72692444523957"
    },
    {
      "id": "pt.ine.add.PTCONT.5495352",
      "street": "R ESCOLA QTA DO LUIZINHO",
      "house": "",
      "postcode": "3670-095",
      "city": "FATAÚNÇOS",
      "lon": "-8.078291454680022",
      "lat": "40.72707688187737"
    },
    {
      "id": "pt.ine.add.PTCONT.5530632",
      "street": "R PE FILINTO RAMALHO",
      "house": "58",
      "postcode": "3670-095",
      "city": "FATAÚNÇOS",
      "lon": "-8.079806640107645",
      "lat": "40.727005550973246"
    },
    {
      "id": "pt.ine.add.PTCONT.5535804",
      "street": "R STA MARGARIDA",
      "house": "13",
      "postcode": "3670-095",
      "city": "FATAÚNÇOS",
      "lon": "-8.077084668604462",
      "lat": "40.72638291261437"
    },
    {
      "id": "pt.ine.add.PTCONT.5564226",
      "street": "R PADRE FILINTO RAMALHO",
      "house": "",
      "postcode": "3670-095",
      "city": "FATAÚNÇOS",
      "lon": "-8.079156249224953",
      "lat": "40.72621280323251"
    },
    {
      "id": "pt.ine.add.PTCONT.5577886",
      "street": "R STA MARGARIDA",
      "house": "7",
      "postcode": "3670-095",
      "city": "FATAÚNÇOS",
      "lon": "-8.077345266413891",
      "lat": "40.726157912200435"
    },
    {
      "id": "pt.ine.add.PTCONT.5587159",
      "street": "R STA MARGARIDA",
      "house": "17",
      "postcode": "3670-095",
      "city": "FATAÚNÇOS",
      "lon": "-8.077285676231417",
      "lat": "40.72664415683951"
    },
    {
      "id": "pt.ine.add.PTCONT.5600115",
      "street": "R STA MARGARIDA",
      "house": "19",
      "postcode": "3670-095",
      "city": "FATAÚNÇOS",
      "lon": "-8.077640550259254",
      "lat": "40.72692348486825"
    }
  ]
}