{
  "data": {
    "distrito": "Porto",
    "concelho": "Amarante",
    "freguesia": "União das freguesias de Amarante (São Gonçalo), Madalena, Cepelos e Gatão",
    "OBJECTID": 1303,
    "BGRI2021": "13014200405",
    "DT21": "13",
    "DTMN21": "1301",
    "DTMNFR21": "130142",
    "DTMNFRSEC21": "130142004",
    "SECNUM21": "004",
    "SSNUM21": "05",
    "SECSSNUM21": "00405",
    "OBJECTID_1": 125730,
    "DT": "13",
    "CC": "01",
    "fr": "42",
    "SEC": "004",
    "SS": "05"
  },
  "addresses": [
    {
      "id": "pt.ine.add.PTCONT.3543052",
      "street": "R ARQUEOLOGO JOSE PINHO",
      "house": "74",
      "postcode": "4600-051",
      "city": "AMARANTE",
      "lon": "-8.069142653843333",
      "lat": "41.26685530271576"
    },
    {
      "id": "pt.ine.add.PTCONT.3543053",
      "street": "R ARQUEOLOGO JOSE PINHO",
      "house": "5 B",
      "postcode": "4600-051",
      "city": "AMARANTE",
      "lon": "-8.069142653843333",
      "lat": "41.26685530271576"
    },
    {
      "id": "pt.ine.add.PTCONT.3546239",
      "street": "R ARQUEOLOGO JOSE PINHO",
      "house": "226",
      "postcode": "4600-051",
      "city": "AMARANTE",
      "lon": "-8.069190749411929",
      "lat": "41.266486156533865"
    },
    {
      "id": "pt.ine.add.PTCONT.3552949",
      "street": "R ARQUEOLOGO JOSE PINHO",
      "house": "94",
      "postcode": "4600-051",
      "city": "AMARANTE",
      "lon": "-8.068951870277568",
      "lat": "41.26669312066084"
    },
    {
      "id": "pt.ine.add.PTCONT.3552950",
      "street": "R ARQUEOLOGO JOSE PINHO",
      "house": "94",
      "postcode": "4600-051",
      "city": "AMARANTE",
      "lon": "-8.068951870277568",
      "lat": "41.26669312066084"
    },
    {
      "id": "pt.ine.add.PTCONT.3559610",
      "street": "R ARQUEOLOGO JOSE PINHO",
      "house": "42",
      "postcode": "4600-051",
      "city": "AMARANTE",
      "lon": "-8.069381130250722",
      "lat": "41.26706253194004"
    },
    {
      "id": "pt.ine.add.PTCONT.3559611",
      "street": "R ARQUEOLOGO JOSE PINHO",
      "house": "3B",
      "postcode": "4600-051",
      "city": "AMARANTE",
      "lon": "-8.069381130250722",
      "lat": "41.26706253194004"
    },
    {
      "id": "pt.ine.add.PTCONT.3559615",
      "street": "R ESTRADA REAL",
      "house": "325",
      "postcode": "4600-078",
      "city": "AMARANTE",
      "lon": "-8.070742308973152",
      "lat": "41.26631592731658"
    },
    {
      "id": "pt.ine.add.PTCONT.3559616",
      "street": "R ESTRADA REAL",
      "house": "211",
      "postcode": "4600-078",
      "city": "AMARANTE",
      "lon": "-8.070742308973152",
      "lat": "41.26631592731658"
    },
    {
      "id": "pt.ine.add.PTCONT.3559617",
      "street": "R ESTRADA REAL",
      "house": "211",
      "postcode": "4600-078",
      "city": "AMARANTE",
      "lon": "-8.070742308973152",
      "lat": "41.26631592731658"
    },
    {
      "id": "pt.ine.add.PTCONT.3559618",
      "street": "R ESTRADA REAL",
      "house": "325",
      "postcode": "4600-078",
      "city": "AMARANTE",
      "lon": "-8.070742308973152",
      "lat": "41.26631592731658"
    },
    {
      "id": "pt.ine.add.PTCONT.3559619",
      "street": "R ESTRADA REAL",
      "house": "211",
      "postcode": "4600-078",
      "city": "AMARANTE",
      "lon": "-8.070742308973152",
      "lat": "41.26631592731658"
    },
    {
      "id": "pt.ine.add.PTCONT.3591648",
      "street": "R ACACIO LINO",
      "house": "47",
      "postcode": "4600-045",
      "city": "AMARANTE",
      "lon": "-8.070323556784079",
      "lat": "41.2674322225821"
    },
    {
      "id": "pt.ine.add.PTCONT.3591704",
      "street": "R ARQUEOLOGO JOSE PINHO",
      "house": "104",
      "postcode": "4600-051",
      "city": "AMARANTE",
      "lon": "-8.06886837739221",
      "lat": "41.26664805302079"
    },
    {
      "id": "pt.ine.add.PTCONT.3591705",
      "street": "R ARQUEOLOGO JOSE PINHO",
      "house": "106",
      "postcode": "4600-051",
      "city": "AMARANTE",
      "lon": "-8.06886837739221",
      "lat": "41.26664805302079"
    },
    {
      "id": "pt.ine.add.PTCONT.3649150",
      "street": "R ESTRADA REAL",
      "house": "107",
      "postcode": "4600-078",
      "city": "AMARANTE",
      "lon": "-8.071457963758666",
      "lat": "41.266712498308735"
    },
    {
      "id": "pt.ine.add.PTCONT.3654599",
      "street": "R ESTRADA REAL",
      "house": "107",
      "postcode": "4600-078",
      "city": "AMARANTE",
      "lon": "-8.071457963758666",
      "lat": "41.266712498308735"
    },
    {
      "id": "pt.ine.add.PTCONT.3668913",
      "street": "R ACÁCIO LINO HOTEL AMARANTO",
      "house": "333",
      "postcode": "4600-045",
      "city": "AMARANTE",
      "lon": "-8.072125480952051",
      "lat": "41.2675502459199"
    },
    {
      "id": "pt.ine.add.PTCONT.3673865",
      "street": "R ACÁCIO LINO HOTEL AMARANTO",
      "house": "333",
      "postcode": "4600-045",
      "city": "AMARANTE",
      "lon": "-8.072125480952051",
      "lat": "41.2675502459199"
    },
    {
      "id": "pt.ine.add.PTCONT.3676169",
      "street": "R ARQUEOLOGO JOSE PINHO",
      "house": "54",
      "postcode": "4600-051",
      "city": "AMARANTE",
      "lon": "-8.069261887472976",
      "lat": "41.26696341949621"
    },
    {
      "id": "pt.ine.add.PTCONT.3720881",
      "street": "R ACACIO LINO",
      "house": "327",
      "postcode": "4600-045",
      "city": "AMARANTE",
      "lon": "-8.07205410332737",
      "lat": "41.267307094264964"
    },
    {
      "id": "pt.ine.add.PTCONT.3720884",
      "street": "R ACACIO LINO",
      "house": "327",
      "postcode": "4600-045",
      "city": "AMARANTE",
      "lon": "-8.07205410332737",
      "lat": "41.267307094264964"
    },
    {
      "id": "pt.ine.add.PTCONT.3720885",
      "street": "R ACACIO LINO",
      "house": "327",
      "postcode": "4600-045",
      "city": "AMARANTE",
      "lon": "-8.07205410332737",
      "lat": "41.267307094264964"
    },
    {
      "id": "pt.ine.add.PTCONT.3720886",
      "street": "R ACACIO LINO",
      "house": "327",
      "postcode": "4600-045",
      "city": "AMARANTE",
      "lon": "-8.07205410332737",
      "lat": "41.267307094264964"
    },
    {
      "id": "pt.ine.add.PTCONT.3720887",
      "street": "R ACACIO LINO",
      "house": "327",
      "postcode": "4600-045",
      "city": "AMARANTE",
      "lon": "-8.07205410332737",
      "lat": "41.267307094264964"
    },
    {
      "id": "pt.ine.add.PTCONT.3720888",
      "street": "R ACACIO LINO",
      "house": "327",
      "postcode": "4600-045",
      "city": "AMARANTE",
      "lon": "-8.07205410332737",
      "lat": "41.267307094264964"
    },
    {
      "id": "pt.ine.add.PTCONT.3720889",
      "street": "R ACACIO LINO",
      "house": "327",
      "postcode": "4600-045",
      "city": "AMARANTE",
      "lon": "-8.07205410332737",
      "lat": "41.267307094264964"
    },
    {
      "id": "pt.ine.add.PTCONT.3720890",
      "street": "R ACACIO LINO",
      "house": "327",
      "postcode": "4600-045",
      "city": "AMARANTE",
      "lon": "-8.07205410332737",
      "lat": "41.267307094264964"
    },
    {
      "id": "pt.ine.add.PTCONT.3745051",
      "street": "R ESTRADA REAL",
      "house": "",
      "postcode": "4600-078",
      "city": "AMARANTE",
      "lon": "-8.070885454623536",
      "lat": "41.266379034289606"
    },
    {
      "id": "pt.ine.add.PTCONT.3753537",
      "street": "R ACACIO LINO",
      "house": "15",
      "postcode": "4600-045",
      "city": "AMARANTE",
      "lon": "-8.070037426874412",
      "lat": "41.26713492706614"
    },
    {
      "id": "pt.ine.add.PTCONT.3759570",
      "street": "R ESTRADA REAL",
      "house": "155",
      "postcode": "4600-078",
      "city": "AMARANTE",
      "lon": "-8.07113592824947",
      "lat": "41.26652323686029"
    },
    {
      "id": "pt.ine.add.PTCONT.3759571",
      "street": "R ESTRADA REAL",
      "house": "155",
      "postcode": "4600-078",
      "city": "AMARANTE",
      "lon": "-8.07113592824947",
      "lat": "41.26652323686029"
    },
    {
      "id": "pt.ine.add.PTCONT.3759572",
      "street": "R ESTRADA REAL",
      "house": "155",
      "postcode": "4600-078",
      "city": "AMARANTE",
      "lon": "-8.07113592824947",
      "lat": "41.26652323686029"
    },
    {
      "id": "pt.ine.add.PTCONT.3759573",
      "street": "R ESTRADA REAL",
      "house": "155",
      "postcode": "4600-078",
      "city": "AMARANTE",
      "lon": "-8.07113592824947",
      "lat": "41.26652323686029"
    },
    {
      "id": "pt.ine.add.PTCONT.3815943",
      "street": "R ACACIO LINO",
      "house": "33",
      "postcode": "4600-045",
      "city": "AMARANTE",
      "lon": "-8.070204363758814",
      "lat": "41.26727908585206"
    },
    {
      "id": "pt.ine.add.PTCONT.3840791",
      "street": "R ACACIO LINO",
      "house": "169",
      "postcode": "4600-045",
      "city": "AMARANTE",
      "lon": "-8.070657871617517",
      "lat": "41.26726132430552"
    },
    {
      "id": "pt.ine.add.PTCONT.3946947",
      "street": "R ACACIO LINO",
      "house": "225",
      "postcode": "4600-045",
      "city": "AMARANTE",
      "lon": "-8.071111958390421",
      "lat": "41.26663127456066"
    },
    {
      "id": "pt.ine.add.PTCONT.3946948",
      "street": "R ACACIO LINO",
      "house": "225",
      "postcode": "4600-045",
      "city": "AMARANTE",
      "lon": "-8.071111958390421",
      "lat": "41.26663127456066"
    },
    {
      "id": "pt.ine.add.PTCONT.3946949",
      "street": "R ACACIO LINO",
      "house": "225",
      "postcode": "4600-045",
      "city": "AMARANTE",
      "lon": "-8.071111958390421",
      "lat": "41.26663127456066"
    },
    {
      "id": "pt.ine.add.PTCONT.3946950",
      "street": "R ACACIO LINO",
      "house": "225",
      "postcode": "4600-045",
      "city": "AMARANTE",
      "lon": "-8.071111958390421",
      "lat": "41.26663127456066"
    },
    {
      "id": "pt.ine.add.PTCONT.3946951",
      "street": "R ACACIO LINO",
      "house": "225",
      "postcode": "4600-045",
      "city": "AMARANTE",
      "lon": "-8.071111958390421",
      "lat": "41.26663127456066"
    },
    {
      "id": "pt.ine.add.PTCONT.3946952",
      "street": "R ACACIO LINO",
      "house": "225",
      "postcode": "4600-045",
      "city": "AMARANTE",
      "lon": "-8.071111958390421",
      "lat": "41.26663127456066"
    },
    {
      "id": "pt.ine.add.PTCONT.3946989",
      "street": "R ACACIO LINO",
      "house": "225",
      "postcode": "4600-045",
      "city": "AMARANTE",
      "lon": "-8.071111958390421",
      "lat": "41.26663127456066"
    },
    {
      "id": "pt.ine.add.PTCONT.3946990",
      "street": "R ACACIO LINO",
      "house": "225",
      "postcode": "4600-045",
      "city": "AMARANTE",
      "lon": "-8.071111958390421",
      "lat": "41.26663127456066"
    },
    {
      "id": "pt.ine.add.PTCONT.3946991",
      "street": "R ACACIO LINO",
      "house": "225",
      "postcode": "4600-045",
      "city": "AMARANTE",
      "lon": "-8.071111958390421",
      "lat": "41.26663127456066"
    },
    {
      "id": "pt.ine.add.PTCONT.3946992",
      "street": "R ACACIO LINO",
      "house": "225",
      "postcode": "4600-045",
      "city": "AMARANTE",
      "lon": "-8.071111958390421",
      "lat": "41.26663127456066"
    },
    {
      "id": "pt.ine.add.PTCONT.3946993",
      "street": "R ACACIO LINO",
      "house": "225",
      "postcode": "4600-045",
      "city": "AMARANTE",
      "lon": "-8.071111958390421",
      "lat": "41.26663127456066"
    },
    {
      "id": "pt.ine.add.PTCONT.3946994",
      "street": "R ACACIO LINO",
      "house": "225",
      "postcode": "4600-045",
      "city": "AMARANTE",
      "lon": "-8.071111958390421",
      "lat": "41.26663127456066"
    },
    {
      "id": "pt.ine.add.PTCONT.3946995",
      "street": "R ACACIO LINO",
      "house": "225",
      "postcode": "4600-045",
      "city": "AMARANTE",
      "lon": "-8.071111958390421",
      "lat": "41.26663127456066"
    },
    {
      "id": "pt.ine.add.PTCONT.3946996",
      "street": "R ACACIO LINO",
      "house": "225",
      "postcode": "4600-045",
      "city": "AMARANTE",
      "lon": "-8.071111958390421",
      "lat": "41.26663127456066"
    },
    {
      "id": "pt.ine.add.PTCONT.3946997",
      "street": "R ACACIO LINO",
      "house": "225",
      "postcode": "4600-045",
      "city": "AMARANTE",
      "lon": "-8.071111958390421",
      "lat": "41.26663127456066"
    },
    {
      "id": "pt.ine.add.PTCONT.3946998",
      "street": "R ACACIO LINO",
      "house": "225",
      "postcode": "4600-045",
      "city": "AMARANTE",
      "lon": "-8.071111958390421",
      "lat": "41.26663127456066"
    },
    {
      "id": "pt.ine.add.PTCONT.3946999",
      "street": "R ACACIO LINO",
      "house": "225",
      "postcode": "4600-045",
      "city": "AMARANTE",
      "lon": "-8.071111958390421",
      "lat": "41.26663127456066"
    },
    {
      "id": "pt.ine.add.PTCONT.3947000",
      "street": "R ACACIO LINO",
      "house": "225",
      "postcode": "4600-045",
      "city": "AMARANTE",
      "lon": "-8.071111958390421",
      "lat": "41.26663127456066"
    },
    {
      "id": "pt.ine.add.PTCONT.3951951",
      "street": "R ACACIO LINO",
      "house": "225",
      "postcode": "4600-045",
      "city": "AMARANTE",
      "lon": "-8.071111958390421",
      "lat": "41.26663127456066"
    },
    {
      "id": "pt.ine.add.PTCONT.4024086",
      "street": "R ARQUEOLOGO JOSE PINHO",
      "house": "244",
      "postcode": "4600-051",
      "city": "AMARANTE",
      "lon": "-8.069286088465432",
      "lat": "41.26662127267927"
    },
    {
      "id": "pt.ine.add.PTCONT.4056711",
      "street": "R ARQUEOLOGO JOSE PINHO",
      "house": "",
      "postcode": "4600-051",
      "city": "AMARANTE",
      "lon": "-8.06907108570292",
      "lat": "41.26681924606508"
    },
    {
      "id": "pt.ine.add.PTCONT.4056712",
      "street": "R ARQUEOLOGO JOSE PINHO",
      "house": "",
      "postcode": "4600-051",
      "city": "AMARANTE",
      "lon": "-8.06907108570292",
      "lat": "41.26681924606508"
    },
    {
      "id": "pt.ine.add.PTCONT.4083187",
      "street": "R ACACIO LINO",
      "house": "93",
      "postcode": "4600-045",
      "city": "AMARANTE",
      "lon": "-8.070526322907375",
      "lat": "41.267549387780406"
    },
    {
      "id": "pt.ine.add.PTCONT.4083193",
      "street": "R ACACIO LINO",
      "house": "293",
      "postcode": "4600-045",
      "city": "AMARANTE",
      "lon": "-8.071803683639613",
      "lat": "41.26709986422576"
    },
    {
      "id": "pt.ine.add.PTCONT.4083194",
      "street": "R ACACIO LINO",
      "house": "R C",
      "postcode": "4600-045",
      "city": "AMARANTE",
      "lon": "-8.071803683639613",
      "lat": "41.26709986422576"
    },
    {
      "id": "pt.ine.add.PTCONT.4083195",
      "street": "R ACACIO LINO",
      "house": "293",
      "postcode": "4600-045",
      "city": "AMARANTE",
      "lon": "-8.071803683639613",
      "lat": "41.26709986422576"
    },
    {
      "id": "pt.ine.add.PTCONT.4083196",
      "street": "R ACACIO LINO",
      "house": "293",
      "postcode": "4600-045",
      "city": "AMARANTE",
      "lon": "-8.071803683639613",
      "lat": "41.26709986422576"
    },
    {
      "id": "pt.ine.add.PTCONT.4083201",
      "street": "R ACACIO LINO",
      "house": "293",
      "postcode": "4600-045",
      "city": "AMARANTE",
      "lon": "-8.071803683639613",
      "lat": "41.26709986422576"
    },
    {
      "id": "pt.ine.add.PTCONT.4083202",
      "street": "R ACACIO LINO",
      "house": "2",
      "postcode": "4600-045",
      "city": "AMARANTE",
      "lon": "-8.071803683639613",
      "lat": "41.26709986422576"
    },
    {
      "id": "pt.ine.add.PTCONT.4083203",
      "street": "R ACACIO LINO",
      "house": "293",
      "postcode": "4600-045",
      "city": "AMARANTE",
      "lon": "-8.071803683639613",
      "lat": "41.26709986422576"
    },
    {
      "id": "pt.ine.add.PTCONT.4148799",
      "street": "R ESTRADA REAL",
      "house": "141",
      "postcode": "4600-078",
      "city": "AMARANTE",
      "lon": "-8.071291000079489",
      "lat": "41.2665953539629"
    },
    {
      "id": "pt.ine.add.PTCONT.4214257",
      "street": "R ACACIO LINO",
      "house": "54",
      "postcode": "4600-045",
      "city": "AMARANTE",
      "lon": "-8.070479197734592",
      "lat": "41.266910062815604"
    },
    {
      "id": "pt.ine.add.PTCONT.4277262",
      "street": "R ACACIO LINO",
      "house": "143",
      "postcode": "4600-045",
      "city": "AMARANTE",
      "lon": "-8.070800916531981",
      "lat": "41.26743248190884"
    },
    {
      "id": "pt.ine.add.PTCONT.4286652",
      "street": "R ACACIO LINO",
      "house": "47",
      "postcode": "4600-045",
      "city": "AMARANTE",
      "lon": "-8.070765911058837",
      "lat": "41.266595070834484"
    },
    {
      "id": "pt.ine.add.PTCONT.4286703",
      "street": "R ACACIO LINO",
      "house": "315",
      "postcode": "4600-045",
      "city": "AMARANTE",
      "lon": "-8.071958723966038",
      "lat": "41.26720799726992"
    },
    {
      "id": "pt.ine.add.PTCONT.4286704",
      "street": "R ACACIO LINO",
      "house": "315",
      "postcode": "4600-045",
      "city": "AMARANTE",
      "lon": "-8.071958723966038",
      "lat": "41.26720799726992"
    },
    {
      "id": "pt.ine.add.PTCONT.4286705",
      "street": "R ACACIO LINO",
      "house": "315",
      "postcode": "4600-045",
      "city": "AMARANTE",
      "lon": "-8.071958723966038",
      "lat": "41.26720799726992"
    },
    {
      "id": "pt.ine.add.PTCONT.4286706",
      "street": "R ACACIO LINO",
      "house": "315",
      "postcode": "4600-045",
      "city": "AMARANTE",
      "lon": "-8.071958723966038",
      "lat": "41.26720799726992"
    },
    {
      "id": "pt.ine.add.PTCONT.4292207",
      "street": "R ACACIO LINO",
      "house": "315",
      "postcode": "4600-045",
      "city": "AMARANTE",
      "lon": "-8.071958723966038",
      "lat": "41.26720799726992"
    },
    {
      "id": "pt.ine.add.PTCONT.4292476",
      "street": "R ACACIO LINO",
      "house": "315",
      "postcode": "4600-045",
      "city": "AMARANTE",
      "lon": "-8.071958723966038",
      "lat": "41.26720799726992"
    },
    {
      "id": "pt.ine.add.PTCONT.4354252",
      "street": "R ARQUEOLOGO JOSE PINHO",
      "house": "20",
      "postcode": "4600-051",
      "city": "AMARANTE",
      "lon": "-8.069524328628944",
      "lat": "41.26707161532899"
    },
    {
      "id": "pt.ine.add.PTCONT.4354253",
      "street": "R ARQUEOLOGO JOSE PINHO",
      "house": "26",
      "postcode": "4600-051",
      "city": "AMARANTE",
      "lon": "-8.069524328628944",
      "lat": "41.26707161532899"
    }
  ]
}