{
  "data": {
    "distrito": "Porto",
    "concelho": "Amarante",
    "freguesia": "União das freguesias de Amarante (São Gonçalo), Madalena, Cepelos e Gatão",
    "OBJECTID": 829,
    "BGRI2021": "13014200409",
    "DT21": "13",
    "DTMN21": "1301",
    "DTMNFR21": "130142",
    "DTMNFRSEC21": "130142004",
    "SECNUM21": "004",
    "SSNUM21": "09",
    "SECSSNUM21": "00409",
    "OBJECTID_1": 125533,
    "DT": "13",
    "CC": "01",
    "fr": "42",
    "SEC": "004",
    "SS": "09"
  },
  "addresses": [
    {
      "id": "pt.ine.add.PTCONT.3559612",
      "street": "TV MURTAS",
      "house": "68",
      "postcode": "4600-109",
      "city": "AMARANTE",
      "lon": "-8.07119437257733",
      "lat": "41.26781987543087"
    },
    {
      "id": "pt.ine.add.PTCONT.3565910",
      "street": "R ACACIO LINO",
      "house": "122",
      "postcode": "4600-045",
      "city": "AMARANTE",
      "lon": "-8.070955844986367",
      "lat": "41.2676576710378"
    },
    {
      "id": "pt.ine.add.PTCONT.3581282",
      "street": "TV MURTAS",
      "house": "53",
      "postcode": "4600-109",
      "city": "AMARANTE",
      "lon": "-8.071528653282005",
      "lat": "41.26768499148041"
    },
    {
      "id": "pt.ine.add.PTCONT.3614343",
      "street": "PCT ALBANO SARDOEIRA",
      "house": "59",
      "postcode": "4600-039",
      "city": "AMARANTE",
      "lon": "-8.070012700849885",
      "lat": "41.26802633085176"
    },
    {
      "id": "pt.ine.add.PTCONT.3614344",
      "street": "R ACACIO LINO",
      "house": "180",
      "postcode": "4600-045",
      "city": "AMARANTE",
      "lon": "-8.070883719312656",
      "lat": "41.26820688919171"
    },
    {
      "id": "pt.ine.add.PTCONT.3649151",
      "street": "R MOTA ALVES",
      "house": "354",
      "postcode": "4600-092",
      "city": "AMARANTE",
      "lon": "-8.070835931441714",
      "lat": "41.26826088864117"
    },
    {
      "id": "pt.ine.add.PTCONT.3657673",
      "street": "R ACACIO LINO",
      "house": "104",
      "postcode": "4600-045",
      "city": "AMARANTE",
      "lon": "-8.070776774521807",
      "lat": "41.26772060373757"
    },
    {
      "id": "pt.ine.add.PTCONT.3676170",
      "street": "R ACACIO LINO",
      "house": "72",
      "postcode": "4600-045",
      "city": "AMARANTE",
      "lon": "-8.070299378160199",
      "lat": "41.267756361151434"
    },
    {
      "id": "pt.ine.add.PTCONT.3687772",
      "street": "R ACACIO LINO",
      "house": "20",
      "postcode": "4600-045",
      "city": "AMARANTE",
      "lon": "-8.069905823595604",
      "lat": "41.267477015102244"
    },
    {
      "id": "pt.ine.add.PTCONT.3687773",
      "street": "R ACACIO LINO",
      "house": "302",
      "postcode": "4600-045",
      "city": "AMARANTE",
      "lon": "-8.0715290762754",
      "lat": "41.26723478092102"
    },
    {
      "id": "pt.ine.add.PTCONT.3699561",
      "street": "R POETA ALFREDO BROCHADO",
      "house": "65",
      "postcode": "4600-100",
      "city": "AMARANTE",
      "lon": "-8.069225164239281",
      "lat": "41.267908841773924"
    },
    {
      "id": "pt.ine.add.PTCONT.3701214",
      "street": "PCT ALBANO SARDOEIRA",
      "house": "8",
      "postcode": "4600-039",
      "city": "AMARANTE",
      "lon": "-8.069427938618698",
      "lat": "41.268017004686634"
    },
    {
      "id": "pt.ine.add.PTCONT.3701215",
      "street": "PCT ALBANO SARDOEIRA",
      "house": "8",
      "postcode": "4600-039",
      "city": "AMARANTE",
      "lon": "-8.069427938618698",
      "lat": "41.268017004686634"
    },
    {
      "id": "pt.ine.add.PTCONT.3701216",
      "street": "PCT ALBANO SARDOEIRA",
      "house": "8",
      "postcode": "4600-039",
      "city": "AMARANTE",
      "lon": "-8.069427938618698",
      "lat": "41.268017004686634"
    },
    {
      "id": "pt.ine.add.PTCONT.3701217",
      "street": "PCT ALBANO SARDOEIRA",
      "house": "8",
      "postcode": "4600-039",
      "city": "AMARANTE",
      "lon": "-8.069427938618698",
      "lat": "41.268017004686634"
    },
    {
      "id": "pt.ine.add.PTCONT.3701218",
      "street": "PCT ALBANO SARDOEIRA",
      "house": "8",
      "postcode": "4600-039",
      "city": "AMARANTE",
      "lon": "-8.069427938618698",
      "lat": "41.268017004686634"
    },
    {
      "id": "pt.ine.add.PTCONT.3727553",
      "street": "R ILIDIO SARDOEIRA",
      "house": "84",
      "postcode": "4600-083",
      "city": "AMARANTE",
      "lon": "-8.07046631720236",
      "lat": "41.26790051954344"
    },
    {
      "id": "pt.ine.add.PTCONT.3759536",
      "street": "R MOTA ALVES",
      "house": "116",
      "postcode": "4600-092",
      "city": "AMARANTE",
      "lon": "-8.070477287571178",
      "lat": "41.2689089975029"
    },
    {
      "id": "pt.ine.add.PTCONT.3759537",
      "street": "R MOTA ALVES",
      "house": "116",
      "postcode": "4600-092",
      "city": "AMARANTE",
      "lon": "-8.070477287571178",
      "lat": "41.2689089975029"
    },
    {
      "id": "pt.ine.add.PTCONT.3759538",
      "street": "R MOTA ALVES",
      "house": "116",
      "postcode": "4600-092",
      "city": "AMARANTE",
      "lon": "-8.070477287571178",
      "lat": "41.2689089975029"
    },
    {
      "id": "pt.ine.add.PTCONT.3759539",
      "street": "R MOTA ALVES",
      "house": "116",
      "postcode": "4600-092",
      "city": "AMARANTE",
      "lon": "-8.070477287571178",
      "lat": "41.2689089975029"
    },
    {
      "id": "pt.ine.add.PTCONT.3759540",
      "street": "R MOTA ALVES",
      "house": "116",
      "postcode": "4600-092",
      "city": "AMARANTE",
      "lon": "-8.070477287571178",
      "lat": "41.2689089975029"
    },
    {
      "id": "pt.ine.add.PTCONT.3759541",
      "street": "R MOTA ALVES",
      "house": "116",
      "postcode": "4600-092",
      "city": "AMARANTE",
      "lon": "-8.070477287571178",
      "lat": "41.2689089975029"
    },
    {
      "id": "pt.ine.add.PTCONT.3759542",
      "street": "R MOTA ALVES",
      "house": "116",
      "postcode": "4600-092",
      "city": "AMARANTE",
      "lon": "-8.070477287571178",
      "lat": "41.2689089975029"
    },
    {
      "id": "pt.ine.add.PTCONT.3759543",
      "street": "R MOTA ALVES",
      "house": "116",
      "postcode": "4600-092",
      "city": "AMARANTE",
      "lon": "-8.070477287571178",
      "lat": "41.2689089975029"
    },
    {
      "id": "pt.ine.add.PTCONT.3777199",
      "street": "R ILIDIO SARDOEIRA",
      "house": "43",
      "postcode": "4600-083",
      "city": "AMARANTE",
      "lon": "-8.070048277904979",
      "lat": "41.26826045992321"
    },
    {
      "id": "pt.ine.add.PTCONT.3777200",
      "street": "PCT ALBANO SARDOEIRA",
      "house": "82",
      "postcode": "4600-039",
      "city": "AMARANTE",
      "lon": "-8.069714026060346",
      "lat": "41.268359322719895"
    },
    {
      "id": "pt.ine.add.PTCONT.3798629",
      "street": "PCT ALBANO SARDOEIRA",
      "house": "66",
      "postcode": "4600-039",
      "city": "AMARANTE",
      "lon": "-8.07000064536816",
      "lat": "41.26815238325006"
    },
    {
      "id": "pt.ine.add.PTCONT.3805640",
      "street": "R ILIDIO SARDOEIRA",
      "house": "91",
      "postcode": "4600-083",
      "city": "AMARANTE",
      "lon": "-8.070275328779026",
      "lat": "41.2679454365456"
    },
    {
      "id": "pt.ine.add.PTCONT.3815944",
      "street": "PCT ALBANO SARDOEIRA",
      "house": "29",
      "postcode": "4600-039",
      "city": "AMARANTE",
      "lon": "-8.069583204100198",
      "lat": "41.26789103145165"
    },
    {
      "id": "pt.ine.add.PTCONT.3815945",
      "street": "PCT ALBANO SARDOEIRA",
      "house": "29",
      "postcode": "4600-039",
      "city": "AMARANTE",
      "lon": "-8.069583204100198",
      "lat": "41.26789103145165"
    },
    {
      "id": "pt.ine.add.PTCONT.3815946",
      "street": "PCT ALBANO SARDOEIRA",
      "house": "29",
      "postcode": "4600-039",
      "city": "AMARANTE",
      "lon": "-8.069583204100198",
      "lat": "41.26789103145165"
    },
    {
      "id": "pt.ine.add.PTCONT.3815947",
      "street": "PCT ALBANO SARDOEIRA",
      "house": "29",
      "postcode": "4600-039",
      "city": "AMARANTE",
      "lon": "-8.069583204100198",
      "lat": "41.26789103145165"
    },
    {
      "id": "pt.ine.add.PTCONT.3815948",
      "street": "PCT ALBANO SARDOEIRA",
      "house": "29",
      "postcode": "4600-039",
      "city": "AMARANTE",
      "lon": "-8.069583204100198",
      "lat": "41.26789103145165"
    },
    {
      "id": "pt.ine.add.PTCONT.3815949",
      "street": "PCT ALBANO SARDOEIRA",
      "house": "29",
      "postcode": "4600-039",
      "city": "AMARANTE",
      "lon": "-8.069583204100198",
      "lat": "41.26789103145165"
    },
    {
      "id": "pt.ine.add.PTCONT.3815950",
      "street": "PCT ALBANO SARDOEIRA",
      "house": "29",
      "postcode": "4600-039",
      "city": "AMARANTE",
      "lon": "-8.069583204100198",
      "lat": "41.26789103145165"
    },
    {
      "id": "pt.ine.add.PTCONT.3816107",
      "street": "TV MURTAS",
      "house": "2",
      "postcode": "4600-109",
      "city": "AMARANTE",
      "lon": "-8.071540511196847",
      "lat": "41.26776603575979"
    },
    {
      "id": "pt.ine.add.PTCONT.3817565",
      "street": "AV 25 DE ABRIL",
      "house": "192",
      "postcode": "4600-014",
      "city": "AMARANTE",
      "lon": "-8.071121584462212",
      "lat": "41.26907142203294"
    },
    {
      "id": "pt.ine.add.PTCONT.3817566",
      "street": "AV 25 DE ABRIL",
      "house": "192",
      "postcode": "4600-014",
      "city": "AMARANTE",
      "lon": "-8.071121584462212",
      "lat": "41.26907142203294"
    },
    {
      "id": "pt.ine.add.PTCONT.3817567",
      "street": "AV 25 DE ABRIL",
      "house": "192",
      "postcode": "4600-014",
      "city": "AMARANTE",
      "lon": "-8.071121584462212",
      "lat": "41.26907142203294"
    },
    {
      "id": "pt.ine.add.PTCONT.3817568",
      "street": "AV 25 ABRIL",
      "house": "5",
      "postcode": "4600-014",
      "city": "AMARANTE",
      "lon": "-8.071121584462212",
      "lat": "41.26907142203294"
    },
    {
      "id": "pt.ine.add.PTCONT.3817569",
      "street": "R ESCRITOR MANUEL SEQUEIRA AMARAL",
      "house": "192",
      "postcode": "4600-124",
      "city": "AMARANTE",
      "lon": "-8.071121584462212",
      "lat": "41.26907142203294"
    },
    {
      "id": "pt.ine.add.PTCONT.3845281",
      "street": "R ILIDIO SARDOEIRA",
      "house": "51",
      "postcode": "4600-083",
      "city": "AMARANTE",
      "lon": "-8.07010799190341",
      "lat": "41.26821547154188"
    },
    {
      "id": "pt.ine.add.PTCONT.3845447",
      "street": "TV MURTAS",
      "house": "22",
      "postcode": "4600-109",
      "city": "AMARANTE",
      "lon": "-8.071146908717344",
      "lat": "41.26753171500507"
    },
    {
      "id": "pt.ine.add.PTCONT.3869414",
      "street": "R ACACIO LINO",
      "house": "146",
      "postcode": "4600-045",
      "city": "AMARANTE",
      "lon": "-8.071063668966",
      "lat": "41.26721652262321"
    },
    {
      "id": "pt.ine.add.PTCONT.3924689",
      "street": "R ACACIO LINO",
      "house": "41",
      "postcode": "4600-045",
      "city": "AMARANTE",
      "lon": "-8.071266699117645",
      "lat": "41.26705455596451"
    },
    {
      "id": "pt.ine.add.PTCONT.3927913",
      "street": "R ACACIO LINO",
      "house": "326",
      "postcode": "4600-045",
      "city": "AMARANTE",
      "lon": "-8.071648204769392",
      "lat": "41.26745994997305"
    },
    {
      "id": "pt.ine.add.PTCONT.3934110",
      "street": "R ILIDIO SARDOEIRA",
      "house": "190",
      "postcode": "4600-083",
      "city": "AMARANTE",
      "lon": "-8.070418296670969",
      "lat": "41.26819763249331"
    },
    {
      "id": "pt.ine.add.PTCONT.3945308",
      "street": "R ACACIO LINO",
      "house": "4",
      "postcode": "4600-045",
      "city": "AMARANTE",
      "lon": "-8.069762667790796",
      "lat": "41.2674229111332"
    },
    {
      "id": "pt.ine.add.PTCONT.3956494",
      "street": "R MOTA ALVES",
      "house": "354",
      "postcode": "4600-092",
      "city": "AMARANTE",
      "lon": "-8.070788143491997",
      "lat": "41.26831488807025"
    },
    {
      "id": "pt.ine.add.PTCONT.3960387",
      "street": "R POETA ALFREDO BROCHADO",
      "house": "15",
      "postcode": "4600-100",
      "city": "AMARANTE",
      "lon": "-8.069679007852287",
      "lat": "41.267548924092196"
    },
    {
      "id": "pt.ine.add.PTCONT.3987736",
      "street": "R ACACIO LINO",
      "house": "",
      "postcode": "4600-045",
      "city": "AMARANTE",
      "lon": "-8.070920606748988",
      "lat": "41.26706337376317"
    },
    {
      "id": "pt.ine.add.PTCONT.3991526",
      "street": "R MOTA ALVES",
      "house": "32",
      "postcode": "4600-092",
      "city": "AMARANTE",
      "lon": "-8.070823244270947",
      "lat": "41.26905325259431"
    },
    {
      "id": "pt.ine.add.PTCONT.3991527",
      "street": "R MOTA ALVES",
      "house": "10",
      "postcode": "4600-092",
      "city": "AMARANTE",
      "lon": "-8.070823244270947",
      "lat": "41.26905325259431"
    },
    {
      "id": "pt.ine.add.PTCONT.3991528",
      "street": "R MOTA ALVES",
      "house": "32",
      "postcode": "4600-092",
      "city": "AMARANTE",
      "lon": "-8.070823244270947",
      "lat": "41.26905325259431"
    },
    {
      "id": "pt.ine.add.PTCONT.3991529",
      "street": "R MOTA ALVES",
      "house": "32",
      "postcode": "4600-092",
      "city": "AMARANTE",
      "lon": "-8.070823244270947",
      "lat": "41.26905325259431"
    },
    {
      "id": "pt.ine.add.PTCONT.3991530",
      "street": "R MOTA ALVES",
      "house": "32",
      "postcode": "4600-092",
      "city": "AMARANTE",
      "lon": "-8.070823244270947",
      "lat": "41.26905325259431"
    },
    {
      "id": "pt.ine.add.PTCONT.3991531",
      "street": "R MOTA ALVES",
      "house": "32",
      "postcode": "4600-092",
      "city": "AMARANTE",
      "lon": "-8.070823244270947",
      "lat": "41.26905325259431"
    },
    {
      "id": "pt.ine.add.PTCONT.3991532",
      "street": "R MOTA ALVES",
      "house": "32",
      "postcode": "4600-092",
      "city": "AMARANTE",
      "lon": "-8.070823244270947",
      "lat": "41.26905325259431"
    },
    {
      "id": "pt.ine.add.PTCONT.3991533",
      "street": "R MOTA ALVES",
      "house": "32",
      "postcode": "4600-092",
      "city": "AMARANTE",
      "lon": "-8.070823244270947",
      "lat": "41.26905325259431"
    },
    {
      "id": "pt.ine.add.PTCONT.4003277",
      "street": "R ACACIO LINO",
      "house": "64",
      "postcode": "4600-045",
      "city": "AMARANTE",
      "lon": "-8.070203948949114",
      "lat": "41.26771128797552"
    },
    {
      "id": "pt.ine.add.PTCONT.4030513",
      "street": "R POETA ALFREDO BROCHADO",
      "house": "",
      "postcode": "4600-100",
      "city": "AMARANTE",
      "lon": "-8.069380421098552",
      "lat": "41.26779187302045"
    },
    {
      "id": "pt.ine.add.PTCONT.4037070",
      "street": "R MOTA ALVES",
      "house": "20",
      "postcode": "4600-092",
      "city": "AMARANTE",
      "lon": "-8.070954495831378",
      "lat": "41.26908033616469"
    },
    {
      "id": "pt.ine.add.PTCONT.4037071",
      "street": "AV 25 ABRIL",
      "house": "20",
      "postcode": "4600-014",
      "city": "AMARANTE",
      "lon": "-8.070954495831378",
      "lat": "41.26908033616469"
    },
    {
      "id": "pt.ine.add.PTCONT.4037072",
      "street": "R MOTA ALVES",
      "house": "20",
      "postcode": "4600-092",
      "city": "AMARANTE",
      "lon": "-8.070954495831378",
      "lat": "41.26908033616469"
    },
    {
      "id": "pt.ine.add.PTCONT.4037073",
      "street": "R MOTA ALVES",
      "house": "20",
      "postcode": "4600-092",
      "city": "AMARANTE",
      "lon": "-8.070954495831378",
      "lat": "41.26908033616469"
    },
    {
      "id": "pt.ine.add.PTCONT.4037074",
      "street": "R MOTA ALVES",
      "house": "20",
      "postcode": "4600-092",
      "city": "AMARANTE",
      "lon": "-8.070954495831378",
      "lat": "41.26908033616469"
    },
    {
      "id": "pt.ine.add.PTCONT.4037075",
      "street": "R MOTA ALVES",
      "house": "20",
      "postcode": "4600-092",
      "city": "AMARANTE",
      "lon": "-8.070954495831378",
      "lat": "41.26908033616469"
    },
    {
      "id": "pt.ine.add.PTCONT.4037076",
      "street": "AV 25 ABRIL",
      "house": "20",
      "postcode": "4600-014",
      "city": "AMARANTE",
      "lon": "-8.070954495831378",
      "lat": "41.26908033616469"
    },
    {
      "id": "pt.ine.add.PTCONT.4037077",
      "street": "R MOTA ALVES",
      "house": "20",
      "postcode": "4600-092",
      "city": "AMARANTE",
      "lon": "-8.070954495831378",
      "lat": "41.26908033616469"
    },
    {
      "id": "pt.ine.add.PTCONT.4037081",
      "street": "R MOTA ALVES",
      "house": "20",
      "postcode": "4600-092",
      "city": "AMARANTE",
      "lon": "-8.070954495831378",
      "lat": "41.26908033616469"
    },
    {
      "id": "pt.ine.add.PTCONT.4037082",
      "street": "R MOTA ALVES",
      "house": "20",
      "postcode": "4600-092",
      "city": "AMARANTE",
      "lon": "-8.070954495831378",
      "lat": "41.26908033616469"
    },
    {
      "id": "pt.ine.add.PTCONT.4037083",
      "street": "R MOTA ALVES",
      "house": "20",
      "postcode": "4600-092",
      "city": "AMARANTE",
      "lon": "-8.070954495831378",
      "lat": "41.26908033616469"
    },
    {
      "id": "pt.ine.add.PTCONT.4076539",
      "street": "R ILIDIO SARDOEIRA",
      "house": "40",
      "postcode": "4600-083",
      "city": "AMARANTE",
      "lon": "-8.070274948957216",
      "lat": "41.26834162178123"
    },
    {
      "id": "pt.ine.add.PTCONT.4089778",
      "street": "R ACACIO LINO",
      "house": "44",
      "postcode": "4600-045",
      "city": "AMARANTE",
      "lon": "-8.070025094280842",
      "lat": "41.267549114239316"
    },
    {
      "id": "pt.ine.add.PTCONT.4096718",
      "street": "PCT ALBANO SARDOEIRA",
      "house": "72",
      "postcode": "4600-039",
      "city": "AMARANTE",
      "lon": "-8.069928953821327",
      "lat": "41.26824238607653"
    },
    {
      "id": "pt.ine.add.PTCONT.4122333",
      "street": "R ACACIO LINO",
      "house": "180",
      "postcode": "4600-045",
      "city": "AMARANTE",
      "lon": "-8.07173147293642",
      "lat": "41.26774812928886"
    },
    {
      "id": "pt.ine.add.PTCONT.4122334",
      "street": "R ACACIO LINO",
      "house": "354",
      "postcode": "4600-045",
      "city": "AMARANTE",
      "lon": "-8.07173147293642",
      "lat": "41.26774812928886"
    },
    {
      "id": "pt.ine.add.PTCONT.4122335",
      "street": "R ACACIO LINO",
      "house": "354",
      "postcode": "4600-045",
      "city": "AMARANTE",
      "lon": "-8.07173147293642",
      "lat": "41.26774812928886"
    },
    {
      "id": "pt.ine.add.PTCONT.4122336",
      "street": "R ACACIO LINO",
      "house": "354",
      "postcode": "4600-045",
      "city": "AMARANTE",
      "lon": "-8.07173147293642",
      "lat": "41.26774812928886"
    },
    {
      "id": "pt.ine.add.PTCONT.4122337",
      "street": "R MOTA ALVES",
      "house": "276",
      "postcode": "4600-092",
      "city": "AMARANTE",
      "lon": "-8.069869022471291",
      "lat": "41.26851247960041"
    },
    {
      "id": "pt.ine.add.PTCONT.4140688",
      "street": "R ILIDIO SARDOEIRA",
      "house": "85",
      "postcode": "4600-083",
      "city": "AMARANTE",
      "lon": "-8.07001239745582",
      "lat": "41.26834147819447"
    },
    {
      "id": "pt.ine.add.PTCONT.4155329",
      "street": "TV MURTAS",
      "house": "60",
      "postcode": "4600-109",
      "city": "AMARANTE",
      "lon": "-8.071278063927751",
      "lat": "41.267657844531655"
    },
    {
      "id": "pt.ine.add.PTCONT.4161882",
      "street": "R MOTA ALVES",
      "house": "70",
      "postcode": "4600-092",
      "city": "AMARANTE",
      "lon": "-8.070369784393241",
      "lat": "41.269007985318346"
    },
    {
      "id": "pt.ine.add.PTCONT.4161883",
      "street": "R MOTA ALVES",
      "house": "70",
      "postcode": "4600-092",
      "city": "AMARANTE",
      "lon": "-8.070369784393241",
      "lat": "41.269007985318346"
    },
    {
      "id": "pt.ine.add.PTCONT.4161884",
      "street": "R MOTA ALVES",
      "house": "3",
      "postcode": "4600-092",
      "city": "AMARANTE",
      "lon": "-8.070369784393241",
      "lat": "41.269007985318346"
    },
    {
      "id": "pt.ine.add.PTCONT.4161885",
      "street": "R MOTA ALVES",
      "house": "70",
      "postcode": "4600-092",
      "city": "AMARANTE",
      "lon": "-8.070369784393241",
      "lat": "41.269007985318346"
    },
    {
      "id": "pt.ine.add.PTCONT.4161892",
      "street": "R MOTA ALVES",
      "house": "70",
      "postcode": "4600-092",
      "city": "AMARANTE",
      "lon": "-8.070369784393241",
      "lat": "41.269007985318346"
    },
    {
      "id": "pt.ine.add.PTCONT.4161893",
      "street": "R MOTA ALVES",
      "house": "70",
      "postcode": "4600-092",
      "city": "AMARANTE",
      "lon": "-8.070369784393241",
      "lat": "41.269007985318346"
    },
    {
      "id": "pt.ine.add.PTCONT.4226947",
      "street": "R ILIDIO SARDOEIRA",
      "house": "",
      "postcode": "4600-083",
      "city": "AMARANTE",
      "lon": "-8.070155814935404",
      "lat": "41.26812545555503"
    },
    {
      "id": "pt.ine.add.PTCONT.4233281",
      "street": "R ACACIO LINO",
      "house": "",
      "postcode": "4600-045",
      "city": "AMARANTE",
      "lon": "-8.071600595523583",
      "lat": "41.26732486131114"
    },
    {
      "id": "pt.ine.add.PTCONT.4240354",
      "street": "R ACACIO LINO",
      "house": "228",
      "postcode": "4600-045",
      "city": "AMARANTE",
      "lon": "-8.070861108145472",
      "lat": "41.266883257281066"
    },
    {
      "id": "pt.ine.add.PTCONT.4240357",
      "street": "R MOTA ALVES",
      "house": "354",
      "postcode": "4600-092",
      "city": "AMARANTE",
      "lon": "-8.070907630309438",
      "lat": "41.268161881039404"
    },
    {
      "id": "pt.ine.add.PTCONT.4253336",
      "street": "TV MURTAS",
      "house": "82",
      "postcode": "4600-109",
      "city": "AMARANTE",
      "lon": "-8.071361356166385",
      "lat": "41.267919011473026"
    },
    {
      "id": "pt.ine.add.PTCONT.4282960",
      "street": "R ACACIO LINO",
      "house": "354",
      "postcode": "4600-045",
      "city": "AMARANTE",
      "lon": "-8.070119571236257",
      "lat": "41.26858465065994"
    },
    {
      "id": "pt.ine.add.PTCONT.4282961",
      "street": "R MOTA ALVES",
      "house": "186",
      "postcode": "4600-092",
      "city": "AMARANTE",
      "lon": "-8.070119571236257",
      "lat": "41.26858465065994"
    },
    {
      "id": "pt.ine.add.PTCONT.4295513",
      "street": "R ILIDIO SARDOEIRA",
      "house": "57",
      "postcode": "4600-083",
      "city": "AMARANTE",
      "lon": "-8.070167809584554",
      "lat": "41.26806243261007"
    },
    {
      "id": "pt.ine.add.PTCONT.4300226",
      "street": "R MOTA ALVES",
      "house": "130",
      "postcode": "4600-092",
      "city": "AMARANTE",
      "lon": "-8.070608684673504",
      "lat": "41.26878300991786"
    },
    {
      "id": "pt.ine.add.PTCONT.4300227",
      "street": "R MOTA ALVES",
      "house": "130",
      "postcode": "4600-092",
      "city": "AMARANTE",
      "lon": "-8.070608684673504",
      "lat": "41.26878300991786"
    },
    {
      "id": "pt.ine.add.PTCONT.4300228",
      "street": "R MOTA ALVES",
      "house": "130",
      "postcode": "4600-092",
      "city": "AMARANTE",
      "lon": "-8.070608684673504",
      "lat": "41.26878300991786"
    },
    {
      "id": "pt.ine.add.PTCONT.4300229",
      "street": "R MOTA ALVES",
      "house": "130",
      "postcode": "4600-092",
      "city": "AMARANTE",
      "lon": "-8.070608684673504",
      "lat": "41.26878300991786"
    },
    {
      "id": "pt.ine.add.PTCONT.4305603",
      "street": "R MOTA ALVES",
      "house": "130",
      "postcode": "4600-092",
      "city": "AMARANTE",
      "lon": "-8.070608684673504",
      "lat": "41.26878300991786"
    },
    {
      "id": "pt.ine.add.PTCONT.4320605",
      "street": "PCT ALBANO SARDOEIRA",
      "house": "37",
      "postcode": "4600-039",
      "city": "AMARANTE",
      "lon": "-8.069809916779127",
      "lat": "41.267927173178585"
    },
    {
      "id": "pt.ine.add.PTCONT.4320606",
      "street": "PCT ALBANO SARDOEIRA",
      "house": "37",
      "postcode": "4600-039",
      "city": "AMARANTE",
      "lon": "-8.069809916779127",
      "lat": "41.267927173178585"
    },
    {
      "id": "pt.ine.add.PTCONT.4320607",
      "street": "PCT ALBANO SARDOEIRA",
      "house": "37",
      "postcode": "4600-039",
      "city": "AMARANTE",
      "lon": "-8.069809916779127",
      "lat": "41.267927173178585"
    },
    {
      "id": "pt.ine.add.PTCONT.4320608",
      "street": "PCT ALBANO SARDOEIRA",
      "house": "37",
      "postcode": "4600-039",
      "city": "AMARANTE",
      "lon": "-8.069809916779127",
      "lat": "41.267927173178585"
    },
    {
      "id": "pt.ine.add.PTCONT.4320609",
      "street": "PCT ALBANO SARDOEIRA",
      "house": "37",
      "postcode": "4600-039",
      "city": "AMARANTE",
      "lon": "-8.069809916779127",
      "lat": "41.267927173178585"
    },
    {
      "id": "pt.ine.add.PTCONT.4320610",
      "street": "PCT ALBANO SARDOEIRA",
      "house": "37",
      "postcode": "4600-039",
      "city": "AMARANTE",
      "lon": "-8.069809916779127",
      "lat": "41.267927173178585"
    },
    {
      "id": "pt.ine.add.PTCONT.4320611",
      "street": "PCT ALBANO SARDOEIRA",
      "house": "37",
      "postcode": "4600-039",
      "city": "AMARANTE",
      "lon": "-8.069809916779127",
      "lat": "41.267927173178585"
    },
    {
      "id": "pt.ine.add.PTCONT.4320774",
      "street": "PCT ALBANO SARDOEIRA",
      "house": "37",
      "postcode": "4600-039",
      "city": "AMARANTE",
      "lon": "-8.069809916779127",
      "lat": "41.267927173178585"
    },
    {
      "id": "pt.ine.add.PTCONT.4320775",
      "street": "PCT ALBANO SARDOEIRA",
      "house": "37",
      "postcode": "4600-039",
      "city": "AMARANTE",
      "lon": "-8.069809916779127",
      "lat": "41.267927173178585"
    },
    {
      "id": "pt.ine.add.PTCONT.4320776",
      "street": "PCT ALBANO SARDOEIRA",
      "house": "37",
      "postcode": "4600-039",
      "city": "AMARANTE",
      "lon": "-8.069809916779127",
      "lat": "41.267927173178585"
    },
    {
      "id": "pt.ine.add.PTCONT.4325359",
      "street": "PCT ALBANO SARDOEIRA",
      "house": "37",
      "postcode": "4600-039",
      "city": "AMARANTE",
      "lon": "-8.069809916779127",
      "lat": "41.267927173178585"
    },
    {
      "id": "pt.ine.add.PTCONT.4326748",
      "street": "R ACACIO LINO",
      "house": "342",
      "postcode": "4600-045",
      "city": "AMARANTE",
      "lon": "-8.071695831085076",
      "lat": "41.26757703019019"
    },
    {
      "id": "pt.ine.add.PTCONT.4342844",
      "street": "R ILIDIO SARDOEIRA",
      "house": "86",
      "postcode": "4600-083",
      "city": "AMARANTE",
      "lon": "-8.070692987529",
      "lat": "41.26798168058301"
    },
    {
      "id": "pt.ine.add.PTCONT.4377422",
      "street": "R MOTA ALVES",
      "house": "32",
      "postcode": "4600-092",
      "city": "AMARANTE",
      "lon": "-8.070823244270947",
      "lat": "41.26905325259431"
    },
    {
      "id": "pt.ine.add.PTCONT.4379219",
      "street": "R MOTA ALVES",
      "house": "130",
      "postcode": "4600-092",
      "city": "AMARANTE",
      "lon": "-8.070608684673504",
      "lat": "41.26878300991786"
    },
    {
      "id": "pt.ine.add.PTCONT.4386461",
      "street": "R MOTA ALVES",
      "house": "9",
      "postcode": "4600-092",
      "city": "AMARANTE",
      "lon": "-8.070954495831378",
      "lat": "41.26908033616469"
    }
  ]
}