{
  "data": {
    "distrito": "Viseu",
    "concelho": "Cinfães",
    "freguesia": "Cinfães",
    "OBJECTID": 303,
    "BGRI2021": "18040300135",
    "DT21": "18",
    "DTMN21": "1804",
    "DTMNFR21": "180403",
    "DTMNFRSEC21": "180403001",
    "SECNUM21": "001",
    "SSNUM21": "35",
    "SECSSNUM21": "00135",
    "OBJECTID_1": 190219,
    "DT": "18",
    "CC": "04",
    "fr": "03",
    "SEC": "001",
    "SS": "35"
  },
  "addresses": [
    {
      "id": "pt.ine.add.PTCONT.5434331",
      "street": "",
      "house": "",
      "postcode": "4690-885",
      "city": "CINFÃES",
      "lon": "-8.105922008222983",
      "lat": "41.06725190000605"
    },
    {
      "id": "pt.ine.add.PTCONT.5434332",
      "street": "R ALDEIA",
      "house": "149",
      "postcode": "4690-885",
      "city": "CINFÃES",
      "lon": "-8.105863285179627",
      "lat": "41.06539695259776"
    },
    {
      "id": "pt.ine.add.PTCONT.5435846",
      "street": "CAM JOAZIM",
      "house": "",
      "postcode": "4690-885",
      "city": "CINFÃES",
      "lon": "-8.105338848787383",
      "lat": "41.067656964803795"
    },
    {
      "id": "pt.ine.add.PTCONT.5450942",
      "street": "CAM JOAZIM",
      "house": "",
      "postcode": "4690-885",
      "city": "CINFÃES",
      "lon": "-8.103959267848499",
      "lat": "41.06637798075101"
    },
    {
      "id": "pt.ine.add.PTCONT.5472886",
      "street": "R ALDEIA",
      "house": "131",
      "postcode": "4690-885",
      "city": "CINFÃES",
      "lon": "-8.105066408040607",
      "lat": "41.06481146675656"
    },
    {
      "id": "pt.ine.add.PTCONT.5484233",
      "street": "",
      "house": "922",
      "postcode": "4690-885",
      "city": "CINFÃES",
      "lon": "-8.106101052654939",
      "lat": "41.06583823067575"
    },
    {
      "id": "pt.ine.add.PTCONT.5492607",
      "street": "",
      "house": "",
      "postcode": "4690-885",
      "city": "CINFÃES",
      "lon": "-8.104780865255774",
      "lat": "41.064829405988256"
    },
    {
      "id": "pt.ine.add.PTCONT.5501160",
      "street": "",
      "house": "",
      "postcode": "4690-885",
      "city": "CINFÃES",
      "lon": "-8.105433838699788",
      "lat": "41.06811621864873"
    },
    {
      "id": "pt.ine.add.PTCONT.5502199",
      "street": "",
      "house": "916",
      "postcode": "4690-885",
      "city": "CINFÃES",
      "lon": "-8.106220078796937",
      "lat": "41.06571219505253"
    },
    {
      "id": "pt.ine.add.PTCONT.5512396",
      "street": "",
      "house": "910",
      "postcode": "4690-885",
      "city": "CINFÃES",
      "lon": "-8.105910807998548",
      "lat": "41.06555904541871"
    },
    {
      "id": "pt.ine.add.PTCONT.5512851",
      "street": "EM 1016",
      "house": "",
      "postcode": "4690-885",
      "city": "CINFÃES",
      "lon": "-8.103744855117775",
      "lat": "41.06695421631297"
    },
    {
      "id": "pt.ine.add.PTCONT.5514624",
      "street": "R ALDEIA",
      "house": "145",
      "postcode": "4690-885",
      "city": "CINFÃES",
      "lon": "-8.105934721471543",
      "lat": "41.06527090599849"
    },
    {
      "id": "pt.ine.add.PTCONT.5535561",
      "street": "",
      "house": "",
      "postcode": "4690-885",
      "city": "CINFÃES",
      "lon": "-8.10613593194526",
      "lat": "41.067828240185"
    },
    {
      "id": "pt.ine.add.PTCONT.5582137",
      "street": "R ALDEIA",
      "house": "130",
      "postcode": "4690-885",
      "city": "CINFÃES",
      "lon": "-8.105684786776868",
      "lat": "41.06548695558999"
    },
    {
      "id": "pt.ine.add.PTCONT.5585840",
      "street": "",
      "house": "",
      "postcode": "4690-885",
      "city": "CINFÃES",
      "lon": "-8.105362504353149",
      "lat": "41.06799013808923"
    },
    {
      "id": "pt.ine.add.PTCONT.5605957",
      "street": "",
      "house": "",
      "postcode": "4690-885",
      "city": "CINFÃES",
      "lon": "-8.105493475071404",
      "lat": "41.067765056315885"
    },
    {
      "id": "pt.ine.add.PTCONT.5611695",
      "street": "",
      "house": "",
      "postcode": "4690-885",
      "city": "CINFÃES",
      "lon": "-8.105315633259845",
      "lat": "41.06627926600519"
    },
    {
      "id": "pt.ine.add.PTCONT.5611696",
      "street": "",
      "house": "",
      "postcode": "4690-885",
      "city": "CINFÃES",
      "lon": "-8.105315633259845",
      "lat": "41.06627926600519"
    },
    {
      "id": "pt.ine.add.PTCONT.5619276",
      "street": "R ALDEIA",
      "house": "104",
      "postcode": "4690-885",
      "city": "CINFÃES",
      "lon": "-8.104733368958886",
      "lat": "41.06461328548128"
    },
    {
      "id": "pt.ine.add.PTCONT.5621119",
      "street": "R JOAZINS",
      "house": "292",
      "postcode": "4690-885",
      "city": "CINFÃES",
      "lon": "-8.105100758920964",
      "lat": "41.06797206571328"
    },
    {
      "id": "pt.ine.add.PTCONT.5638217",
      "street": "R ALDEIA",
      "house": "103",
      "postcode": "4690-885",
      "city": "CINFÃES",
      "lon": "-8.104661729310676",
      "lat": "41.06520756706026"
    },
    {
      "id": "pt.ine.add.PTCONT.5656573",
      "street": "R NSA SRA CONCEIÇÃO",
      "house": "886",
      "postcode": "4690-885",
      "city": "CINFÃES",
      "lon": "-8.104197546708829",
      "lat": "41.06563066460093"
    },
    {
      "id": "pt.ine.add.PTCONT.5656606",
      "street": "R NSA SRA DA CONCEIÇÃO",
      "house": "710",
      "postcode": "4690-885",
      "city": "CINFÃES",
      "lon": "-8.102732968046729",
      "lat": "41.06822359272734"
    },
    {
      "id": "pt.ine.add.PTCONT.5668600",
      "street": "CAM JOAZIM",
      "house": "",
      "postcode": "4690-885",
      "city": "CINFÃES",
      "lon": "-8.105398394524736",
      "lat": "41.06752191119105"
    }
  ]
}