{
  "data": {
    "distrito": "Braga",
    "concelho": "Vizela",
    "freguesia": "Uni達o das freguesias de Caldas de Vizela (S達o Miguel e S達o Jo達o)",
    "OBJECTID": 119,
    "BGRI2021": "03140800311",
    "DT21": "03",
    "DTMN21": "0314",
    "DTMNFR21": "031408",
    "DTMNFRSEC21": "031408003",
    "SECNUM21": "003",
    "SSNUM21": "11",
    "SECSSNUM21": "00311",
    "OBJECTID_1": 33112,
    "DT": "03",
    "CC": "14",
    "fr": "08",
    "SEC": "003",
    "SS": "11"
  },
  "addresses": [
    {
      "id": "pt.ine.add.PTCONT.476168",
      "street": "TV VEIGAS",
      "house": "568",
      "postcode": "4815-491",
      "city": "VIZELA",
      "lon": "-8.311139348596722",
      "lat": "41.38577887648659"
    },
    {
      "id": "pt.ine.add.PTCONT.476942",
      "street": "R AIDRINHO",
      "house": "1111",
      "postcode": "4815-497",
      "city": "VIZELA",
      "lon": "-8.310553673194025",
      "lat": "41.38583380525596"
    },
    {
      "id": "pt.ine.add.PTCONT.493639",
      "street": "R PENAS DE GALO",
      "house": "54",
      "postcode": "4815-515",
      "city": "VIZELA",
      "lon": "-8.311140773095124",
      "lat": "41.38630110771567"
    },
    {
      "id": "pt.ine.add.PTCONT.496425",
      "street": "R PORTA",
      "house": "293",
      "postcode": "4815-485",
      "city": "VIZELA",
      "lon": "-8.310479908874928",
      "lat": "41.385086584849574"
    },
    {
      "id": "pt.ine.add.PTCONT.496973",
      "street": "R VEIGAS",
      "house": "34 TRAZ",
      "postcode": "4815-491",
      "city": "VIZELA",
      "lon": "-8.311532208197784",
      "lat": "41.38516599427682"
    },
    {
      "id": "pt.ine.add.PTCONT.541910",
      "street": "R PORTA",
      "house": "211",
      "postcode": "4815-485",
      "city": "VIZELA",
      "lon": "-8.310778598545541",
      "lat": "41.38501409185648"
    },
    {
      "id": "pt.ine.add.PTCONT.541911",
      "street": "R PORTA",
      "house": "211",
      "postcode": "4815-485",
      "city": "VIZELA",
      "lon": "-8.310778598545541",
      "lat": "41.38501409185648"
    },
    {
      "id": "pt.ine.add.PTCONT.591008",
      "street": "R VEIGAS",
      "house": "78",
      "postcode": "4815-491",
      "city": "VIZELA",
      "lon": "-8.311628467423484",
      "lat": "41.38539094563063"
    },
    {
      "id": "pt.ine.add.PTCONT.591009",
      "street": "R VEIGAS",
      "house": "78",
      "postcode": "4815-491",
      "city": "VIZELA",
      "lon": "-8.311628467423484",
      "lat": "41.38539094563063"
    },
    {
      "id": "pt.ine.add.PTCONT.591010",
      "street": "R VEIGAS",
      "house": "80",
      "postcode": "4815-491",
      "city": "VIZELA",
      "lon": "-8.311628467423484",
      "lat": "41.38539094563063"
    },
    {
      "id": "pt.ine.add.PTCONT.591012",
      "street": "TV PORTA",
      "house": "101",
      "postcode": "4815-485",
      "city": "VIZELA",
      "lon": "-8.311221120945323",
      "lat": "41.38507643594447"
    },
    {
      "id": "pt.ine.add.PTCONT.605834",
      "street": "R VEIGAS",
      "house": "644",
      "postcode": "4815-491",
      "city": "VIZELA",
      "lon": "-8.311629427890198",
      "lat": "41.385742101131896"
    },
    {
      "id": "pt.ine.add.PTCONT.605835",
      "street": "R VEIGAS",
      "house": "644",
      "postcode": "4815-491",
      "city": "VIZELA",
      "lon": "-8.311629427890198",
      "lat": "41.385742101131896"
    },
    {
      "id": "pt.ine.add.PTCONT.615289",
      "street": "R AIDRINHO",
      "house": "11991029",
      "postcode": "4815-497",
      "city": "VIZELA",
      "lon": "-8.310243610421184",
      "lat": "41.38612241175949"
    },
    {
      "id": "pt.ine.add.PTCONT.615290",
      "street": "R AIDRINHO",
      "house": "11991029",
      "postcode": "4815-497",
      "city": "VIZELA",
      "lon": "-8.310243610421184",
      "lat": "41.38612241175949"
    },
    {
      "id": "pt.ine.add.PTCONT.657743",
      "street": "R VEIGAS",
      "house": "34",
      "postcode": "4815-491",
      "city": "VIZELA",
      "lon": "-8.311628048763833",
      "lat": "41.385237877841305"
    },
    {
      "id": "pt.ine.add.PTCONT.657744",
      "street": "R VEIGAS",
      "house": "34",
      "postcode": "4815-491",
      "city": "VIZELA",
      "lon": "-8.311628048763833",
      "lat": "41.385237877841305"
    },
    {
      "id": "pt.ine.add.PTCONT.657745",
      "street": "TV VEIGAS",
      "house": "568 T2",
      "postcode": "4815-491",
      "city": "VIZELA",
      "lon": "-8.310900409155417",
      "lat": "41.385842274081675"
    },
    {
      "id": "pt.ine.add.PTCONT.676270",
      "street": "R VEIGAS",
      "house": "114",
      "postcode": "4815-491",
      "city": "VIZELA",
      "lon": "-8.311640866228421",
      "lat": "41.38555299885507"
    },
    {
      "id": "pt.ine.add.PTCONT.688249",
      "street": "R AIDRINHO",
      "house": "1331",
      "postcode": "4815-497",
      "city": "VIZELA",
      "lon": "-8.31020845208737",
      "lat": "41.38638358258309"
    },
    {
      "id": "pt.ine.add.PTCONT.719556",
      "street": "TV VEIGAS",
      "house": "",
      "postcode": "4815-491",
      "city": "VIZELA",
      "lon": "-8.310996250023166",
      "lat": "41.38591415816332"
    },
    {
      "id": "pt.ine.add.PTCONT.726978",
      "street": "R PENAS DE GALO",
      "house": "40",
      "postcode": "4815-515",
      "city": "VIZELA",
      "lon": "-8.311319984948312",
      "lat": "41.386255810189716"
    },
    {
      "id": "pt.ine.add.PTCONT.729990",
      "street": "RUELA DE COUTOS DA LAMA",
      "house": "208",
      "postcode": "4815-590",
      "city": "TAGILDE",
      "lon": "-8.311140773095124",
      "lat": "41.38630110771567"
    },
    {
      "id": "pt.ine.add.PTCONT.732033",
      "street": "R PENAS DE GALO",
      "house": "180",
      "postcode": "4815-515",
      "city": "VIZELA",
      "lon": "-8.310590470301928",
      "lat": "41.38617590145008"
    },
    {
      "id": "pt.ine.add.PTCONT.732034",
      "street": "R PENAS DE GALO",
      "house": "110",
      "postcode": "4815-515",
      "city": "VIZELA",
      "lon": "-8.310615018250443",
      "lat": "41.38640996821881"
    },
    {
      "id": "pt.ine.add.PTCONT.759682",
      "street": "R AIDRINHO",
      "house": "913",
      "postcode": "4815-497",
      "city": "VIZELA",
      "lon": "-8.310217720110677",
      "lat": "41.38539312556881"
    },
    {
      "id": "pt.ine.add.PTCONT.795628",
      "street": "R PENAS DE GALO",
      "house": "140",
      "postcode": "4815-515",
      "city": "VIZELA",
      "lon": "-8.310925743072817",
      "lat": "41.38636446836488"
    },
    {
      "id": "pt.ine.add.PTCONT.838065",
      "street": "R AIDRINHO",
      "house": "1049",
      "postcode": "4815-497",
      "city": "VIZELA",
      "lon": "-8.310278377417156",
      "lat": "41.385717177113484"
    },
    {
      "id": "pt.ine.add.PTCONT.838068",
      "street": "TV VEIGAS",
      "house": "588",
      "postcode": "4815-491",
      "city": "VIZELA",
      "lon": "-8.31129454959678",
      "lat": "41.38569760004111"
    },
    {
      "id": "pt.ine.add.PTCONT.838233",
      "street": "R AIDRINHO",
      "house": "1049",
      "postcode": "4815-497",
      "city": "VIZELA",
      "lon": "-8.310278377417156",
      "lat": "41.385717177113484"
    }
  ]
}