{
  "data": {
    "distrito": "Évora",
    "concelho": "Évora",
    "freguesia": "União das freguesias de São Manços e São Vicente do Pigeiro",
    "OBJECTID": 348,
    "BGRI2021": "07052600111",
    "DT21": "07",
    "DTMN21": "0705",
    "DTMNFR21": "070526",
    "DTMNFRSEC21": "070526001",
    "SECNUM21": "001",
    "SSNUM21": "11",
    "SECSSNUM21": "00111",
    "OBJECTID_1": 60914,
    "DT": "07",
    "CC": "05",
    "fr": "26",
    "SEC": "001",
    "SS": "11"
  },
  "addresses": [
    {
      "id": "pt.ine.add.PTCONT.1368502",
      "street": "R NSA SRA DA LUZ",
      "house": "17",
      "postcode": "7200-042",
      "city": "SÃO VICENTE DO PIGEIRO",
      "lon": "-7.642984936313874",
      "lat": "38.45465498542858"
    },
    {
      "id": "pt.ine.add.PTCONT.1370753",
      "street": "R NSA SRA DA LUZ",
      "house": "15",
      "postcode": "7200-042",
      "city": "SÃO VICENTE DO PIGEIRO",
      "lon": "-7.642917618511052",
      "lat": "38.4546342400448"
    },
    {
      "id": "pt.ine.add.PTCONT.1376281",
      "street": "R DAS QUINTAS",
      "house": "26",
      "postcode": "7200-042",
      "city": "SÃO VICENTE DO PIGEIRO",
      "lon": "-7.643320518618821",
      "lat": "38.45344279238927"
    },
    {
      "id": "pt.ine.add.PTCONT.1378320",
      "street": "R QUINTAS",
      "house": "30",
      "postcode": "7200-042",
      "city": "SÃO VICENTE DO PIGEIRO",
      "lon": "-7.64347732477377",
      "lat": "38.453451692395724"
    },
    {
      "id": "pt.ine.add.PTCONT.1379872",
      "street": "R QUINTAS",
      "house": "34",
      "postcode": "7200-042",
      "city": "SÃO VICENTE DO PIGEIRO",
      "lon": "-7.643723037880373",
      "lat": "38.45347255124889"
    },
    {
      "id": "pt.ine.add.PTCONT.1381783",
      "street": "R QUINTAS",
      "house": "16",
      "postcode": "7200-042",
      "city": "SÃO VICENTE DO PIGEIRO",
      "lon": "-7.642897595370115",
      "lat": "38.45343248085715"
    },
    {
      "id": "pt.ine.add.PTCONT.1382174",
      "street": "R DAS QUINTAS",
      "house": "6",
      "postcode": "7200-042",
      "city": "SÃO VICENTE DO PIGEIRO",
      "lon": "-7.642151231889857",
      "lat": "38.45373422656845"
    },
    {
      "id": "pt.ine.add.PTCONT.1383735",
      "street": "R NSA SRA DA LUZ",
      "house": "19",
      "postcode": "7200-042",
      "city": "SÃO VICENTE DO PIGEIRO",
      "lon": "-7.643061152117776",
      "lat": "38.45468760878975"
    },
    {
      "id": "pt.ine.add.PTCONT.1386383",
      "street": "BC DO VALENTÃO",
      "house": "11",
      "postcode": "7200-042",
      "city": "SÃO VICENTE DO PIGEIRO",
      "lon": "-7.643464617510005",
      "lat": "38.454417366263925"
    },
    {
      "id": "pt.ine.add.PTCONT.1387272",
      "street": "R QUINTAS",
      "house": "8",
      "postcode": "7200-042",
      "city": "SÃO VICENTE DO PIGEIRO",
      "lon": "-7.642195230073434",
      "lat": "38.45373005170639"
    },
    {
      "id": "pt.ine.add.PTCONT.1388025",
      "street": "R QUINTAS",
      "house": "24",
      "postcode": "7200-042",
      "city": "SÃO VICENTE DO PIGEIRO",
      "lon": "-7.643216268932906",
      "lat": "38.453432822819074"
    },
    {
      "id": "pt.ine.add.PTCONT.1391868",
      "street": "R CRUZES",
      "house": "20",
      "postcode": "7200-042",
      "city": "SÃO VICENTE DO PIGEIRO",
      "lon": "-7.643034245696109",
      "lat": "38.45342357826119"
    },
    {
      "id": "pt.ine.add.PTCONT.1392640",
      "street": "R QUINTAS",
      "house": "32",
      "postcode": "7200-042",
      "city": "SÃO VICENTE DO PIGEIRO",
      "lon": "-7.643586843603673",
      "lat": "38.453437525595916"
    },
    {
      "id": "pt.ine.add.PTCONT.1394026",
      "street": "R NSA SRA DA LUZ",
      "house": "5",
      "postcode": "7200-042",
      "city": "SÃO VICENTE DO PIGEIRO",
      "lon": "-7.642433597575417",
      "lat": "38.45443111406945"
    },
    {
      "id": "pt.ine.add.PTCONT.1397800",
      "street": "R NSA SRA DA LUZ",
      "house": "7",
      "postcode": "7200-042",
      "city": "SÃO VICENTE DO PIGEIRO",
      "lon": "-7.642524464523109",
      "lat": "38.454454234792266"
    },
    {
      "id": "pt.ine.add.PTCONT.1401648",
      "street": "BC DE S PEDRO",
      "house": "7",
      "postcode": "7200-042",
      "city": "SÃO VICENTE DO PIGEIRO",
      "lon": "-7.6437238558354155",
      "lat": "38.45371049224464"
    },
    {
      "id": "pt.ine.add.PTCONT.1402463",
      "street": "BC VALENTAO",
      "house": "3",
      "postcode": "7200-042",
      "city": "SÃO VICENTE DO PIGEIRO",
      "lon": "-7.6431054838891725",
      "lat": "38.454308483259624"
    },
    {
      "id": "pt.ine.add.PTCONT.1407666",
      "street": "BC VALENTAO",
      "house": "",
      "postcode": "7200-042",
      "city": "SÃO VICENTE DO PIGEIRO",
      "lon": "-7.64347581375979",
      "lat": "38.45443753178325"
    },
    {
      "id": "pt.ine.add.PTCONT.1413065",
      "street": "BC VALENTAO",
      "house": "7",
      "postcode": "7200-042",
      "city": "SÃO VICENTE DO PIGEIRO",
      "lon": "-7.643345980667456",
      "lat": "38.45440148024051"
    },
    {
      "id": "pt.ine.add.PTCONT.1415177",
      "street": "R QUINTAS",
      "house": "4",
      "postcode": "7200-042",
      "city": "SÃO VICENTE DO PIGEIRO",
      "lon": "-7.642036612466855",
      "lat": "38.45374275473338"
    },
    {
      "id": "pt.ine.add.PTCONT.1415178",
      "street": "R S VICENTE",
      "house": "",
      "postcode": "7200-042",
      "city": "SÃO VICENTE DO PIGEIRO",
      "lon": "-7.64367265033661",
      "lat": "38.454147979871706"
    },
    {
      "id": "pt.ine.add.PTCONT.1418370",
      "street": "R NSA SRA DA LUZ",
      "house": "23",
      "postcode": "7200-042",
      "city": "SÃO VICENTE DO PIGEIRO",
      "lon": "-7.643225285198325",
      "lat": "38.45475221063473"
    },
    {
      "id": "pt.ine.add.PTCONT.1418371",
      "street": "BC VALENTAO",
      "house": "6",
      "postcode": "7200-042",
      "city": "SÃO VICENTE DO PIGEIRO",
      "lon": "-7.64333793218484",
      "lat": "38.45451593047452"
    },
    {
      "id": "pt.ine.add.PTCONT.1419778",
      "street": "R NSA SRA DA LUZ",
      "house": "9",
      "postcode": "7200-042",
      "city": "SÃO VICENTE DO PIGEIRO",
      "lon": "-7.642681590023854",
      "lat": "38.4545147614293"
    },
    {
      "id": "pt.ine.add.PTCONT.1428505",
      "street": "R S VICENTE",
      "house": "",
      "postcode": "7200-042",
      "city": "SÃO VICENTE DO PIGEIRO",
      "lon": "-7.643928877286837",
      "lat": "38.45352746198318"
    },
    {
      "id": "pt.ine.add.PTCONT.1429288",
      "street": "R S VICENTE",
      "house": "9",
      "postcode": "7200-042",
      "city": "SÃO VICENTE DO PIGEIRO",
      "lon": "-7.643591606837904",
      "lat": "38.454273760581096"
    },
    {
      "id": "pt.ine.add.PTCONT.1433251",
      "street": "BC VALENTAO",
      "house": "",
      "postcode": "7200-042",
      "city": "SÃO VICENTE DO PIGEIRO",
      "lon": "-7.642949343740947",
      "lat": "38.45437917761723"
    },
    {
      "id": "pt.ine.add.PTCONT.1437225",
      "street": "R QUINTAS",
      "house": "10",
      "postcode": "7200-042",
      "city": "SÃO VICENTE DO PIGEIRO",
      "lon": "-7.642508052461062",
      "lat": "38.453566563734654"
    },
    {
      "id": "pt.ine.add.PTCONT.1458894",
      "street": "R NSA SRA DA LUZ",
      "house": "21",
      "postcode": "7200-042",
      "city": "SÃO VICENTE DO PIGEIRO",
      "lon": "-7.64308275921086",
      "lat": "38.454715821059"
    },
    {
      "id": "pt.ine.add.PTCONT.1464669",
      "street": "R NOSSA SENHORA DA LUZ",
      "house": "21",
      "postcode": "7200-042",
      "city": "SÃO VICENTE DO PIGEIRO",
      "lon": "-7.6431453369090585",
      "lat": "38.454715842244205"
    },
    {
      "id": "pt.ine.add.PTCONT.1465713",
      "street": "R S VICENTE",
      "house": "",
      "postcode": "7200-042",
      "city": "SÃO VICENTE DO PIGEIRO",
      "lon": "-7.643836561623256",
      "lat": "38.453626170248896"
    },
    {
      "id": "pt.ine.add.PTCONT.1466576",
      "street": "BC VALENTAO",
      "house": "5",
      "postcode": "7200-042",
      "city": "SÃO VICENTE DO PIGEIRO",
      "lon": "-7.643212608805374",
      "lat": "38.454332571394474"
    }
  ]
}