{
  "data": {
    "distrito": "Faro",
    "concelho": "Faro",
    "freguesia": "Santa BÃ¡rbara de Nexe",
    "OBJECTID": 829,
    "BGRI2021": "08050300528",
    "DT21": "08",
    "DTMN21": "0805",
    "DTMNFR21": "080503",
    "DTMNFRSEC21": "080503005",
    "SECNUM21": "005",
    "SSNUM21": "28",
    "SECSSNUM21": "00528",
    "OBJECTID_1": 66703,
    "DT": "08",
    "CC": "05",
    "fr": "03",
    "SEC": "005",
    "SS": "28"
  },
  "addresses": [
    {
      "id": "pt.ine.add.PTCONT.1475551",
      "street": "R JOSE FERREIRO PAI",
      "house": "139",
      "postcode": "8005-423",
      "city": "FARO",
      "lon": "-7.926890581737804",
      "lat": "37.12792886299333"
    },
    {
      "id": "pt.ine.add.PTCONT.1492660",
      "street": "R JOSE FERREIRO PAI",
      "house": "131",
      "postcode": "8005-423",
      "city": "FARO",
      "lon": "-7.927489492469329",
      "lat": "37.12701082066004"
    },
    {
      "id": "pt.ine.add.PTCONT.1512963",
      "street": "",
      "house": "",
      "postcode": "8005-423",
      "city": "FARO",
      "lon": "-7.932518060254019",
      "lat": "37.12762314693717"
    },
    {
      "id": "pt.ine.add.PTCONT.1563471",
      "street": "",
      "house": "",
      "postcode": "8005-423",
      "city": "FARO",
      "lon": "-7.930449336676864",
      "lat": "37.126916800599716"
    },
    {
      "id": "pt.ine.add.PTCONT.1600273",
      "street": "BORDEIRA",
      "house": "127A",
      "postcode": "8005-423",
      "city": "FARO",
      "lon": "-7.9312302119147375",
      "lat": "37.129495168352115"
    },
    {
      "id": "pt.ine.add.PTCONT.1600274",
      "street": "BORDEIRA",
      "house": "308B",
      "postcode": "8005-423",
      "city": "FARO",
      "lon": "-7.929071785032173",
      "lat": "37.128653486173434"
    },
    {
      "id": "pt.ine.add.PTCONT.1607713",
      "street": "BORDEIRA",
      "house": "111",
      "postcode": "8005-423",
      "city": "FARO",
      "lon": "-7.932494602444512",
      "lat": "37.127983531813484"
    },
    {
      "id": "pt.ine.add.PTCONT.1620637",
      "street": "R JOSE FERREIRO PAI MONTE DO ARCO",
      "house": "155",
      "postcode": "8005-423",
      "city": "FARO",
      "lon": "-7.927515891235864",
      "lat": "37.129732071455955"
    },
    {
      "id": "pt.ine.add.PTCONT.1633203",
      "street": "R JOSE FERREIRO PAI",
      "house": "",
      "postcode": "8005-423",
      "city": "FARO",
      "lon": "-7.927827656508942",
      "lat": "37.13096706525082"
    },
    {
      "id": "pt.ine.add.PTCONT.1640782",
      "street": "MTE DA BARRINHA",
      "house": "",
      "postcode": "8005-423",
      "city": "FARO",
      "lon": "-7.928499899306262",
      "lat": "37.12789560902743"
    },
    {
      "id": "pt.ine.add.PTCONT.1643779",
      "street": "R JOSE FERREIRO PAI SOLAR DO BISAVO",
      "house": "141A",
      "postcode": "8005-423",
      "city": "FARO",
      "lon": "-7.929301944903359",
      "lat": "37.130951587815055"
    },
    {
      "id": "pt.ine.add.PTCONT.1681200",
      "street": "R JOSE FERREIRO PAI",
      "house": "169",
      "postcode": "8005-423",
      "city": "FARO",
      "lon": "-7.927682673109587",
      "lat": "37.13048024121212"
    },
    {
      "id": "pt.ine.add.PTCONT.1685038",
      "street": "BORDEIRA",
      "house": "119A",
      "postcode": "8005-423",
      "city": "FARO",
      "lon": "-7.932087171926316",
      "lat": "37.12885687113177"
    },
    {
      "id": "pt.ine.add.PTCONT.1703998",
      "street": "BORDEIRA",
      "house": "121",
      "postcode": "8005-423",
      "city": "FARO",
      "lon": "-7.93150306909559",
      "lat": "37.1284504016637"
    },
    {
      "id": "pt.ine.add.PTCONT.1715755",
      "street": "",
      "house": "",
      "postcode": "8005-423",
      "city": "FARO",
      "lon": "-7.931536279572864",
      "lat": "37.12865770223497"
    },
    {
      "id": "pt.ine.add.PTCONT.1721040",
      "street": "R JOSE FERREIRO PAI",
      "house": "193",
      "postcode": "8005-423",
      "city": "FARO",
      "lon": "-7.928365092922764",
      "lat": "37.13198619339075"
    },
    {
      "id": "pt.ine.add.PTCONT.1729945",
      "street": "R JOSE FERREIRO PAI",
      "house": "173",
      "postcode": "8005-423",
      "city": "FARO",
      "lon": "-7.927817108631787",
      "lat": "37.1307057393265"
    },
    {
      "id": "pt.ine.add.PTCONT.1729946",
      "street": "",
      "house": "",
      "postcode": "8005-423",
      "city": "FARO",
      "lon": "-7.9299375259739655",
      "lat": "37.128943312647"
    },
    {
      "id": "pt.ine.add.PTCONT.1748550",
      "street": "R JOSE FERREIRO PAI",
      "house": "191",
      "postcode": "8005-423",
      "city": "FARO",
      "lon": "-7.928175161781355",
      "lat": "37.13147226056833"
    },
    {
      "id": "pt.ine.add.PTCONT.1754297",
      "street": "R JOSE FERREIRO PAI",
      "house": "193",
      "postcode": "8005-423",
      "city": "FARO",
      "lon": "-7.928387236603131",
      "lat": "37.13212139074102"
    },
    {
      "id": "pt.ine.add.PTCONT.1767775",
      "street": "R JOSE FERREIRO PAI",
      "house": "135",
      "postcode": "8005-423",
      "city": "FARO",
      "lon": "-7.926836100403266",
      "lat": "37.127270993410974"
    },
    {
      "id": "pt.ine.add.PTCONT.1787070",
      "street": "MTE DA BARRINHA",
      "house": "",
      "postcode": "8005-423",
      "city": "FARO",
      "lon": "-7.928251889870592",
      "lat": "37.12805737176204"
    },
    {
      "id": "pt.ine.add.PTCONT.1795499",
      "street": "",
      "house": "",
      "postcode": "8005-423",
      "city": "FARO",
      "lon": "-7.931368387407833",
      "lat": "37.12831501334919"
    },
    {
      "id": "pt.ine.add.PTCONT.1826250",
      "street": "",
      "house": "",
      "postcode": "8005-423",
      "city": "FARO",
      "lon": "-7.929745470054682",
      "lat": "37.12922231231111"
    }
  ]
}