{
  "data": {
    "distrito": "Santarém",
    "concelho": "Santarém",
    "freguesia": "Abitureiras",
    "OBJECTID": 902,
    "BGRI2021": "14160100117",
    "DT21": "14",
    "DTMN21": "1416",
    "DTMNFR21": "141601",
    "DTMNFRSEC21": "141601001",
    "SECNUM21": "001",
    "SSNUM21": "17",
    "SECSSNUM21": "00117",
    "OBJECTID_1": 154226,
    "DT": "14",
    "CC": "16",
    "fr": "01",
    "SEC": "001",
    "SS": "17"
  },
  "addresses": [
    {
      "id": "pt.ine.add.PTCONT.4430928",
      "street": "LG AMANDIO SILVA MONTES",
      "house": "",
      "postcode": "2005-118",
      "city": "ABITUREIRAS",
      "lon": "-8.793613994583067",
      "lat": "39.314895843433895"
    },
    {
      "id": "pt.ine.add.PTCONT.4474719",
      "street": "R BRANCA",
      "house": "",
      "postcode": "2005-118",
      "city": "ABITUREIRAS",
      "lon": "-8.7925638938064",
      "lat": "39.31296526027567"
    },
    {
      "id": "pt.ine.add.PTCONT.4489409",
      "street": "R ESCOLAS",
      "house": "",
      "postcode": "2005-119",
      "city": "ABITUREIRAS",
      "lon": "-8.79059501740324",
      "lat": "39.30081673296279"
    },
    {
      "id": "pt.ine.add.PTCONT.4510413",
      "street": "LG MOINHO SOBRADO",
      "house": "",
      "postcode": "2005-119",
      "city": "ABITUREIRAS",
      "lon": "-8.790613567565524",
      "lat": "39.30032123394917"
    },
    {
      "id": "pt.ine.add.PTCONT.4536877",
      "street": "R BRANCA",
      "house": "",
      "postcode": "2005-118",
      "city": "ABITUREIRAS",
      "lon": "-8.793632610459184",
      "lat": "39.3144093519477"
    },
    {
      "id": "pt.ine.add.PTCONT.4538971",
      "street": "R BRANCA",
      "house": "",
      "postcode": "2005-118",
      "city": "ABITUREIRAS",
      "lon": "-8.792657240202413",
      "lat": "39.313027781486205"
    },
    {
      "id": "pt.ine.add.PTCONT.4552324",
      "street": "LG AMANDIO SILVA MONTEZ",
      "house": "S N",
      "postcode": "2005-118",
      "city": "ABITUREIRAS",
      "lon": "-8.79374085779778",
      "lat": "39.31482306639106"
    },
    {
      "id": "pt.ine.add.PTCONT.4553243",
      "street": "R BRANCA",
      "house": "",
      "postcode": "2005-118",
      "city": "ABITUREIRAS",
      "lon": "-8.792926616604671",
      "lat": "39.31331448372569"
    },
    {
      "id": "pt.ine.add.PTCONT.4553244",
      "street": "R BRANCA",
      "house": "",
      "postcode": "2005-118",
      "city": "ABITUREIRAS",
      "lon": "-8.793716567435144",
      "lat": "39.31470611134707"
    },
    {
      "id": "pt.ine.add.PTCONT.4561803",
      "street": "R ESCOLAS",
      "house": "",
      "postcode": "2005-119",
      "city": "ABITUREIRAS",
      "lon": "-8.790683458007411",
      "lat": "39.30035686789063"
    },
    {
      "id": "pt.ine.add.PTCONT.4570202",
      "street": "LG MOINHO SOBRADO",
      "house": "",
      "postcode": "2005-119",
      "city": "ABITUREIRAS",
      "lon": "-8.790531916470922",
      "lat": "39.30026765203948"
    },
    {
      "id": "pt.ine.add.PTCONT.4576194",
      "street": "R ESCOLAS",
      "house": "",
      "postcode": "2005-119",
      "city": "ABITUREIRAS",
      "lon": "-8.790146706519232",
      "lat": "39.30122458645278"
    },
    {
      "id": "pt.ine.add.PTCONT.4579183",
      "street": "R DA LIBERDADE",
      "house": "",
      "postcode": "2005-125",
      "city": "ABITUREIRAS",
      "lon": "-8.792514972788146",
      "lat": "39.30528243467545"
    },
    {
      "id": "pt.ine.add.PTCONT.4579379",
      "street": "R BRANCA CASA MADEIRA",
      "house": "",
      "postcode": "2005-118",
      "city": "ABITUREIRAS",
      "lon": "-8.792675946956503",
      "lat": "39.31255029661548"
    },
    {
      "id": "pt.ine.add.PTCONT.4595038",
      "street": "R BRANCA",
      "house": "",
      "postcode": "2005-118",
      "city": "ABITUREIRAS",
      "lon": "-8.792853751498319",
      "lat": "39.31296361792133"
    },
    {
      "id": "pt.ine.add.PTCONT.4595154",
      "street": "R ESCOLAS",
      "house": "",
      "postcode": "2005-119",
      "city": "ABITUREIRAS",
      "lon": "-8.79041240454817",
      "lat": "39.30112400781473"
    },
    {
      "id": "pt.ine.add.PTCONT.4613680",
      "street": "R BRANCA",
      "house": "",
      "postcode": "2005-118",
      "city": "ABITUREIRAS",
      "lon": "-8.793691684262253",
      "lat": "39.3145261096397"
    },
    {
      "id": "pt.ine.add.PTCONT.4624310",
      "street": "LG MOINHO SOBRADO",
      "house": "",
      "postcode": "2005-125",
      "city": "ABITUREIRAS",
      "lon": "-8.790755034125276",
      "lat": "39.30057263563343"
    },
    {
      "id": "pt.ine.add.PTCONT.4624311",
      "street": "R ESCOLAS",
      "house": "",
      "postcode": "2005-119",
      "city": "ABITUREIRAS",
      "lon": "-8.790593837754697",
      "lat": "39.300690639273775"
    },
    {
      "id": "pt.ine.add.PTCONT.4634566",
      "street": "R ESCOLAS",
      "house": "",
      "postcode": "2005-119",
      "city": "ABITUREIRAS",
      "lon": "-8.79072539824003",
      "lat": "39.301122240268924"
    },
    {
      "id": "pt.ine.add.PTCONT.4638531",
      "street": "R BRANCA",
      "house": "",
      "postcode": "2005-118",
      "city": "ABITUREIRAS",
      "lon": "-8.792828025384551",
      "lat": "39.31269354925754"
    },
    {
      "id": "pt.ine.add.PTCONT.4655054",
      "street": "R BRANCA",
      "house": "",
      "postcode": "2005-118",
      "city": "ABITUREIRAS",
      "lon": "-8.792713604983696",
      "lat": "39.312856326309"
    }
  ]
}