{
  "data": {
    "distrito": "Santarém",
    "concelho": "Santarém",
    "freguesia": "Abitureiras",
    "OBJECTID": 520,
    "BGRI2021": "14160100145",
    "DT21": "14",
    "DTMN21": "1416",
    "DTMNFR21": "141601",
    "DTMNFRSEC21": "141601001",
    "SECNUM21": "001",
    "SSNUM21": "45",
    "SECSSNUM21": "00145",
    "OBJECTID_1": 154048,
    "DT": "14",
    "CC": "16",
    "fr": "01",
    "SEC": "001",
    "SS": "45"
  },
  "addresses": [
    {
      "id": "pt.ine.add.PTCONT.4407662",
      "street": "R FORNEIROS",
      "house": "",
      "postcode": "2005-121",
      "city": "ABITUREIRAS",
      "lon": "-8.779016271673566",
      "lat": "39.33010074033495"
    },
    {
      "id": "pt.ine.add.PTCONT.4455322",
      "street": "R FORNEIROS",
      "house": "",
      "postcode": "2005-121",
      "city": "ABITUREIRAS",
      "lon": "-8.77919014631444",
      "lat": "39.330090768231024"
    },
    {
      "id": "pt.ine.add.PTCONT.4471345",
      "street": "R 25 DE ABRIL",
      "house": "",
      "postcode": "2005-121",
      "city": "ABITUREIRAS",
      "lon": "-8.779855333316913",
      "lat": "39.33053743047468"
    },
    {
      "id": "pt.ine.add.PTCONT.4471584",
      "street": "R GAIOES SOLAR GEMEOS",
      "house": "",
      "postcode": "2005-121",
      "city": "ABITUREIRAS",
      "lon": "-8.774582342525427",
      "lat": "39.32463090914668"
    },
    {
      "id": "pt.ine.add.PTCONT.4477275",
      "street": "R LAMOSAS",
      "house": "",
      "postcode": "2005-120",
      "city": "ABITUREIRAS",
      "lon": "-8.770643798934191",
      "lat": "39.32000486176005"
    },
    {
      "id": "pt.ine.add.PTCONT.4479032",
      "street": "R 25 ABRIL",
      "house": "",
      "postcode": "2005-129",
      "city": "ABITUREIRAS",
      "lon": "-8.778555684992103",
      "lat": "39.334246572344796"
    },
    {
      "id": "pt.ine.add.PTCONT.4492792",
      "street": "QTA OLIVAL VELHO",
      "house": "",
      "postcode": "2005-121",
      "city": "ABITUREIRAS",
      "lon": "-8.778015550636765",
      "lat": "39.33478999353798"
    },
    {
      "id": "pt.ine.add.PTCONT.4529956",
      "street": "R 25 DE ABRIL",
      "house": "",
      "postcode": "2005-121",
      "city": "ABITUREIRAS",
      "lon": "-8.780034249574493",
      "lat": "39.32981586609039"
    },
    {
      "id": "pt.ine.add.PTCONT.4543041",
      "street": "R CASAL AZINHEIRA",
      "house": "",
      "postcode": "2005-121",
      "city": "ABITUREIRAS",
      "lon": "-8.777480631309928",
      "lat": "39.31821082397284"
    },
    {
      "id": "pt.ine.add.PTCONT.4545406",
      "street": "R 25 DE ABRIL",
      "house": "",
      "postcode": "2005-121",
      "city": "ABITUREIRAS",
      "lon": "-8.780002279848695",
      "lat": "39.33012228608498"
    },
    {
      "id": "pt.ine.add.PTCONT.4566043",
      "street": "R 25 DE ABRIL",
      "house": "",
      "postcode": "2005-121",
      "city": "ABITUREIRAS",
      "lon": "-8.779811433364937",
      "lat": "39.33080788816714"
    },
    {
      "id": "pt.ine.add.PTCONT.4581306",
      "street": "R LAMOSAS",
      "house": "",
      "postcode": "2005-120",
      "city": "ABITUREIRAS",
      "lon": "-8.771048966052902",
      "lat": "39.31865157008226"
    },
    {
      "id": "pt.ine.add.PTCONT.4588955",
      "street": "R 25 DE ABRIL",
      "house": "",
      "postcode": "2005-121",
      "city": "ABITUREIRAS",
      "lon": "-8.780158580547308",
      "lat": "39.32946389704443"
    },
    {
      "id": "pt.ine.add.PTCONT.4607720",
      "street": "R LAMOSAS",
      "house": "",
      "postcode": "2005-120",
      "city": "ABITUREIRAS",
      "lon": "-8.770462847879122",
      "lat": "39.32051025277898"
    },
    {
      "id": "pt.ine.add.PTCONT.4610423",
      "street": "R 25 DE ABRIL",
      "house": "",
      "postcode": "2005-121",
      "city": "ABITUREIRAS",
      "lon": "-8.779946451552673",
      "lat": "39.330356781631856"
    },
    {
      "id": "pt.ine.add.PTCONT.4611654",
      "street": "R LAMOSAS",
      "house": "",
      "postcode": "2005-120",
      "city": "ABITUREIRAS",
      "lon": "-8.772478432571194",
      "lat": "39.32027402090299"
    },
    {
      "id": "pt.ine.add.PTCONT.4620193",
      "street": "R LAMOSAS",
      "house": "",
      "postcode": "2005-120",
      "city": "ABITUREIRAS",
      "lon": "-8.770660218438152",
      "lat": "39.32053619339384"
    },
    {
      "id": "pt.ine.add.PTCONT.4625858",
      "street": "R LAMOSAS",
      "house": "",
      "postcode": "2005-120",
      "city": "ABITUREIRAS",
      "lon": "-8.771041542930783",
      "lat": "39.31911097526423"
    }
  ]
}