{
  "data": {
    "distrito": "Beja",
    "concelho": "Almodôvar",
    "freguesia": "Rosário",
    "OBJECTID": 22,
    "BGRI2021": "02020300123",
    "DT21": "02",
    "DTMN21": "0202",
    "DTMNFR21": "020203",
    "DTMNFRSEC21": "020203001",
    "SECNUM21": "001",
    "SSNUM21": "23",
    "SECSSNUM21": "00123",
    "OBJECTID_1": 12903,
    "DT": "02",
    "CC": "02",
    "fr": "03",
    "SEC": "001",
    "SS": "23"
  },
  "addresses": [
    {
      "id": "pt.ine.add.PTCONT.376700",
      "street": "R FRENTE",
      "house": "2B",
      "postcode": "7700-235",
      "city": "ROSÁRIO",
      "lon": "-8.084014209174539",
      "lat": "37.606443911673345"
    },
    {
      "id": "pt.ine.add.PTCONT.376701",
      "street": "R TRAS",
      "house": "2A",
      "postcode": "7700-235",
      "city": "ROSÁRIO",
      "lon": "-8.084014209174539",
      "lat": "37.606443911673345"
    },
    {
      "id": "pt.ine.add.PTCONT.376702",
      "street": "R TRAS",
      "house": "2D",
      "postcode": "7700-235",
      "city": "ROSÁRIO",
      "lon": "-8.084014209174539",
      "lat": "37.606443911673345"
    },
    {
      "id": "pt.ine.add.PTCONT.383394",
      "street": "R LOENDREIRO",
      "house": "",
      "postcode": "7700-235",
      "city": "ROSÁRIO",
      "lon": "-8.08463653754433",
      "lat": "37.607291099228"
    },
    {
      "id": "pt.ine.add.PTCONT.413778",
      "street": "R LOENDREIRO",
      "house": "",
      "postcode": "7700-235",
      "city": "ROSÁRIO",
      "lon": "-8.08434222986418",
      "lat": "37.607065730571435"
    },
    {
      "id": "pt.ine.add.PTCONT.420208",
      "street": "R LOENDREIRO",
      "house": "",
      "postcode": "7700-235",
      "city": "ROSÁRIO",
      "lon": "-8.084557202705327",
      "lat": "37.607381165579206"
    },
    {
      "id": "pt.ine.add.PTCONT.421029",
      "street": "R DOS EUCALIPTOS",
      "house": "",
      "postcode": "7700-235",
      "city": "ROSÁRIO",
      "lon": "-8.085576619411242",
      "lat": "37.60714732325131"
    },
    {
      "id": "pt.ine.add.PTCONT.428165",
      "street": "R LOENDREIRO",
      "house": "",
      "postcode": "7700-235",
      "city": "ROSÁRIO",
      "lon": "-8.084274302537935",
      "lat": "37.60702966289678"
    }
  ]
}