{
  "data": {
    "distrito": "Faro",
    "concelho": "Loul√©",
    "freguesia": "Boliqueime",
    "OBJECTID": 448,
    "BGRI2021": "08080400326",
    "DT21": "08",
    "DTMN21": "0808",
    "DTMNFR21": "080804",
    "DTMNFRSEC21": "080804003",
    "SECNUM21": "003",
    "SSNUM21": "26",
    "SECSSNUM21": "00326",
    "OBJECTID_1": 68313,
    "DT": "08",
    "CC": "08",
    "fr": "04",
    "SEC": "003",
    "SS": "26"
  },
  "addresses": [
    {
      "id": "pt.ine.add.PTCONT.1487750",
      "street": "",
      "house": "",
      "postcode": "8100-082",
      "city": "BOLIQUEIME",
      "lon": "-8.169124971084049",
      "lat": "37.14033015992595"
    },
    {
      "id": "pt.ine.add.PTCONT.1490331",
      "street": "R PRESIDENTE",
      "house": "",
      "postcode": "8100-074",
      "city": "BOLIQUEIME",
      "lon": "-8.16255142922897",
      "lat": "37.139025436404886"
    },
    {
      "id": "pt.ine.add.PTCONT.1492450",
      "street": "R PRESIDENTE",
      "house": "",
      "postcode": "8100-074",
      "city": "BOLIQUEIME",
      "lon": "-8.16255142922897",
      "lat": "37.139025436404886"
    },
    {
      "id": "pt.ine.add.PTCONT.1501062",
      "street": "R PRESIDENTE",
      "house": "",
      "postcode": "8100-074",
      "city": "BOLIQUEIME",
      "lon": "-8.162427631131418",
      "lat": "37.13904348831388"
    },
    {
      "id": "pt.ine.add.PTCONT.1523465",
      "street": "CASA DO GATO",
      "house": "",
      "postcode": "8100-082",
      "city": "BOLIQUEIME",
      "lon": "-8.165737706169578",
      "lat": "37.14161064720052"
    },
    {
      "id": "pt.ine.add.PTCONT.1545625",
      "street": "",
      "house": "",
      "postcode": "8100-083",
      "city": "BOLIQUEIME",
      "lon": "-8.16256220567213",
      "lat": "37.137790979760354"
    },
    {
      "id": "pt.ine.add.PTCONT.1568595",
      "street": "",
      "house": "",
      "postcode": "8100-082",
      "city": "BOLIQUEIME",
      "lon": "-8.163181609624738",
      "lat": "37.13877298106181"
    },
    {
      "id": "pt.ine.add.PTCONT.1569516",
      "street": "R PRESIDENTE",
      "house": "",
      "postcode": "8100-074",
      "city": "BOLIQUEIME",
      "lon": "-8.162180034759569",
      "lat": "37.13907959174388"
    },
    {
      "id": "pt.ine.add.PTCONT.1577499",
      "street": "",
      "house": "",
      "postcode": "8100-082",
      "city": "BOLIQUEIME",
      "lon": "-8.163711050396836",
      "lat": "37.13990818260255"
    },
    {
      "id": "pt.ine.add.PTCONT.1592416",
      "street": "QTA AMANDINA",
      "house": "",
      "postcode": "8100-082",
      "city": "BOLIQUEIME",
      "lon": "-8.167819314668684",
      "lat": "37.14021341152363"
    },
    {
      "id": "pt.ine.add.PTCONT.1604021",
      "street": "CASA DO CANTO",
      "house": "",
      "postcode": "8100-082",
      "city": "BOLIQUEIME",
      "lon": "-8.164521587796877",
      "lat": "37.14031344803581"
    },
    {
      "id": "pt.ine.add.PTCONT.1612221",
      "street": "",
      "house": "",
      "postcode": "8100-082",
      "city": "BOLIQUEIME",
      "lon": "-8.166356586843253",
      "lat": "37.141232029678584"
    },
    {
      "id": "pt.ine.add.PTCONT.1624222",
      "street": "",
      "house": "",
      "postcode": "8100-082",
      "city": "BOLIQUEIME",
      "lon": "-8.16681766759884",
      "lat": "37.140357870363125"
    },
    {
      "id": "pt.ine.add.PTCONT.1636820",
      "street": "",
      "house": "",
      "postcode": "8100-082",
      "city": "BOLIQUEIME",
      "lon": "-8.166649181693764",
      "lat": "37.1411328305523"
    },
    {
      "id": "pt.ine.add.PTCONT.1638158",
      "street": "",
      "house": "",
      "postcode": "8100-074",
      "city": "BOLIQUEIME",
      "lon": "-8.162269908852661",
      "lat": "37.13864706028168"
    },
    {
      "id": "pt.ine.add.PTCONT.1660785",
      "street": "CASA NESPERA",
      "house": "",
      "postcode": "8100-082",
      "city": "BOLIQUEIME",
      "lon": "-8.164454473022666",
      "lat": "37.1413226540316"
    },
    {
      "id": "pt.ine.add.PTCONT.1663478",
      "street": "CASA MURRIN",
      "house": "",
      "postcode": "8100-083",
      "city": "BOLIQUEIME",
      "lon": "-8.163440966720302",
      "lat": "37.14000736873836"
    },
    {
      "id": "pt.ine.add.PTCONT.1696978",
      "street": "",
      "house": "",
      "postcode": "8100-083",
      "city": "BOLIQUEIME",
      "lon": "-8.161852811004426",
      "lat": "37.136890092449605"
    },
    {
      "id": "pt.ine.add.PTCONT.1704499",
      "street": "",
      "house": "",
      "postcode": "8100-082",
      "city": "BOLIQUEIME",
      "lon": "-8.168517492808583",
      "lat": "37.140979106820666"
    },
    {
      "id": "pt.ine.add.PTCONT.1707498",
      "street": "",
      "house": "",
      "postcode": "8100-083",
      "city": "BOLIQUEIME",
      "lon": "-8.163575934569169",
      "lat": "37.13977305824814"
    },
    {
      "id": "pt.ine.add.PTCONT.1734598",
      "street": "",
      "house": "",
      "postcode": "8100-064",
      "city": "BOLIQUEIME",
      "lon": "-8.162833696295719",
      "lat": "37.14130505034247"
    },
    {
      "id": "pt.ine.add.PTCONT.1735970",
      "street": "",
      "house": "",
      "postcode": "8100-082",
      "city": "BOLIQUEIME",
      "lon": "-8.163249239518713",
      "lat": "37.13902526102454"
    },
    {
      "id": "pt.ine.add.PTCONT.1749325",
      "street": "",
      "house": "",
      "postcode": "8100-082",
      "city": "BOLIQUEIME",
      "lon": "-8.164094004299862",
      "lat": "37.14059288948075"
    },
    {
      "id": "pt.ine.add.PTCONT.1751367",
      "street": "",
      "house": "",
      "postcode": "8100-082",
      "city": "BOLIQUEIME",
      "lon": "-8.166930203569544",
      "lat": "37.14032179586725"
    },
    {
      "id": "pt.ine.add.PTCONT.1768636",
      "street": "R PRESIDENTE",
      "house": "",
      "postcode": "8100-074",
      "city": "BOLIQUEIME",
      "lon": "-8.162337466276833",
      "lat": "37.13871912854248"
    },
    {
      "id": "pt.ine.add.PTCONT.1791995",
      "street": "R PRESIDENTE",
      "house": "",
      "postcode": "8100-074",
      "city": "BOLIQUEIME",
      "lon": "-8.162326339529907",
      "lat": "37.13905252393619"
    },
    {
      "id": "pt.ine.add.PTCONT.1798440",
      "street": "CASA CHARNECO",
      "house": "",
      "postcode": "8100-082",
      "city": "BOLIQUEIME",
      "lon": "-8.169451246801795",
      "lat": "37.14006875264953"
    },
    {
      "id": "pt.ine.add.PTCONT.1808111",
      "street": "",
      "house": "",
      "postcode": "8100-082",
      "city": "BOLIQUEIME",
      "lon": "-8.166682625089244",
      "lat": "37.14040296173862"
    },
    {
      "id": "pt.ine.add.PTCONT.1811027",
      "street": "",
      "house": "",
      "postcode": "8100-082",
      "city": "BOLIQUEIME",
      "lon": "-8.164330323537607",
      "lat": "37.14049371076483"
    },
    {
      "id": "pt.ine.add.PTCONT.1817192",
      "street": "",
      "house": "",
      "postcode": "8100-064",
      "city": "BOLIQUEIME",
      "lon": "-8.167764748765288",
      "lat": "37.14396184007163"
    },
    {
      "id": "pt.ine.add.PTCONT.1819478",
      "street": "SIT MALHADAIS",
      "house": "",
      "postcode": "8100-082",
      "city": "BOLIQUEIME",
      "lon": "-8.163136717963104",
      "lat": "37.13909737447746"
    },
    {
      "id": "pt.ine.add.PTCONT.1821393",
      "street": "R PRESIDENTE",
      "house": "",
      "postcode": "8100-074",
      "city": "BOLIQUEIME",
      "lon": "-8.162236302914351",
      "lat": "37.13906155670679"
    },
    {
      "id": "pt.ine.add.PTCONT.1822426",
      "street": "CASA CERCA DA OLIVEIRA",
      "house": "",
      "postcode": "8100-082",
      "city": "BOLIQUEIME",
      "lon": "-8.16429627674544",
      "lat": "37.13980891335221"
    },
    {
      "id": "pt.ine.add.PTCONT.1822427",
      "street": "",
      "house": "",
      "postcode": "8100-082",
      "city": "BOLIQUEIME",
      "lon": "-8.164533234345708",
      "lat": "37.14125955891805"
    },
    {
      "id": "pt.ine.add.PTCONT.1828284",
      "street": "",
      "house": "",
      "postcode": "8100-082",
      "city": "BOLIQUEIME",
      "lon": "-8.163316748050317",
      "lat": "37.13897118016781"
    },
    {
      "id": "pt.ine.add.PTCONT.1829551",
      "street": "",
      "house": "",
      "postcode": "8100-082",
      "city": "BOLIQUEIME",
      "lon": "-8.164274376415115",
      "lat": "37.14129566969537"
    },
    {
      "id": "pt.ine.add.PTCONT.1840241",
      "street": "CASA ESTRELA",
      "house": "",
      "postcode": "8100-083",
      "city": "BOLIQUEIME",
      "lon": "-8.161909173249693",
      "lat": "37.137124354760346"
    }
  ]
}