{
  "data": {
    "distrito": "Braga",
    "concelho": "Vila Nova de Famalicão",
    "freguesia": "União das freguesias de Esmeriz e Cabeçudos",
    "OBJECTID": 979,
    "BGRI2021": "03125400211",
    "DT21": "03",
    "DTMN21": "0312",
    "DTMNFR21": "031254",
    "DTMNFRSEC21": "031254002",
    "SECNUM21": "002",
    "SSNUM21": "11",
    "SECSSNUM21": "00211",
    "OBJECTID_1": 31348,
    "DT": "03",
    "CC": "12",
    "fr": "54",
    "SEC": "002",
    "SS": "11"
  },
  "addresses": [
    {
      "id": "pt.ine.add.PTCONT.529342",
      "street": "R S MARCAL",
      "house": "87",
      "postcode": "4760-480",
      "city": "ESMERIZ",
      "lon": "-8.51892484011295",
      "lat": "41.379246124481895"
    },
    {
      "id": "pt.ine.add.PTCONT.550007",
      "street": "TV ESCOLA",
      "house": "39",
      "postcode": "4760-480",
      "city": "ESMERIZ",
      "lon": "-8.518473824706781",
      "lat": "41.379796880619764"
    },
    {
      "id": "pt.ine.add.PTCONT.558770",
      "street": "TV ESCOLA",
      "house": "57",
      "postcode": "4760-480",
      "city": "ESMERIZ",
      "lon": "-8.518510591104619",
      "lat": "41.37994982572436"
    },
    {
      "id": "pt.ine.add.PTCONT.590698",
      "street": "TV ESCOLA",
      "house": "77",
      "postcode": "4760-480",
      "city": "ESMERIZ",
      "lon": "-8.518571213119534",
      "lat": "41.38009368689301"
    },
    {
      "id": "pt.ine.add.PTCONT.608693",
      "street": "R S MARCAL",
      "house": "87 A",
      "postcode": "4760-480",
      "city": "ESMERIZ",
      "lon": "-8.518925372236087",
      "lat": "41.37933616284478"
    },
    {
      "id": "pt.ine.add.PTCONT.614128",
      "street": "TV ESCOLA",
      "house": "87",
      "postcode": "4760-480",
      "city": "ESMERIZ",
      "lon": "-8.5185603752534",
      "lat": "41.380282807476284"
    },
    {
      "id": "pt.ine.add.PTCONT.624449",
      "street": "R VICENTINOS",
      "house": "118",
      "postcode": "4760-480",
      "city": "ESMERIZ",
      "lon": "-8.517481675079358",
      "lat": "41.37980920290904"
    },
    {
      "id": "pt.ine.add.PTCONT.630918",
      "street": "TV ESCOLA",
      "house": "84",
      "postcode": "4760-480",
      "city": "ESMERIZ",
      "lon": "-8.518177464694192",
      "lat": "41.380221061343775"
    },
    {
      "id": "pt.ine.add.PTCONT.659923",
      "street": "TV ESCOLA",
      "house": "64",
      "postcode": "4760-480",
      "city": "ESMERIZ",
      "lon": "-8.518116737220435",
      "lat": "41.380059192295796"
    },
    {
      "id": "pt.ine.add.PTCONT.705617",
      "street": "R S MARCAL",
      "house": "42",
      "postcode": "4760-480",
      "city": "ESMERIZ",
      "lon": "-8.51881746558572",
      "lat": "41.379282500491136"
    },
    {
      "id": "pt.ine.add.PTCONT.726660",
      "street": "R FRANCISCO ANTÓNIO BARREIRA",
      "house": "91",
      "postcode": "4760-480",
      "city": "ESMERIZ",
      "lon": "-8.517607104146396",
      "lat": "41.38080822935471"
    },
    {
      "id": "pt.ine.add.PTCONT.756581",
      "street": "R FRANCISCO ANTÓNIO BARREIRA",
      "house": "129",
      "postcode": "4760-480",
      "city": "ESMERIZ",
      "lon": "-8.518216089729854",
      "lat": "41.38068914076208"
    },
    {
      "id": "pt.ine.add.PTCONT.756582",
      "street": "R FRANCISCO ANTÓNIO BARREIRA",
      "house": "129",
      "postcode": "4760-480",
      "city": "ESMERIZ",
      "lon": "-8.518216089729854",
      "lat": "41.38068914076208"
    },
    {
      "id": "pt.ine.add.PTCONT.756583",
      "street": "R FRANCISCO ANTÓNIO BARREIRA",
      "house": "129",
      "postcode": "4760-480",
      "city": "ESMERIZ",
      "lon": "-8.518216089729854",
      "lat": "41.38068914076208"
    },
    {
      "id": "pt.ine.add.PTCONT.768552",
      "street": "R S MARCAL",
      "house": "58",
      "postcode": "4760-480",
      "city": "ESMERIZ",
      "lon": "-8.51870929320027",
      "lat": "41.379183818851764"
    },
    {
      "id": "pt.ine.add.PTCONT.777570",
      "street": "LG CRUZEIRO",
      "house": "54",
      "postcode": "4760-480",
      "city": "ESMERIZ",
      "lon": "-8.51668703590062",
      "lat": "41.3808833320236"
    },
    {
      "id": "pt.ine.add.PTCONT.789387",
      "street": "LG LARGO DA IGREJA",
      "house": "158",
      "postcode": "4760-480",
      "city": "ESMERIZ",
      "lon": "-8.516479685806084",
      "lat": "41.38018170998223"
    },
    {
      "id": "pt.ine.add.PTCONT.834528",
      "street": "R FRANCISCO ANTONIO BARREIRA",
      "house": "91",
      "postcode": "4760-480",
      "city": "ESMERIZ",
      "lon": "-8.517929767702867",
      "lat": "41.380789142753734"
    }
  ]
}