{
  "data": {
    "distrito": "Porto",
    "concelho": "Amarante",
    "freguesia": "União das freguesias de Figueiró (Santiago e Santa Cristina)",
    "OBJECTID": 688,
    "BGRI2021": "13014400114",
    "DT21": "13",
    "DTMN21": "1301",
    "DTMNFR21": "130144",
    "DTMNFRSEC21": "130144001",
    "SECNUM21": "001",
    "SSNUM21": "14",
    "SECSSNUM21": "00114",
    "OBJECTID_1": 125165,
    "DT": "13",
    "CC": "01",
    "fr": "44",
    "SEC": "001",
    "SS": "14"
  },
  "addresses": [
    {
      "id": "pt.ine.add.PTCONT.3656342",
      "street": "CAM PRESA",
      "house": "137",
      "postcode": "4615-120",
      "city": "FIGUEIRÓ (SANTA CRISTINA)",
      "lon": "-8.17273288246765",
      "lat": "41.293230540052186"
    },
    {
      "id": "pt.ine.add.PTCONT.3685100",
      "street": "",
      "house": "",
      "postcode": "4615-102",
      "city": "FIGUEIRÓ (SANTA CRISTINA)",
      "lon": "-8.172003942623972",
      "lat": "41.29208725822218"
    },
    {
      "id": "pt.ine.add.PTCONT.3765848",
      "street": "TV LAMELA",
      "house": "",
      "postcode": "4615-109",
      "city": "FIGUEIRÓ (SANTA CRISTINA)",
      "lon": "-8.17212309148587",
      "lat": "41.291691034081076"
    },
    {
      "id": "pt.ine.add.PTCONT.3805702",
      "street": "TV GRANJA",
      "house": "352",
      "postcode": "4615-102",
      "city": "FIGUEIRÓ (SANTA CRISTINA)",
      "lon": "-8.174306762623806",
      "lat": "41.29000649176938"
    },
    {
      "id": "pt.ine.add.PTCONT.3830840",
      "street": "R EIRAS",
      "house": "191",
      "postcode": "4615-097",
      "city": "FIGUEIRÓ (SANTA CRISTINA)",
      "lon": "-8.17342522163963",
      "lat": "41.293059220324544"
    },
    {
      "id": "pt.ine.add.PTCONT.3841657",
      "street": "R EIRAS",
      "house": "197",
      "postcode": "4615-097",
      "city": "FIGUEIRÓ (SANTA CRISTINA)",
      "lon": "-8.173675877865477",
      "lat": "41.29296909050752"
    },
    {
      "id": "pt.ine.add.PTCONT.3863048",
      "street": "R LAGOA",
      "house": "32",
      "postcode": "4615-109",
      "city": "FIGUEIRÓ (SANTA CRISTINA)",
      "lon": "-8.174414330559548",
      "lat": "41.29020454519597"
    },
    {
      "id": "pt.ine.add.PTCONT.3895590",
      "street": "TV LAMELA",
      "house": "",
      "postcode": "4615-109",
      "city": "FIGUEIRÓ (SANTA CRISTINA)",
      "lon": "-8.173149432044063",
      "lat": "41.2910964058905"
    },
    {
      "id": "pt.ine.add.PTCONT.3916431",
      "street": "R EIRAS",
      "house": "253",
      "postcode": "4615-097",
      "city": "FIGUEIRÓ (SANTA CRISTINA)",
      "lon": "-8.174344686114795",
      "lat": "41.29335603243793"
    },
    {
      "id": "pt.ine.add.PTCONT.3928810",
      "street": "CAM PRESA",
      "house": "14",
      "postcode": "4615-120",
      "city": "FIGUEIRÓ (SANTA CRISTINA)",
      "lon": "-8.17451173142459",
      "lat": "41.29320290149558"
    },
    {
      "id": "pt.ine.add.PTCONT.3947028",
      "street": "R PACO",
      "house": "",
      "postcode": "4615-117",
      "city": "FIGUEIRÓ (SANTA CRISTINA)",
      "lon": "-8.181819289498552",
      "lat": "41.29464971344126"
    },
    {
      "id": "pt.ine.add.PTCONT.3966060",
      "street": "TV LAMELA",
      "house": "",
      "postcode": "4615-109",
      "city": "FIGUEIRÓ (SANTA CRISTINA)",
      "lon": "-8.172624309431642",
      "lat": "41.291366712704615"
    },
    {
      "id": "pt.ine.add.PTCONT.4007912",
      "street": "R LAGOA",
      "house": "",
      "postcode": "4615-109",
      "city": "FIGUEIRÓ (SANTA CRISTINA)",
      "lon": "-8.174318961373997",
      "lat": "41.29042067970091"
    },
    {
      "id": "pt.ine.add.PTCONT.4025961",
      "street": "R VESSADAS",
      "house": "213",
      "postcode": "4615-102",
      "city": "FIGUEIRÓ (SANTA CRISTINA)",
      "lon": "-8.174640944059941",
      "lat": "41.289871308978626"
    },
    {
      "id": "pt.ine.add.PTCONT.4025962",
      "street": "R VESSADAS",
      "house": "213",
      "postcode": "4615-133",
      "city": "FIGUEIRÓ (SANTA CRISTINA)",
      "lon": "-8.174640944059941",
      "lat": "41.289871308978626"
    },
    {
      "id": "pt.ine.add.PTCONT.4025963",
      "street": "R JULIO TEIXEIRA",
      "house": "",
      "postcode": "4615-130",
      "city": "FIGUEIRÓ (SANTA CRISTINA)",
      "lon": "-8.174640944059941",
      "lat": "41.289871308978626"
    },
    {
      "id": "pt.ine.add.PTCONT.4029055",
      "street": "R VESSADAS",
      "house": "213",
      "postcode": "4615-102",
      "city": "FIGUEIRÓ (SANTA CRISTINA)",
      "lon": "-8.174640944059941",
      "lat": "41.289871308978626"
    },
    {
      "id": "pt.ine.add.PTCONT.4056729",
      "street": "R LAMELA",
      "house": "",
      "postcode": "4615-109",
      "city": "FIGUEIRÓ (SANTA CRISTINA)",
      "lon": "-8.171765374805906",
      "lat": "41.29242949731395"
    },
    {
      "id": "pt.ine.add.PTCONT.4056731",
      "street": "R LAGOA",
      "house": "34",
      "postcode": "4615-109",
      "city": "FIGUEIRÓ (SANTA CRISTINA)",
      "lon": "-8.174247241758026",
      "lat": "41.29027663846971"
    },
    {
      "id": "pt.ine.add.PTCONT.4109995",
      "street": "R EIRAS",
      "house": "207",
      "postcode": "4615-097",
      "city": "FIGUEIRÓ (SANTA CRISTINA)",
      "lon": "-8.173866952319976",
      "lat": "41.29305906477533"
    },
    {
      "id": "pt.ine.add.PTCONT.4122370",
      "street": "R EIRAS",
      "house": "145",
      "postcode": "4615-097",
      "city": "FIGUEIRÓ (SANTA CRISTINA)",
      "lon": "-8.172899985944218",
      "lat": "41.293167453183266"
    },
    {
      "id": "pt.ine.add.PTCONT.4187788",
      "street": "CAM PRESA",
      "house": "158",
      "postcode": "4615-120",
      "city": "FIGUEIRÓ (SANTA CRISTINA)",
      "lon": "-8.175370701328715",
      "lat": "41.292248146656235"
    },
    {
      "id": "pt.ine.add.PTCONT.4214312",
      "street": "TV LAMELA",
      "house": "221",
      "postcode": "4615-109",
      "city": "FIGUEIRÓ (SANTA CRISTINA)",
      "lon": "-8.172170952578313",
      "lat": "41.29187110140992"
    },
    {
      "id": "pt.ine.add.PTCONT.4232129",
      "street": "CAM PRESA",
      "house": "135",
      "postcode": "4615-120",
      "city": "FIGUEIRÓ (SANTA CRISTINA)",
      "lon": "-8.17433199348986",
      "lat": "41.29215848152344"
    },
    {
      "id": "pt.ine.add.PTCONT.4327502",
      "street": "R IGREJA",
      "house": "79",
      "postcode": "4615-097",
      "city": "FIGUEIRÓ (SANTA CRISTINA)",
      "lon": "-8.175264390792746",
      "lat": "41.29401300409095"
    },
    {
      "id": "pt.ine.add.PTCONT.4327503",
      "street": "R IGREJA",
      "house": "79",
      "postcode": "4615-097",
      "city": "FIGUEIRÓ (SANTA CRISTINA)",
      "lon": "-8.175264390792746",
      "lat": "41.29401300409095"
    },
    {
      "id": "pt.ine.add.PTCONT.4343386",
      "street": "TV LAMELA",
      "house": "205",
      "postcode": "4615-109",
      "city": "FIGUEIRÓ (SANTA CRISTINA)",
      "lon": "-8.172039597502854",
      "lat": "41.29181712083925"
    },
    {
      "id": "pt.ine.add.PTCONT.4365470",
      "street": "TV LAMELA",
      "house": "",
      "postcode": "4615-109",
      "city": "FIGUEIRÓ (SANTA CRISTINA)",
      "lon": "-8.172874954816935",
      "lat": "41.29126758043042"
    }
  ]
}