{
  "data": {
    "distrito": "Leiria",
    "concelho": "Peniche",
    "freguesia": "Serra d'El-Rei",
    "OBJECTID": 617,
    "BGRI2021": "10140500126",
    "DT21": "10",
    "DTMN21": "1014",
    "DTMNFR21": "101405",
    "DTMNFRSEC21": "101405001",
    "SECNUM21": "001",
    "SSNUM21": "26",
    "SECSSNUM21": "00126",
    "OBJECTID_1": 94286,
    "DT": "10",
    "CC": "14",
    "fr": "05",
    "SEC": "001",
    "SS": "26"
  },
  "addresses": [
    {
      "id": "pt.ine.add.PTCONT.1980578",
      "street": "AV LIBERDADE",
      "house": "97",
      "postcode": "2525-801",
      "city": "SERRA D'EL REI",
      "lon": "-9.272387944953396",
      "lat": "39.330649555531856"
    },
    {
      "id": "pt.ine.add.PTCONT.2006205",
      "street": "R PACO",
      "house": "4",
      "postcode": "2525-832",
      "city": "SERRA D'EL REI",
      "lon": "-9.271343017523229",
      "lat": "39.330578717286954"
    },
    {
      "id": "pt.ine.add.PTCONT.2009953",
      "street": "AV LIBERDADE",
      "house": "91",
      "postcode": "2525-801",
      "city": "SERRA D'EL REI",
      "lon": "-9.27207588383315",
      "lat": "39.3307156579722"
    },
    {
      "id": "pt.ine.add.PTCONT.2035611",
      "street": "R PACO",
      "house": "6",
      "postcode": "2525-832",
      "city": "SERRA D'EL REI",
      "lon": "-9.271470570135097",
      "lat": "39.33057746979557"
    },
    {
      "id": "pt.ine.add.PTCONT.2075405",
      "street": "R POÇO NOVO",
      "house": "2",
      "postcode": "2525-835",
      "city": "SERRA D'EL REI",
      "lon": "-9.270047581080904",
      "lat": "39.33151008145913"
    },
    {
      "id": "pt.ine.add.PTCONT.2097372",
      "street": "TV ARTUR LOPES MONTEIRO",
      "house": "4",
      "postcode": "2525-851",
      "city": "SERRA D'EL REI",
      "lon": "-9.271864969699216",
      "lat": "39.330582618486666"
    },
    {
      "id": "pt.ine.add.PTCONT.2108679",
      "street": "AV LIBERDADE",
      "house": "81",
      "postcode": "2525-801",
      "city": "SERRA D'EL REI",
      "lon": "-9.271649325462901",
      "lat": "39.33087294854267"
    },
    {
      "id": "pt.ine.add.PTCONT.2112234",
      "street": "TV ADRO",
      "house": "5",
      "postcode": "2525-867",
      "city": "SERRA D'EL REI",
      "lon": "-9.271088204249796",
      "lat": "39.33059922276937"
    },
    {
      "id": "pt.ine.add.PTCONT.2115228",
      "street": "R MEIO",
      "house": "4",
      "postcode": "2525-831",
      "city": "SERRA D'EL REI",
      "lon": "-9.270193367340486",
      "lat": "39.33120242310926"
    },
    {
      "id": "pt.ine.add.PTCONT.2119636",
      "street": "AV LIBERDADE",
      "house": "73",
      "postcode": "2525-801",
      "city": "SERRA D'EL REI",
      "lon": "-9.271406983150843",
      "lat": "39.33094737404825"
    },
    {
      "id": "pt.ine.add.PTCONT.2119637",
      "street": "AV LIBERDADE",
      "house": "73",
      "postcode": "2525-801",
      "city": "SERRA D'EL REI",
      "lon": "-9.271406983150843",
      "lat": "39.33094737404825"
    },
    {
      "id": "pt.ine.add.PTCONT.2124091",
      "street": "LG PADRE JOSE CÂNDIDO DA COSTA LEAL",
      "house": "4",
      "postcode": "2525-810",
      "city": "SERRA D'EL REI",
      "lon": "-9.27063035941479",
      "lat": "39.33097298079387"
    },
    {
      "id": "pt.ine.add.PTCONT.2126133",
      "street": "LG PADRE JOSE CÂNDIDO DA COSTA LEAL",
      "house": "1",
      "postcode": "2525-810",
      "city": "SERRA D'EL REI",
      "lon": "-9.271233046848787",
      "lat": "39.33094907505648"
    },
    {
      "id": "pt.ine.add.PTCONT.2130163",
      "street": "AV LIBERDADE",
      "house": "89",
      "postcode": "2525-801",
      "city": "SERRA D'EL REI",
      "lon": "-9.27196065720822",
      "lat": "39.33076181994975"
    },
    {
      "id": "pt.ine.add.PTCONT.2143026",
      "street": "R PACO",
      "house": "8",
      "postcode": "2525-832",
      "city": "SERRA D'EL REI",
      "lon": "-9.271598268791461",
      "lat": "39.330585227622294"
    },
    {
      "id": "pt.ine.add.PTCONT.2152192",
      "street": "R PACO",
      "house": "12",
      "postcode": "2525-832",
      "city": "SERRA D'EL REI",
      "lon": "-9.271957296928882",
      "lat": "39.33055469444776"
    },
    {
      "id": "pt.ine.add.PTCONT.2169791",
      "street": "TV ARTUR LOPES MONTEIRO",
      "house": "1",
      "postcode": "2525-851",
      "city": "SERRA D'EL REI",
      "lon": "-9.271844700003948",
      "lat": "39.33076295453124"
    },
    {
      "id": "pt.ine.add.PTCONT.2173233",
      "street": "TV ARTUR LOPES MONTEIRO",
      "house": "3",
      "postcode": "2525-851",
      "city": "SERRA D'EL REI",
      "lon": "-9.271761777066821",
      "lat": "39.330655683183835"
    },
    {
      "id": "pt.ine.add.PTCONT.2187125",
      "street": "LG PADRE JOSE CANDIDO COSTA LEAL",
      "house": "5",
      "postcode": "2525-810",
      "city": "SERRA D'EL REI",
      "lon": "-9.270467435126179",
      "lat": "39.33093854548415"
    },
    {
      "id": "pt.ine.add.PTCONT.2193856",
      "street": "LG PADRE JOSE CÂNDIDO DA COSTA LEAL",
      "house": "6A",
      "postcode": "2525-810",
      "city": "SERRA D'EL REI",
      "lon": "-9.270505432508948",
      "lat": "39.33113632566481"
    },
    {
      "id": "pt.ine.add.PTCONT.2196359",
      "street": "AV LIBERDADE",
      "house": "95",
      "postcode": "2525-801",
      "city": "SERRA D'EL REI",
      "lon": "-9.272307067340424",
      "lat": "39.330668360958114"
    },
    {
      "id": "pt.ine.add.PTCONT.2197027",
      "street": "LG PADRE JOSE CÂNDIDO DA COSTA LEAL",
      "house": "7",
      "postcode": "2525-810",
      "city": "SERRA D'EL REI",
      "lon": "-9.270552983030461",
      "lat": "39.33120791605785"
    },
    {
      "id": "pt.ine.add.PTCONT.2203790",
      "street": "LG PADRE JOSE CÂNDIDO DA COSTA LEAL",
      "house": "8",
      "postcode": "2525-810",
      "city": "SERRA D'EL REI",
      "lon": "-9.270600387722231",
      "lat": "39.33127050096929"
    },
    {
      "id": "pt.ine.add.PTCONT.2220628",
      "street": "R MEIO",
      "house": "8",
      "postcode": "2525-831",
      "city": "SERRA D'EL REI",
      "lon": "-9.270307428768565",
      "lat": "39.33108421916898"
    },
    {
      "id": "pt.ine.add.PTCONT.2221033",
      "street": "R MEIO",
      "house": "8",
      "postcode": "2525-831",
      "city": "SERRA D'EL REI",
      "lon": "-9.270307428768565",
      "lat": "39.33108421916898"
    },
    {
      "id": "pt.ine.add.PTCONT.2237815",
      "street": "R MEIO",
      "house": "6A",
      "postcode": "2525-831",
      "city": "SERRA D'EL REI",
      "lon": "-9.270215391915052",
      "lat": "39.33113015283888"
    },
    {
      "id": "pt.ine.add.PTCONT.2242697",
      "street": "LG PADRE JOSE CÂNDIDO DA COSTA LEAL",
      "house": "1A",
      "postcode": "2525-810",
      "city": "SERRA D'EL REI",
      "lon": "-9.271277385682318",
      "lat": "39.330822545062276"
    },
    {
      "id": "pt.ine.add.PTCONT.2249235",
      "street": "R PACO",
      "house": "10",
      "postcode": "2525-832",
      "city": "SERRA D'EL REI",
      "lon": "-9.271760316332161",
      "lat": "39.33056562861083"
    }
  ]
}