{
  "data": {
    "distrito": "Viana do Castelo",
    "concelho": "Viana do Castelo",
    "freguesia": "Vila de Punhe",
    "OBJECTID": 843,
    "BGRI2021": "16093800120",
    "DT21": "16",
    "DTMN21": "1609",
    "DTMNFR21": "160938",
    "DTMNFRSEC21": "160938001",
    "SECNUM21": "001",
    "SSNUM21": "20",
    "SECSSNUM21": "00120",
    "OBJECTID_1": 178962,
    "DT": "16",
    "CC": "09",
    "fr": "38",
    "SEC": "001",
    "SS": "20"
  },
  "addresses": [
    {
      "id": "pt.ine.add.PTCONT.5137958",
      "street": "R JOSE A RIBEIRO GOMES",
      "house": "20",
      "postcode": "4905-641",
      "city": "VILA DE PUNHE",
      "lon": "-8.720241843509738",
      "lat": "41.66217559779036"
    },
    {
      "id": "pt.ine.add.PTCONT.5143748",
      "street": "R EMIGRANTES",
      "house": "294",
      "postcode": "4905-641",
      "city": "VILA DE PUNHE",
      "lon": "-8.720107747563048",
      "lat": "41.66327471455536"
    },
    {
      "id": "pt.ine.add.PTCONT.5178885",
      "street": "R JOSE A RIBEIRO GOMES",
      "house": "",
      "postcode": "4905-641",
      "city": "VILA DE PUNHE",
      "lon": "-8.72021660484452",
      "lat": "41.66204067360457"
    },
    {
      "id": "pt.ine.add.PTCONT.5187027",
      "street": "R EMIGRANTES",
      "house": "170",
      "postcode": "4905-641",
      "city": "VILA DE PUNHE",
      "lon": "-8.720748713532204",
      "lat": "41.66246112071985"
    },
    {
      "id": "pt.ine.add.PTCONT.5196620",
      "street": "R EMIGRANTES",
      "house": "120",
      "postcode": "4905-641",
      "city": "VILA DE PUNHE",
      "lon": "-8.720745848559758",
      "lat": "41.662146011459704"
    },
    {
      "id": "pt.ine.add.PTCONT.5205652",
      "street": "R MUJAES",
      "house": "39",
      "postcode": "4905-641",
      "city": "VILA DE PUNHE",
      "lon": "-8.720056615892265",
      "lat": "41.66293284119465"
    },
    {
      "id": "pt.ine.add.PTCONT.5205653",
      "street": "R MUJAES",
      "house": "62",
      "postcode": "4905-641",
      "city": "VILA DE PUNHE",
      "lon": "-8.719788558721826",
      "lat": "41.66250203985944"
    },
    {
      "id": "pt.ine.add.PTCONT.5244138",
      "street": "R POÇOS",
      "house": "117",
      "postcode": "4905-641",
      "city": "VILA DE PUNHE",
      "lon": "-8.719895141699826",
      "lat": "41.662339432049194"
    },
    {
      "id": "pt.ine.add.PTCONT.5267533",
      "street": "R POÇOS",
      "house": "101",
      "postcode": "4905-641",
      "city": "VILA DE PUNHE",
      "lon": "-8.71991809106659",
      "lat": "41.66222226885858"
    },
    {
      "id": "pt.ine.add.PTCONT.5272096",
      "street": "R EMIGRANTES",
      "house": "216",
      "postcode": "4905-641",
      "city": "VILA DE PUNHE",
      "lon": "-8.720475029640012",
      "lat": "41.66273262585397"
    },
    {
      "id": "pt.ine.add.PTCONT.5278286",
      "street": "R COVINHA",
      "house": "164",
      "postcode": "4905-641",
      "city": "VILA DE PUNHE",
      "lon": "-8.719714077035391",
      "lat": "41.66355583411341"
    },
    {
      "id": "pt.ine.add.PTCONT.5285418",
      "street": "R EMIGRANTES",
      "house": "150",
      "postcode": "4905-641",
      "city": "VILA DE PUNHE",
      "lon": "-8.720842223725423",
      "lat": "41.66218153284607"
    }
  ]
}