{
  "data": {
    "distrito": "Set√∫bal",
    "concelho": "Seixal",
    "freguesia": "Amora",
    "OBJECTID": 163,
    "BGRI2021": "15100202104",
    "DT21": "15",
    "DTMN21": "1510",
    "DTMNFR21": "151002",
    "DTMNFRSEC21": "151002021",
    "SECNUM21": "021",
    "SSNUM21": "04",
    "SECSSNUM21": "02104",
    "OBJECTID_1": 167178,
    "DT": "15",
    "CC": "10",
    "fr": "02",
    "SEC": "021",
    "SS": "04"
  },
  "addresses": [
    {
      "id": "pt.ine.add.PTCONT.4694841",
      "street": "R DR FRANCISCO SA CARNEIRO",
      "house": "15",
      "postcode": "2845-267",
      "city": "AMORA",
      "lon": "-9.130735543122027",
      "lat": "38.60606157047326"
    },
    {
      "id": "pt.ine.add.PTCONT.4701382",
      "street": "R DR PATRICIO GOUVEIA",
      "house": "4",
      "postcode": "2845-272",
      "city": "AMORA",
      "lon": "-9.130825376941857",
      "lat": "38.60591667563359"
    },
    {
      "id": "pt.ine.add.PTCONT.4751488",
      "street": "R DR PATRICIO GOUVEIA",
      "house": "10",
      "postcode": "2845-272",
      "city": "AMORA",
      "lon": "-9.131072917152506",
      "lat": "38.60555424244634"
    },
    {
      "id": "pt.ine.add.PTCONT.4793615",
      "street": "R CESAR DE OLIVEIRA",
      "house": "7",
      "postcode": "2845-233",
      "city": "AMORA",
      "lon": "-9.131167615820113",
      "lat": "38.6057606200545"
    },
    {
      "id": "pt.ine.add.PTCONT.4836812",
      "street": "R DR PATRICIO GOUVEIA",
      "house": "6",
      "postcode": "2845-272",
      "city": "AMORA",
      "lon": "-9.130904105982928",
      "lat": "38.605798899586134"
    },
    {
      "id": "pt.ine.add.PTCONT.4991685",
      "street": "R DR FRANCISCO SA CARNEIRO",
      "house": "17",
      "postcode": "2845-267",
      "city": "AMORA",
      "lon": "-9.130908970932092",
      "lat": "38.60615017229205"
    },
    {
      "id": "pt.ine.add.PTCONT.5002662",
      "street": "R CESAR DE OLIVEIRA",
      "house": "5",
      "postcode": "2845-233",
      "city": "AMORA",
      "lon": "-9.131112218880773",
      "lat": "38.6059052214487"
    },
    {
      "id": "pt.ine.add.PTCONT.5017480",
      "street": "R DR PATRICIO GOUVEIA",
      "house": "8",
      "postcode": "2845-272",
      "city": "AMORA",
      "lon": "-9.130971730386195",
      "lat": "38.60570824235295"
    },
    {
      "id": "pt.ine.add.PTCONT.5039596",
      "street": "R CESAR DE OLIVEIRA",
      "house": "3",
      "postcode": "2845-233",
      "city": "AMORA",
      "lon": "-9.13099905401483",
      "lat": "38.606023291308865"
    },
    {
      "id": "pt.ine.add.PTCONT.5101337",
      "street": "R PROF MOTA PINTO",
      "house": "18",
      "postcode": "2845-310",
      "city": "AMORA",
      "lon": "-9.131257822755503",
      "lat": "38.605642745868536"
    }
  ]
}