{
  "data": {
    "distrito": "Porto",
    "concelho": "Baião",
    "freguesia": "União das freguesias de Campelo e Ovil",
    "OBJECTID": 149,
    "BGRI2021": "13022300103",
    "DT21": "13",
    "DTMN21": "1302",
    "DTMNFR21": "130223",
    "DTMNFRSEC21": "130223001",
    "SECNUM21": "001",
    "SSNUM21": "03",
    "SECSSNUM21": "00103",
    "OBJECTID_1": 127000,
    "DT": "13",
    "CC": "02",
    "fr": "23",
    "SEC": "001",
    "SS": "03"
  },
  "addresses": [
    {
      "id": "pt.ine.add.PTCONT.3543068",
      "street": "TV PINHEIRO",
      "house": "51",
      "postcode": "4640-178",
      "city": "BAIÃO",
      "lon": "-8.040288689949191",
      "lat": "41.14718638967929"
    },
    {
      "id": "pt.ine.add.PTCONT.3543069",
      "street": "R LOUREDO",
      "house": "1672",
      "postcode": "4640-176",
      "city": "BAIÃO",
      "lon": "-8.032027890620352",
      "lat": "41.14311845000217"
    },
    {
      "id": "pt.ine.add.PTCONT.3553188",
      "street": "R PINHEIRO",
      "house": "253",
      "postcode": "4640-178",
      "city": "BAIÃO",
      "lon": "-8.039668951011857",
      "lat": "41.14740199433143"
    },
    {
      "id": "pt.ine.add.PTCONT.3559831",
      "street": "TV PINHEIRO",
      "house": "",
      "postcode": "4640-178",
      "city": "BAIÃO",
      "lon": "-8.040312044558343",
      "lat": "41.147519571414165"
    },
    {
      "id": "pt.ine.add.PTCONT.3585179",
      "street": "R PINHEIRO",
      "house": "32",
      "postcode": "4640-178",
      "city": "BAIÃO",
      "lon": "-8.041348947256242",
      "lat": "41.1471332126896"
    },
    {
      "id": "pt.ine.add.PTCONT.3623808",
      "street": "R FREIXIEIRO",
      "house": "",
      "postcode": "4640-174",
      "city": "BAIÃO",
      "lon": "-8.036939795341999",
      "lat": "41.148264170903666"
    },
    {
      "id": "pt.ine.add.PTCONT.3636876",
      "street": "R FREIXIEIRO",
      "house": "140",
      "postcode": "4640-174",
      "city": "BAIÃO",
      "lon": "-8.039187927501509",
      "lat": "41.150580156565866"
    },
    {
      "id": "pt.ine.add.PTCONT.3770766",
      "street": "R FREIXIEIRO",
      "house": "",
      "postcode": "4640-174",
      "city": "BAIÃO",
      "lon": "-8.037474372699826",
      "lat": "41.149282113247196"
    },
    {
      "id": "pt.ine.add.PTCONT.3777201",
      "street": "R NSA SRA DA SAÚDE",
      "house": "10",
      "postcode": "4640-114",
      "city": "BAIÃO",
      "lon": "-8.031413759055738",
      "lat": "41.147422015638384"
    },
    {
      "id": "pt.ine.add.PTCONT.3816117",
      "street": "R NSA SRA DA SAÚDE",
      "house": "",
      "postcode": "4640-114",
      "city": "BAIÃO",
      "lon": "-8.031747300558573",
      "lat": "41.14742230960649"
    },
    {
      "id": "pt.ine.add.PTCONT.3845283",
      "street": "TV PINHEIRO",
      "house": "276",
      "postcode": "4640-178",
      "city": "BAIÃO",
      "lon": "-8.039740922328093",
      "lat": "41.14705088095521"
    },
    {
      "id": "pt.ine.add.PTCONT.3896902",
      "street": "R PINHEIRO",
      "house": "",
      "postcode": "4640-178",
      "city": "BAIÃO",
      "lon": "-8.040738913071753",
      "lat": "41.14892460118172"
    },
    {
      "id": "pt.ine.add.PTCONT.3917718",
      "street": "R PINHEIRO",
      "house": "70",
      "postcode": "4640-178",
      "city": "BAIÃO",
      "lon": "-8.040979506837543",
      "lat": "41.14724997506339"
    },
    {
      "id": "pt.ine.add.PTCONT.3947209",
      "street": "R NSA SRA DA SAÚDE",
      "house": "51",
      "postcode": "4640-114",
      "city": "BAIÃO",
      "lon": "-8.031628011999123",
      "lat": "41.14753025741451"
    },
    {
      "id": "pt.ine.add.PTCONT.3956397",
      "street": "R NSA SRA DA SAÚDE",
      "house": "",
      "postcode": "4640-114",
      "city": "BAIÃO",
      "lon": "-8.031676104902573",
      "lat": "41.147242158880275"
    },
    {
      "id": "pt.ine.add.PTCONT.3966243",
      "street": "R FREIXIEIRO",
      "house": "90",
      "postcode": "4640-174",
      "city": "BAIÃO",
      "lon": "-8.039473987732842",
      "lat": "41.15047233666459"
    },
    {
      "id": "pt.ine.add.PTCONT.3966250",
      "street": "R NSA SRA DA SAÚDE",
      "house": "16",
      "postcode": "4640-114",
      "city": "BAIÃO",
      "lon": "-8.031258872635961",
      "lat": "41.147439887605806"
    },
    {
      "id": "pt.ine.add.PTCONT.3977418",
      "street": "R PINHEIRO",
      "house": "102",
      "postcode": "4640-178",
      "city": "BAIÃO",
      "lon": "-8.04068168997827",
      "lat": "41.14725874089936"
    },
    {
      "id": "pt.ine.add.PTCONT.3977845",
      "street": "CAM BARREIRO",
      "house": "1177",
      "postcode": "4640-178",
      "city": "BAIÃO",
      "lon": "-8.038876157781532",
      "lat": "41.14368252885686"
    },
    {
      "id": "pt.ine.add.PTCONT.4006074",
      "street": "R NSA SRA DA SAÚDE",
      "house": "",
      "postcode": "4640-114",
      "city": "BAIÃO",
      "lon": "-8.031509334607357",
      "lat": "41.1472420119144"
    },
    {
      "id": "pt.ine.add.PTCONT.4037354",
      "street": "TV PINHEIRO",
      "house": "280",
      "postcode": "4640-178",
      "city": "BAIÃO",
      "lon": "-8.039514617424231",
      "lat": "41.14703268850256"
    },
    {
      "id": "pt.ine.add.PTCONT.4037361",
      "street": "R NSA SRA DA SAÚDE",
      "house": "12",
      "postcode": "4640-114",
      "city": "BAIÃO",
      "lon": "-8.031378147719032",
      "lat": "41.14734094456951"
    },
    {
      "id": "pt.ine.add.PTCONT.4070427",
      "street": "R PINHEIRO",
      "house": "397",
      "postcode": "4640-178",
      "city": "BAIÃO",
      "lon": "-8.04114596268319",
      "lat": "41.147475218148884"
    },
    {
      "id": "pt.ine.add.PTCONT.4083444",
      "street": "CAM BARREIRO",
      "house": "",
      "postcode": "4640-178",
      "city": "BAIÃO",
      "lon": "-8.036957942434947",
      "lat": "41.14399609807396"
    },
    {
      "id": "pt.ine.add.PTCONT.4103097",
      "street": "R FREIXIEIRO",
      "house": "542",
      "postcode": "4640-174",
      "city": "BAIÃO",
      "lon": "-8.036619349892899",
      "lat": "41.147453506732795"
    },
    {
      "id": "pt.ine.add.PTCONT.4103105",
      "street": "R PINHEIRO",
      "house": "",
      "postcode": "4640-178",
      "city": "BAIÃO",
      "lon": "-8.03899034213033",
      "lat": "41.14713130978737"
    },
    {
      "id": "pt.ine.add.PTCONT.4122597",
      "street": "TV PINHEIRO",
      "house": "5",
      "postcode": "4640-178",
      "city": "BAIÃO",
      "lon": "-8.039931350737193",
      "lat": "41.147168092389094"
    },
    {
      "id": "pt.ine.add.PTCONT.4122603",
      "street": "R PINHEIRO",
      "house": "102",
      "postcode": "4640-178",
      "city": "BAIÃO",
      "lon": "-8.040705312063709",
      "lat": "41.147402830302305"
    },
    {
      "id": "pt.ine.add.PTCONT.4162178",
      "street": "R FREIXIEIRO",
      "house": "",
      "postcode": "4640-174",
      "city": "BAIÃO",
      "lon": "-8.039450034089095",
      "lat": "41.15056236117381"
    },
    {
      "id": "pt.ine.add.PTCONT.4169656",
      "street": "R NSA SRA DA SAÚDE",
      "house": "",
      "postcode": "4640-114",
      "city": "BAIÃO",
      "lon": "-8.03158069647744",
      "lat": "41.14731411005554"
    },
    {
      "id": "pt.ine.add.PTCONT.4181854",
      "street": "R FREIXIEIRO",
      "house": "",
      "postcode": "4640-174",
      "city": "BAIÃO",
      "lon": "-8.036513250065358",
      "lat": "41.14669704791779"
    },
    {
      "id": "pt.ine.add.PTCONT.4204479",
      "street": "TV PINHEIRO",
      "house": "7",
      "postcode": "4640-178",
      "city": "BAIÃO",
      "lon": "-8.040074003852618",
      "lat": "41.14737530896394"
    },
    {
      "id": "pt.ine.add.PTCONT.4204480",
      "street": "R NSA SRA DA SAÚDE",
      "house": "56",
      "postcode": "4640-114",
      "city": "BAIÃO",
      "lon": "-8.031604368085627",
      "lat": "41.14741317934787"
    },
    {
      "id": "pt.ine.add.PTCONT.4205921",
      "street": "TV PINHEIRO",
      "house": "7",
      "postcode": "4640-178",
      "city": "BAIÃO",
      "lon": "-8.040074003852618",
      "lat": "41.14737530896394"
    },
    {
      "id": "pt.ine.add.PTCONT.4214551",
      "street": "TV PINHEIRO",
      "house": "52",
      "postcode": "4640-178",
      "city": "BAIÃO",
      "lon": "-8.04120592605035",
      "lat": "41.147187125098036"
    },
    {
      "id": "pt.ine.add.PTCONT.4265867",
      "street": "TV PINHEIRO",
      "house": "322",
      "postcode": "4640-178",
      "city": "BAIÃO",
      "lon": "-8.039276541719538",
      "lat": "41.14691543757638"
    },
    {
      "id": "pt.ine.add.PTCONT.4320784",
      "street": "R FREIXIEIRO",
      "house": "",
      "postcode": "4640-174",
      "city": "BAIÃO",
      "lon": "-8.038580479662327",
      "lat": "41.15050762451068"
    },
    {
      "id": "pt.ine.add.PTCONT.4327453",
      "street": "R PINHEIRO",
      "house": "697",
      "postcode": "4640-178",
      "city": "BAIÃO",
      "lon": "-8.042208785590649",
      "lat": "41.14556712794342"
    },
    {
      "id": "pt.ine.add.PTCONT.4385257",
      "street": "R NSA SRA DA SAÚDE",
      "house": "17",
      "postcode": "4640-114",
      "city": "BAIÃO",
      "lon": "-8.031937771141491",
      "lat": "41.14750351666997"
    },
    {
      "id": "pt.ine.add.PTCONT.4389836",
      "street": "R NSA SRA DA SAÚDE",
      "house": "15",
      "postcode": "4640-114",
      "city": "BAIÃO",
      "lon": "-8.031842639691975",
      "lat": "41.14739538024807"
    }
  ]
}