{
  "data": {
    "distrito": "Porto",
    "concelho": "Baião",
    "freguesia": "União das freguesias de Campelo e Ovil",
    "OBJECTID": 170,
    "BGRI2021": "13022300109",
    "DT21": "13",
    "DTMN21": "1302",
    "DTMNFR21": "130223",
    "DTMNFRSEC21": "130223001",
    "SECNUM21": "001",
    "SSNUM21": "09",
    "SECSSNUM21": "00109",
    "OBJECTID_1": 127048,
    "DT": "13",
    "CC": "02",
    "fr": "23",
    "SEC": "001",
    "SS": "09"
  },
  "addresses": [
    {
      "id": "pt.ine.add.PTCONT.3559815",
      "street": "R FREIXIEIRO",
      "house": "114",
      "postcode": "4640-174",
      "city": "BAIÃO",
      "lon": "-8.03740839423512",
      "lat": "41.15369421280288"
    },
    {
      "id": "pt.ine.add.PTCONT.3570676",
      "street": "R PINHEIRO",
      "house": "26",
      "postcode": "4640-178",
      "city": "BAIÃO",
      "lon": "-8.042280840733536",
      "lat": "41.14514397767683"
    },
    {
      "id": "pt.ine.add.PTCONT.3581921",
      "street": "R COLMOS",
      "house": "77",
      "postcode": "4640-178",
      "city": "BAIÃO",
      "lon": "-8.042769656560015",
      "lat": "41.14482920780456"
    },
    {
      "id": "pt.ine.add.PTCONT.3585169",
      "street": "R PRADO",
      "house": "",
      "postcode": "4640-179",
      "city": "BAIÃO",
      "lon": "-8.038110176033895",
      "lat": "41.15446016706683"
    },
    {
      "id": "pt.ine.add.PTCONT.3602897",
      "street": "CAM CABANELAS",
      "house": "",
      "postcode": "4640-174",
      "city": "BAIÃO",
      "lon": "-8.039865603163127",
      "lat": "41.15153517322312"
    },
    {
      "id": "pt.ine.add.PTCONT.3623793",
      "street": "R INGILDE",
      "house": "351",
      "postcode": "4640-175",
      "city": "BAIÃO",
      "lon": "-8.04680742604171",
      "lat": "41.15415185759396"
    },
    {
      "id": "pt.ine.add.PTCONT.3636880",
      "street": "R COLMOS",
      "house": "",
      "postcode": "4640-178",
      "city": "BAIÃO",
      "lon": "-8.041650204064219",
      "lat": "41.144648236329274"
    },
    {
      "id": "pt.ine.add.PTCONT.3666193",
      "street": "R PINHEIRO",
      "house": "49",
      "postcode": "4640-178",
      "city": "BAIÃO",
      "lon": "-8.043102667933832",
      "lat": "41.14520765356782"
    },
    {
      "id": "pt.ine.add.PTCONT.3694994",
      "street": "R PINHEIRO",
      "house": "",
      "postcode": "4640-178",
      "city": "BAIÃO",
      "lon": "-8.042399846940038",
      "lat": "41.145225111106846"
    },
    {
      "id": "pt.ine.add.PTCONT.3708043",
      "street": "R CRUZEIRO",
      "house": "91",
      "postcode": "4640-174",
      "city": "BAIÃO",
      "lon": "-8.038099276609751",
      "lat": "41.15375781545892"
    },
    {
      "id": "pt.ine.add.PTCONT.3714583",
      "street": "R COLMOS",
      "house": "115",
      "postcode": "4640-178",
      "city": "BAIÃO",
      "lon": "-8.0432940184518",
      "lat": "41.144649529673956"
    },
    {
      "id": "pt.ine.add.PTCONT.3734335",
      "street": "R PICOTO",
      "house": "148",
      "postcode": "4640-178",
      "city": "BAIÃO",
      "lon": "-8.042936975850326",
      "lat": "41.14442414055573"
    },
    {
      "id": "pt.ine.add.PTCONT.3734336",
      "street": "R PINHEIRO",
      "house": "686",
      "postcode": "4640-178",
      "city": "BAIÃO",
      "lon": "-8.042590287198045",
      "lat": "41.14533331378529"
    },
    {
      "id": "pt.ine.add.PTCONT.3758280",
      "street": "CAM VALE PINHEIRO",
      "house": "60",
      "postcode": "4640-178",
      "city": "BAIÃO",
      "lon": "-8.041931794324679",
      "lat": "41.147745974897575"
    },
    {
      "id": "pt.ine.add.PTCONT.3823092",
      "street": "PINHEIRO",
      "house": "",
      "postcode": "4640-178",
      "city": "BAIÃO",
      "lon": "-8.04319791313611",
      "lat": "41.14524374557234"
    },
    {
      "id": "pt.ine.add.PTCONT.3831049",
      "street": "R FREIXIEIRO",
      "house": "220",
      "postcode": "4640-174",
      "city": "BAIÃO",
      "lon": "-8.03664638964684",
      "lat": "41.15338742784414"
    },
    {
      "id": "pt.ine.add.PTCONT.3869506",
      "street": "R FREIXIEIRO",
      "house": "352",
      "postcode": "4640-174",
      "city": "BAIÃO",
      "lon": "-8.036766115644811",
      "lat": "41.15298233031285"
    },
    {
      "id": "pt.ine.add.PTCONT.3869509",
      "street": "R PINHEIRO",
      "house": "674",
      "postcode": "4640-178",
      "city": "BAIÃO",
      "lon": "-8.04270923229854",
      "lat": "41.14545946887666"
    },
    {
      "id": "pt.ine.add.PTCONT.3869568",
      "street": "R COLMOS",
      "house": "",
      "postcode": "4640-178",
      "city": "BAIÃO",
      "lon": "-8.04479420396212",
      "lat": "41.145163940750955"
    },
    {
      "id": "pt.ine.add.PTCONT.3896903",
      "street": "R PINHEIRO",
      "house": "752",
      "postcode": "4640-178",
      "city": "BAIÃO",
      "lon": "-8.042149960374118",
      "lat": "41.145035821526974"
    },
    {
      "id": "pt.ine.add.PTCONT.3897048",
      "street": "R INGILDE",
      "house": "557",
      "postcode": "4640-175",
      "city": "BAIÃO",
      "lon": "-8.046928765380889",
      "lat": "41.15246812674032"
    },
    {
      "id": "pt.ine.add.PTCONT.3908322",
      "street": "R INGILDE",
      "house": "461",
      "postcode": "4640-175",
      "city": "BAIÃO",
      "lon": "-8.04690403092344",
      "lat": "41.153161446638265"
    },
    {
      "id": "pt.ine.add.PTCONT.3917551",
      "street": "R FREIXIEIRO",
      "house": "210",
      "postcode": "4640-174",
      "city": "BAIÃO",
      "lon": "-8.036765430149053",
      "lat": "41.15345055822228"
    },
    {
      "id": "pt.ine.add.PTCONT.3922779",
      "street": "R FREIXIEIRO",
      "house": "",
      "postcode": "4640-174",
      "city": "BAIÃO",
      "lon": "-8.036551241966489",
      "lat": "41.15327929540363"
    },
    {
      "id": "pt.ine.add.PTCONT.3928468",
      "street": "R INGILDE",
      "house": "521",
      "postcode": "4640-175",
      "city": "BAIÃO",
      "lon": "-8.046928541337758",
      "lat": "41.15263921008311"
    },
    {
      "id": "pt.ine.add.PTCONT.3928469",
      "street": "R INGILDE",
      "house": "521",
      "postcode": "4640-175",
      "city": "BAIÃO",
      "lon": "-8.046928541337758",
      "lat": "41.15263921008311"
    },
    {
      "id": "pt.ine.add.PTCONT.3945475",
      "street": "R PINHEIRO",
      "house": "170",
      "postcode": "4640-178",
      "city": "BAIÃO",
      "lon": "-8.043342045897537",
      "lat": "41.144370430467866"
    },
    {
      "id": "pt.ine.add.PTCONT.3945476",
      "street": "R COLMOS",
      "house": "54",
      "postcode": "4640-178",
      "city": "BAIÃO",
      "lon": "-8.04191216162575",
      "lat": "41.144720479266965"
    },
    {
      "id": "pt.ine.add.PTCONT.3956395",
      "street": "R FREIXIEIRO",
      "house": "172",
      "postcode": "4640-174",
      "city": "BAIÃO",
      "lon": "-8.037039370084614",
      "lat": "41.153495808978526"
    },
    {
      "id": "pt.ine.add.PTCONT.3977416",
      "street": "R CRUZEIRO",
      "house": "131",
      "postcode": "4640-174",
      "city": "BAIÃO",
      "lon": "-8.037849344008771",
      "lat": "41.1535865255748"
    },
    {
      "id": "pt.ine.add.PTCONT.4009921",
      "street": "",
      "house": "",
      "postcode": "4640-178",
      "city": "BAIÃO",
      "lon": "-8.043364825739918",
      "lat": "41.14513582284553"
    },
    {
      "id": "pt.ine.add.PTCONT.4011432",
      "street": "CAM CABANELAS",
      "house": "",
      "postcode": "4640-174",
      "city": "BAIÃO",
      "lon": "-8.04022323294949",
      "lat": "41.151364378611326"
    },
    {
      "id": "pt.ine.add.PTCONT.4024229",
      "street": "R FREIXIEIRO",
      "house": "476",
      "postcode": "4640-174",
      "city": "BAIÃO",
      "lon": "-8.038018173176509",
      "lat": "41.15217297513372"
    },
    {
      "id": "pt.ine.add.PTCONT.4055179",
      "street": "R COLMOS",
      "house": "31",
      "postcode": "4640-178",
      "city": "BAIÃO",
      "lon": "-8.042257265710692",
      "lat": "41.144963870948736"
    },
    {
      "id": "pt.ine.add.PTCONT.4063981",
      "street": "R FREIXIEIRO",
      "house": "150",
      "postcode": "4640-174",
      "city": "BAIÃO",
      "lon": "-8.037253363501147",
      "lat": "41.1538021366181"
    },
    {
      "id": "pt.ine.add.PTCONT.4095410",
      "street": "R FREIXIEIRO",
      "house": "",
      "postcode": "4640-174",
      "city": "BAIÃO",
      "lon": "-8.03657527982249",
      "lat": "41.153135245247796"
    },
    {
      "id": "pt.ine.add.PTCONT.4181853",
      "street": "R PRADO",
      "house": "",
      "postcode": "4640-179",
      "city": "BAIÃO",
      "lon": "-8.038764345534606",
      "lat": "41.15520806919007"
    },
    {
      "id": "pt.ine.add.PTCONT.4186828",
      "street": "",
      "house": "",
      "postcode": "4640-178",
      "city": "BAIÃO",
      "lon": "-8.043423893948967",
      "lat": "41.14549604510803"
    },
    {
      "id": "pt.ine.add.PTCONT.4187975",
      "street": "R INGILDE",
      "house": "541",
      "postcode": "4640-175",
      "city": "BAIÃO",
      "lon": "-8.047155149851015",
      "lat": "41.15244128269753"
    },
    {
      "id": "pt.ine.add.PTCONT.4227180",
      "street": "R COLMOS",
      "house": "37",
      "postcode": "4640-178",
      "city": "BAIÃO",
      "lon": "-8.042447915805212",
      "lat": "41.1449189991139"
    },
    {
      "id": "pt.ine.add.PTCONT.4313767",
      "street": "R INGILDE",
      "house": "310",
      "postcode": "4640-175",
      "city": "BAIÃO",
      "lon": "-8.041382914386235",
      "lat": "41.148402860508426"
    },
    {
      "id": "pt.ine.add.PTCONT.4327512",
      "street": "R INGILDE",
      "house": "333",
      "postcode": "4640-175",
      "city": "BAIÃO",
      "lon": "-8.046866674516448",
      "lat": "41.154395020567115"
    },
    {
      "id": "pt.ine.add.PTCONT.4354269",
      "street": "R PICOTO",
      "house": "145",
      "postcode": "4640-178",
      "city": "BAIÃO",
      "lon": "-8.042925520621186",
      "lat": "41.14409096848652"
    },
    {
      "id": "pt.ine.add.PTCONT.4373350",
      "street": "R FREIXIEIRO",
      "house": "",
      "postcode": "4640-174",
      "city": "BAIÃO",
      "lon": "-8.037398261974445",
      "lat": "41.15246960678263"
    },
    {
      "id": "pt.ine.add.PTCONT.4383935",
      "street": "R FREIXIEIRO",
      "house": "676",
      "postcode": "4640-174",
      "city": "BAIÃO",
      "lon": "-8.040223957335861",
      "lat": "41.15085112854777"
    }
  ]
}