{
  "data": {
    "distrito": "Viseu",
    "concelho": "Tondela",
    "freguesia": "União das freguesias de São João do Monte e Mosteirinho",
    "OBJECTID": 282,
    "BGRI2021": "18213000112",
    "DT21": "18",
    "DTMN21": "1821",
    "DTMNFR21": "182130",
    "DTMNFRSEC21": "182130001",
    "SECNUM21": "001",
    "SSNUM21": "12",
    "SECSSNUM21": "00112",
    "OBJECTID_1": 199752,
    "DT": "18",
    "CC": "21",
    "fr": "30",
    "SEC": "001",
    "SS": "12"
  },
  "addresses": [
    {
      "id": "pt.ine.add.PTCONT.5452080",
      "street": "R BICA",
      "house": "11",
      "postcode": "3475-060",
      "city": "MOSTEIRINHO",
      "lon": "-8.27815849784232",
      "lat": "40.541500563726004"
    },
    {
      "id": "pt.ine.add.PTCONT.5480912",
      "street": "R LOMBA",
      "house": "271",
      "postcode": "3475-060",
      "city": "MOSTEIRINHO",
      "lon": "-8.276663615942816",
      "lat": "40.54349261251525"
    },
    {
      "id": "pt.ine.add.PTCONT.5508264",
      "street": "R VALINHOS",
      "house": "28",
      "postcode": "3475-060",
      "city": "MOSTEIRINHO",
      "lon": "-8.27661582126474",
      "lat": "40.543222511499174"
    },
    {
      "id": "pt.ine.add.PTCONT.5517587",
      "street": "R CABECO DA EIRA",
      "house": "90",
      "postcode": "3475-060",
      "city": "MOSTEIRINHO",
      "lon": "-8.277549477745474",
      "lat": "40.54373465281943"
    },
    {
      "id": "pt.ine.add.PTCONT.5533358",
      "street": "R CABECO DA EIRA",
      "house": "95",
      "postcode": "3475-060",
      "city": "MOSTEIRINHO",
      "lon": "-8.277726391338808",
      "lat": "40.54366238875588"
    },
    {
      "id": "pt.ine.add.PTCONT.5546281",
      "street": "R CABECO EIRA",
      "house": "89",
      "postcode": "3475-060",
      "city": "MOSTEIRINHO",
      "lon": "-8.27704130297899",
      "lat": "40.54346512660322"
    },
    {
      "id": "pt.ine.add.PTCONT.5548410",
      "street": "R BICA",
      "house": "415",
      "postcode": "3475-060",
      "city": "MOSTEIRINHO",
      "lon": "-8.278414959646659",
      "lat": "40.54000535334561"
    },
    {
      "id": "pt.ine.add.PTCONT.5551298",
      "street": "R PRINCIPAL",
      "house": "49",
      "postcode": "3475-060",
      "city": "MOSTEIRINHO",
      "lon": "-8.278043619770816",
      "lat": "40.54296857959996"
    },
    {
      "id": "pt.ine.add.PTCONT.5566569",
      "street": "R BICA",
      "house": "281",
      "postcode": "3475-060",
      "city": "MOSTEIRINHO",
      "lon": "-8.278334121365013",
      "lat": "40.54083394724899"
    },
    {
      "id": "pt.ine.add.PTCONT.5570752",
      "street": "R PRINCIPAL",
      "house": "139",
      "postcode": "3475-060",
      "city": "MOSTEIRINHO",
      "lon": "-8.278242837422246",
      "lat": "40.54229292848283"
    },
    {
      "id": "pt.ine.add.PTCONT.5581299",
      "street": "R PRINCIPAL",
      "house": "47",
      "postcode": "3475-060",
      "city": "MOSTEIRINHO",
      "lon": "-8.27791375159901",
      "lat": "40.542959737085255"
    },
    {
      "id": "pt.ine.add.PTCONT.5589274",
      "street": "R HORTAS DO COVO",
      "house": "53",
      "postcode": "3475-060",
      "city": "MOSTEIRINHO",
      "lon": "-8.277111512980602",
      "lat": "40.5431768680381"
    },
    {
      "id": "pt.ine.add.PTCONT.5599802",
      "street": "R CABECO DA EIRA",
      "house": "67",
      "postcode": "3475-060",
      "city": "MOSTEIRINHO",
      "lon": "-8.277395496609111",
      "lat": "40.54349170087358"
    }
  ]
}