{
  "data": {
    "distrito": "Viseu",
    "concelho": "Tondela",
    "freguesia": "União das freguesias de São João do Monte e Mosteirinho",
    "OBJECTID": 9,
    "BGRI2021": "18213000162",
    "DT21": "18",
    "DTMN21": "1821",
    "DTMNFR21": "182130",
    "DTMNFRSEC21": "182130001",
    "SECNUM21": "001",
    "SSNUM21": "62",
    "SECSSNUM21": "00162",
    "OBJECTID_1": 199409,
    "DT": "18",
    "CC": "21",
    "fr": "30",
    "SEC": "001",
    "SS": "62"
  },
  "addresses": [
    {
      "id": "pt.ine.add.PTCONT.5451945",
      "street": "ESTR PRINCIPAL",
      "house": "1 D",
      "postcode": "3475-070",
      "city": "SÃO JOÃO DO MONTE",
      "lon": "-8.252380002983308",
      "lat": "40.582486238234345"
    },
    {
      "id": "pt.ine.add.PTCONT.5453712",
      "street": "ESTR PRINCIPAL",
      "house": "3 A",
      "postcode": "3475-070",
      "city": "SÃO JOÃO DO MONTE",
      "lon": "-8.253617338486936",
      "lat": "40.58089101814993"
    },
    {
      "id": "pt.ine.add.PTCONT.5461994",
      "street": "ESTR PRINCIPAL",
      "house": "1",
      "postcode": "3475-070",
      "city": "SÃO JOÃO DO MONTE",
      "lon": "-8.25325253133894",
      "lat": "40.5816388370724"
    },
    {
      "id": "pt.ine.add.PTCONT.5480790",
      "street": "ESTR PRINCIPAL",
      "house": "1 C",
      "postcode": "3475-070",
      "city": "SÃO JOÃO DO MONTE",
      "lon": "-8.25303893184305",
      "lat": "40.581080731156995"
    },
    {
      "id": "pt.ine.add.PTCONT.5488323",
      "street": "R PRINCIPAL",
      "house": "1C",
      "postcode": "3475-070",
      "city": "SÃO JOÃO DO MONTE",
      "lon": "-8.252873832808138",
      "lat": "40.58122498705969"
    },
    {
      "id": "pt.ine.add.PTCONT.5513655",
      "street": "R SOBREIRA",
      "house": "9",
      "postcode": "3475-070",
      "city": "SÃO JOÃO DO MONTE",
      "lon": "-8.254842363700202",
      "lat": "40.579052654494454"
    },
    {
      "id": "pt.ine.add.PTCONT.5513656",
      "street": "R SOBREIRA",
      "house": "9",
      "postcode": "3475-070",
      "city": "SÃO JOÃO DO MONTE",
      "lon": "-8.254842363700202",
      "lat": "40.579052654494454"
    },
    {
      "id": "pt.ine.add.PTCONT.5519344",
      "street": "R SOBREIRA",
      "house": "7",
      "postcode": "3475-070",
      "city": "SÃO JOÃO DO MONTE",
      "lon": "-8.255644560550577",
      "lat": "40.57853850471422"
    },
    {
      "id": "pt.ine.add.PTCONT.5539379",
      "street": "ESTR PRINCIPAL",
      "house": "1 B",
      "postcode": "3475-070",
      "city": "SÃO JOÃO DO MONTE",
      "lon": "-8.2526984293936",
      "lat": "40.5822157504222"
    },
    {
      "id": "pt.ine.add.PTCONT.5548285",
      "street": "ESTR PRINCIPAL",
      "house": "3",
      "postcode": "3475-070",
      "city": "SÃO JOÃO DO MONTE",
      "lon": "-8.253606012142138",
      "lat": "40.58116118862647"
    },
    {
      "id": "pt.ine.add.PTCONT.5551972",
      "street": "EM 3 K",
      "house": "3K",
      "postcode": "3475-070",
      "city": "SÃO JOÃO DO MONTE",
      "lon": "-8.255327654788086",
      "lat": "40.579628480722036"
    },
    {
      "id": "pt.ine.add.PTCONT.5575585",
      "street": "ESTRADA MUNICIPAL",
      "house": "5",
      "postcode": "3475-070",
      "city": "SÃO JOÃO DO MONTE",
      "lon": "-8.253652480846078",
      "lat": "40.58072888628137"
    },
    {
      "id": "pt.ine.add.PTCONT.5575586",
      "street": "EM 3 L",
      "house": "3L",
      "postcode": "3475-070",
      "city": "SÃO JOÃO DO MONTE",
      "lon": "-8.255244503625617",
      "lat": "40.57936741522579"
    },
    {
      "id": "pt.ine.add.PTCONT.5584792",
      "street": "R SOBREIRA",
      "house": "31",
      "postcode": "3475-070",
      "city": "SÃO JOÃO DO MONTE",
      "lon": "-8.256646713710442",
      "lat": "40.57758287627556"
    },
    {
      "id": "pt.ine.add.PTCONT.5631472",
      "street": "EM 1 A",
      "house": "1A",
      "postcode": "3475-070",
      "city": "SÃO JOÃO DO MONTE",
      "lon": "-8.250644863374744",
      "lat": "40.58313639731696"
    },
    {
      "id": "pt.ine.add.PTCONT.5641526",
      "street": "R SOBREIRA",
      "house": "33",
      "postcode": "3475-070",
      "city": "SÃO JOÃO DO MONTE",
      "lon": "-8.256316349371557",
      "lat": "40.577763334970776"
    },
    {
      "id": "pt.ine.add.PTCONT.5664643",
      "street": "R PRINCIPAL",
      "house": "11",
      "postcode": "3475-070",
      "city": "SÃO JOÃO DO MONTE",
      "lon": "-8.255998354096283",
      "lat": "40.578249959526666"
    }
  ]
}