{
  "data": {
    "distrito": "Aveiro",
    "concelho": "Oliveira de Azeméis",
    "freguesia": "União das freguesias de Oliveira de Azeméis, Santiago da Riba-Ul, Ul, Macinhata da Seixa e Madail",
    "OBJECTID": 999,
    "BGRI2021": "01132101515",
    "DT21": "01",
    "DTMN21": "0113",
    "DTMNFR21": "011321",
    "DTMNFRSEC21": "011321015",
    "SECNUM21": "015",
    "SSNUM21": "15",
    "SECSSNUM21": "01515",
    "OBJECTID_1": 8440,
    "DT": "01",
    "CC": "13",
    "fr": "21",
    "SEC": "015",
    "SS": "15"
  },
  "addresses": [
    {
      "id": "pt.ine.add.PTCONT.302444",
      "street": "R LOUSAS",
      "house": "43",
      "postcode": "3720-519",
      "city": "SANTIAGO DE RIBA-UL",
      "lon": "-8.501147778065803",
      "lat": "40.85041113800793"
    },
    {
      "id": "pt.ine.add.PTCONT.314978",
      "street": "R DR AUGUSTO RIBEIRO VAZ",
      "house": "454",
      "postcode": "3720-519",
      "city": "SANTIAGO DE RIBA-UL",
      "lon": "-8.499626054561162",
      "lat": "40.85187476731743"
    },
    {
      "id": "pt.ine.add.PTCONT.318381",
      "street": "PCT LAVOURA",
      "house": "11",
      "postcode": "3720-519",
      "city": "SANTIAGO DE RIBA-UL",
      "lon": "-8.497633490636616",
      "lat": "40.853650378922346"
    },
    {
      "id": "pt.ine.add.PTCONT.323668",
      "street": "R ALTO VILA COVA",
      "house": "154",
      "postcode": "3720-519",
      "city": "SANTIAGO DE RIBA-UL",
      "lon": "-8.502232509098146",
      "lat": "40.85141621447504"
    },
    {
      "id": "pt.ine.add.PTCONT.329227",
      "street": "PCT LAVOURA",
      "house": "72",
      "postcode": "3720-519",
      "city": "SANTIAGO DE RIBA-UL",
      "lon": "-8.497915316687275",
      "lat": "40.85429450904978"
    },
    {
      "id": "pt.ine.add.PTCONT.331214",
      "street": "R CONDES PENHA LONGA",
      "house": "",
      "postcode": "3720-519",
      "city": "SANTIAGO DE RIBA-UL",
      "lon": "-8.50013608579839",
      "lat": "40.85189115537636"
    },
    {
      "id": "pt.ine.add.PTCONT.334893",
      "street": "PCT LAVOURA",
      "house": "14",
      "postcode": "3720-519",
      "city": "SANTIAGO DE RIBA-UL",
      "lon": "-8.49767293382873",
      "lat": "40.85368932086608"
    },
    {
      "id": "pt.ine.add.PTCONT.336655",
      "street": "R LAVOURA",
      "house": "519",
      "postcode": "3720-518",
      "city": "SANTIAGO DE RIBA-UL",
      "lon": "-8.497116228034743",
      "lat": "40.85482729670436"
    },
    {
      "id": "pt.ine.add.PTCONT.336656",
      "street": "R TORRE VILA COVA",
      "house": "338",
      "postcode": "3720-519",
      "city": "SANTIAGO DE RIBA-UL",
      "lon": "-8.50076556476882",
      "lat": "40.849917090404986"
    },
    {
      "id": "pt.ine.add.PTCONT.336657",
      "street": "R ALTO VILA COVA",
      "house": "180",
      "postcode": "3720-519",
      "city": "SANTIAGO DE RIBA-UL",
      "lon": "-8.50237756428442",
      "lat": "40.85191101647845"
    },
    {
      "id": "pt.ine.add.PTCONT.337269",
      "street": "PCT LAVOURA",
      "house": "33",
      "postcode": "3720-519",
      "city": "SANTIAGO DE RIBA-UL",
      "lon": "-8.497835796496465",
      "lat": "40.853833078866174"
    },
    {
      "id": "pt.ine.add.PTCONT.342611",
      "street": "PCT LAVOURA",
      "house": "37",
      "postcode": "3720-519",
      "city": "SANTIAGO DE RIBA-UL",
      "lon": "-8.497883510661323",
      "lat": "40.85388347485335"
    },
    {
      "id": "pt.ine.add.PTCONT.348016",
      "street": "R ALTO VILA COVA",
      "house": "76",
      "postcode": "3720-519",
      "city": "SANTIAGO DE RIBA-UL",
      "lon": "-8.502016054133243",
      "lat": "40.85087661638898"
    },
    {
      "id": "pt.ine.add.PTCONT.1779",
      "street": "R LOUSAS",
      "house": "149",
      "postcode": "3720-519",
      "city": "SANTIAGO DE RIBA-UL",
      "lon": "-8.501101738521925",
      "lat": "40.85066342048255"
    },
    {
      "id": "pt.ine.add.PTCONT.18232",
      "street": "PCT LAVOURA",
      "house": "43",
      "postcode": "3720-519",
      "city": "SANTIAGO DE RIBA-UL",
      "lon": "-8.497933368659133",
      "lat": "40.85392709060108"
    },
    {
      "id": "pt.ine.add.PTCONT.20176",
      "street": "R RIBA UL",
      "house": "277",
      "postcode": "3720-518",
      "city": "SANTIAGO DE RIBA-UL",
      "lon": "-8.497555569023381",
      "lat": "40.854924962713675"
    },
    {
      "id": "pt.ine.add.PTCONT.30543",
      "street": "R ALTO VILA COVA",
      "house": "360",
      "postcode": "3720-519",
      "city": "SANTIAGO DE RIBA-UL",
      "lon": "-8.503355556763772",
      "lat": "40.85290741887102"
    },
    {
      "id": "pt.ine.add.PTCONT.31515",
      "street": "R TORRE VILA COVA",
      "house": "",
      "postcode": "3720-519",
      "city": "SANTIAGO DE RIBA-UL",
      "lon": "-8.500800194597614",
      "lat": "40.84974588799623"
    },
    {
      "id": "pt.ine.add.PTCONT.45291",
      "street": "R ALTO VILA COVA",
      "house": "",
      "postcode": "3720-519",
      "city": "SANTIAGO DE RIBA-UL",
      "lon": "-8.502663728507542",
      "lat": "40.852189250129754"
    },
    {
      "id": "pt.ine.add.PTCONT.57614",
      "street": "R CONDES PENHA LONGA",
      "house": "225",
      "postcode": "3720-519",
      "city": "SANTIAGO DE RIBA-UL",
      "lon": "-8.500604901060075",
      "lat": "40.85303327747326"
    },
    {
      "id": "pt.ine.add.PTCONT.74990",
      "street": "PCT LAVOURA",
      "house": "27",
      "postcode": "3720-519",
      "city": "SANTIAGO DE RIBA-UL",
      "lon": "-8.497782665846854",
      "lat": "40.85377807599753"
    },
    {
      "id": "pt.ine.add.PTCONT.82392",
      "street": "R CONDES PENHA LONGA",
      "house": "233",
      "postcode": "3720-519",
      "city": "SANTIAGO DE RIBA-UL",
      "lon": "-8.500700968208474",
      "lat": "40.85324908751855"
    },
    {
      "id": "pt.ine.add.PTCONT.85839",
      "street": "R DR AUGUSTO RIBEIRO VAZ",
      "house": "522",
      "postcode": "3720-519",
      "city": "SANTIAGO DE RIBA-UL",
      "lon": "-8.49988491402356",
      "lat": "40.85150474607781"
    },
    {
      "id": "pt.ine.add.PTCONT.119621",
      "street": "R RIBA UL",
      "house": "",
      "postcode": "3720-518",
      "city": "SANTIAGO DE RIBA-UL",
      "lon": "-8.49735395875299",
      "lat": "40.8549255994941"
    },
    {
      "id": "pt.ine.add.PTCONT.122344",
      "street": "R ALTO VILA COVA",
      "house": "126",
      "postcode": "3720-519",
      "city": "SANTIAGO DE RIBA-UL",
      "lon": "-8.502100813454065",
      "lat": "40.851191514767656"
    },
    {
      "id": "pt.ine.add.PTCONT.129558",
      "street": "R CONDES PENHA LONGA",
      "house": "",
      "postcode": "3720-519",
      "city": "SANTIAGO DE RIBA-UL",
      "lon": "-8.50026777622434",
      "lat": "40.85211585732193"
    },
    {
      "id": "pt.ine.add.PTCONT.130877",
      "street": "R GARREIRAS",
      "house": "62",
      "postcode": "3720-519",
      "city": "SANTIAGO DE RIBA-UL",
      "lon": "-8.501420576133032",
      "lat": "40.85041927218911"
    },
    {
      "id": "pt.ine.add.PTCONT.146265",
      "street": "R DR AUGUSTO RIBEIRO VAZ",
      "house": "444",
      "postcode": "3720-519",
      "city": "SANTIAGO DE RIBA-UL",
      "lon": "-8.499449460886431",
      "lat": "40.85210945412424"
    },
    {
      "id": "pt.ine.add.PTCONT.149441",
      "street": "PCT LAVOURA",
      "house": "100",
      "postcode": "3720-519",
      "city": "SANTIAGO DE RIBA-UL",
      "lon": "-8.49766699730303",
      "lat": "40.85417659771572"
    },
    {
      "id": "pt.ine.add.PTCONT.157821",
      "street": "R LOUSAS",
      "house": "148",
      "postcode": "3720-519",
      "city": "SANTIAGO DE RIBA-UL",
      "lon": "-8.501150418820183",
      "lat": "40.850888386241785"
    },
    {
      "id": "pt.ine.add.PTCONT.164838",
      "street": "R GARREIRAS",
      "house": "",
      "postcode": "3720-519",
      "city": "SANTIAGO DE RIBA-UL",
      "lon": "-8.500920372974692",
      "lat": "40.850033659880964"
    },
    {
      "id": "pt.ine.add.PTCONT.172804",
      "street": "R TORRE VILA COVA",
      "house": "8",
      "postcode": "3720-519",
      "city": "SANTIAGO DE RIBA-UL",
      "lon": "-8.500002806762605",
      "lat": "40.85137830339754"
    },
    {
      "id": "pt.ine.add.PTCONT.184998",
      "street": "R LAVOURA",
      "house": "371",
      "postcode": "3720-519",
      "city": "SANTIAGO DE RIBA-UL",
      "lon": "-8.497294744324421",
      "lat": "40.85425328271168"
    },
    {
      "id": "pt.ine.add.PTCONT.200030",
      "street": "PCT LAVOURA",
      "house": "20",
      "postcode": "3720-519",
      "city": "SANTIAGO DE RIBA-UL",
      "lon": "-8.497734667736918",
      "lat": "40.853731670008465"
    },
    {
      "id": "pt.ine.add.PTCONT.201885",
      "street": "R ALTO VILA COVA",
      "house": "",
      "postcode": "3720-519",
      "city": "SANTIAGO DE RIBA-UL",
      "lon": "-8.50302180025584",
      "lat": "40.85260232508318"
    },
    {
      "id": "pt.ine.add.PTCONT.210175",
      "street": "R LAVOURA",
      "house": "215",
      "postcode": "3720-519",
      "city": "SANTIAGO DE RIBA-UL",
      "lon": "-8.49831921217443",
      "lat": "40.85360784131262"
    },
    {
      "id": "pt.ine.add.PTCONT.213757",
      "street": "PCT LAVOURA",
      "house": "51",
      "postcode": "3720-519",
      "city": "SANTIAGO DE RIBA-UL",
      "lon": "-8.497985400208876",
      "lat": "40.853974100579066"
    },
    {
      "id": "pt.ine.add.PTCONT.216536",
      "street": "PCT LAVOURA",
      "house": "92",
      "postcode": "3720-519",
      "city": "SANTIAGO DE RIBA-UL",
      "lon": "-8.497731908562686",
      "lat": "40.85420570420526"
    },
    {
      "id": "pt.ine.add.PTCONT.223808",
      "street": "R LOUSAS",
      "house": "120",
      "postcode": "3720-519",
      "city": "SANTIAGO DE RIBA-UL",
      "lon": "-8.500972737481623",
      "lat": "40.85092497235668"
    },
    {
      "id": "pt.ine.add.PTCONT.227407",
      "street": "PCT LAVOURA",
      "house": "5",
      "postcode": "3720-519",
      "city": "SANTIAGO DE RIBA-UL",
      "lon": "-8.497587176947855",
      "lat": "40.85360573879962"
    },
    {
      "id": "pt.ine.add.PTCONT.229238",
      "street": "R TORRE VILA COVA",
      "house": "018",
      "postcode": "3720-519",
      "city": "SANTIAGO DE RIBA-UL",
      "lon": "-8.50027526071797",
      "lat": "40.85132340748459"
    },
    {
      "id": "pt.ine.add.PTCONT.236549",
      "street": "R RIBA UL",
      "house": "519",
      "postcode": "3720-518",
      "city": "SANTIAGO DE RIBA-UL",
      "lon": "-8.497733954140003",
      "lat": "40.85501444735934"
    },
    {
      "id": "pt.ine.add.PTCONT.245632",
      "street": "R ALTO VILA COVA",
      "house": "086",
      "postcode": "3720-519",
      "city": "SANTIAGO DE RIBA-UL",
      "lon": "-8.50193389208338",
      "lat": "40.8510299614244"
    },
    {
      "id": "pt.ine.add.PTCONT.256338",
      "street": "R CONDES PENHA LONGA",
      "house": "21",
      "postcode": "3720-519",
      "city": "SANTIAGO DE RIBA-UL",
      "lon": "-8.500301265040802",
      "lat": "40.85173754741662"
    },
    {
      "id": "pt.ine.add.PTCONT.256339",
      "street": "R TORRE VILA COVA",
      "house": "",
      "postcode": "3720-519",
      "city": "SANTIAGO DE RIBA-UL",
      "lon": "-8.500556538475992",
      "lat": "40.85071918744936"
    },
    {
      "id": "pt.ine.add.PTCONT.269848",
      "street": "R LAVOURA",
      "house": "401",
      "postcode": "3720-519",
      "city": "SANTIAGO DE RIBA-UL",
      "lon": "-8.497197764976335",
      "lat": "40.854556894275845"
    },
    {
      "id": "pt.ine.add.PTCONT.276073",
      "street": "PCT LAVOURA",
      "house": "79",
      "postcode": "3720-519",
      "city": "SANTIAGO DE RIBA-UL",
      "lon": "-8.49785548872085",
      "lat": "40.854266569826756"
    },
    {
      "id": "pt.ine.add.PTCONT.276602",
      "street": "R RIBA UL",
      "house": "309",
      "postcode": "3720-518",
      "city": "SANTIAGO DE RIBA-UL",
      "lon": "-8.497935959856736",
      "lat": "40.8550858473537"
    },
    {
      "id": "pt.ine.add.PTCONT.278738",
      "street": "PCT LAVOURA",
      "house": "59",
      "postcode": "3720-519",
      "city": "SANTIAGO DE RIBA-UL",
      "lon": "-8.498025232646718",
      "lat": "40.85401885199037"
    },
    {
      "id": "pt.ine.add.PTCONT.283894",
      "street": "PCT LAVOURA",
      "house": "85",
      "postcode": "3720-519",
      "city": "SANTIAGO DE RIBA-UL",
      "lon": "-8.497789616308255",
      "lat": "40.854234142760205"
    }
  ]
}