{
  "data": {
    "distrito": "Leiria",
    "concelho": "Castanheira de Pêra",
    "freguesia": "União das freguesias de Castanheira de Pêra e Coentral",
    "OBJECTID": 5,
    "BGRI2021": "10070300235",
    "DT21": "10",
    "DTMN21": "1007",
    "DTMNFR21": "100703",
    "DTMNFRSEC21": "100703002",
    "SECNUM21": "002",
    "SSNUM21": "35",
    "SECSSNUM21": "00235",
    "OBJECTID_1": 88691,
    "DT": "10",
    "CC": "07",
    "fr": "03",
    "SEC": "002",
    "SS": "35"
  },
  "addresses": [
    {
      "id": "pt.ine.add.PTCONT.1984622",
      "street": "",
      "house": "",
      "postcode": "3280-200",
      "city": "COENTRAL",
      "lon": "-8.1893333997365",
      "lat": "40.06100525759377"
    },
    {
      "id": "pt.ine.add.PTCONT.1986838",
      "street": "ZN GROTA",
      "house": "",
      "postcode": "3280-200",
      "city": "COENTRAL",
      "lon": "-8.18834989350934",
      "lat": "40.06230260942077"
    },
    {
      "id": "pt.ine.add.PTCONT.1986854",
      "street": "",
      "house": "",
      "postcode": "3280-200",
      "city": "COENTRAL",
      "lon": "-8.189673320025785",
      "lat": "40.06102310434119"
    },
    {
      "id": "pt.ine.add.PTCONT.2000305",
      "street": "",
      "house": "",
      "postcode": "3280-200",
      "city": "COENTRAL",
      "lon": "-8.189919757672142",
      "lat": "40.061383227876014"
    },
    {
      "id": "pt.ine.add.PTCONT.1993375",
      "street": "",
      "house": "",
      "postcode": "3280-200",
      "city": "COENTRAL",
      "lon": "-8.189497581087227",
      "lat": "40.06111325103873"
    },
    {
      "id": "pt.ine.add.PTCONT.2005161",
      "street": "ADELAIDE MADEIRA",
      "house": "",
      "postcode": "3280-200",
      "city": "COENTRAL",
      "lon": "-8.187799160310512",
      "lat": "40.062501004927306"
    },
    {
      "id": "pt.ine.add.PTCONT.2023957",
      "street": "",
      "house": "",
      "postcode": "3280-200",
      "city": "COENTRAL",
      "lon": "-8.189661435339472",
      "lat": "40.06082497587061"
    },
    {
      "id": "pt.ine.add.PTCONT.2023958",
      "street": "",
      "house": "",
      "postcode": "3280-200",
      "city": "COENTRAL",
      "lon": "-8.189321834284145",
      "lat": "40.06119439136931"
    },
    {
      "id": "pt.ine.add.PTCONT.2036447",
      "street": "EM 508",
      "house": "",
      "postcode": "3280-200",
      "city": "COENTRAL",
      "lon": "-8.187072187205269",
      "lat": "40.06216812007332"
    },
    {
      "id": "pt.ine.add.PTCONT.2059133",
      "street": "EM 508",
      "house": "",
      "postcode": "3280-200",
      "city": "COENTRAL",
      "lon": "-8.18693158390676",
      "lat": "40.0622312281874"
    },
    {
      "id": "pt.ine.add.PTCONT.2063657",
      "street": "",
      "house": "",
      "postcode": "3280-200",
      "city": "COENTRAL",
      "lon": "-8.190048942912425",
      "lat": "40.061689371936644"
    },
    {
      "id": "pt.ine.add.PTCONT.2078711",
      "street": "MANUEL SIMÕES NUNES",
      "house": "",
      "postcode": "3280-200",
      "city": "COENTRAL",
      "lon": "-8.1878813164142",
      "lat": "40.06263605762778"
    },
    {
      "id": "pt.ine.add.PTCONT.2078731",
      "street": "",
      "house": "",
      "postcode": "3280-200",
      "city": "COENTRAL",
      "lon": "-8.189427381777604",
      "lat": "40.061266388933035"
    },
    {
      "id": "pt.ine.add.PTCONT.2089868",
      "street": "JOÃO NUNES",
      "house": "",
      "postcode": "3280-200",
      "city": "COENTRAL",
      "lon": "-8.187822667412107",
      "lat": "40.062582048735685"
    },
    {
      "id": "pt.ine.add.PTCONT.2094166",
      "street": "",
      "house": "",
      "postcode": "3280-200",
      "city": "COENTRAL",
      "lon": "-8.189743429056868",
      "lat": "40.060761893094245"
    },
    {
      "id": "pt.ine.add.PTCONT.2104050",
      "street": "",
      "house": "",
      "postcode": "3280-200",
      "city": "COENTRAL",
      "lon": "-8.18727188764232",
      "lat": "40.062726405145966"
    },
    {
      "id": "pt.ine.add.PTCONT.2114155",
      "street": "JOSE VENTURA",
      "house": "",
      "postcode": "3280-200",
      "city": "COENTRAL",
      "lon": "-8.188139007934991",
      "lat": "40.06241978909444"
    },
    {
      "id": "pt.ine.add.PTCONT.2116549",
      "street": "",
      "house": "",
      "postcode": "3280-200",
      "city": "COENTRAL",
      "lon": "-8.189685145189747",
      "lat": "40.061149184009764"
    },
    {
      "id": "pt.ine.add.PTCONT.2128694",
      "street": "",
      "house": "",
      "postcode": "3280-200",
      "city": "COENTRAL",
      "lon": "-8.189650146265096",
      "lat": "40.061347335356665"
    },
    {
      "id": "pt.ine.add.PTCONT.2135871",
      "street": "",
      "house": "",
      "postcode": "3280-200",
      "city": "COENTRAL",
      "lon": "-8.187342293218647",
      "lat": "40.06282543931487"
    },
    {
      "id": "pt.ine.add.PTCONT.2148916",
      "street": "",
      "house": "",
      "postcode": "3280-200",
      "city": "COENTRAL",
      "lon": "-8.188899918317249",
      "lat": "40.06123962582545"
    },
    {
      "id": "pt.ine.add.PTCONT.2153262",
      "street": "JOÃO NUNES",
      "house": "",
      "postcode": "3280-200",
      "city": "COENTRAL",
      "lon": "-8.187799009090151",
      "lat": "40.06231187687714"
    },
    {
      "id": "pt.ine.add.PTCONT.2157659",
      "street": "EM 508",
      "house": "",
      "postcode": "3280-200",
      "city": "COENTRAL",
      "lon": "-8.186744216015258",
      "lat": "40.06244746150803"
    },
    {
      "id": "pt.ine.add.PTCONT.2174109",
      "street": "R PRINCIPAL",
      "house": "",
      "postcode": "3280-200",
      "city": "COENTRAL",
      "lon": "-8.187998882109628",
      "lat": "40.06307730090318"
    },
    {
      "id": "pt.ine.add.PTCONT.2174110",
      "street": "ARMINDA SACRAMENTO NOGUEIRA",
      "house": "",
      "postcode": "3280-200",
      "city": "COENTRAL",
      "lon": "-8.187893297254107",
      "lat": "40.06296027157797"
    },
    {
      "id": "pt.ine.add.PTCONT.2174111",
      "street": "MARIA HELENA MADEIRA",
      "house": "",
      "postcode": "3280-200",
      "city": "COENTRAL",
      "lon": "-8.187963306721148",
      "lat": "40.06256397003104"
    },
    {
      "id": "pt.ine.add.PTCONT.2174113",
      "street": "",
      "house": "",
      "postcode": "3280-200",
      "city": "COENTRAL",
      "lon": "-8.189532825487843",
      "lat": "40.061212301011736"
    },
    {
      "id": "pt.ine.add.PTCONT.2179377",
      "street": "BOSE CARLOS BERNARDO",
      "house": "",
      "postcode": "3280-200",
      "city": "COENTRAL",
      "lon": "-8.187600008682326",
      "lat": "40.062636190277914"
    },
    {
      "id": "pt.ine.add.PTCONT.2198771",
      "street": "NAZARÉ ALMEIDA",
      "house": "",
      "postcode": "3280-200",
      "city": "COENTRAL",
      "lon": "-8.18805714821569",
      "lat": "40.06265398656899"
    },
    {
      "id": "pt.ine.add.PTCONT.2199698",
      "street": "EM 508",
      "house": "",
      "postcode": "3280-200",
      "city": "COENTRAL",
      "lon": "-8.18622841664274",
      "lat": "40.062357638136945"
    },
    {
      "id": "pt.ine.add.PTCONT.2217475",
      "street": "CLARINDA BERNARDO",
      "house": "",
      "postcode": "3280-200",
      "city": "COENTRAL",
      "lon": "-8.188044841156968",
      "lat": "40.06192449820782"
    },
    {
      "id": "pt.ine.add.PTCONT.2221820",
      "street": "",
      "house": "",
      "postcode": "3280-200",
      "city": "COENTRAL",
      "lon": "-8.189063966937244",
      "lat": "40.06118551009454"
    },
    {
      "id": "pt.ine.add.PTCONT.2236677",
      "street": "MANUEL MADEIRA",
      "house": "",
      "postcode": "3280-200",
      "city": "COENTRAL",
      "lon": "-8.18813892098647",
      "lat": "40.062311715922775"
    },
    {
      "id": "pt.ine.add.PTCONT.2265148",
      "street": "JORGE MADEIRA",
      "house": "",
      "postcode": "3280-200",
      "city": "COENTRAL",
      "lon": "-8.188010147920693",
      "lat": "40.0625099112388"
    },
    {
      "id": "pt.ine.add.PTCONT.2265989",
      "street": "MIGUEL BERNARDO",
      "house": "",
      "postcode": "3280-200",
      "city": "COENTRAL",
      "lon": "-8.187471004393025",
      "lat": "40.06254618987376"
    }
  ]
}