{
  "data": {
    "ilha": "Ilha do Faial (Açores)",
    "concelho": "Horta",
    "freguesia": "Horta (Angústias)",
    "OBJECTID": 166,
    "BGRI2021": "47010600218",
    "DT21": "47",
    "DTMN21": "4701",
    "DTMNFR21": "470106",
    "DTMNFRSEC21": "470106002",
    "SECNUM21": "002",
    "SSNUM21": "18",
    "SECSSNUM21": "00218",
    "OBJECTID_1": 209950,
    "DT": "47",
    "CC": "01",
    "fr": "06",
    "SEC": "002",
    "SS": "18",
    "BGRI2021_1": "47010600218"
  },
  "addresses": [
    {
      "id": "pt.ine.add.AC26.39955",
      "street": "R MARCELINO DE LIMA",
      "house": "04",
      "postcode": "9900-122",
      "city": "HORTA",
      "lon": "-28.630514283120846",
      "lat": "38.53392729328606"
    },
    {
      "id": "pt.ine.add.AC26.39956",
      "street": "R MARCELINO LIMA",
      "house": "4",
      "postcode": "9900-122",
      "city": "HORTA",
      "lon": "-28.630514283120846",
      "lat": "38.53392729328606"
    },
    {
      "id": "pt.ine.add.AC26.39957",
      "street": "R MARCELINO DE LIMA",
      "house": "04",
      "postcode": "9900-122",
      "city": "HORTA",
      "lon": "-28.630514283120846",
      "lat": "38.53392729328606"
    },
    {
      "id": "pt.ine.add.AC26.39958",
      "street": "R MARCELINO DE LIMA",
      "house": "04",
      "postcode": "9900-122",
      "city": "HORTA",
      "lon": "-28.630514283120846",
      "lat": "38.53392729328606"
    },
    {
      "id": "pt.ine.add.AC26.39959",
      "street": "R MARCELINO DE LIMA",
      "house": "04",
      "postcode": "9900-122",
      "city": "HORTA",
      "lon": "-28.630514283120846",
      "lat": "38.53392729328606"
    },
    {
      "id": "pt.ine.add.AC26.39960",
      "street": "R MARCELINO LIMA",
      "house": "4",
      "postcode": "9900-122",
      "city": "HORTA",
      "lon": "-28.630514283120846",
      "lat": "38.53392729328606"
    },
    {
      "id": "pt.ine.add.AC26.39961",
      "street": "R MARCELINO LIMA",
      "house": "4",
      "postcode": "9900-122",
      "city": "HORTA",
      "lon": "-28.630514283120846",
      "lat": "38.53392729328606"
    },
    {
      "id": "pt.ine.add.AC26.39962",
      "street": "R MARCELINO DE LIMA",
      "house": "04",
      "postcode": "9900-122",
      "city": "HORTA",
      "lon": "-28.630514283120846",
      "lat": "38.53392729328606"
    },
    {
      "id": "pt.ine.add.AC26.39963",
      "street": "R MARCELINO DE LIMA",
      "house": "04",
      "postcode": "9900-122",
      "city": "HORTA",
      "lon": "-28.630514283120846",
      "lat": "38.53392729328606"
    },
    {
      "id": "pt.ine.add.AC26.39964",
      "street": "R MARCELINO DE LIMA",
      "house": "04",
      "postcode": "9900-122",
      "city": "HORTA",
      "lon": "-28.630514283120846",
      "lat": "38.53392729328606"
    },
    {
      "id": "pt.ine.add.AC26.39965",
      "street": "R CONSUL DABNEY THE CEDARS",
      "house": "",
      "postcode": "9900-014",
      "city": "HORTA",
      "lon": "-28.6310353419439",
      "lat": "38.533631674225745"
    },
    {
      "id": "pt.ine.add.AC26.40268",
      "street": "R CONSUL DABNEY",
      "house": "21B",
      "postcode": "9900-014",
      "city": "HORTA",
      "lon": "-28.631518050941",
      "lat": "38.5336700037049"
    },
    {
      "id": "pt.ine.add.AC26.40269",
      "street": "R CONSUL DABNEY",
      "house": "23",
      "postcode": "9900-014",
      "city": "HORTA",
      "lon": "-28.632076970833882",
      "lat": "38.53352704362529"
    },
    {
      "id": "pt.ine.add.AC26.40270",
      "street": "R LUIS DE CAMÕES",
      "house": "3",
      "postcode": "9900-015",
      "city": "HORTA",
      "lon": "-28.632223147657104",
      "lat": "38.53390347804261"
    },
    {
      "id": "pt.ine.add.AC26.40271",
      "street": "R LUIS DE CAMÕES",
      "house": "7",
      "postcode": "9900-015",
      "city": "HORTA",
      "lon": "-28.631441228439268",
      "lat": "38.5338242656801"
    },
    {
      "id": "pt.ine.add.AC26.52205",
      "street": "R LUIS DE CAMÕES",
      "house": "5",
      "postcode": "9900-015",
      "city": "HORTA",
      "lon": "-28.63209631085507",
      "lat": "38.53438284282406"
    },
    {
      "id": "pt.ine.add.AC26.57061",
      "street": "R LUIS DE CAMÕES",
      "house": "1",
      "postcode": "9900-015",
      "city": "HORTA",
      "lon": "-28.63234258623044",
      "lat": "38.53360444129396"
    },
    {
      "id": "pt.ine.add.AC26.68176",
      "street": "R CONSUL DABNEY",
      "house": "21A",
      "postcode": "9900-014",
      "city": "HORTA",
      "lon": "-28.63125365695441",
      "lat": "38.5336466546528"
    },
    {
      "id": "pt.ine.add.AC26.68177",
      "street": "R CONSUL DABNEY",
      "house": "21A",
      "postcode": "9900-014",
      "city": "HORTA",
      "lon": "-28.63125365695441",
      "lat": "38.5336466546528"
    },
    {
      "id": "pt.ine.add.AC26.101640",
      "street": "R CONSUL DABNEY",
      "house": "21",
      "postcode": "9900-014",
      "city": "HORTA",
      "lon": "-28.631837957421215",
      "lat": "38.533611477046"
    },
    {
      "id": "pt.ine.add.AC26.101641",
      "street": "R CONSUL DABNEY",
      "house": "21",
      "postcode": "9900-014",
      "city": "HORTA",
      "lon": "-28.631837957421215",
      "lat": "38.533611477046"
    },
    {
      "id": "pt.ine.add.AC26.102293",
      "street": "R CONSUL DABNEY",
      "house": "21B",
      "postcode": "9900-014",
      "city": "HORTA",
      "lon": "-28.631518050941",
      "lat": "38.5336700037049"
    },
    {
      "id": "pt.ine.add.AC26.106724",
      "street": "R CONSUL DABNEY",
      "house": "21B",
      "postcode": "9900-014",
      "city": "HORTA",
      "lon": "-28.631518050941",
      "lat": "38.5336700037049"
    }
  ]
}