{
  "data": {
    "distrito": "Leiria",
    "concelho": "Alvaiázere",
    "freguesia": "Pussos São Pedro",
    "OBJECTID": 260,
    "BGRI2021": "10020900131",
    "DT21": "10",
    "DTMN21": "1002",
    "DTMNFR21": "100209",
    "DTMNFRSEC21": "100209001",
    "SECNUM21": "001",
    "SSNUM21": "31",
    "SECSSNUM21": "00131",
    "OBJECTID_1": 85723,
    "DT": "10",
    "CC": "02",
    "fr": "09",
    "SEC": "001",
    "SS": "31"
  },
  "addresses": [
    {
      "id": "pt.ine.add.PTCONT.1982123",
      "street": "R MERCADO",
      "house": "11",
      "postcode": "3250-361",
      "city": "PUSSOS",
      "lon": "-8.346085131485047",
      "lat": "39.80327917015326"
    },
    {
      "id": "pt.ine.add.PTCONT.1990984",
      "street": "R D VIRGINIA PERES",
      "house": "19",
      "postcode": "3250-361",
      "city": "PUSSOS",
      "lon": "-8.344927430252392",
      "lat": "39.802731893"
    },
    {
      "id": "pt.ine.add.PTCONT.2028588",
      "street": "R MERCADO",
      "house": "15",
      "postcode": "3250-361",
      "city": "PUSSOS",
      "lon": "-8.34633037469972",
      "lat": "39.80328772627909"
    },
    {
      "id": "pt.ine.add.PTCONT.2028589",
      "street": "R MERCADO",
      "house": "15",
      "postcode": "3250-361",
      "city": "PUSSOS",
      "lon": "-8.34633037469972",
      "lat": "39.80328772627909"
    },
    {
      "id": "pt.ine.add.PTCONT.2034345",
      "street": "R CORREIOS",
      "house": "16",
      "postcode": "3250-361",
      "city": "PUSSOS",
      "lon": "-8.346647796853794",
      "lat": "39.80398064259057"
    },
    {
      "id": "pt.ine.add.PTCONT.2043563",
      "street": "R CORREIOS",
      "house": "18",
      "postcode": "3250-361",
      "city": "PUSSOS",
      "lon": "-8.346845944050695",
      "lat": "39.8038631933785"
    },
    {
      "id": "pt.ine.add.PTCONT.2087363",
      "street": "R D VIRGINIA PERES",
      "house": "37",
      "postcode": "3250-361",
      "city": "PUSSOS",
      "lon": "-8.34564126973224",
      "lat": "39.80323495147857"
    },
    {
      "id": "pt.ine.add.PTCONT.2124774",
      "street": "R CORREIOS",
      "house": "6",
      "postcode": "3250-361",
      "city": "PUSSOS",
      "lon": "-8.346519711353997",
      "lat": "39.80409796263226"
    },
    {
      "id": "pt.ine.add.PTCONT.2170540",
      "street": "R D VIRGINIA PERES",
      "house": "35",
      "postcode": "3250-361",
      "city": "PUSSOS",
      "lon": "-8.345559392729188",
      "lat": "39.8031900689387"
    },
    {
      "id": "pt.ine.add.PTCONT.2179088",
      "street": "R D VIRGINIA PERES",
      "house": "33",
      "postcode": "3250-361",
      "city": "PUSSOS",
      "lon": "-8.34541888203504",
      "lat": "39.80306423518238"
    },
    {
      "id": "pt.ine.add.PTCONT.2183532",
      "street": "R D VIRGINIA PERES",
      "house": "21",
      "postcode": "3250-361",
      "city": "PUSSOS",
      "lon": "-8.345009251011758",
      "lat": "39.80275876310276"
    },
    {
      "id": "pt.ine.add.PTCONT.2192617",
      "street": "R CORTICO",
      "house": "12",
      "postcode": "3250-356",
      "city": "PUSSOS",
      "lon": "-8.346894576704171",
      "lat": "39.80448455178281"
    },
    {
      "id": "pt.ine.add.PTCONT.2192618",
      "street": "R AMIEIRA",
      "house": "2",
      "postcode": "3250-353",
      "city": "PUSSOS",
      "lon": "-8.344845443815025",
      "lat": "39.802650984170576"
    }
  ]
}