{
  "data": {
    "distrito": "Leiria",
    "concelho": "Alvaiázere",
    "freguesia": "Pussos São Pedro",
    "OBJECTID": 614,
    "BGRI2021": "10020900175",
    "DT21": "10",
    "DTMN21": "1002",
    "DTMNFR21": "100209",
    "DTMNFRSEC21": "100209001",
    "SECNUM21": "001",
    "SSNUM21": "75",
    "SECSSNUM21": "00175",
    "OBJECTID_1": 85183,
    "DT": "10",
    "CC": "02",
    "fr": "09",
    "SEC": "001",
    "SS": "75"
  },
  "addresses": [
    {
      "id": "pt.ine.add.PTCONT.1984330",
      "street": "CC PRAZO",
      "house": "13",
      "postcode": "3250-368",
      "city": "PUSSOS",
      "lon": "-8.346337042927384",
      "lat": "39.83190127503343"
    },
    {
      "id": "pt.ine.add.PTCONT.2012854",
      "street": "CC PRAZO",
      "house": "15",
      "postcode": "3250-368",
      "city": "PUSSOS",
      "lon": "-8.346442541032987",
      "lat": "39.83201816493814"
    },
    {
      "id": "pt.ine.add.PTCONT.2071075",
      "street": "R NSA SRA DO ROSÁRIO",
      "house": "19",
      "postcode": "3250-368",
      "city": "PUSSOS",
      "lon": "-8.347243551137472",
      "lat": "39.83037197182282"
    },
    {
      "id": "pt.ine.add.PTCONT.2095209",
      "street": "R NSA SRA DO ROSÁRIO",
      "house": "1",
      "postcode": "3250-368",
      "city": "PUSSOS",
      "lon": "-8.345775595915343",
      "lat": "39.83166813783968"
    },
    {
      "id": "pt.ine.add.PTCONT.2140156",
      "street": "R NSA SRA DO ROSÁRIO",
      "house": "35",
      "postcode": "3250-368",
      "city": "PUSSOS",
      "lon": "-8.346055178740025",
      "lat": "39.83141544441792"
    },
    {
      "id": "pt.ine.add.PTCONT.2154247",
      "street": "R NSA SRA DO ROSÁRIO",
      "house": "",
      "postcode": "3250-368",
      "city": "PUSSOS",
      "lon": "-8.345857006828187",
      "lat": "39.831550904732374"
    },
    {
      "id": "pt.ine.add.PTCONT.2167959",
      "street": "CC PRAZO",
      "house": "7",
      "postcode": "3250-368",
      "city": "PUSSOS",
      "lon": "-8.346114811145782",
      "lat": "39.83181161875439"
    },
    {
      "id": "pt.ine.add.PTCONT.2223243",
      "street": "R DO CARRIL",
      "house": "16",
      "postcode": "3250-368",
      "city": "PUSSOS",
      "lon": "-8.347222327616493",
      "lat": "39.83111194770662"
    },
    {
      "id": "pt.ine.add.PTCONT.2249863",
      "street": "R NSA SRA DO ROSÁRIO",
      "house": "29",
      "postcode": "3250-368",
      "city": "PUSSOS",
      "lon": "-8.346206289268817",
      "lat": "39.83117199280302"
    }
  ]
}