{
  "data": {
    "distrito": "Viseu",
    "concelho": "Vila Nova de Paiva",
    "freguesia": "Queiriga",
    "OBJECTID": 321,
    "BGRI2021": "18220400142",
    "DT21": "18",
    "DTMN21": "1822",
    "DTMNFR21": "182204",
    "DTMNFRSEC21": "182204001",
    "SECNUM21": "001",
    "SSNUM21": "42",
    "SECSSNUM21": "00142",
    "OBJECTID_1": 200422,
    "DT": "18",
    "CC": "22",
    "fr": "04",
    "SEC": "001",
    "SS": "42"
  },
  "addresses": [
    {
      "id": "pt.ine.add.PTCONT.5433603",
      "street": "R LAJA",
      "house": "",
      "postcode": "3650-051",
      "city": "QUEIRIGA",
      "lon": "-7.744146234654258",
      "lat": "40.8064077075745"
    },
    {
      "id": "pt.ine.add.PTCONT.5448856",
      "street": "SIT SEIXINHO",
      "house": "",
      "postcode": "3650-051",
      "city": "QUEIRIGA",
      "lon": "-7.743972870284087",
      "lat": "40.80971192345329"
    },
    {
      "id": "pt.ine.add.PTCONT.5446435",
      "street": "R VALE",
      "house": "",
      "postcode": "3650-051",
      "city": "QUEIRIGA",
      "lon": "-7.744504488663535",
      "lat": "40.80594065945188"
    },
    {
      "id": "pt.ine.add.PTCONT.5455720",
      "street": "R LAJA",
      "house": "19",
      "postcode": "3650-051",
      "city": "QUEIRIGA",
      "lon": "-7.744500254328791",
      "lat": "40.80463493321117"
    },
    {
      "id": "pt.ine.add.PTCONT.5482776",
      "street": "R LAJA",
      "house": "13",
      "postcode": "3650-051",
      "city": "QUEIRIGA",
      "lon": "-7.744816175018129",
      "lat": "40.80532937491064"
    },
    {
      "id": "pt.ine.add.PTCONT.5491831",
      "street": "R VALE",
      "house": "2",
      "postcode": "3650-051",
      "city": "QUEIRIGA",
      "lon": "-7.744707577529363",
      "lat": "40.80566219107126"
    },
    {
      "id": "pt.ine.add.PTCONT.5530788",
      "street": "R BARREIRO",
      "house": "",
      "postcode": "3650-051",
      "city": "QUEIRIGA",
      "lon": "-7.744689936656743",
      "lat": "40.80868778053821"
    },
    {
      "id": "pt.ine.add.PTCONT.5530789",
      "street": "R TURGAL",
      "house": "",
      "postcode": "3650-051",
      "city": "QUEIRIGA",
      "lon": "-7.744310804975136",
      "lat": "40.80460728026562"
    },
    {
      "id": "pt.ine.add.PTCONT.5543727",
      "street": "R BARREIRO",
      "house": "",
      "postcode": "3650-051",
      "city": "QUEIRIGA",
      "lon": "-7.744402934107369",
      "lat": "40.80912805434536"
    },
    {
      "id": "pt.ine.add.PTCONT.5568973",
      "street": "R LAJA",
      "house": "",
      "postcode": "3650-051",
      "city": "QUEIRIGA",
      "lon": "-7.7445234299883525",
      "lat": "40.80472506037491"
    },
    {
      "id": "pt.ine.add.PTCONT.5577596",
      "street": "R TURGAL",
      "house": "",
      "postcode": "3650-051",
      "city": "QUEIRIGA",
      "lon": "-7.744393652927082",
      "lat": "40.80462556922229"
    },
    {
      "id": "pt.ine.add.PTCONT.5579467",
      "street": "R VALE",
      "house": "",
      "postcode": "3650-051",
      "city": "QUEIRIGA",
      "lon": "-7.743917598287646",
      "lat": "40.807001260524935"
    },
    {
      "id": "pt.ine.add.PTCONT.5601670",
      "street": "R TURGAL",
      "house": "7",
      "postcode": "3650-051",
      "city": "QUEIRIGA",
      "lon": "-7.744026499772338",
      "lat": "40.804588312099895"
    },
    {
      "id": "pt.ine.add.PTCONT.5609239",
      "street": "R VALE",
      "house": "",
      "postcode": "3650-051",
      "city": "QUEIRIGA",
      "lon": "-7.744325730146871",
      "lat": "40.80611115053741"
    },
    {
      "id": "pt.ine.add.PTCONT.5622123",
      "street": "R BARREIRO",
      "house": "",
      "postcode": "3650-051",
      "city": "QUEIRIGA",
      "lon": "-7.744738076293958",
      "lat": "40.80856187391377"
    },
    {
      "id": "pt.ine.add.PTCONT.5654695",
      "street": "R LAJA",
      "house": "15",
      "postcode": "3650-051",
      "city": "QUEIRIGA",
      "lon": "-7.7445225896370955",
      "lat": "40.80486913612037"
    },
    {
      "id": "pt.ine.add.PTCONT.5658421",
      "street": "R TURGAL",
      "house": "",
      "postcode": "3650-051",
      "city": "QUEIRIGA",
      "lon": "-7.744262246991217",
      "lat": "40.80480522467835"
    }
  ]
}