{
  "data": {
    "distrito": "Beja",
    "concelho": "Ourique",
    "freguesia": "Santana da Serra",
    "OBJECTID": 64,
    "BGRI2021": "02120600120",
    "DT21": "02",
    "DTMN21": "0212",
    "DTMNFR21": "021206",
    "DTMNFRSEC21": "021206001",
    "SECNUM21": "001",
    "SSNUM21": "20",
    "SECSSNUM21": "00120",
    "OBJECTID_1": 18450,
    "DT": "02",
    "CC": "12",
    "fr": "06",
    "SEC": "001",
    "SS": "20"
  },
  "addresses": [
    {
      "id": "pt.ine.add.PTCONT.458474",
      "street": "MTE BARRANCO DOS MADEIROS",
      "house": "",
      "postcode": "7670-613",
      "city": "SANTANA DA SERRA",
      "lon": "-8.392651902461802",
      "lat": "37.46821692025327"
    },
    {
      "id": "pt.ine.add.PTCONT.364931",
      "street": "MTE VOLTINHAS",
      "house": "",
      "postcode": "7670-613",
      "city": "SANTANA DA SERRA",
      "lon": "-8.391291945129618",
      "lat": "37.46721076976183"
    },
    {
      "id": "pt.ine.add.PTCONT.368204",
      "street": "MTE PEREIRINHO",
      "house": "",
      "postcode": "7670-613",
      "city": "SANTANA DA SERRA",
      "lon": "-8.4007672193396",
      "lat": "37.47109105323812"
    },
    {
      "id": "pt.ine.add.PTCONT.371404",
      "street": "MTE BREJO",
      "house": "",
      "postcode": "7670-613",
      "city": "SANTANA DA SERRA",
      "lon": "-8.393713896493376",
      "lat": "37.47455767960872"
    },
    {
      "id": "pt.ine.add.PTCONT.379505",
      "street": "MTE MORADIAS",
      "house": "",
      "postcode": "7670-613",
      "city": "SANTANA DA SERRA",
      "lon": "-8.396127831030748",
      "lat": "37.47625523491468"
    },
    {
      "id": "pt.ine.add.PTCONT.381497",
      "street": "MTE CHALET",
      "house": "",
      "postcode": "7670-613",
      "city": "SANTANA DA SERRA",
      "lon": "-8.390691191123997",
      "lat": "37.47332091697143"
    },
    {
      "id": "pt.ine.add.PTCONT.385756",
      "street": "MTE MALHADINS",
      "house": "",
      "postcode": "7670-613",
      "city": "SANTANA DA SERRA",
      "lon": "-8.389649237716853",
      "lat": "37.47276455887621"
    },
    {
      "id": "pt.ine.add.PTCONT.387552",
      "street": "MTE MALHADA",
      "house": "",
      "postcode": "7670-613",
      "city": "SANTANA DA SERRA",
      "lon": "-8.37265817370515",
      "lat": "37.46570928758573"
    },
    {
      "id": "pt.ine.add.PTCONT.391542",
      "street": "MTE VOLTINHAS",
      "house": "",
      "postcode": "7670-613",
      "city": "SANTANA DA SERRA",
      "lon": "-8.39045372999196",
      "lat": "37.476601101938705"
    },
    {
      "id": "pt.ine.add.PTCONT.393322",
      "street": "MTE MALHADINS DE BAIXO",
      "house": "",
      "postcode": "7670-613",
      "city": "SANTANA DA SERRA",
      "lon": "-8.386555205699574",
      "lat": "37.47379838482009"
    },
    {
      "id": "pt.ine.add.PTCONT.395623",
      "street": "MTE PORTELINHAS",
      "house": "",
      "postcode": "7670-613",
      "city": "SANTANA DA SERRA",
      "lon": "-8.398111035417182",
      "lat": "37.474403738548645"
    },
    {
      "id": "pt.ine.add.PTCONT.400163",
      "street": "MTE POIO",
      "house": "",
      "postcode": "7670-613",
      "city": "SANTANA DA SERRA",
      "lon": "-8.366982517419613",
      "lat": "37.46896428973483"
    },
    {
      "id": "pt.ine.add.PTCONT.415856",
      "street": "MTE VOLTINHAS",
      "house": "",
      "postcode": "7670-613",
      "city": "SANTANA DA SERRA",
      "lon": "-8.390489839860399",
      "lat": "37.477240738448984"
    },
    {
      "id": "pt.ine.add.PTCONT.437832",
      "street": "MTE PEREIRINHO",
      "house": "",
      "postcode": "7670-613",
      "city": "SANTANA DA SERRA",
      "lon": "-8.40023946782407",
      "lat": "37.47209236626796"
    },
    {
      "id": "pt.ine.add.PTCONT.437833",
      "street": "MTE FONTE DA UMBRIA",
      "house": "",
      "postcode": "7670-613",
      "city": "SANTANA DA SERRA",
      "lon": "-8.394287738086321",
      "lat": "37.47702517278886"
    },
    {
      "id": "pt.ine.add.PTCONT.438753",
      "street": "MTE ARRECANCANHA",
      "house": "",
      "postcode": "7670-613",
      "city": "SANTANA DA SERRA",
      "lon": "-8.391689368194026",
      "lat": "37.47429182514339"
    },
    {
      "id": "pt.ine.add.PTCONT.441833",
      "street": "MTE MALHADINHA",
      "house": "",
      "postcode": "7670-613",
      "city": "SANTANA DA SERRA",
      "lon": "-8.373351850863955",
      "lat": "37.46700533258265"
    },
    {
      "id": "pt.ine.add.PTCONT.444262",
      "street": "MTE VAGA DA MINA",
      "house": "",
      "postcode": "7670-613",
      "city": "SANTANA DA SERRA",
      "lon": "-8.368250406429203",
      "lat": "37.47315146333416"
    },
    {
      "id": "pt.ine.add.PTCONT.444263",
      "street": "MTE ARRECANCANHA",
      "house": "",
      "postcode": "7670-613",
      "city": "SANTANA DA SERRA",
      "lon": "-8.391204245845485",
      "lat": "37.47458120823076"
    },
    {
      "id": "pt.ine.add.PTCONT.450559",
      "street": "MTE MALHADINS",
      "house": "",
      "postcode": "7670-613",
      "city": "SANTANA DA SERRA",
      "lon": "-8.380460139278703",
      "lat": "37.47328871651253"
    },
    {
      "id": "pt.ine.add.PTCONT.451848",
      "street": "MTE MALHADINHA NOVA",
      "house": "",
      "postcode": "7670-613",
      "city": "SANTANA DA SERRA",
      "lon": "-8.374529454606593",
      "lat": "37.46762462879767"
    }
  ]
}