{
  "data": {
    "distrito": "Beja",
    "concelho": "Ourique",
    "freguesia": "Santana da Serra",
    "OBJECTID": 274,
    "BGRI2021": "02120600142",
    "DT21": "02",
    "DTMN21": "0212",
    "DTMNFR21": "021206",
    "DTMNFRSEC21": "021206001",
    "SECNUM21": "001",
    "SSNUM21": "42",
    "SECSSNUM21": "00142",
    "OBJECTID_1": 18405,
    "DT": "02",
    "CC": "12",
    "fr": "06",
    "SEC": "001",
    "SS": "42"
  },
  "addresses": [
    {
      "id": "pt.ine.add.PTCONT.353571",
      "street": "MTE RUIVO",
      "house": "",
      "postcode": "7670-613",
      "city": "SANTANA DA SERRA",
      "lon": "-8.365517680524427",
      "lat": "37.474138968824306"
    },
    {
      "id": "pt.ine.add.PTCONT.357481",
      "street": "MTE TROMBA DA PORCA",
      "house": "",
      "postcode": "7670-613",
      "city": "SANTANA DA SERRA",
      "lon": "-8.368653388846855",
      "lat": "37.50428942315023"
    },
    {
      "id": "pt.ine.add.PTCONT.366589",
      "street": "MTE LEBRE",
      "house": "",
      "postcode": "7670-613",
      "city": "SANTANA DA SERRA",
      "lon": "-8.362873999445512",
      "lat": "37.47469375406056"
    },
    {
      "id": "pt.ine.add.PTCONT.369949",
      "street": "MTE ALAGOA",
      "house": "",
      "postcode": "7670-613",
      "city": "SANTANA DA SERRA",
      "lon": "-8.373541305876449",
      "lat": "37.48733167729242"
    },
    {
      "id": "pt.ine.add.PTCONT.378279",
      "street": "MTE BARRADINHA",
      "house": "",
      "postcode": "7670-613",
      "city": "SANTANA DA SERRA",
      "lon": "-8.346160920273153",
      "lat": "37.48519477901416"
    },
    {
      "id": "pt.ine.add.PTCONT.381107",
      "street": "MTE ALAGOINHA",
      "house": "",
      "postcode": "7670-613",
      "city": "SANTANA DA SERRA",
      "lon": "-8.375638189354477",
      "lat": "37.48890415162278"
    },
    {
      "id": "pt.ine.add.PTCONT.384047",
      "street": "MTE LEBRINHA",
      "house": "",
      "postcode": "7670-613",
      "city": "SANTANA DA SERRA",
      "lon": "-8.358793198242864",
      "lat": "37.474809739821694"
    },
    {
      "id": "pt.ine.add.PTCONT.390767",
      "street": "MTE CERRO VELHO",
      "house": "",
      "postcode": "7670-613",
      "city": "SANTANA DA SERRA",
      "lon": "-8.355405485754778",
      "lat": "37.491367659174784"
    },
    {
      "id": "pt.ine.add.PTCONT.394768",
      "street": "MTE ESCONDIDO",
      "house": "",
      "postcode": "7670-613",
      "city": "SANTANA DA SERRA",
      "lon": "-8.378716125119999",
      "lat": "37.49307845781968"
    },
    {
      "id": "pt.ine.add.PTCONT.395631",
      "street": "MTE CORTE DA TELHA",
      "house": "",
      "postcode": "7670-613",
      "city": "SANTANA DA SERRA",
      "lon": "-8.3695443347168",
      "lat": "37.48196974519999"
    },
    {
      "id": "pt.ine.add.PTCONT.398836",
      "street": "MTE VAGALHAO",
      "house": "",
      "postcode": "7670-613",
      "city": "SANTANA DA SERRA",
      "lon": "-8.349432650940129",
      "lat": "37.47092588048943"
    },
    {
      "id": "pt.ine.add.PTCONT.402038",
      "street": "MTE BOGA",
      "house": "",
      "postcode": "7670-613",
      "city": "SANTANA DA SERRA",
      "lon": "-8.349565731365166",
      "lat": "37.48963055158058"
    },
    {
      "id": "pt.ine.add.PTCONT.409414",
      "street": "MTE PENEDRO BRANCO",
      "house": "",
      "postcode": "7670-613",
      "city": "SANTANA DA SERRA",
      "lon": "-8.344492699185938",
      "lat": "37.48301733865752"
    },
    {
      "id": "pt.ine.add.PTCONT.416699",
      "street": "MTE CERRO DO GUINCHO",
      "house": "",
      "postcode": "7670-613",
      "city": "SANTANA DA SERRA",
      "lon": "-8.358673487466382",
      "lat": "37.480116904005065"
    },
    {
      "id": "pt.ine.add.PTCONT.420643",
      "street": "MTE ALAGOA",
      "house": "",
      "postcode": "7670-613",
      "city": "SANTANA DA SERRA",
      "lon": "-8.374777449797968",
      "lat": "37.48847343267483"
    },
    {
      "id": "pt.ine.add.PTCONT.420647",
      "street": "MTE CERRO VELHO",
      "house": "",
      "postcode": "7670-613",
      "city": "SANTANA DA SERRA",
      "lon": "-8.35410073462154",
      "lat": "37.489883447431275"
    },
    {
      "id": "pt.ine.add.PTCONT.422276",
      "street": "MTE CORTE DA TELHA",
      "house": "",
      "postcode": "7670-613",
      "city": "SANTANA DA SERRA",
      "lon": "-8.369194860051442",
      "lat": "37.47869978814815"
    },
    {
      "id": "pt.ine.add.PTCONT.425428",
      "street": "MTE VAGALHAO",
      "house": "",
      "postcode": "7670-613",
      "city": "SANTANA DA SERRA",
      "lon": "-8.354725017125233",
      "lat": "37.46771749105107"
    },
    {
      "id": "pt.ine.add.PTCONT.432497",
      "street": "MTE ESTRADA",
      "house": "",
      "postcode": "7670-613",
      "city": "SANTANA DA SERRA",
      "lon": "-8.360081110276425",
      "lat": "37.49694500098368"
    },
    {
      "id": "pt.ine.add.PTCONT.435129",
      "street": "MTE ESTRADA",
      "house": "",
      "postcode": "7670-613",
      "city": "SANTANA DA SERRA",
      "lon": "-8.360025195251978",
      "lat": "37.49715233948734"
    },
    {
      "id": "pt.ine.add.PTCONT.435624",
      "street": "MTE VERGITO",
      "house": "",
      "postcode": "7670-613",
      "city": "SANTANA DA SERRA",
      "lon": "-8.3568992107799",
      "lat": "37.47657931791253"
    },
    {
      "id": "pt.ine.add.PTCONT.437835",
      "street": "MTE BOGA",
      "house": "",
      "postcode": "7670-613",
      "city": "SANTANA DA SERRA",
      "lon": "-8.349712492346006",
      "lat": "37.48954919205753"
    },
    {
      "id": "pt.ine.add.PTCONT.437839",
      "street": "MTE CORTE DA TELHINHA",
      "house": "",
      "postcode": "7670-613",
      "city": "SANTANA DA SERRA",
      "lon": "-8.369419951747881",
      "lat": "37.47837497551407"
    },
    {
      "id": "pt.ine.add.PTCONT.440783",
      "street": "MTE BOM CAMINHO",
      "house": "",
      "postcode": "7670-613",
      "city": "SANTANA DA SERRA",
      "lon": "-8.375857371192048",
      "lat": "37.50422077860531"
    },
    {
      "id": "pt.ine.add.PTCONT.443489",
      "street": "MTE ESCANGALHA CAMINHO",
      "house": "",
      "postcode": "7670-613",
      "city": "SANTANA DA SERRA",
      "lon": "-8.354091816533057",
      "lat": "37.48685608344834"
    },
    {
      "id": "pt.ine.add.PTCONT.446639",
      "street": "MTE PE DE PORCO",
      "house": "",
      "postcode": "7670-613",
      "city": "SANTANA DA SERRA",
      "lon": "-8.363819204936087",
      "lat": "37.49531595121759"
    }
  ]
}