{
  "data": {
    "distrito": "Beja",
    "concelho": "Ourique",
    "freguesia": "Santana da Serra",
    "OBJECTID": 255,
    "BGRI2021": "02120600145",
    "DT21": "02",
    "DTMN21": "0212",
    "DTMNFR21": "021206",
    "DTMNFRSEC21": "021206001",
    "SECNUM21": "001",
    "SSNUM21": "45",
    "SECSSNUM21": "00145",
    "OBJECTID_1": 18408,
    "DT": "02",
    "CC": "12",
    "fr": "06",
    "SEC": "001",
    "SS": "45"
  },
  "addresses": [
    {
      "id": "pt.ine.add.PTCONT.354365",
      "street": "MTE CASINHA",
      "house": "",
      "postcode": "7670-613",
      "city": "SANTANA DA SERRA",
      "lon": "-8.324265755484221",
      "lat": "37.505270596154986"
    },
    {
      "id": "pt.ine.add.PTCONT.359436",
      "street": "MTE ESTALEIRO",
      "house": "",
      "postcode": "7670-613",
      "city": "SANTANA DA SERRA",
      "lon": "-8.305405400442881",
      "lat": "37.50221817577456"
    },
    {
      "id": "pt.ine.add.PTCONT.361727",
      "street": "MTE PINHO NOVO",
      "house": "",
      "postcode": "7670-613",
      "city": "SANTANA DA SERRA",
      "lon": "-8.340619686710342",
      "lat": "37.50528804967011"
    },
    {
      "id": "pt.ine.add.PTCONT.377706",
      "street": "MTE PINHO",
      "house": "",
      "postcode": "7670-613",
      "city": "SANTANA DA SERRA",
      "lon": "-8.340924698559261",
      "lat": "37.505161372936776"
    },
    {
      "id": "pt.ine.add.PTCONT.384046",
      "street": "MTE BRANCO",
      "house": "",
      "postcode": "7670-613",
      "city": "SANTANA DA SERRA",
      "lon": "-8.337249826882388",
      "lat": "37.522061578708374"
    },
    {
      "id": "pt.ine.add.PTCONT.385200",
      "street": "MTE LAGOA DE BAIXO",
      "house": "",
      "postcode": "7670-613",
      "city": "SANTANA DA SERRA",
      "lon": "-8.33328770858111",
      "lat": "37.512535758832854"
    },
    {
      "id": "pt.ine.add.PTCONT.386405",
      "street": "MTE CARAPETAL DE BAIXO",
      "house": "",
      "postcode": "7670-613",
      "city": "SANTANA DA SERRA",
      "lon": "-8.311342538701423",
      "lat": "37.50687656927401"
    },
    {
      "id": "pt.ine.add.PTCONT.390868",
      "street": "MTE PORTEL",
      "house": "",
      "postcode": "7670-613",
      "city": "SANTANA DA SERRA",
      "lon": "-8.323074934039532",
      "lat": "37.51289500632889"
    },
    {
      "id": "pt.ine.add.PTCONT.394767",
      "street": "MTE ÁGUAS FRIAS",
      "house": "",
      "postcode": "7670-613",
      "city": "SANTANA DA SERRA",
      "lon": "-8.331979431710877",
      "lat": "37.52674676569224"
    },
    {
      "id": "pt.ine.add.PTCONT.398835",
      "street": "MTE ÁGUAS FRIAS",
      "house": "",
      "postcode": "7670-613",
      "city": "SANTANA DA SERRA",
      "lon": "-8.332001579145606",
      "lat": "37.52656652826949"
    },
    {
      "id": "pt.ine.add.PTCONT.404147",
      "street": "MTE ALICERCES",
      "house": "",
      "postcode": "7670-613",
      "city": "SANTANA DA SERRA",
      "lon": "-8.323577472441253",
      "lat": "37.52815716566242"
    },
    {
      "id": "pt.ine.add.PTCONT.410250",
      "street": "MTE BEIJARA",
      "house": "",
      "postcode": "7670-613",
      "city": "SANTANA DA SERRA",
      "lon": "-8.342541570009134",
      "lat": "37.52929635885022"
    },
    {
      "id": "pt.ine.add.PTCONT.415013",
      "street": "MTE PINHO",
      "house": "",
      "postcode": "7670-613",
      "city": "SANTANA DA SERRA",
      "lon": "-8.333005052451442",
      "lat": "37.508337563079905"
    },
    {
      "id": "pt.ine.add.PTCONT.415853",
      "street": "MTE BRANCO",
      "house": "",
      "postcode": "7670-613",
      "city": "SANTANA DA SERRA",
      "lon": "-8.337136557481617",
      "lat": "37.52200771435587"
    },
    {
      "id": "pt.ine.add.PTCONT.420638",
      "street": "MTE LAGOA",
      "house": "",
      "postcode": "7670-613",
      "city": "SANTANA DA SERRA",
      "lon": "-8.333903584074045",
      "lat": "37.51443582901282"
    },
    {
      "id": "pt.ine.add.PTCONT.448342",
      "street": "MTE BEIJARA",
      "house": "",
      "postcode": "7670-613",
      "city": "SANTANA DA SERRA",
      "lon": "-8.33911142208971",
      "lat": "37.52438292913455"
    },
    {
      "id": "pt.ine.add.PTCONT.449164",
      "street": "MTE CORTE MARCO",
      "house": "",
      "postcode": "7670-613",
      "city": "SANTANA DA SERRA",
      "lon": "-8.327655758435345",
      "lat": "37.49978695501929"
    }
  ]
}