{
  "data": {
    "distrito": "Lisboa",
    "concelho": "Lisboa",
    "freguesia": "Santo Ant√≥nio",
    "OBJECTID": 524,
    "BGRI2021": "11066600205",
    "DT21": "11",
    "DTMN21": "1106",
    "DTMNFR21": "110666",
    "DTMNFRSEC21": "110666002",
    "SECNUM21": "002",
    "SSNUM21": "05",
    "SECSSNUM21": "00205",
    "OBJECTID_1": 102865,
    "DT": "11",
    "CC": "06",
    "fr": "66",
    "SEC": "002",
    "SS": "05"
  },
  "addresses": [
    {
      "id": "pt.ine.add.PTCONT.2315827",
      "street": "R ESCOLA POLITECNICA",
      "house": "159",
      "postcode": "1250-100",
      "city": "LISBOA",
      "lon": "-9.152680899907306",
      "lat": "38.71836379905622"
    },
    {
      "id": "pt.ine.add.PTCONT.2320392",
      "street": "R ESCOLA POLITECNICA",
      "house": "159",
      "postcode": "1250-100",
      "city": "LISBOA",
      "lon": "-9.152680899907306",
      "lat": "38.71836379905622"
    },
    {
      "id": "pt.ine.add.PTCONT.2333986",
      "street": "R MAESTRO PEDRO DE FREITAS BRANCO",
      "house": "12",
      "postcode": "1250-158",
      "city": "LISBOA",
      "lon": "-9.153399675930885",
      "lat": "38.7179701898207"
    },
    {
      "id": "pt.ine.add.PTCONT.2333987",
      "street": "R MAESTRO PEDRO DE FREITAS BRANCO",
      "house": "12",
      "postcode": "1250-158",
      "city": "LISBOA",
      "lon": "-9.153399675930885",
      "lat": "38.7179701898207"
    },
    {
      "id": "pt.ine.add.PTCONT.2333988",
      "street": "R MAESTRO PEDRO FREITAS BRANCO",
      "house": "10",
      "postcode": "1250-158",
      "city": "LISBOA",
      "lon": "-9.153399675930885",
      "lat": "38.7179701898207"
    },
    {
      "id": "pt.ine.add.PTCONT.2338405",
      "street": "R MAESTRO PEDRO DE FREITAS BRANCO",
      "house": "12",
      "postcode": "1250-158",
      "city": "LISBOA",
      "lon": "-9.153399675930885",
      "lat": "38.7179701898207"
    },
    {
      "id": "pt.ine.add.PTCONT.2361120",
      "street": "R ARCO A S MAMEDE",
      "house": "91",
      "postcode": "1250-027",
      "city": "LISBOA",
      "lon": "-9.153078414315958",
      "lat": "38.71801803243361"
    },
    {
      "id": "pt.ine.add.PTCONT.2361121",
      "street": "R ARCO A S MAMEDE",
      "house": "91",
      "postcode": "1250-027",
      "city": "LISBOA",
      "lon": "-9.153078414315958",
      "lat": "38.71801803243361"
    },
    {
      "id": "pt.ine.add.PTCONT.2361122",
      "street": "R ARCO A S MAMEDE",
      "house": "91",
      "postcode": "1250-027",
      "city": "LISBOA",
      "lon": "-9.153078414315958",
      "lat": "38.71801803243361"
    },
    {
      "id": "pt.ine.add.PTCONT.2361123",
      "street": "R ARCO A S MAMEDE",
      "house": "91",
      "postcode": "1250-027",
      "city": "LISBOA",
      "lon": "-9.153078414315958",
      "lat": "38.71801803243361"
    },
    {
      "id": "pt.ine.add.PTCONT.2488978",
      "street": "R MAESTRO PEDRO DE FREITAS BRANCO",
      "house": "22",
      "postcode": "1250-158",
      "city": "LISBOA",
      "lon": "-9.153206156212729",
      "lat": "38.718106996646526"
    },
    {
      "id": "pt.ine.add.PTCONT.2488979",
      "street": "R MAESTRO PEDRO DE FREITAS BRANCO",
      "house": "22",
      "postcode": "1250-158",
      "city": "LISBOA",
      "lon": "-9.153206156212729",
      "lat": "38.718106996646526"
    },
    {
      "id": "pt.ine.add.PTCONT.2489123",
      "street": "R MAESTRO PEDRO DE FREITAS BRANCO",
      "house": "22",
      "postcode": "1250-158",
      "city": "LISBOA",
      "lon": "-9.153206156212729",
      "lat": "38.718106996646526"
    },
    {
      "id": "pt.ine.add.PTCONT.2489124",
      "street": "R MAESTRO PEDRO DE FREITAS BRANCO",
      "house": "22",
      "postcode": "1250-158",
      "city": "LISBOA",
      "lon": "-9.153206156212729",
      "lat": "38.718106996646526"
    },
    {
      "id": "pt.ine.add.PTCONT.2740170",
      "street": "R ARCO A S MAMEDE",
      "house": "95",
      "postcode": "1250-027",
      "city": "LISBOA",
      "lon": "-9.152873397325045",
      "lat": "38.71815493901677"
    },
    {
      "id": "pt.ine.add.PTCONT.2740171",
      "street": "R ARCO A S MAMEDE",
      "house": "95",
      "postcode": "1250-027",
      "city": "LISBOA",
      "lon": "-9.152873397325045",
      "lat": "38.71815493901677"
    },
    {
      "id": "pt.ine.add.PTCONT.2740172",
      "street": "R ARCO A S MAMEDE",
      "house": "95",
      "postcode": "1250-027",
      "city": "LISBOA",
      "lon": "-9.152873397325045",
      "lat": "38.71815493901677"
    },
    {
      "id": "pt.ine.add.PTCONT.2767159",
      "street": "R MAESTRO PEDRO DE FREITAS BRANCO",
      "house": "24A",
      "postcode": "1250-158",
      "city": "LISBOA",
      "lon": "-9.152978274163303",
      "lat": "38.71825311079206"
    },
    {
      "id": "pt.ine.add.PTCONT.2767160",
      "street": "R MAESTRO PEDRO DE FREITAS BRANCO",
      "house": "24A",
      "postcode": "1250-158",
      "city": "LISBOA",
      "lon": "-9.152978274163303",
      "lat": "38.71825311079206"
    },
    {
      "id": "pt.ine.add.PTCONT.2767161",
      "street": "R MAESTRO PEDRO DE FREITAS BRANCO",
      "house": "24A",
      "postcode": "1250-158",
      "city": "LISBOA",
      "lon": "-9.152978274163303",
      "lat": "38.71825311079206"
    },
    {
      "id": "pt.ine.add.PTCONT.2767162",
      "street": "R MAESTRO PEDRO DE FREITAS BRANCO",
      "house": "24A",
      "postcode": "1250-158",
      "city": "LISBOA",
      "lon": "-9.152978274163303",
      "lat": "38.71825311079206"
    },
    {
      "id": "pt.ine.add.PTCONT.2767163",
      "street": "R MAESTRO PEDRO DE FREITAS BRANCO",
      "house": "24A",
      "postcode": "1250-158",
      "city": "LISBOA",
      "lon": "-9.152978274163303",
      "lat": "38.71825311079206"
    },
    {
      "id": "pt.ine.add.PTCONT.2786581",
      "street": "R ARCO A S MAMEDE",
      "house": "93",
      "postcode": "1250-027",
      "city": "LISBOA",
      "lon": "-9.152998706915303",
      "lat": "38.7180727750508"
    },
    {
      "id": "pt.ine.add.PTCONT.2786582",
      "street": "R ARCO A S MAMEDE",
      "house": "93",
      "postcode": "1250-027",
      "city": "LISBOA",
      "lon": "-9.152998706915303",
      "lat": "38.7180727750508"
    },
    {
      "id": "pt.ine.add.PTCONT.2786583",
      "street": "R ARCO A S MAMEDE",
      "house": "93",
      "postcode": "1250-027",
      "city": "LISBOA",
      "lon": "-9.152998706915303",
      "lat": "38.7180727750508"
    },
    {
      "id": "pt.ine.add.PTCONT.2786584",
      "street": "R ARCO A S MAMEDE",
      "house": "93",
      "postcode": "1250-027",
      "city": "LISBOA",
      "lon": "-9.152998706915303",
      "lat": "38.7180727750508"
    },
    {
      "id": "pt.ine.add.PTCONT.2786585",
      "street": "R MAESTRO PEDRO DE FREITAS BRANCO",
      "house": "24",
      "postcode": "1250-158",
      "city": "LISBOA",
      "lon": "-9.153091959249108",
      "lat": "38.718162040258356"
    },
    {
      "id": "pt.ine.add.PTCONT.2786586",
      "street": "R MAESTRO PEDRO DE FREITAS BRANCO",
      "house": "24",
      "postcode": "1250-158",
      "city": "LISBOA",
      "lon": "-9.153091959249108",
      "lat": "38.718162040258356"
    },
    {
      "id": "pt.ine.add.PTCONT.2786587",
      "street": "R MAESTRO PEDRO DE FREITAS BRANCO",
      "house": "24",
      "postcode": "1250-158",
      "city": "LISBOA",
      "lon": "-9.153091959249108",
      "lat": "38.718162040258356"
    },
    {
      "id": "pt.ine.add.PTCONT.2786588",
      "street": "R MAESTRO PEDRO DE FREITAS BRANCO",
      "house": "24",
      "postcode": "1250-158",
      "city": "LISBOA",
      "lon": "-9.153091959249108",
      "lat": "38.718162040258356"
    },
    {
      "id": "pt.ine.add.PTCONT.2786589",
      "street": "R MAESTRO PEDRO DE FREITAS BRANCO",
      "house": "24",
      "postcode": "1250-158",
      "city": "LISBOA",
      "lon": "-9.153091959249108",
      "lat": "38.718162040258356"
    },
    {
      "id": "pt.ine.add.PTCONT.2788446",
      "street": "R ARCO A S MAMEDE",
      "house": "93",
      "postcode": "1250-027",
      "city": "LISBOA",
      "lon": "-9.152998706915303",
      "lat": "38.7180727750508"
    },
    {
      "id": "pt.ine.add.PTCONT.3126757",
      "street": "R MAESTRO PEDRO DE FREITAS BRANCO",
      "house": "2",
      "postcode": "1250-158",
      "city": "LISBOA",
      "lon": "-9.15354784945695",
      "lat": "38.71787881785541"
    },
    {
      "id": "pt.ine.add.PTCONT.3230360",
      "street": "R ARCO A S MAMEDE",
      "house": "83",
      "postcode": "1250-027",
      "city": "LISBOA",
      "lon": "-9.153294926998353",
      "lat": "38.71788102517853"
    },
    {
      "id": "pt.ine.add.PTCONT.3230361",
      "street": "R ARCO A S MAMEDE",
      "house": "83",
      "postcode": "1250-027",
      "city": "LISBOA",
      "lon": "-9.153294926998353",
      "lat": "38.71788102517853"
    },
    {
      "id": "pt.ine.add.PTCONT.3230362",
      "street": "R ARCO A S MAMEDE",
      "house": "83",
      "postcode": "1250-027",
      "city": "LISBOA",
      "lon": "-9.153294926998353",
      "lat": "38.71788102517853"
    },
    {
      "id": "pt.ine.add.PTCONT.3230363",
      "street": "R ARCO A S MAMEDE",
      "house": "83",
      "postcode": "1250-027",
      "city": "LISBOA",
      "lon": "-9.153294926998353",
      "lat": "38.71788102517853"
    },
    {
      "id": "pt.ine.add.PTCONT.3372960",
      "street": "R ARCO A S MAMEDE",
      "house": "87",
      "postcode": "1250-027",
      "city": "LISBOA",
      "lon": "-9.15313525664736",
      "lat": "38.71797249713316"
    },
    {
      "id": "pt.ine.add.PTCONT.3372961",
      "street": "R ARCO A S MAMEDE",
      "house": "87",
      "postcode": "1250-027",
      "city": "LISBOA",
      "lon": "-9.15313525664736",
      "lat": "38.71797249713316"
    },
    {
      "id": "pt.ine.add.PTCONT.3372962",
      "street": "R ARCO A S MAMEDE",
      "house": "87",
      "postcode": "1250-027",
      "city": "LISBOA",
      "lon": "-9.15313525664736",
      "lat": "38.71797249713316"
    },
    {
      "id": "pt.ine.add.PTCONT.3376674",
      "street": "R ARCO A S MAMEDE",
      "house": "87",
      "postcode": "1250-027",
      "city": "LISBOA",
      "lon": "-9.15313525664736",
      "lat": "38.71797249713316"
    },
    {
      "id": "pt.ine.add.PTCONT.3377360",
      "street": "R ARCO A S MAMEDE",
      "house": "87",
      "postcode": "1250-027",
      "city": "LISBOA",
      "lon": "-9.15313525664736",
      "lat": "38.71797249713316"
    }
  ]
}