{
  "data": {
    "distrito": "Lisboa",
    "concelho": "Sintra",
    "freguesia": "Colares",
    "OBJECTID": 2576,
    "BGRI2021": "11110500505",
    "DT21": "11",
    "DTMN21": "1111",
    "DTMNFR21": "111105",
    "DTMNFRSEC21": "111105005",
    "SECNUM21": "005",
    "SSNUM21": "05",
    "SECSSNUM21": "00505",
    "OBJECTID_1": 111993,
    "DT": "11",
    "CC": "11",
    "fr": "05",
    "SEC": "005",
    "SS": "05"
  },
  "addresses": [
    {
      "id": "pt.ine.add.PTCONT.2353916",
      "street": "R ANTÓNIO RODRIGUES PIMENTA",
      "house": "54",
      "postcode": "2705-207",
      "city": "COLARES",
      "lon": "-9.434750597956882",
      "lat": "38.79458741891292"
    },
    {
      "id": "pt.ine.add.PTCONT.2353921",
      "street": "CAM RIO DO MILHO SAIBREIRA",
      "house": "5",
      "postcode": "2705-211",
      "city": "COLARES",
      "lon": "-9.437266373761544",
      "lat": "38.79305510058038"
    },
    {
      "id": "pt.ine.add.PTCONT.2375621",
      "street": "R ANTÓNIO RODRIGUES PIMENTA",
      "house": "26",
      "postcode": "2705-207",
      "city": "COLARES",
      "lon": "-9.436589382509753",
      "lat": "38.79380127577555"
    },
    {
      "id": "pt.ine.add.PTCONT.2375622",
      "street": "R ANTÓNIO RODRIGUES PIMENTA",
      "house": "26",
      "postcode": "2705-207",
      "city": "COLARES",
      "lon": "-9.436589382509753",
      "lat": "38.79380127577555"
    },
    {
      "id": "pt.ine.add.PTCONT.2375623",
      "street": "R ANTÓNIO RODRIGUES PIMENTA",
      "house": "26",
      "postcode": "2705-207",
      "city": "COLARES",
      "lon": "-9.436589382509753",
      "lat": "38.79380127577555"
    },
    {
      "id": "pt.ine.add.PTCONT.2400398",
      "street": "ESTR NOVA DA RAINHA QTA DA BEM POSTA",
      "house": "184",
      "postcode": "2705-200",
      "city": "COLARES",
      "lon": "-9.429599162238352",
      "lat": "38.795500415865874"
    },
    {
      "id": "pt.ine.add.PTCONT.2418783",
      "street": "R ANTÓNIO RODRIGUES PIMENTA CASAL DA SERRANA",
      "house": "40",
      "postcode": "2705-207",
      "city": "COLARES",
      "lon": "-9.435901227586331",
      "lat": "38.7939350571056"
    },
    {
      "id": "pt.ine.add.PTCONT.2462954",
      "street": "R ANTÓNIO RODRIGUES PIMENTA",
      "house": "64",
      "postcode": "2705-207",
      "city": "COLARES",
      "lon": "-9.434087739452824",
      "lat": "38.794847013698686"
    },
    {
      "id": "pt.ine.add.PTCONT.2465935",
      "street": "ESTR NOVA RAINHA",
      "house": "",
      "postcode": "2705-200",
      "city": "COLARES",
      "lon": "-9.43200762658077",
      "lat": "38.795023286342506"
    },
    {
      "id": "pt.ine.add.PTCONT.2469328",
      "street": "R ANTÓNIO RODRIGUES PIMENTA",
      "house": "26",
      "postcode": "2705-207",
      "city": "COLARES",
      "lon": "-9.436417426043986",
      "lat": "38.793839224351935"
    },
    {
      "id": "pt.ine.add.PTCONT.2554706",
      "street": "ESCNH LEÃO",
      "house": "6",
      "postcode": "2705-207",
      "city": "COLARES",
      "lon": "-9.434504678955797",
      "lat": "38.794355961698365"
    },
    {
      "id": "pt.ine.add.PTCONT.2723258",
      "street": "R ANTÓNIO RODRIGUES PIMENTA CASA DA MINA",
      "house": "24",
      "postcode": "2705-207",
      "city": "COLARES",
      "lon": "-9.436820352974381",
      "lat": "38.793843736536644"
    },
    {
      "id": "pt.ine.add.PTCONT.2791617",
      "street": "ESCNH LEÃO CASA DOS OLHOS",
      "house": "2",
      "postcode": "2705-207",
      "city": "COLARES",
      "lon": "-9.434693878834869",
      "lat": "38.79463308862706"
    },
    {
      "id": "pt.ine.add.PTCONT.2827359",
      "street": "CAM RIO DO MILHO SAIBREIRA NOVA",
      "house": "1",
      "postcode": "2705-211",
      "city": "COLARES",
      "lon": "-9.437922269650144",
      "lat": "38.79430883643571"
    },
    {
      "id": "pt.ine.add.PTCONT.2850713",
      "street": "ESTR NOVA DA RAINHA QTA OA BEM POSTA",
      "house": "184",
      "postcode": "2705-200",
      "city": "COLARES",
      "lon": "-9.429877471435294",
      "lat": "38.79561442555985"
    },
    {
      "id": "pt.ine.add.PTCONT.2857078",
      "street": "R ANTÓNIO RODRIGUES PIMENTA CASA DOS NICHOS",
      "house": "60",
      "postcode": "2705-207",
      "city": "COLARES",
      "lon": "-9.43414265792223",
      "lat": "38.794702281106744"
    },
    {
      "id": "pt.ine.add.PTCONT.2912355",
      "street": "ESTR NOVA DA RAINHA QTA DO CASTANHEIRO",
      "house": "130",
      "postcode": "2705-200",
      "city": "COLARES",
      "lon": "-9.433363573458141",
      "lat": "38.794900113035915"
    },
    {
      "id": "pt.ine.add.PTCONT.2958142",
      "street": "ESTR NOVA DA RAINHA QTA DA BOA VISTA",
      "house": "210",
      "postcode": "2705-200",
      "city": "COLARES",
      "lon": "-9.429296383209682",
      "lat": "38.79403554156266"
    },
    {
      "id": "pt.ine.add.PTCONT.2967401",
      "street": "R ANTÓNIO RODRIGUES PIMENTA",
      "house": "68",
      "postcode": "2705-207",
      "city": "COLARES",
      "lon": "-9.434055017499421",
      "lat": "38.79494646128072"
    },
    {
      "id": "pt.ine.add.PTCONT.3012979",
      "street": "ESTR NOVA DA RAINHA",
      "house": "128",
      "postcode": "2705-200",
      "city": "COLARES",
      "lon": "-9.43395013840777",
      "lat": "38.794875568533186"
    },
    {
      "id": "pt.ine.add.PTCONT.3022004",
      "street": "ESCNH LEÃO",
      "house": "4",
      "postcode": "2705-207",
      "city": "COLARES",
      "lon": "-9.434700635828426",
      "lat": "38.7943717939501"
    },
    {
      "id": "pt.ine.add.PTCONT.3196214",
      "street": "R ANTÓNIO RODRIGUES PIMENTA QTAL DOS PINTOS",
      "house": "",
      "postcode": "2705-207",
      "city": "COLARES",
      "lon": "-9.434406023860834",
      "lat": "38.794627287525635"
    },
    {
      "id": "pt.ine.add.PTCONT.3229383",
      "street": "R ANTÓNIO RODRIGUES PIMENTA",
      "house": "66",
      "postcode": "2705-207",
      "city": "COLARES",
      "lon": "-9.434042527389087",
      "lat": "38.79489255496412"
    },
    {
      "id": "pt.ine.add.PTCONT.3236016",
      "street": "R ANTÓNIO RODRIGUES PIMENTA QTA DE S FRANCISCO",
      "house": "52",
      "postcode": "2705-207",
      "city": "COLARES",
      "lon": "-9.435398174236918",
      "lat": "38.79412081672145"
    },
    {
      "id": "pt.ine.add.PTCONT.3236022",
      "street": "ESTR NOVA DA RAINHA QTA DA BEM POSTA",
      "house": "184",
      "postcode": "2705-200",
      "city": "COLARES",
      "lon": "-9.429898038830094",
      "lat": "38.7954790837594"
    },
    {
      "id": "pt.ine.add.PTCONT.3245204",
      "street": "ESTR NOVA DA RAINHA CASA DEESAO JOSE",
      "house": "134",
      "postcode": "2705-200",
      "city": "COLARES",
      "lon": "-9.432858216283163",
      "lat": "38.79495978147593"
    },
    {
      "id": "pt.ine.add.PTCONT.3247464",
      "street": "ESTR NOVA DA RAINHA CASA DEESAO JOSE",
      "house": "134",
      "postcode": "2705-200",
      "city": "COLARES",
      "lon": "-9.432858216283163",
      "lat": "38.79495978147593"
    },
    {
      "id": "pt.ine.add.PTCONT.3337659",
      "street": "R ANTÓNIO RODRIGUES PIMENTA",
      "house": "46",
      "postcode": "2705-207",
      "city": "COLARES",
      "lon": "-9.434783974090985",
      "lat": "38.794523994110754"
    }
  ]
}