{
  "data": {
    "distrito": "Lisboa",
    "concelho": "Azambuja",
    "freguesia": "Azambuja",
    "OBJECTID": 224,
    "BGRI2021": "11030400404",
    "DT21": "11",
    "DTMN21": "1103",
    "DTMNFR21": "110304",
    "DTMNFRSEC21": "110304004",
    "SECNUM21": "004",
    "SSNUM21": "04",
    "SECSSNUM21": "00404",
    "OBJECTID_1": 99701,
    "DT": "11",
    "CC": "03",
    "fr": "04",
    "SEC": "004",
    "SS": "04"
  },
  "addresses": [
    {
      "id": "pt.ine.add.PTCONT.2273884",
      "street": "R MURTA",
      "house": "",
      "postcode": "2050-285",
      "city": "AZAMBUJA",
      "lon": "-8.912454161402225",
      "lat": "39.08658313686875"
    },
    {
      "id": "pt.ine.add.PTCONT.2277873",
      "street": "R VALE D FRANCISCA",
      "house": "",
      "postcode": "2050-383",
      "city": "AZAMBUJA",
      "lon": "-8.906864828416845",
      "lat": "39.088061554330345"
    },
    {
      "id": "pt.ine.add.PTCONT.2286831",
      "street": "R VALE D FRANCISCA",
      "house": "",
      "postcode": "2050-383",
      "city": "AZAMBUJA",
      "lon": "-8.906206853504985",
      "lat": "39.09025472802547"
    },
    {
      "id": "pt.ine.add.PTCONT.2304765",
      "street": "R MURTA",
      "house": "",
      "postcode": "2050-285",
      "city": "AZAMBUJA",
      "lon": "-8.909854754285199",
      "lat": "39.08246606310743"
    },
    {
      "id": "pt.ine.add.PTCONT.2313789",
      "street": "R VALE D FRANCISCA",
      "house": "",
      "postcode": "2050-383",
      "city": "AZAMBUJA",
      "lon": "-8.908482722839015",
      "lat": "39.0827634335412"
    },
    {
      "id": "pt.ine.add.PTCONT.2331851",
      "street": "R MURTA",
      "house": "",
      "postcode": "2050-285",
      "city": "AZAMBUJA",
      "lon": "-8.910960686099749",
      "lat": "39.08214342967816"
    },
    {
      "id": "pt.ine.add.PTCONT.2331852",
      "street": "R MURTA",
      "house": "",
      "postcode": "2050-285",
      "city": "AZAMBUJA",
      "lon": "-8.910139014925763",
      "lat": "39.082040818805005"
    },
    {
      "id": "pt.ine.add.PTCONT.2371835",
      "street": "R MURTA",
      "house": "",
      "postcode": "2050-285",
      "city": "AZAMBUJA",
      "lon": "-8.912595760920611",
      "lat": "39.08789727724652"
    },
    {
      "id": "pt.ine.add.PTCONT.2386598",
      "street": "R MURTA QTA DAS CORUJAS",
      "house": "",
      "postcode": "2050-285",
      "city": "AZAMBUJA",
      "lon": "-8.911773388296982",
      "lat": "39.08983937242171"
    },
    {
      "id": "pt.ine.add.PTCONT.2414397",
      "street": "R VALE D FRANCISCA",
      "house": "",
      "postcode": "2050-383",
      "city": "AZAMBUJA",
      "lon": "-8.90825852143033",
      "lat": "39.08234157391239"
    },
    {
      "id": "pt.ine.add.PTCONT.2438729",
      "street": "R MURTA",
      "house": "S S",
      "postcode": "2050-285",
      "city": "AZAMBUJA",
      "lon": "-8.912396218206284",
      "lat": "39.087619380336875"
    },
    {
      "id": "pt.ine.add.PTCONT.2451004",
      "street": "R VALE D FRANCISCA",
      "house": "",
      "postcode": "2050-383",
      "city": "AZAMBUJA",
      "lon": "-8.907910864727564",
      "lat": "39.085424433160995"
    },
    {
      "id": "pt.ine.add.PTCONT.2460921",
      "street": "R MURTA",
      "house": "",
      "postcode": "2050-285",
      "city": "AZAMBUJA",
      "lon": "-8.912003014720803",
      "lat": "39.085496250456266"
    },
    {
      "id": "pt.ine.add.PTCONT.2505219",
      "street": "R MURTA CASAL CONTENTE",
      "house": "",
      "postcode": "2050-285",
      "city": "AZAMBUJA",
      "lon": "-8.912428133923306",
      "lat": "39.08526822359946"
    },
    {
      "id": "pt.ine.add.PTCONT.2513850",
      "street": "R MURTA",
      "house": "",
      "postcode": "2050-285",
      "city": "AZAMBUJA",
      "lon": "-8.912371083064215",
      "lat": "39.08638552833442"
    },
    {
      "id": "pt.ine.add.PTCONT.2520866",
      "street": "R MURTA",
      "house": "SILI",
      "postcode": "2050-285",
      "city": "AZAMBUJA",
      "lon": "-8.909030022124428",
      "lat": "39.082084233749235"
    },
    {
      "id": "pt.ine.add.PTCONT.2532057",
      "street": "R VALE D FRANCISCA",
      "house": "",
      "postcode": "2050-383",
      "city": "AZAMBUJA",
      "lon": "-8.9082756962546",
      "lat": "39.08285488459642"
    },
    {
      "id": "pt.ine.add.PTCONT.2560776",
      "street": "R MURTA QUINTINHA DA BELA VISTA",
      "house": "",
      "postcode": "2050-285",
      "city": "AZAMBUJA",
      "lon": "-8.912407993898984",
      "lat": "39.085538581639874"
    },
    {
      "id": "pt.ine.add.PTCONT.2571524",
      "street": "R CONSTÂNCIAS",
      "house": "",
      "postcode": "2050-383",
      "city": "AZAMBUJA",
      "lon": "-8.908471915574136",
      "lat": "39.08494330872788"
    },
    {
      "id": "pt.ine.add.PTCONT.2571525",
      "street": "R CONSTÂNCIAS",
      "house": "",
      "postcode": "2050-383",
      "city": "AZAMBUJA",
      "lon": "-8.908432176961618",
      "lat": "39.0865919361171"
    },
    {
      "id": "pt.ine.add.PTCONT.2571526",
      "street": "R VALE D FRANCISCA CASA DOS PAIS",
      "house": "",
      "postcode": "2050-383",
      "city": "AZAMBUJA",
      "lon": "-8.907845790295363",
      "lat": "39.084758314260526"
    },
    {
      "id": "pt.ine.add.PTCONT.2577237",
      "street": "R CONSTÂNCIAS",
      "house": "",
      "postcode": "2050-383",
      "city": "AZAMBUJA",
      "lon": "-8.907946843236068",
      "lat": "39.08448741924388"
    },
    {
      "id": "pt.ine.add.PTCONT.2577240",
      "street": "R MURTA",
      "house": "",
      "postcode": "2050-285",
      "city": "AZAMBUJA",
      "lon": "-8.912418361257927",
      "lat": "39.08543042297701"
    },
    {
      "id": "pt.ine.add.PTCONT.2592537",
      "street": "R VALE D FRANCISCA CASA DA REGUEIRA",
      "house": "",
      "postcode": "2050-383",
      "city": "AZAMBUJA",
      "lon": "-8.907918469130983",
      "lat": "39.089288577242094"
    },
    {
      "id": "pt.ine.add.PTCONT.2619123",
      "street": "R MURTA",
      "house": "",
      "postcode": "2050-285",
      "city": "AZAMBUJA",
      "lon": "-8.908591382306295",
      "lat": "39.08213218914911"
    },
    {
      "id": "pt.ine.add.PTCONT.2622923",
      "street": "R VALE D FRANCISCA",
      "house": "",
      "postcode": "2050-383",
      "city": "AZAMBUJA",
      "lon": "-8.90805807218234",
      "lat": "39.084090352176865"
    },
    {
      "id": "pt.ine.add.PTCONT.2628654",
      "street": "R VALE D FRANCISCA",
      "house": "",
      "postcode": "2050-383",
      "city": "AZAMBUJA",
      "lon": "-8.90805807218234",
      "lat": "39.084090352176865"
    },
    {
      "id": "pt.ine.add.PTCONT.2640711",
      "street": "R MURTA",
      "house": "",
      "postcode": "2050-285",
      "city": "AZAMBUJA",
      "lon": "-8.912271766649763",
      "lat": "39.08786341305861"
    },
    {
      "id": "pt.ine.add.PTCONT.2651388",
      "street": "R VALE D FRANCISCA",
      "house": "",
      "postcode": "2050-383",
      "city": "AZAMBUJA",
      "lon": "-8.907075397094951",
      "lat": "39.08617760024625"
    },
    {
      "id": "pt.ine.add.PTCONT.2674881",
      "street": "R VALE D FRANCISCA",
      "house": "",
      "postcode": "2050-383",
      "city": "AZAMBUJA",
      "lon": "-8.908226786165482",
      "lat": "39.08366588049353"
    },
    {
      "id": "pt.ine.add.PTCONT.2674885",
      "street": "R VALE D FRANCISCA",
      "house": "",
      "postcode": "2050-383",
      "city": "AZAMBUJA",
      "lon": "-8.907796462646111",
      "lat": "39.08975777501334"
    },
    {
      "id": "pt.ine.add.PTCONT.2698282",
      "street": "R CONSTÂNCIAS",
      "house": "",
      "postcode": "2050-383",
      "city": "AZAMBUJA",
      "lon": "-8.909361378417533",
      "lat": "39.08490136069174"
    },
    {
      "id": "pt.ine.add.PTCONT.2710224",
      "street": "R VALE D FRANCISCA",
      "house": "",
      "postcode": "2050-383",
      "city": "AZAMBUJA",
      "lon": "-8.909220348220932",
      "lat": "39.082578377012815"
    },
    {
      "id": "pt.ine.add.PTCONT.2719128",
      "street": "R MURTA",
      "house": "",
      "postcode": "2050-285",
      "city": "AZAMBUJA",
      "lon": "-8.912094477438382",
      "lat": "39.0854055649522"
    },
    {
      "id": "pt.ine.add.PTCONT.2733478",
      "street": "R MURTA",
      "house": "",
      "postcode": "2050-285",
      "city": "AZAMBUJA",
      "lon": "-8.912517298527789",
      "lat": "39.08706911688704"
    },
    {
      "id": "pt.ine.add.PTCONT.2775504",
      "street": "R MURTA",
      "house": "",
      "postcode": "2050-285",
      "city": "AZAMBUJA",
      "lon": "-8.911767960752611",
      "lat": "39.0830387866781"
    },
    {
      "id": "pt.ine.add.PTCONT.2775505",
      "street": "R MURTA",
      "house": "",
      "postcode": "2050-285",
      "city": "AZAMBUJA",
      "lon": "-8.912232364677655",
      "lat": "39.08533258406373"
    },
    {
      "id": "pt.ine.add.PTCONT.2849544",
      "street": "R MURTA",
      "house": "",
      "postcode": "2050-285",
      "city": "AZAMBUJA",
      "lon": "-8.909919448687958",
      "lat": "39.08204228180225"
    },
    {
      "id": "pt.ine.add.PTCONT.2856368",
      "street": "R MURTA",
      "house": "",
      "postcode": "2050-285",
      "city": "AZAMBUJA",
      "lon": "-8.912398359374768",
      "lat": "39.086763658758294"
    },
    {
      "id": "pt.ine.add.PTCONT.2856390",
      "street": "R VALE D FRANCISCA",
      "house": "",
      "postcode": "2050-383",
      "city": "AZAMBUJA",
      "lon": "-8.906540886750332",
      "lat": "39.08909055242042"
    },
    {
      "id": "pt.ine.add.PTCONT.2862812",
      "street": "R MURTA",
      "house": "",
      "postcode": "2050-285",
      "city": "AZAMBUJA",
      "lon": "-8.90938757106611",
      "lat": "39.08201880169291"
    },
    {
      "id": "pt.ine.add.PTCONT.2872819",
      "street": "R CONSTÂNCIAS",
      "house": "",
      "postcode": "2050-383",
      "city": "AZAMBUJA",
      "lon": "-8.908255889105828",
      "lat": "39.0852690132807"
    },
    {
      "id": "pt.ine.add.PTCONT.2886586",
      "street": "R MURTA",
      "house": "",
      "postcode": "2050-285",
      "city": "AZAMBUJA",
      "lon": "-8.908787639347205",
      "lat": "39.0821128688099"
    },
    {
      "id": "pt.ine.add.PTCONT.2890946",
      "street": "R CONSTÂNCIAS",
      "house": "",
      "postcode": "2050-383",
      "city": "AZAMBUJA",
      "lon": "-8.908779588215188",
      "lat": "39.08559880613723"
    },
    {
      "id": "pt.ine.add.PTCONT.2922705",
      "street": "R MURTA",
      "house": "",
      "postcode": "2050-285",
      "city": "AZAMBUJA",
      "lon": "-8.912173563117406",
      "lat": "39.08734163750108"
    },
    {
      "id": "pt.ine.add.PTCONT.2926384",
      "street": "R CONSTÂNCIAS",
      "house": "",
      "postcode": "2050-383",
      "city": "AZAMBUJA",
      "lon": "-8.908376759045566",
      "lat": "39.08680848335208"
    },
    {
      "id": "pt.ine.add.PTCONT.2954383",
      "street": "R MURTA",
      "house": "",
      "postcode": "2050-285",
      "city": "AZAMBUJA",
      "lon": "-8.909526441913306",
      "lat": "39.08203589196895"
    },
    {
      "id": "pt.ine.add.PTCONT.2972432",
      "street": "R VALE D FRANCISCA",
      "house": "",
      "postcode": "2050-383",
      "city": "AZAMBUJA",
      "lon": "-8.907517051355097",
      "lat": "39.08534598238322"
    },
    {
      "id": "pt.ine.add.PTCONT.2981660",
      "street": "R MURTA",
      "house": "",
      "postcode": "2050-285",
      "city": "AZAMBUJA",
      "lon": "-8.910671288408869",
      "lat": "39.08210032265849"
    },
    {
      "id": "pt.ine.add.PTCONT.2981661",
      "street": "R MURTA",
      "house": "",
      "postcode": "2050-285",
      "city": "AZAMBUJA",
      "lon": "-8.909284454317689",
      "lat": "39.08210055524636"
    },
    {
      "id": "pt.ine.add.PTCONT.2999721",
      "street": "R MURTA",
      "house": "",
      "postcode": "2050-285",
      "city": "AZAMBUJA",
      "lon": "-8.912224621798613",
      "lat": "39.08988139520837"
    },
    {
      "id": "pt.ine.add.PTCONT.3008677",
      "street": "R VALE D FRANCISCA CASA DO VALE",
      "house": "",
      "postcode": "2050-383",
      "city": "AZAMBUJA",
      "lon": "-8.90988231905149",
      "lat": "39.08814057228915"
    },
    {
      "id": "pt.ine.add.PTCONT.3092919",
      "street": "R VALE D FRANCISCA",
      "house": "",
      "postcode": "2050-383",
      "city": "AZAMBUJA",
      "lon": "-8.909264796473577",
      "lat": "39.082415946985265"
    },
    {
      "id": "pt.ine.add.PTCONT.3102952",
      "street": "R MURTA",
      "house": "",
      "postcode": "2050-285",
      "city": "AZAMBUJA",
      "lon": "-8.909676967694933",
      "lat": "39.08206191191076"
    },
    {
      "id": "pt.ine.add.PTCONT.3111011",
      "street": "R VALE D FRANCISCA",
      "house": "",
      "postcode": "2050-383",
      "city": "AZAMBUJA",
      "lon": "-8.910451605515371",
      "lat": "39.09051474305351"
    },
    {
      "id": "pt.ine.add.PTCONT.3138424",
      "street": "R MURTA",
      "house": "",
      "postcode": "2050-285",
      "city": "AZAMBUJA",
      "lon": "-8.908337147292498",
      "lat": "39.08213387973717"
    },
    {
      "id": "pt.ine.add.PTCONT.3176065",
      "street": "R VALE D FRANCISCA",
      "house": "",
      "postcode": "2050-383",
      "city": "AZAMBUJA",
      "lon": "-8.908523406516323",
      "lat": "39.0833126176221"
    },
    {
      "id": "pt.ine.add.PTCONT.3185815",
      "street": "R VALE D FRANCISCA",
      "house": "",
      "postcode": "2050-383",
      "city": "AZAMBUJA",
      "lon": "-8.907981584421972",
      "lat": "39.085550067491475"
    },
    {
      "id": "pt.ine.add.PTCONT.3268487",
      "street": "R MURTA",
      "house": "",
      "postcode": "2050-285",
      "city": "AZAMBUJA",
      "lon": "-8.911158347384532",
      "lat": "39.08330407223102"
    },
    {
      "id": "pt.ine.add.PTCONT.3277801",
      "street": "R VALE D FRANCISCA",
      "house": "",
      "postcode": "2050-383",
      "city": "AZAMBUJA",
      "lon": "-8.907732262850448",
      "lat": "39.086002096605334"
    },
    {
      "id": "pt.ine.add.PTCONT.3397941",
      "street": "R VALE D FRANCISCA MONTE BRANCO",
      "house": "",
      "postcode": "2050-383",
      "city": "AZAMBUJA",
      "lon": "-8.908820037536739",
      "lat": "39.08929158994689"
    },
    {
      "id": "pt.ine.add.PTCONT.3412269",
      "street": "R MURTA",
      "house": "",
      "postcode": "2050-285",
      "city": "AZAMBUJA",
      "lon": "-8.910427819001017",
      "lat": "39.0820298863841"
    },
    {
      "id": "pt.ine.add.PTCONT.3434439",
      "street": "R CONSTÂNCIAS",
      "house": "",
      "postcode": "2050-383",
      "city": "AZAMBUJA",
      "lon": "-8.907571026388283",
      "lat": "39.087111083792905"
    }
  ]
}