{
  "data": {
    "distrito": "Lisboa",
    "concelho": "Azambuja",
    "freguesia": "Azambuja",
    "OBJECTID": 215,
    "BGRI2021": "11030400405",
    "DT21": "11",
    "DTMN21": "1103",
    "DTMNFR21": "110304",
    "DTMNFRSEC21": "110304004",
    "SECNUM21": "004",
    "SSNUM21": "05",
    "SECSSNUM21": "00405",
    "OBJECTID_1": 99702,
    "DT": "11",
    "CC": "03",
    "fr": "04",
    "SEC": "004",
    "SS": "05"
  },
  "addresses": [
    {
      "id": "pt.ine.add.PTCONT.2405607",
      "street": "QTA QUARELAS",
      "house": "",
      "postcode": "2050-001",
      "city": "AZAMBUJA",
      "lon": "-8.886701043693382",
      "lat": "39.09068868735581"
    },
    {
      "id": "pt.ine.add.PTCONT.2560779",
      "street": "QTA QUARELAS",
      "house": "",
      "postcode": "2050-001",
      "city": "AZAMBUJA",
      "lon": "-8.887101674522961",
      "lat": "39.091406693223554"
    },
    {
      "id": "pt.ine.add.PTCONT.2577226",
      "street": "",
      "house": "",
      "postcode": "2050-001",
      "city": "AZAMBUJA",
      "lon": "-8.884751803716098",
      "lat": "39.08889977924557"
    },
    {
      "id": "pt.ine.add.PTCONT.2698286",
      "street": "CASAIS DA MARGANA QTA DAS CORELAS",
      "house": "",
      "postcode": "2050-001",
      "city": "AZAMBUJA",
      "lon": "-8.88686467166519",
      "lat": "39.090858771203926"
    },
    {
      "id": "pt.ine.add.PTCONT.2770723",
      "street": "",
      "house": "",
      "postcode": "2050-001",
      "city": "AZAMBUJA",
      "lon": "-8.88467930528571",
      "lat": "39.088603000591284"
    },
    {
      "id": "pt.ine.add.PTCONT.2829144",
      "street": "CASAL DOS NETOS",
      "house": "",
      "postcode": "2050-001",
      "city": "AZAMBUJA",
      "lon": "-8.884223220052702",
      "lat": "39.087011619866544"
    },
    {
      "id": "pt.ine.add.PTCONT.2829145",
      "street": "CASAL DOS NETOS",
      "house": "",
      "postcode": "2050-001",
      "city": "AZAMBUJA",
      "lon": "-8.884223220052702",
      "lat": "39.087011619866544"
    },
    {
      "id": "pt.ine.add.PTCONT.2829146",
      "street": "CASAL DOS NETOS",
      "house": "",
      "postcode": "2050-001",
      "city": "AZAMBUJA",
      "lon": "-8.884223220052702",
      "lat": "39.087011619866544"
    },
    {
      "id": "pt.ine.add.PTCONT.2829147",
      "street": "CASAL DOS NETOS",
      "house": "",
      "postcode": "2050-001",
      "city": "AZAMBUJA",
      "lon": "-8.884223220052702",
      "lat": "39.087011619866544"
    },
    {
      "id": "pt.ine.add.PTCONT.2940321",
      "street": "",
      "house": "",
      "postcode": "2050-001",
      "city": "AZAMBUJA",
      "lon": "-8.884940901318933",
      "lat": "39.087115083833666"
    },
    {
      "id": "pt.ine.add.PTCONT.2963422",
      "street": "",
      "house": "",
      "postcode": "2050-001",
      "city": "AZAMBUJA",
      "lon": "-8.88453134757127",
      "lat": "39.08773023104186"
    },
    {
      "id": "pt.ine.add.PTCONT.3092914",
      "street": "",
      "house": "",
      "postcode": "2050-001",
      "city": "AZAMBUJA",
      "lon": "-8.884935381817852",
      "lat": "39.08877249127961"
    },
    {
      "id": "pt.ine.add.PTCONT.3120267",
      "street": "",
      "house": "",
      "postcode": "2050-001",
      "city": "AZAMBUJA",
      "lon": "-8.884339940636021",
      "lat": "39.08820885960747"
    },
    {
      "id": "pt.ine.add.PTCONT.3135882",
      "street": "CASAIS DA MARGANA",
      "house": "",
      "postcode": "2050-001",
      "city": "AZAMBUJA",
      "lon": "-8.887310768572224",
      "lat": "39.091504422788184"
    },
    {
      "id": "pt.ine.add.PTCONT.3149727",
      "street": "RESIDENCIA MATIAS",
      "house": "",
      "postcode": "2050-001",
      "city": "AZAMBUJA",
      "lon": "-8.884508049005179",
      "lat": "39.0888022683873"
    },
    {
      "id": "pt.ine.add.PTCONT.3149728",
      "street": "RESIDENCIA MATIAS",
      "house": "",
      "postcode": "2050-001",
      "city": "AZAMBUJA",
      "lon": "-8.884508049005179",
      "lat": "39.0888022683873"
    },
    {
      "id": "pt.ine.add.PTCONT.3195347",
      "street": "",
      "house": "",
      "postcode": "2050-001",
      "city": "AZAMBUJA",
      "lon": "-8.884945791570708",
      "lat": "39.08866433470036"
    },
    {
      "id": "pt.ine.add.PTCONT.3277786",
      "street": "QTA DAS PALHEIRAS",
      "house": "",
      "postcode": "2050-001",
      "city": "AZAMBUJA",
      "lon": "-8.884389513846063",
      "lat": "39.08852380112992"
    },
    {
      "id": "pt.ine.add.PTCONT.3300115",
      "street": "R S JOSÃ‰",
      "house": "",
      "postcode": "2050-001",
      "city": "AZAMBUJA",
      "lon": "-8.886630356264844",
      "lat": "39.09056303990487"
    },
    {
      "id": "pt.ine.add.PTCONT.3300116",
      "street": "QTA DA MARGANA",
      "house": "",
      "postcode": "2050-001",
      "city": "AZAMBUJA",
      "lon": "-8.884337169741334",
      "lat": "39.08794766124267"
    },
    {
      "id": "pt.ine.add.PTCONT.3397929",
      "street": "QTA COURELAS",
      "house": "",
      "postcode": "2050-001",
      "city": "AZAMBUJA",
      "lon": "-8.885272552087251",
      "lat": "39.08895947318907"
    },
    {
      "id": "pt.ine.add.PTCONT.3453761",
      "street": "CASAIS DA MARGANA",
      "house": "",
      "postcode": "2050-001",
      "city": "AZAMBUJA",
      "lon": "-8.887578611610955",
      "lat": "39.091691846313765"
    }
  ]
}