{
  "data": {
    "distrito": "Setúbal",
    "concelho": "Santiago do Cacém",
    "freguesia": "União das freguesias de Santiago do Cacém, Santa Cruz e São Bartolomeu da Serra",
    "OBJECTID": 457,
    "BGRI2021": "15091200317",
    "DT21": "15",
    "DTMN21": "1509",
    "DTMNFR21": "150912",
    "DTMNFRSEC21": "150912003",
    "SECNUM21": "003",
    "SSNUM21": "17",
    "SECSSNUM21": "00317",
    "OBJECTID_1": 167045,
    "DT": "15",
    "CC": "09",
    "fr": "12",
    "SEC": "003",
    "SS": "17"
  },
  "addresses": [
    {
      "id": "pt.ine.add.PTCONT.4672065",
      "street": "MTE PEDRIGUEIRA",
      "house": "",
      "postcode": "7540-055",
      "city": "SANTA CRUZ STC",
      "lon": "-8.697640836909429",
      "lat": "38.046720234832925"
    },
    {
      "id": "pt.ine.add.PTCONT.4705001",
      "street": "MTE MIRANTE",
      "house": "",
      "postcode": "7540-051",
      "city": "SANTA CRUZ STC",
      "lon": "-8.682326714515796",
      "lat": "38.04330624762037"
    },
    {
      "id": "pt.ine.add.PTCONT.4922488",
      "street": "",
      "house": "",
      "postcode": "7540-051",
      "city": "SANTA CRUZ STC",
      "lon": "-8.703692303426848",
      "lat": "38.051393774630235"
    },
    {
      "id": "pt.ine.add.PTCONT.5046403",
      "street": "MTE FONTE DA ROSA",
      "house": "",
      "postcode": "7540-055",
      "city": "SANTA CRUZ STC",
      "lon": "-8.69387053840115",
      "lat": "38.043810315973595"
    },
    {
      "id": "pt.ine.add.PTCONT.5073427",
      "street": "FEITAIS DOS FIGOS",
      "house": "",
      "postcode": "7540-051",
      "city": "SANTA CRUZ STC",
      "lon": "-8.692540033317915",
      "lat": "38.04711399320534"
    },
    {
      "id": "pt.ine.add.PTCONT.5082179",
      "street": "MTE OUTEIRO ALTO",
      "house": "",
      "postcode": "7540-051",
      "city": "SANTA CRUZ STC",
      "lon": "-8.692700696740495",
      "lat": "38.04577086975336"
    },
    {
      "id": "pt.ine.add.PTCONT.5093496",
      "street": "COURELA DAS FIGUEIRAS",
      "house": "",
      "postcode": "7540-051",
      "city": "SANTA CRUZ STC",
      "lon": "-8.701652557020099",
      "lat": "38.046926129101756"
    },
    {
      "id": "pt.ine.add.PTCONT.5098249",
      "street": "CARRISCA",
      "house": "",
      "postcode": "7540-230",
      "city": "SANTIAGO DO CACÉM",
      "lon": "-8.681676558185954",
      "lat": "38.04166962168368"
    }
  ]
}