{
  "data": {
    "distrito": "Santarém",
    "concelho": "Cartaxo",
    "freguesia": "União das freguesias do Cartaxo e Vale da Pinta",
    "OBJECTID": 74,
    "BGRI2021": "14060900819",
    "DT21": "14",
    "DTMN21": "1406",
    "DTMNFR21": "140609",
    "DTMNFRSEC21": "140609008",
    "SECNUM21": "008",
    "SSNUM21": "19",
    "SECSSNUM21": "00819",
    "OBJECTID_1": 149778,
    "DT": "14",
    "CC": "06",
    "fr": "09",
    "SEC": "008",
    "SS": "19"
  },
  "addresses": [
    {
      "id": "pt.ine.add.PTCONT.4432656",
      "street": "EM 514",
      "house": "",
      "postcode": "2070-226",
      "city": "CARTAXO",
      "lon": "-8.808916131002523",
      "lat": "39.17692510522112"
    },
    {
      "id": "pt.ine.add.PTCONT.4412044",
      "street": "ESTR SAMPAIO",
      "house": "",
      "postcode": "2070-551",
      "city": "VALE DA PINTA",
      "lon": "-8.805574449100245",
      "lat": "39.16992770707809"
    },
    {
      "id": "pt.ine.add.PTCONT.4412245",
      "street": "ESTR SAMPAIO",
      "house": "",
      "postcode": "2070-551",
      "city": "VALE DA PINTA",
      "lon": "-8.80477778050313",
      "lat": "39.17011244904026"
    },
    {
      "id": "pt.ine.add.PTCONT.4424379",
      "street": "ESTR SAMPAIO",
      "house": "",
      "postcode": "2070-551",
      "city": "VALE DA PINTA",
      "lon": "-8.804605075266503",
      "lat": "39.170203518009416"
    },
    {
      "id": "pt.ine.add.PTCONT.4438320",
      "street": "ESTR SAMPAIO",
      "house": "CASAL",
      "postcode": "2070-551",
      "city": "VALE DA PINTA",
      "lon": "-8.808115902197944",
      "lat": "39.17190363967906"
    },
    {
      "id": "pt.ine.add.PTCONT.4442029",
      "street": "R COMEND FRANCISCO FIRMINO RIBEIRO DA COSTA QTA DO SAMPAIO",
      "house": "",
      "postcode": "2070-597",
      "city": "VALE DA PINTA",
      "lon": "-8.81426677419853",
      "lat": "39.17735332453525"
    },
    {
      "id": "pt.ine.add.PTCONT.4465211",
      "street": "ESTR SAMPAIO",
      "house": "",
      "postcode": "2070-551",
      "city": "VALE DA PINTA",
      "lon": "-8.803555125431187",
      "lat": "39.17052482132035"
    },
    {
      "id": "pt.ine.add.PTCONT.4470392",
      "street": "ESTR SAMPAIO",
      "house": "",
      "postcode": "2070-551",
      "city": "VALE DA PINTA",
      "lon": "-8.812780129397229",
      "lat": "39.173191601751974"
    },
    {
      "id": "pt.ine.add.PTCONT.4472395",
      "street": "ESTR SAMPAIO",
      "house": "",
      "postcode": "2070-551",
      "city": "VALE DA PINTA",
      "lon": "-8.80372783282442",
      "lat": "39.17043375389373"
    },
    {
      "id": "pt.ine.add.PTCONT.4476891",
      "street": "ESTR SAMPAIO",
      "house": "",
      "postcode": "2070-551",
      "city": "VALE DA PINTA",
      "lon": "-8.816199356650891",
      "lat": "39.17615304120511"
    },
    {
      "id": "pt.ine.add.PTCONT.4509627",
      "street": "ESTR SAMPAIO",
      "house": "",
      "postcode": "2070-551",
      "city": "VALE DA PINTA",
      "lon": "-8.803451500780438",
      "lat": "39.17057946165463"
    },
    {
      "id": "pt.ine.add.PTCONT.4538011",
      "street": "ESTR SAMPAIO",
      "house": "",
      "postcode": "2070-551",
      "city": "VALE DA PINTA",
      "lon": "-8.805006882114547",
      "lat": "39.169867929482876"
    },
    {
      "id": "pt.ine.add.PTCONT.4538012",
      "street": "ESTR SAMPAIO",
      "house": "",
      "postcode": "2070-551",
      "city": "VALE DA PINTA",
      "lon": "-8.805006882114547",
      "lat": "39.169867929482876"
    },
    {
      "id": "pt.ine.add.PTCONT.4548327",
      "street": "ESTR SAMPAIO",
      "house": "",
      "postcode": "2070-551",
      "city": "VALE DA PINTA",
      "lon": "-8.803900967610433",
      "lat": "39.170387720563426"
    },
    {
      "id": "pt.ine.add.PTCONT.4554726",
      "street": "ESTR SAMPAIO",
      "house": "",
      "postcode": "2070-551",
      "city": "VALE DA PINTA",
      "lon": "-8.80521867067711",
      "lat": "39.170236009992145"
    },
    {
      "id": "pt.ine.add.PTCONT.4554727",
      "street": "ESTR SAMPAIO",
      "house": "",
      "postcode": "2070-551",
      "city": "VALE DA PINTA",
      "lon": "-8.80521867067711",
      "lat": "39.170236009992145"
    },
    {
      "id": "pt.ine.add.PTCONT.4567312",
      "street": "ESTR SAMPAIO",
      "house": "",
      "postcode": "2070-551",
      "city": "VALE DA PINTA",
      "lon": "-8.803082600460247",
      "lat": "39.170725701014895"
    },
    {
      "id": "pt.ine.add.PTCONT.4575367",
      "street": "ESTR SAMPAIO",
      "house": "",
      "postcode": "2070-551",
      "city": "VALE DA PINTA",
      "lon": "-8.805237868348637",
      "lat": "39.169821560585525"
    },
    {
      "id": "pt.ine.add.PTCONT.4617840",
      "street": "ESTR SAMPAIO CASA PRADA VALE",
      "house": "",
      "postcode": "2070-551",
      "city": "VALE DA PINTA",
      "lon": "-8.808919651347436",
      "lat": "39.172457437206795"
    },
    {
      "id": "pt.ine.add.PTCONT.4640270",
      "street": "ESTR SAMPAIO FAMILIA FERNANDES",
      "house": "",
      "postcode": "2070-551",
      "city": "VALE DA PINTA",
      "lon": "-8.80984966082044",
      "lat": "39.172902407618636"
    },
    {
      "id": "pt.ine.add.PTCONT.4641368",
      "street": "ESTR SAMPAIO",
      "house": "",
      "postcode": "2070-551",
      "city": "VALE DA PINTA",
      "lon": "-8.81103381816664",
      "lat": "39.17330085545378"
    },
    {
      "id": "pt.ine.add.PTCONT.4658989",
      "street": "ESTR SAMPAIO CASAL SAMPAIO",
      "house": "",
      "postcode": "2070-551",
      "city": "VALE DA PINTA",
      "lon": "-8.815898476566353",
      "lat": "39.17495682709931"
    }
  ]
}