{
  "data": {
    "distrito": "Guarda",
    "concelho": "Figueira de Castelo Rodrigo",
    "freguesia": "União das freguesias de Freixeda do Torrão, Quintã de Pêro Martins e Penha de Águia",
    "OBJECTID": 17,
    "BGRI2021": "09042100105",
    "DT21": "09",
    "DTMN21": "0904",
    "DTMNFR21": "090421",
    "DTMNFRSEC21": "090421001",
    "SECNUM21": "001",
    "SSNUM21": "05",
    "SECSSNUM21": "00105",
    "OBJECTID_1": 76426,
    "DT": "09",
    "CC": "04",
    "fr": "21",
    "SEC": "001",
    "SS": "05"
  },
  "addresses": [
    {
      "id": "pt.ine.add.PTCONT.1899615",
      "street": "R DA COSTA",
      "house": "81",
      "postcode": "6440-221",
      "city": "PENHA DE ÁGUIA",
      "lon": "-7.054845567664121",
      "lat": "40.869730942070156"
    },
    {
      "id": "pt.ine.add.PTCONT.1902583",
      "street": "TV DO CASTELO",
      "house": "96",
      "postcode": "6440-221",
      "city": "PENHA DE ÁGUIA",
      "lon": "-7.054424615607241",
      "lat": "40.87008719010573"
    },
    {
      "id": "pt.ine.add.PTCONT.1906064",
      "street": "R DO CASTELO",
      "house": "83",
      "postcode": "6440-221",
      "city": "PENHA DE ÁGUIA",
      "lon": "-7.054747764436639",
      "lat": "40.86991011981308"
    },
    {
      "id": "pt.ine.add.PTCONT.1910685",
      "street": "R DA LADEIRA",
      "house": "97",
      "postcode": "6440-221",
      "city": "PENHA DE ÁGUIA",
      "lon": "-7.054633863585706",
      "lat": "40.870350280533394"
    },
    {
      "id": "pt.ine.add.PTCONT.1910686",
      "street": "TV DA COSTA",
      "house": "92",
      "postcode": "6440-221",
      "city": "PENHA DE ÁGUIA",
      "lon": "-7.054565623847943",
      "lat": "40.87016955028218"
    },
    {
      "id": "pt.ine.add.PTCONT.1913873",
      "street": "R DA COSTA",
      "house": "77",
      "postcode": "6440-221",
      "city": "PENHA DE ÁGUIA",
      "lon": "-7.054402940866584",
      "lat": "40.8699609228915"
    },
    {
      "id": "pt.ine.add.PTCONT.1917905",
      "street": "R DO CASTELO",
      "house": "88",
      "postcode": "6440-221",
      "city": "PENHA DE ÁGUIA",
      "lon": "-7.054804290226663",
      "lat": "40.870081735840785"
    },
    {
      "id": "pt.ine.add.PTCONT.1920202",
      "street": "R DA LADEIRA",
      "house": "",
      "postcode": "6440-221",
      "city": "PENHA DE ÁGUIA",
      "lon": "-7.054464872223699",
      "lat": "40.8697994191815"
    },
    {
      "id": "pt.ine.add.PTCONT.1923789",
      "street": "TV DA COSTA",
      "house": "95",
      "postcode": "6440-221",
      "city": "PENHA DE ÁGUIA",
      "lon": "-7.054470303241743",
      "lat": "40.870195672677795"
    },
    {
      "id": "pt.ine.add.PTCONT.1929609",
      "street": "R DO CASTELO",
      "house": "93",
      "postcode": "6440-221",
      "city": "PENHA DE ÁGUIA",
      "lon": "-7.054860962366537",
      "lat": "40.870244348598284"
    },
    {
      "id": "pt.ine.add.PTCONT.1932741",
      "street": "R DO CASTELO",
      "house": "85",
      "postcode": "6440-221",
      "city": "PENHA DE ÁGUIA",
      "lon": "-7.054994346595135",
      "lat": "40.87006550337657"
    },
    {
      "id": "pt.ine.add.PTCONT.1936931",
      "street": "R DA LADEIRA",
      "house": "",
      "postcode": "6440-221",
      "city": "PENHA DE ÁGUIA",
      "lon": "-7.054375274827182",
      "lat": "40.87020378851408"
    },
    {
      "id": "pt.ine.add.PTCONT.1938910",
      "street": "R DO CASTELO",
      "house": "76",
      "postcode": "6440-221",
      "city": "PENHA DE ÁGUIA",
      "lon": "-7.054415823989493",
      "lat": "40.86989801113566"
    },
    {
      "id": "pt.ine.add.PTCONT.1938915",
      "street": "R DO CASTELO",
      "house": "84",
      "postcode": "6440-221",
      "city": "PENHA DE ÁGUIA",
      "lon": "-7.055089082676944",
      "lat": "40.870075393510746"
    },
    {
      "id": "pt.ine.add.PTCONT.1958802",
      "street": "R DO CASTELO",
      "house": "92",
      "postcode": "6440-221",
      "city": "PENHA DE ÁGUIA",
      "lon": "-7.054753343218249",
      "lat": "40.8702973700691"
    },
    {
      "id": "pt.ine.add.PTCONT.1968186",
      "street": "R DO CASTELO",
      "house": "90",
      "postcode": "6440-221",
      "city": "PENHA DE ÁGUIA",
      "lon": "-7.055253958310892",
      "lat": "40.870148971324745"
    },
    {
      "id": "pt.ine.add.PTCONT.1970977",
      "street": "R DO CASTELO",
      "house": "91",
      "postcode": "6440-221",
      "city": "PENHA DE ÁGUIA",
      "lon": "-7.054728600012477",
      "lat": "40.87036017096764"
    },
    {
      "id": "pt.ine.add.PTCONT.1976977",
      "street": "R DO CASTELO",
      "house": "36",
      "postcode": "6440-221",
      "city": "PENHA DE ÁGUIA",
      "lon": "-7.05454424103281",
      "lat": "40.870025276611464"
    },
    {
      "id": "pt.ine.add.PTCONT.1978842",
      "street": "R DO CASTELO",
      "house": "89",
      "postcode": "6440-221",
      "city": "PENHA DE ÁGUIA",
      "lon": "-7.054934168937377",
      "lat": "40.870118968479"
    },
    {
      "id": "pt.ine.add.PTCONT.1852976",
      "street": "R DO CASTELO",
      "house": "",
      "postcode": "6440-221",
      "city": "PENHA DE ÁGUIA",
      "lon": "-7.054697840007062",
      "lat": "40.87006273133586"
    },
    {
      "id": "pt.ine.add.PTCONT.1890089",
      "street": "R DA COSTA",
      "house": "80",
      "postcode": "6440-221",
      "city": "PENHA DE ÁGUIA",
      "lon": "-7.05494103351227",
      "lat": "40.86969581610987"
    },
    {
      "id": "pt.ine.add.PTCONT.1895831",
      "street": "TV DA COSTA",
      "house": "61",
      "postcode": "6440-221",
      "city": "PENHA DE ÁGUIA",
      "lon": "-7.054376151620852",
      "lat": "40.87014976907524"
    }
  ]
}