{
  "data": {
    "distrito": "Castelo Branco",
    "concelho": "Covilhã",
    "freguesia": "União das freguesias de Teixoso e Sarzedo",
    "OBJECTID": 806,
    "BGRI2021": "05033700212",
    "DT21": "05",
    "DTMN21": "0503",
    "DTMNFR21": "050337",
    "DTMNFRSEC21": "050337002",
    "SECNUM21": "002",
    "SSNUM21": "12",
    "SECSSNUM21": "00212",
    "OBJECTID_1": 42292,
    "DT": "05",
    "CC": "03",
    "fr": "37",
    "SEC": "002",
    "SS": "12"
  },
  "addresses": [
    {
      "id": "pt.ine.add.PTCONT.963477",
      "street": "QTA LAMEIRA",
      "house": "CX 3755",
      "postcode": "6200-707",
      "city": "TEIXOSO",
      "lon": "-7.458058557154052",
      "lat": "40.322759978000974"
    },
    {
      "id": "pt.ine.add.PTCONT.965385",
      "street": "SIT BARROCA DA DONZELA",
      "house": "",
      "postcode": "6200-664",
      "city": "TEIXOSO",
      "lon": "-7.458099518625739",
      "lat": "40.323372597284774"
    },
    {
      "id": "pt.ine.add.PTCONT.966578",
      "street": "R PASSAL",
      "house": "2",
      "postcode": "6200-690",
      "city": "TEIXOSO",
      "lon": "-7.458215271883772",
      "lat": "40.316474985482195"
    },
    {
      "id": "pt.ine.add.PTCONT.966579",
      "street": "R PASSAL",
      "house": "2",
      "postcode": "6200-690",
      "city": "TEIXOSO",
      "lon": "-7.458215271883772",
      "lat": "40.316474985482195"
    },
    {
      "id": "pt.ine.add.PTCONT.969734",
      "street": "R CAPELA",
      "house": "",
      "postcode": "6200-667",
      "city": "TEIXOSO",
      "lon": "-7.4550532040587525",
      "lat": "40.32326472513629"
    },
    {
      "id": "pt.ine.add.PTCONT.972255",
      "street": "R RIBEIRO",
      "house": "1",
      "postcode": "6200-670",
      "city": "TEIXOSO",
      "lon": "-7.456929561131907",
      "lat": "40.319169157335445"
    },
    {
      "id": "pt.ine.add.PTCONT.972256",
      "street": "R RIBEIRO",
      "house": "1",
      "postcode": "6200-670",
      "city": "TEIXOSO",
      "lon": "-7.456929561131907",
      "lat": "40.319169157335445"
    },
    {
      "id": "pt.ine.add.PTCONT.996677",
      "street": "R BARREIROS DE GIBALTAR",
      "house": "7",
      "postcode": "6200-664",
      "city": "TEIXOSO",
      "lon": "-7.455230584205263",
      "lat": "40.32317570882704"
    },
    {
      "id": "pt.ine.add.PTCONT.996729",
      "street": "R BARREIROS DE GIBALTAR",
      "house": "7",
      "postcode": "6200-664",
      "city": "TEIXOSO",
      "lon": "-7.455230584205263",
      "lat": "40.32317570882704"
    },
    {
      "id": "pt.ine.add.PTCONT.1002794",
      "street": "R BARREIROS DE GIBALTAR",
      "house": "12",
      "postcode": "6200-664",
      "city": "TEIXOSO",
      "lon": "-7.455300095024445",
      "lat": "40.32328418323615"
    },
    {
      "id": "pt.ine.add.PTCONT.1006140",
      "street": "AV 25 DE ABRIL",
      "house": "2",
      "postcode": "6200-652",
      "city": "TEIXOSO",
      "lon": "-7.455103418561041",
      "lat": "40.322949823778465"
    },
    {
      "id": "pt.ine.add.PTCONT.1008509",
      "street": "SIT BARROCA DA DONZELA",
      "house": "",
      "postcode": "6200-664",
      "city": "TEIXOSO",
      "lon": "-7.456643316437027",
      "lat": "40.32309392301842"
    },
    {
      "id": "pt.ine.add.PTCONT.1013045",
      "street": "QTA LAMEIRA",
      "house": "",
      "postcode": "6200-707",
      "city": "TEIXOSO",
      "lon": "-7.457856563668203",
      "lat": "40.32177718941384"
    },
    {
      "id": "pt.ine.add.PTCONT.1015342",
      "street": "R BARREIROS DE GIBALTAR",
      "house": "6",
      "postcode": "6200-664",
      "city": "TEIXOSO",
      "lon": "-7.455194837962887",
      "lat": "40.32322052729996"
    },
    {
      "id": "pt.ine.add.PTCONT.1016406",
      "street": "R BARREIROS DE GIBALTAR",
      "house": "9",
      "postcode": "6200-664",
      "city": "TEIXOSO",
      "lon": "-7.455300815580517",
      "lat": "40.32321214273139"
    },
    {
      "id": "pt.ine.add.PTCONT.1031064",
      "street": "R BARREIROS DE GIBALTAR",
      "house": "10",
      "postcode": "6200-664",
      "city": "TEIXOSO",
      "lon": "-7.455124426451462",
      "lat": "40.3232021034574"
    },
    {
      "id": "pt.ine.add.PTCONT.1034456",
      "street": "R BARREIROS DE GIBALTAR",
      "house": "2",
      "postcode": "6200-664",
      "city": "TEIXOSO",
      "lon": "-7.4550188993637745",
      "lat": "40.323165462550996"
    },
    {
      "id": "pt.ine.add.PTCONT.1043626",
      "street": "QTA BRASILEIRO",
      "house": "",
      "postcode": "6200-664",
      "city": "TEIXOSO",
      "lon": "-7.4564483422435135",
      "lat": "40.32258846952772"
    },
    {
      "id": "pt.ine.add.PTCONT.1050013",
      "street": "R RIBEIRO",
      "house": "12",
      "postcode": "6200-670",
      "city": "TEIXOSO",
      "lon": "-7.456088749642853",
      "lat": "40.32207304674476"
    },
    {
      "id": "pt.ine.add.PTCONT.1059544",
      "street": "AV 25 DE ABRIL",
      "house": "8",
      "postcode": "6200-652",
      "city": "TEIXOSO",
      "lon": "-7.45611603862597",
      "lat": "40.32287470416829"
    },
    {
      "id": "pt.ine.add.PTCONT.1067994",
      "street": "R RIBEIRO",
      "house": "",
      "postcode": "6200-670",
      "city": "TEIXOSO",
      "lon": "-7.456190227968065",
      "lat": "40.32251491465262"
    },
    {
      "id": "pt.ine.add.PTCONT.1074222",
      "street": "R PASSAL",
      "house": "",
      "postcode": "6200-690",
      "city": "TEIXOSO",
      "lon": "-7.45769670764162",
      "lat": "40.322469686855456"
    }
  ]
}