{
  "data": {
    "distrito": "Aveiro",
    "concelho": "Vagos",
    "freguesia": "Sosa",
    "OBJECTID": 356,
    "BGRI2021": "01180700103",
    "DT21": "01",
    "DTMN21": "0118",
    "DTMNFR21": "011807",
    "DTMNFRSEC21": "011807001",
    "SECNUM21": "001",
    "SSNUM21": "03",
    "SECSSNUM21": "00103",
    "OBJECTID_1": 11612,
    "DT": "01",
    "CC": "18",
    "fr": "07",
    "SEC": "001",
    "SS": "03"
  },
  "addresses": [
    {
      "id": "pt.ine.add.PTCONT.294219",
      "street": "R PRINCIPAL",
      "house": "96",
      "postcode": "3840-341",
      "city": "SOZA",
      "lon": "-8.652433217869259",
      "lat": "40.53227471394138"
    },
    {
      "id": "pt.ine.add.PTCONT.297009",
      "street": "R PRINCIPAL",
      "house": "124",
      "postcode": "3840-341",
      "city": "SOZA",
      "lon": "-8.650299975541941",
      "lat": "40.53113160231918"
    },
    {
      "id": "pt.ine.add.PTCONT.304855",
      "street": "R PRINCIPAL",
      "house": "90",
      "postcode": "3840-341",
      "city": "SOZA",
      "lon": "-8.652764581282266",
      "lat": "40.53239029317241"
    },
    {
      "id": "pt.ine.add.PTCONT.329650",
      "street": "R PRINCIPAL",
      "house": "100",
      "postcode": "3840-341",
      "city": "SOZA",
      "lon": "-8.652267084843135",
      "lat": "40.532158391481076"
    },
    {
      "id": "pt.ine.add.PTCONT.335617",
      "street": "R PRINCIPAL",
      "house": "80",
      "postcode": "3840-341",
      "city": "SOZA",
      "lon": "-8.653285198021262",
      "lat": "40.53255905145994"
    },
    {
      "id": "pt.ine.add.PTCONT.350880",
      "street": "R PRINCIPAL",
      "house": "",
      "postcode": "3840-341",
      "city": "SOZA",
      "lon": "-8.654371406233961",
      "lat": "40.53413008519959"
    },
    {
      "id": "pt.ine.add.PTCONT.2199",
      "street": "R PRINCIPAL",
      "house": "120",
      "postcode": "3840-341",
      "city": "SOZA",
      "lon": "-8.650893536797332",
      "lat": "40.53157920957566"
    },
    {
      "id": "pt.ine.add.PTCONT.4744",
      "street": "R PRINCIPAL",
      "house": "20",
      "postcode": "3840-341",
      "city": "SOZA",
      "lon": "-8.656805370691483",
      "lat": "40.53446128074199"
    },
    {
      "id": "pt.ine.add.PTCONT.10076",
      "street": "R PRINCIPAL",
      "house": "12",
      "postcode": "3840-341",
      "city": "SOZA",
      "lon": "-8.657465888600411",
      "lat": "40.53440425328283"
    },
    {
      "id": "pt.ine.add.PTCONT.15276",
      "street": "R AZENHAS",
      "house": "",
      "postcode": "3840-341",
      "city": "SOZA",
      "lon": "-8.661373487598542",
      "lat": "40.53300864227339"
    },
    {
      "id": "pt.ine.add.PTCONT.17942",
      "street": "R AZENHAS",
      "house": "",
      "postcode": "3840-341",
      "city": "SOZA",
      "lon": "-8.660077359444223",
      "lat": "40.53328471999074"
    },
    {
      "id": "pt.ine.add.PTCONT.21498",
      "street": "R PRINCIPAL",
      "house": "26",
      "postcode": "3840-341",
      "city": "SOZA",
      "lon": "-8.656286481575801",
      "lat": "40.53451766322897"
    },
    {
      "id": "pt.ine.add.PTCONT.26005",
      "street": "R FONTE",
      "house": "",
      "postcode": "3840-341",
      "city": "SOZA",
      "lon": "-8.65385518720444",
      "lat": "40.53300674945394"
    },
    {
      "id": "pt.ine.add.PTCONT.26009",
      "street": "R FONTE",
      "house": "22",
      "postcode": "3840-341",
      "city": "SOZA",
      "lon": "-8.6544174373693",
      "lat": "40.53245489028684"
    },
    {
      "id": "pt.ine.add.PTCONT.42274",
      "street": "R PRINCIPAL",
      "house": "4",
      "postcode": "3840-341",
      "city": "SOZA",
      "lon": "-8.657868296760748",
      "lat": "40.534546511284674"
    },
    {
      "id": "pt.ine.add.PTCONT.45058",
      "street": "R FONTE",
      "house": "1",
      "postcode": "3840-341",
      "city": "SOZA",
      "lon": "-8.65359595609229",
      "lat": "40.533061949326985"
    },
    {
      "id": "pt.ine.add.PTCONT.45059",
      "street": "R FONTE",
      "house": "",
      "postcode": "3840-341",
      "city": "SOZA",
      "lon": "-8.6541587668785",
      "lat": "40.53258213136594"
    },
    {
      "id": "pt.ine.add.PTCONT.58325",
      "street": "R PRINCIPAL",
      "house": "62",
      "postcode": "3840-341",
      "city": "SOZA",
      "lon": "-8.653979833991475",
      "lat": "40.53386169184803"
    },
    {
      "id": "pt.ine.add.PTCONT.58326",
      "street": "R FONTE",
      "house": "2",
      "postcode": "3840-341",
      "city": "SOZA",
      "lon": "-8.653715442144527",
      "lat": "40.5332505224988"
    },
    {
      "id": "pt.ine.add.PTCONT.74567",
      "street": "R PRINCIPAL",
      "house": "113",
      "postcode": "3840-341",
      "city": "SOZA",
      "lon": "-8.651023428021482",
      "lat": "40.531587632748504"
    },
    {
      "id": "pt.ine.add.PTCONT.77265",
      "street": "R PRINCIPAL",
      "house": "94",
      "postcode": "3840-341",
      "city": "SOZA",
      "lon": "-8.65257505180356",
      "lat": "40.53230109230834"
    },
    {
      "id": "pt.ine.add.PTCONT.83581",
      "street": "LG CAPELA",
      "house": "14",
      "postcode": "3840-341",
      "city": "SOZA",
      "lon": "-8.6582447814959",
      "lat": "40.5343917106369"
    },
    {
      "id": "pt.ine.add.PTCONT.83582",
      "street": "R PRINCIPAL",
      "house": "6",
      "postcode": "3840-341",
      "city": "SOZA",
      "lon": "-8.657691329518483",
      "lat": "40.534556320171106"
    },
    {
      "id": "pt.ine.add.PTCONT.83583",
      "street": "R PRINCIPAL",
      "house": "84",
      "postcode": "3840-341",
      "city": "SOZA",
      "lon": "-8.65421755603278",
      "lat": "40.53407674732817"
    },
    {
      "id": "pt.ine.add.PTCONT.83584",
      "street": "R PRINCIPAL",
      "house": "116",
      "postcode": "3840-341",
      "city": "SOZA",
      "lon": "-8.651141447936828",
      "lat": "40.531587103687606"
    },
    {
      "id": "pt.ine.add.PTCONT.86889",
      "street": "R PRINCIPAL",
      "house": "88",
      "postcode": "3840-341",
      "city": "SOZA",
      "lon": "-8.652847613649753",
      "lat": "40.532443951570514"
    },
    {
      "id": "pt.ine.add.PTCONT.97697",
      "street": "R PRINCIPAL",
      "house": "112",
      "postcode": "3840-341",
      "city": "SOZA",
      "lon": "-8.651436497711494",
      "lat": "40.53158578050807"
    },
    {
      "id": "pt.ine.add.PTCONT.104264",
      "street": "R PRINCIPAL",
      "house": "9",
      "postcode": "3840-341",
      "city": "SOZA",
      "lon": "-8.653753706715532",
      "lat": "40.533619567700946"
    },
    {
      "id": "pt.ine.add.PTCONT.110421",
      "street": "R PRINCIPAL",
      "house": "60",
      "postcode": "3840-341",
      "city": "SOZA",
      "lon": "-8.654087310900529",
      "lat": "40.53402330282103"
    },
    {
      "id": "pt.ine.add.PTCONT.125527",
      "street": "R PRINCIPAL",
      "house": "",
      "postcode": "3840-341",
      "city": "SOZA",
      "lon": "-8.649990842472922",
      "lat": "40.53083581028697"
    },
    {
      "id": "pt.ine.add.PTCONT.125528",
      "street": "R FONTE",
      "house": "10",
      "postcode": "3840-341",
      "city": "SOZA",
      "lon": "-8.653960988955161",
      "lat": "40.53295224072362"
    },
    {
      "id": "pt.ine.add.PTCONT.126820",
      "street": "R FONTE",
      "house": "3",
      "postcode": "3840-341",
      "city": "SOZA",
      "lon": "-8.65386461914188",
      "lat": "40.53270052645443"
    },
    {
      "id": "pt.ine.add.PTCONT.128893",
      "street": "R FONTE",
      "house": "7",
      "postcode": "3840-341",
      "city": "SOZA",
      "lon": "-8.654028594434585",
      "lat": "40.53253769175518"
    },
    {
      "id": "pt.ine.add.PTCONT.139436",
      "street": "R PRINCIPAL",
      "house": "128",
      "postcode": "3840-341",
      "city": "SOZA",
      "lon": "-8.649965232315589",
      "lat": "40.53057477077715"
    },
    {
      "id": "pt.ine.add.PTCONT.151320",
      "street": "R PRINCIPAL",
      "house": "3",
      "postcode": "3840-341",
      "city": "SOZA",
      "lon": "-8.655719052168145",
      "lat": "40.5344031621386"
    },
    {
      "id": "pt.ine.add.PTCONT.151321",
      "street": "R PRINCIPAL",
      "house": "3",
      "postcode": "3840-341",
      "city": "SOZA",
      "lon": "-8.655719052168145",
      "lat": "40.5344031621386"
    },
    {
      "id": "pt.ine.add.PTCONT.154131",
      "street": "R PRINCIPAL",
      "house": "44",
      "postcode": "3840-341",
      "city": "SOZA",
      "lon": "-8.655210217564969",
      "lat": "40.53423436166778"
    },
    {
      "id": "pt.ine.add.PTCONT.157258",
      "street": "R DIREITA",
      "house": "28",
      "postcode": "3840-341",
      "city": "SOZA",
      "lon": "-8.656191361307478",
      "lat": "40.534428040831834"
    },
    {
      "id": "pt.ine.add.PTCONT.157840",
      "street": "R DIREITA",
      "house": "32",
      "postcode": "3840-341",
      "city": "SOZA",
      "lon": "-8.655920044238027",
      "lat": "40.53444727940321"
    },
    {
      "id": "pt.ine.add.PTCONT.162141",
      "street": "R PRINCIPAL",
      "house": "24",
      "postcode": "3840-341",
      "city": "SOZA",
      "lon": "-8.656416238968639",
      "lat": "40.53450807031929"
    },
    {
      "id": "pt.ine.add.PTCONT.162142",
      "street": "R PRINCIPAL",
      "house": "52",
      "postcode": "3840-341",
      "city": "SOZA",
      "lon": "-8.654726736161498",
      "lat": "40.534290577152504"
    },
    {
      "id": "pt.ine.add.PTCONT.165106",
      "street": "LG CAPELA",
      "house": "16",
      "postcode": "3840-341",
      "city": "SOZA",
      "lon": "-8.65816293743597",
      "lat": "40.53449114093477"
    },
    {
      "id": "pt.ine.add.PTCONT.166534",
      "street": "R AZENHAS",
      "house": "",
      "postcode": "3840-341",
      "city": "SOZA",
      "lon": "-8.659139445132947",
      "lat": "40.534090465972234"
    },
    {
      "id": "pt.ine.add.PTCONT.166535",
      "street": "R PRINCIPAL",
      "house": "72",
      "postcode": "3840-341",
      "city": "SOZA",
      "lon": "-8.653692395127322",
      "lat": "40.53332266880143"
    },
    {
      "id": "pt.ine.add.PTCONT.166536",
      "street": "R PRINCIPAL",
      "house": "82",
      "postcode": "3840-341",
      "city": "SOZA",
      "lon": "-8.653178630489471",
      "lat": "40.53251450462099"
    },
    {
      "id": "pt.ine.add.PTCONT.178367",
      "street": "R PRINCIPAL",
      "house": "8",
      "postcode": "3840-341",
      "city": "SOZA",
      "lon": "-8.657537897015377",
      "lat": "40.534557016665445"
    },
    {
      "id": "pt.ine.add.PTCONT.178374",
      "street": "BC MARQUES",
      "house": "",
      "postcode": "3840-341",
      "city": "SOZA",
      "lon": "-8.653800079595788",
      "lat": "40.5335112950468"
    },
    {
      "id": "pt.ine.add.PTCONT.178375",
      "street": "R FONTE",
      "house": "6",
      "postcode": "3840-341",
      "city": "SOZA",
      "lon": "-8.653903302507283",
      "lat": "40.53312360160267"
    },
    {
      "id": "pt.ine.add.PTCONT.188916",
      "street": "LG CAPELA",
      "house": "12",
      "postcode": "3840-341",
      "city": "SOZA",
      "lon": "-8.658398143279367",
      "lat": "40.5343820082208"
    },
    {
      "id": "pt.ine.add.PTCONT.191485",
      "street": "R PRINCIPAL",
      "house": "92",
      "postcode": "3840-341",
      "city": "SOZA",
      "lon": "-8.652669816480335",
      "lat": "40.5323456927798"
    },
    {
      "id": "pt.ine.add.PTCONT.192525",
      "street": "R PRINCIPAL",
      "house": "36",
      "postcode": "3840-341",
      "city": "SOZA",
      "lon": "-8.655529653004782",
      "lat": "40.53433197619073"
    },
    {
      "id": "pt.ine.add.PTCONT.207651",
      "street": "R PRINCIPAL",
      "house": "50",
      "postcode": "3840-341",
      "city": "SOZA",
      "lon": "-8.654584827393666",
      "lat": "40.53425519647597"
    },
    {
      "id": "pt.ine.add.PTCONT.207652",
      "street": "R PRINCIPAL",
      "house": "134",
      "postcode": "3840-341",
      "city": "SOZA",
      "lon": "-8.649734428041182",
      "lat": "40.529720298161735"
    },
    {
      "id": "pt.ine.add.PTCONT.210479",
      "street": "R PRINCIPAL",
      "house": "42",
      "postcode": "3840-341",
      "city": "SOZA",
      "lon": "-8.655363439633614",
      "lat": "40.53420665329861"
    },
    {
      "id": "pt.ine.add.PTCONT.224152",
      "street": "R AZENHAS",
      "house": "",
      "postcode": "3840-341",
      "city": "SOZA",
      "lon": "-8.658527829741622",
      "lat": "40.53436340795767"
    },
    {
      "id": "pt.ine.add.PTCONT.237222",
      "street": "R FONTE",
      "house": "12",
      "postcode": "3840-341",
      "city": "SOZA",
      "lon": "-8.654031035201964",
      "lat": "40.53285286655807"
    },
    {
      "id": "pt.ine.add.PTCONT.245928",
      "street": "R FONTE",
      "house": "20",
      "postcode": "3840-341",
      "city": "SOZA",
      "lon": "-8.654240823886823",
      "lat": "40.53250971883243"
    },
    {
      "id": "pt.ine.add.PTCONT.247563",
      "street": "R PRINCIPAL",
      "house": "16",
      "postcode": "3840-341",
      "city": "SOZA",
      "lon": "-8.657124879635543",
      "lat": "40.53456789581694"
    },
    {
      "id": "pt.ine.add.PTCONT.251172",
      "street": "R PRINCIPAL",
      "house": "132",
      "postcode": "3840-341",
      "city": "SOZA",
      "lon": "-8.649915465390565",
      "lat": "40.530241796790065"
    },
    {
      "id": "pt.ine.add.PTCONT.256659",
      "street": "R PRINCIPAL",
      "house": "18",
      "postcode": "3840-341",
      "city": "SOZA",
      "lon": "-8.657349267559821",
      "lat": "40.53458488856961"
    },
    {
      "id": "pt.ine.add.PTCONT.256661",
      "street": "R PRINCIPAL",
      "house": "18",
      "postcode": "3840-341",
      "city": "SOZA",
      "lon": "-8.657349267559821",
      "lat": "40.53458488856961"
    },
    {
      "id": "pt.ine.add.PTCONT.262107",
      "street": "R FONTE",
      "house": "14",
      "postcode": "3840-341",
      "city": "SOZA",
      "lon": "-8.65403033783592",
      "lat": "40.53276281661615"
    },
    {
      "id": "pt.ine.add.PTCONT.270164",
      "street": "R PRINCIPAL",
      "house": "86",
      "postcode": "3840-341",
      "city": "SOZA",
      "lon": "-8.653059843320792",
      "lat": "40.53241598081534"
    },
    {
      "id": "pt.ine.add.PTCONT.283409",
      "street": "R PRINCIPAL",
      "house": "",
      "postcode": "3840-341",
      "city": "SOZA",
      "lon": "-8.654466593466065",
      "lat": "40.534228714108636"
    }
  ]
}