{
  "data": {
    "distrito": "Aveiro",
    "concelho": "Vagos",
    "freguesia": "Sosa",
    "OBJECTID": 226,
    "BGRI2021": "01180700111",
    "DT21": "01",
    "DTMN21": "0118",
    "DTMNFR21": "011807",
    "DTMNFRSEC21": "011807001",
    "SECNUM21": "001",
    "SSNUM21": "11",
    "SECSSNUM21": "00111",
    "OBJECTID_1": 11676,
    "DT": "01",
    "CC": "18",
    "fr": "07",
    "SEC": "001",
    "SS": "11"
  },
  "addresses": [
    {
      "id": "pt.ine.add.PTCONT.294215",
      "street": "R DIREITA",
      "house": "132 B",
      "postcode": "3840-347",
      "city": "SOZA",
      "lon": "-8.650608944051985",
      "lat": "40.542143705034846"
    },
    {
      "id": "pt.ine.add.PTCONT.294216",
      "street": "R MANCA",
      "house": "9",
      "postcode": "3840-376",
      "city": "SOZA",
      "lon": "-8.649905319673014",
      "lat": "40.54121030364323"
    },
    {
      "id": "pt.ine.add.PTCONT.328860",
      "street": "R MANCA",
      "house": "51",
      "postcode": "3840-376",
      "city": "SOZA",
      "lon": "-8.6504364853488",
      "lat": "40.54120792659607"
    },
    {
      "id": "pt.ine.add.PTCONT.339421",
      "street": "ROT ALF",
      "house": "29",
      "postcode": "3840-341",
      "city": "SOZA",
      "lon": "-8.65219116435003",
      "lat": "40.53608504640916"
    },
    {
      "id": "pt.ine.add.PTCONT.339462",
      "street": "R MANCA",
      "house": "2",
      "postcode": "3840-376",
      "city": "SOZA",
      "lon": "-8.649910025675796",
      "lat": "40.54182264272231"
    },
    {
      "id": "pt.ine.add.PTCONT.342245",
      "street": "R MANCA",
      "house": "10",
      "postcode": "3840-376",
      "city": "SOZA",
      "lon": "-8.650248318957617",
      "lat": "40.54129882191199"
    },
    {
      "id": "pt.ine.add.PTCONT.342981",
      "street": "R DIREITA",
      "house": "114",
      "postcode": "3840-347",
      "city": "SOZA",
      "lon": "-8.651804952631041",
      "lat": "40.54263363314564"
    },
    {
      "id": "pt.ine.add.PTCONT.344568",
      "street": "R DIREITA",
      "house": "102",
      "postcode": "3840-347",
      "city": "SOZA",
      "lon": "-8.653185385244367",
      "lat": "40.542546380039155"
    },
    {
      "id": "pt.ine.add.PTCONT.7446",
      "street": "R DIREITA",
      "house": "120",
      "postcode": "3840-347",
      "city": "SOZA",
      "lon": "-8.651473540178227",
      "lat": "40.542518051667905"
    },
    {
      "id": "pt.ine.add.PTCONT.32778",
      "street": "R DIREITA",
      "house": "108A",
      "postcode": "3840-347",
      "city": "SOZA",
      "lon": "-8.652264958204341",
      "lat": "40.54258654064427"
    },
    {
      "id": "pt.ine.add.PTCONT.36814",
      "street": "R DIREITA",
      "house": "116",
      "postcode": "3840-347",
      "city": "SOZA",
      "lon": "-8.651710243400519",
      "lat": "40.5425980371122"
    },
    {
      "id": "pt.ine.add.PTCONT.45089",
      "street": "R DIREITA",
      "house": "132 C",
      "postcode": "3840-347",
      "city": "SOZA",
      "lon": "-8.650478824620365",
      "lat": "40.54210826658233"
    },
    {
      "id": "pt.ine.add.PTCONT.47757",
      "street": "R DELMINO SANTOS MARTO",
      "house": "15",
      "postcode": "3840-350",
      "city": "SOZA",
      "lon": "-8.653396839434668",
      "lat": "40.540888453767494"
    },
    {
      "id": "pt.ine.add.PTCONT.47758",
      "street": "R MANCA",
      "house": "138",
      "postcode": "3840-376",
      "city": "SOZA",
      "lon": "-8.649555082053302",
      "lat": "40.54171616625922"
    },
    {
      "id": "pt.ine.add.PTCONT.55595",
      "street": "R DIREITA",
      "house": "140",
      "postcode": "3840-347",
      "city": "SOZA",
      "lon": "-8.64922388528191",
      "lat": "40.54162759321991"
    },
    {
      "id": "pt.ine.add.PTCONT.59595",
      "street": "R DIREITA",
      "house": "122",
      "postcode": "3840-347",
      "city": "SOZA",
      "lon": "-8.651378831283717",
      "lat": "40.542482455359995"
    },
    {
      "id": "pt.ine.add.PTCONT.66569",
      "street": "R DELMINO SANTOS MARTO",
      "house": "35",
      "postcode": "3840-350",
      "city": "SOZA",
      "lon": "-8.655037332549194",
      "lat": "40.54085403898422"
    },
    {
      "id": "pt.ine.add.PTCONT.68631",
      "street": "R LEVOGADA",
      "house": "23",
      "postcode": "3840-357",
      "city": "SOZA",
      "lon": "-8.649504506030965",
      "lat": "40.538204325895585"
    },
    {
      "id": "pt.ine.add.PTCONT.77295",
      "street": "R DIREITA",
      "house": "124",
      "postcode": "3840-347",
      "city": "SOZA",
      "lon": "-8.651307452700062",
      "lat": "40.5424107331624"
    },
    {
      "id": "pt.ine.add.PTCONT.82730",
      "street": "R MANCA",
      "house": "7",
      "postcode": "3840-376",
      "city": "SOZA",
      "lon": "-8.64978880501437",
      "lat": "40.541408941257245"
    },
    {
      "id": "pt.ine.add.PTCONT.86742",
      "street": "R MANCA",
      "house": "6",
      "postcode": "3840-376",
      "city": "SOZA",
      "lon": "-8.649978771934398",
      "lat": "40.54155217633433"
    },
    {
      "id": "pt.ine.add.PTCONT.112130",
      "street": "R DIREITA",
      "house": "126",
      "postcode": "3840-347",
      "city": "SOZA",
      "lon": "-8.651201356447155",
      "lat": "40.54242921954596"
    },
    {
      "id": "pt.ine.add.PTCONT.117318",
      "street": "R LEVOGADA",
      "house": "8",
      "postcode": "3840-357",
      "city": "SOZA",
      "lon": "-8.648495574091125",
      "lat": "40.54055020862729"
    },
    {
      "id": "pt.ine.add.PTCONT.122644",
      "street": "R LEVOGADA",
      "house": "9",
      "postcode": "3840-357",
      "city": "SOZA",
      "lon": "-8.651437451997062",
      "lat": "40.53630455730861"
    },
    {
      "id": "pt.ine.add.PTCONT.144001",
      "street": "R DIREITA",
      "house": "130",
      "postcode": "3840-347",
      "city": "SOZA",
      "lon": "-8.650892652357282",
      "lat": "40.542196465735316"
    },
    {
      "id": "pt.ine.add.PTCONT.156838",
      "street": "R LEVOGADA",
      "house": "6",
      "postcode": "3840-357",
      "city": "SOZA",
      "lon": "-8.648283661730657",
      "lat": "40.54062319607924"
    },
    {
      "id": "pt.ine.add.PTCONT.156839",
      "street": "R MORENA",
      "house": "19",
      "postcode": "3840-358",
      "city": "SOZA",
      "lon": "-8.655445073100754",
      "lat": "40.54015878857513"
    },
    {
      "id": "pt.ine.add.PTCONT.171366",
      "street": "R JOAO FREIRE SINEIRO",
      "house": "",
      "postcode": "3840-357",
      "city": "SOZA",
      "lon": "-8.650432037223334",
      "lat": "40.53756080033761"
    },
    {
      "id": "pt.ine.add.PTCONT.186186",
      "street": "R MANCA",
      "house": "5",
      "postcode": "3840-376",
      "city": "SOZA",
      "lon": "-8.649754915939418",
      "lat": "40.541607209312296"
    },
    {
      "id": "pt.ine.add.PTCONT.197227",
      "street": "R DIREITA",
      "house": "112",
      "postcode": "3840-347",
      "city": "SOZA",
      "lon": "-8.651899731436727",
      "lat": "40.54267823408243"
    },
    {
      "id": "pt.ine.add.PTCONT.204884",
      "street": "R DIREITA",
      "house": "132 D",
      "postcode": "3840-347",
      "city": "SOZA",
      "lon": "-8.650419528321736",
      "lat": "40.542072510906365"
    },
    {
      "id": "pt.ine.add.PTCONT.213132",
      "street": "R DIREITA",
      "house": "108",
      "postcode": "3840-347",
      "city": "SOZA",
      "lon": "-8.652207328938573",
      "lat": "40.54276690544992"
    },
    {
      "id": "pt.ine.add.PTCONT.213577",
      "street": "R DIREITA",
      "house": "110",
      "postcode": "3840-347",
      "city": "SOZA",
      "lon": "-8.652018048764072",
      "lat": "40.542713723934"
    },
    {
      "id": "pt.ine.add.PTCONT.237518",
      "street": "R MANCA",
      "house": "8",
      "postcode": "3840-376",
      "city": "SOZA",
      "lon": "-8.650143262710602",
      "lat": "40.54145238211245"
    },
    {
      "id": "pt.ine.add.PTCONT.259454",
      "street": "R DIREITA",
      "house": "132A",
      "postcode": "3840-347",
      "city": "SOZA",
      "lon": "-8.650679975053595",
      "lat": "40.5421704027521"
    },
    {
      "id": "pt.ine.add.PTCONT.264734",
      "street": "R LEVOGADA",
      "house": "4",
      "postcode": "3840-357",
      "city": "SOZA",
      "lon": "-8.64819109537037",
      "lat": "40.54086675181213"
    },
    {
      "id": "pt.ine.add.PTCONT.276999",
      "street": "R DIREITA",
      "house": "134",
      "postcode": "3840-347",
      "city": "SOZA",
      "lon": "-8.650266217003681",
      "lat": "40.54209120781931"
    }
  ]
}