{
  "data": {
    "distrito": "Aveiro",
    "concelho": "Vagos",
    "freguesia": "Sosa",
    "OBJECTID": 247,
    "BGRI2021": "01180700118",
    "DT21": "01",
    "DTMN21": "0118",
    "DTMNFR21": "011807",
    "DTMNFRSEC21": "011807001",
    "SECNUM21": "001",
    "SSNUM21": "18",
    "SECSSNUM21": "00118",
    "OBJECTID_1": 11412,
    "DT": "01",
    "CC": "18",
    "fr": "07",
    "SEC": "001",
    "SS": "18"
  },
  "addresses": [
    {
      "id": "pt.ine.add.PTCONT.297003",
      "street": "R FRANCISCO ALMEIDA BRITO",
      "house": "3",
      "postcode": "3840-367",
      "city": "SOZA",
      "lon": "-8.661371440963938",
      "lat": "40.54476957016131"
    },
    {
      "id": "pt.ine.add.PTCONT.307523",
      "street": "R FRANCISCO ALMEIDA BRITO",
      "house": "19",
      "postcode": "3840-367",
      "city": "SOZA",
      "lon": "-8.660048866773582",
      "lat": "40.54471257262383"
    },
    {
      "id": "pt.ine.add.PTCONT.326073",
      "street": "R FRANCISCO ALMEIDA BRITO",
      "house": "11",
      "postcode": "3840-367",
      "city": "SOZA",
      "lon": "-8.660792465559163",
      "lat": "40.54470017358466"
    },
    {
      "id": "pt.ine.add.PTCONT.329645",
      "street": "R FRANCISCO ALMEIDA BRITO",
      "house": "21",
      "postcode": "3840-367",
      "city": "SOZA",
      "lon": "-8.659954009192962",
      "lat": "40.54465897347226"
    },
    {
      "id": "pt.ine.add.PTCONT.335508",
      "street": "R FRANCISCO ALMEIDA BRITO",
      "house": "15",
      "postcode": "3840-367",
      "city": "SOZA",
      "lon": "-8.660497570582315",
      "lat": "40.54472853591033"
    },
    {
      "id": "pt.ine.add.PTCONT.339425",
      "street": "R DR ANTÓNIO BRITO",
      "house": "16",
      "postcode": "3840-362",
      "city": "SOZA",
      "lon": "-8.661270861287713",
      "lat": "40.54549045301391"
    },
    {
      "id": "pt.ine.add.PTCONT.342211",
      "street": "R DIREITA",
      "house": "25",
      "postcode": "3840-347",
      "city": "SOZA",
      "lon": "-8.659540013720735",
      "lat": "40.54455279704545"
    },
    {
      "id": "pt.ine.add.PTCONT.4738",
      "street": "R DIREITA",
      "house": "39",
      "postcode": "3840-347",
      "city": "SOZA",
      "lon": "-8.658346377338635",
      "lat": "40.54437812368692"
    },
    {
      "id": "pt.ine.add.PTCONT.31394",
      "street": "R DR ANTÓNIO BRITO",
      "house": "24",
      "postcode": "3840-362",
      "city": "SOZA",
      "lon": "-8.660979639404756",
      "lat": "40.54598707470187"
    },
    {
      "id": "pt.ine.add.PTCONT.32645",
      "street": "R DR ANTÓNIO BRITO",
      "house": "20",
      "postcode": "3840-362",
      "city": "SOZA",
      "lon": "-8.66110687239309",
      "lat": "40.54565329771471"
    },
    {
      "id": "pt.ine.add.PTCONT.45044",
      "street": "R DIREITA",
      "house": "35",
      "postcode": "3840-347",
      "city": "SOZA",
      "lon": "-8.6585946178881",
      "lat": "40.544422021368725"
    },
    {
      "id": "pt.ine.add.PTCONT.45045",
      "street": "R DR ANTÓNIO BRITO",
      "house": "14",
      "postcode": "3840-362",
      "city": "SOZA",
      "lon": "-8.661305779329888",
      "lat": "40.545427256375376"
    },
    {
      "id": "pt.ine.add.PTCONT.47726",
      "street": "R DR ANTÓNIO BRITO",
      "house": "",
      "postcode": "3840-362",
      "city": "SOZA",
      "lon": "-8.660886263712543",
      "lat": "40.54612258057863"
    },
    {
      "id": "pt.ine.add.PTCONT.48807",
      "street": "R DIREITA",
      "house": "29",
      "postcode": "3840-347",
      "city": "SOZA",
      "lon": "-8.659150332517592",
      "lat": "40.54453656132496"
    },
    {
      "id": "pt.ine.add.PTCONT.58305",
      "street": "R D ALDA SANTOS VITOR",
      "house": "9",
      "postcode": "3840-360",
      "city": "SOZA",
      "lon": "-8.6584460878844",
      "lat": "40.54505306704522"
    },
    {
      "id": "pt.ine.add.PTCONT.58306",
      "street": "R FRANCISCO ALMEIDA BRITO",
      "house": "15 A",
      "postcode": "3840-367",
      "city": "SOZA",
      "lon": "-8.660238652984964",
      "lat": "40.544828775655475"
    },
    {
      "id": "pt.ine.add.PTCONT.63787",
      "street": "R FRANCISCO ALMEIDA BRITO",
      "house": "17",
      "postcode": "3840-367",
      "city": "SOZA",
      "lon": "-8.660155458206097",
      "lat": "40.54475711288286"
    },
    {
      "id": "pt.ine.add.PTCONT.69652",
      "street": "R FRANCISCO ALMEIDA BRITO",
      "house": "1",
      "postcode": "3840-367",
      "city": "SOZA",
      "lon": "-8.659803234180506",
      "lat": "40.54500186186326"
    },
    {
      "id": "pt.ine.add.PTCONT.86739",
      "street": "R DIREITA",
      "house": "27",
      "postcode": "3840-347",
      "city": "SOZA",
      "lon": "-8.659421618771763",
      "lat": "40.54450830998497"
    },
    {
      "id": "pt.ine.add.PTCONT.96618",
      "street": "R FRANCISCO ALMEIDA BRITO",
      "house": "25A",
      "postcode": "3840-367",
      "city": "SOZA",
      "lon": "-8.659577400712141",
      "lat": "40.54480477478203"
    },
    {
      "id": "pt.ine.add.PTCONT.117274",
      "street": "R FRANCISCO ALMEIDA BRITO",
      "house": "1",
      "postcode": "3840-367",
      "city": "SOZA",
      "lon": "-8.661513870839881",
      "lat": "40.54486797702878"
    },
    {
      "id": "pt.ine.add.PTCONT.130298",
      "street": "R FRANCISCO ALMEIDA BRITO",
      "house": "7",
      "postcode": "3840-367",
      "city": "SOZA",
      "lon": "-8.661075980266459",
      "lat": "40.54472589424203"
    },
    {
      "id": "pt.ine.add.PTCONT.133355",
      "street": "R DR ANTÓNIO BRITO",
      "house": "18",
      "postcode": "3840-362",
      "city": "SOZA",
      "lon": "-8.661165116638836",
      "lat": "40.54555397337022"
    },
    {
      "id": "pt.ine.add.PTCONT.136935",
      "street": "R DR ANTÓNIO BRITO",
      "house": "24",
      "postcode": "3840-362",
      "city": "SOZA",
      "lon": "-8.660742701381915",
      "lat": "40.54588009354627"
    },
    {
      "id": "pt.ine.add.PTCONT.136936",
      "street": "R DR ANTÓNIO BRITO",
      "house": "24 B",
      "postcode": "3840-362",
      "city": "SOZA",
      "lon": "-8.66002481566052",
      "lat": "40.54616253362384"
    },
    {
      "id": "pt.ine.add.PTCONT.144834",
      "street": "LG SANTINHA",
      "house": "2",
      "postcode": "3840-374",
      "city": "SOZA",
      "lon": "-8.661822411324946",
      "lat": "40.54507368715476"
    },
    {
      "id": "pt.ine.add.PTCONT.149370",
      "street": "R FRANCISCO ALMEIDA BRITO",
      "house": "13",
      "postcode": "3840-367",
      "city": "SOZA",
      "lon": "-8.66068643905903",
      "lat": "40.544727673643116"
    },
    {
      "id": "pt.ine.add.PTCONT.165100",
      "street": "R DIREITA",
      "house": "31",
      "postcode": "3840-347",
      "city": "SOZA",
      "lon": "-8.658972987071124",
      "lat": "40.54450134747729"
    },
    {
      "id": "pt.ine.add.PTCONT.178362",
      "street": "R D ALDA SANTOS VITOR",
      "house": "19",
      "postcode": "3840-360",
      "city": "SOZA",
      "lon": "-8.658792638049526",
      "lat": "40.54559180809314"
    },
    {
      "id": "pt.ine.add.PTCONT.194878",
      "street": "R D ALDA SANTOS VITOR",
      "house": "7",
      "postcode": "3840-360",
      "city": "SOZA",
      "lon": "-8.658445102874536",
      "lat": "40.54492699748209"
    },
    {
      "id": "pt.ine.add.PTCONT.213938",
      "street": "LG SANTINHA",
      "house": "3",
      "postcode": "3840-374",
      "city": "SOZA",
      "lon": "-8.661679555817225",
      "lat": "40.54492125089167"
    },
    {
      "id": "pt.ine.add.PTCONT.243212",
      "street": "R FRANCISCO ALMEIDA BRITO",
      "house": "5",
      "postcode": "3840-367",
      "city": "SOZA",
      "lon": "-8.661170414493325",
      "lat": "40.5447254626743"
    },
    {
      "id": "pt.ine.add.PTCONT.243478",
      "street": "R FRANCISCO ALMEIDA BRITO",
      "house": "9",
      "postcode": "3840-367",
      "city": "SOZA",
      "lon": "-8.660945991817092",
      "lat": "40.54470847759044"
    },
    {
      "id": "pt.ine.add.PTCONT.283403",
      "street": "R DR ANTONIO BRITO",
      "house": "26",
      "postcode": "3840-362",
      "city": "SOZA",
      "lon": "-8.660451544556528",
      "lat": "40.546385718868194"
    },
    {
      "id": "pt.ine.add.PTCONT.283404",
      "street": "R DR ANTONIO BRITO",
      "house": "15",
      "postcode": "3840-362",
      "city": "SOZA",
      "lon": "-8.660451544556528",
      "lat": "40.546385718868194"
    }
  ]
}