{
  "data": {
    "distrito": "Aveiro",
    "concelho": "Oliveira de Azeméis",
    "freguesia": "União das freguesias de Pinheiro da Bemposta, Travanca e Palmaz",
    "OBJECTID": 490,
    "BGRI2021": "01132200319",
    "DT21": "01",
    "DTMN21": "0113",
    "DTMNFR21": "011322",
    "DTMNFRSEC21": "011322003",
    "SECNUM21": "003",
    "SSNUM21": "19",
    "SECSSNUM21": "00319",
    "OBJECTID_1": 8618,
    "DT": "01",
    "CC": "13",
    "fr": "22",
    "SEC": "003",
    "SS": "19"
  },
  "addresses": [
    {
      "id": "pt.ine.add.PTCONT.335240",
      "street": "R STO ANTONIO",
      "house": "361",
      "postcode": "3720-567",
      "city": "TRAVANCA OAZ",
      "lon": "-8.492035685593462",
      "lat": "40.80780175434254"
    },
    {
      "id": "pt.ine.add.PTCONT.343200",
      "street": "R SANTO ANTÓNIO",
      "house": "319",
      "postcode": "3720-567",
      "city": "TRAVANCA OAZ",
      "lon": "-8.492069637460146",
      "lat": "40.80750448665784"
    },
    {
      "id": "pt.ine.add.PTCONT.1782",
      "street": "R ARROTAS",
      "house": "535",
      "postcode": "3720-567",
      "city": "TRAVANCA OAZ",
      "lon": "-8.490757623692659",
      "lat": "40.80373550181537"
    },
    {
      "id": "pt.ine.add.PTCONT.9710",
      "street": "R SANTO ANTÓNIO",
      "house": "275",
      "postcode": "3720-567",
      "city": "TRAVANCA OAZ",
      "lon": "-8.491702208332445",
      "lat": "40.80749662425194"
    },
    {
      "id": "pt.ine.add.PTCONT.28348",
      "street": "R SANTO ANTÓNIO",
      "house": "319",
      "postcode": "3720-567",
      "city": "TRAVANCA OAZ",
      "lon": "-8.492069637460146",
      "lat": "40.80750448665784"
    },
    {
      "id": "pt.ine.add.PTCONT.36434",
      "street": "R RELVA",
      "house": "6A",
      "postcode": "3720-567",
      "city": "TRAVANCA OAZ",
      "lon": "-8.493107781811618",
      "lat": "40.80443057676575"
    },
    {
      "id": "pt.ine.add.PTCONT.57707",
      "street": "R SANTO ANTÓNIO",
      "house": "189A",
      "postcode": "3720-567",
      "city": "TRAVANCA OAZ",
      "lon": "-8.490405427647625",
      "lat": "40.80656413631292"
    },
    {
      "id": "pt.ine.add.PTCONT.95720",
      "street": "R SANTO ANTÓNIO",
      "house": "47",
      "postcode": "3720-567",
      "city": "TRAVANCA OAZ",
      "lon": "-8.489124191156833",
      "lat": "40.80631595911787"
    },
    {
      "id": "pt.ine.add.PTCONT.101365",
      "street": "R JOSE LEMOS OLIVEIRA",
      "house": "80",
      "postcode": "3720-567",
      "city": "TRAVANCA OAZ",
      "lon": "-8.49118719473083",
      "lat": "40.80648967353209"
    },
    {
      "id": "pt.ine.add.PTCONT.110912",
      "street": "R SANTO ANTÓNIO",
      "house": "325",
      "postcode": "3720-567",
      "city": "TRAVANCA OAZ",
      "lon": "-8.491916593149494",
      "lat": "40.80769406581844"
    },
    {
      "id": "pt.ine.add.PTCONT.133038",
      "street": "R JOSE LEMOS OLIVEIRA",
      "house": "34",
      "postcode": "3720-567",
      "city": "TRAVANCA OAZ",
      "lon": "-8.491783322864102",
      "lat": "40.8071541854907"
    },
    {
      "id": "pt.ine.add.PTCONT.138493",
      "street": "R ZEFERINO PENEIRA COSTA",
      "house": "79",
      "postcode": "3720-567",
      "city": "TRAVANCA OAZ",
      "lon": "-8.491989135233963",
      "lat": "40.80356058459698"
    },
    {
      "id": "pt.ine.add.PTCONT.141539",
      "street": "R ALTO DO CARVALHAL",
      "house": "",
      "postcode": "3720-567",
      "city": "TRAVANCA OAZ",
      "lon": "-8.492632014824197",
      "lat": "40.80410788319403"
    },
    {
      "id": "pt.ine.add.PTCONT.170115",
      "street": "R SANTO ANTÓNIO",
      "house": "189",
      "postcode": "3720-567",
      "city": "TRAVANCA OAZ",
      "lon": "-8.49049950960377",
      "lat": "40.80642877124351"
    },
    {
      "id": "pt.ine.add.PTCONT.178095",
      "street": "R SANTO ANTÓNIO",
      "house": "191",
      "postcode": "3720-567",
      "city": "TRAVANCA OAZ",
      "lon": "-8.490725883265327",
      "lat": "40.80665319266968"
    },
    {
      "id": "pt.ine.add.PTCONT.178096",
      "street": "R SANTO ANTÓNIO",
      "house": "255",
      "postcode": "3720-567",
      "city": "TRAVANCA OAZ",
      "lon": "-8.491238083399166",
      "lat": "40.80713786928989"
    },
    {
      "id": "pt.ine.add.PTCONT.200755",
      "street": "R ALTO DO CARVALHAL",
      "house": "154",
      "postcode": "3720-567",
      "city": "TRAVANCA OAZ",
      "lon": "-8.49292788534514",
      "lat": "40.80403492158846"
    },
    {
      "id": "pt.ine.add.PTCONT.210190",
      "street": "R BARROCA",
      "house": "44",
      "postcode": "3720-567",
      "city": "TRAVANCA OAZ",
      "lon": "-8.493275224948157",
      "lat": "40.806906405554386"
    },
    {
      "id": "pt.ine.add.PTCONT.223838",
      "street": "R RELVA",
      "house": "6B",
      "postcode": "3720-567",
      "city": "TRAVANCA OAZ",
      "lon": "-8.493381656693645",
      "lat": "40.804672854674095"
    },
    {
      "id": "pt.ine.add.PTCONT.253594",
      "street": "R NOGUEIRA",
      "house": "190",
      "postcode": "3720-567",
      "city": "TRAVANCA OAZ",
      "lon": "-8.493826121505192",
      "lat": "40.805779070520614"
    },
    {
      "id": "pt.ine.add.PTCONT.280680",
      "street": "R DAMONDE",
      "house": "215",
      "postcode": "3720-567",
      "city": "TRAVANCA OAZ",
      "lon": "-8.490751421981663",
      "lat": "40.80699530018749"
    },
    {
      "id": "pt.ine.add.PTCONT.280682",
      "street": "R ALTO DO CARVALHAL",
      "house": "",
      "postcode": "3720-567",
      "city": "TRAVANCA OAZ",
      "lon": "-8.49287130788298",
      "lat": "40.80453036839631"
    },
    {
      "id": "pt.ine.add.PTCONT.281146",
      "street": "R ZEFERINO PENEIRA COSTA",
      "house": "",
      "postcode": "3720-567",
      "city": "TRAVANCA OAZ",
      "lon": "-8.493020012838421",
      "lat": "40.8035393638282"
    },
    {
      "id": "pt.ine.add.PTCONT.285804",
      "street": "R SANTO ANTÓNIO",
      "house": "91",
      "postcode": "3720-567",
      "city": "TRAVANCA OAZ",
      "lon": "-8.48952880389957",
      "lat": "40.80662988193739"
    }
  ]
}