{
  "data": {
    "distrito": "Braga",
    "concelho": "Cabeceiras de Basto",
    "freguesia": "Uni√£o das freguesias de Refojos de Basto, Outeiro e Painzela",
    "OBJECTID": 390,
    "BGRI2021": "03042100503",
    "DT21": "03",
    "DTMN21": "0304",
    "DTMNFR21": "030421",
    "DTMNFRSEC21": "030421005",
    "SECNUM21": "005",
    "SSNUM21": "03",
    "SECSSNUM21": "00503",
    "OBJECTID_1": 23551,
    "DT": "03",
    "CC": "04",
    "fr": "21",
    "SEC": "005",
    "SS": "03"
  },
  "addresses": [
    {
      "id": "pt.ine.add.PTCONT.464378",
      "street": "R ALTO MONTE",
      "house": "",
      "postcode": "4860-313",
      "city": "CABECEIRAS DE BASTO",
      "lon": "-7.983183866666534",
      "lat": "41.51100954912384"
    },
    {
      "id": "pt.ine.add.PTCONT.507139",
      "street": "",
      "house": "",
      "postcode": "4860-322",
      "city": "CABECEIRAS DE BASTO",
      "lon": "-7.983587015635261",
      "lat": "41.512801835877184"
    },
    {
      "id": "pt.ine.add.PTCONT.517685",
      "street": "",
      "house": "",
      "postcode": "4860-322",
      "city": "CABECEIRAS DE BASTO",
      "lon": "-7.9831191936148365",
      "lat": "41.513080345369936"
    },
    {
      "id": "pt.ine.add.PTCONT.528465",
      "street": "",
      "house": "",
      "postcode": "4860-322",
      "city": "CABECEIRAS DE BASTO",
      "lon": "-7.983178714481509",
      "lat": "41.51324249186018"
    },
    {
      "id": "pt.ine.add.PTCONT.528466",
      "street": "BR FREITA",
      "house": "",
      "postcode": "4860-322",
      "city": "CABECEIRAS DE BASTO",
      "lon": "-7.983395207761211",
      "lat": "41.51286461314648"
    },
    {
      "id": "pt.ine.add.PTCONT.549070",
      "street": "",
      "house": "",
      "postcode": "4860-322",
      "city": "CABECEIRAS DE BASTO",
      "lon": "-7.982908817067867",
      "lat": "41.510811105984615"
    },
    {
      "id": "pt.ine.add.PTCONT.561069",
      "street": "",
      "house": "",
      "postcode": "4860-322",
      "city": "CABECEIRAS DE BASTO",
      "lon": "-7.9837463634845305",
      "lat": "41.51122637291645"
    },
    {
      "id": "pt.ine.add.PTCONT.589768",
      "street": "",
      "house": "",
      "postcode": "4860-322",
      "city": "CABECEIRAS DE BASTO",
      "lon": "-7.983540467857307",
      "lat": "41.51220752271389"
    },
    {
      "id": "pt.ine.add.PTCONT.592794",
      "street": "",
      "house": "",
      "postcode": "4860-322",
      "city": "CABECEIRAS DE BASTO",
      "lon": "-7.983156398033218",
      "lat": "41.51253116041383"
    },
    {
      "id": "pt.ine.add.PTCONT.604512",
      "street": "",
      "house": "",
      "postcode": "4860-322",
      "city": "CABECEIRAS DE BASTO",
      "lon": "-7.981413957753779",
      "lat": "41.509755695806106"
    },
    {
      "id": "pt.ine.add.PTCONT.604513",
      "street": "",
      "house": "",
      "postcode": "4860-322",
      "city": "CABECEIRAS DE BASTO",
      "lon": "-7.981413957753779",
      "lat": "41.509755695806106"
    },
    {
      "id": "pt.ine.add.PTCONT.604517",
      "street": "",
      "house": "",
      "postcode": "4860-322",
      "city": "CABECEIRAS DE BASTO",
      "lon": "-7.984005885135177",
      "lat": "41.51297345238912"
    },
    {
      "id": "pt.ine.add.PTCONT.628919",
      "street": "",
      "house": "",
      "postcode": "4860-322",
      "city": "CABECEIRAS DE BASTO",
      "lon": "-7.983179919480054",
      "lat": "41.512720271459514"
    },
    {
      "id": "pt.ine.add.PTCONT.651010",
      "street": "",
      "house": "",
      "postcode": "4860-322",
      "city": "CABECEIRAS DE BASTO",
      "lon": "-7.984150045334843",
      "lat": "41.51279356264509"
    },
    {
      "id": "pt.ine.add.PTCONT.680498",
      "street": "R JORGE MOURA",
      "house": "",
      "postcode": "4860-313",
      "city": "CABECEIRAS DE BASTO",
      "lon": "-7.980396093995053",
      "lat": "41.50962829515144"
    },
    {
      "id": "pt.ine.add.PTCONT.680499",
      "street": "",
      "house": "",
      "postcode": "4860-322",
      "city": "CABECEIRAS DE BASTO",
      "lon": "-7.98302835301157",
      "lat": "41.510919307995145"
    },
    {
      "id": "pt.ine.add.PTCONT.680500",
      "street": "",
      "house": "",
      "postcode": "4860-322",
      "city": "CABECEIRAS DE BASTO",
      "lon": "-7.983827028359643",
      "lat": "41.51261306727944"
    },
    {
      "id": "pt.ine.add.PTCONT.718913",
      "street": "",
      "house": "",
      "postcode": "4860-322",
      "city": "CABECEIRAS DE BASTO",
      "lon": "-7.983046903927088",
      "lat": "41.513260327607846"
    },
    {
      "id": "pt.ine.add.PTCONT.723068",
      "street": "",
      "house": "",
      "postcode": "4860-322",
      "city": "CABECEIRAS DE BASTO",
      "lon": "-7.983731383601452",
      "lat": "41.51253190864539"
    },
    {
      "id": "pt.ine.add.PTCONT.725760",
      "street": "BR ALTO",
      "house": "",
      "postcode": "4860-313",
      "city": "CABECEIRAS DE BASTO",
      "lon": "-7.983637893100448",
      "lat": "41.511514354547"
    },
    {
      "id": "pt.ine.add.PTCONT.734583",
      "street": "",
      "house": "",
      "postcode": "4860-322",
      "city": "CABECEIRAS DE BASTO",
      "lon": "-7.983817842201882",
      "lat": "41.511397538486584"
    },
    {
      "id": "pt.ine.add.PTCONT.752582",
      "street": "R MAQUINISMO",
      "house": "",
      "postcode": "4860-332",
      "city": "CABECEIRAS DE BASTO",
      "lon": "-7.9833709594173605",
      "lat": "41.512990635159824"
    },
    {
      "id": "pt.ine.add.PTCONT.752583",
      "street": "R MAQUINISMO",
      "house": "",
      "postcode": "4860-332",
      "city": "CABECEIRAS DE BASTO",
      "lon": "-7.9833709594173605",
      "lat": "41.512990635159824"
    },
    {
      "id": "pt.ine.add.PTCONT.770596",
      "street": "",
      "house": "",
      "postcode": "4860-322",
      "city": "CABECEIRAS DE BASTO",
      "lon": "-7.9834951233112905",
      "lat": "41.511090988914894"
    },
    {
      "id": "pt.ine.add.PTCONT.776675",
      "street": "",
      "house": "",
      "postcode": "4860-322",
      "city": "CABECEIRAS DE BASTO",
      "lon": "-7.983982629831036",
      "lat": "41.51266729210688"
    },
    {
      "id": "pt.ine.add.PTCONT.781812",
      "street": "R SOUTO",
      "house": "170",
      "postcode": "4860-322",
      "city": "CABECEIRAS DE BASTO",
      "lon": "-7.9836941633373515",
      "lat": "41.51309009759558"
    },
    {
      "id": "pt.ine.add.PTCONT.842212",
      "street": "",
      "house": "",
      "postcode": "4860-322",
      "city": "CABECEIRAS DE BASTO",
      "lon": "-7.983143587946113",
      "lat": "41.51289129681194"
    },
    {
      "id": "pt.ine.add.PTCONT.845518",
      "street": "",
      "house": "",
      "postcode": "4860-322",
      "city": "CABECEIRAS DE BASTO",
      "lon": "-7.983419580464429",
      "lat": "41.51268456832195"
    }
  ]
}