{
  "data": {
    "distrito": "Viseu",
    "concelho": "Oliveira de Frades",
    "freguesia": "União das freguesias de Oliveira de Frades, Souto de Lafões e Sejães",
    "OBJECTID": 477,
    "BGRI2021": "18101500112",
    "DT21": "18",
    "DTMN21": "1810",
    "DTMNFR21": "181015",
    "DTMNFRSEC21": "181015001",
    "SECNUM21": "001",
    "SSNUM21": "12",
    "SECSSNUM21": "00112",
    "OBJECTID_1": 194219,
    "DT": "18",
    "CC": "10",
    "fr": "15",
    "SEC": "001",
    "SS": "12"
  },
  "addresses": [
    {
      "id": "pt.ine.add.PTCONT.5448220",
      "street": "R RAMIRO FERREIRA",
      "house": "16",
      "postcode": "3680-142",
      "city": "OLIVEIRA DE FRADES",
      "lon": "-8.173640862629274",
      "lat": "40.73175640729012"
    },
    {
      "id": "pt.ine.add.PTCONT.5448221",
      "street": "R RAMIRO FERREIRA",
      "house": "16",
      "postcode": "3680-142",
      "city": "OLIVEIRA DE FRADES",
      "lon": "-8.173640862629274",
      "lat": "40.73175640729012"
    },
    {
      "id": "pt.ine.add.PTCONT.5448222",
      "street": "R RAMIRO FERREIRA",
      "house": "16",
      "postcode": "3680-142",
      "city": "OLIVEIRA DE FRADES",
      "lon": "-8.173640862629274",
      "lat": "40.73175640729012"
    },
    {
      "id": "pt.ine.add.PTCONT.5448223",
      "street": "R RAMIRO FERREIRA",
      "house": "16",
      "postcode": "3680-142",
      "city": "OLIVEIRA DE FRADES",
      "lon": "-8.173640862629274",
      "lat": "40.73175640729012"
    },
    {
      "id": "pt.ine.add.PTCONT.5448224",
      "street": "R RAMIRO FERREIRA",
      "house": "16",
      "postcode": "3680-142",
      "city": "OLIVEIRA DE FRADES",
      "lon": "-8.173640862629274",
      "lat": "40.73175640729012"
    },
    {
      "id": "pt.ine.add.PTCONT.5448225",
      "street": "R RAMIRO FERREIRA",
      "house": "16",
      "postcode": "3680-142",
      "city": "OLIVEIRA DE FRADES",
      "lon": "-8.173640862629274",
      "lat": "40.73175640729012"
    },
    {
      "id": "pt.ine.add.PTCONT.5448746",
      "street": "R RAMIRO FERREIRA",
      "house": "16",
      "postcode": "3680-142",
      "city": "OLIVEIRA DE FRADES",
      "lon": "-8.173640862629274",
      "lat": "40.73175640729012"
    },
    {
      "id": "pt.ine.add.PTCONT.5448780",
      "street": "R RAMIRO FERREIRA",
      "house": "16",
      "postcode": "3680-142",
      "city": "OLIVEIRA DE FRADES",
      "lon": "-8.173640862629274",
      "lat": "40.73175640729012"
    },
    {
      "id": "pt.ine.add.PTCONT.5450289",
      "street": "R RAMIRO FERREIRA",
      "house": "",
      "postcode": "3680-142",
      "city": "OLIVEIRA DE FRADES",
      "lon": "-8.174043225349472",
      "lat": "40.73155815407224"
    },
    {
      "id": "pt.ine.add.PTCONT.5450389",
      "street": "R RAMIRO FERREIRA",
      "house": "7",
      "postcode": "3680-142",
      "city": "OLIVEIRA DE FRADES",
      "lon": "-8.174043225349472",
      "lat": "40.73155815407224"
    },
    {
      "id": "pt.ine.add.PTCONT.5450390",
      "street": "R RAMIRO FERREIRA",
      "house": "",
      "postcode": "3680-142",
      "city": "OLIVEIRA DE FRADES",
      "lon": "-8.174043225349472",
      "lat": "40.73155815407224"
    },
    {
      "id": "pt.ine.add.PTCONT.5450391",
      "street": "R RAMIRO FERREIRA",
      "house": "",
      "postcode": "3680-142",
      "city": "OLIVEIRA DE FRADES",
      "lon": "-8.174043225349472",
      "lat": "40.73155815407224"
    },
    {
      "id": "pt.ine.add.PTCONT.5490009",
      "street": "R RAMIRO FERREIRA",
      "house": "32",
      "postcode": "3680-142",
      "city": "OLIVEIRA DE FRADES",
      "lon": "-8.17320299491942",
      "lat": "40.73197268154785"
    },
    {
      "id": "pt.ine.add.PTCONT.5490010",
      "street": "R RAMIRO FERREIRA",
      "house": "32",
      "postcode": "3680-142",
      "city": "OLIVEIRA DE FRADES",
      "lon": "-8.17320299491942",
      "lat": "40.73197268154785"
    },
    {
      "id": "pt.ine.add.PTCONT.5490011",
      "street": "R RAMIRO FERREIRA",
      "house": "32",
      "postcode": "3680-142",
      "city": "OLIVEIRA DE FRADES",
      "lon": "-8.17320299491942",
      "lat": "40.73197268154785"
    },
    {
      "id": "pt.ine.add.PTCONT.5490012",
      "street": "R RAMIRO FERREIRA",
      "house": "32",
      "postcode": "3680-142",
      "city": "OLIVEIRA DE FRADES",
      "lon": "-8.17320299491942",
      "lat": "40.73197268154785"
    },
    {
      "id": "pt.ine.add.PTCONT.5490013",
      "street": "R RAMIRO FERREIRA",
      "house": "32",
      "postcode": "3680-142",
      "city": "OLIVEIRA DE FRADES",
      "lon": "-8.17320299491942",
      "lat": "40.73197268154785"
    },
    {
      "id": "pt.ine.add.PTCONT.5490014",
      "street": "R RAMIRO FERREIRA",
      "house": "32",
      "postcode": "3680-142",
      "city": "OLIVEIRA DE FRADES",
      "lon": "-8.17320299491942",
      "lat": "40.73197268154785"
    },
    {
      "id": "pt.ine.add.PTCONT.5490024",
      "street": "R RAMIRO FERREIRA",
      "house": "32",
      "postcode": "3680-142",
      "city": "OLIVEIRA DE FRADES",
      "lon": "-8.17320299491942",
      "lat": "40.73197268154785"
    },
    {
      "id": "pt.ine.add.PTCONT.5490025",
      "street": "R RAMIRO FERREIRA",
      "house": "32",
      "postcode": "3680-142",
      "city": "OLIVEIRA DE FRADES",
      "lon": "-8.17320299491942",
      "lat": "40.73197268154785"
    },
    {
      "id": "pt.ine.add.PTCONT.5515432",
      "street": "R RAMIRO FERREIRA",
      "house": "10",
      "postcode": "3680-142",
      "city": "OLIVEIRA DE FRADES",
      "lon": "-8.173842049779537",
      "lat": "40.731666285911075"
    },
    {
      "id": "pt.ine.add.PTCONT.5515433",
      "street": "R RAMIRO FERREIRA",
      "house": "10",
      "postcode": "3680-142",
      "city": "OLIVEIRA DE FRADES",
      "lon": "-8.173842049779537",
      "lat": "40.731666285911075"
    },
    {
      "id": "pt.ine.add.PTCONT.5515434",
      "street": "R RAMIRO FERREIRA",
      "house": "10",
      "postcode": "3680-142",
      "city": "OLIVEIRA DE FRADES",
      "lon": "-8.173842049779537",
      "lat": "40.731666285911075"
    },
    {
      "id": "pt.ine.add.PTCONT.5515435",
      "street": "R RAMIRO FERREIRA",
      "house": "10",
      "postcode": "3680-142",
      "city": "OLIVEIRA DE FRADES",
      "lon": "-8.173842049779537",
      "lat": "40.731666285911075"
    },
    {
      "id": "pt.ine.add.PTCONT.5515436",
      "street": "R RAMIRO FERREIRA",
      "house": "10",
      "postcode": "3680-142",
      "city": "OLIVEIRA DE FRADES",
      "lon": "-8.173842049779537",
      "lat": "40.731666285911075"
    },
    {
      "id": "pt.ine.add.PTCONT.5515437",
      "street": "R RAMIRO FERREIRA",
      "house": "10",
      "postcode": "3680-142",
      "city": "OLIVEIRA DE FRADES",
      "lon": "-8.173842049779537",
      "lat": "40.731666285911075"
    },
    {
      "id": "pt.ine.add.PTCONT.5515438",
      "street": "R RAMIRO FERREIRA",
      "house": "10",
      "postcode": "3680-142",
      "city": "OLIVEIRA DE FRADES",
      "lon": "-8.173842049779537",
      "lat": "40.731666285911075"
    },
    {
      "id": "pt.ine.add.PTCONT.5516388",
      "street": "R RAMIRO FERREIRA",
      "house": "10",
      "postcode": "3680-142",
      "city": "OLIVEIRA DE FRADES",
      "lon": "-8.173842049779537",
      "lat": "40.731666285911075"
    },
    {
      "id": "pt.ine.add.PTCONT.5530577",
      "street": "ROT CENTENARIOS",
      "house": "4",
      "postcode": "3680-087",
      "city": "OLIVEIRA DE FRADES",
      "lon": "-8.173037254855304",
      "lat": "40.73195472888883"
    },
    {
      "id": "pt.ine.add.PTCONT.5530578",
      "street": "ROT CENTENARIOS",
      "house": "4",
      "postcode": "3680-087",
      "city": "OLIVEIRA DE FRADES",
      "lon": "-8.173037254855304",
      "lat": "40.73195472888883"
    },
    {
      "id": "pt.ine.add.PTCONT.5530579",
      "street": "R RAMIRO FERREIRA",
      "house": "",
      "postcode": "3680-142",
      "city": "OLIVEIRA DE FRADES",
      "lon": "-8.173037254855304",
      "lat": "40.73195472888883"
    },
    {
      "id": "pt.ine.add.PTCONT.5530580",
      "street": "ROT CENTENARIOS",
      "house": "4",
      "postcode": "3680-087",
      "city": "OLIVEIRA DE FRADES",
      "lon": "-8.173037254855304",
      "lat": "40.73195472888883"
    },
    {
      "id": "pt.ine.add.PTCONT.5530656",
      "street": "ROT CENTENARIOS",
      "house": "4",
      "postcode": "3680-087",
      "city": "OLIVEIRA DE FRADES",
      "lon": "-8.173037254855304",
      "lat": "40.73195472888883"
    },
    {
      "id": "pt.ine.add.PTCONT.5530657",
      "street": "R RAMIRO FERREIRA",
      "house": "1",
      "postcode": "3680-142",
      "city": "OLIVEIRA DE FRADES",
      "lon": "-8.173037254855304",
      "lat": "40.73195472888883"
    },
    {
      "id": "pt.ine.add.PTCONT.5543124",
      "street": "R RAMIRO FERREIRA",
      "house": "22",
      "postcode": "3680-142",
      "city": "OLIVEIRA DE FRADES",
      "lon": "-8.173475166521309",
      "lat": "40.731810495688755"
    },
    {
      "id": "pt.ine.add.PTCONT.5543125",
      "street": "R RAMIRO FERREIRA",
      "house": "22",
      "postcode": "3680-142",
      "city": "OLIVEIRA DE FRADES",
      "lon": "-8.173475166521309",
      "lat": "40.731810495688755"
    },
    {
      "id": "pt.ine.add.PTCONT.5543126",
      "street": "R RAMIRO FERREIRA",
      "house": "22",
      "postcode": "3680-142",
      "city": "OLIVEIRA DE FRADES",
      "lon": "-8.173475166521309",
      "lat": "40.731810495688755"
    },
    {
      "id": "pt.ine.add.PTCONT.5543127",
      "street": "R RAMIRO FERREIRA",
      "house": "22",
      "postcode": "3680-142",
      "city": "OLIVEIRA DE FRADES",
      "lon": "-8.173475166521309",
      "lat": "40.731810495688755"
    },
    {
      "id": "pt.ine.add.PTCONT.5543128",
      "street": "R RAMIRO FERREIRA",
      "house": "22",
      "postcode": "3680-142",
      "city": "OLIVEIRA DE FRADES",
      "lon": "-8.173475166521309",
      "lat": "40.731810495688755"
    },
    {
      "id": "pt.ine.add.PTCONT.5543129",
      "street": "R RAMIRO FERREIRA",
      "house": "22",
      "postcode": "3680-142",
      "city": "OLIVEIRA DE FRADES",
      "lon": "-8.173475166521309",
      "lat": "40.731810495688755"
    },
    {
      "id": "pt.ine.add.PTCONT.5543130",
      "street": "R RAMIRO FERREIRA",
      "house": "22",
      "postcode": "3680-142",
      "city": "OLIVEIRA DE FRADES",
      "lon": "-8.173475166521309",
      "lat": "40.731810495688755"
    },
    {
      "id": "pt.ine.add.PTCONT.5591233",
      "street": "R ESTAÇÃO",
      "house": "",
      "postcode": "3680-121",
      "city": "OLIVEIRA DE FRADES",
      "lon": "-8.172966158176994",
      "lat": "40.73183768773987"
    },
    {
      "id": "pt.ine.add.PTCONT.5594423",
      "street": "R DR LINO SANTOS",
      "house": "18",
      "postcode": "3680-135",
      "city": "OLIVEIRA DE FRADES",
      "lon": "-8.173865554949753",
      "lat": "40.73138712087764"
    },
    {
      "id": "pt.ine.add.PTCONT.5594424",
      "street": "R DR LINO SANTOS",
      "house": "18",
      "postcode": "3680-135",
      "city": "OLIVEIRA DE FRADES",
      "lon": "-8.173865554949753",
      "lat": "40.73138712087764"
    },
    {
      "id": "pt.ine.add.PTCONT.5594425",
      "street": "R DR LINO SANTOS",
      "house": "18",
      "postcode": "3680-135",
      "city": "OLIVEIRA DE FRADES",
      "lon": "-8.173865554949753",
      "lat": "40.73138712087764"
    },
    {
      "id": "pt.ine.add.PTCONT.5594426",
      "street": "R DR LINO SANTOS",
      "house": "18",
      "postcode": "3680-135",
      "city": "OLIVEIRA DE FRADES",
      "lon": "-8.173865554949753",
      "lat": "40.73138712087764"
    },
    {
      "id": "pt.ine.add.PTCONT.5594823",
      "street": "R DR LINO SANTOS",
      "house": "18",
      "postcode": "3680-135",
      "city": "OLIVEIRA DE FRADES",
      "lon": "-8.173865554949753",
      "lat": "40.73138712087764"
    },
    {
      "id": "pt.ine.add.PTCONT.5594889",
      "street": "R ESTAÇÃO",
      "house": "18",
      "postcode": "3680-121",
      "city": "OLIVEIRA DE FRADES",
      "lon": "-8.173865554949753",
      "lat": "40.73138712087764"
    },
    {
      "id": "pt.ine.add.PTCONT.5594890",
      "street": "R ESTAÇÃO",
      "house": "18",
      "postcode": "3680-121",
      "city": "OLIVEIRA DE FRADES",
      "lon": "-8.173865554949753",
      "lat": "40.73138712087764"
    },
    {
      "id": "pt.ine.add.PTCONT.5594891",
      "street": "R ESTAÇÃO",
      "house": "10",
      "postcode": "3680-121",
      "city": "OLIVEIRA DE FRADES",
      "lon": "-8.173865554949753",
      "lat": "40.73138712087764"
    },
    {
      "id": "pt.ine.add.PTCONT.5631773",
      "street": "R RAMIRO FERREIRA",
      "house": "26",
      "postcode": "3680-142",
      "city": "OLIVEIRA DE FRADES",
      "lon": "-8.173392340090349",
      "lat": "40.731873560013156"
    },
    {
      "id": "pt.ine.add.PTCONT.5631774",
      "street": "R RAMIRO FERREIRA",
      "house": "26",
      "postcode": "3680-142",
      "city": "OLIVEIRA DE FRADES",
      "lon": "-8.173392340090349",
      "lat": "40.731873560013156"
    },
    {
      "id": "pt.ine.add.PTCONT.5631775",
      "street": "R RAMIRO FERREIRA",
      "house": "26",
      "postcode": "3680-142",
      "city": "OLIVEIRA DE FRADES",
      "lon": "-8.173392340090349",
      "lat": "40.731873560013156"
    },
    {
      "id": "pt.ine.add.PTCONT.5631776",
      "street": "R RAMIRO FERREIRA",
      "house": "26",
      "postcode": "3680-142",
      "city": "OLIVEIRA DE FRADES",
      "lon": "-8.173392340090349",
      "lat": "40.731873560013156"
    },
    {
      "id": "pt.ine.add.PTCONT.5631777",
      "street": "R RAMIRO FERREIRA",
      "house": "26",
      "postcode": "3680-142",
      "city": "OLIVEIRA DE FRADES",
      "lon": "-8.173392340090349",
      "lat": "40.731873560013156"
    },
    {
      "id": "pt.ine.add.PTCONT.5631778",
      "street": "R RAMIRO FERREIRA",
      "house": "26",
      "postcode": "3680-142",
      "city": "OLIVEIRA DE FRADES",
      "lon": "-8.173392340090349",
      "lat": "40.731873560013156"
    },
    {
      "id": "pt.ine.add.PTCONT.5631779",
      "street": "R RAMIRO FERREIRA",
      "house": "26",
      "postcode": "3680-142",
      "city": "OLIVEIRA DE FRADES",
      "lon": "-8.173392340090349",
      "lat": "40.731873560013156"
    },
    {
      "id": "pt.ine.add.PTCONT.5632259",
      "street": "R RAMIRO FERREIRA",
      "house": "26",
      "postcode": "3680-142",
      "city": "OLIVEIRA DE FRADES",
      "lon": "-8.173392340090349",
      "lat": "40.731873560013156"
    },
    {
      "id": "pt.ine.add.PTCONT.5636238",
      "street": "R DR LINO SANTOS",
      "house": "40",
      "postcode": "3680-135",
      "city": "OLIVEIRA DE FRADES",
      "lon": "-8.174054952678985",
      "lat": "40.7313780487908"
    },
    {
      "id": "pt.ine.add.PTCONT.5636239",
      "street": "R DR LINO SANTOS",
      "house": "40",
      "postcode": "3680-135",
      "city": "OLIVEIRA DE FRADES",
      "lon": "-8.174054952678985",
      "lat": "40.7313780487908"
    },
    {
      "id": "pt.ine.add.PTCONT.5636240",
      "street": "R DR LINO SANTOS",
      "house": "40",
      "postcode": "3680-135",
      "city": "OLIVEIRA DE FRADES",
      "lon": "-8.174054952678985",
      "lat": "40.7313780487908"
    },
    {
      "id": "pt.ine.add.PTCONT.5637945",
      "street": "R DR LINO SANTOS",
      "house": "40",
      "postcode": "3680-135",
      "city": "OLIVEIRA DE FRADES",
      "lon": "-8.174054952678985",
      "lat": "40.7313780487908"
    },
    {
      "id": "pt.ine.add.PTCONT.5644981",
      "street": "R RAMIRO FERREIRA",
      "house": "48",
      "postcode": "3680-142",
      "city": "OLIVEIRA DE FRADES",
      "lon": "-8.1742562324348",
      "lat": "40.73144101260765"
    },
    {
      "id": "pt.ine.add.PTCONT.5644982",
      "street": "R DR LINO SANTOS",
      "house": "",
      "postcode": "3680-135",
      "city": "OLIVEIRA DE FRADES",
      "lon": "-8.1742562324348",
      "lat": "40.73144101260765"
    },
    {
      "id": "pt.ine.add.PTCONT.5644983",
      "street": "R DR LINO SANTOS",
      "house": "",
      "postcode": "3680-135",
      "city": "OLIVEIRA DE FRADES",
      "lon": "-8.1742562324348",
      "lat": "40.73144101260765"
    },
    {
      "id": "pt.ine.add.PTCONT.5644984",
      "street": "R DR LINO SANTOS",
      "house": "",
      "postcode": "3680-135",
      "city": "OLIVEIRA DE FRADES",
      "lon": "-8.1742562324348",
      "lat": "40.73144101260765"
    },
    {
      "id": "pt.ine.add.PTCONT.5644985",
      "street": "R DR LINO SANTOS",
      "house": "",
      "postcode": "3680-135",
      "city": "OLIVEIRA DE FRADES",
      "lon": "-8.1742562324348",
      "lat": "40.73144101260765"
    },
    {
      "id": "pt.ine.add.PTCONT.5644986",
      "street": "AV DR ARMENIO MAIA",
      "house": "48",
      "postcode": "3680-115",
      "city": "OLIVEIRA DE FRADES",
      "lon": "-8.1742562324348",
      "lat": "40.73144101260765"
    },
    {
      "id": "pt.ine.add.PTCONT.5644998",
      "street": "AV DR ARMENIO MAIA",
      "house": "48",
      "postcode": "3680-115",
      "city": "OLIVEIRA DE FRADES",
      "lon": "-8.1742562324348",
      "lat": "40.73144101260765"
    },
    {
      "id": "pt.ine.add.PTCONT.5644999",
      "street": "R RAMIRO FERREIRA",
      "house": "48 BL 8",
      "postcode": "3680-135",
      "city": "OLIVEIRA DE FRADES",
      "lon": "-8.1742562324348",
      "lat": "40.73144101260765"
    },
    {
      "id": "pt.ine.add.PTCONT.5654798",
      "street": "R ESTAÇÃO",
      "house": "10",
      "postcode": "3680-121",
      "city": "OLIVEIRA DE FRADES",
      "lon": "-8.173628806349825",
      "lat": "40.73139620928562"
    },
    {
      "id": "pt.ine.add.PTCONT.5662253",
      "street": "R ESTAÇÃO",
      "house": "",
      "postcode": "3680-121",
      "city": "OLIVEIRA DE FRADES",
      "lon": "-8.172847694626089",
      "lat": "40.73169364769446"
    },
    {
      "id": "pt.ine.add.PTCONT.5663977",
      "street": "R RAMIRO FERREIRA",
      "house": "22",
      "postcode": "3680-142",
      "city": "OLIVEIRA DE FRADES",
      "lon": "-8.173475166521309",
      "lat": "40.731810495688755"
    }
  ]
}