{
  "data": {
    "distrito": "Viseu",
    "concelho": "Tondela",
    "freguesia": "Uni√£o das freguesias de Mouraz e Vila Nova da Rainha",
    "OBJECTID": 1303,
    "BGRI2021": "18212900246",
    "DT21": "18",
    "DTMN21": "1821",
    "DTMNFR21": "182129",
    "DTMNFRSEC21": "182129002",
    "SECNUM21": "002",
    "SSNUM21": "46",
    "SECSSNUM21": "00246",
    "OBJECTID_1": 199078,
    "DT": "18",
    "CC": "21",
    "fr": "29",
    "SEC": "002",
    "SS": "46"
  },
  "addresses": [
    {
      "id": "pt.ine.add.PTCONT.5434096",
      "street": "R NOVA",
      "house": "234",
      "postcode": "3460-327",
      "city": "TONDELA",
      "lon": "-8.06614933902187",
      "lat": "40.487710942467764"
    },
    {
      "id": "pt.ine.add.PTCONT.5482788",
      "street": "R 10 DE JUNHO",
      "house": "367",
      "postcode": "3460-327",
      "city": "TONDELA",
      "lon": "-8.06759964135413",
      "lat": "40.488180056286296"
    },
    {
      "id": "pt.ine.add.PTCONT.5498953",
      "street": "R NOVA",
      "house": "97",
      "postcode": "3460-327",
      "city": "TONDELA",
      "lon": "-8.066679917549713",
      "lat": "40.48790036280632"
    },
    {
      "id": "pt.ine.add.PTCONT.5590668",
      "street": "R 10 DE JUNHO",
      "house": "527",
      "postcode": "3460-327",
      "city": "TONDELA",
      "lon": "-8.06714079688917",
      "lat": "40.48700008306151"
    },
    {
      "id": "pt.ine.add.PTCONT.5606979",
      "street": "R NOVA",
      "house": "",
      "postcode": "3460-327",
      "city": "TONDELA",
      "lon": "-8.067331621512928",
      "lat": "40.48830729586009"
    },
    {
      "id": "pt.ine.add.PTCONT.5620336",
      "street": "R NOVA",
      "house": "193",
      "postcode": "3460-327",
      "city": "TONDELA",
      "lon": "-8.067246048329274",
      "lat": "40.48866211352019"
    },
    {
      "id": "pt.ine.add.PTCONT.5653123",
      "street": "R 10 DE JUNHO",
      "house": "411",
      "postcode": "3460-327",
      "city": "TONDELA",
      "lon": "-8.067576419518023",
      "lat": "40.48780181479523"
    },
    {
      "id": "pt.ine.add.PTCONT.5654708",
      "street": "R CANCELA",
      "house": "174",
      "postcode": "3460-327",
      "city": "TONDELA",
      "lon": "-8.065889907828169",
      "lat": "40.48765675925598"
    }
  ]
}