{
  "data": {
    "distrito": "Coimbra",
    "concelho": "Oliveira do Hospital",
    "freguesia": "União das freguesias de Oliveira do Hospital e São Paio de Gramaços",
    "OBJECTID": 589,
    "BGRI2021": "06112400504",
    "DT21": "06",
    "DTMN21": "0611",
    "DTMNFR21": "061124",
    "DTMNFRSEC21": "061124005",
    "SECNUM21": "005",
    "SSNUM21": "04",
    "SECSSNUM21": "00504",
    "OBJECTID_1": 54831,
    "DT": "06",
    "CC": "11",
    "fr": "24",
    "SEC": "005",
    "SS": "04"
  },
  "addresses": [
    {
      "id": "pt.ine.add.PTCONT.1128243",
      "street": "R ANTÓNIO BOTO",
      "house": "5",
      "postcode": "3400-082",
      "city": "OLIVEIRA DO HOSPITAL",
      "lon": "-7.858792611664471",
      "lat": "40.35539281520743"
    },
    {
      "id": "pt.ine.add.PTCONT.1154664",
      "street": "R ANTÓNIO BOTO",
      "house": "4",
      "postcode": "3400-082",
      "city": "OLIVEIRA DO HOSPITAL",
      "lon": "-7.858510605590138",
      "lat": "40.35526606723488"
    },
    {
      "id": "pt.ine.add.PTCONT.1216424",
      "street": "R CESÁRIO VERDE",
      "house": "11",
      "postcode": "3400-092",
      "city": "OLIVEIRA DO HOSPITAL",
      "lon": "-7.859193355001011",
      "lat": "40.355267686178976"
    },
    {
      "id": "pt.ine.add.PTCONT.1228950",
      "street": "R CESÁRIO VERDE",
      "house": "9",
      "postcode": "3400-092",
      "city": "OLIVEIRA DO HOSPITAL",
      "lon": "-7.859098417144183",
      "lat": "40.35545657948351"
    },
    {
      "id": "pt.ine.add.PTCONT.1247630",
      "street": "R ANTERO DE QUENTAL",
      "house": "2",
      "postcode": "3400-081",
      "city": "OLIVEIRA DO HOSPITAL",
      "lon": "-7.859148091159648",
      "lat": "40.35481729756468"
    },
    {
      "id": "pt.ine.add.PTCONT.1266212",
      "street": "R ANTÓNIO BOTO",
      "house": "2",
      "postcode": "3400-082",
      "city": "OLIVEIRA DO HOSPITAL",
      "lon": "-7.858640932367258",
      "lat": "40.355059247136325"
    },
    {
      "id": "pt.ine.add.PTCONT.1302245",
      "street": "R ANTÓNIO BOTO",
      "house": "1",
      "postcode": "3400-082",
      "city": "OLIVEIRA DO HOSPITAL",
      "lon": "-7.8590651440561805",
      "lat": "40.354952185488756"
    },
    {
      "id": "pt.ine.add.PTCONT.1304557",
      "street": "R ANTÓNIO NOBRE",
      "house": "12",
      "postcode": "3400-084",
      "city": "OLIVEIRA DO HOSPITAL",
      "lon": "-7.858287348485302",
      "lat": "40.35516647506455"
    },
    {
      "id": "pt.ine.add.PTCONT.1312605",
      "street": "R CESÁRIO VERDE",
      "house": "15",
      "postcode": "3400-092",
      "city": "OLIVEIRA DO HOSPITAL",
      "lon": "-7.859371457641037",
      "lat": "40.354889871453224"
    },
    {
      "id": "pt.ine.add.PTCONT.1345657",
      "street": "R ANTÓNIO NOBRE",
      "house": "16",
      "postcode": "3400-084",
      "city": "OLIVEIRA DO HOSPITAL",
      "lon": "-7.858712729534887",
      "lat": "40.35477123738492"
    },
    {
      "id": "pt.ine.add.PTCONT.1345658",
      "street": "R ANTÓNIO NOBRE",
      "house": "16",
      "postcode": "3400-084",
      "city": "OLIVEIRA DO HOSPITAL",
      "lon": "-7.858712729534887",
      "lat": "40.35477123738492"
    },
    {
      "id": "pt.ine.add.PTCONT.1345659",
      "street": "R ANTÓNIO NOBRE",
      "house": "16",
      "postcode": "3400-084",
      "city": "OLIVEIRA DO HOSPITAL",
      "lon": "-7.858712729534887",
      "lat": "40.35477123738492"
    },
    {
      "id": "pt.ine.add.PTCONT.1345660",
      "street": "R ANTÓNIO NOBRE",
      "house": "16",
      "postcode": "3400-084",
      "city": "OLIVEIRA DO HOSPITAL",
      "lon": "-7.858712729534887",
      "lat": "40.35477123738492"
    },
    {
      "id": "pt.ine.add.PTCONT.1345661",
      "street": "R ANTÓNIO NOBRE",
      "house": "16",
      "postcode": "3400-084",
      "city": "OLIVEIRA DO HOSPITAL",
      "lon": "-7.858712729534887",
      "lat": "40.35477123738492"
    },
    {
      "id": "pt.ine.add.PTCONT.1345662",
      "street": "R ANTÓNIO NOBRE",
      "house": "16",
      "postcode": "3400-084",
      "city": "OLIVEIRA DO HOSPITAL",
      "lon": "-7.858712729534887",
      "lat": "40.35477123738492"
    },
    {
      "id": "pt.ine.add.PTCONT.1345663",
      "street": "R ANTÓNIO NOBRE",
      "house": "16",
      "postcode": "3400-084",
      "city": "OLIVEIRA DO HOSPITAL",
      "lon": "-7.858712729534887",
      "lat": "40.35477123738492"
    },
    {
      "id": "pt.ine.add.PTCONT.1345686",
      "street": "R ANTÓNIO NOBRE",
      "house": "16",
      "postcode": "3400-084",
      "city": "OLIVEIRA DO HOSPITAL",
      "lon": "-7.858712729534887",
      "lat": "40.35477123738492"
    },
    {
      "id": "pt.ine.add.PTCONT.1345689",
      "street": "R ANTÓNIO NOBRE",
      "house": "16",
      "postcode": "3400-084",
      "city": "OLIVEIRA DO HOSPITAL",
      "lon": "-7.858712729534887",
      "lat": "40.35477123738492"
    },
    {
      "id": "pt.ine.add.PTCONT.1346860",
      "street": "R ANTÓNIO NOBRE",
      "house": "14",
      "postcode": "3400-084",
      "city": "OLIVEIRA DO HOSPITAL",
      "lon": "-7.858429264527624",
      "lat": "40.355004710878866"
    }
  ]
}