{
  "data": {
    "distrito": "Coimbra",
    "concelho": "Oliveira do Hospital",
    "freguesia": "União das freguesias de Oliveira do Hospital e São Paio de Gramaços",
    "OBJECTID": 507,
    "BGRI2021": "06112400505",
    "DT21": "06",
    "DTMN21": "0611",
    "DTMNFR21": "061124",
    "DTMNFRSEC21": "061124005",
    "SECNUM21": "005",
    "SSNUM21": "05",
    "SECSSNUM21": "00505",
    "OBJECTID_1": 54577,
    "DT": "06",
    "CC": "11",
    "fr": "24",
    "SEC": "005",
    "SS": "05"
  },
  "addresses": [
    {
      "id": "pt.ine.add.PTCONT.1100647",
      "street": "QTA DOS CASTROS",
      "house": "",
      "postcode": "3400-006",
      "city": "OLIVEIRA DO HOSPITAL",
      "lon": "-7.871330311019178",
      "lat": "40.35516971404237"
    },
    {
      "id": "pt.ine.add.PTCONT.1119929",
      "street": "TV DA CALVINA",
      "house": "6",
      "postcode": "3400-182",
      "city": "OLIVEIRA DO HOSPITAL",
      "lon": "-7.866993270681465",
      "lat": "40.35346675811509"
    },
    {
      "id": "pt.ine.add.PTCONT.1142525",
      "street": "",
      "house": "",
      "postcode": "3400-006",
      "city": "OLIVEIRA DO HOSPITAL",
      "lon": "-7.871673841950642",
      "lat": "40.354612141998594"
    },
    {
      "id": "pt.ine.add.PTCONT.1209094",
      "street": "QTA DOS CASTROS",
      "house": "",
      "postcode": "3400-006",
      "city": "OLIVEIRA DO HOSPITAL",
      "lon": "-7.871223461344087",
      "lat": "40.3554036185182"
    },
    {
      "id": "pt.ine.add.PTCONT.1218381",
      "street": "",
      "house": "",
      "postcode": "3400-006",
      "city": "OLIVEIRA DO HOSPITAL",
      "lon": "-7.875525810764465",
      "lat": "40.35390933975906"
    },
    {
      "id": "pt.ine.add.PTCONT.1245162",
      "street": "",
      "house": "",
      "postcode": "3400-129",
      "city": "OLIVEIRA DO HOSPITAL",
      "lon": "-7.875137837614683",
      "lat": "40.35378239623228"
    },
    {
      "id": "pt.ine.add.PTCONT.1287663",
      "street": "",
      "house": "",
      "postcode": "3400-006",
      "city": "OLIVEIRA DO HOSPITAL",
      "lon": "-7.874880277465309",
      "lat": "40.35341259056245"
    },
    {
      "id": "pt.ine.add.PTCONT.1314586",
      "street": "",
      "house": "",
      "postcode": "3400-006",
      "city": "OLIVEIRA DO HOSPITAL",
      "lon": "-7.873022602314603",
      "lat": "40.35284107331645"
    },
    {
      "id": "pt.ine.add.PTCONT.1318499",
      "street": "R ENG CAEIRO DA MATA",
      "house": "18",
      "postcode": "3400-089",
      "city": "OLIVEIRA DO HOSPITAL",
      "lon": "-7.866898250866794",
      "lat": "40.35368267460828"
    }
  ]
}