{
  "data": {
    "distrito": "Faro",
    "concelho": "Faro",
    "freguesia": "Santa BÃ¡rbara de Nexe",
    "OBJECTID": 181,
    "BGRI2021": "08050300103",
    "DT21": "08",
    "DTMN21": "0805",
    "DTMNFR21": "080503",
    "DTMNFRSEC21": "080503001",
    "SECNUM21": "001",
    "SSNUM21": "03",
    "SECSSNUM21": "00103",
    "OBJECTID_1": 66095,
    "DT": "08",
    "CC": "05",
    "fr": "03",
    "SEC": "001",
    "SS": "03"
  },
  "addresses": [
    {
      "id": "pt.ine.add.PTCONT.1478731",
      "street": "R JOSE RODRIGUES CASA AMELLA",
      "house": "",
      "postcode": "8005-483",
      "city": "FARO",
      "lon": "-7.95515426034323",
      "lat": "37.07704643097912"
    },
    {
      "id": "pt.ine.add.PTCONT.1478782",
      "street": "CAM PINHEIROS CASA HELENA",
      "house": "",
      "postcode": "8005-483",
      "city": "FARO",
      "lon": "-7.95426843330572",
      "lat": "37.08073047157084"
    },
    {
      "id": "pt.ine.add.PTCONT.1497926",
      "street": "ESTR FARO",
      "house": "835",
      "postcode": "8005-483",
      "city": "FARO",
      "lon": "-7.9583696831727",
      "lat": "37.08233147663008"
    },
    {
      "id": "pt.ine.add.PTCONT.1498019",
      "street": "",
      "house": "",
      "postcode": "8005-483",
      "city": "FARO",
      "lon": "-7.957531738910622",
      "lat": "37.07992438520196"
    },
    {
      "id": "pt.ine.add.PTCONT.1510386",
      "street": "ESTR FARO",
      "house": "",
      "postcode": "8005-483",
      "city": "FARO",
      "lon": "-7.959133189270825",
      "lat": "37.077962414147535"
    },
    {
      "id": "pt.ine.add.PTCONT.1532238",
      "street": "CAM PINHEIROS",
      "house": "",
      "postcode": "8005-483",
      "city": "FARO",
      "lon": "-7.954277597070145",
      "lat": "37.07682885576907"
    },
    {
      "id": "pt.ine.add.PTCONT.1533583",
      "street": "",
      "house": "",
      "postcode": "8005-483",
      "city": "FARO",
      "lon": "-7.958139096429468",
      "lat": "37.07989825067036"
    },
    {
      "id": "pt.ine.add.PTCONT.1538089",
      "street": "ESTR FARO",
      "house": "",
      "postcode": "8005-483",
      "city": "FARO",
      "lon": "-7.958620618355081",
      "lat": "37.080800029058516"
    },
    {
      "id": "pt.ine.add.PTCONT.1538831",
      "street": "ESTR BELA SALEMA CASA ROCHA",
      "house": "",
      "postcode": "8005-483",
      "city": "FARO",
      "lon": "-7.955436140807957",
      "lat": "37.076731479236855"
    },
    {
      "id": "pt.ine.add.PTCONT.1547765",
      "street": "ESTR FARO",
      "house": "",
      "postcode": "8005-483",
      "city": "FARO",
      "lon": "-7.95930177526344",
      "lat": "37.07800771478049"
    },
    {
      "id": "pt.ine.add.PTCONT.1547766",
      "street": "CAM OLIVEIRA",
      "house": "",
      "postcode": "8005-483",
      "city": "FARO",
      "lon": "-7.95542857148137",
      "lat": "37.0799753172934"
    },
    {
      "id": "pt.ine.add.PTCONT.1590782",
      "street": "CAM CRISTIANOS",
      "house": "811 A",
      "postcode": "8005-483",
      "city": "FARO",
      "lon": "-7.956907045628413",
      "lat": "37.08258161192103"
    },
    {
      "id": "pt.ine.add.PTCONT.1594532",
      "street": "",
      "house": "",
      "postcode": "8005-483",
      "city": "FARO",
      "lon": "-7.955668500828299",
      "lat": "37.07836276269406"
    },
    {
      "id": "pt.ine.add.PTCONT.1605408",
      "street": "CAM PINHEIROS",
      "house": "CCI 819 Z",
      "postcode": "8005-483",
      "city": "FARO",
      "lon": "-7.955432689259026",
      "lat": "37.08302994668526"
    },
    {
      "id": "pt.ine.add.PTCONT.1611764",
      "street": "ESTR FARO",
      "house": "",
      "postcode": "8005-483",
      "city": "FARO",
      "lon": "-7.958671569774878",
      "lat": "37.07819601417529"
    },
    {
      "id": "pt.ine.add.PTCONT.1631574",
      "street": "ESTR FARO",
      "house": "",
      "postcode": "8005-483",
      "city": "FARO",
      "lon": "-7.958642326414391",
      "lat": "37.0811424671828"
    },
    {
      "id": "pt.ine.add.PTCONT.1633965",
      "street": "R BALTASAR FIGUEIRAS",
      "house": "",
      "postcode": "8005-483",
      "city": "FARO",
      "lon": "-7.957820676010627",
      "lat": "37.08142959772985"
    },
    {
      "id": "pt.ine.add.PTCONT.1650005",
      "street": "CAM PINHEIROS",
      "house": "",
      "postcode": "8005-483",
      "city": "FARO",
      "lon": "-7.955309017996336",
      "lat": "37.083011739979575"
    },
    {
      "id": "pt.ine.add.PTCONT.1654674",
      "street": "R BALTASAR FIGUEIRAS",
      "house": "",
      "postcode": "8005-483",
      "city": "FARO",
      "lon": "-7.958248537162072",
      "lat": "37.081213972778194"
    },
    {
      "id": "pt.ine.add.PTCONT.1654675",
      "street": "R BALTASAR FIGUEIRAS",
      "house": "",
      "postcode": "8005-483",
      "city": "FARO",
      "lon": "-7.958248537162072",
      "lat": "37.081213972778194"
    },
    {
      "id": "pt.ine.add.PTCONT.1663234",
      "street": "ESTR FARO",
      "house": "",
      "postcode": "8005-483",
      "city": "FARO",
      "lon": "-7.959051728337389",
      "lat": "37.07916071679164"
    },
    {
      "id": "pt.ine.add.PTCONT.1663784",
      "street": "CAM OLIVEIRA",
      "house": "",
      "postcode": "8005-483",
      "city": "FARO",
      "lon": "-7.958317111960449",
      "lat": "37.080736507333725"
    },
    {
      "id": "pt.ine.add.PTCONT.1666021",
      "street": "CAM PINHEIROS",
      "house": "",
      "postcode": "8005-483",
      "city": "FARO",
      "lon": "-7.95392783381677",
      "lat": "37.077314905408"
    },
    {
      "id": "pt.ine.add.PTCONT.1668936",
      "street": "ESTR FARO",
      "house": "",
      "postcode": "8005-483",
      "city": "FARO",
      "lon": "-7.9586309148269745",
      "lat": "37.081214535907016"
    },
    {
      "id": "pt.ine.add.PTCONT.1701448",
      "street": "ESTR FARO",
      "house": "",
      "postcode": "8005-483",
      "city": "FARO",
      "lon": "-7.958507287061449",
      "lat": "37.081178311219446"
    },
    {
      "id": "pt.ine.add.PTCONT.1706933",
      "street": "ESTR BELA SALEMA CASA MADEIRA",
      "house": "",
      "postcode": "8005-483",
      "city": "FARO",
      "lon": "-7.955177699384535",
      "lat": "37.07664098486717"
    },
    {
      "id": "pt.ine.add.PTCONT.1712718",
      "street": "CAM OLIVEIRA",
      "house": "",
      "postcode": "8005-483",
      "city": "FARO",
      "lon": "-7.957980198727841",
      "lat": "37.0805287644743"
    },
    {
      "id": "pt.ine.add.PTCONT.1715800",
      "street": "CAM PINHEIROS",
      "house": "",
      "postcode": "8005-483",
      "city": "FARO",
      "lon": "-7.954737781433475",
      "lat": "37.082010696063826"
    },
    {
      "id": "pt.ine.add.PTCONT.1734366",
      "street": "ESTR FARO C P",
      "house": "C P 833",
      "postcode": "8005-483",
      "city": "FARO",
      "lon": "-7.958301686536667",
      "lat": "37.08255664360357"
    },
    {
      "id": "pt.ine.add.PTCONT.1743975",
      "street": "ESTR FARO",
      "house": "",
      "postcode": "8005-483",
      "city": "FARO",
      "lon": "-7.959448321695014",
      "lat": "37.077854747640465"
    },
    {
      "id": "pt.ine.add.PTCONT.1749171",
      "street": "",
      "house": "",
      "postcode": "8005-483",
      "city": "FARO",
      "lon": "-7.957882818399248",
      "lat": "37.078861642801215"
    },
    {
      "id": "pt.ine.add.PTCONT.1750163",
      "street": "ESTR BELA SALEMA",
      "house": "",
      "postcode": "8005-483",
      "city": "FARO",
      "lon": "-7.957054360534706",
      "lat": "37.077238491153295"
    },
    {
      "id": "pt.ine.add.PTCONT.1754770",
      "street": "R JOSE RODRIGUES",
      "house": "",
      "postcode": "8005-483",
      "city": "FARO",
      "lon": "-7.955513116704469",
      "lat": "37.07747948217687"
    },
    {
      "id": "pt.ine.add.PTCONT.1754771",
      "street": "ESTR FARO",
      "house": "",
      "postcode": "8005-483",
      "city": "FARO",
      "lon": "-7.958586115112155",
      "lat": "37.08113337379405"
    },
    {
      "id": "pt.ine.add.PTCONT.1759902",
      "street": "CAM PINHEIROS",
      "house": "",
      "postcode": "8005-483",
      "city": "FARO",
      "lon": "-7.9541103934678",
      "lat": "37.076197854876035"
    },
    {
      "id": "pt.ine.add.PTCONT.1781342",
      "street": "ESTR FARO",
      "house": "",
      "postcode": "8005-483",
      "city": "FARO",
      "lon": "-7.958496164657477",
      "lat": "37.081124230711794"
    },
    {
      "id": "pt.ine.add.PTCONT.1799742",
      "street": "CAM PINHEIROS",
      "house": "",
      "postcode": "8005-483",
      "city": "FARO",
      "lon": "-7.954838451514602",
      "lat": "37.08224512528216"
    },
    {
      "id": "pt.ine.add.PTCONT.1801776",
      "street": "ESTR FARO",
      "house": "",
      "postcode": "8005-483",
      "city": "FARO",
      "lon": "-7.959414275660825",
      "lat": "37.077989858196304"
    },
    {
      "id": "pt.ine.add.PTCONT.1804835",
      "street": "ESTR FARO CASA SEQUEIRA",
      "house": "",
      "postcode": "8005-483",
      "city": "FARO",
      "lon": "-7.959006125831831",
      "lat": "37.07943097061478"
    },
    {
      "id": "pt.ine.add.PTCONT.1809812",
      "street": "ESTR FARO",
      "house": "875A",
      "postcode": "8005-483",
      "city": "FARO",
      "lon": "-7.959380352856045",
      "lat": "37.07807090475757"
    },
    {
      "id": "pt.ine.add.PTCONT.1815301",
      "street": "ESTR BELA SALEMA",
      "house": "",
      "postcode": "8005-483",
      "city": "FARO",
      "lon": "-7.956357266503035",
      "lat": "37.077174379527435"
    },
    {
      "id": "pt.ine.add.PTCONT.1821893",
      "street": "CAM OLIVEIRA",
      "house": "",
      "postcode": "8005-483",
      "city": "FARO",
      "lon": "-7.958283972981798",
      "lat": "37.08047514848935"
    },
    {
      "id": "pt.ine.add.PTCONT.1827750",
      "street": "CAM OLIVEIRA",
      "house": "853 A",
      "postcode": "8005-483",
      "city": "FARO",
      "lon": "-7.957822543076336",
      "lat": "37.08061863847734"
    },
    {
      "id": "pt.ine.add.PTCONT.1829742",
      "street": "ESTR BELA SALEMA",
      "house": "",
      "postcode": "8005-483",
      "city": "FARO",
      "lon": "-7.954648981406446",
      "lat": "37.076712276099556"
    },
    {
      "id": "pt.ine.add.PTCONT.1842033",
      "street": "CAM PINHEIROS",
      "house": "",
      "postcode": "8005-483",
      "city": "FARO",
      "lon": "-7.95392783381677",
      "lat": "37.077314905408"
    }
  ]
}