{
  "data": {
    "distrito": "Braga",
    "concelho": "Barcelos",
    "freguesia": "União das freguesias de Barcelos, Vila Boa e Vila Frescainha (São Martinho e São Pedro)",
    "OBJECTID": 193,
    "BGRI2021": "03029300708",
    "DT21": "03",
    "DTMN21": "0302",
    "DTMNFR21": "030293",
    "DTMNFRSEC21": "030293007",
    "SECNUM21": "007",
    "SSNUM21": "08",
    "SECSSNUM21": "00708",
    "OBJECTID_1": 20047,
    "DT": "03",
    "CC": "02",
    "fr": "93",
    "SEC": "007",
    "SS": "08"
  },
  "addresses": [
    {
      "id": "pt.ine.add.PTCONT.486151",
      "street": "R S JOAO DEUS",
      "house": "89",
      "postcode": "4750-787",
      "city": "BARCELOS",
      "lon": "-8.619083295990329",
      "lat": "41.54660881259952"
    },
    {
      "id": "pt.ine.add.PTCONT.489088",
      "street": "AV PAULO FELISBERTO",
      "house": "792",
      "postcode": "4750-787",
      "city": "BARCELOS",
      "lon": "-8.619921283784507",
      "lat": "41.54647921574543"
    },
    {
      "id": "pt.ine.add.PTCONT.497928",
      "street": "R S JOÃO DE DEUS",
      "house": "57",
      "postcode": "4750-787",
      "city": "BARCELOS",
      "lon": "-8.61903663781618",
      "lat": "41.54678008080261"
    },
    {
      "id": "pt.ine.add.PTCONT.512808",
      "street": "R FLORES",
      "house": "77",
      "postcode": "4750-777",
      "city": "BARCELOS",
      "lon": "-8.619082149838928",
      "lat": "41.5464557538877"
    },
    {
      "id": "pt.ine.add.PTCONT.573286",
      "street": "R S JOÃO DE DEUS",
      "house": "56",
      "postcode": "4750-787",
      "city": "BARCELOS",
      "lon": "-8.619193316817652",
      "lat": "41.54689646720481"
    },
    {
      "id": "pt.ine.add.PTCONT.586532",
      "street": "R S JOÃO",
      "house": "21",
      "postcode": "4750-787",
      "city": "BARCELOS",
      "lon": "-8.620528432360612",
      "lat": "41.54753008111629"
    },
    {
      "id": "pt.ine.add.PTCONT.598103",
      "street": "R S JOÃO DE DEUS",
      "house": "15",
      "postcode": "4750-787",
      "city": "BARCELOS",
      "lon": "-8.620355235406372",
      "lat": "41.546810516132844"
    },
    {
      "id": "pt.ine.add.PTCONT.671238",
      "street": "R S JOÃO",
      "house": "49",
      "postcode": "4750-787",
      "city": "BARCELOS",
      "lon": "-8.620615641035338",
      "lat": "41.54797089451314"
    },
    {
      "id": "pt.ine.add.PTCONT.680762",
      "street": "R S JOÃO DE DEUS",
      "house": "54",
      "postcode": "4750-787",
      "city": "BARCELOS",
      "lon": "-8.619687394458456",
      "lat": "41.547254527126334"
    },
    {
      "id": "pt.ine.add.PTCONT.689383",
      "street": "R FLORES",
      "house": "65",
      "postcode": "4750-777",
      "city": "BARCELOS",
      "lon": "-8.619116890389895",
      "lat": "41.54629353976558"
    },
    {
      "id": "pt.ine.add.PTCONT.704205",
      "street": "R S JOÃO",
      "house": "19",
      "postcode": "4750-787",
      "city": "BARCELOS",
      "lon": "-8.620166316659828",
      "lat": "41.54718947344885"
    },
    {
      "id": "pt.ine.add.PTCONT.704214",
      "street": "R FLORES",
      "house": "83",
      "postcode": "4750-787",
      "city": "BARCELOS",
      "lon": "-8.619082621782548",
      "lat": "41.54651877806365"
    },
    {
      "id": "pt.ine.add.PTCONT.739986",
      "street": "R S JOAO DEUS",
      "house": "52",
      "postcode": "4750-787",
      "city": "BARCELOS",
      "lon": "-8.620037050194352",
      "lat": "41.54753216290504"
    },
    {
      "id": "pt.ine.add.PTCONT.749123",
      "street": "R S JOÃO",
      "house": "13",
      "postcode": "4750-787",
      "city": "BARCELOS",
      "lon": "-8.620800635034403",
      "lat": "41.54706973640767"
    },
    {
      "id": "pt.ine.add.PTCONT.755187",
      "street": "R S JOÃO",
      "house": "16",
      "postcode": "4750-787",
      "city": "BARCELOS",
      "lon": "-8.619659982086503",
      "lat": "41.546795452493384"
    },
    {
      "id": "pt.ine.add.PTCONT.794172",
      "street": "R S JOÃO DE DEUS",
      "house": "55",
      "postcode": "4750-787",
      "city": "BARCELOS",
      "lon": "-8.619361846296849",
      "lat": "41.54699479580487"
    },
    {
      "id": "pt.ine.add.PTCONT.806149",
      "street": "R S JOÃO DE BRITO",
      "house": "20",
      "postcode": "4750-787",
      "city": "BARCELOS",
      "lon": "-8.620347103642224",
      "lat": "41.54732376362752"
    },
    {
      "id": "pt.ine.add.PTCONT.826033",
      "street": "R FLORES",
      "house": "71",
      "postcode": "4750-777",
      "city": "BARCELOS",
      "lon": "-8.61909359519774",
      "lat": "41.54638367560755"
    },
    {
      "id": "pt.ine.add.PTCONT.830051",
      "street": "R S JOÃO",
      "house": "10",
      "postcode": "4750-787",
      "city": "BARCELOS",
      "lon": "-8.621235543192052",
      "lat": "41.54752708168685"
    },
    {
      "id": "pt.ine.add.PTCONT.841972",
      "street": "R S JOÃO",
      "house": "51",
      "postcode": "4750-787",
      "city": "BARCELOS",
      "lon": "-8.620266183221878",
      "lat": "41.54772027089178"
    }
  ]
}