{
  "data": {
    "distrito": "Castelo Branco",
    "concelho": "Covilhã",
    "freguesia": "Aldeia de São Francisco de Assis",
    "OBJECTID": 472,
    "BGRI2021": "05030200109",
    "DT21": "05",
    "DTMN21": "0503",
    "DTMNFR21": "050302",
    "DTMNFRSEC21": "050302001",
    "SECNUM21": "001",
    "SSNUM21": "09",
    "SECSSNUM21": "00109",
    "OBJECTID_1": 42060,
    "DT": "05",
    "CC": "03",
    "fr": "02",
    "SEC": "001",
    "SS": "09"
  },
  "addresses": [
    {
      "id": "pt.ine.add.PTCONT.952101",
      "street": "TV RUA DIREITA",
      "house": "1",
      "postcode": "6225-028",
      "city": "ALDEIA S FRANCISCO ASSIS",
      "lon": "-7.7350867060791995",
      "lat": "40.14228083890563"
    },
    {
      "id": "pt.ine.add.PTCONT.954960",
      "street": "R SARG A TORGAL",
      "house": "6",
      "postcode": "6225-016",
      "city": "ALDEIA S FRANCISCO ASSIS",
      "lon": "-7.735392434614951",
      "lat": "40.14217381804546"
    },
    {
      "id": "pt.ine.add.PTCONT.960983",
      "street": "TV LOUREIRO",
      "house": "",
      "postcode": "6225-021",
      "city": "ALDEIA S FRANCISCO ASSIS",
      "lon": "-7.7353544475114555",
      "lat": "40.14265100238479"
    },
    {
      "id": "pt.ine.add.PTCONT.969662",
      "street": "TV RUA DIREITA",
      "house": "2",
      "postcode": "6225-028",
      "city": "ALDEIA S FRANCISCO ASSIS",
      "lon": "-7.735133066259987",
      "lat": "40.14238006358088"
    },
    {
      "id": "pt.ine.add.PTCONT.983365",
      "street": "R BARROCO",
      "house": "1",
      "postcode": "6225-021",
      "city": "ALDEIA S FRANCISCO ASSIS",
      "lon": "-7.735610352185163",
      "lat": "40.143039136472844"
    },
    {
      "id": "pt.ine.add.PTCONT.991994",
      "street": "R BARROCO",
      "house": "2",
      "postcode": "6225-021",
      "city": "ALDEIA S FRANCISCO ASSIS",
      "lon": "-7.735598250085103",
      "lat": "40.14310213650246"
    },
    {
      "id": "pt.ine.add.PTCONT.991995",
      "street": "R SODINHO",
      "house": "",
      "postcode": "6225-026",
      "city": "ALDEIA S FRANCISCO ASSIS",
      "lon": "-7.735521986963291",
      "lat": "40.14209320945461"
    },
    {
      "id": "pt.ine.add.PTCONT.993456",
      "street": "TV RUA DIREITA",
      "house": "",
      "postcode": "6225-028",
      "city": "ALDEIA S FRANCISCO ASSIS",
      "lon": "-7.7351560624920275",
      "lat": "40.142461196068275"
    },
    {
      "id": "pt.ine.add.PTCONT.997908",
      "street": "EM 512",
      "house": "",
      "postcode": "6225-012",
      "city": "ALDEIA S FRANCISCO ASSIS",
      "lon": "-7.735763742531924",
      "lat": "40.142895567875804"
    },
    {
      "id": "pt.ine.add.PTCONT.1004090",
      "street": "R DIREITA",
      "house": "1",
      "postcode": "6225-020",
      "city": "ALDEIA S FRANCISCO ASSIS",
      "lon": "-7.735063709988815",
      "lat": "40.14219970640261"
    },
    {
      "id": "pt.ine.add.PTCONT.1007249",
      "street": "EM 512",
      "house": "",
      "postcode": "6225-012",
      "city": "ALDEIA S FRANCISCO ASSIS",
      "lon": "-7.735767624944647",
      "lat": "40.14222914166103"
    },
    {
      "id": "pt.ine.add.PTCONT.1017124",
      "street": "R SARG A TORGAL",
      "house": "13",
      "postcode": "6225-016",
      "city": "ALDEIA S FRANCISCO ASSIS",
      "lon": "-7.735052606151886",
      "lat": "40.14209159695234"
    },
    {
      "id": "pt.ine.add.PTCONT.1023683",
      "street": "R SODINHO",
      "house": "9",
      "postcode": "6225-026",
      "city": "ALDEIA S FRANCISCO ASSIS",
      "lon": "-7.735698319615517",
      "lat": "40.14203977909033"
    },
    {
      "id": "pt.ine.add.PTCONT.1025529",
      "street": "EM 512",
      "house": "29",
      "postcode": "6225-012",
      "city": "ALDEIA S FRANCISCO ASSIS",
      "lon": "-7.735702812847345",
      "lat": "40.143282614163375"
    },
    {
      "id": "pt.ine.add.PTCONT.1027589",
      "street": "R DIREITA",
      "house": "9",
      "postcode": "6225-020",
      "city": "ALDEIA S FRANCISCO ASSIS",
      "lon": "-7.73536502672731",
      "lat": "40.142849169386864"
    },
    {
      "id": "pt.ine.add.PTCONT.1035426",
      "street": "R SODINHO LASA",
      "house": "13",
      "postcode": "6225-026",
      "city": "ALDEIA S FRANCISCO ASSIS",
      "lon": "-7.735346284271644",
      "lat": "40.14203857042937"
    },
    {
      "id": "pt.ine.add.PTCONT.1040206",
      "street": "R SARG A TORGAL",
      "house": "8",
      "postcode": "6225-016",
      "city": "ALDEIA S FRANCISCO ASSIS",
      "lon": "-7.735415431088428",
      "lat": "40.14225495048537"
    },
    {
      "id": "pt.ine.add.PTCONT.1044650",
      "street": "R BARROCO",
      "house": "",
      "postcode": "6225-021",
      "city": "ALDEIA S FRANCISCO ASSIS",
      "lon": "-7.735562731044671",
      "lat": "40.14315605020276"
    },
    {
      "id": "pt.ine.add.PTCONT.1044653",
      "street": "R SARG A TORGAL",
      "house": "S",
      "postcode": "6225-016",
      "city": "ALDEIA S FRANCISCO ASSIS",
      "lon": "-7.735297297709533",
      "lat": "40.142389633821686"
    },
    {
      "id": "pt.ine.add.PTCONT.1045831",
      "street": "R BARROCO",
      "house": "",
      "postcode": "6225-021",
      "city": "ALDEIA S FRANCISCO ASSIS",
      "lon": "-7.735538631683247",
      "lat": "40.14326403873016"
    },
    {
      "id": "pt.ine.add.PTCONT.1050216",
      "street": "R SARG A TORGAL",
      "house": "12",
      "postcode": "6225-016",
      "city": "ALDEIA S FRANCISCO ASSIS",
      "lon": "-7.735251987928106",
      "lat": "40.14211029401792"
    },
    {
      "id": "pt.ine.add.PTCONT.1054349",
      "street": "R SARG A TORGAL",
      "house": "3",
      "postcode": "6225-016",
      "city": "ALDEIA S FRANCISCO ASSIS",
      "lon": "-7.7355441961601725",
      "lat": "40.14230942826934"
    },
    {
      "id": "pt.ine.add.PTCONT.1059480",
      "street": "R SARG A TORGAL",
      "house": "4",
      "postcode": "6225-016",
      "city": "ALDEIA S FRANCISCO ASSIS",
      "lon": "-7.7355799247247035",
      "lat": "40.14221949152491"
    },
    {
      "id": "pt.ine.add.PTCONT.1061758",
      "street": "R DIREITA",
      "house": "",
      "postcode": "6225-020",
      "city": "ALDEIA S FRANCISCO ASSIS",
      "lon": "-7.7351792164052835",
      "lat": "40.14251531127302"
    },
    {
      "id": "pt.ine.add.PTCONT.1065231",
      "street": "TV RUA DIREITA",
      "house": "",
      "postcode": "6225-028",
      "city": "ALDEIA S FRANCISCO ASSIS",
      "lon": "-7.735226942817191",
      "lat": "40.142380386170196"
    },
    {
      "id": "pt.ine.add.PTCONT.1068759",
      "street": "R SARG A TORGAL",
      "house": "11",
      "postcode": "6225-016",
      "city": "ALDEIA S FRANCISCO ASSIS",
      "lon": "-7.735122908173096",
      "lat": "40.14210985046834"
    },
    {
      "id": "pt.ine.add.PTCONT.1069833",
      "street": "EM 512",
      "house": "39",
      "postcode": "6225-012",
      "city": "ALDEIA S FRANCISCO ASSIS",
      "lon": "-7.735694541500996",
      "lat": "40.142688193802634"
    },
    {
      "id": "pt.ine.add.PTCONT.1085655",
      "street": "EM 512",
      "house": "",
      "postcode": "6225-012",
      "city": "ALDEIA S FRANCISCO ASSIS",
      "lon": "-7.735680550378624",
      "lat": "40.14307540117026"
    },
    {
      "id": "pt.ine.add.PTCONT.1093083",
      "street": "R SARG A TORGAL",
      "house": "1",
      "postcode": "6225-016",
      "city": "ALDEIA S FRANCISCO ASSIS",
      "lon": "-7.735626180617667",
      "lat": "40.14233672752678"
    }
  ]
}