{
  "data": {
    "distrito": "Lisboa",
    "concelho": "Arruda dos Vinhos",
    "freguesia": "Cardosas",
    "OBJECTID": 114,
    "BGRI2021": "11020300102",
    "DT21": "11",
    "DTMN21": "1102",
    "DTMNFR21": "110203",
    "DTMNFRSEC21": "110203001",
    "SECNUM21": "001",
    "SSNUM21": "02",
    "SECSSNUM21": "00102",
    "OBJECTID_1": 99592,
    "DT": "11",
    "CC": "02",
    "fr": "03",
    "SEC": "001",
    "SS": "02"
  },
  "addresses": [
    {
      "id": "pt.ine.add.PTCONT.2277774",
      "street": "CSL BOGALHAO",
      "house": "",
      "postcode": "2630-401",
      "city": "CARDOSAS",
      "lon": "-9.040866350854515",
      "lat": "38.9634046013"
    },
    {
      "id": "pt.ine.add.PTCONT.2286727",
      "street": "CSL VÁRZEA",
      "house": "",
      "postcode": "2630-402",
      "city": "CARDOSAS",
      "lon": "-9.044338929875606",
      "lat": "38.96338654509987"
    },
    {
      "id": "pt.ine.add.PTCONT.2372506",
      "street": "CSL BOGALHAO",
      "house": "",
      "postcode": "2630-401",
      "city": "CARDOSAS",
      "lon": "-9.041351685980137",
      "lat": "38.963463878011105"
    },
    {
      "id": "pt.ine.add.PTCONT.2405509",
      "street": "R BAIXA DO LINHO",
      "house": "",
      "postcode": "2630-402",
      "city": "CARDOSAS",
      "lon": "-9.044300053077128",
      "lat": "38.963954325442494"
    },
    {
      "id": "pt.ine.add.PTCONT.2493270",
      "street": "CSL VÁRZEA",
      "house": "",
      "postcode": "2630-402",
      "city": "CARDOSAS",
      "lon": "-9.0440718620162",
      "lat": "38.9632535166498"
    },
    {
      "id": "pt.ine.add.PTCONT.2529522",
      "street": "CSL BICO CHÃO",
      "house": "",
      "postcode": "2630-406",
      "city": "CARDOSAS",
      "lon": "-9.041118735740495",
      "lat": "38.96961785790197"
    },
    {
      "id": "pt.ine.add.PTCONT.2561699",
      "street": "CSL VÁRZEA",
      "house": "",
      "postcode": "2630-402",
      "city": "CARDOSAS",
      "lon": "-9.045302920695248",
      "lat": "38.96388343762798"
    },
    {
      "id": "pt.ine.add.PTCONT.2612669",
      "street": "R BAIXA DO LINHO",
      "house": "",
      "postcode": "2630-402",
      "city": "CARDOSAS",
      "lon": "-9.044932829138858",
      "lat": "38.963814269410065"
    },
    {
      "id": "pt.ine.add.PTCONT.2641270",
      "street": "R BAIXA DO LINHO",
      "house": "",
      "postcode": "2630-402",
      "city": "CARDOSAS",
      "lon": "-9.044244562627998",
      "lat": "38.96412590248803"
    },
    {
      "id": "pt.ine.add.PTCONT.2646761",
      "street": "CSL BICO CHÃO",
      "house": "",
      "postcode": "2630-406",
      "city": "CARDOSAS",
      "lon": "-9.040450023869704",
      "lat": "38.96965908961218"
    },
    {
      "id": "pt.ine.add.PTCONT.2666096",
      "street": "CSL LINHO",
      "house": "",
      "postcode": "2630-402",
      "city": "CARDOSAS",
      "lon": "-9.044792082471412",
      "lat": "38.96363521770527"
    },
    {
      "id": "pt.ine.add.PTCONT.2701586",
      "street": "CSL AZEITÃO",
      "house": "",
      "postcode": "2630-402",
      "city": "CARDOSAS",
      "lon": "-9.04548174464022",
      "lat": "38.96433241800542"
    },
    {
      "id": "pt.ine.add.PTCONT.2719035",
      "street": "CSL BOGALHAO",
      "house": "",
      "postcode": "2630-401",
      "city": "CARDOSAS",
      "lon": "-9.041455168881866",
      "lat": "38.9634360498642"
    },
    {
      "id": "pt.ine.add.PTCONT.2734319",
      "street": "CSL BOGALHAO",
      "house": "",
      "postcode": "2630-401",
      "city": "CARDOSAS",
      "lon": "-9.042264215777028",
      "lat": "38.96354684805581"
    },
    {
      "id": "pt.ine.add.PTCONT.2817552",
      "street": "LINHO",
      "house": "",
      "postcode": "2630-402",
      "city": "CARDOSAS",
      "lon": "-9.045139331002833",
      "lat": "38.963722580038926"
    },
    {
      "id": "pt.ine.add.PTCONT.2850134",
      "street": "R BAIXA DO LINHO",
      "house": "",
      "postcode": "2630-402",
      "city": "CARDOSAS",
      "lon": "-9.045621570041062",
      "lat": "38.96443941551977"
    },
    {
      "id": "pt.ine.add.PTCONT.2990336",
      "street": "CSL VÁRZEA",
      "house": "",
      "postcode": "2630-402",
      "city": "CARDOSAS",
      "lon": "-9.043978878816622",
      "lat": "38.96320019704062"
    },
    {
      "id": "pt.ine.add.PTCONT.3054762",
      "street": "CSL VÁRZEA",
      "house": "",
      "postcode": "2630-402",
      "city": "CARDOSAS",
      "lon": "-9.044875608523823",
      "lat": "38.96385074676241"
    },
    {
      "id": "pt.ine.add.PTCONT.3206843",
      "street": "CSL AZEITÃO",
      "house": "",
      "postcode": "2630-402",
      "city": "CARDOSAS",
      "lon": "-9.045634955453542",
      "lat": "38.96458343190761"
    },
    {
      "id": "pt.ine.add.PTCONT.3213083",
      "street": "CSL BOGALHAO",
      "house": "",
      "postcode": "2630-401",
      "city": "CARDOSAS",
      "lon": "-9.04281948021675",
      "lat": "38.962758862301826"
    },
    {
      "id": "pt.ine.add.PTCONT.3213085",
      "street": "CSL BOGALHAO",
      "house": "",
      "postcode": "2630-401",
      "city": "CARDOSAS",
      "lon": "-9.04163894654562",
      "lat": "38.96337156625488"
    },
    {
      "id": "pt.ine.add.PTCONT.3219989",
      "street": "CSL BICO CHÃO",
      "house": "",
      "postcode": "2630-406",
      "city": "CARDOSAS",
      "lon": "-9.040877714190948",
      "lat": "38.96971881625842"
    },
    {
      "id": "pt.ine.add.PTCONT.3229473",
      "street": "CSL BICO CHÃO",
      "house": "",
      "postcode": "2630-406",
      "city": "CARDOSAS",
      "lon": "-9.040567696974701",
      "lat": "38.96983832580399"
    },
    {
      "id": "pt.ine.add.PTCONT.3247828",
      "street": "CSL BICO CHÃO",
      "house": "",
      "postcode": "2630-406",
      "city": "CARDOSAS",
      "lon": "-9.041441208797636",
      "lat": "38.96957031042548"
    },
    {
      "id": "pt.ine.add.PTCONT.3268402",
      "street": "CSL OUTEIRO",
      "house": "",
      "postcode": "2630-402",
      "city": "CARDOSAS",
      "lon": "-9.042392409416166",
      "lat": "38.96725696661109"
    },
    {
      "id": "pt.ine.add.PTCONT.3342377",
      "street": "CSL OUTEIRO",
      "house": "",
      "postcode": "2630-402",
      "city": "CARDOSAS",
      "lon": "-9.042233769006183",
      "lat": "38.96748339171357"
    },
    {
      "id": "pt.ine.add.PTCONT.3412199",
      "street": "CSL PENCO",
      "house": "",
      "postcode": "2630-402",
      "city": "CARDOSAS",
      "lon": "-9.04124069555695",
      "lat": "38.96651830719147"
    },
    {
      "id": "pt.ine.add.PTCONT.3457295",
      "street": "CSL VELHO",
      "house": "",
      "postcode": "2630-402",
      "city": "CARDOSAS",
      "lon": "-9.040039235277439",
      "lat": "38.96459102387191"
    }
  ]
}