{
  "data": {
    "distrito": "Leiria",
    "concelho": "Caldas da Rainha",
    "freguesia": "Uni찾o das freguesias de Caldas da Rainha - Nossa Senhora do P처pulo, Coto e S찾o Greg처rio",
    "OBJECTID": 1022,
    "BGRI2021": "10061701331",
    "DT21": "10",
    "DTMN21": "1006",
    "DTMNFR21": "100617",
    "DTMNFRSEC21": "100617013",
    "SECNUM21": "013",
    "SSNUM21": "31",
    "SECSSNUM21": "01331",
    "OBJECTID_1": 87778,
    "DT": "10",
    "CC": "06",
    "fr": "17",
    "SEC": "013",
    "SS": "31"
  },
  "addresses": [
    {
      "id": "pt.ine.add.PTCONT.2014654",
      "street": "TV BICA",
      "house": "10",
      "postcode": "2500-434",
      "city": "COTO",
      "lon": "-9.118174541719302",
      "lat": "39.43878859288494"
    },
    {
      "id": "pt.ine.add.PTCONT.2021661",
      "street": "R CARRASCAS",
      "house": "48",
      "postcode": "2500-434",
      "city": "COTO",
      "lon": "-9.120800707226055",
      "lat": "39.43968501529052"
    },
    {
      "id": "pt.ine.add.PTCONT.2078819",
      "street": "TV BICA",
      "house": "9",
      "postcode": "2500-434",
      "city": "COTO",
      "lon": "-9.11894177401455",
      "lat": "39.43800750631671"
    },
    {
      "id": "pt.ine.add.PTCONT.2100457",
      "street": "R PONTE",
      "house": "",
      "postcode": "2500-434",
      "city": "COTO",
      "lon": "-9.118975661440494",
      "lat": "39.43711554451063"
    },
    {
      "id": "pt.ine.add.PTCONT.2166603",
      "street": "R PONTE",
      "house": "5",
      "postcode": "2500-434",
      "city": "COTO",
      "lon": "-9.120603854176451",
      "lat": "39.43561560746223"
    },
    {
      "id": "pt.ine.add.PTCONT.2210940",
      "street": "R PONTE",
      "house": "41",
      "postcode": "2500-434",
      "city": "COTO",
      "lon": "-9.117250176613855",
      "lat": "39.43831005030836"
    },
    {
      "id": "pt.ine.add.PTCONT.2250233",
      "street": "R CARRASCAS",
      "house": "46",
      "postcode": "2500-434",
      "city": "COTO",
      "lon": "-9.120724916077641",
      "lat": "39.43925333202297"
    },
    {
      "id": "pt.ine.add.PTCONT.2256888",
      "street": "R BERRABRAZ",
      "house": "9",
      "postcode": "2500-434",
      "city": "COTO",
      "lon": "-9.119216193737525",
      "lat": "39.43769894831708"
    }
  ]
}