{
  "data": {
    "distrito": "Guarda",
    "concelho": "Pinhel",
    "freguesia": "Pinhel",
    "OBJECTID": 21,
    "BGRI2021": "09101700224",
    "DT21": "09",
    "DTMN21": "0910",
    "DTMNFR21": "091017",
    "DTMNFRSEC21": "091017002",
    "SECNUM21": "002",
    "SSNUM21": "24",
    "SECSSNUM21": "00224",
    "OBJECTID_1": 80240,
    "DT": "09",
    "CC": "10",
    "fr": "17",
    "SEC": "002",
    "SS": "24"
  },
  "addresses": [
    {
      "id": "pt.ine.add.PTCONT.1898877",
      "street": "R TEN BEIRÃO",
      "house": "3",
      "postcode": "6400-328",
      "city": "PINHEL",
      "lon": "-7.064202809129133",
      "lat": "40.77461152648273"
    },
    {
      "id": "pt.ine.add.PTCONT.1899372",
      "street": "LG CAP ROÇADAS",
      "house": "5",
      "postcode": "6400-441",
      "city": "PINHEL",
      "lon": "-7.06411658645838",
      "lat": "40.77481783709995"
    },
    {
      "id": "pt.ine.add.PTCONT.1912043",
      "street": "R DAS LIMAS",
      "house": "10",
      "postcode": "6400-402",
      "city": "PINHEL",
      "lon": "-7.063284808099927",
      "lat": "40.77498121868991"
    },
    {
      "id": "pt.ine.add.PTCONT.1919528",
      "street": "LG LUIS DE CAMÕES",
      "house": "8",
      "postcode": "6400-403",
      "city": "PINHEL",
      "lon": "-7.063233967874685",
      "lat": "40.77519686141757"
    },
    {
      "id": "pt.ine.add.PTCONT.1919529",
      "street": "LG LUIS DE CAMÕES",
      "house": "8",
      "postcode": "6400-403",
      "city": "PINHEL",
      "lon": "-7.063233967874685",
      "lat": "40.77519686141757"
    },
    {
      "id": "pt.ine.add.PTCONT.1924320",
      "street": "R ANTÓNIO JOSÉ DE ALMEIDA",
      "house": "49",
      "postcode": "6400-321",
      "city": "PINHEL",
      "lon": "-7.063026565554898",
      "lat": "40.77483474806222"
    },
    {
      "id": "pt.ine.add.PTCONT.1925284",
      "street": "R ANTÓNIO JOSÉ DE ALMEIDA",
      "house": "41",
      "postcode": "6400-321",
      "city": "PINHEL",
      "lon": "-7.062968504693856",
      "lat": "40.774762171577045"
    },
    {
      "id": "pt.ine.add.PTCONT.1926231",
      "street": "R DAS LIMAS",
      "house": "30",
      "postcode": "6400-402",
      "city": "PINHEL",
      "lon": "-7.063598078479979",
      "lat": "40.77465094679593"
    },
    {
      "id": "pt.ine.add.PTCONT.1926281",
      "street": "PC SACADURA CABRAL",
      "house": "5",
      "postcode": "6400-444",
      "city": "PINHEL",
      "lon": "-7.063128966281922",
      "lat": "40.77509683551688"
    },
    {
      "id": "pt.ine.add.PTCONT.1940793",
      "street": "R TEN BEIRÃO",
      "house": "13",
      "postcode": "6400-328",
      "city": "PINHEL",
      "lon": "-7.064541779480367",
      "lat": "40.77415542346751"
    },
    {
      "id": "pt.ine.add.PTCONT.1944595",
      "street": "R DAS LIMAS",
      "house": "38",
      "postcode": "6400-402",
      "city": "PINHEL",
      "lon": "-7.064199047424665",
      "lat": "40.77410722532031"
    },
    {
      "id": "pt.ine.add.PTCONT.1947738",
      "street": "R GUERRA JUNQUEIRO",
      "house": "9",
      "postcode": "6400-381",
      "city": "PINHEL",
      "lon": "-7.063842601528106",
      "lat": "40.77491435083043"
    },
    {
      "id": "pt.ine.add.PTCONT.1948575",
      "street": "R GUERRA JUNQUEIRO",
      "house": "1",
      "postcode": "6400-381",
      "city": "PINHEL",
      "lon": "-7.063567460595753",
      "lat": "40.77508289122572"
    },
    {
      "id": "pt.ine.add.PTCONT.1952520",
      "street": "R ANTÓNIO JOSÉ DE ALMEIDA",
      "house": "51",
      "postcode": "6400-321",
      "city": "PINHEL",
      "lon": "-7.063084771008267",
      "lat": "40.774898321104175"
    },
    {
      "id": "pt.ine.add.PTCONT.1954497",
      "street": "R ANTÓNIO JOSÉ DE ALMEIDA",
      "house": "29",
      "postcode": "6400-321",
      "city": "PINHEL",
      "lon": "-7.062863793166106",
      "lat": "40.77464413861207"
    },
    {
      "id": "pt.ine.add.PTCONT.1955490",
      "street": "R TEN BEIRÃO",
      "house": "21",
      "postcode": "6400-328",
      "city": "PINHEL",
      "lon": "-7.064592470363221",
      "lat": "40.773948783483064"
    },
    {
      "id": "pt.ine.add.PTCONT.1956359",
      "street": "R DAS LIMAS",
      "house": "28",
      "postcode": "6400-402",
      "city": "PINHEL",
      "lon": "-7.063537995485398",
      "lat": "40.77470441842017"
    },
    {
      "id": "pt.ine.add.PTCONT.1958396",
      "street": "R GUERRA JUNQUEIRO",
      "house": "5",
      "postcode": "6400-381",
      "city": "PINHEL",
      "lon": "-7.063687049592394",
      "lat": "40.77501196159359"
    },
    {
      "id": "pt.ine.add.PTCONT.1959389",
      "street": "LG LUIS DE CAMÕES",
      "house": "6",
      "postcode": "6400-403",
      "city": "PINHEL",
      "lon": "-7.063377388648262",
      "lat": "40.775117148317676"
    },
    {
      "id": "pt.ine.add.PTCONT.1960976",
      "street": "R ANTONIO JOSE DE ALMEIDA",
      "house": "53",
      "postcode": "6400-321",
      "city": "PINHEL",
      "lon": "-7.0632032045663475",
      "lat": "40.77489941929313"
    },
    {
      "id": "pt.ine.add.PTCONT.1960977",
      "street": "R LIMAS",
      "house": "",
      "postcode": "6400-402",
      "city": "PINHEL",
      "lon": "-7.0632032045663475",
      "lat": "40.77489941929313"
    },
    {
      "id": "pt.ine.add.PTCONT.1972251",
      "street": "R DAS LIMAS",
      "house": "18",
      "postcode": "6400-402",
      "city": "PINHEL",
      "lon": "-7.0633209159550505",
      "lat": "40.774945534437215"
    },
    {
      "id": "pt.ine.add.PTCONT.1972252",
      "street": "R DAS LIMAS",
      "house": "18",
      "postcode": "6400-402",
      "city": "PINHEL",
      "lon": "-7.0633209159550505",
      "lat": "40.774945534437215"
    },
    {
      "id": "pt.ine.add.PTCONT.1974252",
      "street": "R GUERRA JUNQUEIRO",
      "house": "13",
      "postcode": "6400-381",
      "city": "PINHEL",
      "lon": "-7.06396161253855",
      "lat": "40.77487943457293"
    },
    {
      "id": "pt.ine.add.PTCONT.1854805",
      "street": "R DAS LIMAS",
      "house": "9",
      "postcode": "6400-402",
      "city": "PINHEL",
      "lon": "-7.063291885601148",
      "lat": "40.77454005133061"
    },
    {
      "id": "pt.ine.add.PTCONT.1860070",
      "street": "R DAS LIMAS",
      "house": "6",
      "postcode": "6400-402",
      "city": "PINHEL",
      "lon": "-7.063236712381761",
      "lat": "40.77502579653652"
    },
    {
      "id": "pt.ine.add.PTCONT.1860131",
      "street": "R DAS LIMAS",
      "house": "28",
      "postcode": "6400-402",
      "city": "PINHEL",
      "lon": "-7.063501743468437",
      "lat": "40.77474910616149"
    },
    {
      "id": "pt.ine.add.PTCONT.1865592",
      "street": "PC SACADURA CABRAL",
      "house": "7",
      "postcode": "6400-444",
      "city": "PINHEL",
      "lon": "-7.063175328655021",
      "lat": "40.77516029869277"
    },
    {
      "id": "pt.ine.add.PTCONT.1866509",
      "street": "R ANTÓNIO JOSÉ DE ALMEIDA",
      "house": "31",
      "postcode": "6400-321",
      "city": "PINHEL",
      "lon": "-7.0629101549790905",
      "lat": "40.774707601892324"
    },
    {
      "id": "pt.ine.add.PTCONT.1866510",
      "street": "R ANTÓNIO JOSÉ DE ALMEIDA",
      "house": "31",
      "postcode": "6400-321",
      "city": "PINHEL",
      "lon": "-7.0629101549790905",
      "lat": "40.774707601892324"
    },
    {
      "id": "pt.ine.add.PTCONT.1885645",
      "street": "R TEN BEIRÃO",
      "house": "19",
      "postcode": "6400-328",
      "city": "PINHEL",
      "lon": "-7.064495849289925",
      "lat": "40.774064950561936"
    },
    {
      "id": "pt.ine.add.PTCONT.1887025",
      "street": "R SERPA PINTO",
      "house": "18",
      "postcode": "6400-451",
      "city": "PINHEL",
      "lon": "-7.063432127677996",
      "lat": "40.77465841328848"
    },
    {
      "id": "pt.ine.add.PTCONT.1889017",
      "street": "R SERPA PINTO",
      "house": "44",
      "postcode": "6400-451",
      "city": "PINHEL",
      "lon": "-7.064293937480964",
      "lat": "40.774099099532926"
    },
    {
      "id": "pt.ine.add.PTCONT.1890313",
      "street": "R SERPA PINTO",
      "house": "36",
      "postcode": "6400-451",
      "city": "PINHEL",
      "lon": "-7.064127555143304",
      "lat": "40.774133577302074"
    },
    {
      "id": "pt.ine.add.PTCONT.1890615",
      "street": "R SERPA PINTO",
      "house": "18",
      "postcode": "6400-451",
      "city": "PINHEL",
      "lon": "-7.063565580950969",
      "lat": "40.77446154572604"
    },
    {
      "id": "pt.ine.add.PTCONT.1894561",
      "street": "R DAS LIMAS",
      "house": "24",
      "postcode": "6400-402",
      "city": "PINHEL",
      "lon": "-7.06336930041575",
      "lat": "40.774882949722425"
    },
    {
      "id": "pt.ine.add.PTCONT.1894562",
      "street": "R DAS LIMAS",
      "house": "24",
      "postcode": "6400-402",
      "city": "PINHEL",
      "lon": "-7.06336930041575",
      "lat": "40.774882949722425"
    }
  ]
}