{
  "data": {
    "distrito": "Braga",
    "concelho": "Barcelos",
    "freguesia": "União das freguesias de Viatodos, Grimancelos, Minhotães e Monte de Fralães",
    "OBJECTID": 423,
    "BGRI2021": "0302FG00306",
    "DT21": "03",
    "DTMN21": "0302",
    "DTMNFR21": "0302FG",
    "DTMNFRSEC21": "0302FG003",
    "SECNUM21": "003",
    "SSNUM21": "06",
    "SECSSNUM21": "00306",
    "OBJECTID_1": 20355,
    "DT": "03",
    "CC": "02",
    "fr": "FG",
    "SEC": "003",
    "SS": "06"
  },
  "addresses": [
    {
      "id": "pt.ine.add.PTCONT.479979",
      "street": "LG LOBAR",
      "house": "71",
      "postcode": "4775-262",
      "city": "VIATODOS",
      "lon": "-8.55823420396469",
      "lat": "41.456802689147494"
    },
    {
      "id": "pt.ine.add.PTCONT.491988",
      "street": "LG LOBAR",
      "house": "41",
      "postcode": "4775-262",
      "city": "VIATODOS",
      "lon": "-8.558163746091992",
      "lat": "41.45701003893084"
    },
    {
      "id": "pt.ine.add.PTCONT.495016",
      "street": "R POCA",
      "house": "S99",
      "postcode": "4775-263",
      "city": "VIATODOS",
      "lon": "-8.55631260073295",
      "lat": "41.455783331193246"
    },
    {
      "id": "pt.ine.add.PTCONT.495017",
      "street": "R POCA",
      "house": "585",
      "postcode": "4775-263",
      "city": "VIATODOS",
      "lon": "-8.556515063576702",
      "lat": "41.45562952005086"
    },
    {
      "id": "pt.ine.add.PTCONT.497717",
      "street": "R ILHA",
      "house": "93",
      "postcode": "4775-263",
      "city": "VIATODOS",
      "lon": "-8.557257203308781",
      "lat": "41.45564479389845"
    },
    {
      "id": "pt.ine.add.PTCONT.503611",
      "street": "R ILHA",
      "house": "106",
      "postcode": "4775-263",
      "city": "VIATODOS",
      "lon": "-8.557473744250164",
      "lat": "41.45581506919827"
    },
    {
      "id": "pt.ine.add.PTCONT.523288",
      "street": "LG LOBAR",
      "house": "61",
      "postcode": "4775-262",
      "city": "VIATODOS",
      "lon": "-8.558103316554721",
      "lat": "41.45692022332273"
    },
    {
      "id": "pt.ine.add.PTCONT.547617",
      "street": "LG LOBAR",
      "house": "9",
      "postcode": "4775-262",
      "city": "VIATODOS",
      "lon": "-8.557949432027607",
      "lat": "41.45718190448219"
    },
    {
      "id": "pt.ine.add.PTCONT.563100",
      "street": "LG LOBAR",
      "house": "101",
      "postcode": "4775-262",
      "city": "VIATODOS",
      "lon": "-8.558376706319795",
      "lat": "41.45663108855412"
    },
    {
      "id": "pt.ine.add.PTCONT.582012",
      "street": "LG LOBAR",
      "house": "135",
      "postcode": "4775-262",
      "city": "VIATODOS",
      "lon": "-8.558650211362293",
      "lat": "41.45635996047475"
    },
    {
      "id": "pt.ine.add.PTCONT.594288",
      "street": "LG MONTELOBAR",
      "house": "64",
      "postcode": "4775-262",
      "city": "VIATODOS",
      "lon": "-8.558750607542418",
      "lat": "41.45707089620606"
    },
    {
      "id": "pt.ine.add.PTCONT.595018",
      "street": "LG LOBAR",
      "house": "44",
      "postcode": "4775-262",
      "city": "VIATODOS",
      "lon": "-8.558535882984",
      "lat": "41.4571797371541"
    },
    {
      "id": "pt.ine.add.PTCONT.612685",
      "street": "R ILHA",
      "house": "80",
      "postcode": "4775-263",
      "city": "VIATODOS",
      "lon": "-8.557211500934319",
      "lat": "41.45597810631808"
    },
    {
      "id": "pt.ine.add.PTCONT.636751",
      "street": "R POCA",
      "house": "773",
      "postcode": "4775-263",
      "city": "VIATODOS",
      "lon": "-8.557541215470483",
      "lat": "41.45698532582064"
    },
    {
      "id": "pt.ine.add.PTCONT.648894",
      "street": "R NSA SRA DA APRESENTACAO",
      "house": "",
      "postcode": "4775-263",
      "city": "VIATODOS",
      "lon": "-8.558070623077214",
      "lat": "41.45557876465139"
    },
    {
      "id": "pt.ine.add.PTCONT.653631",
      "street": "R POCA",
      "house": "",
      "postcode": "4775-263",
      "city": "VIATODOS",
      "lon": "-8.556987505698864",
      "lat": "41.456501157468146"
    },
    {
      "id": "pt.ine.add.PTCONT.672915",
      "street": "R NSA SRA DA APRESENTACAO",
      "house": "60",
      "postcode": "4775-263",
      "city": "VIATODOS",
      "lon": "-8.558794830979908",
      "lat": "41.456512491512356"
    },
    {
      "id": "pt.ine.add.PTCONT.673703",
      "street": "R POCA",
      "house": "727",
      "postcode": "4775-263",
      "city": "VIATODOS",
      "lon": "-8.557216896892179",
      "lat": "41.45680644419767"
    },
    {
      "id": "pt.ine.add.PTCONT.676385",
      "street": "R NSA SRA DA APRESENTACAO",
      "house": "1136",
      "postcode": "4775-263",
      "city": "VIATODOS",
      "lon": "-8.558805268574655",
      "lat": "41.456278351784405"
    },
    {
      "id": "pt.ine.add.PTCONT.680645",
      "street": "R ILHA",
      "house": "8",
      "postcode": "4775-263",
      "city": "VIATODOS",
      "lon": "-8.55639579229069",
      "lat": "41.45569298621264"
    },
    {
      "id": "pt.ine.add.PTCONT.706884",
      "street": "R NSA SRA DA APRESENTACAO",
      "house": "974",
      "postcode": "4775-263",
      "city": "VIATODOS",
      "lon": "-8.55617872800013",
      "lat": "41.45544167578766"
    },
    {
      "id": "pt.ine.add.PTCONT.722344",
      "street": "LG LOBAR",
      "house": "100",
      "postcode": "4775-262",
      "city": "VIATODOS",
      "lon": "-8.559071986114756",
      "lat": "41.456799589998475"
    },
    {
      "id": "pt.ine.add.PTCONT.727880",
      "street": "R ILHA",
      "house": "109",
      "postcode": "4775-263",
      "city": "VIATODOS",
      "lon": "-8.557569078448312",
      "lat": "41.45575169024635"
    },
    {
      "id": "pt.ine.add.PTCONT.742972",
      "street": "R POCA",
      "house": "559",
      "postcode": "4775-263",
      "city": "VIATODOS",
      "lon": "-8.556632226133182",
      "lat": "41.45524192147181"
    },
    {
      "id": "pt.ine.add.PTCONT.757780",
      "street": "R POCA",
      "house": "571",
      "postcode": "4775-263",
      "city": "VIATODOS",
      "lon": "-8.556167579001102",
      "lat": "41.45556777125504"
    },
    {
      "id": "pt.ine.add.PTCONT.766868",
      "street": "R POCA",
      "house": "791",
      "postcode": "4775-263",
      "city": "VIATODOS",
      "lon": "-8.557781404745763",
      "lat": "41.457110493803626"
    },
    {
      "id": "pt.ine.add.PTCONT.769853",
      "street": "R ILHA",
      "house": "32",
      "postcode": "4775-263",
      "city": "VIATODOS",
      "lon": "-8.5568372062204",
      "lat": "41.45547526777988"
    },
    {
      "id": "pt.ine.add.PTCONT.773032",
      "street": "R ILHA",
      "house": "48",
      "postcode": "4775-263",
      "city": "VIATODOS",
      "lon": "-8.55692133440453",
      "lat": "41.45552898121098"
    },
    {
      "id": "pt.ine.add.PTCONT.805396",
      "street": "R FONTAÍNHAS",
      "house": "566",
      "postcode": "4775-263",
      "city": "VIATODOS",
      "lon": "-8.55917940633158",
      "lat": "41.45675417274531"
    },
    {
      "id": "pt.ine.add.PTCONT.809292",
      "street": "R POCA",
      "house": "747",
      "postcode": "4775-263",
      "city": "VIATODOS",
      "lon": "-8.557301027116605",
      "lat": "41.456860157329054"
    },
    {
      "id": "pt.ine.add.PTCONT.812174",
      "street": "R POCA",
      "house": "757",
      "postcode": "4775-263",
      "city": "VIATODOS",
      "lon": "-8.557468877164906",
      "lat": "41.45690455770351"
    },
    {
      "id": "pt.ine.add.PTCONT.819692",
      "street": "R ILHA",
      "house": "104",
      "postcode": "4775-263",
      "city": "VIATODOS",
      "lon": "-8.55735441489858",
      "lat": "41.455869532675905"
    },
    {
      "id": "pt.ine.add.PTCONT.835991",
      "street": "R NSA SRA DA APRESENTACAO",
      "house": "1132",
      "postcode": "4775-263",
      "city": "VIATODOS",
      "lon": "-8.557939620311235",
      "lat": "41.45567829130949"
    }
  ]
}