{
  "data": {
    "distrito": "Leiria",
    "concelho": "Leiria",
    "freguesia": "União das freguesias de Santa Catarina da Serra e Chainça",
    "OBJECTID": 646,
    "BGRI2021": "10093800321",
    "DT21": "10",
    "DTMN21": "1009",
    "DTMNFR21": "100938",
    "DTMNFRSEC21": "100938003",
    "SECNUM21": "003",
    "SSNUM21": "21",
    "SECSSNUM21": "00321",
    "OBJECTID_1": 89758,
    "DT": "10",
    "CC": "09",
    "fr": "38",
    "SEC": "003",
    "SS": "21"
  },
  "addresses": [
    {
      "id": "pt.ine.add.PTCONT.1996445",
      "street": "R MOINHOS",
      "house": "",
      "postcode": "2495-154",
      "city": "SANTA CATARINA DA SERRA",
      "lon": "-8.685983590311505",
      "lat": "39.65943087222068"
    },
    {
      "id": "pt.ine.add.PTCONT.2014852",
      "street": "R PEREGRINO",
      "house": "35",
      "postcode": "2495-149",
      "city": "SANTA CATARINA DA SERRA",
      "lon": "-8.686913611035768",
      "lat": "39.65915624185867"
    },
    {
      "id": "pt.ine.add.PTCONT.2025614",
      "street": "R CASAL DA CABECA",
      "house": "21",
      "postcode": "2495-121",
      "city": "SANTA CATARINA DA SERRA",
      "lon": "-8.68530328750874",
      "lat": "39.65740761184669"
    },
    {
      "id": "pt.ine.add.PTCONT.2031327",
      "street": "TV OUTEIRO",
      "house": "6",
      "postcode": "2495-164",
      "city": "SANTA CATARINA DA SERRA",
      "lon": "-8.685759902719399",
      "lat": "39.6591437239824"
    },
    {
      "id": "pt.ine.add.PTCONT.2033807",
      "street": "R MOINHOS",
      "house": "",
      "postcode": "2495-154",
      "city": "SANTA CATARINA DA SERRA",
      "lon": "-8.685926333803973",
      "lat": "39.65955723786891"
    },
    {
      "id": "pt.ine.add.PTCONT.2035586",
      "street": "R PEREGRINO",
      "house": "29",
      "postcode": "2495-149",
      "city": "SANTA CATARINA DA SERRA",
      "lon": "-8.686904762260033",
      "lat": "39.659507543421675"
    },
    {
      "id": "pt.ine.add.PTCONT.2058939",
      "street": "TV OUTEIRO",
      "house": "10",
      "postcode": "2495-164",
      "city": "SANTA CATARINA DA SERRA",
      "lon": "-8.685246848930232",
      "lat": "39.65910113085859"
    },
    {
      "id": "pt.ine.add.PTCONT.2062457",
      "street": "R PEREGRINO",
      "house": "",
      "postcode": "2495-149",
      "city": "SANTA CATARINA DA SERRA",
      "lon": "-8.686997697998166",
      "lat": "39.65801199612252"
    },
    {
      "id": "pt.ine.add.PTCONT.2082290",
      "street": "R MOINHOS",
      "house": "1",
      "postcode": "2495-154",
      "city": "SANTA CATARINA DA SERRA",
      "lon": "-8.684831524595147",
      "lat": "39.65962549028163"
    },
    {
      "id": "pt.ine.add.PTCONT.2095526",
      "street": "R PEREGRINO",
      "house": "",
      "postcode": "2495-149",
      "city": "SANTA CATARINA DA SERRA",
      "lon": "-8.686773939013621",
      "lat": "39.65771584345426"
    },
    {
      "id": "pt.ine.add.PTCONT.2096835",
      "street": "R MOINHOS",
      "house": "3",
      "postcode": "2495-154",
      "city": "SANTA CATARINA DA SERRA",
      "lon": "-8.685001723701307",
      "lat": "39.659048255988345"
    },
    {
      "id": "pt.ine.add.PTCONT.2106415",
      "street": "R OUTEIRO",
      "house": "",
      "postcode": "2495-147",
      "city": "SANTA CATARINA DA SERRA",
      "lon": "-8.68636545639458",
      "lat": "39.65909580774018"
    },
    {
      "id": "pt.ine.add.PTCONT.2121585",
      "street": "R PEREGRINO",
      "house": "33",
      "postcode": "2495-149",
      "city": "SANTA CATARINA DA SERRA",
      "lon": "-8.686925910164044",
      "lat": "39.65923724306932"
    },
    {
      "id": "pt.ine.add.PTCONT.2140937",
      "street": "R OUTEIRO",
      "house": "24",
      "postcode": "2495-147",
      "city": "SANTA CATARINA DA SERRA",
      "lon": "-8.684299169784758",
      "lat": "39.66008735709294"
    },
    {
      "id": "pt.ine.add.PTCONT.2143360",
      "street": "R PEREGRINO",
      "house": "",
      "postcode": "2495-149",
      "city": "SANTA CATARINA DA SERRA",
      "lon": "-8.687059337135453",
      "lat": "39.658435014806216"
    },
    {
      "id": "pt.ine.add.PTCONT.2189967",
      "street": "R PEREGRINO",
      "house": "31",
      "postcode": "2495-149",
      "city": "SANTA CATARINA DA SERRA",
      "lon": "-8.686903755908213",
      "lat": "39.659381455115266"
    },
    {
      "id": "pt.ine.add.PTCONT.2218043",
      "street": "R OUTEIRO",
      "house": "22",
      "postcode": "2495-147",
      "city": "SANTA CATARINA DA SERRA",
      "lon": "-8.684822593630035",
      "lat": "39.65996778542134"
    },
    {
      "id": "pt.ine.add.PTCONT.2232915",
      "street": "R CASAL DA CABECA",
      "house": "15",
      "postcode": "2495-121",
      "city": "SANTA CATARINA DA SERRA",
      "lon": "-8.685968090311754",
      "lat": "39.65748550914267"
    },
    {
      "id": "pt.ine.add.PTCONT.2257482",
      "street": "R CASAL DA CABECA",
      "house": "23",
      "postcode": "2495-121",
      "city": "SANTA CATARINA DA SERRA",
      "lon": "-8.684790461633447",
      "lat": "39.65739203554412"
    },
    {
      "id": "pt.ine.add.PTCONT.2259678",
      "street": "TV OUTEIRO",
      "house": "14",
      "postcode": "2495-164",
      "city": "SANTA CATARINA DA SERRA",
      "lon": "-8.686180672953203",
      "lat": "39.65930384078359"
    },
    {
      "id": "pt.ine.add.PTCONT.2262048",
      "street": "R MOINHOS",
      "house": "2",
      "postcode": "2495-154",
      "city": "SANTA CATARINA DA SERRA",
      "lon": "-8.685122257661623",
      "lat": "39.6595520556361"
    },
    {
      "id": "pt.ine.add.PTCONT.2265329",
      "street": "R OUTEIRO",
      "house": "",
      "postcode": "2495-147",
      "city": "SANTA CATARINA DA SERRA",
      "lon": "-8.684612923648999",
      "lat": "39.6599777878689"
    },
    {
      "id": "pt.ine.add.PTCONT.2266768",
      "street": "R CASAL DA CABECA",
      "house": "15",
      "postcode": "2495-121",
      "city": "SANTA CATARINA DA SERRA",
      "lon": "-8.686178326806928",
      "lat": "39.65754755479175"
    }
  ]
}