{
  "data": {
    "distrito": "Leiria",
    "concelho": "Leiria",
    "freguesia": "União das freguesias de Santa Catarina da Serra e Chainça",
    "OBJECTID": 2646,
    "BGRI2021": "10093800322",
    "DT21": "10",
    "DTMN21": "1009",
    "DTMNFR21": "100938",
    "DTMNFRSEC21": "100938003",
    "SECNUM21": "003",
    "SSNUM21": "22",
    "SECSSNUM21": "00322",
    "OBJECTID_1": 89759,
    "DT": "10",
    "CC": "09",
    "fr": "38",
    "SEC": "003",
    "SS": "22"
  },
  "addresses": [
    {
      "id": "pt.ine.add.PTCONT.1981635",
      "street": "R VAGE DE BAIXO",
      "house": "4",
      "postcode": "2495-249",
      "city": "CHAINÇA",
      "lon": "-8.712314810485033",
      "lat": "39.660374334825505"
    },
    {
      "id": "pt.ine.add.PTCONT.1983105",
      "street": "R VAGE DE BAIXO",
      "house": "2",
      "postcode": "2495-249",
      "city": "CHAINÇA",
      "lon": "-8.712734670240993",
      "lat": "39.66041727343453"
    },
    {
      "id": "pt.ine.add.PTCONT.1993556",
      "street": "R CHAINHO",
      "house": "67",
      "postcode": "2495-227",
      "city": "CHAINÇA",
      "lon": "-8.710951788608602",
      "lat": "39.66041715077875"
    },
    {
      "id": "pt.ine.add.PTCONT.2010236",
      "street": "R FAIA",
      "house": "19",
      "postcode": "2495-211",
      "city": "CHAINÇA",
      "lon": "-8.713846088826958",
      "lat": "39.66094311325141"
    },
    {
      "id": "pt.ine.add.PTCONT.2083290",
      "street": "R FAIA",
      "house": "15",
      "postcode": "2495-211",
      "city": "CHAINÇA",
      "lon": "-8.71337810917017",
      "lat": "39.660720286288104"
    },
    {
      "id": "pt.ine.add.PTCONT.2111896",
      "street": "R FAIA",
      "house": "11",
      "postcode": "2495-211",
      "city": "CHAINÇA",
      "lon": "-8.712247678007783",
      "lat": "39.66070791532233"
    },
    {
      "id": "pt.ine.add.PTCONT.2162751",
      "street": "R BARRADA",
      "house": "59",
      "postcode": "2495-203",
      "city": "CHAINÇA",
      "lon": "-8.714045009365483",
      "lat": "39.66104119147912"
    },
    {
      "id": "pt.ine.add.PTCONT.2193237",
      "street": "R VAGE",
      "house": "53",
      "postcode": "2495-248",
      "city": "CHAINÇA",
      "lon": "-8.713253206972837",
      "lat": "39.65832514333867"
    }
  ]
}