{
  "data": {
    "distrito": "Leiria",
    "concelho": "Leiria",
    "freguesia": "União das freguesias de Santa Catarina da Serra e Chainça",
    "OBJECTID": 2728,
    "BGRI2021": "10093800326",
    "DT21": "10",
    "DTMN21": "1009",
    "DTMNFR21": "100938",
    "DTMNFRSEC21": "100938003",
    "SECNUM21": "003",
    "SSNUM21": "26",
    "SECSSNUM21": "00326",
    "OBJECTID_1": 89413,
    "DT": "10",
    "CC": "09",
    "fr": "38",
    "SEC": "003",
    "SS": "26"
  },
  "addresses": [
    {
      "id": "pt.ine.add.PTCONT.1989777",
      "street": "R LOURICAL",
      "house": "15",
      "postcode": "2495-229",
      "city": "CHAINÇA",
      "lon": "-8.705832565251587",
      "lat": "39.66138820489585"
    },
    {
      "id": "pt.ine.add.PTCONT.1996552",
      "street": "R VALEIRAS",
      "house": "2",
      "postcode": "2495-218",
      "city": "CHAINÇA",
      "lon": "-8.705172456622947",
      "lat": "39.66188682344724"
    },
    {
      "id": "pt.ine.add.PTCONT.2036764",
      "street": "R LOURICAL",
      "house": "5",
      "postcode": "2495-229",
      "city": "CHAINÇA",
      "lon": "-8.705533315382358",
      "lat": "39.66184001225491"
    },
    {
      "id": "pt.ine.add.PTCONT.2062267",
      "street": "R VALEIRAS",
      "house": "1",
      "postcode": "2495-218",
      "city": "CHAINÇA",
      "lon": "-8.705025427412165",
      "lat": "39.66242794600796"
    },
    {
      "id": "pt.ine.add.PTCONT.2079379",
      "street": "R LOURICAL",
      "house": "7",
      "postcode": "2495-229",
      "city": "CHAINÇA",
      "lon": "-8.705729773970065",
      "lat": "39.66164089770352"
    },
    {
      "id": "pt.ine.add.PTCONT.2088345",
      "street": "R VALEIRAS",
      "house": "3",
      "postcode": "2495-218",
      "city": "CHAINÇA",
      "lon": "-8.705046579679196",
      "lat": "39.66216664926587"
    },
    {
      "id": "pt.ine.add.PTCONT.2169348",
      "street": "R NSA SRA DE FÁTIMA",
      "house": "60",
      "postcode": "2495-219",
      "city": "CHAINÇA",
      "lon": "-8.703029711061788",
      "lat": "39.66205947741904"
    },
    {
      "id": "pt.ine.add.PTCONT.2174404",
      "street": "R LOURICAL",
      "house": "13",
      "postcode": "2495-229",
      "city": "CHAINÇA",
      "lon": "-8.705926826286039",
      "lat": "39.66151383302084"
    },
    {
      "id": "pt.ine.add.PTCONT.2215889",
      "street": "R NSA SRA DE FÁTIMA",
      "house": "42",
      "postcode": "2495-219",
      "city": "CHAINÇA",
      "lon": "-8.704409095989897",
      "lat": "39.6625840922597"
    },
    {
      "id": "pt.ine.add.PTCONT.2267322",
      "street": "R VALEIRAS",
      "house": "5",
      "postcode": "2495-218",
      "city": "CHAINÇA",
      "lon": "-8.704904224355376",
      "lat": "39.66186112440307"
    }
  ]
}