{
  "data": {
    "distrito": "Porto",
    "concelho": "Amarante",
    "freguesia": "Ansiães",
    "OBJECTID": 415,
    "BGRI2021": "13010300121",
    "DT21": "13",
    "DTMN21": "1301",
    "DTMNFR21": "130103",
    "DTMNFRSEC21": "130103001",
    "SECNUM21": "001",
    "SSNUM21": "21",
    "SECSSNUM21": "00121",
    "OBJECTID_1": 125604,
    "DT": "13",
    "CC": "01",
    "fr": "03",
    "SEC": "001",
    "SS": "21"
  },
  "addresses": [
    {
      "id": "pt.ine.add.PTCONT.3572051",
      "street": "R CENTRAL DE ANSIAES",
      "house": "1332",
      "postcode": "4600-520",
      "city": "ANSIÃES",
      "lon": "-7.9498940752266725",
      "lat": "41.247341194702656"
    },
    {
      "id": "pt.ine.add.PTCONT.3649042",
      "street": "CC ESTRADA",
      "house": "5",
      "postcode": "4600-520",
      "city": "ANSIÃES",
      "lon": "-7.947740160457006",
      "lat": "41.24962482420354"
    },
    {
      "id": "pt.ine.add.PTCONT.3666914",
      "street": "R CENTRAL DE ANSIAES",
      "house": "1702",
      "postcode": "4600-520",
      "city": "ANSIÃES",
      "lon": "-7.948132781431723",
      "lat": "41.250012637848776"
    },
    {
      "id": "pt.ine.add.PTCONT.3675932",
      "street": "R EIRO",
      "house": "490",
      "postcode": "4600-520",
      "city": "ANSIÃES",
      "lon": "-7.952044807509166",
      "lat": "41.24615603677982"
    },
    {
      "id": "pt.ine.add.PTCONT.3706729",
      "street": "CC ENXERTADO",
      "house": "110",
      "postcode": "4600-520",
      "city": "ANSIÃES",
      "lon": "-7.951031376549316",
      "lat": "41.24592933259475"
    },
    {
      "id": "pt.ine.add.PTCONT.3734014",
      "street": "R COVAL",
      "house": "259",
      "postcode": "4600-520",
      "city": "ANSIÃES",
      "lon": "-7.945145625145112",
      "lat": "41.251565533058255"
    },
    {
      "id": "pt.ine.add.PTCONT.3734015",
      "street": "R CENTRAL DE ANSIAES",
      "house": "1816",
      "postcode": "4600-520",
      "city": "ANSIÃES",
      "lon": "-7.947536472347339",
      "lat": "41.24993064019054"
    },
    {
      "id": "pt.ine.add.PTCONT.3734016",
      "street": "R CENTRAL DE ANSIAES",
      "house": "1590",
      "postcode": "4600-520",
      "city": "ANSIÃES",
      "lon": "-7.94860183050705",
      "lat": "41.248680763108155"
    },
    {
      "id": "pt.ine.add.PTCONT.3759477",
      "street": "R EIRO",
      "house": "734",
      "postcode": "4600-520",
      "city": "ANSIÃES",
      "lon": "-7.9515678788882616",
      "lat": "41.24605623913615"
    },
    {
      "id": "pt.ine.add.PTCONT.3776814",
      "street": "R CENTRAL DE ANSIAES",
      "house": "1358",
      "postcode": "4600-520",
      "city": "ANSIÃES",
      "lon": "-7.949845876071677",
      "lat": "41.2475121985911"
    },
    {
      "id": "pt.ine.add.PTCONT.3789951",
      "street": "R CENTRAL DE ANSIAES",
      "house": "",
      "postcode": "4600-520",
      "city": "ANSIÃES",
      "lon": "-7.946104345622803",
      "lat": "41.250081395179855"
    },
    {
      "id": "pt.ine.add.PTCONT.3792815",
      "street": "R PORTELA DO COVAL",
      "house": "52",
      "postcode": "4600-520",
      "city": "ANSIÃES",
      "lon": "-7.945098727013771",
      "lat": "41.25127732096479"
    },
    {
      "id": "pt.ine.add.PTCONT.3798524",
      "street": "R PORTELA DO COVAL",
      "house": "66",
      "postcode": "4600-520",
      "city": "ANSIÃES",
      "lon": "-7.945098417241598",
      "lat": "41.2513853712823"
    },
    {
      "id": "pt.ine.add.PTCONT.3798540",
      "street": "R EIRO",
      "house": "778",
      "postcode": "4600-520",
      "city": "ANSIÃES",
      "lon": "-7.952272322867969",
      "lat": "41.24585025002443"
    },
    {
      "id": "pt.ine.add.PTCONT.3824039",
      "street": "CC ENXERTADO",
      "house": "72",
      "postcode": "4600-520",
      "city": "ANSIÃES",
      "lon": "-7.951401007845717",
      "lat": "41.2460019504544"
    },
    {
      "id": "pt.ine.add.PTCONT.3876518",
      "street": "R EIRO",
      "house": "998",
      "postcode": "4600-520",
      "city": "ANSIÃES",
      "lon": "-7.951734102840005",
      "lat": "41.24634463689325"
    },
    {
      "id": "pt.ine.add.PTCONT.3902725",
      "street": "R EIRO",
      "house": "1024",
      "postcode": "4600-520",
      "city": "ANSIÃES",
      "lon": "-7.951340334579375",
      "lat": "41.2463710286845"
    },
    {
      "id": "pt.ine.add.PTCONT.4043654",
      "street": "R CENTRAL DE ANSIAES",
      "house": "1666",
      "postcode": "4600-520",
      "city": "ANSIÃES",
      "lon": "-7.948205254569218",
      "lat": "41.24969760593156"
    },
    {
      "id": "pt.ine.add.PTCONT.4141181",
      "street": "R CENTRAL ANSIAES",
      "house": "1286",
      "postcode": "4600-520",
      "city": "ANSIÃES",
      "lon": "-7.949560128091258",
      "lat": "41.24730464587657"
    },
    {
      "id": "pt.ine.add.PTCONT.4219449",
      "street": "R CENTRAL ANSIAES",
      "house": "1622",
      "postcode": "4600-520",
      "city": "ANSIÃES",
      "lon": "-7.948229979008208",
      "lat": "41.24939150153139"
    },
    {
      "id": "pt.ine.add.PTCONT.4233175",
      "street": "R COVAL",
      "house": "",
      "postcode": "4600-520",
      "city": "ANSIÃES",
      "lon": "-7.946740310360774",
      "lat": "41.24880382446491"
    },
    {
      "id": "pt.ine.add.PTCONT.4240251",
      "street": "R CENTRAL DE ANSIAES",
      "house": "",
      "postcode": "4600-520",
      "city": "ANSIÃES",
      "lon": "-7.9498699379471205",
      "lat": "41.24744020295262"
    },
    {
      "id": "pt.ine.add.PTCONT.4247678",
      "street": "R CENTRAL DE ANSIAES",
      "house": "",
      "postcode": "4600-520",
      "city": "ANSIÃES",
      "lon": "-7.949332267050453",
      "lat": "41.247727481772074"
    },
    {
      "id": "pt.ine.add.PTCONT.4253245",
      "street": "R COVAL",
      "house": "352",
      "postcode": "4600-520",
      "city": "ANSIÃES",
      "lon": "-7.944944269951005",
      "lat": "41.251051962764755"
    },
    {
      "id": "pt.ine.add.PTCONT.4284812",
      "street": "CC ESTRADA",
      "house": "51",
      "postcode": "4600-520",
      "city": "ANSIÃES",
      "lon": "-7.947989663047886",
      "lat": "41.24999439936373"
    },
    {
      "id": "pt.ine.add.PTCONT.4327282",
      "street": "CC ENXERTADO",
      "house": "38",
      "postcode": "4600-520",
      "city": "ANSIÃES",
      "lon": "-7.952320638552537",
      "lat": "41.245634224026794"
    },
    {
      "id": "pt.ine.add.PTCONT.4354247",
      "street": "CC ENXERTADO",
      "house": "87",
      "postcode": "4600-520",
      "city": "ANSIÃES",
      "lon": "-7.9512458923516975",
      "lat": "41.24601070980686"
    },
    {
      "id": "pt.ine.add.PTCONT.4389151",
      "street": "R PORTELA DO COVAL",
      "house": "1O",
      "postcode": "4600-520",
      "city": "ANSIÃES",
      "lon": "-7.944849132491124",
      "lat": "41.25094375642155"
    }
  ]
}