{
  "data": {
    "distrito": "Leiria",
    "concelho": "Caldas da Rainha",
    "freguesia": "União das freguesias de Tornada e Salir do Porto",
    "OBJECTID": 605,
    "BGRI2021": "10061900316",
    "DT21": "10",
    "DTMN21": "1006",
    "DTMNFR21": "100619",
    "DTMNFRSEC21": "100619003",
    "SECNUM21": "003",
    "SSNUM21": "16",
    "SECSSNUM21": "00316",
    "OBJECTID_1": 88385,
    "DT": "10",
    "CC": "06",
    "fr": "19",
    "SEC": "003",
    "SS": "16"
  },
  "addresses": [
    {
      "id": "pt.ine.add.PTCONT.1989051",
      "street": "BC ARROTEIAS",
      "house": "",
      "postcode": "2500-926",
      "city": "CALDAS DA RAINHA",
      "lon": "-9.132514827888834",
      "lat": "39.473378377557665"
    },
    {
      "id": "pt.ine.add.PTCONT.2000246",
      "street": "R POÇO",
      "house": "36",
      "postcode": "2500-926",
      "city": "CALDAS DA RAINHA",
      "lon": "-9.134235605683894",
      "lat": "39.47262502116703"
    },
    {
      "id": "pt.ine.add.PTCONT.2020901",
      "street": "R CACADOR",
      "house": "3",
      "postcode": "2500-926",
      "city": "CALDAS DA RAINHA",
      "lon": "-9.131944036590268",
      "lat": "39.473284207784964"
    },
    {
      "id": "pt.ine.add.PTCONT.2040940",
      "street": "R DOS CORTICOS",
      "house": "6",
      "postcode": "2500-315",
      "city": "CALDAS DA RAINHA",
      "lon": "-9.135044215707117",
      "lat": "39.47309541433501"
    },
    {
      "id": "pt.ine.add.PTCONT.2061785",
      "street": "R CACADOR",
      "house": "11",
      "postcode": "2500-926",
      "city": "CALDAS DA RAINHA",
      "lon": "-9.129615250571325",
      "lat": "39.47378154672891"
    },
    {
      "id": "pt.ine.add.PTCONT.2067354",
      "street": "R CORTICOS",
      "house": "",
      "postcode": "2500-304",
      "city": "CALDAS DA RAINHA",
      "lon": "-9.134852356860678",
      "lat": "39.47268275676277"
    },
    {
      "id": "pt.ine.add.PTCONT.2095319",
      "street": "BC ARROTEIAS",
      "house": "1",
      "postcode": "2500-926",
      "city": "CALDAS DA RAINHA",
      "lon": "-9.132255454252833",
      "lat": "39.47311941073022"
    },
    {
      "id": "pt.ine.add.PTCONT.2103914",
      "street": "R MOINHO",
      "house": "19",
      "postcode": "2500-304",
      "city": "CALDAS DA RAINHA",
      "lon": "-9.12933881204953",
      "lat": "39.47395504380024"
    },
    {
      "id": "pt.ine.add.PTCONT.2103915",
      "street": "R MOINHO",
      "house": "33",
      "postcode": "2500-304",
      "city": "CALDAS DA RAINHA",
      "lon": "-9.12933881204953",
      "lat": "39.47395504380024"
    },
    {
      "id": "pt.ine.add.PTCONT.2126506",
      "street": "R CAMAROTOS",
      "house": "51",
      "postcode": "2500-304",
      "city": "CALDAS DA RAINHA",
      "lon": "-9.136334770835159",
      "lat": "39.472327719745195"
    },
    {
      "id": "pt.ine.add.PTCONT.2180919",
      "street": "R CAMAROTOS",
      "house": "",
      "postcode": "2500-304",
      "city": "CALDAS DA RAINHA",
      "lon": "-9.140005100696474",
      "lat": "39.47138631335275"
    },
    {
      "id": "pt.ine.add.PTCONT.2190482",
      "street": "R POÇO",
      "house": "32",
      "postcode": "2500-926",
      "city": "CALDAS DA RAINHA",
      "lon": "-9.133830462514624",
      "lat": "39.47273658965389"
    },
    {
      "id": "pt.ine.add.PTCONT.2212416",
      "street": "R CORTIÇOS",
      "house": "",
      "postcode": "2500-304",
      "city": "CALDAS DA RAINHA",
      "lon": "-9.134677027271382",
      "lat": "39.47261221307374"
    },
    {
      "id": "pt.ine.add.PTCONT.2216669",
      "street": "BC ARROTEIAS",
      "house": "5",
      "postcode": "2500-926",
      "city": "CALDAS DA RAINHA",
      "lon": "-9.132956512530841",
      "lat": "39.473383587222116"
    },
    {
      "id": "pt.ine.add.PTCONT.2221109",
      "street": "R CAMAROTOS",
      "house": "15",
      "postcode": "2500-304",
      "city": "CALDAS DA RAINHA",
      "lon": "-9.138715202802107",
      "lat": "39.47138846898694"
    },
    {
      "id": "pt.ine.add.PTCONT.2231492",
      "street": "R CACADOR",
      "house": "5",
      "postcode": "2500-926",
      "city": "CALDAS DA RAINHA",
      "lon": "-9.131372088333476",
      "lat": "39.47310898435194"
    }
  ]
}