{
  "data": {
    "distrito": "Vila Real",
    "concelho": "Chaves",
    "freguesia": "Uni√£o das freguesias de Santa Cruz/Trindade e Sanjurge",
    "OBJECTID": 1781,
    "BGRI2021": "17035800324",
    "DT21": "17",
    "DTMN21": "1703",
    "DTMNFR21": "170358",
    "DTMNFRSEC21": "170358003",
    "SECNUM21": "003",
    "SSNUM21": "24",
    "SECSSNUM21": "00324",
    "OBJECTID_1": 181374,
    "DT": "17",
    "CC": "03",
    "fr": "58",
    "SEC": "003",
    "SS": "24"
  },
  "addresses": [
    {
      "id": "pt.ine.add.PTCONT.5353140",
      "street": "R DE VALONGO",
      "house": "4",
      "postcode": "5400-559",
      "city": "SANTA CRUZ-TRINDADE",
      "lon": "-7.4751936106729655",
      "lat": "41.76025396498752"
    },
    {
      "id": "pt.ine.add.PTCONT.5371388",
      "street": "R MADRE MARIA AQUINO",
      "house": "32",
      "postcode": "5400-379",
      "city": "SANTA CRUZ-TRINDADE",
      "lon": "-7.476936000597482",
      "lat": "41.76037196981977"
    },
    {
      "id": "pt.ine.add.PTCONT.5395960",
      "street": "R DE VALONGO",
      "house": "",
      "postcode": "5400-379",
      "city": "SANTA CRUZ-TRINDADE",
      "lon": "-7.475783249524028",
      "lat": "41.76021232308821"
    },
    {
      "id": "pt.ine.add.PTCONT.5397096",
      "street": "R DE VALONGO",
      "house": "10",
      "postcode": "5400-379",
      "city": "SANTA CRUZ-TRINDADE",
      "lon": "-7.476158933913874",
      "lat": "41.75992636386458"
    },
    {
      "id": "pt.ine.add.PTCONT.5412194",
      "street": "R MADRE MARIA AQUINO",
      "house": "28",
      "postcode": "5400-379",
      "city": "SANTA CRUZ-TRINDADE",
      "lon": "-7.4768917565926225",
      "lat": "41.75999357539546"
    },
    {
      "id": "pt.ine.add.PTCONT.5412195",
      "street": "R DE VALONGO",
      "house": "12",
      "postcode": "5400-379",
      "city": "SANTA CRUZ-TRINDADE",
      "lon": "-7.476556093368303",
      "lat": "41.75989262061691"
    },
    {
      "id": "pt.ine.add.PTCONT.5424162",
      "street": "R DE VALONGO",
      "house": "14",
      "postcode": "5400-559",
      "city": "SANTA CRUZ-TRINDADE",
      "lon": "-7.4768816587642615",
      "lat": "41.75980444684653"
    },
    {
      "id": "pt.ine.add.PTCONT.5426081",
      "street": "R MADRE MARIA AQUINO",
      "house": "34",
      "postcode": "5400-379",
      "city": "SANTA CRUZ-TRINDADE",
      "lon": "-7.476994286887924",
      "lat": "41.76055237017146"
    },
    {
      "id": "pt.ine.add.PTCONT.5426840",
      "street": "R DO ALTO DO VALONGO",
      "house": "19",
      "postcode": "5400-046",
      "city": "SANTA CRUZ-TRINDADE",
      "lon": "-7.477028250054749",
      "lat": "41.76075964171725"
    }
  ]
}