{
  "data": {
    "distrito": "Aveiro",
    "concelho": "Águeda",
    "freguesia": "União das freguesias de Barrô e Aguada de Baixo",
    "OBJECTID": 459,
    "BGRI2021": "01012200104",
    "DT21": "01",
    "DTMN21": "0101",
    "DTMNFR21": "010122",
    "DTMNFRSEC21": "010122001",
    "SECNUM21": "001",
    "SSNUM21": "04",
    "SECSSNUM21": "00104",
    "OBJECTID_1": 56,
    "DT": "01",
    "CC": "01",
    "fr": "22",
    "SEC": "001",
    "SS": "04"
  },
  "addresses": [
    {
      "id": "pt.ine.add.PTCONT.307551",
      "street": "R PÓVOA DO NASCIDO",
      "house": "",
      "postcode": "3750-031",
      "city": "AGUADA DE BAIXO",
      "lon": "-8.453819520947137",
      "lat": "40.50493596020619"
    },
    {
      "id": "pt.ine.add.PTCONT.321575",
      "street": "R PÓVOA DO NASCIDO",
      "house": "",
      "postcode": "3750-031",
      "city": "AGUADA DE BAIXO",
      "lon": "-8.45470322389161",
      "lat": "40.50469936431697"
    },
    {
      "id": "pt.ine.add.PTCONT.330481",
      "street": "TV PÓVOA DO NASCIDO",
      "house": "29",
      "postcode": "3750-031",
      "city": "AGUADA DE BAIXO",
      "lon": "-8.454122180409014",
      "lat": "40.504079607923224"
    },
    {
      "id": "pt.ine.add.PTCONT.339738",
      "street": "",
      "house": "",
      "postcode": "3750-031",
      "city": "AGUADA DE BAIXO",
      "lon": "-8.453095586779446",
      "lat": "40.50403742804214"
    },
    {
      "id": "pt.ine.add.PTCONT.1111",
      "street": "TV PÓVOA DO NASCIDO",
      "house": "17",
      "postcode": "3750-031",
      "city": "AGUADA DE BAIXO",
      "lon": "-8.453969457008403",
      "lat": "40.50421511289554"
    },
    {
      "id": "pt.ine.add.PTCONT.63955",
      "street": "R DR PRIOR CURA RACHÃO",
      "house": "",
      "postcode": "3750-031",
      "city": "AGUADA DE BAIXO",
      "lon": "-8.453820162431532",
      "lat": "40.50754752048208"
    },
    {
      "id": "pt.ine.add.PTCONT.67671",
      "street": "R ALTO DA PÓVOA",
      "house": "8",
      "postcode": "3750-031",
      "city": "AGUADA DE BAIXO",
      "lon": "-8.452917006934484",
      "lat": "40.5061812047823"
    },
    {
      "id": "pt.ine.add.PTCONT.67672",
      "street": "R PÓVOA DO NASCIDO",
      "house": "33",
      "postcode": "3750-031",
      "city": "AGUADA DE BAIXO",
      "lon": "-8.454089749995774",
      "lat": "40.5047010698606"
    },
    {
      "id": "pt.ine.add.PTCONT.69069",
      "street": "R DR PRIOR CURA RACHAO",
      "house": "120",
      "postcode": "3750-031",
      "city": "AGUADA DE BAIXO",
      "lon": "-8.453721360923065",
      "lat": "40.50662023996796"
    },
    {
      "id": "pt.ine.add.PTCONT.102381",
      "street": "R ALTO DA PÓVOA",
      "house": "4",
      "postcode": "3750-031",
      "city": "AGUADA DE BAIXO",
      "lon": "-8.453154504643953",
      "lat": "40.5065047412046"
    },
    {
      "id": "pt.ine.add.PTCONT.107417",
      "street": "R ALTO DA PÓVOA",
      "house": "49",
      "postcode": "3750-031",
      "city": "AGUADA DE BAIXO",
      "lon": "-8.453118325759817",
      "lat": "40.50385725727706"
    },
    {
      "id": "pt.ine.add.PTCONT.141089",
      "street": "R PÓVOA DO NASCIDO",
      "house": "5",
      "postcode": "3750-031",
      "city": "AGUADA DE BAIXO",
      "lon": "-8.453309953737993",
      "lat": "40.50446008759847"
    },
    {
      "id": "pt.ine.add.PTCONT.148892",
      "street": "R ALTO DA PÓVOA",
      "house": "22",
      "postcode": "3750-031",
      "city": "AGUADA DE BAIXO",
      "lon": "-8.452977997180708",
      "lat": "40.50411880208204"
    },
    {
      "id": "pt.ine.add.PTCONT.172149",
      "street": "R RIBEIRA",
      "house": "13",
      "postcode": "3750-031",
      "city": "AGUADA DE BAIXO",
      "lon": "-8.454184013162376",
      "lat": "40.507150273228625"
    },
    {
      "id": "pt.ine.add.PTCONT.202820",
      "street": "R PÓVOA DO NASCIDO",
      "house": "3",
      "postcode": "3750-031",
      "city": "AGUADA DE BAIXO",
      "lon": "-8.452932047681776",
      "lat": "40.504380085553784"
    },
    {
      "id": "pt.ine.add.PTCONT.224829",
      "street": "R PÓVOA DO NASCIDO",
      "house": "31",
      "postcode": "3750-031",
      "city": "AGUADA DE BAIXO",
      "lon": "-8.453817933948155",
      "lat": "40.50460276522862"
    },
    {
      "id": "pt.ine.add.PTCONT.286784",
      "street": "R ALTO DA PÓVOA",
      "house": "10",
      "postcode": "3750-031",
      "city": "AGUADA DE BAIXO",
      "lon": "-8.452833267504637",
      "lat": "40.50593829104497"
    }
  ]
}