{
  "data": {
    "distrito": "Set√∫bal",
    "concelho": "Palmela",
    "freguesia": "Palmela",
    "OBJECTID": 503,
    "BGRI2021": "15080200507",
    "DT21": "15",
    "DTMN21": "1508",
    "DTMNFR21": "150802",
    "DTMNFRSEC21": "150802005",
    "SECNUM21": "005",
    "SSNUM21": "07",
    "SECSSNUM21": "00507",
    "OBJECTID_1": 165134,
    "DT": "15",
    "CC": "08",
    "fr": "02",
    "SEC": "005",
    "SS": "07"
  },
  "addresses": [
    {
      "id": "pt.ine.add.PTCONT.4664311",
      "street": "R GEN AMILCAR MOTA",
      "house": "28",
      "postcode": "2950-212",
      "city": "PALMELA",
      "lon": "-8.900764130571694",
      "lat": "38.56927715616584"
    },
    {
      "id": "pt.ine.add.PTCONT.4689527",
      "street": "R AUGUSTO CARDOSO",
      "house": "89",
      "postcode": "2950-214",
      "city": "PALMELA",
      "lon": "-8.901292105599598",
      "lat": "38.56929170883357"
    },
    {
      "id": "pt.ine.add.PTCONT.4722295",
      "street": "R AUGUSTO CARDOSO",
      "house": "95",
      "postcode": "2950-214",
      "city": "PALMELA",
      "lon": "-8.901279864762017",
      "lat": "38.56921972327656"
    },
    {
      "id": "pt.ine.add.PTCONT.4748173",
      "street": "R AUGUSTO CARDOSO",
      "house": "75",
      "postcode": "2950-214",
      "city": "PALMELA",
      "lon": "-8.901421672162309",
      "lat": "38.569606146700586"
    },
    {
      "id": "pt.ine.add.PTCONT.4758986",
      "street": "R SERPA PINTO",
      "house": "63",
      "postcode": "2950-218",
      "city": "PALMELA",
      "lon": "-8.901267911677328",
      "lat": "38.56917476053835"
    },
    {
      "id": "pt.ine.add.PTCONT.4769749",
      "street": "R GEN AMILCAR MOTA",
      "house": "18",
      "postcode": "2950-212",
      "city": "PALMELA",
      "lon": "-8.90109329017618",
      "lat": "38.56948633020014"
    },
    {
      "id": "pt.ine.add.PTCONT.4773228",
      "street": "R GEN AMILCAR MOTA",
      "house": "32",
      "postcode": "2950-212",
      "city": "PALMELA",
      "lon": "-8.900695864306563",
      "lat": "38.569331653275114"
    },
    {
      "id": "pt.ine.add.PTCONT.4806033",
      "street": "R SERPA PINTO",
      "house": "79",
      "postcode": "2950-218",
      "city": "PALMELA",
      "lon": "-8.901070943952554",
      "lat": "38.56899588825758"
    },
    {
      "id": "pt.ine.add.PTCONT.4813019",
      "street": "R SERPA PINTO",
      "house": "73",
      "postcode": "2950-218",
      "city": "PALMELA",
      "lon": "-8.901186350272562",
      "lat": "38.569058188688544"
    },
    {
      "id": "pt.ine.add.PTCONT.4836175",
      "street": "R SERPA PINTO",
      "house": "8S",
      "postcode": "2950-218",
      "city": "PALMELA",
      "lon": "-8.900934028845146",
      "lat": "38.56906885235813"
    },
    {
      "id": "pt.ine.add.PTCONT.4868238",
      "street": "R SERPA PINTO",
      "house": "69",
      "postcode": "2950-218",
      "city": "PALMELA",
      "lon": "-8.901198495086545",
      "lat": "38.569121166651286"
    },
    {
      "id": "pt.ine.add.PTCONT.4868239",
      "street": "R AUGUSTO CARDOSO",
      "house": "83",
      "postcode": "2950-214",
      "city": "PALMELA",
      "lon": "-8.901385045087867",
      "lat": "38.5693991976867"
    },
    {
      "id": "pt.ine.add.PTCONT.4896942",
      "street": "R SERPA PINTO",
      "house": "75",
      "postcode": "2950-218",
      "city": "PALMELA",
      "lon": "-8.901117221524549",
      "lat": "38.56903161757305"
    },
    {
      "id": "pt.ine.add.PTCONT.4899336",
      "street": "R SERPA PINTO",
      "house": "75",
      "postcode": "2950-218",
      "city": "PALMELA",
      "lon": "-8.901117221524549",
      "lat": "38.56903161757305"
    },
    {
      "id": "pt.ine.add.PTCONT.4915049",
      "street": "R GEN AMILCAR MOTA",
      "house": "20",
      "postcode": "2950-212",
      "city": "PALMELA",
      "lon": "-8.901006992630892",
      "lat": "38.56945572787941"
    },
    {
      "id": "pt.ine.add.PTCONT.4954388",
      "street": "TV BRAZAO",
      "house": "8",
      "postcode": "2950-219",
      "city": "PALMELA",
      "lon": "-8.900783818811956",
      "lat": "38.56897074699332"
    },
    {
      "id": "pt.ine.add.PTCONT.4972498",
      "street": "TV BRAZAO",
      "house": "6",
      "postcode": "2950-219",
      "city": "PALMELA",
      "lon": "-8.900761542728816",
      "lat": "38.56903395074628"
    },
    {
      "id": "pt.ine.add.PTCONT.4978463",
      "street": "R GEN AMILCAR MOTA",
      "house": "26",
      "postcode": "2950-212",
      "city": "PALMELA",
      "lon": "-8.900776754300146",
      "lat": "38.56938517221239"
    },
    {
      "id": "pt.ine.add.PTCONT.5004924",
      "street": "R AUGUSTO CARDOSO",
      "house": "85",
      "postcode": "2950-214",
      "city": "PALMELA",
      "lon": "-8.901327581336917",
      "lat": "38.56939056660574"
    },
    {
      "id": "pt.ine.add.PTCONT.5034646",
      "street": "LG PASSO DA FORMIGA",
      "house": "6",
      "postcode": "2950-213",
      "city": "PALMELA",
      "lon": "-8.901468621853425",
      "lat": "38.56970492910874"
    },
    {
      "id": "pt.ine.add.PTCONT.5045682",
      "street": "TV BRAZAO",
      "house": "14",
      "postcode": "2950-219",
      "city": "PALMELA",
      "lon": "-8.900897786913385",
      "lat": "38.56889793358855"
    },
    {
      "id": "pt.ine.add.PTCONT.5088989",
      "street": "R SERPA PINTO",
      "house": "65",
      "postcode": "2950-218",
      "city": "PALMELA",
      "lon": "-8.901255958607988",
      "lat": "38.56912979779838"
    },
    {
      "id": "pt.ine.add.PTCONT.5092682",
      "street": "R AUGUSTO CARDOSO",
      "house": "71",
      "postcode": "2950-214",
      "city": "PALMELA",
      "lon": "-8.901537079764523",
      "lat": "38.56966844676603"
    },
    {
      "id": "pt.ine.add.PTCONT.5095908",
      "street": "LG PASSO DA FORMIGA",
      "house": "4",
      "postcode": "2950-213",
      "city": "PALMELA",
      "lon": "-8.901434872531418",
      "lat": "38.56976820829426"
    },
    {
      "id": "pt.ine.add.PTCONT.5114302",
      "street": "R AUGUSTO CARDOSO",
      "house": "87",
      "postcode": "2950-214",
      "city": "PALMELA",
      "lon": "-8.901258548126371",
      "lat": "38.56937300318575"
    },
    {
      "id": "pt.ine.add.PTCONT.5117590",
      "street": "R AUGUSTO CARDOSO",
      "house": "93",
      "postcode": "2950-214",
      "city": "PALMELA",
      "lon": "-8.901222592973385",
      "lat": "38.569229107356236"
    }
  ]
}