{
  "data": {
    "distrito": "Coimbra",
    "concelho": "Mira",
    "freguesia": "Praia de Mira",
    "OBJECTID": 158,
    "BGRI2021": "06080400519",
    "DT21": "06",
    "DTMN21": "0608",
    "DTMNFR21": "060804",
    "DTMNFRSEC21": "060804005",
    "SECNUM21": "005",
    "SSNUM21": "19",
    "SECSSNUM21": "00519",
    "OBJECTID_1": 53202,
    "DT": "06",
    "CC": "08",
    "fr": "04",
    "SEC": "005",
    "SS": "19"
  },
  "addresses": [
    {
      "id": "pt.ine.add.PTCONT.1103265",
      "street": "R DAS ORQUÍDIAS",
      "house": "C33",
      "postcode": "3070-745",
      "city": "PRAIA DE MIRA",
      "lon": "-8.79008040838994",
      "lat": "40.43737811835785"
    },
    {
      "id": "pt.ine.add.PTCONT.1111396",
      "street": "R DAS ORQUÍDIAS",
      "house": "C37",
      "postcode": "3070-745",
      "city": "PRAIA DE MIRA",
      "lon": "-8.789841725083829",
      "lat": "40.437073290207394"
    },
    {
      "id": "pt.ine.add.PTCONT.1111397",
      "street": "R DAS ORQUÍDIAS",
      "house": "C24",
      "postcode": "3070-745",
      "city": "PRAIA DE MIRA",
      "lon": "-8.788947015623425",
      "lat": "40.43717742912328"
    },
    {
      "id": "pt.ine.add.PTCONT.1123779",
      "street": "R DAS ORQUÍDIAS",
      "house": "C34",
      "postcode": "3070-745",
      "city": "PRAIA DE MIRA",
      "lon": "-8.790022972325664",
      "lat": "40.43753153690849"
    },
    {
      "id": "pt.ine.add.PTCONT.1130122",
      "street": "R DAS ORQUÍDIAS",
      "house": "C43",
      "postcode": "3070-745",
      "city": "PRAIA DE MIRA",
      "lon": "-8.789881243574335",
      "lat": "40.43871205222198"
    },
    {
      "id": "pt.ine.add.PTCONT.1130535",
      "street": "AV DA BARRINHA",
      "house": "",
      "postcode": "3070-792",
      "city": "PRAIA DE MIRA",
      "lon": "-8.79691065388571",
      "lat": "40.44400310703602"
    },
    {
      "id": "pt.ine.add.PTCONT.1134411",
      "street": "R DAS ORQUÍDIAS",
      "house": "C46",
      "postcode": "3070-745",
      "city": "PRAIA DE MIRA",
      "lon": "-8.789742884713274",
      "lat": "40.43902802785795"
    },
    {
      "id": "pt.ine.add.PTCONT.1134412",
      "street": "R DAS ORQUÍDIAS",
      "house": "C38",
      "postcode": "3070-745",
      "city": "PRAIA DE MIRA",
      "lon": "-8.789897453333865",
      "lat": "40.43795550486885"
    },
    {
      "id": "pt.ine.add.PTCONT.1137556",
      "street": "R DAS ORQUÍDIAS",
      "house": "C-29",
      "postcode": "3070-745",
      "city": "PRAIA DE MIRA",
      "lon": "-8.789594061622582",
      "lat": "40.43705668604502"
    },
    {
      "id": "pt.ine.add.PTCONT.1144243",
      "street": "R DAS ORQUÍDIAS",
      "house": "C28",
      "postcode": "3070-745",
      "city": "PRAIA DE MIRA",
      "lon": "-8.78948782009054",
      "lat": "40.43703927847024"
    },
    {
      "id": "pt.ine.add.PTCONT.1150628",
      "street": "R DAS ORQUÍDIAS",
      "house": "C25",
      "postcode": "3070-745",
      "city": "PRAIA DE MIRA",
      "lon": "-8.78902942434445",
      "lat": "40.43716795615561"
    },
    {
      "id": "pt.ine.add.PTCONT.1165873",
      "street": "R DAS ORQUÍDIAS",
      "house": "C26",
      "postcode": "3070-745",
      "city": "PRAIA DE MIRA",
      "lon": "-8.78911174551809",
      "lat": "40.43714947820418"
    },
    {
      "id": "pt.ine.add.PTCONT.1172481",
      "street": "R DAS ORQUÍDIAS",
      "house": "C36",
      "postcode": "3070-745",
      "city": "PRAIA DE MIRA",
      "lon": "-8.790036159930873",
      "lat": "40.437675548703226"
    },
    {
      "id": "pt.ine.add.PTCONT.1184307",
      "street": "R DAS ORQUÍDIAS",
      "house": "C35",
      "postcode": "3070-745",
      "city": "PRAIA DE MIRA",
      "lon": "-8.790023673496611",
      "lat": "40.43760357629136"
    },
    {
      "id": "pt.ine.add.PTCONT.1208392",
      "street": "AV DAS LARANJEIRAS",
      "house": "C1",
      "postcode": "3070-742",
      "city": "PRAIA DE MIRA",
      "lon": "-8.788980327766895",
      "lat": "40.4393925734789"
    },
    {
      "id": "pt.ine.add.PTCONT.1208393",
      "street": "R DAS ORQUÍDIAS",
      "house": "C39",
      "postcode": "3070-745",
      "city": "PRAIA DE MIRA",
      "lon": "-8.78991002733655",
      "lat": "40.43803648221288"
    },
    {
      "id": "pt.ine.add.PTCONT.1244939",
      "street": "R DAS ORQUÍDIAS",
      "house": "C37",
      "postcode": "3070-745",
      "city": "PRAIA DE MIRA",
      "lon": "-8.7900372117147",
      "lat": "40.4377836077742"
    },
    {
      "id": "pt.ine.add.PTCONT.1246693",
      "street": "R DAS ORQUÍDIAS",
      "house": "C47",
      "postcode": "3070-745",
      "city": "PRAIA DE MIRA",
      "lon": "-8.789719926991193",
      "lat": "40.43909119618837"
    },
    {
      "id": "pt.ine.add.PTCONT.1264015",
      "street": "R DAS ORQUÍDIAS",
      "house": "C27",
      "postcode": "3070-745",
      "city": "PRAIA DE MIRA",
      "lon": "-8.789194066645933",
      "lat": "40.43713100019441"
    },
    {
      "id": "pt.ine.add.PTCONT.1287652",
      "street": "R DAS ORQUÍDIAS",
      "house": "C32",
      "postcode": "3070-745",
      "city": "PRAIA DE MIRA",
      "lon": "-8.790056049121723",
      "lat": "40.43729720799664"
    },
    {
      "id": "pt.ine.add.PTCONT.1294875",
      "street": "R DAS ORQUÍDIAS",
      "house": "C45",
      "postcode": "3070-745",
      "city": "PRAIA DE MIRA",
      "lon": "-8.789765842393106",
      "lat": "40.43896485952259"
    },
    {
      "id": "pt.ine.add.PTCONT.1316272",
      "street": "AV LARANJEIRAS",
      "house": "C2",
      "postcode": "3070-742",
      "city": "PRAIA DE MIRA",
      "lon": "-8.788942783386396",
      "lat": "40.43916765101644"
    },
    {
      "id": "pt.ine.add.PTCONT.1335598",
      "street": "R DAS ORQUÍDIAS",
      "house": "C30",
      "postcode": "3070-745",
      "city": "PRAIA DE MIRA",
      "lon": "-8.789700215606448",
      "lat": "40.43706508859746"
    },
    {
      "id": "pt.ine.add.PTCONT.1359464",
      "street": "R DAS ORQUÍDIAS",
      "house": "C42",
      "postcode": "3070-745",
      "city": "PRAIA DE MIRA",
      "lon": "-8.789939644952268",
      "lat": "40.43865768789779"
    },
    {
      "id": "pt.ine.add.PTCONT.1360319",
      "street": "R DAS ORQUÍDEAS",
      "house": "C44",
      "postcode": "3070-745",
      "city": "PRAIA DE MIRA",
      "lon": "-8.789823805961506",
      "lat": "40.43886547065088"
    }
  ]
}