{
  "data": {
    "distrito": "Évora",
    "concelho": "Mourão",
    "freguesia": "Granja",
    "OBJECTID": 145,
    "BGRI2021": "07080100118",
    "DT21": "07",
    "DTMN21": "0708",
    "DTMNFR21": "070801",
    "DTMNFRSEC21": "070801001",
    "SECNUM21": "001",
    "SSNUM21": "18",
    "SECSSNUM21": "00118",
    "OBJECTID_1": 62320,
    "DT": "07",
    "CC": "08",
    "fr": "01",
    "SEC": "001",
    "SS": "18"
  },
  "addresses": [
    {
      "id": "pt.ine.add.PTCONT.1398056",
      "street": "R DAS FLORES",
      "house": "49",
      "postcode": "7240-012",
      "city": "GRANJA MOU",
      "lon": "-7.255821038575106",
      "lat": "38.30122851123225"
    },
    {
      "id": "pt.ine.add.PTCONT.1404894",
      "street": "R DAS FLORES",
      "house": "61",
      "postcode": "7240-012",
      "city": "GRANJA MOU",
      "lon": "-7.256194678375364",
      "lat": "38.301095845677516"
    },
    {
      "id": "pt.ine.add.PTCONT.1405628",
      "street": "R ÁLVARO AFONSO",
      "house": "54",
      "postcode": "7240-012",
      "city": "GRANJA MOU",
      "lon": "-7.256245227504104",
      "lat": "38.30138001829708"
    },
    {
      "id": "pt.ine.add.PTCONT.1407879",
      "street": "R DAS FLORES",
      "house": "53",
      "postcode": "7240-012",
      "city": "GRANJA MOU",
      "lon": "-7.255958892103965",
      "lat": "38.30119741933756"
    },
    {
      "id": "pt.ine.add.PTCONT.1408706",
      "street": "R DAS FLORES",
      "house": "55",
      "postcode": "7240-012",
      "city": "GRANJA MOU",
      "lon": "-7.2560472772644635",
      "lat": "38.30116510069933"
    },
    {
      "id": "pt.ine.add.PTCONT.1413959",
      "street": "R ÁLVARO AFONSO",
      "house": "56",
      "postcode": "7240-012",
      "city": "GRANJA MOU",
      "lon": "-7.25636558715669",
      "lat": "38.30134025771642"
    },
    {
      "id": "pt.ine.add.PTCONT.1414799",
      "street": "R DAS FLORES",
      "house": "65",
      "postcode": "7240-012",
      "city": "GRANJA MOU",
      "lon": "-7.256449976444869",
      "lat": "38.3010226304495"
    },
    {
      "id": "pt.ine.add.PTCONT.1418447",
      "street": "R ÁLVARO AFONSO",
      "house": "52",
      "postcode": "7240-012",
      "city": "GRANJA MOU",
      "lon": "-7.255907483006156",
      "lat": "38.30140890149054"
    },
    {
      "id": "pt.ine.add.PTCONT.1426581",
      "street": "R DAS FLORES",
      "house": "51",
      "postcode": "7240-012",
      "city": "GRANJA MOU",
      "lon": "-7.255899375315368",
      "lat": "38.30122304601493"
    },
    {
      "id": "pt.ine.add.PTCONT.1447910",
      "street": "R ÁLVARO AFONSO",
      "house": "58",
      "postcode": "7240-012",
      "city": "GRANJA MOU",
      "lon": "-7.256514514187966",
      "lat": "38.30131434499237"
    },
    {
      "id": "pt.ine.add.PTCONT.1454030",
      "street": "R DAS FLORES",
      "house": "47",
      "postcode": "7240-012",
      "city": "GRANJA MOU",
      "lon": "-7.255741489547447",
      "lat": "38.30124455241636"
    }
  ]
}