{
  "data": {
    "distrito": "Lisboa",
    "concelho": "Lisboa",
    "freguesia": "Benfica",
    "OBJECTID": 984,
    "BGRI2021": "11060803203",
    "DT21": "11",
    "DTMN21": "1106",
    "DTMNFR21": "110608",
    "DTMNFRSEC21": "110608032",
    "SECNUM21": "032",
    "SSNUM21": "03",
    "SECSSNUM21": "03203",
    "OBJECTID_1": 105114,
    "DT": "11",
    "CC": "06",
    "fr": "08",
    "SEC": "032",
    "SS": "03"
  },
  "addresses": [
    {
      "id": "pt.ine.add.PTCONT.2506210",
      "street": "PQ FLORESTAL MONSANTO",
      "house": "",
      "postcode": "1500-663",
      "city": "LISBOA",
      "lon": "-9.205932751873986",
      "lat": "38.73021898423714"
    },
    {
      "id": "pt.ine.add.PTCONT.2523946",
      "street": "R ACÁCIAS",
      "house": "",
      "postcode": "1500-663",
      "city": "LISBOA",
      "lon": "-9.206374722508949",
      "lat": "38.73208855416199"
    },
    {
      "id": "pt.ine.add.PTCONT.2523932",
      "street": "R ACÁCIAS",
      "house": "",
      "postcode": "1500-663",
      "city": "LISBOA",
      "lon": "-9.206374722508949",
      "lat": "38.73208855416199"
    },
    {
      "id": "pt.ine.add.PTCONT.2523933",
      "street": "R ACÁCIAS",
      "house": "",
      "postcode": "1500-663",
      "city": "LISBOA",
      "lon": "-9.206374722508949",
      "lat": "38.73208855416199"
    },
    {
      "id": "pt.ine.add.PTCONT.2523935",
      "street": "R ACÁCIAS",
      "house": "",
      "postcode": "1500-663",
      "city": "LISBOA",
      "lon": "-9.206374722508949",
      "lat": "38.73208855416199"
    },
    {
      "id": "pt.ine.add.PTCONT.2523936",
      "street": "R ACÁCIAS",
      "house": "",
      "postcode": "1500-663",
      "city": "LISBOA",
      "lon": "-9.206374722508949",
      "lat": "38.73208855416199"
    },
    {
      "id": "pt.ine.add.PTCONT.2523937",
      "street": "R ACÁCIAS",
      "house": "",
      "postcode": "1500-663",
      "city": "LISBOA",
      "lon": "-9.206374722508949",
      "lat": "38.73208855416199"
    },
    {
      "id": "pt.ine.add.PTCONT.2523938",
      "street": "R ACÁCIAS",
      "house": "",
      "postcode": "1500-663",
      "city": "LISBOA",
      "lon": "-9.206374722508949",
      "lat": "38.73208855416199"
    },
    {
      "id": "pt.ine.add.PTCONT.2523939",
      "street": "R ACÁCIAS",
      "house": "",
      "postcode": "1500-663",
      "city": "LISBOA",
      "lon": "-9.206374722508949",
      "lat": "38.73208855416199"
    },
    {
      "id": "pt.ine.add.PTCONT.2523940",
      "street": "R ACÁCIAS",
      "house": "",
      "postcode": "1500-663",
      "city": "LISBOA",
      "lon": "-9.206374722508949",
      "lat": "38.73208855416199"
    },
    {
      "id": "pt.ine.add.PTCONT.2523941",
      "street": "R ACÁCIAS",
      "house": "",
      "postcode": "1500-663",
      "city": "LISBOA",
      "lon": "-9.206374722508949",
      "lat": "38.73208855416199"
    },
    {
      "id": "pt.ine.add.PTCONT.2523942",
      "street": "R ACÁCIAS",
      "house": "",
      "postcode": "1500-663",
      "city": "LISBOA",
      "lon": "-9.206374722508949",
      "lat": "38.73208855416199"
    },
    {
      "id": "pt.ine.add.PTCONT.2523943",
      "street": "R ACÁCIAS",
      "house": "",
      "postcode": "1500-663",
      "city": "LISBOA",
      "lon": "-9.206374722508949",
      "lat": "38.73208855416199"
    },
    {
      "id": "pt.ine.add.PTCONT.2523944",
      "street": "R ACÁCIAS",
      "house": "",
      "postcode": "1500-663",
      "city": "LISBOA",
      "lon": "-9.206374722508949",
      "lat": "38.73208855416199"
    },
    {
      "id": "pt.ine.add.PTCONT.2523945",
      "street": "R ACÁCIAS",
      "house": "",
      "postcode": "1500-663",
      "city": "LISBOA",
      "lon": "-9.206374722508949",
      "lat": "38.73208855416199"
    },
    {
      "id": "pt.ine.add.PTCONT.2523947",
      "street": "R ACÁCIAS",
      "house": "",
      "postcode": "1500-663",
      "city": "LISBOA",
      "lon": "-9.206374722508949",
      "lat": "38.73208855416199"
    },
    {
      "id": "pt.ine.add.PTCONT.2523948",
      "street": "R ACÁCIAS",
      "house": "",
      "postcode": "1500-663",
      "city": "LISBOA",
      "lon": "-9.206374722508949",
      "lat": "38.73208855416199"
    },
    {
      "id": "pt.ine.add.PTCONT.2523949",
      "street": "R ACÁCIAS",
      "house": "",
      "postcode": "1500-663",
      "city": "LISBOA",
      "lon": "-9.206374722508949",
      "lat": "38.73208855416199"
    },
    {
      "id": "pt.ine.add.PTCONT.2523950",
      "street": "R ACÁCIAS",
      "house": "",
      "postcode": "1500-663",
      "city": "LISBOA",
      "lon": "-9.206374722508949",
      "lat": "38.73208855416199"
    },
    {
      "id": "pt.ine.add.PTCONT.2529015",
      "street": "R ACÁCIAS",
      "house": "",
      "postcode": "1500-663",
      "city": "LISBOA",
      "lon": "-9.206374722508949",
      "lat": "38.73208855416199"
    },
    {
      "id": "pt.ine.add.PTCONT.2529419",
      "street": "R ACÁCIAS",
      "house": "",
      "postcode": "1500-663",
      "city": "LISBOA",
      "lon": "-9.206374722508949",
      "lat": "38.73208855416199"
    },
    {
      "id": "pt.ine.add.PTCONT.3009612",
      "street": "R ACÁCIAS",
      "house": "",
      "postcode": "1500-663",
      "city": "LISBOA",
      "lon": "-9.20587772480563",
      "lat": "38.73192196760353"
    },
    {
      "id": "pt.ine.add.PTCONT.3009613",
      "street": "R ACÁCIAS",
      "house": "",
      "postcode": "1500-663",
      "city": "LISBOA",
      "lon": "-9.20587772480563",
      "lat": "38.73192196760353"
    },
    {
      "id": "pt.ine.add.PTCONT.3009614",
      "street": "R ACÁCIAS",
      "house": "",
      "postcode": "1500-663",
      "city": "LISBOA",
      "lon": "-9.20587772480563",
      "lat": "38.73192196760353"
    },
    {
      "id": "pt.ine.add.PTCONT.3009615",
      "street": "R ACÁCIAS",
      "house": "",
      "postcode": "1500-663",
      "city": "LISBOA",
      "lon": "-9.20587772480563",
      "lat": "38.73192196760353"
    },
    {
      "id": "pt.ine.add.PTCONT.3009616",
      "street": "R ACÁCIAS",
      "house": "",
      "postcode": "1500-663",
      "city": "LISBOA",
      "lon": "-9.20587772480563",
      "lat": "38.73192196760353"
    },
    {
      "id": "pt.ine.add.PTCONT.3009617",
      "street": "R ACÁCIAS",
      "house": "",
      "postcode": "1500-663",
      "city": "LISBOA",
      "lon": "-9.20587772480563",
      "lat": "38.73192196760353"
    },
    {
      "id": "pt.ine.add.PTCONT.3009618",
      "street": "R ACÁCIAS",
      "house": "",
      "postcode": "1500-663",
      "city": "LISBOA",
      "lon": "-9.20587772480563",
      "lat": "38.73192196760353"
    },
    {
      "id": "pt.ine.add.PTCONT.3009619",
      "street": "R ACÁCIAS",
      "house": "",
      "postcode": "1500-663",
      "city": "LISBOA",
      "lon": "-9.20587772480563",
      "lat": "38.73192196760353"
    },
    {
      "id": "pt.ine.add.PTCONT.3009620",
      "street": "R ACÁCIAS",
      "house": "",
      "postcode": "1500-663",
      "city": "LISBOA",
      "lon": "-9.20587772480563",
      "lat": "38.73192196760353"
    },
    {
      "id": "pt.ine.add.PTCONT.3009623",
      "street": "R ACÁCIAS",
      "house": "",
      "postcode": "1500-663",
      "city": "LISBOA",
      "lon": "-9.20587772480563",
      "lat": "38.73192196760353"
    },
    {
      "id": "pt.ine.add.PTCONT.3009624",
      "street": "R ACÁCIAS",
      "house": "",
      "postcode": "1500-663",
      "city": "LISBOA",
      "lon": "-9.20587772480563",
      "lat": "38.73192196760353"
    },
    {
      "id": "pt.ine.add.PTCONT.3009625",
      "street": "R ACÁCIAS",
      "house": "",
      "postcode": "1500-663",
      "city": "LISBOA",
      "lon": "-9.20587772480563",
      "lat": "38.73192196760353"
    },
    {
      "id": "pt.ine.add.PTCONT.3009626",
      "street": "R ACÁCIAS",
      "house": "",
      "postcode": "1500-663",
      "city": "LISBOA",
      "lon": "-9.20587772480563",
      "lat": "38.73192196760353"
    },
    {
      "id": "pt.ine.add.PTCONT.3009627",
      "street": "R ACÁCIAS",
      "house": "",
      "postcode": "1500-663",
      "city": "LISBOA",
      "lon": "-9.20587772480563",
      "lat": "38.73192196760353"
    },
    {
      "id": "pt.ine.add.PTCONT.3009628",
      "street": "R ACÁCIAS",
      "house": "",
      "postcode": "1500-663",
      "city": "LISBOA",
      "lon": "-9.20587772480563",
      "lat": "38.73192196760353"
    },
    {
      "id": "pt.ine.add.PTCONT.3009629",
      "street": "R ACÁCIAS",
      "house": "",
      "postcode": "1500-663",
      "city": "LISBOA",
      "lon": "-9.20587772480563",
      "lat": "38.73192196760353"
    },
    {
      "id": "pt.ine.add.PTCONT.3015195",
      "street": "R ACÁCIAS",
      "house": "",
      "postcode": "1500-663",
      "city": "LISBOA",
      "lon": "-9.20587772480563",
      "lat": "38.73192196760353"
    },
    {
      "id": "pt.ine.add.PTCONT.3015197",
      "street": "R ACÁCIAS",
      "house": "",
      "postcode": "1500-663",
      "city": "LISBOA",
      "lon": "-9.20587772480563",
      "lat": "38.73192196760353"
    },
    {
      "id": "pt.ine.add.PTCONT.3015655",
      "street": "R ACÁCIAS",
      "house": "",
      "postcode": "1500-663",
      "city": "LISBOA",
      "lon": "-9.20587772480563",
      "lat": "38.73192196760353"
    },
    {
      "id": "pt.ine.add.PTCONT.3158969",
      "street": "PQ FLORESTAL MONSANTO",
      "house": "",
      "postcode": "1400-061",
      "city": "LISBOA",
      "lon": "-9.20586956458145",
      "lat": "38.72830089743501"
    },
    {
      "id": "pt.ine.add.PTCONT.3223305",
      "street": "R ACÁCIAS",
      "house": "",
      "postcode": "1500-663",
      "city": "LISBOA",
      "lon": "-9.206177360422174",
      "lat": "38.73196425655186"
    },
    {
      "id": "pt.ine.add.PTCONT.3223306",
      "street": "R ACÁCIAS",
      "house": "",
      "postcode": "1500-663",
      "city": "LISBOA",
      "lon": "-9.206177360422174",
      "lat": "38.73196425655186"
    },
    {
      "id": "pt.ine.add.PTCONT.3223307",
      "street": "R ACÁCIAS",
      "house": "",
      "postcode": "1500-663",
      "city": "LISBOA",
      "lon": "-9.206177360422174",
      "lat": "38.73196425655186"
    },
    {
      "id": "pt.ine.add.PTCONT.3223308",
      "street": "R ACÁCIAS",
      "house": "",
      "postcode": "1500-663",
      "city": "LISBOA",
      "lon": "-9.206177360422174",
      "lat": "38.73196425655186"
    },
    {
      "id": "pt.ine.add.PTCONT.3223309",
      "street": "R ACÁCIAS",
      "house": "",
      "postcode": "1500-663",
      "city": "LISBOA",
      "lon": "-9.206177360422174",
      "lat": "38.73196425655186"
    },
    {
      "id": "pt.ine.add.PTCONT.3223310",
      "street": "R ACÁCIAS",
      "house": "",
      "postcode": "1500-663",
      "city": "LISBOA",
      "lon": "-9.206177360422174",
      "lat": "38.73196425655186"
    },
    {
      "id": "pt.ine.add.PTCONT.3223311",
      "street": "R ACÁCIAS",
      "house": "",
      "postcode": "1500-663",
      "city": "LISBOA",
      "lon": "-9.206177360422174",
      "lat": "38.73196425655186"
    },
    {
      "id": "pt.ine.add.PTCONT.3223312",
      "street": "R ACÁCIAS",
      "house": "",
      "postcode": "1500-663",
      "city": "LISBOA",
      "lon": "-9.206177360422174",
      "lat": "38.73196425655186"
    },
    {
      "id": "pt.ine.add.PTCONT.3223313",
      "street": "R ACÁCIAS",
      "house": "",
      "postcode": "1500-663",
      "city": "LISBOA",
      "lon": "-9.206177360422174",
      "lat": "38.73196425655186"
    },
    {
      "id": "pt.ine.add.PTCONT.3223314",
      "street": "R ACÁCIAS",
      "house": "",
      "postcode": "1500-663",
      "city": "LISBOA",
      "lon": "-9.206177360422174",
      "lat": "38.73196425655186"
    },
    {
      "id": "pt.ine.add.PTCONT.3223315",
      "street": "R ACÁCIAS",
      "house": "",
      "postcode": "1500-663",
      "city": "LISBOA",
      "lon": "-9.206177360422174",
      "lat": "38.73196425655186"
    },
    {
      "id": "pt.ine.add.PTCONT.3223316",
      "street": "R ACÁCIAS",
      "house": "",
      "postcode": "1500-663",
      "city": "LISBOA",
      "lon": "-9.206177360422174",
      "lat": "38.73196425655186"
    },
    {
      "id": "pt.ine.add.PTCONT.3223317",
      "street": "R ACÁCIAS",
      "house": "",
      "postcode": "1500-663",
      "city": "LISBOA",
      "lon": "-9.206177360422174",
      "lat": "38.73196425655186"
    },
    {
      "id": "pt.ine.add.PTCONT.3223318",
      "street": "R ACÁCIAS",
      "house": "",
      "postcode": "1500-663",
      "city": "LISBOA",
      "lon": "-9.206177360422174",
      "lat": "38.73196425655186"
    },
    {
      "id": "pt.ine.add.PTCONT.3223319",
      "street": "R ACÁCIAS",
      "house": "",
      "postcode": "1500-663",
      "city": "LISBOA",
      "lon": "-9.206177360422174",
      "lat": "38.73196425655186"
    },
    {
      "id": "pt.ine.add.PTCONT.3223320",
      "street": "R ACÁCIAS",
      "house": "",
      "postcode": "1500-663",
      "city": "LISBOA",
      "lon": "-9.206177360422174",
      "lat": "38.73196425655186"
    },
    {
      "id": "pt.ine.add.PTCONT.3223321",
      "street": "R ACÁCIAS",
      "house": "",
      "postcode": "1500-663",
      "city": "LISBOA",
      "lon": "-9.206177360422174",
      "lat": "38.73196425655186"
    },
    {
      "id": "pt.ine.add.PTCONT.3223322",
      "street": "R ACÁCIAS",
      "house": "",
      "postcode": "1500-663",
      "city": "LISBOA",
      "lon": "-9.206177360422174",
      "lat": "38.73196425655186"
    },
    {
      "id": "pt.ine.add.PTCONT.3228952",
      "street": "R ACÁCIAS",
      "house": "",
      "postcode": "1500-663",
      "city": "LISBOA",
      "lon": "-9.206177360422174",
      "lat": "38.73196425655186"
    },
    {
      "id": "pt.ine.add.PTCONT.3242228",
      "street": "R ACÁCIAS",
      "house": "",
      "postcode": "1500-663",
      "city": "LISBOA",
      "lon": "-9.205679690560261",
      "lat": "38.73175263620532"
    },
    {
      "id": "pt.ine.add.PTCONT.3242229",
      "street": "R ACÁCIAS",
      "house": "",
      "postcode": "1500-663",
      "city": "LISBOA",
      "lon": "-9.205679690560261",
      "lat": "38.73175263620532"
    },
    {
      "id": "pt.ine.add.PTCONT.3242230",
      "street": "R ACÁCIAS",
      "house": "",
      "postcode": "1500-663",
      "city": "LISBOA",
      "lon": "-9.205679690560261",
      "lat": "38.73175263620532"
    },
    {
      "id": "pt.ine.add.PTCONT.3242231",
      "street": "R ACÁCIAS",
      "house": "",
      "postcode": "1500-663",
      "city": "LISBOA",
      "lon": "-9.205679690560261",
      "lat": "38.73175263620532"
    },
    {
      "id": "pt.ine.add.PTCONT.3242232",
      "street": "R ACÁCIAS",
      "house": "",
      "postcode": "1500-663",
      "city": "LISBOA",
      "lon": "-9.205679690560261",
      "lat": "38.73175263620532"
    },
    {
      "id": "pt.ine.add.PTCONT.3242233",
      "street": "R ACÁCIAS",
      "house": "",
      "postcode": "1500-663",
      "city": "LISBOA",
      "lon": "-9.205679690560261",
      "lat": "38.73175263620532"
    },
    {
      "id": "pt.ine.add.PTCONT.3242234",
      "street": "R ACÁCIAS",
      "house": "",
      "postcode": "1500-663",
      "city": "LISBOA",
      "lon": "-9.205679690560261",
      "lat": "38.73175263620532"
    },
    {
      "id": "pt.ine.add.PTCONT.3242235",
      "street": "R ACÁCIAS",
      "house": "",
      "postcode": "1500-663",
      "city": "LISBOA",
      "lon": "-9.205679690560261",
      "lat": "38.73175263620532"
    },
    {
      "id": "pt.ine.add.PTCONT.3242236",
      "street": "R ACÁCIAS",
      "house": "",
      "postcode": "1500-663",
      "city": "LISBOA",
      "lon": "-9.205679690560261",
      "lat": "38.73175263620532"
    },
    {
      "id": "pt.ine.add.PTCONT.3242237",
      "street": "R ACÁCIAS",
      "house": "",
      "postcode": "1500-663",
      "city": "LISBOA",
      "lon": "-9.205679690560261",
      "lat": "38.73175263620532"
    },
    {
      "id": "pt.ine.add.PTCONT.3242238",
      "street": "R ACÁCIAS",
      "house": "",
      "postcode": "1500-663",
      "city": "LISBOA",
      "lon": "-9.205679690560261",
      "lat": "38.73175263620532"
    },
    {
      "id": "pt.ine.add.PTCONT.3242239",
      "street": "R ACÁCIAS",
      "house": "",
      "postcode": "1500-663",
      "city": "LISBOA",
      "lon": "-9.205679690560261",
      "lat": "38.73175263620532"
    },
    {
      "id": "pt.ine.add.PTCONT.3242240",
      "street": "R ACÁCIAS",
      "house": "",
      "postcode": "1500-663",
      "city": "LISBOA",
      "lon": "-9.205679690560261",
      "lat": "38.73175263620532"
    },
    {
      "id": "pt.ine.add.PTCONT.3242241",
      "street": "R ACÁCIAS",
      "house": "",
      "postcode": "1500-663",
      "city": "LISBOA",
      "lon": "-9.205679690560261",
      "lat": "38.73175263620532"
    },
    {
      "id": "pt.ine.add.PTCONT.3242242",
      "street": "R ACÁCIAS",
      "house": "",
      "postcode": "1500-663",
      "city": "LISBOA",
      "lon": "-9.205679690560261",
      "lat": "38.73175263620532"
    },
    {
      "id": "pt.ine.add.PTCONT.3242243",
      "street": "R ACÁCIAS",
      "house": "",
      "postcode": "1500-663",
      "city": "LISBOA",
      "lon": "-9.205679690560261",
      "lat": "38.73175263620532"
    },
    {
      "id": "pt.ine.add.PTCONT.3242244",
      "street": "R ACÁCIAS",
      "house": "",
      "postcode": "1500-663",
      "city": "LISBOA",
      "lon": "-9.205679690560261",
      "lat": "38.73175263620532"
    },
    {
      "id": "pt.ine.add.PTCONT.3242245",
      "street": "R ACÁCIAS",
      "house": "",
      "postcode": "1500-663",
      "city": "LISBOA",
      "lon": "-9.205679690560261",
      "lat": "38.73175263620532"
    },
    {
      "id": "pt.ine.add.PTCONT.3247358",
      "street": "R ACÁCIAS",
      "house": "",
      "postcode": "1500-663",
      "city": "LISBOA",
      "lon": "-9.205679690560261",
      "lat": "38.73175263620532"
    },
    {
      "id": "pt.ine.add.PTCONT.3330250",
      "street": "ESTR CIRCUNVALAÇÃO",
      "house": "",
      "postcode": "1400-061",
      "city": "LISBOA",
      "lon": "-9.207593164289142",
      "lat": "38.72514133593938"
    },
    {
      "id": "pt.ine.add.PTCONT.3444310",
      "street": "R ACÁCIAS",
      "house": "",
      "postcode": "1500-663",
      "city": "LISBOA",
      "lon": "-9.206177360422174",
      "lat": "38.73196425655186"
    },
    {
      "id": "pt.ine.add.PTCONT.3445335",
      "street": "R ACÁCIAS",
      "house": "",
      "postcode": "1500-663",
      "city": "LISBOA",
      "lon": "-9.205679690560261",
      "lat": "38.73175263620532"
    },
    {
      "id": "pt.ine.add.PTCONT.3449162",
      "street": "R ACÁCIAS",
      "house": "",
      "postcode": "1500-663",
      "city": "LISBOA",
      "lon": "-9.20587772480563",
      "lat": "38.73192196760353"
    }
  ]
}