{
  "data": {
    "distrito": "Leiria",
    "concelho": "Bombarral",
    "freguesia": "Roliça",
    "OBJECTID": 366,
    "BGRI2021": "10050300104",
    "DT21": "10",
    "DTMN21": "1005",
    "DTMNFR21": "100503",
    "DTMNFRSEC21": "100503001",
    "SECNUM21": "001",
    "SSNUM21": "04",
    "SECSSNUM21": "00104",
    "OBJECTID_1": 87215,
    "DT": "10",
    "CC": "05",
    "fr": "03",
    "SEC": "001",
    "SS": "04"
  },
  "addresses": [
    {
      "id": "pt.ine.add.PTCONT.1988896",
      "street": "LG 1 DE MAIO",
      "house": "4",
      "postcode": "2540-592",
      "city": "ROLIÇA",
      "lon": "-9.195964254111136",
      "lat": "39.30488310292285"
    },
    {
      "id": "pt.ine.add.PTCONT.1999297",
      "street": "LG CASIMIRO SILVA",
      "house": "1",
      "postcode": "2540-674",
      "city": "ROLIÇA",
      "lon": "-9.196064220173975",
      "lat": "39.3045939671065"
    },
    {
      "id": "pt.ine.add.PTCONT.2025771",
      "street": "R JOAQUIM JACINTO LOPES",
      "house": "4",
      "postcode": "2540-604",
      "city": "ROLIÇA",
      "lon": "-9.196388515099045",
      "lat": "39.304572991551225"
    },
    {
      "id": "pt.ine.add.PTCONT.2052312",
      "street": "R LIBERDADE",
      "house": "3",
      "postcode": "2540-612",
      "city": "ROLIÇA",
      "lon": "-9.19615327502926",
      "lat": "39.30434996568975"
    },
    {
      "id": "pt.ine.add.PTCONT.2105248",
      "street": "R ALEGRIA",
      "house": "4",
      "postcode": "2540-763",
      "city": "ROLIÇA",
      "lon": "-9.19617195173739",
      "lat": "39.30481815761628"
    },
    {
      "id": "pt.ine.add.PTCONT.2115964",
      "street": "EN 8-4",
      "house": "24",
      "postcode": "2540-590",
      "city": "ROLIÇA",
      "lon": "-9.196547118705011",
      "lat": "39.30432835456901"
    },
    {
      "id": "pt.ine.add.PTCONT.2133514",
      "street": "R JOAQUIM JACINTO LOPES",
      "house": "5",
      "postcode": "2540-604",
      "city": "ROLIÇA",
      "lon": "-9.196363423854292",
      "lat": "39.304447123137614"
    },
    {
      "id": "pt.ine.add.PTCONT.2138376",
      "street": "R JOAQUIM JACINTO LOPES",
      "house": "",
      "postcode": "2540-604",
      "city": "ROLIÇA",
      "lon": "-9.196226095146526",
      "lat": "39.30456546798871"
    },
    {
      "id": "pt.ine.add.PTCONT.2170686",
      "street": "R LIBERDADE",
      "house": "",
      "postcode": "2540-612",
      "city": "ROLIÇA",
      "lon": "-9.196107998342187",
      "lat": "39.30442243490873"
    },
    {
      "id": "pt.ine.add.PTCONT.2210638",
      "street": "R ALEGRIA",
      "house": "2",
      "postcode": "2540-763",
      "city": "ROLIÇA",
      "lon": "-9.196043352779647",
      "lat": "39.304747276148746"
    },
    {
      "id": "pt.ine.add.PTCONT.2212961",
      "street": "EN 8-4",
      "house": "26",
      "postcode": "2540-590",
      "city": "ROLIÇA",
      "lon": "-9.196456702372437",
      "lat": "39.30448229901105"
    },
    {
      "id": "pt.ine.add.PTCONT.2227438",
      "street": "R DA LIBERDADE",
      "house": "",
      "postcode": "2540-541",
      "city": "ROLIÇA",
      "lon": "-9.196118772547724",
      "lat": "39.304368294697646"
    },
    {
      "id": "pt.ine.add.PTCONT.2236495",
      "street": "R LIBERDADE",
      "house": "",
      "postcode": "2540-612",
      "city": "ROLIÇA",
      "lon": "-9.196130636697237",
      "lat": "39.30438620030141"
    }
  ]
}