{
  "data": {
    "distrito": "Leiria",
    "concelho": "Bombarral",
    "freguesia": "Roliça",
    "OBJECTID": 371,
    "BGRI2021": "10050300109",
    "DT21": "10",
    "DTMN21": "1005",
    "DTMNFR21": "100503",
    "DTMNFRSEC21": "100503001",
    "SECNUM21": "001",
    "SSNUM21": "09",
    "SECSSNUM21": "00109",
    "OBJECTID_1": 87371,
    "DT": "10",
    "CC": "05",
    "fr": "03",
    "SEC": "001",
    "SS": "09"
  },
  "addresses": [
    {
      "id": "pt.ine.add.PTCONT.2004040",
      "street": "R 5 DE OUTUBRO",
      "house": "4",
      "postcode": "2540-595",
      "city": "ROLIÇA",
      "lon": "-9.195300470935969",
      "lat": "39.30698778536472"
    },
    {
      "id": "pt.ine.add.PTCONT.2008683",
      "street": "EN 8-4",
      "house": "53",
      "postcode": "2540-590",
      "city": "ROLIÇA",
      "lon": "-9.195015046601753",
      "lat": "39.306513020101804"
    },
    {
      "id": "pt.ine.add.PTCONT.2010882",
      "street": "EN 8-4",
      "house": "61",
      "postcode": "2540-590",
      "city": "ROLIÇA",
      "lon": "-9.194628537550756",
      "lat": "39.30702093549737"
    },
    {
      "id": "pt.ine.add.PTCONT.2041453",
      "street": "R 5 DE OUTUBRO",
      "house": "2",
      "postcode": "2540-595",
      "city": "ROLIÇA",
      "lon": "-9.194788377436694",
      "lat": "39.306857352399454"
    },
    {
      "id": "pt.ine.add.PTCONT.2043668",
      "street": "BC ALEGRIA",
      "house": "1",
      "postcode": "2540-588",
      "city": "ROLIÇA",
      "lon": "-9.19640487665085",
      "lat": "39.30488808607072"
    },
    {
      "id": "pt.ine.add.PTCONT.2071311",
      "street": "R 5 DE OUTUBRO",
      "house": "10",
      "postcode": "2540-595",
      "city": "ROLIÇA",
      "lon": "-9.19589452845761",
      "lat": "39.30717150958317"
    },
    {
      "id": "pt.ine.add.PTCONT.2087496",
      "street": "BC ALEGRIA",
      "house": "2",
      "postcode": "2540-588",
      "city": "ROLIÇA",
      "lon": "-9.196555841921056",
      "lat": "39.30490472099269"
    },
    {
      "id": "pt.ine.add.PTCONT.2094365",
      "street": "EN 8-4",
      "house": "25",
      "postcode": "2540-590",
      "city": "ROLIÇA",
      "lon": "-9.19658584646338",
      "lat": "39.30458920292739"
    },
    {
      "id": "pt.ine.add.PTCONT.2098452",
      "street": "EN 8-4",
      "house": "45",
      "postcode": "2540-590",
      "city": "ROLIÇA",
      "lon": "-9.195497979573787",
      "lat": "39.305481819223914"
    },
    {
      "id": "pt.ine.add.PTCONT.2103881",
      "street": "EN 8-4",
      "house": "",
      "postcode": "2540-590",
      "city": "ROLIÇA",
      "lon": "-9.194685001264348",
      "lat": "39.30692134394825"
    },
    {
      "id": "pt.ine.add.PTCONT.2115962",
      "street": "R ASNAGUEIRA",
      "house": "11",
      "postcode": "2540-672",
      "city": "ROLIÇA",
      "lon": "-9.196551048139458",
      "lat": "39.307651890031195"
    },
    {
      "id": "pt.ine.add.PTCONT.2115963",
      "street": "EN 8-4",
      "house": "53",
      "postcode": "2540-590",
      "city": "ROLIÇA",
      "lon": "-9.194867752722425",
      "lat": "39.306739537862406"
    },
    {
      "id": "pt.ine.add.PTCONT.2133500",
      "street": "R ASNAGUEIRA",
      "house": "3",
      "postcode": "2540-672",
      "city": "ROLIÇA",
      "lon": "-9.195174727654269",
      "lat": "39.30710602324199"
    },
    {
      "id": "pt.ine.add.PTCONT.2139704",
      "street": "EN 8-4",
      "house": "37",
      "postcode": "2540-590",
      "city": "ROLIÇA",
      "lon": "-9.196015525489429",
      "lat": "39.30520688571819"
    },
    {
      "id": "pt.ine.add.PTCONT.2146712",
      "street": "LG ANTÓNIO MACIEIRA",
      "house": "2",
      "postcode": "2540-766",
      "city": "ROLIÇA",
      "lon": "-9.19666712463445",
      "lat": "39.304597467347925"
    },
    {
      "id": "pt.ine.add.PTCONT.2153372",
      "street": "AZ ROSSIO",
      "house": "6",
      "postcode": "2540-599",
      "city": "ROLIÇA",
      "lon": "-9.196783450571182",
      "lat": "39.30462342541713"
    },
    {
      "id": "pt.ine.add.PTCONT.2157496",
      "street": "R ESCOLA",
      "house": "34",
      "postcode": "2540-599",
      "city": "ROLIÇA",
      "lon": "-9.19987038011809",
      "lat": "39.30788272104658"
    },
    {
      "id": "pt.ine.add.PTCONT.2159176",
      "street": "R ESCOLA",
      "house": "34",
      "postcode": "2540-599",
      "city": "ROLIÇA",
      "lon": "-9.19987038011809",
      "lat": "39.30788272104658"
    },
    {
      "id": "pt.ine.add.PTCONT.2161910",
      "street": "EN 8-4",
      "house": "31",
      "postcode": "2540-590",
      "city": "ROLIÇA",
      "lon": "-9.19655229808435",
      "lat": "39.30467057214016"
    },
    {
      "id": "pt.ine.add.PTCONT.2168525",
      "street": "BC ALEGRIA",
      "house": "4",
      "postcode": "2540-588",
      "city": "ROLIÇA",
      "lon": "-9.1967414461769",
      "lat": "39.30491203226008"
    },
    {
      "id": "pt.ine.add.PTCONT.2208468",
      "street": "EN 8-4",
      "house": "",
      "postcode": "2540-590",
      "city": "ROLIÇA",
      "lon": "-9.195405634933676",
      "lat": "39.30627527524632"
    },
    {
      "id": "pt.ine.add.PTCONT.2210629",
      "street": "LG ROSSIO",
      "house": "4",
      "postcode": "2540-593",
      "city": "ROLIÇA",
      "lon": "-9.196725219431134",
      "lat": "39.30460594353477"
    },
    {
      "id": "pt.ine.add.PTCONT.2221658",
      "street": "EN 8-4",
      "house": "33",
      "postcode": "2540-590",
      "city": "ROLIÇA",
      "lon": "-9.196646667496713",
      "lat": "39.30477779365477"
    },
    {
      "id": "pt.ine.add.PTCONT.2227700",
      "street": "R ASNAGUEIRA",
      "house": "7",
      "postcode": "2540-672",
      "city": "ROLIÇA",
      "lon": "-9.19573482669232",
      "lat": "39.307344099889505"
    },
    {
      "id": "pt.ine.add.PTCONT.2234888",
      "street": "EN 8-4",
      "house": "35",
      "postcode": "2540-590",
      "city": "ROLIÇA",
      "lon": "-9.19622199767254",
      "lat": "39.305060888781036"
    },
    {
      "id": "pt.ine.add.PTCONT.2243236",
      "street": "R ASNAGUEIRA",
      "house": "9",
      "postcode": "2540-672",
      "city": "ROLIÇA",
      "lon": "-9.196025992925803",
      "lat": "39.307431511303925"
    },
    {
      "id": "pt.ine.add.PTCONT.2246922",
      "street": "R 5 DE OUTUBRO",
      "house": "8",
      "postcode": "2540-595",
      "city": "ROLIÇA",
      "lon": "-9.195591771355952",
      "lat": "39.30708420362289"
    },
    {
      "id": "pt.ine.add.PTCONT.2250176",
      "street": "AZ ROSSIO",
      "house": "8",
      "postcode": "2540-599",
      "city": "ROLIÇA",
      "lon": "-9.196841681739645",
      "lat": "39.30464090726991"
    },
    {
      "id": "pt.ine.add.PTCONT.2262069",
      "street": "R 5 DE OUTUBRO",
      "house": "",
      "postcode": "2540-595",
      "city": "ROLIÇA",
      "lon": "-9.195509809517803",
      "lat": "39.30703090986936"
    },
    {
      "id": "pt.ine.add.PTCONT.2265002",
      "street": "R 5 DE OUTUBRO",
      "house": "",
      "postcode": "2540-595",
      "city": "ROLIÇA",
      "lon": "-9.19556613579493",
      "lat": "39.30692231218521"
    }
  ]
}