{
  "data": {
    "distrito": "Santarém",
    "concelho": "Santarém",
    "freguesia": "União das freguesias da cidade de Santarém",
    "OBJECTID": 1186,
    "BGRI2021": "14163302109",
    "DT21": "14",
    "DTMN21": "1416",
    "DTMNFR21": "141633",
    "DTMNFRSEC21": "141633021",
    "SECNUM21": "021",
    "SSNUM21": "09",
    "SECSSNUM21": "02109",
    "OBJECTID_1": 154728,
    "DT": "14",
    "CC": "16",
    "fr": "33",
    "SEC": "021",
    "SS": "09"
  },
  "addresses": [
    {
      "id": "pt.ine.add.PTCONT.4391549",
      "street": "R JOSE DUARTE CASAL",
      "house": "20",
      "postcode": "2005-272",
      "city": "SANTARÉM",
      "lon": "-8.694586508959114",
      "lat": "39.265056249719656"
    },
    {
      "id": "pt.ine.add.PTCONT.4394538",
      "street": "R BREJO",
      "house": "17",
      "postcode": "2005-442",
      "city": "SANTARÉM",
      "lon": "-8.693515518589653",
      "lat": "39.26443090070084"
    },
    {
      "id": "pt.ine.add.PTCONT.4398797",
      "street": "URB CASAL DO POMBO",
      "house": "",
      "postcode": "2005-447",
      "city": "SANTARÉM",
      "lon": "-8.695661838639191",
      "lat": "39.26622200300388"
    },
    {
      "id": "pt.ine.add.PTCONT.4405177",
      "street": "URB CASAL DO POMBO",
      "house": "7",
      "postcode": "2005-447",
      "city": "SANTARÉM",
      "lon": "-8.693616138559795",
      "lat": "39.263971046361576"
    },
    {
      "id": "pt.ine.add.PTCONT.4408589",
      "street": "R TEÓFILO BRAGA",
      "house": "23",
      "postcode": "2005-438",
      "city": "SANTARÉM",
      "lon": "-8.694099251031064",
      "lat": "39.26352736446933"
    },
    {
      "id": "pt.ine.add.PTCONT.4409652",
      "street": "R JOSE DUARTE CASAL",
      "house": "10",
      "postcode": "2005-272",
      "city": "SANTARÉM",
      "lon": "-8.693988268747571",
      "lat": "39.26414039252284"
    },
    {
      "id": "pt.ine.add.PTCONT.4411903",
      "street": "CSL DO POMBO",
      "house": "",
      "postcode": "2000-000",
      "city": "",
      "lon": "-8.694372630413254",
      "lat": "39.26624345053236"
    },
    {
      "id": "pt.ine.add.PTCONT.4421306",
      "street": "R CASAL POMBO",
      "house": "5",
      "postcode": "2005-446",
      "city": "SANTARÉM",
      "lon": "-8.693649750008117",
      "lat": "39.263826768468306"
    },
    {
      "id": "pt.ine.add.PTCONT.4428758",
      "street": "R JOSE DUARTE CASAL",
      "house": "4",
      "postcode": "2005-272",
      "city": "SANTARÉM",
      "lon": "-8.694252674816871",
      "lat": "39.26387790830764"
    },
    {
      "id": "pt.ine.add.PTCONT.4431029",
      "street": "R JOSE DUARTE CASAL",
      "house": "12",
      "postcode": "2005-272",
      "city": "SANTARÉM",
      "lon": "-8.693989417341916",
      "lat": "39.26428450309275"
    },
    {
      "id": "pt.ine.add.PTCONT.4455221",
      "street": "R BREJO",
      "house": "21",
      "postcode": "2005-442",
      "city": "SANTARÉM",
      "lon": "-8.69344836617905",
      "lat": "39.26472846328652"
    },
    {
      "id": "pt.ine.add.PTCONT.4457180",
      "street": "R JOSE DUARTE CASAL",
      "house": "22",
      "postcode": "2005-272",
      "city": "SANTARÉM",
      "lon": "-8.694714608743222",
      "lat": "39.2651366973062"
    },
    {
      "id": "pt.ine.add.PTCONT.4457181",
      "street": "EN 3",
      "house": "120",
      "postcode": "2005-447",
      "city": "SANTARÉM",
      "lon": "-8.696028509593647",
      "lat": "39.26570681768972"
    },
    {
      "id": "pt.ine.add.PTCONT.4467779",
      "street": "R JOSE DUARTE CASAL",
      "house": "2",
      "postcode": "2005-272",
      "city": "SANTARÉM",
      "lon": "-8.694460009143619",
      "lat": "39.263723785691745"
    },
    {
      "id": "pt.ine.add.PTCONT.4467780",
      "street": "R JOSE DUARTE CASAL",
      "house": "28",
      "postcode": "2005-272",
      "city": "SANTARÉM",
      "lon": "-8.695029030186872",
      "lat": "39.265333340143165"
    },
    {
      "id": "pt.ine.add.PTCONT.4475552",
      "street": "R CASAL DO POMBO",
      "house": "9",
      "postcode": "2005-446",
      "city": "SANTARÉM",
      "lon": "-8.693605628178002",
      "lat": "39.264106205800545"
    },
    {
      "id": "pt.ine.add.PTCONT.4475617",
      "street": "CSL DO POMBO",
      "house": "12",
      "postcode": "2000-999",
      "city": "SANTARÉM",
      "lon": "-8.694352887854834",
      "lat": "39.266273355188595"
    },
    {
      "id": "pt.ine.add.PTCONT.4502312",
      "street": "URB CASAL DO POMBO",
      "house": "",
      "postcode": "2005-447",
      "city": "SANTARÉM",
      "lon": "-8.693639706086016",
      "lat": "39.265475144626265"
    },
    {
      "id": "pt.ine.add.PTCONT.4506591",
      "street": "URB CASAL DO POMBO",
      "house": "",
      "postcode": "2005-447",
      "city": "SANTARÉM",
      "lon": "-8.695106031295342",
      "lat": "39.26626972293451"
    },
    {
      "id": "pt.ine.add.PTCONT.4518792",
      "street": "URB CASAL DO POMBO",
      "house": "15",
      "postcode": "2005-447",
      "city": "SANTARÉM",
      "lon": "-8.694805708597087",
      "lat": "39.266388266199584"
    },
    {
      "id": "pt.ine.add.PTCONT.4543223",
      "street": "R JOSE DUARTE CASAL",
      "house": "16",
      "postcode": "2005-272",
      "city": "SANTARÉM",
      "lon": "-8.694330525765757",
      "lat": "39.26492237484118"
    },
    {
      "id": "pt.ine.add.PTCONT.4551529",
      "street": "R BREJO",
      "house": "19",
      "postcode": "2005-442",
      "city": "SANTARÉM",
      "lon": "-8.693357394600444",
      "lat": "39.26494507511702"
    },
    {
      "id": "pt.ine.add.PTCONT.4559836",
      "street": "R MARIA HELENA VIEIRA DA SILVA",
      "house": "8",
      "postcode": "2005-447",
      "city": "SANTARÉM",
      "lon": "-8.693814224161192",
      "lat": "39.26556437701322"
    },
    {
      "id": "pt.ine.add.PTCONT.4578580",
      "street": "URB CASAL DO POMBO",
      "house": "",
      "postcode": "2005-447",
      "city": "SANTARÉM",
      "lon": "-8.69348807490523",
      "lat": "39.26534977282451"
    },
    {
      "id": "pt.ine.add.PTCONT.4581645",
      "street": "R TEÓFILO BRAGA",
      "house": "21",
      "postcode": "2005-438",
      "city": "SANTARÉM",
      "lon": "-8.694285423030154",
      "lat": "39.26362554730627"
    },
    {
      "id": "pt.ine.add.PTCONT.4595377",
      "street": "R JOSE DUARTE CASAL",
      "house": "8",
      "postcode": "2005-272",
      "city": "SANTARÉM",
      "lon": "-8.694068727881863",
      "lat": "39.26405893966661"
    },
    {
      "id": "pt.ine.add.PTCONT.4601593",
      "street": "R JOSE DUARTE CASAL",
      "house": "26",
      "postcode": "2005-272",
      "city": "SANTARÉM",
      "lon": "-8.694912588248899",
      "lat": "39.265261843920726"
    },
    {
      "id": "pt.ine.add.PTCONT.4607875",
      "street": "R CASAL DO POMBO",
      "house": "15",
      "postcode": "2005-446",
      "city": "SANTARÉM",
      "lon": "-8.693482050038364",
      "lat": "39.26459319236613"
    },
    {
      "id": "pt.ine.add.PTCONT.4609880",
      "street": "URB CASAL DO POMBO",
      "house": "19",
      "postcode": "2005-447",
      "city": "SANTARÉM",
      "lon": "-8.694550869946873",
      "lat": "39.2663985023752"
    },
    {
      "id": "pt.ine.add.PTCONT.4620346",
      "street": "EN 3",
      "house": "118",
      "postcode": "2005-272",
      "city": "SANTARÉM",
      "lon": "-8.696027789075021",
      "lat": "39.26561674863751"
    },
    {
      "id": "pt.ine.add.PTCONT.4622440",
      "street": "R JOSE DUARTE CASAL",
      "house": "18",
      "postcode": "2005-272",
      "city": "SANTARÉM",
      "lon": "-8.694470211628836",
      "lat": "39.26500276686208"
    },
    {
      "id": "pt.ine.add.PTCONT.4624513",
      "street": "R JOSE DUARTE CASAL",
      "house": "6",
      "postcode": "2005-272",
      "city": "SANTARÉM",
      "lon": "-8.694160701467407",
      "lat": "39.263968424023275"
    },
    {
      "id": "pt.ine.add.PTCONT.4624514",
      "street": "R JOSE DUARTE CASAL",
      "house": "24",
      "postcode": "2005-272",
      "city": "SANTARÉM",
      "lon": "-8.69479614654702",
      "lat": "39.26519034757926"
    },
    {
      "id": "pt.ine.add.PTCONT.4650447",
      "street": "R CASAL DO POMBO",
      "house": "3",
      "postcode": "2005-446",
      "city": "SANTARÉM",
      "lon": "-8.693717259504345",
      "lat": "39.2635742402932"
    },
    {
      "id": "pt.ine.add.PTCONT.4656950",
      "street": "R JOSE DUARTE CASAL",
      "house": "14",
      "postcode": "2005-272",
      "city": "SANTARÉM",
      "lon": "-8.69389722779874",
      "lat": "39.26434799786889"
    }
  ]
}