{
  "data": {
    "distrito": "Santarém",
    "concelho": "Santarém",
    "freguesia": "União das freguesias da cidade de Santarém",
    "OBJECTID": 1281,
    "BGRI2021": "14163302114",
    "DT21": "14",
    "DTMN21": "1416",
    "DTMNFR21": "141633",
    "DTMNFRSEC21": "141633021",
    "SECNUM21": "021",
    "SSNUM21": "14",
    "SECSSNUM21": "02114",
    "OBJECTID_1": 153841,
    "DT": "14",
    "CC": "16",
    "fr": "33",
    "SEC": "021",
    "SS": "14"
  },
  "addresses": [
    {
      "id": "pt.ine.add.PTCONT.4412975",
      "street": "CSL PATRICIO",
      "house": "",
      "postcode": "2005-288",
      "city": "SANTARÉM",
      "lon": "-8.67698673370286",
      "lat": "39.262185395370004"
    },
    {
      "id": "pt.ine.add.PTCONT.4445810",
      "street": "CSL NEVES VALE OSSOS",
      "house": "",
      "postcode": "2005-288",
      "city": "SANTARÉM",
      "lon": "-8.675885143025981",
      "lat": "39.26207344045913"
    },
    {
      "id": "pt.ine.add.PTCONT.4462379",
      "street": "R SENHORA DA SAÚDE",
      "house": "",
      "postcode": "2000-548",
      "city": "STA IRIA RIBEIRA SANTARÉM",
      "lon": "-8.673305644018997",
      "lat": "39.25508678467341"
    },
    {
      "id": "pt.ine.add.PTCONT.4479095",
      "street": "R SENHORA DA SAÚDE",
      "house": "",
      "postcode": "2000-548",
      "city": "STA IRIA RIBEIRA SANTARÉM",
      "lon": "-8.67198839577157",
      "lat": "39.261596137647516"
    },
    {
      "id": "pt.ine.add.PTCONT.4481753",
      "street": "R SENHORA DA SAÚDE",
      "house": "",
      "postcode": "2000-548",
      "city": "STA IRIA RIBEIRA SANTARÉM",
      "lon": "-8.67198839577157",
      "lat": "39.261596137647516"
    },
    {
      "id": "pt.ine.add.PTCONT.4483274",
      "street": "R SENHORA DA SAÚDE",
      "house": "",
      "postcode": "2000-548",
      "city": "STA IRIA RIBEIRA SANTARÉM",
      "lon": "-8.67198839577157",
      "lat": "39.261596137647516"
    },
    {
      "id": "pt.ine.add.PTCONT.4498152",
      "street": "R SENHORA DA SAÚDE",
      "house": "",
      "postcode": "2000-548",
      "city": "STA IRIA RIBEIRA SANTARÉM",
      "lon": "-8.67198839577157",
      "lat": "39.261596137647516"
    },
    {
      "id": "pt.ine.add.PTCONT.4513473",
      "street": "R SENHORA DA SAÚDE",
      "house": "",
      "postcode": "2000-548",
      "city": "STA IRIA RIBEIRA SANTARÉM",
      "lon": "-8.67198839577157",
      "lat": "39.261596137647516"
    },
    {
      "id": "pt.ine.add.PTCONT.4520431",
      "street": "R SENHORA DA SAÚDE",
      "house": "",
      "postcode": "2005-287",
      "city": "",
      "lon": "-8.678634543658534",
      "lat": "39.25653013059543"
    },
    {
      "id": "pt.ine.add.PTCONT.4529474",
      "street": "EN 365 CASAL DA MAGOILA",
      "house": "",
      "postcode": "2000-547",
      "city": "STA IRIA RIBEIRA SANTARÉM",
      "lon": "-8.665407069409644",
      "lat": "39.26463483280955"
    },
    {
      "id": "pt.ine.add.PTCONT.4530085",
      "street": "R SENHORA DA SAÚDE",
      "house": "",
      "postcode": "2005-287",
      "city": "",
      "lon": "-8.678356427880486",
      "lat": "39.25652242575526"
    },
    {
      "id": "pt.ine.add.PTCONT.4535150",
      "street": "R SENHORA DA SAÚDE",
      "house": "",
      "postcode": "2000-548",
      "city": "STA IRIA RIBEIRA SANTARÉM",
      "lon": "-8.675531361263905",
      "lat": "39.25676079991062"
    },
    {
      "id": "pt.ine.add.PTCONT.4540048",
      "street": "R SENHORA DA SAÚDE",
      "house": "",
      "postcode": "2000-548",
      "city": "STA IRIA RIBEIRA SANTARÉM",
      "lon": "-8.67198839577157",
      "lat": "39.261596137647516"
    },
    {
      "id": "pt.ine.add.PTCONT.4545186",
      "street": "QTA BELA VISTA",
      "house": "",
      "postcode": "2005-288",
      "city": "SANTARÉM",
      "lon": "-8.670501899889318",
      "lat": "39.25963041477402"
    },
    {
      "id": "pt.ine.add.PTCONT.4553353",
      "street": "CSL CASAL DO RAFAO",
      "house": "",
      "postcode": "2000-547",
      "city": "STA IRIA RIBEIRA SANTARÉM",
      "lon": "-8.67087833268832",
      "lat": "39.261889501551856"
    },
    {
      "id": "pt.ine.add.PTCONT.4559634",
      "street": "R SENHORA DA SAÚDE",
      "house": "",
      "postcode": "2000-548",
      "city": "STA IRIA RIBEIRA SANTARÉM",
      "lon": "-8.67198839577157",
      "lat": "39.261596137647516"
    },
    {
      "id": "pt.ine.add.PTCONT.4563955",
      "street": "R SENHORA DA SAÚDE",
      "house": "",
      "postcode": "2000-548",
      "city": "STA IRIA RIBEIRA SANTARÉM",
      "lon": "-8.67198839577157",
      "lat": "39.261596137647516"
    },
    {
      "id": "pt.ine.add.PTCONT.4566978",
      "street": "QTA DE SANTO ANTÓNIO",
      "house": "",
      "postcode": "2000-547",
      "city": "STA IRIA RIBEIRA SANTARÉM",
      "lon": "-8.66951106151428",
      "lat": "39.264922248388565"
    },
    {
      "id": "pt.ine.add.PTCONT.4599272",
      "street": "CSL BOAVISTA",
      "house": "",
      "postcode": "2005-288",
      "city": "SANTARÉM",
      "lon": "-8.674232448889297",
      "lat": "39.259604133068294"
    },
    {
      "id": "pt.ine.add.PTCONT.4601385",
      "street": "R SENHORA DA SAÚDE",
      "house": "",
      "postcode": "2000-548",
      "city": "STA IRIA RIBEIRA SANTARÉM",
      "lon": "-8.67198839577157",
      "lat": "39.261596137647516"
    },
    {
      "id": "pt.ine.add.PTCONT.4615903",
      "street": "R SENHORA DA SAÚDE",
      "house": "",
      "postcode": "2000-548",
      "city": "STA IRIA RIBEIRA SANTARÉM",
      "lon": "-8.67198839577157",
      "lat": "39.261596137647516"
    },
    {
      "id": "pt.ine.add.PTCONT.4622259",
      "street": "CSL CASAL BELA VISTA",
      "house": "",
      "postcode": "2000-548",
      "city": "STA IRIA RIBEIRA SANTARÉM",
      "lon": "-8.676412032115104",
      "lat": "39.259783137767144"
    },
    {
      "id": "pt.ine.add.PTCONT.4622260",
      "street": "",
      "house": "",
      "postcode": "2000-547",
      "city": "STA IRIA RIBEIRA SANTARÉM",
      "lon": "-8.671387474482353",
      "lat": "39.25725741234435"
    },
    {
      "id": "pt.ine.add.PTCONT.4624565",
      "street": "R SENHORA DA SAÚDE",
      "house": "",
      "postcode": "2005-287",
      "city": "",
      "lon": "-8.678437594402814",
      "lat": "39.256531052989175"
    },
    {
      "id": "pt.ine.add.PTCONT.4643414",
      "street": "",
      "house": "",
      "postcode": "2000-547",
      "city": "STA IRIA RIBEIRA SANTARÉM",
      "lon": "-8.668411176219916",
      "lat": "39.26046871257301"
    },
    {
      "id": "pt.ine.add.PTCONT.4650762",
      "street": "",
      "house": "",
      "postcode": "2000-547",
      "city": "STA IRIA RIBEIRA SANTARÉM",
      "lon": "-8.66827385737878",
      "lat": "39.2606945254339"
    }
  ]
}