{
  "data": {
    "distrito": "Viseu",
    "concelho": "Sernancelhe",
    "freguesia": "União das freguesias de Ferreirim e Macieira",
    "OBJECTID": 102,
    "BGRI2021": "18181800124",
    "DT21": "18",
    "DTMN21": "1818",
    "DTMNFR21": "181818",
    "DTMNFRSEC21": "181818001",
    "SECNUM21": "001",
    "SSNUM21": "24",
    "SECSSNUM21": "00124",
    "OBJECTID_1": 197860,
    "DT": "18",
    "CC": "18",
    "fr": "18",
    "SEC": "001",
    "SS": "24"
  },
  "addresses": [
    {
      "id": "pt.ine.add.PTCONT.5434976",
      "street": "LG TILIAS",
      "house": "",
      "postcode": "3640-150",
      "city": "MACIEIRA SRN",
      "lon": "-7.486192884687601",
      "lat": "40.989684316377264"
    },
    {
      "id": "pt.ine.add.PTCONT.5449073",
      "street": "R CIMO DO POVO",
      "house": "",
      "postcode": "3640-150",
      "city": "MACIEIRA SRN",
      "lon": "-7.4851059058698635",
      "lat": "40.98903888671693"
    },
    {
      "id": "pt.ine.add.PTCONT.5500291",
      "street": "R FORMOSA",
      "house": "",
      "postcode": "3640-150",
      "city": "MACIEIRA SRN",
      "lon": "-7.485125793000193",
      "lat": "40.98943519963602"
    },
    {
      "id": "pt.ine.add.PTCONT.5502267",
      "street": "R LAGAR",
      "house": "",
      "postcode": "3640-150",
      "city": "MACIEIRA SRN",
      "lon": "-7.484133185346066",
      "lat": "40.988862327806636"
    },
    {
      "id": "pt.ine.add.PTCONT.5539164",
      "street": "R PALMEIRA",
      "house": "",
      "postcode": "3640-150",
      "city": "MACIEIRA SRN",
      "lon": "-7.485979430483325",
      "lat": "40.98963809544594"
    },
    {
      "id": "pt.ine.add.PTCONT.5555224",
      "street": "R TERREIRINHO",
      "house": "",
      "postcode": "3640-150",
      "city": "MACIEIRA SRN",
      "lon": "-7.485871426742678",
      "lat": "40.98974554393824"
    },
    {
      "id": "pt.ine.add.PTCONT.5561363",
      "street": "R TILIAS",
      "house": "",
      "postcode": "3640-150",
      "city": "MACIEIRA SRN",
      "lon": "-7.486288212851016",
      "lat": "40.98965783759626"
    },
    {
      "id": "pt.ine.add.PTCONT.5601310",
      "street": "LG TILIAS",
      "house": "",
      "postcode": "3640-150",
      "city": "MACIEIRA SRN",
      "lon": "-7.48601578378024",
      "lat": "40.98956626295174"
    },
    {
      "id": "pt.ine.add.PTCONT.5612468",
      "street": "R TERREIRINHO",
      "house": "",
      "postcode": "3640-150",
      "city": "MACIEIRA SRN",
      "lon": "-7.486394192220847",
      "lat": "40.989757482481586"
    },
    {
      "id": "pt.ine.add.PTCONT.5636960",
      "street": "R LAGAR",
      "house": "3",
      "postcode": "3640-150",
      "city": "MACIEIRA SRN",
      "lon": "-7.4849377816804425",
      "lat": "40.98921803294318"
    },
    {
      "id": "pt.ine.add.PTCONT.5644518",
      "street": "R PRAÇA",
      "house": "",
      "postcode": "3640-150",
      "city": "MACIEIRA SRN",
      "lon": "-7.48532665794754",
      "lat": "40.989553387970076"
    },
    {
      "id": "pt.ine.add.PTCONT.5647388",
      "street": "R TERREIRINHO",
      "house": "1",
      "postcode": "3640-150",
      "city": "MACIEIRA SRN",
      "lon": "-7.4861686785857335",
      "lat": "40.98972920338618"
    },
    {
      "id": "pt.ine.add.PTCONT.5669879",
      "street": "R MOREIRINHAS",
      "house": "",
      "postcode": "3640-150",
      "city": "MACIEIRA SRN",
      "lon": "-7.485765976581911",
      "lat": "40.9895918741212"
    }
  ]
}