{
  "data": {
    "distrito": "Aveiro",
    "concelho": "Águeda",
    "freguesia": "Valongo do Vouga",
    "OBJECTID": 212,
    "BGRI2021": "01011900421",
    "DT21": "01",
    "DTMN21": "0101",
    "DTMNFR21": "010119",
    "DTMNFRSEC21": "010119004",
    "SECNUM21": "004",
    "SSNUM21": "21",
    "SECSSNUM21": "00421",
    "OBJECTID_1": 129,
    "DT": "01",
    "CC": "01",
    "fr": "19",
    "SEC": "004",
    "SS": "21"
  },
  "addresses": [
    {
      "id": "pt.ine.add.PTCONT.312511",
      "street": "TV S MARCOS",
      "house": "2",
      "postcode": "3750-583",
      "city": "VALONGO DO VOUGA",
      "lon": "-8.452283121831506",
      "lat": "40.63610221032937"
    },
    {
      "id": "pt.ine.add.PTCONT.339621",
      "street": "R FATOSINHO",
      "house": "1",
      "postcode": "3750-585",
      "city": "VALONGO DO VOUGA",
      "lon": "-8.448201168385577",
      "lat": "40.63781539948888"
    },
    {
      "id": "pt.ine.add.PTCONT.345308",
      "street": "R PRINCIPAL",
      "house": "12",
      "postcode": "3750-585",
      "city": "VALONGO DO VOUGA",
      "lon": "-8.447113300320245",
      "lat": "40.63774632111549"
    },
    {
      "id": "pt.ine.add.PTCONT.345344",
      "street": "R PRINCIPAL",
      "house": "6",
      "postcode": "3750-585",
      "city": "VALONGO DO VOUGA",
      "lon": "-8.44654349303915",
      "lat": "40.63723457362261"
    },
    {
      "id": "pt.ine.add.PTCONT.347230",
      "street": "R CHÃO DE PEDRA",
      "house": "4",
      "postcode": "3750-583",
      "city": "VALONGO DO VOUGA",
      "lon": "-8.449367586283438",
      "lat": "40.634489297998314"
    },
    {
      "id": "pt.ine.add.PTCONT.348422",
      "street": "R VALES",
      "house": "6",
      "postcode": "3750-585",
      "city": "VALONGO DO VOUGA",
      "lon": "-8.448056326280394",
      "lat": "40.6346639800159"
    },
    {
      "id": "pt.ine.add.PTCONT.1226",
      "street": "R VALES",
      "house": "1",
      "postcode": "3750-585",
      "city": "VALONGO DO VOUGA",
      "lon": "-8.44859832804326",
      "lat": "40.63429328794148"
    },
    {
      "id": "pt.ine.add.PTCONT.2756",
      "street": "R CHAO PEDRA",
      "house": "N 12",
      "postcode": "3750-583",
      "city": "VALONGO DO VOUGA",
      "lon": "-8.449711271006718",
      "lat": "40.634677465225"
    },
    {
      "id": "pt.ine.add.PTCONT.2761",
      "street": "R PRINCIPAL",
      "house": "18",
      "postcode": "3750-585",
      "city": "VALONGO DO VOUGA",
      "lon": "-8.447918818417273",
      "lat": "40.638104335344366"
    },
    {
      "id": "pt.ine.add.PTCONT.2762",
      "street": "R VALES",
      "house": "285",
      "postcode": "3750-585",
      "city": "VALONGO DO VOUGA",
      "lon": "-8.446866594218779",
      "lat": "40.63554972675275"
    },
    {
      "id": "pt.ine.add.PTCONT.18644",
      "street": "R LAMEIRADA",
      "house": "",
      "postcode": "3750-583",
      "city": "VALONGO DO VOUGA",
      "lon": "-8.448500250186669",
      "lat": "40.63605857231169"
    },
    {
      "id": "pt.ine.add.PTCONT.26627",
      "street": "R LINA",
      "house": "4",
      "postcode": "3750-583",
      "city": "VALONGO DO VOUGA",
      "lon": "-8.451373186278014",
      "lat": "40.63615875271718"
    },
    {
      "id": "pt.ine.add.PTCONT.26628",
      "street": "R LINA",
      "house": "4",
      "postcode": "3750-583",
      "city": "VALONGO DO VOUGA",
      "lon": "-8.451373186278014",
      "lat": "40.63615875271718"
    },
    {
      "id": "pt.ine.add.PTCONT.29721",
      "street": "R VALES",
      "house": "2",
      "postcode": "3750-585",
      "city": "VALONGO DO VOUGA",
      "lon": "-8.448456695544031",
      "lat": "40.63433870071099"
    },
    {
      "id": "pt.ine.add.PTCONT.29722",
      "street": "R CAMEIRA",
      "house": "2",
      "postcode": "3750-583",
      "city": "VALONGO DO VOUGA",
      "lon": "-8.449843338348977",
      "lat": "40.63510935203336"
    },
    {
      "id": "pt.ine.add.PTCONT.37147",
      "street": "R CHÃO DE PEPRA",
      "house": "27",
      "postcode": "3750-583",
      "city": "VALONGO DO VOUGA",
      "lon": "-8.451903618007938",
      "lat": "40.63584210822527"
    },
    {
      "id": "pt.ine.add.PTCONT.42595",
      "street": "R CHÃO DE PEDRA",
      "house": "16",
      "postcode": "3750-811",
      "city": "VALONGO DO VOUGA",
      "lon": "-8.450743147590506",
      "lat": "40.635413056983694"
    },
    {
      "id": "pt.ine.add.PTCONT.72547",
      "street": "R CABEÇO",
      "house": "",
      "postcode": "3750-585",
      "city": "VALONGO DO VOUGA",
      "lon": "-8.447550836183213",
      "lat": "40.635259699777734"
    },
    {
      "id": "pt.ine.add.PTCONT.78094",
      "street": "R VALES",
      "house": "217",
      "postcode": "3750-585",
      "city": "VALONGO DO VOUGA",
      "lon": "-8.447242784812612",
      "lat": "40.63510744996132"
    },
    {
      "id": "pt.ine.add.PTCONT.78097",
      "street": "R LAMEIRADA",
      "house": "3",
      "postcode": "3750-585",
      "city": "VALONGO DO VOUGA",
      "lon": "-8.446432768804529",
      "lat": "40.63630734014487"
    },
    {
      "id": "pt.ine.add.PTCONT.78100",
      "street": "TV S MARCOS",
      "house": "4",
      "postcode": "3750-583",
      "city": "VALONGO DO VOUGA",
      "lon": "-8.45241199091797",
      "lat": "40.63585871411392"
    },
    {
      "id": "pt.ine.add.PTCONT.84661",
      "street": "R PRINCIPAL",
      "house": "25",
      "postcode": "3750-585",
      "city": "VALONGO DO VOUGA",
      "lon": "-8.448142783097097",
      "lat": "40.63796864686893"
    },
    {
      "id": "pt.ine.add.PTCONT.84662",
      "street": "TV CABEÇO",
      "house": "1",
      "postcode": "3750-803",
      "city": "VALONGO DO VOUGA",
      "lon": "-8.450222830053125",
      "lat": "40.63536946098652"
    },
    {
      "id": "pt.ine.add.PTCONT.84664",
      "street": "R VALES",
      "house": "10",
      "postcode": "3750-585",
      "city": "VALONGO DO VOUGA",
      "lon": "-8.447561093509421",
      "lat": "40.63492647995319"
    },
    {
      "id": "pt.ine.add.PTCONT.102402",
      "street": "R PRINCIPAL",
      "house": "25",
      "postcode": "3750-585",
      "city": "VALONGO DO VOUGA",
      "lon": "-8.448332978178188",
      "lat": "40.63819325740773"
    },
    {
      "id": "pt.ine.add.PTCONT.111803",
      "street": "R PRINCIPAL",
      "house": "3",
      "postcode": "3750-585",
      "city": "VALONGO DO VOUGA",
      "lon": "-8.446470462484536",
      "lat": "40.636784512635806"
    },
    {
      "id": "pt.ine.add.PTCONT.111805",
      "street": "R CAVADINHAS",
      "house": "9",
      "postcode": "3750-585",
      "city": "VALONGO DO VOUGA",
      "lon": "-8.447820467406837",
      "lat": "40.634781690430735"
    },
    {
      "id": "pt.ine.add.PTCONT.118056",
      "street": "R PRINCIPAL",
      "house": "2",
      "postcode": "3750-585",
      "city": "VALONGO DO VOUGA",
      "lon": "-8.446091944448845",
      "lat": "40.636731508006044"
    },
    {
      "id": "pt.ine.add.PTCONT.120162",
      "street": "R VALES",
      "house": "7",
      "postcode": "3750-585",
      "city": "VALONGO DO VOUGA",
      "lon": "-8.447926597658084",
      "lat": "40.634727370042846"
    },
    {
      "id": "pt.ine.add.PTCONT.128501",
      "street": "R CHÃO DE PEDRA",
      "house": "8",
      "postcode": "3750-583",
      "city": "VALONGO DO VOUGA",
      "lon": "-8.449604589496218",
      "lat": "40.63461472133503"
    },
    {
      "id": "pt.ine.add.PTCONT.130540",
      "street": "R PRINCIPAL",
      "house": "1",
      "postcode": "3750-585",
      "city": "VALONGO DO VOUGA",
      "lon": "-8.446185206750988",
      "lat": "40.636452094499894"
    },
    {
      "id": "pt.ine.add.PTCONT.131376",
      "street": "R CABEÇO",
      "house": "",
      "postcode": "3750-585",
      "city": "VALONGO DO VOUGA",
      "lon": "-8.448555199982131",
      "lat": "40.635175914058486"
    },
    {
      "id": "pt.ine.add.PTCONT.141161",
      "street": "R LAMEIRADA",
      "house": "9",
      "postcode": "3750-583",
      "city": "VALONGO DO VOUGA",
      "lon": "-8.447836304988071",
      "lat": "40.63563713995423"
    },
    {
      "id": "pt.ine.add.PTCONT.146894",
      "street": "R CHÃO DE PEDRA",
      "house": "19",
      "postcode": "3750-583",
      "city": "VALONGO DO VOUGA",
      "lon": "-8.450268492966053",
      "lat": "40.635027138528194"
    },
    {
      "id": "pt.ine.add.PTCONT.148960",
      "street": "TV S MARCOS",
      "house": "6",
      "postcode": "3750-583",
      "city": "VALONGO DO VOUGA",
      "lon": "-8.452470750807542",
      "lat": "40.635786510157274"
    },
    {
      "id": "pt.ine.add.PTCONT.149326",
      "street": "TV FONTE",
      "house": "1",
      "postcode": "3750-585",
      "city": "VALONGO DO VOUGA",
      "lon": "-8.448581559339193",
      "lat": "40.63826462006118"
    },
    {
      "id": "pt.ine.add.PTCONT.168531",
      "street": "R VALES",
      "house": "205",
      "postcode": "3750-585",
      "city": "VALONGO DO VOUGA",
      "lon": "-8.447336842241617",
      "lat": "40.63499913183748"
    },
    {
      "id": "pt.ine.add.PTCONT.168538",
      "street": "R PRINCIPAL",
      "house": "11",
      "postcode": "3750-585",
      "city": "VALONGO DO VOUGA",
      "lon": "-8.446862867650761",
      "lat": "40.63727873228147"
    },
    {
      "id": "pt.ine.add.PTCONT.168539",
      "street": "TV CABEÇO",
      "house": "",
      "postcode": "3750-803",
      "city": "VALONGO DO VOUGA",
      "lon": "-8.449987227990189",
      "lat": "40.635541206218136"
    },
    {
      "id": "pt.ine.add.PTCONT.173926",
      "street": "R PRINCIPAL",
      "house": "19",
      "postcode": "3750-585",
      "city": "VALONGO DO VOUGA",
      "lon": "-8.447905728400693",
      "lat": "40.63783421557234"
    },
    {
      "id": "pt.ine.add.PTCONT.173959",
      "street": "R VALES",
      "house": "9",
      "postcode": "3750-585",
      "city": "VALONGO DO VOUGA",
      "lon": "-8.447678960137043",
      "lat": "40.63485411746307"
    },
    {
      "id": "pt.ine.add.PTCONT.179852",
      "street": "",
      "house": "",
      "postcode": "3750-583",
      "city": "VALONGO DO VOUGA",
      "lon": "-8.450190734022755",
      "lat": "40.63608095873288"
    },
    {
      "id": "pt.ine.add.PTCONT.186592",
      "street": "R CABEÇO",
      "house": "13",
      "postcode": "3750-585",
      "city": "VALONGO DO VOUGA",
      "lon": "-8.447089961936266",
      "lat": "40.63528796928295"
    },
    {
      "id": "pt.ine.add.PTCONT.194669",
      "street": "R CHÃO DE PEDRA",
      "house": "16",
      "postcode": "3750-811",
      "city": "VALONGO DO VOUGA",
      "lon": "-8.451561290367241",
      "lat": "40.63594210974241"
    },
    {
      "id": "pt.ine.add.PTCONT.195022",
      "street": "R PRINCIPAL",
      "house": "",
      "postcode": "3750-585",
      "city": "VALONGO DO VOUGA",
      "lon": "-8.446896643818471",
      "lat": "40.636918433178174"
    },
    {
      "id": "pt.ine.add.PTCONT.219707",
      "street": "R PRINCIPAL",
      "house": "15",
      "postcode": "3750-585",
      "city": "VALONGO DO VOUGA",
      "lon": "-8.447159318251249",
      "lat": "40.63747604050691"
    },
    {
      "id": "pt.ine.add.PTCONT.219708",
      "street": "R PRINCIPAL",
      "house": "7",
      "postcode": "3750-585",
      "city": "VALONGO DO VOUGA",
      "lon": "-8.446707552731096",
      "lat": "40.636927951996675"
    },
    {
      "id": "pt.ine.add.PTCONT.222293",
      "street": "R VALES",
      "house": "3",
      "postcode": "3750-585",
      "city": "VALONGO DO VOUGA",
      "lon": "-8.448315147549929",
      "lat": "40.634402123450705"
    },
    {
      "id": "pt.ine.add.PTCONT.224940",
      "street": "R POÇO NOVO",
      "house": "",
      "postcode": "3750-585",
      "city": "VALONGO DO VOUGA",
      "lon": "-8.445951986497162",
      "lat": "40.637137120499716"
    },
    {
      "id": "pt.ine.add.PTCONT.232974",
      "street": "R VALES",
      "house": "4",
      "postcode": "3750-585",
      "city": "VALONGO DO VOUGA",
      "lon": "-8.448185504342897",
      "lat": "40.634483523911996"
    },
    {
      "id": "pt.ine.add.PTCONT.232987",
      "street": "R FATOSINHO",
      "house": "3",
      "postcode": "3750-585",
      "city": "VALONGO DO VOUGA",
      "lon": "-8.44841318346827",
      "lat": "40.637652727540434"
    },
    {
      "id": "pt.ine.add.PTCONT.241120",
      "street": "R PRINCIPAL",
      "house": "8",
      "postcode": "3750-585",
      "city": "VALONGO DO VOUGA",
      "lon": "-8.446840406218042",
      "lat": "40.63753093842395"
    },
    {
      "id": "pt.ine.add.PTCONT.268290",
      "street": "R CINA",
      "house": "",
      "postcode": "3750-811",
      "city": "VALONGO DO VOUGA",
      "lon": "-8.45090159705062",
      "lat": "40.636421201748064"
    },
    {
      "id": "pt.ine.add.PTCONT.273300",
      "street": "R CHÃO DE PEDRA",
      "house": "25",
      "postcode": "3750-583",
      "city": "VALONGO DO VOUGA",
      "lon": "-8.451524159910376",
      "lat": "40.63559100991833"
    },
    {
      "id": "pt.ine.add.PTCONT.276314",
      "street": "R LAMEIRADA",
      "house": "4",
      "postcode": "3750-585",
      "city": "VALONGO DO VOUGA",
      "lon": "-8.446528387353679",
      "lat": "40.63653221029065"
    },
    {
      "id": "pt.ine.add.PTCONT.289604",
      "street": "R VALES",
      "house": "5",
      "postcode": "3750-585",
      "city": "VALONGO DO VOUGA",
      "lon": "-8.448126910252006",
      "lat": "40.634591746004105"
    },
    {
      "id": "pt.ine.add.PTCONT.289605",
      "street": "R CABEÇO",
      "house": "6",
      "postcode": "3750-583",
      "city": "VALONGO DO VOUGA",
      "lon": "-8.44925154856355",
      "lat": "40.63494888023407"
    }
  ]
}