{
  "data": {
    "distrito": "Portalegre",
    "concelho": "Alter do Chão",
    "freguesia": "Alter do Chão",
    "OBJECTID": 174,
    "BGRI2021": "12010100347",
    "DT21": "12",
    "DTMN21": "1201",
    "DTMNFR21": "120101",
    "DTMNFRSEC21": "120101003",
    "SECNUM21": "003",
    "SSNUM21": "47",
    "SECSSNUM21": "00347",
    "OBJECTID_1": 120288,
    "DT": "12",
    "CC": "01",
    "fr": "01",
    "SEC": "003",
    "SS": "47"
  },
  "addresses": [
    {
      "id": "pt.ine.add.PTCONT.3537800",
      "street": "R SENHOR SANTANA",
      "house": "2",
      "postcode": "7440-099",
      "city": "ALTER DO CHÃO",
      "lon": "-7.6557763396784875",
      "lat": "39.19827290643847"
    },
    {
      "id": "pt.ine.add.PTCONT.3460019",
      "street": "R SAUDADE",
      "house": "40",
      "postcode": "7440-048",
      "city": "ALTER DO CHÃO",
      "lon": "-7.655586967441955",
      "lat": "39.197910844332384"
    },
    {
      "id": "pt.ine.add.PTCONT.3470422",
      "street": "SIT TRAVANQUE",
      "house": "",
      "postcode": "7440-224",
      "city": "ALTER DO CHÃO",
      "lon": "-7.6541687104143135",
      "lat": "39.19805913913099"
    },
    {
      "id": "pt.ine.add.PTCONT.3473763",
      "street": "R DA SAUDADE",
      "house": "28",
      "postcode": "7440-048",
      "city": "ALTER DO CHÃO",
      "lon": "-7.655387798886215",
      "lat": "39.19766540445392"
    },
    {
      "id": "pt.ine.add.PTCONT.3480868",
      "street": "R SAUDADE",
      "house": "34",
      "postcode": "7440-048",
      "city": "ALTER DO CHÃO",
      "lon": "-7.655398608223845",
      "lat": "39.197640841506164"
    },
    {
      "id": "pt.ine.add.PTCONT.3480869",
      "street": "R SAUDADE",
      "house": "20",
      "postcode": "7440-048",
      "city": "ALTER DO CHÃO",
      "lon": "-7.655111046885494",
      "lat": "39.19736944060216"
    },
    {
      "id": "pt.ine.add.PTCONT.3482040",
      "street": "R SAUDADE",
      "house": "8",
      "postcode": "7440-048",
      "city": "ALTER DO CHÃO",
      "lon": "-7.654743680124066",
      "lat": "39.19691756367019"
    },
    {
      "id": "pt.ine.add.PTCONT.3482293",
      "street": "AZ DO TRAVANQUE - MONTE JOSÉ ROQUE",
      "house": "",
      "postcode": "7440-151",
      "city": "ALTER DO CHÃO",
      "lon": "-7.6510283559497365",
      "lat": "39.198532586048024"
    },
    {
      "id": "pt.ine.add.PTCONT.3485744",
      "street": "R SAUDADE",
      "house": "",
      "postcode": "7440-048",
      "city": "ALTER DO CHÃO",
      "lon": "-7.654583149577463",
      "lat": "39.19669171985565"
    },
    {
      "id": "pt.ine.add.PTCONT.3490177",
      "street": "R SAUDADE",
      "house": "26",
      "postcode": "7440-048",
      "city": "ALTER DO CHÃO",
      "lon": "-7.655358261043905",
      "lat": "39.19763197313395"
    },
    {
      "id": "pt.ine.add.PTCONT.3493267",
      "street": "R SENHOR SANTANA",
      "house": "10",
      "postcode": "7440-099",
      "city": "ALTER DO CHÃO",
      "lon": "-7.6555057257296575",
      "lat": "39.19831173795427"
    },
    {
      "id": "pt.ine.add.PTCONT.3495176",
      "street": "R SAUDADE",
      "house": "36",
      "postcode": "7440-048",
      "city": "ALTER DO CHÃO",
      "lon": "-7.6555639767231645",
      "lat": "39.19788802897816"
    },
    {
      "id": "pt.ine.add.PTCONT.3496382",
      "street": "R SENHOR SANTANA",
      "house": "",
      "postcode": "7440-099",
      "city": "ALTER DO CHÃO",
      "lon": "-7.65559118786607",
      "lat": "39.19826314034471"
    },
    {
      "id": "pt.ine.add.PTCONT.3497238",
      "street": "R DA SAUDADE",
      "house": "22",
      "postcode": "7440-048",
      "city": "ALTER DO CHÃO",
      "lon": "-7.6551686810297035",
      "lat": "39.197405706574266"
    },
    {
      "id": "pt.ine.add.PTCONT.3498311",
      "street": "R SAUDADE",
      "house": "18",
      "postcode": "7440-048",
      "city": "ALTER DO CHÃO",
      "lon": "-7.6550191131874525",
      "lat": "39.19726998217742"
    },
    {
      "id": "pt.ine.add.PTCONT.3502723",
      "street": "R SAUDADE",
      "house": "46",
      "postcode": "7440-048",
      "city": "ALTER DO CHÃO",
      "lon": "-7.6557069553489105",
      "lat": "39.198073035679634"
    },
    {
      "id": "pt.ine.add.PTCONT.3505265",
      "street": "R SAUDADE",
      "house": "44",
      "postcode": "7440-048",
      "city": "ALTER DO CHÃO",
      "lon": "-7.655681233533277",
      "lat": "39.1980464882085"
    },
    {
      "id": "pt.ine.add.PTCONT.3505416",
      "street": "QTA NETOS",
      "house": "",
      "postcode": "7440-151",
      "city": "ALTER DO CHÃO",
      "lon": "-7.647253766989607",
      "lat": "39.19864300990264"
    },
    {
      "id": "pt.ine.add.PTCONT.3517799",
      "street": "R SAUDADE",
      "house": "30",
      "postcode": "7440-048",
      "city": "ALTER DO CHÃO",
      "lon": "-7.655428868098762",
      "lat": "39.19770560525467"
    },
    {
      "id": "pt.ine.add.PTCONT.3523887",
      "street": "AZ TRAVANQUE",
      "house": "",
      "postcode": "7440-151",
      "city": "ALTER DO CHÃO",
      "lon": "-7.646460954653982",
      "lat": "39.19945937247038"
    },
    {
      "id": "pt.ine.add.PTCONT.3524571",
      "street": "R SAUDADE",
      "house": "48",
      "postcode": "7440-048",
      "city": "ALTER DO CHÃO",
      "lon": "-7.655727221705545",
      "lat": "39.1980909812604"
    }
  ]
}