{
  "data": {
    "distrito": "Lisboa",
    "concelho": "Vila Franca de Xira",
    "freguesia": "Uni√£o das freguesias de Alverca do Ribatejo e Sobralinho",
    "OBJECTID": 1136,
    "BGRI2021": "11141302303",
    "DT21": "11",
    "DTMN21": "1114",
    "DTMNFR21": "111413",
    "DTMNFRSEC21": "111413023",
    "SECNUM21": "023",
    "SSNUM21": "03",
    "SECSSNUM21": "02303",
    "OBJECTID_1": 117885,
    "DT": "11",
    "CC": "14",
    "fr": "13",
    "SEC": "023",
    "SS": "03"
  },
  "addresses": [
    {
      "id": "pt.ine.add.PTCONT.2336944",
      "street": "LG GREGORIO NUNES",
      "house": "1 1 A",
      "postcode": "2615-088",
      "city": "ALVERCA DO RIBATEJO",
      "lon": "-9.039368187822527",
      "lat": "38.89920092672709"
    },
    {
      "id": "pt.ine.add.PTCONT.2345881",
      "street": "R OUTEIRO",
      "house": "7",
      "postcode": "2615-147",
      "city": "ALVERCA DO RIBATEJO",
      "lon": "-9.039760645891452",
      "lat": "38.89924291808344"
    },
    {
      "id": "pt.ine.add.PTCONT.2401300",
      "street": "TV TRAQUITE",
      "house": "1",
      "postcode": "2615-214",
      "city": "ALVERCA DO RIBATEJO",
      "lon": "-9.039794307667231",
      "lat": "38.89917059533644"
    },
    {
      "id": "pt.ine.add.PTCONT.2455830",
      "street": "R OUTEIRO",
      "house": "",
      "postcode": "2615-147",
      "city": "ALVERCA DO RIBATEJO",
      "lon": "-9.039657827697903",
      "lat": "38.8993157778158"
    },
    {
      "id": "pt.ine.add.PTCONT.2548150",
      "street": "LG GREGORIO NUNES",
      "house": "7",
      "postcode": "2615-088",
      "city": "ALVERCA DO RIBATEJO",
      "lon": "-9.03957771787901",
      "lat": "38.89936143815038"
    },
    {
      "id": "pt.ine.add.PTCONT.2840626",
      "street": "LG TERREIRINHO",
      "house": "6",
      "postcode": "2615-209",
      "city": "ALVERCA DO RIBATEJO",
      "lon": "-9.03965381922885",
      "lat": "38.89900054056873"
    },
    {
      "id": "pt.ine.add.PTCONT.2885395",
      "street": "LG TERREIRINHO",
      "house": "34",
      "postcode": "2615-209",
      "city": "ALVERCA DO RIBATEJO",
      "lon": "-9.039805031876348",
      "lat": "38.89910745837989"
    },
    {
      "id": "pt.ine.add.PTCONT.2913579",
      "street": "CC TERREIRINHO",
      "house": "04- 04Q",
      "postcode": "2615-208",
      "city": "ALVERCA DO RIBATEJO",
      "lon": "-9.039424444044743",
      "lat": "38.899092398029076"
    },
    {
      "id": "pt.ine.add.PTCONT.2931348",
      "street": "LG GREGORIO NUNES",
      "house": "",
      "postcode": "2615-088",
      "city": "ALVERCA DO RIBATEJO",
      "lon": "-9.039484020760673",
      "lat": "38.89924506589465"
    },
    {
      "id": "pt.ine.add.PTCONT.2959277",
      "street": "LG GREGORIO NUNES",
      "house": "S",
      "postcode": "2615-088",
      "city": "ALVERCA DO RIBATEJO",
      "lon": "-9.039530697512637",
      "lat": "38.89928974186478"
    },
    {
      "id": "pt.ine.add.PTCONT.3014216",
      "street": "LG TERREIRINHO",
      "house": "4",
      "postcode": "2615-209",
      "city": "ALVERCA DO RIBATEJO",
      "lon": "-9.03968736647326",
      "lat": "38.898919211070854"
    },
    {
      "id": "pt.ine.add.PTCONT.3079256",
      "street": "LG TERREIRINHO",
      "house": "8",
      "postcode": "2615-209",
      "city": "ALVERCA DO RIBATEJO",
      "lon": "-9.039700495922785",
      "lat": "38.89904521647345"
    },
    {
      "id": "pt.ine.add.PTCONT.3116219",
      "street": "CC TERREIRINHO",
      "house": "2",
      "postcode": "2615-208",
      "city": "ALVERCA DO RIBATEJO",
      "lon": "-9.039402078970754",
      "lat": "38.8991466176465"
    },
    {
      "id": "pt.ine.add.PTCONT.3116220",
      "street": "LG TERREIRINHO",
      "house": "4 B",
      "postcode": "2615-209",
      "city": "ALVERCA DO RIBATEJO",
      "lon": "-9.039755949742261",
      "lat": "38.898873640169576"
    },
    {
      "id": "pt.ine.add.PTCONT.3301701",
      "street": "R BOCA LARA",
      "house": "2",
      "postcode": "2615-050",
      "city": "ALVERCA DO RIBATEJO",
      "lon": "-9.039582945416889",
      "lat": "38.89886597583168"
    },
    {
      "id": "pt.ine.add.PTCONT.3301702",
      "street": "R BOCA LARA",
      "house": "4B",
      "postcode": "2615-050",
      "city": "ALVERCA DO RIBATEJO",
      "lon": "-9.039709273128459",
      "lat": "38.89882896428478"
    },
    {
      "id": "pt.ine.add.PTCONT.3392667",
      "street": "LG TERREIRINHO",
      "house": "DO 12",
      "postcode": "2615-209",
      "city": "ALVERCA DO RIBATEJO",
      "lon": "-9.03975824053598",
      "lat": "38.8990537757403"
    },
    {
      "id": "pt.ine.add.PTCONT.3402630",
      "street": "LG TERREIRINHO",
      "house": "5",
      "postcode": "2615-209",
      "city": "ALVERCA DO RIBATEJO",
      "lon": "-9.039584090592328",
      "lat": "38.89895604362218"
    },
    {
      "id": "pt.ine.add.PTCONT.3409032",
      "street": "CC TERREIRINHO",
      "house": "8",
      "postcode": "2615-208",
      "city": "ALVERCA DO RIBATEJO",
      "lon": "-9.039515621642591",
      "lat": "38.89901062120319"
    },
    {
      "id": "pt.ine.add.PTCONT.3409033",
      "street": "R BOCA LARA",
      "house": "4 4A",
      "postcode": "2615-050",
      "city": "ALVERCA DO RIBATEJO",
      "lon": "-9.039663627318562",
      "lat": "38.89886534939118"
    }
  ]
}