{
  "data": {
    "distrito": "Santarém",
    "concelho": "Almeirim",
    "freguesia": "Fazendas de Almeirim",
    "OBJECTID": 204,
    "BGRI2021": "14030300105",
    "DT21": "14",
    "DTMN21": "1403",
    "DTMNFR21": "140303",
    "DTMNFRSEC21": "140303001",
    "SECNUM21": "001",
    "SSNUM21": "05",
    "SECSSNUM21": "00105",
    "OBJECTID_1": 148582,
    "DT": "14",
    "CC": "03",
    "fr": "03",
    "SEC": "001",
    "SS": "05"
  },
  "addresses": [
    {
      "id": "pt.ine.add.PTCONT.4409363",
      "street": "R JOSÉ DIONÍSIO",
      "house": "",
      "postcode": "2080-634",
      "city": "FAZENDAS DE ALMEIRIM",
      "lon": "-8.583801188932426",
      "lat": "39.163448243690844"
    },
    {
      "id": "pt.ine.add.PTCONT.4422268",
      "street": "R LUIS DE CAMÕES",
      "house": "84",
      "postcode": "2080-584",
      "city": "FAZENDAS DE ALMEIRIM",
      "lon": "-8.585588733465213",
      "lat": "39.169755530297465"
    },
    {
      "id": "pt.ine.add.PTCONT.4426441",
      "street": "R LUIS DE CAMÕES",
      "house": "104",
      "postcode": "2080-584",
      "city": "FAZENDAS DE ALMEIRIM",
      "lon": "-8.584262316029891",
      "lat": "39.16680623444657"
    },
    {
      "id": "pt.ine.add.PTCONT.4436887",
      "street": "R JOSE DIONISIO",
      "house": "",
      "postcode": "2080-634",
      "city": "FAZENDAS DE ALMEIRIM",
      "lon": "-8.583811896874312",
      "lat": "39.16331309064061"
    },
    {
      "id": "pt.ine.add.PTCONT.4446952",
      "street": "R LUIS DE CAMÕES CONSTRUCAO HABITADA",
      "house": "98",
      "postcode": "2080-584",
      "city": "FAZENDAS DE ALMEIRIM",
      "lon": "-8.584264214990128",
      "lat": "39.167103472513176"
    },
    {
      "id": "pt.ine.add.PTCONT.4457040",
      "street": "R MOREIRAS",
      "house": "9",
      "postcode": "2080-540",
      "city": "FAZENDAS DE ALMEIRIM",
      "lon": "-8.586669364567548",
      "lat": "39.16685093548919"
    },
    {
      "id": "pt.ine.add.PTCONT.4461454",
      "street": "R MOREIRAS",
      "house": "21",
      "postcode": "2080-540",
      "city": "FAZENDAS DE ALMEIRIM",
      "lon": "-8.585675408263132",
      "lat": "39.165224453540965"
    },
    {
      "id": "pt.ine.add.PTCONT.4479942",
      "street": "R LUIS DE CAMÕES",
      "house": "112",
      "postcode": "2080-584",
      "city": "FAZENDAS DE ALMEIRIM",
      "lon": "-8.584122029691382",
      "lat": "39.16658159153678"
    },
    {
      "id": "pt.ine.add.PTCONT.4498007",
      "street": "R MOREIRAS",
      "house": "23",
      "postcode": "2080-540",
      "city": "FAZENDAS DE ALMEIRIM",
      "lon": "-8.585370481913868",
      "lat": "39.164586109101606"
    },
    {
      "id": "pt.ine.add.PTCONT.4511956",
      "street": "R LUIS DE CAMÕES",
      "house": "92",
      "postcode": "2080-584",
      "city": "FAZENDAS DE ALMEIRIM",
      "lon": "-8.585223452786046",
      "lat": "39.16873010069154"
    },
    {
      "id": "pt.ine.add.PTCONT.4513342",
      "street": "R MOREIRAS",
      "house": "11",
      "postcode": "2080-540",
      "city": "FAZENDAS DE ALMEIRIM",
      "lon": "-8.586888050025225",
      "lat": "39.166669935410354"
    },
    {
      "id": "pt.ine.add.PTCONT.4526020",
      "street": "R MOREIRAS",
      "house": "5",
      "postcode": "2080-540",
      "city": "FAZENDAS DE ALMEIRIM",
      "lon": "-8.586716978025732",
      "lat": "39.167057921198584"
    },
    {
      "id": "pt.ine.add.PTCONT.4558544",
      "street": "R LUIS DE CAMÕES",
      "house": "116",
      "postcode": "2080-584",
      "city": "FAZENDAS DE ALMEIRIM",
      "lon": "-8.584763476279166",
      "lat": "39.165561266721355"
    },
    {
      "id": "pt.ine.add.PTCONT.4581700",
      "street": "R MOREIRAS",
      "house": "35",
      "postcode": "2080-540",
      "city": "FAZENDAS DE ALMEIRIM",
      "lon": "-8.583947690904084",
      "lat": "39.16283517090466"
    },
    {
      "id": "pt.ine.add.PTCONT.4583741",
      "street": "R LUIS DE CAMÕES",
      "house": "100",
      "postcode": "2080-584",
      "city": "FAZENDAS DE ALMEIRIM",
      "lon": "-8.584251781113679",
      "lat": "39.16696840909774"
    },
    {
      "id": "pt.ine.add.PTCONT.4600260",
      "street": "R LUIS DE CAMÕES",
      "house": "108",
      "postcode": "2080-584",
      "city": "FAZENDAS DE ALMEIRIM",
      "lon": "-8.584180803450298",
      "lat": "39.16672548305312"
    },
    {
      "id": "pt.ine.add.PTCONT.4606846",
      "street": "R LUIS DE CAMÕES",
      "house": "96",
      "postcode": "2080-584",
      "city": "FAZENDAS DE ALMEIRIM",
      "lon": "-8.584510597351914",
      "lat": "39.1676339571319"
    },
    {
      "id": "pt.ine.add.PTCONT.4619038",
      "street": "R LUIS DE CAMÕES",
      "house": "116",
      "postcode": "2080-584",
      "city": "FAZENDAS DE ALMEIRIM",
      "lon": "-8.584658305326997",
      "lat": "39.165399540380825"
    },
    {
      "id": "pt.ine.add.PTCONT.4643973",
      "street": "R MOREIRAS",
      "house": "29",
      "postcode": "2080-540",
      "city": "FAZENDAS DE ALMEIRIM",
      "lon": "-8.58492608471835",
      "lat": "39.163849222746"
    },
    {
      "id": "pt.ine.add.PTCONT.4659468",
      "street": "R MOREIRAS",
      "house": "7",
      "postcode": "2080-540",
      "city": "FAZENDAS DE ALMEIRIM",
      "lon": "-8.58686606622797",
      "lat": "39.16685016974338"
    }
  ]
}