{
  "data": {
    "distrito": "Santarém",
    "concelho": "Almeirim",
    "freguesia": "Fazendas de Almeirim",
    "OBJECTID": 44,
    "BGRI2021": "14030300108",
    "DT21": "14",
    "DTMN21": "1403",
    "DTMNFR21": "140303",
    "DTMNFRSEC21": "140303001",
    "SECNUM21": "001",
    "SSNUM21": "08",
    "SECSSNUM21": "00108",
    "OBJECTID_1": 148420,
    "DT": "14",
    "CC": "03",
    "fr": "03",
    "SEC": "001",
    "SS": "08"
  },
  "addresses": [
    {
      "id": "pt.ine.add.PTCONT.4395510",
      "street": "R COR ANTÓNIO MANUEL BATISTA",
      "house": "227",
      "postcode": "2080-537",
      "city": "FAZENDAS DE ALMEIRIM",
      "lon": "-8.569404374296976",
      "lat": "39.168547199877544"
    },
    {
      "id": "pt.ine.add.PTCONT.4397670",
      "street": "R MARECHAL GOMES DA COSTA",
      "house": "165",
      "postcode": "2080-589",
      "city": "FAZENDAS DE ALMEIRIM",
      "lon": "-8.571758500236943",
      "lat": "39.17124059297458"
    },
    {
      "id": "pt.ine.add.PTCONT.4414607",
      "street": "ESTR S PEDRO",
      "house": "27",
      "postcode": "2080-518",
      "city": "FAZENDAS DE ALMEIRIM",
      "lon": "-8.563639694953679",
      "lat": "39.166289757436445"
    },
    {
      "id": "pt.ine.add.PTCONT.4417039",
      "street": "R COR ANTÓNIO MANUEL BATISTA",
      "house": "295",
      "postcode": "2080-537",
      "city": "FAZENDAS DE ALMEIRIM",
      "lon": "-8.56533324532622",
      "lat": "39.16508549841173"
    },
    {
      "id": "pt.ine.add.PTCONT.4417040",
      "street": "R COR ANTÓNIO MANUEL BATISTA",
      "house": "285",
      "postcode": "2080-537",
      "city": "FAZENDAS DE ALMEIRIM",
      "lon": "-8.566610194499395",
      "lat": "39.16576532100159"
    },
    {
      "id": "pt.ine.add.PTCONT.4418182",
      "street": "R COR ANTÓNIO MANUEL BATISTA",
      "house": "251",
      "postcode": "2080-537",
      "city": "FAZENDAS DE ALMEIRIM",
      "lon": "-8.568704169610962",
      "lat": "39.16758602333893"
    },
    {
      "id": "pt.ine.add.PTCONT.4420191",
      "street": "R COR ANTÓNIO MANUEL BATISTA",
      "house": "279",
      "postcode": "2080-537",
      "city": "FAZENDAS DE ALMEIRIM",
      "lon": "-8.56700552976725",
      "lat": "39.166079110213644"
    },
    {
      "id": "pt.ine.add.PTCONT.4420205",
      "street": "R COR ANTÓNIO MANUEL BATISTA",
      "house": "209",
      "postcode": "2080-537",
      "city": "FAZENDAS DE ALMEIRIM",
      "lon": "-8.570413393244953",
      "lat": "39.16892173015169"
    },
    {
      "id": "pt.ine.add.PTCONT.4423779",
      "street": "R JOSE DA SILVA POMBAS",
      "house": "32",
      "postcode": "2080-579",
      "city": "FAZENDAS DE ALMEIRIM",
      "lon": "-8.56976758662886",
      "lat": "39.16927544189384"
    },
    {
      "id": "pt.ine.add.PTCONT.4436373",
      "street": "R COR ANTÓNIO MANUEL BATISTA",
      "house": "281",
      "postcode": "2080-537",
      "city": "FAZENDAS DE ALMEIRIM",
      "lon": "-8.566877976644909",
      "lat": "39.16603454785186"
    },
    {
      "id": "pt.ine.add.PTCONT.4438742",
      "street": "R COR ANTÓNIO MANUEL BATISTA",
      "house": "199",
      "postcode": "2080-537",
      "city": "FAZENDAS DE ALMEIRIM",
      "lon": "-8.571228228841806",
      "lat": "39.16970231649715"
    },
    {
      "id": "pt.ine.add.PTCONT.4441482",
      "street": "R JOSE DA SILVA POMBAS",
      "house": "44",
      "postcode": "2080-579",
      "city": "FAZENDAS DE ALMEIRIM",
      "lon": "-8.568688306258357",
      "lat": "39.16876605713173"
    },
    {
      "id": "pt.ine.add.PTCONT.4444917",
      "street": "R COR ANTÓNIO MANUEL BATISTA",
      "house": "233",
      "postcode": "2080-537",
      "city": "FAZENDAS DE ALMEIRIM",
      "lon": "-8.568987207009044",
      "lat": "39.16844967917143"
    },
    {
      "id": "pt.ine.add.PTCONT.4448821",
      "street": "R COR ANTÓNIO MANUEL BATISTA",
      "house": "227A",
      "postcode": "2080-537",
      "city": "FAZENDAS DE ALMEIRIM",
      "lon": "-8.569520752213176",
      "lat": "39.16865485336051"
    },
    {
      "id": "pt.ine.add.PTCONT.4449041",
      "street": "R COR ANTÓNIO MANUEL BATISTA",
      "house": "229",
      "postcode": "2080-537",
      "city": "FAZENDAS DE ALMEIRIM",
      "lon": "-8.569738484969758",
      "lat": "39.16831175510289"
    },
    {
      "id": "pt.ine.add.PTCONT.4452698",
      "street": "ESTR S PEDRO TIPO DE CONSTRUCAO HABITADA",
      "house": "35",
      "postcode": "2080-518",
      "city": "FAZENDAS DE ALMEIRIM",
      "lon": "-8.56315674528091",
      "lat": "39.166786950018164"
    },
    {
      "id": "pt.ine.add.PTCONT.4457125",
      "street": "R COR ANTÓNIO MANUEL BATISTA",
      "house": "239",
      "postcode": "2080-537",
      "city": "FAZENDAS DE ALMEIRIM",
      "lon": "-8.568708225629777",
      "lat": "39.16824355124743"
    },
    {
      "id": "pt.ine.add.PTCONT.4457244",
      "street": "R JOSE DA SILVA POMBAS",
      "house": "50",
      "postcode": "2080-579",
      "city": "FAZENDAS DE ALMEIRIM",
      "lon": "-8.568351413994007",
      "lat": "39.1685511373734"
    },
    {
      "id": "pt.ine.add.PTCONT.4468524",
      "street": "ESTR S PEDRO",
      "house": "1",
      "postcode": "2080-518",
      "city": "FAZENDAS DE ALMEIRIM",
      "lon": "-8.564796270589337",
      "lat": "39.16431284849469"
    },
    {
      "id": "pt.ine.add.PTCONT.4473205",
      "street": "R COR ANTÓNIO MANUEL BATISTA",
      "house": "255",
      "postcode": "2080-537",
      "city": "FAZENDAS DE ALMEIRIM",
      "lon": "-8.568389758317355",
      "lat": "39.16726293031918"
    },
    {
      "id": "pt.ine.add.PTCONT.4477340",
      "street": "ESTR S PEDRO",
      "house": "21",
      "postcode": "2080-518",
      "city": "FAZENDAS DE ALMEIRIM",
      "lon": "-8.564190136773398",
      "lat": "39.16547705264218"
    },
    {
      "id": "pt.ine.add.PTCONT.4477341",
      "street": "R COR ANTÓNIO MANUEL BATISTA",
      "house": "299",
      "postcode": "2080-537",
      "city": "FAZENDAS DE ALMEIRIM",
      "lon": "-8.565550436125445",
      "lat": "39.1646523353117"
    },
    {
      "id": "pt.ine.add.PTCONT.4478315",
      "street": "R MARECHAL GOMES DA COSTA",
      "house": "165",
      "postcode": "2080-589",
      "city": "FAZENDAS DE ALMEIRIM",
      "lon": "-8.571919380674371",
      "lat": "39.17105983859934"
    },
    {
      "id": "pt.ine.add.PTCONT.4482292",
      "street": "R COR ANTÓNIO MANUEL BATISTA ARMAZEM COM HABITACAO ANTIGA",
      "house": "",
      "postcode": "2080-537",
      "city": "FAZENDAS DE ALMEIRIM",
      "lon": "-8.568006147409799",
      "lat": "39.16697612446019"
    },
    {
      "id": "pt.ine.add.PTCONT.4493062",
      "street": "R COR ANTÓNIO MANUEL BATISTA",
      "house": "",
      "postcode": "2080-537",
      "city": "FAZENDAS DE ALMEIRIM",
      "lon": "-8.57174977111788",
      "lat": "39.16983546604735"
    },
    {
      "id": "pt.ine.add.PTCONT.4498785",
      "street": "ESTR S PEDRO OUTRO TIPO CONST HABITADA",
      "house": "35",
      "postcode": "2080-518",
      "city": "FAZENDAS DE ALMEIRIM",
      "lon": "-8.563389805975325",
      "lat": "39.16705631298282"
    },
    {
      "id": "pt.ine.add.PTCONT.4500623",
      "street": "R JOSE DA SILVA POMBAS",
      "house": "26",
      "postcode": "2080-579",
      "city": "FAZENDAS DE ALMEIRIM",
      "lon": "-8.569180908767397",
      "lat": "39.16983609983528"
    },
    {
      "id": "pt.ine.add.PTCONT.4514149",
      "street": "R COR ANTÓNIO MANUEL BATISTA",
      "house": "271",
      "postcode": "2080-537",
      "city": "FAZENDAS DE ALMEIRIM",
      "lon": "-8.567261965476764",
      "lat": "39.16638440817606"
    },
    {
      "id": "pt.ine.add.PTCONT.4519917",
      "street": "R COR ANTÓNIO MANUEL BATISTA",
      "house": "257",
      "postcode": "2080-537",
      "city": "FAZENDAS DE ALMEIRIM",
      "lon": "-8.568273495439056",
      "lat": "39.16717329012488"
    },
    {
      "id": "pt.ine.add.PTCONT.4532661",
      "street": "R COR ANTÓNIO MANUEL BATISTA",
      "house": "243",
      "postcode": "2080-537",
      "city": "FAZENDAS DE ALMEIRIM",
      "lon": "-8.569098912654688",
      "lat": "39.16780072569515"
    },
    {
      "id": "pt.ine.add.PTCONT.4534568",
      "street": "R JOSE DA SILVA POMBAS",
      "house": "30",
      "postcode": "2080-579",
      "city": "FAZENDAS DE ALMEIRIM",
      "lon": "-8.56909913172701",
      "lat": "39.16971030171452"
    },
    {
      "id": "pt.ine.add.PTCONT.4540660",
      "street": "R JOSE DA SILVA POMBAS",
      "house": "60",
      "postcode": "2080-579",
      "city": "FAZENDAS DE ALMEIRIM",
      "lon": "-8.56768892937003",
      "lat": "39.16807621556347"
    },
    {
      "id": "pt.ine.add.PTCONT.4542172",
      "street": "R COR ANTÓNIO MANUEL BATISTA",
      "house": "223",
      "postcode": "2080-537",
      "city": "FAZENDAS DE ALMEIRIM",
      "lon": "-8.569372833287181",
      "lat": "39.16906074191525"
    },
    {
      "id": "pt.ine.add.PTCONT.4548255",
      "street": "ESTR S PEDRO TIPO DE CONSTRUCAO HABITADA",
      "house": "35",
      "postcode": "2080-518",
      "city": "FAZENDAS DE ALMEIRIM",
      "lon": "-8.563088692089279",
      "lat": "39.16701238719174"
    },
    {
      "id": "pt.ine.add.PTCONT.4548256",
      "street": "ESTR S PEDRO",
      "house": "",
      "postcode": "2080-518",
      "city": "FAZENDAS DE ALMEIRIM",
      "lon": "-8.562442591972621",
      "lat": "39.16732102236467"
    },
    {
      "id": "pt.ine.add.PTCONT.4548257",
      "street": "R COR ANTÓNIO MANUEL BATISTA",
      "house": "269",
      "postcode": "2080-537",
      "city": "FAZENDAS DE ALMEIRIM",
      "lon": "-8.567414211807096",
      "lat": "39.16668108645652"
    },
    {
      "id": "pt.ine.add.PTCONT.4560868",
      "street": "R JOSE DA SILVA POMBAS",
      "house": "34",
      "postcode": "2080-579",
      "city": "FAZENDAS DE ALMEIRIM",
      "lon": "-8.56906308351976",
      "lat": "39.16949425810014"
    },
    {
      "id": "pt.ine.add.PTCONT.4567215",
      "street": "R MARECHAL GOMES DA COSTA",
      "house": "",
      "postcode": "2080-589",
      "city": "FAZENDAS DE ALMEIRIM",
      "lon": "-8.571707794395735",
      "lat": "39.170529196546944"
    },
    {
      "id": "pt.ine.add.PTCONT.4569256",
      "street": "R COR ANTÓNIO MANUEL BATISTA",
      "house": "253",
      "postcode": "2080-537",
      "city": "FAZENDAS DE ALMEIRIM",
      "lon": "-8.568529718467781",
      "lat": "39.16744255625616"
    },
    {
      "id": "pt.ine.add.PTCONT.4575278",
      "street": "R JOSE DA SILVA POMBAS",
      "house": "18",
      "postcode": "2080-579",
      "city": "FAZENDAS DE ALMEIRIM",
      "lon": "-8.56990361659043",
      "lat": "39.17068909952128"
    },
    {
      "id": "pt.ine.add.PTCONT.4577407",
      "street": "R COR ANTÓNIO MANUEL BATISTA",
      "house": "",
      "postcode": "2080-537",
      "city": "FAZENDAS DE ALMEIRIM",
      "lon": "-8.569854640163348",
      "lat": "39.16838337933789"
    },
    {
      "id": "pt.ine.add.PTCONT.4583740",
      "street": "R JOSE DA SILVA POMBAS",
      "house": "",
      "postcode": "2080-579",
      "city": "FAZENDAS DE ALMEIRIM",
      "lon": "-8.570156234769865",
      "lat": "39.17037289213319"
    },
    {
      "id": "pt.ine.add.PTCONT.4593845",
      "street": "ESTR S PEDRO",
      "house": "23",
      "postcode": "2080-518",
      "city": "FAZENDAS DE ALMEIRIM",
      "lon": "-8.563985494892005",
      "lat": "39.16607230075035"
    },
    {
      "id": "pt.ine.add.PTCONT.4600442",
      "street": "R COR ANTÓNIO MANUEL BATISTA",
      "house": "",
      "postcode": "2080-537",
      "city": "FAZENDAS DE ALMEIRIM",
      "lon": "-8.570355147570226",
      "lat": "39.16885889665036"
    },
    {
      "id": "pt.ine.add.PTCONT.4606856",
      "street": "R COR ANTÓNIO MANUEL BATISTA",
      "house": "247",
      "postcode": "2080-537",
      "city": "FAZENDAS DE ALMEIRIM",
      "lon": "-8.568854979522992",
      "lat": "39.167648511601534"
    },
    {
      "id": "pt.ine.add.PTCONT.4608753",
      "street": "R JOSE DA SILVA POMBAS",
      "house": "50",
      "postcode": "2080-579",
      "city": "FAZENDAS DE ALMEIRIM",
      "lon": "-8.568502614428779",
      "lat": "39.168676676687454"
    },
    {
      "id": "pt.ine.add.PTCONT.4614907",
      "street": "R JOSE DA SILVA POMBAS",
      "house": "54",
      "postcode": "2080-579",
      "city": "FAZENDAS DE ALMEIRIM",
      "lon": "-8.568281543961108",
      "lat": "39.16847933880459"
    },
    {
      "id": "pt.ine.add.PTCONT.4625930",
      "street": "R COR ANTÓNIO MANUEL BATISTA",
      "house": "235",
      "postcode": "2080-537",
      "city": "FAZENDAS DE ALMEIRIM",
      "lon": "-8.569332277497118",
      "lat": "39.16811511273479"
    },
    {
      "id": "pt.ine.add.PTCONT.4633709",
      "street": "R JOSE DA SILVA POMBAS",
      "house": "14",
      "postcode": "2080-579",
      "city": "FAZENDAS DE ALMEIRIM",
      "lon": "-8.570321188788498",
      "lat": "39.170849667403324"
    },
    {
      "id": "pt.ine.add.PTCONT.4639997",
      "street": "R JOSE DA SILVA POMBAS",
      "house": "38",
      "postcode": "2080-579",
      "city": "FAZENDAS DE ALMEIRIM",
      "lon": "-8.56903866225774",
      "lat": "39.169287178409164"
    },
    {
      "id": "pt.ine.add.PTCONT.4643972",
      "street": "R COR ANTÓNIO MANUEL BATISTA",
      "house": "277",
      "postcode": "2080-537",
      "city": "FAZENDAS DE ALMEIRIM",
      "lon": "-8.56717980834954",
      "lat": "39.16619555793989"
    },
    {
      "id": "pt.ine.add.PTCONT.4647033",
      "street": "R JOSE DA SILVA POMBAS",
      "house": "38",
      "postcode": "2080-579",
      "city": "FAZENDAS DE ALMEIRIM",
      "lon": "-8.568806684218451",
      "lat": "39.16919797160149"
    },
    {
      "id": "pt.ine.add.PTCONT.4648015",
      "street": "R COR ANTÓNIO MANUEL BATISTA",
      "house": "213",
      "postcode": "2080-537",
      "city": "FAZENDAS DE ALMEIRIM",
      "lon": "-8.570308082654464",
      "lat": "39.16873296910911"
    },
    {
      "id": "pt.ine.add.PTCONT.4651792",
      "street": "R MARECHAL GOMES DA COSTA",
      "house": "167",
      "postcode": "2080-589",
      "city": "FAZENDAS DE ALMEIRIM",
      "lon": "-8.571802995125287",
      "lat": "39.17095218759965"
    },
    {
      "id": "pt.ine.add.PTCONT.4661108",
      "street": "ESTR S PEDRO",
      "house": "29",
      "postcode": "2080-518",
      "city": "FAZENDAS DE ALMEIRIM",
      "lon": "-8.56365022222292",
      "lat": "39.166118577123214"
    },
    {
      "id": "pt.ine.add.PTCONT.4661422",
      "street": "R COR ANTÓNIO MANUEL BATISTA",
      "house": "221",
      "postcode": "2080-537",
      "city": "FAZENDAS DE ALMEIRIM",
      "lon": "-8.570007459037559",
      "lat": "39.16877012633123"
    }
  ]
}