{
  "data": {
    "distrito": "Faro",
    "concelho": "Vila do Bispo",
    "freguesia": "Budens",
    "OBJECTID": 223,
    "BGRI2021": "08150200207",
    "DT21": "08",
    "DTMN21": "0815",
    "DTMNFR21": "081502",
    "DTMNFRSEC21": "081502002",
    "SECNUM21": "002",
    "SSNUM21": "07",
    "SECSSNUM21": "00207",
    "OBJECTID_1": 74193,
    "DT": "08",
    "CC": "15",
    "fr": "02",
    "SEC": "002",
    "SS": "07"
  },
  "addresses": [
    {
      "id": "pt.ine.add.PTCONT.1468294",
      "street": "TV ALDEIA NOVA",
      "house": "",
      "postcode": "8650-120",
      "city": "BUDENS",
      "lon": "-8.775921994679715",
      "lat": "37.07233837860682"
    },
    {
      "id": "pt.ine.add.PTCONT.1474417",
      "street": "TV DOMINGOS MARREIROS",
      "house": "",
      "postcode": "8650-130",
      "city": "BUDENS",
      "lon": "-8.775754924839529",
      "lat": "37.072528505639816"
    },
    {
      "id": "pt.ine.add.PTCONT.1506717",
      "street": "TV SAUDADE",
      "house": "",
      "postcode": "8650-123",
      "city": "BUDENS",
      "lon": "-8.775914780955667",
      "lat": "37.07281597722538"
    },
    {
      "id": "pt.ine.add.PTCONT.1509425",
      "street": "TV ALDEIA NOVA",
      "house": "2A",
      "postcode": "8650-120",
      "city": "BUDENS",
      "lon": "-8.775877625315086",
      "lat": "37.07241070352031"
    },
    {
      "id": "pt.ine.add.PTCONT.1564676",
      "street": "R BEIRA MAR",
      "house": "1",
      "postcode": "8650-107",
      "city": "BUDENS",
      "lon": "-8.775300511657932",
      "lat": "37.07198132282978"
    },
    {
      "id": "pt.ine.add.PTCONT.1671877",
      "street": "TV SAUDADE",
      "house": "12",
      "postcode": "8650-123",
      "city": "BUDENS",
      "lon": "-8.775521831326683",
      "lat": "37.07289019063268"
    },
    {
      "id": "pt.ine.add.PTCONT.1671878",
      "street": "TV SAUDADE APTOS BOAVISTA",
      "house": "",
      "postcode": "8650-123",
      "city": "BUDENS",
      "lon": "-8.775521831326683",
      "lat": "37.07289019063268"
    },
    {
      "id": "pt.ine.add.PTCONT.1671879",
      "street": "TV SAUDADE APTOS BOAVISTA",
      "house": "",
      "postcode": "8650-123",
      "city": "BUDENS",
      "lon": "-8.775521831326683",
      "lat": "37.07289019063268"
    },
    {
      "id": "pt.ine.add.PTCONT.1671880",
      "street": "TV SAUDADE APTOS BOAVISTA",
      "house": "",
      "postcode": "8650-123",
      "city": "BUDENS",
      "lon": "-8.775521831326683",
      "lat": "37.07289019063268"
    },
    {
      "id": "pt.ine.add.PTCONT.1686181",
      "street": "TV DOMINGOS MARREIROS",
      "house": "",
      "postcode": "8650-130",
      "city": "BUDENS",
      "lon": "-8.77572149556612",
      "lat": "37.07256472898937"
    },
    {
      "id": "pt.ine.add.PTCONT.1686182",
      "street": "TV DOMINGOS MARREIROS",
      "house": "",
      "postcode": "8650-130",
      "city": "BUDENS",
      "lon": "-8.775810842994913",
      "lat": "37.07249216042376"
    },
    {
      "id": "pt.ine.add.PTCONT.1774092",
      "street": "TV FELIZARDO MATEUS",
      "house": "13",
      "postcode": "8650-132",
      "city": "BUDENS",
      "lon": "-8.77523608415232",
      "lat": "37.07234209396284"
    },
    {
      "id": "pt.ine.add.PTCONT.1780259",
      "street": "R 25 DE ABRIL",
      "house": "",
      "postcode": "8650-118",
      "city": "BUDENS",
      "lon": "-8.775212835604476",
      "lat": "37.07225211424511"
    },
    {
      "id": "pt.ine.add.PTCONT.1785141",
      "street": "R 25 DE ABRIL",
      "house": "3",
      "postcode": "8650-118",
      "city": "BUDENS",
      "lon": "-8.775146660383307",
      "lat": "37.072405651954334"
    },
    {
      "id": "pt.ine.add.PTCONT.1785142",
      "street": "R 25 DE ABRIL",
      "house": "3",
      "postcode": "8650-118",
      "city": "BUDENS",
      "lon": "-8.775146660383307",
      "lat": "37.072405651954334"
    },
    {
      "id": "pt.ine.add.PTCONT.1795003",
      "street": "R FORTALEZA",
      "house": "3",
      "postcode": "8650-111",
      "city": "BUDENS",
      "lon": "-8.775323760221703",
      "lat": "37.072071302534205"
    }
  ]
}