{
  "data": {
    "distrito": "Faro",
    "concelho": "Albufeira",
    "freguesia": "Ferreiras",
    "OBJECTID": 168,
    "BGRI2021": "08010400301",
    "DT21": "08",
    "DTMN21": "0801",
    "DTMNFR21": "080104",
    "DTMNFRSEC21": "080104003",
    "SECNUM21": "003",
    "SSNUM21": "01",
    "SECSSNUM21": "00301",
    "OBJECTID_1": 64306,
    "DT": "08",
    "CC": "01",
    "fr": "04",
    "SEC": "003",
    "SS": "01"
  },
  "addresses": [
    {
      "id": "pt.ine.add.PTCONT.1468021",
      "street": "ESTR CERROS ALTOS",
      "house": "",
      "postcode": "8200-562",
      "city": "FERREIRAS",
      "lon": "-8.211013157071386",
      "lat": "37.11480094479113"
    },
    {
      "id": "pt.ine.add.PTCONT.1469220",
      "street": "ESTR CERROS ALTOS",
      "house": "",
      "postcode": "8200-562",
      "city": "FERREIRAS",
      "lon": "-8.21249842773137",
      "lat": "37.11488105539457"
    },
    {
      "id": "pt.ine.add.PTCONT.1469221",
      "street": "ESTR CERROS ALTOS",
      "house": "",
      "postcode": "8200-562",
      "city": "FERREIRAS",
      "lon": "-8.21249842773137",
      "lat": "37.11488105539457"
    },
    {
      "id": "pt.ine.add.PTCONT.1469222",
      "street": "ESTR CERROS ALTOS",
      "house": "6",
      "postcode": "8200-562",
      "city": "FERREIRAS",
      "lon": "-8.212508051511751",
      "lat": "37.11332220686605"
    },
    {
      "id": "pt.ine.add.PTCONT.1478541",
      "street": "R LARANJEIRAS",
      "house": "",
      "postcode": "8200-562",
      "city": "FERREIRAS",
      "lon": "-8.208085009797298",
      "lat": "37.11198249940037"
    },
    {
      "id": "pt.ine.add.PTCONT.1481030",
      "street": "R LARANJEIRAS CXP",
      "house": "CXP 810Z",
      "postcode": "8200-562",
      "city": "FERREIRAS",
      "lon": "-8.208085009797298",
      "lat": "37.11198249940037"
    },
    {
      "id": "pt.ine.add.PTCONT.1481099",
      "street": "CAM LEVANTE URB JARDIM DAS PALMEIRAS",
      "house": "D",
      "postcode": "8200-562",
      "city": "FERREIRAS",
      "lon": "-8.212287212183842",
      "lat": "37.11734110267474"
    },
    {
      "id": "pt.ine.add.PTCONT.1484821",
      "street": "CAM MONTE VELHO",
      "house": "",
      "postcode": "8200-562",
      "city": "FERREIRAS",
      "lon": "-8.20558942764447",
      "lat": "37.11422770301294"
    },
    {
      "id": "pt.ine.add.PTCONT.1485338",
      "street": "ESTR CERROS ALTOS",
      "house": "10",
      "postcode": "8200-562",
      "city": "FERREIRAS",
      "lon": "-8.211767225183399",
      "lat": "37.11501670244477"
    },
    {
      "id": "pt.ine.add.PTCONT.1492411",
      "street": "ESTR CERROS ALTOS COND SERENA VILAGE",
      "house": "67",
      "postcode": "8200-562",
      "city": "FERREIRAS",
      "lon": "-8.211936136910314",
      "lat": "37.11515174996087"
    },
    {
      "id": "pt.ine.add.PTCONT.1495740",
      "street": "R LARANJEIRAS COND VALE S JOSE",
      "house": "J",
      "postcode": "8200-562",
      "city": "FERREIRAS",
      "lon": "-8.212170543910062",
      "lat": "37.1133494643483"
    },
    {
      "id": "pt.ine.add.PTCONT.1507501",
      "street": "",
      "house": "",
      "postcode": "8200-562",
      "city": "FERREIRAS",
      "lon": "-8.21080065076046",
      "lat": "37.11604455337484"
    },
    {
      "id": "pt.ine.add.PTCONT.1509925",
      "street": "ESTR CERROS ALTOS",
      "house": "",
      "postcode": "8200-562",
      "city": "FERREIRAS",
      "lon": "-8.212329468673065",
      "lat": "37.11470095547041"
    },
    {
      "id": "pt.ine.add.PTCONT.1512576",
      "street": "ESTR CERROS ALTOS",
      "house": "5",
      "postcode": "8200-562",
      "city": "FERREIRAS",
      "lon": "-8.21247425092159",
      "lat": "37.113277176250605"
    },
    {
      "id": "pt.ine.add.PTCONT.1512855",
      "street": "BC LARANJEIRAS",
      "house": "",
      "postcode": "8200-562",
      "city": "FERREIRAS",
      "lon": "-8.211372914675625",
      "lat": "37.1145213778023"
    },
    {
      "id": "pt.ine.add.PTCONT.1524822",
      "street": "ESTR BRANQUEIRA",
      "house": "2",
      "postcode": "8200-562",
      "city": "FERREIRAS",
      "lon": "-8.212217573420322",
      "lat": "37.11529573285331"
    },
    {
      "id": "pt.ine.add.PTCONT.1530052",
      "street": "CAM LEVANTE QTA O POETA",
      "house": "",
      "postcode": "8200-562",
      "city": "FERREIRAS",
      "lon": "-8.212274778321648",
      "lat": "37.1162057698552"
    },
    {
      "id": "pt.ine.add.PTCONT.1539066",
      "street": "CAM LEVANTE",
      "house": "G",
      "postcode": "8200-562",
      "city": "FERREIRAS",
      "lon": "-8.212242373846026",
      "lat": "37.117503324181534"
    },
    {
      "id": "pt.ine.add.PTCONT.1542023",
      "street": "ESTR CERROS ALTOS",
      "house": "7",
      "postcode": "8200-562",
      "city": "FERREIRAS",
      "lon": "-8.212462952725115",
      "lat": "37.113232130566885"
    },
    {
      "id": "pt.ine.add.PTCONT.1544693",
      "street": "ESTR CERROS ALTOS",
      "house": "9",
      "postcode": "8200-562",
      "city": "FERREIRAS",
      "lon": "-8.2124065934861",
      "lat": "37.113133051131356"
    },
    {
      "id": "pt.ine.add.PTCONT.1544965",
      "street": "CAM MONTE VELHO",
      "house": "",
      "postcode": "8200-562",
      "city": "FERREIRAS",
      "lon": "-8.209327297138096",
      "lat": "37.11664922286718"
    },
    {
      "id": "pt.ine.add.PTCONT.1553982",
      "street": "R LARANJEIRAS COND VALE S SOSE",
      "house": "H",
      "postcode": "8200-562",
      "city": "FERREIRAS",
      "lon": "-8.212102943144869",
      "lat": "37.11325940291493"
    },
    {
      "id": "pt.ine.add.PTCONT.1558609",
      "street": "BC LARANJEIRAS",
      "house": "",
      "postcode": "8200-562",
      "city": "FERREIRAS",
      "lon": "-8.211148044520701",
      "lat": "37.11467470702708"
    },
    {
      "id": "pt.ine.add.PTCONT.1559102",
      "street": "BC LARANJEIRAS",
      "house": "",
      "postcode": "8200-562",
      "city": "FERREIRAS",
      "lon": "-8.211148044520701",
      "lat": "37.11467470702708"
    },
    {
      "id": "pt.ine.add.PTCONT.1561016",
      "street": "CAM MONTE VELHO",
      "house": "",
      "postcode": "8200-562",
      "city": "FERREIRAS",
      "lon": "-8.210970882509127",
      "lat": "37.117468123445"
    },
    {
      "id": "pt.ine.add.PTCONT.1561017",
      "street": "CAM MONTE VELHO",
      "house": "",
      "postcode": "8200-562",
      "city": "FERREIRAS",
      "lon": "-8.210970882509127",
      "lat": "37.117468123445"
    },
    {
      "id": "pt.ine.add.PTCONT.1562198",
      "street": "ESTR CERROS ALTOS COND SERENA VILAGE",
      "house": "D4",
      "postcode": "8200-562",
      "city": "FERREIRAS",
      "lon": "-8.212093769677665",
      "lat": "37.115259772808926"
    },
    {
      "id": "pt.ine.add.PTCONT.1562199",
      "street": "CAM LEVANTE URB JARDIM DAS PALMEIRAS",
      "house": "F",
      "postcode": "8200-562",
      "city": "FERREIRAS",
      "lon": "-8.212242317578676",
      "lat": "37.11744926036251"
    },
    {
      "id": "pt.ine.add.PTCONT.1565679",
      "street": "CAM MONTE VELHO",
      "house": "",
      "postcode": "8200-562",
      "city": "FERREIRAS",
      "lon": "-8.210790826027031",
      "lat": "37.11744120962675"
    },
    {
      "id": "pt.ine.add.PTCONT.1568811",
      "street": "",
      "house": "",
      "postcode": "8200-562",
      "city": "FERREIRAS",
      "lon": "-8.210914199348347",
      "lat": "37.11705367107084"
    },
    {
      "id": "pt.ine.add.PTCONT.1568812",
      "street": "",
      "house": "",
      "postcode": "8200-562",
      "city": "FERREIRAS",
      "lon": "-8.210914199348347",
      "lat": "37.11705367107084"
    },
    {
      "id": "pt.ine.add.PTCONT.1568813",
      "street": "",
      "house": "",
      "postcode": "8200-562",
      "city": "FERREIRAS",
      "lon": "-8.210914199348347",
      "lat": "37.11705367107084"
    },
    {
      "id": "pt.ine.add.PTCONT.1570710",
      "street": "",
      "house": "",
      "postcode": "8200-562",
      "city": "FERREIRAS",
      "lon": "-8.210914199348347",
      "lat": "37.11705367107084"
    },
    {
      "id": "pt.ine.add.PTCONT.1570778",
      "street": "",
      "house": "",
      "postcode": "8200-562",
      "city": "FERREIRAS",
      "lon": "-8.210914199348347",
      "lat": "37.11705367107084"
    },
    {
      "id": "pt.ine.add.PTCONT.1574305",
      "street": "ESTR CERROS ALTOS",
      "house": "",
      "postcode": "8200-562",
      "city": "FERREIRAS",
      "lon": "-8.212149736712016",
      "lat": "37.11498040547464"
    },
    {
      "id": "pt.ine.add.PTCONT.1577324",
      "street": "ESTR CERROS ALTOS COND SERENA VILAGE",
      "house": "ES",
      "postcode": "8200-562",
      "city": "FERREIRAS",
      "lon": "-8.212059977824795",
      "lat": "37.11522375273081"
    },
    {
      "id": "pt.ine.add.PTCONT.1578698",
      "street": "R LARANJEIRAS COND VALE S JOSE",
      "house": "M",
      "postcode": "8200-562",
      "city": "FERREIRAS",
      "lon": "-8.212249433552516",
      "lat": "37.11347556080265"
    },
    {
      "id": "pt.ine.add.PTCONT.1579885",
      "street": "CAM LEVANTE URB JARDIM DAS PALMEIRAS",
      "house": "A",
      "postcode": "8200-562",
      "city": "FERREIRAS",
      "lon": "-8.21225327862596",
      "lat": "37.117169923112684"
    },
    {
      "id": "pt.ine.add.PTCONT.1583077",
      "street": "",
      "house": "",
      "postcode": "8200-562",
      "city": "FERREIRAS",
      "lon": "-8.210756205669574",
      "lat": "37.116594231811625"
    },
    {
      "id": "pt.ine.add.PTCONT.1583079",
      "street": "MOSQUEIRA",
      "house": "802A",
      "postcode": "8200-562",
      "city": "FERREIRAS",
      "lon": "-8.21257699934375",
      "lat": "37.1147007898212"
    },
    {
      "id": "pt.ine.add.PTCONT.1583080",
      "street": "ESTR CERROS ALTOS",
      "house": "3C",
      "postcode": "8200-562",
      "city": "FERREIRAS",
      "lon": "-8.212161306641704",
      "lat": "37.115286759736364"
    },
    {
      "id": "pt.ine.add.PTCONT.1588469",
      "street": "ESTR CERROS ALTOS",
      "house": "",
      "postcode": "8200-562",
      "city": "FERREIRAS",
      "lon": "-8.21225095274164",
      "lat": "37.114935284722904"
    },
    {
      "id": "pt.ine.add.PTCONT.1588487",
      "street": "ESTR CERROS ALTOS",
      "house": "11",
      "postcode": "8200-562",
      "city": "FERREIRAS",
      "lon": "-8.212350234394137",
      "lat": "37.113033971667214"
    },
    {
      "id": "pt.ine.add.PTCONT.1596994",
      "street": "ESTR CERROS ALTOS",
      "house": "14",
      "postcode": "8200-562",
      "city": "FERREIRAS",
      "lon": "-8.212248833409204",
      "lat": "37.112898879648455"
    },
    {
      "id": "pt.ine.add.PTCONT.1606898",
      "street": "ESTR MOOSQUEIRA CXP",
      "house": "",
      "postcode": "8200-562",
      "city": "FERREIRAS",
      "lon": "-8.210920213832757",
      "lat": "37.11193561941153"
    },
    {
      "id": "pt.ine.add.PTCONT.1608285",
      "street": "ESTR CERROS ALTOS",
      "house": "4",
      "postcode": "8200-562",
      "city": "FERREIRAS",
      "lon": "-8.212519359157731",
      "lat": "37.1133762631874"
    },
    {
      "id": "pt.ine.add.PTCONT.1611613",
      "street": "CAM MONTE VELHO",
      "house": "871Z",
      "postcode": "8200-562",
      "city": "FERREIRAS",
      "lon": "-8.204250781161328",
      "lat": "37.114507843875266"
    },
    {
      "id": "pt.ine.add.PTCONT.1611632",
      "street": "BC LARANJEIRAS",
      "house": "",
      "postcode": "8200-562",
      "city": "FERREIRAS",
      "lon": "-8.211598137343971",
      "lat": "37.114710452510494"
    },
    {
      "id": "pt.ine.add.PTCONT.1635553",
      "street": "R LARANJEIRAS COND VALE S JOSE",
      "house": "L",
      "postcode": "8200-562",
      "city": "FERREIRAS",
      "lon": "-8.212238069827455",
      "lat": "37.11336744059993"
    },
    {
      "id": "pt.ine.add.PTCONT.1637356",
      "street": "BC LARANJEIRAS",
      "house": "",
      "postcode": "8200-562",
      "city": "FERREIRAS",
      "lon": "-8.211811568805627",
      "lat": "37.114376917079476"
    },
    {
      "id": "pt.ine.add.PTCONT.1639607",
      "street": "ESTR CERROS ALTOS G",
      "house": "G7",
      "postcode": "8200-562",
      "city": "FERREIRAS",
      "lon": "-8.212003673722561",
      "lat": "37.11517873697878"
    },
    {
      "id": "pt.ine.add.PTCONT.1640872",
      "street": "BC LARANJEIRAS",
      "house": "",
      "postcode": "8200-562",
      "city": "FERREIRAS",
      "lon": "-8.21172173502279",
      "lat": "37.11454817897674"
    },
    {
      "id": "pt.ine.add.PTCONT.1653910",
      "street": "R LARANJEIRAS COND VALE S JOSE",
      "house": "B",
      "postcode": "8200-562",
      "city": "FERREIRAS",
      "lon": "-8.211799357061706",
      "lat": "37.113448828418775"
    },
    {
      "id": "pt.ine.add.PTCONT.1655247",
      "street": "ESTR CERROS ALTOS",
      "house": "10",
      "postcode": "8200-562",
      "city": "FERREIRAS",
      "lon": "-8.212384044195757",
      "lat": "37.11308801296325"
    },
    {
      "id": "pt.ine.add.PTCONT.1662871",
      "street": "CAM MONTE VELHO",
      "house": "",
      "postcode": "8200-562",
      "city": "FERREIRAS",
      "lon": "-8.205714396705275",
      "lat": "37.11548911714883"
    },
    {
      "id": "pt.ine.add.PTCONT.1666785",
      "street": "ESTR CERROS ALTOS",
      "house": "16",
      "postcode": "8200-562",
      "city": "FERREIRAS",
      "lon": "-8.212169991206357",
      "lat": "37.11281783639896"
    },
    {
      "id": "pt.ine.add.PTCONT.1667509",
      "street": "CAM POMAR",
      "house": "",
      "postcode": "8200-562",
      "city": "FERREIRAS",
      "lon": "-8.209738197557146",
      "lat": "37.11127861164424"
    },
    {
      "id": "pt.ine.add.PTCONT.1669248",
      "street": "",
      "house": "",
      "postcode": "8200-562",
      "city": "FERREIRAS",
      "lon": "-8.209068247380356",
      "lat": "37.116388080427726"
    },
    {
      "id": "pt.ine.add.PTCONT.1669647",
      "street": "ESTR CERROS ALTOS",
      "house": "2",
      "postcode": "8200-562",
      "city": "FERREIRAS",
      "lon": "-8.212575728140429",
      "lat": "37.1134843532074"
    },
    {
      "id": "pt.ine.add.PTCONT.1669648",
      "street": "ESTR CERROS ALTOS",
      "house": "1",
      "postcode": "8200-562",
      "city": "FERREIRAS",
      "lon": "-8.212598277662186",
      "lat": "37.11352939133576"
    },
    {
      "id": "pt.ine.add.PTCONT.1670061",
      "street": "R LARANJEIRAS",
      "house": "",
      "postcode": "8200-562",
      "city": "FERREIRAS",
      "lon": "-8.208313326671847",
      "lat": "37.115316294867725"
    },
    {
      "id": "pt.ine.add.PTCONT.1672781",
      "street": "",
      "house": "",
      "postcode": "8200-562",
      "city": "FERREIRAS",
      "lon": "-8.211562142791927",
      "lat": "37.112538910004254"
    },
    {
      "id": "pt.ine.add.PTCONT.1677331",
      "street": "R LARANJEIRAS COND VALE S JOSE",
      "house": "C",
      "postcode": "8200-562",
      "city": "FERREIRAS",
      "lon": "-8.211866780327805",
      "lat": "37.11336768781104"
    },
    {
      "id": "pt.ine.add.PTCONT.1681199",
      "street": "ESTR CERROS ALTOS COND SERENA VILAGE",
      "house": "1 A",
      "postcode": "8200-562",
      "city": "FERREIRAS",
      "lon": "-8.212285082313471",
      "lat": "37.11529568779059"
    },
    {
      "id": "pt.ine.add.PTCONT.1686889",
      "street": "R LARANJEIRAS COND VALE S JOSE",
      "house": "A",
      "postcode": "8200-562",
      "city": "FERREIRAS",
      "lon": "-8.211743156920686",
      "lat": "37.11350292959789"
    },
    {
      "id": "pt.ine.add.PTCONT.1695827",
      "street": "",
      "house": "",
      "postcode": "8200-562",
      "city": "FERREIRAS",
      "lon": "-8.211269707463515",
      "lat": "37.11262920964416"
    },
    {
      "id": "pt.ine.add.PTCONT.1697418",
      "street": "CAM MONTE VELHO",
      "house": "",
      "postcode": "8200-562",
      "city": "FERREIRAS",
      "lon": "-8.204937940192961",
      "lat": "37.11538146233366"
    },
    {
      "id": "pt.ine.add.PTCONT.1698176",
      "street": "",
      "house": "",
      "postcode": "8200-562",
      "city": "FERREIRAS",
      "lon": "-8.211764466421108",
      "lat": "37.11234955229915"
    },
    {
      "id": "pt.ine.add.PTCONT.1700755",
      "street": "ESTR CERROS ALTOS",
      "house": "12",
      "postcode": "8200-562",
      "city": "FERREIRAS",
      "lon": "-8.212305182884892",
      "lat": "37.11298894852002"
    },
    {
      "id": "pt.ine.add.PTCONT.1703845",
      "street": "CAM POMAR",
      "house": "",
      "postcode": "8200-562",
      "city": "FERREIRAS",
      "lon": "-8.211021195762418",
      "lat": "37.11166523355384"
    },
    {
      "id": "pt.ine.add.PTCONT.1703878",
      "street": "SIT MOSQUEIRA",
      "house": "",
      "postcode": "8200-562",
      "city": "FERREIRAS",
      "lon": "-8.211081497083546",
      "lat": "37.11561185803367"
    },
    {
      "id": "pt.ine.add.PTCONT.1703879",
      "street": "",
      "house": "",
      "postcode": "8200-562",
      "city": "FERREIRAS",
      "lon": "-8.211081497083546",
      "lat": "37.11561185803367"
    },
    {
      "id": "pt.ine.add.PTCONT.1709209",
      "street": "ESTR CERROS ALTOS",
      "house": "",
      "postcode": "8200-562",
      "city": "FERREIRAS",
      "lon": "-8.211913185761896",
      "lat": "37.11471925417846"
    },
    {
      "id": "pt.ine.add.PTCONT.1709507",
      "street": "",
      "house": "",
      "postcode": "8200-562",
      "city": "FERREIRAS",
      "lon": "-8.211472245615619",
      "lat": "37.11264709725604"
    },
    {
      "id": "pt.ine.add.PTCONT.1709545",
      "street": "",
      "house": "",
      "postcode": "8200-562",
      "city": "FERREIRAS",
      "lon": "-8.210924704147592",
      "lat": "37.11632380200958"
    },
    {
      "id": "pt.ine.add.PTCONT.1709546",
      "street": "",
      "house": "",
      "postcode": "8200-562",
      "city": "FERREIRAS",
      "lon": "-8.210924704147592",
      "lat": "37.11632380200958"
    },
    {
      "id": "pt.ine.add.PTCONT.1715609",
      "street": "R LARANJEIRAS COND VALE S JOSE",
      "house": "G",
      "postcode": "8200-562",
      "city": "FERREIRAS",
      "lon": "-8.212091635812348",
      "lat": "37.11320534655242"
    },
    {
      "id": "pt.ine.add.PTCONT.1718309",
      "street": "ESTR CERROS ALTOS V",
      "house": "V 8",
      "postcode": "8200-562",
      "city": "FERREIRAS",
      "lon": "-8.21189108438901",
      "lat": "37.11510672667362"
    },
    {
      "id": "pt.ine.add.PTCONT.1720699",
      "street": "ESTR CERROS ALTOS",
      "house": "13",
      "postcode": "8200-562",
      "city": "FERREIRAS",
      "lon": "-8.212293884831668",
      "lat": "37.11294390281785"
    },
    {
      "id": "pt.ine.add.PTCONT.1723875",
      "street": "CAM POMAR",
      "house": "",
      "postcode": "8200-562",
      "city": "FERREIRAS",
      "lon": "-8.211268855468772",
      "lat": "37.11180023032918"
    },
    {
      "id": "pt.ine.add.PTCONT.1726195",
      "street": "CAM POMAR",
      "house": "",
      "postcode": "8200-562",
      "city": "FERREIRAS",
      "lon": "-8.211268855468772",
      "lat": "37.11180023032918"
    },
    {
      "id": "pt.ine.add.PTCONT.1726461",
      "street": "CAM LEVANTE URB JARDIM DAS PALMEIRAS",
      "house": "B",
      "postcode": "8200-562",
      "city": "FERREIRAS",
      "lon": "-8.212264596048495",
      "lat": "37.11723299005959"
    },
    {
      "id": "pt.ine.add.PTCONT.1726933",
      "street": "BC LARANJEIRAS",
      "house": "",
      "postcode": "8200-562",
      "city": "FERREIRAS",
      "lon": "-8.211372719925345",
      "lat": "37.11433215433422"
    },
    {
      "id": "pt.ine.add.PTCONT.1733835",
      "street": "R LARANJEIRAS",
      "house": "",
      "postcode": "8200-562",
      "city": "FERREIRAS",
      "lon": "-8.20894406590381",
      "lat": "37.11597367025516"
    },
    {
      "id": "pt.ine.add.PTCONT.1744533",
      "street": "R LARANJEIRAS COND VALE S JOSE",
      "house": "D",
      "postcode": "8200-562",
      "city": "FERREIRAS",
      "lon": "-8.21192297094236",
      "lat": "37.113304575929405"
    },
    {
      "id": "pt.ine.add.PTCONT.1744543",
      "street": "R LARANJEIRAS",
      "house": "",
      "postcode": "8200-562",
      "city": "FERREIRAS",
      "lon": "-8.207772441364725",
      "lat": "37.11448765719575"
    },
    {
      "id": "pt.ine.add.PTCONT.1747974",
      "street": "CAM MONTE VELHO",
      "house": "",
      "postcode": "8200-562",
      "city": "FERREIRAS",
      "lon": "-8.211038550332242",
      "lat": "37.11762125991309"
    },
    {
      "id": "pt.ine.add.PTCONT.1747975",
      "street": "CAM POMAR",
      "house": "",
      "postcode": "8200-562",
      "city": "FERREIRAS",
      "lon": "-8.21153905519499",
      "lat": "37.11197125428099"
    },
    {
      "id": "pt.ine.add.PTCONT.1762557",
      "street": "ESTR CERROS ALTOS",
      "house": "15",
      "postcode": "8200-562",
      "city": "FERREIRAS",
      "lon": "-8.212203791411852",
      "lat": "37.11286286710509"
    },
    {
      "id": "pt.ine.add.PTCONT.1778054",
      "street": "",
      "house": "",
      "postcode": "8200-562",
      "city": "FERREIRAS",
      "lon": "-8.210819194356695",
      "lat": "37.11216996259225"
    },
    {
      "id": "pt.ine.add.PTCONT.1780799",
      "street": "CAM LEVANTE URB JARDIM DAS PALMEIRAS",
      "house": "C",
      "postcode": "8200-562",
      "city": "FERREIRAS",
      "lon": "-8.212287165268085",
      "lat": "37.117296049491074"
    },
    {
      "id": "pt.ine.add.PTCONT.1781183",
      "street": "R LARANJEIRAS CONDVALE S JOSE",
      "house": "F",
      "postcode": "8200-562",
      "city": "FERREIRAS",
      "lon": "-8.212012849553867",
      "lat": "37.113178367061586"
    },
    {
      "id": "pt.ine.add.PTCONT.1784170",
      "street": "SIT MOSQUEIRA",
      "house": "",
      "postcode": "8200-559",
      "city": "FERREIRAS",
      "lon": "-8.209495646938908",
      "lat": "37.116225614231546"
    },
    {
      "id": "pt.ine.add.PTCONT.1786898",
      "street": "BRANQUEIRA",
      "house": "",
      "postcode": "8200-562",
      "city": "FERREIRAS",
      "lon": "-8.211505952442199",
      "lat": "37.11260202172277"
    },
    {
      "id": "pt.ine.add.PTCONT.1789339",
      "street": "CAM LEVANTE URB JARDIM DAS PALMEIRAS",
      "house": "E",
      "postcode": "8200-562",
      "city": "FERREIRAS",
      "lon": "-8.212287268482894",
      "lat": "37.11739516649467"
    },
    {
      "id": "pt.ine.add.PTCONT.1789713",
      "street": "CAM MONTE VELHO",
      "house": "",
      "postcode": "8200-562",
      "city": "FERREIRAS",
      "lon": "-8.210667001078987",
      "lat": "37.1173872268349"
    },
    {
      "id": "pt.ine.add.PTCONT.1800890",
      "street": "CAM MONTE VELHO",
      "house": "",
      "postcode": "8200-562",
      "city": "FERREIRAS",
      "lon": "-8.210711833514482",
      "lat": "37.117215995279665"
    },
    {
      "id": "pt.ine.add.PTCONT.1801540",
      "street": "ESTR CERROS ALTOS",
      "house": "8",
      "postcode": "8200-562",
      "city": "FERREIRAS",
      "lon": "-8.212429152201766",
      "lat": "37.113187099937825"
    },
    {
      "id": "pt.ine.add.PTCONT.1805742",
      "street": "",
      "house": "",
      "postcode": "8200-562",
      "city": "FERREIRAS",
      "lon": "-8.211618342350697",
      "lat": "37.11248480890283"
    },
    {
      "id": "pt.ine.add.PTCONT.1807278",
      "street": "CAM POMAR SOBRAL CASA",
      "house": "",
      "postcode": "8200-562",
      "city": "FERREIRAS",
      "lon": "-8.211347649305553",
      "lat": "37.11183622096791"
    },
    {
      "id": "pt.ine.add.PTCONT.1807279",
      "street": "CAM POMAR SOBRAL CASA",
      "house": "",
      "postcode": "8200-562",
      "city": "FERREIRAS",
      "lon": "-8.211347649305553",
      "lat": "37.11183622096791"
    },
    {
      "id": "pt.ine.add.PTCONT.1807450",
      "street": "R LARANJEIRAS CON VALE S JOSE",
      "house": "N",
      "postcode": "8200-562",
      "city": "FERREIRAS",
      "lon": "-8.212316968985878",
      "lat": "37.113502547651365"
    },
    {
      "id": "pt.ine.add.PTCONT.1810149",
      "street": "R LARANJEIRAS COND VALE S JOSE",
      "house": "E",
      "postcode": "8200-562",
      "city": "FERREIRAS",
      "lon": "-8.211956659107045",
      "lat": "37.113241478986986"
    },
    {
      "id": "pt.ine.add.PTCONT.1810150",
      "street": "CAM POMAR",
      "house": "",
      "postcode": "8200-562",
      "city": "FERREIRAS",
      "lon": "-8.211606477431959",
      "lat": "37.11189011380219"
    },
    {
      "id": "pt.ine.add.PTCONT.1818628",
      "street": "ESTR CERROS ALTOS",
      "house": "3",
      "postcode": "8200-562",
      "city": "FERREIRAS",
      "lon": "-8.212564420438177",
      "lat": "37.11343029689247"
    },
    {
      "id": "pt.ine.add.PTCONT.1827409",
      "street": "ESTR CERROS ALTOS COND SERENA VILAGE",
      "house": "I9",
      "postcode": "8200-562",
      "city": "FERREIRAS",
      "lon": "-8.211846041251182",
      "lat": "37.11507071400912"
    },
    {
      "id": "pt.ine.add.PTCONT.1827628",
      "street": "R LARANJEIRAS COND VALE S JOSE",
      "house": "I",
      "postcode": "8200-562",
      "city": "FERREIRAS",
      "lon": "-8.21217046896634",
      "lat": "37.11327737920543"
    },
    {
      "id": "pt.ine.add.PTCONT.1839808",
      "street": "ESTR CERROS ALTOS",
      "house": "",
      "postcode": "8200-562",
      "city": "FERREIRAS",
      "lon": "-8.212071014089945",
      "lat": "37.11501650051506"
    },
    {
      "id": "pt.ine.add.PTCONT.1844219",
      "street": "R LARANJEIRAS",
      "house": "",
      "postcode": "8200-562",
      "city": "FERREIRAS",
      "lon": "-8.207772441364725",
      "lat": "37.11448765719575"
    },
    {
      "id": "pt.ine.add.PTCONT.1845987",
      "street": "R LARANJEIRAS",
      "house": "",
      "postcode": "8200-562",
      "city": "FERREIRAS",
      "lon": "-8.208130964892291",
      "lat": "37.11294660994965"
    }
  ]
}