{
  "data": {
    "distrito": "Coimbra",
    "concelho": "Oliveira do Hospital",
    "freguesia": "União das freguesias de Oliveira do Hospital e São Paio de Gramaços",
    "OBJECTID": 693,
    "BGRI2021": "06112400115",
    "DT21": "06",
    "DTMN21": "0611",
    "DTMNFR21": "061124",
    "DTMNFRSEC21": "061124001",
    "SECNUM21": "001",
    "SSNUM21": "15",
    "SECSSNUM21": "00115",
    "OBJECTID_1": 54496,
    "DT": "06",
    "CC": "11",
    "fr": "24",
    "SEC": "001",
    "SS": "15"
  },
  "addresses": [
    {
      "id": "pt.ine.add.PTCONT.1103487",
      "street": "R DO SALGUEIRAL",
      "house": "14",
      "postcode": "3400-691",
      "city": "SÃO PAIO DE GRAMAÇOS",
      "lon": "-7.842814387555621",
      "lat": "40.34810428234967"
    },
    {
      "id": "pt.ine.add.PTCONT.1143320",
      "street": "TV DA CAL",
      "house": "1",
      "postcode": "3400-703",
      "city": "SÃO PAIO DE GRAMAÇOS",
      "lon": "-7.840521925145033",
      "lat": "40.35018781338608"
    },
    {
      "id": "pt.ine.add.PTCONT.1146451",
      "street": "R DO SALGUEIRAL",
      "house": "8",
      "postcode": "3400-691",
      "city": "SÃO PAIO DE GRAMAÇOS",
      "lon": "-7.842546724092512",
      "lat": "40.34739216490734"
    },
    {
      "id": "pt.ine.add.PTCONT.1152436",
      "street": "R ALEXANDRE RODRIGUES",
      "house": "14",
      "postcode": "3400-703",
      "city": "SÃO PAIO DE GRAMAÇOS",
      "lon": "-7.83987239475005",
      "lat": "40.350681478303784"
    },
    {
      "id": "pt.ine.add.PTCONT.1154684",
      "street": "R DO SALGUEIRAL",
      "house": "20",
      "postcode": "3400-691",
      "city": "SÃO PAIO DE GRAMAÇOS",
      "lon": "-7.8423399024033715",
      "lat": "40.348958625963576"
    },
    {
      "id": "pt.ine.add.PTCONT.1164612",
      "street": "R ALEXANDRE RODRIGUES",
      "house": "16",
      "postcode": "3400-703",
      "city": "SÃO PAIO DE GRAMAÇOS",
      "lon": "-7.839837745733149",
      "lat": "40.35052829470005"
    },
    {
      "id": "pt.ine.add.PTCONT.1166207",
      "street": "R DO SALGUEIRAL",
      "house": "",
      "postcode": "3400-691",
      "city": "SÃO PAIO DE GRAMAÇOS",
      "lon": "-7.842912060175077",
      "lat": "40.350031733426356"
    },
    {
      "id": "pt.ine.add.PTCONT.1167544",
      "street": "R ALEXANDRE RODRIGUES",
      "house": "24",
      "postcode": "3400-703",
      "city": "SÃO PAIO DE GRAMAÇOS",
      "lon": "-7.84005191815001",
      "lat": "40.349997505187204"
    },
    {
      "id": "pt.ine.add.PTCONT.1167545",
      "street": "R ALEXANDRE RODRIGUES",
      "house": "28",
      "postcode": "3400-703",
      "city": "SÃO PAIO DE GRAMAÇOS",
      "lon": "-7.840170832096414",
      "lat": "40.34971863176765"
    },
    {
      "id": "pt.ine.add.PTCONT.1167546",
      "street": "R ALEXANDRE RODRIGUES",
      "house": "28",
      "postcode": "3400-703",
      "city": "SÃO PAIO DE GRAMAÇOS",
      "lon": "-7.840170832096414",
      "lat": "40.34971863176765"
    },
    {
      "id": "pt.ine.add.PTCONT.1170614",
      "street": "R ALEXANDRE RODRIGUES",
      "house": "20",
      "postcode": "3400-703",
      "city": "SÃO PAIO DE GRAMAÇOS",
      "lon": "-7.839921193565581",
      "lat": "40.35028535416599"
    },
    {
      "id": "pt.ine.add.PTCONT.1179682",
      "street": "R ALEXANDRE RODRIGUES",
      "house": "18",
      "postcode": "3400-703",
      "city": "SÃO PAIO DE GRAMAÇOS",
      "lon": "-7.839850101542921",
      "lat": "40.35039324153523"
    },
    {
      "id": "pt.ine.add.PTCONT.1179683",
      "street": "R ALEXANDRE RODRIGUES",
      "house": "18",
      "postcode": "3400-703",
      "city": "SÃO PAIO DE GRAMAÇOS",
      "lon": "-7.839850101542921",
      "lat": "40.35039324153523"
    },
    {
      "id": "pt.ine.add.PTCONT.1182836",
      "street": "BR FRANCISCO VELOSO",
      "house": "1",
      "postcode": "3400-724",
      "city": "SÃO PAIO DE GRAMAÇOS",
      "lon": "-7.841074601415198",
      "lat": "40.35031528899592"
    },
    {
      "id": "pt.ine.add.PTCONT.1192832",
      "street": "R ALEXANDRE RODRIGUES",
      "house": "",
      "postcode": "3400-703",
      "city": "SÃO PAIO DE GRAMAÇOS",
      "lon": "-7.8399400222334545",
      "lat": "40.3486553820632"
    },
    {
      "id": "pt.ine.add.PTCONT.1204926",
      "street": "R PAVILHÃO SERAFIM MARQUES",
      "house": "",
      "postcode": "3400-724",
      "city": "SÃO PAIO DE GRAMAÇOS",
      "lon": "-7.840541886213794",
      "lat": "40.351016382089334"
    },
    {
      "id": "pt.ine.add.PTCONT.1208559",
      "street": "R ALEXANDRE RODRIGUES",
      "house": "8",
      "postcode": "3400-703",
      "city": "SÃO PAIO DE GRAMAÇOS",
      "lon": "-7.840024010726396",
      "lat": "40.3510060653506"
    },
    {
      "id": "pt.ine.add.PTCONT.1209737",
      "street": "R DO SALGUEIRAL",
      "house": "10",
      "postcode": "3400-691",
      "city": "SÃO PAIO DE GRAMAÇOS",
      "lon": "-7.842569491573039",
      "lat": "40.347572334855876"
    },
    {
      "id": "pt.ine.add.PTCONT.1220756",
      "street": "R DO SALGUEIRAL",
      "house": "22",
      "postcode": "3400-691",
      "city": "SÃO PAIO DE GRAMAÇOS",
      "lon": "-7.842663073631362",
      "lat": "40.3477076544497"
    },
    {
      "id": "pt.ine.add.PTCONT.1224748",
      "street": "R ALEXANDRE RODRIGUES",
      "house": "10",
      "postcode": "3400-703",
      "city": "SÃO PAIO DE GRAMAÇOS",
      "lon": "-7.839953892963456",
      "lat": "40.350888814437624"
    },
    {
      "id": "pt.ine.add.PTCONT.1226808",
      "street": "R ALEXANDRE RODRIGUES",
      "house": "26",
      "postcode": "3400-703",
      "city": "SÃO PAIO DE GRAMAÇOS",
      "lon": "-7.840111355760528",
      "lat": "40.34986257126236"
    },
    {
      "id": "pt.ine.add.PTCONT.1230801",
      "street": "R ALEXANDRE RODRIGUES",
      "house": "22",
      "postcode": "3400-703",
      "city": "SÃO PAIO DE GRAMAÇOS",
      "lon": "-7.839980592702774",
      "lat": "40.35015942585142"
    },
    {
      "id": "pt.ine.add.PTCONT.1230802",
      "street": "R ALEXANDRE RODRIGUES",
      "house": "30",
      "postcode": "3400-703",
      "city": "SÃO PAIO DE GRAMAÇOS",
      "lon": "-7.840230308177752",
      "lat": "40.34957469223786"
    },
    {
      "id": "pt.ine.add.PTCONT.1231916",
      "street": "R DO SALGUEIRAL",
      "house": "119",
      "postcode": "3400-691",
      "city": "SÃO PAIO DE GRAMAÇOS",
      "lon": "-7.841355765460688",
      "lat": "40.34789348269063"
    },
    {
      "id": "pt.ine.add.PTCONT.1236521",
      "street": "R DO SALGUEIRAL",
      "house": "6",
      "postcode": "3400-691",
      "city": "SÃO PAIO DE GRAMAÇOS",
      "lon": "-7.842065967004783",
      "lat": "40.34696769121011"
    },
    {
      "id": "pt.ine.add.PTCONT.1266248",
      "street": "R ALEXANDRE RODRIGUES",
      "house": "12",
      "postcode": "3400-703",
      "city": "SÃO PAIO DE GRAMAÇOS",
      "lon": "-7.839942473163403",
      "lat": "40.35080773480265"
    },
    {
      "id": "pt.ine.add.PTCONT.1268046",
      "street": "R SALGUEIRAL",
      "house": "2",
      "postcode": "3400-691",
      "city": "SÃO PAIO DE GRAMAÇOS",
      "lon": "-7.843028917477945",
      "lat": "40.350230150500686"
    },
    {
      "id": "pt.ine.add.PTCONT.1307702",
      "street": "BR FRANCISCO VELOSO",
      "house": "9",
      "postcode": "3400-724",
      "city": "SÃO PAIO DE GRAMAÇOS",
      "lon": "-7.843169625358059",
      "lat": "40.35035658217318"
    },
    {
      "id": "pt.ine.add.PTCONT.1320575",
      "street": "R DO SALGUEIRAL",
      "house": "",
      "postcode": "3400-691",
      "city": "SÃO PAIO DE GRAMAÇOS",
      "lon": "-7.841155321879907",
      "lat": "40.347974027654146"
    },
    {
      "id": "pt.ine.add.PTCONT.1338996",
      "street": "TV CAL",
      "house": "36",
      "postcode": "3400-703",
      "city": "SÃO PAIO DE GRAMAÇOS",
      "lon": "-7.840191490080978",
      "lat": "40.3503851009672"
    },
    {
      "id": "pt.ine.add.PTCONT.1349284",
      "street": "R DO SALGUEIRAL",
      "house": "34",
      "postcode": "3400-691",
      "city": "SÃO PAIO DE GRAMAÇOS",
      "lon": "-7.842982220783365",
      "lat": "40.35013997704131"
    },
    {
      "id": "pt.ine.add.PTCONT.1351097",
      "street": "BR FRANCISCO VELOSO",
      "house": "7",
      "postcode": "3400-724",
      "city": "SÃO PAIO DE GRAMAÇOS",
      "lon": "-7.842816273532766",
      "lat": "40.35040972967411"
    }
  ]
}