{
  "data": {
    "distrito": "Setúbal",
    "concelho": "Palmela",
    "freguesia": "União das freguesias de Poceirão e Marateca",
    "OBJECTID": 981,
    "BGRI2021": "15080600408",
    "DT21": "15",
    "DTMN21": "1508",
    "DTMNFR21": "150806",
    "DTMNFRSEC21": "150806004",
    "SECNUM21": "004",
    "SSNUM21": "08",
    "SECSSNUM21": "00408",
    "OBJECTID_1": 165261,
    "DT": "15",
    "CC": "08",
    "fr": "06",
    "SEC": "004",
    "SS": "08"
  },
  "addresses": [
    {
      "id": "pt.ine.add.PTCONT.4686332",
      "street": "R JOSE CABETE CCI",
      "house": "CCI 4410",
      "postcode": "2965-219",
      "city": "POCEIRÃO",
      "lon": "-8.75315313449484",
      "lat": "38.659459746669015"
    },
    {
      "id": "pt.ine.add.PTCONT.4689541",
      "street": "ESTR LAGOA DO CALVO",
      "house": "",
      "postcode": "2965-237",
      "city": "POCEIRÃO",
      "lon": "-8.742349062708868",
      "lat": "38.657561745808984"
    },
    {
      "id": "pt.ine.add.PTCONT.4700389",
      "street": "ESTR LAGOA DO CALVO",
      "house": "",
      "postcode": "2965-237",
      "city": "POCEIRÃO",
      "lon": "-8.743340922794683",
      "lat": "38.6539533070129"
    },
    {
      "id": "pt.ine.add.PTCONT.4713281",
      "street": "ESTR LAGOA DO CALVO",
      "house": "CCI 4504",
      "postcode": "2965-237",
      "city": "POCEIRÃO",
      "lon": "-8.742135642190666",
      "lat": "38.656779146415474"
    },
    {
      "id": "pt.ine.add.PTCONT.4731411",
      "street": "R MANUEL BOROEGA",
      "house": "CCI 4411",
      "postcode": "2965-241",
      "city": "POCEIRÃO",
      "lon": "-8.749034842686996",
      "lat": "38.65749970816703"
    },
    {
      "id": "pt.ine.add.PTCONT.4750665",
      "street": "ESTR LAGOA DO CALVO",
      "house": "CCI 1009",
      "postcode": "2965-237",
      "city": "POCEIRÃO",
      "lon": "-8.742297006573553",
      "lat": "38.65684136334922"
    },
    {
      "id": "pt.ine.add.PTCONT.4759011",
      "street": "R MANUEL BORROGUERA",
      "house": "",
      "postcode": "2965-219",
      "city": "POCEIRÃO",
      "lon": "-8.751281086101027",
      "lat": "38.65953271223025"
    },
    {
      "id": "pt.ine.add.PTCONT.4787085",
      "street": "R JOÃO MATIAS",
      "house": "CCI 4519",
      "postcode": "2965-241",
      "city": "POCEIRÃO",
      "lon": "-8.745747010877343",
      "lat": "38.65455328615815"
    },
    {
      "id": "pt.ine.add.PTCONT.4801821",
      "street": "ESTR LAGOA DO CALVO",
      "house": "CCI 3806",
      "postcode": "2965-237",
      "city": "POCEIRÃO",
      "lon": "-8.74412561639415",
      "lat": "38.65030990744732"
    },
    {
      "id": "pt.ine.add.PTCONT.4805607",
      "street": "R LAGOA DO CALVO",
      "house": "CCI 4521",
      "postcode": "2965-237",
      "city": "POCEIRÃO",
      "lon": "-8.741938572025216",
      "lat": "38.659284443161006"
    },
    {
      "id": "pt.ine.add.PTCONT.4819266",
      "street": "R PERALTAS",
      "house": "CCI 3810",
      "postcode": "2965-241",
      "city": "POCEIRÃO",
      "lon": "-8.747973243956727",
      "lat": "38.65023569789044"
    },
    {
      "id": "pt.ine.add.PTCONT.4826153",
      "street": "ESTR LAGOA DO CALVO",
      "house": "CCI 2805",
      "postcode": "2965-237",
      "city": "POCEIRÃO",
      "lon": "-8.74413326770394",
      "lat": "38.65121068536755"
    },
    {
      "id": "pt.ine.add.PTCONT.4834890",
      "street": "R MANUEL BORROGUERA",
      "house": "",
      "postcode": "2965-219",
      "city": "POCEIRÃO",
      "lon": "-8.751258883807182",
      "lat": "38.65962291119059"
    },
    {
      "id": "pt.ine.add.PTCONT.4835383",
      "street": "R JOÃO MATIAS",
      "house": "CCI 4518",
      "postcode": "2965-241",
      "city": "POCEIRÃO",
      "lon": "-8.743829742804575",
      "lat": "38.654698434361144"
    },
    {
      "id": "pt.ine.add.PTCONT.4861170",
      "street": "ESTR LAGOA DO CALVO",
      "house": "CCI 1009",
      "postcode": "2965-237",
      "city": "POCEIRÃO",
      "lon": "-8.742010266970759",
      "lat": "38.65689690533172"
    },
    {
      "id": "pt.ine.add.PTCONT.4873691",
      "street": "ESTR LAGOA DO CALVO",
      "house": "",
      "postcode": "2965-237",
      "city": "POCEIRÃO",
      "lon": "-8.740903248987054",
      "lat": "38.65776744694562"
    },
    {
      "id": "pt.ine.add.PTCONT.4897229",
      "street": "ESTR LAGOA DO CALVO",
      "house": "CCI 3805",
      "postcode": "2965-237",
      "city": "POCEIRÃO",
      "lon": "-8.744134338914607",
      "lat": "38.651336794265205"
    },
    {
      "id": "pt.ine.add.PTCONT.4918536",
      "street": "R PERALTAS",
      "house": "CCI 3829",
      "postcode": "2965-241",
      "city": "POCEIRÃO",
      "lon": "-8.747888602208537",
      "lat": "38.64974069292615"
    },
    {
      "id": "pt.ine.add.PTCONT.4936564",
      "street": "R JOSE CABETE",
      "house": "CCI 4405",
      "postcode": "2965-219",
      "city": "POCEIRÃO",
      "lon": "-8.753024666817929",
      "lat": "38.659217207197834"
    },
    {
      "id": "pt.ine.add.PTCONT.4965392",
      "street": "R PERALTAS",
      "house": "CCI 3809",
      "postcode": "2965-241",
      "city": "POCEIRÃO",
      "lon": "-8.745570410380672",
      "lat": "38.64865385498158"
    },
    {
      "id": "pt.ine.add.PTCONT.4965393",
      "street": "R JOÃO MATIAS",
      "house": "",
      "postcode": "2965-241",
      "city": "POCEIRÃO",
      "lon": "-8.745261828253152",
      "lat": "38.651538087596464"
    },
    {
      "id": "pt.ine.add.PTCONT.4976336",
      "street": "ESTR LAGOA DO CALVO",
      "house": "CCI 4505",
      "postcode": "2965-237",
      "city": "POCEIRÃO",
      "lon": "-8.742032556359284",
      "lat": "38.65681571577027"
    },
    {
      "id": "pt.ine.add.PTCONT.4996204",
      "street": "R JOSE CABETE",
      "house": "",
      "postcode": "2965-219",
      "city": "POCEIRÃO",
      "lon": "-8.7497650129897",
      "lat": "38.65422589581794"
    },
    {
      "id": "pt.ine.add.PTCONT.5008697",
      "street": "ESTR LAGOA DO CALVO",
      "house": "",
      "postcode": "2965-237",
      "city": "POCEIRÃO",
      "lon": "-8.741949903097874",
      "lat": "38.65519467510594"
    },
    {
      "id": "pt.ine.add.PTCONT.5023917",
      "street": "ESTR LAGOA DO CALVO",
      "house": "",
      "postcode": "2965-237",
      "city": "POCEIRÃO",
      "lon": "-8.742089080488649",
      "lat": "38.656707323466854"
    },
    {
      "id": "pt.ine.add.PTCONT.5033036",
      "street": "R QUINDERAS",
      "house": "CCI 1013",
      "postcode": "2965-241",
      "city": "POCEIRÃO",
      "lon": "-8.747363213969344",
      "lat": "38.658166094422086"
    },
    {
      "id": "pt.ine.add.PTCONT.5045710",
      "street": "ESTR LAGOA CALVO",
      "house": "",
      "postcode": "2965-237",
      "city": "POCEIRÃO",
      "lon": "-8.740705977347922",
      "lat": "38.65889449287835"
    },
    {
      "id": "pt.ine.add.PTCONT.5053297",
      "street": "R QUINDERAS",
      "house": "",
      "postcode": "2965-241",
      "city": "POCEIRÃO",
      "lon": "-8.7465756072806",
      "lat": "38.65876476667405"
    },
    {
      "id": "pt.ine.add.PTCONT.5064130",
      "street": "R QUINDERAS",
      "house": "",
      "postcode": "2965-241",
      "city": "POCEIRÃO",
      "lon": "-8.748624667013111",
      "lat": "38.65924044319472"
    },
    {
      "id": "pt.ine.add.PTCONT.5067838",
      "street": "ESTR LAGOA DO CALVO",
      "house": "CCI 4506",
      "postcode": "2965-237",
      "city": "POCEIRÃO",
      "lon": "-8.740815302794466",
      "lat": "38.65823632867263"
    },
    {
      "id": "pt.ine.add.PTCONT.5087538",
      "street": "R LAGOA CALVO",
      "house": "",
      "postcode": "2965-237",
      "city": "POCEIRÃO",
      "lon": "-8.743818761769468",
      "lat": "38.657464000141815"
    },
    {
      "id": "pt.ine.add.PTCONT.5092721",
      "street": "R MANUEL BORROGUERA",
      "house": "CCI 4407",
      "postcode": "2965-219",
      "city": "POCEIRÃO",
      "lon": "-8.751169794768785",
      "lat": "38.65861446765258"
    },
    {
      "id": "pt.ine.add.PTCONT.5128312",
      "street": "R PERALTAS",
      "house": "CCI 3807",
      "postcode": "2965-241",
      "city": "POCEIRÃO",
      "lon": "-8.74472675951913",
      "lat": "38.64805472070736"
    }
  ]
}