{
  "data": {
    "distrito": "Viseu",
    "concelho": "Tondela",
    "freguesia": "Dardavaz",
    "OBJECTID": 156,
    "BGRI2021": "18210600144",
    "DT21": "18",
    "DTMN21": "1821",
    "DTMNFR21": "182106",
    "DTMNFRSEC21": "182106001",
    "SECNUM21": "001",
    "SSNUM21": "44",
    "SECSSNUM21": "00144",
    "OBJECTID_1": 200196,
    "DT": "18",
    "CC": "21",
    "fr": "06",
    "SEC": "001",
    "SS": "44"
  },
  "addresses": [
    {
      "id": "pt.ine.add.PTCONT.5433465",
      "street": "R CAPELA",
      "house": "170",
      "postcode": "3460-055",
      "city": "TONDELA",
      "lon": "-8.111196635737127",
      "lat": "40.47844364791243"
    },
    {
      "id": "pt.ine.add.PTCONT.5437141",
      "street": "R MOITA",
      "house": "",
      "postcode": "3460-055",
      "city": "TONDELA",
      "lon": "-8.111809621217365",
      "lat": "40.47926325857763"
    },
    {
      "id": "pt.ine.add.PTCONT.5440836",
      "street": "R MOITA",
      "house": "108",
      "postcode": "3460-055",
      "city": "TONDELA",
      "lon": "-8.11263510613768",
      "lat": "40.47941650040635"
    },
    {
      "id": "pt.ine.add.PTCONT.5444545",
      "street": "R PRINCIPAL",
      "house": "1974",
      "postcode": "3460-055",
      "city": "TONDELA",
      "lon": "-8.109580258831578",
      "lat": "40.48048756744686"
    },
    {
      "id": "pt.ine.add.PTCONT.5447468",
      "street": "R MOITA",
      "house": "272",
      "postcode": "3460-055",
      "city": "TONDELA",
      "lon": "-8.11347266628952",
      "lat": "40.47861516056989"
    },
    {
      "id": "pt.ine.add.PTCONT.5457331",
      "street": "R MOITA",
      "house": "10",
      "postcode": "3460-055",
      "city": "TONDELA",
      "lon": "-8.111561892693393",
      "lat": "40.47947934347837"
    },
    {
      "id": "pt.ine.add.PTCONT.5479006",
      "street": "R LAGEDO",
      "house": "1848",
      "postcode": "3460-055",
      "city": "TONDELA",
      "lon": "-8.113803252288776",
      "lat": "40.47730042013664"
    },
    {
      "id": "pt.ine.add.PTCONT.5496686",
      "street": "R PRINCIPAL",
      "house": "1934",
      "postcode": "3460-055",
      "city": "TONDELA",
      "lon": "-8.109214615009188",
      "lat": "40.48061356872035"
    },
    {
      "id": "pt.ine.add.PTCONT.5519404",
      "street": "R CABECO POMBAL",
      "house": "67",
      "postcode": "3460-055",
      "city": "TONDELA",
      "lon": "-8.109532949288061",
      "lat": "40.48087479209617"
    },
    {
      "id": "pt.ine.add.PTCONT.5544342",
      "street": "R PRINCIPAL",
      "house": "",
      "postcode": "3460-055",
      "city": "TONDELA",
      "lon": "-8.111207963618368",
      "lat": "40.479875516766135"
    },
    {
      "id": "pt.ine.add.PTCONT.5548331",
      "street": "R PRINCIPAL",
      "house": "1990",
      "postcode": "3460-055",
      "city": "TONDELA",
      "lon": "-8.10974539308847",
      "lat": "40.48041555735232"
    },
    {
      "id": "pt.ine.add.PTCONT.5584849",
      "street": "R PRINCIPAL",
      "house": "1198",
      "postcode": "3460-055",
      "city": "TONDELA",
      "lon": "-8.109898736599",
      "lat": "40.4803345392048"
    },
    {
      "id": "pt.ine.add.PTCONT.5590509",
      "street": "R MOITA",
      "house": "222",
      "postcode": "3460-055",
      "city": "TONDELA",
      "lon": "-8.11392074095643",
      "lat": "40.47884937756557"
    },
    {
      "id": "pt.ine.add.PTCONT.5591155",
      "street": "R MOITA",
      "house": "222",
      "postcode": "3460-055",
      "city": "TONDELA",
      "lon": "-8.11392074095643",
      "lat": "40.47884937756557"
    },
    {
      "id": "pt.ine.add.PTCONT.5610596",
      "street": "R PRINCIPAL",
      "house": "2179",
      "postcode": "3460-055",
      "city": "TONDELA",
      "lon": "-8.111443962149893",
      "lat": "40.47947031598356"
    },
    {
      "id": "pt.ine.add.PTCONT.5652169",
      "street": "R MOITA",
      "house": "202",
      "postcode": "3460-055",
      "city": "TONDELA",
      "lon": "-8.113590444348409",
      "lat": "40.47914650215358"
    },
    {
      "id": "pt.ine.add.PTCONT.5664409",
      "street": "R MOITA",
      "house": "",
      "postcode": "3460-055",
      "city": "TONDELA",
      "lon": "-8.112540800698174",
      "lat": "40.479281401902924"
    }
  ]
}