{
  "data": {
    "distrito": "Coimbra",
    "concelho": "Oliveira do Hospital",
    "freguesia": "União das freguesias de Penalva de Alva e São Sebastião da Feira",
    "OBJECTID": 212,
    "BGRI2021": "06112500109",
    "DT21": "06",
    "DTMN21": "0611",
    "DTMNFR21": "061125",
    "DTMNFRSEC21": "061125001",
    "SECNUM21": "001",
    "SSNUM21": "09",
    "SECSSNUM21": "00109",
    "OBJECTID_1": 54839,
    "DT": "06",
    "CC": "11",
    "fr": "25",
    "SEC": "001",
    "SS": "09"
  },
  "addresses": [
    {
      "id": "pt.ine.add.PTCONT.1109657",
      "street": "R DE STA LUZIA",
      "house": "9",
      "postcode": "3400-733",
      "city": "SÃO SEBASTIÃO DA FEIRA",
      "lon": "-7.8658925221476865",
      "lat": "40.31620780283638"
    },
    {
      "id": "pt.ine.add.PTCONT.1112979",
      "street": "R ENG LAURINDO DE SOUSA ABRANTES",
      "house": "3",
      "postcode": "3400-733",
      "city": "SÃO SEBASTIÃO DA FEIRA",
      "lon": "-7.866020834551253",
      "lat": "40.31648727551416"
    },
    {
      "id": "pt.ine.add.PTCONT.1121966",
      "street": "R PRINCIPAL",
      "house": "",
      "postcode": "3400-733",
      "city": "SÃO SEBASTIÃO DA FEIRA",
      "lon": "-7.865973562365206",
      "lat": "40.31654120050023"
    },
    {
      "id": "pt.ine.add.PTCONT.1132501",
      "street": "R D JUDITE CELESTE ALVES",
      "house": "1",
      "postcode": "3400-733",
      "city": "SÃO SEBASTIÃO DA FEIRA",
      "lon": "-7.8658921671424045",
      "lat": "40.316297858910836"
    },
    {
      "id": "pt.ine.add.PTCONT.1137959",
      "street": "R PRINCIPAL",
      "house": "8",
      "postcode": "3400-733",
      "city": "SÃO SEBASTIÃO DA FEIRA",
      "lon": "-7.865750385970449",
      "lat": "40.31645062804973"
    },
    {
      "id": "pt.ine.add.PTCONT.1142500",
      "street": "TV DA QUELHA",
      "house": "2",
      "postcode": "3400-733",
      "city": "SÃO SEBASTIÃO DA FEIRA",
      "lon": "-7.866055951590209",
      "lat": "40.316532385029824"
    },
    {
      "id": "pt.ine.add.PTCONT.1152513",
      "street": "R D JUDITE CELESTE ALVES",
      "house": "3",
      "postcode": "3400-733",
      "city": "SÃO SEBASTIÃO DA FEIRA",
      "lon": "-7.86595109751325",
      "lat": "40.31627097794714"
    },
    {
      "id": "pt.ine.add.PTCONT.1167548",
      "street": "R DOS OLIVAIS",
      "house": "3",
      "postcode": "3400-733",
      "city": "SÃO SEBASTIÃO DA FEIRA",
      "lon": "-7.86606548129025",
      "lat": "40.31709976540924"
    },
    {
      "id": "pt.ine.add.PTCONT.1174351",
      "street": "R D JUDITE CELESTE ALVES",
      "house": "10",
      "postcode": "3400-733",
      "city": "SÃO SEBASTIÃO DA FEIRA",
      "lon": "-7.866397804597094",
      "lat": "40.31636206557154"
    },
    {
      "id": "pt.ine.add.PTCONT.1182811",
      "street": "TV DA QUELHA",
      "house": "3",
      "postcode": "3400-733",
      "city": "SÃO SEBASTIÃO DA FEIRA",
      "lon": "-7.866044541577144",
      "lat": "40.316442301799114"
    },
    {
      "id": "pt.ine.add.PTCONT.1186896",
      "street": "R D JUDITE CELESTE ALVES",
      "house": "8",
      "postcode": "3400-733",
      "city": "SÃO SEBASTIÃO DA FEIRA",
      "lon": "-7.866196845739688",
      "lat": "40.31660475569941"
    },
    {
      "id": "pt.ine.add.PTCONT.1188953",
      "street": "R PRINCIPAL",
      "house": "6",
      "postcode": "3400-733",
      "city": "SÃO SEBASTIÃO DA FEIRA",
      "lon": "-7.865891315123193",
      "lat": "40.31651399348383"
    },
    {
      "id": "pt.ine.add.PTCONT.1194132",
      "street": "R DOS OLIVAIS",
      "house": "1",
      "postcode": "3400-733",
      "city": "SÃO SEBASTIÃO DA FEIRA",
      "lon": "-7.865913460326213",
      "lat": "40.31686526649576"
    },
    {
      "id": "pt.ine.add.PTCONT.1194133",
      "street": "R D JUDITE CELESTE ALVES",
      "house": "6",
      "postcode": "3400-733",
      "city": "SÃO SEBASTIÃO DA FEIRA",
      "lon": "-7.866150034678698",
      "lat": "40.316541607864266"
    },
    {
      "id": "pt.ine.add.PTCONT.1220828",
      "street": "R D JUDITE CELESTE ALVES",
      "house": "2",
      "postcode": "3400-733",
      "city": "SÃO SEBASTIÃO DA FEIRA",
      "lon": "-7.866044931862183",
      "lat": "40.31634324011834"
    },
    {
      "id": "pt.ine.add.PTCONT.1234959",
      "street": "R ENG LAURINDO DE SOUSA ABRANTES",
      "house": "4",
      "postcode": "3400-733",
      "city": "SÃO SEBASTIÃO DA FEIRA",
      "lon": "-7.865832739604762",
      "lat": "40.31645081834494"
    },
    {
      "id": "pt.ine.add.PTCONT.1236523",
      "street": "TV DA QUELHA",
      "house": "1",
      "postcode": "3400-733",
      "city": "SÃO SEBASTIÃO DA FEIRA",
      "lon": "-7.865974023735152",
      "lat": "40.316424127607306"
    },
    {
      "id": "pt.ine.add.PTCONT.1257958",
      "street": "R PRINCIPAL",
      "house": "4",
      "postcode": "3400-733",
      "city": "SÃO SEBASTIÃO DA FEIRA",
      "lon": "-7.866008501972709",
      "lat": "40.3166313380647"
    },
    {
      "id": "pt.ine.add.PTCONT.1286403",
      "street": "R PRINCIPAL",
      "house": "7",
      "postcode": "3400-733",
      "city": "SÃO SEBASTIÃO DA FEIRA",
      "lon": "-7.8658089614117355",
      "lat": "40.316513803230045"
    },
    {
      "id": "pt.ine.add.PTCONT.1304550",
      "street": "R ENG LAURINDO DE SOUSA ABRANTES",
      "house": "5",
      "postcode": "3400-733",
      "city": "SÃO SEBASTIÃO DA FEIRA",
      "lon": "-7.865891528128862",
      "lat": "40.31645995984135"
    },
    {
      "id": "pt.ine.add.PTCONT.1321546",
      "street": "R PRINCIPAL",
      "house": "5",
      "postcode": "3400-733",
      "city": "SÃO SEBASTIÃO DA FEIRA",
      "lon": "-7.8660204442290125",
      "lat": "40.31658633719225"
    },
    {
      "id": "pt.ine.add.PTCONT.1355056",
      "street": "R ENG LAURINDO DE SOUSA ABRANTES",
      "house": "2",
      "postcode": "3400-733",
      "city": "SÃO SEBASTIÃO DA FEIRA",
      "lon": "-7.865821187861071",
      "lat": "40.31639675752072"
    }
  ]
}