{
  "data": {
    "distrito": "Coimbra",
    "concelho": "Oliveira do Hospital",
    "freguesia": "União das freguesias de Penalva de Alva e São Sebastião da Feira",
    "OBJECTID": 151,
    "BGRI2021": "06112500122",
    "DT21": "06",
    "DTMN21": "0611",
    "DTMNFR21": "061125",
    "DTMNFRSEC21": "061125001",
    "SECNUM21": "001",
    "SSNUM21": "22",
    "SECSSNUM21": "00122",
    "OBJECTID_1": 54742,
    "DT": "06",
    "CC": "11",
    "fr": "25",
    "SEC": "001",
    "SS": "22"
  },
  "addresses": [
    {
      "id": "pt.ine.add.PTCONT.1109678",
      "street": "QLHA DO SACO",
      "house": "7",
      "postcode": "3400-527",
      "city": "PENALVA DE ALVA",
      "lon": "-7.824882948291429",
      "lat": "40.323364385777126"
    },
    {
      "id": "pt.ine.add.PTCONT.1125298",
      "street": "LG DA CARVALHINHA",
      "house": "4",
      "postcode": "3400-522",
      "city": "PENALVA DE ALVA",
      "lon": "-7.825000280372238",
      "lat": "40.323436743725395"
    },
    {
      "id": "pt.ine.add.PTCONT.1132533",
      "street": "TV DA CAPELA",
      "house": "",
      "postcode": "3400-538",
      "city": "PENALVA DE ALVA",
      "lon": "-7.824589455195731",
      "lat": "40.32321951264153"
    },
    {
      "id": "pt.ine.add.PTCONT.1148723",
      "street": "QLHA DO SACO",
      "house": "3",
      "postcode": "3400-527",
      "city": "PENALVA DE ALVA",
      "lon": "-7.824753768559263",
      "lat": "40.32331000747551"
    },
    {
      "id": "pt.ine.add.PTCONT.1209382",
      "street": "R DA CANADA",
      "house": "",
      "postcode": "3400-528",
      "city": "PENALVA DE ALVA",
      "lon": "-7.824153951306974",
      "lat": "40.32325437303796"
    },
    {
      "id": "pt.ine.add.PTCONT.1236180",
      "street": "R DE S JOÃO BAPTISTA",
      "house": "",
      "postcode": "3400-530",
      "city": "PENALVA DE ALVA",
      "lon": "-7.824671980704262",
      "lat": "40.32318371001221"
    },
    {
      "id": "pt.ine.add.PTCONT.1251009",
      "street": "R DE S JOÃO BAPTISTA",
      "house": "",
      "postcode": "3400-530",
      "city": "PENALVA DE ALVA",
      "lon": "-7.824247750503984",
      "lat": "40.323326668897316"
    },
    {
      "id": "pt.ine.add.PTCONT.1254051",
      "street": "R DO CABEÇO",
      "house": "4",
      "postcode": "3400-531",
      "city": "PENALVA DE ALVA",
      "lon": "-7.825223506597736",
      "lat": "40.32350938343915"
    },
    {
      "id": "pt.ine.add.PTCONT.1264201",
      "street": "R DE S JOÃO BAPTISTA",
      "house": "2",
      "postcode": "3400-530",
      "city": "PENALVA DE ALVA",
      "lon": "-7.8246599278543245",
      "lat": "40.32324671758821"
    },
    {
      "id": "pt.ine.add.PTCONT.1284706",
      "street": "R DO CABEÇO",
      "house": "6",
      "postcode": "3400-531",
      "city": "PENALVA DE ALVA",
      "lon": "-7.825739453741436",
      "lat": "40.3238979994017"
    },
    {
      "id": "pt.ine.add.PTCONT.1320566",
      "street": "LG DA CARVALHINHA",
      "house": "2",
      "postcode": "3400-522",
      "city": "PENALVA DE ALVA",
      "lon": "-7.824824732978147",
      "lat": "40.323229145554556"
    },
    {
      "id": "pt.ine.add.PTCONT.1324600",
      "street": "R DO CABEÇO",
      "house": "",
      "postcode": "3400-531",
      "city": "PENALVA DE ALVA",
      "lon": "-7.825082764998338",
      "lat": "40.32340994636853"
    },
    {
      "id": "pt.ine.add.PTCONT.1326614",
      "street": "QLHA DO SACO",
      "house": "5",
      "postcode": "3400-527",
      "city": "PENALVA DE ALVA",
      "lon": "-7.82507120369763",
      "lat": "40.32336488721844"
    },
    {
      "id": "pt.ine.add.PTCONT.1350914",
      "street": "",
      "house": "",
      "postcode": "3400-540",
      "city": "PENALVA DE ALVA",
      "lon": "-7.824396810655664",
      "lat": "40.32418260565478"
    },
    {
      "id": "pt.ine.add.PTCONT.1353455",
      "street": "TV DE S JOÃO BAPTISTA",
      "house": "",
      "postcode": "3400-530",
      "city": "PENALVA DE ALVA",
      "lon": "-7.824330481483788",
      "lat": "40.32324583869567"
    },
    {
      "id": "pt.ine.add.PTCONT.1354868",
      "street": "TV DE S JOÃO BAPTISTA",
      "house": "",
      "postcode": "3400-530",
      "city": "PENALVA DE ALVA",
      "lon": "-7.8245422274305",
      "lat": "40.323255409369516"
    }
  ]
}