{
  "data": {
    "distrito": "Santarém",
    "concelho": "Ourém",
    "freguesia": "União das freguesias de Freixianda, Ribeira do Fárrio e Formigais",
    "OBJECTID": 402,
    "BGRI2021": "14211900305",
    "DT21": "14",
    "DTMN21": "1421",
    "DTMNFR21": "142119",
    "DTMNFRSEC21": "142119003",
    "SECNUM21": "003",
    "SSNUM21": "05",
    "SECSSNUM21": "00305",
    "OBJECTID_1": 159552,
    "DT": "14",
    "CC": "21",
    "fr": "19",
    "SEC": "003",
    "SS": "05"
  },
  "addresses": [
    {
      "id": "pt.ine.add.PTCONT.4394882",
      "street": "R PRINCIPAL",
      "house": "61",
      "postcode": "2435-304",
      "city": "FREIXIANDA",
      "lon": "-8.48236921317882",
      "lat": "39.803687540814735"
    },
    {
      "id": "pt.ine.add.PTCONT.4404669",
      "street": "R FONTE",
      "house": "20",
      "postcode": "2435-264",
      "city": "FREIXIANDA",
      "lon": "-8.483720781320855",
      "lat": "39.79850474006003"
    },
    {
      "id": "pt.ine.add.PTCONT.4443970",
      "street": "R FONTE",
      "house": "16",
      "postcode": "2435-264",
      "city": "FREIXIANDA",
      "lon": "-8.48442092753323",
      "lat": "39.79842156419766"
    },
    {
      "id": "pt.ine.add.PTCONT.4479877",
      "street": "R PRINCIPAL",
      "house": "71",
      "postcode": "2435-304",
      "city": "FREIXIANDA",
      "lon": "-8.485806763566309",
      "lat": "39.804568784257675"
    },
    {
      "id": "pt.ine.add.PTCONT.4489252",
      "street": "R FONTE",
      "house": "18",
      "postcode": "2435-264",
      "city": "FREIXIANDA",
      "lon": "-8.48407064863133",
      "lat": "39.79842262410969"
    },
    {
      "id": "pt.ine.add.PTCONT.4502739",
      "street": "R PRINCIPAL",
      "house": "",
      "postcode": "2435-258",
      "city": "FREIXIANDA",
      "lon": "-8.474480890605168",
      "lat": "39.79768567994668"
    },
    {
      "id": "pt.ine.add.PTCONT.4511010",
      "street": "R JAULINOS",
      "house": "24",
      "postcode": "2435-304",
      "city": "FREIXIANDA",
      "lon": "-8.479267845543948",
      "lat": "39.802300830217874"
    },
    {
      "id": "pt.ine.add.PTCONT.4535648",
      "street": "R JAULINOS",
      "house": "22",
      "postcode": "2435-304",
      "city": "FREIXIANDA",
      "lon": "-8.479534645344769",
      "lat": "39.801948781414595"
    },
    {
      "id": "pt.ine.add.PTCONT.4596687",
      "street": "R JAULINOS",
      "house": "23",
      "postcode": "2435-304",
      "city": "FREIXIANDA",
      "lon": "-8.480014063369937",
      "lat": "39.802082446340336"
    },
    {
      "id": "pt.ine.add.PTCONT.4596688",
      "street": "R COMBATENTES",
      "house": "13",
      "postcode": "2435-304",
      "city": "FREIXIANDA",
      "lon": "-8.480014063369937",
      "lat": "39.802082446340336"
    },
    {
      "id": "pt.ine.add.PTCONT.4599875",
      "street": "R FONTE",
      "house": "11",
      "postcode": "2435-264",
      "city": "FREIXIANDA",
      "lon": "-8.485098684327783",
      "lat": "39.798527588147806"
    },
    {
      "id": "pt.ine.add.PTCONT.4606020",
      "street": "R FORJA",
      "house": "3",
      "postcode": "2435-264",
      "city": "FREIXIANDA",
      "lon": "-8.486708302584564",
      "lat": "39.80047710075309"
    },
    {
      "id": "pt.ine.add.PTCONT.4612191",
      "street": "R JAULINOS",
      "house": "49",
      "postcode": "2435-304",
      "city": "FREIXIANDA",
      "lon": "-8.478641860665782",
      "lat": "39.80321235000738"
    },
    {
      "id": "pt.ine.add.PTCONT.4628304",
      "street": "R FONTE",
      "house": "9",
      "postcode": "2435-264",
      "city": "FREIXIANDA",
      "lon": "-8.485495253947624",
      "lat": "39.79844532623496"
    },
    {
      "id": "pt.ine.add.PTCONT.4631481",
      "street": "R FONTE",
      "house": "22",
      "postcode": "2435-264",
      "city": "FREIXIANDA",
      "lon": "-8.483265783563834",
      "lat": "39.79857816574867"
    },
    {
      "id": "pt.ine.add.PTCONT.4635155",
      "street": "R PRINCIPAL",
      "house": "51",
      "postcode": "2435-304",
      "city": "FREIXIANDA",
      "lon": "-8.479399947788492",
      "lat": "39.80302996065719"
    },
    {
      "id": "pt.ine.add.PTCONT.4639185",
      "street": "R FONTE",
      "house": "3",
      "postcode": "2435-264",
      "city": "FREIXIANDA",
      "lon": "-8.486894154578284",
      "lat": "39.79800875866046"
    },
    {
      "id": "pt.ine.add.PTCONT.4641290",
      "street": "R PRINCIPAL",
      "house": "29",
      "postcode": "2435-258",
      "city": "FREIXIANDA",
      "lon": "-8.475384529633837",
      "lat": "39.79861068601322"
    },
    {
      "id": "pt.ine.add.PTCONT.4660961",
      "street": "R ESCOLA",
      "house": "22",
      "postcode": "2435-264",
      "city": "FREIXIANDA",
      "lon": "-8.486884786020662",
      "lat": "39.79845911131901"
    }
  ]
}