{
  "data": {
    "distrito": "Santarém",
    "concelho": "Ourém",
    "freguesia": "União das freguesias de Freixianda, Ribeira do Fárrio e Formigais",
    "OBJECTID": 693,
    "BGRI2021": "14211900333",
    "DT21": "14",
    "DTMN21": "1421",
    "DTMNFR21": "142119",
    "DTMNFRSEC21": "142119003",
    "SECNUM21": "003",
    "SSNUM21": "33",
    "SECSSNUM21": "00333",
    "OBJECTID_1": 158487,
    "DT": "14",
    "CC": "21",
    "fr": "19",
    "SEC": "003",
    "SS": "33"
  },
  "addresses": [
    {
      "id": "pt.ine.add.PTCONT.4401241",
      "street": "R S MARTA",
      "house": "27",
      "postcode": "2435-253",
      "city": "FREIXIANDA",
      "lon": "-8.483402106961037",
      "lat": "39.82774066985692"
    },
    {
      "id": "pt.ine.add.PTCONT.4401242",
      "street": "R S MARTA",
      "house": "27",
      "postcode": "2435-253",
      "city": "FREIXIANDA",
      "lon": "-8.483402106961037",
      "lat": "39.82774066985692"
    },
    {
      "id": "pt.ine.add.PTCONT.4408404",
      "street": "R PEDROS",
      "house": "28",
      "postcode": "2435-253",
      "city": "FREIXIANDA",
      "lon": "-8.487821163662865",
      "lat": "39.82616913006945"
    },
    {
      "id": "pt.ine.add.PTCONT.4448671",
      "street": "R CASAL DE ALEM",
      "house": "1",
      "postcode": "2435-252",
      "city": "FREIXIANDA",
      "lon": "-8.487705157605548",
      "lat": "39.82405297124682"
    },
    {
      "id": "pt.ine.add.PTCONT.4459129",
      "street": "R PRINCIPAL",
      "house": "43",
      "postcode": "2435-253",
      "city": "FREIXIANDA",
      "lon": "-8.485524215735328",
      "lat": "39.82698670912101"
    },
    {
      "id": "pt.ine.add.PTCONT.4461079",
      "street": "R ARENTA",
      "house": "16",
      "postcode": "2435-252",
      "city": "FREIXIANDA",
      "lon": "-8.487798425626712",
      "lat": "39.82174703662196"
    },
    {
      "id": "pt.ine.add.PTCONT.4524278",
      "street": "R ARENTA",
      "house": "5",
      "postcode": "2435-252",
      "city": "FREIXIANDA",
      "lon": "-8.488031514050014",
      "lat": "39.821647252944324"
    },
    {
      "id": "pt.ine.add.PTCONT.4537734",
      "street": "R ARENTA",
      "house": "14",
      "postcode": "2435-252",
      "city": "FREIXIANDA",
      "lon": "-8.487436996147624",
      "lat": "39.82187423117257"
    },
    {
      "id": "pt.ine.add.PTCONT.4543664",
      "street": "R ARENTA",
      "house": "20",
      "postcode": "2435-252",
      "city": "FREIXIANDA",
      "lon": "-8.488440495683662",
      "lat": "39.82168202693853"
    },
    {
      "id": "pt.ine.add.PTCONT.4549878",
      "street": "R PRINCIPAL",
      "house": "41",
      "postcode": "2435-253",
      "city": "FREIXIANDA",
      "lon": "-8.48510467227003",
      "lat": "39.82717711790088"
    },
    {
      "id": "pt.ine.add.PTCONT.4568808",
      "street": "R PRINCIPAL",
      "house": "37",
      "postcode": "2435-253",
      "city": "FREIXIANDA",
      "lon": "-8.484486047144637",
      "lat": "39.827269057446195"
    },
    {
      "id": "pt.ine.add.PTCONT.4608449",
      "street": "R CASAL DE ALEM",
      "house": "5",
      "postcode": "2435-252",
      "city": "FREIXIANDA",
      "lon": "-8.487157801534293",
      "lat": "39.82436986824782"
    },
    {
      "id": "pt.ine.add.PTCONT.4631129",
      "street": "R PRINCIPAL",
      "house": "45",
      "postcode": "2435-253",
      "city": "FREIXIANDA",
      "lon": "-8.485815590861712",
      "lat": "39.82685973358505"
    },
    {
      "id": "pt.ine.add.PTCONT.4650485",
      "street": "R PRINCIPAL",
      "house": "52",
      "postcode": "2435-253",
      "city": "FREIXIANDA",
      "lon": "-8.487461191695719",
      "lat": "39.82658452619267"
    }
  ]
}