{
  "data": {
    "distrito": "Coimbra",
    "concelho": "Cantanhede",
    "freguesia": "Febres",
    "OBJECTID": 104,
    "BGRI2021": "06020700121",
    "DT21": "06",
    "DTMN21": "0602",
    "DTMNFR21": "060207",
    "DTMNFRSEC21": "060207001",
    "SECNUM21": "001",
    "SSNUM21": "21",
    "SECSSNUM21": "00121",
    "OBJECTID_1": 47650,
    "DT": "06",
    "CC": "02",
    "fr": "07",
    "SEC": "001",
    "SS": "21"
  },
  "addresses": [
    {
      "id": "pt.ine.add.PTCONT.1112095",
      "street": "R DR FRANCISCO SA CARNEIRO",
      "house": "114",
      "postcode": "3060-337",
      "city": "FEBRES",
      "lon": "-8.629498741779773",
      "lat": "40.38942339212863"
    },
    {
      "id": "pt.ine.add.PTCONT.1114553",
      "street": "R D AFONSO HENRIQUES",
      "house": "27",
      "postcode": "3060-327",
      "city": "FEBRES",
      "lon": "-8.624585698088696",
      "lat": "40.39079520828868"
    },
    {
      "id": "pt.ine.add.PTCONT.1126167",
      "street": "R DR FRANCISCO SA CARNEIRO",
      "house": "",
      "postcode": "3060-337",
      "city": "FEBRES",
      "lon": "-8.629511775219287",
      "lat": "40.389594441368686"
    },
    {
      "id": "pt.ine.add.PTCONT.1126874",
      "street": "R SA CARNEIRO",
      "house": "108",
      "postcode": "3060-337",
      "city": "FEBRES",
      "lon": "-8.629412533525928",
      "lat": "40.38891044656142"
    },
    {
      "id": "pt.ine.add.PTCONT.1126879",
      "street": "R D AFONSO HENRIQUES",
      "house": "1",
      "postcode": "3060-327",
      "city": "FEBRES",
      "lon": "-8.627690670518223",
      "lat": "40.391808600670934"
    },
    {
      "id": "pt.ine.add.PTCONT.1126880",
      "street": "TV FLORES",
      "house": "10",
      "postcode": "3060-330",
      "city": "FEBRES",
      "lon": "-8.625411888411959",
      "lat": "40.39103484329698"
    },
    {
      "id": "pt.ine.add.PTCONT.1141137",
      "street": "R JOSE TAVARES",
      "house": "2",
      "postcode": "3060-330",
      "city": "FEBRES",
      "lon": "-8.628786977360175",
      "lat": "40.39193898946256"
    },
    {
      "id": "pt.ine.add.PTCONT.1141140",
      "street": "R D AFONSO HENRIQUES",
      "house": "10",
      "postcode": "3060-327",
      "city": "FEBRES",
      "lon": "-8.626895914738784",
      "lat": "40.39103752126843"
    },
    {
      "id": "pt.ine.add.PTCONT.1155455",
      "street": "TV FLORES",
      "house": "74",
      "postcode": "3060-330",
      "city": "FEBRES",
      "lon": "-8.6251887064636",
      "lat": "40.391116843061425"
    },
    {
      "id": "pt.ine.add.PTCONT.1161494",
      "street": "R DR FRANCISCO SA CARNEIRO",
      "house": "120",
      "postcode": "3060-337",
      "city": "FEBRES",
      "lon": "-8.62944369027613",
      "lat": "40.389945949521895"
    },
    {
      "id": "pt.ine.add.PTCONT.1161495",
      "street": "R DR FRANCISCO SA CARNEIRO",
      "house": "132",
      "postcode": "3060-337",
      "city": "FEBRES",
      "lon": "-8.629483848613464",
      "lat": "40.39060318120826"
    },
    {
      "id": "pt.ine.add.PTCONT.1161503",
      "street": "R D AFONSO HENRIQUES",
      "house": "16",
      "postcode": "3060-327",
      "city": "FEBRES",
      "lon": "-8.62640034129388",
      "lat": "40.39091355891778"
    },
    {
      "id": "pt.ine.add.PTCONT.1163941",
      "street": "R NSA SRA DOS AFLITOS",
      "house": "5",
      "postcode": "3060-336",
      "city": "FEBRES",
      "lon": "-8.628894143457362",
      "lat": "40.38888565367187"
    },
    {
      "id": "pt.ine.add.PTCONT.1174587",
      "street": "R LUIS PESSOA",
      "house": "1",
      "postcode": "3060-331",
      "city": "FEBRES",
      "lon": "-8.62907899127555",
      "lat": "40.39000154752384"
    },
    {
      "id": "pt.ine.add.PTCONT.1176137",
      "street": "TV REIS",
      "house": "1",
      "postcode": "3060-320",
      "city": "FEBRES",
      "lon": "-8.623979810466025",
      "lat": "40.39169833533133"
    },
    {
      "id": "pt.ine.add.PTCONT.1181623",
      "street": "R DR FRANCISCO SA CARNEIRO",
      "house": "110",
      "postcode": "3060-337",
      "city": "FEBRES",
      "lon": "-8.629449451422671",
      "lat": "40.389126420996135"
    },
    {
      "id": "pt.ine.add.PTCONT.1185432",
      "street": "R DR FRANCISCO SA CARNEIRO",
      "house": "146",
      "postcode": "3060-337",
      "city": "FEBRES",
      "lon": "-8.629290110164435",
      "lat": "40.391486555007"
    },
    {
      "id": "pt.ine.add.PTCONT.1187704",
      "street": "R D AFONSO HENRIQUES",
      "house": "7",
      "postcode": "3060-327",
      "city": "FEBRES",
      "lon": "-8.627182522641172",
      "lat": "40.39157662908025"
    },
    {
      "id": "pt.ine.add.PTCONT.1189627",
      "street": "R DR FRANCISCO SA CARNEIRO",
      "house": "144",
      "postcode": "3060-337",
      "city": "FEBRES",
      "lon": "-8.62939485195643",
      "lat": "40.39131500038767"
    },
    {
      "id": "pt.ine.add.PTCONT.1191589",
      "street": "R DR FRANCISCO SA CARNEIRO",
      "house": "140",
      "postcode": "3060-337",
      "city": "FEBRES",
      "lon": "-8.629392934845027",
      "lat": "40.391053848138434"
    },
    {
      "id": "pt.ine.add.PTCONT.1194401",
      "street": "R NSA SRA DOS AFLITOS",
      "house": "1",
      "postcode": "3060-336",
      "city": "FEBRES",
      "lon": "-8.62922396793307",
      "lat": "40.388893244640045"
    },
    {
      "id": "pt.ine.add.PTCONT.1202877",
      "street": "R D AFONSO HENRIQUES",
      "house": "25",
      "postcode": "3060-327",
      "city": "FEBRES",
      "lon": "-8.624739001087018",
      "lat": "40.39082157322255"
    },
    {
      "id": "pt.ine.add.PTCONT.1205943",
      "street": "R DR FRANCISCO SA CARNEIRO",
      "house": "152",
      "postcode": "3060-337",
      "city": "FEBRES",
      "lon": "-8.629246106174769",
      "lat": "40.39191000386367"
    },
    {
      "id": "pt.ine.add.PTCONT.1205944",
      "street": "R D AFONSO HENRIQUES",
      "house": "32",
      "postcode": "3060-327",
      "city": "FEBRES",
      "lon": "-8.624807962788616",
      "lat": "40.39058713608695"
    },
    {
      "id": "pt.ine.add.PTCONT.1205945",
      "street": "R D AFONSO HENRIQUES",
      "house": "34",
      "postcode": "3060-327",
      "city": "FEBRES",
      "lon": "-8.624619393610644",
      "lat": "40.39056992668254"
    },
    {
      "id": "pt.ine.add.PTCONT.1214639",
      "street": "R DR FRANCISCO SA CARNEIRO",
      "house": "148",
      "postcode": "3060-337",
      "city": "FEBRES",
      "lon": "-8.62929077110763",
      "lat": "40.39157660750273"
    },
    {
      "id": "pt.ine.add.PTCONT.1220093",
      "street": "R D AFONSO HENRIQUES",
      "house": "4",
      "postcode": "3060-327",
      "city": "FEBRES",
      "lon": "-8.627831276778084",
      "lat": "40.39170893833524"
    },
    {
      "id": "pt.ine.add.PTCONT.1238092",
      "street": "R DR FRANCISCO SA CARNEIRO",
      "house": "124",
      "postcode": "3060-337",
      "city": "FEBRES",
      "lon": "-8.629469360484181",
      "lat": "40.39023401646918"
    },
    {
      "id": "pt.ine.add.PTCONT.1239529",
      "street": "R JOSE TAVARES",
      "house": "30",
      "postcode": "3060-330",
      "city": "FEBRES",
      "lon": "-8.62414888290292",
      "lat": "40.39227397164688"
    },
    {
      "id": "pt.ine.add.PTCONT.1241665",
      "street": "TV FLORES",
      "house": "4",
      "postcode": "3060-330",
      "city": "FEBRES",
      "lon": "-8.625250740535964",
      "lat": "40.39154884471285"
    },
    {
      "id": "pt.ine.add.PTCONT.1246423",
      "street": "R D AFONSO HENRIQUES",
      "house": "23",
      "postcode": "3060-327",
      "city": "FEBRES",
      "lon": "-8.624962641230836",
      "lat": "40.3908026111209"
    },
    {
      "id": "pt.ine.add.PTCONT.1246424",
      "street": "R JOSE TAVARES",
      "house": "24",
      "postcode": "3060-330",
      "city": "FEBRES",
      "lon": "-8.624818704375594",
      "lat": "40.39206399806687"
    },
    {
      "id": "pt.ine.add.PTCONT.1253161",
      "street": "R DR FRANCISCO SA CARNEIRO",
      "house": "150",
      "postcode": "3060-337",
      "city": "FEBRES",
      "lon": "-8.629220832720195",
      "lat": "40.39167596844528"
    },
    {
      "id": "pt.ine.add.PTCONT.1260587",
      "street": "R JOSE TAVARES",
      "house": "4",
      "postcode": "3060-330",
      "city": "FEBRES",
      "lon": "-8.628621166619569",
      "lat": "40.39181362264462"
    },
    {
      "id": "pt.ine.add.PTCONT.1260588",
      "street": "R D AFONSO HENRIQUES",
      "house": "5",
      "postcode": "3060-327",
      "city": "FEBRES",
      "lon": "-8.627417283653395",
      "lat": "40.3914675593777"
    },
    {
      "id": "pt.ine.add.PTCONT.1266854",
      "street": "R DR FRANCISCO SA CARNEIRO",
      "house": "138",
      "postcode": "3060-337",
      "city": "FEBRES",
      "lon": "-8.629415564233573",
      "lat": "40.3909276735397"
    },
    {
      "id": "pt.ine.add.PTCONT.1285051",
      "street": "TV FLORES",
      "house": "2",
      "postcode": "3060-330",
      "city": "FEBRES",
      "lon": "-8.625063348132212",
      "lat": "40.39169373064325"
    },
    {
      "id": "pt.ine.add.PTCONT.1288847",
      "street": "R LUIS PESSOA",
      "house": "4",
      "postcode": "3060-331",
      "city": "FEBRES",
      "lon": "-8.628700534009791",
      "lat": "40.38978703726761"
    },
    {
      "id": "pt.ine.add.PTCONT.1289241",
      "street": "R D AFONSO HENRIQUES",
      "house": "29",
      "postcode": "3060-327",
      "city": "FEBRES",
      "lon": "-8.624397259264361",
      "lat": "40.39079600904028"
    },
    {
      "id": "pt.ine.add.PTCONT.1293401",
      "street": "R D AFONSO HENRIQUES",
      "house": "22",
      "postcode": "3060-327",
      "city": "FEBRES",
      "lon": "-8.62584529182918",
      "lat": "40.390708798070115"
    },
    {
      "id": "pt.ine.add.PTCONT.1302842",
      "street": "R DR FRANCISCO SA CARNEIRO",
      "house": "112",
      "postcode": "3060-337",
      "city": "FEBRES",
      "lon": "-8.629438269271775",
      "lat": "40.38920751882334"
    },
    {
      "id": "pt.ine.add.PTCONT.1303255",
      "street": "R JOSE TAVARES",
      "house": "32",
      "postcode": "3060-330",
      "city": "FEBRES",
      "lon": "-8.623937276872162",
      "lat": "40.39232890323093"
    },
    {
      "id": "pt.ine.add.PTCONT.1313353",
      "street": "R DR FRANCISCO SA CARNEIRO",
      "house": "136",
      "postcode": "3060-337",
      "city": "FEBRES",
      "lon": "-8.629414903139292",
      "lat": "40.39083762103554"
    },
    {
      "id": "pt.ine.add.PTCONT.1313356",
      "street": "R D AFONSO HENRIQUES",
      "house": "14",
      "postcode": "3060-327",
      "city": "FEBRES",
      "lon": "-8.626553973886763",
      "lat": "40.3909849477105"
    },
    {
      "id": "pt.ine.add.PTCONT.1317277",
      "street": "TV FLORES",
      "house": "8",
      "postcode": "3060-330",
      "city": "FEBRES",
      "lon": "-8.625425174182768",
      "lat": "40.39124191403057"
    },
    {
      "id": "pt.ine.add.PTCONT.1323317",
      "street": "R LUIS PESSOA",
      "house": "2",
      "postcode": "3060-331",
      "city": "FEBRES",
      "lon": "-8.629148796021884",
      "lat": "40.389884176142765"
    },
    {
      "id": "pt.ine.add.PTCONT.1323318",
      "street": "R DR FRANCISCO SA CARNEIRO",
      "house": "130",
      "postcode": "3060-337",
      "city": "FEBRES",
      "lon": "-8.629459434355548",
      "lat": "40.39048621405486"
    },
    {
      "id": "pt.ine.add.PTCONT.1323319",
      "street": "R DR FRANCISCO SA CARNEIRO",
      "house": "130",
      "postcode": "3060-337",
      "city": "FEBRES",
      "lon": "-8.629459434355548",
      "lat": "40.39048621405486"
    },
    {
      "id": "pt.ine.add.PTCONT.1324824",
      "street": "R JOSE TAVARES",
      "house": "6",
      "postcode": "3060-330",
      "city": "FEBRES",
      "lon": "-8.628540043345964",
      "lat": "40.39199408089586"
    },
    {
      "id": "pt.ine.add.PTCONT.1333549",
      "street": "TV REIS",
      "house": "2",
      "postcode": "3060-320",
      "city": "FEBRES",
      "lon": "-8.623649907396532",
      "lat": "40.39168172422908"
    },
    {
      "id": "pt.ine.add.PTCONT.1337565",
      "street": "R JOSE TAVARES",
      "house": "12",
      "postcode": "3060-330",
      "city": "FEBRES",
      "lon": "-8.627974387561487",
      "lat": "40.39195147536649"
    },
    {
      "id": "pt.ine.add.PTCONT.1339742",
      "street": "R DR FRANCISCO SA CARNEIRO",
      "house": "142",
      "postcode": "3060-337",
      "city": "FEBRES",
      "lon": "-8.629393794236691",
      "lat": "40.391170916389555"
    },
    {
      "id": "pt.ine.add.PTCONT.1341837",
      "street": "R JOSE TAVARES",
      "house": "26",
      "postcode": "3060-330",
      "city": "FEBRES",
      "lon": "-8.624524721419213",
      "lat": "40.39212828651798"
    },
    {
      "id": "pt.ine.add.PTCONT.1347528",
      "street": "TV FLORES",
      "house": "3",
      "postcode": "3060-330",
      "city": "FEBRES",
      "lon": "-8.62487300713979",
      "lat": "40.39143337977777"
    },
    {
      "id": "pt.ine.add.PTCONT.1351380",
      "street": "R JOSE TAVARES",
      "house": "10",
      "postcode": "3060-330",
      "city": "FEBRES",
      "lon": "-8.62814006556809",
      "lat": "40.392058832613394"
    },
    {
      "id": "pt.ine.add.PTCONT.1352096",
      "street": "R D AFONSO HENRIQUES",
      "house": "20",
      "postcode": "3060-327",
      "city": "FEBRES",
      "lon": "-8.626010963420114",
      "lat": "40.39081615842862"
    },
    {
      "id": "pt.ine.add.PTCONT.1356425",
      "street": "R DR FRANCISCO SA CARNEIRO",
      "house": "108A",
      "postcode": "3060-337",
      "city": "FEBRES",
      "lon": "-8.62951879180386",
      "lat": "40.3889460126101"
    },
    {
      "id": "pt.ine.add.PTCONT.1356428",
      "street": "R D AFONSO HENRIQUES",
      "house": "6",
      "postcode": "3060-327",
      "city": "FEBRES",
      "lon": "-8.627758568693944",
      "lat": "40.391430077842436"
    },
    {
      "id": "pt.ine.add.PTCONT.1356429",
      "street": "TV REIS",
      "house": "3",
      "postcode": "3060-320",
      "city": "FEBRES",
      "lon": "-8.623989953337816",
      "lat": "40.39147315391797"
    },
    {
      "id": "pt.ine.add.PTCONT.1361615",
      "street": "R D AFONSO HENRIQUES",
      "house": "21",
      "postcode": "3060-327",
      "city": "FEBRES",
      "lon": "-8.625268460979326",
      "lat": "40.390747276708986"
    },
    {
      "id": "pt.ine.add.PTCONT.1361845",
      "street": "R JOSE TAVARES",
      "house": "14",
      "postcode": "3060-330",
      "city": "FEBRES",
      "lon": "-8.62767994700953",
      "lat": "40.39195273506372"
    },
    {
      "id": "pt.ine.add.PTCONT.1366253",
      "street": "R D AFONSO HENRIQUES",
      "house": "3",
      "postcode": "3060-327",
      "city": "FEBRES",
      "lon": "-8.627619148594318",
      "lat": "40.39169183462279"
    }
  ]
}