{
  "data": {
    "distrito": "Set√∫bal",
    "concelho": "Palmela",
    "freguesia": "Palmela",
    "OBJECTID": 749,
    "BGRI2021": "15080201511",
    "DT21": "15",
    "DTMN21": "1508",
    "DTMNFR21": "150802",
    "DTMNFRSEC21": "150802015",
    "SECNUM21": "015",
    "SSNUM21": "11",
    "SECSSNUM21": "01511",
    "OBJECTID_1": 166066,
    "DT": "15",
    "CC": "08",
    "fr": "02",
    "SEC": "015",
    "SS": "11"
  },
  "addresses": [
    {
      "id": "pt.ine.add.PTCONT.4675715",
      "street": "PCT BOCAS LOBO",
      "house": "3",
      "postcode": "2950-341",
      "city": "PALMELA",
      "lon": "-8.891069033102893",
      "lat": "38.60537319262508"
    },
    {
      "id": "pt.ine.add.PTCONT.4682912",
      "street": "ESTR VENDA DO ALCAIDE",
      "house": "49",
      "postcode": "2950-341",
      "city": "PALMELA",
      "lon": "-8.89127072165158",
      "lat": "38.60599345087714"
    },
    {
      "id": "pt.ine.add.PTCONT.4690367",
      "street": "R ESTEVA",
      "house": "10",
      "postcode": "2950-341",
      "city": "PALMELA",
      "lon": "-8.890994661766214",
      "lat": "38.60485119949192"
    },
    {
      "id": "pt.ine.add.PTCONT.4763381",
      "street": "R ZIMBRO",
      "house": "2",
      "postcode": "2950-341",
      "city": "PALMELA",
      "lon": "-8.889608948291457",
      "lat": "38.606265443163"
    },
    {
      "id": "pt.ine.add.PTCONT.4783916",
      "street": "PCT BOCAS LOBO",
      "house": "7",
      "postcode": "2950-341",
      "city": "PALMELA",
      "lon": "-8.891147303448767",
      "lat": "38.605174505517155"
    },
    {
      "id": "pt.ine.add.PTCONT.4787967",
      "street": "R ZIMBRO",
      "house": "40",
      "postcode": "2950-341",
      "city": "PALMELA",
      "lon": "-8.89005456548769",
      "lat": "38.606064381381884"
    },
    {
      "id": "pt.ine.add.PTCONT.4795806",
      "street": "R LOUREIRO",
      "house": "5",
      "postcode": "2950-341",
      "city": "PALMELA",
      "lon": "-8.890434167315533",
      "lat": "38.605044000193786"
    },
    {
      "id": "pt.ine.add.PTCONT.4809227",
      "street": "R ZIMBRO",
      "house": "4",
      "postcode": "2950-341",
      "city": "PALMELA",
      "lon": "-8.889815957096294",
      "lat": "38.60630013744113"
    },
    {
      "id": "pt.ine.add.PTCONT.4813685",
      "street": "R LOUREIRO",
      "house": "6",
      "postcode": "2950-341",
      "city": "PALMELA",
      "lon": "-8.890390995747326",
      "lat": "38.60530551700769"
    },
    {
      "id": "pt.ine.add.PTCONT.4813686",
      "street": "PCT BOCAS LOBO",
      "house": "9",
      "postcode": "2950-341",
      "city": "PALMELA",
      "lon": "-8.891192272871876",
      "lat": "38.60508413233242"
    },
    {
      "id": "pt.ine.add.PTCONT.4874471",
      "street": "R ESTEVA",
      "house": "8",
      "postcode": "2950-341",
      "city": "PALMELA",
      "lon": "-8.890753597774259",
      "lat": "38.604852760524096"
    },
    {
      "id": "pt.ine.add.PTCONT.4886353",
      "street": "R ZIMBRO",
      "house": "8",
      "postcode": "2950-341",
      "city": "PALMELA",
      "lon": "-8.890241076135153",
      "lat": "38.60633342032608"
    },
    {
      "id": "pt.ine.add.PTCONT.4932176",
      "street": "ESTR VENDA DO ALCAIDE",
      "house": "48",
      "postcode": "2950-341",
      "city": "PALMELA",
      "lon": "-8.891442059661394",
      "lat": "38.60591126697815"
    },
    {
      "id": "pt.ine.add.PTCONT.4977210",
      "street": "R ZIMBRO",
      "house": "NR 6",
      "postcode": "2950-341",
      "city": "PALMELA",
      "lon": "-8.890022871463902",
      "lat": "38.60632582377749"
    },
    {
      "id": "pt.ine.add.PTCONT.4984330",
      "street": "R ZIMBRO",
      "house": "1",
      "postcode": "2950-341",
      "city": "PALMELA",
      "lon": "-8.88962916437169",
      "lat": "38.606004075076946"
    },
    {
      "id": "pt.ine.add.PTCONT.5002522",
      "street": "R LOUREIRO",
      "house": "2",
      "postcode": "2950-341",
      "city": "PALMELA",
      "lon": "-8.889919870878355",
      "lat": "38.60526352400218"
    },
    {
      "id": "pt.ine.add.PTCONT.5058758",
      "street": "PCT BOCAS LOBO",
      "house": "5",
      "postcode": "2950-341",
      "city": "PALMELA",
      "lon": "-8.891125482050258",
      "lat": "38.60528274511155"
    },
    {
      "id": "pt.ine.add.PTCONT.5101167",
      "street": "PCT BOCAS LOBO",
      "house": "1",
      "postcode": "2950-341",
      "city": "PALMELA",
      "lon": "-8.890989341099525",
      "lat": "38.605436766090186"
    },
    {
      "id": "pt.ine.add.PTCONT.5106135",
      "street": "R LOUREIRO",
      "house": "4",
      "postcode": "2950-341",
      "city": "PALMELA",
      "lon": "-8.890161125580041",
      "lat": "38.6052799798228"
    },
    {
      "id": "pt.ine.add.PTCONT.5123793",
      "street": "R ESTEVA",
      "house": "4",
      "postcode": "2950-341",
      "city": "PALMELA",
      "lon": "-8.890443090258785",
      "lat": "38.604800721387484"
    },
    {
      "id": "pt.ine.add.PTCONT.5126446",
      "street": "R ZAMBUJEIRO",
      "house": "5",
      "postcode": "2950-341",
      "city": "PALMELA",
      "lon": "-8.890370498572123",
      "lat": "38.60553986250494"
    }
  ]
}