{
  "data": {
    "distrito": "Beja",
    "concelho": "Beja",
    "freguesia": "União das freguesias de Beja (Santiago Maior e São João Baptista)",
    "OBJECTID": 290,
    "BGRI2021": "02052101003",
    "DT21": "02",
    "DTMN21": "0205",
    "DTMNFR21": "020521",
    "DTMNFRSEC21": "020521010",
    "SECNUM21": "010",
    "SSNUM21": "03",
    "SECSSNUM21": "01003",
    "OBJECTID_1": 14034,
    "DT": "02",
    "CC": "05",
    "fr": "21",
    "SEC": "010",
    "SS": "03"
  },
  "addresses": [
    {
      "id": "pt.ine.add.PTCONT.457529",
      "street": "R CIDADE S PAULO",
      "house": "18",
      "postcode": "7800-453",
      "city": "BEJA",
      "lon": "-7.857532692423187",
      "lat": "38.00763464125821"
    },
    {
      "id": "pt.ine.add.PTCONT.352820",
      "street": "R PROF JANEIRO ACABADO",
      "house": "",
      "postcode": "7800-506",
      "city": "BEJA",
      "lon": "-7.8578183283907945",
      "lat": "38.007374041773616"
    },
    {
      "id": "pt.ine.add.PTCONT.406758",
      "street": "R CIDADE S PAULO",
      "house": "22",
      "postcode": "7800-453",
      "city": "BEJA",
      "lon": "-7.857262642945178",
      "lat": "38.00740373419652"
    },
    {
      "id": "pt.ine.add.PTCONT.406759",
      "street": "R CIDADE S PAULO",
      "house": "22",
      "postcode": "7800-453",
      "city": "BEJA",
      "lon": "-7.857262642945178",
      "lat": "38.00740373419652"
    },
    {
      "id": "pt.ine.add.PTCONT.406760",
      "street": "R CIDADE S PAULO",
      "house": "22",
      "postcode": "7800-453",
      "city": "BEJA",
      "lon": "-7.857262642945178",
      "lat": "38.00740373419652"
    },
    {
      "id": "pt.ine.add.PTCONT.406761",
      "street": "R CIDADE S PAULO",
      "house": "22",
      "postcode": "7800-453",
      "city": "BEJA",
      "lon": "-7.857262642945178",
      "lat": "38.00740373419652"
    },
    {
      "id": "pt.ine.add.PTCONT.406762",
      "street": "R CIDADE S PAULO",
      "house": "22",
      "postcode": "7800-453",
      "city": "BEJA",
      "lon": "-7.857262642945178",
      "lat": "38.00740373419652"
    },
    {
      "id": "pt.ine.add.PTCONT.406787",
      "street": "R CIDADE S PAULO",
      "house": "22",
      "postcode": "7800-453",
      "city": "BEJA",
      "lon": "-7.857262642945178",
      "lat": "38.00740373419652"
    },
    {
      "id": "pt.ine.add.PTCONT.407099",
      "street": "R CIDADE S PAULO",
      "house": "22",
      "postcode": "7800-453",
      "city": "BEJA",
      "lon": "-7.857262642945178",
      "lat": "38.00740373419652"
    },
    {
      "id": "pt.ine.add.PTCONT.407331",
      "street": "R CIDADE S PAULO",
      "house": "22",
      "postcode": "7800-453",
      "city": "BEJA",
      "lon": "-7.857262642945178",
      "lat": "38.00740373419652"
    },
    {
      "id": "pt.ine.add.PTCONT.413348",
      "street": "R CIDADE S PAULO",
      "house": "18",
      "postcode": "7800-453",
      "city": "BEJA",
      "lon": "-7.857532692423187",
      "lat": "38.00763464125821"
    },
    {
      "id": "pt.ine.add.PTCONT.413349",
      "street": "R CIDADE S PAULO",
      "house": "18",
      "postcode": "7800-453",
      "city": "BEJA",
      "lon": "-7.857532692423187",
      "lat": "38.00763464125821"
    },
    {
      "id": "pt.ine.add.PTCONT.413350",
      "street": "R CIDADE S PAULO",
      "house": "18",
      "postcode": "7800-453",
      "city": "BEJA",
      "lon": "-7.857532692423187",
      "lat": "38.00763464125821"
    },
    {
      "id": "pt.ine.add.PTCONT.413351",
      "street": "R CIDADE S PAULO",
      "house": "18",
      "postcode": "7800-453",
      "city": "BEJA",
      "lon": "-7.857532692423187",
      "lat": "38.00763464125821"
    },
    {
      "id": "pt.ine.add.PTCONT.413352",
      "street": "R CIDADE S PAULO",
      "house": "18",
      "postcode": "7800-453",
      "city": "BEJA",
      "lon": "-7.857532692423187",
      "lat": "38.00763464125821"
    },
    {
      "id": "pt.ine.add.PTCONT.413577",
      "street": "R CIDADE S PAULO",
      "house": "18",
      "postcode": "7800-453",
      "city": "BEJA",
      "lon": "-7.857532692423187",
      "lat": "38.00763464125821"
    },
    {
      "id": "pt.ine.add.PTCONT.413771",
      "street": "R CIDADE S PAULO",
      "house": "18",
      "postcode": "7800-453",
      "city": "BEJA",
      "lon": "-7.857532692423187",
      "lat": "38.00763464125821"
    },
    {
      "id": "pt.ine.add.PTCONT.431821",
      "street": "R CIDADE S PAULO",
      "house": "20",
      "postcode": "7800-453",
      "city": "BEJA",
      "lon": "-7.857396427227264",
      "lat": "38.00753522002519"
    },
    {
      "id": "pt.ine.add.PTCONT.431822",
      "street": "R CIDADE S PAULO",
      "house": "20",
      "postcode": "7800-453",
      "city": "BEJA",
      "lon": "-7.857396427227264",
      "lat": "38.00753522002519"
    },
    {
      "id": "pt.ine.add.PTCONT.431823",
      "street": "R CIDADE S PAULO",
      "house": "20",
      "postcode": "7800-453",
      "city": "BEJA",
      "lon": "-7.857396427227264",
      "lat": "38.00753522002519"
    },
    {
      "id": "pt.ine.add.PTCONT.431824",
      "street": "R CIDADE S PAULO",
      "house": "20",
      "postcode": "7800-453",
      "city": "BEJA",
      "lon": "-7.857396427227264",
      "lat": "38.00753522002519"
    },
    {
      "id": "pt.ine.add.PTCONT.431825",
      "street": "R CIDADE S PAULO",
      "house": "20",
      "postcode": "7800-453",
      "city": "BEJA",
      "lon": "-7.857396427227264",
      "lat": "38.00753522002519"
    },
    {
      "id": "pt.ine.add.PTCONT.431826",
      "street": "R CIDADE S PAULO",
      "house": "20",
      "postcode": "7800-453",
      "city": "BEJA",
      "lon": "-7.857396427227264",
      "lat": "38.00753522002519"
    },
    {
      "id": "pt.ine.add.PTCONT.431827",
      "street": "R CIDADE S PAULO",
      "house": "20",
      "postcode": "7800-453",
      "city": "BEJA",
      "lon": "-7.857396427227264",
      "lat": "38.00753522002519"
    }
  ]
}