{
  "data": {
    "distrito": "Portalegre",
    "concelho": "Crato",
    "freguesia": "Gáfete",
    "OBJECTID": 179,
    "BGRI2021": "12060400129",
    "DT21": "12",
    "DTMN21": "1206",
    "DTMNFR21": "120604",
    "DTMNFRSEC21": "120604001",
    "SECNUM21": "001",
    "SSNUM21": "29",
    "SECSSNUM21": "00129",
    "OBJECTID_1": 121468,
    "DT": "12",
    "CC": "06",
    "fr": "04",
    "SEC": "001",
    "SS": "29"
  },
  "addresses": [
    {
      "id": "pt.ine.add.PTCONT.3538350",
      "street": "LG 25 DE ABRIL",
      "house": "3",
      "postcode": "7430-260",
      "city": "GÁFETE",
      "lon": "-7.683090515792483",
      "lat": "39.4109431114598"
    },
    {
      "id": "pt.ine.add.PTCONT.3466947",
      "street": "LG 25 DE ABRIL",
      "house": "5A",
      "postcode": "7430-260",
      "city": "GÁFETE",
      "lon": "-7.683019923677596",
      "lat": "39.411086951345986"
    },
    {
      "id": "pt.ine.add.PTCONT.3473367",
      "street": "LG PRACINHA",
      "house": "13",
      "postcode": "7430-261",
      "city": "GÁFETE",
      "lon": "-7.6841723539867255",
      "lat": "39.41063204407085"
    },
    {
      "id": "pt.ine.add.PTCONT.3480709",
      "street": "R JOÃO RAFAEL MORAIS",
      "house": "13",
      "postcode": "7430-290",
      "city": "GÁFETE",
      "lon": "-7.6835760349016",
      "lat": "39.411278249795046"
    },
    {
      "id": "pt.ine.add.PTCONT.3481897",
      "street": "LG PRACINHA",
      "house": "11",
      "postcode": "7430-261",
      "city": "GÁFETE",
      "lon": "-7.684137232526466",
      "lat": "39.41067694384323"
    },
    {
      "id": "pt.ine.add.PTCONT.3495258",
      "street": "R JOÃO RAFAEL MORAIS",
      "house": "17",
      "postcode": "7430-290",
      "city": "GÁFETE",
      "lon": "-7.683774288851583",
      "lat": "39.41114390978017"
    },
    {
      "id": "pt.ine.add.PTCONT.3497185",
      "street": "LG PRACINHA",
      "house": "S",
      "postcode": "7430-261",
      "city": "GÁFETE",
      "lon": "-7.683985250884169",
      "lat": "39.41083848432016"
    },
    {
      "id": "pt.ine.add.PTCONT.3503547",
      "street": "LG PRACINHA",
      "house": "3",
      "postcode": "7430-261",
      "city": "GÁFETE",
      "lon": "-7.683961451185191",
      "lat": "39.41092846305118"
    },
    {
      "id": "pt.ine.add.PTCONT.3505949",
      "street": "LG ESPÍRITO SANTO",
      "house": "7",
      "postcode": "7430-257",
      "city": "GÁFETE",
      "lon": "-7.6834124396397225",
      "lat": "39.41143974462576"
    },
    {
      "id": "pt.ine.add.PTCONT.3509872",
      "street": "R TRINCHEIRA",
      "house": "13",
      "postcode": "7430-270",
      "city": "GÁFETE",
      "lon": "-7.6831217011564314",
      "lat": "39.41151067690281"
    },
    {
      "id": "pt.ine.add.PTCONT.3514006",
      "street": "LG ESPÍRITO SANTO",
      "house": "5",
      "postcode": "7430-257",
      "city": "GÁFETE",
      "lon": "-7.683307651163273",
      "lat": "39.411484374823"
    },
    {
      "id": "pt.ine.add.PTCONT.3516605",
      "street": "R TRINCHEIRA",
      "house": "13",
      "postcode": "7430-270",
      "city": "GÁFETE",
      "lon": "-7.682995948916264",
      "lat": "39.41120395037762"
    },
    {
      "id": "pt.ine.add.PTCONT.3519643",
      "street": "LG ESPÍRITO SANTO",
      "house": "3",
      "postcode": "7430-257",
      "city": "GÁFETE",
      "lon": "-7.683283908242865",
      "lat": "39.41156534656283"
    },
    {
      "id": "pt.ine.add.PTCONT.3526394",
      "street": "R TRINCHEIRA",
      "house": "5",
      "postcode": "7430-270",
      "city": "GÁFETE",
      "lon": "-7.683018591770818",
      "lat": "39.411294108586596"
    },
    {
      "id": "pt.ine.add.PTCONT.3530797",
      "street": "LG PRACINHA",
      "house": "9",
      "postcode": "7430-261",
      "city": "GÁFETE",
      "lon": "-7.684136943705644",
      "lat": "39.410721978036676"
    }
  ]
}