{
  "data": {
    "distrito": "Faro",
    "concelho": "Albufeira",
    "freguesia": "Albufeira e Olhos de √Ågua",
    "OBJECTID": 253,
    "BGRI2021": "08010603501",
    "DT21": "08",
    "DTMN21": "0801",
    "DTMNFR21": "080106",
    "DTMNFRSEC21": "080106035",
    "SECNUM21": "035",
    "SSNUM21": "01",
    "SECSSNUM21": "03501",
    "OBJECTID_1": 64639,
    "DT": "08",
    "CC": "01",
    "fr": "06",
    "SEC": "035",
    "SS": "01"
  },
  "addresses": [
    {
      "id": "pt.ine.add.PTCONT.1472300",
      "street": "AV INF D HENRIQUE",
      "house": "A 50",
      "postcode": "8200-032",
      "city": "ALBUFEIRA",
      "lon": "-8.230131224045863",
      "lat": "37.0898363112283"
    },
    {
      "id": "pt.ine.add.PTCONT.1489818",
      "street": "AV INF D HENRIQUE",
      "house": "A28",
      "postcode": "8200-032",
      "city": "ALBUFEIRA",
      "lon": "-8.22955642607298",
      "lat": "37.0889176902723"
    },
    {
      "id": "pt.ine.add.PTCONT.1503345",
      "street": "AV INF D HENRIQUE",
      "house": "A26",
      "postcode": "8200-032",
      "city": "ALBUFEIRA",
      "lon": "-8.229263966316395",
      "lat": "37.08889990638526"
    },
    {
      "id": "pt.ine.add.PTCONT.1515793",
      "street": "AV INF D HENRIQUE",
      "house": "A48",
      "postcode": "8200-032",
      "city": "ALBUFEIRA",
      "lon": "-8.22991678402069",
      "lat": "37.08925980268568"
    },
    {
      "id": "pt.ine.add.PTCONT.1531859",
      "street": "AV INF D HENRIQUE",
      "house": "A49",
      "postcode": "8200-032",
      "city": "ALBUFEIRA",
      "lon": "-8.2299278597176",
      "lat": "37.08912463337421"
    },
    {
      "id": "pt.ine.add.PTCONT.1538420",
      "street": "AV INF D HENRIQUE",
      "house": "A9",
      "postcode": "8200-032",
      "city": "ALBUFEIRA",
      "lon": "-8.22853295307666",
      "lat": "37.0889635716245"
    },
    {
      "id": "pt.ine.add.PTCONT.1542451",
      "street": "AV INF D HENRIQUE",
      "house": "A10",
      "postcode": "8200-032",
      "city": "ALBUFEIRA",
      "lon": "-8.22865658600477",
      "lat": "37.08889138660084"
    },
    {
      "id": "pt.ine.add.PTCONT.1583140",
      "street": "AV INF D HENRIQUE",
      "house": "A27",
      "postcode": "8200-032",
      "city": "ALBUFEIRA",
      "lon": "-8.229398960001852",
      "lat": "37.08891781822756"
    },
    {
      "id": "pt.ine.add.PTCONT.1590379",
      "street": "AV INF D HENRIQUE",
      "house": "AI2",
      "postcode": "8200-032",
      "city": "ALBUFEIRA",
      "lon": "-8.228848044092327",
      "lat": "37.08908946726616"
    },
    {
      "id": "pt.ine.add.PTCONT.1594435",
      "street": "AV INF D HENRIQUE",
      "house": "10",
      "postcode": "8200-032",
      "city": "ALBUFEIRA",
      "lon": "-8.230253660800237",
      "lat": "37.088827014343046"
    },
    {
      "id": "pt.ine.add.PTCONT.1616290",
      "street": "AV INF D HENRIQUE",
      "house": "B3",
      "postcode": "8200-032",
      "city": "ALBUFEIRA",
      "lon": "-8.228971665576392",
      "lat": "37.089008271239834"
    },
    {
      "id": "pt.ine.add.PTCONT.1632847",
      "street": "AV INF D HENRIQUE",
      "house": "A11",
      "postcode": "8200-032",
      "city": "ALBUFEIRA",
      "lon": "-8.228836558502932",
      "lat": "37.088900252151824"
    },
    {
      "id": "pt.ine.add.PTCONT.1640823",
      "street": "AV INF D HENRIQUE",
      "house": "B7",
      "postcode": "8200-032",
      "city": "ALBUFEIRA",
      "lon": "-8.2295007359362",
      "lat": "37.089350248418924"
    },
    {
      "id": "pt.ine.add.PTCONT.1643020",
      "street": "AV INF D HENRIQUE",
      "house": "B7",
      "postcode": "8200-032",
      "city": "ALBUFEIRA",
      "lon": "-8.2295007359362",
      "lat": "37.089350248418924"
    },
    {
      "id": "pt.ine.add.PTCONT.1658581",
      "street": "AV INF D HENRIQUE",
      "house": "A45",
      "postcode": "8200-032",
      "city": "ALBUFEIRA",
      "lon": "-8.229849618937207",
      "lat": "37.089512156655594"
    },
    {
      "id": "pt.ine.add.PTCONT.1670122",
      "street": "AV INF D HENRIQUE",
      "house": "B5",
      "postcode": "8200-032",
      "city": "ALBUFEIRA",
      "lon": "-8.229297993721486",
      "lat": "37.08912514591591"
    },
    {
      "id": "pt.ine.add.PTCONT.1734400",
      "street": "AV INF D HENRIQUE",
      "house": "A24",
      "postcode": "8200-032",
      "city": "ALBUFEIRA",
      "lon": "-8.229185676886686",
      "lat": "37.089251386546316"
    },
    {
      "id": "pt.ine.add.PTCONT.1763895",
      "street": "AV INF D HENRIQUE BAMBARA",
      "house": "B6",
      "postcode": "8200-032",
      "city": "ALBUFEIRA",
      "lon": "-8.22972524266061",
      "lat": "37.08899864902679"
    },
    {
      "id": "pt.ine.add.PTCONT.1774945",
      "street": "AV INF D HENRIQUE",
      "house": "A46",
      "postcode": "8200-032",
      "city": "ALBUFEIRA",
      "lon": "-8.22982695185638",
      "lat": "37.08937701487936"
    },
    {
      "id": "pt.ine.add.PTCONT.1781238",
      "street": "AV INF D HENRIQUE",
      "house": "A31",
      "postcode": "8200-032",
      "city": "ALBUFEIRA",
      "lon": "-8.229624528537348",
      "lat": "37.089404211843664"
    },
    {
      "id": "pt.ine.add.PTCONT.1781239",
      "street": "R JACARANDAS A",
      "house": "A 25",
      "postcode": "8200-115",
      "city": "ALBUFEIRA",
      "lon": "-8.229151706606842",
      "lat": "37.08907120036647"
    },
    {
      "id": "pt.ine.add.PTCONT.1785368",
      "street": "AV INF D HENRIQUE",
      "house": "A51",
      "postcode": "8200-032",
      "city": "ALBUFEIRA",
      "lon": "-8.2300859691359",
      "lat": "37.089629102515026"
    },
    {
      "id": "pt.ine.add.PTCONT.1792901",
      "street": "R LIRIOS A",
      "house": "A 47",
      "postcode": "8200-261",
      "city": "ALBUFEIRA",
      "lon": "-8.229961992383817",
      "lat": "37.089430968777826"
    },
    {
      "id": "pt.ine.add.PTCONT.1801643",
      "street": "R ALFARROBAS A",
      "house": "A29",
      "postcode": "8200-261",
      "city": "ALBUFEIRA",
      "lon": "-8.229556665850076",
      "lat": "37.089106914461524"
    },
    {
      "id": "pt.ine.add.PTCONT.1826403",
      "street": "R JACARANDAS A",
      "house": "A52",
      "postcode": "8200-115",
      "city": "ALBUFEIRA",
      "lon": "-8.23019854939796",
      "lat": "37.08971010655723"
    },
    {
      "id": "pt.ine.add.PTCONT.1842733",
      "street": "AV INF D HENRIQUE",
      "house": "A30",
      "postcode": "8200-032",
      "city": "ALBUFEIRA",
      "lon": "-8.229590614260273",
      "lat": "37.08926907917233"
    }
  ]
}