{
  "data": {
    "distrito": "Lisboa",
    "concelho": "Lisboa",
    "freguesia": "Avenidas Novas",
    "OBJECTID": 540,
    "BGRI2021": "11065700506",
    "DT21": "11",
    "DTMN21": "1106",
    "DTMNFR21": "110657",
    "DTMNFRSEC21": "110657005",
    "SECNUM21": "005",
    "SSNUM21": "06",
    "SECSSNUM21": "00506",
    "OBJECTID_1": 105030,
    "DT": "11",
    "CC": "06",
    "fr": "57",
    "SEC": "005",
    "SS": "06"
  },
  "addresses": [
    {
      "id": "pt.ine.add.PTCONT.2273426",
      "street": "AV DQ DE ÁVILA",
      "house": "20",
      "postcode": "1000-141",
      "city": "LISBOA",
      "lon": "-9.144017593213794",
      "lat": "38.73540284396137"
    },
    {
      "id": "pt.ine.add.PTCONT.2273427",
      "street": "AV DQ DE ÁVILA",
      "house": "20",
      "postcode": "1000-141",
      "city": "LISBOA",
      "lon": "-9.144017593213794",
      "lat": "38.73540284396137"
    },
    {
      "id": "pt.ine.add.PTCONT.2273428",
      "street": "AV DQ DE ÁVILA",
      "house": "20",
      "postcode": "1000-141",
      "city": "LISBOA",
      "lon": "-9.144017593213794",
      "lat": "38.73540284396137"
    },
    {
      "id": "pt.ine.add.PTCONT.2275732",
      "street": "AV DQ DE ÁVILA",
      "house": "20",
      "postcode": "1000-141",
      "city": "LISBOA",
      "lon": "-9.144017593213794",
      "lat": "38.73540284396137"
    },
    {
      "id": "pt.ine.add.PTCONT.2388072",
      "street": "AV DEFENSORES DE CHAVES",
      "house": "33",
      "postcode": "1000-111",
      "city": "LISBOA",
      "lon": "-9.143720851206215",
      "lat": "38.73563686211858"
    },
    {
      "id": "pt.ine.add.PTCONT.2388073",
      "street": "AV DEFENSORES DE CHAVES",
      "house": "33",
      "postcode": "1000-111",
      "city": "LISBOA",
      "lon": "-9.143720851206215",
      "lat": "38.73563686211858"
    },
    {
      "id": "pt.ine.add.PTCONT.2388074",
      "street": "AV DEFENSORES DE CHAVES",
      "house": "33",
      "postcode": "1000-111",
      "city": "LISBOA",
      "lon": "-9.143720851206215",
      "lat": "38.73563686211858"
    },
    {
      "id": "pt.ine.add.PTCONT.2388075",
      "street": "AV DEFENSORES DE CHAVES",
      "house": "33",
      "postcode": "1000-111",
      "city": "LISBOA",
      "lon": "-9.143720851206215",
      "lat": "38.73563686211858"
    },
    {
      "id": "pt.ine.add.PTCONT.2492105",
      "street": "AV REPUBLICA",
      "house": "12",
      "postcode": "1050-185",
      "city": "LISBOA",
      "lon": "-9.144898652560334",
      "lat": "38.73561841785674"
    },
    {
      "id": "pt.ine.add.PTCONT.2578691",
      "street": "AV DQ DE AVILA",
      "house": "24",
      "postcode": "1000-141",
      "city": "LISBOA",
      "lon": "-9.14414629349439",
      "lat": "38.73541779550051"
    },
    {
      "id": "pt.ine.add.PTCONT.2578692",
      "street": "AV DQ DE AVILA",
      "house": "24",
      "postcode": "1000-141",
      "city": "LISBOA",
      "lon": "-9.14414629349439",
      "lat": "38.73541779550051"
    },
    {
      "id": "pt.ine.add.PTCONT.2578693",
      "street": "AV DQ DE AVILA",
      "house": "24",
      "postcode": "1000-141",
      "city": "LISBOA",
      "lon": "-9.14414629349439",
      "lat": "38.73541779550051"
    },
    {
      "id": "pt.ine.add.PTCONT.2578694",
      "street": "AV DQ DE AVILA",
      "house": "24",
      "postcode": "1000-141",
      "city": "LISBOA",
      "lon": "-9.14414629349439",
      "lat": "38.73541779550051"
    },
    {
      "id": "pt.ine.add.PTCONT.2578695",
      "street": "AV DQ DE AVILA",
      "house": "24",
      "postcode": "1000-141",
      "city": "LISBOA",
      "lon": "-9.14414629349439",
      "lat": "38.73541779550051"
    },
    {
      "id": "pt.ine.add.PTCONT.2583844",
      "street": "AV DQ DE AVILA",
      "house": "24",
      "postcode": "1000-141",
      "city": "LISBOA",
      "lon": "-9.14414629349439",
      "lat": "38.73541779550051"
    },
    {
      "id": "pt.ine.add.PTCONT.2703704",
      "street": "AV REPUBLICA",
      "house": "10",
      "postcode": "1050-185",
      "city": "LISBOA",
      "lon": "-9.144851003224657",
      "lat": "38.73550172817977"
    },
    {
      "id": "pt.ine.add.PTCONT.2703705",
      "street": "AV REPUBLICA",
      "house": "10",
      "postcode": "1050-185",
      "city": "LISBOA",
      "lon": "-9.144851003224657",
      "lat": "38.73550172817977"
    },
    {
      "id": "pt.ine.add.PTCONT.2747916",
      "street": "AV DEFENSORES DE CHAVES",
      "house": "3I",
      "postcode": "1000-111",
      "city": "LISBOA",
      "lon": "-9.143677055854209",
      "lat": "38.73543982009999"
    },
    {
      "id": "pt.ine.add.PTCONT.2747917",
      "street": "AV DEFENSORES DE CHAVES",
      "house": "3I",
      "postcode": "1000-111",
      "city": "LISBOA",
      "lon": "-9.143677055854209",
      "lat": "38.73543982009999"
    },
    {
      "id": "pt.ine.add.PTCONT.2747920",
      "street": "AV DEFENSORES DE CHAVES",
      "house": "3I",
      "postcode": "1000-111",
      "city": "LISBOA",
      "lon": "-9.143677055854209",
      "lat": "38.73543982009999"
    },
    {
      "id": "pt.ine.add.PTCONT.2747921",
      "street": "AV DEFENSORES DE CHAVES",
      "house": "3I",
      "postcode": "1000-111",
      "city": "LISBOA",
      "lon": "-9.143677055854209",
      "lat": "38.73543982009999"
    },
    {
      "id": "pt.ine.add.PTCONT.2819173",
      "street": "AV REPUBLICA",
      "house": "14",
      "postcode": "1050-191",
      "city": "LISBOA",
      "lon": "-9.144929526249015",
      "lat": "38.735788196377015"
    },
    {
      "id": "pt.ine.add.PTCONT.2819174",
      "street": "AV REPUBLICA",
      "house": "14",
      "postcode": "1050-191",
      "city": "LISBOA",
      "lon": "-9.144929526249015",
      "lat": "38.735788196377015"
    },
    {
      "id": "pt.ine.add.PTCONT.3028840",
      "street": "AV DQ DE AVILA",
      "house": "28",
      "postcode": "1000-141",
      "city": "LISBOA",
      "lon": "-9.144455493435775",
      "lat": "38.7354241277493"
    },
    {
      "id": "pt.ine.add.PTCONT.3028841",
      "street": "AV DQ DE AVILA",
      "house": "28",
      "postcode": "1000-141",
      "city": "LISBOA",
      "lon": "-9.144455493435775",
      "lat": "38.7354241277493"
    },
    {
      "id": "pt.ine.add.PTCONT.3028842",
      "street": "AV DQ DE AVILA",
      "house": "28",
      "postcode": "1000-141",
      "city": "LISBOA",
      "lon": "-9.144455493435775",
      "lat": "38.7354241277493"
    },
    {
      "id": "pt.ine.add.PTCONT.3028843",
      "street": "AV DQ DE AVILA",
      "house": "28",
      "postcode": "1000-141",
      "city": "LISBOA",
      "lon": "-9.144455493435775",
      "lat": "38.7354241277493"
    },
    {
      "id": "pt.ine.add.PTCONT.3028844",
      "street": "AV DQ DE AVILA",
      "house": "28",
      "postcode": "1000-141",
      "city": "LISBOA",
      "lon": "-9.144455493435775",
      "lat": "38.7354241277493"
    },
    {
      "id": "pt.ine.add.PTCONT.3110394",
      "street": "AV DQ DE AVILA",
      "house": "26",
      "postcode": "1000-141",
      "city": "LISBOA",
      "lon": "-9.144301850252878",
      "lat": "38.735420753025835"
    },
    {
      "id": "pt.ine.add.PTCONT.3110395",
      "street": "AV DQ DE AVILA",
      "house": "26",
      "postcode": "1000-141",
      "city": "LISBOA",
      "lon": "-9.144301850252878",
      "lat": "38.735420753025835"
    },
    {
      "id": "pt.ine.add.PTCONT.3110396",
      "street": "AV DQ DE AVILA",
      "house": "26",
      "postcode": "1000-141",
      "city": "LISBOA",
      "lon": "-9.144301850252878",
      "lat": "38.735420753025835"
    },
    {
      "id": "pt.ine.add.PTCONT.3110445",
      "street": "AV DQ DE AVILA",
      "house": "26",
      "postcode": "1000-141",
      "city": "LISBOA",
      "lon": "-9.144301850252878",
      "lat": "38.735420753025835"
    },
    {
      "id": "pt.ine.add.PTCONT.3112353",
      "street": "AV DEFENSORES DE CHAVES",
      "house": "37",
      "postcode": "1000-111",
      "city": "LISBOA",
      "lon": "-9.143800046345735",
      "lat": "38.73600625157983"
    },
    {
      "id": "pt.ine.add.PTCONT.3112354",
      "street": "AV DEFENSORES DE CHAVES",
      "house": "37",
      "postcode": "1000-111",
      "city": "LISBOA",
      "lon": "-9.143800046345735",
      "lat": "38.73600625157983"
    },
    {
      "id": "pt.ine.add.PTCONT.3112355",
      "street": "AV DEFENSORES DE CHAVES",
      "house": "37",
      "postcode": "1000-111",
      "city": "LISBOA",
      "lon": "-9.143800046345735",
      "lat": "38.73600625157983"
    },
    {
      "id": "pt.ine.add.PTCONT.3112356",
      "street": "AV DEFENSORES DE CHAVES",
      "house": "37",
      "postcode": "1000-111",
      "city": "LISBOA",
      "lon": "-9.143800046345735",
      "lat": "38.73600625157983"
    },
    {
      "id": "pt.ine.add.PTCONT.3112357",
      "street": "AV DEFENSORES DE CHAVES",
      "house": "37",
      "postcode": "1000-111",
      "city": "LISBOA",
      "lon": "-9.143800046345735",
      "lat": "38.73600625157983"
    },
    {
      "id": "pt.ine.add.PTCONT.3112358",
      "street": "AV DEFENSORES DE CHAVES",
      "house": "37",
      "postcode": "1000-111",
      "city": "LISBOA",
      "lon": "-9.143800046345735",
      "lat": "38.73600625157983"
    },
    {
      "id": "pt.ine.add.PTCONT.3112359",
      "street": "AV DEFENSORES DE CHAVES",
      "house": "37",
      "postcode": "1000-111",
      "city": "LISBOA",
      "lon": "-9.143800046345735",
      "lat": "38.73600625157983"
    },
    {
      "id": "pt.ine.add.PTCONT.3112360",
      "street": "AV DEFENSORES DE CHAVES",
      "house": "37",
      "postcode": "1000-111",
      "city": "LISBOA",
      "lon": "-9.143800046345735",
      "lat": "38.73600625157983"
    },
    {
      "id": "pt.ine.add.PTCONT.3112361",
      "street": "AV DEFENSORES DE CHAVES",
      "house": "37",
      "postcode": "1000-111",
      "city": "LISBOA",
      "lon": "-9.143800046345735",
      "lat": "38.73600625157983"
    },
    {
      "id": "pt.ine.add.PTCONT.3112362",
      "street": "AV DEFENSORES DE CHAVES",
      "house": "37",
      "postcode": "1000-111",
      "city": "LISBOA",
      "lon": "-9.143800046345735",
      "lat": "38.73600625157983"
    },
    {
      "id": "pt.ine.add.PTCONT.3129123",
      "street": "AV JOÃO CRISOSTOMO",
      "house": "15",
      "postcode": "1000-177",
      "city": "LISBOA",
      "lon": "-9.144538676518135",
      "lat": "38.736189027846876"
    },
    {
      "id": "pt.ine.add.PTCONT.3129124",
      "street": "AV JOÃO CRISOSTOMO",
      "house": "15",
      "postcode": "1000-177",
      "city": "LISBOA",
      "lon": "-9.144538676518135",
      "lat": "38.736189027846876"
    },
    {
      "id": "pt.ine.add.PTCONT.3129125",
      "street": "AV JOÃO CRISOSTOMO",
      "house": "15",
      "postcode": "1000-177",
      "city": "LISBOA",
      "lon": "-9.144538676518135",
      "lat": "38.736189027846876"
    },
    {
      "id": "pt.ine.add.PTCONT.3129126",
      "street": "AV JOÃO CRISOSTOMO",
      "house": "15",
      "postcode": "1000-177",
      "city": "LISBOA",
      "lon": "-9.144538676518135",
      "lat": "38.736189027846876"
    },
    {
      "id": "pt.ine.add.PTCONT.3129127",
      "street": "AV JOÃO CRISOSTOMO",
      "house": "15",
      "postcode": "1000-177",
      "city": "LISBOA",
      "lon": "-9.144538676518135",
      "lat": "38.736189027846876"
    },
    {
      "id": "pt.ine.add.PTCONT.3129128",
      "street": "AV JOÃO CRISOSTOMO",
      "house": "15",
      "postcode": "1000-177",
      "city": "LISBOA",
      "lon": "-9.144538676518135",
      "lat": "38.736189027846876"
    },
    {
      "id": "pt.ine.add.PTCONT.3129129",
      "street": "AV JOÃO CRISOSTOMO",
      "house": "15",
      "postcode": "1000-177",
      "city": "LISBOA",
      "lon": "-9.144538676518135",
      "lat": "38.736189027846876"
    },
    {
      "id": "pt.ine.add.PTCONT.3129130",
      "street": "AV JOÃO CRISOSTOMO",
      "house": "15",
      "postcode": "1000-177",
      "city": "LISBOA",
      "lon": "-9.144538676518135",
      "lat": "38.736189027846876"
    },
    {
      "id": "pt.ine.add.PTCONT.3129131",
      "street": "AV JOÃO CRISOSTOMO",
      "house": "15",
      "postcode": "1000-177",
      "city": "LISBOA",
      "lon": "-9.144538676518135",
      "lat": "38.736189027846876"
    },
    {
      "id": "pt.ine.add.PTCONT.3129139",
      "street": "AV JOÃO CRISOSTOMO",
      "house": "15",
      "postcode": "1000-177",
      "city": "LISBOA",
      "lon": "-9.144538676518135",
      "lat": "38.736189027846876"
    },
    {
      "id": "pt.ine.add.PTCONT.3175498",
      "street": "AV DQ DE AVILA",
      "house": "18",
      "postcode": "1000-141",
      "city": "LISBOA",
      "lon": "-9.143847112289619",
      "lat": "38.73540627015464"
    },
    {
      "id": "pt.ine.add.PTCONT.3175499",
      "street": "AV DQ DE AVILA",
      "house": "18",
      "postcode": "1000-141",
      "city": "LISBOA",
      "lon": "-9.143847112289619",
      "lat": "38.73540627015464"
    },
    {
      "id": "pt.ine.add.PTCONT.3175500",
      "street": "AV DQ DE AVILA",
      "house": "18",
      "postcode": "1000-141",
      "city": "LISBOA",
      "lon": "-9.143847112289619",
      "lat": "38.73540627015464"
    },
    {
      "id": "pt.ine.add.PTCONT.3175501",
      "street": "AV DQ DE AVILA",
      "house": "18",
      "postcode": "1000-141",
      "city": "LISBOA",
      "lon": "-9.143847112289619",
      "lat": "38.73540627015464"
    },
    {
      "id": "pt.ine.add.PTCONT.3175502",
      "street": "AV DQ DE AVILA",
      "house": "18",
      "postcode": "1000-141",
      "city": "LISBOA",
      "lon": "-9.143847112289619",
      "lat": "38.73540627015464"
    },
    {
      "id": "pt.ine.add.PTCONT.3175503",
      "street": "AV DQ DE AVILA",
      "house": "18",
      "postcode": "1000-141",
      "city": "LISBOA",
      "lon": "-9.143847112289619",
      "lat": "38.73540627015464"
    },
    {
      "id": "pt.ine.add.PTCONT.3175504",
      "street": "AV DQ DE AVILA",
      "house": "18",
      "postcode": "1000-141",
      "city": "LISBOA",
      "lon": "-9.143847112289619",
      "lat": "38.73540627015464"
    },
    {
      "id": "pt.ine.add.PTCONT.3175505",
      "street": "AV DQ DE AVILA",
      "house": "18",
      "postcode": "1000-141",
      "city": "LISBOA",
      "lon": "-9.143847112289619",
      "lat": "38.73540627015464"
    },
    {
      "id": "pt.ine.add.PTCONT.3182623",
      "street": "AV DEFENSORES DE CHAVES",
      "house": "35",
      "postcode": "1000-111",
      "city": "LISBOA",
      "lon": "-9.143778695960675",
      "lat": "38.73580165613231"
    },
    {
      "id": "pt.ine.add.PTCONT.3361164",
      "street": "AV DQ DE AVILA",
      "house": "32",
      "postcode": "1000-141",
      "city": "LISBOA",
      "lon": "-9.144691646608248",
      "lat": "38.735424836277154"
    },
    {
      "id": "pt.ine.add.PTCONT.3449003",
      "street": "AV DQ DE AVILA",
      "house": "18",
      "postcode": "1000-141",
      "city": "LISBOA",
      "lon": "-9.143847112289619",
      "lat": "38.73540627015464"
    }
  ]
}