{
  "data": {
    "distrito": "Guarda",
    "concelho": "Pinhel",
    "freguesia": "Manigoto",
    "OBJECTID": 635,
    "BGRI2021": "09101400115",
    "DT21": "09",
    "DTMN21": "0910",
    "DTMNFR21": "091014",
    "DTMNFRSEC21": "091014001",
    "SECNUM21": "001",
    "SSNUM21": "15",
    "SECSSNUM21": "00115",
    "OBJECTID_1": 79838,
    "DT": "09",
    "CC": "10",
    "fr": "14",
    "SEC": "001",
    "SS": "15"
  },
  "addresses": [
    {
      "id": "pt.ine.add.PTCONT.1900686",
      "street": "R DO CUSTÓDIO",
      "house": "",
      "postcode": "6400-251",
      "city": "MANIGOTO",
      "lon": "-7.0753368715531435",
      "lat": "40.70812355662541"
    },
    {
      "id": "pt.ine.add.PTCONT.1917731",
      "street": "R DA FAIA",
      "house": "",
      "postcode": "6400-251",
      "city": "MANIGOTO",
      "lon": "-7.075135311045662",
      "lat": "40.70889612734698"
    },
    {
      "id": "pt.ine.add.PTCONT.1926279",
      "street": "R SOTA",
      "house": "",
      "postcode": "6400-251",
      "city": "MANIGOTO",
      "lon": "-7.075226397681617",
      "lat": "40.70837468030362"
    },
    {
      "id": "pt.ine.add.PTCONT.1932342",
      "street": "R DO PADRE",
      "house": "",
      "postcode": "6400-251",
      "city": "MANIGOTO",
      "lon": "-7.075965226104928",
      "lat": "40.70804826927945"
    },
    {
      "id": "pt.ine.add.PTCONT.1942586",
      "street": "R DO PASSO",
      "house": "",
      "postcode": "6400-251",
      "city": "MANIGOTO",
      "lon": "-7.075199314525934",
      "lat": "40.708590548730484"
    },
    {
      "id": "pt.ine.add.PTCONT.1943900",
      "street": "R DO FORNO",
      "house": "",
      "postcode": "6400-251",
      "city": "MANIGOTO",
      "lon": "-7.075755818652804",
      "lat": "40.70782122973542"
    },
    {
      "id": "pt.ine.add.PTCONT.1960402",
      "street": "R DAS FERREIRAS",
      "house": "",
      "postcode": "6400-251",
      "city": "MANIGOTO",
      "lon": "-7.075465174048018",
      "lat": "40.708989198855726"
    },
    {
      "id": "pt.ine.add.PTCONT.1961089",
      "street": "R DA FAIA",
      "house": "",
      "postcode": "6400-251",
      "city": "MANIGOTO",
      "lon": "-7.075025260343063",
      "lat": "40.70837283675175"
    },
    {
      "id": "pt.ine.add.PTCONT.1969341",
      "street": "R DA PROCISSÃO",
      "house": "",
      "postcode": "6400-251",
      "city": "MANIGOTO",
      "lon": "-7.07505576707452",
      "lat": "40.70868828648438"
    },
    {
      "id": "pt.ine.add.PTCONT.1970695",
      "street": "R PRINCIPAL",
      "house": "",
      "postcode": "6400-251",
      "city": "MANIGOTO",
      "lon": "-7.075726896158145",
      "lat": "40.70890154805123"
    },
    {
      "id": "pt.ine.add.PTCONT.1972304",
      "street": "R DA FAIA",
      "house": "",
      "postcode": "6400-251",
      "city": "MANIGOTO",
      "lon": "-7.0750616102596595",
      "lat": "40.70831914078678"
    },
    {
      "id": "pt.ine.add.PTCONT.1975712",
      "street": "R DAS FERREIRAS",
      "house": "",
      "postcode": "6400-251",
      "city": "MANIGOTO",
      "lon": "-7.075618416617022",
      "lat": "40.709026622311306"
    },
    {
      "id": "pt.ine.add.PTCONT.1975909",
      "street": "R DO FORNO",
      "house": "",
      "postcode": "6400-251",
      "city": "MANIGOTO",
      "lon": "-7.07532831698682",
      "lat": "40.70791636643462"
    },
    {
      "id": "pt.ine.add.PTCONT.1848955",
      "street": "R DAS FERREIRAS",
      "house": "",
      "postcode": "6400-251",
      "city": "MANIGOTO",
      "lon": "-7.075646495701076",
      "lat": "40.70874772890344"
    },
    {
      "id": "pt.ine.add.PTCONT.1855331",
      "street": "R PRINCIPAL",
      "house": "",
      "postcode": "6400-251",
      "city": "MANIGOTO",
      "lon": "-7.075880281089462",
      "lat": "40.70892996760391"
    },
    {
      "id": "pt.ine.add.PTCONT.1859565",
      "street": "R DO FORNO",
      "house": "",
      "postcode": "6400-251",
      "city": "MANIGOTO",
      "lon": "-7.075685541721303",
      "lat": "40.70777556166021"
    },
    {
      "id": "pt.ine.add.PTCONT.1861750",
      "street": "R DO AMIEIRO",
      "house": "",
      "postcode": "6400-251",
      "city": "MANIGOTO",
      "lon": "-7.07504137004733",
      "lat": "40.708850241988145"
    },
    {
      "id": "pt.ine.add.PTCONT.1863603",
      "street": "R DA FAIA",
      "house": "",
      "postcode": "6400-251",
      "city": "MANIGOTO",
      "lon": "-7.0750581898717435",
      "lat": "40.70853522607612"
    },
    {
      "id": "pt.ine.add.PTCONT.1879659",
      "street": "R DAS EGELGAS",
      "house": "",
      "postcode": "6400-251",
      "city": "MANIGOTO",
      "lon": "-7.075384204197734",
      "lat": "40.7088713937501"
    },
    {
      "id": "pt.ine.add.PTCONT.1881272",
      "street": "LG DA FONTAINHA",
      "house": "",
      "postcode": "6400-251",
      "city": "MANIGOTO",
      "lon": "-7.075508069162273",
      "lat": "40.70777393574044"
    },
    {
      "id": "pt.ine.add.PTCONT.1882123",
      "street": "R DA FAIA",
      "house": "",
      "postcode": "6400-251",
      "city": "MANIGOTO",
      "lon": "-7.074984206983509",
      "lat": "40.70872364996226"
    },
    {
      "id": "pt.ine.add.PTCONT.1883243",
      "street": "R PRINCIPAL",
      "house": "",
      "postcode": "6400-251",
      "city": "MANIGOTO",
      "lon": "-7.076219968319928",
      "lat": "40.70840179159014"
    },
    {
      "id": "pt.ine.add.PTCONT.1890413",
      "street": "R DO PADRE",
      "house": "",
      "postcode": "6400-251",
      "city": "MANIGOTO",
      "lon": "-7.075616413480699",
      "lat": "40.70840526862911"
    },
    {
      "id": "pt.ine.add.PTCONT.1897158",
      "street": "R DAS FERREIRAS",
      "house": "",
      "postcode": "6400-251",
      "city": "MANIGOTO",
      "lon": "-7.075502521173086",
      "lat": "40.70887247787779"
    }
  ]
}