{
  "data": {
    "distrito": "Setúbal",
    "concelho": "Setúbal",
    "freguesia": "Gâmbia-Pontes-Alto da Guerra",
    "OBJECTID": 243,
    "BGRI2021": "15120700319",
    "DT21": "15",
    "DTMN21": "1512",
    "DTMNFR21": "151207",
    "DTMNFRSEC21": "151207003",
    "SECNUM21": "003",
    "SSNUM21": "19",
    "SECSSNUM21": "00319",
    "OBJECTID_1": 170305,
    "DT": "15",
    "CC": "12",
    "fr": "07",
    "SEC": "003",
    "SS": "19"
  },
  "addresses": [
    {
      "id": "pt.ine.add.PTCONT.4683871",
      "street": "R ROSMANINHO",
      "house": "",
      "postcode": "2910-282",
      "city": "SETÚBAL",
      "lon": "-8.849421946422307",
      "lat": "38.54325339443576"
    },
    {
      "id": "pt.ine.add.PTCONT.4691322",
      "street": "R VIOLETAS",
      "house": "82",
      "postcode": "2910-870",
      "city": "SETÚBAL",
      "lon": "-8.849688248812878",
      "lat": "38.54350399717885"
    },
    {
      "id": "pt.ine.add.PTCONT.4774999",
      "street": "R VALE ANA GOMES",
      "house": "",
      "postcode": "2910-199",
      "city": "SETÚBAL",
      "lon": "-8.849323723633765",
      "lat": "38.54375846011467"
    },
    {
      "id": "pt.ine.add.PTCONT.4776542",
      "street": "R VIOLETAS",
      "house": "",
      "postcode": "2910-870",
      "city": "SETÚBAL",
      "lon": "-8.849869169296042",
      "lat": "38.543241649011726"
    },
    {
      "id": "pt.ine.add.PTCONT.4827816",
      "street": "R ROSMANINHO",
      "house": "",
      "postcode": "2910-282",
      "city": "SETÚBAL",
      "lon": "-8.849425463547849",
      "lat": "38.542451634199466"
    },
    {
      "id": "pt.ine.add.PTCONT.4874538",
      "street": "URB DA SERRALHEIRA",
      "house": "",
      "postcode": "2910-011",
      "city": "SETÚBAL",
      "lon": "-8.84908250420833",
      "lat": "38.54372390234086"
    },
    {
      "id": "pt.ine.add.PTCONT.4895861",
      "street": "R VIOLETAS",
      "house": "",
      "postcode": "2910-870",
      "city": "SETÚBAL",
      "lon": "-8.849832614960555",
      "lat": "38.54302567360817"
    },
    {
      "id": "pt.ine.add.PTCONT.4985116",
      "street": "R VIOLETAS",
      "house": "",
      "postcode": "2910-870",
      "city": "SETÚBAL",
      "lon": "-8.84955177559901",
      "lat": "38.54362194029137"
    },
    {
      "id": "pt.ine.add.PTCONT.4985117",
      "street": "R VIOLETAS",
      "house": "",
      "postcode": "2910-870",
      "city": "SETÚBAL",
      "lon": "-8.84955177559901",
      "lat": "38.54362194029137"
    },
    {
      "id": "pt.ine.add.PTCONT.5003355",
      "street": "R VIOLETAS",
      "house": "",
      "postcode": "2910-870",
      "city": "SETÚBAL",
      "lon": "-8.849790312881616",
      "lat": "38.54338626454756"
    },
    {
      "id": "pt.ine.add.PTCONT.5057006",
      "street": "R ROSMANINHO",
      "house": "",
      "postcode": "2910-282",
      "city": "SETÚBAL",
      "lon": "-8.84948495525666",
      "lat": "38.54266746940789"
    },
    {
      "id": "pt.ine.add.PTCONT.5065935",
      "street": "R ROSMANINHO",
      "house": "121",
      "postcode": "2910-282",
      "city": "SETÚBAL",
      "lon": "-8.84934291040707",
      "lat": "38.54337999417319"
    },
    {
      "id": "pt.ine.add.PTCONT.5065936",
      "street": "R ROSMANINHO",
      "house": "",
      "postcode": "2910-282",
      "city": "SETÚBAL",
      "lon": "-8.849466126792041",
      "lat": "38.543081966421795"
    }
  ]
}