{
  "data": {
    "distrito": "Aveiro",
    "concelho": "Águeda",
    "freguesia": "União das freguesias do Préstimo e Macieira de Alcoba",
    "OBJECTID": 676,
    "BGRI2021": "01012700106",
    "DT21": "01",
    "DTMN21": "0101",
    "DTMNFR21": "010127",
    "DTMNFRSEC21": "010127001",
    "SECNUM21": "001",
    "SSNUM21": "06",
    "SECSSNUM21": "00106",
    "OBJECTID_1": 312,
    "DT": "01",
    "CC": "01",
    "fr": "27",
    "SEC": "001",
    "SS": "06"
  },
  "addresses": [
    {
      "id": "pt.ine.add.PTCONT.336878",
      "street": "R PORTA PICA",
      "house": "33",
      "postcode": "3750-674",
      "city": "PRÉSTIMO",
      "lon": "-8.36792280900379",
      "lat": "40.617285551166496"
    },
    {
      "id": "pt.ine.add.PTCONT.16009",
      "street": "R AVELEIRAS",
      "house": "458",
      "postcode": "3750-674",
      "city": "PRÉSTIMO",
      "lon": "-8.368353768712481",
      "lat": "40.61549263445479"
    },
    {
      "id": "pt.ine.add.PTCONT.18588",
      "street": "R AVELEIRAS",
      "house": "",
      "postcode": "3750-674",
      "city": "PRÉSTIMO",
      "lon": "-8.367290667402187",
      "lat": "40.61562086805112"
    },
    {
      "id": "pt.ine.add.PTCONT.58997",
      "street": "R AVELEIRAS",
      "house": "",
      "postcode": "3750-674",
      "city": "PRÉSTIMO",
      "lon": "-8.366840956646808",
      "lat": "40.615432669255135"
    },
    {
      "id": "pt.ine.add.PTCONT.87691",
      "street": "R LOMBA",
      "house": "24",
      "postcode": "3750-674",
      "city": "PRÉSTIMO",
      "lon": "-8.365521767522578",
      "lat": "40.613274076588034"
    },
    {
      "id": "pt.ine.add.PTCONT.98653",
      "street": "R ERVEDAL",
      "house": "26",
      "postcode": "3750-674",
      "city": "PRÉSTIMO",
      "lon": "-8.366331035715792",
      "lat": "40.61492040212467"
    },
    {
      "id": "pt.ine.add.PTCONT.106085",
      "street": "R LOMBA",
      "house": "307",
      "postcode": "3750-674",
      "city": "PRÉSTIMO",
      "lon": "-8.365184129595896",
      "lat": "40.61473360257504"
    },
    {
      "id": "pt.ine.add.PTCONT.137841",
      "street": "",
      "house": "",
      "postcode": "3750-674",
      "city": "PRÉSTIMO",
      "lon": "-8.366306869399011",
      "lat": "40.61476736205505"
    },
    {
      "id": "pt.ine.add.PTCONT.194978",
      "street": "R LAVOURA",
      "house": "36",
      "postcode": "3750-674",
      "city": "PRÉSTIMO",
      "lon": "-8.370863308856269",
      "lat": "40.61670320113659"
    },
    {
      "id": "pt.ine.add.PTCONT.199761",
      "street": "R PORTAPICA",
      "house": "15",
      "postcode": "3750-674",
      "city": "PRÉSTIMO",
      "lon": "-8.367887009906726",
      "lat": "40.61718656648513"
    },
    {
      "id": "pt.ine.add.PTCONT.214015",
      "street": "R LOMBA",
      "house": "35",
      "postcode": "3750-674",
      "city": "PRÉSTIMO",
      "lon": "-8.365648192689672",
      "lat": "40.61224722581876"
    },
    {
      "id": "pt.ine.add.PTCONT.254560",
      "street": "R VARZIELA",
      "house": "149",
      "postcode": "3750-674",
      "city": "PRÉSTIMO",
      "lon": "-8.367732438267458",
      "lat": "40.61691672387708"
    },
    {
      "id": "pt.ine.add.PTCONT.254561",
      "street": "R LOMBA",
      "house": "",
      "postcode": "3750-674",
      "city": "PRÉSTIMO",
      "lon": "-8.365826784468847",
      "lat": "40.61263409105621"
    },
    {
      "id": "pt.ine.add.PTCONT.261398",
      "street": "R LAVOURA",
      "house": "127",
      "postcode": "3750-674",
      "city": "PRÉSTIMO",
      "lon": "-8.371240632354972",
      "lat": "40.6164682879564"
    },
    {
      "id": "pt.ine.add.PTCONT.261399",
      "street": "R LOMBA",
      "house": "",
      "postcode": "3750-674",
      "city": "PRÉSTIMO",
      "lon": "-8.36583794497132",
      "lat": "40.612444958716814"
    },
    {
      "id": "pt.ine.add.PTCONT.261400",
      "street": "R ERVEDAL",
      "house": "",
      "postcode": "3750-674",
      "city": "PRÉSTIMO",
      "lon": "-8.366413629616499",
      "lat": "40.61488421440588"
    },
    {
      "id": "pt.ine.add.PTCONT.265870",
      "street": "R ERVEDAL",
      "house": "",
      "postcode": "3750-674",
      "city": "PRÉSTIMO",
      "lon": "-8.366141994552574",
      "lat": "40.61492978892398"
    }
  ]
}