{
  "data": {
    "distrito": "Vila Real",
    "concelho": "Santa Marta de Penaguião",
    "freguesia": "União das freguesias de Louredo e Fornelos",
    "OBJECTID": 289,
    "BGRI2021": "17111200116",
    "DT21": "17",
    "DTMN21": "1711",
    "DTMNFR21": "171112",
    "DTMNFRSEC21": "171112001",
    "SECNUM21": "001",
    "SSNUM21": "16",
    "SECSSNUM21": "00116",
    "OBJECTID_1": 185504,
    "DT": "17",
    "CC": "11",
    "fr": "12",
    "SEC": "001",
    "SS": "16"
  },
  "addresses": [
    {
      "id": "pt.ine.add.PTCONT.5288540",
      "street": "R VALADO",
      "house": "",
      "postcode": "5030-261",
      "city": "LOUREDO SMP",
      "lon": "-7.843013386962451",
      "lat": "41.2493275573417"
    },
    {
      "id": "pt.ine.add.PTCONT.5293646",
      "street": "R VALADO",
      "house": "",
      "postcode": "5030-261",
      "city": "LOUREDO SMP",
      "lon": "-7.8430969406471345",
      "lat": "41.24931876359315"
    },
    {
      "id": "pt.ine.add.PTCONT.5303917",
      "street": "R PARADELA",
      "house": "",
      "postcode": "5030-261",
      "city": "LOUREDO SMP",
      "lon": "-7.843193061712394",
      "lat": "41.24916593375306"
    },
    {
      "id": "pt.ine.add.PTCONT.5308569",
      "street": "R FRAGA",
      "house": "7",
      "postcode": "5030-261",
      "city": "LOUREDO SMP",
      "lon": "-7.843014024209266",
      "lat": "41.24918349127282"
    },
    {
      "id": "pt.ine.add.PTCONT.5354575",
      "street": "CAM CALÇO DA ESCALEIRA",
      "house": "25",
      "postcode": "5030-261",
      "city": "LOUREDO SMP",
      "lon": "-7.843110463781648",
      "lat": "41.24895862845999"
    },
    {
      "id": "pt.ine.add.PTCONT.5355121",
      "street": "R CAIJANINHO",
      "house": "",
      "postcode": "5030-261",
      "city": "LOUREDO SMP",
      "lon": "-7.843385899137485",
      "lat": "41.24872521186061"
    },
    {
      "id": "pt.ine.add.PTCONT.5358053",
      "street": "R FRAGA",
      "house": "16",
      "postcode": "5030-261",
      "city": "LOUREDO SMP",
      "lon": "-7.843193061712394",
      "lat": "41.24916593375306"
    },
    {
      "id": "pt.ine.add.PTCONT.5359242",
      "street": "R PARADELA",
      "house": "",
      "postcode": "5030-261",
      "city": "LOUREDO SMP",
      "lon": "-7.843193061712394",
      "lat": "41.24916593375306"
    },
    {
      "id": "pt.ine.add.PTCONT.5366058",
      "street": "R VALADO",
      "house": "44",
      "postcode": "5030-261",
      "city": "LOUREDO SMP",
      "lon": "-7.843524532108556",
      "lat": "41.24975204279916"
    },
    {
      "id": "pt.ine.add.PTCONT.5370926",
      "street": "R VALADO",
      "house": "",
      "postcode": "5030-261",
      "city": "LOUREDO SMP",
      "lon": "-7.843072561885416",
      "lat": "41.24943575716967"
    },
    {
      "id": "pt.ine.add.PTCONT.5373088",
      "street": "R VALADO",
      "house": "",
      "postcode": "5030-261",
      "city": "LOUREDO SMP",
      "lon": "-7.84304889985756",
      "lat": "41.24939067641647"
    },
    {
      "id": "pt.ine.add.PTCONT.5377283",
      "street": "R CAIJANINHO",
      "house": "",
      "postcode": "5030-261",
      "city": "LOUREDO SMP",
      "lon": "-7.843529263240803",
      "lat": "41.24868055135581"
    },
    {
      "id": "pt.ine.add.PTCONT.5390192",
      "street": "R VALADO",
      "house": "115",
      "postcode": "5030-261",
      "city": "LOUREDO SMP",
      "lon": "-7.843524015246701",
      "lat": "41.24986909647409"
    },
    {
      "id": "pt.ine.add.PTCONT.5405154",
      "street": "R FRAGA",
      "house": "37",
      "postcode": "5030-261",
      "city": "LOUREDO SMP",
      "lon": "-7.843193061712394",
      "lat": "41.24916593375306"
    },
    {
      "id": "pt.ine.add.PTCONT.5409602",
      "street": "R FRAGA",
      "house": "134",
      "postcode": "5030-261",
      "city": "LOUREDO SMP",
      "lon": "-7.843193061712394",
      "lat": "41.24916593375306"
    },
    {
      "id": "pt.ine.add.PTCONT.5411452",
      "street": "R VALADO",
      "house": "45",
      "postcode": "5030-261",
      "city": "LOUREDO SMP",
      "lon": "-7.8436316693190165",
      "lat": "41.249806337577"
    },
    {
      "id": "pt.ine.add.PTCONT.5412782",
      "street": "R VALADO",
      "house": "91",
      "postcode": "5030-261",
      "city": "LOUREDO SMP",
      "lon": "-7.843381245211982",
      "lat": "41.24977869502447"
    },
    {
      "id": "pt.ine.add.PTCONT.5424511",
      "street": "R CAIJANINHO",
      "house": "92",
      "postcode": "5030-261",
      "city": "LOUREDO SMP",
      "lon": "-7.843672786095959",
      "lat": "41.24859987414821"
    }
  ]
}