{
  "data": {
    "distrito": "Castelo Branco",
    "concelho": "Covilhã",
    "freguesia": "União das freguesias de Teixoso e Sarzedo",
    "OBJECTID": 888,
    "BGRI2021": "05033700111",
    "DT21": "05",
    "DTMN21": "0503",
    "DTMNFR21": "050337",
    "DTMNFRSEC21": "050337001",
    "SECNUM21": "001",
    "SSNUM21": "11",
    "SECSSNUM21": "00111",
    "OBJECTID_1": 42306,
    "DT": "05",
    "CC": "03",
    "fr": "37",
    "SEC": "001",
    "SS": "11"
  },
  "addresses": [
    {
      "id": "pt.ine.add.PTCONT.961057",
      "street": "EN 18-3",
      "house": "",
      "postcode": "6200-710",
      "city": "TEIXOSO",
      "lon": "-7.443225243204429",
      "lat": "40.31317156219808"
    },
    {
      "id": "pt.ine.add.PTCONT.984576",
      "street": "QTA EUCALIPTOS",
      "house": "",
      "postcode": "6200-673",
      "city": "TEIXOSO",
      "lon": "-7.4434972314069086",
      "lat": "40.31187637695718"
    },
    {
      "id": "pt.ine.add.PTCONT.995681",
      "street": "ESTR BALEIZAO",
      "house": "",
      "postcode": "6200-708",
      "city": "TEIXOSO",
      "lon": "-7.450879468562134",
      "lat": "40.308921280127194"
    },
    {
      "id": "pt.ine.add.PTCONT.1019579",
      "street": "QTA OLIVEIRAS",
      "house": "",
      "postcode": "6200-673",
      "city": "TEIXOSO",
      "lon": "-7.443346726547296",
      "lat": "40.312794051281145"
    },
    {
      "id": "pt.ine.add.PTCONT.1048194",
      "street": "QTA BALEIZAO",
      "house": "",
      "postcode": "6200-679",
      "city": "TEIXOSO",
      "lon": "-7.451308805801356",
      "lat": "40.30950917596088"
    },
    {
      "id": "pt.ine.add.PTCONT.1061830",
      "street": "QUINTINHA AGUA",
      "house": "",
      "postcode": "6200-673",
      "city": "TEIXOSO",
      "lon": "-7.44349182687078",
      "lat": "40.312407675393445"
    },
    {
      "id": "pt.ine.add.PTCONT.1066331",
      "street": "QTA MALACA",
      "house": "",
      "postcode": "6200-673",
      "city": "TEIXOSO",
      "lon": "-7.4423101491402255",
      "lat": "40.31177023284421"
    },
    {
      "id": "pt.ine.add.PTCONT.1073221",
      "street": "QTA SENHORA DO CARMO",
      "house": "",
      "postcode": "6200-902",
      "city": "TEIXOSO",
      "lon": "-7.446183527376746",
      "lat": "40.31495426425058"
    },
    {
      "id": "pt.ine.add.PTCONT.1082337",
      "street": "QTA AGUA",
      "house": "",
      "postcode": "6200-673",
      "city": "TEIXOSO",
      "lon": "-7.443375017668067",
      "lat": "40.312325928574715"
    }
  ]
}