{
  "data": {
    "distrito": "Faro",
    "concelho": "Lagos",
    "freguesia": "Luz",
    "OBJECTID": 476,
    "BGRI2021": "08070300904",
    "DT21": "08",
    "DTMN21": "0807",
    "DTMNFR21": "080703",
    "DTMNFRSEC21": "080703009",
    "SECNUM21": "009",
    "SSNUM21": "04",
    "SECSSNUM21": "00904",
    "OBJECTID_1": 67730,
    "DT": "08",
    "CC": "07",
    "fr": "03",
    "SEC": "009",
    "SS": "04"
  },
  "addresses": [
    {
      "id": "pt.ine.add.PTCONT.1480916",
      "street": "R BENEDITA DA CONCEIÇÃO BAPTISTA",
      "house": "",
      "postcode": "8600-136",
      "city": "LUZ LGS",
      "lon": "-8.734009172338057",
      "lat": "37.08765081949035"
    },
    {
      "id": "pt.ine.add.PTCONT.1480917",
      "street": "R BENEDITA DA CONCEIÇÃO BAPTISTA",
      "house": "",
      "postcode": "8600-136",
      "city": "LUZ LGS",
      "lon": "-8.734009172338057",
      "lat": "37.08765081949035"
    },
    {
      "id": "pt.ine.add.PTCONT.1480918",
      "street": "R BENEDITA DA CONCEIÇÃO BAPTISTA",
      "house": "",
      "postcode": "8600-136",
      "city": "LUZ LGS",
      "lon": "-8.734009172338057",
      "lat": "37.08765081949035"
    },
    {
      "id": "pt.ine.add.PTCONT.1480919",
      "street": "R BENEDITA DA CONCEIÇÃO BAPTISTA",
      "house": "",
      "postcode": "8600-136",
      "city": "LUZ LGS",
      "lon": "-8.734009172338057",
      "lat": "37.08765081949035"
    },
    {
      "id": "pt.ine.add.PTCONT.1480920",
      "street": "R BENEDITA DA CONCEIÇÃO BAPTISTA",
      "house": "",
      "postcode": "8600-136",
      "city": "LUZ LGS",
      "lon": "-8.734009172338057",
      "lat": "37.08765081949035"
    },
    {
      "id": "pt.ine.add.PTCONT.1480921",
      "street": "R BENEDITA DA CONCEIÇÃO BAPTISTA",
      "house": "",
      "postcode": "8600-136",
      "city": "LUZ LGS",
      "lon": "-8.734009172338057",
      "lat": "37.08765081949035"
    },
    {
      "id": "pt.ine.add.PTCONT.1480922",
      "street": "R BENEDITA DA CONCEIÇÃO BAPTISTA",
      "house": "",
      "postcode": "8600-136",
      "city": "LUZ LGS",
      "lon": "-8.734009172338057",
      "lat": "37.08765081949035"
    },
    {
      "id": "pt.ine.add.PTCONT.1480923",
      "street": "R BENEDITA DA CONCEIÇÃO BAPTISTA",
      "house": "",
      "postcode": "8600-136",
      "city": "LUZ LGS",
      "lon": "-8.734009172338057",
      "lat": "37.08765081949035"
    },
    {
      "id": "pt.ine.add.PTCONT.1480924",
      "street": "R BENEDITA DA CONCEIÇÃO BAPTISTA",
      "house": "",
      "postcode": "8600-136",
      "city": "LUZ LGS",
      "lon": "-8.734009172338057",
      "lat": "37.08765081949035"
    },
    {
      "id": "pt.ine.add.PTCONT.1480925",
      "street": "R BENEDITA DA CONCEIÇÃO BAPTISTA",
      "house": "",
      "postcode": "8600-136",
      "city": "LUZ LGS",
      "lon": "-8.734009172338057",
      "lat": "37.08765081949035"
    },
    {
      "id": "pt.ine.add.PTCONT.1480926",
      "street": "R BENEDITA DA CONCEIÇÃO BAPTISTA",
      "house": "",
      "postcode": "8600-136",
      "city": "LUZ LGS",
      "lon": "-8.734009172338057",
      "lat": "37.08765081949035"
    },
    {
      "id": "pt.ine.add.PTCONT.1480927",
      "street": "R BENEDITA DA CONCEIÇÃO BAPTISTA",
      "house": "",
      "postcode": "8600-136",
      "city": "LUZ LGS",
      "lon": "-8.734009172338057",
      "lat": "37.08765081949035"
    },
    {
      "id": "pt.ine.add.PTCONT.1480928",
      "street": "R BENEDITA DA CONCEIÇÃO BAPTISTA",
      "house": "",
      "postcode": "8600-136",
      "city": "LUZ LGS",
      "lon": "-8.734009172338057",
      "lat": "37.08765081949035"
    },
    {
      "id": "pt.ine.add.PTCONT.1480929",
      "street": "R BENEDITA DA CONCEIÇÃO BAPTISTA",
      "house": "",
      "postcode": "8600-136",
      "city": "LUZ LGS",
      "lon": "-8.734009172338057",
      "lat": "37.08765081949035"
    },
    {
      "id": "pt.ine.add.PTCONT.1480930",
      "street": "R BENEDITA DA CONCEIÇÃO BAPTISTA",
      "house": "",
      "postcode": "8600-136",
      "city": "LUZ LGS",
      "lon": "-8.734009172338057",
      "lat": "37.08765081949035"
    },
    {
      "id": "pt.ine.add.PTCONT.1480931",
      "street": "R BENEDITA DA CONCEIÇÃO BAPTISTA",
      "house": "",
      "postcode": "8600-136",
      "city": "LUZ LGS",
      "lon": "-8.734009172338057",
      "lat": "37.08765081949035"
    },
    {
      "id": "pt.ine.add.PTCONT.1480932",
      "street": "R BENEDITA DA CONCEIÇÃO BAPTISTA",
      "house": "",
      "postcode": "8600-136",
      "city": "LUZ LGS",
      "lon": "-8.734009172338057",
      "lat": "37.08765081949035"
    },
    {
      "id": "pt.ine.add.PTCONT.1481281",
      "street": "R LIA MARIA PACHECO",
      "house": "24",
      "postcode": "8600-171",
      "city": "LUZ LGS",
      "lon": "-8.734009172338057",
      "lat": "37.08765081949035"
    },
    {
      "id": "pt.ine.add.PTCONT.1484554",
      "street": "R CEMITÉRIO CASA AMENDOEIRAS",
      "house": "",
      "postcode": "8600-174",
      "city": "LUZ LGS",
      "lon": "-8.732453744277384",
      "lat": "37.08865886203687"
    },
    {
      "id": "pt.ine.add.PTCONT.1507941",
      "street": "R ESCOLA PRIMARIA",
      "house": "",
      "postcode": "8600-155",
      "city": "LUZ LGS",
      "lon": "-8.732303703721103",
      "lat": "37.08817305032738"
    },
    {
      "id": "pt.ine.add.PTCONT.1548148",
      "street": "R CEMITÉRIO B-BALANCA",
      "house": "",
      "postcode": "8600-174",
      "city": "LUZ LGS",
      "lon": "-8.73350683387146",
      "lat": "37.08813092310115"
    },
    {
      "id": "pt.ine.add.PTCONT.1548149",
      "street": "R CEMITÉRIO B-BALANCA",
      "house": "",
      "postcode": "8600-174",
      "city": "LUZ LGS",
      "lon": "-8.73350683387146",
      "lat": "37.08813092310115"
    },
    {
      "id": "pt.ine.add.PTCONT.1548150",
      "street": "R CEMITÉRIO B-BALANCA",
      "house": "",
      "postcode": "8600-174",
      "city": "LUZ LGS",
      "lon": "-8.73350683387146",
      "lat": "37.08813092310115"
    },
    {
      "id": "pt.ine.add.PTCONT.1548151",
      "street": "R CEMITÉRIO B-BALANCA",
      "house": "",
      "postcode": "8600-174",
      "city": "LUZ LGS",
      "lon": "-8.73350683387146",
      "lat": "37.08813092310115"
    },
    {
      "id": "pt.ine.add.PTCONT.1548153",
      "street": "R CEMITÉRIO B-BALANCA",
      "house": "",
      "postcode": "8600-174",
      "city": "LUZ LGS",
      "lon": "-8.73350683387146",
      "lat": "37.08813092310115"
    },
    {
      "id": "pt.ine.add.PTCONT.1548154",
      "street": "R CEMITÉRIO B-BALANCA",
      "house": "",
      "postcode": "8600-174",
      "city": "LUZ LGS",
      "lon": "-8.73350683387146",
      "lat": "37.08813092310115"
    },
    {
      "id": "pt.ine.add.PTCONT.1548155",
      "street": "R CEMITÉRIO B-BALANCA",
      "house": "",
      "postcode": "8600-174",
      "city": "LUZ LGS",
      "lon": "-8.73350683387146",
      "lat": "37.08813092310115"
    },
    {
      "id": "pt.ine.add.PTCONT.1548156",
      "street": "R CEMITÉRIO B-BALANCA",
      "house": "",
      "postcode": "8600-174",
      "city": "LUZ LGS",
      "lon": "-8.73350683387146",
      "lat": "37.08813092310115"
    },
    {
      "id": "pt.ine.add.PTCONT.1548157",
      "street": "R CEMITÉRIO B-BALANCA",
      "house": "",
      "postcode": "8600-174",
      "city": "LUZ LGS",
      "lon": "-8.73350683387146",
      "lat": "37.08813092310115"
    },
    {
      "id": "pt.ine.add.PTCONT.1548158",
      "street": "R CEMITÉRIO B-BALANCA",
      "house": "",
      "postcode": "8600-174",
      "city": "LUZ LGS",
      "lon": "-8.73350683387146",
      "lat": "37.08813092310115"
    },
    {
      "id": "pt.ine.add.PTCONT.1548159",
      "street": "R CEMITÉRIO B-BALANCA",
      "house": "",
      "postcode": "8600-174",
      "city": "LUZ LGS",
      "lon": "-8.73350683387146",
      "lat": "37.08813092310115"
    },
    {
      "id": "pt.ine.add.PTCONT.1548160",
      "street": "R CEMITÉRIO B-BALANCA",
      "house": "",
      "postcode": "8600-174",
      "city": "LUZ LGS",
      "lon": "-8.73350683387146",
      "lat": "37.08813092310115"
    },
    {
      "id": "pt.ine.add.PTCONT.1548161",
      "street": "R CEMITÉRIO B-BALANCA",
      "house": "",
      "postcode": "8600-174",
      "city": "LUZ LGS",
      "lon": "-8.73350683387146",
      "lat": "37.08813092310115"
    },
    {
      "id": "pt.ine.add.PTCONT.1548162",
      "street": "R CEMITÉRIO B-BALANCA",
      "house": "",
      "postcode": "8600-174",
      "city": "LUZ LGS",
      "lon": "-8.73350683387146",
      "lat": "37.08813092310115"
    },
    {
      "id": "pt.ine.add.PTCONT.1548163",
      "street": "R CEMITÉRIO B-BALANCA",
      "house": "",
      "postcode": "8600-174",
      "city": "LUZ LGS",
      "lon": "-8.73350683387146",
      "lat": "37.08813092310115"
    },
    {
      "id": "pt.ine.add.PTCONT.1548164",
      "street": "R CEMITÉRIO B-BALANCA",
      "house": "",
      "postcode": "8600-174",
      "city": "LUZ LGS",
      "lon": "-8.73350683387146",
      "lat": "37.08813092310115"
    },
    {
      "id": "pt.ine.add.PTCONT.1548165",
      "street": "R CEMITÉRIO B-BALANCA",
      "house": "",
      "postcode": "8600-174",
      "city": "LUZ LGS",
      "lon": "-8.73350683387146",
      "lat": "37.08813092310115"
    },
    {
      "id": "pt.ine.add.PTCONT.1548166",
      "street": "R CEMITÉRIO B-BALANCA",
      "house": "",
      "postcode": "8600-174",
      "city": "LUZ LGS",
      "lon": "-8.73350683387146",
      "lat": "37.08813092310115"
    },
    {
      "id": "pt.ine.add.PTCONT.1548167",
      "street": "R CEMITÉRIO B-BALANCA",
      "house": "",
      "postcode": "8600-174",
      "city": "LUZ LGS",
      "lon": "-8.73350683387146",
      "lat": "37.08813092310115"
    },
    {
      "id": "pt.ine.add.PTCONT.1548168",
      "street": "R CEMITÉRIO B-BALANCA",
      "house": "",
      "postcode": "8600-174",
      "city": "LUZ LGS",
      "lon": "-8.73350683387146",
      "lat": "37.08813092310115"
    },
    {
      "id": "pt.ine.add.PTCONT.1548169",
      "street": "R CEMITÉRIO B-BALANCA",
      "house": "",
      "postcode": "8600-174",
      "city": "LUZ LGS",
      "lon": "-8.73350683387146",
      "lat": "37.08813092310115"
    },
    {
      "id": "pt.ine.add.PTCONT.1548170",
      "street": "R CEMITÉRIO B-BALANCA",
      "house": "",
      "postcode": "8600-174",
      "city": "LUZ LGS",
      "lon": "-8.73350683387146",
      "lat": "37.08813092310115"
    },
    {
      "id": "pt.ine.add.PTCONT.1548171",
      "street": "R CEMITÉRIO B-BALANCA",
      "house": "",
      "postcode": "8600-174",
      "city": "LUZ LGS",
      "lon": "-8.73350683387146",
      "lat": "37.08813092310115"
    },
    {
      "id": "pt.ine.add.PTCONT.1548172",
      "street": "R CEMITÉRIO B-BALANCA",
      "house": "",
      "postcode": "8600-174",
      "city": "LUZ LGS",
      "lon": "-8.73350683387146",
      "lat": "37.08813092310115"
    },
    {
      "id": "pt.ine.add.PTCONT.1548173",
      "street": "R CEMITÉRIO B-BALANCA",
      "house": "",
      "postcode": "8600-174",
      "city": "LUZ LGS",
      "lon": "-8.73350683387146",
      "lat": "37.08813092310115"
    },
    {
      "id": "pt.ine.add.PTCONT.1548174",
      "street": "R CEMITÉRIO B-BALANCA",
      "house": "",
      "postcode": "8600-174",
      "city": "LUZ LGS",
      "lon": "-8.73350683387146",
      "lat": "37.08813092310115"
    },
    {
      "id": "pt.ine.add.PTCONT.1548175",
      "street": "R CEMITÉRIO B-BALANCA",
      "house": "",
      "postcode": "8600-174",
      "city": "LUZ LGS",
      "lon": "-8.73350683387146",
      "lat": "37.08813092310115"
    },
    {
      "id": "pt.ine.add.PTCONT.1548176",
      "street": "R CEMITÉRIO B-BALANCA",
      "house": "",
      "postcode": "8600-174",
      "city": "LUZ LGS",
      "lon": "-8.73350683387146",
      "lat": "37.08813092310115"
    },
    {
      "id": "pt.ine.add.PTCONT.1548177",
      "street": "R CEMITÉRIO B-BALANCA",
      "house": "",
      "postcode": "8600-174",
      "city": "LUZ LGS",
      "lon": "-8.73350683387146",
      "lat": "37.08813092310115"
    },
    {
      "id": "pt.ine.add.PTCONT.1548178",
      "street": "R CEMITÉRIO B-BALANCA",
      "house": "",
      "postcode": "8600-174",
      "city": "LUZ LGS",
      "lon": "-8.73350683387146",
      "lat": "37.08813092310115"
    },
    {
      "id": "pt.ine.add.PTCONT.1548179",
      "street": "R CEMITÉRIO B-BALANCA",
      "house": "",
      "postcode": "8600-174",
      "city": "LUZ LGS",
      "lon": "-8.73350683387146",
      "lat": "37.08813092310115"
    },
    {
      "id": "pt.ine.add.PTCONT.1548180",
      "street": "R CEMITÉRIO B-BALANCA",
      "house": "",
      "postcode": "8600-174",
      "city": "LUZ LGS",
      "lon": "-8.73350683387146",
      "lat": "37.08813092310115"
    },
    {
      "id": "pt.ine.add.PTCONT.1548181",
      "street": "R CEMITÉRIO B-BALANCA",
      "house": "",
      "postcode": "8600-174",
      "city": "LUZ LGS",
      "lon": "-8.73350683387146",
      "lat": "37.08813092310115"
    },
    {
      "id": "pt.ine.add.PTCONT.1548182",
      "street": "R CEMITÉRIO B-BALANCA",
      "house": "",
      "postcode": "8600-174",
      "city": "LUZ LGS",
      "lon": "-8.73350683387146",
      "lat": "37.08813092310115"
    },
    {
      "id": "pt.ine.add.PTCONT.1549780",
      "street": "R CEMITÉRIO B-BALANCA",
      "house": "",
      "postcode": "8600-174",
      "city": "LUZ LGS",
      "lon": "-8.73350683387146",
      "lat": "37.08813092310115"
    },
    {
      "id": "pt.ine.add.PTCONT.1624081",
      "street": "ESTRELA DA LUZ",
      "house": "",
      "postcode": "8600-174",
      "city": "LUZ LGS",
      "lon": "-8.733088569405943",
      "lat": "37.08786272330095"
    },
    {
      "id": "pt.ine.add.PTCONT.1624082",
      "street": "ESTRELA DA LUZ",
      "house": "",
      "postcode": "8600-174",
      "city": "LUZ LGS",
      "lon": "-8.733088569405943",
      "lat": "37.08786272330095"
    },
    {
      "id": "pt.ine.add.PTCONT.1624083",
      "street": "ESTRELA DA LUZ",
      "house": "",
      "postcode": "8600-174",
      "city": "LUZ LGS",
      "lon": "-8.733088569405943",
      "lat": "37.08786272330095"
    },
    {
      "id": "pt.ine.add.PTCONT.1624084",
      "street": "ESTRELA DA LUZ",
      "house": "",
      "postcode": "8600-174",
      "city": "LUZ LGS",
      "lon": "-8.733088569405943",
      "lat": "37.08786272330095"
    },
    {
      "id": "pt.ine.add.PTCONT.1624085",
      "street": "ESTRELA DA LUZ",
      "house": "",
      "postcode": "8600-174",
      "city": "LUZ LGS",
      "lon": "-8.733088569405943",
      "lat": "37.08786272330095"
    },
    {
      "id": "pt.ine.add.PTCONT.1624086",
      "street": "ESTRELA DA LUZ",
      "house": "",
      "postcode": "8600-174",
      "city": "LUZ LGS",
      "lon": "-8.733088569405943",
      "lat": "37.08786272330095"
    },
    {
      "id": "pt.ine.add.PTCONT.1624087",
      "street": "ESTRELA DA LUZ",
      "house": "",
      "postcode": "8600-174",
      "city": "LUZ LGS",
      "lon": "-8.733088569405943",
      "lat": "37.08786272330095"
    },
    {
      "id": "pt.ine.add.PTCONT.1624190",
      "street": "ESTRELA DA LUZ",
      "house": "",
      "postcode": "8600-174",
      "city": "LUZ LGS",
      "lon": "-8.733088569405943",
      "lat": "37.08786272330095"
    },
    {
      "id": "pt.ine.add.PTCONT.1624191",
      "street": "ESTRELA DA LUZ",
      "house": "",
      "postcode": "8600-174",
      "city": "LUZ LGS",
      "lon": "-8.733088569405943",
      "lat": "37.08786272330095"
    },
    {
      "id": "pt.ine.add.PTCONT.1624192",
      "street": "ESTRELA DA LUZ",
      "house": "",
      "postcode": "8600-174",
      "city": "LUZ LGS",
      "lon": "-8.733088569405943",
      "lat": "37.08786272330095"
    },
    {
      "id": "pt.ine.add.PTCONT.1624193",
      "street": "ESTRELA DA LUZ",
      "house": "",
      "postcode": "8600-174",
      "city": "LUZ LGS",
      "lon": "-8.733088569405943",
      "lat": "37.08786272330095"
    },
    {
      "id": "pt.ine.add.PTCONT.1624194",
      "street": "ESTRELA DA LUZ",
      "house": "",
      "postcode": "8600-174",
      "city": "LUZ LGS",
      "lon": "-8.733088569405943",
      "lat": "37.08786272330095"
    },
    {
      "id": "pt.ine.add.PTCONT.1624195",
      "street": "ESTRELA DA LUZ",
      "house": "",
      "postcode": "8600-174",
      "city": "LUZ LGS",
      "lon": "-8.733088569405943",
      "lat": "37.08786272330095"
    },
    {
      "id": "pt.ine.add.PTCONT.1624196",
      "street": "ESTRELA DA LUZ",
      "house": "",
      "postcode": "8600-174",
      "city": "LUZ LGS",
      "lon": "-8.733088569405943",
      "lat": "37.08786272330095"
    },
    {
      "id": "pt.ine.add.PTCONT.1624197",
      "street": "ESTRELA DA LUZ",
      "house": "",
      "postcode": "8600-174",
      "city": "LUZ LGS",
      "lon": "-8.733088569405943",
      "lat": "37.08786272330095"
    },
    {
      "id": "pt.ine.add.PTCONT.1624198",
      "street": "ESTRELA DA LUZ",
      "house": "",
      "postcode": "8600-174",
      "city": "LUZ LGS",
      "lon": "-8.733088569405943",
      "lat": "37.08786272330095"
    },
    {
      "id": "pt.ine.add.PTCONT.1624199",
      "street": "ESTRELA DA LUZ",
      "house": "",
      "postcode": "8600-174",
      "city": "LUZ LGS",
      "lon": "-8.733088569405943",
      "lat": "37.08786272330095"
    },
    {
      "id": "pt.ine.add.PTCONT.1624200",
      "street": "ESTRELA DA LUZ",
      "house": "",
      "postcode": "8600-174",
      "city": "LUZ LGS",
      "lon": "-8.733088569405943",
      "lat": "37.08786272330095"
    },
    {
      "id": "pt.ine.add.PTCONT.1624201",
      "street": "ESTRELA DA LUZ",
      "house": "",
      "postcode": "8600-174",
      "city": "LUZ LGS",
      "lon": "-8.733088569405943",
      "lat": "37.08786272330095"
    },
    {
      "id": "pt.ine.add.PTCONT.1624202",
      "street": "ESTRELA DA LUZ",
      "house": "",
      "postcode": "8600-174",
      "city": "LUZ LGS",
      "lon": "-8.733088569405943",
      "lat": "37.08786272330095"
    },
    {
      "id": "pt.ine.add.PTCONT.1624203",
      "street": "ESTRELA DA LUZ",
      "house": "",
      "postcode": "8600-174",
      "city": "LUZ LGS",
      "lon": "-8.733088569405943",
      "lat": "37.08786272330095"
    },
    {
      "id": "pt.ine.add.PTCONT.1624204",
      "street": "ESTRELA LUZ",
      "house": "3B",
      "postcode": "8600-174",
      "city": "LUZ LGS",
      "lon": "-8.733088569405943",
      "lat": "37.08786272330095"
    },
    {
      "id": "pt.ine.add.PTCONT.1624205",
      "street": "ESTRELA DA LUZ",
      "house": "",
      "postcode": "8600-174",
      "city": "LUZ LGS",
      "lon": "-8.733088569405943",
      "lat": "37.08786272330095"
    },
    {
      "id": "pt.ine.add.PTCONT.1624206",
      "street": "ESTRELA DA LUZ",
      "house": "",
      "postcode": "8600-174",
      "city": "LUZ LGS",
      "lon": "-8.733088569405943",
      "lat": "37.08786272330095"
    },
    {
      "id": "pt.ine.add.PTCONT.1624207",
      "street": "ESTRELA DA LUZ",
      "house": "",
      "postcode": "8600-174",
      "city": "LUZ LGS",
      "lon": "-8.733088569405943",
      "lat": "37.08786272330095"
    },
    {
      "id": "pt.ine.add.PTCONT.1624318",
      "street": "ESTRELA DA LUZ",
      "house": "",
      "postcode": "8600-174",
      "city": "LUZ LGS",
      "lon": "-8.733088569405943",
      "lat": "37.08786272330095"
    },
    {
      "id": "pt.ine.add.PTCONT.1624319",
      "street": "ESTRELA DA LUZ",
      "house": "",
      "postcode": "8600-174",
      "city": "LUZ LGS",
      "lon": "-8.733088569405943",
      "lat": "37.08786272330095"
    },
    {
      "id": "pt.ine.add.PTCONT.1639521",
      "street": "R PROF MANUEL AUGUSTO ALVES CATARINO",
      "house": "",
      "postcode": "8600-136",
      "city": "LUZ LGS",
      "lon": "-8.732939307505848",
      "lat": "37.08747602450507"
    },
    {
      "id": "pt.ine.add.PTCONT.1639522",
      "street": "R PROF MANUEL AUGUSTO ALVES CATARINO",
      "house": "",
      "postcode": "8600-136",
      "city": "LUZ LGS",
      "lon": "-8.732939307505848",
      "lat": "37.08747602450507"
    },
    {
      "id": "pt.ine.add.PTCONT.1639523",
      "street": "R PROF MANUEL AUGUSTO ALVES CATARINO",
      "house": "",
      "postcode": "8600-136",
      "city": "LUZ LGS",
      "lon": "-8.732939307505848",
      "lat": "37.08747602450507"
    },
    {
      "id": "pt.ine.add.PTCONT.1639524",
      "street": "R PROF MANUEL AUGUSTO ALVES CATARINO",
      "house": "",
      "postcode": "8600-136",
      "city": "LUZ LGS",
      "lon": "-8.732939307505848",
      "lat": "37.08747602450507"
    },
    {
      "id": "pt.ine.add.PTCONT.1639525",
      "street": "R PROF MANUEL AUGUSTO ALVES CATARINO",
      "house": "",
      "postcode": "8600-136",
      "city": "LUZ LGS",
      "lon": "-8.732939307505848",
      "lat": "37.08747602450507"
    },
    {
      "id": "pt.ine.add.PTCONT.1639526",
      "street": "R PROF MANUEL AUGUSTO ALVES CATARINO",
      "house": "",
      "postcode": "8600-136",
      "city": "LUZ LGS",
      "lon": "-8.732939307505848",
      "lat": "37.08747602450507"
    },
    {
      "id": "pt.ine.add.PTCONT.1639527",
      "street": "R PROF MANUEL AUGUSTO ALVES CATARINO",
      "house": "",
      "postcode": "8600-136",
      "city": "LUZ LGS",
      "lon": "-8.732939307505848",
      "lat": "37.08747602450507"
    },
    {
      "id": "pt.ine.add.PTCONT.1639528",
      "street": "R PROF MANUEL AUGUSTO ALVES CATARINO",
      "house": "",
      "postcode": "8600-136",
      "city": "LUZ LGS",
      "lon": "-8.732939307505848",
      "lat": "37.08747602450507"
    },
    {
      "id": "pt.ine.add.PTCONT.1639529",
      "street": "R PROF MANUEL AUGUSTO ALVES CATARINO",
      "house": "",
      "postcode": "8600-136",
      "city": "LUZ LGS",
      "lon": "-8.732939307505848",
      "lat": "37.08747602450507"
    },
    {
      "id": "pt.ine.add.PTCONT.1639530",
      "street": "R PROF MANUEL AUGUSTO ALVES CATARINO",
      "house": "",
      "postcode": "8600-136",
      "city": "LUZ LGS",
      "lon": "-8.732939307505848",
      "lat": "37.08747602450507"
    },
    {
      "id": "pt.ine.add.PTCONT.1639531",
      "street": "R PROF MANUEL AUGUSTO ALVES CATARINO",
      "house": "",
      "postcode": "8600-136",
      "city": "LUZ LGS",
      "lon": "-8.732939307505848",
      "lat": "37.08747602450507"
    },
    {
      "id": "pt.ine.add.PTCONT.1639532",
      "street": "R PROF MANUEL AUGUSTO ALVES CATARINO",
      "house": "",
      "postcode": "8600-136",
      "city": "LUZ LGS",
      "lon": "-8.732939307505848",
      "lat": "37.08747602450507"
    },
    {
      "id": "pt.ine.add.PTCONT.1639636",
      "street": "R PROF MANUEL AUGUSTO ALVES CATARINO",
      "house": "",
      "postcode": "8600-136",
      "city": "LUZ LGS",
      "lon": "-8.732939307505848",
      "lat": "37.08747602450507"
    },
    {
      "id": "pt.ine.add.PTCONT.1639637",
      "street": "R PROF MANUEL AUGUSTO ALVES CATARINO",
      "house": "",
      "postcode": "8600-136",
      "city": "LUZ LGS",
      "lon": "-8.732939307505848",
      "lat": "37.08747602450507"
    },
    {
      "id": "pt.ine.add.PTCONT.1639638",
      "street": "R PROF MANUEL AUGUSTO ALVES CATARINO",
      "house": "",
      "postcode": "8600-136",
      "city": "LUZ LGS",
      "lon": "-8.732939307505848",
      "lat": "37.08747602450507"
    },
    {
      "id": "pt.ine.add.PTCONT.1639639",
      "street": "R PROF MANUEL AUGUSTO ALVES CATARINO",
      "house": "",
      "postcode": "8600-136",
      "city": "LUZ LGS",
      "lon": "-8.732939307505848",
      "lat": "37.08747602450507"
    },
    {
      "id": "pt.ine.add.PTCONT.1639640",
      "street": "R PROF MANUEL AUGUSTO ALVES CATARINO",
      "house": "",
      "postcode": "8600-136",
      "city": "LUZ LGS",
      "lon": "-8.732939307505848",
      "lat": "37.08747602450507"
    },
    {
      "id": "pt.ine.add.PTCONT.1639641",
      "street": "R PROF MANUEL AUGUSTO ALVES CATARINO",
      "house": "",
      "postcode": "8600-136",
      "city": "LUZ LGS",
      "lon": "-8.732939307505848",
      "lat": "37.08747602450507"
    },
    {
      "id": "pt.ine.add.PTCONT.1639642",
      "street": "R PROF MANUEL AUGUSTO ALVES CATARINO",
      "house": "",
      "postcode": "8600-136",
      "city": "LUZ LGS",
      "lon": "-8.732939307505848",
      "lat": "37.08747602450507"
    },
    {
      "id": "pt.ine.add.PTCONT.1639643",
      "street": "R PROF MANUEL AUGUSTO ALVES CATARINO",
      "house": "",
      "postcode": "8600-136",
      "city": "LUZ LGS",
      "lon": "-8.732939307505848",
      "lat": "37.08747602450507"
    },
    {
      "id": "pt.ine.add.PTCONT.1639644",
      "street": "R PROF MANUEL AUGUSTO ALVES CATARINO",
      "house": "",
      "postcode": "8600-136",
      "city": "LUZ LGS",
      "lon": "-8.732939307505848",
      "lat": "37.08747602450507"
    },
    {
      "id": "pt.ine.add.PTCONT.1639645",
      "street": "R PROF MANUEL AUGUSTO ALVES CATARINO",
      "house": "",
      "postcode": "8600-136",
      "city": "LUZ LGS",
      "lon": "-8.732939307505848",
      "lat": "37.08747602450507"
    },
    {
      "id": "pt.ine.add.PTCONT.1639646",
      "street": "R PROF MANUEL AUGUSTO ALVES CATARINO",
      "house": "",
      "postcode": "8600-136",
      "city": "LUZ LGS",
      "lon": "-8.732939307505848",
      "lat": "37.08747602450507"
    },
    {
      "id": "pt.ine.add.PTCONT.1639647",
      "street": "R PROF MANUEL AUGUSTO ALVES CATARINO",
      "house": "",
      "postcode": "8600-136",
      "city": "LUZ LGS",
      "lon": "-8.732939307505848",
      "lat": "37.08747602450507"
    },
    {
      "id": "pt.ine.add.PTCONT.1639648",
      "street": "R PROF MANUEL AUGUSTO ALVES CATARINO",
      "house": "",
      "postcode": "8600-136",
      "city": "LUZ LGS",
      "lon": "-8.732939307505848",
      "lat": "37.08747602450507"
    },
    {
      "id": "pt.ine.add.PTCONT.1640096",
      "street": "R PROF MANUEL AUGUSTO ALVES CATARINO",
      "house": "",
      "postcode": "8600-136",
      "city": "LUZ LGS",
      "lon": "-8.732939307505848",
      "lat": "37.08747602450507"
    },
    {
      "id": "pt.ine.add.PTCONT.1640116",
      "street": "R PROF MANUEL AUGUSTO ALVES CATARINO",
      "house": "",
      "postcode": "8600-136",
      "city": "LUZ LGS",
      "lon": "-8.732939307505848",
      "lat": "37.08747602450507"
    },
    {
      "id": "pt.ine.add.PTCONT.1640117",
      "street": "R PROF MANUEL AUGUSTO ALVES CATARINO",
      "house": "",
      "postcode": "8600-136",
      "city": "LUZ LGS",
      "lon": "-8.732939307505848",
      "lat": "37.08747602450507"
    },
    {
      "id": "pt.ine.add.PTCONT.1673362",
      "street": "R ESCOLA PRIMARIA CASA NIOBE",
      "house": "",
      "postcode": "8600-155",
      "city": "LUZ LGS",
      "lon": "-8.732180697371161",
      "lat": "37.08826377730325"
    },
    {
      "id": "pt.ine.add.PTCONT.1730275",
      "street": "R CEMITÉRIO",
      "house": "",
      "postcode": "8600-174",
      "city": "LUZ LGS",
      "lon": "-8.73420214656607",
      "lat": "37.087875105391156"
    },
    {
      "id": "pt.ine.add.PTCONT.1730276",
      "street": "R CEMITÉRIO",
      "house": "",
      "postcode": "8600-174",
      "city": "LUZ LGS",
      "lon": "-8.73420214656607",
      "lat": "37.087875105391156"
    },
    {
      "id": "pt.ine.add.PTCONT.1730277",
      "street": "R CEMITÉRIO",
      "house": "",
      "postcode": "8600-174",
      "city": "LUZ LGS",
      "lon": "-8.73420214656607",
      "lat": "37.087875105391156"
    },
    {
      "id": "pt.ine.add.PTCONT.1730278",
      "street": "R CEMITÉRIO",
      "house": "",
      "postcode": "8600-174",
      "city": "LUZ LGS",
      "lon": "-8.73420214656607",
      "lat": "37.087875105391156"
    },
    {
      "id": "pt.ine.add.PTCONT.1730279",
      "street": "R CEMITÉRIO",
      "house": "",
      "postcode": "8600-174",
      "city": "LUZ LGS",
      "lon": "-8.73420214656607",
      "lat": "37.087875105391156"
    },
    {
      "id": "pt.ine.add.PTCONT.1730280",
      "street": "R CEMITÉRIO",
      "house": "",
      "postcode": "8600-174",
      "city": "LUZ LGS",
      "lon": "-8.73420214656607",
      "lat": "37.087875105391156"
    },
    {
      "id": "pt.ine.add.PTCONT.1730282",
      "street": "R CEMITÉRIO",
      "house": "",
      "postcode": "8600-174",
      "city": "LUZ LGS",
      "lon": "-8.73420214656607",
      "lat": "37.087875105391156"
    },
    {
      "id": "pt.ine.add.PTCONT.1730283",
      "street": "R CEMITÉRIO",
      "house": "",
      "postcode": "8600-174",
      "city": "LUZ LGS",
      "lon": "-8.73420214656607",
      "lat": "37.087875105391156"
    },
    {
      "id": "pt.ine.add.PTCONT.1730284",
      "street": "R CEMITÉRIO",
      "house": "",
      "postcode": "8600-174",
      "city": "LUZ LGS",
      "lon": "-8.73420214656607",
      "lat": "37.087875105391156"
    },
    {
      "id": "pt.ine.add.PTCONT.1730285",
      "street": "R CEMITÉRIO",
      "house": "",
      "postcode": "8600-174",
      "city": "LUZ LGS",
      "lon": "-8.73420214656607",
      "lat": "37.087875105391156"
    },
    {
      "id": "pt.ine.add.PTCONT.1730286",
      "street": "R CEMITÉRIO",
      "house": "",
      "postcode": "8600-174",
      "city": "LUZ LGS",
      "lon": "-8.73420214656607",
      "lat": "37.087875105391156"
    },
    {
      "id": "pt.ine.add.PTCONT.1730287",
      "street": "R CEMITÉRIO",
      "house": "",
      "postcode": "8600-174",
      "city": "LUZ LGS",
      "lon": "-8.73420214656607",
      "lat": "37.087875105391156"
    },
    {
      "id": "pt.ine.add.PTCONT.1730288",
      "street": "R CEMITÉRIO",
      "house": "",
      "postcode": "8600-174",
      "city": "LUZ LGS",
      "lon": "-8.73420214656607",
      "lat": "37.087875105391156"
    },
    {
      "id": "pt.ine.add.PTCONT.1730289",
      "street": "R CEMITÉRIO",
      "house": "",
      "postcode": "8600-174",
      "city": "LUZ LGS",
      "lon": "-8.73420214656607",
      "lat": "37.087875105391156"
    },
    {
      "id": "pt.ine.add.PTCONT.1730290",
      "street": "R CEMITÉRIO",
      "house": "",
      "postcode": "8600-174",
      "city": "LUZ LGS",
      "lon": "-8.73420214656607",
      "lat": "37.087875105391156"
    },
    {
      "id": "pt.ine.add.PTCONT.1730291",
      "street": "R CEMITÉRIO",
      "house": "",
      "postcode": "8600-174",
      "city": "LUZ LGS",
      "lon": "-8.73420214656607",
      "lat": "37.087875105391156"
    },
    {
      "id": "pt.ine.add.PTCONT.1730292",
      "street": "R CEMITÉRIO",
      "house": "",
      "postcode": "8600-174",
      "city": "LUZ LGS",
      "lon": "-8.73420214656607",
      "lat": "37.087875105391156"
    },
    {
      "id": "pt.ine.add.PTCONT.1730293",
      "street": "R CEMITÉRIO",
      "house": "",
      "postcode": "8600-174",
      "city": "LUZ LGS",
      "lon": "-8.73420214656607",
      "lat": "37.087875105391156"
    },
    {
      "id": "pt.ine.add.PTCONT.1730294",
      "street": "R CEMITÉRIO",
      "house": "",
      "postcode": "8600-174",
      "city": "LUZ LGS",
      "lon": "-8.73420214656607",
      "lat": "37.087875105391156"
    },
    {
      "id": "pt.ine.add.PTCONT.1730295",
      "street": "R CEMITÉRIO",
      "house": "",
      "postcode": "8600-174",
      "city": "LUZ LGS",
      "lon": "-8.73420214656607",
      "lat": "37.087875105391156"
    },
    {
      "id": "pt.ine.add.PTCONT.1730296",
      "street": "R CEMITÉRIO",
      "house": "",
      "postcode": "8600-174",
      "city": "LUZ LGS",
      "lon": "-8.73420214656607",
      "lat": "37.087875105391156"
    },
    {
      "id": "pt.ine.add.PTCONT.1730299",
      "street": "R CEMITÉRIO",
      "house": "",
      "postcode": "8600-174",
      "city": "LUZ LGS",
      "lon": "-8.73420214656607",
      "lat": "37.087875105391156"
    },
    {
      "id": "pt.ine.add.PTCONT.1730300",
      "street": "R CEMITÉRIO",
      "house": "",
      "postcode": "8600-174",
      "city": "LUZ LGS",
      "lon": "-8.73420214656607",
      "lat": "37.087875105391156"
    },
    {
      "id": "pt.ine.add.PTCONT.1730301",
      "street": "R CEMITÉRIO",
      "house": "",
      "postcode": "8600-174",
      "city": "LUZ LGS",
      "lon": "-8.73420214656607",
      "lat": "37.087875105391156"
    },
    {
      "id": "pt.ine.add.PTCONT.1730302",
      "street": "R CEMITÉRIO",
      "house": "",
      "postcode": "8600-174",
      "city": "LUZ LGS",
      "lon": "-8.73420214656607",
      "lat": "37.087875105391156"
    },
    {
      "id": "pt.ine.add.PTCONT.1730303",
      "street": "R CEMITÉRIO",
      "house": "",
      "postcode": "8600-174",
      "city": "LUZ LGS",
      "lon": "-8.73420214656607",
      "lat": "37.087875105391156"
    },
    {
      "id": "pt.ine.add.PTCONT.1730304",
      "street": "R CEMITÉRIO",
      "house": "",
      "postcode": "8600-174",
      "city": "LUZ LGS",
      "lon": "-8.73420214656607",
      "lat": "37.087875105391156"
    },
    {
      "id": "pt.ine.add.PTCONT.1730305",
      "street": "R CEMITÉRIO",
      "house": "",
      "postcode": "8600-174",
      "city": "LUZ LGS",
      "lon": "-8.73420214656607",
      "lat": "37.087875105391156"
    },
    {
      "id": "pt.ine.add.PTCONT.1730306",
      "street": "R CEMITÉRIO",
      "house": "",
      "postcode": "8600-174",
      "city": "LUZ LGS",
      "lon": "-8.73420214656607",
      "lat": "37.087875105391156"
    },
    {
      "id": "pt.ine.add.PTCONT.1730307",
      "street": "R CEMITÉRIO",
      "house": "",
      "postcode": "8600-174",
      "city": "LUZ LGS",
      "lon": "-8.73420214656607",
      "lat": "37.087875105391156"
    },
    {
      "id": "pt.ine.add.PTCONT.1730308",
      "street": "R CEMITÉRIO",
      "house": "",
      "postcode": "8600-174",
      "city": "LUZ LGS",
      "lon": "-8.73420214656607",
      "lat": "37.087875105391156"
    },
    {
      "id": "pt.ine.add.PTCONT.1730309",
      "street": "R CEMITÉRIO",
      "house": "",
      "postcode": "8600-174",
      "city": "LUZ LGS",
      "lon": "-8.73420214656607",
      "lat": "37.087875105391156"
    },
    {
      "id": "pt.ine.add.PTCONT.1731853",
      "street": "R CEMITÉRIO",
      "house": "",
      "postcode": "8600-174",
      "city": "LUZ LGS",
      "lon": "-8.73420214656607",
      "lat": "37.087875105391156"
    },
    {
      "id": "pt.ine.add.PTCONT.1731857",
      "street": "R CEMITÉRIO",
      "house": "",
      "postcode": "8600-174",
      "city": "LUZ LGS",
      "lon": "-8.73420214656607",
      "lat": "37.087875105391156"
    },
    {
      "id": "pt.ine.add.PTCONT.1841099",
      "street": "ESTRELA DA LUZ",
      "house": "",
      "postcode": "8600-174",
      "city": "LUZ LGS",
      "lon": "-8.733088569405943",
      "lat": "37.08786272330095"
    },
    {
      "id": "pt.ine.add.PTCONT.1845062",
      "street": "R CEMITÉRIO",
      "house": "",
      "postcode": "8600-174",
      "city": "LUZ LGS",
      "lon": "-8.73420214656607",
      "lat": "37.087875105391156"
    },
    {
      "id": "pt.ine.add.PTCONT.1845063",
      "street": "R CEMITÉRIO",
      "house": "",
      "postcode": "8600-174",
      "city": "LUZ LGS",
      "lon": "-8.73420214656607",
      "lat": "37.087875105391156"
    },
    {
      "id": "pt.ine.add.PTCONT.1847868",
      "street": "R CEMITÉRIO B-BALANCA",
      "house": "",
      "postcode": "8600-174",
      "city": "LUZ LGS",
      "lon": "-8.73350683387146",
      "lat": "37.08813092310115"
    }
  ]
}