{
  "data": {
    "distrito": "Faro",
    "concelho": "Loul√©",
    "freguesia": "Almancil",
    "OBJECTID": 588,
    "BGRI2021": "08080101708",
    "DT21": "08",
    "DTMN21": "0808",
    "DTMNFR21": "080801",
    "DTMNFRSEC21": "080801017",
    "SECNUM21": "017",
    "SSNUM21": "08",
    "SECSSNUM21": "01708",
    "OBJECTID_1": 68440,
    "DT": "08",
    "CC": "08",
    "fr": "01",
    "SEC": "017",
    "SS": "08"
  },
  "addresses": [
    {
      "id": "pt.ine.add.PTCONT.1496383",
      "street": "R VAN ZANDEN",
      "house": "24",
      "postcode": "8135-171",
      "city": "ALMANCIL",
      "lon": "-8.02265042854819",
      "lat": "37.0624320203639"
    },
    {
      "id": "pt.ine.add.PTCONT.1496384",
      "street": "R VAN ZANDEN",
      "house": "28",
      "postcode": "8135-171",
      "city": "ALMANCIL",
      "lon": "-8.022112413166129",
      "lat": "37.06127814535356"
    },
    {
      "id": "pt.ine.add.PTCONT.1510922",
      "street": "R VAN ZANDEN CASA KOYI",
      "house": "",
      "postcode": "8135-171",
      "city": "ALMANCIL",
      "lon": "-8.020415019460613",
      "lat": "37.06102424468249"
    },
    {
      "id": "pt.ine.add.PTCONT.1510923",
      "street": "R VAN ZANDEN",
      "house": "34",
      "postcode": "8135-171",
      "city": "ALMANCIL",
      "lon": "-8.022100395096052",
      "lat": "37.06180976692055"
    },
    {
      "id": "pt.ine.add.PTCONT.1510925",
      "street": "R VAN ZANDEN",
      "house": "25",
      "postcode": "8135-171",
      "city": "ALMANCIL",
      "lon": "-8.022617233346033",
      "lat": "37.0620625497408"
    },
    {
      "id": "pt.ine.add.PTCONT.1527518",
      "street": "R VAN ZANDEN",
      "house": "",
      "postcode": "8135-171",
      "city": "ALMANCIL",
      "lon": "-8.020190510990863",
      "lat": "37.060780741578625"
    },
    {
      "id": "pt.ine.add.PTCONT.1534146",
      "street": "R VAN ZANDEN",
      "house": "",
      "postcode": "8135-171",
      "city": "ALMANCIL",
      "lon": "-8.022583946961348",
      "lat": "37.06175615407843"
    },
    {
      "id": "pt.ine.add.PTCONT.1563957",
      "street": "R VAN ZANDEN",
      "house": "21",
      "postcode": "8135-171",
      "city": "ALMANCIL",
      "lon": "-8.023247550910115",
      "lat": "37.06159457744077"
    },
    {
      "id": "pt.ine.add.PTCONT.1566374",
      "street": "R VAN ZANDEN CASA GRUNBERG",
      "house": "37",
      "postcode": "8135-171",
      "city": "ALMANCIL",
      "lon": "-8.021302868698838",
      "lat": "37.06128639585249"
    },
    {
      "id": "pt.ine.add.PTCONT.1568047",
      "street": "R VAN ZANDEN CASA GRUNBERG",
      "house": "37",
      "postcode": "8135-171",
      "city": "ALMANCIL",
      "lon": "-8.021302868698838",
      "lat": "37.06128639585249"
    },
    {
      "id": "pt.ine.add.PTCONT.1573206",
      "street": "R VAN ZANDEN",
      "house": "",
      "postcode": "8135-171",
      "city": "ALMANCIL",
      "lon": "-8.023223842230154",
      "lat": "37.06244156363256"
    },
    {
      "id": "pt.ine.add.PTCONT.1592355",
      "street": "R VAN ZANDEN",
      "house": "39",
      "postcode": "8135-171",
      "city": "ALMANCIL",
      "lon": "-8.02078593381288",
      "lat": "37.06110569299796"
    },
    {
      "id": "pt.ine.add.PTCONT.1595107",
      "street": "R VAN ZANDEN",
      "house": "",
      "postcode": "8135-171",
      "city": "ALMANCIL",
      "lon": "-8.023190969236879",
      "lat": "37.061846825339735"
    },
    {
      "id": "pt.ine.add.PTCONT.1604593",
      "street": "R CORGO DE GONDRA",
      "house": "",
      "postcode": "8135-171",
      "city": "ALMANCIL",
      "lon": "-8.016983665757326",
      "lat": "37.06239957627464"
    },
    {
      "id": "pt.ine.add.PTCONT.1604594",
      "street": "R VAN ZANDEN",
      "house": "22",
      "postcode": "8135-171",
      "city": "ALMANCIL",
      "lon": "-8.022383278318468",
      "lat": "37.060575561809415"
    },
    {
      "id": "pt.ine.add.PTCONT.1631714",
      "street": "R VAN ZANDEN",
      "house": "101",
      "postcode": "8135-171",
      "city": "ALMANCIL",
      "lon": "-8.023304859417507",
      "lat": "37.060837729496654"
    },
    {
      "id": "pt.ine.add.PTCONT.1631715",
      "street": "R VAN ZANDEN",
      "house": "101",
      "postcode": "8135-171",
      "city": "ALMANCIL",
      "lon": "-8.023304859417507",
      "lat": "37.060837729496654"
    },
    {
      "id": "pt.ine.add.PTCONT.1638620",
      "street": "R VAN ZANDEN",
      "house": "16",
      "postcode": "8135-171",
      "city": "ALMANCIL",
      "lon": "-8.023155691035862",
      "lat": "37.06291906885562"
    },
    {
      "id": "pt.ine.add.PTCONT.1642973",
      "street": "R CORGO DE GONDRA CASA MERCURIOS",
      "house": "",
      "postcode": "8135-171",
      "city": "ALMANCIL",
      "lon": "-8.017106385565752",
      "lat": "37.063030446982836"
    },
    {
      "id": "pt.ine.add.PTCONT.1681547",
      "street": "R CORGO DE GONDRA",
      "house": "",
      "postcode": "8135-171",
      "city": "ALMANCIL",
      "lon": "-8.017747183609755",
      "lat": "37.06309414693912"
    },
    {
      "id": "pt.ine.add.PTCONT.1685489",
      "street": "SWAKELEYS",
      "house": "30",
      "postcode": "8135-171",
      "city": "ALMANCIL",
      "lon": "-8.02148329260285",
      "lat": "37.06092613671342"
    },
    {
      "id": "pt.ine.add.PTCONT.1687477",
      "street": "R VAN ZANDEN",
      "house": "",
      "postcode": "8135-171",
      "city": "ALMANCIL",
      "lon": "-8.02182038514955",
      "lat": "37.061070625050824"
    },
    {
      "id": "pt.ine.add.PTCONT.1695423",
      "street": "R CORGO DE GONDRA QTA S JOSE",
      "house": "",
      "postcode": "8135-171",
      "city": "ALMANCIL",
      "lon": "-8.016095749310255",
      "lat": "37.06218244638327"
    },
    {
      "id": "pt.ine.add.PTCONT.1695424",
      "street": "R VAN ZANDEN",
      "house": "35",
      "postcode": "8135-171",
      "city": "ALMANCIL",
      "lon": "-8.021842082531562",
      "lat": "37.06161128895916"
    },
    {
      "id": "pt.ine.add.PTCONT.1710263",
      "street": "R CORGO DE GONDRA",
      "house": "",
      "postcode": "8135-171",
      "city": "ALMANCIL",
      "lon": "-8.017162014622704",
      "lat": "37.063417962442685"
    },
    {
      "id": "pt.ine.add.PTCONT.1722596",
      "street": "R CORGO DE GONDRA",
      "house": "",
      "postcode": "8135-171",
      "city": "ALMANCIL",
      "lon": "-8.01708439208083",
      "lat": "37.062706039438915"
    },
    {
      "id": "pt.ine.add.PTCONT.1739020",
      "street": "R VAN ZANDEN",
      "house": "",
      "postcode": "8135-171",
      "city": "ALMANCIL",
      "lon": "-8.023077362304278",
      "lat": "37.06265768523693"
    },
    {
      "id": "pt.ine.add.PTCONT.1747749",
      "street": "R VAN ZANDEN",
      "house": "27",
      "postcode": "8135-171",
      "city": "ALMANCIL",
      "lon": "-8.022381903352157",
      "lat": "37.061521686799495"
    },
    {
      "id": "pt.ine.add.PTCONT.1751263",
      "street": "R VAN ZADEN",
      "house": "",
      "postcode": "8135-171",
      "city": "ALMANCIL",
      "lon": "-8.022067767512919",
      "lat": "37.06105283541641"
    },
    {
      "id": "pt.ine.add.PTCONT.1754896",
      "street": "R VAN ZANDEN",
      "house": "38",
      "postcode": "8135-171",
      "city": "ALMANCIL",
      "lon": "-8.021021913994387",
      "lat": "37.0611960234621"
    },
    {
      "id": "pt.ine.add.PTCONT.1757402",
      "street": "R VAN ZANDEN CASA SANTANA",
      "house": "31",
      "postcode": "8135-171",
      "city": "ALMANCIL",
      "lon": "-8.022214247202392",
      "lat": "37.06083671499976"
    },
    {
      "id": "pt.ine.add.PTCONT.1760455",
      "street": "R VAN ZANDEN",
      "house": "",
      "postcode": "8135-171",
      "city": "ALMANCIL",
      "lon": "-8.023225427709283",
      "lat": "37.06134225662671"
    },
    {
      "id": "pt.ine.add.PTCONT.1760456",
      "street": "R VAN ZANDEN",
      "house": "14 15",
      "postcode": "8135-171",
      "city": "ALMANCIL",
      "lon": "-8.023121569585722",
      "lat": "37.06318935892665"
    },
    {
      "id": "pt.ine.add.PTCONT.1767023",
      "street": "R VAN ZANDEN",
      "house": "22",
      "postcode": "8135-171",
      "city": "ALMANCIL",
      "lon": "-8.022302268235574",
      "lat": "37.06216137393069"
    },
    {
      "id": "pt.ine.add.PTCONT.1781775",
      "street": "R VAN ZANDEN QTA DAS AZINHEIRAS",
      "house": "54",
      "postcode": "8135-171",
      "city": "ALMANCIL",
      "lon": "-8.019391340889769",
      "lat": "37.06137468610877"
    },
    {
      "id": "pt.ine.add.PTCONT.1819954",
      "street": "R VAN ZANDEN",
      "house": "34",
      "postcode": "8135-171",
      "city": "ALMANCIL",
      "lon": "-8.021651245551048",
      "lat": "37.06140386312014"
    },
    {
      "id": "pt.ine.add.PTCONT.1828206",
      "street": "R VAN ZANDEN",
      "house": "19",
      "postcode": "8135-171",
      "city": "ALMANCIL",
      "lon": "-8.023224375064704",
      "lat": "37.062072124415685"
    },
    {
      "id": "pt.ine.add.PTCONT.1841227",
      "street": "R VAN ZANDEN CASA PAVAO",
      "house": "23",
      "postcode": "8135-171",
      "city": "ALMANCIL",
      "lon": "-8.022436432506499",
      "lat": "37.06268412118532"
    }
  ]
}