{
  "data": {
    "distrito": "Lisboa",
    "concelho": "Amadora",
    "freguesia": "Mina de √Ågua",
    "OBJECTID": 778,
    "BGRI2021": "11151601007",
    "DT21": "11",
    "DTMN21": "1115",
    "DTMNFR21": "111516",
    "DTMNFRSEC21": "111516010",
    "SECNUM21": "010",
    "SSNUM21": "07",
    "SECSSNUM21": "01007",
    "OBJECTID_1": 118961,
    "DT": "11",
    "CC": "15",
    "fr": "16",
    "SEC": "010",
    "SS": "07"
  },
  "addresses": [
    {
      "id": "pt.ine.add.PTCONT.2319790",
      "street": "R ALGARVE",
      "house": "37",
      "postcode": "2650-399",
      "city": "AMADORA",
      "lon": "-9.228559399240778",
      "lat": "38.79083856771122"
    },
    {
      "id": "pt.ine.add.PTCONT.2337781",
      "street": "AZ PLATANO",
      "house": "33",
      "postcode": "2650-149",
      "city": "AMADORA",
      "lon": "-9.229123070705224",
      "lat": "38.79006762567442"
    },
    {
      "id": "pt.ine.add.PTCONT.2337782",
      "street": "AZ PLATANO",
      "house": "33",
      "postcode": "2650-149",
      "city": "AMADORA",
      "lon": "-9.229123070705224",
      "lat": "38.79006762567442"
    },
    {
      "id": "pt.ine.add.PTCONT.2337783",
      "street": "AZ PLATANO",
      "house": "33",
      "postcode": "2650-149",
      "city": "AMADORA",
      "lon": "-9.229123070705224",
      "lat": "38.79006762567442"
    },
    {
      "id": "pt.ine.add.PTCONT.2364478",
      "street": "R ALGARVE",
      "house": "25",
      "postcode": "2650-399",
      "city": "AMADORA",
      "lon": "-9.227799749763884",
      "lat": "38.78933239026362"
    },
    {
      "id": "pt.ine.add.PTCONT.2364479",
      "street": "R ALGARVE",
      "house": "25",
      "postcode": "2650-399",
      "city": "AMADORA",
      "lon": "-9.227799749763884",
      "lat": "38.78933239026362"
    },
    {
      "id": "pt.ine.add.PTCONT.2364480",
      "street": "R ALGARVE",
      "house": "25",
      "postcode": "2650-399",
      "city": "AMADORA",
      "lon": "-9.227799749763884",
      "lat": "38.78933239026362"
    },
    {
      "id": "pt.ine.add.PTCONT.2364481",
      "street": "R ALGARVE",
      "house": "25",
      "postcode": "2650-399",
      "city": "AMADORA",
      "lon": "-9.227799749763884",
      "lat": "38.78933239026362"
    },
    {
      "id": "pt.ine.add.PTCONT.2496067",
      "street": "R ALGARVE",
      "house": "39",
      "postcode": "2650-399",
      "city": "AMADORA",
      "lon": "-9.228642298313112",
      "lat": "38.790990921683594"
    },
    {
      "id": "pt.ine.add.PTCONT.2496068",
      "street": "R ALGARVE",
      "house": "39",
      "postcode": "2650-399",
      "city": "AMADORA",
      "lon": "-9.228642298313112",
      "lat": "38.790990921683594"
    },
    {
      "id": "pt.ine.add.PTCONT.2496069",
      "street": "R ALGARVE",
      "house": "39",
      "postcode": "2650-399",
      "city": "AMADORA",
      "lon": "-9.228642298313112",
      "lat": "38.790990921683594"
    },
    {
      "id": "pt.ine.add.PTCONT.2511159",
      "street": "R ALGARVE",
      "house": "28",
      "postcode": "2650-399",
      "city": "AMADORA",
      "lon": "-9.228126098226902",
      "lat": "38.7895995639589"
    },
    {
      "id": "pt.ine.add.PTCONT.2538067",
      "street": "R ALGARVE",
      "house": "45",
      "postcode": "2650-399",
      "city": "AMADORA",
      "lon": "-9.229179328296992",
      "lat": "38.79223795785376"
    },
    {
      "id": "pt.ine.add.PTCONT.2601983",
      "street": "R ALGARVE",
      "house": "42",
      "postcode": "2650-399",
      "city": "AMADORA",
      "lon": "-9.22882015707892",
      "lat": "38.791331547205495"
    },
    {
      "id": "pt.ine.add.PTCONT.2601984",
      "street": "R ALGARVE",
      "house": "42",
      "postcode": "2650-399",
      "city": "AMADORA",
      "lon": "-9.22882015707892",
      "lat": "38.791331547205495"
    },
    {
      "id": "pt.ine.add.PTCONT.2628459",
      "street": "R ALGARVE",
      "house": "ZSA",
      "postcode": "2650-399",
      "city": "AMADORA",
      "lon": "-9.227583996356444",
      "lat": "38.78952357353878"
    },
    {
      "id": "pt.ine.add.PTCONT.2629348",
      "street": "R ALGARVE",
      "house": "",
      "postcode": "2650-399",
      "city": "AMADORA",
      "lon": "-9.228857025267432",
      "lat": "38.79148433265768"
    },
    {
      "id": "pt.ine.add.PTCONT.2629349",
      "street": "R ALGARVE",
      "house": "",
      "postcode": "2650-399",
      "city": "AMADORA",
      "lon": "-9.228857025267432",
      "lat": "38.79148433265768"
    },
    {
      "id": "pt.ine.add.PTCONT.2663295",
      "street": "AZ PLATANO",
      "house": "19",
      "postcode": "2650-149",
      "city": "AMADORA",
      "lon": "-9.229193023608603",
      "lat": "38.79087766414512"
    },
    {
      "id": "pt.ine.add.PTCONT.2671717",
      "street": "AZ PLATANO",
      "house": "23",
      "postcode": "2650-149",
      "city": "AMADORA",
      "lon": "-9.229349167934691",
      "lat": "38.79055192144284"
    },
    {
      "id": "pt.ine.add.PTCONT.2705919",
      "street": "AZ PLATANO",
      "house": "",
      "postcode": "2650-149",
      "city": "AMADORA",
      "lon": "-9.22928293811432",
      "lat": "38.78998505652168"
    },
    {
      "id": "pt.ine.add.PTCONT.2754442",
      "street": "R ALGARVE",
      "house": "36",
      "postcode": "2650-399",
      "city": "AMADORA",
      "lon": "-9.228417582746678",
      "lat": "38.79059668880058"
    },
    {
      "id": "pt.ine.add.PTCONT.2754443",
      "street": "R ALGARVE",
      "house": "36",
      "postcode": "2650-399",
      "city": "AMADORA",
      "lon": "-9.228417582746678",
      "lat": "38.79059668880058"
    },
    {
      "id": "pt.ine.add.PTCONT.2754444",
      "street": "R ALGARVE",
      "house": "36",
      "postcode": "2650-399",
      "city": "AMADORA",
      "lon": "-9.228417582746678",
      "lat": "38.79059668880058"
    },
    {
      "id": "pt.ine.add.PTCONT.2754445",
      "street": "R ALGARVE",
      "house": "36",
      "postcode": "2650-399",
      "city": "AMADORA",
      "lon": "-9.228417582746678",
      "lat": "38.79059668880058"
    },
    {
      "id": "pt.ine.add.PTCONT.2754446",
      "street": "R ALGARVE",
      "house": "36",
      "postcode": "2650-399",
      "city": "AMADORA",
      "lon": "-9.228417582746678",
      "lat": "38.79059668880058"
    },
    {
      "id": "pt.ine.add.PTCONT.2763022",
      "street": "R ALGARVE",
      "house": "22",
      "postcode": "2650-399",
      "city": "AMADORA",
      "lon": "-9.227824206648219",
      "lat": "38.7901788868463"
    },
    {
      "id": "pt.ine.add.PTCONT.2763023",
      "street": "R ALGARVE",
      "house": "22",
      "postcode": "2650-399",
      "city": "AMADORA",
      "lon": "-9.227824206648219",
      "lat": "38.7901788868463"
    },
    {
      "id": "pt.ine.add.PTCONT.2801973",
      "street": "R ALGARVE",
      "house": "44 B",
      "postcode": "2650-399",
      "city": "AMADORA",
      "lon": "-9.22905955754432",
      "lat": "38.791932818982914"
    },
    {
      "id": "pt.ine.add.PTCONT.2823384",
      "street": "R ALGARVE",
      "house": "33",
      "postcode": "2650-399",
      "city": "AMADORA",
      "lon": "-9.228354805915876",
      "lat": "38.7902549839369"
    },
    {
      "id": "pt.ine.add.PTCONT.2823385",
      "street": "R ALGARVE",
      "house": "33",
      "postcode": "2650-399",
      "city": "AMADORA",
      "lon": "-9.228354805915876",
      "lat": "38.7902549839369"
    },
    {
      "id": "pt.ine.add.PTCONT.2905428",
      "street": "ESTR SANTO ELOY",
      "house": "21 A",
      "postcode": "2650-458",
      "city": "AMADORA",
      "lon": "-9.227637740283772",
      "lat": "38.79002750245919"
    },
    {
      "id": "pt.ine.add.PTCONT.3023841",
      "street": "ESTR SANTO ELOY",
      "house": "21B",
      "postcode": "2650-458",
      "city": "AMADORA",
      "lon": "-9.227698034057992",
      "lat": "38.79020709204715"
    },
    {
      "id": "pt.ine.add.PTCONT.3089876",
      "street": "ESTR SANTO ELOY",
      "house": "",
      "postcode": "2650-458",
      "city": "AMADORA",
      "lon": "-9.227543061296576",
      "lat": "38.789857242629765"
    },
    {
      "id": "pt.ine.add.PTCONT.3099350",
      "street": "AZ PLATANO",
      "house": "25",
      "postcode": "2650-149",
      "city": "AMADORA",
      "lon": "-9.229163524992828",
      "lat": "38.79045457810813"
    },
    {
      "id": "pt.ine.add.PTCONT.3198057",
      "street": "AZ PLATANO",
      "house": "",
      "postcode": "2650-149",
      "city": "AMADORA",
      "lon": "-9.229248631950343",
      "lat": "38.79075103443351"
    },
    {
      "id": "pt.ine.add.PTCONT.3256231",
      "street": "R ALGARVE",
      "house": "44A",
      "postcode": "2650-399",
      "city": "AMADORA",
      "lon": "-9.228906366980857",
      "lat": "38.79170005513078"
    },
    {
      "id": "pt.ine.add.PTCONT.3256232",
      "street": "R ALGARVE",
      "house": "23",
      "postcode": "2650-399",
      "city": "AMADORA",
      "lon": "-9.227738417562598",
      "lat": "38.78983739720983"
    },
    {
      "id": "pt.ine.add.PTCONT.3455841",
      "street": "R ALGARVE",
      "house": "42",
      "postcode": "2650-399",
      "city": "AMADORA",
      "lon": "-9.22882015707892",
      "lat": "38.791331547205495"
    }
  ]
}