{
  "data": {
    "distrito": "Bragança",
    "concelho": "Mogadouro",
    "freguesia": "União das freguesias de Mogadouro, Valverde, Vale de Porco e Vilar de Rei",
    "OBJECTID": 100,
    "BGRI2021": "04083000301",
    "DT21": "04",
    "DTMN21": "0408",
    "DTMNFR21": "040830",
    "DTMNFRSEC21": "040830003",
    "SECNUM21": "003",
    "SSNUM21": "01",
    "SECSSNUM21": "00301",
    "OBJECTID_1": 38249,
    "DT": "04",
    "CC": "08",
    "fr": "30",
    "SEC": "003",
    "SS": "01"
  },
  "addresses": [
    {
      "id": "pt.ine.add.PTCONT.859710",
      "street": "R TAVORAS",
      "house": "25",
      "postcode": "5200-268",
      "city": "MOGADOURO",
      "lon": "-6.720676015849416",
      "lat": "41.338918766823426"
    },
    {
      "id": "pt.ine.add.PTCONT.862173",
      "street": "R SAGRADO",
      "house": "1",
      "postcode": "5200-258",
      "city": "MOGADOURO",
      "lon": "-6.719376783723159",
      "lat": "41.339334992368585"
    },
    {
      "id": "pt.ine.add.PTCONT.868200",
      "street": "R SAGRADO",
      "house": "9",
      "postcode": "5200-258",
      "city": "MOGADOURO",
      "lon": "-6.7196777063646165",
      "lat": "41.339230643986475"
    },
    {
      "id": "pt.ine.add.PTCONT.881317",
      "street": "R SAGRADO",
      "house": "27",
      "postcode": "5200-258",
      "city": "MOGADOURO",
      "lon": "-6.720989072428387",
      "lat": "41.33880556017235"
    },
    {
      "id": "pt.ine.add.PTCONT.883510",
      "street": "R SAGRADO",
      "house": "23",
      "postcode": "5200-258",
      "city": "MOGADOURO",
      "lon": "-6.720603382831379",
      "lat": "41.33896289403608"
    },
    {
      "id": "pt.ine.add.PTCONT.893632",
      "street": "R SAGRADO",
      "house": "",
      "postcode": "5200-258",
      "city": "MOGADOURO",
      "lon": "-6.719617405116901",
      "lat": "41.33925691454201"
    },
    {
      "id": "pt.ine.add.PTCONT.894984",
      "street": "R SAGRADO",
      "house": "29",
      "postcode": "5200-258",
      "city": "MOGADOURO",
      "lon": "-6.721313876885364",
      "lat": "41.33870150054536"
    },
    {
      "id": "pt.ine.add.PTCONT.905805",
      "street": "R SAGRADO",
      "house": "1",
      "postcode": "5200-258",
      "city": "MOGADOURO",
      "lon": "-6.721637902826725",
      "lat": "41.33863344545049"
    },
    {
      "id": "pt.ine.add.PTCONT.921781",
      "street": "R SAGRADO",
      "house": "3",
      "postcode": "5200-258",
      "city": "MOGADOURO",
      "lon": "-6.721457974895607",
      "lat": "41.33866725334349"
    },
    {
      "id": "pt.ine.add.PTCONT.937969",
      "street": "R SAGRADO",
      "house": "5",
      "postcode": "5200-258",
      "city": "MOGADOURO",
      "lon": "-6.719557298487943",
      "lat": "41.33927418370735"
    },
    {
      "id": "pt.ine.add.PTCONT.941995",
      "street": "R SAGRADO",
      "house": "13",
      "postcode": "5200-258",
      "city": "MOGADOURO",
      "lon": "-6.719882107461341",
      "lat": "41.33917012820386"
    },
    {
      "id": "pt.ine.add.PTCONT.944238",
      "street": "R SAGRADO",
      "house": "3",
      "postcode": "5200-258",
      "city": "MOGADOURO",
      "lon": "-6.719473110219626",
      "lat": "41.33930016075662"
    }
  ]
}