{
  "data": {
    "distrito": "Santarém",
    "concelho": "Ferreira do Zêzere",
    "freguesia": "Igreja Nova do Sobral",
    "OBJECTID": 111,
    "BGRI2021": "14110700140",
    "DT21": "14",
    "DTMN21": "1411",
    "DTMNFR21": "141107",
    "DTMNFRSEC21": "141107001",
    "SECNUM21": "001",
    "SSNUM21": "40",
    "SECSSNUM21": "00140",
    "OBJECTID_1": 151784,
    "DT": "14",
    "CC": "11",
    "fr": "07",
    "SEC": "001",
    "SS": "40"
  },
  "addresses": [
    {
      "id": "pt.ine.add.PTCONT.4408137",
      "street": "ESTR OLINDA MARQUES",
      "house": "",
      "postcode": "2240-441",
      "city": "IGREJA NOVA DO SOBRAL",
      "lon": "-8.312862086320717",
      "lat": "39.67677470768611"
    },
    {
      "id": "pt.ine.add.PTCONT.4414520",
      "street": "R CONCEIÇÃO AMOR DUARTE",
      "house": "",
      "postcode": "2240-431",
      "city": "IGREJA NOVA DO SOBRAL",
      "lon": "-8.315778227199113",
      "lat": "39.6731944989182"
    },
    {
      "id": "pt.ine.add.PTCONT.4430071",
      "street": "R CONCEIÇÃO AMOR DUARTE",
      "house": "",
      "postcode": "2240-431",
      "city": "IGREJA NOVA DO SOBRAL",
      "lon": "-8.31521720205265",
      "lat": "39.672591931095894"
    },
    {
      "id": "pt.ine.add.PTCONT.4432128",
      "street": "R LADEIRINHA",
      "house": "",
      "postcode": "2240-431",
      "city": "IGREJA NOVA DO SOBRAL",
      "lon": "-8.311986468033261",
      "lat": "39.6716962819506"
    },
    {
      "id": "pt.ine.add.PTCONT.4434093",
      "street": "R CONCEIÇÃO AMOR DUARTE",
      "house": "",
      "postcode": "2240-431",
      "city": "IGREJA NOVA DO SOBRAL",
      "lon": "-8.314983631434064",
      "lat": "39.67241216309939"
    },
    {
      "id": "pt.ine.add.PTCONT.4443490",
      "street": "R AGRICULTURA",
      "house": "",
      "postcode": "2240-431",
      "city": "IGREJA NOVA DO SOBRAL",
      "lon": "-8.311175444288137",
      "lat": "39.6735709220042"
    },
    {
      "id": "pt.ine.add.PTCONT.4456171",
      "street": "ESTR MANUEL ANTUNES AMOR",
      "house": "69",
      "postcode": "2240-441",
      "city": "IGREJA NOVA DO SOBRAL",
      "lon": "-8.314294032769443",
      "lat": "39.67612400048578"
    },
    {
      "id": "pt.ine.add.PTCONT.4464880",
      "street": "R LADEIRINHA",
      "house": "",
      "postcode": "2240-431",
      "city": "IGREJA NOVA DO SOBRAL",
      "lon": "-8.308113949752828",
      "lat": "39.67045925683425"
    },
    {
      "id": "pt.ine.add.PTCONT.4466204",
      "street": "R BOLCHA",
      "house": "",
      "postcode": "2240-425",
      "city": "IGREJA NOVA DO SOBRAL",
      "lon": "-8.310953139001263",
      "lat": "39.68232576766449"
    },
    {
      "id": "pt.ine.add.PTCONT.4473229",
      "street": "R LADEIRINHA",
      "house": "",
      "postcode": "2240-431",
      "city": "IGREJA NOVA DO SOBRAL",
      "lon": "-8.311122882777374",
      "lat": "39.67125628042595"
    },
    {
      "id": "pt.ine.add.PTCONT.4475969",
      "street": "ESTR MANUEL ANTUNES AMOR",
      "house": "",
      "postcode": "2240-441",
      "city": "IGREJA NOVA DO SOBRAL",
      "lon": "-8.313910763026998",
      "lat": "39.67664698608809"
    },
    {
      "id": "pt.ine.add.PTCONT.4490384",
      "street": "ESTR LAMACEIROS",
      "house": "",
      "postcode": "2240-425",
      "city": "IGREJA NOVA DO SOBRAL",
      "lon": "-8.303562905683494",
      "lat": "39.68234585676599"
    },
    {
      "id": "pt.ine.add.PTCONT.4500463",
      "street": "R CONCEIÇÃO AMOR DUARTE",
      "house": "",
      "postcode": "2240-431",
      "city": "IGREJA NOVA DO SOBRAL",
      "lon": "-8.315649595353754",
      "lat": "39.673032580578365"
    },
    {
      "id": "pt.ine.add.PTCONT.4508067",
      "street": "ESTR MANUEL ANTUNES AMOR",
      "house": "",
      "postcode": "2240-441",
      "city": "IGREJA NOVA DO SOBRAL",
      "lon": "-8.314120070022485",
      "lat": "39.67645751946336"
    },
    {
      "id": "pt.ine.add.PTCONT.4520861",
      "street": "R LADEIRINHA",
      "house": "",
      "postcode": "2240-431",
      "city": "IGREJA NOVA DO SOBRAL",
      "lon": "-8.311403660369713",
      "lat": "39.67167015803058"
    },
    {
      "id": "pt.ine.add.PTCONT.4524944",
      "street": "R CONCEIÇÃO AMOR DUARTE",
      "house": "5",
      "postcode": "2240-431",
      "city": "IGREJA NOVA DO SOBRAL",
      "lon": "-8.31539247549846",
      "lat": "39.67276278343129"
    },
    {
      "id": "pt.ine.add.PTCONT.4553768",
      "street": "R CONCEIÇÃO AMOR DUARTE",
      "house": "",
      "postcode": "2240-431",
      "city": "IGREJA NOVA DO SOBRAL",
      "lon": "-8.31348997932838",
      "lat": "39.67171196989279"
    },
    {
      "id": "pt.ine.add.PTCONT.4582267",
      "street": "R CONCEIÇÃO AMOR DUARTE",
      "house": "",
      "postcode": "2240-431",
      "city": "IGREJA NOVA DO SOBRAL",
      "lon": "-8.315275571239932",
      "lat": "39.67262786635719"
    },
    {
      "id": "pt.ine.add.PTCONT.4585063",
      "street": "ESTR MANUEL ANTUNES AMOR",
      "house": "",
      "postcode": "2240-441",
      "city": "IGREJA NOVA DO SOBRAL",
      "lon": "-8.314526907274239",
      "lat": "39.67603356998838"
    },
    {
      "id": "pt.ine.add.PTCONT.4587194",
      "street": "ESTR RIBEIRA DA LOUSA",
      "house": "",
      "postcode": "2240-431",
      "city": "IGREJA NOVA DO SOBRAL",
      "lon": "-8.312438931253052",
      "lat": "39.67089398764621"
    },
    {
      "id": "pt.ine.add.PTCONT.4593515",
      "street": "R RIBEIRO DA LOUSA",
      "house": "",
      "postcode": "2240-431",
      "city": "IGREJA NOVA DO SOBRAL",
      "lon": "-8.311233762828888",
      "lat": "39.66904946781636"
    },
    {
      "id": "pt.ine.add.PTCONT.4596415",
      "street": "R CONCEIÇÃO AMOR DUARTE",
      "house": "",
      "postcode": "2240-431",
      "city": "IGREJA NOVA DO SOBRAL",
      "lon": "-8.315077272212454",
      "lat": "39.67256513032626"
    },
    {
      "id": "pt.ine.add.PTCONT.4610029",
      "street": "ESTR MANJEL ANTUNES AMOR",
      "house": "",
      "postcode": "2240-441",
      "city": "IGREJA NOVA DO SOBRAL",
      "lon": "-8.313364378190483",
      "lat": "39.67719724375354"
    },
    {
      "id": "pt.ine.add.PTCONT.4614195",
      "street": "R LADEIRA",
      "house": "9",
      "postcode": "2240-425",
      "city": "IGREJA NOVA DO SOBRAL",
      "lon": "-8.310930380305493",
      "lat": "39.68254196296604"
    },
    {
      "id": "pt.ine.add.PTCONT.4632891",
      "street": "R LADEIRINHA",
      "house": "",
      "postcode": "2240-431",
      "city": "IGREJA NOVA DO SOBRAL",
      "lon": "-8.312989431734927",
      "lat": "39.671946920489816"
    },
    {
      "id": "pt.ine.add.PTCONT.4636969",
      "street": "BC MINA",
      "house": "",
      "postcode": "2240-431",
      "city": "IGREJA NOVA DO SOBRAL",
      "lon": "-8.309158795320727",
      "lat": "39.67344790272852"
    },
    {
      "id": "pt.ine.add.PTCONT.4639765",
      "street": "R LADEIRINHA",
      "house": "",
      "postcode": "2240-431",
      "city": "IGREJA NOVA DO SOBRAL",
      "lon": "-8.31251116536324",
      "lat": "39.67178553963824"
    }
  ]
}