{
  "data": {
    "distrito": "Santarém",
    "concelho": "Ferreira do Zêzere",
    "freguesia": "Igreja Nova do Sobral",
    "OBJECTID": 351,
    "BGRI2021": "14110700149",
    "DT21": "14",
    "DTMN21": "1411",
    "DTMNFR21": "141107",
    "DTMNFRSEC21": "141107001",
    "SECNUM21": "001",
    "SSNUM21": "49",
    "SECSSNUM21": "00149",
    "OBJECTID_1": 151633,
    "DT": "14",
    "CC": "11",
    "fr": "07",
    "SEC": "001",
    "SS": "49"
  },
  "addresses": [
    {
      "id": "pt.ine.add.PTCONT.4439952",
      "street": "ESTR LAMACEIROS",
      "house": "",
      "postcode": "2240-425",
      "city": "IGREJA NOVA DO SOBRAL",
      "lon": "-8.308277866531723",
      "lat": "39.6845995182081"
    },
    {
      "id": "pt.ine.add.PTCONT.4473228",
      "street": "TV BOLCHA",
      "house": "",
      "postcode": "2240-425",
      "city": "IGREJA NOVA DO SOBRAL",
      "lon": "-8.30928881545458",
      "lat": "39.68333705323633"
    },
    {
      "id": "pt.ine.add.PTCONT.4494413",
      "street": "ESTR LAMACEIROS",
      "house": "",
      "postcode": "2240-425",
      "city": "IGREJA NOVA DO SOBRAL",
      "lon": "-8.308511552140729",
      "lat": "39.684815325851076"
    },
    {
      "id": "pt.ine.add.PTCONT.4524943",
      "street": "ESTR LAMACEIROS",
      "house": "",
      "postcode": "2240-425",
      "city": "IGREJA NOVA DO SOBRAL",
      "lon": "-8.308161047015298",
      "lat": "39.684500620854244"
    },
    {
      "id": "pt.ine.add.PTCONT.4562160",
      "street": "ESTR LAMACEIROS",
      "house": "",
      "postcode": "2240-425",
      "city": "IGREJA NOVA DO SOBRAL",
      "lon": "-8.30844142808211",
      "lat": "39.684743378290584"
    },
    {
      "id": "pt.ine.add.PTCONT.4585022",
      "street": "ESTR POEIRO",
      "house": "",
      "postcode": "2240-425",
      "city": "IGREJA NOVA DO SOBRAL",
      "lon": "-8.30858163075069",
      "lat": "39.68486926007318"
    },
    {
      "id": "pt.ine.add.PTCONT.4585023",
      "street": "ESTR LAMACEIROS",
      "house": "",
      "postcode": "2240-425",
      "city": "IGREJA NOVA DO SOBRAL",
      "lon": "-8.308382961116282",
      "lat": "39.68467141309316"
    },
    {
      "id": "pt.ine.add.PTCONT.4657819",
      "street": "TV BOLCHA",
      "house": "",
      "postcode": "2240-425",
      "city": "IGREJA NOVA DO SOBRAL",
      "lon": "-8.309312449371385",
      "lat": "39.683463110956126"
    },
    {
      "id": "pt.ine.add.PTCONT.4658580",
      "street": "ESTR LAMACEIROS",
      "house": "",
      "postcode": "2240-425",
      "city": "IGREJA NOVA DO SOBRAL",
      "lon": "-8.308055452895028",
      "lat": "39.6842305794978"
    }
  ]
}