{
  "data": {
    "distrito": "Santar√©m",
    "concelho": "Rio Maior",
    "freguesia": "Rio Maior",
    "OBJECTID": 530,
    "BGRI2021": "14140801112",
    "DT21": "14",
    "DTMN21": "1414",
    "DTMNFR21": "141408",
    "DTMNFRSEC21": "141408011",
    "SECNUM21": "011",
    "SSNUM21": "12",
    "SECSSNUM21": "01112",
    "OBJECTID_1": 152726,
    "DT": "14",
    "CC": "14",
    "fr": "08",
    "SEC": "011",
    "SS": "12"
  },
  "addresses": [
    {
      "id": "pt.ine.add.PTCONT.4396763",
      "street": "R CASAIS DO CIDRAL",
      "house": "18",
      "postcode": "2040-069",
      "city": "RIO MAIOR",
      "lon": "-8.926348808927106",
      "lat": "39.3512121740525"
    },
    {
      "id": "pt.ine.add.PTCONT.4429474",
      "street": "TV FLORES",
      "house": "3",
      "postcode": "2040-069",
      "city": "RIO MAIOR",
      "lon": "-8.926421160551843",
      "lat": "39.35145487087771"
    },
    {
      "id": "pt.ine.add.PTCONT.4452318",
      "street": "TV FLORES",
      "house": "5",
      "postcode": "2040-069",
      "city": "RIO MAIOR",
      "lon": "-8.9265362469891",
      "lat": "39.35137302298973"
    },
    {
      "id": "pt.ine.add.PTCONT.4458731",
      "street": "R MINEIROS",
      "house": "",
      "postcode": "2040-066",
      "city": "RIO MAIOR",
      "lon": "-8.926234129830375",
      "lat": "39.35133004712909"
    },
    {
      "id": "pt.ine.add.PTCONT.4489835",
      "street": "R CASAIS DO CIDRAL",
      "house": "18",
      "postcode": "2040-069",
      "city": "RIO MAIOR",
      "lon": "-8.926406402948984",
      "lat": "39.351175753329635"
    },
    {
      "id": "pt.ine.add.PTCONT.4544871",
      "street": "TV FLORES",
      "house": "6",
      "postcode": "2040-069",
      "city": "RIO MAIOR",
      "lon": "-8.926382489489411",
      "lat": "39.351112867072615"
    },
    {
      "id": "pt.ine.add.PTCONT.4584949",
      "street": "R CASAIS DO CIDRAL",
      "house": "",
      "postcode": "2040-069",
      "city": "RIO MAIOR",
      "lon": "-8.926430214601972",
      "lat": "39.35122963323792"
    },
    {
      "id": "pt.ine.add.PTCONT.4605563",
      "street": "R CASAIS A",
      "house": "A",
      "postcode": "2040-069",
      "city": "RIO MAIOR",
      "lon": "-8.926521794536086",
      "lat": "39.35112092448502"
    },
    {
      "id": "pt.ine.add.PTCONT.4605564",
      "street": "R CASAIS B",
      "house": "B",
      "postcode": "2040-069",
      "city": "RIO MAIOR",
      "lon": "-8.926521794536086",
      "lat": "39.35112092448502"
    },
    {
      "id": "pt.ine.add.PTCONT.4605565",
      "street": "R CASAIS",
      "house": "MORADIA",
      "postcode": "2040-069",
      "city": "RIO MAIOR",
      "lon": "-8.926521794536086",
      "lat": "39.35112092448502"
    },
    {
      "id": "pt.ine.add.PTCONT.4605566",
      "street": "R CASAIS E",
      "house": "E",
      "postcode": "2040-069",
      "city": "RIO MAIOR",
      "lon": "-8.926521794536086",
      "lat": "39.35112092448502"
    },
    {
      "id": "pt.ine.add.PTCONT.4606518",
      "street": "R CASAIS FERNANDO RICARDO CARVALHO",
      "house": "",
      "postcode": "2040-069",
      "city": "RIO MAIOR",
      "lon": "-8.926521794536086",
      "lat": "39.35112092448502"
    },
    {
      "id": "pt.ine.add.PTCONT.4655511",
      "street": "R CASAIS DO CIDRAL",
      "house": "12",
      "postcode": "2040-064",
      "city": "RIO MAIOR",
      "lon": "-8.926639732863041",
      "lat": "39.351291254086604"
    }
  ]
}