{
  "data": {
    "distrito": "Aveiro",
    "concelho": "Aveiro",
    "freguesia": "Esgueira",
    "OBJECTID": 627,
    "BGRI2021": "01050501104",
    "DT21": "01",
    "DTMN21": "0105",
    "DTMNFR21": "010505",
    "DTMNFRSEC21": "010505011",
    "SECNUM21": "011",
    "SSNUM21": "04",
    "SECSSNUM21": "01104",
    "OBJECTID_1": 3134,
    "DT": "01",
    "CC": "05",
    "fr": "05",
    "SEC": "011",
    "SS": "04"
  },
  "addresses": [
    {
      "id": "pt.ine.add.PTCONT.308447",
      "street": "R GEN DA COSTA CASCAIS",
      "house": "47",
      "postcode": "3800-191",
      "city": "AVEIRO",
      "lon": "-8.625132128478699",
      "lat": "40.64484247918993"
    },
    {
      "id": "pt.ine.add.PTCONT.327194",
      "street": "R CAIAO",
      "house": "63",
      "postcode": "3800-118",
      "city": "AVEIRO",
      "lon": "-8.624687646432532",
      "lat": "40.64388082199581"
    },
    {
      "id": "pt.ine.add.PTCONT.334467",
      "street": "TV CAIAO",
      "house": "14",
      "postcode": "3800-332",
      "city": "AVEIRO",
      "lon": "-8.6249883797889",
      "lat": "40.64340172583017"
    },
    {
      "id": "pt.ine.add.PTCONT.24406",
      "street": "R CAIAO",
      "house": "73",
      "postcode": "3800-118",
      "city": "AVEIRO",
      "lon": "-8.624831226227041",
      "lat": "40.64411434440306"
    },
    {
      "id": "pt.ine.add.PTCONT.30222",
      "street": "TV CAIAO",
      "house": "34",
      "postcode": "3800-332",
      "city": "AVEIRO",
      "lon": "-8.625701251936729",
      "lat": "40.64292438534881"
    },
    {
      "id": "pt.ine.add.PTCONT.56963",
      "street": "R GEN DA COSTA CASCAIS",
      "house": "33",
      "postcode": "3800-191",
      "city": "AVEIRO",
      "lon": "-8.624904404536336",
      "lat": "40.64442020760107"
    },
    {
      "id": "pt.ine.add.PTCONT.56965",
      "street": "R CAIAO",
      "house": "37",
      "postcode": "3800-118",
      "city": "AVEIRO",
      "lon": "-8.624530000364645",
      "lat": "40.64334118439067"
    },
    {
      "id": "pt.ine.add.PTCONT.60345",
      "street": "R GEN DA COSTA CASCAIS",
      "house": "79",
      "postcode": "3800-191",
      "city": "AVEIRO",
      "lon": "-8.625514600720578",
      "lat": "40.645408172779405"
    },
    {
      "id": "pt.ine.add.PTCONT.60346",
      "street": "R GEN DA COSTA CASCAIS",
      "house": "55",
      "postcode": "3800-191",
      "city": "AVEIRO",
      "lon": "-8.625371214219948",
      "lat": "40.645201665879156"
    },
    {
      "id": "pt.ine.add.PTCONT.70153",
      "street": "R CAIAO",
      "house": "9",
      "postcode": "3800-118",
      "city": "AVEIRO",
      "lon": "-8.624196902983515",
      "lat": "40.64250872956778"
    },
    {
      "id": "pt.ine.add.PTCONT.81110",
      "street": "R DUARTE LUDGERO",
      "house": "10",
      "postcode": "3800-301",
      "city": "AVEIRO",
      "lon": "-8.626472784615462",
      "lat": "40.64548512927501"
    },
    {
      "id": "pt.ine.add.PTCONT.81111",
      "street": "R GEN DA COSTA CASCAIS",
      "house": "51",
      "postcode": "3800-191",
      "city": "AVEIRO",
      "lon": "-8.625311177929186",
      "lat": "40.64507584982242"
    },
    {
      "id": "pt.ine.add.PTCONT.100841",
      "street": "R CAIAO",
      "house": "59",
      "postcode": "3800-118",
      "city": "AVEIRO",
      "lon": "-8.624675560375739",
      "lat": "40.64384485287393"
    },
    {
      "id": "pt.ine.add.PTCONT.105443",
      "street": "R CAIAO",
      "house": "23",
      "postcode": "3800-118",
      "city": "AVEIRO",
      "lon": "-8.624358382484486",
      "lat": "40.64293430215641"
    },
    {
      "id": "pt.ine.add.PTCONT.118395",
      "street": "R CAIAO",
      "house": "7",
      "postcode": "3800-118",
      "city": "AVEIRO",
      "lon": "-8.624163930254516",
      "lat": "40.64241820598492"
    },
    {
      "id": "pt.ine.add.PTCONT.124315",
      "street": "TV CAIAO",
      "house": "6 8 10",
      "postcode": "3800-332",
      "city": "AVEIRO",
      "lon": "-8.624732605798847",
      "lat": "40.64345380573755"
    },
    {
      "id": "pt.ine.add.PTCONT.131712",
      "street": "R GEN DA COSTA CASCAIS",
      "house": "89",
      "postcode": "3800-191",
      "city": "AVEIRO",
      "lon": "-8.625873037744004",
      "lat": "40.645919936768074"
    },
    {
      "id": "pt.ine.add.PTCONT.137971",
      "street": "R CAIAO",
      "house": "29",
      "postcode": "3800-118",
      "city": "AVEIRO",
      "lon": "-8.624484074998094",
      "lat": "40.64320623332511"
    },
    {
      "id": "pt.ine.add.PTCONT.140689",
      "street": "R GEN DA COSTA CASCAIS",
      "house": "31",
      "postcode": "3800-191",
      "city": "AVEIRO",
      "lon": "-8.624903148695186",
      "lat": "40.644249115254944"
    },
    {
      "id": "pt.ine.add.PTCONT.155501",
      "street": "TV CAIAO",
      "house": "",
      "postcode": "3800-332",
      "city": "AVEIRO",
      "lon": "-8.62595698173544",
      "lat": "40.64286683556061"
    },
    {
      "id": "pt.ine.add.PTCONT.172625",
      "street": "TV RUA DO CAIﾃグ",
      "house": "29",
      "postcode": "3800-332",
      "city": "AVEIRO",
      "lon": "-8.625795648270618",
      "lat": "40.64279062727263"
    },
    {
      "id": "pt.ine.add.PTCONT.200681",
      "street": "R GEN DA COSTA CASCAIS",
      "house": "41",
      "postcode": "3800-191",
      "city": "AVEIRO",
      "lon": "-8.625106500793994",
      "lat": "40.64457243414493"
    },
    {
      "id": "pt.ine.add.PTCONT.206065",
      "street": "TV CAIAO",
      "house": "24",
      "postcode": "3800-332",
      "city": "AVEIRO",
      "lon": "-8.625298079294026",
      "lat": "40.64306955097844"
    },
    {
      "id": "pt.ine.add.PTCONT.213492",
      "street": "TV CAIAO",
      "house": "46",
      "postcode": "3800-332",
      "city": "AVEIRO",
      "lon": "-8.62694933360877",
      "lat": "40.64277254463139"
    },
    {
      "id": "pt.ine.add.PTCONT.227906",
      "street": "TV CAIAO",
      "house": "32",
      "postcode": "3800-332",
      "city": "AVEIRO",
      "lon": "-8.62556523976576",
      "lat": "40.64296699695865"
    },
    {
      "id": "pt.ine.add.PTCONT.230112",
      "street": "R CAIAO",
      "house": "51",
      "postcode": "3800-118",
      "city": "AVEIRO",
      "lon": "-8.624697420123034",
      "lat": "40.64360162096364"
    },
    {
      "id": "pt.ine.add.PTCONT.230113",
      "street": "R CAIAO",
      "house": "51",
      "postcode": "3800-118",
      "city": "AVEIRO",
      "lon": "-8.624697420123034",
      "lat": "40.64360162096364"
    },
    {
      "id": "pt.ine.add.PTCONT.230114",
      "street": "R CAIAO",
      "house": "51",
      "postcode": "3800-118",
      "city": "AVEIRO",
      "lon": "-8.624697420123034",
      "lat": "40.64360162096364"
    },
    {
      "id": "pt.ine.add.PTCONT.230115",
      "street": "R CAIAO",
      "house": "51",
      "postcode": "3800-118",
      "city": "AVEIRO",
      "lon": "-8.624697420123034",
      "lat": "40.64360162096364"
    },
    {
      "id": "pt.ine.add.PTCONT.230116",
      "street": "R CAIAO",
      "house": "51",
      "postcode": "3800-118",
      "city": "AVEIRO",
      "lon": "-8.624697420123034",
      "lat": "40.64360162096364"
    },
    {
      "id": "pt.ine.add.PTCONT.230728",
      "street": "TV CAIAO",
      "house": "16",
      "postcode": "3800-332",
      "city": "AVEIRO",
      "lon": "-8.62514579318583",
      "lat": "40.64337403979192"
    },
    {
      "id": "pt.ine.add.PTCONT.230750",
      "street": "R CAIAO",
      "house": "67",
      "postcode": "3800-118",
      "city": "AVEIRO",
      "lon": "-8.62471175251539",
      "lat": "40.64394375537372"
    },
    {
      "id": "pt.ine.add.PTCONT.235150",
      "street": "R DUARTE LUDGERO",
      "house": "14",
      "postcode": "3800-301",
      "city": "AVEIRO",
      "lon": "-8.626720451113183",
      "lat": "40.645403024623"
    },
    {
      "id": "pt.ine.add.PTCONT.235730",
      "street": "R CAIAO",
      "house": "33",
      "postcode": "3800-118",
      "city": "AVEIRO",
      "lon": "-8.624519440561347",
      "lat": "40.64328971900646"
    },
    {
      "id": "pt.ine.add.PTCONT.238943",
      "street": "TV CAIAO",
      "house": "44",
      "postcode": "3800-332",
      "city": "AVEIRO",
      "lon": "-8.62618185747657",
      "lat": "40.64290189617666"
    },
    {
      "id": "pt.ine.add.PTCONT.241481",
      "street": "R CAIAO",
      "house": "55",
      "postcode": "3800-118",
      "city": "AVEIRO",
      "lon": "-8.62465105799362",
      "lat": "40.64372789031757"
    },
    {
      "id": "pt.ine.add.PTCONT.247611",
      "street": "R CAIAO",
      "house": "25",
      "postcode": "3800-118",
      "city": "AVEIRO",
      "lon": "-8.624419839038369",
      "lat": "40.64303908480659"
    },
    {
      "id": "pt.ine.add.PTCONT.249694",
      "street": "TV RUA DO CAIﾃグ",
      "house": "15",
      "postcode": "3800-332",
      "city": "AVEIRO",
      "lon": "-8.625161566866206",
      "lat": "40.64303156010379"
    },
    {
      "id": "pt.ine.add.PTCONT.252213",
      "street": "R CAIﾃグ",
      "house": "39",
      "postcode": "3800-118",
      "city": "AVEIRO",
      "lon": "-8.624579059676925",
      "lat": "40.6434730351336"
    },
    {
      "id": "pt.ine.add.PTCONT.252214",
      "street": "R CAIﾃグ",
      "house": "41",
      "postcode": "3800-118",
      "city": "AVEIRO",
      "lon": "-8.624579059676925",
      "lat": "40.6434730351336"
    },
    {
      "id": "pt.ine.add.PTCONT.252215",
      "street": "TV CAIAO",
      "house": "N2",
      "postcode": "3800-332",
      "city": "AVEIRO",
      "lon": "-8.625294442887544",
      "lat": "40.6432190698711"
    },
    {
      "id": "pt.ine.add.PTCONT.252231",
      "street": "R GEN COSTA CASCAIS",
      "house": "77",
      "postcode": "3800-191",
      "city": "AVEIRO",
      "lon": "-8.625384028701351",
      "lat": "40.64533668835621"
    },
    {
      "id": "pt.ine.add.PTCONT.252232",
      "street": "R GEN COSTA CASCAIS",
      "house": "63",
      "postcode": "3800-191",
      "city": "AVEIRO",
      "lon": "-8.625384028701351",
      "lat": "40.64533668835621"
    },
    {
      "id": "pt.ine.add.PTCONT.257843",
      "street": "R DUARTE LUDGERO",
      "house": "8",
      "postcode": "3800-301",
      "city": "AVEIRO",
      "lon": "-8.62611885121236",
      "lat": "40.64558569741232"
    },
    {
      "id": "pt.ine.add.PTCONT.268671",
      "street": "R GEN COSTA CASCAIS",
      "house": "57",
      "postcode": "3800-191",
      "city": "AVEIRO",
      "lon": "-8.624663342205393",
      "lat": "40.64379087402751"
    },
    {
      "id": "pt.ine.add.PTCONT.268672",
      "street": "TV CAIAO",
      "house": "26",
      "postcode": "3800-332",
      "city": "AVEIRO",
      "lon": "-8.625296661683466",
      "lat": "40.642990348676534"
    },
    {
      "id": "pt.ine.add.PTCONT.268690",
      "street": "R CAIAO",
      "house": "57",
      "postcode": "3800-118",
      "city": "AVEIRO",
      "lon": "-8.624663342205393",
      "lat": "40.64379087402751"
    },
    {
      "id": "pt.ine.add.PTCONT.271299",
      "street": "R CAIAO",
      "house": "19",
      "postcode": "3800-118",
      "city": "AVEIRO",
      "lon": "-8.624295211102366",
      "lat": "40.64281505279691"
    },
    {
      "id": "pt.ine.add.PTCONT.277715",
      "street": "R CAIAO",
      "house": "27",
      "postcode": "3800-118",
      "city": "AVEIRO",
      "lon": "-8.624451954277946",
      "lat": "40.64311817992411"
    },
    {
      "id": "pt.ine.add.PTCONT.284592",
      "street": "R CAIAO",
      "house": "69",
      "postcode": "3800-118",
      "city": "AVEIRO",
      "lon": "-8.624806723470254",
      "lat": "40.643997381887324"
    },
    {
      "id": "pt.ine.add.PTCONT.284593",
      "street": "R CAIAO",
      "house": "69",
      "postcode": "3800-118",
      "city": "AVEIRO",
      "lon": "-8.624806723470254",
      "lat": "40.643997381887324"
    },
    {
      "id": "pt.ine.add.PTCONT.284594",
      "street": "R CAIAO",
      "house": "69",
      "postcode": "3800-118",
      "city": "AVEIRO",
      "lon": "-8.624806723470254",
      "lat": "40.643997381887324"
    }
  ]
}