{
  "data": {
    "distrito": "Setúbal",
    "concelho": "Seixal",
    "freguesia": "Corroios",
    "OBJECTID": 1537,
    "BGRI2021": "15100503608",
    "DT21": "15",
    "DTMN21": "1510",
    "DTMNFR21": "151005",
    "DTMNFRSEC21": "151005036",
    "SECNUM21": "036",
    "SSNUM21": "08",
    "SECSSNUM21": "03608",
    "OBJECTID_1": 167475,
    "DT": "15",
    "CC": "10",
    "fr": "05",
    "SEC": "036",
    "SS": "08"
  },
  "addresses": [
    {
      "id": "pt.ine.add.PTCONT.4683746",
      "street": "R SESMARIAS",
      "house": "15",
      "postcode": "2855-434",
      "city": "CORROIOS",
      "lon": "-9.156560710513718",
      "lat": "38.6275298621492"
    },
    {
      "id": "pt.ine.add.PTCONT.4730433",
      "street": "R SESMARIAS",
      "house": "29",
      "postcode": "2855-434",
      "city": "CORROIOS",
      "lon": "-9.156995699267691",
      "lat": "38.62662525520413"
    },
    {
      "id": "pt.ine.add.PTCONT.4733915",
      "street": "R SA DE MIRANDA",
      "house": "46",
      "postcode": "2855-482",
      "city": "CORROIOS",
      "lon": "-9.156318051815699",
      "lat": "38.627423888582356"
    },
    {
      "id": "pt.ine.add.PTCONT.4738711",
      "street": "R SA DE MIRANDA",
      "house": "54A",
      "postcode": "2855-482",
      "city": "CORROIOS",
      "lon": "-9.15653975321916",
      "lat": "38.62686345284968"
    },
    {
      "id": "pt.ine.add.PTCONT.4752040",
      "street": "R SESMARIAS",
      "house": "17",
      "postcode": "2855-434",
      "city": "CORROIOS",
      "lon": "-9.156639035753948",
      "lat": "38.62738504880236"
    },
    {
      "id": "pt.ine.add.PTCONT.4784798",
      "street": "R SA DE MIRANDA",
      "house": "48",
      "postcode": "2855-482",
      "city": "CORROIOS",
      "lon": "-9.156351089605568",
      "lat": "38.6273245115387"
    },
    {
      "id": "pt.ine.add.PTCONT.4789289",
      "street": "R SA DE MIRANDA",
      "house": "",
      "postcode": "2855-482",
      "city": "CORROIOS",
      "lon": "-9.156517557622283",
      "lat": "38.62691769506433"
    },
    {
      "id": "pt.ine.add.PTCONT.4809999",
      "street": "R SA DE MIRANDA",
      "house": "56 A",
      "postcode": "2855-482",
      "city": "CORROIOS",
      "lon": "-9.156595370117053",
      "lat": "38.62673685418354"
    },
    {
      "id": "pt.ine.add.PTCONT.4816087",
      "street": "R SESMARIAS",
      "house": "21",
      "postcode": "2855-434",
      "city": "CORROIOS",
      "lon": "-9.156704085809514",
      "lat": "38.62711423943094"
    },
    {
      "id": "pt.ine.add.PTCONT.4848122",
      "street": "R SESMARIAS",
      "house": "23A",
      "postcode": "2855-434",
      "city": "CORROIOS",
      "lon": "-9.156862399603702",
      "lat": "38.626941702038"
    },
    {
      "id": "pt.ine.add.PTCONT.4861643",
      "street": "R SESMARIAS",
      "house": "25A",
      "postcode": "2855-434",
      "city": "CORROIOS",
      "lon": "-9.156906918344113",
      "lat": "38.626842224369"
    },
    {
      "id": "pt.ine.add.PTCONT.4868226",
      "street": "R SESMARIAS",
      "house": "19",
      "postcode": "2855-434",
      "city": "CORROIOS",
      "lon": "-9.156660591098575",
      "lat": "38.62728577212859"
    },
    {
      "id": "pt.ine.add.PTCONT.4876314",
      "street": "R SESMARIAS",
      "house": "27",
      "postcode": "2855-434",
      "city": "CORROIOS",
      "lon": "-9.156917247453976",
      "lat": "38.626761061899025"
    },
    {
      "id": "pt.ine.add.PTCONT.4938215",
      "street": "R SA DE MIRANDA",
      "house": "58B",
      "postcode": "2855-482",
      "city": "CORROIOS",
      "lon": "-9.156617437551283",
      "lat": "38.62667360506502"
    },
    {
      "id": "pt.ine.add.PTCONT.4960244",
      "street": "R DAS SESMARIAS",
      "house": "",
      "postcode": "2855-675",
      "city": "CORROIOS",
      "lon": "-9.156907302608158",
      "lat": "38.62686924503279"
    },
    {
      "id": "pt.ine.add.PTCONT.4960245",
      "street": "R DAS SESMARIAS",
      "house": "",
      "postcode": "2855-675",
      "city": "CORROIOS",
      "lon": "-9.156907302608158",
      "lat": "38.62686924503279"
    },
    {
      "id": "pt.ine.add.PTCONT.4963502",
      "street": "R SA DE MIRANDA",
      "house": "44A",
      "postcode": "2855-482",
      "city": "CORROIOS",
      "lon": "-9.156216249804851",
      "lat": "38.627532874992504"
    },
    {
      "id": "pt.ine.add.PTCONT.4981778",
      "street": "R SESMARIAS",
      "house": "25",
      "postcode": "2855-434",
      "city": "CORROIOS",
      "lon": "-9.156884594946273",
      "lat": "38.62688745976165"
    },
    {
      "id": "pt.ine.add.PTCONT.5025572",
      "street": "R SA DE MIRANDA",
      "house": "56",
      "postcode": "2855-482",
      "city": "CORROIOS",
      "lon": "-9.1565846565041",
      "lat": "38.626790995963574"
    },
    {
      "id": "pt.ine.add.PTCONT.5032416",
      "street": "R NICOLAU TOLENTINO",
      "house": "10",
      "postcode": "2855-476",
      "city": "CORROIOS",
      "lon": "-9.156730079306678",
      "lat": "38.62651948341142"
    },
    {
      "id": "pt.ine.add.PTCONT.5033776",
      "street": "TV FRANCISCO ÁLVARES",
      "house": "3",
      "postcode": "2855-497",
      "city": "CORROIOS",
      "lon": "-9.156217273844183",
      "lat": "38.62760493010272"
    },
    {
      "id": "pt.ine.add.PTCONT.5035129",
      "street": "R SESMARIAS",
      "house": "23",
      "postcode": "2855-434",
      "city": "CORROIOS",
      "lon": "-9.156817368432588",
      "lat": "38.627005152138395"
    },
    {
      "id": "pt.ine.add.PTCONT.5055135",
      "street": "R SESMARIAS",
      "house": "27A",
      "postcode": "2855-434",
      "city": "CORROIOS",
      "lon": "-9.156973632181282",
      "lat": "38.62668850438975"
    },
    {
      "id": "pt.ine.add.PTCONT.5071603",
      "street": "R SA DE MIRANDA",
      "house": "58A",
      "postcode": "2855-482",
      "city": "CORROIOS",
      "lon": "-9.156639504947885",
      "lat": "38.62661035594222"
    },
    {
      "id": "pt.ine.add.PTCONT.5104829",
      "street": "R NICOLAU TOLENTINO",
      "house": "8",
      "postcode": "2855-476",
      "city": "CORROIOS",
      "lon": "-9.15698332071587",
      "lat": "38.626562307472405"
    }
  ]
}