{
  "data": {
    "distrito": "Leiria",
    "concelho": "Nazaré",
    "freguesia": "Famalicão",
    "OBJECTID": 249,
    "BGRI2021": "10110100205",
    "DT21": "10",
    "DTMN21": "1011",
    "DTMNFR21": "101101",
    "DTMNFRSEC21": "101101002",
    "SECNUM21": "002",
    "SSNUM21": "05",
    "SECSSNUM21": "00205",
    "OBJECTID_1": 93044,
    "DT": "10",
    "CC": "11",
    "fr": "01",
    "SEC": "002",
    "SS": "05"
  },
  "addresses": [
    {
      "id": "pt.ine.add.PTCONT.1981812",
      "street": "TV MARIA DA GLÓRIA",
      "house": "2",
      "postcode": "2450-027",
      "city": "FAMALICÃO NZR",
      "lon": "-9.080713570078355",
      "lat": "39.538921714198004"
    },
    {
      "id": "pt.ine.add.PTCONT.1988473",
      "street": "R ABÍLIO LOPES GOMES",
      "house": "8",
      "postcode": "2450-027",
      "city": "FAMALICÃO NZR",
      "lon": "-9.080689937446387",
      "lat": "39.5380392521216"
    },
    {
      "id": "pt.ine.add.PTCONT.1989867",
      "street": "TV MARIA DA GLÓRIA",
      "house": "1",
      "postcode": "2450-027",
      "city": "FAMALICÃO NZR",
      "lon": "-9.080806617987616",
      "lat": "39.53892095554918"
    },
    {
      "id": "pt.ine.add.PTCONT.2001792",
      "street": "R HERÓIS DO ULTRAMAR",
      "house": "15 B",
      "postcode": "2450-027",
      "city": "FAMALICÃO NZR",
      "lon": "-9.081559553764246",
      "lat": "39.53783401218653"
    },
    {
      "id": "pt.ine.add.PTCONT.2019009",
      "street": "R HERÓIS DO ULTRAMAR",
      "house": "25",
      "postcode": "2450-027",
      "city": "FAMALICÃO NZR",
      "lon": "-9.082254580661479",
      "lat": "39.53762118492124"
    },
    {
      "id": "pt.ine.add.PTCONT.2032315",
      "street": "R 1 DE MAIO",
      "house": "18",
      "postcode": "2450-027",
      "city": "FAMALICÃO NZR",
      "lon": "-9.08188949008385",
      "lat": "39.53729091847925"
    },
    {
      "id": "pt.ine.add.PTCONT.2052053",
      "street": "R HERÓIS DO ULTRAMAR",
      "house": "19",
      "postcode": "2450-027",
      "city": "FAMALICÃO NZR",
      "lon": "-9.081803923252593",
      "lat": "39.5378410245232"
    },
    {
      "id": "pt.ine.add.PTCONT.2073716",
      "street": "R HERÓIS DO ULTRAMAR",
      "house": "",
      "postcode": "2450-027",
      "city": "FAMALICÃO NZR",
      "lon": "-9.080842858307186",
      "lat": "39.539019733533586"
    },
    {
      "id": "pt.ine.add.PTCONT.2073717",
      "street": "R HERÓIS DO ULTRAMAR",
      "house": "",
      "postcode": "2450-027",
      "city": "FAMALICÃO NZR",
      "lon": "-9.080842858307186",
      "lat": "39.539019733533586"
    },
    {
      "id": "pt.ine.add.PTCONT.2073718",
      "street": "R HERÓIS DO ULTRAMAR",
      "house": "",
      "postcode": "2450-027",
      "city": "FAMALICÃO NZR",
      "lon": "-9.080842858307186",
      "lat": "39.539019733533586"
    },
    {
      "id": "pt.ine.add.PTCONT.2073719",
      "street": "R HERÓIS DO ULTRAMAR",
      "house": "",
      "postcode": "2450-027",
      "city": "FAMALICÃO NZR",
      "lon": "-9.080842858307186",
      "lat": "39.539019733533586"
    },
    {
      "id": "pt.ine.add.PTCONT.2075874",
      "street": "R 1 DE MAIO",
      "house": "9",
      "postcode": "2450-027",
      "city": "FAMALICÃO NZR",
      "lon": "-9.081634104717608",
      "lat": "39.53732902962484"
    },
    {
      "id": "pt.ine.add.PTCONT.2075875",
      "street": "R 1 DE MAIO",
      "house": "9",
      "postcode": "2450-027",
      "city": "FAMALICÃO NZR",
      "lon": "-9.081634104717608",
      "lat": "39.53732902962484"
    },
    {
      "id": "pt.ine.add.PTCONT.2075876",
      "street": "R HERÓIS DO ULTRAMAR",
      "house": "15",
      "postcode": "2450-027",
      "city": "FAMALICÃO NZR",
      "lon": "-9.080978020212601",
      "lat": "39.53869439084622"
    },
    {
      "id": "pt.ine.add.PTCONT.2104451",
      "street": "R 1 DE MAIO",
      "house": "",
      "postcode": "2450-027",
      "city": "FAMALICÃO NZR",
      "lon": "-9.08122923502295",
      "lat": "39.537494453243724"
    },
    {
      "id": "pt.ine.add.PTCONT.2104452",
      "street": "BC FERREIRO",
      "house": "6",
      "postcode": "2450-027",
      "city": "FAMALICÃO NZR",
      "lon": "-9.08164720644321",
      "lat": "39.53743700289172"
    },
    {
      "id": "pt.ine.add.PTCONT.2120158",
      "street": "R 1 DE MAIO",
      "house": "11",
      "postcode": "2450-027",
      "city": "FAMALICÃO NZR",
      "lon": "-9.08144850342329",
      "lat": "39.53736657085198"
    },
    {
      "id": "pt.ine.add.PTCONT.2120159",
      "street": "R 1 DE MAIO",
      "house": "11",
      "postcode": "2450-027",
      "city": "FAMALICÃO NZR",
      "lon": "-9.08144850342329",
      "lat": "39.53736657085198"
    },
    {
      "id": "pt.ine.add.PTCONT.2126577",
      "street": "TV MARIA DA GLÓRIA",
      "house": "4",
      "postcode": "2450-027",
      "city": "FAMALICÃO NZR",
      "lon": "-9.080586363918847",
      "lat": "39.53897679131192"
    },
    {
      "id": "pt.ine.add.PTCONT.2146261",
      "street": "R ABÍLIO LOPES GOMES",
      "house": "30",
      "postcode": "2450-027",
      "city": "FAMALICÃO NZR",
      "lon": "-9.080882394788109",
      "lat": "39.537650395597474"
    },
    {
      "id": "pt.ine.add.PTCONT.2148368",
      "street": "R HERÓIS DO ULTRAMAR",
      "house": "1",
      "postcode": "2450-027",
      "city": "FAMALICÃO NZR",
      "lon": "-9.080681983698227",
      "lat": "39.53916515208185"
    },
    {
      "id": "pt.ine.add.PTCONT.2152712",
      "street": "R ABÍLIO LOPES GOMES",
      "house": "10",
      "postcode": "2450-027",
      "city": "FAMALICÃO NZR",
      "lon": "-9.08077037354996",
      "lat": "39.53796654287102"
    },
    {
      "id": "pt.ine.add.PTCONT.2159374",
      "street": "R ABÍLIO LOPES GOMES",
      "house": "34",
      "postcode": "2450-027",
      "city": "FAMALICÃO NZR",
      "lon": "-9.080949974538353",
      "lat": "39.537487724229976"
    },
    {
      "id": "pt.ine.add.PTCONT.2161475",
      "street": "R HERÓIS DO ULTRAMAR",
      "house": "15 A",
      "postcode": "2450-027",
      "city": "FAMALICÃO NZR",
      "lon": "-9.081010952947354",
      "lat": "39.538550015377496"
    },
    {
      "id": "pt.ine.add.PTCONT.2164999",
      "street": "HEROIS ULTRAMAR",
      "house": "21",
      "postcode": "2450-027",
      "city": "FAMALICÃO NZR",
      "lon": "-9.081591013985825",
      "lat": "39.5375815683714"
    },
    {
      "id": "pt.ine.add.PTCONT.2165000",
      "street": "HEROIS ULTRAMAR",
      "house": "21",
      "postcode": "2450-027",
      "city": "FAMALICÃO NZR",
      "lon": "-9.081591013985825",
      "lat": "39.5375815683714"
    },
    {
      "id": "pt.ine.add.PTCONT.2165001",
      "street": "BC FERREIRO",
      "house": "8 2 ESQ",
      "postcode": "2450-027",
      "city": "FAMALICÃO NZR",
      "lon": "-9.081591013985825",
      "lat": "39.5375815683714"
    },
    {
      "id": "pt.ine.add.PTCONT.2165002",
      "street": "BC FERREIRO",
      "house": "8 2 ESQ",
      "postcode": "2450-027",
      "city": "FAMALICÃO NZR",
      "lon": "-9.081591013985825",
      "lat": "39.5375815683714"
    },
    {
      "id": "pt.ine.add.PTCONT.2165003",
      "street": "BC FERREIRO",
      "house": "8 2 ESQ",
      "postcode": "2450-027",
      "city": "FAMALICÃO NZR",
      "lon": "-9.081591013985825",
      "lat": "39.5375815683714"
    },
    {
      "id": "pt.ine.add.PTCONT.2165743",
      "street": "BC FERREIRO",
      "house": "8 2 ESQ",
      "postcode": "2450-027",
      "city": "FAMALICÃO NZR",
      "lon": "-9.081591013985825",
      "lat": "39.5375815683714"
    },
    {
      "id": "pt.ine.add.PTCONT.2181015",
      "street": "R ABÍLIO LOPES GOMES",
      "house": "20",
      "postcode": "2450-027",
      "city": "FAMALICÃO NZR",
      "lon": "-9.080779309950577",
      "lat": "39.5377683230052"
    },
    {
      "id": "pt.ine.add.PTCONT.2189971",
      "street": "R 1 DE MAIO",
      "house": "12",
      "postcode": "2450-027",
      "city": "FAMALICÃO NZR",
      "lon": "-9.081320933049673",
      "lat": "39.53739463169564"
    },
    {
      "id": "pt.ine.add.PTCONT.2210216",
      "street": "R 1 DE MAIO",
      "house": "17",
      "postcode": "2450-027",
      "city": "FAMALICÃO NZR",
      "lon": "-9.081230950453575",
      "lat": "39.537620532801746"
    },
    {
      "id": "pt.ine.add.PTCONT.2210218",
      "street": "LG PADRE NOSSO",
      "house": "3",
      "postcode": "2450-027",
      "city": "FAMALICÃO NZR",
      "lon": "-9.082158958859324",
      "lat": "39.53743282542134"
    },
    {
      "id": "pt.ine.add.PTCONT.2238337",
      "street": "TV MARIA DA GLÓRIA",
      "house": "3",
      "postcode": "2450-027",
      "city": "FAMALICÃO NZR",
      "lon": "-9.080679289439333",
      "lat": "39.53896702708211"
    },
    {
      "id": "pt.ine.add.PTCONT.2249690",
      "street": "R ABÍLIO LOPES GOMES",
      "house": "15",
      "postcode": "2450-027",
      "city": "FAMALICÃO NZR",
      "lon": "-9.080769148821402",
      "lat": "39.53787648603747"
    },
    {
      "id": "pt.ine.add.PTCONT.2266313",
      "street": "BC FERREIRO",
      "house": "8 2 ESQ",
      "postcode": "2450-027",
      "city": "FAMALICÃO NZR",
      "lon": "-9.081591013985825",
      "lat": "39.5375815683714"
    }
  ]
}