{
  "data": {
    "distrito": "Leiria",
    "concelho": "Nazaré",
    "freguesia": "Famalicão",
    "OBJECTID": 141,
    "BGRI2021": "10110100212",
    "DT21": "10",
    "DTMN21": "1011",
    "DTMNFR21": "101101",
    "DTMNFRSEC21": "101101002",
    "SECNUM21": "002",
    "SSNUM21": "12",
    "SECSSNUM21": "00212",
    "OBJECTID_1": 92945,
    "DT": "10",
    "CC": "11",
    "fr": "01",
    "SEC": "002",
    "SS": "12"
  },
  "addresses": [
    {
      "id": "pt.ine.add.PTCONT.1992064",
      "street": "R ANTÓNIO BERNARDO REIS",
      "house": "13",
      "postcode": "2450-011",
      "city": "FAMALICÃO NZR",
      "lon": "-9.079306461249246",
      "lat": "39.54751653863538"
    },
    {
      "id": "pt.ine.add.PTCONT.2007651",
      "street": "R BARQUEIRINHO",
      "house": "",
      "postcode": "2450-011",
      "city": "FAMALICÃO NZR",
      "lon": "-9.078507692591407",
      "lat": "39.54952251895673"
    },
    {
      "id": "pt.ine.add.PTCONT.2013926",
      "street": "R ANTÓNIO BERNARDO REIS",
      "house": "8",
      "postcode": "2450-011",
      "city": "FAMALICÃO NZR",
      "lon": "-9.078794756605088",
      "lat": "39.547529710101685"
    },
    {
      "id": "pt.ine.add.PTCONT.2016168",
      "street": "R DR FERNANDO SOARES",
      "house": "4",
      "postcode": "2450-011",
      "city": "FAMALICÃO NZR",
      "lon": "-9.07669517013383",
      "lat": "39.55227527473794"
    },
    {
      "id": "pt.ine.add.PTCONT.2016169",
      "street": "R ANTÓNIO BERNARDO REIS",
      "house": "12",
      "postcode": "2450-011",
      "city": "FAMALICÃO NZR",
      "lon": "-9.079110299860988",
      "lat": "39.54763522215807"
    },
    {
      "id": "pt.ine.add.PTCONT.2025433",
      "street": "CASAIS DE BAIXO",
      "house": "3",
      "postcode": "2450-011",
      "city": "FAMALICÃO NZR",
      "lon": "-9.078680754930359",
      "lat": "39.54770176435968"
    },
    {
      "id": "pt.ine.add.PTCONT.2040236",
      "street": "R DR FERNANDO SOARES",
      "house": "34",
      "postcode": "2450-011",
      "city": "FAMALICÃO NZR",
      "lon": "-9.077183265741615",
      "lat": "39.54965937828638"
    },
    {
      "id": "pt.ine.add.PTCONT.2044591",
      "street": "R ANTÓNIO BERNARDO REIS",
      "house": "14",
      "postcode": "2450-011",
      "city": "FAMALICÃO NZR",
      "lon": "-9.078905684480612",
      "lat": "39.54798814751016"
    },
    {
      "id": "pt.ine.add.PTCONT.2046740",
      "street": "R DR FERNANDO SOARES",
      "house": "18",
      "postcode": "2450-011",
      "city": "FAMALICÃO NZR",
      "lon": "-9.077026958057012",
      "lat": "39.55100264097286"
    },
    {
      "id": "pt.ine.add.PTCONT.2046741",
      "street": "R BARQUEIRINHO",
      "house": "",
      "postcode": "2450-011",
      "city": "FAMALICÃO NZR",
      "lon": "-9.078597087456336",
      "lat": "39.54925159176979"
    },
    {
      "id": "pt.ine.add.PTCONT.2052664",
      "street": "R PINTASSILGO",
      "house": "",
      "postcode": "2450-011",
      "city": "FAMALICÃO NZR",
      "lon": "-9.07918739572691",
      "lat": "39.550741894260156"
    },
    {
      "id": "pt.ine.add.PTCONT.2052665",
      "street": "R ANTÓNIO BERNARDO REIS",
      "house": "17",
      "postcode": "2450-011",
      "city": "FAMALICÃO NZR",
      "lon": "-9.079444582268831",
      "lat": "39.54740733405524"
    },
    {
      "id": "pt.ine.add.PTCONT.2058726",
      "street": "R BARQUEIRINHO",
      "house": "",
      "postcode": "2450-011",
      "city": "FAMALICÃO NZR",
      "lon": "-9.078563656139202",
      "lat": "39.54935994372694"
    },
    {
      "id": "pt.ine.add.PTCONT.2066865",
      "street": "R DR FERNANDO SOARES",
      "house": "48",
      "postcode": "2450-011",
      "city": "FAMALICÃO NZR",
      "lon": "-9.078371322271035",
      "lat": "39.54804653484503"
    },
    {
      "id": "pt.ine.add.PTCONT.2074960",
      "street": "R DR FERNANDO SOARES",
      "house": "10",
      "postcode": "2450-011",
      "city": "FAMALICÃO NZR",
      "lon": "-9.076977945993518",
      "lat": "39.5516785387939"
    },
    {
      "id": "pt.ine.add.PTCONT.2074961",
      "street": "R DR FERNANDO SOARES",
      "house": "10",
      "postcode": "2450-011",
      "city": "FAMALICÃO NZR",
      "lon": "-9.076977945993518",
      "lat": "39.5516785387939"
    },
    {
      "id": "pt.ine.add.PTCONT.2074962",
      "street": "R DR FERNANDO SOARES",
      "house": "36",
      "postcode": "2450-011",
      "city": "FAMALICÃO NZR",
      "lon": "-9.077323835885942",
      "lat": "39.54973028966109"
    },
    {
      "id": "pt.ine.add.PTCONT.2077178",
      "street": "R JOSE COUTINHO CONDE",
      "house": "9",
      "postcode": "2450-011",
      "city": "FAMALICÃO NZR",
      "lon": "-9.07776878399793",
      "lat": "39.5507984670115"
    },
    {
      "id": "pt.ine.add.PTCONT.2077179",
      "street": "R BARQUEIRINHO",
      "house": "2",
      "postcode": "2450-011",
      "city": "FAMALICÃO NZR",
      "lon": "-9.078462139327206",
      "lat": "39.549594942824655"
    },
    {
      "id": "pt.ine.add.PTCONT.2100091",
      "street": "R PINTASSILGO",
      "house": "1",
      "postcode": "2450-011",
      "city": "FAMALICÃO NZR",
      "lon": "-9.076708633521207",
      "lat": "39.552410265359164"
    },
    {
      "id": "pt.ine.add.PTCONT.2122924",
      "street": "R DR FERNANDO SOARES",
      "house": "16",
      "postcode": "2450-011",
      "city": "FAMALICÃO NZR",
      "lon": "-9.076807150876615",
      "lat": "39.551094492643664"
    },
    {
      "id": "pt.ine.add.PTCONT.2122925",
      "street": "R DR FERNANDO SOARES",
      "house": "28",
      "postcode": "2450-011",
      "city": "FAMALICÃO NZR",
      "lon": "-9.07680279984949",
      "lat": "39.549914654876744"
    },
    {
      "id": "pt.ine.add.PTCONT.2141156",
      "street": "R DR FERNANDO SOARES",
      "house": "46",
      "postcode": "2450-011",
      "city": "FAMALICÃO NZR",
      "lon": "-9.077851645153787",
      "lat": "39.54832996704937"
    },
    {
      "id": "pt.ine.add.PTCONT.2147488",
      "street": "R BARQUEIRINHO",
      "house": "",
      "postcode": "2450-011",
      "city": "FAMALICÃO NZR",
      "lon": "-9.078541490773272",
      "lat": "39.549441184030535"
    },
    {
      "id": "pt.ine.add.PTCONT.2160652",
      "street": "R DR FERNANDO SOARES",
      "house": "50",
      "postcode": "2450-011",
      "city": "FAMALICÃO NZR",
      "lon": "-9.078623937241705",
      "lat": "39.547801299957754"
    },
    {
      "id": "pt.ine.add.PTCONT.2175807",
      "street": "R DR FERNANDO SOARES",
      "house": "42",
      "postcode": "2450-011",
      "city": "FAMALICÃO NZR",
      "lon": "-9.078661504820232",
      "lat": "39.54885477439017"
    },
    {
      "id": "pt.ine.add.PTCONT.2182402",
      "street": "R JOSE COUTINHO CONDE",
      "house": "",
      "postcode": "2450-011",
      "city": "FAMALICÃO NZR",
      "lon": "-9.077785942836144",
      "lat": "39.55034799432599"
    },
    {
      "id": "pt.ine.add.PTCONT.2202646",
      "street": "R PINTASSILGO",
      "house": "5",
      "postcode": "2450-011",
      "city": "FAMALICÃO NZR",
      "lon": "-9.077357165415743",
      "lat": "39.55218883812103"
    },
    {
      "id": "pt.ine.add.PTCONT.2211635",
      "street": "R ANTÓNIO BERNARDO REIS",
      "house": "10",
      "postcode": "2450-011",
      "city": "FAMALICÃO NZR",
      "lon": "-9.078738061468325",
      "lat": "39.54763825142836"
    },
    {
      "id": "pt.ine.add.PTCONT.2239810",
      "street": "R BARQUEIRINHO",
      "house": "",
      "postcode": "2450-011",
      "city": "FAMALICÃO NZR",
      "lon": "-9.078439729327739",
      "lat": "39.54965817176563"
    },
    {
      "id": "pt.ine.add.PTCONT.2257655",
      "street": "R DR FERNANDO SOARES",
      "house": "32",
      "postcode": "2450-011",
      "city": "FAMALICÃO NZR",
      "lon": "-9.076975461888003",
      "lat": "39.549778152771914"
    }
  ]
}