{
  "data": {
    "distrito": "Leiria",
    "concelho": "Nazaré",
    "freguesia": "Famalicão",
    "OBJECTID": 188,
    "BGRI2021": "10110100221",
    "DT21": "10",
    "DTMN21": "1011",
    "DTMNFR21": "101101",
    "DTMNFRSEC21": "101101002",
    "SECNUM21": "002",
    "SSNUM21": "21",
    "SECSSNUM21": "00221",
    "OBJECTID_1": 93289,
    "DT": "10",
    "CC": "11",
    "fr": "01",
    "SEC": "002",
    "SS": "21"
  },
  "addresses": [
    {
      "id": "pt.ine.add.PTCONT.1985351",
      "street": "R CRUZ",
      "house": "",
      "postcode": "2450-024",
      "city": "FAMALICÃO NZR",
      "lon": "-9.08382419322803",
      "lat": "39.55802646723767"
    },
    {
      "id": "pt.ine.add.PTCONT.1990627",
      "street": "R DA PESCARIA",
      "house": "",
      "postcode": "2450-026",
      "city": "FAMALICÃO NZR",
      "lon": "-9.08573913216538",
      "lat": "39.555966276201175"
    },
    {
      "id": "pt.ine.add.PTCONT.2007548",
      "street": "R VIGARJO",
      "house": "8",
      "postcode": "2450-024",
      "city": "FAMALICÃO NZR",
      "lon": "-9.08152199443655",
      "lat": "39.55899998300373"
    },
    {
      "id": "pt.ine.add.PTCONT.2018163",
      "street": "R PESCARIA",
      "house": "",
      "postcode": "2450-024",
      "city": "FAMALICÃO NZR",
      "lon": "-9.084268330840898",
      "lat": "39.55732031430137"
    },
    {
      "id": "pt.ine.add.PTCONT.2034886",
      "street": "BC CABECO",
      "house": "",
      "postcode": "2450-024",
      "city": "FAMALICÃO NZR",
      "lon": "-9.084273549421837",
      "lat": "39.55855418262769"
    },
    {
      "id": "pt.ine.add.PTCONT.2046669",
      "street": "R CRUZ",
      "house": "",
      "postcode": "2450-024",
      "city": "FAMALICÃO NZR",
      "lon": "-9.083486064848193",
      "lat": "39.557975192976116"
    },
    {
      "id": "pt.ine.add.PTCONT.2060346",
      "street": "R PESCARIA",
      "house": "6",
      "postcode": "2450-024",
      "city": "FAMALICÃO NZR",
      "lon": "-9.085245527003071",
      "lat": "39.556456680485255"
    },
    {
      "id": "pt.ine.add.PTCONT.2063452",
      "street": "R FONTE DO POVO",
      "house": "7",
      "postcode": "2450-024",
      "city": "FAMALICÃO NZR",
      "lon": "-9.084414952092581",
      "lat": "39.55783249325954"
    },
    {
      "id": "pt.ine.add.PTCONT.2066864",
      "street": "R PESCARIA",
      "house": "",
      "postcode": "2450-024",
      "city": "FAMALICÃO NZR",
      "lon": "-9.08531711906889",
      "lat": "39.55743781886606"
    },
    {
      "id": "pt.ine.add.PTCONT.2085184",
      "street": "R FONTE DO POVO",
      "house": "2",
      "postcode": "2450-024",
      "city": "FAMALICÃO NZR",
      "lon": "-9.085245654746231",
      "lat": "39.558167943009195"
    },
    {
      "id": "pt.ine.add.PTCONT.2093689",
      "street": "R FONTE DO POVO",
      "house": "",
      "postcode": "2450-024",
      "city": "FAMALICÃO NZR",
      "lon": "-9.084828670254577",
      "lat": "39.55830645833407"
    },
    {
      "id": "pt.ine.add.PTCONT.2100392",
      "street": "R VIGARJO JERRA",
      "house": "10",
      "postcode": "2450-024",
      "city": "FAMALICÃO NZR",
      "lon": "-9.081523343719581",
      "lat": "39.55909904513789"
    },
    {
      "id": "pt.ine.add.PTCONT.2109388",
      "street": "R CRUZ",
      "house": "",
      "postcode": "2450-024",
      "city": "FAMALICÃO NZR",
      "lon": "-9.082163206859809",
      "lat": "39.55823818973548"
    },
    {
      "id": "pt.ine.add.PTCONT.2128514",
      "street": "R CRUZ",
      "house": "5",
      "postcode": "2450-024",
      "city": "FAMALICÃO NZR",
      "lon": "-9.083649066030848",
      "lat": "39.557982866520646"
    },
    {
      "id": "pt.ine.add.PTCONT.2131124",
      "street": "R PESCARIA",
      "house": "",
      "postcode": "2450-024",
      "city": "FAMALICÃO NZR",
      "lon": "-9.084084153824612",
      "lat": "39.557465927965154"
    },
    {
      "id": "pt.ine.add.PTCONT.2141061",
      "street": "LG DO BERNARDO",
      "house": "2",
      "postcode": "2450-024",
      "city": "FAMALICÃO NZR",
      "lon": "-9.08423225014993",
      "lat": "39.558086174872415"
    },
    {
      "id": "pt.ine.add.PTCONT.2182401",
      "street": "R FONTE DO POVO",
      "house": "",
      "postcode": "2450-024",
      "city": "FAMALICÃO NZR",
      "lon": "-9.084488078992257",
      "lat": "39.55807507417932"
    },
    {
      "id": "pt.ine.add.PTCONT.2184458",
      "street": "BC CABECO",
      "house": "5",
      "postcode": "2450-024",
      "city": "FAMALICÃO NZR",
      "lon": "-9.084385708958315",
      "lat": "39.5582470385202"
    },
    {
      "id": "pt.ine.add.PTCONT.2189044",
      "street": "",
      "house": "",
      "postcode": "2450-024",
      "city": "FAMALICÃO NZR",
      "lon": "-9.088318044998587",
      "lat": "39.55906140841674"
    },
    {
      "id": "pt.ine.add.PTCONT.2193843",
      "street": "R PESCARIA",
      "house": "",
      "postcode": "2450-024",
      "city": "FAMALICÃO NZR",
      "lon": "-9.084098985603768",
      "lat": "39.557699979510815"
    },
    {
      "id": "pt.ine.add.PTCONT.2215886",
      "street": "R FONTE DO POVO",
      "house": "8",
      "postcode": "2450-024",
      "city": "FAMALICÃO NZR",
      "lon": "-9.084616547139476",
      "lat": "39.55811004901076"
    },
    {
      "id": "pt.ine.add.PTCONT.2218174",
      "street": "R PESCARIA",
      "house": "",
      "postcode": "2450-024",
      "city": "FAMALICÃO NZR",
      "lon": "-9.084073995573752",
      "lat": "39.55757409089659"
    },
    {
      "id": "pt.ine.add.PTCONT.2237379",
      "street": "CSL MORGADO SERRA PESCARIA",
      "house": "",
      "postcode": "2450-024",
      "city": "FAMALICÃO NZR",
      "lon": "-9.088236728244043",
      "lat": "39.559071083413194"
    },
    {
      "id": "pt.ine.add.PTCONT.2248821",
      "street": "",
      "house": "",
      "postcode": "2450-024",
      "city": "FAMALICÃO NZR",
      "lon": "-9.088826988744167",
      "lat": "39.55884106455987"
    },
    {
      "id": "pt.ine.add.PTCONT.2255534",
      "street": "R CRUZ",
      "house": "",
      "postcode": "2450-024",
      "city": "FAMALICÃO NZR",
      "lon": "-9.083126265881209",
      "lat": "39.558041181336144"
    },
    {
      "id": "pt.ine.add.PTCONT.2265334",
      "street": "LG BERNARDO",
      "house": "",
      "postcode": "2450-024",
      "city": "FAMALICÃO NZR",
      "lon": "-9.084216925793827",
      "lat": "39.55781610079189"
    }
  ]
}