{
  "data": {
    "distrito": "Leiria",
    "concelho": "Nazaré",
    "freguesia": "Famalicão",
    "OBJECTID": 160,
    "BGRI2021": "10110100225",
    "DT21": "10",
    "DTMN21": "1011",
    "DTMNFR21": "101101",
    "DTMNFRSEC21": "101101002",
    "SECNUM21": "002",
    "SSNUM21": "25",
    "SECSSNUM21": "00225",
    "OBJECTID_1": 93295,
    "DT": "10",
    "CC": "11",
    "fr": "01",
    "SEC": "002",
    "SS": "25"
  },
  "addresses": [
    {
      "id": "pt.ine.add.PTCONT.1983095",
      "street": "R GEN HUMBERTO DELGADO",
      "house": "28",
      "postcode": "2450-017",
      "city": "FAMALICÃO NZR",
      "lon": "-9.068876493683328",
      "lat": "39.56091283178906"
    },
    {
      "id": "pt.ine.add.PTCONT.1985342",
      "street": "R GEN HUMBERTO DELGADO",
      "house": "26",
      "postcode": "2450-017",
      "city": "FAMALICÃO NZR",
      "lon": "-9.06883092311031",
      "lat": "39.56098525194846"
    },
    {
      "id": "pt.ine.add.PTCONT.1985343",
      "street": "R PADRE CRUZ",
      "house": "24",
      "postcode": "2450-017",
      "city": "FAMALICÃO NZR",
      "lon": "-9.07115375241338",
      "lat": "39.56152493808245"
    },
    {
      "id": "pt.ine.add.PTCONT.1989758",
      "street": "R GEN HUMBERTO DELGADO",
      "house": "30",
      "postcode": "2450-017",
      "city": "FAMALICÃO NZR",
      "lon": "-9.068875404373555",
      "lat": "39.560831780682655"
    },
    {
      "id": "pt.ine.add.PTCONT.1993041",
      "street": "R PADRE CRUZ",
      "house": "2",
      "postcode": "2450-017",
      "city": "FAMALICÃO NZR",
      "lon": "-9.068788620097882",
      "lat": "39.56130082540278"
    },
    {
      "id": "pt.ine.add.PTCONT.1994876",
      "street": "R PADRE CRUZ",
      "house": "2",
      "postcode": "2450-017",
      "city": "FAMALICÃO NZR",
      "lon": "-9.068788620097882",
      "lat": "39.56130082540278"
    },
    {
      "id": "pt.ine.add.PTCONT.1997684",
      "street": "R COSSI",
      "house": "17 A",
      "postcode": "2450-012",
      "city": "FAMALICÃO NZR",
      "lon": "-9.07304428317977",
      "lat": "39.5671027896837"
    },
    {
      "id": "pt.ine.add.PTCONT.2000872",
      "street": "R PADRE CRUZ",
      "house": "20",
      "postcode": "2450-017",
      "city": "FAMALICÃO NZR",
      "lon": "-9.070563045393895",
      "lat": "39.56172785100637"
    },
    {
      "id": "pt.ine.add.PTCONT.2003004",
      "street": "R FORMIGA",
      "house": "",
      "postcode": "2450-017",
      "city": "FAMALICÃO NZR",
      "lon": "-9.072259881367527",
      "lat": "39.560714412361946"
    },
    {
      "id": "pt.ine.add.PTCONT.2005053",
      "street": "R COSSI",
      "house": "3",
      "postcode": "2450-012",
      "city": "FAMALICÃO NZR",
      "lon": "-9.072286288720289",
      "lat": "39.56784746278687"
    },
    {
      "id": "pt.ine.add.PTCONT.2005054",
      "street": "R GEN HUMBERTO DELGADO",
      "house": "32",
      "postcode": "2450-017",
      "city": "FAMALICÃO NZR",
      "lon": "-9.068874557135663",
      "lat": "39.56076874093239"
    },
    {
      "id": "pt.ine.add.PTCONT.2007546",
      "street": "R GEN HUMBERTO DELGADO",
      "house": "18",
      "postcode": "2450-017",
      "city": "FAMALICÃO NZR",
      "lon": "-9.068710081096672",
      "lat": "39.56151761738851"
    },
    {
      "id": "pt.ine.add.PTCONT.2007547",
      "street": "R PADRE CRUZ",
      "house": "16",
      "postcode": "2450-017",
      "city": "FAMALICÃO NZR",
      "lon": "-9.070048810155697",
      "lat": "39.56156087171604"
    },
    {
      "id": "pt.ine.add.PTCONT.2013786",
      "street": "R COSSI",
      "house": "19",
      "postcode": "2450-012",
      "city": "FAMALICÃO NZR",
      "lon": "-9.073101124102283",
      "lat": "39.56700325685812"
    },
    {
      "id": "pt.ine.add.PTCONT.2013790",
      "street": "R GEN HUMBERTO DELGADO",
      "house": "",
      "postcode": "2450-017",
      "city": "FAMALICÃO NZR",
      "lon": "-9.068883286980926",
      "lat": "39.56055251095595"
    },
    {
      "id": "pt.ine.add.PTCONT.2013792",
      "street": "R PADRE CRUZ",
      "house": "10",
      "postcode": "2450-017",
      "city": "FAMALICÃO NZR",
      "lon": "-9.069664134717184",
      "lat": "39.561509932555715"
    },
    {
      "id": "pt.ine.add.PTCONT.2014714",
      "street": "R GEN HUMBERTO DELGADO",
      "house": "34",
      "postcode": "2450-017",
      "city": "FAMALICÃO NZR",
      "lon": "-9.068873709900434",
      "lat": "39.56070570118145"
    },
    {
      "id": "pt.ine.add.PTCONT.2031445",
      "street": "R ESCOLA",
      "house": "12",
      "postcode": "2450-017",
      "city": "FAMALICÃO NZR",
      "lon": "-9.070000213846955",
      "lat": "39.55967887304647"
    },
    {
      "id": "pt.ine.add.PTCONT.2040145",
      "street": "R COSSI",
      "house": "1",
      "postcode": "2450-012",
      "city": "FAMALICÃO NZR",
      "lon": "-9.072118189662747",
      "lat": "39.56832617318215"
    },
    {
      "id": "pt.ine.add.PTCONT.2040150",
      "street": "R PADRE CRUZ",
      "house": "8",
      "postcode": "2450-017",
      "city": "FAMALICÃO NZR",
      "lon": "-9.069582327744254",
      "lat": "39.561483571856634"
    },
    {
      "id": "pt.ine.add.PTCONT.2042377",
      "street": "R PADRE CRUZ",
      "house": "13",
      "postcode": "2450-017",
      "city": "FAMALICÃO NZR",
      "lon": "-9.070070625465096",
      "lat": "39.56145261601289"
    },
    {
      "id": "pt.ine.add.PTCONT.2044510",
      "street": "R GEN HUMBERTO DELGADO",
      "house": "",
      "postcode": "2450-017",
      "city": "FAMALICÃO NZR",
      "lon": "-9.069440128166114",
      "lat": "39.56561876943958"
    },
    {
      "id": "pt.ine.add.PTCONT.2044511",
      "street": "R COSSI",
      "house": "",
      "postcode": "2450-012",
      "city": "FAMALICÃO NZR",
      "lon": "-9.07293376212262",
      "lat": "39.567536002356434"
    },
    {
      "id": "pt.ine.add.PTCONT.2046665",
      "street": "R FORMIGA CASAL DO FORMIGA",
      "house": "",
      "postcode": "2450-017",
      "city": "FAMALICÃO NZR",
      "lon": "-9.072085968759433",
      "lat": "39.56076085093569"
    },
    {
      "id": "pt.ine.add.PTCONT.2055717",
      "street": "R COSSI",
      "house": "17",
      "postcode": "2450-012",
      "city": "FAMALICÃO NZR",
      "lon": "-9.073148883056275",
      "lat": "39.56709293694708"
    },
    {
      "id": "pt.ine.add.PTCONT.2071792",
      "street": "BC NSA SRA LIVRAMENTO",
      "house": "",
      "postcode": "2450-017",
      "city": "FAMALICÃO NZR",
      "lon": "-9.069786782783524",
      "lat": "39.56197728993497"
    },
    {
      "id": "pt.ine.add.PTCONT.2084370",
      "street": "R COSSI",
      "house": "21",
      "postcode": "2450-012",
      "city": "FAMALICÃO NZR",
      "lon": "-9.073018579800038",
      "lat": "39.5669228647454"
    },
    {
      "id": "pt.ine.add.PTCONT.2092948",
      "street": "R GEN HUMBERTO DELGADO",
      "house": "",
      "postcode": "2450-017",
      "city": "FAMALICÃO NZR",
      "lon": "-9.069410922146465",
      "lat": "39.565177679105375"
    },
    {
      "id": "pt.ine.add.PTCONT.2093579",
      "street": "R PADRE CRUZ",
      "house": "",
      "postcode": "2450-017",
      "city": "FAMALICÃO NZR",
      "lon": "-9.069580147441803",
      "lat": "39.561321469691286"
    },
    {
      "id": "pt.ine.add.PTCONT.2095599",
      "street": "R GEN HUMBERTO DELGADO",
      "house": "42",
      "postcode": "2450-017",
      "city": "FAMALICÃO NZR",
      "lon": "-9.068916254293455",
      "lat": "39.56040813903126"
    },
    {
      "id": "pt.ine.add.PTCONT.2100299",
      "street": "R FORMIGA",
      "house": "",
      "postcode": "2450-017",
      "city": "FAMALICÃO NZR",
      "lon": "-9.073658229491773",
      "lat": "39.560865223149726"
    },
    {
      "id": "pt.ine.add.PTCONT.2106929",
      "street": "R GEN HUMBERTO DELGADO QTA DO AMORA",
      "house": "10",
      "postcode": "2450-017",
      "city": "FAMALICÃO NZR",
      "lon": "-9.069030986908068",
      "lat": "39.5628840443422"
    },
    {
      "id": "pt.ine.add.PTCONT.2115777",
      "street": "R FORMIGA",
      "house": "",
      "postcode": "2450-017",
      "city": "FAMALICÃO NZR",
      "lon": "-9.072141712961306",
      "lat": "39.56058026748249"
    },
    {
      "id": "pt.ine.add.PTCONT.2119095",
      "street": "R NSA SRA DE FÁTIMA",
      "house": "",
      "postcode": "2450-017",
      "city": "FAMALICÃO NZR",
      "lon": "-9.06896846772561",
      "lat": "39.56169566991506"
    },
    {
      "id": "pt.ine.add.PTCONT.2121525",
      "street": "R PADRE CRUZ",
      "house": "",
      "postcode": "2450-017",
      "city": "FAMALICÃO NZR",
      "lon": "-9.06950973324865",
      "lat": "39.56127700382798"
    },
    {
      "id": "pt.ine.add.PTCONT.2131123",
      "street": "R COSSI",
      "house": "31 VIV C",
      "postcode": "2450-012",
      "city": "FAMALICÃO NZR",
      "lon": "-9.072572502428061",
      "lat": "39.56577362154626"
    },
    {
      "id": "pt.ine.add.PTCONT.2134289",
      "street": "R COSSI",
      "house": "25",
      "postcode": "2450-012",
      "city": "FAMALICÃO NZR",
      "lon": "-9.072874209989338",
      "lat": "39.56657277329925"
    },
    {
      "id": "pt.ine.add.PTCONT.2134290",
      "street": "R COSSI",
      "house": "25",
      "postcode": "2450-012",
      "city": "FAMALICÃO NZR",
      "lon": "-9.072874209989338",
      "lat": "39.56657277329925"
    },
    {
      "id": "pt.ine.add.PTCONT.2134294",
      "street": "R GEN HUMBERTO DELGADO",
      "house": "22",
      "postcode": "2450-017",
      "city": "FAMALICÃO NZR",
      "lon": "-9.068696873113716",
      "lat": "39.561400637243146"
    },
    {
      "id": "pt.ine.add.PTCONT.2136561",
      "street": "R NSA SRA DE FÁTIMA",
      "house": "",
      "postcode": "2450-017",
      "city": "FAMALICÃO NZR",
      "lon": "-9.06892277570835",
      "lat": "39.56175908442881"
    },
    {
      "id": "pt.ine.add.PTCONT.2146069",
      "street": "R COSSI",
      "house": "5",
      "postcode": "2450-012",
      "city": "FAMALICÃO NZR",
      "lon": "-9.072531735361258",
      "lat": "39.56792653860923"
    },
    {
      "id": "pt.ine.add.PTCONT.2147384",
      "street": "R COSSI",
      "house": "27",
      "postcode": "2450-012",
      "city": "FAMALICÃO NZR",
      "lon": "-9.072697122870139",
      "lat": "39.56638506575821"
    },
    {
      "id": "pt.ine.add.PTCONT.2147385",
      "street": "R COSSI",
      "house": "15 13",
      "postcode": "2450-012",
      "city": "FAMALICÃO NZR",
      "lon": "-9.073245860867283",
      "lat": "39.5673803649439"
    },
    {
      "id": "pt.ine.add.PTCONT.2147388",
      "street": "R PADRE CRUZ",
      "house": "15",
      "postcode": "2450-017",
      "city": "FAMALICÃO NZR",
      "lon": "-9.070210485325331",
      "lat": "39.56146950160774"
    },
    {
      "id": "pt.ine.add.PTCONT.2149550",
      "street": "R COSSI",
      "house": "27 A",
      "postcode": "2450-012",
      "city": "FAMALICÃO NZR",
      "lon": "-9.072837236379707",
      "lat": "39.566419959371615"
    },
    {
      "id": "pt.ine.add.PTCONT.2151722",
      "street": "R COSSI",
      "house": "23",
      "postcode": "2450-012",
      "city": "FAMALICÃO NZR",
      "lon": "-9.072958455928916",
      "lat": "39.566779244750634"
    },
    {
      "id": "pt.ine.add.PTCONT.2152960",
      "street": "R COSSI",
      "house": "31 VIV B",
      "postcode": "2450-012",
      "city": "FAMALICÃO NZR",
      "lon": "-9.072490203260534",
      "lat": "39.565711240339915"
    },
    {
      "id": "pt.ine.add.PTCONT.2169329",
      "street": "R PADRE CRUZ",
      "house": "22",
      "postcode": "2450-017",
      "city": "FAMALICÃO NZR",
      "lon": "-9.07114430157228",
      "lat": "39.561687134083435"
    },
    {
      "id": "pt.ine.add.PTCONT.2182327",
      "street": "R GEN HUMBERTO DELGADO",
      "house": "",
      "postcode": "2450-017",
      "city": "FAMALICÃO NZR",
      "lon": "-9.068894074374384",
      "lat": "39.56048937751724"
    },
    {
      "id": "pt.ine.add.PTCONT.2191181",
      "street": "R COSSI",
      "house": "31 VIV A",
      "postcode": "2450-012",
      "city": "FAMALICÃO NZR",
      "lon": "-9.072326212872987",
      "lat": "39.56563150605633"
    },
    {
      "id": "pt.ine.add.PTCONT.2191186",
      "street": "R GEN HUMBERTO DELGADO",
      "house": "20",
      "postcode": "2450-017",
      "city": "FAMALICÃO NZR",
      "lon": "-9.068697478182035",
      "lat": "39.561445665633634"
    },
    {
      "id": "pt.ine.add.PTCONT.2197180",
      "street": "R COSSI",
      "house": "",
      "postcode": "2450-012",
      "city": "FAMALICÃO NZR",
      "lon": "-9.072979210955225",
      "lat": "39.56745457501091"
    },
    {
      "id": "pt.ine.add.PTCONT.2202583",
      "street": "R ESCOLA",
      "house": "2",
      "postcode": "2450-017",
      "city": "FAMALICÃO NZR",
      "lon": "-9.069297653784623",
      "lat": "39.56021592744316"
    },
    {
      "id": "pt.ine.add.PTCONT.2203632",
      "street": "R COSSI",
      "house": "7",
      "postcode": "2450-012",
      "city": "FAMALICÃO NZR",
      "lon": "-9.072773170779735",
      "lat": "39.56770842720525"
    },
    {
      "id": "pt.ine.add.PTCONT.2218156",
      "street": "R GEN HUMBERTO DELGADO",
      "house": "36",
      "postcode": "2450-017",
      "city": "FAMALICÃO NZR",
      "lon": "-9.06888425525462",
      "lat": "39.560624556387225"
    },
    {
      "id": "pt.ine.add.PTCONT.2221032",
      "street": "R PADRE CRUZ",
      "house": "14",
      "postcode": "2450-017",
      "city": "FAMALICÃO NZR",
      "lon": "-9.069827870006591",
      "lat": "39.56157165945355"
    },
    {
      "id": "pt.ine.add.PTCONT.2229409",
      "street": "R PADRE CRUZ",
      "house": "17",
      "postcode": "2450-017",
      "city": "FAMALICÃO NZR",
      "lon": "-9.069755880440452",
      "lat": "39.561410119968265"
    },
    {
      "id": "pt.ine.add.PTCONT.2233044",
      "street": "R PADRE CRUZ",
      "house": "14",
      "postcode": "2450-017",
      "city": "FAMALICÃO NZR",
      "lon": "-9.069757576553254",
      "lat": "39.56153619942233"
    },
    {
      "id": "pt.ine.add.PTCONT.2237309",
      "street": "R COSSI",
      "house": "31 E",
      "postcode": "2450-012",
      "city": "FAMALICÃO NZR",
      "lon": "-9.07281854985209",
      "lat": "39.565897725177805"
    },
    {
      "id": "pt.ine.add.PTCONT.2239721",
      "street": "R ESCOLA",
      "house": "2 A",
      "postcode": "2450-017",
      "city": "FAMALICÃO NZR",
      "lon": "-9.06914834127291",
      "lat": "39.560361236641874"
    },
    {
      "id": "pt.ine.add.PTCONT.2245382",
      "street": "LG FONTE",
      "house": "3",
      "postcode": "2450-012",
      "city": "FAMALICÃO NZR",
      "lon": "-9.071920378862291",
      "lat": "39.56832777142723"
    },
    {
      "id": "pt.ine.add.PTCONT.2252978",
      "street": "R COSSI",
      "house": "31 VIV D",
      "postcode": "2450-012",
      "city": "FAMALICÃO NZR",
      "lon": "-9.07273649342886",
      "lat": "39.56585335547302"
    },
    {
      "id": "pt.ine.add.PTCONT.2255532",
      "street": "R NSA SRA DE FÁTIMA",
      "house": "",
      "postcode": "2450-017",
      "city": "FAMALICÃO NZR",
      "lon": "-9.069166623077784",
      "lat": "39.5617210939451"
    },
    {
      "id": "pt.ine.add.PTCONT.2259842",
      "street": "R COSSI",
      "house": "27",
      "postcode": "2450-012",
      "city": "FAMALICÃO NZR",
      "lon": "-9.072905834232314",
      "lat": "39.56632933819986"
    },
    {
      "id": "pt.ine.add.PTCONT.2259843",
      "street": "R CAMPO",
      "house": "2 4",
      "postcode": "2450-012",
      "city": "FAMALICÃO NZR",
      "lon": "-9.07170038907178",
      "lat": "39.56841060823882"
    },
    {
      "id": "pt.ine.add.PTCONT.2259844",
      "street": "R CAMPO",
      "house": "2 4",
      "postcode": "2450-012",
      "city": "FAMALICÃO NZR",
      "lon": "-9.07170038907178",
      "lat": "39.56841060823882"
    },
    {
      "id": "pt.ine.add.PTCONT.2264928",
      "street": "R NSA SRA DE FÁTIMA",
      "house": "",
      "postcode": "2450-017",
      "city": "FAMALICÃO NZR",
      "lon": "-9.069050032604352",
      "lat": "39.56170401969168"
    }
  ]
}