{
  "data": {
    "distrito": "Vila Real",
    "concelho": "Vila Real",
    "freguesia": "União das freguesias de Adoufe e Vilarinho de Samardã",
    "OBJECTID": 402,
    "BGRI2021": "17143100210",
    "DT21": "17",
    "DTMN21": "1714",
    "DTMNFR21": "171431",
    "DTMNFRSEC21": "171431002",
    "SECNUM21": "002",
    "SSNUM21": "10",
    "SECSSNUM21": "00210",
    "OBJECTID_1": 187568,
    "DT": "17",
    "CC": "14",
    "fr": "31",
    "SEC": "002",
    "SS": "10"
  },
  "addresses": [
    {
      "id": "pt.ine.add.PTCONT.5308364",
      "street": "R CORVA",
      "house": "",
      "postcode": "5000-025",
      "city": "ADOUFE",
      "lon": "-7.726969253963316",
      "lat": "41.35812477472749"
    },
    {
      "id": "pt.ine.add.PTCONT.5310194",
      "street": "R MUNICIPAL",
      "house": "",
      "postcode": "5000-025",
      "city": "ADOUFE",
      "lon": "-7.729231669719038",
      "lat": "41.35364872036856"
    },
    {
      "id": "pt.ine.add.PTCONT.5323630",
      "street": "R MUNICIPAL",
      "house": "",
      "postcode": "5000-025",
      "city": "ADOUFE",
      "lon": "-7.728783853584655",
      "lat": "41.35842829769916"
    },
    {
      "id": "pt.ine.add.PTCONT.5333347",
      "street": "SAGACAL",
      "house": "",
      "postcode": "5000-024",
      "city": "ADOUFE",
      "lon": "-7.7240672047543395",
      "lat": "41.353999646869866"
    },
    {
      "id": "pt.ine.add.PTCONT.5334476",
      "street": "EN 2",
      "house": "19",
      "postcode": "5000-024",
      "city": "ADOUFE",
      "lon": "-7.722197308631652",
      "lat": "41.35491139880371"
    },
    {
      "id": "pt.ine.add.PTCONT.5340705",
      "street": "LUGAR DO SARGACAL",
      "house": "2",
      "postcode": "5000-024",
      "city": "ADOUFE",
      "lon": "-7.723543797467954",
      "lat": "41.35361961523921"
    },
    {
      "id": "pt.ine.add.PTCONT.5343066",
      "street": "LUGAR DO SARGACAL",
      "house": "",
      "postcode": "5000-024",
      "city": "ADOUFE",
      "lon": "-7.723391560134912",
      "lat": "41.3531238505148"
    },
    {
      "id": "pt.ine.add.PTCONT.5350226",
      "street": "R PARDINHA",
      "house": "5",
      "postcode": "5000-023",
      "city": "ADOUFE",
      "lon": "-7.729550912336197",
      "lat": "41.3541990874115"
    },
    {
      "id": "pt.ine.add.PTCONT.5353541",
      "street": "EN 2",
      "house": "17",
      "postcode": "5000-024",
      "city": "ADOUFE",
      "lon": "-7.722920788386341",
      "lat": "41.35387851391247"
    },
    {
      "id": "pt.ine.add.PTCONT.5356870",
      "street": "R CORVA",
      "house": "",
      "postcode": "5000-025",
      "city": "ADOUFE",
      "lon": "-7.728662901228984",
      "lat": "41.35866197785405"
    },
    {
      "id": "pt.ine.add.PTCONT.5361924",
      "street": "R MUNICIPAL",
      "house": "32",
      "postcode": "5000-025",
      "city": "ADOUFE",
      "lon": "-7.728382618950597",
      "lat": "41.357607519228864"
    },
    {
      "id": "pt.ine.add.PTCONT.5368592",
      "street": "EN 2",
      "house": "21",
      "postcode": "5000-024",
      "city": "ADOUFE",
      "lon": "-7.722280107026448",
      "lat": "41.35504675513947"
    },
    {
      "id": "pt.ine.add.PTCONT.5372955",
      "street": "R VINHAL",
      "house": "26",
      "postcode": "5000-024",
      "city": "ADOUFE",
      "lon": "-7.722566390219496",
      "lat": "41.355128813180926"
    },
    {
      "id": "pt.ine.add.PTCONT.5383860",
      "street": "R CORVA",
      "house": "",
      "postcode": "5000-025",
      "city": "ADOUFE",
      "lon": "-7.728412780472979",
      "lat": "41.358526037908966"
    },
    {
      "id": "pt.ine.add.PTCONT.5383861",
      "street": "R MUNICIPAL",
      "house": "",
      "postcode": "5000-025",
      "city": "ADOUFE",
      "lon": "-7.728850290475599",
      "lat": "41.35348530841594"
    },
    {
      "id": "pt.ine.add.PTCONT.5386732",
      "street": "BAJANCAS",
      "house": "",
      "postcode": "5000-024",
      "city": "ADOUFE",
      "lon": "-7.723903290279828",
      "lat": "41.35536767974902"
    },
    {
      "id": "pt.ine.add.PTCONT.5398475",
      "street": "LUGAR DE SOUTO MEAO",
      "house": "",
      "postcode": "5000-024",
      "city": "ADOUFE",
      "lon": "-7.725193300492785",
      "lat": "41.35546229981875"
    },
    {
      "id": "pt.ine.add.PTCONT.5404987",
      "street": "R CORVA",
      "house": "",
      "postcode": "5000-025",
      "city": "ADOUFE",
      "lon": "-7.725659162606196",
      "lat": "41.35740882432642"
    },
    {
      "id": "pt.ine.add.PTCONT.5413514",
      "street": "R MUNICIPAL",
      "house": "",
      "postcode": "5000-025",
      "city": "ADOUFE",
      "lon": "-7.72988944769305",
      "lat": "41.35549685727107"
    },
    {
      "id": "pt.ine.add.PTCONT.5424195",
      "street": "R MUNICIPAL",
      "house": "30",
      "postcode": "5000-025",
      "city": "ADOUFE",
      "lon": "-7.7286140758613495",
      "lat": "41.3568970132964"
    },
    {
      "id": "pt.ine.add.PTCONT.5425459",
      "street": "R MUNICIPAL",
      "house": "34",
      "postcode": "5000-025",
      "city": "ADOUFE",
      "lon": "-7.728300083619026",
      "lat": "41.35742714802164"
    }
  ]
}