{
  "data": {
    "distrito": "Vila Real",
    "concelho": "Vila Real",
    "freguesia": "União das freguesias de Adoufe e Vilarinho de Samardã",
    "OBJECTID": 363,
    "BGRI2021": "17143100222",
    "DT21": "17",
    "DTMN21": "1714",
    "DTMNFR21": "171431",
    "DTMNFRSEC21": "171431002",
    "SECNUM21": "002",
    "SSNUM21": "22",
    "SECSSNUM21": "00222",
    "OBJECTID_1": 188349,
    "DT": "17",
    "CC": "14",
    "fr": "31",
    "SEC": "002",
    "SS": "22"
  },
  "addresses": [
    {
      "id": "pt.ine.add.PTCONT.5295879",
      "street": "R GRANDE",
      "house": "",
      "postcode": "5000-781",
      "city": "VILARINHO DA SAMARDÃ",
      "lon": "-7.718340104185732",
      "lat": "41.36955613486709"
    },
    {
      "id": "pt.ine.add.PTCONT.5297042",
      "street": "R TROGANO",
      "house": "21",
      "postcode": "5000-781",
      "city": "VILARINHO DA SAMARDÃ",
      "lon": "-7.72004092321582",
      "lat": "41.36899499872335"
    },
    {
      "id": "pt.ine.add.PTCONT.5307101",
      "street": "R CARREIRA",
      "house": "5",
      "postcode": "5000-781",
      "city": "VILARINHO DA SAMARDÃ",
      "lon": "-7.7185456372433014",
      "lat": "41.369187710394236"
    },
    {
      "id": "pt.ine.add.PTCONT.5313796",
      "street": "TV VALE DE OJO",
      "house": "7",
      "postcode": "5000-781",
      "city": "VILARINHO DA SAMARDÃ",
      "lon": "-7.720926808993686",
      "lat": "41.368773074442274"
    },
    {
      "id": "pt.ine.add.PTCONT.5319239",
      "street": "R TROGANO",
      "house": "7",
      "postcode": "5000-781",
      "city": "VILARINHO DA SAMARDÃ",
      "lon": "-7.718722007428334",
      "lat": "41.36964755094791"
    },
    {
      "id": "pt.ine.add.PTCONT.5319431",
      "street": "R TROGANO",
      "house": "3",
      "postcode": "5000-781",
      "city": "VILARINHO DA SAMARDÃ",
      "lon": "-7.718936978373458",
      "lat": "41.36967533690998"
    },
    {
      "id": "pt.ine.add.PTCONT.5320520",
      "street": "R CARREIRA",
      "house": "7",
      "postcode": "5000-781",
      "city": "VILARINHO DA SAMARDÃ",
      "lon": "-7.718713197460397",
      "lat": "41.369152297786975"
    },
    {
      "id": "pt.ine.add.PTCONT.5328452",
      "street": "R CARREIRA",
      "house": "",
      "postcode": "5000-781",
      "city": "VILARINHO DA SAMARDÃ",
      "lon": "-7.71919100240974",
      "lat": "41.369199037481174"
    },
    {
      "id": "pt.ine.add.PTCONT.5378683",
      "street": "EN 2",
      "house": "",
      "postcode": "5000-781",
      "city": "VILARINHO DA SAMARDÃ",
      "lon": "-7.722957303795042",
      "lat": "41.36709657574715"
    },
    {
      "id": "pt.ine.add.PTCONT.5390399",
      "street": "R TROGANO",
      "house": "",
      "postcode": "5000-781",
      "city": "VILARINHO DA SAMARDÃ",
      "lon": "-7.719080292440283",
      "lat": "41.369693860661975"
    },
    {
      "id": "pt.ine.add.PTCONT.5407425",
      "street": "R ME",
      "house": "",
      "postcode": "5000-781",
      "city": "VILARINHO DA SAMARDÃ",
      "lon": "-7.718834033712011",
      "lat": "41.368945640235324"
    },
    {
      "id": "pt.ine.add.PTCONT.5419609",
      "street": "TV VALE DE OJO",
      "house": "5",
      "postcode": "5000-781",
      "city": "VILARINHO DA SAMARDÃ",
      "lon": "-7.720877806709679",
      "lat": "41.36896198349256"
    },
    {
      "id": "pt.ine.add.PTCONT.5423671",
      "street": "R TROGANO",
      "house": "17",
      "postcode": "5000-781",
      "city": "VILARINHO DA SAMARDÃ",
      "lon": "-7.719501875382613",
      "lat": "41.36918214715672"
    },
    {
      "id": "pt.ine.add.PTCONT.5426199",
      "street": "R TROGANO",
      "house": "27",
      "postcode": "5000-781",
      "city": "VILARINHO DA SAMARDÃ",
      "lon": "-7.720636714962578",
      "lat": "41.36928526458175"
    }
  ]
}