{
  "data": {
    "distrito": "Évora",
    "concelho": "Évora",
    "freguesia": "União das freguesias de Évora (São Mamede, Sé, São Pedro e Santo Antão)",
    "OBJECTID": 552,
    "BGRI2021": "07052300629",
    "DT21": "07",
    "DTMN21": "0705",
    "DTMNFR21": "070523",
    "DTMNFRSEC21": "070523006",
    "SECNUM21": "006",
    "SSNUM21": "29",
    "SECSSNUM21": "00629",
    "OBJECTID_1": 60202,
    "DT": "07",
    "CC": "05",
    "fr": "23",
    "SEC": "006",
    "SS": "29"
  },
  "addresses": [
    {
      "id": "pt.ine.add.PTCONT.1394639",
      "street": "ICOR-ALOJAMENTO FICTICIO",
      "house": "",
      "postcode": "7000-919",
      "city": "ÉVORA",
      "lon": "-7.907459011165107",
      "lat": "38.56985626272811"
    },
    {
      "id": "pt.ine.add.PTCONT.1394655",
      "street": "ICOR-ALOJAMENTO FICTICIO",
      "house": "",
      "postcode": "7000-919",
      "city": "ÉVORA",
      "lon": "-7.907459011165107",
      "lat": "38.56985626272811"
    },
    {
      "id": "pt.ine.add.PTCONT.1394656",
      "street": "ICOR-ALOJAMENTO FICTICIO",
      "house": "",
      "postcode": "7000-919",
      "city": "ÉVORA",
      "lon": "-7.907459011165107",
      "lat": "38.56985626272811"
    },
    {
      "id": "pt.ine.add.PTCONT.1394657",
      "street": "ICOR-ALOJAMENTO FICTICIO",
      "house": "",
      "postcode": "7000-919",
      "city": "ÉVORA",
      "lon": "-7.907459011165107",
      "lat": "38.56985626272811"
    },
    {
      "id": "pt.ine.add.PTCONT.1394640",
      "street": "ICOR-ALOJAMENTO FICTICIO",
      "house": "",
      "postcode": "7000-919",
      "city": "ÉVORA",
      "lon": "-7.907459011165107",
      "lat": "38.56985626272811"
    },
    {
      "id": "pt.ine.add.PTCONT.1394658",
      "street": "ICOR-ALOJAMENTO FICTICIO",
      "house": "",
      "postcode": "7000-919",
      "city": "ÉVORA",
      "lon": "-7.907459011165107",
      "lat": "38.56985626272811"
    },
    {
      "id": "pt.ine.add.PTCONT.1394641",
      "street": "ICOR-ALOJAMENTO FICTICIO",
      "house": "",
      "postcode": "7000-919",
      "city": "ÉVORA",
      "lon": "-7.907459011165107",
      "lat": "38.56985626272811"
    },
    {
      "id": "pt.ine.add.PTCONT.1394642",
      "street": "ICOR-ALOJAMENTO FICTICIO",
      "house": "",
      "postcode": "7000-919",
      "city": "ÉVORA",
      "lon": "-7.907459011165107",
      "lat": "38.56985626272811"
    },
    {
      "id": "pt.ine.add.PTCONT.1394643",
      "street": "ICOR-ALOJAMENTO FICTICIO",
      "house": "",
      "postcode": "7000-919",
      "city": "ÉVORA",
      "lon": "-7.907459011165107",
      "lat": "38.56985626272811"
    },
    {
      "id": "pt.ine.add.PTCONT.1394659",
      "street": "ICOR-ALOJAMENTO FICTICIO",
      "house": "",
      "postcode": "7000-919",
      "city": "ÉVORA",
      "lon": "-7.907459011165107",
      "lat": "38.56985626272811"
    },
    {
      "id": "pt.ine.add.PTCONT.1394660",
      "street": "ICOR-ALOJAMENTO FICTICIO",
      "house": "",
      "postcode": "7000-919",
      "city": "ÉVORA",
      "lon": "-7.907459011165107",
      "lat": "38.56985626272811"
    },
    {
      "id": "pt.ine.add.PTCONT.1394661",
      "street": "ICOR-ALOJAMENTO FICTICIO",
      "house": "",
      "postcode": "7000-919",
      "city": "ÉVORA",
      "lon": "-7.907459011165107",
      "lat": "38.56985626272811"
    },
    {
      "id": "pt.ine.add.PTCONT.1394644",
      "street": "ICOR-ALOJAMENTO FICTICIO",
      "house": "",
      "postcode": "7000-919",
      "city": "ÉVORA",
      "lon": "-7.907459011165107",
      "lat": "38.56985626272811"
    },
    {
      "id": "pt.ine.add.PTCONT.1394662",
      "street": "ICOR-ALOJAMENTO FICTICIO",
      "house": "",
      "postcode": "7000-919",
      "city": "ÉVORA",
      "lon": "-7.907459011165107",
      "lat": "38.56985626272811"
    },
    {
      "id": "pt.ine.add.PTCONT.1394645",
      "street": "ICOR-ALOJAMENTO FICTICIO",
      "house": "",
      "postcode": "7000-919",
      "city": "ÉVORA",
      "lon": "-7.907459011165107",
      "lat": "38.56985626272811"
    },
    {
      "id": "pt.ine.add.PTCONT.1394663",
      "street": "ICOR-ALOJAMENTO FICTICIO",
      "house": "",
      "postcode": "7000-919",
      "city": "ÉVORA",
      "lon": "-7.907459011165107",
      "lat": "38.56985626272811"
    },
    {
      "id": "pt.ine.add.PTCONT.1394664",
      "street": "ICOR-ALOJAMENTO FICTICIO",
      "house": "",
      "postcode": "7000-919",
      "city": "ÉVORA",
      "lon": "-7.907459011165107",
      "lat": "38.56985626272811"
    },
    {
      "id": "pt.ine.add.PTCONT.1394646",
      "street": "ICOR-ALOJAMENTO FICTICIO",
      "house": "",
      "postcode": "7000-919",
      "city": "ÉVORA",
      "lon": "-7.907459011165107",
      "lat": "38.56985626272811"
    },
    {
      "id": "pt.ine.add.PTCONT.1394647",
      "street": "ICOR-ALOJAMENTO FICTICIO",
      "house": "",
      "postcode": "7000-919",
      "city": "ÉVORA",
      "lon": "-7.907459011165107",
      "lat": "38.56985626272811"
    },
    {
      "id": "pt.ine.add.PTCONT.1394648",
      "street": "ICOR-ALOJAMENTO FICTICIO",
      "house": "",
      "postcode": "7000-919",
      "city": "ÉVORA",
      "lon": "-7.907459011165107",
      "lat": "38.56985626272811"
    },
    {
      "id": "pt.ine.add.PTCONT.1394650",
      "street": "ICOR-ALOJAMENTO FICTICIO",
      "house": "",
      "postcode": "7000-919",
      "city": "ÉVORA",
      "lon": "-7.907459011165107",
      "lat": "38.56985626272811"
    },
    {
      "id": "pt.ine.add.PTCONT.1394649",
      "street": "ICOR-ALOJAMENTO FICTICIO",
      "house": "",
      "postcode": "7000-919",
      "city": "ÉVORA",
      "lon": "-7.907459011165107",
      "lat": "38.56985626272811"
    },
    {
      "id": "pt.ine.add.PTCONT.1394651",
      "street": "ICOR-ALOJAMENTO FICTICIO",
      "house": "",
      "postcode": "7000-919",
      "city": "ÉVORA",
      "lon": "-7.907459011165107",
      "lat": "38.56985626272811"
    },
    {
      "id": "pt.ine.add.PTCONT.1394652",
      "street": "ICOR-ALOJAMENTO FICTICIO",
      "house": "",
      "postcode": "7000-919",
      "city": "ÉVORA",
      "lon": "-7.907459011165107",
      "lat": "38.56985626272811"
    },
    {
      "id": "pt.ine.add.PTCONT.1394653",
      "street": "ICOR-ALOJAMENTO FICTICIO",
      "house": "",
      "postcode": "7000-919",
      "city": "ÉVORA",
      "lon": "-7.907459011165107",
      "lat": "38.56985626272811"
    },
    {
      "id": "pt.ine.add.PTCONT.1394654",
      "street": "ICOR-ALOJAMENTO FICTICIO",
      "house": "",
      "postcode": "7000-919",
      "city": "ÉVORA",
      "lon": "-7.907459011165107",
      "lat": "38.56985626272811"
    },
    {
      "id": "pt.ine.add.PTCONT.1394635",
      "street": "ICOR-ALOJAMENTO FICTICIO",
      "house": "",
      "postcode": "7000-919",
      "city": "ÉVORA",
      "lon": "-7.907459011165107",
      "lat": "38.56985626272811"
    },
    {
      "id": "pt.ine.add.PTCONT.1394636",
      "street": "ICOR-ALOJAMENTO FICTICIO",
      "house": "",
      "postcode": "7000-919",
      "city": "ÉVORA",
      "lon": "-7.907459011165107",
      "lat": "38.56985626272811"
    },
    {
      "id": "pt.ine.add.PTCONT.1394637",
      "street": "ICOR-ALOJAMENTO FICTICIO",
      "house": "",
      "postcode": "7000-919",
      "city": "ÉVORA",
      "lon": "-7.907459011165107",
      "lat": "38.56985626272811"
    },
    {
      "id": "pt.ine.add.PTCONT.1394638",
      "street": "ICOR-ALOJAMENTO FICTICIO",
      "house": "",
      "postcode": "7000-919",
      "city": "ÉVORA",
      "lon": "-7.907459011165107",
      "lat": "38.56985626272811"
    },
    {
      "id": "pt.ine.add.PTCONT.1394630",
      "street": "ICOR-ALOJAMENTO FICTICIO",
      "house": "",
      "postcode": "7000-919",
      "city": "ÉVORA",
      "lon": "-7.907459011165107",
      "lat": "38.56985626272811"
    },
    {
      "id": "pt.ine.add.PTCONT.1394631",
      "street": "ICOR-ALOJAMENTO FICTICIO",
      "house": "",
      "postcode": "7000-919",
      "city": "ÉVORA",
      "lon": "-7.907459011165107",
      "lat": "38.56985626272811"
    },
    {
      "id": "pt.ine.add.PTCONT.1394632",
      "street": "ICOR-ALOJAMENTO FICTICIO",
      "house": "",
      "postcode": "7000-919",
      "city": "ÉVORA",
      "lon": "-7.907459011165107",
      "lat": "38.56985626272811"
    },
    {
      "id": "pt.ine.add.PTCONT.1394633",
      "street": "ICOR-ALOJAMENTO FICTICIO",
      "house": "",
      "postcode": "7000-919",
      "city": "ÉVORA",
      "lon": "-7.907459011165107",
      "lat": "38.56985626272811"
    },
    {
      "id": "pt.ine.add.PTCONT.1394634",
      "street": "ICOR-ALOJAMENTO FICTICIO",
      "house": "",
      "postcode": "7000-919",
      "city": "ÉVORA",
      "lon": "-7.907459011165107",
      "lat": "38.56985626272811"
    },
    {
      "id": "pt.ine.add.PTCONT.1394696",
      "street": "R CIPRESTES",
      "house": "32",
      "postcode": "7090-051",
      "city": "ALCÁÇOVAS",
      "lon": "-7.907459011165107",
      "lat": "38.56985626272811"
    },
    {
      "id": "pt.ine.add.PTCONT.1394697",
      "street": "R JOSÉ RIBEIRO DA COSTA",
      "house": "1",
      "postcode": "2070-099",
      "city": "CARTAXO",
      "lon": "-7.907459011165107",
      "lat": "38.56985626272811"
    },
    {
      "id": "pt.ine.add.PTCONT.1394698",
      "street": "URB VILA PLÁTANO",
      "house": "",
      "postcode": "7500-130",
      "city": "VILA NOVA DE SANTO ANDRÉ",
      "lon": "-7.907459011165107",
      "lat": "38.56985626272811"
    },
    {
      "id": "pt.ine.add.PTCONT.1394699",
      "street": "R DOS SAPATEIROS",
      "house": "5 A",
      "postcode": "7350-180",
      "city": "ELVAS",
      "lon": "-7.907459011165107",
      "lat": "38.56985626272811"
    },
    {
      "id": "pt.ine.add.PTCONT.1394700",
      "street": "TV DAS PERAS",
      "house": "4",
      "postcode": "7000-678",
      "city": "ÉVORA",
      "lon": "-7.907459011165107",
      "lat": "38.56985626272811"
    },
    {
      "id": "pt.ine.add.PTCONT.1394701",
      "street": "R 25 DE ABRIL",
      "house": "3",
      "postcode": "7800-521",
      "city": "BEJA",
      "lon": "-7.907459011165107",
      "lat": "38.56985626272811"
    },
    {
      "id": "pt.ine.add.PTCONT.1394702",
      "street": "R SANTO ANTÓNIO",
      "house": "",
      "postcode": "7005-402",
      "city": "ÉVORA",
      "lon": "-7.907459011165107",
      "lat": "38.56985626272811"
    },
    {
      "id": "pt.ine.add.PTCONT.1394703",
      "street": "R JOÃO DE DEUS",
      "house": "31",
      "postcode": "7400-263",
      "city": "PONTE DE SOR",
      "lon": "-7.907459011165107",
      "lat": "38.56985626272811"
    },
    {
      "id": "pt.ine.add.PTCONT.1394704",
      "street": "R VISTA ALEGRE",
      "house": "50",
      "postcode": "7600-401",
      "city": "SÃO JOÃO DE NEGRILHOS",
      "lon": "-7.907459011165107",
      "lat": "38.56985626272811"
    },
    {
      "id": "pt.ine.add.PTCONT.1394705",
      "street": "R DOUTOR HORÁCIO FLORES",
      "house": "40",
      "postcode": "7800-483",
      "city": "BEJA",
      "lon": "-7.907459011165107",
      "lat": "38.56985626272811"
    },
    {
      "id": "pt.ine.add.PTCONT.1394706",
      "street": "R DA ESCOLA",
      "house": "11",
      "postcode": "7630-033",
      "city": "BOAVISTA DOS PINHEIROS",
      "lon": "-7.907459011165107",
      "lat": "38.56985626272811"
    },
    {
      "id": "pt.ine.add.PTCONT.1394707",
      "street": "R DA VITÓRIA",
      "house": "3",
      "postcode": "7220-225",
      "city": "MONTE DO TRIGO",
      "lon": "-7.907459011165107",
      "lat": "38.56985626272811"
    },
    {
      "id": "pt.ine.add.PTCONT.1394708",
      "street": "PCT ANTÓNIO ALEIXO",
      "house": "15",
      "postcode": "7800-022",
      "city": "BEJA",
      "lon": "-7.907459011165107",
      "lat": "38.56985626272811"
    },
    {
      "id": "pt.ine.add.PTCONT.1394709",
      "street": "MTE DE SÃO JOÃO",
      "house": "",
      "postcode": "7600-452",
      "city": "SÃO JOÃO DE NEGRILHOS",
      "lon": "-7.907459011165107",
      "lat": "38.56985626272811"
    },
    {
      "id": "pt.ine.add.PTCONT.1394710",
      "street": "R MARQUÊS DE POMBAL",
      "house": "2",
      "postcode": "7565-065",
      "city": "ALVALADE",
      "lon": "-7.907459011165107",
      "lat": "38.56985626272811"
    },
    {
      "id": "pt.ine.add.PTCONT.1394711",
      "street": "R DA QUINTA NOVA",
      "house": "38",
      "postcode": "2130-284",
      "city": "BENAVENTE",
      "lon": "-7.907459011165107",
      "lat": "38.56985626272811"
    },
    {
      "id": "pt.ine.add.PTCONT.1394712",
      "street": "R PROF TERESA FERREIRA MARQUEZ",
      "house": "",
      "postcode": "7040-230",
      "city": "IGREJINHA",
      "lon": "-7.907459011165107",
      "lat": "38.56985626272811"
    },
    {
      "id": "pt.ine.add.PTCONT.1394713",
      "street": "R ENG. LOPES CARDOSO",
      "house": "3",
      "postcode": "7800-589",
      "city": "BEJA",
      "lon": "-7.907459011165107",
      "lat": "38.56985626272811"
    },
    {
      "id": "pt.ine.add.PTCONT.1394714",
      "street": "R JOSÉ FELIX RIBEIRO",
      "house": "",
      "postcode": "7100-125",
      "city": "ESTREMOZ",
      "lon": "-7.907459011165107",
      "lat": "38.56985626272811"
    },
    {
      "id": "pt.ine.add.PTCONT.1394715",
      "street": "R GIL VICENTE",
      "house": "5",
      "postcode": "2005-477",
      "city": "SANTARÉM",
      "lon": "-7.907459011165107",
      "lat": "38.56985626272811"
    },
    {
      "id": "pt.ine.add.PTCONT.1394716",
      "street": "R DO CENTRO DE SAÚDE",
      "house": "10",
      "postcode": "2050-271",
      "city": "AZAMBUJA",
      "lon": "-7.907459011165107",
      "lat": "38.56985626272811"
    },
    {
      "id": "pt.ine.add.PTCONT.1394717",
      "street": "R RAMOS DA COSTA",
      "house": "26",
      "postcode": "7540-205",
      "city": "SANTIAGO DO CACÉM",
      "lon": "-7.907459011165107",
      "lat": "38.56985626272811"
    },
    {
      "id": "pt.ine.add.PTCONT.1394718",
      "street": "R DR. MIGUEL BOMBARDA",
      "house": "12",
      "postcode": "7370-036",
      "city": "CAMPO MAIOR",
      "lon": "-7.907459011165107",
      "lat": "38.56985626272811"
    },
    {
      "id": "pt.ine.add.PTCONT.1394719",
      "street": "R DO CABEÇÃO",
      "house": "",
      "postcode": "7490-241",
      "city": "MORA",
      "lon": "-7.907459011165107",
      "lat": "38.56985626272811"
    },
    {
      "id": "pt.ine.add.PTCONT.1394720",
      "street": "R ENGENHEIRO ALEIXO PAIS",
      "house": "43",
      "postcode": "2100-353",
      "city": "COUÇO",
      "lon": "-7.907459011165107",
      "lat": "38.56985626272811"
    },
    {
      "id": "pt.ine.add.PTCONT.1394721",
      "street": "ESTR PRINCIPAL",
      "house": "",
      "postcode": "2100-626",
      "city": "ERRA",
      "lon": "-7.907459011165107",
      "lat": "38.56985626272811"
    },
    {
      "id": "pt.ine.add.PTCONT.1394722",
      "street": "R DO ARRABALDE",
      "house": "30",
      "postcode": "2070-079",
      "city": "CARTAXO",
      "lon": "-7.907459011165107",
      "lat": "38.56985626272811"
    },
    {
      "id": "pt.ine.add.PTCONT.1394723",
      "street": "R LUÍS DE CAMÕES",
      "house": "39",
      "postcode": "7250-144",
      "city": "ALANDROAL",
      "lon": "-7.907459011165107",
      "lat": "38.56985626272811"
    },
    {
      "id": "pt.ine.add.PTCONT.1394724",
      "street": "AV DOS COMBATENTES",
      "house": "18",
      "postcode": "2005-150",
      "city": "SANTARÉM",
      "lon": "-7.907459011165107",
      "lat": "38.56985626272811"
    },
    {
      "id": "pt.ine.add.PTCONT.1394725",
      "street": "R DO SOBRAL",
      "house": "11",
      "postcode": "7830-082",
      "city": "VILA NOVA DE SÃO BENTO",
      "lon": "-7.907459011165107",
      "lat": "38.56985626272811"
    },
    {
      "id": "pt.ine.add.PTCONT.1394726",
      "street": "R FERNANDO PESSOA",
      "house": "4",
      "postcode": "2005-475",
      "city": "SANTARÉM",
      "lon": "-7.907459011165107",
      "lat": "38.56985626272811"
    },
    {
      "id": "pt.ine.add.PTCONT.1394727",
      "street": "R JOSÉ VICENTE ABREU",
      "house": "44",
      "postcode": "7350-275",
      "city": "ELVAS",
      "lon": "-7.907459011165107",
      "lat": "38.56985626272811"
    },
    {
      "id": "pt.ine.add.PTCONT.1466367",
      "street": "ICOR-ALOJAMENTO FICTICIO",
      "house": "",
      "postcode": "7000-919",
      "city": "ÉVORA",
      "lon": "-7.907459011165107",
      "lat": "38.56985626272811"
    },
    {
      "id": "pt.ine.add.PTCONT.1466207",
      "street": "R DAS FORÇAS ARMADAS",
      "house": "20",
      "postcode": "7000-712",
      "city": "ÉVORA",
      "lon": "-7.907459011165107",
      "lat": "38.56985626272811"
    },
    {
      "id": "pt.ine.add.PTCONT.1466366",
      "street": "ICOR-ALOJAMENTO FICTICIO",
      "house": "",
      "postcode": "7000-919",
      "city": "ÉVORA",
      "lon": "-7.907459011165107",
      "lat": "38.56985626272811"
    }
  ]
}