{
  "data": {
    "distrito": "Braga",
    "concelho": "Guimarães",
    "freguesia": "União das freguesias de Candoso São Tiago e Mascotelos",
    "OBJECTID": 1730,
    "BGRI2021": "03088100120",
    "DT21": "03",
    "DTMN21": "0308",
    "DTMNFR21": "030881",
    "DTMNFRSEC21": "030881001",
    "SECNUM21": "001",
    "SSNUM21": "20",
    "SECSSNUM21": "00120",
    "OBJECTID_1": 27936,
    "DT": "03",
    "CC": "08",
    "fr": "81",
    "SEC": "001",
    "SS": "20"
  },
  "addresses": [
    {
      "id": "pt.ine.add.PTCONT.477144",
      "street": "R VISTA ALEGRE",
      "house": "798",
      "postcode": "4835-257",
      "city": "GUIMARÃES",
      "lon": "-8.323738694310576",
      "lat": "41.43014836238556"
    },
    {
      "id": "pt.ine.add.PTCONT.487199",
      "street": "R VENCEDORES",
      "house": "1382",
      "postcode": "4835-254",
      "city": "GUIMARÃES",
      "lon": "-8.323992384500398",
      "lat": "41.43098530948553"
    },
    {
      "id": "pt.ine.add.PTCONT.488453",
      "street": "R MONDAS",
      "house": "409",
      "postcode": "4835-133",
      "city": "GUIMARÃES",
      "lon": "-8.320683211661269",
      "lat": "41.42850566053262"
    },
    {
      "id": "pt.ine.add.PTCONT.492233",
      "street": "R VISTA ALEGRE",
      "house": "824",
      "postcode": "4835-257",
      "city": "GUIMARÃES",
      "lon": "-8.324576549016818",
      "lat": "41.43028203039106"
    },
    {
      "id": "pt.ine.add.PTCONT.501829",
      "street": "R VISTA ALEGRE",
      "house": "582",
      "postcode": "4835-257",
      "city": "GUIMARÃES",
      "lon": "-8.323424246406834",
      "lat": "41.42898737269501"
    },
    {
      "id": "pt.ine.add.PTCONT.504908",
      "street": "R VISTA ALEGRE",
      "house": "620",
      "postcode": "4835-257",
      "city": "GUIMARÃES",
      "lon": "-8.323448515223776",
      "lat": "41.4291043839813"
    },
    {
      "id": "pt.ine.add.PTCONT.516045",
      "street": "R VISTA ALEGRE",
      "house": "938",
      "postcode": "4835-257",
      "city": "GUIMARÃES",
      "lon": "-8.325103509260499",
      "lat": "41.430470235252315"
    },
    {
      "id": "pt.ine.add.PTCONT.516046",
      "street": "R VISTA ALEGRE",
      "house": "772",
      "postcode": "4835-257",
      "city": "GUIMARÃES",
      "lon": "-8.324121505814924",
      "lat": "41.43013872350429"
    },
    {
      "id": "pt.ine.add.PTCONT.550791",
      "street": "R VISTA ALEGRE",
      "house": "900",
      "postcode": "4835-257",
      "city": "GUIMARÃES",
      "lon": "-8.324888055899006",
      "lat": "41.430434578780265"
    },
    {
      "id": "pt.ine.add.PTCONT.552418",
      "street": "R VISTA ALEGRE",
      "house": "844",
      "postcode": "4835-257",
      "city": "GUIMARÃES",
      "lon": "-8.324899887136088",
      "lat": "41.43038953928692"
    },
    {
      "id": "pt.ine.add.PTCONT.553609",
      "street": "AL DESPORTOS",
      "house": "",
      "postcode": "4835-235",
      "city": "GUIMARÃES",
      "lon": "-8.32266282694975",
      "lat": "41.430447270485885"
    },
    {
      "id": "pt.ine.add.PTCONT.626610",
      "street": "R VENCEDORES",
      "house": "1457",
      "postcode": "4835-254",
      "city": "GUIMARÃES",
      "lon": "-8.324732898002551",
      "lat": "41.430560892668204"
    },
    {
      "id": "pt.ine.add.PTCONT.638415",
      "street": "R VISTA ALEGRE",
      "house": "920",
      "postcode": "4835-257",
      "city": "GUIMARÃES",
      "lon": "-8.325007958408259",
      "lat": "41.43052441839135"
    },
    {
      "id": "pt.ine.add.PTCONT.656537",
      "street": "R VENCEDORES",
      "house": "1423",
      "postcode": "4835-254",
      "city": "GUIMARÃES",
      "lon": "-8.324529831475589",
      "lat": "41.43066927815733"
    },
    {
      "id": "pt.ine.add.PTCONT.666804",
      "street": "R MONDAS",
      "house": "",
      "postcode": "4835-133",
      "city": "GUIMARÃES",
      "lon": "-8.320898422863392",
      "lat": "41.42846028967314"
    },
    {
      "id": "pt.ine.add.PTCONT.678770",
      "street": "R VISTA ALEGRE",
      "house": "908",
      "postcode": "4835-257",
      "city": "GUIMARÃES",
      "lon": "-8.324983898345454",
      "lat": "41.43047943874971"
    },
    {
      "id": "pt.ine.add.PTCONT.708216",
      "street": "R VISTA ALEGRE",
      "house": "642",
      "postcode": "4835-257",
      "city": "GUIMARÃES",
      "lon": "-8.323556818174426",
      "lat": "41.42932029970299"
    },
    {
      "id": "pt.ine.add.PTCONT.708217",
      "street": "R VISTA ALEGRE",
      "house": "642",
      "postcode": "4835-257",
      "city": "GUIMARÃES",
      "lon": "-8.323556818174426",
      "lat": "41.42932029970299"
    },
    {
      "id": "pt.ine.add.PTCONT.717343",
      "street": "R MONDAS",
      "house": "671",
      "postcode": "4835-133",
      "city": "GUIMARÃES",
      "lon": "-8.320492159947188",
      "lat": "41.428632027259674"
    },
    {
      "id": "pt.ine.add.PTCONT.717344",
      "street": "R MONDAS",
      "house": "671",
      "postcode": "4835-133",
      "city": "GUIMARÃES",
      "lon": "-8.320492159947188",
      "lat": "41.428632027259674"
    },
    {
      "id": "pt.ine.add.PTCONT.717345",
      "street": "R MONDAS",
      "house": "671",
      "postcode": "4835-133",
      "city": "GUIMARÃES",
      "lon": "-8.320492159947188",
      "lat": "41.428632027259674"
    },
    {
      "id": "pt.ine.add.PTCONT.741008",
      "street": "R VISTA ALEGRE",
      "house": "914",
      "postcode": "4835-257",
      "city": "GUIMARÃES",
      "lon": "-8.324959838315971",
      "lat": "41.4304344591026"
    },
    {
      "id": "pt.ine.add.PTCONT.771192",
      "street": "R VENCEDORES",
      "house": "1382",
      "postcode": "4835-254",
      "city": "GUIMARÃES",
      "lon": "-8.323955886479823",
      "lat": "41.43077827910344"
    },
    {
      "id": "pt.ine.add.PTCONT.771193",
      "street": "R VISTA ALEGRE",
      "house": "832",
      "postcode": "4835-257",
      "city": "GUIMARÃES",
      "lon": "-8.324815929134976",
      "lat": "41.430317647581354"
    },
    {
      "id": "pt.ine.add.PTCONT.786119",
      "street": "R VISTA ALEGRE",
      "house": "824",
      "postcode": "4835-257",
      "city": "GUIMARÃES",
      "lon": "-8.324433010950239",
      "lat": "41.43029127313313"
    },
    {
      "id": "pt.ine.add.PTCONT.786120",
      "street": "R VISTA ALEGRE",
      "house": "824",
      "postcode": "4835-257",
      "city": "GUIMARÃES",
      "lon": "-8.324433010950239",
      "lat": "41.43029127313313"
    },
    {
      "id": "pt.ine.add.PTCONT.792011",
      "street": "R VISTA ALEGRE",
      "house": "674",
      "postcode": "4835-257",
      "city": "GUIMARÃES",
      "lon": "-8.32356909748647",
      "lat": "41.429428326847095"
    },
    {
      "id": "pt.ine.add.PTCONT.796843",
      "street": "R VISTA ALEGRE",
      "house": "798",
      "postcode": "4835-257",
      "city": "GUIMARÃES",
      "lon": "-8.323930693305847",
      "lat": "41.43034613109741"
    },
    {
      "id": "pt.ine.add.PTCONT.799312",
      "street": "R VISTA ALEGRE",
      "house": "836",
      "postcode": "4835-257",
      "city": "GUIMARÃES",
      "lon": "-8.324804124339236",
      "lat": "41.43037169097691"
    },
    {
      "id": "pt.ine.add.PTCONT.807483",
      "street": "R VISTA ALEGRE",
      "house": "520",
      "postcode": "4835-257",
      "city": "GUIMARÃES",
      "lon": "-8.323196388920852",
      "lat": "41.42879866629642"
    }
  ]
}