{
  "data": {
    "distrito": "Bragança",
    "concelho": "Bragança",
    "freguesia": "Sortes",
    "OBJECTID": 303,
    "BGRI2021": "04024800106",
    "DT21": "04",
    "DTMN21": "0402",
    "DTMNFR21": "040248",
    "DTMNFRSEC21": "040248001",
    "SECNUM21": "001",
    "SSNUM21": "06",
    "SECSSNUM21": "00106",
    "OBJECTID_1": 33618,
    "DT": "04",
    "CC": "02",
    "fr": "48",
    "SEC": "001",
    "SS": "06"
  },
  "addresses": [
    {
      "id": "pt.ine.add.PTCONT.849643",
      "street": "BR ALTO",
      "house": "",
      "postcode": "5300-903",
      "city": "SORTES",
      "lon": "-6.83190262635553",
      "lat": "41.696932304739086"
    },
    {
      "id": "pt.ine.add.PTCONT.850771",
      "street": "R RIO",
      "house": "",
      "postcode": "5300-904",
      "city": "SORTES",
      "lon": "-6.834050149499484",
      "lat": "41.69408455932893"
    },
    {
      "id": "pt.ine.add.PTCONT.871703",
      "street": "R GOLETA",
      "house": "",
      "postcode": "5300-904",
      "city": "SORTES",
      "lon": "-6.83373127926636",
      "lat": "41.69321663949135"
    },
    {
      "id": "pt.ine.add.PTCONT.874682",
      "street": "R GOLETA",
      "house": "",
      "postcode": "5300-904",
      "city": "SORTES",
      "lon": "-6.8328780336728165",
      "lat": "41.69263978137934"
    },
    {
      "id": "pt.ine.add.PTCONT.882858",
      "street": "R RIO",
      "house": "",
      "postcode": "5300-904",
      "city": "SORTES",
      "lon": "-6.833809054867301",
      "lat": "41.694126849807226"
    },
    {
      "id": "pt.ine.add.PTCONT.897374",
      "street": "R GOLETA",
      "house": "",
      "postcode": "5300-904",
      "city": "SORTES",
      "lon": "-6.833636111053018",
      "lat": "41.69317054690521"
    },
    {
      "id": "pt.ine.add.PTCONT.899368",
      "street": "R CACHÃO",
      "house": "",
      "postcode": "5300-904",
      "city": "SORTES",
      "lon": "-6.834206996689378",
      "lat": "41.694050319323146"
    },
    {
      "id": "pt.ine.add.PTCONT.901486",
      "street": "R CABECO",
      "house": "",
      "postcode": "5300-904",
      "city": "SORTES",
      "lon": "-6.8328524267434645",
      "lat": "41.69331473735443"
    },
    {
      "id": "pt.ine.add.PTCONT.903184",
      "street": "BR ALTO",
      "house": "",
      "postcode": "5300-903",
      "city": "SORTES",
      "lon": "-6.831916087993608",
      "lat": "41.69686043101792"
    },
    {
      "id": "pt.ine.add.PTCONT.908529",
      "street": "R ROLETA",
      "house": "",
      "postcode": "5300-904",
      "city": "SORTES",
      "lon": "-6.833703274586314",
      "lat": "41.69341439488817"
    },
    {
      "id": "pt.ine.add.PTCONT.931475",
      "street": "R CACHÃO",
      "house": "",
      "postcode": "5300-904",
      "city": "SORTES",
      "lon": "-6.834402950607321",
      "lat": "41.69386346541607"
    },
    {
      "id": "pt.ine.add.PTCONT.939076",
      "street": "R GOLETA",
      "house": "",
      "postcode": "5300-904",
      "city": "SORTES",
      "lon": "-6.833753848372571",
      "lat": "41.69328892091221"
    },
    {
      "id": "pt.ine.add.PTCONT.947013",
      "street": "R CACHÃO",
      "house": "",
      "postcode": "5300-904",
      "city": "SORTES",
      "lon": "-6.834083641851989",
      "lat": "41.694210983817314"
    },
    {
      "id": "pt.ine.add.PTCONT.948513",
      "street": "R RIO",
      "house": "",
      "postcode": "5300-904",
      "city": "SORTES",
      "lon": "-6.833817803116916",
      "lat": "41.69428900767652"
    }
  ]
}