{
  "data": {
    "distrito": "Braga",
    "concelho": "Braga",
    "freguesia": "União das freguesias de Celeirós, Aveleda e Vimieiro",
    "OBJECTID": 1436,
    "BGRI2021": "03036700101",
    "DT21": "03",
    "DTMN21": "0303",
    "DTMNFR21": "030367",
    "DTMNFRSEC21": "030367001",
    "SECNUM21": "001",
    "SSNUM21": "01",
    "SECSSNUM21": "00101",
    "OBJECTID_1": 21799,
    "DT": "03",
    "CC": "03",
    "fr": "67",
    "SEC": "001",
    "SS": "01"
  },
  "addresses": [
    {
      "id": "pt.ine.add.PTCONT.462593",
      "street": "R PICOTO",
      "house": "4",
      "postcode": "4705-663",
      "city": "VIMIEIRO BRG",
      "lon": "-8.46294234727282",
      "lat": "41.509193700928044"
    },
    {
      "id": "pt.ine.add.PTCONT.465537",
      "street": "R GRANJAS",
      "house": "15",
      "postcode": "4705-659",
      "city": "VIMIEIRO BRG",
      "lon": "-8.464106782280124",
      "lat": "41.51204456531553"
    },
    {
      "id": "pt.ine.add.PTCONT.468430",
      "street": "R NOVA DAS CORUJEIRAS",
      "house": "2",
      "postcode": "4705-656",
      "city": "VIMIEIRO BRG",
      "lon": "-8.464313631349082",
      "lat": "41.512674236750435"
    },
    {
      "id": "pt.ine.add.PTCONT.468435",
      "street": "R MIMOSAS",
      "house": "11",
      "postcode": "4705-752",
      "city": "VIMIEIRO BRG",
      "lon": "-8.468274828814858",
      "lat": "41.51193345224059"
    },
    {
      "id": "pt.ine.add.PTCONT.474665",
      "street": "R NOVA DAS CORUJEIRAS",
      "house": "14",
      "postcode": "4705-656",
      "city": "VIMIEIRO BRG",
      "lon": "-8.465532007227086",
      "lat": "41.51199543563189"
    },
    {
      "id": "pt.ine.add.PTCONT.474666",
      "street": "R NOVA DAS CORUJEIRAS",
      "house": "14",
      "postcode": "4705-656",
      "city": "VIMIEIRO BRG",
      "lon": "-8.465532007227086",
      "lat": "41.51199543563189"
    },
    {
      "id": "pt.ine.add.PTCONT.480456",
      "street": "R GRANJAS",
      "house": "2",
      "postcode": "4705-659",
      "city": "VIMIEIRO BRG",
      "lon": "-8.464646784758985",
      "lat": "41.51223209001133"
    },
    {
      "id": "pt.ine.add.PTCONT.484209",
      "street": "AV S BENTO",
      "house": "13",
      "postcode": "4705-752",
      "city": "VIMIEIRO BRG",
      "lon": "-8.465259951167358",
      "lat": "41.5126715076483"
    },
    {
      "id": "pt.ine.add.PTCONT.484210",
      "street": "R NOVA DAS CORUJEIRAS",
      "house": "8",
      "postcode": "4705-656",
      "city": "VIMIEIRO BRG",
      "lon": "-8.464947354590151",
      "lat": "41.51244731468752"
    },
    {
      "id": "pt.ine.add.PTCONT.488151",
      "street": "R ANTÓNIO GONÇALVES BRAGA",
      "house": "9",
      "postcode": "4705-751",
      "city": "VIMIEIRO BRG",
      "lon": "-8.466911488538159",
      "lat": "41.51003761225173"
    },
    {
      "id": "pt.ine.add.PTCONT.491086",
      "street": "R NOVA DAS CORUJEIRAS",
      "house": "10",
      "postcode": "4705-656",
      "city": "VIMIEIRO BRG",
      "lon": "-8.465126528861934",
      "lat": "41.512347755631076"
    },
    {
      "id": "pt.ine.add.PTCONT.495389",
      "street": "AV S BENTO",
      "house": "49",
      "postcode": "4705-752",
      "city": "VIMIEIRO BRG",
      "lon": "-8.467099121867472",
      "lat": "41.51158572376982"
    },
    {
      "id": "pt.ine.add.PTCONT.495390",
      "street": "R MIMOSAS",
      "house": "15",
      "postcode": "4705-752",
      "city": "VIMIEIRO BRG",
      "lon": "-8.468335325633182",
      "lat": "41.5120503254974"
    },
    {
      "id": "pt.ine.add.PTCONT.495391",
      "street": "R PORTAGEM",
      "house": "2",
      "postcode": "4705-756",
      "city": "VIMIEIRO BRG",
      "lon": "-8.46251809361557",
      "lat": "41.508204496718946"
    },
    {
      "id": "pt.ine.add.PTCONT.501182",
      "street": "R ANTÓNIO GONÇALVES BRAGA",
      "house": "52",
      "postcode": "4705-751",
      "city": "VIMIEIRO BRG",
      "lon": "-8.46570670899582",
      "lat": "41.511022518581576"
    },
    {
      "id": "pt.ine.add.PTCONT.501189",
      "street": "R PICOTO",
      "house": "17",
      "postcode": "4705-663",
      "city": "VIMIEIRO BRG",
      "lon": "-8.461830616279288",
      "lat": "41.50963807090317"
    },
    {
      "id": "pt.ine.add.PTCONT.513214",
      "street": "R CAMELIAS",
      "house": "46",
      "postcode": "4705-751",
      "city": "VIMIEIRO BRG",
      "lon": "-8.467643412857292",
      "lat": "41.510278588661365"
    },
    {
      "id": "pt.ine.add.PTCONT.513215",
      "street": "R MIMOSAS",
      "house": "9",
      "postcode": "4705-752",
      "city": "VIMIEIRO BRG",
      "lon": "-8.468238614416146",
      "lat": "41.51187953489064"
    },
    {
      "id": "pt.ine.add.PTCONT.515861",
      "street": "R PICOTO",
      "house": "14",
      "postcode": "4705-663",
      "city": "VIMIEIRO BRG",
      "lon": "-8.46198697051213",
      "lat": "41.50976367735783"
    },
    {
      "id": "pt.ine.add.PTCONT.519148",
      "street": "AV S BENTO",
      "house": "33",
      "postcode": "4705-752",
      "city": "VIMIEIRO BRG",
      "lon": "-8.466263256126199",
      "lat": "41.51210136548083"
    },
    {
      "id": "pt.ine.add.PTCONT.528300",
      "street": "AV S BENTO",
      "house": "25",
      "postcode": "4705-752",
      "city": "VIMIEIRO BRG",
      "lon": "-8.465916890555183",
      "lat": "41.51230045218497"
    },
    {
      "id": "pt.ine.add.PTCONT.532695",
      "street": "AV S BENTO",
      "house": "81",
      "postcode": "4705-752",
      "city": "VIMIEIRO BRG",
      "lon": "-8.468027924579268",
      "lat": "41.51051156879613"
    },
    {
      "id": "pt.ine.add.PTCONT.537109",
      "street": "R CAMELIAS",
      "house": "32",
      "postcode": "4705-751",
      "city": "VIMIEIRO BRG",
      "lon": "-8.467346549113616",
      "lat": "41.51078366545752"
    },
    {
      "id": "pt.ine.add.PTCONT.540065",
      "street": "R GRANJAS",
      "house": "33",
      "postcode": "4705-659",
      "city": "VIMIEIRO BRG",
      "lon": "-8.463865147522661",
      "lat": "41.51164008884741"
    },
    {
      "id": "pt.ine.add.PTCONT.540066",
      "street": "R ANTÓNIO GONÇALVES BRAGA",
      "house": "24",
      "postcode": "4705-751",
      "city": "VIMIEIRO BRG",
      "lon": "-8.466336809851178",
      "lat": "41.51009330163668"
    },
    {
      "id": "pt.ine.add.PTCONT.540098",
      "street": "AV S BENTO",
      "house": "35",
      "postcode": "4705-752",
      "city": "VIMIEIRO BRG",
      "lon": "-8.466382765289007",
      "lat": "41.51204699635046"
    },
    {
      "id": "pt.ine.add.PTCONT.542992",
      "street": "R GRANJAS",
      "house": "1",
      "postcode": "4705-659",
      "city": "VIMIEIRO BRG",
      "lon": "-8.464383713475042",
      "lat": "41.51232288619712"
    },
    {
      "id": "pt.ine.add.PTCONT.545900",
      "street": "R GAIA",
      "house": "6",
      "postcode": "4705-663",
      "city": "VIMIEIRO BRG",
      "lon": "-8.46291550655663",
      "lat": "41.510985537483464"
    },
    {
      "id": "pt.ine.add.PTCONT.545885",
      "street": "R 13 MAIO",
      "house": "45",
      "postcode": "4705-748",
      "city": "VIMIEIRO BRG",
      "lon": "-8.464144644693521",
      "lat": "41.51242261650904"
    },
    {
      "id": "pt.ine.add.PTCONT.545901",
      "street": "R GAIA",
      "house": "6",
      "postcode": "4705-663",
      "city": "VIMIEIRO BRG",
      "lon": "-8.46291550655663",
      "lat": "41.510985537483464"
    },
    {
      "id": "pt.ine.add.PTCONT.545902",
      "street": "R GAIA",
      "house": "6",
      "postcode": "4705-663",
      "city": "VIMIEIRO BRG",
      "lon": "-8.46291550655663",
      "lat": "41.510985537483464"
    },
    {
      "id": "pt.ine.add.PTCONT.545903",
      "street": "AV SANTA ANA",
      "house": "100",
      "postcode": "4705-652",
      "city": "VIMIEIRO BRG",
      "lon": "-8.461739984670803",
      "lat": "41.50829676089309"
    },
    {
      "id": "pt.ine.add.PTCONT.563640",
      "street": "R MONTE",
      "house": "28",
      "postcode": "4705-661",
      "city": "VIMIEIRO BRG",
      "lon": "-8.464311979752374",
      "lat": "41.51000010848295"
    },
    {
      "id": "pt.ine.add.PTCONT.567870",
      "street": "AV S BENTO",
      "house": "61",
      "postcode": "4705-752",
      "city": "VIMIEIRO BRG",
      "lon": "-8.467516377881283",
      "lat": "41.51119734727854"
    },
    {
      "id": "pt.ine.add.PTCONT.569636",
      "street": "R PICOTO",
      "house": "2",
      "postcode": "4705-663",
      "city": "VIMIEIRO BRG",
      "lon": "-8.462057107767789",
      "lat": "41.50942133169735"
    },
    {
      "id": "pt.ine.add.PTCONT.570927",
      "street": "R PICOTO",
      "house": "2",
      "postcode": "4705-663",
      "city": "VIMIEIRO BRG",
      "lon": "-8.462057107767789",
      "lat": "41.50942133169735"
    },
    {
      "id": "pt.ine.add.PTCONT.573186",
      "street": "R 13 DE MAIO",
      "house": "41",
      "postcode": "4705-748",
      "city": "VIMIEIRO BRG",
      "lon": "-8.463820349456451",
      "lat": "41.512252477024475"
    },
    {
      "id": "pt.ine.add.PTCONT.573187",
      "street": "R NOVA DAS CORUJEIRAS",
      "house": "7",
      "postcode": "4705-656",
      "city": "VIMIEIRO BRG",
      "lon": "-8.464873827460197",
      "lat": "41.51212338953168"
    },
    {
      "id": "pt.ine.add.PTCONT.585723",
      "street": "R ANTÓNIO GONÇALVES BRAGA",
      "house": "19",
      "postcode": "4705-751",
      "city": "VIMIEIRO BRG",
      "lon": "-8.466637513950351",
      "lat": "41.51033553303884"
    },
    {
      "id": "pt.ine.add.PTCONT.595064",
      "street": "R MIMOSAS",
      "house": "1",
      "postcode": "4705-752",
      "city": "VIMIEIRO BRG",
      "lon": "-8.46786574765783",
      "lat": "41.51158349493049"
    },
    {
      "id": "pt.ine.add.PTCONT.601320",
      "street": "R PICOTO",
      "house": "3",
      "postcode": "4705-663",
      "city": "VIMIEIRO BRG",
      "lon": "-8.461944707452878",
      "lat": "41.51088027147951"
    },
    {
      "id": "pt.ine.add.PTCONT.604346",
      "street": "R GRANJAS",
      "house": "23",
      "postcode": "4705-659",
      "city": "VIMIEIRO BRG",
      "lon": "-8.463973871328033",
      "lat": "41.511819852405196"
    },
    {
      "id": "pt.ine.add.PTCONT.604345",
      "street": "R GRANJAS",
      "house": "23",
      "postcode": "4705-659",
      "city": "VIMIEIRO BRG",
      "lon": "-8.463973871328033",
      "lat": "41.511819852405196"
    },
    {
      "id": "pt.ine.add.PTCONT.604349",
      "street": "AV S BENTO",
      "house": "53",
      "postcode": "4705-752",
      "city": "VIMIEIRO BRG",
      "lon": "-8.467194209422011",
      "lat": "41.511441386567185"
    },
    {
      "id": "pt.ine.add.PTCONT.607545",
      "street": "AV S BENTO",
      "house": "19",
      "postcode": "4705-752",
      "city": "VIMIEIRO BRG",
      "lon": "-8.465498927017347",
      "lat": "41.51255376766578"
    },
    {
      "id": "pt.ine.add.PTCONT.613340",
      "street": "R MIMOSAS",
      "house": "5",
      "postcode": "4705-752",
      "city": "VIMIEIRO BRG",
      "lon": "-8.468082428698931",
      "lat": "41.51178995175966"
    },
    {
      "id": "pt.ine.add.PTCONT.621970",
      "street": "R NOVA DAS CORUJEIRAS",
      "house": "4",
      "postcode": "4705-656",
      "city": "VIMIEIRO BRG",
      "lon": "-8.464492807221815",
      "lat": "41.5125746786793"
    },
    {
      "id": "pt.ine.add.PTCONT.625048",
      "street": "R GAIA",
      "house": "5",
      "postcode": "4705-663",
      "city": "VIMIEIRO BRG",
      "lon": "-8.4626854048702",
      "lat": "41.51049098721668"
    },
    {
      "id": "pt.ine.add.PTCONT.628818",
      "street": "R GAIA",
      "house": "14",
      "postcode": "4705-663",
      "city": "VIMIEIRO BRG",
      "lon": "-8.463441504415968",
      "lat": "41.510776940157434"
    },
    {
      "id": "pt.ine.add.PTCONT.634146",
      "street": "R GAIA",
      "house": "13",
      "postcode": "4705-663",
      "city": "VIMIEIRO BRG",
      "lon": "-8.462863069485529",
      "lat": "41.510094310026886"
    },
    {
      "id": "pt.ine.add.PTCONT.639768",
      "street": "R MIMOSAS",
      "house": "7",
      "postcode": "4705-752",
      "city": "VIMIEIRO BRG",
      "lon": "-8.46817848936364",
      "lat": "41.511834691006"
    },
    {
      "id": "pt.ine.add.PTCONT.639771",
      "street": "R MONTE",
      "house": "36",
      "postcode": "4705-661",
      "city": "VIMIEIRO BRG",
      "lon": "-8.464727312596454",
      "lat": "41.50923358718692"
    },
    {
      "id": "pt.ine.add.PTCONT.643545",
      "street": "R 13 DE MAIO",
      "house": "21",
      "postcode": "4705-748",
      "city": "VIMIEIRO BRG",
      "lon": "-8.462269766295346",
      "lat": "41.51120347898031"
    },
    {
      "id": "pt.ine.add.PTCONT.643546",
      "street": "R 13 DE MAIO",
      "house": "21",
      "postcode": "4705-748",
      "city": "VIMIEIRO BRG",
      "lon": "-8.462269766295346",
      "lat": "41.51120347898031"
    },
    {
      "id": "pt.ine.add.PTCONT.643547",
      "street": "R 13 DE MAIO",
      "house": "21",
      "postcode": "4705-748",
      "city": "VIMIEIRO BRG",
      "lon": "-8.462269766295346",
      "lat": "41.51120347898031"
    },
    {
      "id": "pt.ine.add.PTCONT.643548",
      "street": "R 13 DE MAIO",
      "house": "21",
      "postcode": "4705-748",
      "city": "VIMIEIRO BRG",
      "lon": "-8.462269766295346",
      "lat": "41.51120347898031"
    },
    {
      "id": "pt.ine.add.PTCONT.643549",
      "street": "R 13 DE MAIO",
      "house": "21",
      "postcode": "4705-748",
      "city": "VIMIEIRO BRG",
      "lon": "-8.462269766295346",
      "lat": "41.51120347898031"
    },
    {
      "id": "pt.ine.add.PTCONT.643550",
      "street": "R 13 DE MAIO",
      "house": "21",
      "postcode": "4705-748",
      "city": "VIMIEIRO BRG",
      "lon": "-8.462269766295346",
      "lat": "41.51120347898031"
    },
    {
      "id": "pt.ine.add.PTCONT.643551",
      "street": "R 13 DE MAIO",
      "house": "17",
      "postcode": "4705-748",
      "city": "VIMIEIRO BRG",
      "lon": "-8.462031108535383",
      "lat": "41.51138423807738"
    },
    {
      "id": "pt.ine.add.PTCONT.643552",
      "street": "R 13 DE MAIO",
      "house": "17",
      "postcode": "4705-748",
      "city": "VIMIEIRO BRG",
      "lon": "-8.462031108535383",
      "lat": "41.51138423807738"
    },
    {
      "id": "pt.ine.add.PTCONT.643553",
      "street": "R 13 DE MAIO",
      "house": "17",
      "postcode": "4705-748",
      "city": "VIMIEIRO BRG",
      "lon": "-8.462031108535383",
      "lat": "41.51138423807738"
    },
    {
      "id": "pt.ine.add.PTCONT.643554",
      "street": "R 13 DE MAIO",
      "house": "17",
      "postcode": "4705-748",
      "city": "VIMIEIRO BRG",
      "lon": "-8.462031108535383",
      "lat": "41.51138423807738"
    },
    {
      "id": "pt.ine.add.PTCONT.643555",
      "street": "R 13 MAIO",
      "house": "1",
      "postcode": "4705-748",
      "city": "VIMIEIRO BRG",
      "lon": "-8.462031108535383",
      "lat": "41.51138423807738"
    },
    {
      "id": "pt.ine.add.PTCONT.643556",
      "street": "R 13 DE MAIO",
      "house": "17",
      "postcode": "4705-748",
      "city": "VIMIEIRO BRG",
      "lon": "-8.462031108535383",
      "lat": "41.51138423807738"
    },
    {
      "id": "pt.ine.add.PTCONT.643557",
      "street": "R 13 DE MAIO",
      "house": "17",
      "postcode": "4705-748",
      "city": "VIMIEIRO BRG",
      "lon": "-8.462031108535383",
      "lat": "41.51138423807738"
    },
    {
      "id": "pt.ine.add.PTCONT.643558",
      "street": "R 13 DE MAIO",
      "house": "17",
      "postcode": "4705-748",
      "city": "VIMIEIRO BRG",
      "lon": "-8.462031108535383",
      "lat": "41.51138423807738"
    },
    {
      "id": "pt.ine.add.PTCONT.643559",
      "street": "R PICOTO",
      "house": "6",
      "postcode": "4705-663",
      "city": "VIMIEIRO BRG",
      "lon": "-8.462328198864823",
      "lat": "41.51091518963334"
    },
    {
      "id": "pt.ine.add.PTCONT.644285",
      "street": "R 13 DE MAIO",
      "house": "17",
      "postcode": "4705-748",
      "city": "VIMIEIRO BRG",
      "lon": "-8.462031108535383",
      "lat": "41.51138423807738"
    },
    {
      "id": "pt.ine.add.PTCONT.645526",
      "street": "R CAMELIAS",
      "house": "8",
      "postcode": "4705-751",
      "city": "VIMIEIRO BRG",
      "lon": "-8.46677505430954",
      "lat": "41.51146061100611"
    },
    {
      "id": "pt.ine.add.PTCONT.645527",
      "street": "R ANTÓNIO GONÇALVES BRAGA",
      "house": "25",
      "postcode": "4705-751",
      "city": "VIMIEIRO BRG",
      "lon": "-8.466447246771146",
      "lat": "41.51060619913183"
    },
    {
      "id": "pt.ine.add.PTCONT.658561",
      "street": "R CAMELIAS",
      "house": "16",
      "postcode": "4705-751",
      "city": "VIMIEIRO BRG",
      "lon": "-8.466906077842122",
      "lat": "41.51131616977568"
    },
    {
      "id": "pt.ine.add.PTCONT.666107",
      "street": "R NOVA DAS CORUJEIRAS",
      "house": "12",
      "postcode": "4705-656",
      "city": "VIMIEIRO BRG",
      "lon": "-8.465377298252303",
      "lat": "41.512193966594914"
    },
    {
      "id": "pt.ine.add.PTCONT.666108",
      "street": "R 13 DE MAIO",
      "house": "37",
      "postcode": "4705-748",
      "city": "VIMIEIRO BRG",
      "lon": "-8.463724153712123",
      "lat": "41.51218072308669"
    },
    {
      "id": "pt.ine.add.PTCONT.667720",
      "street": "GRANJA",
      "house": "",
      "postcode": "4705-041",
      "city": "AVELEDA BRG",
      "lon": "-8.46775464867326",
      "lat": "41.51094454741121"
    },
    {
      "id": "pt.ine.add.PTCONT.680432",
      "street": "R ANTÓNIO GONÇALVES BRAGA",
      "house": "61",
      "postcode": "4705-751",
      "city": "VIMIEIRO BRG",
      "lon": "-8.465888644809501",
      "lat": "41.511463179227704"
    },
    {
      "id": "pt.ine.add.PTCONT.698607",
      "street": "R 13 DE MAIO",
      "house": "45",
      "postcode": "4705-748",
      "city": "VIMIEIRO BRG",
      "lon": "-8.464048448339728",
      "lat": "41.51235086284688"
    },
    {
      "id": "pt.ine.add.PTCONT.701697",
      "street": "R 13 DE MAIO",
      "house": "19",
      "postcode": "4705-748",
      "city": "VIMIEIRO BRG",
      "lon": "-8.461886592103927",
      "lat": "41.511231586435564"
    },
    {
      "id": "pt.ine.add.PTCONT.701689",
      "street": "R 13 DE MAIO",
      "house": "19",
      "postcode": "4705-748",
      "city": "VIMIEIRO BRG",
      "lon": "-8.461886592103927",
      "lat": "41.511231586435564"
    },
    {
      "id": "pt.ine.add.PTCONT.701690",
      "street": "R 13 DE MAIO",
      "house": "19",
      "postcode": "4705-748",
      "city": "VIMIEIRO BRG",
      "lon": "-8.461886592103927",
      "lat": "41.511231586435564"
    },
    {
      "id": "pt.ine.add.PTCONT.701691",
      "street": "R 13 DE MAIO",
      "house": "19",
      "postcode": "4705-748",
      "city": "VIMIEIRO BRG",
      "lon": "-8.461886592103927",
      "lat": "41.511231586435564"
    },
    {
      "id": "pt.ine.add.PTCONT.701695",
      "street": "R 13 DE MAIO",
      "house": "19",
      "postcode": "4705-748",
      "city": "VIMIEIRO BRG",
      "lon": "-8.461886592103927",
      "lat": "41.511231586435564"
    },
    {
      "id": "pt.ine.add.PTCONT.701696",
      "street": "R 13 DE MAIO",
      "house": "19",
      "postcode": "4705-748",
      "city": "VIMIEIRO BRG",
      "lon": "-8.461886592103927",
      "lat": "41.511231586435564"
    },
    {
      "id": "pt.ine.add.PTCONT.703248",
      "street": "R MONTE",
      "house": "3",
      "postcode": "4705-661",
      "city": "VIMIEIRO BRG",
      "lon": "-8.462184353439733",
      "lat": "41.50852958962256"
    },
    {
      "id": "pt.ine.add.PTCONT.707552",
      "street": "R ANTÓNIO GONÇALVES BRAGA",
      "house": "34",
      "postcode": "4705-751",
      "city": "VIMIEIRO BRG",
      "lon": "-8.4661591203323",
      "lat": "41.510480980431694"
    },
    {
      "id": "pt.ine.add.PTCONT.707562",
      "street": "AV SANTA ANA",
      "house": "94",
      "postcode": "4705-652",
      "city": "VIMIEIRO BRG",
      "lon": "-8.461910955644752",
      "lat": "41.50894454723724"
    },
    {
      "id": "pt.ine.add.PTCONT.710493",
      "street": "R MONTE",
      "house": "9",
      "postcode": "4705-661",
      "city": "VIMIEIRO BRG",
      "lon": "-8.462988705657105",
      "lat": "41.50888743813692"
    },
    {
      "id": "pt.ine.add.PTCONT.719817",
      "street": "R NOVA DAS CORUJEIRAS",
      "house": "6",
      "postcode": "4705-656",
      "city": "VIMIEIRO BRG",
      "lon": "-8.464720127080865",
      "lat": "41.51252000058803"
    },
    {
      "id": "pt.ine.add.PTCONT.719818",
      "street": "R GRANJAS",
      "house": "19",
      "postcode": "4705-659",
      "city": "VIMIEIRO BRG",
      "lon": "-8.464034131043661",
      "lat": "41.511891709545225"
    },
    {
      "id": "pt.ine.add.PTCONT.721479",
      "street": "R GRANJAS",
      "house": "19",
      "postcode": "4705-659",
      "city": "VIMIEIRO BRG",
      "lon": "-8.464034131043661",
      "lat": "41.511891709545225"
    },
    {
      "id": "pt.ine.add.PTCONT.725582",
      "street": "R CAMELIAS",
      "house": "42",
      "postcode": "4705-751",
      "city": "VIMIEIRO BRG",
      "lon": "-8.467536535024754",
      "lat": "41.51045897581042"
    },
    {
      "id": "pt.ine.add.PTCONT.734398",
      "street": "R ANTÓNIO GONÇALVES BRAGA",
      "house": "21",
      "postcode": "4705-751",
      "city": "VIMIEIRO BRG",
      "lon": "-8.466590293853312",
      "lat": "41.510470727207775"
    },
    {
      "id": "pt.ine.add.PTCONT.737416",
      "street": "R 13 DE MAIO",
      "house": "23",
      "postcode": "4705-748",
      "city": "VIMIEIRO BRG",
      "lon": "-8.462402213813244",
      "lat": "41.51133815706641"
    },
    {
      "id": "pt.ine.add.PTCONT.737417",
      "street": "R 13 DE MAIO",
      "house": "23",
      "postcode": "4705-748",
      "city": "VIMIEIRO BRG",
      "lon": "-8.462402213813244",
      "lat": "41.51133815706641"
    },
    {
      "id": "pt.ine.add.PTCONT.737418",
      "street": "R 13 DE MAIO",
      "house": "23",
      "postcode": "4705-748",
      "city": "VIMIEIRO BRG",
      "lon": "-8.462402213813244",
      "lat": "41.51133815706641"
    },
    {
      "id": "pt.ine.add.PTCONT.737419",
      "street": "R 13 DE MAIO",
      "house": "23",
      "postcode": "4705-748",
      "city": "VIMIEIRO BRG",
      "lon": "-8.462402213813244",
      "lat": "41.51133815706641"
    },
    {
      "id": "pt.ine.add.PTCONT.737420",
      "street": "R 13 DE MAIO",
      "house": "23",
      "postcode": "4705-748",
      "city": "VIMIEIRO BRG",
      "lon": "-8.462402213813244",
      "lat": "41.51133815706641"
    },
    {
      "id": "pt.ine.add.PTCONT.737421",
      "street": "R 13 DE MAIO",
      "house": "23",
      "postcode": "4705-748",
      "city": "VIMIEIRO BRG",
      "lon": "-8.462402213813244",
      "lat": "41.51133815706641"
    },
    {
      "id": "pt.ine.add.PTCONT.737422",
      "street": "R 13 DE MAIO",
      "house": "23",
      "postcode": "4705-748",
      "city": "VIMIEIRO BRG",
      "lon": "-8.462402213813244",
      "lat": "41.51133815706641"
    },
    {
      "id": "pt.ine.add.PTCONT.738974",
      "street": "R 13 DE MAIO",
      "house": "23",
      "postcode": "4705-748",
      "city": "VIMIEIRO BRG",
      "lon": "-8.462402213813244",
      "lat": "41.51133815706641"
    },
    {
      "id": "pt.ine.add.PTCONT.740251",
      "street": "R CAMELIAS",
      "house": "22",
      "postcode": "4705-751",
      "city": "VIMIEIRO BRG",
      "lon": "-8.467025214877127",
      "lat": "41.51118977053384"
    },
    {
      "id": "pt.ine.add.PTCONT.749493",
      "street": "AV S BENTO",
      "house": "1",
      "postcode": "4705-752",
      "city": "VIMIEIRO BRG",
      "lon": "-8.464578679208394",
      "lat": "41.512970598974846"
    },
    {
      "id": "pt.ine.add.PTCONT.753315",
      "street": "AV S BENTO",
      "house": "9",
      "postcode": "4705-752",
      "city": "VIMIEIRO BRG",
      "lon": "-8.465032815218583",
      "lat": "41.51276220152486"
    },
    {
      "id": "pt.ine.add.PTCONT.753316",
      "street": "R GRANJAS",
      "house": "9",
      "postcode": "4705-659",
      "city": "VIMIEIRO BRG",
      "lon": "-8.46417897510709",
      "lat": "41.51210738421885"
    },
    {
      "id": "pt.ine.add.PTCONT.755541",
      "street": "R MIMOSAS",
      "house": "13",
      "postcode": "4705-752",
      "city": "VIMIEIRO BRG",
      "lon": "-8.468323068324349",
      "lat": "41.511996338343636"
    },
    {
      "id": "pt.ine.add.PTCONT.762926",
      "street": "R MONTE",
      "house": "7",
      "postcode": "4705-661",
      "city": "VIMIEIRO BRG",
      "lon": "-8.462162357877768",
      "lat": "41.508916816781706"
    },
    {
      "id": "pt.ine.add.PTCONT.765348",
      "street": "R MIMOSAS",
      "house": "3",
      "postcode": "4705-752",
      "city": "VIMIEIRO BRG",
      "lon": "-8.468022257429796",
      "lat": "41.51173610411327"
    },
    {
      "id": "pt.ine.add.PTCONT.776483",
      "street": "AV S BENTO",
      "house": "23",
      "postcode": "4705-752",
      "city": "VIMIEIRO BRG",
      "lon": "-8.465701827677824",
      "lat": "41.512409120076114"
    },
    {
      "id": "pt.ine.add.PTCONT.776490",
      "street": "R ANTÓNIO GONÇALVES BRAGA",
      "house": "",
      "postcode": "4705-751",
      "city": "VIMIEIRO BRG",
      "lon": "-8.466768535537593",
      "lat": "41.51019109194408"
    },
    {
      "id": "pt.ine.add.PTCONT.798518",
      "street": "R MONTE",
      "house": "8",
      "postcode": "4705-661",
      "city": "VIMIEIRO BRG",
      "lon": "-8.463301552799559",
      "lat": "41.50916565877086"
    },
    {
      "id": "pt.ine.add.PTCONT.806668",
      "street": "R ANTÓNIO GONÇALVES BRAGA",
      "house": "42",
      "postcode": "4705-751",
      "city": "VIMIEIRO BRG",
      "lon": "-8.465885002098899",
      "lat": "41.510751888376646"
    },
    {
      "id": "pt.ine.add.PTCONT.819356",
      "street": "R PICOTO",
      "house": "5",
      "postcode": "4705-663",
      "city": "VIMIEIRO BRG",
      "lon": "-8.461981235061632",
      "lat": "41.51099721663991"
    },
    {
      "id": "pt.ine.add.PTCONT.833509",
      "street": "R MONTE",
      "house": "24",
      "postcode": "4705-661",
      "city": "VIMIEIRO BRG",
      "lon": "-8.46357079405428",
      "lat": "41.51029036266347"
    },
    {
      "id": "pt.ine.add.PTCONT.836470",
      "street": "R ANTÓNIO GONÇALVES BRAGA",
      "house": "14",
      "postcode": "4705-751",
      "city": "VIMIEIRO BRG",
      "lon": "-8.467030021768199",
      "lat": "41.5097941651113"
    },
    {
      "id": "pt.ine.add.PTCONT.844929",
      "street": "R 13 DE MAIO",
      "house": "23",
      "postcode": "4705-748",
      "city": "VIMIEIRO BRG",
      "lon": "-8.462402213813244",
      "lat": "41.51133815706641"
    },
    {
      "id": "pt.ine.add.PTCONT.849083",
      "street": "AV S BENTO",
      "house": "5",
      "postcode": "4705-752",
      "city": "VIMIEIRO BRG",
      "lon": "-8.464769834255025",
      "lat": "41.512871005951055"
    },
    {
      "id": "pt.ine.add.PTCONT.849120",
      "street": "R GAIA",
      "house": "10",
      "postcode": "4705-663",
      "city": "VIMIEIRO BRG",
      "lon": "-8.463057556070197",
      "lat": "41.51065198886538"
    }
  ]
}