{
  "data": {
    "distrito": "Vila Real",
    "concelho": "Chaves",
    "freguesia": "Vale de Anta",
    "OBJECTID": 1110,
    "BGRI2021": "17034100150",
    "DT21": "17",
    "DTMN21": "1703",
    "DTMNFR21": "170341",
    "DTMNFRSEC21": "170341001",
    "SECNUM21": "001",
    "SSNUM21": "50",
    "SECSSNUM21": "00150",
    "OBJECTID_1": 182133,
    "DT": "17",
    "CC": "03",
    "fr": "41",
    "SEC": "001",
    "SS": "50"
  },
  "addresses": [
    {
      "id": "pt.ine.add.PTCONT.5290586",
      "street": "R CENTRAL",
      "house": "11",
      "postcode": "5400-001",
      "city": "CHAVES",
      "lon": "-7.493384029902554",
      "lat": "41.75329803743877"
    },
    {
      "id": "pt.ine.add.PTCONT.5291176",
      "street": "BR DA PENA CAVADA",
      "house": "4",
      "postcode": "5400-001",
      "city": "CHAVES",
      "lon": "-7.489763953561533",
      "lat": "41.75099096331175"
    },
    {
      "id": "pt.ine.add.PTCONT.5299099",
      "street": "R CENTRAL",
      "house": "4",
      "postcode": "5400-001",
      "city": "CHAVES",
      "lon": "-7.493695014743031",
      "lat": "41.75346182953489"
    },
    {
      "id": "pt.ine.add.PTCONT.5299734",
      "street": "R CENTRAL",
      "house": "4",
      "postcode": "5400-001",
      "city": "CHAVES",
      "lon": "-7.493695014743031",
      "lat": "41.75346182953489"
    },
    {
      "id": "pt.ine.add.PTCONT.5307704",
      "street": "BR DA PENA CAVADA",
      "house": "20",
      "postcode": "5400-001",
      "city": "CHAVES",
      "lon": "-7.489729300531723",
      "lat": "41.752053169362256"
    },
    {
      "id": "pt.ine.add.PTCONT.5318449",
      "street": "BR DA PENA CAVADA",
      "house": "14",
      "postcode": "5400-001",
      "city": "CHAVES",
      "lon": "-7.489362267858734",
      "lat": "41.75148389994039"
    },
    {
      "id": "pt.ine.add.PTCONT.5320553",
      "street": "BR DA PENA CAVADA",
      "house": "8",
      "postcode": "5400-001",
      "city": "CHAVES",
      "lon": "-7.489485550319993",
      "lat": "41.75117847531768"
    },
    {
      "id": "pt.ine.add.PTCONT.5321628",
      "street": "BR DA PENA CAVADA",
      "house": "6",
      "postcode": "5400-001",
      "city": "CHAVES",
      "lon": "-7.489810245292711",
      "lat": "41.75117129033105"
    },
    {
      "id": "pt.ine.add.PTCONT.5326472",
      "street": "ESTR DA ABOBELEIRA",
      "house": "37",
      "postcode": "5400-001",
      "city": "CHAVES",
      "lon": "-7.487441874777138",
      "lat": "41.74875409975792"
    },
    {
      "id": "pt.ine.add.PTCONT.5326473",
      "street": "R DOS OLIVAIS",
      "house": "15",
      "postcode": "5400-001",
      "city": "CHAVES",
      "lon": "-7.49338215257106",
      "lat": "41.753487098142934"
    },
    {
      "id": "pt.ine.add.PTCONT.5331912",
      "street": "BR DA PENA CAVADA",
      "house": "10",
      "postcode": "5400-001",
      "city": "CHAVES",
      "lon": "-7.489256044939757",
      "lat": "41.75128523014571"
    },
    {
      "id": "pt.ine.add.PTCONT.5332944",
      "street": "ESTR DA ABOBELEIRA",
      "house": "31",
      "postcode": "5400-001",
      "city": "CHAVES",
      "lon": "-7.487967054891705",
      "lat": "41.74913519236287"
    },
    {
      "id": "pt.ine.add.PTCONT.5336613",
      "street": "R CAMINHO",
      "house": "N 2",
      "postcode": "5400-001",
      "city": "CHAVES",
      "lon": "-7.493054494568808",
      "lat": "41.753791388502286"
    },
    {
      "id": "pt.ine.add.PTCONT.5338132",
      "street": "R DE TRÁS DA IGREJA",
      "house": "1",
      "postcode": "5400-001",
      "city": "CHAVES",
      "lon": "-7.492607469777484",
      "lat": "41.75279852464221"
    },
    {
      "id": "pt.ine.add.PTCONT.5339146",
      "street": "BR DA PENA CAVADA",
      "house": "18",
      "postcode": "5400-001",
      "city": "CHAVES",
      "lon": "-7.489467142346393",
      "lat": "41.75181761292987"
    },
    {
      "id": "pt.ine.add.PTCONT.5342920",
      "street": "ESTR DA ABOBELEIRA",
      "house": "25",
      "postcode": "5400-001",
      "city": "CHAVES",
      "lon": "-7.488672302558916",
      "lat": "41.74954430283593"
    },
    {
      "id": "pt.ine.add.PTCONT.5342936",
      "street": "R DE TRÁS DA IGREJA",
      "house": "3",
      "postcode": "5400-001",
      "city": "CHAVES",
      "lon": "-7.492439599340336",
      "lat": "41.75275257175952"
    },
    {
      "id": "pt.ine.add.PTCONT.5354596",
      "street": "ESTR DA ABOBELEIRA",
      "house": "43",
      "postcode": "5400-001",
      "city": "CHAVES",
      "lon": "-7.486601602796345",
      "lat": "41.7486233272591"
    },
    {
      "id": "pt.ine.add.PTCONT.5357775",
      "street": "R ANTONIO GERMANO RIBEIRO CARVALHO",
      "house": "105",
      "postcode": "5400-078",
      "city": "CHAVES",
      "lon": "-7.483931297997172",
      "lat": "41.75352412193887"
    },
    {
      "id": "pt.ine.add.PTCONT.5368720",
      "street": "ESTR DA ABOBELEIRA",
      "house": "29",
      "postcode": "5400-001",
      "city": "CHAVES",
      "lon": "-7.488181108480323",
      "lat": "41.74937048229874"
    },
    {
      "id": "pt.ine.add.PTCONT.5374567",
      "street": "ESTR DA ABOBELEIRA",
      "house": "33",
      "postcode": "5400-001",
      "city": "CHAVES",
      "lon": "-7.487752642183238",
      "lat": "41.748935913580695"
    },
    {
      "id": "pt.ine.add.PTCONT.5378911",
      "street": "ESTR DA ABOBELEIRA",
      "house": "",
      "postcode": "5400-001",
      "city": "CHAVES",
      "lon": "-7.4876689391775235",
      "lat": "41.74889042643646"
    },
    {
      "id": "pt.ine.add.PTCONT.5379376",
      "street": "R DOS OLIVAIS",
      "house": "2",
      "postcode": "5400-001",
      "city": "CHAVES",
      "lon": "-7.493259599297075",
      "lat": "41.75372050380397"
    },
    {
      "id": "pt.ine.add.PTCONT.5382053",
      "street": "R DO PERDIGALHO",
      "house": "19",
      "postcode": "5400-001",
      "city": "CHAVES",
      "lon": "-7.489088306980137",
      "lat": "41.75002381520704"
    },
    {
      "id": "pt.ine.add.PTCONT.5383124",
      "street": "R DA PAZ",
      "house": "1",
      "postcode": "5400-001",
      "city": "CHAVES",
      "lon": "-7.488747003790603",
      "lat": "41.75049007803238"
    },
    {
      "id": "pt.ine.add.PTCONT.5384647",
      "street": "BR DA PENA CAVADA",
      "house": "16",
      "postcode": "5400-001",
      "city": "CHAVES",
      "lon": "-7.489432693744609",
      "lat": "41.75165535892237"
    },
    {
      "id": "pt.ine.add.PTCONT.5389758",
      "street": "R DE TRÁS DA IGREJA",
      "house": "5",
      "postcode": "5400-001",
      "city": "CHAVES",
      "lon": "-7.492223727895563",
      "lat": "41.75269734750464"
    },
    {
      "id": "pt.ine.add.PTCONT.5393445",
      "street": "R DA PAZ",
      "house": "11",
      "postcode": "5400-001",
      "city": "CHAVES",
      "lon": "-7.488391060747177",
      "lat": "41.75121735599047"
    },
    {
      "id": "pt.ine.add.PTCONT.5407759",
      "street": "ESTR DA ABOBELEIRA",
      "house": "41",
      "postcode": "5400-001",
      "city": "CHAVES",
      "lon": "-7.487023272948038",
      "lat": "41.748535665195824"
    },
    {
      "id": "pt.ine.add.PTCONT.5413323",
      "street": "ESTR DA ABOBELEIRA",
      "house": "39",
      "postcode": "5400-001",
      "city": "CHAVES",
      "lon": "-7.487202067449605",
      "lat": "41.74868972815037"
    },
    {
      "id": "pt.ine.add.PTCONT.5415729",
      "street": "R PAZ",
      "house": "2",
      "postcode": "5400-001",
      "city": "CHAVES",
      "lon": "-7.488850743730512",
      "lat": "41.74973437479881"
    }
  ]
}