{
  "data": {
    "ilha": "Ilha de São Miguel (Açores)",
    "concelho": "Ponta Delgada",
    "freguesia": "Fajã de Baixo",
    "OBJECTID": 131,
    "BGRI2021": "42030600211",
    "DT21": "42",
    "DTMN21": "4203",
    "DTMNFR21": "420306",
    "DTMNFRSEC21": "420306002",
    "SECNUM21": "002",
    "SSNUM21": "11",
    "SECSSNUM21": "00211",
    "OBJECTID_1": 207009,
    "DT": "42",
    "CC": "03",
    "fr": "06",
    "SEC": "002",
    "SS": "11",
    "BGRI2021_1": "42030600211"
  },
  "addresses": [
    {
      "id": "pt.ine.add.AC26.16835",
      "street": "R SILVA JUNIOR",
      "house": "15",
      "postcode": "9500-773",
      "city": "PONTA DELGADA",
      "lon": "-25.64419268496685",
      "lat": "37.76495320634265"
    },
    {
      "id": "pt.ine.add.AC26.16836",
      "street": "R SILVA JUNIOR",
      "house": "17",
      "postcode": "9500-773",
      "city": "PONTA DELGADA",
      "lon": "-25.644124746264602",
      "lat": "37.76494341194571"
    },
    {
      "id": "pt.ine.add.AC26.16837",
      "street": "R SILVA JUNIOR",
      "house": "21",
      "postcode": "9500-773",
      "city": "PONTA DELGADA",
      "lon": "-25.64396616785023",
      "lat": "37.764923561778446"
    },
    {
      "id": "pt.ine.add.AC26.16838",
      "street": "R SILVA JUNIOR",
      "house": "23",
      "postcode": "9500-773",
      "city": "PONTA DELGADA",
      "lon": "-25.64388704323663",
      "lat": "37.7649046258855"
    },
    {
      "id": "pt.ine.add.AC26.17624",
      "street": "R SILVA JUNIOR",
      "house": "29",
      "postcode": "9500-773",
      "city": "PONTA DELGADA",
      "lon": "-25.643660526407615",
      "lat": "37.7648749807386"
    },
    {
      "id": "pt.ine.add.AC26.17625",
      "street": "CAM ABELHEIRA DE CIMA",
      "house": "7B",
      "postcode": "9500-459",
      "city": "PONTA DELGADA",
      "lon": "-25.641293049692354",
      "lat": "37.76458633828994"
    },
    {
      "id": "pt.ine.add.AC26.17626",
      "street": "CAM ABELHEIRA DE CIMA",
      "house": "19A",
      "postcode": "9500-459",
      "city": "PONTA DELGADA",
      "lon": "-25.641558843695105",
      "lat": "37.7655717786785"
    },
    {
      "id": "pt.ine.add.AC26.17627",
      "street": "CAM ABELHEIRA DE CIMA",
      "house": "21",
      "postcode": "9500-459",
      "city": "PONTA DELGADA",
      "lon": "-25.64119364517097",
      "lat": "37.765675719119244"
    },
    {
      "id": "pt.ine.add.AC26.17628",
      "street": "CAM ABELHEIRA DE CIMA",
      "house": "23",
      "postcode": "9500-459",
      "city": "PONTA DELGADA",
      "lon": "-25.64150800107835",
      "lat": "37.76586860896788"
    },
    {
      "id": "pt.ine.add.AC26.17629",
      "street": "CAM ABELHEIRA DE CIMA",
      "house": "103A",
      "postcode": "9500-459",
      "city": "PONTA DELGADA",
      "lon": "-25.64218243152182",
      "lat": "37.76685875856466"
    },
    {
      "id": "pt.ine.add.AC26.49293",
      "street": "R SILVA JUNIOR",
      "house": "33",
      "postcode": "9500-773",
      "city": "PONTA DELGADA",
      "lon": "-25.64350211288781",
      "lat": "37.7648461192229"
    },
    {
      "id": "pt.ine.add.AC26.49294",
      "street": "R SILVA JUNIOR",
      "house": "41",
      "postcode": "9500-773",
      "city": "PONTA DELGADA",
      "lon": "-25.643086424766175",
      "lat": "37.7646070046325"
    },
    {
      "id": "pt.ine.add.AC26.49295",
      "street": "R SILVA JUNIOR",
      "house": "45",
      "postcode": "9500-773",
      "city": "PONTA DELGADA",
      "lon": "-25.64292883542969",
      "lat": "37.76453308872482"
    },
    {
      "id": "pt.ine.add.AC26.49995",
      "street": "CAM ABELHEIRA DE CIMA",
      "house": "7A",
      "postcode": "9500-459",
      "city": "PONTA DELGADA",
      "lon": "-25.64196027571841",
      "lat": "37.76410734876932"
    },
    {
      "id": "pt.ine.add.AC26.53667",
      "street": "CAM ABELHEIRA DE CIMA",
      "house": "9",
      "postcode": "9500-459",
      "city": "PONTA DELGADA",
      "lon": "-25.641278401737164",
      "lat": "37.76476642181278"
    },
    {
      "id": "pt.ine.add.AC26.55830",
      "street": "R SILVA JUNIOR",
      "house": "37",
      "postcode": "9500-773",
      "city": "PONTA DELGADA",
      "lon": "-25.643232170015082",
      "lat": "37.764707821818874"
    },
    {
      "id": "pt.ine.add.AC26.58599",
      "street": "CAM ABELHEIRA DE CIMA",
      "house": "25",
      "postcode": "9500-459",
      "city": "PONTA DELGADA",
      "lon": "-25.641052160483003",
      "lat": "37.76596249122781"
    },
    {
      "id": "pt.ine.add.AC26.58600",
      "street": "CAM ABELHEIRA DE CIMA",
      "house": "25",
      "postcode": "9500-459",
      "city": "PONTA DELGADA",
      "lon": "-25.641052160483003",
      "lat": "37.76596249122781"
    },
    {
      "id": "pt.ine.add.AC26.58601",
      "street": "CAM ABELHEIRA DE CIMA",
      "house": "25",
      "postcode": "9500-459",
      "city": "PONTA DELGADA",
      "lon": "-25.641052160483003",
      "lat": "37.76596249122781"
    },
    {
      "id": "pt.ine.add.AC26.58602",
      "street": "CAM ABELHEIRA DE CIMA",
      "house": "25",
      "postcode": "9500-459",
      "city": "PONTA DELGADA",
      "lon": "-25.641052160483003",
      "lat": "37.76596249122781"
    },
    {
      "id": "pt.ine.add.AC26.59806",
      "street": "R SILVA JUNIOR",
      "house": "47",
      "postcode": "9500-773",
      "city": "PONTA DELGADA",
      "lon": "-25.64287307116647",
      "lat": "37.76447837070973"
    },
    {
      "id": "pt.ine.add.AC26.59807",
      "street": "CAM TORREAO",
      "house": "4",
      "postcode": "9500-460",
      "city": "PONTA DELGADA",
      "lon": "-25.64303769545878",
      "lat": "37.76665230864047"
    },
    {
      "id": "pt.ine.add.AC26.62297",
      "street": "CAM ABELHEIRA DE CIMA",
      "house": "88",
      "postcode": "9500-459",
      "city": "PONTA DELGADA",
      "lon": "-25.6412226121311",
      "lat": "37.76533357359357"
    },
    {
      "id": "pt.ine.add.AC26.64831",
      "street": "CAM ABELHEIRA CIMA",
      "house": "7A",
      "postcode": "9500-459",
      "city": "PONTA DELGADA",
      "lon": "-25.641852024448685",
      "lat": "37.7644395681021"
    },
    {
      "id": "pt.ine.add.AC26.69875",
      "street": "R SILVA JUNIOR",
      "house": "39",
      "postcode": "9500-773",
      "city": "PONTA DELGADA",
      "lon": "-25.643153704419927",
      "lat": "37.764652842530374"
    },
    {
      "id": "pt.ine.add.AC26.72278",
      "street": "R SILVA JUNIOR",
      "house": "35",
      "postcode": "9500-773",
      "city": "PONTA DELGADA",
      "lon": "-25.643411473351254",
      "lat": "37.76483606306802"
    },
    {
      "id": "pt.ine.add.AC26.72279",
      "street": "R SILVA JUNIOR",
      "house": "43",
      "postcode": "9500-773",
      "city": "PONTA DELGADA",
      "lon": "-25.642984929108465",
      "lat": "37.76456978526061"
    },
    {
      "id": "pt.ine.add.AC26.84422",
      "street": "CAM ABELHEIRA DE CIMA",
      "house": "25",
      "postcode": "9500-459",
      "city": "PONTA DELGADA",
      "lon": "-25.641052160483003",
      "lat": "37.76596249122781"
    },
    {
      "id": "pt.ine.add.AC26.102990",
      "street": "R SILVA JUNIOR",
      "house": "27",
      "postcode": "9500-773",
      "city": "PONTA DELGADA",
      "lon": "-25.64372846497811",
      "lat": "37.764884775400944"
    },
    {
      "id": "pt.ine.add.AC26.104004",
      "street": "R SILVA JUNIOR",
      "house": "31",
      "postcode": "9500-773",
      "city": "PONTA DELGADA",
      "lon": "-25.643581401929627",
      "lat": "37.764856044642684"
    },
    {
      "id": "pt.ine.add.AC26.104375",
      "street": "R SILVA JUNIOR",
      "house": "19",
      "postcode": "9500-773",
      "city": "PONTA DELGADA",
      "lon": "-25.644034106510702",
      "lat": "37.764933356266134"
    },
    {
      "id": "pt.ine.add.AC26.104479",
      "street": "CAM CERRADOS FUNDOS",
      "house": "15",
      "postcode": "9500-460",
      "city": "PONTA DELGADA",
      "lon": "-25.643400106262423",
      "lat": "37.76607967410869"
    },
    {
      "id": "pt.ine.add.AC26.106074",
      "street": "R SILVA JUNIOR",
      "house": "25",
      "postcode": "9500-773",
      "city": "PONTA DELGADA",
      "lon": "-25.643807754095977",
      "lat": "37.76489470066972"
    },
    {
      "id": "pt.ine.add.AC26.107157",
      "street": "CAM ABELHEIRA DE CIMA",
      "house": "103",
      "postcode": "9500-459",
      "city": "PONTA DELGADA",
      "lon": "-25.642113997025927",
      "lat": "37.76687599514373"
    }
  ]
}