{
  "data": {
    "distrito": "Setúbal",
    "concelho": "Almada",
    "freguesia": "União das freguesias de Charneca de Caparica e Sobreda",
    "OBJECTID": 16,
    "BGRI2021": "15031400308",
    "DT21": "15",
    "DTMN21": "1503",
    "DTMNFR21": "150314",
    "DTMNFRSEC21": "150314003",
    "SECNUM21": "003",
    "SSNUM21": "08",
    "SECSSNUM21": "00308",
    "OBJECTID_1": 161471,
    "DT": "15",
    "CC": "03",
    "fr": "14",
    "SEC": "003",
    "SS": "08"
  },
  "addresses": [
    {
      "id": "pt.ine.add.PTCONT.4667205",
      "street": "R FERNANDO BENTO",
      "house": "6",
      "postcode": "2815-885",
      "city": "SOBREDA",
      "lon": "-9.187233730621314",
      "lat": "38.64718315099483"
    },
    {
      "id": "pt.ine.add.PTCONT.4667176",
      "street": "R FERNANDO BENTO",
      "house": "6",
      "postcode": "2815-885",
      "city": "SOBREDA",
      "lon": "-9.187233730621314",
      "lat": "38.64718315099483"
    },
    {
      "id": "pt.ine.add.PTCONT.4667177",
      "street": "R FERNANDO BENTO",
      "house": "6",
      "postcode": "2815-885",
      "city": "SOBREDA",
      "lon": "-9.187233730621314",
      "lat": "38.64718315099483"
    },
    {
      "id": "pt.ine.add.PTCONT.4667178",
      "street": "R FERNANDO BENTO",
      "house": "6",
      "postcode": "2815-885",
      "city": "SOBREDA",
      "lon": "-9.187233730621314",
      "lat": "38.64718315099483"
    },
    {
      "id": "pt.ine.add.PTCONT.4667179",
      "street": "R FERNANDO BENTO",
      "house": "6",
      "postcode": "2815-885",
      "city": "SOBREDA",
      "lon": "-9.187233730621314",
      "lat": "38.64718315099483"
    },
    {
      "id": "pt.ine.add.PTCONT.4667198",
      "street": "R FERNANDO BENTO",
      "house": "6",
      "postcode": "2815-885",
      "city": "SOBREDA",
      "lon": "-9.187233730621314",
      "lat": "38.64718315099483"
    },
    {
      "id": "pt.ine.add.PTCONT.4667199",
      "street": "R FERNANDO BENTO",
      "house": "6",
      "postcode": "2815-885",
      "city": "SOBREDA",
      "lon": "-9.187233730621314",
      "lat": "38.64718315099483"
    },
    {
      "id": "pt.ine.add.PTCONT.4667200",
      "street": "R FERNANDO BENTO",
      "house": "6",
      "postcode": "2815-885",
      "city": "SOBREDA",
      "lon": "-9.187233730621314",
      "lat": "38.64718315099483"
    },
    {
      "id": "pt.ine.add.PTCONT.4667201",
      "street": "R FERNANDO BENTO",
      "house": "6",
      "postcode": "2815-885",
      "city": "SOBREDA",
      "lon": "-9.187233730621314",
      "lat": "38.64718315099483"
    },
    {
      "id": "pt.ine.add.PTCONT.4667202",
      "street": "R FERNANDO BENTO",
      "house": "6",
      "postcode": "2815-885",
      "city": "SOBREDA",
      "lon": "-9.187233730621314",
      "lat": "38.64718315099483"
    },
    {
      "id": "pt.ine.add.PTCONT.4667203",
      "street": "R FERNANDO BENTO",
      "house": "6",
      "postcode": "2815-885",
      "city": "SOBREDA",
      "lon": "-9.187233730621314",
      "lat": "38.64718315099483"
    },
    {
      "id": "pt.ine.add.PTCONT.4667204",
      "street": "R FERNANDO BENTO",
      "house": "6",
      "postcode": "2815-885",
      "city": "SOBREDA",
      "lon": "-9.187233730621314",
      "lat": "38.64718315099483"
    },
    {
      "id": "pt.ine.add.PTCONT.4667206",
      "street": "R FERNANDO BENTO",
      "house": "6",
      "postcode": "2815-885",
      "city": "SOBREDA",
      "lon": "-9.187233730621314",
      "lat": "38.64718315099483"
    },
    {
      "id": "pt.ine.add.PTCONT.4667207",
      "street": "R FERNANDO BENTO",
      "house": "6",
      "postcode": "2815-885",
      "city": "SOBREDA",
      "lon": "-9.187233730621314",
      "lat": "38.64718315099483"
    },
    {
      "id": "pt.ine.add.PTCONT.4667222",
      "street": "R VALE LINHOSO JF",
      "house": "JF",
      "postcode": "2815-807",
      "city": "SOBREDA",
      "lon": "-9.187748973165304",
      "lat": "38.64707041117297"
    },
    {
      "id": "pt.ine.add.PTCONT.4667223",
      "street": "R VALE LINHOSO JF",
      "house": "JF",
      "postcode": "2815-807",
      "city": "SOBREDA",
      "lon": "-9.187748973165304",
      "lat": "38.64707041117297"
    },
    {
      "id": "pt.ine.add.PTCONT.4669537",
      "street": "R FERNANDO BENTO",
      "house": "6",
      "postcode": "2815-885",
      "city": "SOBREDA",
      "lon": "-9.187233730621314",
      "lat": "38.64718315099483"
    },
    {
      "id": "pt.ine.add.PTCONT.4670307",
      "street": "R FERNANDO BENTO",
      "house": "6",
      "postcode": "2815-885",
      "city": "SOBREDA",
      "lon": "-9.187233730621314",
      "lat": "38.64718315099483"
    },
    {
      "id": "pt.ine.add.PTCONT.4681704",
      "street": "R VALE LINHOSO",
      "house": "15",
      "postcode": "2815-807",
      "city": "SOBREDA",
      "lon": "-9.187477424749844",
      "lat": "38.64735210587757"
    },
    {
      "id": "pt.ine.add.PTCONT.4684104",
      "street": "R VALE LINHOSO",
      "house": "15",
      "postcode": "2815-807",
      "city": "SOBREDA",
      "lon": "-9.187477424749844",
      "lat": "38.64735210587757"
    },
    {
      "id": "pt.ine.add.PTCONT.4714386",
      "street": "R QUINTA DO CONVENTO",
      "house": "4",
      "postcode": "2815-796",
      "city": "SOBREDA",
      "lon": "-9.188535131210994",
      "lat": "38.64898201537062"
    },
    {
      "id": "pt.ine.add.PTCONT.4740408",
      "street": "R DUARTE JOAQUIM VIEIRA JUNIOR",
      "house": "2",
      "postcode": "2815-770",
      "city": "SOBREDA",
      "lon": "-9.186672009517034",
      "lat": "38.648043967772004"
    },
    {
      "id": "pt.ine.add.PTCONT.4740409",
      "street": "R DUARTE JOAQUIM VIEIRA JUNIOR",
      "house": "2",
      "postcode": "2815-770",
      "city": "SOBREDA",
      "lon": "-9.186672009517034",
      "lat": "38.648043967772004"
    },
    {
      "id": "pt.ine.add.PTCONT.4740410",
      "street": "R DUARTE JOAQUIM VIEIRA JUNIOR",
      "house": "2",
      "postcode": "2815-770",
      "city": "SOBREDA",
      "lon": "-9.186672009517034",
      "lat": "38.648043967772004"
    },
    {
      "id": "pt.ine.add.PTCONT.4740411",
      "street": "R DUARTE JOAQUIM VIEIRA JUNIOR",
      "house": "2",
      "postcode": "2815-770",
      "city": "SOBREDA",
      "lon": "-9.186672009517034",
      "lat": "38.648043967772004"
    },
    {
      "id": "pt.ine.add.PTCONT.4740412",
      "street": "R DUARTE JOAQUIM VIEIRA JUNIOR",
      "house": "2",
      "postcode": "2815-770",
      "city": "SOBREDA",
      "lon": "-9.186672009517034",
      "lat": "38.648043967772004"
    },
    {
      "id": "pt.ine.add.PTCONT.4740413",
      "street": "R DUARTE JOAQUIM VIEIRA JUNIOR",
      "house": "2",
      "postcode": "2815-770",
      "city": "SOBREDA",
      "lon": "-9.186672009517034",
      "lat": "38.648043967772004"
    },
    {
      "id": "pt.ine.add.PTCONT.4740430",
      "street": "R VALE LINHOSO",
      "house": "10",
      "postcode": "2815-807",
      "city": "SOBREDA",
      "lon": "-9.18789669379147",
      "lat": "38.64696098371668"
    },
    {
      "id": "pt.ine.add.PTCONT.4747925",
      "street": "R VALE LINHOSO",
      "house": "",
      "postcode": "2815-807",
      "city": "SOBREDA",
      "lon": "-9.188690203802361",
      "lat": "38.64624219694059"
    },
    {
      "id": "pt.ine.add.PTCONT.4758699",
      "street": "R VALE LINHOSO",
      "house": "",
      "postcode": "2815-807",
      "city": "SOBREDA",
      "lon": "-9.188405195423703",
      "lat": "38.64638889587254"
    },
    {
      "id": "pt.ine.add.PTCONT.4765961",
      "street": "R DUARTE JOAQUIM VIEIRA JUNIOR",
      "house": "6",
      "postcode": "2815-770",
      "city": "SOBREDA",
      "lon": "-9.186679273524968",
      "lat": "38.64775564767336"
    },
    {
      "id": "pt.ine.add.PTCONT.4765962",
      "street": "R DUARTE JOAQUIM VIEIRA JUNIOR",
      "house": "6",
      "postcode": "2815-770",
      "city": "SOBREDA",
      "lon": "-9.186679273524968",
      "lat": "38.64775564767336"
    },
    {
      "id": "pt.ine.add.PTCONT.4765963",
      "street": "R DUARTE JOAQUIM VIEIRA JUNIOR",
      "house": "6",
      "postcode": "2815-770",
      "city": "SOBREDA",
      "lon": "-9.186679273524968",
      "lat": "38.64775564767336"
    },
    {
      "id": "pt.ine.add.PTCONT.4765964",
      "street": "R DUARTE JOAQUIM VIEIRA JUNIOR",
      "house": "6",
      "postcode": "2815-770",
      "city": "SOBREDA",
      "lon": "-9.186679273524968",
      "lat": "38.64775564767336"
    },
    {
      "id": "pt.ine.add.PTCONT.4765965",
      "street": "R DUARTE JOAQUIM VIEIRA JUNIOR",
      "house": "6",
      "postcode": "2815-770",
      "city": "SOBREDA",
      "lon": "-9.186679273524968",
      "lat": "38.64775564767336"
    },
    {
      "id": "pt.ine.add.PTCONT.4765966",
      "street": "R DUARTE JOAQUIM VIEIRA JUNIOR",
      "house": "6",
      "postcode": "2815-770",
      "city": "SOBREDA",
      "lon": "-9.186679273524968",
      "lat": "38.64775564767336"
    },
    {
      "id": "pt.ine.add.PTCONT.4776156",
      "street": "R DUARTE JOAQUIM VIEIRA JUNIOR",
      "house": "4",
      "postcode": "2815-770",
      "city": "SOBREDA",
      "lon": "-9.186669898943311",
      "lat": "38.6478998594472"
    },
    {
      "id": "pt.ine.add.PTCONT.4776157",
      "street": "R DUARTE JOAQUIM VIEIRA JUNIOR",
      "house": "4",
      "postcode": "2815-770",
      "city": "SOBREDA",
      "lon": "-9.186669898943311",
      "lat": "38.6478998594472"
    },
    {
      "id": "pt.ine.add.PTCONT.4776380",
      "street": "R DUARTE JOAQUIM VIEIRA JUNIOR",
      "house": "4",
      "postcode": "2815-770",
      "city": "SOBREDA",
      "lon": "-9.186669898943311",
      "lat": "38.6478998594472"
    },
    {
      "id": "pt.ine.add.PTCONT.4776381",
      "street": "R DUARTE JOAQUIM VIEIRA JUNIOR",
      "house": "4",
      "postcode": "2815-770",
      "city": "SOBREDA",
      "lon": "-9.186669898943311",
      "lat": "38.6478998594472"
    },
    {
      "id": "pt.ine.add.PTCONT.4776382",
      "street": "R DUARTE JOAQUIM VIEIRA JUNIOR",
      "house": "4",
      "postcode": "2815-770",
      "city": "SOBREDA",
      "lon": "-9.186669898943311",
      "lat": "38.6478998594472"
    },
    {
      "id": "pt.ine.add.PTCONT.4778711",
      "street": "R DUARTE JOAQUIM VIEIRA JUNIOR",
      "house": "4",
      "postcode": "2815-770",
      "city": "SOBREDA",
      "lon": "-9.186669898943311",
      "lat": "38.6478998594472"
    },
    {
      "id": "pt.ine.add.PTCONT.4781963",
      "street": "R BENTO DE JESUS CARAÇA",
      "house": "21",
      "postcode": "2815-764",
      "city": "SOBREDA",
      "lon": "-9.189173134248989",
      "lat": "38.64784125452384"
    },
    {
      "id": "pt.ine.add.PTCONT.4781964",
      "street": "R BENTO DE JESUS CARAÇA",
      "house": "21",
      "postcode": "2815-764",
      "city": "SOBREDA",
      "lon": "-9.189173134248989",
      "lat": "38.64784125452384"
    },
    {
      "id": "pt.ine.add.PTCONT.4782243",
      "street": "R MANUEL PARADA",
      "house": "",
      "postcode": "2815-783",
      "city": "SOBREDA",
      "lon": "-9.188089310107511",
      "lat": "38.648346472208"
    },
    {
      "id": "pt.ine.add.PTCONT.4801614",
      "street": "R VALE LINHOSO",
      "house": "",
      "postcode": "2815-807",
      "city": "SOBREDA",
      "lon": "-9.188634232980336",
      "lat": "38.646341789565504"
    },
    {
      "id": "pt.ine.add.PTCONT.4804699",
      "street": "R FERNANDO BENTO",
      "house": "2",
      "postcode": "2815-885",
      "city": "SOBREDA",
      "lon": "-9.186812477755433",
      "lat": "38.64743916927483"
    },
    {
      "id": "pt.ine.add.PTCONT.4804700",
      "street": "R FERNANDO BENTO",
      "house": "2",
      "postcode": "2815-885",
      "city": "SOBREDA",
      "lon": "-9.186812477755433",
      "lat": "38.64743916927483"
    },
    {
      "id": "pt.ine.add.PTCONT.4804701",
      "street": "R FERNANDO BENTO",
      "house": "2",
      "postcode": "2815-885",
      "city": "SOBREDA",
      "lon": "-9.186812477755433",
      "lat": "38.64743916927483"
    },
    {
      "id": "pt.ine.add.PTCONT.4804702",
      "street": "R FERNANDO BENTO",
      "house": "2",
      "postcode": "2815-885",
      "city": "SOBREDA",
      "lon": "-9.186812477755433",
      "lat": "38.64743916927483"
    },
    {
      "id": "pt.ine.add.PTCONT.4804703",
      "street": "R FERNANDO BENTO",
      "house": "2",
      "postcode": "2815-885",
      "city": "SOBREDA",
      "lon": "-9.186812477755433",
      "lat": "38.64743916927483"
    },
    {
      "id": "pt.ine.add.PTCONT.4804704",
      "street": "R FERNANDO BENTO",
      "house": "2",
      "postcode": "2815-885",
      "city": "SOBREDA",
      "lon": "-9.186812477755433",
      "lat": "38.64743916927483"
    },
    {
      "id": "pt.ine.add.PTCONT.4804705",
      "street": "R FERNANDO BENTO",
      "house": "2",
      "postcode": "2815-885",
      "city": "SOBREDA",
      "lon": "-9.186812477755433",
      "lat": "38.64743916927483"
    },
    {
      "id": "pt.ine.add.PTCONT.4804706",
      "street": "R FERNANDO BENTO",
      "house": "2",
      "postcode": "2815-885",
      "city": "SOBREDA",
      "lon": "-9.186812477755433",
      "lat": "38.64743916927483"
    },
    {
      "id": "pt.ine.add.PTCONT.4804753",
      "street": "R FERNANDO BENTO",
      "house": "2",
      "postcode": "2815-885",
      "city": "SOBREDA",
      "lon": "-9.186812477755433",
      "lat": "38.64743916927483"
    },
    {
      "id": "pt.ine.add.PTCONT.4807072",
      "street": "R FERNANDO BENTO",
      "house": "2",
      "postcode": "2815-885",
      "city": "SOBREDA",
      "lon": "-9.186812477755433",
      "lat": "38.64743916927483"
    },
    {
      "id": "pt.ine.add.PTCONT.4807129",
      "street": "R FERNANDO BENTO",
      "house": "2",
      "postcode": "2815-885",
      "city": "SOBREDA",
      "lon": "-9.186812477755433",
      "lat": "38.64743916927483"
    },
    {
      "id": "pt.ine.add.PTCONT.4808193",
      "street": "R VALE LINHOSO",
      "house": "4",
      "postcode": "2815-807",
      "city": "SOBREDA",
      "lon": "-9.188303020150496",
      "lat": "38.64647088924918"
    },
    {
      "id": "pt.ine.add.PTCONT.4808205",
      "street": "R VALE LINHOSO",
      "house": "",
      "postcode": "2815-807",
      "city": "SOBREDA",
      "lon": "-9.188303020150496",
      "lat": "38.64647088924918"
    },
    {
      "id": "pt.ine.add.PTCONT.4808206",
      "street": "PCT VALE LINHOSO",
      "house": "4",
      "postcode": "2815-806",
      "city": "SOBREDA",
      "lon": "-9.188303020150496",
      "lat": "38.64647088924918"
    },
    {
      "id": "pt.ine.add.PTCONT.4818877",
      "street": "R VALE LINHOSO",
      "house": "3",
      "postcode": "2815-807",
      "city": "SOBREDA",
      "lon": "-9.1884978675404",
      "lat": "38.64644210754242"
    },
    {
      "id": "pt.ine.add.PTCONT.4818920",
      "street": "R BENTO DE JESUS CARAÇA",
      "house": "4",
      "postcode": "2815-764",
      "city": "SOBREDA",
      "lon": "-9.189029115602407",
      "lat": "38.64820287294654"
    },
    {
      "id": "pt.ine.add.PTCONT.4829253",
      "street": "R VALE LINHOSO",
      "house": "",
      "postcode": "2815-807",
      "city": "SOBREDA",
      "lon": "-9.188099461406352",
      "lat": "38.64668891635029"
    },
    {
      "id": "pt.ine.add.PTCONT.4849239",
      "street": "R LIBERDADE",
      "house": "21",
      "postcode": "2815-781",
      "city": "SOBREDA",
      "lon": "-9.189452370192003",
      "lat": "38.64886564016326"
    },
    {
      "id": "pt.ine.add.PTCONT.4849853",
      "street": "R QUINTA DO CONVENTO",
      "house": "1",
      "postcode": "2815-796",
      "city": "SOBREDA",
      "lon": "-9.188639292143858",
      "lat": "38.64903512322497"
    },
    {
      "id": "pt.ine.add.PTCONT.4852380",
      "street": "R BENTO DE JESUS CARAÇA",
      "house": "8",
      "postcode": "2815-764",
      "city": "SOBREDA",
      "lon": "-9.188995849821369",
      "lat": "38.64828424484261"
    },
    {
      "id": "pt.ine.add.PTCONT.4854791",
      "street": "R VALE LINHOSO",
      "house": "14",
      "postcode": "2815-807",
      "city": "SOBREDA",
      "lon": "-9.187579602209318",
      "lat": "38.647270113203284"
    },
    {
      "id": "pt.ine.add.PTCONT.4854792",
      "street": "R VALE LINHOSO",
      "house": "14",
      "postcode": "2815-807",
      "city": "SOBREDA",
      "lon": "-9.187579602209318",
      "lat": "38.647270113203284"
    },
    {
      "id": "pt.ine.add.PTCONT.4863176",
      "street": "R QUINTA DO CONVENTO",
      "house": "2",
      "postcode": "2815-796",
      "city": "SOBREDA",
      "lon": "-9.18867308732309",
      "lat": "38.64898977848177"
    },
    {
      "id": "pt.ine.add.PTCONT.4872426",
      "street": "R BENTO DE JESUS CARAÇA",
      "house": "5",
      "postcode": "2815-764",
      "city": "SOBREDA",
      "lon": "-9.18916667358493",
      "lat": "38.64818361520836"
    },
    {
      "id": "pt.ine.add.PTCONT.4875398",
      "street": "R VALE LINHOSO",
      "house": "",
      "postcode": "2815-807",
      "city": "SOBREDA",
      "lon": "-9.189053489874377",
      "lat": "38.64595066336383"
    },
    {
      "id": "pt.ine.add.PTCONT.4885747",
      "street": "R QUINTA DO CONVENTO",
      "house": "3",
      "postcode": "2815-796",
      "city": "SOBREDA",
      "lon": "-9.188591368452792",
      "lat": "38.64890043633303"
    },
    {
      "id": "pt.ine.add.PTCONT.4896591",
      "street": "R BENTO DE JESUS CARAÇA",
      "house": "17",
      "postcode": "2815-764",
      "city": "SOBREDA",
      "lon": "-9.189245615404719",
      "lat": "38.648083814954724"
    },
    {
      "id": "pt.ine.add.PTCONT.4896592",
      "street": "R BENTO DE JESUS CARAÇA",
      "house": "17",
      "postcode": "2815-764",
      "city": "SOBREDA",
      "lon": "-9.189245615404719",
      "lat": "38.648083814954724"
    },
    {
      "id": "pt.ine.add.PTCONT.4898910",
      "street": "R BENTO DE JESUS CARAÇA",
      "house": "17",
      "postcode": "2815-764",
      "city": "SOBREDA",
      "lon": "-9.189245615404719",
      "lat": "38.648083814954724"
    },
    {
      "id": "pt.ine.add.PTCONT.4898911",
      "street": "R BENTO DE JESUS CARAÇA",
      "house": "17",
      "postcode": "2815-764",
      "city": "SOBREDA",
      "lon": "-9.189245615404719",
      "lat": "38.648083814954724"
    },
    {
      "id": "pt.ine.add.PTCONT.4898912",
      "street": "R BENTO DE JESUS CARAÇA",
      "house": "17",
      "postcode": "2815-764",
      "city": "SOBREDA",
      "lon": "-9.189245615404719",
      "lat": "38.648083814954724"
    },
    {
      "id": "pt.ine.add.PTCONT.4898913",
      "street": "R BENTO DE JESUS CARAÇA",
      "house": "17",
      "postcode": "2815-764",
      "city": "SOBREDA",
      "lon": "-9.189245615404719",
      "lat": "38.648083814954724"
    },
    {
      "id": "pt.ine.add.PTCONT.4898914",
      "street": "R BENTO DE JESUS CARAÇA",
      "house": "17",
      "postcode": "2815-764",
      "city": "SOBREDA",
      "lon": "-9.189245615404719",
      "lat": "38.648083814954724"
    },
    {
      "id": "pt.ine.add.PTCONT.4899817",
      "street": "R BENTO DE JESUS CARAÇA",
      "house": "17",
      "postcode": "2815-764",
      "city": "SOBREDA",
      "lon": "-9.189245615404719",
      "lat": "38.648083814954724"
    },
    {
      "id": "pt.ine.add.PTCONT.4900437",
      "street": "R ANTÓNIO JOSE PIANO JUNIOR",
      "house": "21",
      "postcode": "2815-762",
      "city": "SOBREDA",
      "lon": "-9.189211310960982",
      "lat": "38.648876824810365"
    },
    {
      "id": "pt.ine.add.PTCONT.4932410",
      "street": "R LIBERDADE",
      "house": "23",
      "postcode": "2815-781",
      "city": "SOBREDA",
      "lon": "-9.18953051870253",
      "lat": "38.64871179915837"
    },
    {
      "id": "pt.ine.add.PTCONT.4936281",
      "street": "R VALE LINHOSO",
      "house": "5",
      "postcode": "2815-807",
      "city": "SOBREDA",
      "lon": "-9.188178138944828",
      "lat": "38.64657110325792"
    },
    {
      "id": "pt.ine.add.PTCONT.4936290",
      "street": "R BENTO DE JESUS CARAÇA",
      "house": "2",
      "postcode": "2815-764",
      "city": "SOBREDA",
      "lon": "-9.189167731381206",
      "lat": "38.64825566930977"
    },
    {
      "id": "pt.ine.add.PTCONT.4947302",
      "street": "R QUINTA DO CONVENTO",
      "house": "14",
      "postcode": "2815-796",
      "city": "SOBREDA",
      "lon": "-9.18885857105997",
      "lat": "38.64910520793624"
    },
    {
      "id": "pt.ine.add.PTCONT.4972290",
      "street": "R LIBERDADE",
      "house": "21",
      "postcode": "2815-781",
      "city": "SOBREDA",
      "lon": "-9.189531576883175",
      "lat": "38.64878385324479"
    },
    {
      "id": "pt.ine.add.PTCONT.4976017",
      "street": "QTA VALE LINHOSO",
      "house": "",
      "postcode": "2815-885",
      "city": "SOBREDA",
      "lon": "-9.188971906266234",
      "lat": "38.645870328159766"
    },
    {
      "id": "pt.ine.add.PTCONT.4990291",
      "street": "R VALE LINHOSO",
      "house": "",
      "postcode": "2815-807",
      "city": "SOBREDA",
      "lon": "-9.18875832016507",
      "lat": "38.64618753447881"
    },
    {
      "id": "pt.ine.add.PTCONT.5019881",
      "street": "R VALE LINHOSO",
      "house": "2",
      "postcode": "2815-807",
      "city": "SOBREDA",
      "lon": "-9.187635707223746",
      "lat": "38.64717952783647"
    },
    {
      "id": "pt.ine.add.PTCONT.5019933",
      "street": "R VALE LINHOSO",
      "house": "2",
      "postcode": "2815-807",
      "city": "SOBREDA",
      "lon": "-9.187635707223746",
      "lat": "38.64717952783647"
    },
    {
      "id": "pt.ine.add.PTCONT.5027362",
      "street": "R BENTO DE JESUS CARAÇA",
      "house": "23",
      "postcode": "2815-764",
      "city": "SOBREDA",
      "lon": "-9.189136959970321",
      "lat": "38.64772447766699"
    },
    {
      "id": "pt.ine.add.PTCONT.5027363",
      "street": "R BENTO DE JESUS CARAÇA",
      "house": "23",
      "postcode": "2815-764",
      "city": "SOBREDA",
      "lon": "-9.189136959970321",
      "lat": "38.64772447766699"
    },
    {
      "id": "pt.ine.add.PTCONT.5027364",
      "street": "R BENTO DE JESUS CARAÇA",
      "house": "23",
      "postcode": "2815-764",
      "city": "SOBREDA",
      "lon": "-9.189136959970321",
      "lat": "38.64772447766699"
    },
    {
      "id": "pt.ine.add.PTCONT.5027365",
      "street": "R BENTO DE JESUS CARAÇA",
      "house": "23",
      "postcode": "2815-764",
      "city": "SOBREDA",
      "lon": "-9.189136959970321",
      "lat": "38.64772447766699"
    },
    {
      "id": "pt.ine.add.PTCONT.5038174",
      "street": "R QUINTA DO CONVENTO",
      "house": "12",
      "postcode": "2815-796",
      "city": "SOBREDA",
      "lon": "-9.188696983168528",
      "lat": "38.64905261853026"
    },
    {
      "id": "pt.ine.add.PTCONT.5045383",
      "street": "R BENTO DE JESUS CARAÇA",
      "house": "19",
      "postcode": "2815-764",
      "city": "SOBREDA",
      "lon": "-9.189197823485998",
      "lat": "38.64795813505974"
    },
    {
      "id": "pt.ine.add.PTCONT.5045384",
      "street": "R BENTO DE JESUS CARAÇA",
      "house": "19",
      "postcode": "2815-764",
      "city": "SOBREDA",
      "lon": "-9.189197823485998",
      "lat": "38.64795813505974"
    },
    {
      "id": "pt.ine.add.PTCONT.5045385",
      "street": "R BENTO DE JESUS CARAÇA",
      "house": "19",
      "postcode": "2815-764",
      "city": "SOBREDA",
      "lon": "-9.189197823485998",
      "lat": "38.64795813505974"
    },
    {
      "id": "pt.ine.add.PTCONT.5045398",
      "street": "R BENTO DE JESUS CARAÇA",
      "house": "19",
      "postcode": "2815-764",
      "city": "SOBREDA",
      "lon": "-9.189197823485998",
      "lat": "38.64795813505974"
    },
    {
      "id": "pt.ine.add.PTCONT.5045399",
      "street": "R BENTO DE JESUS CARAÇA",
      "house": "19",
      "postcode": "2815-764",
      "city": "SOBREDA",
      "lon": "-9.189197823485998",
      "lat": "38.64795813505974"
    },
    {
      "id": "pt.ine.add.PTCONT.5045400",
      "street": "R BENTO DE JESUS CARAÇA",
      "house": "19",
      "postcode": "2815-764",
      "city": "SOBREDA",
      "lon": "-9.189197823485998",
      "lat": "38.64795813505974"
    },
    {
      "id": "pt.ine.add.PTCONT.5045401",
      "street": "R BENTO DE JESUS CARAÇA",
      "house": "19",
      "postcode": "2815-764",
      "city": "SOBREDA",
      "lon": "-9.189197823485998",
      "lat": "38.64795813505974"
    },
    {
      "id": "pt.ine.add.PTCONT.5045402",
      "street": "R BENTO DE JESUS CARAÇA",
      "house": "19",
      "postcode": "2815-764",
      "city": "SOBREDA",
      "lon": "-9.189197823485998",
      "lat": "38.64795813505974"
    },
    {
      "id": "pt.ine.add.PTCONT.5070932",
      "street": "R LIBERDADE",
      "house": "18",
      "postcode": "2815-781",
      "city": "SOBREDA",
      "lon": "-9.188903322690004",
      "lat": "38.64902373241631"
    },
    {
      "id": "pt.ine.add.PTCONT.5092457",
      "street": "R BENTO DE JESUS CARAÇA",
      "house": "1",
      "postcode": "2815-764",
      "city": "SOBREDA",
      "lon": "-9.189225025202902",
      "lat": "38.64824614407643"
    },
    {
      "id": "pt.ine.add.PTCONT.5102910",
      "street": "R BENTO DE JESUS CARAÇA",
      "house": "3",
      "postcode": "2815-764",
      "city": "SOBREDA",
      "lon": "-9.189087731548046",
      "lat": "38.64828341541014"
    },
    {
      "id": "pt.ine.add.PTCONT.5107900",
      "street": "R FERNANDO BENTO",
      "house": "4",
      "postcode": "2815-885",
      "city": "SOBREDA",
      "lon": "-9.186991752941772",
      "lat": "38.64713128360326"
    },
    {
      "id": "pt.ine.add.PTCONT.5107901",
      "street": "R FERNANDO BENTO",
      "house": "4",
      "postcode": "2815-885",
      "city": "SOBREDA",
      "lon": "-9.186991752941772",
      "lat": "38.64713128360326"
    },
    {
      "id": "pt.ine.add.PTCONT.5107902",
      "street": "R FERNANDO BENTO",
      "house": "4",
      "postcode": "2815-885",
      "city": "SOBREDA",
      "lon": "-9.186991752941772",
      "lat": "38.64713128360326"
    },
    {
      "id": "pt.ine.add.PTCONT.5107903",
      "street": "R FERNANDO BENTO",
      "house": "4",
      "postcode": "2815-885",
      "city": "SOBREDA",
      "lon": "-9.186991752941772",
      "lat": "38.64713128360326"
    },
    {
      "id": "pt.ine.add.PTCONT.5107904",
      "street": "R FERNANDO BENTO",
      "house": "4",
      "postcode": "2815-885",
      "city": "SOBREDA",
      "lon": "-9.186991752941772",
      "lat": "38.64713128360326"
    },
    {
      "id": "pt.ine.add.PTCONT.5107905",
      "street": "R FERNANDO BENTO",
      "house": "4",
      "postcode": "2815-885",
      "city": "SOBREDA",
      "lon": "-9.186991752941772",
      "lat": "38.64713128360326"
    },
    {
      "id": "pt.ine.add.PTCONT.5107906",
      "street": "R FERNANDO BENTO",
      "house": "4",
      "postcode": "2815-885",
      "city": "SOBREDA",
      "lon": "-9.186991752941772",
      "lat": "38.64713128360326"
    },
    {
      "id": "pt.ine.add.PTCONT.5107907",
      "street": "R FERNANDO BENTO",
      "house": "4",
      "postcode": "2815-885",
      "city": "SOBREDA",
      "lon": "-9.186991752941772",
      "lat": "38.64713128360326"
    },
    {
      "id": "pt.ine.add.PTCONT.5107908",
      "street": "R FERNANDO BENTO",
      "house": "4",
      "postcode": "2815-885",
      "city": "SOBREDA",
      "lon": "-9.186991752941772",
      "lat": "38.64713128360326"
    },
    {
      "id": "pt.ine.add.PTCONT.5107909",
      "street": "R FERNANDO BENTO",
      "house": "4",
      "postcode": "2815-885",
      "city": "SOBREDA",
      "lon": "-9.186991752941772",
      "lat": "38.64713128360326"
    },
    {
      "id": "pt.ine.add.PTCONT.5107910",
      "street": "R FERNANDO BENTO",
      "house": "4",
      "postcode": "2815-885",
      "city": "SOBREDA",
      "lon": "-9.186991752941772",
      "lat": "38.64713128360326"
    },
    {
      "id": "pt.ine.add.PTCONT.5107911",
      "street": "R FERNANDO BENTO",
      "house": "4",
      "postcode": "2815-885",
      "city": "SOBREDA",
      "lon": "-9.186991752941772",
      "lat": "38.64713128360326"
    },
    {
      "id": "pt.ine.add.PTCONT.5107912",
      "street": "R FERNANDO BENTO",
      "house": "4",
      "postcode": "2815-885",
      "city": "SOBREDA",
      "lon": "-9.186991752941772",
      "lat": "38.64713128360326"
    },
    {
      "id": "pt.ine.add.PTCONT.5107913",
      "street": "R FERNANDO BENTO",
      "house": "4",
      "postcode": "2815-885",
      "city": "SOBREDA",
      "lon": "-9.186991752941772",
      "lat": "38.64713128360326"
    },
    {
      "id": "pt.ine.add.PTCONT.5107914",
      "street": "R FERNANDO BENTO",
      "house": "4",
      "postcode": "2815-885",
      "city": "SOBREDA",
      "lon": "-9.186991752941772",
      "lat": "38.64713128360326"
    },
    {
      "id": "pt.ine.add.PTCONT.5107986",
      "street": "R BENTO DE JESUS CARAÇA",
      "house": "9",
      "postcode": "2815-764",
      "city": "SOBREDA",
      "lon": "-9.18905433358747",
      "lat": "38.64835578055857"
    },
    {
      "id": "pt.ine.add.PTCONT.5108674",
      "street": "R FERNANDO BENTO",
      "house": "4",
      "postcode": "2815-885",
      "city": "SOBREDA",
      "lon": "-9.186991752941772",
      "lat": "38.64713128360326"
    },
    {
      "id": "pt.ine.add.PTCONT.5115522",
      "street": "R BENTO DE JESUS CARAÇA",
      "house": "6",
      "postcode": "2815-764",
      "city": "SOBREDA",
      "lon": "-9.189258290706551",
      "lat": "38.64816477211858"
    },
    {
      "id": "pt.ine.add.PTCONT.5132608",
      "street": "R BENTO DE JESUS CARAÇA",
      "house": "21",
      "postcode": "2815-764",
      "city": "SOBREDA",
      "lon": "-9.189173134248989",
      "lat": "38.64784125452384"
    }
  ]
}