{
  "data": {
    "distrito": "Porto",
    "concelho": "Trofa",
    "freguesia": "União das freguesias de Coronado (São Romão e São Mamede)",
    "OBJECTID": 117,
    "BGRI2021": "13181100112",
    "DT21": "13",
    "DTMN21": "1318",
    "DTMNFR21": "131811",
    "DTMNFRSEC21": "131811001",
    "SECNUM21": "001",
    "SSNUM21": "12",
    "SECSSNUM21": "00112",
    "OBJECTID_1": 146349,
    "DT": "13",
    "CC": "18",
    "fr": "11",
    "SEC": "001",
    "SS": "12"
  },
  "addresses": [
    {
      "id": "pt.ine.add.PTCONT.3667291",
      "street": "R AGUA LEVADA",
      "house": "270",
      "postcode": "4745-401",
      "city": "SÃO MAMEDE CORONADO",
      "lon": "-8.577864157825445",
      "lat": "41.26920150470142"
    },
    {
      "id": "pt.ine.add.PTCONT.3698957",
      "street": "R AGUA LEVADA",
      "house": "366",
      "postcode": "4745-401",
      "city": "SÃO MAMEDE CORONADO",
      "lon": "-8.578936928068535",
      "lat": "41.269008267759375"
    },
    {
      "id": "pt.ine.add.PTCONT.3756578",
      "street": "R VITORINO NEMESIO",
      "house": "107",
      "postcode": "4745-415",
      "city": "SÃO MAMEDE CORONADO",
      "lon": "-8.57918882750772",
      "lat": "41.26919637976065"
    },
    {
      "id": "pt.ine.add.PTCONT.3803605",
      "street": "R D SERAFIM DE SOUSA FERREIRA E SILVA",
      "house": "",
      "postcode": "4745-388",
      "city": "SÃO MAMEDE CORONADO",
      "lon": "-8.578837728675344",
      "lat": "41.2702152115832"
    },
    {
      "id": "pt.ine.add.PTCONT.3911580",
      "street": "R D SERAFIM DE SOUSA FERREIRA E SILVA",
      "house": "",
      "postcode": "4745-388",
      "city": "SÃO MAMEDE CORONADO",
      "lon": "-8.579039812664698",
      "lat": "41.27009737473412"
    },
    {
      "id": "pt.ine.add.PTCONT.4009055",
      "street": "R D SERAFIM DE SOUSA FERREIRA E SILVA",
      "house": "",
      "postcode": "4745-388",
      "city": "SÃO MAMEDE CORONADO",
      "lon": "-8.578754495799105",
      "lat": "41.2702605546751"
    },
    {
      "id": "pt.ine.add.PTCONT.4062046",
      "street": "R D SERAFIM DE SOUSA FERREIRA E SILVA",
      "house": "",
      "postcode": "4745-388",
      "city": "SÃO MAMEDE CORONADO",
      "lon": "-8.578968514210771",
      "lat": "41.270142671754904"
    },
    {
      "id": "pt.ine.add.PTCONT.4160155",
      "street": "R D SERAFIM DE SOUSA FERREIRA E SILVA",
      "house": "",
      "postcode": "4745-388",
      "city": "SÃO MAMEDE CORONADO",
      "lon": "-8.578683258189058",
      "lat": "41.27031485545886"
    },
    {
      "id": "pt.ine.add.PTCONT.4225415",
      "street": "R D SERAFIM DE SOUSA FERREIRA E SILVA",
      "house": "",
      "postcode": "4745-388",
      "city": "SÃO MAMEDE CORONADO",
      "lon": "-8.578612081670514",
      "lat": "41.270378160137696"
    }
  ]
}