{
  "data": {
    "distrito": "Porto",
    "concelho": "Trofa",
    "freguesia": "União das freguesias de Coronado (São Romão e São Mamede)",
    "OBJECTID": 119,
    "BGRI2021": "13181100114",
    "DT21": "13",
    "DTMN21": "1318",
    "DTMNFR21": "131811",
    "DTMNFRSEC21": "131811001",
    "SECNUM21": "001",
    "SSNUM21": "14",
    "SECSSNUM21": "00114",
    "OBJECTID_1": 146433,
    "DT": "13",
    "CC": "18",
    "fr": "11",
    "SEC": "001",
    "SS": "14"
  },
  "addresses": [
    {
      "id": "pt.ine.add.PTCONT.3647583",
      "street": "R FONTES",
      "house": "136",
      "postcode": "4745-439",
      "city": "SÃO MAMEDE CORONADO",
      "lon": "-8.5690734177712",
      "lat": "41.27172028143749"
    },
    {
      "id": "pt.ine.add.PTCONT.3667265",
      "street": "R GONDAO",
      "house": "162",
      "postcode": "4745-441",
      "city": "SÃO MAMEDE CORONADO",
      "lon": "-8.568935653935366",
      "lat": "41.27254018293454"
    },
    {
      "id": "pt.ine.add.PTCONT.3692816",
      "street": "R GONDAO",
      "house": "146",
      "postcode": "4745-441",
      "city": "SÃO MAMEDE CORONADO",
      "lon": "-8.569173626621788",
      "lat": "41.27243123173151"
    },
    {
      "id": "pt.ine.add.PTCONT.3939292",
      "street": "R NOVA DE BRETO",
      "house": "103",
      "postcode": "4745-373",
      "city": "SÃO MAMEDE CORONADO",
      "lon": "-8.570926623714602",
      "lat": "41.272217482627546"
    },
    {
      "id": "pt.ine.add.PTCONT.4053347",
      "street": "R FONTES",
      "house": "64",
      "postcode": "4745-439",
      "city": "SÃO MAMEDE CORONADO",
      "lon": "-8.569038213435565",
      "lat": "41.27181045649568"
    },
    {
      "id": "pt.ine.add.PTCONT.4053456",
      "street": "R NOVA DE BRETO",
      "house": "41",
      "postcode": "4745-373",
      "city": "SÃO MAMEDE CORONADO",
      "lon": "-8.570865808266618",
      "lat": "41.27204663457175"
    },
    {
      "id": "pt.ine.add.PTCONT.4088123",
      "street": "R NOVA DAS FONTES",
      "house": "216",
      "postcode": "4745-440",
      "city": "SÃO MAMEDE CORONADO",
      "lon": "-8.568642042647536",
      "lat": "41.27146079305765"
    },
    {
      "id": "pt.ine.add.PTCONT.4245242",
      "street": "R FONTES",
      "house": "",
      "postcode": "4745-439",
      "city": "SÃO MAMEDE CORONADO",
      "lon": "-8.569276482958852",
      "lat": "41.27174652482198"
    },
    {
      "id": "pt.ine.add.PTCONT.4355340",
      "street": "R FONTES",
      "house": "136",
      "postcode": "4745-439",
      "city": "SÃO MAMEDE CORONADO",
      "lon": "-8.568871190980506",
      "lat": "41.27182009297545"
    },
    {
      "id": "pt.ine.add.PTCONT.4376565",
      "street": "R NOVA DE BRETO",
      "house": "83",
      "postcode": "4745-373",
      "city": "SÃO MAMEDE CORONADO",
      "lon": "-8.570827959913604",
      "lat": "41.27174063653562"
    }
  ]
}