{
  "data": {
    "distrito": "Faro",
    "concelho": "Faro",
    "freguesia": "União das freguesias de Faro (Sé e São Pedro)",
    "OBJECTID": 296,
    "BGRI2021": "08050804511",
    "DT21": "08",
    "DTMN21": "0805",
    "DTMNFR21": "080508",
    "DTMNFRSEC21": "080508045",
    "SECNUM21": "045",
    "SSNUM21": "11",
    "SECSSNUM21": "04511",
    "OBJECTID_1": 66313,
    "DT": "08",
    "CC": "05",
    "fr": "08",
    "SEC": "045",
    "SS": "11"
  },
  "addresses": [
    {
      "id": "pt.ine.add.PTCONT.1486222",
      "street": "SIT ARNEIRO",
      "house": "165 A",
      "postcode": "8005-412",
      "city": "FARO",
      "lon": "-7.963963576505134",
      "lat": "37.06012819912213"
    },
    {
      "id": "pt.ine.add.PTCONT.1492980",
      "street": "SIT ARNEIRO",
      "house": "",
      "postcode": "8005-412",
      "city": "FARO",
      "lon": "-7.963183930995039",
      "lat": "37.06185714319308"
    },
    {
      "id": "pt.ine.add.PTCONT.1495905",
      "street": "",
      "house": "",
      "postcode": "8005-412",
      "city": "FARO",
      "lon": "-7.962218016755201",
      "lat": "37.06139620898064"
    },
    {
      "id": "pt.ine.add.PTCONT.1499182",
      "street": "SIT ARNEIRO",
      "house": "",
      "postcode": "8005-412",
      "city": "FARO",
      "lon": "-7.963633512524183",
      "lat": "37.06192987208667"
    },
    {
      "id": "pt.ine.add.PTCONT.1503229",
      "street": "SIT ARNEIRO",
      "house": "",
      "postcode": "8005-412",
      "city": "FARO",
      "lon": "-7.962072964053758",
      "lat": "37.060900410343834"
    },
    {
      "id": "pt.ine.add.PTCONT.1503230",
      "street": "SIT ARNEIRO",
      "house": "",
      "postcode": "8005-412",
      "city": "FARO",
      "lon": "-7.963267074892473",
      "lat": "37.059865893051516"
    },
    {
      "id": "pt.ine.add.PTCONT.1507627",
      "street": "",
      "house": "",
      "postcode": "8005-412",
      "city": "FARO",
      "lon": "-7.96197225914924",
      "lat": "37.0606840078182"
    },
    {
      "id": "pt.ine.add.PTCONT.1512958",
      "street": "SIT ARNEIRO",
      "house": "425",
      "postcode": "8005-412",
      "city": "FARO",
      "lon": "-7.96378166132367",
      "lat": "37.061038022412504"
    },
    {
      "id": "pt.ine.add.PTCONT.1561489",
      "street": "",
      "house": "",
      "postcode": "8005-412",
      "city": "FARO",
      "lon": "-7.961603458913168",
      "lat": "37.05969229586919"
    },
    {
      "id": "pt.ine.add.PTCONT.1561490",
      "street": "",
      "house": "",
      "postcode": "8005-412",
      "city": "FARO",
      "lon": "-7.963826334727861",
      "lat": "37.06117324697167"
    },
    {
      "id": "pt.ine.add.PTCONT.1562232",
      "street": "SIT ARNEIRO",
      "house": "431",
      "postcode": "8005-412",
      "city": "FARO",
      "lon": "-7.963952693291834",
      "lat": "37.05996599061274"
    },
    {
      "id": "pt.ine.add.PTCONT.1564049",
      "street": "ARNEIRO",
      "house": "425A",
      "postcode": "8005-412",
      "city": "FARO",
      "lon": "-7.963702756993934",
      "lat": "37.06112801696103"
    },
    {
      "id": "pt.ine.add.PTCONT.1588196",
      "street": "ARNEIRO",
      "house": "425 C",
      "postcode": "8005-412",
      "city": "FARO",
      "lon": "-7.963690311376938",
      "lat": "37.06166864236624"
    },
    {
      "id": "pt.ine.add.PTCONT.1597718",
      "street": "SIT ARNEIRO",
      "house": "",
      "postcode": "8005-412",
      "city": "FARO",
      "lon": "-7.961941747556165",
      "lat": "37.059251259063416"
    },
    {
      "id": "pt.ine.add.PTCONT.1616638",
      "street": "SIT ARNEIRO",
      "house": "",
      "postcode": "8005-412",
      "city": "FARO",
      "lon": "-7.9632375369615795",
      "lat": "37.063028613307694"
    },
    {
      "id": "pt.ine.add.PTCONT.1648767",
      "street": "EN 125 CAFE TOMAS",
      "house": "",
      "postcode": "8005-412",
      "city": "FARO",
      "lon": "-7.961986133346645",
      "lat": "37.05951263405017"
    },
    {
      "id": "pt.ine.add.PTCONT.1668937",
      "street": "SIT ARNEIRO",
      "house": "CP 435",
      "postcode": "8005-412",
      "city": "FARO",
      "lon": "-7.963121575985502",
      "lat": "37.059568330820895"
    },
    {
      "id": "pt.ine.add.PTCONT.1669875",
      "street": "SIT ARNEIRO",
      "house": "CP 435",
      "postcode": "8005-412",
      "city": "FARO",
      "lon": "-7.963121575985502",
      "lat": "37.059568330820895"
    },
    {
      "id": "pt.ine.add.PTCONT.1683282",
      "street": "SIT ARNEIRO",
      "house": "",
      "postcode": "8005-412",
      "city": "FARO",
      "lon": "-7.96183804759386",
      "lat": "37.06036843889917"
    },
    {
      "id": "pt.ine.add.PTCONT.1685595",
      "street": "SIT ARNEIRO",
      "house": "",
      "postcode": "8005-412",
      "city": "FARO",
      "lon": "-7.962139575264907",
      "lat": "37.06127895660048"
    },
    {
      "id": "pt.ine.add.PTCONT.1692603",
      "street": "SIT ARNEIRO",
      "house": "",
      "postcode": "8005-412",
      "city": "FARO",
      "lon": "-7.963166026297021",
      "lat": "37.0598026732833"
    },
    {
      "id": "pt.ine.add.PTCONT.1703571",
      "street": "SIT ARNEIRO",
      "house": "",
      "postcode": "8005-412",
      "city": "FARO",
      "lon": "-7.963168949081503",
      "lat": "37.06353311520639"
    },
    {
      "id": "pt.ine.add.PTCONT.1703995",
      "street": "CM",
      "house": "131B",
      "postcode": "8005-412",
      "city": "FARO",
      "lon": "-7.961636904700442",
      "lat": "37.05981849432417"
    },
    {
      "id": "pt.ine.add.PTCONT.1712457",
      "street": "ARNEIRO",
      "house": "131",
      "postcode": "8005-412",
      "city": "FARO",
      "lon": "-7.961716154668384",
      "lat": "37.05957531935555"
    },
    {
      "id": "pt.ine.add.PTCONT.1732228",
      "street": "ARNEIRO",
      "house": "436A",
      "postcode": "8005-412",
      "city": "FARO",
      "lon": "-7.963139278437487",
      "lat": "37.06171290771919"
    },
    {
      "id": "pt.ine.add.PTCONT.1732313",
      "street": "ARNEIRO",
      "house": "436A",
      "postcode": "8005-412",
      "city": "FARO",
      "lon": "-7.963139278437487",
      "lat": "37.06171290771919"
    },
    {
      "id": "pt.ine.add.PTCONT.1750807",
      "street": "SIT ARNEIRO",
      "house": "",
      "postcode": "8005-412",
      "city": "FARO",
      "lon": "-7.9619184717009235",
      "lat": "37.05960264365146"
    },
    {
      "id": "pt.ine.add.PTCONT.1764163",
      "street": "ARNEIRO",
      "house": "129 A",
      "postcode": "8005-412",
      "city": "FARO",
      "lon": "-7.963060091091494",
      "lat": "37.06192905148684"
    },
    {
      "id": "pt.ine.add.PTCONT.1781347",
      "street": "SIT ARENEIRO",
      "house": "",
      "postcode": "8005-511",
      "city": "FARO",
      "lon": "-7.9624714474204215",
      "lat": "37.058684346605645"
    },
    {
      "id": "pt.ine.add.PTCONT.1785547",
      "street": "",
      "house": "",
      "postcode": "8005-412",
      "city": "FARO",
      "lon": "-7.961860210213127",
      "lat": "37.06051264242837"
    },
    {
      "id": "pt.ine.add.PTCONT.1841583",
      "street": "SIT ARNEIRO",
      "house": "CP 433",
      "postcode": "8005-412",
      "city": "FARO",
      "lon": "-7.963401893581572",
      "lat": "37.05991113960464"
    },
    {
      "id": "pt.ine.add.PTCONT.1842122",
      "street": "SIT ARNEIRO",
      "house": "N 135",
      "postcode": "8005-412",
      "city": "FARO",
      "lon": "-7.961782519842165",
      "lat": "37.060061994196886"
    },
    {
      "id": "pt.ine.add.PTCONT.1844473",
      "street": "SIT ARNEIRO",
      "house": "165",
      "postcode": "8005-412",
      "city": "FARO",
      "lon": "-7.963486644142585",
      "lat": "37.06224503732345"
    }
  ]
}