{
  "data": {
    "distrito": "Faro",
    "concelho": "Faro",
    "freguesia": "União das freguesias de Faro (Sé e São Pedro)",
    "OBJECTID": 814,
    "BGRI2021": "08050804521",
    "DT21": "08",
    "DTMN21": "0805",
    "DTMNFR21": "080508",
    "DTMNFRSEC21": "080508045",
    "SECNUM21": "045",
    "SSNUM21": "21",
    "SECSSNUM21": "04521",
    "OBJECTID_1": 66316,
    "DT": "08",
    "CC": "05",
    "fr": "08",
    "SEC": "045",
    "SS": "21"
  },
  "addresses": [
    {
      "id": "pt.ine.add.PTCONT.1471770",
      "street": "ESTR MATA LODOS",
      "house": "202",
      "postcode": "8005-501",
      "city": "FARO",
      "lon": "-7.958648195271821",
      "lat": "37.073672609964945"
    },
    {
      "id": "pt.ine.add.PTCONT.1476065",
      "street": "SIT MATA LODOS",
      "house": "",
      "postcode": "8005-501",
      "city": "FARO",
      "lon": "-7.9594018967877",
      "lat": "37.0735565770358"
    },
    {
      "id": "pt.ine.add.PTCONT.1479363",
      "street": "SIT MATA LOBOS",
      "house": "174 A",
      "postcode": "8005-501",
      "city": "FARO",
      "lon": "-7.955695359608432",
      "lat": "37.07648857847633"
    },
    {
      "id": "pt.ine.add.PTCONT.1479364",
      "street": "ESTR SITIO MATA LOBOS",
      "house": "CP 318",
      "postcode": "8005-501",
      "city": "FARO",
      "lon": "-7.953572407630698",
      "lat": "37.07543113257237"
    },
    {
      "id": "pt.ine.add.PTCONT.1482100",
      "street": "ESTR MATA LOBOS",
      "house": "",
      "postcode": "8005-501",
      "city": "FARO",
      "lon": "-7.956646896678421",
      "lat": "37.068659698148515"
    },
    {
      "id": "pt.ine.add.PTCONT.1482096",
      "street": "ESTR MATA LOBOS",
      "house": "CP 322",
      "postcode": "8005-501",
      "city": "FARO",
      "lon": "-7.952554446731812",
      "lat": "37.07315889132652"
    },
    {
      "id": "pt.ine.add.PTCONT.1487724",
      "street": "SIT MATA LOBOS",
      "house": "",
      "postcode": "8005-501",
      "city": "FARO",
      "lon": "-7.957095491713214",
      "lat": "37.06917397496521"
    },
    {
      "id": "pt.ine.add.PTCONT.1508115",
      "street": "URB MATA LOBOS",
      "house": "",
      "postcode": "8005-501",
      "city": "FARO",
      "lon": "-7.958596462002739",
      "lat": "37.0766190321305"
    },
    {
      "id": "pt.ine.add.PTCONT.1516441",
      "street": "SIT MATA LOBOS",
      "house": "264 A",
      "postcode": "8005-501",
      "city": "FARO",
      "lon": "-7.9595540735970856",
      "lat": "37.075863538705455"
    },
    {
      "id": "pt.ine.add.PTCONT.1516442",
      "street": "SIT MATA LOBOS",
      "house": "264 A",
      "postcode": "8005-501",
      "city": "FARO",
      "lon": "-7.9595540735970856",
      "lat": "37.075863538705455"
    },
    {
      "id": "pt.ine.add.PTCONT.1516447",
      "street": "SIT MATA LOBOS",
      "house": "264 A",
      "postcode": "8005-501",
      "city": "FARO",
      "lon": "-7.9595540735970856",
      "lat": "37.075863538705455"
    },
    {
      "id": "pt.ine.add.PTCONT.1529388",
      "street": "SIT MATA LOBOS",
      "house": "CXR 134",
      "postcode": "8005-501",
      "city": "FARO",
      "lon": "-7.95628845171147",
      "lat": "37.068064457637796"
    },
    {
      "id": "pt.ine.add.PTCONT.1534182",
      "street": "QTA JERONIMO",
      "house": "",
      "postcode": "8005-501",
      "city": "FARO",
      "lon": "-7.953878667042958",
      "lat": "37.074314269214945"
    },
    {
      "id": "pt.ine.add.PTCONT.1545610",
      "street": "URB MATA LOBOS",
      "house": "4",
      "postcode": "8005-501",
      "city": "FARO",
      "lon": "-7.9588451463955785",
      "lat": "37.07606073459348"
    },
    {
      "id": "pt.ine.add.PTCONT.1551572",
      "street": "MATA LOBOS URB MATA LOBOS",
      "house": "12",
      "postcode": "8005-501",
      "city": "FARO",
      "lon": "-7.959373033678411",
      "lat": "37.07634985128629"
    },
    {
      "id": "pt.ine.add.PTCONT.1554701",
      "street": "ESTR MATA LOBOS",
      "house": "264 A",
      "postcode": "8005-501",
      "city": "FARO",
      "lon": "-7.957644769551171",
      "lat": "37.07479746726105"
    },
    {
      "id": "pt.ine.add.PTCONT.1554702",
      "street": "ESTR MATA LOBOS",
      "house": "264 A",
      "postcode": "8005-501",
      "city": "FARO",
      "lon": "-7.957644769551171",
      "lat": "37.07479746726105"
    },
    {
      "id": "pt.ine.add.PTCONT.1554703",
      "street": "ESTR MATA LOBOS",
      "house": "164A",
      "postcode": "8005-501",
      "city": "FARO",
      "lon": "-7.957644769551171",
      "lat": "37.07479746726105"
    },
    {
      "id": "pt.ine.add.PTCONT.1577713",
      "street": "SIT MATA LOBOS",
      "house": "127 Z",
      "postcode": "8005-501",
      "city": "FARO",
      "lon": "-7.955578706767443",
      "lat": "37.068640082845526"
    },
    {
      "id": "pt.ine.add.PTCONT.1577714",
      "street": "ESTR MATA LOBOS URB MATA LOBOS",
      "house": "8",
      "postcode": "8005-501",
      "city": "FARO",
      "lon": "-7.958899931620746",
      "lat": "37.076691563808346"
    },
    {
      "id": "pt.ine.add.PTCONT.1595135",
      "street": "ESTR MATA LOBOS",
      "house": "CP 321",
      "postcode": "8005-501",
      "city": "FARO",
      "lon": "-7.953096708628245",
      "lat": "37.072105463485734"
    },
    {
      "id": "pt.ine.add.PTCONT.1595141",
      "street": "ESTR MATA LOBOS",
      "house": "",
      "postcode": "8005-501",
      "city": "FARO",
      "lon": "-7.95697211341075",
      "lat": "37.06903863121907"
    },
    {
      "id": "pt.ine.add.PTCONT.1604484",
      "street": "URB MATA LOBOS",
      "house": "2",
      "postcode": "8005-501",
      "city": "FARO",
      "lon": "-7.959238805557178",
      "lat": "37.07603428021815"
    },
    {
      "id": "pt.ine.add.PTCONT.1615363",
      "street": "ESTR BELA SALEMA",
      "house": "",
      "postcode": "8005-501",
      "city": "FARO",
      "lon": "-7.955021081097087",
      "lat": "37.076289332686684"
    },
    {
      "id": "pt.ine.add.PTCONT.1615364",
      "street": "MATA LOBOS URB MATA LOBOS",
      "house": "",
      "postcode": "8005-501",
      "city": "FARO",
      "lon": "-7.958889448659349",
      "lat": "37.076358152658656"
    },
    {
      "id": "pt.ine.add.PTCONT.1621180",
      "street": "SIT MATA LODOS",
      "house": "EXP 196 0",
      "postcode": "8005-501",
      "city": "FARO",
      "lon": "-7.958373368550814",
      "lat": "37.07092394119828"
    },
    {
      "id": "pt.ine.add.PTCONT.1621181",
      "street": "SIT MATA LODOS",
      "house": "EXP 196 0",
      "postcode": "8005-501",
      "city": "FARO",
      "lon": "-7.958373368550814",
      "lat": "37.07092394119828"
    },
    {
      "id": "pt.ine.add.PTCONT.1621182",
      "street": "SIT MATA LODOS",
      "house": "EXP 196 0",
      "postcode": "8005-501",
      "city": "FARO",
      "lon": "-7.958373368550814",
      "lat": "37.07092394119828"
    },
    {
      "id": "pt.ine.add.PTCONT.1621186",
      "street": "ESTR MATA LOBOS",
      "house": "264 A",
      "postcode": "8005-501",
      "city": "FARO",
      "lon": "-7.957835714138411",
      "lat": "37.0748968672568"
    },
    {
      "id": "pt.ine.add.PTCONT.1633980",
      "street": "SIT MATA LOBOS",
      "house": "",
      "postcode": "8005-501",
      "city": "FARO",
      "lon": "-7.957622328207244",
      "lat": "37.06989561206589"
    },
    {
      "id": "pt.ine.add.PTCONT.1644418",
      "street": "ESTR MATA LOBOS",
      "house": "CP 322",
      "postcode": "8005-501",
      "city": "FARO",
      "lon": "-7.952374309556716",
      "lat": "37.07324872398592"
    },
    {
      "id": "pt.ine.add.PTCONT.1644419",
      "street": "ESTR MATA LOBOS",
      "house": "CP 322",
      "postcode": "8005-501",
      "city": "FARO",
      "lon": "-7.952374309556716",
      "lat": "37.07324872398592"
    },
    {
      "id": "pt.ine.add.PTCONT.1644420",
      "street": "ESTR MATA LOBOS",
      "house": "CP 323 C",
      "postcode": "8005-501",
      "city": "FARO",
      "lon": "-7.952714419501975",
      "lat": "37.072086861297244"
    },
    {
      "id": "pt.ine.add.PTCONT.1644424",
      "street": "SIT MATA LOBOS",
      "house": "264B",
      "postcode": "8005-501",
      "city": "FARO",
      "lon": "-7.959533677298871",
      "lat": "37.07494441768378"
    },
    {
      "id": "pt.ine.add.PTCONT.1644425",
      "street": "SIT MATA LOBOS",
      "house": "264B",
      "postcode": "8005-501",
      "city": "FARO",
      "lon": "-7.959533677298871",
      "lat": "37.07494441768378"
    },
    {
      "id": "pt.ine.add.PTCONT.1654695",
      "street": "ESTR MATA LOBOS",
      "house": "154",
      "postcode": "8005-501",
      "city": "FARO",
      "lon": "-7.956803736357961",
      "lat": "37.068912231175396"
    },
    {
      "id": "pt.ine.add.PTCONT.1659150",
      "street": "MATA LOBOS URB MATA LOBOS",
      "house": "",
      "postcode": "8005-501",
      "city": "FARO",
      "lon": "-7.959484668720583",
      "lat": "37.0767104425959"
    },
    {
      "id": "pt.ine.add.PTCONT.1663109",
      "street": "ESTR MATA LOBOS",
      "house": "228 322",
      "postcode": "8005-501",
      "city": "FARO",
      "lon": "-7.952374608929486",
      "lat": "37.07312257463909"
    },
    {
      "id": "pt.ine.add.PTCONT.1664798",
      "street": "ESTR BELA SALEMA",
      "house": "",
      "postcode": "8005-501",
      "city": "FARO",
      "lon": "-7.952259032833718",
      "lat": "37.074437960573846"
    },
    {
      "id": "pt.ine.add.PTCONT.1673558",
      "street": "SIT MATA LOBOS",
      "house": "",
      "postcode": "8005-501",
      "city": "FARO",
      "lon": "-7.954869372805761",
      "lat": "37.06903549022137"
    },
    {
      "id": "pt.ine.add.PTCONT.1673564",
      "street": "SIT MATA LODOS",
      "house": "CP 198 1",
      "postcode": "8005-501",
      "city": "FARO",
      "lon": "-7.958662206307245",
      "lat": "37.072465196606466"
    },
    {
      "id": "pt.ine.add.PTCONT.1683303",
      "street": "SIT MATA LODOS",
      "house": "2002",
      "postcode": "8005-501",
      "city": "FARO",
      "lon": "-7.9555556783366335",
      "lat": "37.073695053161835"
    },
    {
      "id": "pt.ine.add.PTCONT.1683304",
      "street": "SIT MATA LODOS",
      "house": "",
      "postcode": "8005-501",
      "city": "FARO",
      "lon": "-7.9555556783366335",
      "lat": "37.073695053161835"
    },
    {
      "id": "pt.ine.add.PTCONT.1683920",
      "street": "URB MATA LOBOS",
      "house": "",
      "postcode": "8005-501",
      "city": "FARO",
      "lon": "-7.958575230362114",
      "lat": "37.07606934841946"
    },
    {
      "id": "pt.ine.add.PTCONT.1683921",
      "street": "URB MATA LOBOS",
      "house": "",
      "postcode": "8005-501",
      "city": "FARO",
      "lon": "-7.958575230362114",
      "lat": "37.07606934841946"
    },
    {
      "id": "pt.ine.add.PTCONT.1683922",
      "street": "URB MATA LOBOS",
      "house": "",
      "postcode": "8005-501",
      "city": "FARO",
      "lon": "-7.958575230362114",
      "lat": "37.07606934841946"
    },
    {
      "id": "pt.ine.add.PTCONT.1683927",
      "street": "URB MATA LOBOS",
      "house": "",
      "postcode": "8005-501",
      "city": "FARO",
      "lon": "-7.958575230362114",
      "lat": "37.07606934841946"
    },
    {
      "id": "pt.ine.add.PTCONT.1697354",
      "street": "SIT MATA LOBOS",
      "house": "148",
      "postcode": "8005-501",
      "city": "FARO",
      "lon": "-7.956568435459602",
      "lat": "37.06855145290782"
    },
    {
      "id": "pt.ine.add.PTCONT.1710292",
      "street": "ESTR MATA LOBOS",
      "house": "CP 323 C",
      "postcode": "8005-501",
      "city": "FARO",
      "lon": "-7.95296181061445",
      "lat": "37.07208723728156"
    },
    {
      "id": "pt.ine.add.PTCONT.1716296",
      "street": "URB MATA LOBOS",
      "house": "",
      "postcode": "8005-501",
      "city": "FARO",
      "lon": "-7.95852964871954",
      "lat": "37.07633059153511"
    },
    {
      "id": "pt.ine.add.PTCONT.1718931",
      "street": "SIT MATA LOBOS",
      "house": "178",
      "postcode": "8005-501",
      "city": "FARO",
      "lon": "-7.9579815380314605",
      "lat": "37.07016646412117"
    },
    {
      "id": "pt.ine.add.PTCONT.1718932",
      "street": "SIT MATA LOBOS",
      "house": "",
      "postcode": "8005-501",
      "city": "FARO",
      "lon": "-7.959420523783163",
      "lat": "37.0752506157826"
    },
    {
      "id": "pt.ine.add.PTCONT.1742434",
      "street": "MATA LOBOS",
      "house": "",
      "postcode": "8005-501",
      "city": "FARO",
      "lon": "-7.9591368743163216",
      "lat": "37.07634950513337"
    },
    {
      "id": "pt.ine.add.PTCONT.1749612",
      "street": "SIT MATA LOBOS",
      "house": "",
      "postcode": "8005-501",
      "city": "FARO",
      "lon": "-7.959366927561949",
      "lat": "37.07409716782943"
    },
    {
      "id": "pt.ine.add.PTCONT.1757444",
      "street": "ESTR MATA LOBOS",
      "house": "",
      "postcode": "8005-501",
      "city": "FARO",
      "lon": "-7.95549692733049",
      "lat": "37.069955523579324"
    },
    {
      "id": "pt.ine.add.PTCONT.1763201",
      "street": "SIT MATA LOBOS",
      "house": "",
      "postcode": "8005-501",
      "city": "FARO",
      "lon": "-7.956197826358407",
      "lat": "37.06835266517818"
    },
    {
      "id": "pt.ine.add.PTCONT.1763202",
      "street": "ESTR MATA LOBOS",
      "house": "152",
      "postcode": "8005-501",
      "city": "FARO",
      "lon": "-7.956691666170352",
      "lat": "37.068749871816955"
    },
    {
      "id": "pt.ine.add.PTCONT.1766835",
      "street": "ESTR BELA SALEMA",
      "house": "",
      "postcode": "8005-501",
      "city": "FARO",
      "lon": "-7.95641452004827",
      "lat": "37.0767329407767"
    },
    {
      "id": "pt.ine.add.PTCONT.1775654",
      "street": "ESTR MATA LOBOS",
      "house": "",
      "postcode": "8005-501",
      "city": "FARO",
      "lon": "-7.955284076724502",
      "lat": "37.0696127978567"
    },
    {
      "id": "pt.ine.add.PTCONT.1775660",
      "street": "URB MATA LOBOS",
      "house": "1",
      "postcode": "8005-501",
      "city": "FARO",
      "lon": "-7.959531192130635",
      "lat": "37.07603470846475"
    },
    {
      "id": "pt.ine.add.PTCONT.1778780",
      "street": "ESTR MATA LOBOS",
      "house": "",
      "postcode": "8005-501",
      "city": "FARO",
      "lon": "-7.956221298829436",
      "lat": "37.067929196887945"
    },
    {
      "id": "pt.ine.add.PTCONT.1781822",
      "street": "R S BARBARA DE NEXE",
      "house": "178",
      "postcode": "8005-511",
      "city": "FARO",
      "lon": "-7.958205750612072",
      "lat": "37.07046414821524"
    },
    {
      "id": "pt.ine.add.PTCONT.1787724",
      "street": "SIT MATA LOBOS SITIO MATA LOBOS",
      "house": "",
      "postcode": "8005-501",
      "city": "FARO",
      "lon": "-7.954745724392177",
      "lat": "37.069017282945715"
    },
    {
      "id": "pt.ine.add.PTCONT.1797555",
      "street": "ESTR BELA SALEMA",
      "house": "166",
      "postcode": "8005-501",
      "city": "FARO",
      "lon": "-7.9566958513974475",
      "lat": "37.07665226328697"
    },
    {
      "id": "pt.ine.add.PTCONT.1813821",
      "street": "SIT MATA LODOS",
      "house": "",
      "postcode": "8005-501",
      "city": "FARO",
      "lon": "-7.958963351809089",
      "lat": "37.073546923283786"
    },
    {
      "id": "pt.ine.add.PTCONT.1813825",
      "street": "ESTR MATA LOBOS",
      "house": "CP 264 A",
      "postcode": "8005-501",
      "city": "FARO",
      "lon": "-7.957543747428238",
      "lat": "37.07471622148802"
    },
    {
      "id": "pt.ine.add.PTCONT.1819716",
      "street": "SIT MATA LODOS",
      "house": "",
      "postcode": "8005-501",
      "city": "FARO",
      "lon": "-7.958749609164493",
      "lat": "37.07358265208094"
    },
    {
      "id": "pt.ine.add.PTCONT.1822391",
      "street": "SIT MATA LOBOS",
      "house": "172 A",
      "postcode": "8005-501",
      "city": "FARO",
      "lon": "-7.955763022690301",
      "lat": "37.076407583404276"
    },
    {
      "id": "pt.ine.add.PTCONT.1831813",
      "street": "SIT MATA LOBOS",
      "house": "156B",
      "postcode": "8005-501",
      "city": "FARO",
      "lon": "-7.956779953904567",
      "lat": "37.069470859651595"
    },
    {
      "id": "pt.ine.add.PTCONT.1833875",
      "street": "SIT MATA LOBOS",
      "house": "146",
      "postcode": "8005-501",
      "city": "FARO",
      "lon": "-7.956478813526766",
      "lat": "37.06840714816312"
    },
    {
      "id": "pt.ine.add.PTCONT.1844118",
      "street": "MATA LOBOS",
      "house": "168",
      "postcode": "8005-501",
      "city": "FARO",
      "lon": "-7.956145208647003",
      "lat": "37.07648023979963"
    },
    {
      "id": "pt.ine.add.PTCONT.1844998",
      "street": "ESTR MATA LOBOS",
      "house": "136",
      "postcode": "8005-501",
      "city": "FARO",
      "lon": "-7.956333220431531",
      "lat": "37.068154631448515"
    }
  ]
}