{
  "data": {
    "distrito": "Porto",
    "concelho": "Santo Tirso",
    "freguesia": "Uni√£o das freguesias de Lamelas e Guimarei",
    "OBJECTID": 840,
    "BGRI2021": "13143600123",
    "DT21": "13",
    "DTMN21": "1314",
    "DTMNFR21": "131436",
    "DTMNFRSEC21": "131436001",
    "SECNUM21": "001",
    "SSNUM21": "23",
    "SECSSNUM21": "00123",
    "OBJECTID_1": 140480,
    "DT": "13",
    "CC": "14",
    "fr": "36",
    "SEC": "001",
    "SS": "23"
  },
  "addresses": [
    {
      "id": "pt.ine.add.PTCONT.3549314",
      "street": "R FONTE DO LOBO",
      "house": "240",
      "postcode": "4825-106",
      "city": "LAMELAS",
      "lon": "-8.479491577497427",
      "lat": "41.2853328286512"
    },
    {
      "id": "pt.ine.add.PTCONT.3580303",
      "street": "R FONTE DO LOBO",
      "house": "258",
      "postcode": "4825-106",
      "city": "LAMELAS",
      "lon": "-8.479514737293602",
      "lat": "41.28519769646257"
    },
    {
      "id": "pt.ine.add.PTCONT.3619966",
      "street": "R FONTE DO LOBO",
      "house": "110",
      "postcode": "4825-106",
      "city": "LAMELAS",
      "lon": "-8.479019564216648",
      "lat": "41.28636972697852"
    },
    {
      "id": "pt.ine.add.PTCONT.3846464",
      "street": "R FONTE DO LOBO",
      "house": "72",
      "postcode": "4825-106",
      "city": "LAMELAS",
      "lon": "-8.47900924374449",
      "lat": "41.28667589959582"
    },
    {
      "id": "pt.ine.add.PTCONT.4033499",
      "street": "R FONTE DO LOBO",
      "house": "130",
      "postcode": "4825-106",
      "city": "LAMELAS",
      "lon": "-8.479031025903398",
      "lat": "41.28627965088621"
    },
    {
      "id": "pt.ine.add.PTCONT.4039965",
      "street": "R FONTE DO LOBO",
      "house": "102",
      "postcode": "4825-106",
      "city": "LAMELAS",
      "lon": "-8.478972576032604",
      "lat": "41.28651393479733"
    },
    {
      "id": "pt.ine.add.PTCONT.4207831",
      "street": "R FONTE DO LOBO",
      "house": "44",
      "postcode": "4825-106",
      "city": "LAMELAS",
      "lon": "-8.478903757198342",
      "lat": "41.28704538723932"
    },
    {
      "id": "pt.ine.add.PTCONT.4223550",
      "street": "R FELGUEIRA",
      "house": "221",
      "postcode": "4825-240",
      "city": "LAMELAS",
      "lon": "-8.480007636197012",
      "lat": "41.28585351640345"
    }
  ]
}