{
  "data": {
    "distrito": "Santarém",
    "concelho": "Abrantes",
    "freguesia": "União das freguesias de Aldeia do Mato e Souto",
    "OBJECTID": 132,
    "BGRI2021": "14012100208",
    "DT21": "14",
    "DTMN21": "1401",
    "DTMNFR21": "140121",
    "DTMNFRSEC21": "140121002",
    "SECNUM21": "002",
    "SSNUM21": "08",
    "SECSSNUM21": "00208",
    "OBJECTID_1": 146749,
    "DT": "14",
    "CC": "01",
    "fr": "21",
    "SEC": "002",
    "SS": "08"
  },
  "addresses": [
    {
      "id": "pt.ine.add.PTCONT.4393329",
      "street": "R CABEÇO",
      "house": "23",
      "postcode": "2230-802",
      "city": "SOUTO ABT",
      "lon": "-8.25602104627605",
      "lat": "39.56691197312541"
    },
    {
      "id": "pt.ine.add.PTCONT.4401589",
      "street": "R ZEZERE",
      "house": "16",
      "postcode": "2230-802",
      "city": "SOUTO ABT",
      "lon": "-8.256455517740248",
      "lat": "39.5691091884846"
    },
    {
      "id": "pt.ine.add.PTCONT.4403555",
      "street": "LG SANTO ANTÓNIO",
      "house": "31",
      "postcode": "2230-802",
      "city": "SOUTO ABT",
      "lon": "-8.257510402720767",
      "lat": "39.56679329913228"
    },
    {
      "id": "pt.ine.add.PTCONT.4411959",
      "street": "LG SANTO ANTÓNIO",
      "house": "",
      "postcode": "2230-802",
      "city": "SOUTO ABT",
      "lon": "-8.257358926067692",
      "lat": "39.566685378744"
    },
    {
      "id": "pt.ine.add.PTCONT.4415353",
      "street": "R ZEZERE",
      "house": "",
      "postcode": "2230-802",
      "city": "SOUTO ABT",
      "lon": "-8.256432003196773",
      "lat": "39.5689741104511"
    },
    {
      "id": "pt.ine.add.PTCONT.4432469",
      "street": "R CABEÇO",
      "house": "59",
      "postcode": "2230-802",
      "city": "SOUTO ABT",
      "lon": "-8.255916978503045",
      "lat": "39.567290371637185"
    },
    {
      "id": "pt.ine.add.PTCONT.4432478",
      "street": "R CASAL FUNDEIRO",
      "house": "86",
      "postcode": "2230-802",
      "city": "SOUTO ABT",
      "lon": "-8.256976084551887",
      "lat": "39.567352295721456"
    },
    {
      "id": "pt.ine.add.PTCONT.4436950",
      "street": "TV ARROTEIA",
      "house": "",
      "postcode": "2230-802",
      "city": "SOUTO ABT",
      "lon": "-8.257452892322565",
      "lat": "39.567171649177645"
    },
    {
      "id": "pt.ine.add.PTCONT.4446896",
      "street": "TV ARROTEIA",
      "house": "7",
      "postcode": "2230-802",
      "city": "SOUTO ABT",
      "lon": "-8.25754584562893",
      "lat": "39.56709048786808"
    },
    {
      "id": "pt.ine.add.PTCONT.4456351",
      "street": "R ZEZERE",
      "house": "15",
      "postcode": "2230-802",
      "city": "SOUTO ABT",
      "lon": "-8.255512824652941",
      "lat": "39.56908316459866"
    },
    {
      "id": "pt.ine.add.PTCONT.4456915",
      "street": "LG S SILVESTRE",
      "house": "32",
      "postcode": "2230-802",
      "city": "SOUTO ABT",
      "lon": "-8.25600152415309",
      "lat": "39.569037614520646"
    },
    {
      "id": "pt.ine.add.PTCONT.4461367",
      "street": "R CABEÇO",
      "house": "",
      "postcode": "2230-802",
      "city": "SOUTO ABT",
      "lon": "-8.255673277154003",
      "lat": "39.56767792424356"
    },
    {
      "id": "pt.ine.add.PTCONT.4465401",
      "street": "LG SANTO ANTÓNIO",
      "house": "",
      "postcode": "2230-802",
      "city": "SOUTO ABT",
      "lon": "-8.257464095202097",
      "lat": "39.56692845172979"
    },
    {
      "id": "pt.ine.add.PTCONT.4467361",
      "street": "R CASAL FUNDEIRO",
      "house": "11",
      "postcode": "2230-802",
      "city": "SOUTO ABT",
      "lon": "-8.257196342484892",
      "lat": "39.56687469670741"
    },
    {
      "id": "pt.ine.add.PTCONT.4469966",
      "street": "R ZEZERE",
      "house": "17",
      "postcode": "2230-802",
      "city": "SOUTO ABT",
      "lon": "-8.257317423269717",
      "lat": "39.56951357944212"
    },
    {
      "id": "pt.ine.add.PTCONT.4475674",
      "street": "LG SANTO ANTÓNIO",
      "house": "",
      "postcode": "2230-802",
      "city": "SOUTO ABT",
      "lon": "-8.257417626677507",
      "lat": "39.56697353578824"
    },
    {
      "id": "pt.ine.add.PTCONT.4490082",
      "street": "R CASAL FUNDEIRO",
      "house": "",
      "postcode": "2230-802",
      "city": "SOUTO ABT",
      "lon": "-8.25698841103516",
      "lat": "39.56773957791501"
    },
    {
      "id": "pt.ine.add.PTCONT.4521685",
      "street": "TV ARROTEIA",
      "house": "35",
      "postcode": "2230-802",
      "city": "SOUTO ABT",
      "lon": "-8.257767098746767",
      "lat": "39.56717131257507"
    },
    {
      "id": "pt.ine.add.PTCONT.4538098",
      "street": "R CABEÇO",
      "house": "",
      "postcode": "2230-802",
      "city": "SOUTO ABT",
      "lon": "-8.256207019028322",
      "lat": "39.56678568012052"
    },
    {
      "id": "pt.ine.add.PTCONT.4545364",
      "street": "LG S SILVESTRE",
      "house": "",
      "postcode": "2230-802",
      "city": "SOUTO ABT",
      "lon": "-8.256979658468689",
      "lat": "39.56936082323743"
    },
    {
      "id": "pt.ine.add.PTCONT.4545453",
      "street": "R ZEZERE",
      "house": "",
      "postcode": "2230-802",
      "city": "SOUTO ABT",
      "lon": "-8.255640869910536",
      "lat": "39.56910104339666"
    },
    {
      "id": "pt.ine.add.PTCONT.4560811",
      "street": "R ROSSIO",
      "house": "",
      "postcode": "2230-802",
      "city": "SOUTO ABT",
      "lon": "-8.25537292039862",
      "lat": "39.568939202011855"
    },
    {
      "id": "pt.ine.add.PTCONT.4567134",
      "street": "R CASAL FUNDEIRO FAMILIA ESPIZITO SANTO",
      "house": "",
      "postcode": "2230-802",
      "city": "SOUTO ABT",
      "lon": "-8.257010066726048",
      "lat": "39.5668298611016"
    },
    {
      "id": "pt.ine.add.PTCONT.4577320",
      "street": "R CABEÇO",
      "house": "201",
      "postcode": "2230-802",
      "city": "SOUTO ABT",
      "lon": "-8.25501117779674",
      "lat": "39.56838115628893"
    },
    {
      "id": "pt.ine.add.PTCONT.4585718",
      "street": "TV FONTE",
      "house": "28",
      "postcode": "2230-802",
      "city": "SOUTO ABT",
      "lon": "-8.2567928320869",
      "lat": "39.569009754459415"
    },
    {
      "id": "pt.ine.add.PTCONT.4587939",
      "street": "R CASAL FUNDEIRO",
      "house": "64",
      "postcode": "2230-802",
      "city": "SOUTO ABT",
      "lon": "-8.257231703801516",
      "lat": "39.5671268512787"
    },
    {
      "id": "pt.ine.add.PTCONT.4593698",
      "street": "R ZEZERE",
      "house": "",
      "postcode": "2230-802",
      "city": "SOUTO ABT",
      "lon": "-8.257166101499838",
      "lat": "39.56949572734262"
    },
    {
      "id": "pt.ine.add.PTCONT.4599960",
      "street": "LG S SILVESTRE",
      "house": "50",
      "postcode": "2230-802",
      "city": "SOUTO ABT",
      "lon": "-8.25685150031795",
      "lat": "39.56927989797775"
    },
    {
      "id": "pt.ine.add.PTCONT.4602578",
      "street": "R CABEÇO OS DUQUES",
      "house": "77",
      "postcode": "2230-802",
      "city": "SOUTO ABT",
      "lon": "-8.255789285694753",
      "lat": "39.56747064387195"
    },
    {
      "id": "pt.ine.add.PTCONT.4606564",
      "street": "LG SANTO ANTÓNIO",
      "house": "14",
      "postcode": "2230-802",
      "city": "SOUTO ABT",
      "lon": "-8.257684719140885",
      "lat": "39.5666580093687"
    },
    {
      "id": "pt.ine.add.PTCONT.4608696",
      "street": "TV ARROTEIA",
      "house": "",
      "postcode": "2230-802",
      "city": "SOUTO ABT",
      "lon": "-8.257522796454678",
      "lat": "39.56721660870782"
    },
    {
      "id": "pt.ine.add.PTCONT.4614825",
      "street": "R CABECO",
      "house": "87",
      "postcode": "2230-802",
      "city": "SOUTO ABT",
      "lon": "-8.255754516527293",
      "lat": "39.56755174238446"
    },
    {
      "id": "pt.ine.add.PTCONT.4629469",
      "street": "R CASAL FUNDEIRO",
      "house": "",
      "postcode": "2230-802",
      "city": "SOUTO ABT",
      "lon": "-8.257137979846828",
      "lat": "39.566775683445265"
    },
    {
      "id": "pt.ine.add.PTCONT.4647255",
      "street": "R ROSSIO",
      "house": "",
      "postcode": "2230-802",
      "city": "SOUTO ABT",
      "lon": "-8.25524451204825",
      "lat": "39.56871416537407"
    },
    {
      "id": "pt.ine.add.PTCONT.4657198",
      "street": "R ZEZERE",
      "house": "32",
      "postcode": "2230-802",
      "city": "SOUTO ABT",
      "lon": "-8.256583595237062",
      "lat": "39.56914507994099"
    }
  ]
}