{
  "data": {
    "distrito": "Lisboa",
    "concelho": "Odivelas",
    "freguesia": "União das freguesias de Pontinha e Famões",
    "OBJECTID": 265,
    "BGRI2021": "11160801205",
    "DT21": "11",
    "DTMN21": "1116",
    "DTMNFR21": "111608",
    "DTMNFRSEC21": "111608012",
    "SECNUM21": "012",
    "SSNUM21": "05",
    "SECSSNUM21": "01205",
    "OBJECTID_1": 120099,
    "DT": "11",
    "CC": "16",
    "fr": "08",
    "SEC": "012",
    "SS": "05"
  },
  "addresses": [
    {
      "id": "pt.ine.add.PTCONT.2292911",
      "street": "R PADRE AMÉRICO MONTEIRO AGUIAR",
      "house": "31",
      "postcode": "1675-057",
      "city": "PONTINHA",
      "lon": "-9.191679337750182",
      "lat": "38.77737863345614"
    },
    {
      "id": "pt.ine.add.PTCONT.2292912",
      "street": "R PADRE AMÉRICO MONTEIRO AGUIAR",
      "house": "31",
      "postcode": "1675-057",
      "city": "PONTINHA",
      "lon": "-9.191679337750182",
      "lat": "38.77737863345614"
    },
    {
      "id": "pt.ine.add.PTCONT.2292913",
      "street": "R PADRE AMÉRICO MONTEIRO AGUIAR",
      "house": "31",
      "postcode": "1675-057",
      "city": "PONTINHA",
      "lon": "-9.191679337750182",
      "lat": "38.77737863345614"
    },
    {
      "id": "pt.ine.add.PTCONT.2292914",
      "street": "R PADRE AMÉRICO MONTEIRO AGUIAR",
      "house": "31",
      "postcode": "1675-057",
      "city": "PONTINHA",
      "lon": "-9.191679337750182",
      "lat": "38.77737863345614"
    },
    {
      "id": "pt.ine.add.PTCONT.2528872",
      "street": "R D CARLOS I",
      "house": "",
      "postcode": "1675-212",
      "city": "PONTINHA",
      "lon": "-9.191434195645773",
      "lat": "38.777921319575796"
    },
    {
      "id": "pt.ine.add.PTCONT.2583579",
      "street": "R D CARLOS I",
      "house": "",
      "postcode": "1675-212",
      "city": "PONTINHA",
      "lon": "-9.19162753360992",
      "lat": "38.77776643648051"
    },
    {
      "id": "pt.ine.add.PTCONT.2583580",
      "street": "R D CARLOS I",
      "house": "",
      "postcode": "1675-212",
      "city": "PONTINHA",
      "lon": "-9.19162753360992",
      "lat": "38.77776643648051"
    },
    {
      "id": "pt.ine.add.PTCONT.2583581",
      "street": "R D CARLOS I",
      "house": "",
      "postcode": "1675-212",
      "city": "PONTINHA",
      "lon": "-9.19162753360992",
      "lat": "38.77776643648051"
    },
    {
      "id": "pt.ine.add.PTCONT.2583582",
      "street": "R D CARLOS I",
      "house": "",
      "postcode": "1675-212",
      "city": "PONTINHA",
      "lon": "-9.19162753360992",
      "lat": "38.77776643648051"
    },
    {
      "id": "pt.ine.add.PTCONT.2725375",
      "street": "R D CARLOS I",
      "house": "",
      "postcode": "1675-212",
      "city": "PONTINHA",
      "lon": "-9.191366757209446",
      "lat": "38.77803002345813"
    },
    {
      "id": "pt.ine.add.PTCONT.2725376",
      "street": "R D CARLOS I",
      "house": "",
      "postcode": "1675-212",
      "city": "PONTINHA",
      "lon": "-9.191366757209446",
      "lat": "38.77803002345813"
    },
    {
      "id": "pt.ine.add.PTCONT.2856005",
      "street": "R PADRE AMÉRICO MONTEIRO AGUIAR",
      "house": "27",
      "postcode": "1675-057",
      "city": "PONTINHA",
      "lon": "-9.191214517449426",
      "lat": "38.77785124682173"
    },
    {
      "id": "pt.ine.add.PTCONT.2877882",
      "street": "R PADRE AMÉRICO MONTEIRO AGUIAR",
      "house": "29",
      "postcode": "1675-057",
      "city": "PONTINHA",
      "lon": "-9.1914075894734",
      "lat": "38.77767835097168"
    },
    {
      "id": "pt.ine.add.PTCONT.2905697",
      "street": "R D CARLOS I",
      "house": "",
      "postcode": "1675-212",
      "city": "PONTINHA",
      "lon": "-9.191753166849606",
      "lat": "38.77770224406153"
    },
    {
      "id": "pt.ine.add.PTCONT.2905703",
      "street": "R D CARLOS I",
      "house": "",
      "postcode": "1675-212",
      "city": "PONTINHA",
      "lon": "-9.191753166849606",
      "lat": "38.77770224406153"
    },
    {
      "id": "pt.ine.add.PTCONT.2905704",
      "street": "R D CARLOS I",
      "house": "",
      "postcode": "1675-212",
      "city": "PONTINHA",
      "lon": "-9.191753166849606",
      "lat": "38.77770224406153"
    },
    {
      "id": "pt.ine.add.PTCONT.2906535",
      "street": "R D CARLOS I",
      "house": "",
      "postcode": "1675-212",
      "city": "PONTINHA",
      "lon": "-9.191753166849606",
      "lat": "38.77770224406153"
    },
    {
      "id": "pt.ine.add.PTCONT.2920336",
      "street": "R PADRE AMÉRICO MONTEIRO AGUIAR",
      "house": "",
      "postcode": "1675-057",
      "city": "PONTINHA",
      "lon": "-9.191010337719666",
      "lat": "38.77805126619568"
    },
    {
      "id": "pt.ine.add.PTCONT.2923737",
      "street": "R PADRE AMÉRICO MONTEIRO AGUIAR",
      "house": "",
      "postcode": "1675-057",
      "city": "PONTINHA",
      "lon": "-9.191010337719666",
      "lat": "38.77805126619568"
    },
    {
      "id": "pt.ine.add.PTCONT.2938276",
      "street": "R D JOÃO V",
      "house": "45",
      "postcode": "1675-226",
      "city": "PONTINHA",
      "lon": "-9.191138367584143",
      "lat": "38.77814919244381"
    },
    {
      "id": "pt.ine.add.PTCONT.3042274",
      "street": "R PADRE AMÉRICO MONTEIRO AGUIAR CASAL DAS CARVALHEIRAS",
      "house": "32",
      "postcode": "1675-057",
      "city": "PONTINHA",
      "lon": "-9.191918563977698",
      "lat": "38.777214326416804"
    },
    {
      "id": "pt.ine.add.PTCONT.3043277",
      "street": "R PADRE AMÉRICO MONTEIRO AGUIAR CASAL DAS CARVALHEIRAS",
      "house": "32",
      "postcode": "1675-057",
      "city": "PONTINHA",
      "lon": "-9.191918563977698",
      "lat": "38.777214326416804"
    },
    {
      "id": "pt.ine.add.PTCONT.3098868",
      "street": "R D CARLOS I",
      "house": "",
      "postcode": "1675-212",
      "city": "PONTINHA",
      "lon": "-9.191716252212398",
      "lat": "38.77754043876805"
    },
    {
      "id": "pt.ine.add.PTCONT.3439006",
      "street": "R D CARLOS I",
      "house": "",
      "postcode": "1675-212",
      "city": "PONTINHA",
      "lon": "-9.191900213540002",
      "lat": "38.7775297643516"
    },
    {
      "id": "pt.ine.add.PTCONT.3443385",
      "street": "R PADRE AMÉRICO MONTEIRO AGUIAR",
      "house": "26",
      "postcode": "1675-057",
      "city": "PONTINHA",
      "lon": "-9.191089149615179",
      "lat": "38.77793345178393"
    }
  ]
}