{
  "data": {
    "distrito": "Faro",
    "concelho": "Lagoa",
    "freguesia": "Uni√£o das freguesias de Lagoa e Carvoeiro",
    "OBJECTID": 6,
    "BGRI2021": "08060800916",
    "DT21": "08",
    "DTMN21": "0806",
    "DTMNFR21": "080608",
    "DTMNFRSEC21": "080608009",
    "SECNUM21": "009",
    "SSNUM21": "16",
    "SECSSNUM21": "00916",
    "OBJECTID_1": 67045,
    "DT": "08",
    "CC": "06",
    "fr": "08",
    "SEC": "009",
    "SS": "16"
  },
  "addresses": [
    {
      "id": "pt.ine.add.PTCONT.1481994",
      "street": "",
      "house": "",
      "postcode": "8400-550",
      "city": "CARVOEIRO LGA",
      "lon": "-8.44783967386454",
      "lat": "37.105632468522174"
    },
    {
      "id": "pt.ine.add.PTCONT.1494850",
      "street": "SIT CHAMUSCAS",
      "house": "",
      "postcode": "8400-527",
      "city": "CARVOEIRO LGA",
      "lon": "-8.44956874600718",
      "lat": "37.10480789950214"
    },
    {
      "id": "pt.ine.add.PTCONT.1529235",
      "street": "ESTR BENAGIL CASA MALO",
      "house": "",
      "postcode": "8400-537",
      "city": "CARVOEIRO LGA",
      "lon": "-8.44811097920856",
      "lat": "37.111380524527746"
    },
    {
      "id": "pt.ine.add.PTCONT.1529236",
      "street": "ESTR BENAGIL",
      "house": "",
      "postcode": "8400-422",
      "city": "LAGOA",
      "lon": "-8.446929078529577",
      "lat": "37.108518281626814"
    },
    {
      "id": "pt.ine.add.PTCONT.1536737",
      "street": "",
      "house": "",
      "postcode": "8400-527",
      "city": "CARVOEIRO LGA",
      "lon": "-8.449793482928323",
      "lat": "37.10744741250542"
    },
    {
      "id": "pt.ine.add.PTCONT.1573332",
      "street": "ESTR BENAGIL",
      "house": "",
      "postcode": "8400-537",
      "city": "CARVOEIRO LGA",
      "lon": "-8.447461344252833",
      "lat": "37.109363870058395"
    },
    {
      "id": "pt.ine.add.PTCONT.1573333",
      "street": "",
      "house": "",
      "postcode": "8400-422",
      "city": "LAGOA",
      "lon": "-8.447371787461844",
      "lat": "37.109472234898455"
    },
    {
      "id": "pt.ine.add.PTCONT.1577611",
      "street": "ESTR BENAGIL",
      "house": "",
      "postcode": "8400-537",
      "city": "CARVOEIRO LGA",
      "lon": "-8.44824495531508",
      "lat": "37.1084156747889"
    },
    {
      "id": "pt.ine.add.PTCONT.1586910",
      "street": "ESTR BENAGIL CASA MALO",
      "house": "",
      "postcode": "8400-537",
      "city": "CARVOEIRO LGA",
      "lon": "-8.44800964790027",
      "lat": "37.1113627724592"
    },
    {
      "id": "pt.ine.add.PTCONT.1601017",
      "street": "",
      "house": "",
      "postcode": "8400-422",
      "city": "LAGOA",
      "lon": "-8.447237154073877",
      "lat": "37.109562697859566"
    },
    {
      "id": "pt.ine.add.PTCONT.1636531",
      "street": "CASA DOS POTES",
      "house": "",
      "postcode": "8400-537",
      "city": "CARVOEIRO LGA",
      "lon": "-8.447970076236913",
      "lat": "37.10995722112023"
    },
    {
      "id": "pt.ine.add.PTCONT.1647406",
      "street": "R ANTONIO ALEIXO CXP",
      "house": "CXP 403T",
      "postcode": "8400-554",
      "city": "CARVOEIRO LGA",
      "lon": "-8.450914846958241",
      "lat": "37.106570381826636"
    },
    {
      "id": "pt.ine.add.PTCONT.1657887",
      "street": "ESTR BENAGIL",
      "house": "",
      "postcode": "8400-527",
      "city": "CARVOEIRO LGA",
      "lon": "-8.446172475814532",
      "lat": "37.11056569249453"
    },
    {
      "id": "pt.ine.add.PTCONT.1665161",
      "street": "",
      "house": "",
      "postcode": "8400-527",
      "city": "CARVOEIRO LGA",
      "lon": "-8.45019022511757",
      "lat": "37.10546401494118"
    },
    {
      "id": "pt.ine.add.PTCONT.1679114",
      "street": "ESTR BENAGIL",
      "house": "",
      "postcode": "8400-537",
      "city": "CARVOEIRO LGA",
      "lon": "-8.447902535744998",
      "lat": "37.10994838983513"
    },
    {
      "id": "pt.ine.add.PTCONT.1696742",
      "street": "ESTR BENAGIL",
      "house": "",
      "postcode": "8400-537",
      "city": "CARVOEIRO LGA",
      "lon": "-8.447265833460172",
      "lat": "37.11105838460223"
    },
    {
      "id": "pt.ine.add.PTCONT.1704367",
      "street": "QTA OLIVEIRAS",
      "house": "",
      "postcode": "8400-537",
      "city": "CARVOEIRO LGA",
      "lon": "-8.447980991033035",
      "lat": "37.109876096562196"
    },
    {
      "id": "pt.ine.add.PTCONT.1713248",
      "street": "ESTR BENAGIL CASA DO CAMPO",
      "house": "",
      "postcode": "8400-537",
      "city": "CARVOEIRO LGA",
      "lon": "-8.447198292068279",
      "lat": "37.11104955292179"
    },
    {
      "id": "pt.ine.add.PTCONT.1716180",
      "street": "ESTR BENAGIL",
      "house": "",
      "postcode": "8400-527",
      "city": "CARVOEIRO LGA",
      "lon": "-8.448182081952877",
      "lat": "37.109533158835454"
    },
    {
      "id": "pt.ine.add.PTCONT.1734348",
      "street": "ESTR BENAGIL",
      "house": "",
      "postcode": "8400-527",
      "city": "CARVOEIRO LGA",
      "lon": "-8.446649380569717",
      "lat": "37.10889746766646"
    },
    {
      "id": "pt.ine.add.PTCONT.1763070",
      "street": "ESTR BENAGIL",
      "house": "",
      "postcode": "8400-527",
      "city": "CARVOEIRO LGA",
      "lon": "-8.446869741797439",
      "lat": "37.107770557013055"
    },
    {
      "id": "pt.ine.add.PTCONT.1772700",
      "street": "ESTR BENAGIL CHAAMUSCAS",
      "house": "",
      "postcode": "8400-554",
      "city": "CARVOEIRO LGA",
      "lon": "-8.44733610864589",
      "lat": "37.10628256908784"
    },
    {
      "id": "pt.ine.add.PTCONT.1775523",
      "street": "SIT CHAMUSCAS",
      "house": "",
      "postcode": "8400-527",
      "city": "CARVOEIRO LGA",
      "lon": "-8.447895886042513",
      "lat": "37.10562330868007"
    },
    {
      "id": "pt.ine.add.PTCONT.1820061",
      "street": "SIT CHAMUSCAS",
      "house": "",
      "postcode": "8400-527",
      "city": "CARVOEIRO LGA",
      "lon": "-8.448862142398378",
      "lat": "37.10532338891677"
    },
    {
      "id": "pt.ine.add.PTCONT.1836625",
      "street": "CASA DOS NINHOS",
      "house": "",
      "postcode": "8400-527",
      "city": "CARVOEIRO LGA",
      "lon": "-8.447844008541368",
      "lat": "37.10939889740645"
    }
  ]
}