{
  "data": {
    "distrito": "Portalegre",
    "concelho": "Avis",
    "freguesia": "Avis",
    "OBJECTID": 173,
    "BGRI2021": "12030300215",
    "DT21": "12",
    "DTMN21": "1203",
    "DTMNFR21": "120303",
    "DTMNFRSEC21": "120303002",
    "SECNUM21": "002",
    "SSNUM21": "15",
    "SECSSNUM21": "00215",
    "OBJECTID_1": 120711,
    "DT": "12",
    "CC": "03",
    "fr": "03",
    "SEC": "002",
    "SS": "15"
  },
  "addresses": [
    {
      "id": "pt.ine.add.PTCONT.3462630",
      "street": "R CISTERNAS",
      "house": "4",
      "postcode": "7480-129",
      "city": "AVIS",
      "lon": "-7.891403149894164",
      "lat": "39.05609926858166"
    },
    {
      "id": "pt.ine.add.PTCONT.3467569",
      "street": "R MISERICÓRDIA",
      "house": "7",
      "postcode": "7480-127",
      "city": "AVIS",
      "lon": "-7.89168729572823",
      "lat": "39.05644863057325"
    },
    {
      "id": "pt.ine.add.PTCONT.3474973",
      "street": "R PORTAS DE ÉVORA",
      "house": "16",
      "postcode": "7480-152",
      "city": "AVIS",
      "lon": "-7.891305376949501",
      "lat": "39.05604114672819"
    },
    {
      "id": "pt.ine.add.PTCONT.3478250",
      "street": "R CONS JOSÉ DE ALPOIM",
      "house": "7",
      "postcode": "7480-145",
      "city": "AVIS",
      "lon": "-7.8913385355338175",
      "lat": "39.05631473093068"
    },
    {
      "id": "pt.ine.add.PTCONT.3478815",
      "street": "R CONS JOSÉ DE ALPOIM",
      "house": "9",
      "postcode": "7480-145",
      "city": "AVIS",
      "lon": "-7.89140833916954",
      "lat": "39.056338612568474"
    },
    {
      "id": "pt.ine.add.PTCONT.3485900",
      "street": "R CONS JOSÉ DE ALPOIM",
      "house": "1",
      "postcode": "7480-145",
      "city": "AVIS",
      "lon": "-7.891166005151826",
      "lat": "39.05625704126526"
    },
    {
      "id": "pt.ine.add.PTCONT.3487212",
      "street": "R PORTAS DE ÉVORA",
      "house": "6",
      "postcode": "7480-152",
      "city": "AVIS",
      "lon": "-7.891197740752752",
      "lat": "39.056179273802854"
    },
    {
      "id": "pt.ine.add.PTCONT.3495587",
      "street": "R CISTERNAS",
      "house": "6",
      "postcode": "7480-129",
      "city": "AVIS",
      "lon": "-7.8914668379602135",
      "lat": "39.056123270824024"
    },
    {
      "id": "pt.ine.add.PTCONT.3498189",
      "street": "R CONS JOSÉ DE ALPOIM",
      "house": "13",
      "postcode": "7480-145",
      "city": "AVIS",
      "lon": "-7.891624288503824",
      "lat": "39.056430517261084"
    },
    {
      "id": "pt.ine.add.PTCONT.3498302",
      "street": "R MISERICÓRDIA",
      "house": "9",
      "postcode": "7480-127",
      "city": "AVIS",
      "lon": "-7.8917408460438745",
      "lat": "39.05641132994326"
    },
    {
      "id": "pt.ine.add.PTCONT.3499942",
      "street": "R PORTAS DE ÉVORA",
      "house": "12",
      "postcode": "7480-152",
      "city": "AVIS",
      "lon": "-7.891244198029719",
      "lat": "39.05610730896299"
    },
    {
      "id": "pt.ine.add.PTCONT.3500304",
      "street": "R CISTERNAS",
      "house": "14",
      "postcode": "7480-129",
      "city": "AVIS",
      "lon": "-7.891722824136403",
      "lat": "39.05621429986832"
    },
    {
      "id": "pt.ine.add.PTCONT.3502123",
      "street": "R DAS CISTERNAS",
      "house": "16",
      "postcode": "7480-129",
      "city": "AVIS",
      "lon": "-7.8917824488035055",
      "lat": "39.056241824526374"
    },
    {
      "id": "pt.ine.add.PTCONT.3516037",
      "street": "R CISTERNAS",
      "house": "12",
      "postcode": "7480-129",
      "city": "AVIS",
      "lon": "-7.891623688429188",
      "lat": "39.056182708392924"
    },
    {
      "id": "pt.ine.add.PTCONT.3516628",
      "street": "R CISTERNAS",
      "house": "8",
      "postcode": "7480-129",
      "city": "AVIS",
      "lon": "-7.891530219344643",
      "lat": "39.05614574559978"
    },
    {
      "id": "pt.ine.add.PTCONT.3517307",
      "street": "R CISTERNAS",
      "house": "20",
      "postcode": "7480-129",
      "city": "AVIS",
      "lon": "-7.891864174187786",
      "lat": "39.05630028750372"
    },
    {
      "id": "pt.ine.add.PTCONT.3521663",
      "street": "R CISTERNAS",
      "house": "18",
      "postcode": "7480-129",
      "city": "AVIS",
      "lon": "-7.891817063723686",
      "lat": "39.05626492059749"
    }
  ]
}