{
  "data": {
    "distrito": "Portalegre",
    "concelho": "Avis",
    "freguesia": "Avis",
    "OBJECTID": 22,
    "BGRI2021": "12030300241",
    "DT21": "12",
    "DTMN21": "1203",
    "DTMNFR21": "120303",
    "DTMNFRSEC21": "120303002",
    "SECNUM21": "002",
    "SSNUM21": "41",
    "SECSSNUM21": "00241",
    "OBJECTID_1": 120954,
    "DT": "12",
    "CC": "03",
    "fr": "03",
    "SEC": "002",
    "SS": "41"
  },
  "addresses": [
    {
      "id": "pt.ine.add.PTCONT.3462162",
      "street": "MTE BOAVISTA",
      "house": "",
      "postcode": "7480-149",
      "city": "AVIS",
      "lon": "-7.890135558366218",
      "lat": "39.06337779743215"
    },
    {
      "id": "pt.ine.add.PTCONT.3468154",
      "street": "MTE PEREIRA",
      "house": "",
      "postcode": "7480-149",
      "city": "AVIS",
      "lon": "-7.843998160490564",
      "lat": "39.066886753893556"
    },
    {
      "id": "pt.ine.add.PTCONT.3468155",
      "street": "MTE PEREIRA",
      "house": "",
      "postcode": "7480-149",
      "city": "AVIS",
      "lon": "-7.843998160490564",
      "lat": "39.066886753893556"
    },
    {
      "id": "pt.ine.add.PTCONT.3469437",
      "street": "MTE BOAVISTA",
      "house": "",
      "postcode": "7480-149",
      "city": "AVIS",
      "lon": "-7.889337150769114",
      "lat": "39.06399079802811"
    },
    {
      "id": "pt.ine.add.PTCONT.3475566",
      "street": "MTE FINCA JOELHOS",
      "house": "",
      "postcode": "7480-149",
      "city": "AVIS",
      "lon": "-7.87283635065307",
      "lat": "39.05807315132933"
    },
    {
      "id": "pt.ine.add.PTCONT.3482811",
      "street": "MTE MONTINHO",
      "house": "",
      "postcode": "7480-149",
      "city": "AVIS",
      "lon": "-7.885261243057752",
      "lat": "39.06842706931366"
    },
    {
      "id": "pt.ine.add.PTCONT.3482813",
      "street": "MTE MONTINHO",
      "house": "",
      "postcode": "7480-149",
      "city": "AVIS",
      "lon": "-7.885261243057752",
      "lat": "39.06842706931366"
    },
    {
      "id": "pt.ine.add.PTCONT.3499959",
      "street": "MTE BOAVISTA",
      "house": "",
      "postcode": "7480-149",
      "city": "AVIS",
      "lon": "-7.8904492464504585",
      "lat": "39.06314639938814"
    },
    {
      "id": "pt.ine.add.PTCONT.3504984",
      "street": "MTE TAPADINHA",
      "house": "",
      "postcode": "7480-149",
      "city": "AVIS",
      "lon": "-7.888746896204535",
      "lat": "39.06427780710461"
    },
    {
      "id": "pt.ine.add.PTCONT.3508085",
      "street": "MTE MONTINHO",
      "house": "",
      "postcode": "7480-149",
      "city": "AVIS",
      "lon": "-7.880923677781168",
      "lat": "39.06780115191093"
    },
    {
      "id": "pt.ine.add.PTCONT.3512342",
      "street": "MTE TAPADINHA",
      "house": "",
      "postcode": "7480-149",
      "city": "AVIS",
      "lon": "-7.885073010675669",
      "lat": "39.06542961032693"
    },
    {
      "id": "pt.ine.add.PTCONT.3516040",
      "street": "MTE BRAS VARELA",
      "house": "",
      "postcode": "7480-149",
      "city": "AVIS",
      "lon": "-7.851564867632543",
      "lat": "39.06438313107441"
    },
    {
      "id": "pt.ine.add.PTCONT.3516638",
      "street": "MTE SANGUESSUGAS",
      "house": "",
      "postcode": "7480-149",
      "city": "AVIS",
      "lon": "-7.862971870471109",
      "lat": "39.06448842039852"
    },
    {
      "id": "pt.ine.add.PTCONT.3525340",
      "street": "MTE BOAVISTA",
      "house": "",
      "postcode": "7480-149",
      "city": "AVIS",
      "lon": "-7.882422948519209",
      "lat": "39.05913617640049"
    },
    {
      "id": "pt.ine.add.PTCONT.3528748",
      "street": "MTE BIQUINHA",
      "house": "",
      "postcode": "7480-149",
      "city": "AVIS",
      "lon": "-7.895695215299747",
      "lat": "39.06302208222448"
    },
    {
      "id": "pt.ine.add.PTCONT.3534330",
      "street": "MTE POÃ‡O DA CHARNECA",
      "house": "",
      "postcode": "7480-149",
      "city": "AVIS",
      "lon": "-7.878944146425432",
      "lat": "39.0703365594471"
    }
  ]
}