{
  "data": {
    "distrito": "Lisboa",
    "concelho": "Vila Franca de Xira",
    "freguesia": "Uni√£o das freguesias de Castanheira do Ribatejo e Cachoeiras",
    "OBJECTID": 1216,
    "BGRI2021": "11141400211",
    "DT21": "11",
    "DTMN21": "1114",
    "DTMNFR21": "111414",
    "DTMNFRSEC21": "111414002",
    "SECNUM21": "002",
    "SSNUM21": "11",
    "SECSSNUM21": "00211",
    "OBJECTID_1": 118059,
    "DT": "11",
    "CC": "14",
    "fr": "14",
    "SEC": "002",
    "SS": "11"
  },
  "addresses": [
    {
      "id": "pt.ine.add.PTCONT.2564243",
      "street": "LEZIRIA DAS CORTES",
      "house": "8",
      "postcode": "2600-602",
      "city": "CASTANHEIRA DO RIBATEJO",
      "lon": "-8.956501212170672",
      "lat": "38.991116178980135"
    },
    {
      "id": "pt.ine.add.PTCONT.2731835",
      "street": "ESTR ITALAGRO BAIRRO DA GNR",
      "house": "1",
      "postcode": "2600-736",
      "city": "CASTANHEIRA DO RIBATEJO",
      "lon": "-8.965875287402422",
      "lat": "38.98536587182503"
    },
    {
      "id": "pt.ine.add.PTCONT.2734536",
      "street": "CAM MUNICIPAL",
      "house": "1",
      "postcode": "2600-602",
      "city": "CASTANHEIRA DO RIBATEJO",
      "lon": "-8.965875287402422",
      "lat": "38.98536587182503"
    },
    {
      "id": "pt.ine.add.PTCONT.2774339",
      "street": "ITALAGRO",
      "house": "",
      "postcode": "2600-697",
      "city": "CASTANHEIRA DO RIBATEJO",
      "lon": "-8.958266736333677",
      "lat": "38.979150649128435"
    },
    {
      "id": "pt.ine.add.PTCONT.2822812",
      "street": "EX GNR",
      "house": "",
      "postcode": "2600-697",
      "city": "CASTANHEIRA DO RIBATEJO",
      "lon": "-8.959178806453128",
      "lat": "38.98117090259955"
    },
    {
      "id": "pt.ine.add.PTCONT.3050445",
      "street": "CASA EMAZOS",
      "house": "",
      "postcode": "2600-697",
      "city": "CASTANHEIRA DO RIBATEJO",
      "lon": "-8.95472187217062",
      "lat": "38.98995773795861"
    },
    {
      "id": "pt.ine.add.PTCONT.3191274",
      "street": "CAM MUNICIPAL",
      "house": "",
      "postcode": "2600-697",
      "city": "CASTANHEIRA DO RIBATEJO",
      "lon": "-8.956173032263141",
      "lat": "39.00064849666677"
    },
    {
      "id": "pt.ine.add.PTCONT.3327466",
      "street": "CAM MUNICIPAL",
      "house": "8",
      "postcode": "2600-602",
      "city": "CASTANHEIRA DO RIBATEJO",
      "lon": "-8.965969614526458",
      "lat": "38.98553634247924"
    },
    {
      "id": "pt.ine.add.PTCONT.3333024",
      "street": "CAM CORTES DAS LEZIRIAS",
      "house": "8",
      "postcode": "2600-602",
      "city": "CASTANHEIRA DO RIBATEJO",
      "lon": "-8.966318672970083",
      "lat": "38.98577705489699"
    },
    {
      "id": "pt.ine.add.PTCONT.3338599",
      "street": "CAM MINICIPAL",
      "house": "",
      "postcode": "2600-602",
      "city": "CASTANHEIRA DO RIBATEJO",
      "lon": "-8.96610978654273",
      "lat": "38.98567946304308"
    },
    {
      "id": "pt.ine.add.PTCONT.3338600",
      "street": "CAM MINICIPAL",
      "house": "",
      "postcode": "2600-602",
      "city": "CASTANHEIRA DO RIBATEJO",
      "lon": "-8.96610978654273",
      "lat": "38.98567946304308"
    },
    {
      "id": "pt.ine.add.PTCONT.3347470",
      "street": "CAM MUNICIPAL",
      "house": "",
      "postcode": "2600-697",
      "city": "CASTANHEIRA DO RIBATEJO",
      "lon": "-8.956130200629955",
      "lat": "39.0009370406193"
    },
    {
      "id": "pt.ine.add.PTCONT.3443837",
      "street": "CAM MUNICIPAL",
      "house": "8",
      "postcode": "2600-602",
      "city": "CASTANHEIRA DO RIBATEJO",
      "lon": "-8.965969614526458",
      "lat": "38.98553634247924"
    }
  ]
}