{
  "data": {
    "distrito": "Aveiro",
    "concelho": "Vagos",
    "freguesia": "União das freguesias de Ponte de Vagos e Santa Catarina",
    "OBJECTID": 347,
    "BGRI2021": "01181300103",
    "DT21": "01",
    "DTMN21": "0118",
    "DTMNFR21": "011813",
    "DTMNFRSEC21": "011813001",
    "SECNUM21": "001",
    "SSNUM21": "03",
    "SECSSNUM21": "00103",
    "OBJECTID_1": 11809,
    "DT": "01",
    "CC": "18",
    "fr": "13",
    "SEC": "001",
    "SS": "03"
  },
  "addresses": [
    {
      "id": "pt.ine.add.PTCONT.294151",
      "street": "R NAVEGANTES",
      "house": "13",
      "postcode": "3840-572",
      "city": "SANTA CATARINA VGS",
      "lon": "-8.640010050960079",
      "lat": "40.46396114757645"
    },
    {
      "id": "pt.ine.add.PTCONT.315279",
      "street": "R ANDAL",
      "house": "4",
      "postcode": "3840-572",
      "city": "SANTA CATARINA VGS",
      "lon": "-8.637670944533125",
      "lat": "40.45862216041814"
    },
    {
      "id": "pt.ine.add.PTCONT.317951",
      "street": "R NAVEGANTES",
      "house": "17",
      "postcode": "3840-572",
      "city": "SANTA CATARINA VGS",
      "lon": "-8.640609045132432",
      "lat": "40.46365233497947"
    },
    {
      "id": "pt.ine.add.PTCONT.328842",
      "street": "R PRINCIPAL",
      "house": "286",
      "postcode": "3840-572",
      "city": "SANTA CATARINA VGS",
      "lon": "-8.63751310159307",
      "lat": "40.45958642993922"
    },
    {
      "id": "pt.ine.add.PTCONT.345512",
      "street": "R PRINCIPAL",
      "house": "252",
      "postcode": "3840-572",
      "city": "SANTA CATARINA VGS",
      "lon": "-8.637700590267876",
      "lat": "40.462584417661034"
    },
    {
      "id": "pt.ine.add.PTCONT.346343",
      "street": "R PRINCIPAL",
      "house": "256",
      "postcode": "3840-572",
      "city": "SANTA CATARINA VGS",
      "lon": "-8.637601622306322",
      "lat": "40.46196347555643"
    },
    {
      "id": "pt.ine.add.PTCONT.20489",
      "street": "R PRINCIPAL",
      "house": "250",
      "postcode": "3840-572",
      "city": "SANTA CATARINA VGS",
      "lon": "-8.637677751589456",
      "lat": "40.462683576989484"
    },
    {
      "id": "pt.ine.add.PTCONT.39490",
      "street": "R PRINCIPAL",
      "house": "240",
      "postcode": "3840-572",
      "city": "SANTA CATARINA VGS",
      "lon": "-8.637718984068746",
      "lat": "40.463466868567636"
    },
    {
      "id": "pt.ine.add.PTCONT.53128",
      "street": "R MATO CHÃO",
      "house": "3",
      "postcode": "3840-572",
      "city": "SANTA CATARINA VGS",
      "lon": "-8.638086758292767",
      "lat": "40.46219549813583"
    },
    {
      "id": "pt.ine.add.PTCONT.58224",
      "street": "R PRINCIPAL",
      "house": "234",
      "postcode": "3840-572",
      "city": "SANTA CATARINA VGS",
      "lon": "-8.638076732783984",
      "lat": "40.46400563140389"
    },
    {
      "id": "pt.ine.add.PTCONT.60657",
      "street": "R PRINCIPAL",
      "house": "222",
      "postcode": "3840-572",
      "city": "SANTA CATARINA VGS",
      "lon": "-8.638576308043339",
      "lat": "40.46458880004476"
    },
    {
      "id": "pt.ine.add.PTCONT.60658",
      "street": "R ANDAL",
      "house": "",
      "postcode": "3840-572",
      "city": "SANTA CATARINA VGS",
      "lon": "-8.637835656911612",
      "lat": "40.45857641419353"
    },
    {
      "id": "pt.ine.add.PTCONT.93273",
      "street": "R PRINCIPAL",
      "house": "238",
      "postcode": "3840-572",
      "city": "SANTA CATARINA VGS",
      "lon": "-8.637708406942277",
      "lat": "40.463629012295506"
    },
    {
      "id": "pt.ine.add.PTCONT.97241",
      "street": "R PRINCIPAL",
      "house": "274",
      "postcode": "3840-572",
      "city": "SANTA CATARINA VGS",
      "lon": "-8.637779881175504",
      "lat": "40.4605758622444"
    },
    {
      "id": "pt.ine.add.PTCONT.114367",
      "street": "R NAVEGANTES",
      "house": "15",
      "postcode": "3840-572",
      "city": "SANTA CATARINA VGS",
      "lon": "-8.640364568888801",
      "lat": "40.464067657359436"
    },
    {
      "id": "pt.ine.add.PTCONT.114368",
      "street": "R PRINCIPAL",
      "house": "258",
      "postcode": "3840-572",
      "city": "SANTA CATARINA VGS",
      "lon": "-8.637694323746894",
      "lat": "40.46174694079056"
    },
    {
      "id": "pt.ine.add.PTCONT.130795",
      "street": "R PRINCIPAL",
      "house": "278",
      "postcode": "3840-572",
      "city": "SANTA CATARINA VGS",
      "lon": "-8.637858768668675",
      "lat": "40.46008922486699"
    },
    {
      "id": "pt.ine.add.PTCONT.136102",
      "street": "R PRINCIPAL",
      "house": "280",
      "postcode": "3840-572",
      "city": "SANTA CATARINA VGS",
      "lon": "-8.637798810337747",
      "lat": "40.459954405293296"
    },
    {
      "id": "pt.ine.add.PTCONT.151933",
      "street": "R MATOCHÃO",
      "house": "1",
      "postcode": "3840-572",
      "city": "SANTA CATARINA VGS",
      "lon": "-8.637815793639207",
      "lat": "40.46222369784404"
    },
    {
      "id": "pt.ine.add.PTCONT.165343",
      "street": "R PRINCIPAL",
      "house": "276",
      "postcode": "3840-572",
      "city": "SANTA CATARINA VGS",
      "lon": "-8.63770678542329",
      "lat": "40.46026099149993"
    },
    {
      "id": "pt.ine.add.PTCONT.182170",
      "street": "R PRINCIPAL",
      "house": "288",
      "postcode": "3840-572",
      "city": "SANTA CATARINA VGS",
      "lon": "-8.637523341894857",
      "lat": "40.45937926045589"
    },
    {
      "id": "pt.ine.add.PTCONT.201507",
      "street": "R PRINCIPAL",
      "house": "220",
      "postcode": "3840-572",
      "city": "SANTA CATARINA VGS",
      "lon": "-8.638719952185193",
      "lat": "40.46487634516454"
    },
    {
      "id": "pt.ine.add.PTCONT.245930",
      "street": "R PRINCIPAL",
      "house": "236",
      "postcode": "3840-572",
      "city": "SANTA CATARINA VGS",
      "lon": "-8.637839648497936",
      "lat": "40.46383556393677"
    },
    {
      "id": "pt.ine.add.PTCONT.256663",
      "street": "R PRINCIPAL",
      "house": "",
      "postcode": "3840-572",
      "city": "SANTA CATARINA VGS",
      "lon": "-8.637584511645443",
      "lat": "40.45967617256497"
    },
    {
      "id": "pt.ine.add.PTCONT.259431",
      "street": "R PRINCIPAL",
      "house": "268",
      "postcode": "3840-572",
      "city": "SANTA CATARINA VGS",
      "lon": "-8.63766494983459",
      "lat": "40.46097260263085"
    }
  ]
}