{
  "data": {
    "distrito": "Aveiro",
    "concelho": "Vagos",
    "freguesia": "Uni√£o das freguesias de Ponte de Vagos e Santa Catarina",
    "OBJECTID": 51,
    "BGRI2021": "01181300115",
    "DT21": "01",
    "DTMN21": "0118",
    "DTMNFR21": "011813",
    "DTMNFRSEC21": "011813001",
    "SECNUM21": "001",
    "SSNUM21": "15",
    "SECSSNUM21": "00115",
    "OBJECTID_1": 11751,
    "DT": "01",
    "CC": "18",
    "fr": "13",
    "SEC": "001",
    "SS": "15"
  },
  "addresses": [
    {
      "id": "pt.ine.add.PTCONT.306315",
      "street": "R MARCO",
      "house": "59",
      "postcode": "3840-571",
      "city": "SANTA CATARINA VGS",
      "lon": "-8.62678949023989",
      "lat": "40.47155590131206"
    },
    {
      "id": "pt.ine.add.PTCONT.322693",
      "street": "R MARCO",
      "house": "33",
      "postcode": "3840-571",
      "city": "SANTA CATARINA VGS",
      "lon": "-8.62971988942023",
      "lat": "40.472371845503076"
    },
    {
      "id": "pt.ine.add.PTCONT.345105",
      "street": "R MARCO",
      "house": "39",
      "postcode": "3840-571",
      "city": "SANTA CATARINA VGS",
      "lon": "-8.629104934231208",
      "lat": "40.4721313400311"
    },
    {
      "id": "pt.ine.add.PTCONT.4767",
      "street": "R MARCO",
      "house": "49",
      "postcode": "3840-571",
      "city": "SANTA CATARINA VGS",
      "lon": "-8.627934391217593",
      "lat": "40.47170409753384"
    },
    {
      "id": "pt.ine.add.PTCONT.45078",
      "street": "R MARCO",
      "house": "37",
      "postcode": "3840-571",
      "city": "SANTA CATARINA VGS",
      "lon": "-8.629258622910493",
      "lat": "40.47218471286652"
    },
    {
      "id": "pt.ine.add.PTCONT.58222",
      "street": "R PELIGUEIRAS",
      "house": "19",
      "postcode": "3840-571",
      "city": "SANTA CATARINA VGS",
      "lon": "-8.625042804985265",
      "lat": "40.472968192286004"
    },
    {
      "id": "pt.ine.add.PTCONT.89736",
      "street": "R MARCO",
      "house": "43",
      "postcode": "3840-571",
      "city": "SANTA CATARINA VGS",
      "lon": "-8.628678781007311",
      "lat": "40.47190803274884"
    },
    {
      "id": "pt.ine.add.PTCONT.93284",
      "street": "R PADRE DOMINGOS",
      "house": "19",
      "postcode": "3840-571",
      "city": "SANTA CATARINA VGS",
      "lon": "-8.631074183028158",
      "lat": "40.473725835150574"
    },
    {
      "id": "pt.ine.add.PTCONT.97068",
      "street": "R MARCO",
      "house": "35",
      "postcode": "3840-571",
      "city": "SANTA CATARINA VGS",
      "lon": "-8.62935401657349",
      "lat": "40.472328389872835"
    },
    {
      "id": "pt.ine.add.PTCONT.109457",
      "street": "R MARCO",
      "house": "15",
      "postcode": "3840-571",
      "city": "SANTA CATARINA VGS",
      "lon": "-8.631246403094302",
      "lat": "40.47309471464488"
    },
    {
      "id": "pt.ine.add.PTCONT.114364",
      "street": "R MARCO",
      "house": "27",
      "postcode": "3840-571",
      "city": "SANTA CATARINA VGS",
      "lon": "-8.630157973496509",
      "lat": "40.47261310842676"
    },
    {
      "id": "pt.ine.add.PTCONT.114899",
      "street": "R MARCO",
      "house": "41",
      "postcode": "3840-571",
      "city": "SANTA CATARINA VGS",
      "lon": "-8.628832998613362",
      "lat": "40.472033447153684"
    },
    {
      "id": "pt.ine.add.PTCONT.125461",
      "street": "R MARCO",
      "house": "55",
      "postcode": "3840-571",
      "city": "SANTA CATARINA VGS",
      "lon": "-8.627379660424012",
      "lat": "40.47163442777382"
    },
    {
      "id": "pt.ine.add.PTCONT.165120",
      "street": "R MARCO",
      "house": "47",
      "postcode": "3840-571",
      "city": "SANTA CATARINA VGS",
      "lon": "-8.62819453265818",
      "lat": "40.47180204305434"
    },
    {
      "id": "pt.ine.add.PTCONT.179314",
      "street": "R MARCO",
      "house": "11",
      "postcode": "3840-571",
      "city": "SANTA CATARINA VGS",
      "lon": "-8.631506820983398",
      "lat": "40.473228673102604"
    },
    {
      "id": "pt.ine.add.PTCONT.182164",
      "street": "R MARCO",
      "house": "45",
      "postcode": "3840-571",
      "city": "SANTA CATARINA VGS",
      "lon": "-8.628395716965095",
      "lat": "40.4719002406371"
    },
    {
      "id": "pt.ine.add.PTCONT.212256",
      "street": "R MARCO",
      "house": "31",
      "postcode": "3840-571",
      "city": "SANTA CATARINA VGS",
      "lon": "-8.629850526661162",
      "lat": "40.472497359847"
    },
    {
      "id": "pt.ine.add.PTCONT.237396",
      "street": "R MARCO",
      "house": "17",
      "postcode": "3840-571",
      "city": "SANTA CATARINA VGS",
      "lon": "-8.630904374933905",
      "lat": "40.47308718279389"
    },
    {
      "id": "pt.ine.add.PTCONT.261998",
      "street": "R MARCO",
      "house": "57",
      "postcode": "3840-571",
      "city": "SANTA CATARINA VGS",
      "lon": "-8.62701359508656",
      "lat": "40.47156394931483"
    }
  ]
}