{
  "data": {
    "distrito": "Viseu",
    "concelho": "Tarouca",
    "freguesia": "União das freguesias de Granja Nova e Vila Chã da Beira",
    "OBJECTID": 334,
    "BGRI2021": "18201200108",
    "DT21": "18",
    "DTMN21": "1820",
    "DTMNFR21": "182012",
    "DTMNFRSEC21": "182012001",
    "SECNUM21": "001",
    "SSNUM21": "08",
    "SECSSNUM21": "00108",
    "OBJECTID_1": 198496,
    "DT": "18",
    "CC": "20",
    "fr": "12",
    "SEC": "001",
    "SS": "08"
  },
  "addresses": [
    {
      "id": "pt.ine.add.PTCONT.5428511",
      "street": "R LAGE",
      "house": "18",
      "postcode": "3610-210",
      "city": "VILA CHÃ DA BEIRA",
      "lon": "-7.6882305719742146",
      "lat": "41.02991004972357"
    },
    {
      "id": "pt.ine.add.PTCONT.5431710",
      "street": "R LAGE",
      "house": "",
      "postcode": "3610-210",
      "city": "VILA CHÃ DA BEIRA",
      "lon": "-7.68799348664049",
      "lat": "41.02980107974388"
    },
    {
      "id": "pt.ine.add.PTCONT.5444663",
      "street": "R LAGE",
      "house": "22",
      "postcode": "3610-210",
      "city": "VILA CHÃ DA BEIRA",
      "lon": "-7.6881242835900405",
      "lat": "41.02980158480105"
    },
    {
      "id": "pt.ine.add.PTCONT.5452136",
      "street": "R D MARIA DA CONCEIÇÃO FERREIRA",
      "house": "12",
      "postcode": "3610-210",
      "city": "VILA CHÃ DA BEIRA",
      "lon": "-7.687730618537571",
      "lat": "41.02998915982784"
    },
    {
      "id": "pt.ine.add.PTCONT.5473903",
      "street": "R LAGE",
      "house": "18",
      "postcode": "3610-210",
      "city": "VILA CHÃ DA BEIRA",
      "lon": "-7.687993183435535",
      "lat": "41.02984610132783"
    },
    {
      "id": "pt.ine.add.PTCONT.5482767",
      "street": "R LAGE",
      "house": "14",
      "postcode": "3610-210",
      "city": "VILA CHÃ DA BEIRA",
      "lon": "-7.688005801746581",
      "lat": "41.02973809544608"
    },
    {
      "id": "pt.ine.add.PTCONT.5507089",
      "street": "LG SANTO ANTÓNIO",
      "house": "8",
      "postcode": "3610-210",
      "city": "VILA CHÃ DA BEIRA",
      "lon": "-7.687827199791093",
      "lat": "41.02977342377929"
    },
    {
      "id": "pt.ine.add.PTCONT.5523130",
      "street": "R LAGE",
      "house": "24",
      "postcode": "3610-210",
      "city": "VILA CHÃ DA BEIRA",
      "lon": "-7.688207214955039",
      "lat": "41.029846927709"
    },
    {
      "id": "pt.ine.add.PTCONT.5528667",
      "street": "R BRASIL",
      "house": "1",
      "postcode": "3610-210",
      "city": "VILA CHÃ DA BEIRA",
      "lon": "-7.687954903716532",
      "lat": "41.03023314916446"
    },
    {
      "id": "pt.ine.add.PTCONT.5553314",
      "street": "R LAGE",
      "house": "",
      "postcode": "3610-210",
      "city": "VILA CHÃ DA BEIRA",
      "lon": "-7.688302521874387",
      "lat": "41.02982028191052"
    },
    {
      "id": "pt.ine.add.PTCONT.5566636",
      "street": "R D MARIA DA CONCEIÇÃO FERREIRA",
      "house": "",
      "postcode": "3610-210",
      "city": "VILA CHÃ DA BEIRA",
      "lon": "-7.687872335993315",
      "lat": "41.0301337801797"
    },
    {
      "id": "pt.ine.add.PTCONT.5579473",
      "street": "R LAGE",
      "house": "16",
      "postcode": "3610-210",
      "city": "VILA CHÃ DA BEIRA",
      "lon": "-7.687946106056287",
      "lat": "41.02977388309958"
    },
    {
      "id": "pt.ine.add.PTCONT.5588898",
      "street": "R BRASIL",
      "house": "3",
      "postcode": "3610-210",
      "city": "VILA CHÃ DA BEIRA",
      "lon": "-7.687944044031537",
      "lat": "41.03008002986292"
    },
    {
      "id": "pt.ine.add.PTCONT.5601673",
      "street": "R LAGE",
      "house": "11",
      "postcode": "3610-210",
      "city": "VILA CHÃ DA BEIRA",
      "lon": "-7.688230268929588",
      "lat": "41.02995507130811"
    },
    {
      "id": "pt.ine.add.PTCONT.5608934",
      "street": "R D MARIA DA CONCEIÇÃO FERREIRA",
      "house": "10",
      "postcode": "3610-210",
      "city": "VILA CHÃ DA BEIRA",
      "lon": "-7.687789768517575",
      "lat": "41.03003441113534"
    },
    {
      "id": "pt.ine.add.PTCONT.5624771",
      "street": "LG SANTO ANTÓNIO",
      "house": "10",
      "postcode": "3610-210",
      "city": "VILA CHÃ DA BEIRA",
      "lon": "-7.687767807331128",
      "lat": "41.029764189756555"
    },
    {
      "id": "pt.ine.add.PTCONT.5627752",
      "street": "R BRASIL",
      "house": "",
      "postcode": "3610-210",
      "city": "VILA CHÃ DA BEIRA",
      "lon": "-7.688098016623026",
      "lat": "41.03017066996677"
    },
    {
      "id": "pt.ine.add.PTCONT.5628424",
      "street": "LG SANTO ANTÓNIO",
      "house": "",
      "postcode": "3610-210",
      "city": "VILA CHÃ DA BEIRA",
      "lon": "-7.687767200613861",
      "lat": "41.0298542329219"
    },
    {
      "id": "pt.ine.add.PTCONT.5638000",
      "street": "LG SANTO ANTÓNIO",
      "house": "",
      "postcode": "3610-210",
      "city": "VILA CHÃ DA BEIRA",
      "lon": "-7.687695856769417",
      "lat": "41.02985395723327"
    },
    {
      "id": "pt.ine.add.PTCONT.5641816",
      "street": "LG SANTO ANTÓNIO",
      "house": "4",
      "postcode": "3610-210",
      "city": "VILA CHÃ DA BEIRA",
      "lon": "-7.687874519668468",
      "lat": "41.0298096247889"
    },
    {
      "id": "pt.ine.add.PTCONT.5650509",
      "street": "R BRASIL",
      "house": "7",
      "postcode": "3610-210",
      "city": "VILA CHÃ DA BEIRA",
      "lon": "-7.6882172872744015",
      "lat": "41.030117103111905"
    }
  ]
}