{
  "data": {
    "distrito": "Viseu",
    "concelho": "Tarouca",
    "freguesia": "União das freguesias de Granja Nova e Vila Chã da Beira",
    "OBJECTID": 383,
    "BGRI2021": "18201200133",
    "DT21": "18",
    "DTMN21": "1820",
    "DTMNFR21": "182012",
    "DTMNFRSEC21": "182012001",
    "SECNUM21": "001",
    "SSNUM21": "33",
    "SECSSNUM21": "00133",
    "OBJECTID_1": 198774,
    "DT": "18",
    "CC": "20",
    "fr": "12",
    "SEC": "001",
    "SS": "33"
  },
  "addresses": [
    {
      "id": "pt.ine.add.PTCONT.5455333",
      "street": "",
      "house": "",
      "postcode": "3610-042",
      "city": "GRANJA NOVA",
      "lon": "-7.726307628245127",
      "lat": "41.0334184365749"
    },
    {
      "id": "pt.ine.add.PTCONT.5457991",
      "street": "AV DR VASCO TEIXEIRA",
      "house": "",
      "postcode": "3610-042",
      "city": "GRANJA NOVA",
      "lon": "-7.722265669038653",
      "lat": "41.03131504308168"
    },
    {
      "id": "pt.ine.add.PTCONT.5464311",
      "street": "QTA REGADAS",
      "house": "",
      "postcode": "3610-042",
      "city": "GRANJA NOVA",
      "lon": "-7.726909705818063",
      "lat": "41.03606789768662"
    },
    {
      "id": "pt.ine.add.PTCONT.5475135",
      "street": "R ESCOLA",
      "house": "",
      "postcode": "3610-042",
      "city": "GRANJA NOVA",
      "lon": "-7.721574872179347",
      "lat": "41.031492669671294"
    },
    {
      "id": "pt.ine.add.PTCONT.5478746",
      "street": "",
      "house": "",
      "postcode": "3610-042",
      "city": "GRANJA NOVA",
      "lon": "-7.726629469861435",
      "lat": "41.03329350836423"
    },
    {
      "id": "pt.ine.add.PTCONT.5499220",
      "street": "",
      "house": "",
      "postcode": "3610-042",
      "city": "GRANJA NOVA",
      "lon": "-7.726007259000948",
      "lat": "41.03584860443097"
    },
    {
      "id": "pt.ine.add.PTCONT.5524973",
      "street": "",
      "house": "",
      "postcode": "3610-042",
      "city": "GRANJA NOVA",
      "lon": "-7.725208119822064",
      "lat": "41.03623297446186"
    },
    {
      "id": "pt.ine.add.PTCONT.5586489",
      "street": "",
      "house": "",
      "postcode": "3610-042",
      "city": "GRANJA NOVA",
      "lon": "-7.724126977459894",
      "lat": "41.03222211827835"
    },
    {
      "id": "pt.ine.add.PTCONT.5593963",
      "street": "AV DR VASCO TEIXEIRA",
      "house": "",
      "postcode": "3610-042",
      "city": "GRANJA NOVA",
      "lon": "-7.722336846887067",
      "lat": "41.031342310443826"
    },
    {
      "id": "pt.ine.add.PTCONT.5601312",
      "street": "R ESCOLA",
      "house": "",
      "postcode": "3610-042",
      "city": "GRANJA NOVA",
      "lon": "-7.7216582212131355",
      "lat": "41.03147495813989"
    },
    {
      "id": "pt.ine.add.PTCONT.5603870",
      "street": "",
      "house": "",
      "postcode": "3610-042",
      "city": "GRANJA NOVA",
      "lon": "-7.726449659439539",
      "lat": "41.033526992416206"
    },
    {
      "id": "pt.ine.add.PTCONT.5629372",
      "street": "R DR VASCO TEIXEIRA",
      "house": "",
      "postcode": "3610-042",
      "city": "GRANJA NOVA",
      "lon": "-7.7221471514042355",
      "lat": "41.03125158867132"
    },
    {
      "id": "pt.ine.add.PTCONT.5646505",
      "street": "AV DR VASCO TEIXEIRA",
      "house": "",
      "postcode": "3610-042",
      "city": "GRANJA NOVA",
      "lon": "-7.723332393843059",
      "lat": "41.031877122952615"
    },
    {
      "id": "pt.ine.add.PTCONT.5659397",
      "street": "",
      "house": "",
      "postcode": "3610-042",
      "city": "GRANJA NOVA",
      "lon": "-7.726437047736088",
      "lat": "41.0336440070855"
    }
  ]
}