{
  "data": {
    "distrito": "Braga",
    "concelho": "Vila Verde",
    "freguesia": "Vila Verde e Barbudo",
    "OBJECTID": 185,
    "BGRI2021": "03137000225",
    "DT21": "03",
    "DTMN21": "0313",
    "DTMNFR21": "031370",
    "DTMNFRSEC21": "031370002",
    "SECNUM21": "002",
    "SSNUM21": "25",
    "SECSSNUM21": "00225",
    "OBJECTID_1": 31775,
    "DT": "03",
    "CC": "13",
    "fr": "70",
    "SEC": "002",
    "SS": "25"
  },
  "addresses": [
    {
      "id": "pt.ine.add.PTCONT.477335",
      "street": "R PROF MACHADO VILELA",
      "house": "54",
      "postcode": "4730-684",
      "city": "VILA VERDE",
      "lon": "-8.451294112086645",
      "lat": "41.64491247664078"
    },
    {
      "id": "pt.ine.add.PTCONT.513325",
      "street": "R PROF MACHADO VILELA",
      "house": "42",
      "postcode": "4730-684",
      "city": "VILA VERDE",
      "lon": "-8.450750897108268",
      "lat": "41.64673270737302"
    },
    {
      "id": "pt.ine.add.PTCONT.532512",
      "street": "R DR MACEDO BARBOSA",
      "house": "5",
      "postcode": "4730-062",
      "city": "BARBUDO",
      "lon": "-8.451601153552028",
      "lat": "41.646325192447385"
    },
    {
      "id": "pt.ine.add.PTCONT.533720",
      "street": "R DR MACEDO BARBOSA",
      "house": "11",
      "postcode": "4730-062",
      "city": "BARBUDO",
      "lon": "-8.453004267924607",
      "lat": "41.64606019163713"
    },
    {
      "id": "pt.ine.add.PTCONT.567810",
      "street": "R PROF MACHADO VILELA",
      "house": "",
      "postcode": "4730-684",
      "city": "VILA VERDE",
      "lon": "-8.452955363669124",
      "lat": "41.64588025562099"
    },
    {
      "id": "pt.ine.add.PTCONT.590870",
      "street": "R EIDOS",
      "house": "8",
      "postcode": "4730-062",
      "city": "BARBUDO",
      "lon": "-8.45217733020292",
      "lat": "41.64389262074823"
    },
    {
      "id": "pt.ine.add.PTCONT.590871",
      "street": "R EIDOS",
      "house": "2",
      "postcode": "4730-062",
      "city": "BARBUDO",
      "lon": "-8.451422247808042",
      "lat": "41.64411980440301"
    },
    {
      "id": "pt.ine.add.PTCONT.624482",
      "street": "R MIGUEL TORGA",
      "house": "32",
      "postcode": "4730-062",
      "city": "BARBUDO",
      "lon": "-8.45253893264693",
      "lat": "41.64419773914257"
    },
    {
      "id": "pt.ine.add.PTCONT.649009",
      "street": "PC DR DOMINGOS OLIVEIRA LOPES",
      "house": "3",
      "postcode": "4730-062",
      "city": "BARBUDO",
      "lon": "-8.450919521972258",
      "lat": "41.646849288129765"
    },
    {
      "id": "pt.ine.add.PTCONT.658493",
      "street": "R PROF MACHADO VILELA",
      "house": "",
      "postcode": "4730-684",
      "city": "VILA VERDE",
      "lon": "-8.451031811869347",
      "lat": "41.64527334668266"
    },
    {
      "id": "pt.ine.add.PTCONT.667342",
      "street": "BC CAMELIAS",
      "house": "5",
      "postcode": "4730-062",
      "city": "BARBUDO",
      "lon": "-8.452032761216195",
      "lat": "41.64378497864105"
    },
    {
      "id": "pt.ine.add.PTCONT.673192",
      "street": "R PROF MACHADO VILELA",
      "house": "",
      "postcode": "4730-684",
      "city": "VILA VERDE",
      "lon": "-8.451009619852474",
      "lat": "41.64564255591558"
    },
    {
      "id": "pt.ine.add.PTCONT.690975",
      "street": "R EIDOS",
      "house": "1",
      "postcode": "4730-062",
      "city": "BARBUDO",
      "lon": "-8.451108397459572",
      "lat": "41.643760528740145"
    },
    {
      "id": "pt.ine.add.PTCONT.697048",
      "street": "R PROF MACHADO VILELA",
      "house": "56",
      "postcode": "4730-684",
      "city": "VILA VERDE",
      "lon": "-8.45128007136752",
      "lat": "41.64449834956526"
    },
    {
      "id": "pt.ine.add.PTCONT.702919",
      "street": "R EIDOS",
      "house": "",
      "postcode": "4730-062",
      "city": "BARBUDO",
      "lon": "-8.451396956729601",
      "lat": "41.64385876978907"
    },
    {
      "id": "pt.ine.add.PTCONT.702944",
      "street": "R MIGUEL TORGA",
      "house": "3",
      "postcode": "4730-062",
      "city": "BARBUDO",
      "lon": "-8.452582324672667",
      "lat": "41.64569221729623"
    },
    {
      "id": "pt.ine.add.PTCONT.756769",
      "street": "R DR MACEDO BARBOSA",
      "house": "3",
      "postcode": "4730-062",
      "city": "BARBUDO",
      "lon": "-8.45144621641584",
      "lat": "41.64655071175459"
    },
    {
      "id": "pt.ine.add.PTCONT.801779",
      "street": "R EIDOS",
      "house": "",
      "postcode": "4730-062",
      "city": "BARBUDO",
      "lon": "-8.451637593433137",
      "lat": "41.64397515013459"
    },
    {
      "id": "pt.ine.add.PTCONT.808542",
      "street": "R EIDOS",
      "house": "1",
      "postcode": "4730-062",
      "city": "BARBUDO",
      "lon": "-8.451902237112156",
      "lat": "41.64409146339573"
    },
    {
      "id": "pt.ine.add.PTCONT.814060",
      "street": "R PROF MACHADO VILELA",
      "house": "40",
      "postcode": "4730-684",
      "city": "VILA VERDE",
      "lon": "-8.450951771355312",
      "lat": "41.64608389256317"
    },
    {
      "id": "pt.ine.add.PTCONT.830513",
      "street": "R EIDOS",
      "house": "4",
      "postcode": "4730-062",
      "city": "BARBUDO",
      "lon": "-8.451314796122164",
      "lat": "41.64423714881355"
    },
    {
      "id": "pt.ine.add.PTCONT.831980",
      "street": "BC CAMÃ‰LIAS",
      "house": "2",
      "postcode": "4730-062",
      "city": "BARBUDO",
      "lon": "-8.451733085441997",
      "lat": "41.643866842177886"
    },
    {
      "id": "pt.ine.add.PTCONT.839770",
      "street": "R DR MACEDO BARBOSA",
      "house": "",
      "postcode": "4730-062",
      "city": "BARBUDO",
      "lon": "-8.451158707742389",
      "lat": "41.64666855448564"
    }
  ]
}