{
  "data": {
    "distrito": "Leiria",
    "concelho": "Alcobaça",
    "freguesia": "São Martinho do Porto",
    "OBJECTID": 923,
    "BGRI2021": "10011200712",
    "DT21": "10",
    "DTMN21": "1001",
    "DTMNFR21": "100112",
    "DTMNFRSEC21": "100112007",
    "SECNUM21": "007",
    "SSNUM21": "12",
    "SECSSNUM21": "00712",
    "OBJECTID_1": 84764,
    "DT": "10",
    "CC": "01",
    "fr": "12",
    "SEC": "007",
    "SS": "12"
  },
  "addresses": [
    {
      "id": "pt.ine.add.PTCONT.1984160",
      "street": "R 1 DE MAIO",
      "house": "39",
      "postcode": "2460-698",
      "city": "SÃO MARTINHO DO PORTO",
      "lon": "-9.105549657296992",
      "lat": "39.51232697767387"
    },
    {
      "id": "pt.ine.add.PTCONT.2021355",
      "street": "CSL SOL POSTO",
      "house": "",
      "postcode": "2460-698",
      "city": "SÃO MARTINHO DO PORTO",
      "lon": "-9.103968116700123",
      "lat": "39.51649228807626"
    },
    {
      "id": "pt.ine.add.PTCONT.2085778",
      "street": "CSL SOL POSTO",
      "house": "",
      "postcode": "2460-698",
      "city": "SÃO MARTINHO DO PORTO",
      "lon": "-9.102947851059094",
      "lat": "39.51336647114663"
    },
    {
      "id": "pt.ine.add.PTCONT.2104756",
      "street": "R MELVAS",
      "house": "3",
      "postcode": "2460-698",
      "city": "SÃO MARTINHO DO PORTO",
      "lon": "-9.105832837252585",
      "lat": "39.51262182983621"
    },
    {
      "id": "pt.ine.add.PTCONT.2127862",
      "street": "R 1 DE MAIO",
      "house": "45",
      "postcode": "2460-698",
      "city": "SÃO MARTINHO DO PORTO",
      "lon": "-9.105318383228541",
      "lat": "39.512418979169105"
    },
    {
      "id": "pt.ine.add.PTCONT.2146415",
      "street": "R MELVAS",
      "house": "11",
      "postcode": "2460-698",
      "city": "SÃO MARTINHO DO PORTO",
      "lon": "-9.106133299953093",
      "lat": "39.51332183841949"
    },
    {
      "id": "pt.ine.add.PTCONT.2227409",
      "street": "R MELVAS",
      "house": "9",
      "postcode": "2460-698",
      "city": "SÃO MARTINHO DO PORTO",
      "lon": "-9.106036141177144",
      "lat": "39.513025430306314"
    },
    {
      "id": "pt.ine.add.PTCONT.2238453",
      "street": "R 1 DE MAIO",
      "house": "41",
      "postcode": "2460-698",
      "city": "SÃO MARTINHO DO PORTO",
      "lon": "-9.105373628269549",
      "lat": "39.51221136284485"
    },
    {
      "id": "pt.ine.add.PTCONT.2238454",
      "street": "R 1 DE MAIO",
      "house": "41",
      "postcode": "2460-698",
      "city": "SÃO MARTINHO DO PORTO",
      "lon": "-9.105373628269549",
      "lat": "39.51221136284485"
    },
    {
      "id": "pt.ine.add.PTCONT.2258667",
      "street": "R MELVAS",
      "house": "5",
      "postcode": "2460-698",
      "city": "SÃO MARTINHO DO PORTO",
      "lon": "-9.106033251774978",
      "lat": "39.512818300230464"
    }
  ]
}