{
  "data": {
    "distrito": "Bragança",
    "concelho": "Macedo de Cavaleiros",
    "freguesia": "Sezulfe",
    "OBJECTID": 641,
    "BGRI2021": "04052800111",
    "DT21": "04",
    "DTMN21": "0405",
    "DTMNFR21": "040528",
    "DTMNFRSEC21": "040528001",
    "SECNUM21": "001",
    "SSNUM21": "11",
    "SECSSNUM21": "00111",
    "OBJECTID_1": 35741,
    "DT": "04",
    "CC": "05",
    "fr": "28",
    "SEC": "001",
    "SS": "11"
  },
  "addresses": [
    {
      "id": "pt.ine.add.PTCONT.850514",
      "street": "R CABEÇO DA ADREIRA",
      "house": "",
      "postcode": "5340-422",
      "city": "SESULFE",
      "lon": "-7.008399627452165",
      "lat": "41.561294857621995"
    },
    {
      "id": "pt.ine.add.PTCONT.864060",
      "street": "",
      "house": "",
      "postcode": "5340-422",
      "city": "SESULFE",
      "lon": "-7.009642989376999",
      "lat": "41.56218035761781"
    },
    {
      "id": "pt.ine.add.PTCONT.870446",
      "street": "EN 216",
      "house": "",
      "postcode": "5340-422",
      "city": "SESULFE",
      "lon": "-7.0077802815045045",
      "lat": "41.56106370870479"
    },
    {
      "id": "pt.ine.add.PTCONT.871973",
      "street": "EN 216",
      "house": "",
      "postcode": "5340-422",
      "city": "SESULFE",
      "lon": "-7.002157710076659",
      "lat": "41.56177384002347"
    },
    {
      "id": "pt.ine.add.PTCONT.883406",
      "street": "EN 216",
      "house": "",
      "postcode": "5340-422",
      "city": "SESULFE",
      "lon": "-7.005542180285258",
      "lat": "41.560168437256685"
    },
    {
      "id": "pt.ine.add.PTCONT.888535",
      "street": "EN 216",
      "house": "",
      "postcode": "5340-422",
      "city": "SESULFE",
      "lon": "-7.006920604745265",
      "lat": "41.56086621679305"
    },
    {
      "id": "pt.ine.add.PTCONT.904203",
      "street": "EN 216",
      "house": "",
      "postcode": "5340-422",
      "city": "SESULFE",
      "lon": "-7.007123420702525",
      "lat": "41.560922224499414"
    },
    {
      "id": "pt.ine.add.PTCONT.907035",
      "street": "EN 216",
      "house": "",
      "postcode": "5340-422",
      "city": "SESULFE",
      "lon": "-7.003734584169295",
      "lat": "41.560024646046976"
    },
    {
      "id": "pt.ine.add.PTCONT.914832",
      "street": "EN 216",
      "house": "",
      "postcode": "5340-422",
      "city": "SESULFE",
      "lon": "-7.008022022534578",
      "lat": "41.56094902847239"
    },
    {
      "id": "pt.ine.add.PTCONT.923522",
      "street": "R CABEÇO DA ADREIRA",
      "house": "",
      "postcode": "5340-422",
      "city": "SESULFE",
      "lon": "-7.0083907640169745",
      "lat": "41.56111470003852"
    },
    {
      "id": "pt.ine.add.PTCONT.926279",
      "street": "EN 216",
      "house": "",
      "postcode": "5340-422",
      "city": "SESULFE",
      "lon": "-7.006136913007542",
      "lat": "41.5604353711448"
    },
    {
      "id": "pt.ine.add.PTCONT.932872",
      "street": "EN 216",
      "house": "",
      "postcode": "5340-422",
      "city": "SESULFE",
      "lon": "-7.0063033014286065",
      "lat": "41.56051803386092"
    },
    {
      "id": "pt.ine.add.PTCONT.938390",
      "street": "R CABEÇO DA ADREIRA",
      "house": "",
      "postcode": "5340-422",
      "city": "SESULFE",
      "lon": "-7.008524946507765",
      "lat": "41.560980959426274"
    },
    {
      "id": "pt.ine.add.PTCONT.940180",
      "street": "EN 216",
      "house": "",
      "postcode": "5340-422",
      "city": "SESULFE",
      "lon": "-7.007576370976422",
      "lat": "41.56107071624771"
    },
    {
      "id": "pt.ine.add.PTCONT.943860",
      "street": "R ADREA",
      "house": "",
      "postcode": "5340-422",
      "city": "SESULFE",
      "lon": "-7.008161633136345",
      "lat": "41.56119349025178"
    },
    {
      "id": "pt.ine.add.PTCONT.947268",
      "street": "EN 216",
      "house": "",
      "postcode": "5340-422",
      "city": "SESULFE",
      "lon": "-7.00456157276207",
      "lat": "41.56003276648163"
    },
    {
      "id": "pt.ine.add.PTCONT.949635",
      "street": "",
      "house": "",
      "postcode": "5340-422",
      "city": "SESULFE",
      "lon": "-7.010576955689487",
      "lat": "41.56155022853112"
    }
  ]
}