{
  "data": {
    "distrito": "Faro",
    "concelho": "Faro",
    "freguesia": "União das freguesias de Conceição e Estoi",
    "OBJECTID": 438,
    "BGRI2021": "08050700826",
    "DT21": "08",
    "DTMN21": "0805",
    "DTMNFR21": "080507",
    "DTMNFRSEC21": "080507008",
    "SECNUM21": "008",
    "SSNUM21": "26",
    "SECSSNUM21": "00826",
    "OBJECTID_1": 66027,
    "DT": "08",
    "CC": "05",
    "fr": "07",
    "SEC": "008",
    "SS": "26"
  },
  "addresses": [
    {
      "id": "pt.ine.add.PTCONT.1469624",
      "street": "SIT FERRADEIRA",
      "house": "CP 606A",
      "postcode": "8005-484",
      "city": "FARO",
      "lon": "-7.8888668655106375",
      "lat": "37.05391512150591"
    },
    {
      "id": "pt.ine.add.PTCONT.1481609",
      "street": "SIT BELA CURRAL",
      "house": "44A",
      "postcode": "8005-428",
      "city": "FARO",
      "lon": "-7.889208435213302",
      "lat": "37.04905904450648"
    },
    {
      "id": "pt.ine.add.PTCONT.1481647",
      "street": "TV CASTILHO",
      "house": "12",
      "postcode": "8005-428",
      "city": "FARO",
      "lon": "-7.88772081602372",
      "lat": "37.0537055099921"
    },
    {
      "id": "pt.ine.add.PTCONT.1495896",
      "street": "SIT FERRADEIRA",
      "house": "CP 42C",
      "postcode": "8005-428",
      "city": "FARO",
      "lon": "-7.888282455910695",
      "lat": "37.05035468176694"
    },
    {
      "id": "pt.ine.add.PTCONT.1502083",
      "street": "SIT FERRADEIRA",
      "house": "",
      "postcode": "8005-428",
      "city": "FARO",
      "lon": "-7.888942662212714",
      "lat": "37.05131117907994"
    },
    {
      "id": "pt.ine.add.PTCONT.1509681",
      "street": "SIT FERRADEIRA SOLARINHO DOS TOMILHOS",
      "house": "",
      "postcode": "8005-428",
      "city": "FARO",
      "lon": "-7.88692403968941",
      "lat": "37.053262333995555"
    },
    {
      "id": "pt.ine.add.PTCONT.1523217",
      "street": "SIT FERRADEIRA",
      "house": "",
      "postcode": "8005-418",
      "city": "FARO",
      "lon": "-7.8927780674493615",
      "lat": "37.05071529205761"
    },
    {
      "id": "pt.ine.add.PTCONT.1531410",
      "street": "SIT CALICOS",
      "house": "CP 46A",
      "postcode": "8005-428",
      "city": "FARO",
      "lon": "-7.889216707183461",
      "lat": "37.04998716629185"
    },
    {
      "id": "pt.ine.add.PTCONT.1533580",
      "street": "SIT FERRADEIRA",
      "house": "",
      "postcode": "8005-428",
      "city": "FARO",
      "lon": "-7.888132982052188",
      "lat": "37.05139060645072"
    },
    {
      "id": "pt.ine.add.PTCONT.1547760",
      "street": "SIT CALICOS",
      "house": "",
      "postcode": "8005-428",
      "city": "FARO",
      "lon": "-7.8869255532131195",
      "lat": "37.05279377968226"
    },
    {
      "id": "pt.ine.add.PTCONT.1550999",
      "street": "ESTR FERRADEIRA",
      "house": "",
      "postcode": "8005-428",
      "city": "FARO",
      "lon": "-7.890631017019262",
      "lat": "37.050665869676806"
    },
    {
      "id": "pt.ine.add.PTCONT.1575229",
      "street": "SITIO DA FERRADEIRA",
      "house": "",
      "postcode": "8005-484",
      "city": "FARO",
      "lon": "-7.890528692948209",
      "lat": "37.054558292219184"
    },
    {
      "id": "pt.ine.add.PTCONT.1606909",
      "street": "SIT FERRADEIRA",
      "house": "",
      "postcode": "8005-428",
      "city": "FARO",
      "lon": "-7.888020997184872",
      "lat": "37.051255214315404"
    },
    {
      "id": "pt.ine.add.PTCONT.1608838",
      "street": "SIT FERRADEIRA",
      "house": "CP 602Z",
      "postcode": "8005-428",
      "city": "FARO",
      "lon": "-7.893284092622691",
      "lat": "37.0506712624205"
    },
    {
      "id": "pt.ine.add.PTCONT.1627489",
      "street": "CP 42",
      "house": "",
      "postcode": "8005-428",
      "city": "FARO",
      "lon": "-7.888192666307307",
      "lat": "37.05030944281928"
    },
    {
      "id": "pt.ine.add.PTCONT.1654927",
      "street": "SIT FERRADEIRA",
      "house": "",
      "postcode": "8005-428",
      "city": "FARO",
      "lon": "-7.888159172597631",
      "lat": "37.050237287873784"
    },
    {
      "id": "pt.ine.add.PTCONT.1676027",
      "street": "",
      "house": "",
      "postcode": "8005-428",
      "city": "FARO",
      "lon": "-7.888349762014599",
      "lat": "37.050399874264215"
    },
    {
      "id": "pt.ine.add.PTCONT.1695694",
      "street": "SIT FERRADEIRA",
      "house": "",
      "postcode": "8005-484",
      "city": "FARO",
      "lon": "-7.888473421849895",
      "lat": "37.050400129315335"
    },
    {
      "id": "pt.ine.add.PTCONT.1738413",
      "street": "SIT CALICOS",
      "house": "",
      "postcode": "8005-428",
      "city": "FARO",
      "lon": "-7.889522606565766",
      "lat": "37.052763097508574"
    },
    {
      "id": "pt.ine.add.PTCONT.1741749",
      "street": "SIT FERRADEIRA",
      "house": "",
      "postcode": "8005-428",
      "city": "FARO",
      "lon": "-7.891602776219543",
      "lat": "37.05265021090535"
    },
    {
      "id": "pt.ine.add.PTCONT.1756118",
      "street": "SIT ARRUNHADO",
      "house": "CP 6192",
      "postcode": "8005-428",
      "city": "FARO",
      "lon": "-7.885845955586741",
      "lat": "37.052899663144736"
    },
    {
      "id": "pt.ine.add.PTCONT.1769228",
      "street": "SIT FERRADEIRA",
      "house": "",
      "postcode": "8005-428",
      "city": "FARO",
      "lon": "-7.888447033516237",
      "lat": "37.0516165225887"
    },
    {
      "id": "pt.ine.add.PTCONT.1798481",
      "street": "SIT VALE DA MO",
      "house": "",
      "postcode": "8005-428",
      "city": "FARO",
      "lon": "-7.8892010783138815",
      "lat": "37.05487094527117"
    },
    {
      "id": "pt.ine.add.PTCONT.1805754",
      "street": "SIT FERRADEIRA",
      "house": "",
      "postcode": "8005-428",
      "city": "FARO",
      "lon": "-7.886217151523343",
      "lat": "37.05283736116757"
    },
    {
      "id": "pt.ine.add.PTCONT.1812830",
      "street": "ESTR FERRADEIRA",
      "house": "600 Z",
      "postcode": "8005-428",
      "city": "FARO",
      "lon": "-7.891577901788019",
      "lat": "37.04985683587997"
    },
    {
      "id": "pt.ine.add.PTCONT.1812831",
      "street": "ESTR FERRADEIRA",
      "house": "600 Z",
      "postcode": "8005-428",
      "city": "FARO",
      "lon": "-7.891577901788019",
      "lat": "37.04985683587997"
    },
    {
      "id": "pt.ine.add.PTCONT.1821890",
      "street": "SIT FERRADEIRA",
      "house": "603Z",
      "postcode": "8005-428",
      "city": "FARO",
      "lon": "-7.891478769895305",
      "lat": "37.052758087064035"
    }
  ]
}