{
  "data": {
    "distrito": "Évora",
    "concelho": "Évora",
    "freguesia": "Canaviais",
    "OBJECTID": 834,
    "BGRI2021": "07051500208",
    "DT21": "07",
    "DTMN21": "0705",
    "DTMNFR21": "070515",
    "DTMNFRSEC21": "070515002",
    "SECNUM21": "002",
    "SSNUM21": "08",
    "SECSSNUM21": "00208",
    "OBJECTID_1": 60357,
    "DT": "07",
    "CC": "05",
    "fr": "15",
    "SEC": "002",
    "SS": "08"
  },
  "addresses": [
    {
      "id": "pt.ine.add.PTCONT.1368244",
      "street": "QTA DA BOA ESPERANÇA",
      "house": "",
      "postcode": "7005-839",
      "city": "ÉVORA",
      "lon": "-7.914684349185347",
      "lat": "38.605173792135304"
    },
    {
      "id": "pt.ine.add.PTCONT.1373121",
      "street": "QTA LIBERDADE",
      "house": "",
      "postcode": "7005-839",
      "city": "ÉVORA",
      "lon": "-7.914616997589138",
      "lat": "38.604669198870944"
    },
    {
      "id": "pt.ine.add.PTCONT.1400196",
      "street": "QTA DE S JOÃO",
      "house": "",
      "postcode": "7005-839",
      "city": "ÉVORA",
      "lon": "-7.915627004502193",
      "lat": "38.604752155384126"
    },
    {
      "id": "pt.ine.add.PTCONT.1413741",
      "street": "QTA FUNCHAL",
      "house": "",
      "postcode": "7005-839",
      "city": "ÉVORA",
      "lon": "-7.915981043155437",
      "lat": "38.605365380518165"
    },
    {
      "id": "pt.ine.add.PTCONT.1416939",
      "street": "QTA FUNCHAL",
      "house": "",
      "postcode": "7005-839",
      "city": "ÉVORA",
      "lon": "-7.91622310441214",
      "lat": "38.6050415288378"
    },
    {
      "id": "pt.ine.add.PTCONT.1417437",
      "street": "QTA NOVA DAS FIGUEIRAS",
      "house": "",
      "postcode": "7005-839",
      "city": "ÉVORA",
      "lon": "-7.914205272761209",
      "lat": "38.604154953512754"
    },
    {
      "id": "pt.ine.add.PTCONT.1419083",
      "street": "QTA CASAL PAIS",
      "house": "1",
      "postcode": "7005-839",
      "city": "ÉVORA",
      "lon": "-7.914019400799286",
      "lat": "38.604875273631855"
    },
    {
      "id": "pt.ine.add.PTCONT.1419557",
      "street": "QTA CASAL DE PAIS",
      "house": "",
      "postcode": "7005-839",
      "city": "ÉVORA",
      "lon": "-7.914019400799286",
      "lat": "38.604875273631855"
    },
    {
      "id": "pt.ine.add.PTCONT.1422703",
      "street": "QTA DA BOA ESPERANÇA",
      "house": "",
      "postcode": "7005-839",
      "city": "ÉVORA",
      "lon": "-7.914845454173465",
      "lat": "38.605047975843036"
    },
    {
      "id": "pt.ine.add.PTCONT.1423179",
      "street": "QTA DA BOA ESPERANÇA",
      "house": "",
      "postcode": "7005-839",
      "city": "ÉVORA",
      "lon": "-7.914845454173465",
      "lat": "38.605047975843036"
    },
    {
      "id": "pt.ine.add.PTCONT.1436406",
      "street": "",
      "house": "",
      "postcode": "7005-839",
      "city": "ÉVORA",
      "lon": "-7.914755632699017",
      "lat": "38.604381190443924"
    },
    {
      "id": "pt.ine.add.PTCONT.1453219",
      "street": "QTA ARVORES",
      "house": "",
      "postcode": "7005-839",
      "city": "ÉVORA",
      "lon": "-7.916727259002401",
      "lat": "38.6053667626669"
    }
  ]
}