{
  "data": {
    "distrito": "Évora",
    "concelho": "Évora",
    "freguesia": "Canaviais",
    "OBJECTID": 1576,
    "BGRI2021": "07051500212",
    "DT21": "07",
    "DTMN21": "0705",
    "DTMNFR21": "070515",
    "DTMNFRSEC21": "070515002",
    "SECNUM21": "002",
    "SSNUM21": "12",
    "SECSSNUM21": "00212",
    "OBJECTID_1": 60574,
    "DT": "07",
    "CC": "05",
    "fr": "15",
    "SEC": "002",
    "SS": "12"
  },
  "addresses": [
    {
      "id": "pt.ine.add.PTCONT.1375418",
      "street": "ESTR PATAO",
      "house": "",
      "postcode": "7005-839",
      "city": "ÉVORA",
      "lon": "-7.906356833087427",
      "lat": "38.606545238051716"
    },
    {
      "id": "pt.ine.add.PTCONT.1376726",
      "street": "R PATAO",
      "house": "",
      "postcode": "7005-366",
      "city": "ÉVORA",
      "lon": "-7.906727970967471",
      "lat": "38.605347846560015"
    },
    {
      "id": "pt.ine.add.PTCONT.1385053",
      "street": "R PALMEIRA",
      "house": "",
      "postcode": "7005-366",
      "city": "ÉVORA",
      "lon": "-7.907883476147616",
      "lat": "38.60662926131436"
    },
    {
      "id": "pt.ine.add.PTCONT.1388009",
      "street": "QTA PATAO",
      "house": "",
      "postcode": "7005-839",
      "city": "ÉVORA",
      "lon": "-7.908308856957029",
      "lat": "38.60275648945386"
    },
    {
      "id": "pt.ine.add.PTCONT.1399193",
      "street": "QTA PATAO AOS CANAVIAIS",
      "house": "1",
      "postcode": "7005-279",
      "city": "ÉVORA",
      "lon": "-7.9066191431512705",
      "lat": "38.603446874441325"
    },
    {
      "id": "pt.ine.add.PTCONT.1404662",
      "street": "QTA DO PATÃO",
      "house": "5",
      "postcode": "7005-839",
      "city": "ÉVORA",
      "lon": "-7.906734055654756",
      "lat": "38.60341106338288"
    },
    {
      "id": "pt.ine.add.PTCONT.1407655",
      "street": "ESTR QUINTINHAS DAS CORUNHEIRAS",
      "house": "",
      "postcode": "7005-839",
      "city": "ÉVORA",
      "lon": "-7.908041782405943",
      "lat": "38.60372887797704"
    },
    {
      "id": "pt.ine.add.PTCONT.1430124",
      "street": "AZ 5 CEPAS",
      "house": "",
      "postcode": "7005-187",
      "city": "ÉVORA",
      "lon": "-7.908136777108003",
      "lat": "38.60639553156374"
    },
    {
      "id": "pt.ine.add.PTCONT.1457587",
      "street": "R DA PALMEIRA - QUINTA DO ASSIS",
      "house": "",
      "postcode": "7005-366",
      "city": "ÉVORA",
      "lon": "-7.906123875854633",
      "lat": "38.60760777106189"
    }
  ]
}