{
  "data": {
    "distrito": "Porto",
    "concelho": "Felgueiras",
    "freguesia": "União das freguesias de Margaride (Santa Eulália), Várzea, Lagares, Varziela e Moure",
    "OBJECTID": 404,
    "BGRI2021": "13033501310",
    "DT21": "13",
    "DTMN21": "1303",
    "DTMNFR21": "130335",
    "DTMNFRSEC21": "130335013",
    "SECNUM21": "013",
    "SSNUM21": "10",
    "SECSSNUM21": "01310",
    "OBJECTID_1": 127465,
    "DT": "13",
    "CC": "03",
    "fr": "35",
    "SEC": "013",
    "SS": "10"
  },
  "addresses": [
    {
      "id": "pt.ine.add.PTCONT.3753405",
      "street": "R DEMOCRACIA",
      "house": "151",
      "postcode": "4610-430",
      "city": "FELGUEIRAS",
      "lon": "-8.22229153288779",
      "lat": "41.36411925502037"
    },
    {
      "id": "pt.ine.add.PTCONT.3798763",
      "street": "TV CAPELA",
      "house": "67",
      "postcode": "4610-426",
      "city": "FELGUEIRAS",
      "lon": "-8.221705072320104",
      "lat": "41.36350743166215"
    },
    {
      "id": "pt.ine.add.PTCONT.3844436",
      "street": "R DESPORTO",
      "house": "48",
      "postcode": "4610-430",
      "city": "FELGUEIRAS",
      "lon": "-8.223462332192298",
      "lat": "41.36378519141364"
    },
    {
      "id": "pt.ine.add.PTCONT.3869134",
      "street": "TV CAPELA",
      "house": "39",
      "postcode": "4610-426",
      "city": "FELGUEIRAS",
      "lon": "-8.221800195471076",
      "lat": "41.363147195811344"
    },
    {
      "id": "pt.ine.add.PTCONT.3882340",
      "street": "R DEMOCRACIA",
      "house": "",
      "postcode": "4610-430",
      "city": "FELGUEIRAS",
      "lon": "-8.22201869210705",
      "lat": "41.36562314450464"
    },
    {
      "id": "pt.ine.add.PTCONT.3910463",
      "street": "R DEMOCRACIA EDIFICO POR SOL",
      "house": "300",
      "postcode": "4610-430",
      "city": "FELGUEIRAS",
      "lon": "-8.221599350555314",
      "lat": "41.364867126545136"
    },
    {
      "id": "pt.ine.add.PTCONT.3910464",
      "street": "R DEMOCRACIA",
      "house": "300",
      "postcode": "4610-430",
      "city": "FELGUEIRAS",
      "lon": "-8.221599350555314",
      "lat": "41.364867126545136"
    },
    {
      "id": "pt.ine.add.PTCONT.3910465",
      "street": "R DEMOCRACIA",
      "house": "300",
      "postcode": "4610-430",
      "city": "FELGUEIRAS",
      "lon": "-8.221599350555314",
      "lat": "41.364867126545136"
    },
    {
      "id": "pt.ine.add.PTCONT.3910633",
      "street": "R DEMOCRACIA",
      "house": "300",
      "postcode": "4610-430",
      "city": "FELGUEIRAS",
      "lon": "-8.221599350555314",
      "lat": "41.364867126545136"
    },
    {
      "id": "pt.ine.add.PTCONT.3910634",
      "street": "R DEMOCRACIA",
      "house": "3000",
      "postcode": "4610-430",
      "city": "FELGUEIRAS",
      "lon": "-8.221599350555314",
      "lat": "41.364867126545136"
    },
    {
      "id": "pt.ine.add.PTCONT.3910635",
      "street": "R DEMOCRACIA",
      "house": "300",
      "postcode": "4610-430",
      "city": "FELGUEIRAS",
      "lon": "-8.221599350555314",
      "lat": "41.364867126545136"
    },
    {
      "id": "pt.ine.add.PTCONT.3910636",
      "street": "R DEMOCRACIA",
      "house": "300",
      "postcode": "4610-430",
      "city": "FELGUEIRAS",
      "lon": "-8.221599350555314",
      "lat": "41.364867126545136"
    },
    {
      "id": "pt.ine.add.PTCONT.3910637",
      "street": "R DEMOCRACIA",
      "house": "300",
      "postcode": "4610-430",
      "city": "FELGUEIRAS",
      "lon": "-8.221599350555314",
      "lat": "41.364867126545136"
    },
    {
      "id": "pt.ine.add.PTCONT.3910638",
      "street": "SEM DESIGNACAO",
      "house": "284",
      "postcode": "4610-430",
      "city": "FELGUEIRAS",
      "lon": "-8.221754613603222",
      "lat": "41.36478597049434"
    },
    {
      "id": "pt.ine.add.PTCONT.3910639",
      "street": "SEM DESIGNACAO",
      "house": "284",
      "postcode": "4610-430",
      "city": "FELGUEIRAS",
      "lon": "-8.221754613603222",
      "lat": "41.36478597049434"
    },
    {
      "id": "pt.ine.add.PTCONT.3910640",
      "street": "SEM DESIGNACAO",
      "house": "284",
      "postcode": "4610-430",
      "city": "FELGUEIRAS",
      "lon": "-8.221754613603222",
      "lat": "41.36478597049434"
    },
    {
      "id": "pt.ine.add.PTCONT.3910641",
      "street": "R DEMOCRACIA",
      "house": "284",
      "postcode": "4610-430",
      "city": "FELGUEIRAS",
      "lon": "-8.221754613603222",
      "lat": "41.36478597049434"
    },
    {
      "id": "pt.ine.add.PTCONT.3910642",
      "street": "R DEMOCRACIA",
      "house": "",
      "postcode": "4610-430",
      "city": "FELGUEIRAS",
      "lon": "-8.221754613603222",
      "lat": "41.36478597049434"
    },
    {
      "id": "pt.ine.add.PTCONT.3910643",
      "street": "R DEMOCRACIA",
      "house": "284",
      "postcode": "4610-430",
      "city": "FELGUEIRAS",
      "lon": "-8.221754613603222",
      "lat": "41.36478597049434"
    },
    {
      "id": "pt.ine.add.PTCONT.3910644",
      "street": "SEM DESIGNACAO",
      "house": "284",
      "postcode": "4610-430",
      "city": "FELGUEIRAS",
      "lon": "-8.221754613603222",
      "lat": "41.36478597049434"
    },
    {
      "id": "pt.ine.add.PTCONT.3913425",
      "street": "SEM DESIGNACAO",
      "house": "284",
      "postcode": "4610-430",
      "city": "FELGUEIRAS",
      "lon": "-8.221754613603222",
      "lat": "41.36478597049434"
    },
    {
      "id": "pt.ine.add.PTCONT.3921670",
      "street": "R ESTRADA",
      "house": "160",
      "postcode": "4610-426",
      "city": "FELGUEIRAS",
      "lon": "-8.222433474913595",
      "lat": "41.3630386572413"
    },
    {
      "id": "pt.ine.add.PTCONT.3921671",
      "street": "R DEMOCRACIA",
      "house": "314",
      "postcode": "4610-430",
      "city": "FELGUEIRAS",
      "lon": "-8.22143213533501",
      "lat": "41.36494829155904"
    },
    {
      "id": "pt.ine.add.PTCONT.3921672",
      "street": "R DEMOCRACIA",
      "house": "314",
      "postcode": "4610-430",
      "city": "FELGUEIRAS",
      "lon": "-8.22143213533501",
      "lat": "41.36494829155904"
    },
    {
      "id": "pt.ine.add.PTCONT.3921673",
      "street": "R DEMOCRACIA",
      "house": "314",
      "postcode": "4610-430",
      "city": "FELGUEIRAS",
      "lon": "-8.22143213533501",
      "lat": "41.36494829155904"
    },
    {
      "id": "pt.ine.add.PTCONT.3921674",
      "street": "R DEMOCRACIA",
      "house": "314",
      "postcode": "4610-430",
      "city": "FELGUEIRAS",
      "lon": "-8.22143213533501",
      "lat": "41.36494829155904"
    },
    {
      "id": "pt.ine.add.PTCONT.3921675",
      "street": "R DEMOCRACIA",
      "house": "314",
      "postcode": "4610-430",
      "city": "FELGUEIRAS",
      "lon": "-8.22143213533501",
      "lat": "41.36494829155904"
    },
    {
      "id": "pt.ine.add.PTCONT.3921676",
      "street": "R DEMOCRACIA",
      "house": "314",
      "postcode": "4610-430",
      "city": "FELGUEIRAS",
      "lon": "-8.22143213533501",
      "lat": "41.36494829155904"
    },
    {
      "id": "pt.ine.add.PTCONT.3921677",
      "street": "R DEMOCRACIA",
      "house": "314",
      "postcode": "4610-430",
      "city": "FELGUEIRAS",
      "lon": "-8.22143213533501",
      "lat": "41.36494829155904"
    },
    {
      "id": "pt.ine.add.PTCONT.3921678",
      "street": "R DEMOCRACIA",
      "house": "314",
      "postcode": "4610-430",
      "city": "FELGUEIRAS",
      "lon": "-8.22143213533501",
      "lat": "41.36494829155904"
    },
    {
      "id": "pt.ine.add.PTCONT.3928165",
      "street": "TV CAPELA",
      "house": "15",
      "postcode": "4610-426",
      "city": "FELGUEIRAS",
      "lon": "-8.221991149235023",
      "lat": "41.36294895906136"
    },
    {
      "id": "pt.ine.add.PTCONT.4128835",
      "street": "R DEMOCRACIA",
      "house": "423",
      "postcode": "4610-430",
      "city": "FELGUEIRAS",
      "lon": "-8.222174201993393",
      "lat": "41.36572206892564"
    },
    {
      "id": "pt.ine.add.PTCONT.4240485",
      "street": "R DEMOCRACIA",
      "house": "106",
      "postcode": "4610-430",
      "city": "FELGUEIRAS",
      "lon": "-8.222147340022518",
      "lat": "41.36355211065624"
    }
  ]
}