{
  "data": {
    "distrito": "Porto",
    "concelho": "Felgueiras",
    "freguesia": "União das freguesias de Margaride (Santa Eulália), Várzea, Lagares, Varziela e Moure",
    "OBJECTID": 610,
    "BGRI2021": "13033501324",
    "DT21": "13",
    "DTMN21": "1303",
    "DTMNFR21": "130335",
    "DTMNFRSEC21": "130335013",
    "SECNUM21": "013",
    "SSNUM21": "24",
    "SECSSNUM21": "01324",
    "OBJECTID_1": 127333,
    "DT": "13",
    "CC": "03",
    "fr": "35",
    "SEC": "013",
    "SS": "24"
  },
  "addresses": [
    {
      "id": "pt.ine.add.PTCONT.3649292",
      "street": "R PADRE JOSE PEIXOTO DIAS",
      "house": "52",
      "postcode": "4610-421",
      "city": "FELGUEIRAS",
      "lon": "-8.234247458595195",
      "lat": "41.36688261952742"
    },
    {
      "id": "pt.ine.add.PTCONT.3654503",
      "street": "R PADRE JOSE PEIXOTO DIAS",
      "house": "52",
      "postcode": "4610-421",
      "city": "FELGUEIRAS",
      "lon": "-8.234247458595195",
      "lat": "41.36688261952742"
    },
    {
      "id": "pt.ine.add.PTCONT.3656713",
      "street": "R MONTE DAS RUAS",
      "house": "1470",
      "postcode": "4610-426",
      "city": "FELGUEIRAS",
      "lon": "-8.230914558045066",
      "lat": "41.3600694239077"
    },
    {
      "id": "pt.ine.add.PTCONT.3656714",
      "street": "R NOVA DE TOZAR",
      "house": "",
      "postcode": "4610-413",
      "city": "FELGUEIRAS",
      "lon": "-8.232122525960241",
      "lat": "41.360680667650456"
    },
    {
      "id": "pt.ine.add.PTCONT.3660868",
      "street": "R MONTE DAS RUAS",
      "house": "1470",
      "postcode": "4610-426",
      "city": "FELGUEIRAS",
      "lon": "-8.230914558045066",
      "lat": "41.3600694239077"
    },
    {
      "id": "pt.ine.add.PTCONT.3721056",
      "street": "R NOVA DE TOZAR",
      "house": "767",
      "postcode": "4610-413",
      "city": "FELGUEIRAS",
      "lon": "-8.231415113921805",
      "lat": "41.367092167200624"
    },
    {
      "id": "pt.ine.add.PTCONT.3750966",
      "street": "TV RIBEIRINHO",
      "house": "2",
      "postcode": "4610-406",
      "city": "FELGUEIRAS",
      "lon": "-8.233187130695896",
      "lat": "41.36131003153671"
    },
    {
      "id": "pt.ine.add.PTCONT.3759755",
      "street": "R NOVA DE TOZAR",
      "house": "",
      "postcode": "4610-413",
      "city": "FELGUEIRAS",
      "lon": "-8.231691950188784",
      "lat": "41.36045593557904"
    },
    {
      "id": "pt.ine.add.PTCONT.3869061",
      "street": "R NOVA DE TOZAR",
      "house": "139",
      "postcode": "4610-413",
      "city": "FELGUEIRAS",
      "lon": "-8.231873447148716",
      "lat": "41.361932447042065"
    },
    {
      "id": "pt.ine.add.PTCONT.3934288",
      "street": "R NOVA TOZAR",
      "house": "149",
      "postcode": "4610-413",
      "city": "FELGUEIRAS",
      "lon": "-8.231657442046297",
      "lat": "41.36134736786779"
    },
    {
      "id": "pt.ine.add.PTCONT.3934289",
      "street": "R NOVA TOZAR",
      "house": "141",
      "postcode": "4610-413",
      "city": "FELGUEIRAS",
      "lon": "-8.231657442046297",
      "lat": "41.36134736786779"
    },
    {
      "id": "pt.ine.add.PTCONT.4056951",
      "street": "TV OLEIRINHOS",
      "house": "44",
      "postcode": "4610-427",
      "city": "FELGUEIRAS",
      "lon": "-8.233829397661424",
      "lat": "41.367054063287426"
    },
    {
      "id": "pt.ine.add.PTCONT.4063932",
      "street": "R PADRE JOSE PEIXOTO DIAS",
      "house": "860",
      "postcode": "4610-421",
      "city": "FELGUEIRAS",
      "lon": "-8.23524107693621",
      "lat": "41.367899200525784"
    },
    {
      "id": "pt.ine.add.PTCONT.4076721",
      "street": "R EIDO",
      "house": "202",
      "postcode": "4610-415",
      "city": "FELGUEIRAS",
      "lon": "-8.232649152077194",
      "lat": "41.36119344523259"
    },
    {
      "id": "pt.ine.add.PTCONT.4076722",
      "street": "R EIDO",
      "house": "202",
      "postcode": "4610-415",
      "city": "FELGUEIRAS",
      "lon": "-8.232649152077194",
      "lat": "41.36119344523259"
    },
    {
      "id": "pt.ine.add.PTCONT.4122506",
      "street": "R OLEIROS",
      "house": "150",
      "postcode": "4610-427",
      "city": "FELGUEIRAS",
      "lon": "-8.234117753641373",
      "lat": "41.36802624876569"
    },
    {
      "id": "pt.ine.add.PTCONT.4227104",
      "street": "R EIDO",
      "house": "144",
      "postcode": "4610-415",
      "city": "FELGUEIRAS",
      "lon": "-8.232313933422144",
      "lat": "41.360806559768506"
    },
    {
      "id": "pt.ine.add.PTCONT.4231933",
      "street": "R PADRE JOSE PEIXOTO DIAS",
      "house": "1260",
      "postcode": "4610-421",
      "city": "FELGUEIRAS",
      "lon": "-8.235670497977749",
      "lat": "41.36734957112537"
    },
    {
      "id": "pt.ine.add.PTCONT.4240523",
      "street": "R NOVA DE TOZAR",
      "house": "",
      "postcode": "4610-413",
      "city": "FELGUEIRAS",
      "lon": "-8.231957460020999",
      "lat": "41.36216648063337"
    },
    {
      "id": "pt.ine.add.PTCONT.4260053",
      "street": "R EIDO",
      "house": "244",
      "postcode": "4610-415",
      "city": "FELGUEIRAS",
      "lon": "-8.233091439075377",
      "lat": "41.36125609030681"
    },
    {
      "id": "pt.ine.add.PTCONT.4260054",
      "street": "R NOVA DE TOZAR",
      "house": "244",
      "postcode": "4610-413",
      "city": "FELGUEIRAS",
      "lon": "-8.233091439075377",
      "lat": "41.36125609030681"
    },
    {
      "id": "pt.ine.add.PTCONT.4266551",
      "street": "R NOVA TOZAR",
      "house": "",
      "postcode": "4610-413",
      "city": "FELGUEIRAS",
      "lon": "-8.232172869703435",
      "lat": "41.362355380794185"
    },
    {
      "id": "pt.ine.add.PTCONT.4300417",
      "street": "R NSA SRA DE FÁTIMA",
      "house": "219",
      "postcode": "4610-416",
      "city": "FELGUEIRAS",
      "lon": "-8.23040242507964",
      "lat": "41.369272009520664"
    },
    {
      "id": "pt.ine.add.PTCONT.4300443",
      "street": "R OLEIROS",
      "house": "",
      "postcode": "4610-427",
      "city": "FELGUEIRAS",
      "lon": "-8.233889672578503",
      "lat": "41.36738716066532"
    },
    {
      "id": "pt.ine.add.PTCONT.4320455",
      "street": "R OLEIROS",
      "house": "150",
      "postcode": "4610-427",
      "city": "FELGUEIRAS",
      "lon": "-8.233855024279867",
      "lat": "41.36817054397466"
    },
    {
      "id": "pt.ine.add.PTCONT.4320456",
      "street": "TV OLEIRINHOS",
      "house": "66",
      "postcode": "4610-427",
      "city": "FELGUEIRAS",
      "lon": "-8.23404404964076",
      "lat": "41.36673873317336"
    },
    {
      "id": "pt.ine.add.PTCONT.4346180",
      "street": "R NOVA DE TOZAR",
      "house": "",
      "postcode": "4610-413",
      "city": "FELGUEIRAS",
      "lon": "-8.231404882802044",
      "lat": "41.36823569123152"
    },
    {
      "id": "pt.ine.add.PTCONT.4386813",
      "street": "R NSA SRA DE FÁTIMA",
      "house": "257",
      "postcode": "4610-416",
      "city": "FELGUEIRAS",
      "lon": "-8.23065389985987",
      "lat": "41.3695869385527"
    }
  ]
}