{
  "data": {
    "distrito": "Setúbal",
    "concelho": "Seixal",
    "freguesia": "Fernão Ferro",
    "OBJECTID": 79,
    "BGRI2021": "15100600162",
    "DT21": "15",
    "DTMN21": "1510",
    "DTMNFR21": "151006",
    "DTMNFRSEC21": "151006001",
    "SECNUM21": "001",
    "SSNUM21": "62",
    "SECSSNUM21": "00162",
    "OBJECTID_1": 167353,
    "DT": "15",
    "CC": "10",
    "fr": "06",
    "SEC": "001",
    "SS": "62"
  },
  "addresses": [
    {
      "id": "pt.ine.add.PTCONT.4676656",
      "street": "R JOANA VAZ",
      "house": "",
      "postcode": "2865-293",
      "city": "FERNÃO FERRO",
      "lon": "-9.066074091804015",
      "lat": "38.54796102495196"
    },
    {
      "id": "pt.ine.add.PTCONT.4719806",
      "street": "R JOANA VAZ",
      "house": "",
      "postcode": "2865-293",
      "city": "FERNÃO FERRO",
      "lon": "-9.066608274743768",
      "lat": "38.54757842294439"
    },
    {
      "id": "pt.ine.add.PTCONT.4723827",
      "street": "R ADRIANO DE PAIVA",
      "house": "",
      "postcode": "2865-211",
      "city": "FERNÃO FERRO",
      "lon": "-9.065327909866923",
      "lat": "38.54880473013336"
    },
    {
      "id": "pt.ine.add.PTCONT.4727630",
      "street": "AV 5 DE OUTUBRO",
      "house": "",
      "postcode": "2865-200",
      "city": "FERNÃO FERRO",
      "lon": "-9.064359947459858",
      "lat": "38.54935292502388"
    },
    {
      "id": "pt.ine.add.PTCONT.4797587",
      "street": "R ADRIANO DE PAIVA",
      "house": "",
      "postcode": "2865-211",
      "city": "FERNÃO FERRO",
      "lon": "-9.065066081001753",
      "lat": "38.54895995389905"
    },
    {
      "id": "pt.ine.add.PTCONT.4821327",
      "street": "R JOANA VAZ",
      "house": "",
      "postcode": "2865-293",
      "city": "FERNÃO FERRO",
      "lon": "-9.066209981626576",
      "lat": "38.54782481917631"
    },
    {
      "id": "pt.ine.add.PTCONT.4834291",
      "street": "R JOANA VAZ",
      "house": "",
      "postcode": "2865-293",
      "city": "FERNÃO FERRO",
      "lon": "-9.06521158372809",
      "lat": "38.548679541862796"
    },
    {
      "id": "pt.ine.add.PTCONT.4877561",
      "street": "R ADRIANO DE PAIVA",
      "house": "",
      "postcode": "2865-211",
      "city": "FERNÃO FERRO",
      "lon": "-9.064611820262034",
      "lat": "38.549314888404346"
    },
    {
      "id": "pt.ine.add.PTCONT.4884327",
      "street": "R JOANA VAZ",
      "house": "",
      "postcode": "2865-293",
      "city": "FERNÃO FERRO",
      "lon": "-9.065812616693162",
      "lat": "38.548143272113705"
    },
    {
      "id": "pt.ine.add.PTCONT.4944842",
      "street": "R ADRIANO DE PAIVA",
      "house": "",
      "postcode": "2865-211",
      "city": "FERNÃO FERRO",
      "lon": "-9.066634125574469",
      "lat": "38.54780342135273"
    },
    {
      "id": "pt.ine.add.PTCONT.4981316",
      "street": "R JOANA VAZ",
      "house": "",
      "postcode": "2865-293",
      "city": "FERNÃO FERRO",
      "lon": "-9.065063755519965",
      "lat": "38.548779808792474"
    },
    {
      "id": "pt.ine.add.PTCONT.4981317",
      "street": "R JOANA VAZ",
      "house": "",
      "postcode": "2865-293",
      "city": "FERNÃO FERRO",
      "lon": "-9.066358039145992",
      "lat": "38.54774256533515"
    },
    {
      "id": "pt.ine.add.PTCONT.5025125",
      "street": "R ALFREDO BENSAÚDE",
      "house": "",
      "postcode": "2865-214",
      "city": "FERNÃO FERRO",
      "lon": "-9.064328210016694",
      "lat": "38.549560365640126"
    },
    {
      "id": "pt.ine.add.PTCONT.5025126",
      "street": "R ADRIANO DE PAIVA",
      "house": "",
      "postcode": "2865-211",
      "city": "FERNÃO FERRO",
      "lon": "-9.065439699906069",
      "lat": "38.54857863535353"
    },
    {
      "id": "pt.ine.add.PTCONT.5050705",
      "street": "R ALFREDO BENSAÚDE",
      "house": "",
      "postcode": "2865-214",
      "city": "FERNÃO FERRO",
      "lon": "-9.06445809767539",
      "lat": "38.54984759411884"
    },
    {
      "id": "pt.ine.add.PTCONT.5076513",
      "street": "R ADRIANO DE PAIVA",
      "house": "",
      "postcode": "2865-211",
      "city": "FERNÃO FERRO",
      "lon": "-9.066145005108162",
      "lat": "38.54812260705768"
    },
    {
      "id": "pt.ine.add.PTCONT.5100159",
      "street": "R ADRIANO DE PAIVA",
      "house": "",
      "postcode": "2865-211",
      "city": "FERNÃO FERRO",
      "lon": "-9.06637241959868",
      "lat": "38.547967655238594"
    },
    {
      "id": "pt.ine.add.PTCONT.5105988",
      "street": "R ADRIANO DE PAIVA",
      "house": "4831",
      "postcode": "2865-211",
      "city": "FERNÃO FERRO",
      "lon": "-9.06675912681951",
      "lat": "38.547712342678636"
    }
  ]
}