{
  "data": {
    "distrito": "Setúbal",
    "concelho": "Almada",
    "freguesia": "União das freguesias de Charneca de Caparica e Sobreda",
    "OBJECTID": 1201,
    "BGRI2021": "15031403610",
    "DT21": "15",
    "DTMN21": "1503",
    "DTMNFR21": "150314",
    "DTMNFRSEC21": "150314036",
    "SECNUM21": "036",
    "SSNUM21": "10",
    "SECSSNUM21": "03610",
    "OBJECTID_1": 160843,
    "DT": "15",
    "CC": "03",
    "fr": "14",
    "SEC": "036",
    "SS": "10"
  },
  "addresses": [
    {
      "id": "pt.ine.add.PTCONT.4675405",
      "street": "R DOMINGOS REBELO",
      "house": "18",
      "postcode": "2820-036",
      "city": "CHARNECA DA CAPARICA",
      "lon": "-9.170954675994242",
      "lat": "38.588046981144274"
    },
    {
      "id": "pt.ine.add.PTCONT.4686609",
      "street": "AV ANTÓNIO PEDRO",
      "house": "",
      "postcode": "2820-036",
      "city": "CHARNECA DA CAPARICA",
      "lon": "-9.171560247246621",
      "lat": "38.5902485828511"
    },
    {
      "id": "pt.ine.add.PTCONT.4715119",
      "street": "R D DINIZ",
      "house": "21",
      "postcode": "2820-036",
      "city": "CHARNECA DA CAPARICA",
      "lon": "-9.173623851300706",
      "lat": "38.59008612404518"
    },
    {
      "id": "pt.ine.add.PTCONT.4720792",
      "street": "R FLOR DA AROEIRA",
      "house": "",
      "postcode": "2820-036",
      "city": "CHARNECA DA CAPARICA",
      "lon": "-9.172142487210595",
      "lat": "38.590828938265304"
    },
    {
      "id": "pt.ine.add.PTCONT.4737548",
      "street": "R FLOR DA AROEIRA",
      "house": "",
      "postcode": "2820-036",
      "city": "CHARNECA DA CAPARICA",
      "lon": "-9.171954845414922",
      "lat": "38.59055135447617"
    },
    {
      "id": "pt.ine.add.PTCONT.4744726",
      "street": "R D DINIZ",
      "house": "3",
      "postcode": "2820-036",
      "city": "CHARNECA DA CAPARICA",
      "lon": "-9.172124987623409",
      "lat": "38.59120743185206"
    },
    {
      "id": "pt.ine.add.PTCONT.4748817",
      "street": "R FLOR DA AROEIRA",
      "house": "",
      "postcode": "2820-036",
      "city": "CHARNECA DA CAPARICA",
      "lon": "-9.171864464509413",
      "lat": "38.59065124534781"
    },
    {
      "id": "pt.ine.add.PTCONT.4752922",
      "street": "R FLOR DA AROEIRA",
      "house": "20",
      "postcode": "2820-036",
      "city": "CHARNECA DA CAPARICA",
      "lon": "-9.173167888288308",
      "lat": "38.590114925989084"
    },
    {
      "id": "pt.ine.add.PTCONT.4773896",
      "street": "R ANTÓNIO DACOSTA",
      "house": "34",
      "postcode": "2820-034",
      "city": "CHARNECA DA CAPARICA",
      "lon": "-9.173575867286294",
      "lat": "38.58994242182308"
    },
    {
      "id": "pt.ine.add.PTCONT.4776705",
      "street": "R D DINIZ",
      "house": "17",
      "postcode": "2820-036",
      "city": "CHARNECA DA CAPARICA",
      "lon": "-9.173214224289625",
      "lat": "38.59033298288431"
    },
    {
      "id": "pt.ine.add.PTCONT.4781048",
      "street": "R DOMINGOS REBELO",
      "house": "24",
      "postcode": "2820-036",
      "city": "CHARNECA DA CAPARICA",
      "lon": "-9.171240141273735",
      "lat": "38.58794536055408"
    },
    {
      "id": "pt.ine.add.PTCONT.4787619",
      "street": "R FLOR DA AROEIRA",
      "house": "18",
      "postcode": "2820-036",
      "city": "CHARNECA DA CAPARICA",
      "lon": "-9.173050587516766",
      "lat": "38.59020292857483"
    },
    {
      "id": "pt.ine.add.PTCONT.4791300",
      "street": "R ANTÓNIO DA COSTA",
      "house": "39",
      "postcode": "2820-034",
      "city": "CHARNECA DA CAPARICA",
      "lon": "-9.173228209182247",
      "lat": "38.58971130289611"
    },
    {
      "id": "pt.ine.add.PTCONT.4791301",
      "street": "R FLOR DA AROEIRA",
      "house": "",
      "postcode": "2820-036",
      "city": "CHARNECA DA CAPARICA",
      "lon": "-9.172043927946802",
      "lat": "38.59036139452415"
    },
    {
      "id": "pt.ine.add.PTCONT.4794724",
      "street": "R D DINIZ",
      "house": "15",
      "postcode": "2820-036",
      "city": "CHARNECA DA CAPARICA",
      "lon": "-9.172987302162774",
      "lat": "38.590515160568835"
    },
    {
      "id": "pt.ine.add.PTCONT.4808920",
      "street": "R D DINIZ",
      "house": "3 A",
      "postcode": "2820-036",
      "city": "CHARNECA DA CAPARICA",
      "lon": "-9.172167906219531",
      "lat": "38.59099986557915"
    },
    {
      "id": "pt.ine.add.PTCONT.4808921",
      "street": "AV ANTÓNIO PEDRO",
      "house": "",
      "postcode": "2820-036",
      "city": "CHARNECA DA CAPARICA",
      "lon": "-9.171489574683353",
      "lat": "38.59012309719413"
    },
    {
      "id": "pt.ine.add.PTCONT.4812064",
      "street": "R D DINIZ",
      "house": "",
      "postcode": "2820-036",
      "city": "CHARNECA DA CAPARICA",
      "lon": "-9.172304321490797",
      "lat": "38.59090857375159"
    },
    {
      "id": "pt.ine.add.PTCONT.4826744",
      "street": "AV ANTÓNIO PEDRO",
      "house": "",
      "postcode": "2820-036",
      "city": "CHARNECA DA CAPARICA",
      "lon": "-9.171520441234284",
      "lat": "38.59067231460559"
    },
    {
      "id": "pt.ine.add.PTCONT.4835930",
      "street": "AV ANTÓNIO PEDRO",
      "house": "5",
      "postcode": "2820-036",
      "city": "CHARNECA DA CAPARICA",
      "lon": "-9.171299282110615",
      "lat": "38.59045808352856"
    },
    {
      "id": "pt.ine.add.PTCONT.4840765",
      "street": "R FLOR DA AROEIRA",
      "house": "17",
      "postcode": "2820-036",
      "city": "CHARNECA DA CAPARICA",
      "lon": "-9.172771568978566",
      "lat": "38.59037691294579"
    },
    {
      "id": "pt.ine.add.PTCONT.4875742",
      "street": "R DOMINGOS REBELO",
      "house": "",
      "postcode": "2820-036",
      "city": "CHARNECA DA CAPARICA",
      "lon": "-9.170443713610466",
      "lat": "38.588429849855856"
    },
    {
      "id": "pt.ine.add.PTCONT.4878978",
      "street": "R DOMINGOS REBELO",
      "house": "",
      "postcode": "2820-036",
      "city": "CHARNECA DA CAPARICA",
      "lon": "-9.171056141624478",
      "lat": "38.58791996845637"
    },
    {
      "id": "pt.ine.add.PTCONT.4898447",
      "street": "R FLOR DA AROEIRA",
      "house": "22",
      "postcode": "2820-036",
      "city": "CHARNECA DA CAPARICA",
      "lon": "-9.173223822782091",
      "lat": "38.58997072158412"
    },
    {
      "id": "pt.ine.add.PTCONT.4907507",
      "street": "R D DINIZ",
      "house": "7",
      "postcode": "2820-036",
      "city": "CHARNECA DA CAPARICA",
      "lon": "-9.172498376736195",
      "lat": "38.59083478594203"
    },
    {
      "id": "pt.ine.add.PTCONT.4921771",
      "street": "R FLOR DA AROEIRA",
      "house": "",
      "postcode": "2820-036",
      "city": "CHARNECA DA CAPARICA",
      "lon": "-9.172171852203366",
      "lat": "38.590477363462306"
    },
    {
      "id": "pt.ine.add.PTCONT.4940589",
      "street": "AV ANTÓNIO PEDRO",
      "house": "",
      "postcode": "2820-036",
      "city": "CHARNECA DA CAPARICA",
      "lon": "-9.170623429269645",
      "lat": "38.589752441031564"
    },
    {
      "id": "pt.ine.add.PTCONT.4949658",
      "street": "R ANTÓNIO DA COSTA",
      "house": "15",
      "postcode": "2820-034",
      "city": "CHARNECA DA CAPARICA",
      "lon": "-9.172955904841317",
      "lat": "38.58992991608796"
    },
    {
      "id": "pt.ine.add.PTCONT.4954941",
      "street": "R D DINIZ",
      "house": "19",
      "postcode": "2820-036",
      "city": "CHARNECA DA CAPARICA",
      "lon": "-9.173464097281961",
      "lat": "38.590150600730354"
    },
    {
      "id": "pt.ine.add.PTCONT.4954989",
      "street": "AV ANTÓNIO PEDRO",
      "house": "",
      "postcode": "2820-036",
      "city": "CHARNECA DA CAPARICA",
      "lon": "-9.16963696491304",
      "lat": "38.58899549768372"
    },
    {
      "id": "pt.ine.add.PTCONT.4962367",
      "street": "R FLOR DA AROEIRA",
      "house": "4",
      "postcode": "2820-036",
      "city": "CHARNECA DA CAPARICA",
      "lon": "-9.172017548012281",
      "lat": "38.590920128025815"
    },
    {
      "id": "pt.ine.add.PTCONT.4962368",
      "street": "AV ANTÓNIO PEDRO",
      "house": "",
      "postcode": "2820-036",
      "city": "CHARNECA DA CAPARICA",
      "lon": "-9.171492429017313",
      "lat": "38.59032124906244"
    },
    {
      "id": "pt.ine.add.PTCONT.4965924",
      "street": "R FLOR DA AROEIRA",
      "house": "",
      "postcode": "2820-036",
      "city": "CHARNECA DA CAPARICA",
      "lon": "-9.171725583444333",
      "lat": "38.59057140553405"
    },
    {
      "id": "pt.ine.add.PTCONT.4981869",
      "street": "R FLOR DA AROEIRA",
      "house": "14",
      "postcode": "2820-036",
      "city": "CHARNECA DA CAPARICA",
      "lon": "-9.172870052810397",
      "lat": "38.590474141073436"
    },
    {
      "id": "pt.ine.add.PTCONT.4987711",
      "street": "AV ANTÓNIO PEDRO",
      "house": "",
      "postcode": "2820-036",
      "city": "CHARNECA DA CAPARICA",
      "lon": "-9.17118283531601",
      "lat": "38.590342011818784"
    },
    {
      "id": "pt.ine.add.PTCONT.5000768",
      "street": "AV ANTÓNIO PEDRO",
      "house": "44",
      "postcode": "2820-036",
      "city": "CHARNECA DA CAPARICA",
      "lon": "-9.172043356209208",
      "lat": "38.59111807606837"
    },
    {
      "id": "pt.ine.add.PTCONT.5002263",
      "street": "AV ANTÓNIO PEDRO",
      "house": "54",
      "postcode": "2820-036",
      "city": "CHARNECA DA CAPARICA",
      "lon": "-9.170786296696903",
      "lat": "38.58990413393577"
    },
    {
      "id": "pt.ine.add.PTCONT.5035022",
      "street": "AV ANTÓNIO PEDRO",
      "house": "",
      "postcode": "2820-036",
      "city": "CHARNECA DA CAPARICA",
      "lon": "-9.171330337497162",
      "lat": "38.59022359860732"
    },
    {
      "id": "pt.ine.add.PTCONT.5035021",
      "street": "AV ANTÓNIO PEDRO",
      "house": "57",
      "postcode": "2820-036",
      "city": "CHARNECA DA CAPARICA",
      "lon": "-9.171390182495323",
      "lat": "38.59039422069529"
    },
    {
      "id": "pt.ine.add.PTCONT.5038997",
      "street": "AV ANTÓNIO PEDRO",
      "house": "",
      "postcode": "2820-036",
      "city": "CHARNECA DA CAPARICA",
      "lon": "-9.171605372819531",
      "lat": "38.59019413408704"
    },
    {
      "id": "pt.ine.add.PTCONT.5049992",
      "street": "R FLOR DA AROEIRA",
      "house": "9",
      "postcode": "2820-036",
      "city": "CHARNECA DA CAPARICA",
      "lon": "-9.17254692573618",
      "lat": "38.590221807115576"
    },
    {
      "id": "pt.ine.add.PTCONT.5060986",
      "street": "R FLOR DA AROEIRA",
      "house": "16",
      "postcode": "2820-036",
      "city": "CHARNECA DA CAPARICA",
      "lon": "-9.172925563070224",
      "lat": "38.59029426058627"
    },
    {
      "id": "pt.ine.add.PTCONT.5060987",
      "street": "R FLOR DA AROEIRA",
      "house": "7",
      "postcode": "2820-036",
      "city": "CHARNECA DA CAPARICA",
      "lon": "-9.172319872390116",
      "lat": "38.5903949766277"
    },
    {
      "id": "pt.ine.add.PTCONT.5086006",
      "street": "R FLOR DA AROEIRA",
      "house": "11",
      "postcode": "2820-036",
      "city": "CHARNECA DA CAPARICA",
      "lon": "-9.17269468518042",
      "lat": "38.59012140601668"
    },
    {
      "id": "pt.ine.add.PTCONT.5097380",
      "street": "R ANTÓNIO DACOSTA",
      "house": "37",
      "postcode": "2820-034",
      "city": "CHARNECA DA CAPARICA",
      "lon": "-9.173402167935814",
      "lat": "38.58983586939202"
    },
    {
      "id": "pt.ine.add.PTCONT.5124953",
      "street": "R FLOR DA AROEIRA",
      "house": "13",
      "postcode": "2820-036",
      "city": "CHARNECA DA CAPARICA",
      "lon": "-9.172819622144118",
      "lat": "38.590030215552304"
    },
    {
      "id": "pt.ine.add.PTCONT.5129963",
      "street": "R DOMINGOS REBELO",
      "house": "",
      "postcode": "2820-036",
      "city": "CHARNECA DA CAPARICA",
      "lon": "-9.170090945416526",
      "lat": "38.588640161592615"
    }
  ]
}