{
  "data": {
    "distrito": "Porto",
    "concelho": "Paredes",
    "freguesia": "Sobrosa",
    "OBJECTID": 1201,
    "BGRI2021": "13102100124",
    "DT21": "13",
    "DTMN21": "1310",
    "DTMNFR21": "131021",
    "DTMNFRSEC21": "131021001",
    "SECNUM21": "001",
    "SSNUM21": "24",
    "SECSSNUM21": "00124",
    "OBJECTID_1": 135885,
    "DT": "13",
    "CC": "10",
    "fr": "21",
    "SEC": "001",
    "SS": "24"
  },
  "addresses": [
    {
      "id": "pt.ine.add.PTCONT.3586994",
      "street": "R CLEMENTE BARBOSA DA CUNHA",
      "house": "",
      "postcode": "4580-753",
      "city": "SOBROSA",
      "lon": "-8.362103478272044",
      "lat": "41.25195945774278"
    },
    {
      "id": "pt.ine.add.PTCONT.3638896",
      "street": "R CLEMENTE BARBOSA DA CUNHA",
      "house": "8",
      "postcode": "4580-753",
      "city": "SOBROSA",
      "lon": "-8.361626109189524",
      "lat": "41.251924389238546"
    },
    {
      "id": "pt.ine.add.PTCONT.3663233",
      "street": "R TORRE",
      "house": "N 31",
      "postcode": "4580-752",
      "city": "SOBROSA",
      "lon": "-8.35915041569327",
      "lat": "41.25020046341028"
    },
    {
      "id": "pt.ine.add.PTCONT.3696267",
      "street": "R DOMINGOS BRAGANÇA",
      "house": "97",
      "postcode": "4580-618",
      "city": "SOBROSA",
      "lon": "-8.362328249101221",
      "lat": "41.2514097523628"
    },
    {
      "id": "pt.ine.add.PTCONT.3729784",
      "street": "R CLEMENTE BARBOSA DA CUNHA",
      "house": "89",
      "postcode": "4580-753",
      "city": "SOBROSA",
      "lon": "-8.361745482806386",
      "lat": "41.251942160719196"
    },
    {
      "id": "pt.ine.add.PTCONT.3761666",
      "street": "R CLEMENTE BARBOSA DA CUNHA",
      "house": "79",
      "postcode": "4580-753",
      "city": "SOBROSA",
      "lon": "-8.36187678757677",
      "lat": "41.251959908370964"
    },
    {
      "id": "pt.ine.add.PTCONT.3761670",
      "street": "R PROF JACINTO LEAL",
      "house": "46",
      "postcode": "4580-752",
      "city": "SOBROSA",
      "lon": "-8.359687487050321",
      "lat": "41.25025343319669"
    },
    {
      "id": "pt.ine.add.PTCONT.3794271",
      "street": "R PROF JACINTO LEAL QTA DAS MAGNOLIAS",
      "house": "",
      "postcode": "4580-752",
      "city": "SOBROSA",
      "lon": "-8.357923922901051",
      "lat": "41.25089619069709"
    },
    {
      "id": "pt.ine.add.PTCONT.3819826",
      "street": "R TORRE",
      "house": "129",
      "postcode": "4580-752",
      "city": "SOBROSA",
      "lon": "-8.358280891461305",
      "lat": "41.25061636191694"
    },
    {
      "id": "pt.ine.add.PTCONT.3850061",
      "street": "R CLEMENTE BARBOSA DA CUNHA",
      "house": "166",
      "postcode": "4580-753",
      "city": "SOBROSA",
      "lon": "-8.360957937228134",
      "lat": "41.25191670918463"
    },
    {
      "id": "pt.ine.add.PTCONT.3870927",
      "street": "R TORRE",
      "house": "13",
      "postcode": "4580-752",
      "city": "SOBROSA",
      "lon": "-8.359293025968089",
      "lat": "41.25003810713546"
    },
    {
      "id": "pt.ine.add.PTCONT.4016127",
      "street": "R CLEMENTE BARBOSA DA CUNHA",
      "house": "121",
      "postcode": "4580-753",
      "city": "SOBROSA",
      "lon": "-8.361375587783606",
      "lat": "41.25193389040537"
    },
    {
      "id": "pt.ine.add.PTCONT.4065885",
      "street": "R CLEMENTE BARBOSA DA CUNHA",
      "house": "",
      "postcode": "4580-753",
      "city": "SOBROSA",
      "lon": "-8.362222914997625",
      "lat": "41.251995237064975"
    },
    {
      "id": "pt.ine.add.PTCONT.4072571",
      "street": "R TOURILHE",
      "house": "595",
      "postcode": "4580-753",
      "city": "SOBROSA",
      "lon": "-8.36076822775828",
      "lat": "41.2522592452241"
    },
    {
      "id": "pt.ine.add.PTCONT.4235598",
      "street": "R PADRE JOSE MACHADO",
      "house": "72",
      "postcode": "4580-747",
      "city": "SOBROSA",
      "lon": "-8.360069240864739",
      "lat": "41.25024367709902"
    },
    {
      "id": "pt.ine.add.PTCONT.4242446",
      "street": "R FONTE",
      "house": "26",
      "postcode": "4580-747",
      "city": "SOBROSA",
      "lon": "-8.361359269121616",
      "lat": "41.250673330237646"
    },
    {
      "id": "pt.ine.add.PTCONT.4284761",
      "street": "R PADRE JOSE MACHADO",
      "house": "92",
      "postcode": "4580-747",
      "city": "SOBROSA",
      "lon": "-8.360295988040848",
      "lat": "41.2502612383896"
    },
    {
      "id": "pt.ine.add.PTCONT.4298850",
      "street": "R CLEMENTE BARBOSA DA CUNHA",
      "house": "71",
      "postcode": "4580-753",
      "city": "SOBROSA",
      "lon": "-8.361972204866785",
      "lat": "41.251950714518436"
    },
    {
      "id": "pt.ine.add.PTCONT.4321997",
      "street": "R TORRE",
      "house": "121",
      "postcode": "4580-752",
      "city": "SOBROSA",
      "lon": "-8.358305464306872",
      "lat": "41.25082341122815"
    },
    {
      "id": "pt.ine.add.PTCONT.4344612",
      "street": "R DOMINGOS BRAGANÇA",
      "house": "7",
      "postcode": "4580-618",
      "city": "SOBROSA",
      "lon": "-8.36287874664175",
      "lat": "41.251885879399055"
    },
    {
      "id": "pt.ine.add.PTCONT.4348152",
      "street": "R CLEMENTE BARBOSA DA CUNHA",
      "house": "39",
      "postcode": "4580-753",
      "city": "SOBROSA",
      "lon": "-8.36231842670516",
      "lat": "41.252013055430986"
    },
    {
      "id": "pt.ine.add.PTCONT.4348153",
      "street": "R CLEMENTE BARBOSA DA CUNHA",
      "house": "",
      "postcode": "4580-753",
      "city": "SOBROSA",
      "lon": "-8.36150676699728",
      "lat": "41.251915621803015"
    }
  ]
}