{
  "data": {
    "distrito": "Beja",
    "concelho": "Moura",
    "freguesia": "União das freguesias de Moura (Santo Agostinho e São João Baptista) e Santo Amador",
    "OBJECTID": 417,
    "BGRI2021": "02100900812",
    "DT21": "02",
    "DTMN21": "0210",
    "DTMNFR21": "021009",
    "DTMNFRSEC21": "021009008",
    "SECNUM21": "008",
    "SSNUM21": "12",
    "SECSSNUM21": "00812",
    "OBJECTID_1": 16420,
    "DT": "02",
    "CC": "10",
    "fr": "09",
    "SEC": "008",
    "SS": "12"
  },
  "addresses": [
    {
      "id": "pt.ine.add.PTCONT.354334",
      "street": "R MARTINHO MARIANO GANHAO",
      "house": "14",
      "postcode": "7860-211",
      "city": "MOURA",
      "lon": "-7.449005138983598",
      "lat": "38.142389231416296"
    },
    {
      "id": "pt.ine.add.PTCONT.393151",
      "street": "TV ALBARDEIRAS",
      "house": "20",
      "postcode": "7860-187",
      "city": "MOURA",
      "lon": "-7.448872259439941",
      "lat": "38.14224356242775"
    },
    {
      "id": "pt.ine.add.PTCONT.403718",
      "street": "TV CRUZES",
      "house": "19",
      "postcode": "7860-188",
      "city": "MOURA",
      "lon": "-7.448998185939931",
      "lat": "38.142121493492155"
    },
    {
      "id": "pt.ine.add.PTCONT.422393",
      "street": "TV ALBARDEIRAS",
      "house": "16",
      "postcode": "7860-187",
      "city": "MOURA",
      "lon": "-7.448884623444152",
      "lat": "38.14239968339959"
    },
    {
      "id": "pt.ine.add.PTCONT.424013",
      "street": "TV ALBARDEIRAS",
      "house": "18",
      "postcode": "7860-187",
      "city": "MOURA",
      "lon": "-7.448874178873703",
      "lat": "38.1422966127386"
    },
    {
      "id": "pt.ine.add.PTCONT.428658",
      "street": "TV CRUZES",
      "house": "13",
      "postcode": "7860-188",
      "city": "MOURA",
      "lon": "-7.449024446884869",
      "lat": "38.142240184039935"
    },
    {
      "id": "pt.ine.add.PTCONT.441809",
      "street": "R MARTINHO MARIANO GANHAO",
      "house": "12",
      "postcode": "7860-211",
      "city": "MOURA",
      "lon": "-7.449053008714296",
      "lat": "38.14238135713266"
    },
    {
      "id": "pt.ine.add.PTCONT.453609",
      "street": "TV CRUZES",
      "house": "15",
      "postcode": "7860-188",
      "city": "MOURA",
      "lon": "-7.449016623728301",
      "lat": "38.14220525683061"
    }
  ]
}