{
  "data": {
    "distrito": "Portalegre",
    "concelho": "Portalegre",
    "freguesia": "União das freguesias da Sé e São Lourenço",
    "OBJECTID": 291,
    "BGRI2021": "12141101312",
    "DT21": "12",
    "DTMN21": "1214",
    "DTMNFR21": "121411",
    "DTMNFRSEC21": "121411013",
    "SECNUM21": "013",
    "SSNUM21": "12",
    "SECSSNUM21": "01312",
    "OBJECTID_1": 124526,
    "DT": "12",
    "CC": "14",
    "fr": "11",
    "SEC": "013",
    "SS": "12"
  },
  "addresses": [
    {
      "id": "pt.ine.add.PTCONT.3539812",
      "street": "ESTR SALAO FRIO",
      "house": "20",
      "postcode": "7300-208",
      "city": "PORTALEGRE",
      "lon": "-7.415084009565495",
      "lat": "39.31302443667937"
    },
    {
      "id": "pt.ine.add.PTCONT.3459293",
      "street": "PAINEL AMAIA QTA S JOSE",
      "house": "",
      "postcode": "7300-085",
      "city": "PORTALEGRE",
      "lon": "-7.415388922498694",
      "lat": "39.31063905599247"
    },
    {
      "id": "pt.ine.add.PTCONT.3463042",
      "street": "ESTR SALAO FRIO",
      "house": "22",
      "postcode": "7300-208",
      "city": "PORTALEGRE",
      "lon": "-7.414831486136753",
      "lat": "39.3129717345779"
    },
    {
      "id": "pt.ine.add.PTCONT.3466728",
      "street": "ESTR SALAO FRIO",
      "house": "6",
      "postcode": "7300-876",
      "city": "PORTALEGRE",
      "lon": "-7.417657601334805",
      "lat": "39.31065805139244"
    },
    {
      "id": "pt.ine.add.PTCONT.3466729",
      "street": "ESTR SALAO FRIO",
      "house": "6",
      "postcode": "7300-876",
      "city": "PORTALEGRE",
      "lon": "-7.417657601334805",
      "lat": "39.31065805139244"
    },
    {
      "id": "pt.ine.add.PTCONT.3466730",
      "street": "ESTR SALAO FRIO",
      "house": "6",
      "postcode": "7300-876",
      "city": "PORTALEGRE",
      "lon": "-7.417657601334805",
      "lat": "39.31065805139244"
    },
    {
      "id": "pt.ine.add.PTCONT.3476545",
      "street": "ESTR SALAO FRIO",
      "house": "8",
      "postcode": "7300-208",
      "city": "PORTALEGRE",
      "lon": "-7.416712788697305",
      "lat": "39.3117929993287"
    },
    {
      "id": "pt.ine.add.PTCONT.3476546",
      "street": "ESTR SALAO FRIO",
      "house": "8",
      "postcode": "7300-208",
      "city": "PORTALEGRE",
      "lon": "-7.416712788697305",
      "lat": "39.3117929993287"
    },
    {
      "id": "pt.ine.add.PTCONT.3476547",
      "street": "ESTR SALAO FRIO",
      "house": "8",
      "postcode": "7300-208",
      "city": "PORTALEGRE",
      "lon": "-7.416712788697305",
      "lat": "39.3117929993287"
    },
    {
      "id": "pt.ine.add.PTCONT.3479624",
      "street": "QTA BRANCA",
      "house": "",
      "postcode": "7300-208",
      "city": "PORTALEGRE",
      "lon": "-7.4092355554294596",
      "lat": "39.31234777303685"
    },
    {
      "id": "pt.ine.add.PTCONT.3489861",
      "street": "VINHA CASQUINHA",
      "house": "",
      "postcode": "7300-208",
      "city": "PORTALEGRE",
      "lon": "-7.41162353045192",
      "lat": "39.30697689932133"
    },
    {
      "id": "pt.ine.add.PTCONT.3496255",
      "street": "MARRADA ALTA PAINEL",
      "house": "PAINEL 23",
      "postcode": "7300-208",
      "city": "PORTALEGRE",
      "lon": "-7.411638148767541",
      "lat": "39.308940544849655"
    },
    {
      "id": "pt.ine.add.PTCONT.3496297",
      "street": "ESTR SALAO FRIO",
      "house": "16",
      "postcode": "7300-208",
      "city": "PORTALEGRE",
      "lon": "-7.415789949641845",
      "lat": "39.31264740450237"
    },
    {
      "id": "pt.ine.add.PTCONT.3497910",
      "street": "QTA BRANCA DE CIMA",
      "house": "",
      "postcode": "7300-208",
      "city": "PORTALEGRE",
      "lon": "-7.40978616545707",
      "lat": "39.31201849754634"
    },
    {
      "id": "pt.ine.add.PTCONT.3497911",
      "street": "QTA BRANCA DE CIMA",
      "house": "",
      "postcode": "7300-085",
      "city": "PORTALEGRE",
      "lon": "-7.410686329355535",
      "lat": "39.31242940786558"
    },
    {
      "id": "pt.ine.add.PTCONT.3499500",
      "street": "MARRADA ALTA",
      "house": "",
      "postcode": "7300-085",
      "city": "PORTALEGRE",
      "lon": "-7.414465119645193",
      "lat": "39.30913817310168"
    },
    {
      "id": "pt.ine.add.PTCONT.3500951",
      "street": "QTA BRANCA",
      "house": "",
      "postcode": "7300-208",
      "city": "PORTALEGRE",
      "lon": "-7.411738883696131",
      "lat": "39.30929244721171"
    },
    {
      "id": "pt.ine.add.PTCONT.3508487",
      "street": "ESTR SALAO FRIO",
      "house": "18",
      "postcode": "7300-208",
      "city": "PORTALEGRE",
      "lon": "-7.415396486967645",
      "lat": "39.312930308018665"
    },
    {
      "id": "pt.ine.add.PTCONT.3512660",
      "street": "VINHA CASQUINHA",
      "house": "",
      "postcode": "7300-208",
      "city": "PORTALEGRE",
      "lon": "-7.413490861281996",
      "lat": "39.30690739284651"
    },
    {
      "id": "pt.ine.add.PTCONT.3524494",
      "street": "ESTR SALAO FRIO",
      "house": "16",
      "postcode": "7300-208",
      "city": "PORTALEGRE",
      "lon": "-7.4163482127427285",
      "lat": "39.31209826124458"
    },
    {
      "id": "pt.ine.add.PTCONT.3524495",
      "street": "ESTR SALAO FRIO",
      "house": "16",
      "postcode": "7300-208",
      "city": "PORTALEGRE",
      "lon": "-7.4163482127427285",
      "lat": "39.31209826124458"
    },
    {
      "id": "pt.ine.add.PTCONT.3524496",
      "street": "ESTR SALAO FRIO",
      "house": "16",
      "postcode": "7300-208",
      "city": "PORTALEGRE",
      "lon": "-7.4163482127427285",
      "lat": "39.31209826124458"
    },
    {
      "id": "pt.ine.add.PTCONT.3527664",
      "street": "PAINEL AMAIA",
      "house": "11",
      "postcode": "7300-085",
      "city": "PORTALEGRE",
      "lon": "-7.415317519383543",
      "lat": "39.310818758349626"
    }
  ]
}