{
  "data": {
    "distrito": "Santar√©m",
    "concelho": "Rio Maior",
    "freguesia": "Rio Maior",
    "OBJECTID": 60,
    "BGRI2021": "14140800801",
    "DT21": "14",
    "DTMN21": "1414",
    "DTMNFR21": "141408",
    "DTMNFRSEC21": "141408008",
    "SECNUM21": "008",
    "SSNUM21": "01",
    "SECSSNUM21": "00801",
    "OBJECTID_1": 152748,
    "DT": "14",
    "CC": "14",
    "fr": "08",
    "SEC": "008",
    "SS": "01"
  },
  "addresses": [
    {
      "id": "pt.ine.add.PTCONT.4408259",
      "street": "TV D MARIA NASCIMENTO E COSTA",
      "house": "2",
      "postcode": "2040-270",
      "city": "RIO MAIOR",
      "lon": "-8.988138460955978",
      "lat": "39.324708267403416"
    },
    {
      "id": "pt.ine.add.PTCONT.4423416",
      "street": "EN 361",
      "house": "",
      "postcode": "2040-070",
      "city": "RIO MAIOR",
      "lon": "-8.988566260857262",
      "lat": "39.32365129926895"
    },
    {
      "id": "pt.ine.add.PTCONT.4423417",
      "street": "EN 361",
      "house": "",
      "postcode": "2040-070",
      "city": "RIO MAIOR",
      "lon": "-8.988566260857262",
      "lat": "39.32365129926895"
    },
    {
      "id": "pt.ine.add.PTCONT.4428419",
      "street": "R ANA COSTA",
      "house": "",
      "postcode": "2040-070",
      "city": "RIO MAIOR",
      "lon": "-8.9867163374391",
      "lat": "39.324106225701385"
    },
    {
      "id": "pt.ine.add.PTCONT.4428420",
      "street": "R FONTE",
      "house": "",
      "postcode": "2040-070",
      "city": "RIO MAIOR",
      "lon": "-8.988995434957907",
      "lat": "39.321756663381954"
    },
    {
      "id": "pt.ine.add.PTCONT.4433725",
      "street": "TV D MARIA NASCIMENTO E COSTA",
      "house": "",
      "postcode": "2040-270",
      "city": "RIO MAIOR",
      "lon": "-8.988747437112654",
      "lat": "39.32424443294448"
    },
    {
      "id": "pt.ine.add.PTCONT.4450285",
      "street": "TV D MARIA NASCIMENTO E COSTA A",
      "house": "A",
      "postcode": "2040-070",
      "city": "RIO MAIOR",
      "lon": "-8.986898144233201",
      "lat": "39.32379865254999"
    },
    {
      "id": "pt.ine.add.PTCONT.4470730",
      "street": "R FONTE",
      "house": "",
      "postcode": "2040-070",
      "city": "RIO MAIOR",
      "lon": "-8.98951667119671",
      "lat": "39.321707794363064"
    },
    {
      "id": "pt.ine.add.PTCONT.4472029",
      "street": "TV D MARIA NASCIMENTO E COSTA",
      "house": "",
      "postcode": "2040-270",
      "city": "RIO MAIOR",
      "lon": "-8.988187805078647",
      "lat": "39.324951095261824"
    },
    {
      "id": "pt.ine.add.PTCONT.4479546",
      "street": "R ANA COSTA",
      "house": "A",
      "postcode": "2040-070",
      "city": "RIO MAIOR",
      "lon": "-8.986667984333213",
      "lat": "39.32394445336045"
    },
    {
      "id": "pt.ine.add.PTCONT.4484227",
      "street": "TV D MARIA NASCIMENTO E COSTA",
      "house": "",
      "postcode": "2040-270",
      "city": "RIO MAIOR",
      "lon": "-8.98783445067995",
      "lat": "39.32450333801458"
    },
    {
      "id": "pt.ine.add.PTCONT.4498909",
      "street": "R MATIAS",
      "house": "",
      "postcode": "2040-070",
      "city": "RIO MAIOR",
      "lon": "-8.987474287128526",
      "lat": "39.32254244487646"
    },
    {
      "id": "pt.ine.add.PTCONT.4502429",
      "street": "TV D MARIA NASCIMENTO E COSTA",
      "house": "",
      "postcode": "2040-270",
      "city": "RIO MAIOR",
      "lon": "-8.988136377259393",
      "lat": "39.32453714876437"
    },
    {
      "id": "pt.ine.add.PTCONT.4510256",
      "street": "R ANA COSTA",
      "house": "",
      "postcode": "2040-070",
      "city": "RIO MAIOR",
      "lon": "-8.987203885277244",
      "lat": "39.323192937074296"
    },
    {
      "id": "pt.ine.add.PTCONT.4511090",
      "street": "ESTR PRINCIPAL",
      "house": "",
      "postcode": "2040-070",
      "city": "RIO MAIOR",
      "lon": "-8.98940214661643",
      "lat": "39.32182572859944"
    },
    {
      "id": "pt.ine.add.PTCONT.4515123",
      "street": "TV D MARIA NASCIMENTO E COSTA",
      "house": "",
      "postcode": "2040-070",
      "city": "RIO MAIOR",
      "lon": "-8.986887643705789",
      "lat": "39.323888800085555"
    },
    {
      "id": "pt.ine.add.PTCONT.4530605",
      "street": "TV D MARIA NASCIMENTO E COSTA",
      "house": "",
      "postcode": "2040-070",
      "city": "RIO MAIOR",
      "lon": "-8.988523938104148",
      "lat": "39.32398487118217"
    },
    {
      "id": "pt.ine.add.PTCONT.4544059",
      "street": "R MATIAS",
      "house": "",
      "postcode": "2040-070",
      "city": "RIO MAIOR",
      "lon": "-8.988292622464318",
      "lat": "39.32213111815468"
    },
    {
      "id": "pt.ine.add.PTCONT.4557942",
      "street": "TV D MARIA NASCIMENTO E COSTA CONDOMINIO VALE ZAMBUJO",
      "house": "FRAC C",
      "postcode": "2040-070",
      "city": "RIO MAIOR",
      "lon": "-8.986912915549546",
      "lat": "39.3240597486918"
    },
    {
      "id": "pt.ine.add.PTCONT.4568843",
      "street": "TV D MARIA NASCIMENTO E COSTA",
      "house": "",
      "postcode": "2040-070",
      "city": "RIO MAIOR",
      "lon": "-8.986908219001545",
      "lat": "39.32462722733811"
    },
    {
      "id": "pt.ine.add.PTCONT.4574520",
      "street": "R ANA COSTA",
      "house": "",
      "postcode": "2040-070",
      "city": "RIO MAIOR",
      "lon": "-8.98662060849711",
      "lat": "39.322908989746416"
    },
    {
      "id": "pt.ine.add.PTCONT.4576503",
      "street": "TV D MARIA NASCIMENTO E COSTA",
      "house": "",
      "postcode": "2040-070",
      "city": "RIO MAIOR",
      "lon": "-8.988152549820347",
      "lat": "39.32396057874602"
    },
    {
      "id": "pt.ine.add.PTCONT.4591296",
      "street": "TV D MARIA NASCIMENTO E COSTA",
      "house": "",
      "postcode": "2040-270",
      "city": "RIO MAIOR",
      "lon": "-8.988178293140637",
      "lat": "39.32512229906992"
    },
    {
      "id": "pt.ine.add.PTCONT.4609977",
      "street": "TV D MARIA NASCIMENTO E COSTA",
      "house": "",
      "postcode": "2040-270",
      "city": "RIO MAIOR",
      "lon": "-8.988145121569307",
      "lat": "39.32430290123028"
    },
    {
      "id": "pt.ine.add.PTCONT.4642199",
      "street": "R FONTE",
      "house": "",
      "postcode": "2040-070",
      "city": "RIO MAIOR",
      "lon": "-8.989183703457591",
      "lat": "39.32198045525105"
    },
    {
      "id": "pt.ine.add.PTCONT.4645155",
      "street": "TV D MARIA NASCIMENTO E COSTA",
      "house": "",
      "postcode": "2040-270",
      "city": "RIO MAIOR",
      "lon": "-8.987612926967385",
      "lat": "39.324405886907975"
    },
    {
      "id": "pt.ine.add.PTCONT.4649256",
      "street": "TV D MARIA NASCIMENTO E COSTA FACCAO D",
      "house": "FACCAO D",
      "postcode": "2040-070",
      "city": "RIO MAIOR",
      "lon": "-8.986913901132569",
      "lat": "39.324140804922436"
    }
  ]
}