{
  "data": {
    "distrito": "Lisboa",
    "concelho": "Odivelas",
    "freguesia": "União das freguesias de Pontinha e Famões",
    "OBJECTID": 896,
    "BGRI2021": "11160801125",
    "DT21": "11",
    "DTMN21": "1116",
    "DTMNFR21": "111608",
    "DTMNFRSEC21": "111608011",
    "SECNUM21": "011",
    "SSNUM21": "25",
    "SECSSNUM21": "01125",
    "OBJECTID_1": 119828,
    "DT": "11",
    "CC": "16",
    "fr": "08",
    "SEC": "011",
    "SS": "25"
  },
  "addresses": [
    {
      "id": "pt.ine.add.PTCONT.2405003",
      "street": "R CIDADE DE OLHÃO",
      "house": "87",
      "postcode": "1685-671",
      "city": "FAMÕES",
      "lon": "-9.21353744300249",
      "lat": "38.79680643477931"
    },
    {
      "id": "pt.ine.add.PTCONT.2591808",
      "street": "R CIDADE DE OLHÃO",
      "house": "86",
      "postcode": "1685-671",
      "city": "FAMÕES",
      "lon": "-9.213447139413162",
      "lat": "38.796924370143664"
    },
    {
      "id": "pt.ine.add.PTCONT.2688436",
      "street": "R CIDADE DE PONTE DE SOR",
      "house": "93",
      "postcode": "1685-145",
      "city": "FAMÕES",
      "lon": "-9.213419090261468",
      "lat": "38.79659134388036"
    },
    {
      "id": "pt.ine.add.PTCONT.2783951",
      "street": "R CIDADE DE PONTE DE SOR",
      "house": "92",
      "postcode": "1685-145",
      "city": "FAMÕES",
      "lon": "-9.213509529480007",
      "lat": "38.7964824149986"
    },
    {
      "id": "pt.ine.add.PTCONT.2877808",
      "street": "R CIDADE DE PONTE DE SOR",
      "house": "94",
      "postcode": "1685-145",
      "city": "FAMÕES",
      "lon": "-9.213317277830683",
      "lat": "38.796709385559836"
    },
    {
      "id": "pt.ine.add.PTCONT.2960112",
      "street": "R CIDADE DE OLHÃO",
      "house": "89",
      "postcode": "1685-671",
      "city": "FAMÕES",
      "lon": "-9.213741067063804",
      "lat": "38.79657035096073"
    },
    {
      "id": "pt.ine.add.PTCONT.2997348",
      "street": "BR CASAL S SEBASTIÃO",
      "house": "",
      "postcode": "1679-021",
      "city": "PONTINHA",
      "lon": "-9.213639391207195",
      "lat": "38.79669739937458"
    },
    {
      "id": "pt.ine.add.PTCONT.3064318",
      "street": "R CIDADE DE PONTE DE SOR",
      "house": "95",
      "postcode": "1685-145",
      "city": "FAMÕES",
      "lon": "-9.213238482919891",
      "lat": "38.7968272143646"
    },
    {
      "id": "pt.ine.add.PTCONT.3089883",
      "street": "R CIDADE DE OLHÃO",
      "house": "88",
      "postcode": "1685-671",
      "city": "FAMÕES",
      "lon": "-9.213639391207195",
      "lat": "38.79669739937458"
    },
    {
      "id": "pt.ine.add.PTCONT.3098547",
      "street": "R CIDADE DE CALDAS DA RAINHA",
      "house": "91",
      "postcode": "1685-665",
      "city": "FAMÕES",
      "lon": "-9.213611477277706",
      "lat": "38.7963733796183"
    },
    {
      "id": "pt.ine.add.PTCONT.3450544",
      "street": "R CIDADE DE OLHÃO",
      "house": "90",
      "postcode": "1685-671",
      "city": "FAMÕES",
      "lon": "-9.213831777821389",
      "lat": "38.79647943475916"
    }
  ]
}