{
  "data": {
    "distrito": "Coimbra",
    "concelho": "Pampilhosa da Serra",
    "freguesia": "Portela do Fojo-Machio",
    "OBJECTID": 260,
    "BGRI2021": "06121200117",
    "DT21": "06",
    "DTMN21": "0612",
    "DTMNFR21": "061212",
    "DTMNFRSEC21": "061212001",
    "SECNUM21": "001",
    "SSNUM21": "17",
    "SECSSNUM21": "00117",
    "OBJECTID_1": 55160,
    "DT": "06",
    "CC": "12",
    "fr": "12",
    "SEC": "001",
    "SS": "17"
  },
  "addresses": [
    {
      "id": "pt.ine.add.PTCONT.1100206",
      "street": "R COMÃ‰RCIO",
      "house": "",
      "postcode": "3320-331",
      "city": "PORTELA DO FOJO",
      "lon": "-8.0660795748793",
      "lat": "39.98615831139615"
    },
    {
      "id": "pt.ine.add.PTCONT.1111464",
      "street": "R OUTEIRO",
      "house": "",
      "postcode": "3320-331",
      "city": "PORTELA DO FOJO",
      "lon": "-8.067612979797634",
      "lat": "39.98652844298102"
    },
    {
      "id": "pt.ine.add.PTCONT.1137659",
      "street": "R VAL",
      "house": "",
      "postcode": "3320-331",
      "city": "PORTELA DO FOJO",
      "lon": "-8.066089936480546",
      "lat": "39.98753626881028"
    },
    {
      "id": "pt.ine.add.PTCONT.1148373",
      "street": "R CIMO DO CAMINHO",
      "house": "",
      "postcode": "3320-334",
      "city": "PORTELA DO FOJO",
      "lon": "-8.06795102696513",
      "lat": "39.98809571539665"
    },
    {
      "id": "pt.ine.add.PTCONT.1154520",
      "street": "R LIGA DE MELHORAMENTOS",
      "house": "",
      "postcode": "3320-331",
      "city": "PORTELA DO FOJO",
      "lon": "-8.067459791273164",
      "lat": "39.987555065193966"
    },
    {
      "id": "pt.ine.add.PTCONT.1184481",
      "street": "R LIGA DE MELHORAMENTOS",
      "house": "",
      "postcode": "3320-331",
      "city": "PORTELA DO FOJO",
      "lon": "-8.067634874272331",
      "lat": "39.988122555892765"
    },
    {
      "id": "pt.ine.add.PTCONT.1184482",
      "street": "R STA BARBARA",
      "house": "",
      "postcode": "3320-331",
      "city": "PORTELA DO FOJO",
      "lon": "-8.066886710142729",
      "lat": "39.98690629151009"
    },
    {
      "id": "pt.ine.add.PTCONT.1184484",
      "street": "LG RUA",
      "house": "",
      "postcode": "3320-331",
      "city": "PORTELA DO FOJO",
      "lon": "-8.06877125734026",
      "lat": "39.9874117010782"
    },
    {
      "id": "pt.ine.add.PTCONT.1209387",
      "street": "R VINHA",
      "house": "",
      "postcode": "3320-331",
      "city": "PORTELA DO FOJO",
      "lon": "-8.06750723615491",
      "lat": "39.98691565058578"
    },
    {
      "id": "pt.ine.add.PTCONT.1216519",
      "street": "R OUTEIRO",
      "house": "",
      "postcode": "3320-331",
      "city": "PORTELA DO FOJO",
      "lon": "-8.068490360276497",
      "lat": "39.98730347020981"
    },
    {
      "id": "pt.ine.add.PTCONT.1240709",
      "street": "R LIGA DE MELHORAMENTOS",
      "house": "",
      "postcode": "3320-331",
      "city": "PORTELA DO FOJO",
      "lon": "-8.067003071646228",
      "lat": "39.98765387400893"
    },
    {
      "id": "pt.ine.add.PTCONT.1264381",
      "street": "R LIGA DE MELHORAMENTOS",
      "house": "",
      "postcode": "3320-331",
      "city": "PORTELA DO FOJO",
      "lon": "-8.06642977511501",
      "lat": "39.987230253405954"
    },
    {
      "id": "pt.ine.add.PTCONT.1272317",
      "street": "R OUTEIRO",
      "house": "",
      "postcode": "3320-331",
      "city": "PORTELA DO FOJO",
      "lon": "-8.067811872347312",
      "lat": "39.98668166091598"
    },
    {
      "id": "pt.ine.add.PTCONT.1296631",
      "street": "R LIGA DE MELHORAMENTOS",
      "house": "",
      "postcode": "3320-331",
      "city": "PORTELA DO FOJO",
      "lon": "-8.066850950390517",
      "lat": "39.98756372497882"
    },
    {
      "id": "pt.ine.add.PTCONT.1314432",
      "street": "R VINHA",
      "house": "",
      "postcode": "3320-331",
      "city": "PORTELA DO FOJO",
      "lon": "-8.067203333505441",
      "lat": "39.986384111280216"
    },
    {
      "id": "pt.ine.add.PTCONT.1324965",
      "street": "R LIGA DE MELHORAMENTOS",
      "house": "",
      "postcode": "3320-331",
      "city": "PORTELA DO FOJO",
      "lon": "-8.067681768048544",
      "lat": "39.98805953885619"
    },
    {
      "id": "pt.ine.add.PTCONT.1329416",
      "street": "R AMOREIRINHA",
      "house": "",
      "postcode": "3320-331",
      "city": "PORTELA DO FOJO",
      "lon": "-8.066382311204263",
      "lat": "39.9878786737417"
    },
    {
      "id": "pt.ine.add.PTCONT.1354744",
      "street": "R AMOREIRINHA",
      "house": "",
      "postcode": "3320-331",
      "city": "PORTELA DO FOJO",
      "lon": "-8.066557718212248",
      "lat": "39.98810393000325"
    },
    {
      "id": "pt.ine.add.PTCONT.1359540",
      "street": "R OUTEIRO",
      "house": "",
      "postcode": "3320-331",
      "city": "PORTELA DO FOJO",
      "lon": "-8.068373422104866",
      "lat": "39.98715029925473"
    },
    {
      "id": "pt.ine.add.PTCONT.1365676",
      "street": "R CARRASQUEIROS",
      "house": "",
      "postcode": "3320-331",
      "city": "PORTELA DO FOJO",
      "lon": "-8.068712589059603",
      "lat": "39.98754676176203"
    }
  ]
}