{
  "data": {
    "distrito": "Coimbra",
    "concelho": "Pampilhosa da Serra",
    "freguesia": "Portela do Fojo-Machio",
    "OBJECTID": 265,
    "BGRI2021": "06121200122",
    "DT21": "06",
    "DTMN21": "0612",
    "DTMNFR21": "061212",
    "DTMNFRSEC21": "061212001",
    "SECNUM21": "001",
    "SSNUM21": "22",
    "SECSSNUM21": "00122",
    "OBJECTID_1": 55395,
    "DT": "06",
    "CC": "12",
    "fr": "12",
    "SEC": "001",
    "SS": "22"
  },
  "addresses": [
    {
      "id": "pt.ine.add.PTCONT.1103738",
      "street": "R ERVIDEIRA",
      "house": "",
      "postcode": "3320-331",
      "city": "PORTELA DO FOJO",
      "lon": "-8.068862358819361",
      "lat": "39.99014964112863"
    },
    {
      "id": "pt.ine.add.PTCONT.1117626",
      "street": "R CARRASQUEIROS",
      "house": "",
      "postcode": "3320-331",
      "city": "PORTELA DO FOJO",
      "lon": "-8.068466094864894",
      "lat": "39.988204078390865"
    },
    {
      "id": "pt.ine.add.PTCONT.1117627",
      "street": "TV COURELOS",
      "house": "",
      "postcode": "3320-331",
      "city": "PORTELA DO FOJO",
      "lon": "-8.069356906108474",
      "lat": "39.98715985056972"
    },
    {
      "id": "pt.ine.add.PTCONT.1118152",
      "street": "R COLA",
      "house": "",
      "postcode": "3320-331",
      "city": "PORTELA DO FOJO",
      "lon": "-8.069263189850792",
      "lat": "39.987213836295204"
    },
    {
      "id": "pt.ine.add.PTCONT.1121903",
      "street": "R CARRASQUEIROS",
      "house": "",
      "postcode": "3320-331",
      "city": "PORTELA DO FOJO",
      "lon": "-8.068688884815993",
      "lat": "39.98785295997519"
    },
    {
      "id": "pt.ine.add.PTCONT.1142439",
      "street": "R COURELOS",
      "house": "",
      "postcode": "3320-331",
      "city": "PORTELA DO FOJO",
      "lon": "-8.069075849387447",
      "lat": "39.98722273917142"
    },
    {
      "id": "pt.ine.add.PTCONT.1144564",
      "street": "R CARRASQUEIROS",
      "house": "",
      "postcode": "3320-331",
      "city": "PORTELA DO FOJO",
      "lon": "-8.068641932845793",
      "lat": "39.98797902090709"
    },
    {
      "id": "pt.ine.add.PTCONT.1149421",
      "street": "R COLA",
      "house": "",
      "postcode": "3320-331",
      "city": "PORTELA DO FOJO",
      "lon": "-8.069239731408642",
      "lat": "39.98725885446123"
    },
    {
      "id": "pt.ine.add.PTCONT.1165782",
      "street": "R CELADA",
      "house": "",
      "postcode": "3320-331",
      "city": "PORTELA DO FOJO",
      "lon": "-8.071007711502034",
      "lat": "39.987223790297676"
    },
    {
      "id": "pt.ine.add.PTCONT.1172596",
      "street": "R CARRASQUEIROS",
      "house": "",
      "postcode": "3320-331",
      "city": "PORTELA DO FOJO",
      "lon": "-8.068009081692745",
      "lat": "39.98860910233845"
    },
    {
      "id": "pt.ine.add.PTCONT.1178943",
      "street": "R CELADA",
      "house": "",
      "postcode": "3320-331",
      "city": "PORTELA DO FOJO",
      "lon": "-8.071944114935258",
      "lat": "39.987512487178996"
    },
    {
      "id": "pt.ine.add.PTCONT.1186493",
      "street": "R FUNDO VAL",
      "house": "",
      "postcode": "3320-331",
      "city": "PORTELA DO FOJO",
      "lon": "-8.07014076313113",
      "lat": "39.98780872671325"
    },
    {
      "id": "pt.ine.add.PTCONT.1186494",
      "street": "R COLA",
      "house": "",
      "postcode": "3320-331",
      "city": "PORTELA DO FOJO",
      "lon": "-8.069134289851291",
      "lat": "39.987330846055684"
    },
    {
      "id": "pt.ine.add.PTCONT.1192745",
      "street": "R FUNDO VAL",
      "house": "",
      "postcode": "3320-331",
      "city": "PORTELA DO FOJO",
      "lon": "-8.070000196569948",
      "lat": "39.98788070000166"
    },
    {
      "id": "pt.ine.add.PTCONT.1197587",
      "street": "R ERVIDEIRA",
      "house": "",
      "postcode": "3320-331",
      "city": "PORTELA DO FOJO",
      "lon": "-8.06888652697537",
      "lat": "39.98934810147476"
    },
    {
      "id": "pt.ine.add.PTCONT.1247397",
      "street": "R FUNDO VAL",
      "house": "",
      "postcode": "3320-331",
      "city": "PORTELA DO FOJO",
      "lon": "-8.070163832673654",
      "lat": "39.988187000348375"
    },
    {
      "id": "pt.ine.add.PTCONT.1260023",
      "street": "R CELADA",
      "house": "",
      "postcode": "3320-331",
      "city": "PORTELA DO FOJO",
      "lon": "-8.071429249201676",
      "lat": "39.98717898428661"
    },
    {
      "id": "pt.ine.add.PTCONT.1274097",
      "street": "LG RUA",
      "house": "",
      "postcode": "3320-331",
      "city": "PORTELA DO FOJO",
      "lon": "-8.069005372576099",
      "lat": "39.98746586809595"
    },
    {
      "id": "pt.ine.add.PTCONT.1278030",
      "street": "R CARRASQUEIROS",
      "house": "",
      "postcode": "3320-331",
      "city": "PORTELA DO FOJO",
      "lon": "-8.068771037674745",
      "lat": "39.987645862610556"
    },
    {
      "id": "pt.ine.add.PTCONT.1297051",
      "street": "R DOS CARRASQUEIROS AMOREIRA FUNDEIRA",
      "house": "",
      "postcode": "3320-331",
      "city": "PORTELA DO FOJO",
      "lon": "-8.068853029716314",
      "lat": "39.98760988322315"
    },
    {
      "id": "pt.ine.add.PTCONT.1318400",
      "street": "R CELADA",
      "house": "",
      "postcode": "3320-331",
      "city": "PORTELA DO FOJO",
      "lon": "-8.071768587020586",
      "lat": "39.987404319809926"
    },
    {
      "id": "pt.ine.add.PTCONT.1326516",
      "street": "R COURELOS",
      "house": "",
      "postcode": "3320-331",
      "city": "PORTELA DO FOJO",
      "lon": "-8.069157882752169",
      "lat": "39.987141728498166"
    },
    {
      "id": "pt.ine.add.PTCONT.1353376",
      "street": "R COLA",
      "house": "",
      "postcode": "3320-331",
      "city": "PORTELA DO FOJO",
      "lon": "-8.06933333887442",
      "lat": "39.987321949528024"
    },
    {
      "id": "pt.ine.add.PTCONT.1354743",
      "street": "TV ERVIDEIRA",
      "house": "",
      "postcode": "3320-331",
      "city": "PORTELA DO FOJO",
      "lon": "-8.069776215589542",
      "lat": "39.98952871530406"
    },
    {
      "id": "pt.ine.add.PTCONT.1359589",
      "street": "TV ERVIDEIRA",
      "house": "",
      "postcode": "3320-331",
      "city": "PORTELA DO FOJO",
      "lon": "-8.069377778378191",
      "lat": "39.98989775169121"
    },
    {
      "id": "pt.ine.add.PTCONT.1366871",
      "street": "R FUNDO VAL",
      "house": "",
      "postcode": "3320-331",
      "city": "PORTELA DO FOJO",
      "lon": "-8.070304861545775",
      "lat": "39.987610678964025"
    }
  ]
}