{
  "data": {
    "distrito": "Porto",
    "concelho": "Amarante",
    "freguesia": "Jazente",
    "OBJECTID": 275,
    "BGRI2021": "13011800108",
    "DT21": "13",
    "DTMN21": "1301",
    "DTMNFR21": "130118",
    "DTMNFRSEC21": "130118001",
    "SECNUM21": "001",
    "SSNUM21": "08",
    "SECSSNUM21": "00108",
    "OBJECTID_1": 126407,
    "DT": "13",
    "CC": "01",
    "fr": "18",
    "SEC": "001",
    "SS": "08"
  },
  "addresses": [
    {
      "id": "pt.ine.add.PTCONT.3615247",
      "street": "TV FORNOS",
      "house": "56",
      "postcode": "4600-652",
      "city": "JAZENTE",
      "lon": "-8.062588125541556",
      "lat": "41.23619203565135"
    },
    {
      "id": "pt.ine.add.PTCONT.3714316",
      "street": "R FORNOS",
      "house": "105",
      "postcode": "4600-652",
      "city": "JAZENTE",
      "lon": "-8.0622302276717",
      "lat": "41.23623683723145"
    },
    {
      "id": "pt.ine.add.PTCONT.3755514",
      "street": "R FORNOS",
      "house": "97",
      "postcode": "4600-652",
      "city": "JAZENTE",
      "lon": "-8.062266168166941",
      "lat": "41.23609279111504"
    },
    {
      "id": "pt.ine.add.PTCONT.3844780",
      "street": "R LUIS SARDOEIRA",
      "house": "127",
      "postcode": "4600-652",
      "city": "JAZENTE",
      "lon": "-8.06339850431543",
      "lat": "41.23689486169134"
    },
    {
      "id": "pt.ine.add.PTCONT.3856039",
      "street": "TV FORNOS",
      "house": "90",
      "postcode": "4600-652",
      "city": "JAZENTE",
      "lon": "-8.063244249598014",
      "lat": "41.236129405757616"
    },
    {
      "id": "pt.ine.add.PTCONT.3913512",
      "street": "TV FORNOS",
      "house": "78",
      "postcode": "4600-652",
      "city": "JAZENTE",
      "lon": "-8.062993620661445",
      "lat": "41.23625531312506"
    },
    {
      "id": "pt.ine.add.PTCONT.4011165",
      "street": "R LUIS SARDOEIRA",
      "house": "147",
      "postcode": "4600-652",
      "city": "JAZENTE",
      "lon": "-8.063541607359326",
      "lat": "41.236930965289524"
    },
    {
      "id": "pt.ine.add.PTCONT.4021192",
      "street": "R FORNOS CASA DA FIGUEIRA",
      "house": "",
      "postcode": "4600-652",
      "city": "JAZENTE",
      "lon": "-8.062050990891429",
      "lat": "41.236524863221305"
    },
    {
      "id": "pt.ine.add.PTCONT.4083140",
      "street": "R PLANTA",
      "house": "264",
      "postcode": "4600-652",
      "city": "JAZENTE",
      "lon": "-8.066346852868547",
      "lat": "41.23490666626087"
    },
    {
      "id": "pt.ine.add.PTCONT.4109916",
      "street": "R FORNOS",
      "house": "131",
      "postcode": "4600-652",
      "city": "JAZENTE",
      "lon": "-8.062015381398293",
      "lat": "41.23636276448684"
    },
    {
      "id": "pt.ine.add.PTCONT.4109917",
      "street": "R FORNOS",
      "house": "131",
      "postcode": "4600-652",
      "city": "JAZENTE",
      "lon": "-8.062015381398293",
      "lat": "41.23636276448684"
    },
    {
      "id": "pt.ine.add.PTCONT.4148753",
      "street": "R PLANTA",
      "house": "24",
      "postcode": "4600-652",
      "city": "JAZENTE",
      "lon": "-8.063888871573505",
      "lat": "41.23566157328103"
    },
    {
      "id": "pt.ine.add.PTCONT.4253315",
      "street": "R LUIS SARDOEIRA",
      "house": "183",
      "postcode": "4600-652",
      "city": "JAZENTE",
      "lon": "-8.064054378767324",
      "lat": "41.23707534215091"
    },
    {
      "id": "pt.ine.add.PTCONT.4278168",
      "street": "TV FORNOS",
      "house": "68",
      "postcode": "4600-652",
      "city": "JAZENTE",
      "lon": "-8.062826624187991",
      "lat": "41.23625521131889"
    },
    {
      "id": "pt.ine.add.PTCONT.4284626",
      "street": "R LUIS SARDOEIRA",
      "house": "57",
      "postcode": "4600-652",
      "city": "JAZENTE",
      "lon": "-8.062563678389306",
      "lat": "41.23674128078821"
    },
    {
      "id": "pt.ine.add.PTCONT.4313533",
      "street": "R FORNOS",
      "house": "117",
      "postcode": "4600-652",
      "city": "JAZENTE",
      "lon": "-8.062087029402115",
      "lat": "41.23629077458546"
    },
    {
      "id": "pt.ine.add.PTCONT.4333414",
      "street": "R FORNOS",
      "house": "163",
      "postcode": "4600-652",
      "city": "JAZENTE",
      "lon": "-8.061919593221731",
      "lat": "41.2366958630756"
    }
  ]
}