{
  "data": {
    "distrito": "Leiria",
    "concelho": "Porto de Mós",
    "freguesia": "Juncal",
    "OBJECTID": 643,
    "BGRI2021": "10160600223",
    "DT21": "10",
    "DTMN21": "1016",
    "DTMNFR21": "101606",
    "DTMNFRSEC21": "101606002",
    "SECNUM21": "002",
    "SSNUM21": "23",
    "SECSSNUM21": "00223",
    "OBJECTID_1": 98372,
    "DT": "10",
    "CC": "16",
    "fr": "06",
    "SEC": "002",
    "SS": "23"
  },
  "addresses": [
    {
      "id": "pt.ine.add.PTCONT.1983673",
      "street": "R COMEND JOÃO LOPES COELHO DA SILVA",
      "house": "72",
      "postcode": "2480-353",
      "city": "JUNCAL",
      "lon": "-8.903214014328087",
      "lat": "39.59976767769928"
    },
    {
      "id": "pt.ine.add.PTCONT.1990418",
      "street": "R BAIXO",
      "house": "25",
      "postcode": "2480-361",
      "city": "JUNCAL",
      "lon": "-8.90456305117221",
      "lat": "39.60173118796429"
    },
    {
      "id": "pt.ine.add.PTCONT.2001493",
      "street": "R BAIXO",
      "house": "25",
      "postcode": "2480-361",
      "city": "JUNCAL",
      "lon": "-8.904342452054259",
      "lat": "39.6017866924977"
    },
    {
      "id": "pt.ine.add.PTCONT.2005235",
      "street": "R BAIXO",
      "house": "33",
      "postcode": "2480-361",
      "city": "JUNCAL",
      "lon": "-8.905404678243707",
      "lat": "39.6020318231559"
    },
    {
      "id": "pt.ine.add.PTCONT.2006086",
      "street": "R ALMEIRINHA",
      "house": "1",
      "postcode": "2480-354",
      "city": "JUNCAL",
      "lon": "-8.902145679625843",
      "lat": "39.601071714006224"
    },
    {
      "id": "pt.ine.add.PTCONT.2006243",
      "street": "R BOMBEIROS",
      "house": "10",
      "postcode": "2480-375",
      "city": "JUNCAL",
      "lon": "-8.901546068975843",
      "lat": "39.60054428797927"
    },
    {
      "id": "pt.ine.add.PTCONT.2019098",
      "street": "R BAIXO",
      "house": "35",
      "postcode": "2480-361",
      "city": "JUNCAL",
      "lon": "-8.905533141281538",
      "lat": "39.60206699582344"
    },
    {
      "id": "pt.ine.add.PTCONT.2022525",
      "street": "R BOMBEIROS",
      "house": "16",
      "postcode": "2480-375",
      "city": "JUNCAL",
      "lon": "-8.901872139947184",
      "lat": "39.60055113759328"
    },
    {
      "id": "pt.ine.add.PTCONT.2038612",
      "street": "R BAIXO",
      "house": "29",
      "postcode": "2480-361",
      "city": "JUNCAL",
      "lon": "-8.905332525139412",
      "lat": "39.601825149483936"
    },
    {
      "id": "pt.ine.add.PTCONT.2051531",
      "street": "R COMEND JOÃO LOPES COELHO DA SILVA",
      "house": "76",
      "postcode": "2480-353",
      "city": "JUNCAL",
      "lon": "-8.903826570245165",
      "lat": "39.60041209596231"
    },
    {
      "id": "pt.ine.add.PTCONT.2051532",
      "street": "R COMEND JOÃO LOPES COELHO DA SILVA",
      "house": "76",
      "postcode": "2480-353",
      "city": "JUNCAL",
      "lon": "-8.903826570245165",
      "lat": "39.60041209596231"
    },
    {
      "id": "pt.ine.add.PTCONT.2069186",
      "street": "R BAIXO",
      "house": "1",
      "postcode": "2480-361",
      "city": "JUNCAL",
      "lon": "-8.901393631777909",
      "lat": "39.60150000273773"
    },
    {
      "id": "pt.ine.add.PTCONT.2069323",
      "street": "R BAIXO",
      "house": "15",
      "postcode": "2480-361",
      "city": "JUNCAL",
      "lon": "-8.90278092329359",
      "lat": "39.60166194747103"
    },
    {
      "id": "pt.ine.add.PTCONT.2091262",
      "street": "R BOMBEIROS",
      "house": "6",
      "postcode": "2480-375",
      "city": "JUNCAL",
      "lon": "-8.901665871996485",
      "lat": "39.60084972223088"
    },
    {
      "id": "pt.ine.add.PTCONT.2097557",
      "street": "R BAIXO",
      "house": "11",
      "postcode": "2480-361",
      "city": "JUNCAL",
      "lon": "-8.90227086625557",
      "lat": "39.60186347188765"
    },
    {
      "id": "pt.ine.add.PTCONT.2126251",
      "street": "R BOMBEIROS",
      "house": "24",
      "postcode": "2480-375",
      "city": "JUNCAL",
      "lon": "-8.90243671065844",
      "lat": "39.60001600726177"
    },
    {
      "id": "pt.ine.add.PTCONT.2129379",
      "street": "R BAIXO",
      "house": "3",
      "postcode": "2480-361",
      "city": "JUNCAL",
      "lon": "-8.901569257117186",
      "lat": "39.601588907919634"
    },
    {
      "id": "pt.ine.add.PTCONT.2134870",
      "street": "R COMEND JOÃO LOPES COELHO DA SILVA",
      "house": "84",
      "postcode": "2480-353",
      "city": "JUNCAL",
      "lon": "-8.905128310389378",
      "lat": "39.60125908677485"
    },
    {
      "id": "pt.ine.add.PTCONT.2141692",
      "street": "R BOMBEIROS",
      "house": "8",
      "postcode": "2480-375",
      "city": "JUNCAL",
      "lon": "-8.90144129244823",
      "lat": "39.600544980911785"
    },
    {
      "id": "pt.ine.add.PTCONT.2152333",
      "street": "R BAIXO",
      "house": "15",
      "postcode": "2480-361",
      "city": "JUNCAL",
      "lon": "-8.902806998948686",
      "lat": "39.60191396134377"
    },
    {
      "id": "pt.ine.add.PTCONT.2159007",
      "street": "R BOMBEIROS",
      "house": "12",
      "postcode": "2480-375",
      "city": "JUNCAL",
      "lon": "-8.901650945046443",
      "lat": "39.60055260096099"
    },
    {
      "id": "pt.ine.add.PTCONT.2185098",
      "street": "R BAIXO",
      "house": "7",
      "postcode": "2480-361",
      "city": "JUNCAL",
      "lon": "-8.90194379321546",
      "lat": "39.60176656339305"
    },
    {
      "id": "pt.ine.add.PTCONT.2204904",
      "street": "R COMEND JOÃO LOPES COELHO DA SILVA",
      "house": "82",
      "postcode": "2480-353",
      "city": "JUNCAL",
      "lon": "-8.904812678368382",
      "lat": "39.60114409699815"
    },
    {
      "id": "pt.ine.add.PTCONT.2216543",
      "street": "R ALMEIRINHA",
      "house": "7",
      "postcode": "2480-354",
      "city": "JUNCAL",
      "lon": "-8.90250907070908",
      "lat": "39.60129447477464"
    },
    {
      "id": "pt.ine.add.PTCONT.2218738",
      "street": "R BAIXO",
      "house": "31",
      "postcode": "2480-361",
      "city": "JUNCAL",
      "lon": "-8.905218805098945",
      "lat": "39.60206908519019"
    },
    {
      "id": "pt.ine.add.PTCONT.2225173",
      "street": "R BAIXO",
      "house": "9",
      "postcode": "2480-361",
      "city": "JUNCAL",
      "lon": "-8.902142305572575",
      "lat": "39.60181928958623"
    },
    {
      "id": "pt.ine.add.PTCONT.2234030",
      "street": "R BOMBEIROS",
      "house": "14",
      "postcode": "2480-375",
      "city": "JUNCAL",
      "lon": "-8.901755622020213",
      "lat": "39.6005429018308"
    }
  ]
}