{
  "data": {
    "distrito": "Guarda",
    "concelho": "Manteigas",
    "freguesia": "Manteigas (Santa Maria)",
    "OBJECTID": 54,
    "BGRI2021": "09080200204",
    "DT21": "09",
    "DTMN21": "0908",
    "DTMNFR21": "090802",
    "DTMNFRSEC21": "090802002",
    "SECNUM21": "002",
    "SSNUM21": "04",
    "SECSSNUM21": "00204",
    "OBJECTID_1": 79285,
    "DT": "09",
    "CC": "08",
    "fr": "02",
    "SEC": "002",
    "SS": "04"
  },
  "addresses": [
    {
      "id": "pt.ine.add.PTCONT.1901517",
      "street": "BR DO CARRASCAL",
      "house": "",
      "postcode": "6260-024",
      "city": "MANTEIGAS",
      "lon": "-7.543937869387802",
      "lat": "40.403901008824704"
    },
    {
      "id": "pt.ine.add.PTCONT.1902244",
      "street": "R DE STA MARIA",
      "house": "",
      "postcode": "6260-157",
      "city": "MANTEIGAS",
      "lon": "-7.54282400686259",
      "lat": "40.40330096534905"
    },
    {
      "id": "pt.ine.add.PTCONT.1902245",
      "street": "R DE STA MARIA",
      "house": "",
      "postcode": "6260-157",
      "city": "MANTEIGAS",
      "lon": "-7.54282400686259",
      "lat": "40.40330096534905"
    },
    {
      "id": "pt.ine.add.PTCONT.1902246",
      "street": "R DE STA MARIA",
      "house": "",
      "postcode": "6260-157",
      "city": "MANTEIGAS",
      "lon": "-7.5425567791163",
      "lat": "40.40287634267283"
    },
    {
      "id": "pt.ine.add.PTCONT.1906722",
      "street": "BR DO CARRASCAL",
      "house": "12",
      "postcode": "6260-024",
      "city": "MANTEIGAS",
      "lon": "-7.5431619148704945",
      "lat": "40.40372594802811"
    },
    {
      "id": "pt.ine.add.PTCONT.1906723",
      "street": "BR DO CARRASCAL",
      "house": "12",
      "postcode": "6260-024",
      "city": "MANTEIGAS",
      "lon": "-7.5431619148704945",
      "lat": "40.40372594802811"
    },
    {
      "id": "pt.ine.add.PTCONT.1906724",
      "street": "BR DO CARRASCAL",
      "house": "12",
      "postcode": "6260-024",
      "city": "MANTEIGAS",
      "lon": "-7.5431619148704945",
      "lat": "40.40372594802811"
    },
    {
      "id": "pt.ine.add.PTCONT.1906725",
      "street": "BR DO CARRASCAL",
      "house": "12",
      "postcode": "6260-024",
      "city": "MANTEIGAS",
      "lon": "-7.5431619148704945",
      "lat": "40.40372594802811"
    },
    {
      "id": "pt.ine.add.PTCONT.1909361",
      "street": "R SERVICOS FLORESTAIS",
      "house": "",
      "postcode": "6260-182",
      "city": "MANTEIGAS",
      "lon": "-7.542746507269751",
      "lat": "40.40273322364513"
    },
    {
      "id": "pt.ine.add.PTCONT.1909408",
      "street": "R DE STA MARIA",
      "house": "",
      "postcode": "6260-157",
      "city": "MANTEIGAS",
      "lon": "-7.542902608836337",
      "lat": "40.403742635694975"
    },
    {
      "id": "pt.ine.add.PTCONT.1909409",
      "street": "R DE STA MARIA",
      "house": "",
      "postcode": "6260-157",
      "city": "MANTEIGAS",
      "lon": "-7.542902608836337",
      "lat": "40.403742635694975"
    },
    {
      "id": "pt.ine.add.PTCONT.1909410",
      "street": "R DE STA MARIA",
      "house": "",
      "postcode": "6260-157",
      "city": "MANTEIGAS",
      "lon": "-7.542902608836337",
      "lat": "40.403742635694975"
    },
    {
      "id": "pt.ine.add.PTCONT.1909411",
      "street": "R DE STA MARIA",
      "house": "",
      "postcode": "6260-157",
      "city": "MANTEIGAS",
      "lon": "-7.542902608836337",
      "lat": "40.403742635694975"
    },
    {
      "id": "pt.ine.add.PTCONT.1909412",
      "street": "R DE STA MARIA",
      "house": "",
      "postcode": "6260-157",
      "city": "MANTEIGAS",
      "lon": "-7.542902608836337",
      "lat": "40.403742635694975"
    },
    {
      "id": "pt.ine.add.PTCONT.1909961",
      "street": "R DE STA MARIA",
      "house": "",
      "postcode": "6260-157",
      "city": "MANTEIGAS",
      "lon": "-7.542902608836337",
      "lat": "40.403742635694975"
    },
    {
      "id": "pt.ine.add.PTCONT.1912038",
      "street": "R DOS SERVIÇOS FLORESTAIS",
      "house": "",
      "postcode": "6260-182",
      "city": "MANTEIGAS",
      "lon": "-7.542900267555108",
      "lat": "40.40266196465803"
    },
    {
      "id": "pt.ine.add.PTCONT.1914156",
      "street": "R DO OUTEIRO",
      "house": "",
      "postcode": "6260-163",
      "city": "MANTEIGAS",
      "lon": "-7.5439059856506265",
      "lat": "40.4035046047152"
    },
    {
      "id": "pt.ine.add.PTCONT.1915515",
      "street": "R DO OUTEIRO",
      "house": "201",
      "postcode": "6260-163",
      "city": "MANTEIGAS",
      "lon": "-7.543330993231182",
      "lat": "40.40324951949347"
    },
    {
      "id": "pt.ine.add.PTCONT.1918179",
      "street": "BR DO OUTEIRO",
      "house": "5",
      "postcode": "6260-026",
      "city": "MANTEIGAS",
      "lon": "-7.5428277825761425",
      "lat": "40.40286872098212"
    },
    {
      "id": "pt.ine.add.PTCONT.1921077",
      "street": "BR DO CARRASCAL",
      "house": "7",
      "postcode": "6260-024",
      "city": "MANTEIGAS",
      "lon": "-7.543573175656741",
      "lat": "40.403845117013915"
    },
    {
      "id": "pt.ine.add.PTCONT.1924077",
      "street": "R DO OUTEIRO",
      "house": "211",
      "postcode": "6260-163",
      "city": "MANTEIGAS",
      "lon": "-7.543540508417056",
      "lat": "40.40353876373029"
    },
    {
      "id": "pt.ine.add.PTCONT.1924994",
      "street": "R DOS SERVIÇOS FLORESTAIS",
      "house": "22",
      "postcode": "6260-182",
      "city": "MANTEIGAS",
      "lon": "-7.543029132187584",
      "lat": "40.40274367180294"
    },
    {
      "id": "pt.ine.add.PTCONT.1924995",
      "street": "BR DO CARRASCAL",
      "house": "6",
      "postcode": "6260-024",
      "city": "MANTEIGAS",
      "lon": "-7.543702671720103",
      "lat": "40.403854782684725"
    },
    {
      "id": "pt.ine.add.PTCONT.1927240",
      "street": "R JOAQUIM PEREIRA DE MATOS",
      "house": "",
      "postcode": "6260-143",
      "city": "MANTEIGAS",
      "lon": "-7.542379695441418",
      "lat": "40.40292046556584"
    },
    {
      "id": "pt.ine.add.PTCONT.1927952",
      "street": "R MORLAIS",
      "house": "9",
      "postcode": "6260-161",
      "city": "MANTEIGAS",
      "lon": "-7.543159556323469",
      "lat": "40.403996100737366"
    },
    {
      "id": "pt.ine.add.PTCONT.1928860",
      "street": "R DOS SERVIÇOS FLORESTAIS",
      "house": "",
      "postcode": "6260-182",
      "city": "MANTEIGAS",
      "lon": "-7.5437557586836785",
      "lat": "40.403170635881885"
    },
    {
      "id": "pt.ine.add.PTCONT.1929955",
      "street": "BR OUTEIRO",
      "house": "",
      "postcode": "6260-026",
      "city": "MANTEIGAS",
      "lon": "-7.542730951664906",
      "lat": "40.40316540787221"
    },
    {
      "id": "pt.ine.add.PTCONT.1930527",
      "street": "BR OUTEIRO",
      "house": "",
      "postcode": "6260-026",
      "city": "MANTEIGAS",
      "lon": "-7.542730951664906",
      "lat": "40.40316540787221"
    },
    {
      "id": "pt.ine.add.PTCONT.1935164",
      "street": "R DO OUTEIRO",
      "house": "",
      "postcode": "6260-163",
      "city": "MANTEIGAS",
      "lon": "-7.543810650612643",
      "lat": "40.403630195762524"
    },
    {
      "id": "pt.ine.add.PTCONT.1941237",
      "street": "R DE STA MARIA",
      "house": "4",
      "postcode": "6260-157",
      "city": "MANTEIGAS",
      "lon": "-7.542733547873535",
      "lat": "40.40286823987145"
    },
    {
      "id": "pt.ine.add.PTCONT.1943266",
      "street": "R DOS SERVIÇOS FLORESTAIS",
      "house": "",
      "postcode": "6260-182",
      "city": "MANTEIGAS",
      "lon": "-7.5440606884614025",
      "lat": "40.40332528308922"
    },
    {
      "id": "pt.ine.add.PTCONT.1944358",
      "street": "R MORLAIS",
      "house": "1",
      "postcode": "6260-161",
      "city": "MANTEIGAS",
      "lon": "-7.543101602164789",
      "lat": "40.403887739133275"
    },
    {
      "id": "pt.ine.add.PTCONT.1945225",
      "street": "R DOS SERVIÇOS FLORESTAIS",
      "house": "12",
      "postcode": "6260-182",
      "city": "MANTEIGAS",
      "lon": "-7.542771245901617",
      "lat": "40.402598267553884"
    },
    {
      "id": "pt.ine.add.PTCONT.1949175",
      "street": "R DOS SERVIÇOS FLORESTAIS",
      "house": "",
      "postcode": "6260-182",
      "city": "MANTEIGAS",
      "lon": "-7.543638593180473",
      "lat": "40.40309799468545"
    },
    {
      "id": "pt.ine.add.PTCONT.1950796",
      "street": "BR DO CARRASCAL",
      "house": "",
      "postcode": "6260-024",
      "city": "MANTEIGAS",
      "lon": "-7.5435973631558895",
      "lat": "40.403773196401325"
    },
    {
      "id": "pt.ine.add.PTCONT.1959058",
      "street": "R DO OUTEIRO",
      "house": "",
      "postcode": "6260-163",
      "city": "MANTEIGAS",
      "lon": "-7.5424755043466325",
      "lat": "40.402740845149296"
    },
    {
      "id": "pt.ine.add.PTCONT.1960090",
      "street": "R D SANCHO I",
      "house": "",
      "postcode": "6260-179",
      "city": "MANTEIGAS",
      "lon": "-7.544265577243476",
      "lat": "40.404145826456"
    },
    {
      "id": "pt.ine.add.PTCONT.1966951",
      "street": "R D SANCHO I",
      "house": "",
      "postcode": "6260-179",
      "city": "MANTEIGAS",
      "lon": "-7.544948948755048",
      "lat": "40.40413129362132"
    },
    {
      "id": "pt.ine.add.PTCONT.1968211",
      "street": "BR DO CARRASCAL",
      "house": "",
      "postcode": "6260-024",
      "city": "MANTEIGAS",
      "lon": "-7.543832638994229",
      "lat": "40.403810417662164"
    },
    {
      "id": "pt.ine.add.PTCONT.1970771",
      "street": "BR OUTEIRO",
      "house": "6",
      "postcode": "6260-157",
      "city": "MANTEIGAS",
      "lon": "-7.542898537255005",
      "lat": "40.402860076673306"
    },
    {
      "id": "pt.ine.add.PTCONT.1974965",
      "street": "R OUTEIRO",
      "house": "",
      "postcode": "6260-163",
      "city": "MANTEIGAS",
      "lon": "-7.5428494534809305",
      "lat": "40.40308496343625"
    },
    {
      "id": "pt.ine.add.PTCONT.1974966",
      "street": "R OUTEIRO",
      "house": "229",
      "postcode": "6260-163",
      "city": "MANTEIGAS",
      "lon": "-7.5428494534809305",
      "lat": "40.40308496343625"
    },
    {
      "id": "pt.ine.add.PTCONT.1974967",
      "street": "R OUTEIRO",
      "house": "229",
      "postcode": "6260-163",
      "city": "MANTEIGAS",
      "lon": "-7.5428494534809305",
      "lat": "40.40308496343625"
    },
    {
      "id": "pt.ine.add.PTCONT.1849041",
      "street": "R DOS SERVIÇOS FLORESTAIS",
      "house": "",
      "postcode": "6260-182",
      "city": "MANTEIGAS",
      "lon": "-7.544576786991663",
      "lat": "40.403580064934204"
    },
    {
      "id": "pt.ine.add.PTCONT.1850290",
      "street": "R DO OUTEIRO",
      "house": "",
      "postcode": "6260-163",
      "city": "MANTEIGAS",
      "lon": "-7.543132630226826",
      "lat": "40.40303237571176"
    },
    {
      "id": "pt.ine.add.PTCONT.1850311",
      "street": "R DO OUTEIRO",
      "house": "",
      "postcode": "6260-163",
      "city": "MANTEIGAS",
      "lon": "-7.543399626457075",
      "lat": "40.403484012349494"
    },
    {
      "id": "pt.ine.add.PTCONT.1850835",
      "street": "R DO OUTEIRO",
      "house": "",
      "postcode": "6260-163",
      "city": "MANTEIGAS",
      "lon": "-7.543132630226826",
      "lat": "40.40303237571176"
    },
    {
      "id": "pt.ine.add.PTCONT.1852902",
      "street": "R DO OUTEIRO",
      "house": "197",
      "postcode": "6260-163",
      "city": "MANTEIGAS",
      "lon": "-7.5432377012633305",
      "lat": "40.403140977691514"
    },
    {
      "id": "pt.ine.add.PTCONT.1854339",
      "street": "R DO OUTEIRO",
      "house": "",
      "postcode": "6260-163",
      "city": "MANTEIGAS",
      "lon": "-7.543657988777144",
      "lat": "40.40357538465911"
    },
    {
      "id": "pt.ine.add.PTCONT.1856240",
      "street": "BR DO CARRASCAL",
      "house": "",
      "postcode": "6260-024",
      "city": "MANTEIGAS",
      "lon": "-7.5435363443304535",
      "lat": "40.40401603355601"
    },
    {
      "id": "pt.ine.add.PTCONT.1856241",
      "street": "BR DO CARRASCAL",
      "house": "",
      "postcode": "6260-024",
      "city": "MANTEIGAS",
      "lon": "-7.5435363443304535",
      "lat": "40.40401603355601"
    },
    {
      "id": "pt.ine.add.PTCONT.1858171",
      "street": "BR DO CARRASCAL",
      "house": "",
      "postcode": "6260-024",
      "city": "MANTEIGAS",
      "lon": "-7.543715001041967",
      "lat": "40.4037918070914"
    },
    {
      "id": "pt.ine.add.PTCONT.1859977",
      "street": "BR DO CARRASCAL",
      "house": "",
      "postcode": "6260-024",
      "city": "MANTEIGAS",
      "lon": "-7.543808373199107",
      "lat": "40.40389134341649"
    },
    {
      "id": "pt.ine.add.PTCONT.1862195",
      "street": "R DO OUTEIRO",
      "house": "",
      "postcode": "6260-163",
      "city": "MANTEIGAS",
      "lon": "-7.54301538700394",
      "lat": "40.40296873898008"
    },
    {
      "id": "pt.ine.add.PTCONT.1870118",
      "street": "R DOS SERVIÇOS FLORESTAIS",
      "house": "",
      "postcode": "6260-182",
      "city": "MANTEIGAS",
      "lon": "-7.543439443835728",
      "lat": "40.40297090234414"
    },
    {
      "id": "pt.ine.add.PTCONT.1870860",
      "street": "BR DO CARRASCAL",
      "house": "",
      "postcode": "6260-024",
      "city": "MANTEIGAS",
      "lon": "-7.543950198499724",
      "lat": "40.40383803320529"
    },
    {
      "id": "pt.ine.add.PTCONT.1877992",
      "street": "R DO OUTEIRO",
      "house": "",
      "postcode": "6260-163",
      "city": "MANTEIGAS",
      "lon": "-7.542664052071375",
      "lat": "40.40273280262069"
    },
    {
      "id": "pt.ine.add.PTCONT.1881315",
      "street": "BR DO CARRASCAL",
      "house": "",
      "postcode": "6260-024",
      "city": "MANTEIGAS",
      "lon": "-7.543830989886719",
      "lat": "40.40399952458005"
    },
    {
      "id": "pt.ine.add.PTCONT.1881316",
      "street": "BR DO CARRASCAL",
      "house": "",
      "postcode": "6260-024",
      "city": "MANTEIGAS",
      "lon": "-7.543830989886719",
      "lat": "40.40399952458005"
    },
    {
      "id": "pt.ine.add.PTCONT.1881317",
      "street": "BR DO CARRASCAL",
      "house": "",
      "postcode": "6260-024",
      "city": "MANTEIGAS",
      "lon": "-7.543830989886719",
      "lat": "40.40399952458005"
    },
    {
      "id": "pt.ine.add.PTCONT.1881464",
      "street": "BR DO CARRASCAL",
      "house": "",
      "postcode": "6260-024",
      "city": "MANTEIGAS",
      "lon": "-7.543830989886719",
      "lat": "40.40399952458005"
    },
    {
      "id": "pt.ine.add.PTCONT.1885567",
      "street": "BR DO CARRASCAL",
      "house": "",
      "postcode": "6260-024",
      "city": "MANTEIGAS",
      "lon": "-7.543665997817994",
      "lat": "40.404007689088324"
    },
    {
      "id": "pt.ine.add.PTCONT.1885568",
      "street": "BR DO CARRASCAL",
      "house": "",
      "postcode": "6260-024",
      "city": "MANTEIGAS",
      "lon": "-7.543665997817994",
      "lat": "40.404007689088324"
    },
    {
      "id": "pt.ine.add.PTCONT.1885569",
      "street": "R DO OUTEIRO",
      "house": "",
      "postcode": "6260-163",
      "city": "MANTEIGAS",
      "lon": "-7.543329578536152",
      "lat": "40.40341161113889"
    },
    {
      "id": "pt.ine.add.PTCONT.1887663",
      "street": "R DO OUTEIRO",
      "house": "",
      "postcode": "6260-163",
      "city": "MANTEIGAS",
      "lon": "-7.543118885317392",
      "lat": "40.403257442892006"
    },
    {
      "id": "pt.ine.add.PTCONT.1893668",
      "street": "R DE STA MARIA",
      "house": "",
      "postcode": "6260-157",
      "city": "MANTEIGAS",
      "lon": "-7.542662871848068",
      "lat": "40.40286787898806"
    },
    {
      "id": "pt.ine.add.PTCONT.1895738",
      "street": "R DOS SERVIÇOS FLORESTAIS",
      "house": "",
      "postcode": "6260-182",
      "city": "MANTEIGAS",
      "lon": "-7.543837821801833",
      "lat": "40.403216081593825"
    },
    {
      "id": "pt.ine.add.PTCONT.1896714",
      "street": "R D SANCHO I",
      "house": "",
      "postcode": "6260-179",
      "city": "MANTEIGAS",
      "lon": "-7.544407245821151",
      "lat": "40.40411052587146"
    },
    {
      "id": "pt.ine.add.PTCONT.1898531",
      "street": "R DO OUTEIRO",
      "house": "",
      "postcode": "6260-163",
      "city": "MANTEIGAS",
      "lon": "-7.542569660173319",
      "lat": "40.40275033156011"
    }
  ]
}