{
  "data": {
    "distrito": "Portalegre",
    "concelho": "Elvas",
    "freguesia": "Caia, São Pedro e Alcáçova",
    "OBJECTID": 433,
    "BGRI2021": "12071300321",
    "DT21": "12",
    "DTMN21": "1207",
    "DTMNFR21": "120713",
    "DTMNFRSEC21": "120713003",
    "SECNUM21": "003",
    "SSNUM21": "21",
    "SECSSNUM21": "00321",
    "OBJECTID_1": 122063,
    "DT": "12",
    "CC": "07",
    "fr": "13",
    "SEC": "003",
    "SS": "21"
  },
  "addresses": [
    {
      "id": "pt.ine.add.PTCONT.3536481",
      "street": "LAGAR FRADES",
      "house": "4",
      "postcode": "7350-404",
      "city": "ELVAS",
      "lon": "-7.159602832073811",
      "lat": "38.88737273878738"
    },
    {
      "id": "pt.ine.add.PTCONT.3536482",
      "street": "LAGAR FRADES",
      "house": "12",
      "postcode": "7350-404",
      "city": "ELVAS",
      "lon": "-7.159602832073811",
      "lat": "38.88737273878738"
    },
    {
      "id": "pt.ine.add.PTCONT.3536697",
      "street": "OLIVAL DO RATO ESTRADA DO VEDOR",
      "house": "",
      "postcode": "7350-410",
      "city": "ELVAS",
      "lon": "-7.169592649285694",
      "lat": "38.894968255887825"
    },
    {
      "id": "pt.ine.add.PTCONT.3537283",
      "street": "LAGAR DOS FRADES OLIVAL DO LAGAR DOS FRADES",
      "house": "",
      "postcode": "7350-404",
      "city": "ELVAS",
      "lon": "-7.160294535082173",
      "lat": "38.88709053467002"
    },
    {
      "id": "pt.ine.add.PTCONT.3537345",
      "street": "QTA ÁGUAS QUENTES",
      "house": "",
      "postcode": "7350-275",
      "city": "ELVAS",
      "lon": "-7.15652512580308",
      "lat": "38.89105036496606"
    },
    {
      "id": "pt.ine.add.PTCONT.3538737",
      "street": "LAGAR DOS FRADES",
      "house": "",
      "postcode": "7350-404",
      "city": "ELVAS",
      "lon": "-7.159602832073811",
      "lat": "38.88737273878738"
    },
    {
      "id": "pt.ine.add.PTCONT.3458377",
      "street": "R MATADOURO",
      "house": "",
      "postcode": "7350-263",
      "city": "ELVAS",
      "lon": "-7.158655113704666",
      "lat": "38.88645533645839"
    },
    {
      "id": "pt.ine.add.PTCONT.3458879",
      "street": "HORTA DO PORTO CIMA",
      "house": "",
      "postcode": "7350-404",
      "city": "ELVAS",
      "lon": "-7.1600514974454095",
      "lat": "38.88885400852594"
    },
    {
      "id": "pt.ine.add.PTCONT.3461775",
      "street": "OLIVAL DA PENDURA",
      "house": "",
      "postcode": "7350-408",
      "city": "ELVAS",
      "lon": "-7.160555836817698",
      "lat": "38.88990309741673"
    },
    {
      "id": "pt.ine.add.PTCONT.3466076",
      "street": "ESTR PONTE DAS HORTAS QTA DO FORTE",
      "house": "",
      "postcode": "7350-225",
      "city": "ELVAS",
      "lon": "-7.156050755582316",
      "lat": "38.89736884720238"
    },
    {
      "id": "pt.ine.add.PTCONT.3472030",
      "street": "HORTA DO PADRE FERNANDES",
      "house": "",
      "postcode": "7350-263",
      "city": "ELVAS",
      "lon": "-7.157217914401945",
      "lat": "38.88873127568705"
    },
    {
      "id": "pt.ine.add.PTCONT.3472031",
      "street": "HORTA DO PADRE FERNANDES",
      "house": "",
      "postcode": "7350-263",
      "city": "ELVAS",
      "lon": "-7.157217914401945",
      "lat": "38.88873127568705"
    },
    {
      "id": "pt.ine.add.PTCONT.3472032",
      "street": "SIT RUI MELO",
      "house": "6",
      "postcode": "7350-052",
      "city": "ELVAS",
      "lon": "-7.166177086488664",
      "lat": "38.88572764210073"
    },
    {
      "id": "pt.ine.add.PTCONT.3472056",
      "street": "SIT RUI MELO",
      "house": "4",
      "postcode": "7350-052",
      "city": "ELVAS",
      "lon": "-7.166177086488664",
      "lat": "38.88572764210073"
    },
    {
      "id": "pt.ine.add.PTCONT.3472057",
      "street": "SIT RUI MELO",
      "house": "5",
      "postcode": "7350-052",
      "city": "ELVAS",
      "lon": "-7.166177086488664",
      "lat": "38.88572764210073"
    },
    {
      "id": "pt.ine.add.PTCONT.3472058",
      "street": "SIT RUI MELO",
      "house": "7",
      "postcode": "7350-052",
      "city": "ELVAS",
      "lon": "-7.166177086488664",
      "lat": "38.88572764210073"
    },
    {
      "id": "pt.ine.add.PTCONT.3472059",
      "street": "SIT RUI MELO",
      "house": "6",
      "postcode": "7350-052",
      "city": "ELVAS",
      "lon": "-7.166177086488664",
      "lat": "38.88572764210073"
    },
    {
      "id": "pt.ine.add.PTCONT.3472060",
      "street": "SIT RUI MELO",
      "house": "6",
      "postcode": "7350-052",
      "city": "ELVAS",
      "lon": "-7.166177086488664",
      "lat": "38.88572764210073"
    },
    {
      "id": "pt.ine.add.PTCONT.3474961",
      "street": "QTA AUILARES",
      "house": "",
      "postcode": "7350-263",
      "city": "ELVAS",
      "lon": "-7.158464087589468",
      "lat": "38.88694015512418"
    },
    {
      "id": "pt.ine.add.PTCONT.3475559",
      "street": "LAGAR DOS FRADES",
      "house": "",
      "postcode": "7350-404",
      "city": "ELVAS",
      "lon": "-7.159574237670449",
      "lat": "38.88740366684204"
    },
    {
      "id": "pt.ine.add.PTCONT.3475560",
      "street": "LAGAR DOS FRADES",
      "house": "",
      "postcode": "7350-404",
      "city": "ELVAS",
      "lon": "-7.159574237670449",
      "lat": "38.88740366684204"
    },
    {
      "id": "pt.ine.add.PTCONT.3479232",
      "street": "OLIVAL DA PENDURA",
      "house": "",
      "postcode": "7350-225",
      "city": "ELVAS",
      "lon": "-7.159946617163133",
      "lat": "38.890627640535605"
    },
    {
      "id": "pt.ine.add.PTCONT.3481286",
      "street": "LAGAR DOS FRADES",
      "house": "",
      "postcode": "7350-404",
      "city": "ELVAS",
      "lon": "-7.159341585597454",
      "lat": "38.88766808837778"
    },
    {
      "id": "pt.ine.add.PTCONT.3482403",
      "street": "ESTR MATADOURO",
      "house": "1",
      "postcode": "7350-263",
      "city": "ELVAS",
      "lon": "-7.158750625764754",
      "lat": "38.886212926980825"
    },
    {
      "id": "pt.ine.add.PTCONT.3484184",
      "street": "HORTA DOS LOIOS",
      "house": "",
      "postcode": "7350-410",
      "city": "ELVAS",
      "lon": "-7.158722486328074",
      "lat": "38.88995987330273"
    },
    {
      "id": "pt.ine.add.PTCONT.3484513",
      "street": "SIT RUI DE MELO",
      "house": "",
      "postcode": "7350-049",
      "city": "ELVAS",
      "lon": "-7.167217523145395",
      "lat": "38.886508465233135"
    },
    {
      "id": "pt.ine.add.PTCONT.3484558",
      "street": "SIT RUI DE MELO",
      "house": "",
      "postcode": "7350-049",
      "city": "ELVAS",
      "lon": "-7.167217523145395",
      "lat": "38.886508465233135"
    },
    {
      "id": "pt.ine.add.PTCONT.3488160",
      "street": "BLOCO DO CABECAS",
      "house": "1",
      "postcode": "7350-049",
      "city": "ELVAS",
      "lon": "-7.166169267727383",
      "lat": "38.88544056373974"
    },
    {
      "id": "pt.ine.add.PTCONT.3490015",
      "street": "LAGAR FRADES",
      "house": "1A",
      "postcode": "7350-404",
      "city": "ELVAS",
      "lon": "-7.159655425375585",
      "lat": "38.8873173244459"
    },
    {
      "id": "pt.ine.add.PTCONT.3490016",
      "street": "LAGAR DOS FRADES",
      "house": "10",
      "postcode": "7350-404",
      "city": "ELVAS",
      "lon": "-7.15941245075382",
      "lat": "38.88754257228079"
    },
    {
      "id": "pt.ine.add.PTCONT.3490017",
      "street": "LAGAR FRADES",
      "house": "9",
      "postcode": "7350-404",
      "city": "ELVAS",
      "lon": "-7.15941245075382",
      "lat": "38.88754257228079"
    },
    {
      "id": "pt.ine.add.PTCONT.3490126",
      "street": "LAGAR DOS FRADES",
      "house": "1",
      "postcode": "7350-404",
      "city": "ELVAS",
      "lon": "-7.159655425375585",
      "lat": "38.8873173244459"
    },
    {
      "id": "pt.ine.add.PTCONT.3490710",
      "street": "HORTA DO ACUDE DE CIMA",
      "house": "",
      "postcode": "7350-486",
      "city": "ELVAS",
      "lon": "-7.162929818233303",
      "lat": "38.886535971246204"
    },
    {
      "id": "pt.ine.add.PTCONT.3492546",
      "street": "EN 246 OLIVAL RUI DE MELO",
      "house": "",
      "postcode": "7350-049",
      "city": "ELVAS",
      "lon": "-7.168790836010121",
      "lat": "38.888629260326304"
    },
    {
      "id": "pt.ine.add.PTCONT.3494501",
      "street": "SEM DESIGNACAO",
      "house": "12",
      "postcode": "7350-409",
      "city": "ELVAS",
      "lon": "-7.165889178076547",
      "lat": "38.885760108169166"
    },
    {
      "id": "pt.ine.add.PTCONT.3495320",
      "street": "SIT RUI MELO",
      "house": "10",
      "postcode": "7350-052",
      "city": "ELVAS",
      "lon": "-7.1660767342984775",
      "lat": "38.88574241679502"
    },
    {
      "id": "pt.ine.add.PTCONT.3495321",
      "street": "",
      "house": "",
      "postcode": "7350-225",
      "city": "ELVAS",
      "lon": "-7.162032153952093",
      "lat": "38.90225342177196"
    },
    {
      "id": "pt.ine.add.PTCONT.3496716",
      "street": "QTA S CRISTOVAO",
      "house": "",
      "postcode": "7350-410",
      "city": "ELVAS",
      "lon": "-7.166571092347349",
      "lat": "38.88658418491334"
    },
    {
      "id": "pt.ine.add.PTCONT.3500090",
      "street": "R MATADOURO",
      "house": "",
      "postcode": "7350-263",
      "city": "ELVAS",
      "lon": "-7.1577674309837835",
      "lat": "38.88815937792187"
    },
    {
      "id": "pt.ine.add.PTCONT.3500659",
      "street": "HORTA DAS ÁGUAS QUENTES",
      "house": "",
      "postcode": "7350-225",
      "city": "ELVAS",
      "lon": "-7.158912181288041",
      "lat": "38.89130845736102"
    },
    {
      "id": "pt.ine.add.PTCONT.3500802",
      "street": "R MATADOURO",
      "house": "4",
      "postcode": "7350-263",
      "city": "ELVAS",
      "lon": "-7.158583263868486",
      "lat": "38.886652905091715"
    },
    {
      "id": "pt.ine.add.PTCONT.3500839",
      "street": "R MATADOURO",
      "house": "4",
      "postcode": "7350-263",
      "city": "ELVAS",
      "lon": "-7.158583263868486",
      "lat": "38.886652905091715"
    },
    {
      "id": "pt.ine.add.PTCONT.3502224",
      "street": "QTA S LAZARO",
      "house": "",
      "postcode": "7350-486",
      "city": "ELVAS",
      "lon": "-7.1612704660690545",
      "lat": "38.88562916063032"
    },
    {
      "id": "pt.ine.add.PTCONT.3504225",
      "street": "QTA ÁGUAS QUENTES",
      "house": "",
      "postcode": "7350-275",
      "city": "ELVAS",
      "lon": "-7.156958831805497",
      "lat": "38.89081888326017"
    },
    {
      "id": "pt.ine.add.PTCONT.3504798",
      "street": "QTA ÁGUAS QUENTES",
      "house": "",
      "postcode": "7350-275",
      "city": "ELVAS",
      "lon": "-7.156790191510145",
      "lat": "38.89087880988056"
    },
    {
      "id": "pt.ine.add.PTCONT.3506646",
      "street": "SIT RUI MELO",
      "house": "1 1",
      "postcode": "7350-052",
      "city": "ELVAS",
      "lon": "-7.165988349286359",
      "lat": "38.88574063897356"
    },
    {
      "id": "pt.ine.add.PTCONT.3506686",
      "street": "OLIVAL DA CAVALEIRA",
      "house": "103",
      "postcode": "7350-486",
      "city": "ELVAS",
      "lon": "-7.162945294058726",
      "lat": "38.888280714173966"
    },
    {
      "id": "pt.ine.add.PTCONT.3507150",
      "street": "SIT RUI MELO",
      "house": "",
      "postcode": "7350-052",
      "city": "ELVAS",
      "lon": "-7.165828700324817",
      "lat": "38.88728899413047"
    },
    {
      "id": "pt.ine.add.PTCONT.3508055",
      "street": "BLOCO DO CABECAS",
      "house": "2",
      "postcode": "7350-049",
      "city": "ELVAS",
      "lon": "-7.1661734157419055",
      "lat": "38.88552513943718"
    },
    {
      "id": "pt.ine.add.PTCONT.3509859",
      "street": "HORTA DAS ÁGUAS QUENTES",
      "house": "",
      "postcode": "7350-225",
      "city": "ELVAS",
      "lon": "-7.1598797764065205",
      "lat": "38.89130265666363"
    },
    {
      "id": "pt.ine.add.PTCONT.3510449",
      "street": "R MATADOURO",
      "house": "",
      "postcode": "7350-263",
      "city": "ELVAS",
      "lon": "-7.15936863735437",
      "lat": "38.88568663109835"
    },
    {
      "id": "pt.ine.add.PTCONT.3511639",
      "street": "SIT RUI MELO",
      "house": "4",
      "postcode": "7350-052",
      "city": "ELVAS",
      "lon": "-7.16525159951986",
      "lat": "38.886149895312215"
    },
    {
      "id": "pt.ine.add.PTCONT.3511640",
      "street": "SIT RUI MELO",
      "house": "",
      "postcode": "7350-052",
      "city": "ELVAS",
      "lon": "-7.16525159951986",
      "lat": "38.886149895312215"
    },
    {
      "id": "pt.ine.add.PTCONT.3511641",
      "street": "SIT RUI MELO",
      "house": "",
      "postcode": "7350-052",
      "city": "ELVAS",
      "lon": "-7.16525159951986",
      "lat": "38.886149895312215"
    },
    {
      "id": "pt.ine.add.PTCONT.3511642",
      "street": "SIT RUI MELO",
      "house": "",
      "postcode": "7350-052",
      "city": "ELVAS",
      "lon": "-7.16525159951986",
      "lat": "38.886149895312215"
    },
    {
      "id": "pt.ine.add.PTCONT.3511643",
      "street": "SIT RUI MELO",
      "house": "",
      "postcode": "7350-052",
      "city": "ELVAS",
      "lon": "-7.16525159951986",
      "lat": "38.886149895312215"
    },
    {
      "id": "pt.ine.add.PTCONT.3511644",
      "street": "SIT RUI MELO",
      "house": "",
      "postcode": "7350-052",
      "city": "ELVAS",
      "lon": "-7.16525159951986",
      "lat": "38.886149895312215"
    },
    {
      "id": "pt.ine.add.PTCONT.3511645",
      "street": "SIT RUI MELO",
      "house": "",
      "postcode": "7350-052",
      "city": "ELVAS",
      "lon": "-7.16525159951986",
      "lat": "38.886149895312215"
    },
    {
      "id": "pt.ine.add.PTCONT.3511646",
      "street": "SIT RUI MELO",
      "house": "",
      "postcode": "7350-052",
      "city": "ELVAS",
      "lon": "-7.16525159951986",
      "lat": "38.886149895312215"
    },
    {
      "id": "pt.ine.add.PTCONT.3512137",
      "street": "R MATADOURO",
      "house": "33",
      "postcode": "7350-263",
      "city": "ELVAS",
      "lon": "-7.1590081994153",
      "lat": "38.88594822894568"
    },
    {
      "id": "pt.ine.add.PTCONT.3512938",
      "street": "QTA LAGAR DOS FRADES",
      "house": "",
      "postcode": "7350-404",
      "city": "ELVAS",
      "lon": "-7.159901986374198",
      "lat": "38.88714130936452"
    },
    {
      "id": "pt.ine.add.PTCONT.3513414",
      "street": "QTA LAGAR DOS FRADES",
      "house": "",
      "postcode": "7350-404",
      "city": "ELVAS",
      "lon": "-7.159901986374198",
      "lat": "38.88714130936452"
    },
    {
      "id": "pt.ine.add.PTCONT.3514773",
      "street": "HORTA DA CAVALEIRA",
      "house": "",
      "postcode": "7350-049",
      "city": "ELVAS",
      "lon": "-7.163674198160106",
      "lat": "38.88817832340938"
    },
    {
      "id": "pt.ine.add.PTCONT.3516017",
      "street": "HORTA DO PORTO BAIXO",
      "house": "",
      "postcode": "7350-404",
      "city": "ELVAS",
      "lon": "-7.159919440904101",
      "lat": "38.888813561625"
    },
    {
      "id": "pt.ine.add.PTCONT.3517078",
      "street": "ESTR PONTE DAS HORTAS QTA DO CORACAO",
      "house": "",
      "postcode": "7350-225",
      "city": "ELVAS",
      "lon": "-7.156438623449668",
      "lat": "38.89682262688793"
    },
    {
      "id": "pt.ine.add.PTCONT.3519162",
      "street": "R MATADOURO",
      "house": "39",
      "postcode": "7350-263",
      "city": "ELVAS",
      "lon": "-7.158880248046846",
      "lat": "38.88608575044451"
    },
    {
      "id": "pt.ine.add.PTCONT.3522763",
      "street": "",
      "house": "",
      "postcode": "7350-410",
      "city": "ELVAS",
      "lon": "-7.168667225649778",
      "lat": "38.89947344235857"
    },
    {
      "id": "pt.ine.add.PTCONT.3523414",
      "street": "QTA VALE SOMBRIO DA FONTE DA PEDRA",
      "house": "",
      "postcode": "7350-410",
      "city": "ELVAS",
      "lon": "-7.165862397497971",
      "lat": "38.90229665077573"
    },
    {
      "id": "pt.ine.add.PTCONT.3525322",
      "street": "HORTA DA VINHA",
      "house": "",
      "postcode": "7350-404",
      "city": "ELVAS",
      "lon": "-7.160565573602787",
      "lat": "38.888413128243826"
    },
    {
      "id": "pt.ine.add.PTCONT.3529687",
      "street": "SIT RUI MELO",
      "house": "3A",
      "postcode": "7350-052",
      "city": "ELVAS",
      "lon": "-7.166176050960142",
      "lat": "38.88559820703649"
    },
    {
      "id": "pt.ine.add.PTCONT.3532291",
      "street": "EN 246 OLIVAL D JOAQUINA",
      "house": "",
      "postcode": "7350-410",
      "city": "ELVAS",
      "lon": "-7.169251640482879",
      "lat": "38.88949779968372"
    },
    {
      "id": "pt.ine.add.PTCONT.3532323",
      "street": "HORTA DO ACUDE DE BAIXO",
      "house": "",
      "postcode": "7350-486",
      "city": "ELVAS",
      "lon": "-7.163157498160395",
      "lat": "38.887158397204416"
    }
  ]
}