{
  "data": {
    "distrito": "Porto",
    "concelho": "Felgueiras",
    "freguesia": "União das freguesias de Vila Fria e Vizela (São Jorge)",
    "OBJECTID": 1132,
    "BGRI2021": "13034000118",
    "DT21": "13",
    "DTMN21": "1303",
    "DTMNFR21": "130340",
    "DTMNFRSEC21": "130340001",
    "SECNUM21": "001",
    "SSNUM21": "18",
    "SECSSNUM21": "00118",
    "OBJECTID_1": 127812,
    "DT": "13",
    "CC": "03",
    "fr": "40",
    "SEC": "001",
    "SS": "18"
  },
  "addresses": [
    {
      "id": "pt.ine.add.PTCONT.3544750",
      "street": "R DEVESA",
      "house": "268",
      "postcode": "4610-885",
      "city": "VIZELA (SÃO JORGE)",
      "lon": "-8.251117886291496",
      "lat": "41.38339798304844"
    },
    {
      "id": "pt.ine.add.PTCONT.3553199",
      "street": "R VAGAO",
      "house": "52",
      "postcode": "4610-891",
      "city": "VIZELA (SÃO JORGE)",
      "lon": "-8.246824260517213",
      "lat": "41.382411862480986"
    },
    {
      "id": "pt.ine.add.PTCONT.3558484",
      "street": "R VAGAO",
      "house": "52",
      "postcode": "4610-891",
      "city": "VIZELA (SÃO JORGE)",
      "lon": "-8.246824260517213",
      "lat": "41.382411862480986"
    },
    {
      "id": "pt.ine.add.PTCONT.3572416",
      "street": "R MONTE",
      "house": "138",
      "postcode": "4610-885",
      "city": "VIZELA (SÃO JORGE)",
      "lon": "-8.248307725998332",
      "lat": "41.383004653157116"
    },
    {
      "id": "pt.ine.add.PTCONT.3614898",
      "street": "R CASAL",
      "house": "90",
      "postcode": "4610-843",
      "city": "VILA FRIA FLG",
      "lon": "-8.248236868957598",
      "lat": "41.383499945846815"
    },
    {
      "id": "pt.ine.add.PTCONT.3630393",
      "street": "R GUERREIRO GALAICO",
      "house": "145",
      "postcode": "4610-885",
      "city": "VIZELA (SÃO JORGE)",
      "lon": "-8.249633245225857",
      "lat": "41.38216594346457"
    },
    {
      "id": "pt.ine.add.PTCONT.3637074",
      "street": "R CASAL",
      "house": "224",
      "postcode": "4610-843",
      "city": "VILA FRIA FLG",
      "lon": "-8.247231343560658",
      "lat": "41.382762616786735"
    },
    {
      "id": "pt.ine.add.PTCONT.3641727",
      "street": "R CASAL",
      "house": "224",
      "postcode": "4610-843",
      "city": "VILA FRIA FLG",
      "lon": "-8.247231343560658",
      "lat": "41.382762616786735"
    },
    {
      "id": "pt.ine.add.PTCONT.3766085",
      "street": "R VAGAO",
      "house": "250",
      "postcode": "4610-891",
      "city": "VIZELA (SÃO JORGE)",
      "lon": "-8.249071747507747",
      "lat": "41.38238260748039"
    },
    {
      "id": "pt.ine.add.PTCONT.3798880",
      "street": "R VAGAO",
      "house": "210",
      "postcode": "4610-891",
      "city": "VIZELA (SÃO JORGE)",
      "lon": "-8.248988702104434",
      "lat": "41.38274285247197"
    },
    {
      "id": "pt.ine.add.PTCONT.3856334",
      "street": "R MONTE",
      "house": "136",
      "postcode": "4610-885",
      "city": "VIZELA (SÃO JORGE)",
      "lon": "-8.248415448979133",
      "lat": "41.383076577527696"
    },
    {
      "id": "pt.ine.add.PTCONT.3861366",
      "street": "R CASAL",
      "house": "24",
      "postcode": "4610-882",
      "city": "VIZELA (SÃO JORGE)",
      "lon": "-8.249038249309791",
      "lat": "41.38371523805772"
    },
    {
      "id": "pt.ine.add.PTCONT.3869273",
      "street": "R VAGAO",
      "house": "230",
      "postcode": "4610-891",
      "city": "VIZELA (SÃO JORGE)",
      "lon": "-8.248963657396626",
      "lat": "41.38210359130462"
    },
    {
      "id": "pt.ine.add.PTCONT.3882425",
      "street": "R DEVESA",
      "house": "88",
      "postcode": "4610-885",
      "city": "VIZELA (SÃO JORGE)",
      "lon": "-8.249933343118489",
      "lat": "41.38284994573292"
    },
    {
      "id": "pt.ine.add.PTCONT.3888688",
      "street": "R VAGAO",
      "house": "260",
      "postcode": "4610-891",
      "city": "VIZELA (SÃO JORGE)",
      "lon": "-8.249322352981736",
      "lat": "41.38213024171889"
    },
    {
      "id": "pt.ine.add.PTCONT.3991835",
      "street": "R DEVESA",
      "house": "52",
      "postcode": "4610-885",
      "city": "VIZELA (SÃO JORGE)",
      "lon": "-8.249813309644178",
      "lat": "41.38257994653707"
    },
    {
      "id": "pt.ine.add.PTCONT.4020753",
      "street": "R CASAL",
      "house": "",
      "postcode": "4610-882",
      "city": "VIZELA (SÃO JORGE)",
      "lon": "-8.249420976527869",
      "lat": "41.383804892161685"
    },
    {
      "id": "pt.ine.add.PTCONT.4076787",
      "street": "R VAGAO",
      "house": "82",
      "postcode": "4610-891",
      "city": "VIZELA (SÃO JORGE)",
      "lon": "-8.247242700344788",
      "lat": "41.382420452254316"
    },
    {
      "id": "pt.ine.add.PTCONT.4096939",
      "street": "R MONTE",
      "house": "124",
      "postcode": "4610-885",
      "city": "VIZELA (SÃO JORGE)",
      "lon": "-8.248786056921737",
      "lat": "41.38307620557288"
    },
    {
      "id": "pt.ine.add.PTCONT.4096940",
      "street": "R MONTE",
      "house": "124",
      "postcode": "4610-885",
      "city": "VIZELA (SÃO JORGE)",
      "lon": "-8.248786056921737",
      "lat": "41.38307620557288"
    },
    {
      "id": "pt.ine.add.PTCONT.4149034",
      "street": "R VAGAO",
      "house": "180",
      "postcode": "4610-891",
      "city": "VIZELA (SÃO JORGE)",
      "lon": "-8.248449770982894",
      "lat": "41.38220315190401"
    },
    {
      "id": "pt.ine.add.PTCONT.4357393",
      "street": "R CASAL",
      "house": "104",
      "postcode": "4610-843",
      "city": "VILA FRIA FLG",
      "lon": "-8.248033567609196",
      "lat": "41.38346413293705"
    },
    {
      "id": "pt.ine.add.PTCONT.4386629",
      "street": "R VAGAO",
      "house": "212",
      "postcode": "4610-891",
      "city": "VIZELA (SÃO JORGE)",
      "lon": "-8.24871319415197",
      "lat": "41.38243699244639"
    }
  ]
}