{
  "data": {
    "distrito": "Porto",
    "concelho": "Maia",
    "freguesia": "Pedrou√ßos",
    "OBJECTID": 714,
    "BGRI2021": "13061700202",
    "DT21": "13",
    "DTMN21": "1306",
    "DTMNFR21": "130617",
    "DTMNFRSEC21": "130617002",
    "SECNUM21": "002",
    "SSNUM21": "02",
    "SECSSNUM21": "00202",
    "OBJECTID_1": 130741,
    "DT": "13",
    "CC": "06",
    "fr": "17",
    "SEC": "002",
    "SS": "02"
  },
  "addresses": [
    {
      "id": "pt.ine.add.PTCONT.3547558",
      "street": "TV ARTUR NEVES",
      "house": "54",
      "postcode": "4425-625",
      "city": "MAIA",
      "lon": "-8.585086585672533",
      "lat": "41.18292172419692"
    },
    {
      "id": "pt.ine.add.PTCONT.3547575",
      "street": "R OLIVEIRAS",
      "house": "193",
      "postcode": "4425-677",
      "city": "MAIA",
      "lon": "-8.583886544508797",
      "lat": "41.18346668592549"
    },
    {
      "id": "pt.ine.add.PTCONT.3552652",
      "street": "R BAIRRO VILELA",
      "house": "CASA 3",
      "postcode": "4425-698",
      "city": "MAIA",
      "lon": "-8.584102430287759",
      "lat": "41.18192610346377"
    },
    {
      "id": "pt.ine.add.PTCONT.3554358",
      "street": "R OLIVEIRAS",
      "house": "215",
      "postcode": "4425-677",
      "city": "MAIA",
      "lon": "-8.584124541334278",
      "lat": "41.183411728322824"
    },
    {
      "id": "pt.ine.add.PTCONT.3554367",
      "street": "R PARTICULAR DE D AFONSO HENRIQUES",
      "house": "81",
      "postcode": "4425-685",
      "city": "MAIA",
      "lon": "-8.583774587688499",
      "lat": "41.182782796412724"
    },
    {
      "id": "pt.ine.add.PTCONT.3558798",
      "street": "R PARTICULAR DE D AFONSO HENRIQUES",
      "house": "81",
      "postcode": "4425-685",
      "city": "MAIA",
      "lon": "-8.583774587688499",
      "lat": "41.182782796412724"
    },
    {
      "id": "pt.ine.add.PTCONT.3558799",
      "street": "R PARTICULAR DE D AFONSO HENRIQUES",
      "house": "81",
      "postcode": "4425-685",
      "city": "MAIA",
      "lon": "-8.583774587688499",
      "lat": "41.182782796412724"
    },
    {
      "id": "pt.ine.add.PTCONT.3558800",
      "street": "R PARTICULAR DE D AFONSO HENRIQUES",
      "house": "81",
      "postcode": "4425-685",
      "city": "MAIA",
      "lon": "-8.583774587688499",
      "lat": "41.182782796412724"
    },
    {
      "id": "pt.ine.add.PTCONT.3558801",
      "street": "R PARTICULAR DE D AFONSO HENRIQUES",
      "house": "81",
      "postcode": "4425-685",
      "city": "MAIA",
      "lon": "-8.583774587688499",
      "lat": "41.182782796412724"
    },
    {
      "id": "pt.ine.add.PTCONT.3558815",
      "street": "R PARTICULAR DE D AFONSO HENRIQUES",
      "house": "81",
      "postcode": "4425-685",
      "city": "MAIA",
      "lon": "-8.583774587688499",
      "lat": "41.182782796412724"
    },
    {
      "id": "pt.ine.add.PTCONT.3560828",
      "street": "R ARTUR NEVES",
      "house": "108",
      "postcode": "4425-624",
      "city": "MAIA",
      "lon": "-8.584618000478047",
      "lat": "41.18237429909756"
    },
    {
      "id": "pt.ine.add.PTCONT.3570790",
      "street": "R PARTICULAR D AFONSO HENRIQUES",
      "house": "46 A",
      "postcode": "4425-705",
      "city": "MAIA",
      "lon": "-8.58384936936221",
      "lat": "41.18325973227201"
    },
    {
      "id": "pt.ine.add.PTCONT.3583292",
      "street": "R ARTUR NEVES",
      "house": "4",
      "postcode": "4425-624",
      "city": "MAIA",
      "lon": "-8.58455723474047",
      "lat": "41.18220345536315"
    },
    {
      "id": "pt.ine.add.PTCONT.3586164",
      "street": "PCT VITORINO NEMESIO",
      "house": "83",
      "postcode": "4425-700",
      "city": "MAIA",
      "lon": "-8.58689789881537",
      "lat": "41.181149756607"
    },
    {
      "id": "pt.ine.add.PTCONT.3586165",
      "street": "PCT VITORINO NEMESIO",
      "house": "83",
      "postcode": "4425-700",
      "city": "MAIA",
      "lon": "-8.58689789881537",
      "lat": "41.181149756607"
    },
    {
      "id": "pt.ine.add.PTCONT.3586166",
      "street": "PCT VITORINO NEMESIO",
      "house": "83",
      "postcode": "4425-700",
      "city": "MAIA",
      "lon": "-8.58689789881537",
      "lat": "41.181149756607"
    },
    {
      "id": "pt.ine.add.PTCONT.3586167",
      "street": "PCT VITORINO NEMESIO",
      "house": "83",
      "postcode": "4425-700",
      "city": "MAIA",
      "lon": "-8.58689789881537",
      "lat": "41.181149756607"
    },
    {
      "id": "pt.ine.add.PTCONT.3586168",
      "street": "PCT VITORINO NEMESIO",
      "house": "83",
      "postcode": "4425-700",
      "city": "MAIA",
      "lon": "-8.58689789881537",
      "lat": "41.181149756607"
    },
    {
      "id": "pt.ine.add.PTCONT.3586169",
      "street": "PCT VITORINO NEMESIO",
      "house": "83",
      "postcode": "4425-700",
      "city": "MAIA",
      "lon": "-8.58689789881537",
      "lat": "41.181149756607"
    },
    {
      "id": "pt.ine.add.PTCONT.3586170",
      "street": "PCT VITORINO NEMESIO",
      "house": "83",
      "postcode": "4425-700",
      "city": "MAIA",
      "lon": "-8.58689789881537",
      "lat": "41.181149756607"
    },
    {
      "id": "pt.ine.add.PTCONT.3586171",
      "street": "PCT VITORINO NEMESIO",
      "house": "83",
      "postcode": "4425-700",
      "city": "MAIA",
      "lon": "-8.58689789881537",
      "lat": "41.181149756607"
    },
    {
      "id": "pt.ine.add.PTCONT.3586172",
      "street": "PCT VITORINO NEMESIO",
      "house": "83",
      "postcode": "4425-700",
      "city": "MAIA",
      "lon": "-8.58689789881537",
      "lat": "41.181149756607"
    },
    {
      "id": "pt.ine.add.PTCONT.3586180",
      "street": "PCT VITORINO NEMESIO",
      "house": "83",
      "postcode": "4425-700",
      "city": "MAIA",
      "lon": "-8.58689789881537",
      "lat": "41.181149756607"
    },
    {
      "id": "pt.ine.add.PTCONT.3586181",
      "street": "PCT VITORINO NEMESIO",
      "house": "83",
      "postcode": "4425-700",
      "city": "MAIA",
      "lon": "-8.58689789881537",
      "lat": "41.181149756607"
    },
    {
      "id": "pt.ine.add.PTCONT.3589748",
      "street": "PCT VITORINO NEMESIO",
      "house": "83",
      "postcode": "4425-700",
      "city": "MAIA",
      "lon": "-8.58689789881537",
      "lat": "41.181149756607"
    },
    {
      "id": "pt.ine.add.PTCONT.3590052",
      "street": "PCT VITORINO NEMESIO",
      "house": "83",
      "postcode": "4425-700",
      "city": "MAIA",
      "lon": "-8.58689789881537",
      "lat": "41.181149756607"
    },
    {
      "id": "pt.ine.add.PTCONT.3590086",
      "street": "PCT VITORINO NEMESIO",
      "house": "83",
      "postcode": "4425-700",
      "city": "MAIA",
      "lon": "-8.58689789881537",
      "lat": "41.181149756607"
    },
    {
      "id": "pt.ine.add.PTCONT.3590282",
      "street": "PCT VITORINO NEMESIO",
      "house": "83",
      "postcode": "4425-700",
      "city": "MAIA",
      "lon": "-8.58689789881537",
      "lat": "41.181149756607"
    },
    {
      "id": "pt.ine.add.PTCONT.3590283",
      "street": "PCT VITORINO NEMESIO",
      "house": "83",
      "postcode": "4425-700",
      "city": "MAIA",
      "lon": "-8.58689789881537",
      "lat": "41.181149756607"
    },
    {
      "id": "pt.ine.add.PTCONT.3590284",
      "street": "PCT VITORINO NEMESIO",
      "house": "83",
      "postcode": "4425-700",
      "city": "MAIA",
      "lon": "-8.58689789881537",
      "lat": "41.181149756607"
    },
    {
      "id": "pt.ine.add.PTCONT.3590285",
      "street": "PCT VITORINO NEMESIO",
      "house": "83",
      "postcode": "4425-700",
      "city": "MAIA",
      "lon": "-8.58689789881537",
      "lat": "41.181149756607"
    },
    {
      "id": "pt.ine.add.PTCONT.3590286",
      "street": "PCT VITORINO NEMESIO",
      "house": "83",
      "postcode": "4425-700",
      "city": "MAIA",
      "lon": "-8.58689789881537",
      "lat": "41.181149756607"
    },
    {
      "id": "pt.ine.add.PTCONT.3590287",
      "street": "PCT VITORINO NEMESIO",
      "house": "83",
      "postcode": "4425-700",
      "city": "MAIA",
      "lon": "-8.58689789881537",
      "lat": "41.181149756607"
    },
    {
      "id": "pt.ine.add.PTCONT.3590288",
      "street": "PCT VITORINO NEMESIO",
      "house": "83",
      "postcode": "4425-700",
      "city": "MAIA",
      "lon": "-8.58689789881537",
      "lat": "41.181149756607"
    },
    {
      "id": "pt.ine.add.PTCONT.3590289",
      "street": "PCT VITORINO NEMESIO",
      "house": "83",
      "postcode": "4425-700",
      "city": "MAIA",
      "lon": "-8.58689789881537",
      "lat": "41.181149756607"
    },
    {
      "id": "pt.ine.add.PTCONT.3590290",
      "street": "PCT VITORINO NEMESIO",
      "house": "83",
      "postcode": "4425-700",
      "city": "MAIA",
      "lon": "-8.58689789881537",
      "lat": "41.181149756607"
    },
    {
      "id": "pt.ine.add.PTCONT.3590291",
      "street": "PCT VITORINO NEMESIO",
      "house": "83",
      "postcode": "4425-700",
      "city": "MAIA",
      "lon": "-8.58689789881537",
      "lat": "41.181149756607"
    },
    {
      "id": "pt.ine.add.PTCONT.3590292",
      "street": "PCT VITORINO NEMESIO",
      "house": "83",
      "postcode": "4425-700",
      "city": "MAIA",
      "lon": "-8.58689789881537",
      "lat": "41.181149756607"
    },
    {
      "id": "pt.ine.add.PTCONT.3590293",
      "street": "PCT VITORINO NEMESIO",
      "house": "83",
      "postcode": "4425-700",
      "city": "MAIA",
      "lon": "-8.58689789881537",
      "lat": "41.181149756607"
    },
    {
      "id": "pt.ine.add.PTCONT.3590294",
      "street": "PCT VITORINO NEMESIO",
      "house": "83",
      "postcode": "4425-700",
      "city": "MAIA",
      "lon": "-8.58689789881537",
      "lat": "41.181149756607"
    },
    {
      "id": "pt.ine.add.PTCONT.3590295",
      "street": "PCT VITORINO NEMESIO",
      "house": "83",
      "postcode": "4425-700",
      "city": "MAIA",
      "lon": "-8.58689789881537",
      "lat": "41.181149756607"
    },
    {
      "id": "pt.ine.add.PTCONT.3590296",
      "street": "PCT VITORINO NEMESIO",
      "house": "83",
      "postcode": "4425-700",
      "city": "MAIA",
      "lon": "-8.58689789881537",
      "lat": "41.181149756607"
    },
    {
      "id": "pt.ine.add.PTCONT.3593394",
      "street": "R GON√áALO MENDES DA MAIA",
      "house": "75",
      "postcode": "4425-656",
      "city": "MAIA",
      "lon": "-8.585421993283257",
      "lat": "41.18143469593573"
    },
    {
      "id": "pt.ine.add.PTCONT.3599220",
      "street": "R PARTICULAR DE D AFONSO HENRIQUES",
      "house": "36",
      "postcode": "4425-705",
      "city": "MAIA",
      "lon": "-8.583763903979836",
      "lat": "41.18296292444685"
    },
    {
      "id": "pt.ine.add.PTCONT.3615480",
      "street": "LG 9 DE ABRIL",
      "house": "53",
      "postcode": "4425-609",
      "city": "MAIA",
      "lon": "-8.584707365871534",
      "lat": "41.18323836263088"
    },
    {
      "id": "pt.ine.add.PTCONT.3622559",
      "street": "ESTR CIRCUNVALA√á√ÉO",
      "house": "6228",
      "postcode": "4425-650",
      "city": "MAIA",
      "lon": "-8.58510884404583",
      "lat": "41.1809586966684"
    },
    {
      "id": "pt.ine.add.PTCONT.3622560",
      "street": "ESTR CIRCUNVALA√á√ÉO",
      "house": "6228",
      "postcode": "4425-650",
      "city": "MAIA",
      "lon": "-8.58510884404583",
      "lat": "41.1809586966684"
    },
    {
      "id": "pt.ine.add.PTCONT.3656425",
      "street": "TV ARTUR NEVES",
      "house": "66",
      "postcode": "4425-625",
      "city": "MAIA",
      "lon": "-8.584991548955992",
      "lat": "41.182967118666255"
    },
    {
      "id": "pt.ine.add.PTCONT.3657416",
      "street": "R GON√áALO MENDES DA MAIA",
      "house": "105",
      "postcode": "4425-656",
      "city": "MAIA",
      "lon": "-8.5858147293556",
      "lat": "41.1813521140974"
    },
    {
      "id": "pt.ine.add.PTCONT.3657417",
      "street": "R GON√áALO MENDES DA MAIA",
      "house": "105",
      "postcode": "4425-656",
      "city": "MAIA",
      "lon": "-8.5858147293556",
      "lat": "41.1813521140974"
    },
    {
      "id": "pt.ine.add.PTCONT.3657418",
      "street": "R GON√áALO MENDES DA MAIA",
      "house": "105",
      "postcode": "4425-656",
      "city": "MAIA",
      "lon": "-8.5858147293556",
      "lat": "41.1813521140974"
    },
    {
      "id": "pt.ine.add.PTCONT.3660492",
      "street": "R GON√áALO MENDES DA MAIA",
      "house": "105",
      "postcode": "4425-656",
      "city": "MAIA",
      "lon": "-8.5858147293556",
      "lat": "41.1813521140974"
    },
    {
      "id": "pt.ine.add.PTCONT.3661196",
      "street": "R GON√áALO MENDES DA MAIA",
      "house": "105",
      "postcode": "4425-656",
      "city": "MAIA",
      "lon": "-8.5858147293556",
      "lat": "41.1813521140974"
    },
    {
      "id": "pt.ine.add.PTCONT.3661197",
      "street": "R GON√áALO MENDES DA MAIA",
      "house": "105",
      "postcode": "4425-656",
      "city": "MAIA",
      "lon": "-8.5858147293556",
      "lat": "41.1813521140974"
    },
    {
      "id": "pt.ine.add.PTCONT.3661198",
      "street": "R GON√áALO MENDES DA MAIA",
      "house": "105",
      "postcode": "4425-656",
      "city": "MAIA",
      "lon": "-8.5858147293556",
      "lat": "41.1813521140974"
    },
    {
      "id": "pt.ine.add.PTCONT.3661199",
      "street": "R GON√áALO MENDES DA MAIA",
      "house": "105",
      "postcode": "4425-656",
      "city": "MAIA",
      "lon": "-8.5858147293556",
      "lat": "41.1813521140974"
    },
    {
      "id": "pt.ine.add.PTCONT.3661200",
      "street": "R GON√áALO MENDES DA MAIA",
      "house": "105",
      "postcode": "4425-656",
      "city": "MAIA",
      "lon": "-8.5858147293556",
      "lat": "41.1813521140974"
    },
    {
      "id": "pt.ine.add.PTCONT.3661201",
      "street": "R GON√áALO MENDES DA MAIA",
      "house": "105",
      "postcode": "4425-656",
      "city": "MAIA",
      "lon": "-8.5858147293556",
      "lat": "41.1813521140974"
    },
    {
      "id": "pt.ine.add.PTCONT.3661202",
      "street": "R GON√áALO MENDES DA MAIA",
      "house": "105",
      "postcode": "4425-656",
      "city": "MAIA",
      "lon": "-8.5858147293556",
      "lat": "41.1813521140974"
    },
    {
      "id": "pt.ine.add.PTCONT.3661203",
      "street": "R GON√áALO MENDES DA MAIA",
      "house": "105",
      "postcode": "4425-656",
      "city": "MAIA",
      "lon": "-8.5858147293556",
      "lat": "41.1813521140974"
    },
    {
      "id": "pt.ine.add.PTCONT.3661204",
      "street": "R GON√áALO MENDES DA MAIA",
      "house": "105",
      "postcode": "4425-656",
      "city": "MAIA",
      "lon": "-8.5858147293556",
      "lat": "41.1813521140974"
    },
    {
      "id": "pt.ine.add.PTCONT.3661205",
      "street": "R GON√áALO MENDES DA MAIA",
      "house": "105",
      "postcode": "4425-656",
      "city": "MAIA",
      "lon": "-8.5858147293556",
      "lat": "41.1813521140974"
    },
    {
      "id": "pt.ine.add.PTCONT.3661206",
      "street": "R GON√áALO MENDES DA MAIA",
      "house": "105",
      "postcode": "4425-656",
      "city": "MAIA",
      "lon": "-8.5858147293556",
      "lat": "41.1813521140974"
    },
    {
      "id": "pt.ine.add.PTCONT.3661207",
      "street": "R GON√áALO MENDES DA MAIA",
      "house": "105",
      "postcode": "4425-656",
      "city": "MAIA",
      "lon": "-8.5858147293556",
      "lat": "41.1813521140974"
    },
    {
      "id": "pt.ine.add.PTCONT.3661208",
      "street": "R GON√áALO MENDES DA MAIA",
      "house": "105",
      "postcode": "4425-656",
      "city": "MAIA",
      "lon": "-8.5858147293556",
      "lat": "41.1813521140974"
    },
    {
      "id": "pt.ine.add.PTCONT.3661209",
      "street": "R GON√áALO MENDES DA MAIA",
      "house": "105",
      "postcode": "4425-656",
      "city": "MAIA",
      "lon": "-8.5858147293556",
      "lat": "41.1813521140974"
    },
    {
      "id": "pt.ine.add.PTCONT.3661210",
      "street": "R GON√áALO MENDES DA MAIA",
      "house": "105",
      "postcode": "4425-656",
      "city": "MAIA",
      "lon": "-8.5858147293556",
      "lat": "41.1813521140974"
    },
    {
      "id": "pt.ine.add.PTCONT.3661211",
      "street": "R GON√áALO MENDES DA MAIA",
      "house": "105",
      "postcode": "4425-656",
      "city": "MAIA",
      "lon": "-8.5858147293556",
      "lat": "41.1813521140974"
    },
    {
      "id": "pt.ine.add.PTCONT.3661212",
      "street": "R GON√áALO MENDES DA MAIA",
      "house": "105",
      "postcode": "4425-656",
      "city": "MAIA",
      "lon": "-8.5858147293556",
      "lat": "41.1813521140974"
    },
    {
      "id": "pt.ine.add.PTCONT.3661213",
      "street": "R GON√áALO MENDES DA MAIA",
      "house": "105",
      "postcode": "4425-656",
      "city": "MAIA",
      "lon": "-8.5858147293556",
      "lat": "41.1813521140974"
    },
    {
      "id": "pt.ine.add.PTCONT.3661214",
      "street": "R GON√áALO MENDES DA MAIA",
      "house": "105",
      "postcode": "4425-656",
      "city": "MAIA",
      "lon": "-8.5858147293556",
      "lat": "41.1813521140974"
    },
    {
      "id": "pt.ine.add.PTCONT.3661215",
      "street": "R GON√áALO MENDES DA MAIA",
      "house": "105",
      "postcode": "4425-656",
      "city": "MAIA",
      "lon": "-8.5858147293556",
      "lat": "41.1813521140974"
    },
    {
      "id": "pt.ine.add.PTCONT.3661216",
      "street": "R GON√áALO MENDES DA MAIA",
      "house": "105",
      "postcode": "4425-656",
      "city": "MAIA",
      "lon": "-8.5858147293556",
      "lat": "41.1813521140974"
    },
    {
      "id": "pt.ine.add.PTCONT.3661217",
      "street": "R GON√áALO MENDES DA MAIA",
      "house": "105",
      "postcode": "4425-656",
      "city": "MAIA",
      "lon": "-8.5858147293556",
      "lat": "41.1813521140974"
    },
    {
      "id": "pt.ine.add.PTCONT.3661218",
      "street": "R GON√áALO MENDES DA MAIA",
      "house": "105",
      "postcode": "4425-656",
      "city": "MAIA",
      "lon": "-8.5858147293556",
      "lat": "41.1813521140974"
    },
    {
      "id": "pt.ine.add.PTCONT.3661219",
      "street": "R GON√áALO MENDES DA MAIA",
      "house": "105",
      "postcode": "4425-656",
      "city": "MAIA",
      "lon": "-8.5858147293556",
      "lat": "41.1813521140974"
    },
    {
      "id": "pt.ine.add.PTCONT.3661220",
      "street": "R GON√áALO MENDES DA MAIA",
      "house": "105",
      "postcode": "4425-656",
      "city": "MAIA",
      "lon": "-8.5858147293556",
      "lat": "41.1813521140974"
    },
    {
      "id": "pt.ine.add.PTCONT.3661221",
      "street": "R GON√áALO MENDES DA MAIA",
      "house": "105",
      "postcode": "4425-656",
      "city": "MAIA",
      "lon": "-8.5858147293556",
      "lat": "41.1813521140974"
    },
    {
      "id": "pt.ine.add.PTCONT.3661222",
      "street": "R GON√áALO MENDES DA MAIA",
      "house": "105",
      "postcode": "4425-656",
      "city": "MAIA",
      "lon": "-8.5858147293556",
      "lat": "41.1813521140974"
    },
    {
      "id": "pt.ine.add.PTCONT.3661223",
      "street": "R GON√áALO MENDES DA MAIA",
      "house": "105",
      "postcode": "4425-656",
      "city": "MAIA",
      "lon": "-8.5858147293556",
      "lat": "41.1813521140974"
    },
    {
      "id": "pt.ine.add.PTCONT.3668582",
      "street": "R DR AM√âRICO CARDOSO",
      "house": "60A CASA 5",
      "postcode": "4425-705",
      "city": "MAIA",
      "lon": "-8.583515100657323",
      "lat": "41.183180001169546"
    },
    {
      "id": "pt.ine.add.PTCONT.3670170",
      "street": "TV ARTUR NEVES",
      "house": "84",
      "postcode": "4425-625",
      "city": "MAIA",
      "lon": "-8.584789742432958",
      "lat": "41.183084966316706"
    },
    {
      "id": "pt.ine.add.PTCONT.3687450",
      "street": "R DR AM√âRICO CARDOSO",
      "house": "60A CASA 3",
      "postcode": "4425-705",
      "city": "MAIA",
      "lon": "-8.58356197184942",
      "lat": "41.183062761817666"
    },
    {
      "id": "pt.ine.add.PTCONT.3689084",
      "street": "R GON√áALO MENDES DA MAIA",
      "house": "127",
      "postcode": "4425-656",
      "city": "MAIA",
      "lon": "-8.586055012291604",
      "lat": "41.181630303103894"
    },
    {
      "id": "pt.ine.add.PTCONT.3689089",
      "street": "R PARTICULAR DE D AFONSO HENRIQUES",
      "house": "34 A",
      "postcode": "4425-705",
      "city": "MAIA",
      "lon": "-8.583634283891357",
      "lat": "41.18317953502283"
    },
    {
      "id": "pt.ine.add.PTCONT.3695856",
      "street": "R ARTUR NEVES",
      "house": "92",
      "postcode": "4425-624",
      "city": "MAIA",
      "lon": "-8.584902984691071",
      "lat": "41.182220108236045"
    },
    {
      "id": "pt.ine.add.PTCONT.3707583",
      "street": "R BAIRRO VILELA",
      "house": "CASA 7",
      "postcode": "4425-698",
      "city": "MAIA",
      "lon": "-8.58419901074602",
      "lat": "41.18210581149518"
    },
    {
      "id": "pt.ine.add.PTCONT.3709136",
      "street": "R OLIVEIRAS",
      "house": "223",
      "postcode": "4425-677",
      "city": "MAIA",
      "lon": "-8.58418407137079",
      "lat": "41.18340249087986"
    },
    {
      "id": "pt.ine.add.PTCONT.3722278",
      "street": "TV ARTUR NEVES",
      "house": "76",
      "postcode": "4425-625",
      "city": "MAIA",
      "lon": "-8.584908492282956",
      "lat": "41.18302147037392"
    },
    {
      "id": "pt.ine.add.PTCONT.3722295",
      "street": "R PARTICULAR D AFONSO HENRIQUES",
      "house": "46B",
      "postcode": "4425-685",
      "city": "MAIA",
      "lon": "-8.583789592479956",
      "lat": "41.18323295326433"
    },
    {
      "id": "pt.ine.add.PTCONT.3728915",
      "street": "R ARTUR NEVES",
      "house": "76",
      "postcode": "4425-624",
      "city": "MAIA",
      "lon": "-8.584806773352547",
      "lat": "41.182094425229025"
    },
    {
      "id": "pt.ine.add.PTCONT.3733564",
      "street": "R BAIRRO VILELA",
      "house": "CASA 4",
      "postcode": "4425-698",
      "city": "MAIA",
      "lon": "-8.58416239144226",
      "lat": "41.18197989453336"
    },
    {
      "id": "pt.ine.add.PTCONT.3746371",
      "street": "R ARTUR NEVES",
      "house": "88 CASA 1",
      "postcode": "4425-624",
      "city": "MAIA",
      "lon": "-8.584711923198032",
      "lat": "41.18216683167866"
    },
    {
      "id": "pt.ine.add.PTCONT.3750711",
      "street": "LG 9 DE ABRIL",
      "house": "38",
      "postcode": "4425-609",
      "city": "MAIA",
      "lon": "-8.584564778747657",
      "lat": "41.18330195180388"
    },
    {
      "id": "pt.ine.add.PTCONT.3760784",
      "street": "R ARTUR NEVES",
      "house": "88",
      "postcode": "4425-624",
      "city": "MAIA",
      "lon": "-8.58474835807788",
      "lat": "41.18226573624663"
    },
    {
      "id": "pt.ine.add.PTCONT.3760785",
      "street": "R ARTUR NEVES",
      "house": "96",
      "postcode": "4425-624",
      "city": "MAIA",
      "lon": "-8.584915026605227",
      "lat": "41.1822380696233"
    },
    {
      "id": "pt.ine.add.PTCONT.3760792",
      "street": "R ANT√ìNIO FELICIANO DE CASTILHO",
      "house": "164",
      "postcode": "4425-617",
      "city": "MAIA",
      "lon": "-8.58779105995466",
      "lat": "41.18104718664337"
    },
    {
      "id": "pt.ine.add.PTCONT.3760793",
      "street": "R ANT√ìNIO FELICIANO DE CASTILHO",
      "house": "164",
      "postcode": "4425-617",
      "city": "MAIA",
      "lon": "-8.58779105995466",
      "lat": "41.18104718664337"
    },
    {
      "id": "pt.ine.add.PTCONT.3760794",
      "street": "R ANT√ìNIO FELICIANO DE CASTILHO",
      "house": "164",
      "postcode": "4425-617",
      "city": "MAIA",
      "lon": "-8.58779105995466",
      "lat": "41.18104718664337"
    },
    {
      "id": "pt.ine.add.PTCONT.3760795",
      "street": "R ANT√ìNIO FELICIANO DE CASTILHO",
      "house": "164",
      "postcode": "4425-617",
      "city": "MAIA",
      "lon": "-8.58779105995466",
      "lat": "41.18104718664337"
    },
    {
      "id": "pt.ine.add.PTCONT.3760796",
      "street": "R ANT√ìNIO FELICIANO DE CASTILHO",
      "house": "164",
      "postcode": "4425-617",
      "city": "MAIA",
      "lon": "-8.58779105995466",
      "lat": "41.18104718664337"
    },
    {
      "id": "pt.ine.add.PTCONT.3760797",
      "street": "R ANT√ìNIO FELICIANO DE CASTILHO",
      "house": "164",
      "postcode": "4425-617",
      "city": "MAIA",
      "lon": "-8.58779105995466",
      "lat": "41.18104718664337"
    },
    {
      "id": "pt.ine.add.PTCONT.3760798",
      "street": "R ANT√ìNIO FELICIANO DE CASTILHO",
      "house": "164",
      "postcode": "4425-617",
      "city": "MAIA",
      "lon": "-8.58779105995466",
      "lat": "41.18104718664337"
    },
    {
      "id": "pt.ine.add.PTCONT.3764619",
      "street": "R ANT√ìNIO FELICIANO DE CASTILHO",
      "house": "164",
      "postcode": "4425-617",
      "city": "MAIA",
      "lon": "-8.58779105995466",
      "lat": "41.18104718664337"
    },
    {
      "id": "pt.ine.add.PTCONT.3764971",
      "street": "R ANT√ìNIO FELICIANO DE CASTILHO",
      "house": "164",
      "postcode": "4425-617",
      "city": "MAIA",
      "lon": "-8.58779105995466",
      "lat": "41.18104718664337"
    },
    {
      "id": "pt.ine.add.PTCONT.3764972",
      "street": "R ANT√ìNIO FELICIANO DE CASTILHO",
      "house": "164",
      "postcode": "4425-617",
      "city": "MAIA",
      "lon": "-8.58779105995466",
      "lat": "41.18104718664337"
    },
    {
      "id": "pt.ine.add.PTCONT.3764973",
      "street": "R ANT√ìNIO FELICIANO DE CASTILHO",
      "house": "164",
      "postcode": "4425-617",
      "city": "MAIA",
      "lon": "-8.58779105995466",
      "lat": "41.18104718664337"
    },
    {
      "id": "pt.ine.add.PTCONT.3764974",
      "street": "R ANT√ìNIO FELICIANO DE CASTILHO",
      "house": "164",
      "postcode": "4425-617",
      "city": "MAIA",
      "lon": "-8.58779105995466",
      "lat": "41.18104718664337"
    },
    {
      "id": "pt.ine.add.PTCONT.3764975",
      "street": "R ANT√ìNIO FELICIANO DE CASTILHO",
      "house": "164",
      "postcode": "4425-617",
      "city": "MAIA",
      "lon": "-8.58779105995466",
      "lat": "41.18104718664337"
    },
    {
      "id": "pt.ine.add.PTCONT.3764976",
      "street": "R ANT√ìNIO FELICIANO DE CASTILHO",
      "house": "164",
      "postcode": "4425-617",
      "city": "MAIA",
      "lon": "-8.58779105995466",
      "lat": "41.18104718664337"
    },
    {
      "id": "pt.ine.add.PTCONT.3764978",
      "street": "R ANT√ìNIO FELICIANO DE CASTILHO",
      "house": "164",
      "postcode": "4425-617",
      "city": "MAIA",
      "lon": "-8.58779105995466",
      "lat": "41.18104718664337"
    },
    {
      "id": "pt.ine.add.PTCONT.3764979",
      "street": "R ANT√ìNIO FELICIANO DE CASTILHO",
      "house": "164",
      "postcode": "4425-617",
      "city": "MAIA",
      "lon": "-8.58779105995466",
      "lat": "41.18104718664337"
    },
    {
      "id": "pt.ine.add.PTCONT.3764980",
      "street": "R ANT√ìNIO FELICIANO DE CASTILHO",
      "house": "164",
      "postcode": "4425-617",
      "city": "MAIA",
      "lon": "-8.58779105995466",
      "lat": "41.18104718664337"
    },
    {
      "id": "pt.ine.add.PTCONT.3767206",
      "street": "LG 9 DE ABRIL",
      "house": "55",
      "postcode": "4425-609",
      "city": "MAIA",
      "lon": "-8.584766648205425",
      "lat": "41.18319310861477"
    },
    {
      "id": "pt.ine.add.PTCONT.3770682",
      "street": "R BAIRRO VILELA",
      "house": "18",
      "postcode": "4425-698",
      "city": "MAIA",
      "lon": "-8.583877591735519",
      "lat": "41.18216109578532"
    },
    {
      "id": "pt.ine.add.PTCONT.3787909",
      "street": "R GON√áALO MENDES DA MAIA",
      "house": "59",
      "postcode": "4425-656",
      "city": "MAIA",
      "lon": "-8.58519517968172",
      "lat": "41.18138156057011"
    },
    {
      "id": "pt.ine.add.PTCONT.3807226",
      "street": "TV ARTUR NEVES",
      "house": "72-68",
      "postcode": "4425-625",
      "city": "MAIA",
      "lon": "-8.584944061492894",
      "lat": "41.18299431790581"
    },
    {
      "id": "pt.ine.add.PTCONT.3810529",
      "street": "TV ARTUR NEVES",
      "house": "68",
      "postcode": "4425-625",
      "city": "MAIA",
      "lon": "-8.584944061492894",
      "lat": "41.18299431790581"
    },
    {
      "id": "pt.ine.add.PTCONT.3814785",
      "street": "R OLIVEIRAS",
      "house": "229",
      "postcode": "4425-677",
      "city": "MAIA",
      "lon": "-8.584219764668227",
      "lat": "41.18339334677191"
    },
    {
      "id": "pt.ine.add.PTCONT.3814786",
      "street": "R OLIVEIRAS",
      "house": "225",
      "postcode": "4425-677",
      "city": "MAIA",
      "lon": "-8.584219764668227",
      "lat": "41.18339334677191"
    },
    {
      "id": "pt.ine.add.PTCONT.3817261",
      "street": "R DR AM√âRICO CARDOSO",
      "house": "60A CASA 1",
      "postcode": "4425-705",
      "city": "MAIA",
      "lon": "-8.583513311549035",
      "lat": "41.182918883138996"
    },
    {
      "id": "pt.ine.add.PTCONT.3817440",
      "street": "ESTR EXTERIOR CIRCUNVALA√á√ÉO",
      "house": "6330",
      "postcode": "4425-650",
      "city": "MAIA",
      "lon": "-8.586498893478932",
      "lat": "41.18032293107161"
    },
    {
      "id": "pt.ine.add.PTCONT.3817441",
      "street": "ESTR EXTERIOR CIRCUNVALA√á√ÉO",
      "house": "6330",
      "postcode": "4425-650",
      "city": "MAIA",
      "lon": "-8.586498893478932",
      "lat": "41.18032293107161"
    },
    {
      "id": "pt.ine.add.PTCONT.3817442",
      "street": "ESTR EXTERIOR CIRCUNVALA√á√ÉO",
      "house": "6330",
      "postcode": "4425-650",
      "city": "MAIA",
      "lon": "-8.586498893478932",
      "lat": "41.18032293107161"
    },
    {
      "id": "pt.ine.add.PTCONT.3817443",
      "street": "ESTR EXTERIOR CIRCUNVALA√á√ÉO",
      "house": "6330",
      "postcode": "4425-650",
      "city": "MAIA",
      "lon": "-8.586498893478932",
      "lat": "41.18032293107161"
    },
    {
      "id": "pt.ine.add.PTCONT.3817444",
      "street": "ESTR EXTERIOR CIRCUNVALA√á√ÉO",
      "house": "6330",
      "postcode": "4425-650",
      "city": "MAIA",
      "lon": "-8.586498893478932",
      "lat": "41.18032293107161"
    },
    {
      "id": "pt.ine.add.PTCONT.3817445",
      "street": "ESTR EXTERIOR CIRCUNVALA√á√ÉO",
      "house": "6330",
      "postcode": "4425-650",
      "city": "MAIA",
      "lon": "-8.586498893478932",
      "lat": "41.18032293107161"
    },
    {
      "id": "pt.ine.add.PTCONT.3817446",
      "street": "ESTR EXTERIOR CIRCUNVALA√á√ÉO",
      "house": "6330",
      "postcode": "4425-650",
      "city": "MAIA",
      "lon": "-8.586498893478932",
      "lat": "41.18032293107161"
    },
    {
      "id": "pt.ine.add.PTCONT.3817447",
      "street": "ESTR EXTERIOR CIRCUNVALA√á√ÉO",
      "house": "6330",
      "postcode": "4425-650",
      "city": "MAIA",
      "lon": "-8.586498893478932",
      "lat": "41.18032293107161"
    },
    {
      "id": "pt.ine.add.PTCONT.3817448",
      "street": "ESTR EXTERIOR CIRCUNVALA√á√ÉO",
      "house": "6330",
      "postcode": "4425-650",
      "city": "MAIA",
      "lon": "-8.586498893478932",
      "lat": "41.18032293107161"
    },
    {
      "id": "pt.ine.add.PTCONT.3817449",
      "street": "ESTR EXTERIOR CIRCUNVALA√á√ÉO",
      "house": "6330",
      "postcode": "4425-650",
      "city": "MAIA",
      "lon": "-8.586498893478932",
      "lat": "41.18032293107161"
    },
    {
      "id": "pt.ine.add.PTCONT.3817450",
      "street": "ESTR EXTERIOR CIRCUNVALA√á√ÉO",
      "house": "6330",
      "postcode": "4425-650",
      "city": "MAIA",
      "lon": "-8.586498893478932",
      "lat": "41.18032293107161"
    },
    {
      "id": "pt.ine.add.PTCONT.3817451",
      "street": "ESTR EXTERIOR CIRCUNVALA√á√ÉO",
      "house": "6330",
      "postcode": "4425-650",
      "city": "MAIA",
      "lon": "-8.586498893478932",
      "lat": "41.18032293107161"
    },
    {
      "id": "pt.ine.add.PTCONT.3817452",
      "street": "ESTR EXTERIOR CIRCUNVALA√á√ÉO",
      "house": "6330",
      "postcode": "4425-650",
      "city": "MAIA",
      "lon": "-8.586498893478932",
      "lat": "41.18032293107161"
    },
    {
      "id": "pt.ine.add.PTCONT.3817453",
      "street": "ESTR EXTERIOR CIRCUNVALA√á√ÉO",
      "house": "6330",
      "postcode": "4425-650",
      "city": "MAIA",
      "lon": "-8.586498893478932",
      "lat": "41.18032293107161"
    },
    {
      "id": "pt.ine.add.PTCONT.3817454",
      "street": "ESTR EXTERIOR CIRCUNVALA√á√ÉO",
      "house": "6330",
      "postcode": "4425-650",
      "city": "MAIA",
      "lon": "-8.586498893478932",
      "lat": "41.18032293107161"
    },
    {
      "id": "pt.ine.add.PTCONT.3817455",
      "street": "ESTR EXTERIOR CIRCUNVALA√á√ÉO",
      "house": "6330",
      "postcode": "4425-650",
      "city": "MAIA",
      "lon": "-8.586498893478932",
      "lat": "41.18032293107161"
    },
    {
      "id": "pt.ine.add.PTCONT.3817456",
      "street": "ESTR EXTERIOR CIRCUNVALA√á√ÉO",
      "house": "6330",
      "postcode": "4425-650",
      "city": "MAIA",
      "lon": "-8.586498893478932",
      "lat": "41.18032293107161"
    },
    {
      "id": "pt.ine.add.PTCONT.3817457",
      "street": "ESTR EXTERIOR CIRCUNVALA√á√ÉO",
      "house": "6330",
      "postcode": "4425-650",
      "city": "MAIA",
      "lon": "-8.586498893478932",
      "lat": "41.18032293107161"
    },
    {
      "id": "pt.ine.add.PTCONT.3817458",
      "street": "ESTR EXTERIOR CIRCUNVALA√á√ÉO",
      "house": "6330",
      "postcode": "4425-650",
      "city": "MAIA",
      "lon": "-8.586498893478932",
      "lat": "41.18032293107161"
    },
    {
      "id": "pt.ine.add.PTCONT.3817459",
      "street": "ESTR EXTERIOR CIRCUNVALA√á√ÉO",
      "house": "6330",
      "postcode": "4425-650",
      "city": "MAIA",
      "lon": "-8.586498893478932",
      "lat": "41.18032293107161"
    },
    {
      "id": "pt.ine.add.PTCONT.3817460",
      "street": "ESTR EXTERIOR CIRCUNVALA√á√ÉO",
      "house": "6330",
      "postcode": "4425-650",
      "city": "MAIA",
      "lon": "-8.586498893478932",
      "lat": "41.18032293107161"
    },
    {
      "id": "pt.ine.add.PTCONT.3817461",
      "street": "ESTR EXTERIOR CIRCUNVALA√á√ÉO",
      "house": "6330",
      "postcode": "4425-650",
      "city": "MAIA",
      "lon": "-8.586498893478932",
      "lat": "41.18032293107161"
    },
    {
      "id": "pt.ine.add.PTCONT.3817462",
      "street": "ESTR EXTERIOR CIRCUNVALA√á√ÉO",
      "house": "6330",
      "postcode": "4425-650",
      "city": "MAIA",
      "lon": "-8.586498893478932",
      "lat": "41.18032293107161"
    },
    {
      "id": "pt.ine.add.PTCONT.3817463",
      "street": "ESTR EXTERIOR CIRCUNVALA√á√ÉO",
      "house": "6330",
      "postcode": "4425-650",
      "city": "MAIA",
      "lon": "-8.586498893478932",
      "lat": "41.18032293107161"
    },
    {
      "id": "pt.ine.add.PTCONT.3817464",
      "street": "ESTR EXTERIOR CIRCUNVALA√á√ÉO",
      "house": "6330",
      "postcode": "4425-650",
      "city": "MAIA",
      "lon": "-8.586498893478932",
      "lat": "41.18032293107161"
    },
    {
      "id": "pt.ine.add.PTCONT.3817465",
      "street": "ESTR EXTERIOR CIRCUNVALA√á√ÉO",
      "house": "6330",
      "postcode": "4425-650",
      "city": "MAIA",
      "lon": "-8.586498893478932",
      "lat": "41.18032293107161"
    },
    {
      "id": "pt.ine.add.PTCONT.3817466",
      "street": "ESTR EXTERIOR CIRCUNVALA√á√ÉO",
      "house": "6330",
      "postcode": "4425-650",
      "city": "MAIA",
      "lon": "-8.586498893478932",
      "lat": "41.18032293107161"
    },
    {
      "id": "pt.ine.add.PTCONT.3817467",
      "street": "ESTR EXTERIOR CIRCUNVALA√á√ÉO",
      "house": "6330",
      "postcode": "4425-650",
      "city": "MAIA",
      "lon": "-8.586498893478932",
      "lat": "41.18032293107161"
    },
    {
      "id": "pt.ine.add.PTCONT.3817468",
      "street": "ESTR EXTERIOR CIRCUNVALA√á√ÉO",
      "house": "6330",
      "postcode": "4425-650",
      "city": "MAIA",
      "lon": "-8.586498893478932",
      "lat": "41.18032293107161"
    },
    {
      "id": "pt.ine.add.PTCONT.3817469",
      "street": "ESTR EXTERIOR CIRCUNVALA√á√ÉO",
      "house": "6330",
      "postcode": "4425-650",
      "city": "MAIA",
      "lon": "-8.586498893478932",
      "lat": "41.18032293107161"
    },
    {
      "id": "pt.ine.add.PTCONT.3817470",
      "street": "ESTR EXTERIOR CIRCUNVALA√á√ÉO",
      "house": "6330",
      "postcode": "4425-650",
      "city": "MAIA",
      "lon": "-8.586498893478932",
      "lat": "41.18032293107161"
    },
    {
      "id": "pt.ine.add.PTCONT.3817471",
      "street": "ESTR EXTERIOR CIRCUNVALA√á√ÉO",
      "house": "6330",
      "postcode": "4425-650",
      "city": "MAIA",
      "lon": "-8.586498893478932",
      "lat": "41.18032293107161"
    },
    {
      "id": "pt.ine.add.PTCONT.3817472",
      "street": "ESTR EXTERIOR CIRCUNVALA√á√ÉO",
      "house": "6330",
      "postcode": "4425-650",
      "city": "MAIA",
      "lon": "-8.586498893478932",
      "lat": "41.18032293107161"
    },
    {
      "id": "pt.ine.add.PTCONT.3817473",
      "street": "ESTR EXTERIOR CIRCUNVALA√á√ÉO",
      "house": "6330",
      "postcode": "4425-650",
      "city": "MAIA",
      "lon": "-8.586498893478932",
      "lat": "41.18032293107161"
    },
    {
      "id": "pt.ine.add.PTCONT.3817474",
      "street": "ESTR EXTERIOR CIRCUNVALA√á√ÉO",
      "house": "6330",
      "postcode": "4425-650",
      "city": "MAIA",
      "lon": "-8.586498893478932",
      "lat": "41.18032293107161"
    },
    {
      "id": "pt.ine.add.PTCONT.3817475",
      "street": "ESTR EXTERIOR CIRCUNVALA√á√ÉO",
      "house": "6330",
      "postcode": "4425-650",
      "city": "MAIA",
      "lon": "-8.586498893478932",
      "lat": "41.18032293107161"
    },
    {
      "id": "pt.ine.add.PTCONT.3817476",
      "street": "ESTR EXTERIOR CIRCUNVALA√á√ÉO",
      "house": "6330",
      "postcode": "4425-650",
      "city": "MAIA",
      "lon": "-8.586498893478932",
      "lat": "41.18032293107161"
    },
    {
      "id": "pt.ine.add.PTCONT.3817477",
      "street": "ESTR EXTERIOR CIRCUNVALA√á√ÉO",
      "house": "6330",
      "postcode": "4425-650",
      "city": "MAIA",
      "lon": "-8.586498893478932",
      "lat": "41.18032293107161"
    },
    {
      "id": "pt.ine.add.PTCONT.3817479",
      "street": "ESTR EXTERIOR CIRCUNVALA√á√ÉO",
      "house": "6330",
      "postcode": "4425-650",
      "city": "MAIA",
      "lon": "-8.586498893478932",
      "lat": "41.18032293107161"
    },
    {
      "id": "pt.ine.add.PTCONT.3817480",
      "street": "ESTR EXTERIOR CIRCUNVALA√á√ÉO",
      "house": "6330",
      "postcode": "4425-650",
      "city": "MAIA",
      "lon": "-8.586498893478932",
      "lat": "41.18032293107161"
    },
    {
      "id": "pt.ine.add.PTCONT.3817481",
      "street": "ESTR EXTERIOR CIRCUNVALA√á√ÉO",
      "house": "6330",
      "postcode": "4425-650",
      "city": "MAIA",
      "lon": "-8.586498893478932",
      "lat": "41.18032293107161"
    },
    {
      "id": "pt.ine.add.PTCONT.3817482",
      "street": "ESTR EXTERIOR CIRCUNVALA√á√ÉO",
      "house": "6330",
      "postcode": "4425-650",
      "city": "MAIA",
      "lon": "-8.586498893478932",
      "lat": "41.18032293107161"
    },
    {
      "id": "pt.ine.add.PTCONT.3825596",
      "street": "R PARTICULAR DE D AFONSO HENRIQUES",
      "house": "44 A",
      "postcode": "4425-705",
      "city": "MAIA",
      "lon": "-8.583966823576148",
      "lat": "41.183007151837565"
    },
    {
      "id": "pt.ine.add.PTCONT.3825602",
      "street": "R DR AM√âRICO CARDOSO",
      "house": "71",
      "postcode": "4425-685",
      "city": "MAIA",
      "lon": "-8.583631692091064",
      "lat": "41.18280136408436"
    },
    {
      "id": "pt.ine.add.PTCONT.3832154",
      "street": "R ARTUR NEVES",
      "house": "70",
      "postcode": "4425-624",
      "city": "MAIA",
      "lon": "-8.584782380318593",
      "lat": "41.18201348207881"
    },
    {
      "id": "pt.ine.add.PTCONT.3838718",
      "street": "R GON√áALO MENDES DA MAIA",
      "house": "49",
      "postcode": "4425-656",
      "city": "MAIA",
      "lon": "-8.584932674370581",
      "lat": "41.181337569092406"
    },
    {
      "id": "pt.ine.add.PTCONT.3857501",
      "street": "R GON√áALO MENDES DA MAIA",
      "house": "129",
      "postcode": "4425-656",
      "city": "MAIA",
      "lon": "-8.586186048656227",
      "lat": "41.181620783391494"
    },
    {
      "id": "pt.ine.add.PTCONT.3862715",
      "street": "R ARTUR NEVES",
      "house": "88 CASA 8",
      "postcode": "4425-624",
      "city": "MAIA",
      "lon": "-8.58465295098321",
      "lat": "41.18225710601951"
    },
    {
      "id": "pt.ine.add.PTCONT.3896963",
      "street": "R ARTUR NEVES",
      "house": "114",
      "postcode": "4425-624",
      "city": "MAIA",
      "lon": "-8.58498721633544",
      "lat": "41.1823368338494"
    },
    {
      "id": "pt.ine.add.PTCONT.3905050",
      "street": "R ARTUR NEVES",
      "house": "52",
      "postcode": "4425-624",
      "city": "MAIA",
      "lon": "-8.584673942179931",
      "lat": "41.18184282533952"
    },
    {
      "id": "pt.ine.add.PTCONT.3920284",
      "street": "PCT VITORINO NEMESIO",
      "house": "145",
      "postcode": "4425-700",
      "city": "MAIA",
      "lon": "-8.586420187401421",
      "lat": "41.1810075687752"
    },
    {
      "id": "pt.ine.add.PTCONT.3920285",
      "street": "PCT VITORINO NEMESIO",
      "house": "145",
      "postcode": "4425-700",
      "city": "MAIA",
      "lon": "-8.586420187401421",
      "lat": "41.1810075687752"
    },
    {
      "id": "pt.ine.add.PTCONT.3920286",
      "street": "PCT VITORINO NEMESIO",
      "house": "145",
      "postcode": "4425-700",
      "city": "MAIA",
      "lon": "-8.586420187401421",
      "lat": "41.1810075687752"
    },
    {
      "id": "pt.ine.add.PTCONT.3920287",
      "street": "PCT VITORINO NEMESIO",
      "house": "145",
      "postcode": "4425-700",
      "city": "MAIA",
      "lon": "-8.586420187401421",
      "lat": "41.1810075687752"
    },
    {
      "id": "pt.ine.add.PTCONT.3920288",
      "street": "PCT VITORINO NEMESIO",
      "house": "145",
      "postcode": "4425-700",
      "city": "MAIA",
      "lon": "-8.586420187401421",
      "lat": "41.1810075687752"
    },
    {
      "id": "pt.ine.add.PTCONT.3920289",
      "street": "PCT VITORINO NEMESIO",
      "house": "145",
      "postcode": "4425-700",
      "city": "MAIA",
      "lon": "-8.586420187401421",
      "lat": "41.1810075687752"
    },
    {
      "id": "pt.ine.add.PTCONT.3920290",
      "street": "PCT VITORINO NEMESIO",
      "house": "145",
      "postcode": "4425-700",
      "city": "MAIA",
      "lon": "-8.586420187401421",
      "lat": "41.1810075687752"
    },
    {
      "id": "pt.ine.add.PTCONT.3920291",
      "street": "PCT VITORINO NEMESIO",
      "house": "145",
      "postcode": "4425-700",
      "city": "MAIA",
      "lon": "-8.586420187401421",
      "lat": "41.1810075687752"
    },
    {
      "id": "pt.ine.add.PTCONT.3920292",
      "street": "PCT VITORINO NEMESIO",
      "house": "145",
      "postcode": "4425-700",
      "city": "MAIA",
      "lon": "-8.586420187401421",
      "lat": "41.1810075687752"
    },
    {
      "id": "pt.ine.add.PTCONT.3920293",
      "street": "PCT VITORINO NEMESIO",
      "house": "145",
      "postcode": "4425-700",
      "city": "MAIA",
      "lon": "-8.586420187401421",
      "lat": "41.1810075687752"
    },
    {
      "id": "pt.ine.add.PTCONT.3920294",
      "street": "PCT VITORINO NEMESIO",
      "house": "145",
      "postcode": "4425-700",
      "city": "MAIA",
      "lon": "-8.586420187401421",
      "lat": "41.1810075687752"
    },
    {
      "id": "pt.ine.add.PTCONT.3920295",
      "street": "PCT VITORINO NEMESIO",
      "house": "145",
      "postcode": "4425-700",
      "city": "MAIA",
      "lon": "-8.586420187401421",
      "lat": "41.1810075687752"
    },
    {
      "id": "pt.ine.add.PTCONT.3920296",
      "street": "PCT VITORINO NEMESIO",
      "house": "145",
      "postcode": "4425-700",
      "city": "MAIA",
      "lon": "-8.586420187401421",
      "lat": "41.1810075687752"
    },
    {
      "id": "pt.ine.add.PTCONT.3920297",
      "street": "PCT VITORINO NEMESIO",
      "house": "145",
      "postcode": "4425-700",
      "city": "MAIA",
      "lon": "-8.586420187401421",
      "lat": "41.1810075687752"
    },
    {
      "id": "pt.ine.add.PTCONT.3920298",
      "street": "PCT VITORINO NEMESIO",
      "house": "145",
      "postcode": "4425-700",
      "city": "MAIA",
      "lon": "-8.586420187401421",
      "lat": "41.1810075687752"
    },
    {
      "id": "pt.ine.add.PTCONT.3920299",
      "street": "PCT VITORINO NEMESIO",
      "house": "145",
      "postcode": "4425-700",
      "city": "MAIA",
      "lon": "-8.586420187401421",
      "lat": "41.1810075687752"
    },
    {
      "id": "pt.ine.add.PTCONT.3920300",
      "street": "PCT VITORINO NEMESIO",
      "house": "145",
      "postcode": "4425-700",
      "city": "MAIA",
      "lon": "-8.586420187401421",
      "lat": "41.1810075687752"
    },
    {
      "id": "pt.ine.add.PTCONT.3920301",
      "street": "PCT VITORINO NEMESIO",
      "house": "145",
      "postcode": "4425-700",
      "city": "MAIA",
      "lon": "-8.586420187401421",
      "lat": "41.1810075687752"
    },
    {
      "id": "pt.ine.add.PTCONT.3920302",
      "street": "PCT VITORINO NEMESIO",
      "house": "145",
      "postcode": "4425-700",
      "city": "MAIA",
      "lon": "-8.586420187401421",
      "lat": "41.1810075687752"
    },
    {
      "id": "pt.ine.add.PTCONT.3920303",
      "street": "PCT VITORINO NEMESIO",
      "house": "145",
      "postcode": "4425-700",
      "city": "MAIA",
      "lon": "-8.586420187401421",
      "lat": "41.1810075687752"
    },
    {
      "id": "pt.ine.add.PTCONT.3920304",
      "street": "PCT VITORINO NEMESIO",
      "house": "145",
      "postcode": "4425-700",
      "city": "MAIA",
      "lon": "-8.586420187401421",
      "lat": "41.1810075687752"
    },
    {
      "id": "pt.ine.add.PTCONT.3920305",
      "street": "PCT VITORINO NEMESIO",
      "house": "145",
      "postcode": "4425-700",
      "city": "MAIA",
      "lon": "-8.586420187401421",
      "lat": "41.1810075687752"
    },
    {
      "id": "pt.ine.add.PTCONT.3920306",
      "street": "PCT VITORINO NEMESIO",
      "house": "145",
      "postcode": "4425-700",
      "city": "MAIA",
      "lon": "-8.586420187401421",
      "lat": "41.1810075687752"
    },
    {
      "id": "pt.ine.add.PTCONT.3920307",
      "street": "PCT VITORINO NEMESIO",
      "house": "145",
      "postcode": "4425-700",
      "city": "MAIA",
      "lon": "-8.586420187401421",
      "lat": "41.1810075687752"
    },
    {
      "id": "pt.ine.add.PTCONT.3920314",
      "street": "PCT VITORINO NEMESIO",
      "house": "145",
      "postcode": "4425-700",
      "city": "MAIA",
      "lon": "-8.586420187401421",
      "lat": "41.1810075687752"
    },
    {
      "id": "pt.ine.add.PTCONT.3920315",
      "street": "PCT VITORINO NEMESIO",
      "house": "145",
      "postcode": "4425-700",
      "city": "MAIA",
      "lon": "-8.586420187401421",
      "lat": "41.1810075687752"
    },
    {
      "id": "pt.ine.add.PTCONT.3920316",
      "street": "PCT VITORINO NEMESIO",
      "house": "145",
      "postcode": "4425-700",
      "city": "MAIA",
      "lon": "-8.586420187401421",
      "lat": "41.1810075687752"
    },
    {
      "id": "pt.ine.add.PTCONT.3920317",
      "street": "PCT VITORINO NEMESIO",
      "house": "145",
      "postcode": "4425-700",
      "city": "MAIA",
      "lon": "-8.586420187401421",
      "lat": "41.1810075687752"
    },
    {
      "id": "pt.ine.add.PTCONT.3920318",
      "street": "PCT VITORINO NEMESIO",
      "house": "145",
      "postcode": "4425-700",
      "city": "MAIA",
      "lon": "-8.586420187401421",
      "lat": "41.1810075687752"
    },
    {
      "id": "pt.ine.add.PTCONT.3920329",
      "street": "PCT VITORINO NEMESIO",
      "house": "145",
      "postcode": "4425-700",
      "city": "MAIA",
      "lon": "-8.586420187401421",
      "lat": "41.1810075687752"
    },
    {
      "id": "pt.ine.add.PTCONT.3920330",
      "street": "PCT VITORINO NEMESIO",
      "house": "145",
      "postcode": "4425-700",
      "city": "MAIA",
      "lon": "-8.586420187401421",
      "lat": "41.1810075687752"
    },
    {
      "id": "pt.ine.add.PTCONT.3920991",
      "street": "PCT VITORINO NEMESIO",
      "house": "145",
      "postcode": "4425-700",
      "city": "MAIA",
      "lon": "-8.586420187401421",
      "lat": "41.1810075687752"
    },
    {
      "id": "pt.ine.add.PTCONT.3924409",
      "street": "R OLIVEIRAS",
      "house": "243",
      "postcode": "4425-677",
      "city": "MAIA",
      "lon": "-8.584374456111977",
      "lat": "41.18335672353286"
    },
    {
      "id": "pt.ine.add.PTCONT.3924410",
      "street": "R OLIVEIRAS",
      "house": "205",
      "postcode": "4425-677",
      "city": "MAIA",
      "lon": "-8.584005604733331",
      "lat": "41.18344821125422"
    },
    {
      "id": "pt.ine.add.PTCONT.3927619",
      "street": "R BAIRRO VILELA",
      "house": "CASA 1",
      "postcode": "4425-698",
      "city": "MAIA",
      "lon": "-8.584137813915405",
      "lat": "41.18187193902755"
    },
    {
      "id": "pt.ine.add.PTCONT.3935389",
      "street": "R ARTUR NEVES",
      "house": "160",
      "postcode": "4425-624",
      "city": "MAIA",
      "lon": "-8.585120854581852",
      "lat": "41.18270548623725"
    },
    {
      "id": "pt.ine.add.PTCONT.3935390",
      "street": "R ARTUR NEVES",
      "house": "160",
      "postcode": "4425-624",
      "city": "MAIA",
      "lon": "-8.585120854581852",
      "lat": "41.18270548623725"
    },
    {
      "id": "pt.ine.add.PTCONT.3935391",
      "street": "R ARTUR NEVES",
      "house": "160",
      "postcode": "4425-624",
      "city": "MAIA",
      "lon": "-8.585120854581852",
      "lat": "41.18270548623725"
    },
    {
      "id": "pt.ine.add.PTCONT.3935392",
      "street": "R ARTUR NEVES",
      "house": "160",
      "postcode": "4425-624",
      "city": "MAIA",
      "lon": "-8.585120854581852",
      "lat": "41.18270548623725"
    },
    {
      "id": "pt.ine.add.PTCONT.3935393",
      "street": "R ARTUR NEVES",
      "house": "160",
      "postcode": "4425-624",
      "city": "MAIA",
      "lon": "-8.585120854581852",
      "lat": "41.18270548623725"
    },
    {
      "id": "pt.ine.add.PTCONT.3939881",
      "street": "R ARTUR NEVES",
      "house": "160",
      "postcode": "4425-624",
      "city": "MAIA",
      "lon": "-8.585120854581852",
      "lat": "41.18270548623725"
    },
    {
      "id": "pt.ine.add.PTCONT.3944144",
      "street": "R OLIVEIRAS",
      "house": "209",
      "postcode": "4425-677",
      "city": "MAIA",
      "lon": "-8.584053154682447",
      "lat": "41.18343001646884"
    },
    {
      "id": "pt.ine.add.PTCONT.3944653",
      "street": "R ANT√ìNIO FELICIANO DE CASTILHO",
      "house": "230",
      "postcode": "4425-617",
      "city": "MAIA",
      "lon": "-8.587522611268943",
      "lat": "41.18186763858952"
    },
    {
      "id": "pt.ine.add.PTCONT.3944654",
      "street": "R GON√áALO MENDES DA MAIA",
      "house": "141",
      "postcode": "4425-656",
      "city": "MAIA",
      "lon": "-8.586400200795024",
      "lat": "41.18156591487741"
    },
    {
      "id": "pt.ine.add.PTCONT.3946279",
      "street": "R GON√áALO MENDES DA MAIA",
      "house": "141",
      "postcode": "4425-656",
      "city": "MAIA",
      "lon": "-8.586400200795024",
      "lat": "41.18156591487741"
    },
    {
      "id": "pt.ine.add.PTCONT.3959331",
      "street": "R BAIRRO VILELA",
      "house": "CASA 6",
      "postcode": "4425-698",
      "city": "MAIA",
      "lon": "-8.584127193103107",
      "lat": "41.18206107118879"
    },
    {
      "id": "pt.ine.add.PTCONT.3959332",
      "street": "R BAIRRO VILELA",
      "house": "CASA 5",
      "postcode": "4425-698",
      "city": "MAIA",
      "lon": "-8.58418672191781",
      "lat": "41.18205183374858"
    },
    {
      "id": "pt.ine.add.PTCONT.3971661",
      "street": "ESTR CIRCUNVALA√á√ÉO",
      "house": "6260",
      "postcode": "4425-650",
      "city": "MAIA",
      "lon": "-8.58550095807568",
      "lat": "41.1807860751934"
    },
    {
      "id": "pt.ine.add.PTCONT.3971660",
      "street": "ESTR CIRCUNVALA√á√ÉO",
      "house": "6260",
      "postcode": "4425-650",
      "city": "MAIA",
      "lon": "-8.58550095807568",
      "lat": "41.1807860751934"
    },
    {
      "id": "pt.ine.add.PTCONT.3971662",
      "street": "ESTR CIRCUNVALA√á√ÉO",
      "house": "6260",
      "postcode": "4425-650",
      "city": "MAIA",
      "lon": "-8.58550095807568",
      "lat": "41.1807860751934"
    },
    {
      "id": "pt.ine.add.PTCONT.3971663",
      "street": "ESTR CIRCUNVALA√á√ÉO",
      "house": "6260",
      "postcode": "4425-650",
      "city": "MAIA",
      "lon": "-8.58550095807568",
      "lat": "41.1807860751934"
    },
    {
      "id": "pt.ine.add.PTCONT.3971671",
      "street": "ESTR CIRCUNVALA√á√ÉO",
      "house": "6260",
      "postcode": "4425-650",
      "city": "MAIA",
      "lon": "-8.58550095807568",
      "lat": "41.1807860751934"
    },
    {
      "id": "pt.ine.add.PTCONT.3976709",
      "street": "R ARTUR NEVES",
      "house": "74 B",
      "postcode": "4425-624",
      "city": "MAIA",
      "lon": "-8.584782689643133",
      "lat": "41.18205850242901"
    },
    {
      "id": "pt.ine.add.PTCONT.3983433",
      "street": "R GON√áALO MENDES DA MAIA",
      "house": "45",
      "postcode": "4425-656",
      "city": "MAIA",
      "lon": "-8.584789411064985",
      "lat": "41.181302113760886"
    },
    {
      "id": "pt.ine.add.PTCONT.3984059",
      "street": "R ANT√ìNIO FELICIANO DE CASTILHO",
      "house": "212",
      "postcode": "4425-617",
      "city": "MAIA",
      "lon": "-8.587698144744701",
      "lat": "41.18139872163534"
    },
    {
      "id": "pt.ine.add.PTCONT.3984060",
      "street": "R ANT√ìNIO FELICIANO DE CASTILHO",
      "house": "212",
      "postcode": "4425-617",
      "city": "MAIA",
      "lon": "-8.587698144744701",
      "lat": "41.18139872163534"
    },
    {
      "id": "pt.ine.add.PTCONT.3984061",
      "street": "R ANT√ìNIO FELICIANO DE CASTILHO",
      "house": "212",
      "postcode": "4425-617",
      "city": "MAIA",
      "lon": "-8.587698144744701",
      "lat": "41.18139872163534"
    },
    {
      "id": "pt.ine.add.PTCONT.3984062",
      "street": "R ANT√ìNIO FELICIANO DE CASTILHO",
      "house": "212",
      "postcode": "4425-617",
      "city": "MAIA",
      "lon": "-8.587698144744701",
      "lat": "41.18139872163534"
    },
    {
      "id": "pt.ine.add.PTCONT.3984063",
      "street": "R ANT√ìNIO FELICIANO DE CASTILHO",
      "house": "212",
      "postcode": "4425-617",
      "city": "MAIA",
      "lon": "-8.587698144744701",
      "lat": "41.18139872163534"
    },
    {
      "id": "pt.ine.add.PTCONT.3984064",
      "street": "R ANT√ìNIO FELICIANO DE CASTILHO",
      "house": "212",
      "postcode": "4425-617",
      "city": "MAIA",
      "lon": "-8.587698144744701",
      "lat": "41.18139872163534"
    },
    {
      "id": "pt.ine.add.PTCONT.3984065",
      "street": "R ANT√ìNIO FELICIANO DE CASTILHO",
      "house": "212",
      "postcode": "4425-617",
      "city": "MAIA",
      "lon": "-8.587698144744701",
      "lat": "41.18139872163534"
    },
    {
      "id": "pt.ine.add.PTCONT.3984066",
      "street": "R ANT√ìNIO FELICIANO DE CASTILHO",
      "house": "212",
      "postcode": "4425-617",
      "city": "MAIA",
      "lon": "-8.587698144744701",
      "lat": "41.18139872163534"
    },
    {
      "id": "pt.ine.add.PTCONT.3984067",
      "street": "R ANT√ìNIO FELICIANO DE CASTILHO",
      "house": "212",
      "postcode": "4425-617",
      "city": "MAIA",
      "lon": "-8.587698144744701",
      "lat": "41.18139872163534"
    },
    {
      "id": "pt.ine.add.PTCONT.3984068",
      "street": "R ANT√ìNIO FELICIANO DE CASTILHO",
      "house": "212",
      "postcode": "4425-617",
      "city": "MAIA",
      "lon": "-8.587698144744701",
      "lat": "41.18139872163534"
    },
    {
      "id": "pt.ine.add.PTCONT.3984069",
      "street": "R ANT√ìNIO FELICIANO DE CASTILHO",
      "house": "212",
      "postcode": "4425-617",
      "city": "MAIA",
      "lon": "-8.587698144744701",
      "lat": "41.18139872163534"
    },
    {
      "id": "pt.ine.add.PTCONT.3984072",
      "street": "R ANT√ìNIO FELICIANO DE CASTILHO",
      "house": "212",
      "postcode": "4425-617",
      "city": "MAIA",
      "lon": "-8.587698144744701",
      "lat": "41.18139872163534"
    },
    {
      "id": "pt.ine.add.PTCONT.3984073",
      "street": "R ANT√ìNIO FELICIANO DE CASTILHO",
      "house": "212",
      "postcode": "4425-617",
      "city": "MAIA",
      "lon": "-8.587698144744701",
      "lat": "41.18139872163534"
    },
    {
      "id": "pt.ine.add.PTCONT.3984074",
      "street": "R ANT√ìNIO FELICIANO DE CASTILHO",
      "house": "212",
      "postcode": "4425-617",
      "city": "MAIA",
      "lon": "-8.587698144744701",
      "lat": "41.18139872163534"
    },
    {
      "id": "pt.ine.add.PTCONT.3984075",
      "street": "R ANT√ìNIO FELICIANO DE CASTILHO",
      "house": "212",
      "postcode": "4425-617",
      "city": "MAIA",
      "lon": "-8.587698144744701",
      "lat": "41.18139872163534"
    },
    {
      "id": "pt.ine.add.PTCONT.3984076",
      "street": "R ANT√ìNIO FELICIANO DE CASTILHO",
      "house": "212",
      "postcode": "4425-617",
      "city": "MAIA",
      "lon": "-8.587698144744701",
      "lat": "41.18139872163534"
    },
    {
      "id": "pt.ine.add.PTCONT.3984077",
      "street": "R ANT√ìNIO FELICIANO DE CASTILHO",
      "house": "212",
      "postcode": "4425-617",
      "city": "MAIA",
      "lon": "-8.587698144744701",
      "lat": "41.18139872163534"
    },
    {
      "id": "pt.ine.add.PTCONT.3984078",
      "street": "R ANT√ìNIO FELICIANO DE CASTILHO",
      "house": "212",
      "postcode": "4425-617",
      "city": "MAIA",
      "lon": "-8.587698144744701",
      "lat": "41.18139872163534"
    },
    {
      "id": "pt.ine.add.PTCONT.3985204",
      "street": "ESTR CIRCUNVALA√á√ÉO",
      "house": "6240",
      "postcode": "4425-650",
      "city": "MAIA",
      "lon": "-8.585215795699309",
      "lat": "41.18091325532003"
    },
    {
      "id": "pt.ine.add.PTCONT.3999294",
      "street": "ESTR CIRCUNVALA√á√ÉO EM FRENTE DO EDIF√çCIO SAVEDRA",
      "house": "",
      "postcode": "4425-650",
      "city": "MAIA",
      "lon": "-8.585583143844417",
      "lat": "41.180605666057865"
    },
    {
      "id": "pt.ine.add.PTCONT.3999305",
      "street": "R PARTICULAR DE D AFONSO HENRIQUES",
      "house": "101",
      "postcode": "4425-685",
      "city": "MAIA",
      "lon": "-8.584037406851285",
      "lat": "41.182871810841704"
    },
    {
      "id": "pt.ine.add.PTCONT.3999306",
      "street": "R PARTICULAR DE D AFONSO HENRIQUES",
      "house": "101",
      "postcode": "4425-685",
      "city": "MAIA",
      "lon": "-8.584037406851285",
      "lat": "41.182871810841704"
    },
    {
      "id": "pt.ine.add.PTCONT.3999307",
      "street": "R PARTICULAR DE D AFONSO HENRIQUES",
      "house": "101",
      "postcode": "4425-685",
      "city": "MAIA",
      "lon": "-8.584037406851285",
      "lat": "41.182871810841704"
    },
    {
      "id": "pt.ine.add.PTCONT.4003421",
      "street": "R PARTICULAR DE D AFONSO HENRIQUES",
      "house": "101",
      "postcode": "4425-685",
      "city": "MAIA",
      "lon": "-8.584037406851285",
      "lat": "41.182871810841704"
    },
    {
      "id": "pt.ine.add.PTCONT.4004271",
      "street": "R BAIRRO VILELA",
      "house": "CASA 3",
      "postcode": "4425-698",
      "city": "MAIA",
      "lon": "-8.58416214432309",
      "lat": "41.18194387824967"
    },
    {
      "id": "pt.ine.add.PTCONT.4005193",
      "street": "R GON√áALO MENDES DA MAIA",
      "house": "253",
      "postcode": "4425-656",
      "city": "MAIA",
      "lon": "-8.586687475913108",
      "lat": "41.181744870154226"
    },
    {
      "id": "pt.ine.add.PTCONT.4005194",
      "street": "R GON√áALO MENDES DA MAIA",
      "house": "253",
      "postcode": "4425-656",
      "city": "MAIA",
      "lon": "-8.586687475913108",
      "lat": "41.181744870154226"
    },
    {
      "id": "pt.ine.add.PTCONT.4005195",
      "street": "R GON√áALO MENDES DA MAIA",
      "house": "135",
      "postcode": "4425-656",
      "city": "MAIA",
      "lon": "-8.586269661113962",
      "lat": "41.18164746738362"
    },
    {
      "id": "pt.ine.add.PTCONT.4005196",
      "street": "R GON√áALO MENDES DA MAIA",
      "house": "135",
      "postcode": "4425-656",
      "city": "MAIA",
      "lon": "-8.586269661113962",
      "lat": "41.18164746738362"
    },
    {
      "id": "pt.ine.add.PTCONT.4010127",
      "street": "R GON√áALO MENDES DA MAIA",
      "house": "253",
      "postcode": "4425-656",
      "city": "MAIA",
      "lon": "-8.586687475913108",
      "lat": "41.181744870154226"
    },
    {
      "id": "pt.ine.add.PTCONT.4010128",
      "street": "R GON√áALO MENDES DA MAIA",
      "house": "253",
      "postcode": "4425-656",
      "city": "MAIA",
      "lon": "-8.586687475913108",
      "lat": "41.181744870154226"
    },
    {
      "id": "pt.ine.add.PTCONT.4017431",
      "street": "R GON√áALO MENDES DA MAIA",
      "house": "65",
      "postcode": "4425-656",
      "city": "MAIA",
      "lon": "-8.585302689372213",
      "lat": "41.18141715577549"
    },
    {
      "id": "pt.ine.add.PTCONT.4024297",
      "street": "R OLIVEIRAS",
      "house": "211",
      "postcode": "4425-677",
      "city": "MAIA",
      "lon": "-8.584088848013373",
      "lat": "41.18342087240132"
    },
    {
      "id": "pt.ine.add.PTCONT.4024298",
      "street": "R PARTICULAR D AFONSO HENRIQUES",
      "house": "32 A",
      "postcode": "4425-705",
      "city": "MAIA",
      "lon": "-8.583704189122164",
      "lat": "41.18294514946181"
    },
    {
      "id": "pt.ine.add.PTCONT.4045003",
      "street": "LG 9 DE ABRIL",
      "house": "52",
      "postcode": "4425-609",
      "city": "MAIA",
      "lon": "-8.584659878094852",
      "lat": "41.18326556175357"
    },
    {
      "id": "pt.ine.add.PTCONT.4058243",
      "street": "R GON√áALO MENDES DA MAIA",
      "house": "175",
      "postcode": "4425-656",
      "city": "MAIA",
      "lon": "-8.586496352286439",
      "lat": "41.18168259248466"
    },
    {
      "id": "pt.ine.add.PTCONT.4058244",
      "street": "R GON√áALO MENDES DA MAIA",
      "house": "175",
      "postcode": "4425-656",
      "city": "MAIA",
      "lon": "-8.586496352286439",
      "lat": "41.18168259248466"
    },
    {
      "id": "pt.ine.add.PTCONT.4058245",
      "street": "R GON√áALO MENDES DA MAIA",
      "house": "175",
      "postcode": "4425-656",
      "city": "MAIA",
      "lon": "-8.586496352286439",
      "lat": "41.18168259248466"
    },
    {
      "id": "pt.ine.add.PTCONT.4058246",
      "street": "ESTR CIRCUNVALA√á√ÉO",
      "house": "6238",
      "postcode": "4425-650",
      "city": "MAIA",
      "lon": "-8.585049749648029",
      "lat": "41.181030963080545"
    },
    {
      "id": "pt.ine.add.PTCONT.4063619",
      "street": "R GON√áALO MENDES DA MAIA",
      "house": "175",
      "postcode": "4425-656",
      "city": "MAIA",
      "lon": "-8.586496352286439",
      "lat": "41.18168259248466"
    },
    {
      "id": "pt.ine.add.PTCONT.4069825",
      "street": "R BAIRRO VILELA",
      "house": "CASA 5",
      "postcode": "4425-698",
      "city": "MAIA",
      "lon": "-8.58410310977616",
      "lat": "41.182025148244485"
    },
    {
      "id": "pt.ine.add.PTCONT.4071595",
      "street": "R ARTUR NEVES",
      "house": "64",
      "postcode": "4425-624",
      "city": "MAIA",
      "lon": "-8.584734274870987",
      "lat": "41.18195064053196"
    },
    {
      "id": "pt.ine.add.PTCONT.4091194",
      "street": "ESTR CIRCUNVALA√á√ÉO",
      "house": "6270",
      "postcode": "4425-650",
      "city": "MAIA",
      "lon": "-8.585690838427912",
      "lat": "41.18066827312456"
    },
    {
      "id": "pt.ine.add.PTCONT.4091195",
      "street": "ESTR CIRCUNVALA√á√ÉO",
      "house": "6270",
      "postcode": "4425-650",
      "city": "MAIA",
      "lon": "-8.585690838427912",
      "lat": "41.18066827312456"
    },
    {
      "id": "pt.ine.add.PTCONT.4091196",
      "street": "ESTR CIRCUNVALA√á√ÉO",
      "house": "6270",
      "postcode": "4425-650",
      "city": "MAIA",
      "lon": "-8.585690838427912",
      "lat": "41.18066827312456"
    },
    {
      "id": "pt.ine.add.PTCONT.4091197",
      "street": "ESTR CIRCUNVALA√á√ÉO",
      "house": "6270",
      "postcode": "4425-650",
      "city": "MAIA",
      "lon": "-8.585690838427912",
      "lat": "41.18066827312456"
    },
    {
      "id": "pt.ine.add.PTCONT.4091198",
      "street": "ESTR CIRCUNVALA√á√ÉO",
      "house": "6270",
      "postcode": "4425-650",
      "city": "MAIA",
      "lon": "-8.585690838427912",
      "lat": "41.18066827312456"
    },
    {
      "id": "pt.ine.add.PTCONT.4091199",
      "street": "ESTR CIRCUNVALA√á√ÉO",
      "house": "6270",
      "postcode": "4425-650",
      "city": "MAIA",
      "lon": "-8.585690838427912",
      "lat": "41.18066827312456"
    },
    {
      "id": "pt.ine.add.PTCONT.4091200",
      "street": "ESTR CIRCUNVALA√á√ÉO",
      "house": "6270",
      "postcode": "4425-650",
      "city": "MAIA",
      "lon": "-8.585690838427912",
      "lat": "41.18066827312456"
    },
    {
      "id": "pt.ine.add.PTCONT.4091201",
      "street": "ESTR CIRCUNVALA√á√ÉO",
      "house": "6270",
      "postcode": "4425-650",
      "city": "MAIA",
      "lon": "-8.585690838427912",
      "lat": "41.18066827312456"
    },
    {
      "id": "pt.ine.add.PTCONT.4097968",
      "street": "R OLIVEIRAS",
      "house": "245",
      "postcode": "4425-677",
      "city": "MAIA",
      "lon": "-8.584422005891673",
      "lat": "41.18333852859578"
    },
    {
      "id": "pt.ine.add.PTCONT.4097997",
      "street": "R DR AM√âRICO CARDOSO",
      "house": "45",
      "postcode": "4425-685",
      "city": "MAIA",
      "lon": "-8.583344975604335",
      "lat": "41.182703437836864"
    },
    {
      "id": "pt.ine.add.PTCONT.4104192",
      "street": "R ARTUR NEVES",
      "house": "88 C 6",
      "postcode": "4425-624",
      "city": "MAIA",
      "lon": "-8.584545873091837",
      "lat": "41.18228453870802"
    },
    {
      "id": "pt.ine.add.PTCONT.4112887",
      "street": "R GON√áALO MENDES DA MAIA",
      "house": "179",
      "postcode": "4425-656",
      "city": "MAIA",
      "lon": "-8.586580027057332",
      "lat": "41.181718280318485"
    },
    {
      "id": "pt.ine.add.PTCONT.4115705",
      "street": "R BAIRRO VILELA",
      "house": "CASA 1",
      "postcode": "4425-698",
      "city": "MAIA",
      "lon": "-8.584090079803977",
      "lat": "41.18186312163346"
    },
    {
      "id": "pt.ine.add.PTCONT.4117353",
      "street": "R PARTICULAR DE D AFONSO HENRIQUES",
      "house": "40",
      "postcode": "4425-705",
      "city": "MAIA",
      "lon": "-8.583883210303732",
      "lat": "41.18298046618403"
    },
    {
      "id": "pt.ine.add.PTCONT.4123655",
      "street": "R ARTUR NEVES",
      "house": "108",
      "postcode": "4425-624",
      "city": "MAIA",
      "lon": "-8.584927254181672",
      "lat": "41.18228304321771"
    },
    {
      "id": "pt.ine.add.PTCONT.4123656",
      "street": "R ARTUR NEVES",
      "house": "108",
      "postcode": "4425-624",
      "city": "MAIA",
      "lon": "-8.584927254181672",
      "lat": "41.18228304321771"
    },
    {
      "id": "pt.ine.add.PTCONT.4123657",
      "street": "R ARTUR NEVES",
      "house": "108",
      "postcode": "4425-624",
      "city": "MAIA",
      "lon": "-8.584927254181672",
      "lat": "41.18228304321771"
    },
    {
      "id": "pt.ine.add.PTCONT.4123658",
      "street": "R ARTUR NEVES",
      "house": "108",
      "postcode": "4425-624",
      "city": "MAIA",
      "lon": "-8.584927254181672",
      "lat": "41.18228304321771"
    },
    {
      "id": "pt.ine.add.PTCONT.4128297",
      "street": "R BAIRRO VILELA",
      "house": "CASA 7",
      "postcode": "4425-698",
      "city": "MAIA",
      "lon": "-8.584115583851615",
      "lat": "41.18210613821294"
    },
    {
      "id": "pt.ine.add.PTCONT.4130049",
      "street": "R ARTUR NEVES",
      "house": "86",
      "postcode": "4425-624",
      "city": "MAIA",
      "lon": "-8.584843332080897",
      "lat": "41.1822113379071"
    },
    {
      "id": "pt.ine.add.PTCONT.4150076",
      "street": "R PARTICULAR DE D AFONSO HENRIQUES",
      "house": "93",
      "postcode": "4425-685",
      "city": "MAIA",
      "lon": "-8.583929833699319",
      "lat": "41.1828272104031"
    },
    {
      "id": "pt.ine.add.PTCONT.4150077",
      "street": "R PARTICULAR DE D AFONSO HENRIQUES",
      "house": "93",
      "postcode": "4425-685",
      "city": "MAIA",
      "lon": "-8.583929833699319",
      "lat": "41.1828272104031"
    },
    {
      "id": "pt.ine.add.PTCONT.4150078",
      "street": "R PARTICULAR DE D AFONSO HENRIQUES",
      "house": "93",
      "postcode": "4425-685",
      "city": "MAIA",
      "lon": "-8.583929833699319",
      "lat": "41.1828272104031"
    },
    {
      "id": "pt.ine.add.PTCONT.4150079",
      "street": "R PARTICULAR DE D AFONSO HENRIQUES",
      "house": "93",
      "postcode": "4425-685",
      "city": "MAIA",
      "lon": "-8.583929833699319",
      "lat": "41.1828272104031"
    },
    {
      "id": "pt.ine.add.PTCONT.4153809",
      "street": "R PARTICULAR DE D AFONSO HENRIQUES",
      "house": "93",
      "postcode": "4425-685",
      "city": "MAIA",
      "lon": "-8.583929833699319",
      "lat": "41.1828272104031"
    },
    {
      "id": "pt.ine.add.PTCONT.4154534",
      "street": "R PARTICULAR DE D AFONSO HENRIQUES",
      "house": "93",
      "postcode": "4425-685",
      "city": "MAIA",
      "lon": "-8.583929833699319",
      "lat": "41.1828272104031"
    },
    {
      "id": "pt.ine.add.PTCONT.4154535",
      "street": "R PARTICULAR DE D AFONSO HENRIQUES",
      "house": "93",
      "postcode": "4425-685",
      "city": "MAIA",
      "lon": "-8.583929833699319",
      "lat": "41.1828272104031"
    },
    {
      "id": "pt.ine.add.PTCONT.4154536",
      "street": "R PARTICULAR DE D AFONSO HENRIQUES",
      "house": "93",
      "postcode": "4425-685",
      "city": "MAIA",
      "lon": "-8.583929833699319",
      "lat": "41.1828272104031"
    },
    {
      "id": "pt.ine.add.PTCONT.4156637",
      "street": "R GON√áALO MENDES DA MAIA",
      "house": "145",
      "postcode": "4425-656",
      "city": "MAIA",
      "lon": "-8.586389027776622",
      "lat": "41.18167401060663"
    },
    {
      "id": "pt.ine.add.PTCONT.4163243",
      "street": "TV ARTUR NEVES",
      "house": "80",
      "postcode": "4425-625",
      "city": "MAIA",
      "lon": "-8.584861252257783",
      "lat": "41.183084685852634"
    },
    {
      "id": "pt.ine.add.PTCONT.4172889",
      "street": "R PARTICULAR DE D AFONSO HENRIQUES",
      "house": "38",
      "postcode": "4425-705",
      "city": "MAIA",
      "lon": "-8.583823618869566",
      "lat": "41.182980699400666"
    },
    {
      "id": "pt.ine.add.PTCONT.4173110",
      "street": "ESTR CIRCUNVALA√á√ÉO",
      "house": "6250",
      "postcode": "4425-650",
      "city": "MAIA",
      "lon": "-8.58523919804407",
      "lat": "41.180850133253834"
    },
    {
      "id": "pt.ine.add.PTCONT.4173111",
      "street": "ESTR CIRCUNVALA√á√ÉO",
      "house": "6250",
      "postcode": "4425-650",
      "city": "MAIA",
      "lon": "-8.58523919804407",
      "lat": "41.180850133253834"
    },
    {
      "id": "pt.ine.add.PTCONT.4173112",
      "street": "ESTR CIRCUNVALA√á√ÉO",
      "house": "6250",
      "postcode": "4425-650",
      "city": "MAIA",
      "lon": "-8.58523919804407",
      "lat": "41.180850133253834"
    },
    {
      "id": "pt.ine.add.PTCONT.4173873",
      "street": "ESTR CIRCUNVALA√á√ÉO",
      "house": "6250",
      "postcode": "4425-650",
      "city": "MAIA",
      "lon": "-8.58523919804407",
      "lat": "41.180850133253834"
    },
    {
      "id": "pt.ine.add.PTCONT.4173885",
      "street": "ESTR CIRCUNVALA√á√ÉO",
      "house": "6250",
      "postcode": "4425-650",
      "city": "MAIA",
      "lon": "-8.58523919804407",
      "lat": "41.180850133253834"
    },
    {
      "id": "pt.ine.add.PTCONT.4176115",
      "street": "R ARTUR NEVES",
      "house": "44",
      "postcode": "4425-624",
      "city": "MAIA",
      "lon": "-8.58451795606908",
      "lat": "41.181690363485366"
    },
    {
      "id": "pt.ine.add.PTCONT.4176116",
      "street": "R GON√áALO MENDES DA MAIA",
      "house": "213",
      "postcode": "4425-656",
      "city": "MAIA",
      "lon": "-8.58717536997005",
      "lat": "41.181634895953245"
    },
    {
      "id": "pt.ine.add.PTCONT.4176121",
      "street": "R GON√áALO MENDES DA MAIA",
      "house": "213",
      "postcode": "4425-656",
      "city": "MAIA",
      "lon": "-8.58717536997005",
      "lat": "41.181634895953245"
    },
    {
      "id": "pt.ine.add.PTCONT.4176122",
      "street": "R GON√áALO MENDES DA MAIA",
      "house": "213",
      "postcode": "4425-656",
      "city": "MAIA",
      "lon": "-8.58717536997005",
      "lat": "41.181634895953245"
    },
    {
      "id": "pt.ine.add.PTCONT.4176123",
      "street": "R GON√áALO MENDES DA MAIA",
      "house": "213",
      "postcode": "4425-656",
      "city": "MAIA",
      "lon": "-8.58717536997005",
      "lat": "41.181634895953245"
    },
    {
      "id": "pt.ine.add.PTCONT.4176124",
      "street": "R GON√áALO MENDES DA MAIA",
      "house": "213",
      "postcode": "4425-656",
      "city": "MAIA",
      "lon": "-8.58717536997005",
      "lat": "41.181634895953245"
    },
    {
      "id": "pt.ine.add.PTCONT.4176125",
      "street": "R GON√áALO MENDES DA MAIA",
      "house": "213",
      "postcode": "4425-656",
      "city": "MAIA",
      "lon": "-8.58717536997005",
      "lat": "41.181634895953245"
    },
    {
      "id": "pt.ine.add.PTCONT.4176126",
      "street": "R GON√áALO MENDES DA MAIA",
      "house": "213",
      "postcode": "4425-656",
      "city": "MAIA",
      "lon": "-8.58717536997005",
      "lat": "41.181634895953245"
    },
    {
      "id": "pt.ine.add.PTCONT.4176127",
      "street": "R GON√áALO MENDES DA MAIA",
      "house": "213",
      "postcode": "4425-656",
      "city": "MAIA",
      "lon": "-8.58717536997005",
      "lat": "41.181634895953245"
    },
    {
      "id": "pt.ine.add.PTCONT.4176128",
      "street": "R GON√áALO MENDES DA MAIA",
      "house": "213",
      "postcode": "4425-656",
      "city": "MAIA",
      "lon": "-8.58717536997005",
      "lat": "41.181634895953245"
    },
    {
      "id": "pt.ine.add.PTCONT.4176129",
      "street": "R GON√áALO MENDES DA MAIA",
      "house": "213",
      "postcode": "4425-656",
      "city": "MAIA",
      "lon": "-8.58717536997005",
      "lat": "41.181634895953245"
    },
    {
      "id": "pt.ine.add.PTCONT.4176130",
      "street": "R GON√áALO MENDES DA MAIA",
      "house": "213",
      "postcode": "4425-656",
      "city": "MAIA",
      "lon": "-8.58717536997005",
      "lat": "41.181634895953245"
    },
    {
      "id": "pt.ine.add.PTCONT.4176131",
      "street": "R GON√áALO MENDES DA MAIA",
      "house": "213",
      "postcode": "4425-656",
      "city": "MAIA",
      "lon": "-8.58717536997005",
      "lat": "41.181634895953245"
    },
    {
      "id": "pt.ine.add.PTCONT.4176132",
      "street": "R GON√áALO MENDES DA MAIA",
      "house": "213",
      "postcode": "4425-656",
      "city": "MAIA",
      "lon": "-8.58717536997005",
      "lat": "41.181634895953245"
    },
    {
      "id": "pt.ine.add.PTCONT.4176133",
      "street": "R GON√áALO MENDES DA MAIA",
      "house": "213",
      "postcode": "4425-656",
      "city": "MAIA",
      "lon": "-8.58717536997005",
      "lat": "41.181634895953245"
    },
    {
      "id": "pt.ine.add.PTCONT.4176136",
      "street": "R GON√áALO MENDES DA MAIA",
      "house": "213",
      "postcode": "4425-656",
      "city": "MAIA",
      "lon": "-8.58717536997005",
      "lat": "41.181634895953245"
    },
    {
      "id": "pt.ine.add.PTCONT.4176137",
      "street": "R GON√áALO MENDES DA MAIA",
      "house": "213",
      "postcode": "4425-656",
      "city": "MAIA",
      "lon": "-8.58717536997005",
      "lat": "41.181634895953245"
    },
    {
      "id": "pt.ine.add.PTCONT.4176138",
      "street": "R GON√áALO MENDES DA MAIA",
      "house": "213",
      "postcode": "4425-656",
      "city": "MAIA",
      "lon": "-8.58717536997005",
      "lat": "41.181634895953245"
    },
    {
      "id": "pt.ine.add.PTCONT.4176139",
      "street": "R GON√áALO MENDES DA MAIA",
      "house": "213",
      "postcode": "4425-656",
      "city": "MAIA",
      "lon": "-8.58717536997005",
      "lat": "41.181634895953245"
    },
    {
      "id": "pt.ine.add.PTCONT.4176140",
      "street": "R GON√áALO MENDES DA MAIA",
      "house": "213",
      "postcode": "4425-656",
      "city": "MAIA",
      "lon": "-8.58717536997005",
      "lat": "41.181634895953245"
    },
    {
      "id": "pt.ine.add.PTCONT.4176141",
      "street": "R GON√áALO MENDES DA MAIA",
      "house": "213",
      "postcode": "4425-656",
      "city": "MAIA",
      "lon": "-8.58717536997005",
      "lat": "41.181634895953245"
    },
    {
      "id": "pt.ine.add.PTCONT.4176142",
      "street": "R GON√áALO MENDES DA MAIA",
      "house": "213",
      "postcode": "4425-656",
      "city": "MAIA",
      "lon": "-8.58717536997005",
      "lat": "41.181634895953245"
    },
    {
      "id": "pt.ine.add.PTCONT.4176143",
      "street": "R GON√áALO MENDES DA MAIA",
      "house": "213",
      "postcode": "4425-656",
      "city": "MAIA",
      "lon": "-8.58717536997005",
      "lat": "41.181634895953245"
    },
    {
      "id": "pt.ine.add.PTCONT.4176144",
      "street": "R GON√áALO MENDES DA MAIA",
      "house": "213",
      "postcode": "4425-656",
      "city": "MAIA",
      "lon": "-8.58717536997005",
      "lat": "41.181634895953245"
    },
    {
      "id": "pt.ine.add.PTCONT.4176145",
      "street": "R GON√áALO MENDES DA MAIA",
      "house": "213",
      "postcode": "4425-656",
      "city": "MAIA",
      "lon": "-8.58717536997005",
      "lat": "41.181634895953245"
    },
    {
      "id": "pt.ine.add.PTCONT.4176146",
      "street": "R GON√áALO MENDES DA MAIA",
      "house": "213",
      "postcode": "4425-656",
      "city": "MAIA",
      "lon": "-8.58717536997005",
      "lat": "41.181634895953245"
    },
    {
      "id": "pt.ine.add.PTCONT.4176147",
      "street": "R GON√áALO MENDES DA MAIA",
      "house": "213",
      "postcode": "4425-656",
      "city": "MAIA",
      "lon": "-8.58717536997005",
      "lat": "41.181634895953245"
    },
    {
      "id": "pt.ine.add.PTCONT.4176148",
      "street": "R GON√áALO MENDES DA MAIA",
      "house": "213",
      "postcode": "4425-656",
      "city": "MAIA",
      "lon": "-8.58717536997005",
      "lat": "41.181634895953245"
    },
    {
      "id": "pt.ine.add.PTCONT.4176149",
      "street": "R GON√áALO MENDES DA MAIA",
      "house": "213",
      "postcode": "4425-656",
      "city": "MAIA",
      "lon": "-8.58717536997005",
      "lat": "41.181634895953245"
    },
    {
      "id": "pt.ine.add.PTCONT.4176150",
      "street": "R GON√áALO MENDES DA MAIA",
      "house": "213",
      "postcode": "4425-656",
      "city": "MAIA",
      "lon": "-8.58717536997005",
      "lat": "41.181634895953245"
    },
    {
      "id": "pt.ine.add.PTCONT.4176170",
      "street": "R GON√áALO MENDES DA MAIA",
      "house": "213",
      "postcode": "4425-656",
      "city": "MAIA",
      "lon": "-8.58717536997005",
      "lat": "41.181634895953245"
    },
    {
      "id": "pt.ine.add.PTCONT.4176171",
      "street": "R GON√áALO MENDES DA MAIA",
      "house": "213",
      "postcode": "4425-656",
      "city": "MAIA",
      "lon": "-8.58717536997005",
      "lat": "41.181634895953245"
    },
    {
      "id": "pt.ine.add.PTCONT.4176172",
      "street": "R GON√áALO MENDES DA MAIA",
      "house": "213",
      "postcode": "4425-656",
      "city": "MAIA",
      "lon": "-8.58717536997005",
      "lat": "41.181634895953245"
    },
    {
      "id": "pt.ine.add.PTCONT.4176173",
      "street": "R GON√áALO MENDES DA MAIA",
      "house": "213",
      "postcode": "4425-656",
      "city": "MAIA",
      "lon": "-8.58717536997005",
      "lat": "41.181634895953245"
    },
    {
      "id": "pt.ine.add.PTCONT.4179741",
      "street": "R GON√áALO MENDES DA MAIA",
      "house": "213",
      "postcode": "4425-656",
      "city": "MAIA",
      "lon": "-8.58717536997005",
      "lat": "41.181634895953245"
    },
    {
      "id": "pt.ine.add.PTCONT.4179745",
      "street": "R GON√áALO MENDES DA MAIA",
      "house": "213",
      "postcode": "4425-656",
      "city": "MAIA",
      "lon": "-8.58717536997005",
      "lat": "41.181634895953245"
    },
    {
      "id": "pt.ine.add.PTCONT.4179778",
      "street": "R GON√áALO MENDES DA MAIA",
      "house": "213",
      "postcode": "4425-656",
      "city": "MAIA",
      "lon": "-8.58717536997005",
      "lat": "41.181634895953245"
    },
    {
      "id": "pt.ine.add.PTCONT.4179803",
      "street": "R GON√áALO MENDES DA MAIA",
      "house": "213",
      "postcode": "4425-656",
      "city": "MAIA",
      "lon": "-8.58717536997005",
      "lat": "41.181634895953245"
    },
    {
      "id": "pt.ine.add.PTCONT.4179820",
      "street": "R GON√áALO MENDES DA MAIA",
      "house": "213",
      "postcode": "4425-656",
      "city": "MAIA",
      "lon": "-8.58717536997005",
      "lat": "41.181634895953245"
    },
    {
      "id": "pt.ine.add.PTCONT.4179837",
      "street": "R GON√áALO MENDES DA MAIA",
      "house": "213",
      "postcode": "4425-656",
      "city": "MAIA",
      "lon": "-8.58717536997005",
      "lat": "41.181634895953245"
    },
    {
      "id": "pt.ine.add.PTCONT.4180983",
      "street": "R GON√áALO MENDES DA MAIA",
      "house": "213",
      "postcode": "4425-656",
      "city": "MAIA",
      "lon": "-8.58717536997005",
      "lat": "41.181634895953245"
    },
    {
      "id": "pt.ine.add.PTCONT.4181122",
      "street": "R GON√áALO MENDES DA MAIA",
      "house": "213",
      "postcode": "4425-656",
      "city": "MAIA",
      "lon": "-8.58717536997005",
      "lat": "41.181634895953245"
    },
    {
      "id": "pt.ine.add.PTCONT.4183476",
      "street": "R BAIRRO VILELA",
      "house": "15",
      "postcode": "4425-698",
      "city": "MAIA",
      "lon": "-8.584137443258424",
      "lat": "41.181817914600735"
    },
    {
      "id": "pt.ine.add.PTCONT.4188999",
      "street": "R OLIVEIRAS",
      "house": "233",
      "postcode": "4425-677",
      "city": "MAIA",
      "lon": "-8.584255457955646",
      "lat": "41.18338420265294"
    },
    {
      "id": "pt.ine.add.PTCONT.4210914",
      "street": "R DR AMERICO CARDOSO",
      "house": "60",
      "postcode": "4425-705",
      "city": "MAIA",
      "lon": "-8.583431425662583",
      "lat": "41.183144311119094"
    },
    {
      "id": "pt.ine.add.PTCONT.4211076",
      "street": "R ARTUR NEVES",
      "house": "88",
      "postcode": "4425-624",
      "city": "MAIA",
      "lon": "-8.584497829495064",
      "lat": "41.18223070113528"
    },
    {
      "id": "pt.ine.add.PTCONT.4215628",
      "street": "TV ARTUR NEVES",
      "house": "62",
      "postcode": "4425-625",
      "city": "MAIA",
      "lon": "-8.585050954657216",
      "lat": "41.1829398726406"
    },
    {
      "id": "pt.ine.add.PTCONT.4251487",
      "street": "R ARTUR NEVES",
      "house": "82",
      "postcode": "4425-624",
      "city": "MAIA",
      "lon": "-8.584831042703737",
      "lat": "41.18215736023306"
    },
    {
      "id": "pt.ine.add.PTCONT.4251488",
      "street": "R ARTUR NEVES",
      "house": "108",
      "postcode": "4425-624",
      "city": "MAIA",
      "lon": "-8.58459292733541",
      "lat": "41.18219431114126"
    },
    {
      "id": "pt.ine.add.PTCONT.4251921",
      "street": "R GON√áALO MENDES DA MAIA",
      "house": "73",
      "postcode": "4425-656",
      "city": "MAIA",
      "lon": "-8.5853855578637",
      "lat": "41.181335791569445"
    },
    {
      "id": "pt.ine.add.PTCONT.4258324",
      "street": "ESTR EXTERIOR DA CIRCUNVALA√á√ÉO",
      "house": "4009",
      "postcode": "4435-698",
      "city": "BAGUIM DO MONTE",
      "lon": "-8.583781073798553",
      "lat": "41.18199039155343"
    },
    {
      "id": "pt.ine.add.PTCONT.4261225",
      "street": "PCT VITORINO NEMESIO",
      "house": "175",
      "postcode": "4425-700",
      "city": "MAIA",
      "lon": "-8.586358611269178",
      "lat": "41.180719673058114"
    },
    {
      "id": "pt.ine.add.PTCONT.4261226",
      "street": "PCT VITORINO NEMESIO",
      "house": "175",
      "postcode": "4425-700",
      "city": "MAIA",
      "lon": "-8.586358611269178",
      "lat": "41.180719673058114"
    },
    {
      "id": "pt.ine.add.PTCONT.4261227",
      "street": "PCT VITORINO NEMESIO",
      "house": "175",
      "postcode": "4425-700",
      "city": "MAIA",
      "lon": "-8.586358611269178",
      "lat": "41.180719673058114"
    },
    {
      "id": "pt.ine.add.PTCONT.4261228",
      "street": "PCT VITORINO NEMESIO",
      "house": "175",
      "postcode": "4425-700",
      "city": "MAIA",
      "lon": "-8.586358611269178",
      "lat": "41.180719673058114"
    },
    {
      "id": "pt.ine.add.PTCONT.4261229",
      "street": "PCT VITORINO NEMESIO",
      "house": "175",
      "postcode": "4425-700",
      "city": "MAIA",
      "lon": "-8.586358611269178",
      "lat": "41.180719673058114"
    },
    {
      "id": "pt.ine.add.PTCONT.4261230",
      "street": "PCT VITORINO NEMESIO",
      "house": "175",
      "postcode": "4425-700",
      "city": "MAIA",
      "lon": "-8.586358611269178",
      "lat": "41.180719673058114"
    },
    {
      "id": "pt.ine.add.PTCONT.4261231",
      "street": "PCT VITORINO NEMESIO",
      "house": "175",
      "postcode": "4425-700",
      "city": "MAIA",
      "lon": "-8.586358611269178",
      "lat": "41.180719673058114"
    },
    {
      "id": "pt.ine.add.PTCONT.4261232",
      "street": "PCT VITORINO NEMESIO",
      "house": "6",
      "postcode": "4425-700",
      "city": "MAIA",
      "lon": "-8.586358611269178",
      "lat": "41.180719673058114"
    },
    {
      "id": "pt.ine.add.PTCONT.4261233",
      "street": "PCT VITORINO NEMESIO",
      "house": "175",
      "postcode": "4425-700",
      "city": "MAIA",
      "lon": "-8.586358611269178",
      "lat": "41.180719673058114"
    },
    {
      "id": "pt.ine.add.PTCONT.4261234",
      "street": "PCT VITORINO NEMESIO",
      "house": "175",
      "postcode": "4425-700",
      "city": "MAIA",
      "lon": "-8.586358611269178",
      "lat": "41.180719673058114"
    },
    {
      "id": "pt.ine.add.PTCONT.4261235",
      "street": "PCT VITORINO NEMESIO",
      "house": "175",
      "postcode": "4425-700",
      "city": "MAIA",
      "lon": "-8.586358611269178",
      "lat": "41.180719673058114"
    },
    {
      "id": "pt.ine.add.PTCONT.4261236",
      "street": "PCT VITORINO NEMESIO",
      "house": "175",
      "postcode": "4425-700",
      "city": "MAIA",
      "lon": "-8.586358611269178",
      "lat": "41.180719673058114"
    },
    {
      "id": "pt.ine.add.PTCONT.4261237",
      "street": "PCT VITORINO NEMESIO",
      "house": "175",
      "postcode": "4425-700",
      "city": "MAIA",
      "lon": "-8.586358611269178",
      "lat": "41.180719673058114"
    },
    {
      "id": "pt.ine.add.PTCONT.4261238",
      "street": "PCT VITORINO NEMESIO",
      "house": "175",
      "postcode": "4425-700",
      "city": "MAIA",
      "lon": "-8.586358611269178",
      "lat": "41.180719673058114"
    },
    {
      "id": "pt.ine.add.PTCONT.4261242",
      "street": "PCT VITORINO NEMESIO",
      "house": "175",
      "postcode": "4425-700",
      "city": "MAIA",
      "lon": "-8.586358611269178",
      "lat": "41.180719673058114"
    },
    {
      "id": "pt.ine.add.PTCONT.4261243",
      "street": "PCT VITORINO NEMESIO",
      "house": "175",
      "postcode": "4425-700",
      "city": "MAIA",
      "lon": "-8.586358611269178",
      "lat": "41.180719673058114"
    },
    {
      "id": "pt.ine.add.PTCONT.4261244",
      "street": "PCT VITORINO NEMESIO",
      "house": "175",
      "postcode": "4425-700",
      "city": "MAIA",
      "lon": "-8.586358611269178",
      "lat": "41.180719673058114"
    },
    {
      "id": "pt.ine.add.PTCONT.4261245",
      "street": "PCT VITORINO NEMESIO",
      "house": "175",
      "postcode": "4425-700",
      "city": "MAIA",
      "lon": "-8.586358611269178",
      "lat": "41.180719673058114"
    },
    {
      "id": "pt.ine.add.PTCONT.4261246",
      "street": "PCT VITORINO NEMESIO",
      "house": "175",
      "postcode": "4425-700",
      "city": "MAIA",
      "lon": "-8.586358611269178",
      "lat": "41.180719673058114"
    },
    {
      "id": "pt.ine.add.PTCONT.4261247",
      "street": "PCT VITORINO NEMESIO",
      "house": "175",
      "postcode": "4425-700",
      "city": "MAIA",
      "lon": "-8.586358611269178",
      "lat": "41.180719673058114"
    },
    {
      "id": "pt.ine.add.PTCONT.4261248",
      "street": "PCT VITORINO NEMESIO",
      "house": "175",
      "postcode": "4425-700",
      "city": "MAIA",
      "lon": "-8.586358611269178",
      "lat": "41.180719673058114"
    },
    {
      "id": "pt.ine.add.PTCONT.4261249",
      "street": "PCT VITORINO NEMESIO",
      "house": "175",
      "postcode": "4425-700",
      "city": "MAIA",
      "lon": "-8.586358611269178",
      "lat": "41.180719673058114"
    },
    {
      "id": "pt.ine.add.PTCONT.4261250",
      "street": "PCT VITORINO NEMESIO",
      "house": "175",
      "postcode": "4425-700",
      "city": "MAIA",
      "lon": "-8.586358611269178",
      "lat": "41.180719673058114"
    },
    {
      "id": "pt.ine.add.PTCONT.4261251",
      "street": "PCT VITORINO NEMESIO",
      "house": "175",
      "postcode": "4425-700",
      "city": "MAIA",
      "lon": "-8.586358611269178",
      "lat": "41.180719673058114"
    },
    {
      "id": "pt.ine.add.PTCONT.4261252",
      "street": "PCT VITORINO NEMESIO",
      "house": "175",
      "postcode": "4425-700",
      "city": "MAIA",
      "lon": "-8.586358611269178",
      "lat": "41.180719673058114"
    },
    {
      "id": "pt.ine.add.PTCONT.4261253",
      "street": "PCT VITORINO NEMESIO",
      "house": "175",
      "postcode": "4425-700",
      "city": "MAIA",
      "lon": "-8.586358611269178",
      "lat": "41.180719673058114"
    },
    {
      "id": "pt.ine.add.PTCONT.4261254",
      "street": "PCT VITORINO NEMESIO",
      "house": "175",
      "postcode": "4425-700",
      "city": "MAIA",
      "lon": "-8.586358611269178",
      "lat": "41.180719673058114"
    },
    {
      "id": "pt.ine.add.PTCONT.4261269",
      "street": "PCT VITORINO NEMESIO",
      "house": "175",
      "postcode": "4425-700",
      "city": "MAIA",
      "lon": "-8.586358611269178",
      "lat": "41.180719673058114"
    },
    {
      "id": "pt.ine.add.PTCONT.4261281",
      "street": "R BAIRRO VILELA",
      "house": "14",
      "postcode": "4425-698",
      "city": "MAIA",
      "lon": "-8.584030674669066",
      "lat": "41.18189036716564"
    },
    {
      "id": "pt.ine.add.PTCONT.4264802",
      "street": "PCT VITORINO NEMESIO",
      "house": "175",
      "postcode": "4425-700",
      "city": "MAIA",
      "lon": "-8.586358611269178",
      "lat": "41.180719673058114"
    },
    {
      "id": "pt.ine.add.PTCONT.4264949",
      "street": "PCT VITORINO NEMESIO",
      "house": "175",
      "postcode": "4425-700",
      "city": "MAIA",
      "lon": "-8.586358611269178",
      "lat": "41.180719673058114"
    },
    {
      "id": "pt.ine.add.PTCONT.4265967",
      "street": "R BAIRRO VILELA",
      "house": "CASA 2",
      "postcode": "4425-698",
      "city": "MAIA",
      "lon": "-8.584090265113169",
      "lat": "41.1818901338469"
    },
    {
      "id": "pt.ine.add.PTCONT.4267788",
      "street": "TV ARTUR NEVES",
      "house": "84",
      "postcode": "4425-625",
      "city": "MAIA",
      "lon": "-8.584633567542193",
      "lat": "41.1829054924623"
    },
    {
      "id": "pt.ine.add.PTCONT.4267796",
      "street": "R OLIVEIRAS",
      "house": "237",
      "postcode": "4425-677",
      "city": "MAIA",
      "lon": "-8.584326906305822",
      "lat": "41.18337491845042"
    },
    {
      "id": "pt.ine.add.PTCONT.4267810",
      "street": "R OLIVEIRAS",
      "house": "1C",
      "postcode": "4425-677",
      "city": "MAIA",
      "lon": "-8.583102951977537",
      "lat": "41.183910961361654"
    },
    {
      "id": "pt.ine.add.PTCONT.4272951",
      "street": "R DR AM√âRICO CARDOSO",
      "house": "60A CASA 2",
      "postcode": "4425-705",
      "city": "MAIA",
      "lon": "-8.5835617250498",
      "lat": "41.1830267455378"
    },
    {
      "id": "pt.ine.add.PTCONT.4279855",
      "street": "R PARTICULAR D AFONSO HENRIQUES",
      "house": "58",
      "postcode": "4425-705",
      "city": "MAIA",
      "lon": "-8.583286247677789",
      "lat": "41.18282972776418"
    },
    {
      "id": "pt.ine.add.PTCONT.4284692",
      "street": "R PARTICULAR D AFONSO HENRIQUES",
      "house": "102",
      "postcode": "4425-705",
      "city": "MAIA",
      "lon": "-8.583859805914464",
      "lat": "41.183043587961954"
    },
    {
      "id": "pt.ine.add.PTCONT.4286404",
      "street": "R BAIRRO VILELA",
      "house": "CASA 2",
      "postcode": "4425-698",
      "city": "MAIA",
      "lon": "-8.584149979112507",
      "lat": "41.1819079086394"
    },
    {
      "id": "pt.ine.add.PTCONT.4288156",
      "street": "R DR AM√âRICO CARDOSO",
      "house": "51",
      "postcode": "4425-685",
      "city": "MAIA",
      "lon": "-8.58342858830838",
      "lat": "41.18273012388534"
    },
    {
      "id": "pt.ine.add.PTCONT.4333115",
      "street": "R ARTUR NEVES",
      "house": "88 CASA 2",
      "postcode": "4425-624",
      "city": "MAIA",
      "lon": "-8.584652456202987",
      "lat": "41.182185073460275"
    },
    {
      "id": "pt.ine.add.PTCONT.4334737",
      "street": "R GON√áALO MENDES DA MAIA",
      "house": "83",
      "postcode": "4425-656",
      "city": "MAIA",
      "lon": "-8.585505605198493",
      "lat": "41.18146138048619"
    },
    {
      "id": "pt.ine.add.PTCONT.4339551",
      "street": "R GON√áALO MENDES DA MAIA",
      "house": "51",
      "postcode": "4425-656",
      "city": "MAIA",
      "lon": "-8.585040183848985",
      "lat": "41.18137316454418"
    },
    {
      "id": "pt.ine.add.PTCONT.4342612",
      "street": "R OLIVEIRAS",
      "house": "197",
      "postcode": "4425-677",
      "city": "MAIA",
      "lon": "-8.58395799300269",
      "lat": "41.183457401951216"
    },
    {
      "id": "pt.ine.add.PTCONT.4345748",
      "street": "R PARTICULAR D AFONSO HENRIQUES",
      "house": "46 CASA C",
      "postcode": "4425-685",
      "city": "MAIA",
      "lon": "-8.583729877369505",
      "lat": "41.18321517829478"
    },
    {
      "id": "pt.ine.add.PTCONT.4347279",
      "street": "LG 9 DE ABRIL",
      "house": "46",
      "postcode": "4425-609",
      "city": "MAIA",
      "lon": "-8.584612390278803",
      "lat": "41.18329276085678"
    },
    {
      "id": "pt.ine.add.PTCONT.4351563",
      "street": "R OLIVEIRAS",
      "house": "91",
      "postcode": "4425-677",
      "city": "MAIA",
      "lon": "-8.582995870738523",
      "lat": "41.18393839261836"
    },
    {
      "id": "pt.ine.add.PTCONT.4351564",
      "street": "R OLIVEIRAS",
      "house": "91",
      "postcode": "4425-677",
      "city": "MAIA",
      "lon": "-8.582995870738523",
      "lat": "41.18393839261836"
    },
    {
      "id": "pt.ine.add.PTCONT.4353081",
      "street": "R OLIVEIRAS",
      "house": "251",
      "postcode": "4425-677",
      "city": "MAIA",
      "lon": "-8.584481597645308",
      "lat": "41.183338295067905"
    },
    {
      "id": "pt.ine.add.PTCONT.4353083",
      "street": "R DR AM√âRICO CARDOSO",
      "house": "61",
      "postcode": "4425-685",
      "city": "MAIA",
      "lon": "-8.583500282833027",
      "lat": "41.18275685647988"
    },
    {
      "id": "pt.ine.add.PTCONT.4353084",
      "street": "R ARTUR NEVES",
      "house": "62",
      "postcode": "4425-624",
      "city": "MAIA",
      "lon": "-8.584710067545023",
      "lat": "41.18189670957474"
    },
    {
      "id": "pt.ine.add.PTCONT.4353085",
      "street": "R ARTUR NEVES",
      "house": "62",
      "postcode": "4425-624",
      "city": "MAIA",
      "lon": "-8.584710067545023",
      "lat": "41.18189670957474"
    },
    {
      "id": "pt.ine.add.PTCONT.4353086",
      "street": "R ARTUR NEVES",
      "house": "62",
      "postcode": "4425-624",
      "city": "MAIA",
      "lon": "-8.584710067545023",
      "lat": "41.18189670957474"
    },
    {
      "id": "pt.ine.add.PTCONT.4357563",
      "street": "R ARTUR NEVES",
      "house": "62",
      "postcode": "4425-624",
      "city": "MAIA",
      "lon": "-8.584710067545023",
      "lat": "41.18189670957474"
    },
    {
      "id": "pt.ine.add.PTCONT.4358575",
      "street": "R BAIRRO VILELA",
      "house": "CASA 4",
      "postcode": "4425-698",
      "city": "MAIA",
      "lon": "-8.584102800917375",
      "lat": "41.18198012788984"
    },
    {
      "id": "pt.ine.add.PTCONT.4360308",
      "street": "R GON√áALO MENDES DA MAIA",
      "house": "85",
      "postcode": "4425-656",
      "city": "MAIA",
      "lon": "-8.585601135194548",
      "lat": "41.181488018153296"
    },
    {
      "id": "pt.ine.add.PTCONT.4366746",
      "street": "R GON√áALO MENDES DA MAIA",
      "house": "57",
      "postcode": "4425-656",
      "city": "MAIA",
      "lon": "-8.585110948908758",
      "lat": "41.18126483508508"
    },
    {
      "id": "pt.ine.add.PTCONT.4366755",
      "street": "R OLIVEIRAS",
      "house": "67",
      "postcode": "4425-677",
      "city": "MAIA",
      "lon": "-8.582793503268768",
      "lat": "41.183975200161115"
    },
    {
      "id": "pt.ine.add.PTCONT.4366756",
      "street": "R OLIVEIRAS",
      "house": "67",
      "postcode": "4425-677",
      "city": "MAIA",
      "lon": "-8.582793503268768",
      "lat": "41.183975200161115"
    },
    {
      "id": "pt.ine.add.PTCONT.4366757",
      "street": "R OLIVEIRAS",
      "house": "67",
      "postcode": "4425-677",
      "city": "MAIA",
      "lon": "-8.582793503268768",
      "lat": "41.183975200161115"
    },
    {
      "id": "pt.ine.add.PTCONT.4366758",
      "street": "R OLIVEIRAS",
      "house": "67",
      "postcode": "4425-677",
      "city": "MAIA",
      "lon": "-8.582793503268768",
      "lat": "41.183975200161115"
    },
    {
      "id": "pt.ine.add.PTCONT.4366759",
      "street": "R OLIVEIRAS",
      "house": "67",
      "postcode": "4425-677",
      "city": "MAIA",
      "lon": "-8.582793503268768",
      "lat": "41.183975200161115"
    },
    {
      "id": "pt.ine.add.PTCONT.4366760",
      "street": "R OLIVEIRAS",
      "house": "67",
      "postcode": "4425-677",
      "city": "MAIA",
      "lon": "-8.582793503268768",
      "lat": "41.183975200161115"
    },
    {
      "id": "pt.ine.add.PTCONT.4366761",
      "street": "R OLIVEIRAS",
      "house": "67",
      "postcode": "4425-677",
      "city": "MAIA",
      "lon": "-8.582793503268768",
      "lat": "41.183975200161115"
    },
    {
      "id": "pt.ine.add.PTCONT.4366762",
      "street": "R OLIVEIRAS",
      "house": "67",
      "postcode": "4425-677",
      "city": "MAIA",
      "lon": "-8.582793503268768",
      "lat": "41.183975200161115"
    },
    {
      "id": "pt.ine.add.PTCONT.4366763",
      "street": "R OLIVEIRAS",
      "house": "67",
      "postcode": "4425-677",
      "city": "MAIA",
      "lon": "-8.582793503268768",
      "lat": "41.183975200161115"
    },
    {
      "id": "pt.ine.add.PTCONT.4370340",
      "street": "R OLIVEIRAS",
      "house": "64",
      "postcode": "4425-677",
      "city": "MAIA",
      "lon": "-8.582793503268768",
      "lat": "41.183975200161115"
    },
    {
      "id": "pt.ine.add.PTCONT.4372363",
      "street": "PCT VITORINO NEMESIO",
      "house": "83",
      "postcode": "4425-700",
      "city": "MAIA",
      "lon": "-8.58689789881537",
      "lat": "41.181149756607"
    },
    {
      "id": "pt.ine.add.PTCONT.4372653",
      "street": "R DR AM√âRICO CARDOSO",
      "house": "60",
      "postcode": "4425-705",
      "city": "MAIA",
      "lon": "-8.583393758726123",
      "lat": "41.18286532473565"
    },
    {
      "id": "pt.ine.add.PTCONT.4373963",
      "street": "PCT VITORINO NEMESIO",
      "house": "145",
      "postcode": "4425-700",
      "city": "MAIA",
      "lon": "-8.586420187401421",
      "lat": "41.1810075687752"
    },
    {
      "id": "pt.ine.add.PTCONT.4379157",
      "street": "PCT VITORINO NEMESIO",
      "house": "145",
      "postcode": "4425-700",
      "city": "MAIA",
      "lon": "-8.586358611269178",
      "lat": "41.180719673058114"
    },
    {
      "id": "pt.ine.add.PTCONT.4379882",
      "street": "R BAIRRO VILELA",
      "house": "CASA 6",
      "postcode": "4425-698",
      "city": "MAIA",
      "lon": "-8.584174618454899",
      "lat": "41.182024868212565"
    },
    {
      "id": "pt.ine.add.PTCONT.4380657",
      "street": "PCT VITORINO NEMESIO",
      "house": "175",
      "postcode": "4425-700",
      "city": "MAIA",
      "lon": "-8.586358611269178",
      "lat": "41.180719673058114"
    },
    {
      "id": "pt.ine.add.PTCONT.4381740",
      "street": "R ARTUR NEVES",
      "house": "88 CASA 7",
      "postcode": "4425-624",
      "city": "MAIA",
      "lon": "-8.584593422050565",
      "lat": "41.182266343701"
    },
    {
      "id": "pt.ine.add.PTCONT.4384837",
      "street": "ESTR CIRCUNVALA√á√ÉO",
      "house": "6250",
      "postcode": "4425-650",
      "city": "MAIA",
      "lon": "-8.58523919804407",
      "lat": "41.180850133253834"
    },
    {
      "id": "pt.ine.add.PTCONT.4384866",
      "street": "R GON√áALO MENDES DA MAIA",
      "house": "213",
      "postcode": "4425-656",
      "city": "MAIA",
      "lon": "-8.58717536997005",
      "lat": "41.181634895953245"
    },
    {
      "id": "pt.ine.add.PTCONT.4387118",
      "street": "R GON√áALO MENDES DA MAIA",
      "house": "105",
      "postcode": "4425-656",
      "city": "MAIA",
      "lon": "-8.5858147293556",
      "lat": "41.1813521140974"
    },
    {
      "id": "pt.ine.add.PTCONT.4387772",
      "street": "R ANT√ìNIO FELICIANO DE CASTILHO",
      "house": "164",
      "postcode": "4425-617",
      "city": "MAIA",
      "lon": "-8.58779105995466",
      "lat": "41.18104718664337"
    },
    {
      "id": "pt.ine.add.PTCONT.4390968",
      "street": "R GON√áALO MENDES DA MAIA",
      "house": "105",
      "postcode": "4425-656",
      "city": "MAIA",
      "lon": "-8.5858147293556",
      "lat": "41.1813521140974"
    }
  ]
}