{
  "data": {
    "distrito": "Coimbra",
    "concelho": "Figueira da Foz",
    "freguesia": "Buarcos e São Julião",
    "OBJECTID": 481,
    "BGRI2021": "06052002406",
    "DT21": "06",
    "DTMN21": "0605",
    "DTMNFR21": "060520",
    "DTMNFRSEC21": "060520024",
    "SECNUM21": "024",
    "SSNUM21": "06",
    "SECSSNUM21": "02406",
    "OBJECTID_1": 51747,
    "DT": "06",
    "CC": "05",
    "fr": "20",
    "SEC": "024",
    "SS": "06"
  },
  "addresses": [
    {
      "id": "pt.ine.add.PTCONT.1108957",
      "street": "R 1 DE MAIO",
      "house": "34",
      "postcode": "3080-224",
      "city": "FIGUEIRA DA FOZ",
      "lon": "-8.863790550929338",
      "lat": "40.1656778163136"
    },
    {
      "id": "pt.ine.add.PTCONT.1115166",
      "street": "R ALTO DO FORNO",
      "house": "32",
      "postcode": "3080-219",
      "city": "FIGUEIRA DA FOZ",
      "lon": "-8.863652399108025",
      "lat": "40.1659308509396"
    },
    {
      "id": "pt.ine.add.PTCONT.1116080",
      "street": "R FLORES DA BEIRA MAR",
      "house": "21",
      "postcode": "3080-247",
      "city": "FIGUEIRA DA FOZ",
      "lon": "-8.863657958567314",
      "lat": "40.16535444363015"
    },
    {
      "id": "pt.ine.add.PTCONT.1141882",
      "street": "R ALTO DO FORNO",
      "house": "23",
      "postcode": "3080-219",
      "city": "FIGUEIRA DA FOZ",
      "lon": "-8.864624425565536",
      "lat": "40.16571757987666"
    },
    {
      "id": "pt.ine.add.PTCONT.1141883",
      "street": "R ALTO DO FORNO",
      "house": "23",
      "postcode": "3080-219",
      "city": "FIGUEIRA DA FOZ",
      "lon": "-8.864624425565536",
      "lat": "40.16571757987666"
    },
    {
      "id": "pt.ine.add.PTCONT.1147861",
      "street": "R 1 DE MAIO",
      "house": "12",
      "postcode": "3080-224",
      "city": "FIGUEIRA DA FOZ",
      "lon": "-8.861831090193313",
      "lat": "40.16576221225509"
    },
    {
      "id": "pt.ine.add.PTCONT.1150689",
      "street": "R AMIZADE",
      "house": "10",
      "postcode": "3080-246",
      "city": "FIGUEIRA DA FOZ",
      "lon": "-8.864218766900336",
      "lat": "40.16510774666012"
    },
    {
      "id": "pt.ine.add.PTCONT.1156125",
      "street": "R 1 DE MAIO",
      "house": "38",
      "postcode": "3080-224",
      "city": "FIGUEIRA DA FOZ",
      "lon": "-8.864118342920426",
      "lat": "40.165594694838376"
    },
    {
      "id": "pt.ine.add.PTCONT.1156128",
      "street": "R ALTO DO FORNO",
      "house": "18",
      "postcode": "3080-219",
      "city": "FIGUEIRA DA FOZ",
      "lon": "-8.864870921705888",
      "lat": "40.16571602222209"
    },
    {
      "id": "pt.ine.add.PTCONT.1158026",
      "street": "R 1 DE MAIO",
      "house": "22",
      "postcode": "3080-224",
      "city": "FIGUEIRA DA FOZ",
      "lon": "-8.862759254065137",
      "lat": "40.165837419023305"
    },
    {
      "id": "pt.ine.add.PTCONT.1160203",
      "street": "R 1 DE MAIO",
      "house": "8",
      "postcode": "3080-224",
      "city": "FIGUEIRA DA FOZ",
      "lon": "-8.861441236191302",
      "lat": "40.16553051409882"
    },
    {
      "id": "pt.ine.add.PTCONT.1162165",
      "street": "R 1 DE MAIO",
      "house": "14",
      "postcode": "3080-224",
      "city": "FIGUEIRA DA FOZ",
      "lon": "-8.862054496104923",
      "lat": "40.165796829190114"
    },
    {
      "id": "pt.ine.add.PTCONT.1166162",
      "street": "R AMIZADE",
      "house": "8",
      "postcode": "3080-246",
      "city": "FIGUEIRA DA FOZ",
      "lon": "-8.864100422868043",
      "lat": "40.165018435725656"
    },
    {
      "id": "pt.ine.add.PTCONT.1169981",
      "street": "R ALTO FORNO",
      "house": "30",
      "postcode": "3080-219",
      "city": "FIGUEIRA DA FOZ",
      "lon": "-8.863875516740913",
      "lat": "40.16593844872785"
    },
    {
      "id": "pt.ine.add.PTCONT.1174315",
      "street": "R AMIZADE",
      "house": "12",
      "postcode": "3080-246",
      "city": "FIGUEIRA DA FOZ",
      "lon": "-8.864266780921431",
      "lat": "40.1652065074442"
    },
    {
      "id": "pt.ine.add.PTCONT.1183017",
      "street": "R CAP SALGUEIRO MAIA",
      "house": "2",
      "postcode": "3080-245",
      "city": "FIGUEIRA DA FOZ",
      "lon": "-8.863032313232127",
      "lat": "40.166123883984426"
    },
    {
      "id": "pt.ine.add.PTCONT.1184278",
      "street": "R AMIZADE",
      "house": "13",
      "postcode": "3080-246",
      "city": "FIGUEIRA DA FOZ",
      "lon": "-8.863968506405925",
      "lat": "40.164758099816524"
    },
    {
      "id": "pt.ine.add.PTCONT.1184279",
      "street": "R AMIZADE",
      "house": "6",
      "postcode": "3080-246",
      "city": "FIGUEIRA DA FOZ",
      "lon": "-8.864028354161906",
      "lat": "40.164865791824"
    },
    {
      "id": "pt.ine.add.PTCONT.1192188",
      "street": "R DESCOBRIMENTOS",
      "house": "13",
      "postcode": "3080-219",
      "city": "FIGUEIRA DA FOZ",
      "lon": "-8.863779447257638",
      "lat": "40.16464221745507"
    },
    {
      "id": "pt.ine.add.PTCONT.1206022",
      "street": "R 1 DE MAIO",
      "house": "23",
      "postcode": "3080-224",
      "city": "FIGUEIRA DA FOZ",
      "lon": "-8.863868274241888",
      "lat": "40.1652630582326"
    },
    {
      "id": "pt.ine.add.PTCONT.1212383",
      "street": "R 1 DE MAIO",
      "house": "2",
      "postcode": "3080-224",
      "city": "FIGUEIRA DA FOZ",
      "lon": "-8.861086694577278",
      "lat": "40.16530759840835"
    },
    {
      "id": "pt.ine.add.PTCONT.1231498",
      "street": "R 1 DE MAIO",
      "house": "30",
      "postcode": "3080-224",
      "city": "FIGUEIRA DA FOZ",
      "lon": "-8.863427061816752",
      "lat": "40.1657161329564"
    },
    {
      "id": "pt.ine.add.PTCONT.1231499",
      "street": "R 1 DE MAIO",
      "house": "30",
      "postcode": "3080-224",
      "city": "FIGUEIRA DA FOZ",
      "lon": "-8.863427061816752",
      "lat": "40.1657161329564"
    },
    {
      "id": "pt.ine.add.PTCONT.1244497",
      "street": "R 1 DE MAIO",
      "house": "26",
      "postcode": "3080-224",
      "city": "FIGUEIRA DA FOZ",
      "lon": "-8.86302816559993",
      "lat": "40.16573666004994"
    },
    {
      "id": "pt.ine.add.PTCONT.1257380",
      "street": "R FLORES DA BEIRA MAR",
      "house": "31",
      "postcode": "3080-247",
      "city": "FIGUEIRA DA FOZ",
      "lon": "-8.86366612450245",
      "lat": "40.16502117688322"
    },
    {
      "id": "pt.ine.add.PTCONT.1260541",
      "street": "R CAP SALGUEIRO MAIA",
      "house": "2",
      "postcode": "3080-245",
      "city": "FIGUEIRA DA FOZ",
      "lon": "-8.86089831192695",
      "lat": "40.16525474781409"
    },
    {
      "id": "pt.ine.add.PTCONT.1260542",
      "street": "R CAP SALGUEIRO MAIA",
      "house": "2",
      "postcode": "3080-245",
      "city": "FIGUEIRA DA FOZ",
      "lon": "-8.86089831192695",
      "lat": "40.16525474781409"
    },
    {
      "id": "pt.ine.add.PTCONT.1260543",
      "street": "R CAP SALGUEIRO MAIA",
      "house": "2",
      "postcode": "3080-245",
      "city": "FIGUEIRA DA FOZ",
      "lon": "-8.86089831192695",
      "lat": "40.16525474781409"
    },
    {
      "id": "pt.ine.add.PTCONT.1261597",
      "street": "R ALTO DO FORNO",
      "house": "36",
      "postcode": "3080-219",
      "city": "FIGUEIRA DA FOZ",
      "lon": "-8.863230701185557",
      "lat": "40.16601456331384"
    },
    {
      "id": "pt.ine.add.PTCONT.1263536",
      "street": "R AMIZADE",
      "house": "16",
      "postcode": "3080-246",
      "city": "FIGUEIRA DA FOZ",
      "lon": "-8.864422271789325",
      "lat": "40.16547569990232"
    },
    {
      "id": "pt.ine.add.PTCONT.1263537",
      "street": "R AMIZADE",
      "house": "16",
      "postcode": "3080-246",
      "city": "FIGUEIRA DA FOZ",
      "lon": "-8.864422271789325",
      "lat": "40.16547569990232"
    },
    {
      "id": "pt.ine.add.PTCONT.1264593",
      "street": "R AMIZADE",
      "house": "16",
      "postcode": "3080-246",
      "city": "FIGUEIRA DA FOZ",
      "lon": "-8.864422271789325",
      "lat": "40.16547569990232"
    },
    {
      "id": "pt.ine.add.PTCONT.1274600",
      "street": "R ALTO DO FORNO",
      "house": "22",
      "postcode": "3080-219",
      "city": "FIGUEIRA DA FOZ",
      "lon": "-8.86454371002057",
      "lat": "40.165853177052725"
    },
    {
      "id": "pt.ine.add.PTCONT.1278641",
      "street": "R ALTO DO FORNO",
      "house": "28",
      "postcode": "3080-219",
      "city": "FIGUEIRA DA FOZ",
      "lon": "-8.864062261444415",
      "lat": "40.16583820593688"
    },
    {
      "id": "pt.ine.add.PTCONT.1278642",
      "street": "R ALTO DO FORNO",
      "house": "28",
      "postcode": "3080-219",
      "city": "FIGUEIRA DA FOZ",
      "lon": "-8.864062261444415",
      "lat": "40.16583820593688"
    },
    {
      "id": "pt.ine.add.PTCONT.1279443",
      "street": "R ALTO DO FORNO",
      "house": "44",
      "postcode": "3080-219",
      "city": "FIGUEIRA DA FOZ",
      "lon": "-8.862480627839627",
      "lat": "40.1661273607055"
    },
    {
      "id": "pt.ine.add.PTCONT.1281593",
      "street": "R 1 DE MAIO",
      "house": "32",
      "postcode": "3080-224",
      "city": "FIGUEIRA DA FOZ",
      "lon": "-8.863625930620547",
      "lat": "40.16565183765315"
    },
    {
      "id": "pt.ine.add.PTCONT.1286678",
      "street": "R FLORES DA BEIRA MAR",
      "house": "33",
      "postcode": "3080-247",
      "city": "FIGUEIRA DA FOZ",
      "lon": "-8.863703558366334",
      "lat": "40.165228074464665"
    },
    {
      "id": "pt.ine.add.PTCONT.1294103",
      "street": "R AMIZADE",
      "house": "18",
      "postcode": "3080-246",
      "city": "FIGUEIRA DA FOZ",
      "lon": "-8.864529072462554",
      "lat": "40.165583095052796"
    },
    {
      "id": "pt.ine.add.PTCONT.1297442",
      "street": "R 1 DE MAIO",
      "house": "10",
      "postcode": "3080-224",
      "city": "FIGUEIRA DA FOZ",
      "lon": "-8.861676571601112",
      "lat": "40.165583068356234"
    },
    {
      "id": "pt.ine.add.PTCONT.1304851",
      "street": "QTA DO BANANAL",
      "house": "",
      "postcode": "3080-634",
      "city": "FIGUEIRA DA FOZ",
      "lon": "-8.863020671702019",
      "lat": "40.16613296319209"
    },
    {
      "id": "pt.ine.add.PTCONT.1307669",
      "street": "R 1 DE MAIO",
      "house": "6",
      "postcode": "3080-224",
      "city": "FIGUEIRA DA FOZ",
      "lon": "-8.861287296496732",
      "lat": "40.165405400931604"
    },
    {
      "id": "pt.ine.add.PTCONT.1336529",
      "street": "R ALTO DO FORNO",
      "house": "24",
      "postcode": "3080-219",
      "city": "FIGUEIRA DA FOZ",
      "lon": "-8.864273544252107",
      "lat": "40.165836871859014"
    },
    {
      "id": "pt.ine.add.PTCONT.1336530",
      "street": "R ALTO FORNO",
      "house": "26",
      "postcode": "3080-219",
      "city": "FIGUEIRA DA FOZ",
      "lon": "-8.864273544252107",
      "lat": "40.165836871859014"
    },
    {
      "id": "pt.ine.add.PTCONT.1336531",
      "street": "R ALTO DO FORNO",
      "house": "40",
      "postcode": "3080-219",
      "city": "FIGUEIRA DA FOZ",
      "lon": "-8.86283218887692",
      "lat": "40.16607111057779"
    },
    {
      "id": "pt.ine.add.PTCONT.1337099",
      "street": "R 1 DE MAIO",
      "house": "20",
      "postcode": "3080-224",
      "city": "FIGUEIRA DA FOZ",
      "lon": "-8.862571639852078",
      "lat": "40.16585661285082"
    },
    {
      "id": "pt.ine.add.PTCONT.1338317",
      "street": "R 1 DE MAIO",
      "house": "28",
      "postcode": "3080-224",
      "city": "FIGUEIRA DA FOZ",
      "lon": "-8.863204137906717",
      "lat": "40.165726544712214"
    },
    {
      "id": "pt.ine.add.PTCONT.1345271",
      "street": "R 1 DE MAIO",
      "house": "16",
      "postcode": "3080-224",
      "city": "FIGUEIRA DA FOZ",
      "lon": "-8.86223104683694",
      "lat": "40.16584074658714"
    },
    {
      "id": "pt.ine.add.PTCONT.1346622",
      "street": "R AMIZADE",
      "house": "14",
      "postcode": "3080-246",
      "city": "FIGUEIRA DA FOZ",
      "lon": "-8.864350298495122",
      "lat": "40.16533206142979"
    },
    {
      "id": "pt.ine.add.PTCONT.1346623",
      "street": "R ALTO FORNO",
      "house": "38",
      "postcode": "3080-219",
      "city": "FIGUEIRA DA FOZ",
      "lon": "-8.863395611746256",
      "lat": "40.166067558148754"
    },
    {
      "id": "pt.ine.add.PTCONT.1347749",
      "street": "R ALTO DO FORNO",
      "house": "36",
      "postcode": "3080-219",
      "city": "FIGUEIRA DA FOZ",
      "lon": "-8.863395611746256",
      "lat": "40.166067558148754"
    },
    {
      "id": "pt.ine.add.PTCONT.1357164",
      "street": "R FLORES DA BEIRA MAR",
      "house": "29",
      "postcode": "3080-247",
      "city": "FIGUEIRA DA FOZ",
      "lon": "-8.863628787407036",
      "lat": "40.16482328448862"
    },
    {
      "id": "pt.ine.add.PTCONT.1363148",
      "street": "R 1 DE MAIO",
      "house": "36",
      "postcode": "3080-224",
      "city": "FIGUEIRA DA FOZ",
      "lon": "-8.863954881626418",
      "lat": "40.16567677911983"
    },
    {
      "id": "pt.ine.add.PTCONT.1364583",
      "street": "R ALTO DO FORNO",
      "house": "22",
      "postcode": "3080-219",
      "city": "FIGUEIRA DA FOZ",
      "lon": "-8.86454371002057",
      "lat": "40.165853177052725"
    }
  ]
}