{
  "data": {
    "ilha": "Ilha das Flores (Açores)",
    "concelho": "Lajes das Flores",
    "freguesia": "Lajes das Flores",
    "OBJECTID": 30,
    "BGRI2021": "48010500108",
    "DT21": "48",
    "DTMN21": "4801",
    "DTMNFR21": "480105",
    "DTMNFRSEC21": "480105001",
    "SECNUM21": "001",
    "SSNUM21": "08",
    "SECSSNUM21": "00108",
    "OBJECTID_1": 210056,
    "DT": "48",
    "CC": "01",
    "fr": "05",
    "SEC": "001",
    "SS": "08",
    "BGRI2021_1": "48010500108"
  },
  "addresses": [
    {
      "id": "pt.ine.add.AC25.74",
      "street": "R MAURÍCIO ANTÓNIO FRAGA",
      "house": "5",
      "postcode": "9960-441",
      "city": "LAJES DAS FLORES",
      "lon": "-31.17868541815457",
      "lat": "39.38088168184391"
    },
    {
      "id": "pt.ine.add.AC25.75",
      "street": "R JOÃO AUGUSTO DA SILVEIRA",
      "house": "",
      "postcode": "9960-400",
      "city": "LAJES DAS FLORES",
      "lon": "-31.175265458050095",
      "lat": "39.379800959437055"
    },
    {
      "id": "pt.ine.add.AC25.76",
      "street": "R PADRE LUIS PIMENTEL GOMES",
      "house": "4 A",
      "postcode": "9960-431",
      "city": "LAJES DAS FLORES",
      "lon": "-31.173979797139957",
      "lat": "39.379240192694226"
    },
    {
      "id": "pt.ine.add.AC25.77",
      "street": "R PADRE LUIS PIMENTEL GOMES",
      "house": "4 B",
      "postcode": "9960-431",
      "city": "LAJES DAS FLORES",
      "lon": "-31.173958934909056",
      "lat": "39.37914976653545"
    },
    {
      "id": "pt.ine.add.AC25.78",
      "street": "R ROBERTO MESQUITA",
      "house": "14",
      "postcode": "9960-444",
      "city": "LAJES DAS FLORES",
      "lon": "-31.17502341328113",
      "lat": "39.378842116331455"
    },
    {
      "id": "pt.ine.add.AC25.79",
      "street": "R ROBERTO MESQUITA",
      "house": "4",
      "postcode": "9960-444",
      "city": "LAJES DAS FLORES",
      "lon": "-31.176911345467747",
      "lat": "39.37856538436442"
    },
    {
      "id": "pt.ine.add.AC25.80",
      "street": "R DR JOSE DE FREITAS PIMENTEL",
      "house": "12",
      "postcode": "9960-439",
      "city": "LAJES DAS FLORES",
      "lon": "-31.179613738554586",
      "lat": "39.37911225857037"
    },
    {
      "id": "pt.ine.add.AC25.81",
      "street": "R MAURÍCIO ANTÓNIO FRAGA",
      "house": "3",
      "postcode": "9960-441",
      "city": "LAJES DAS FLORES",
      "lon": "-31.178922201726",
      "lat": "39.380705191598075"
    },
    {
      "id": "pt.ine.add.AC25.82",
      "street": "CC ALÉM RIBEIRA",
      "house": "2",
      "postcode": "9960-400",
      "city": "LAJES DAS FLORES",
      "lon": "-31.17476915629851",
      "lat": "39.379243571185484"
    },
    {
      "id": "pt.ine.add.AC25.1092",
      "street": "R PADRE LUIS PIMENTEL GOMES",
      "house": "",
      "postcode": "9960-431",
      "city": "LAJES DAS FLORES",
      "lon": "-31.174085413637506",
      "lat": "39.379196801235494"
    },
    {
      "id": "pt.ine.add.AC25.1165",
      "street": "R ROBERTO MESQUITA",
      "house": "2",
      "postcode": "9960-444",
      "city": "LAJES DAS FLORES",
      "lon": "-31.177259954402402",
      "lat": "39.37855282760398"
    },
    {
      "id": "pt.ine.add.AC25.1166",
      "street": "R DR JOSE DE FREITAS PIMENTEL",
      "house": "18",
      "postcode": "9960-439",
      "city": "LAJES DAS FLORES",
      "lon": "-31.177363693630532",
      "lat": "39.3785814826927"
    },
    {
      "id": "pt.ine.add.AC25.1277",
      "street": "R JOÃO AUGUSTO DA SILVEIRA",
      "house": "3",
      "postcode": "9960-400",
      "city": "LAJES DAS FLORES",
      "lon": "-31.175152458918905",
      "lat": "39.37968205853425"
    },
    {
      "id": "pt.ine.add.AC25.1452",
      "street": "CC ALÉM RIBEIRA",
      "house": "3",
      "postcode": "9960-400",
      "city": "LAJES DAS FLORES",
      "lon": "-31.1751374596022",
      "lat": "39.379366477860756"
    },
    {
      "id": "pt.ine.add.AC25.1534",
      "street": "R DR JOSE DE FREITAS PIMENTEL",
      "house": "6",
      "postcode": "9960-439",
      "city": "LAJES DAS FLORES",
      "lon": "-31.18017208007534",
      "lat": "39.37951742918958"
    },
    {
      "id": "pt.ine.add.AC25.1604",
      "street": "R MAURÍCIO ANTÓNIO FRAGA",
      "house": "",
      "postcode": "9960-441",
      "city": "LAJES DAS FLORES",
      "lon": "-31.178585991981937",
      "lat": "39.380240424311026"
    },
    {
      "id": "pt.ine.add.AC25.1800",
      "street": "R ROBERTO MESQUITA",
      "house": "16",
      "postcode": "9960-444",
      "city": "LAJES DAS FLORES",
      "lon": "-31.174794603784466",
      "lat": "39.37871238825409"
    },
    {
      "id": "pt.ine.add.AC25.1820",
      "street": "R DR JOSE DE FREITAS PIMENTEL",
      "house": "14",
      "postcode": "9960-439",
      "city": "LAJES DAS FLORES",
      "lon": "-31.17940929900746",
      "lat": "39.37893787151321"
    },
    {
      "id": "pt.ine.add.AC25.2075",
      "street": "R DR JOSE DE FREITAS PIMENTEL",
      "house": "2",
      "postcode": "9960-439",
      "city": "LAJES DAS FLORES",
      "lon": "-31.18043431373326",
      "lat": "39.37970172882603"
    },
    {
      "id": "pt.ine.add.AC25.2083",
      "street": "R ROBERTO MESQUITA",
      "house": "12",
      "postcode": "9960-444",
      "city": "LAJES DAS FLORES",
      "lon": "-31.175173805374158",
      "lat": "39.3788624954088"
    },
    {
      "id": "pt.ine.add.AC25.2105",
      "street": "R MAURÍCIO ANTÓNIO FRAGA",
      "house": "1",
      "postcode": "9960-441",
      "city": "LAJES DAS FLORES",
      "lon": "-31.17943282374068",
      "lat": "39.38071318438305"
    },
    {
      "id": "pt.ine.add.AC25.2113",
      "street": "R PADRE LUIS PIMENTEL GOMES",
      "house": "2",
      "postcode": "9960-431",
      "city": "LAJES DAS FLORES",
      "lon": "-31.17430566945691",
      "lat": "39.3792092681792"
    },
    {
      "id": "pt.ine.add.AC25.2314",
      "street": "R ROBERTO MESQUITA",
      "house": "8",
      "postcode": "9960-444",
      "city": "LAJES DAS FLORES",
      "lon": "-31.17567515324973",
      "lat": "39.378780260420605"
    },
    {
      "id": "pt.ine.add.AC25.2348",
      "street": "R ROBERTO MESQUITA",
      "house": "6",
      "postcode": "9960-444",
      "city": "LAJES DAS FLORES",
      "lon": "-31.17580350846744",
      "lat": "39.37875524373112"
    }
  ]
}