{
  "data": {
    "distrito": "Aveiro",
    "concelho": "Oliveira de Azeméis",
    "freguesia": "União das freguesias de Pinheiro da Bemposta, Travanca e Palmaz",
    "OBJECTID": 890,
    "BGRI2021": "01132200123",
    "DT21": "01",
    "DTMN21": "0113",
    "DTMNFR21": "011322",
    "DTMNFRSEC21": "011322001",
    "SECNUM21": "001",
    "SSNUM21": "23",
    "SECSSNUM21": "00123",
    "OBJECTID_1": 9389,
    "DT": "01",
    "CC": "13",
    "fr": "22",
    "SEC": "001",
    "SS": "23"
  },
  "addresses": [
    {
      "id": "pt.ine.add.PTCONT.309635",
      "street": "R FUTEBOL CLUBE PINHEIRENSE",
      "house": "259",
      "postcode": "3720-475",
      "city": "PINHEIRO DA BEMPOSTA",
      "lon": "-8.495463870078497",
      "lat": "40.78441424468034"
    },
    {
      "id": "pt.ine.add.PTCONT.331112",
      "street": "R FUTEBOL CLUBE PINHEIRENSE",
      "house": "229",
      "postcode": "3720-475",
      "city": "PINHEIRO DA BEMPOSTA",
      "lon": "-8.494989359503842",
      "lat": "40.78429866940658"
    },
    {
      "id": "pt.ine.add.PTCONT.339200",
      "street": "R FUTEBOL CLUBE PINHEIRENSE",
      "house": "",
      "postcode": "3720-475",
      "city": "PINHEIRO DA BEMPOSTA",
      "lon": "-8.495226149948508",
      "lat": "40.784270911750525"
    },
    {
      "id": "pt.ine.add.PTCONT.50866",
      "street": "R FUTEBOL CLUBE PINHEIRENSE",
      "house": "213",
      "postcode": "3720-475",
      "city": "PINHEIRO DA BEMPOSTA",
      "lon": "-8.49474057546327",
      "lat": "40.78429944932228"
    },
    {
      "id": "pt.ine.add.PTCONT.60866",
      "street": "R FUTEBOL CLUBE PINHEIRENSE",
      "house": "273",
      "postcode": "3720-475",
      "city": "PINHEIRO DA BEMPOSTA",
      "lon": "-8.495606032622002",
      "lat": "40.784413798187835"
    },
    {
      "id": "pt.ine.add.PTCONT.60867",
      "street": "R MOINHOS",
      "house": "76",
      "postcode": "3720-475",
      "city": "PINHEIRO DA BEMPOSTA",
      "lon": "-8.49395531982526",
      "lat": "40.78368056612273"
    },
    {
      "id": "pt.ine.add.PTCONT.76899",
      "street": "R FUTEBOL CLUBE PINHEIRENSE",
      "house": "359",
      "postcode": "3720-475",
      "city": "PINHEIRO DA BEMPOSTA",
      "lon": "-8.496896212142714",
      "lat": "40.78420262431547"
    },
    {
      "id": "pt.ine.add.PTCONT.76900",
      "street": "R FUTEBOL CLUBE PINHEIRENSE",
      "house": "359",
      "postcode": "3720-475",
      "city": "PINHEIRO DA BEMPOSTA",
      "lon": "-8.496896212142714",
      "lat": "40.78420262431547"
    },
    {
      "id": "pt.ine.add.PTCONT.83386",
      "street": "R MOINHOS",
      "house": "96",
      "postcode": "3720-475",
      "city": "PINHEIRO DA BEMPOSTA",
      "lon": "-8.49396619181666",
      "lat": "40.783500433160015"
    },
    {
      "id": "pt.ine.add.PTCONT.186158",
      "street": "R FUTEBOL CLUBE PINHEIRENSE",
      "house": "191",
      "postcode": "3720-475",
      "city": "PINHEIRO DA BEMPOSTA",
      "lon": "-8.494598950220718",
      "lat": "40.78439894748203"
    },
    {
      "id": "pt.ine.add.PTCONT.199243",
      "street": "R JAIME ROCHA",
      "house": "25",
      "postcode": "3720-475",
      "city": "PINHEIRO DA BEMPOSTA",
      "lon": "-8.49683609366964",
      "lat": "40.78404072477781"
    },
    {
      "id": "pt.ine.add.PTCONT.216269",
      "street": "R FUTEBOL CLUBE PINHEIRENSE",
      "house": "129",
      "postcode": "3720-475",
      "city": "PINHEIRO DA BEMPOSTA",
      "lon": "-8.49404156197646",
      "lat": "40.78429263284912"
    },
    {
      "id": "pt.ine.add.PTCONT.253579",
      "street": "R FUTEBOL CLUBE PINHEIRENSE",
      "house": "247",
      "postcode": "3720-475",
      "city": "PINHEIRO DA BEMPOSTA",
      "lon": "-8.49527427109957",
      "lat": "40.784405834938006"
    },
    {
      "id": "pt.ine.add.PTCONT.283090",
      "street": "R FUTEBOL CLUBE PINHEIRENSE",
      "house": "315",
      "postcode": "3720-475",
      "city": "PINHEIRO DA BEMPOSTA",
      "lon": "-8.496079613595702",
      "lat": "40.78435827985955"
    },
    {
      "id": "pt.ine.add.PTCONT.286401",
      "street": "R FUTEBOL CLUBE PINHEIRENSE",
      "house": "",
      "postcode": "3720-475",
      "city": "PINHEIRO DA BEMPOSTA",
      "lon": "-8.49508256990233",
      "lat": "40.784010218751106"
    }
  ]
}