{
  "data": {
    "distrito": "Viana do Castelo",
    "concelho": "Ponte de Lima",
    "freguesia": "Labruja",
    "OBJECTID": 833,
    "BGRI2021": "16072900121",
    "DT21": "16",
    "DTMN21": "1607",
    "DTMNFR21": "160729",
    "DTMNFRSEC21": "160729001",
    "SECNUM21": "001",
    "SSNUM21": "21",
    "SECSSNUM21": "00121",
    "OBJECTID_1": 176571,
    "DT": "16",
    "CC": "07",
    "fr": "29",
    "SEC": "001",
    "SS": "21"
  },
  "addresses": [
    {
      "id": "pt.ine.add.PTCONT.5163582",
      "street": "R PEDRELO",
      "house": "",
      "postcode": "4990-655",
      "city": "LABRUJA",
      "lon": "-8.594378516453348",
      "lat": "41.84371836268596"
    },
    {
      "id": "pt.ine.add.PTCONT.5187647",
      "street": "R CERQUEIRA",
      "house": "",
      "postcode": "4990-655",
      "city": "LABRUJA",
      "lon": "-8.594410368613373",
      "lat": "41.84312401836537"
    },
    {
      "id": "pt.ine.add.PTCONT.5190941",
      "street": "R PEDRELO",
      "house": "",
      "postcode": "4990-655",
      "city": "LABRUJA",
      "lon": "-8.59408787413413",
      "lat": "41.8434854442925"
    },
    {
      "id": "pt.ine.add.PTCONT.5197587",
      "street": "R ABELHEIRA",
      "house": "",
      "postcode": "4990-655",
      "city": "LABRUJA",
      "lon": "-8.591727574786622",
      "lat": "41.843431870037776"
    },
    {
      "id": "pt.ine.add.PTCONT.5207999",
      "street": "R ARMADA",
      "house": "",
      "postcode": "4990-655",
      "city": "LABRUJA",
      "lon": "-8.594360708510486",
      "lat": "41.84459175213044"
    },
    {
      "id": "pt.ine.add.PTCONT.5226063",
      "street": "R ABELHEIRA",
      "house": "",
      "postcode": "4990-655",
      "city": "LABRUJA",
      "lon": "-8.592126697785552",
      "lat": "41.84368236749373"
    },
    {
      "id": "pt.ine.add.PTCONT.5236603",
      "street": "R CERQUEIRA",
      "house": "",
      "postcode": "4990-655",
      "city": "LABRUJA",
      "lon": "-8.59259535927513",
      "lat": "41.84355444768576"
    },
    {
      "id": "pt.ine.add.PTCONT.5248745",
      "street": "R PEDRELO",
      "house": "",
      "postcode": "4990-655",
      "city": "LABRUJA",
      "lon": "-8.595099561598879",
      "lat": "41.84352639586904"
    },
    {
      "id": "pt.ine.add.PTCONT.5278892",
      "street": "R CERQUEIRA",
      "house": "",
      "postcode": "4990-655",
      "city": "LABRUJA",
      "lon": "-8.592439739980934",
      "lat": "41.84368111603128"
    }
  ]
}