{
  "data": {
    "distrito": "Coimbra",
    "concelho": "Arganil",
    "freguesia": "Uni√£o das freguesias de Vila Cova de Alva e Anseriz",
    "OBJECTID": 331,
    "BGRI2021": "06012200131",
    "DT21": "06",
    "DTMN21": "0601",
    "DTMNFR21": "060122",
    "DTMNFRSEC21": "060122001",
    "SECNUM21": "001",
    "SSNUM21": "31",
    "SECSSNUM21": "00131",
    "OBJECTID_1": 47179,
    "DT": "06",
    "CC": "01",
    "fr": "22",
    "SEC": "001",
    "SS": "31"
  },
  "addresses": [
    {
      "id": "pt.ine.add.PTCONT.1161444",
      "street": "R ADELINO CAMPOS ABRANCHES",
      "house": "12",
      "postcode": "3305-010",
      "city": "ANCERIZ",
      "lon": "-7.918868660614852",
      "lat": "40.279313519267916"
    },
    {
      "id": "pt.ine.add.PTCONT.1173957",
      "street": "R JOSE ALVES DAS NEVES",
      "house": "3",
      "postcode": "3305-010",
      "city": "ANCERIZ",
      "lon": "-7.918622730006295",
      "lat": "40.27899786230676"
    },
    {
      "id": "pt.ine.add.PTCONT.1274748",
      "street": "QTA EIRAS",
      "house": "6",
      "postcode": "3305-010",
      "city": "ANCERIZ",
      "lon": "-7.917317752933017",
      "lat": "40.27893239572666"
    },
    {
      "id": "pt.ine.add.PTCONT.1287580",
      "street": "R BACHAREL JOAQUIM GOUVEIA PINTO",
      "house": "",
      "postcode": "3305-010",
      "city": "ANCERIZ",
      "lon": "-7.92148573251107",
      "lat": "40.2809393705346"
    },
    {
      "id": "pt.ine.add.PTCONT.1291236",
      "street": "QTA EIRAS",
      "house": "",
      "postcode": "3305-010",
      "city": "ANCERIZ",
      "lon": "-7.918103936001701",
      "lat": "40.27944718713441"
    },
    {
      "id": "pt.ine.add.PTCONT.1331512",
      "street": "R BACHAREL JOAQUIM GOUVEIA PINTO",
      "house": "14",
      "postcode": "3305-010",
      "city": "ANCERIZ",
      "lon": "-7.920535562911738",
      "lat": "40.28020816302557"
    },
    {
      "id": "pt.ine.add.PTCONT.1335082",
      "street": "R ADELINO CAMPOS ABRANCHES",
      "house": "16",
      "postcode": "3305-010",
      "city": "ANCERIZ",
      "lon": "-7.919374017089254",
      "lat": "40.27939550561273"
    },
    {
      "id": "pt.ine.add.PTCONT.1337503",
      "street": "R SENHORA DE AO PE DA CRUZ",
      "house": "5",
      "postcode": "3305-010",
      "city": "ANCERIZ",
      "lon": "-7.916836521670742",
      "lat": "40.27866132466989"
    },
    {
      "id": "pt.ine.add.PTCONT.1356371",
      "street": "R JOSE ALVES DAS NEVES",
      "house": "1",
      "postcode": "3305-010",
      "city": "ANCERIZ",
      "lon": "-7.916895485273816",
      "lat": "40.27860740033964"
    }
  ]
}