{
  "data": {
    "distrito": "Braga",
    "concelho": "Barcelos",
    "freguesia": "Abade de Neiva",
    "OBJECTID": 1469,
    "BGRI2021": "03020100138",
    "DT21": "03",
    "DTMN21": "0302",
    "DTMNFR21": "030201",
    "DTMNFRSEC21": "030201001",
    "SECNUM21": "001",
    "SSNUM21": "38",
    "SECSSNUM21": "00138",
    "OBJECTID_1": 21647,
    "DT": "03",
    "CC": "02",
    "fr": "01",
    "SEC": "001",
    "SS": "38"
  },
  "addresses": [
    {
      "id": "pt.ine.add.PTCONT.469993",
      "street": "R SANTA MARIA",
      "house": "640",
      "postcode": "4750-008",
      "city": "ABADE DE NEIVA",
      "lon": "-8.643389752055102",
      "lat": "41.557353010799346"
    },
    {
      "id": "pt.ine.add.PTCONT.479680",
      "street": "R CASA DO MONTE",
      "house": "140",
      "postcode": "4750-009",
      "city": "ABADE DE NEIVA",
      "lon": "-8.643680409049791",
      "lat": "41.55772987670042"
    },
    {
      "id": "pt.ine.add.PTCONT.492838",
      "street": "R CASA DO MONTE",
      "house": "164",
      "postcode": "4750-009",
      "city": "ABADE DE NEIVA",
      "lon": "-8.643598131186462",
      "lat": "41.557937327494244"
    },
    {
      "id": "pt.ine.add.PTCONT.506303",
      "street": "R ENCOSTA DO SARDOAL",
      "house": "356",
      "postcode": "4750-009",
      "city": "ABADE DE NEIVA",
      "lon": "-8.645002668147534",
      "lat": "41.55971381898042"
    },
    {
      "id": "pt.ine.add.PTCONT.548050",
      "street": "R ENCOSTA DO SARDOAL",
      "house": "348",
      "postcode": "4750-009",
      "city": "ABADE DE NEIVA",
      "lon": "-8.644942164138298",
      "lat": "41.55964205860644"
    },
    {
      "id": "pt.ine.add.PTCONT.548119",
      "street": "R ENCOSTA DO SARDOAL",
      "house": "121",
      "postcode": "4750-009",
      "city": "ABADE DE NEIVA",
      "lon": "-8.64638231000268",
      "lat": "41.561364351847594"
    },
    {
      "id": "pt.ine.add.PTCONT.548120",
      "street": "R ENCOSTA DO SARDOAL",
      "house": "171",
      "postcode": "4750-009",
      "city": "ABADE DE NEIVA",
      "lon": "-8.646139285517224",
      "lat": "41.560951265694484"
    },
    {
      "id": "pt.ine.add.PTCONT.553168",
      "street": "R ENCOSTA DO SARDOAL",
      "house": "305",
      "postcode": "4750-009",
      "city": "ABADE DE NEIVA",
      "lon": "-8.645364273013604",
      "lat": "41.5599643125941"
    },
    {
      "id": "pt.ine.add.PTCONT.555150",
      "street": "R ENCOSTA DO SARDOAL",
      "house": "366",
      "postcode": "4750-009",
      "city": "ABADE DE NEIVA",
      "lon": "-8.645015294744612",
      "lat": "41.559794796191134"
    },
    {
      "id": "pt.ine.add.PTCONT.576483",
      "street": "R SENHORA DA ABADIA",
      "house": "39",
      "postcode": "4750-005",
      "city": "ABADE DE NEIVA",
      "lon": "-8.63992787354893",
      "lat": "41.556125808328346"
    },
    {
      "id": "pt.ine.add.PTCONT.601071",
      "street": "R SANTA MARIA",
      "house": "632",
      "postcode": "4750-008",
      "city": "ABADE DE NEIVA",
      "lon": "-8.64265700731739",
      "lat": "41.55715817839541"
    },
    {
      "id": "pt.ine.add.PTCONT.602938",
      "street": "R ENCOSTA DO SARDOAL",
      "house": "251",
      "postcode": "4750-009",
      "city": "ABADE DE NEIVA",
      "lon": "-8.645655095566237",
      "lat": "41.56035917999202"
    },
    {
      "id": "pt.ine.add.PTCONT.603557",
      "street": "R ENCOSTA DO SARDOAL",
      "house": "151",
      "postcode": "4750-009",
      "city": "ABADE DE NEIVA",
      "lon": "-8.646260512460097",
      "lat": "41.561121795267674"
    },
    {
      "id": "pt.ine.add.PTCONT.606624",
      "street": "R ENCOSTA DO SARDOAL",
      "house": "185",
      "postcode": "4750-009",
      "city": "ABADE DE NEIVA",
      "lon": "-8.645994369310852",
      "lat": "41.5608168565021"
    },
    {
      "id": "pt.ine.add.PTCONT.613147",
      "street": "R ENCOSTA DO SARDOAL",
      "house": "404",
      "postcode": "4750-009",
      "city": "ABADE DE NEIVA",
      "lon": "-8.64506629887321",
      "lat": "41.56018172878323"
    },
    {
      "id": "pt.ine.add.PTCONT.613148",
      "street": "R ESCOLA VELHA",
      "house": "176",
      "postcode": "4750-008",
      "city": "ABADE DE NEIVA",
      "lon": "-8.640284631780688",
      "lat": "41.557294718818504"
    },
    {
      "id": "pt.ine.add.PTCONT.619688",
      "street": "R ENCOSTA DO SARDOAL",
      "house": "400",
      "postcode": "4750-009",
      "city": "ABADE DE NEIVA",
      "lon": "-8.645041542813168",
      "lat": "41.56008279816036"
    },
    {
      "id": "pt.ine.add.PTCONT.623634",
      "street": "R MATA",
      "house": "125",
      "postcode": "4750-012",
      "city": "ABADE DE NEIVA",
      "lon": "-8.63485638597443",
      "lat": "41.55909226558574"
    },
    {
      "id": "pt.ine.add.PTCONT.624332",
      "street": "R ENCOSTA DO SARDOAL",
      "house": "475",
      "postcode": "4750-009",
      "city": "ABADE DE NEIVA",
      "lon": "-8.645465930768578",
      "lat": "41.560693160392795"
    },
    {
      "id": "pt.ine.add.PTCONT.626641",
      "street": "R ENCOSTA DO SARDOAL",
      "house": "227",
      "postcode": "4750-009",
      "city": "ABADE DE NEIVA",
      "lon": "-8.6458002946901",
      "lat": "41.560529603212544"
    },
    {
      "id": "pt.ine.add.PTCONT.628923",
      "street": "R ENCOSTA DO SARDOAL",
      "house": "235",
      "postcode": "4750-009",
      "city": "ABADE DE NEIVA",
      "lon": "-8.645727659456544",
      "lat": "41.56043988992878"
    },
    {
      "id": "pt.ine.add.PTCONT.631889",
      "street": "R ENCOSTA DO SARDOAL",
      "house": "195",
      "postcode": "4750-009",
      "city": "ABADE DE NEIVA",
      "lon": "-8.645969896329868",
      "lat": "41.56075393967705"
    },
    {
      "id": "pt.ine.add.PTCONT.653406",
      "street": "R ESCOLA VELHA",
      "house": "100",
      "postcode": "4750-008",
      "city": "ABADE DE NEIVA",
      "lon": "-8.640415147732243",
      "lat": "41.55712307242542"
    },
    {
      "id": "pt.ine.add.PTCONT.657161",
      "street": "R ENCOSTA DO SARDOAL",
      "house": "207",
      "postcode": "4750-009",
      "city": "ABADE DE NEIVA",
      "lon": "-8.645897260608468",
      "lat": "41.560664226506645"
    },
    {
      "id": "pt.ine.add.PTCONT.657314",
      "street": "R ENCOSTA DO SARDOAL",
      "house": "458",
      "postcode": "4750-009",
      "city": "ABADE DE NEIVA",
      "lon": "-8.64509197883298",
      "lat": "41.560397703550215"
    },
    {
      "id": "pt.ine.add.PTCONT.668285",
      "street": "R ESCOLA VELHA",
      "house": "178",
      "postcode": "4750-008",
      "city": "ABADE DE NEIVA",
      "lon": "-8.640249727443955",
      "lat": "41.55742992853897"
    },
    {
      "id": "pt.ine.add.PTCONT.678999",
      "street": "R ESCOLA VELHA",
      "house": "180",
      "postcode": "4750-008",
      "city": "ABADE DE NEIVA",
      "lon": "-8.640587257317327",
      "lat": "41.55767153977435"
    },
    {
      "id": "pt.ine.add.PTCONT.685991",
      "street": "ROT SARDOAL",
      "house": "141",
      "postcode": "4750-018",
      "city": "ABADE DE NEIVA",
      "lon": "-8.646344851653286",
      "lat": "41.56117544111774"
    },
    {
      "id": "pt.ine.add.PTCONT.697879",
      "street": "R ENCOSTA DO SARDOAL",
      "house": "629",
      "postcode": "4750-009",
      "city": "ABADE DE NEIVA",
      "lon": "-8.644274361668067",
      "lat": "41.56008621120471"
    },
    {
      "id": "pt.ine.add.PTCONT.703750",
      "street": "R SENHORA DA ABADIA",
      "house": "37",
      "postcode": "4750-005",
      "city": "ABADE DE NEIVA",
      "lon": "-8.64057253782979",
      "lat": "41.55578982744694"
    },
    {
      "id": "pt.ine.add.PTCONT.706553",
      "street": "R ENCOSTA DO SARDOAL",
      "house": "378",
      "postcode": "4750-009",
      "city": "ABADE DE NEIVA",
      "lon": "-8.645028063480895",
      "lat": "41.559893780193306"
    },
    {
      "id": "pt.ine.add.PTCONT.706572",
      "street": "R SANTA MARIA",
      "house": "550",
      "postcode": "4750-008",
      "city": "ABADE DE NEIVA",
      "lon": "-8.641194351474818",
      "lat": "41.5571286357676"
    },
    {
      "id": "pt.ine.add.PTCONT.712735",
      "street": "R MATA",
      "house": "751",
      "postcode": "4750-012",
      "city": "ABADE DE NEIVA",
      "lon": "-8.634365334728395",
      "lat": "41.5591484295612"
    },
    {
      "id": "pt.ine.add.PTCONT.712768",
      "street": "R ENCOSTA DO SARDOAL",
      "house": "215",
      "postcode": "4750-009",
      "city": "ABADE DE NEIVA",
      "lon": "-8.645848813183244",
      "lat": "41.56060141656792"
    },
    {
      "id": "pt.ine.add.PTCONT.722114",
      "street": "R MONTE",
      "house": "183",
      "postcode": "4750-003",
      "city": "ABADE DE NEIVA",
      "lon": "-8.639012426734364",
      "lat": "41.557093237599396"
    },
    {
      "id": "pt.ine.add.PTCONT.731443",
      "street": "R ENCOSTA DO SARDOAL",
      "house": "111",
      "postcode": "4750-009",
      "city": "ABADE DE NEIVA",
      "lon": "-8.646454875930376",
      "lat": "41.56144506129973"
    },
    {
      "id": "pt.ine.add.PTCONT.739545",
      "street": "R ENCOSTA DO SARDOAL",
      "house": "420",
      "postcode": "4750-009",
      "city": "ABADE DE NEIVA",
      "lon": "-8.645031118805685",
      "lat": "41.56028092625389"
    },
    {
      "id": "pt.ine.add.PTCONT.739548",
      "street": "R CASA DO MONTE",
      "house": "86",
      "postcode": "4750-009",
      "city": "ABADE DE NEIVA",
      "lon": "-8.643995397646759",
      "lat": "41.55815165231655"
    },
    {
      "id": "pt.ine.add.PTCONT.747989",
      "street": "R MATA",
      "house": "74",
      "postcode": "4750-012",
      "city": "ABADE DE NEIVA",
      "lon": "-8.634398443268132",
      "lat": "41.55877913284464"
    },
    {
      "id": "pt.ine.add.PTCONT.747990",
      "street": "R MATA",
      "house": "74",
      "postcode": "4750-012",
      "city": "ABADE DE NEIVA",
      "lon": "-8.634398443268132",
      "lat": "41.55877913284464"
    },
    {
      "id": "pt.ine.add.PTCONT.754784",
      "street": "R ENCOSTA DO SARDOAL",
      "house": "632",
      "postcode": "4750-009",
      "city": "ABADE DE NEIVA",
      "lon": "-8.644536092610759",
      "lat": "41.559832943413745"
    },
    {
      "id": "pt.ine.add.PTCONT.763732",
      "street": "R ENCOSTA DO SARDOAL",
      "house": "473",
      "postcode": "4750-009",
      "city": "ABADE DE NEIVA",
      "lon": "-8.645453090080833",
      "lat": "41.560585173062314"
    },
    {
      "id": "pt.ine.add.PTCONT.772818",
      "street": "R ENCOSTA DO SARDOAL",
      "house": "577",
      "postcode": "4750-009",
      "city": "ABADE DE NEIVA",
      "lon": "-8.644745768519643",
      "lat": "41.560579318812614"
    },
    {
      "id": "pt.ine.add.PTCONT.778750",
      "street": "R MATA",
      "house": "165",
      "postcode": "4750-012",
      "city": "ABADE DE NEIVA",
      "lon": "-8.635123793736504",
      "lat": "41.559568295373765"
    },
    {
      "id": "pt.ine.add.PTCONT.778774",
      "street": "R ENCOSTA DO SARDOAL",
      "house": "601",
      "postcode": "4750-009",
      "city": "ABADE DE NEIVA",
      "lon": "-8.64451467365125",
      "lat": "41.56015717235759"
    },
    {
      "id": "pt.ine.add.PTCONT.799706",
      "street": "R ENCOSTA DO SARDOAL",
      "house": "638",
      "postcode": "4750-009",
      "city": "ABADE DE NEIVA",
      "lon": "-8.644463530882096",
      "lat": "41.55975223270423"
    },
    {
      "id": "pt.ine.add.PTCONT.799713",
      "street": "R ESCOLA VELHA",
      "house": "174",
      "postcode": "4750-008",
      "city": "ABADE DE NEIVA",
      "lon": "-8.640538113030576",
      "lat": "41.55751869345384"
    },
    {
      "id": "pt.ine.add.PTCONT.814994",
      "street": "R ENCOSTA DO SARDOAL",
      "house": "159",
      "postcode": "4750-009",
      "city": "ABADE DE NEIVA",
      "lon": "-8.64621185067673",
      "lat": "41.56103197531016"
    },
    {
      "id": "pt.ine.add.PTCONT.815063",
      "street": "R ENCOSTA DO SARDOAL",
      "house": "390",
      "postcode": "4750-009",
      "city": "ABADE DE NEIVA",
      "lon": "-8.645028702962536",
      "lat": "41.559974810766306"
    },
    {
      "id": "pt.ine.add.PTCONT.820278",
      "street": "R ENCOSTA DO SARDOAL",
      "house": "411",
      "postcode": "4750-009",
      "city": "ABADE DE NEIVA",
      "lon": "-8.645389598350302",
      "lat": "41.56013527031686"
    },
    {
      "id": "pt.ine.add.PTCONT.826740",
      "street": "R ENCOSTA DO SARDOAL",
      "house": "131",
      "postcode": "4750-009",
      "city": "ABADE DE NEIVA",
      "lon": "-8.64634556404828",
      "lat": "41.56126547504899"
    },
    {
      "id": "pt.ine.add.PTCONT.835695",
      "street": "R SANTA MARIA",
      "house": "572",
      "postcode": "4750-008",
      "city": "ABADE DE NEIVA",
      "lon": "-8.64196036808195",
      "lat": "41.556981188975044"
    },
    {
      "id": "pt.ine.add.PTCONT.839743",
      "street": "R ENCOSTA DO SARDOAL",
      "house": "429",
      "postcode": "4750-009",
      "city": "ABADE DE NEIVA",
      "lon": "-8.645438044980088",
      "lat": "41.560198080458704"
    },
    {
      "id": "pt.ine.add.PTCONT.845765",
      "street": "R MATA",
      "house": "74",
      "postcode": "4750-012",
      "city": "ABADE DE NEIVA",
      "lon": "-8.634398443268132",
      "lat": "41.55877913284464"
    }
  ]
}