{
  "data": {
    "distrito": "Coimbra",
    "concelho": "Arganil",
    "freguesia": "Benfeita",
    "OBJECTID": 233,
    "BGRI2021": "06010400122",
    "DT21": "06",
    "DTMN21": "0601",
    "DTMNFR21": "060104",
    "DTMNFRSEC21": "060104001",
    "SECNUM21": "001",
    "SSNUM21": "22",
    "SECSSNUM21": "00122",
    "OBJECTID_1": 47293,
    "DT": "06",
    "CC": "01",
    "fr": "04",
    "SEC": "001",
    "SS": "22"
  },
  "addresses": [
    {
      "id": "pt.ine.add.PTCONT.1114420",
      "street": "R LIGA DE MELHORAMENTOS",
      "house": "",
      "postcode": "3305-031",
      "city": "BENFEITA",
      "lon": "-7.946640246254948",
      "lat": "40.23291873917034"
    },
    {
      "id": "pt.ine.add.PTCONT.1120492",
      "street": "R LIGA DE MELHORAMENTOS",
      "house": "",
      "postcode": "3305-031",
      "city": "BENFEITA",
      "lon": "-7.94685069260836",
      "lat": "40.233306328602794"
    },
    {
      "id": "pt.ine.add.PTCONT.1126769",
      "street": "R LOUREIROS",
      "house": "",
      "postcode": "3305-031",
      "city": "BENFEITA",
      "lon": "-7.944308568410328",
      "lat": "40.23051940856441"
    },
    {
      "id": "pt.ine.add.PTCONT.1126770",
      "street": "R LOUREIROS",
      "house": "",
      "postcode": "3305-031",
      "city": "BENFEITA",
      "lon": "-7.944297443629992",
      "lat": "40.23029424463156"
    },
    {
      "id": "pt.ine.add.PTCONT.1138271",
      "street": "TV OLIVAL",
      "house": "",
      "postcode": "3305-031",
      "city": "BENFEITA",
      "lon": "-7.944143843331786",
      "lat": "40.23060019222884"
    },
    {
      "id": "pt.ine.add.PTCONT.1147145",
      "street": "R ROSA GOMES",
      "house": "",
      "postcode": "3305-031",
      "city": "BENFEITA",
      "lon": "-7.943886345821068",
      "lat": "40.230239538291976"
    },
    {
      "id": "pt.ine.add.PTCONT.1152446",
      "street": "TV OLIVAL",
      "house": "",
      "postcode": "3305-031",
      "city": "BENFEITA",
      "lon": "-7.943897669721363",
      "lat": "40.23039265594025"
    },
    {
      "id": "pt.ine.add.PTCONT.1159344",
      "street": "LEV LATADINHAS",
      "house": "",
      "postcode": "3305-031",
      "city": "BENFEITA",
      "lon": "-7.94443799319856",
      "lat": "40.23045657879012"
    },
    {
      "id": "pt.ine.add.PTCONT.1161395",
      "street": "R ANTÓNIO NUNES LEITÃO CASA ROSA",
      "house": "",
      "postcode": "3305-031",
      "city": "BENFEITA",
      "lon": "-7.945247323293604",
      "lat": "40.23097122759984"
    },
    {
      "id": "pt.ine.add.PTCONT.1166414",
      "street": "ESC LOUREIROS",
      "house": "",
      "postcode": "3305-031",
      "city": "BENFEITA",
      "lon": "-7.944639290497297",
      "lat": "40.22989854517291"
    },
    {
      "id": "pt.ine.add.PTCONT.1184492",
      "street": "R ANTÓNIO NUNES LEITÃO",
      "house": "",
      "postcode": "3305-031",
      "city": "BENFEITA",
      "lon": "-7.9446743155168615",
      "lat": "40.229979654689664"
    },
    {
      "id": "pt.ine.add.PTCONT.1187588",
      "street": "R ANTÓNIO NUNES LEITÃO",
      "house": "",
      "postcode": "3305-031",
      "city": "BENFEITA",
      "lon": "-7.944732091923294",
      "lat": "40.2303309761794"
    },
    {
      "id": "pt.ine.add.PTCONT.1196559",
      "street": "R OUTEIRO",
      "house": "",
      "postcode": "3305-031",
      "city": "BENFEITA",
      "lon": "-7.943756544742117",
      "lat": "40.230437454307676"
    },
    {
      "id": "pt.ine.add.PTCONT.1198024",
      "street": "R ANTÓNIO NUNES LEITÃO",
      "house": "",
      "postcode": "3305-031",
      "city": "BENFEITA",
      "lon": "-7.945516705157351",
      "lat": "40.231286868581456"
    },
    {
      "id": "pt.ine.add.PTCONT.1198025",
      "street": "R ANTÓNIO NUNES LEITÃO",
      "house": "",
      "postcode": "3305-031",
      "city": "BENFEITA",
      "lon": "-7.9455753067223105",
      "lat": "40.23134099852673"
    },
    {
      "id": "pt.ine.add.PTCONT.1199336",
      "street": "R ANTÓNIO NUNES LEITÃO",
      "house": "",
      "postcode": "3305-031",
      "city": "BENFEITA",
      "lon": "-7.945317550079471",
      "lat": "40.23107040569903"
    },
    {
      "id": "pt.ine.add.PTCONT.1222563",
      "street": "R LIGA DE MELHORAMENTOS",
      "house": "",
      "postcode": "3305-031",
      "city": "BENFEITA",
      "lon": "-7.946231135748236",
      "lat": "40.232134572279314"
    },
    {
      "id": "pt.ine.add.PTCONT.1227473",
      "street": "LG BELA VISTA",
      "house": "",
      "postcode": "3305-031",
      "city": "BENFEITA",
      "lon": "-7.9438847668588535",
      "lat": "40.23080690307672"
    },
    {
      "id": "pt.ine.add.PTCONT.1231285",
      "street": "R LIGA DE MELHORAMENTOS",
      "house": "",
      "postcode": "3305-031",
      "city": "BENFEITA",
      "lon": "-7.9476819302666595",
      "lat": "40.23442438575816"
    },
    {
      "id": "pt.ine.add.PTCONT.1251661",
      "street": "R LIGA DE MELHORAMENTOS",
      "house": "",
      "postcode": "3305-031",
      "city": "BENFEITA",
      "lon": "-7.946488652855222",
      "lat": "40.23249522092568"
    },
    {
      "id": "pt.ine.add.PTCONT.1258668",
      "street": "R ANTÓNIO NUNES LEITÃO",
      "house": "",
      "postcode": "3305-031",
      "city": "BENFEITA",
      "lon": "-7.944931143278928",
      "lat": "40.23058346325062"
    },
    {
      "id": "pt.ine.add.PTCONT.1264772",
      "street": "R LIGA DE MELHORAMENTOS",
      "house": "",
      "postcode": "3305-031",
      "city": "BENFEITA",
      "lon": "-7.946137430799407",
      "lat": "40.232026350997636"
    },
    {
      "id": "pt.ine.add.PTCONT.1276605",
      "street": "R OUTEIRO",
      "house": "",
      "postcode": "3305-031",
      "city": "BENFEITA",
      "lon": "-7.9437567453809885",
      "lat": "40.23036540798481"
    },
    {
      "id": "pt.ine.add.PTCONT.1280040",
      "street": "R OUTEIRO",
      "house": "",
      "postcode": "3305-031",
      "city": "BENFEITA",
      "lon": "-7.943756920939406",
      "lat": "40.23030236745156"
    },
    {
      "id": "pt.ine.add.PTCONT.1291156",
      "street": "R ANTÓNIO NUNES LEITÃO",
      "house": "",
      "postcode": "3305-031",
      "city": "BENFEITA",
      "lon": "-7.945399552033077",
      "lat": "40.23116059702099"
    },
    {
      "id": "pt.ine.add.PTCONT.1295319",
      "street": "ESC LOUREIROS",
      "house": "",
      "postcode": "3305-031",
      "city": "BENFEITA",
      "lon": "-7.94446279243689",
      "lat": "40.22998831596233"
    },
    {
      "id": "pt.ine.add.PTCONT.1298808",
      "street": "ESC LATADINHAS",
      "house": "",
      "postcode": "3305-031",
      "city": "BENFEITA",
      "lon": "-7.944543892840977",
      "lat": "40.23040271637784"
    },
    {
      "id": "pt.ine.add.PTCONT.1302263",
      "street": "R OUTEIRO",
      "house": "",
      "postcode": "3305-031",
      "city": "BENFEITA",
      "lon": "-7.94380409625122",
      "lat": "40.230239403797746"
    },
    {
      "id": "pt.ine.add.PTCONT.1302264",
      "street": "R LOUREIROS",
      "house": "",
      "postcode": "3305-031",
      "city": "BENFEITA",
      "lon": "-7.94427259310957",
      "lat": "40.23078051897634"
    },
    {
      "id": "pt.ine.add.PTCONT.1309235",
      "street": "ESC LOUREIROS",
      "house": "",
      "postcode": "3305-031",
      "city": "BENFEITA",
      "lon": "-7.944545241506337",
      "lat": "40.22991640365607"
    },
    {
      "id": "pt.ine.add.PTCONT.1313252",
      "street": "R LOUREIROS",
      "house": "",
      "postcode": "3305-031",
      "city": "BENFEITA",
      "lon": "-7.944401593518044",
      "lat": "40.230870787677674"
    },
    {
      "id": "pt.ine.add.PTCONT.1313257",
      "street": "R ANTÓNIO NUNES LEITÃO",
      "house": "",
      "postcode": "3305-031",
      "city": "BENFEITA",
      "lon": "-7.945692435658828",
      "lat": "40.231476275696494"
    },
    {
      "id": "pt.ine.add.PTCONT.1315141",
      "street": "R ANTÓNIO NUNES LEITÃO",
      "house": "",
      "postcode": "3305-031",
      "city": "BENFEITA",
      "lon": "-7.945001344289282",
      "lat": "40.230691647336904"
    },
    {
      "id": "pt.ine.add.PTCONT.1317137",
      "street": "R ROSA GOMES",
      "house": "",
      "postcode": "3305-031",
      "city": "BENFEITA",
      "lon": "-7.94410879359556",
      "lat": "40.23052808835131"
    },
    {
      "id": "pt.ine.add.PTCONT.1323196",
      "street": "R LOUREIROS",
      "house": "",
      "postcode": "3305-031",
      "city": "BENFEITA",
      "lon": "-7.944261168250647",
      "lat": "40.23066342453392"
    },
    {
      "id": "pt.ine.add.PTCONT.1330462",
      "street": "R ANTÓNIO NUNES LEITÃO",
      "house": "",
      "postcode": "3305-031",
      "city": "BENFEITA",
      "lon": "-7.9446737664394425",
      "lat": "40.23017778209909"
    },
    {
      "id": "pt.ine.add.PTCONT.1331647",
      "street": "R ANTÓNIO NUNES LEITÃO",
      "house": "",
      "postcode": "3305-031",
      "city": "BENFEITA",
      "lon": "-7.945177022035776",
      "lat": "40.23089906682782"
    },
    {
      "id": "pt.ine.add.PTCONT.1339602",
      "street": "R LOUREIROS",
      "house": "",
      "postcode": "3305-031",
      "city": "BENFEITA",
      "lon": "-7.94436661836804",
      "lat": "40.2307716665104"
    },
    {
      "id": "pt.ine.add.PTCONT.1341736",
      "street": "TV OLIVAL",
      "house": "",
      "postcode": "3305-031",
      "city": "BENFEITA",
      "lon": "-7.943933195237442",
      "lat": "40.230293649863555"
    },
    {
      "id": "pt.ine.add.PTCONT.1341737",
      "street": "PC SIMÕES DIAS",
      "house": "",
      "postcode": "3305-031",
      "city": "BENFEITA",
      "lon": "-7.944697912889606",
      "lat": "40.22987663036077"
    }
  ]
}