{
  "data": {
    "distrito": "Faro",
    "concelho": "Tavira",
    "freguesia": "Cachopo",
    "OBJECTID": 742,
    "BGRI2021": "08140100177",
    "DT21": "08",
    "DTMN21": "0814",
    "DTMNFR21": "081401",
    "DTMNFRSEC21": "081401001",
    "SECNUM21": "001",
    "SSNUM21": "77",
    "SECSSNUM21": "00177",
    "OBJECTID_1": 73347,
    "DT": "08",
    "CC": "14",
    "fr": "01",
    "SEC": "001",
    "SS": "77"
  },
  "addresses": [
    {
      "id": "pt.ine.add.PTCONT.1471409",
      "street": "ALCARIAS BAIXAS",
      "house": "CP 254 Z",
      "postcode": "8800-011",
      "city": "CACHOPO",
      "lon": "-7.780594297022425",
      "lat": "37.34640208280266"
    },
    {
      "id": "pt.ine.add.PTCONT.1471742",
      "street": "CASAS BAIXAS",
      "house": "CP 204 Z",
      "postcode": "8800-016",
      "city": "CACHOPO",
      "lon": "-7.780758566819245",
      "lat": "37.342645296520246"
    },
    {
      "id": "pt.ine.add.PTCONT.1477529",
      "street": "MATEUS MESTRE FERNANDES",
      "house": "",
      "postcode": "8800-016",
      "city": "CACHOPO",
      "lon": "-7.781208247420176",
      "lat": "37.34301605545476"
    },
    {
      "id": "pt.ine.add.PTCONT.1535636",
      "street": "LUCINDA TEIXEIRA",
      "house": "CXP",
      "postcode": "8800-016",
      "city": "CACHOPO",
      "lon": "-7.781005535129613",
      "lat": "37.34292534975048"
    },
    {
      "id": "pt.ine.add.PTCONT.1567845",
      "street": "ISAURA SAÚDE GOMES",
      "house": "CP 205 Z",
      "postcode": "8800-016",
      "city": "CACHOPO",
      "lon": "-7.780938287056436",
      "lat": "37.34282603677004"
    },
    {
      "id": "pt.ine.add.PTCONT.1643007",
      "street": "CASAS BAIXAS",
      "house": "CP 206 Z",
      "postcode": "8800-016",
      "city": "CACHOPO",
      "lon": "-7.781287916124704",
      "lat": "37.34287212830958"
    },
    {
      "id": "pt.ine.add.PTCONT.1649038",
      "street": "ALCARIAS BAIXAS",
      "house": "CP 258 Z",
      "postcode": "8800-011",
      "city": "CACHOPO",
      "lon": "-7.780121817279541",
      "lat": "37.34607630493798"
    },
    {
      "id": "pt.ine.add.PTCONT.1653876",
      "street": "CASAS BAIXAS",
      "house": "CP 209 Z",
      "postcode": "8800-016",
      "city": "CACHOPO",
      "lon": "-7.781366744032723",
      "lat": "37.34290840372949"
    },
    {
      "id": "pt.ine.add.PTCONT.1660492",
      "street": "CASAS BAIXAS",
      "house": "CP 212 Z",
      "postcode": "8800-016",
      "city": "CACHOPO",
      "lon": "-7.7813986244883075",
      "lat": "37.34333198052872"
    },
    {
      "id": "pt.ine.add.PTCONT.1682606",
      "street": "LUIS AFONSO HENRIQUE",
      "house": "",
      "postcode": "8800-016",
      "city": "CACHOPO",
      "lon": "-7.781140242065518",
      "lat": "37.34307892494178"
    },
    {
      "id": "pt.ine.add.PTCONT.1749141",
      "street": "",
      "house": "",
      "postcode": "8800-016",
      "city": "CACHOPO",
      "lon": "-7.780916432115054",
      "lat": "37.342672797356144"
    },
    {
      "id": "pt.ine.add.PTCONT.1758720",
      "street": "JOSE IDEFONSO ROSÁRIO",
      "house": "CP 209 Z",
      "postcode": "8800-016",
      "city": "CACHOPO",
      "lon": "-7.7812535982730004",
      "lat": "37.34297113906407"
    },
    {
      "id": "pt.ine.add.PTCONT.1764666",
      "street": "CASAS BAIXAS",
      "house": "CP 213 Z",
      "postcode": "8800-016",
      "city": "CACHOPO",
      "lon": "-7.781342996959243",
      "lat": "37.34316062028517"
    },
    {
      "id": "pt.ine.add.PTCONT.1783135",
      "street": "CASAS BAIXAS",
      "house": "CP 211 Z",
      "postcode": "8800-016",
      "city": "CACHOPO",
      "lon": "-7.781523391927901",
      "lat": "37.34319719755445"
    },
    {
      "id": "pt.ine.add.PTCONT.1815018",
      "street": "ANTONIA TEIXEIRA",
      "house": "OXP",
      "postcode": "8800-016",
      "city": "CACHOPO",
      "lon": "-7.7810163575478",
      "lat": "37.34302449477394"
    },
    {
      "id": "pt.ine.add.PTCONT.1817008",
      "street": "ANTÓNIO FRANCISCO",
      "house": "",
      "postcode": "8800-016",
      "city": "CACHOPO",
      "lon": "-7.781118428698719",
      "lat": "37.34291667543847"
    },
    {
      "id": "pt.ine.add.PTCONT.1825920",
      "street": "MANUEL AGOSTINHO GUERREIRO",
      "house": "211-Z",
      "postcode": "8800-016",
      "city": "CACHOPO",
      "lon": "-7.781703493178554",
      "lat": "37.34329684546518"
    },
    {
      "id": "pt.ine.add.PTCONT.1829380",
      "street": "",
      "house": "",
      "postcode": "8800-011",
      "city": "CACHOPO",
      "lon": "-7.780268150917677",
      "lat": "37.34615783373431"
    },
    {
      "id": "pt.ine.add.PTCONT.1832356",
      "street": "JOÃO LOPES",
      "house": "",
      "postcode": "8800-016",
      "city": "CACHOPO",
      "lon": "-7.780814571461998",
      "lat": "37.342735565868274"
    }
  ]
}