{
  "data": {
    "distrito": "Faro",
    "concelho": "Olhão",
    "freguesia": "Olhão",
    "OBJECTID": 374,
    "BGRI2021": "08100300605",
    "DT21": "08",
    "DTMN21": "0810",
    "DTMNFR21": "081003",
    "DTMNFRSEC21": "081003006",
    "SECNUM21": "006",
    "SSNUM21": "05",
    "SECSSNUM21": "00605",
    "OBJECTID_1": 70338,
    "DT": "08",
    "CC": "10",
    "fr": "03",
    "SEC": "006",
    "SS": "05"
  },
  "addresses": [
    {
      "id": "pt.ine.add.PTCONT.1468973",
      "street": "R MOINHO BARRETA",
      "house": "10",
      "postcode": "8700-493",
      "city": "OLHÃO",
      "lon": "-7.843759383559358",
      "lat": "37.02508746680802"
    },
    {
      "id": "pt.ine.add.PTCONT.1482540",
      "street": "BC PAIXANITA",
      "house": "8",
      "postcode": "8700-443",
      "city": "OLHÃO",
      "lon": "-7.843883445988226",
      "lat": "37.024970629440716"
    },
    {
      "id": "pt.ine.add.PTCONT.1491620",
      "street": "R DR MANUEL DE ARRIAGA",
      "house": "32",
      "postcode": "8700-493",
      "city": "OLHÃO",
      "lon": "-7.84405157237772",
      "lat": "37.02508817888901"
    },
    {
      "id": "pt.ine.add.PTCONT.1499847",
      "street": "R MICANOS",
      "house": "2",
      "postcode": "8700-443",
      "city": "OLHÃO",
      "lon": "-7.843152701125686",
      "lat": "37.02504093222114"
    },
    {
      "id": "pt.ine.add.PTCONT.1502311",
      "street": "BC PAIXANITA",
      "house": "6",
      "postcode": "8700-443",
      "city": "OLHÃO",
      "lon": "-7.843973452550912",
      "lat": "37.02494381651172"
    },
    {
      "id": "pt.ine.add.PTCONT.1508697",
      "street": "R MICANOS",
      "house": "4",
      "postcode": "8700-443",
      "city": "OLHÃO",
      "lon": "-7.843208993964781",
      "lat": "37.02501403749204"
    },
    {
      "id": "pt.ine.add.PTCONT.1514123",
      "street": "R SOL POSTO",
      "house": "17",
      "postcode": "8700-437",
      "city": "OLHÃO",
      "lon": "-7.843657933595367",
      "lat": "37.025168316184896"
    },
    {
      "id": "pt.ine.add.PTCONT.1525969",
      "street": "R SOL POSTO",
      "house": "5",
      "postcode": "8700-437",
      "city": "OLHÃO",
      "lon": "-7.843354814443202",
      "lat": "37.025086479662036"
    },
    {
      "id": "pt.ine.add.PTCONT.1526774",
      "street": "R SOL POSTO",
      "house": "5",
      "postcode": "8700-437",
      "city": "OLHÃO",
      "lon": "-7.843354814443202",
      "lat": "37.025086479662036"
    },
    {
      "id": "pt.ine.add.PTCONT.1543468",
      "street": "R DR MANUEL DE ARRIAGA",
      "house": "5",
      "postcode": "8700-493",
      "city": "OLHÃO",
      "lon": "-7.843927817409761",
      "lat": "37.02512392039457"
    },
    {
      "id": "pt.ine.add.PTCONT.1548856",
      "street": "R MICANOS",
      "house": "28",
      "postcode": "8700-443",
      "city": "OLHÃO",
      "lon": "-7.843973725746719",
      "lat": "37.02487173114342"
    },
    {
      "id": "pt.ine.add.PTCONT.1555208",
      "street": "R DR MANUEL DE ARRIAGA",
      "house": "30",
      "postcode": "8700-493",
      "city": "OLHÃO",
      "lon": "-7.844040505054947",
      "lat": "37.02504309816032"
    },
    {
      "id": "pt.ine.add.PTCONT.1556072",
      "street": "R DR MANUEL DE ARRIAGA",
      "house": "30",
      "postcode": "8700-493",
      "city": "OLHÃO",
      "lon": "-7.844040505054947",
      "lat": "37.02504309816032"
    },
    {
      "id": "pt.ine.add.PTCONT.1557951",
      "street": "R MICANOS",
      "house": "16",
      "postcode": "8700-443",
      "city": "OLHÃO",
      "lon": "-7.843625074237976",
      "lat": "37.024942967183065"
    },
    {
      "id": "pt.ine.add.PTCONT.1569893",
      "street": "R MICANOS",
      "house": "20",
      "postcode": "8700-443",
      "city": "OLHÃO",
      "lon": "-7.8437263530421495",
      "lat": "37.02490717118447"
    },
    {
      "id": "pt.ine.add.PTCONT.1571814",
      "street": "R MICANOS",
      "house": "22",
      "postcode": "8700-443",
      "city": "OLHÃO",
      "lon": "-7.843782577237805",
      "lat": "37.02489829752316"
    },
    {
      "id": "pt.ine.add.PTCONT.1578587",
      "street": "R MICANOS",
      "house": "4",
      "postcode": "8700-443",
      "city": "OLHÃO",
      "lon": "-7.8434070268722955",
      "lat": "37.025063677472176"
    },
    {
      "id": "pt.ine.add.PTCONT.1592910",
      "street": "R SOL POSTO",
      "house": "27",
      "postcode": "8700-437",
      "city": "OLHÃO",
      "lon": "-7.843960916796796",
      "lat": "37.025286194617046"
    },
    {
      "id": "pt.ine.add.PTCONT.1592911",
      "street": "R MICANOS",
      "house": "12",
      "postcode": "8700-443",
      "city": "OLHÃO",
      "lon": "-7.843523795339225",
      "lat": "37.02497876309464"
    },
    {
      "id": "pt.ine.add.PTCONT.1601428",
      "street": "R MICANOS",
      "house": "18",
      "postcode": "8700-443",
      "city": "OLHÃO",
      "lon": "-7.843670128833582",
      "lat": "37.024916044819044"
    },
    {
      "id": "pt.ine.add.PTCONT.1605962",
      "street": "R SOL POSTO",
      "house": "25A",
      "postcode": "8700-437",
      "city": "OLHÃO",
      "lon": "-7.843848672848771",
      "lat": "37.02524987805621"
    },
    {
      "id": "pt.ine.add.PTCONT.1612634",
      "street": "R SOL POSTO",
      "house": "23",
      "postcode": "8700-437",
      "city": "OLHÃO",
      "lon": "-7.843781347035085",
      "lat": "37.025222681666634"
    },
    {
      "id": "pt.ine.add.PTCONT.1644996",
      "street": "R SOL POSTO",
      "house": "9",
      "postcode": "8700-437",
      "city": "OLHÃO",
      "lon": "-7.843961497369101",
      "lat": "37.02513301321737"
    },
    {
      "id": "pt.ine.add.PTCONT.1648500",
      "street": "BC PAIXANITA",
      "house": "10",
      "postcode": "8700-443",
      "city": "OLHÃO",
      "lon": "-7.843759691133724",
      "lat": "37.02500637077213"
    },
    {
      "id": "pt.ine.add.PTCONT.1654140",
      "street": "R SOL POSTO",
      "house": "19",
      "postcode": "8700-437",
      "city": "OLHÃO",
      "lon": "-7.843714021269591",
      "lat": "37.02519548523894"
    },
    {
      "id": "pt.ine.add.PTCONT.1665502",
      "street": "R MICANOS",
      "house": "8",
      "postcode": "8700-443",
      "city": "OLHÃO",
      "lon": "-7.843355156670242",
      "lat": "37.02499637295864"
    },
    {
      "id": "pt.ine.add.PTCONT.1676632",
      "street": "R DR MANUEL DE ARRIAGA",
      "house": "3",
      "postcode": "8700-493",
      "city": "OLHÃO",
      "lon": "-7.844028925598499",
      "lat": "37.02513317749293"
    },
    {
      "id": "pt.ine.add.PTCONT.1693775",
      "street": "R DR MANUEL DE ARRIAGA",
      "house": "38",
      "postcode": "8700-493",
      "city": "OLHÃO",
      "lon": "-7.844050855424113",
      "lat": "37.025277402973295"
    },
    {
      "id": "pt.ine.add.PTCONT.1695766",
      "street": "R DR MANUEL DE ARRIAGA",
      "house": "7",
      "postcode": "8700-493",
      "city": "OLHÃO",
      "lon": "-7.843815505379187",
      "lat": "37.02510562514381"
    },
    {
      "id": "pt.ine.add.PTCONT.1705021",
      "street": "R SOL POSTO",
      "house": "1",
      "postcode": "8700-437",
      "city": "OLHÃO",
      "lon": "-7.843219286884629",
      "lat": "37.0250613790061"
    },
    {
      "id": "pt.ine.add.PTCONT.1710892",
      "street": "R SOL POSTO",
      "house": "29",
      "postcode": "8700-437",
      "city": "OLHÃO",
      "lon": "-7.8440170388111055",
      "lat": "37.025304352857724"
    },
    {
      "id": "pt.ine.add.PTCONT.1725196",
      "street": "R SOL POSTO",
      "house": "6",
      "postcode": "8700-437",
      "city": "OLHÃO",
      "lon": "-7.843287420489831",
      "lat": "37.02507730433341"
    },
    {
      "id": "pt.ine.add.PTCONT.1725197",
      "street": "R SOL POSTO",
      "house": "3",
      "postcode": "8700-437",
      "city": "OLHÃO",
      "lon": "-7.843287420489831",
      "lat": "37.02507730433341"
    },
    {
      "id": "pt.ine.add.PTCONT.1731043",
      "street": "R SOL POSTO",
      "house": "15",
      "postcode": "8700-437",
      "city": "OLHÃO",
      "lon": "-7.8435905737271785",
      "lat": "37.02515013035769"
    },
    {
      "id": "pt.ine.add.PTCONT.1739645",
      "street": "R MICANOS",
      "house": "26",
      "postcode": "8700-443",
      "city": "OLHÃO",
      "lon": "-7.843895025590393",
      "lat": "37.02488055012045"
    },
    {
      "id": "pt.ine.add.PTCONT.1739653",
      "street": "R MICANOS",
      "house": "2",
      "postcode": "8700-443",
      "city": "OLHÃO",
      "lon": "-7.843422618989917",
      "lat": "37.024987526907736"
    },
    {
      "id": "pt.ine.add.PTCONT.1743012",
      "street": "R DR MANUEL DE ARRIAGA",
      "house": "7A",
      "postcode": "8700-493",
      "city": "OLHÃO",
      "lon": "-7.843882967743929",
      "lat": "37.02509677883154"
    },
    {
      "id": "pt.ine.add.PTCONT.1749359",
      "street": "BC PAIXANITA",
      "house": "12",
      "postcode": "8700-443",
      "city": "OLHÃO",
      "lon": "-7.843894410730955",
      "lat": "37.02504274219652"
    },
    {
      "id": "pt.ine.add.PTCONT.1761027",
      "street": "R MICANOS",
      "house": "14",
      "postcode": "8700-443",
      "city": "OLHÃO",
      "lon": "-7.843580053806648",
      "lat": "37.024960878859105"
    },
    {
      "id": "pt.ine.add.PTCONT.1767826",
      "street": "R MICANOS",
      "house": "24",
      "postcode": "8700-443",
      "city": "OLHÃO",
      "lon": "-7.843805019075328",
      "lat": "37.02490736299045"
    },
    {
      "id": "pt.ine.add.PTCONT.1768207",
      "street": "R SOL POSTO",
      "house": "25",
      "postcode": "8700-437",
      "city": "OLHÃO",
      "lon": "-7.843916032867379",
      "lat": "37.025268063737265"
    },
    {
      "id": "pt.ine.add.PTCONT.1776280",
      "street": "R DR MANUEL DE ARRIAGA",
      "house": "34",
      "postcode": "8700-493",
      "city": "OLHÃO",
      "lon": "-7.8440399929271365",
      "lat": "37.02517825822205"
    },
    {
      "id": "pt.ine.add.PTCONT.1804770",
      "street": "R SOL POSTO",
      "house": "13",
      "postcode": "8700-437",
      "city": "OLHÃO",
      "lon": "-7.8435233165001",
      "lat": "37.02510491248126"
    },
    {
      "id": "pt.ine.add.PTCONT.1808692",
      "street": "R SOL POSTO",
      "house": "21",
      "postcode": "8700-437",
      "city": "OLHÃO",
      "lon": "-7.843882387014716",
      "lat": "37.025249960231065"
    },
    {
      "id": "pt.ine.add.PTCONT.1816071",
      "street": "R DR MANUEL DE ARRIAGA",
      "house": "36",
      "postcode": "8700-493",
      "city": "OLHÃO",
      "lon": "-7.844051026127959",
      "lat": "37.02523234962044"
    },
    {
      "id": "pt.ine.add.PTCONT.1837335",
      "street": "R SOL POSTO",
      "house": "7",
      "postcode": "8700-437",
      "city": "OLHÃO",
      "lon": "-7.843410970380894",
      "lat": "37.02509562751843"
    }
  ]
}