{
  "data": {
    "distrito": "Faro",
    "concelho": "Olhão",
    "freguesia": "Olhão",
    "OBJECTID": 124,
    "BGRI2021": "08100300614",
    "DT21": "08",
    "DTMN21": "0810",
    "DTMNFR21": "081003",
    "DTMNFRSEC21": "081003006",
    "SECNUM21": "006",
    "SSNUM21": "14",
    "SECSSNUM21": "00614",
    "OBJECTID_1": 70686,
    "DT": "08",
    "CC": "10",
    "fr": "03",
    "SEC": "006",
    "SS": "14"
  },
  "addresses": [
    {
      "id": "pt.ine.add.PTCONT.1488288",
      "street": "R DR MANUEL DE ARRIAGA",
      "house": "",
      "postcode": "8700-493",
      "city": "OLHÃO",
      "lon": "-7.843980558516741",
      "lat": "37.02603413498165"
    },
    {
      "id": "pt.ine.add.PTCONT.1496994",
      "street": "R FARO",
      "house": "32",
      "postcode": "8700-409",
      "city": "OLHÃO",
      "lon": "-7.84389225868414",
      "lat": "37.02561041442765"
    },
    {
      "id": "pt.ine.add.PTCONT.1496999",
      "street": "PC JOÃO DE DEUS",
      "house": "17",
      "postcode": "8700-352",
      "city": "OLHÃO",
      "lon": "-7.843766930745576",
      "lat": "37.02606064655387"
    },
    {
      "id": "pt.ine.add.PTCONT.1499685",
      "street": "R ALM REIS",
      "house": "5",
      "postcode": "8700-363",
      "city": "OLHÃO",
      "lon": "-7.84344150267911",
      "lat": "37.02593370209855"
    },
    {
      "id": "pt.ine.add.PTCONT.1502129",
      "street": "PC JOÃO DE DEUS",
      "house": "",
      "postcode": "8700-352",
      "city": "OLHÃO",
      "lon": "-7.8439018571611205",
      "lat": "37.02604295395633"
    },
    {
      "id": "pt.ine.add.PTCONT.1505859",
      "street": "R FARO",
      "house": "44",
      "postcode": "8700-409",
      "city": "OLHÃO",
      "lon": "-7.843925733917378",
      "lat": "37.02567357127995"
    },
    {
      "id": "pt.ine.add.PTCONT.1511393",
      "street": "R S SEBASTIÃO",
      "house": "13",
      "postcode": "8700-420",
      "city": "OLHÃO",
      "lon": "-7.843431325178687",
      "lat": "37.02565434391891"
    },
    {
      "id": "pt.ine.add.PTCONT.1514125",
      "street": "PC JOÃO DE DEUS",
      "house": "29",
      "postcode": "8700-352",
      "city": "OLHÃO",
      "lon": "-7.844036817658467",
      "lat": "37.02601625053567"
    },
    {
      "id": "pt.ine.add.PTCONT.1543454",
      "street": "R FARO",
      "house": "42",
      "postcode": "8700-409",
      "city": "OLHÃO",
      "lon": "-7.844004366595424",
      "lat": "37.025682773627025"
    },
    {
      "id": "pt.ine.add.PTCONT.1552085",
      "street": "TV MORAIS",
      "house": "11",
      "postcode": "8700-554",
      "city": "OLHÃO",
      "lon": "-7.843521161687138",
      "lat": "37.025672584687804"
    },
    {
      "id": "pt.ine.add.PTCONT.1595626",
      "street": "TV FARO",
      "house": "10",
      "postcode": "8700-533",
      "city": "OLHÃO",
      "lon": "-7.84333083244792",
      "lat": "37.02548289425802"
    },
    {
      "id": "pt.ine.add.PTCONT.1598773",
      "street": "R S SEBASTIÃO",
      "house": "",
      "postcode": "8700-420",
      "city": "OLHÃO",
      "lon": "-7.843756546982177",
      "lat": "37.025835352419875"
    },
    {
      "id": "pt.ine.add.PTCONT.1603478",
      "street": "R S SEBASTIÃO",
      "house": "25",
      "postcode": "8700-420",
      "city": "OLHÃO",
      "lon": "-7.843756991272267",
      "lat": "37.025718213715834"
    },
    {
      "id": "pt.ine.add.PTCONT.1612642",
      "street": "R S SEBASTIÃO",
      "house": "",
      "postcode": "8700-420",
      "city": "OLHÃO",
      "lon": "-7.843812737689587",
      "lat": "37.02583548941809"
    },
    {
      "id": "pt.ine.add.PTCONT.1617425",
      "street": "R FARO",
      "house": "38",
      "postcode": "8700-409",
      "city": "OLHÃO",
      "lon": "-7.84397092544362",
      "lat": "37.02561060612675"
    },
    {
      "id": "pt.ine.add.PTCONT.1626391",
      "street": "R FARO",
      "house": "20",
      "postcode": "8700-409",
      "city": "OLHÃO",
      "lon": "-7.8436679751277945",
      "lat": "37.02548371705107"
    },
    {
      "id": "pt.ine.add.PTCONT.1632210",
      "street": "R DR PADUA",
      "house": "19",
      "postcode": "8700-465",
      "city": "OLHÃO",
      "lon": "-7.84324048265692",
      "lat": "37.02559981338813"
    },
    {
      "id": "pt.ine.add.PTCONT.1648628",
      "street": "R ALM REIS",
      "house": "71",
      "postcode": "8700-363",
      "city": "OLHÃO",
      "lon": "-7.843553200226646",
      "lat": "37.026114189747425"
    },
    {
      "id": "pt.ine.add.PTCONT.1648861",
      "street": "R FARO",
      "house": "26",
      "postcode": "8700-409",
      "city": "OLHÃO",
      "lon": "-7.843825103376592",
      "lat": "37.02553816471338"
    },
    {
      "id": "pt.ine.add.PTCONT.1651051",
      "street": "R S SEBASTIÃO",
      "house": "11",
      "postcode": "8700-420",
      "city": "OLHÃO",
      "lon": "-7.843352692601592",
      "lat": "37.02564514119248"
    },
    {
      "id": "pt.ine.add.PTCONT.1651071",
      "street": "R ALM REIS",
      "house": "17",
      "postcode": "8700-363",
      "city": "OLHÃO",
      "lon": "-7.843530894878239",
      "lat": "37.02606908155742"
    },
    {
      "id": "pt.ine.add.PTCONT.1651073",
      "street": "R ALM REIS",
      "house": "17",
      "postcode": "8700-363",
      "city": "OLHÃO",
      "lon": "-7.843530894878239",
      "lat": "37.02606908155742"
    },
    {
      "id": "pt.ine.add.PTCONT.1651995",
      "street": "R ALM REIS",
      "house": "17",
      "postcode": "8700-363",
      "city": "OLHÃO",
      "lon": "-7.843530894878239",
      "lat": "37.02606908155742"
    },
    {
      "id": "pt.ine.add.PTCONT.1652058",
      "street": "R ALM REIS",
      "house": "13",
      "postcode": "8700-363",
      "city": "OLHÃO",
      "lon": "-7.843508589556058",
      "lat": "37.02602397336297"
    },
    {
      "id": "pt.ine.add.PTCONT.1667221",
      "street": "R S SEBASTIÃO",
      "house": "8",
      "postcode": "8700-420",
      "city": "OLHÃO",
      "lon": "-7.843576873510883",
      "lat": "37.02579887116942"
    },
    {
      "id": "pt.ine.add.PTCONT.1671297",
      "street": "R S SEBASTIÃO",
      "house": "2",
      "postcode": "8700-420",
      "city": "OLHÃO",
      "lon": "-7.843397131775877",
      "lat": "37.02578041098597"
    },
    {
      "id": "pt.ine.add.PTCONT.1688128",
      "street": "R S SEBASTIÃO",
      "house": "",
      "postcode": "8700-420",
      "city": "OLHÃO",
      "lon": "-7.8438688942343875",
      "lat": "37.02584463705925"
    },
    {
      "id": "pt.ine.add.PTCONT.1690765",
      "street": "PC JOÃO DE DEUS",
      "house": "19",
      "postcode": "8700-352",
      "city": "OLHÃO",
      "lon": "-7.843845597968447",
      "lat": "37.02606083833805"
    },
    {
      "id": "pt.ine.add.PTCONT.1728066",
      "street": "R ALM REIS",
      "house": "27",
      "postcode": "8700-363",
      "city": "OLHÃO",
      "lon": "-7.843608946615321",
      "lat": "37.02623146553748"
    },
    {
      "id": "pt.ine.add.PTCONT.1732689",
      "street": "R S SEBASTIÃO",
      "house": "12",
      "postcode": "8700-420",
      "city": "OLHÃO",
      "lon": "-7.843644233947533",
      "lat": "37.02581705700486"
    },
    {
      "id": "pt.ine.add.PTCONT.1732762",
      "street": "R FARO",
      "house": "24",
      "postcode": "8700-409",
      "city": "OLHÃO",
      "lon": "-7.843768981236946",
      "lat": "37.02552000638211"
    },
    {
      "id": "pt.ine.add.PTCONT.1734773",
      "street": "R S SEBASTIÃO",
      "house": "23-21",
      "postcode": "8700-420",
      "city": "OLHÃO",
      "lon": "-7.843689630895426",
      "lat": "37.025700027944374"
    },
    {
      "id": "pt.ine.add.PTCONT.1736477",
      "street": "R S SEBASTIÃO",
      "house": "33",
      "postcode": "8700-420",
      "city": "OLHÃO",
      "lon": "-7.844015263259156",
      "lat": "37.02577290770345"
    },
    {
      "id": "pt.ine.add.PTCONT.1736478",
      "street": "R S SEBASTIÃO",
      "house": "29",
      "postcode": "8700-420",
      "city": "OLHÃO",
      "lon": "-7.843846896266265",
      "lat": "37.02571843289928"
    },
    {
      "id": "pt.ine.add.PTCONT.1736497",
      "street": "R ALM REIS",
      "house": "3",
      "postcode": "8700-363",
      "city": "OLHÃO",
      "lon": "-7.843419265881256",
      "lat": "37.02587057254844"
    },
    {
      "id": "pt.ine.add.PTCONT.1743008",
      "street": "R DR PADUA",
      "house": "17",
      "postcode": "8700-465",
      "city": "OLHÃO",
      "lon": "-7.8432294157417415",
      "lat": "37.025554732589455"
    },
    {
      "id": "pt.ine.add.PTCONT.1743010",
      "street": "R FARO",
      "house": "18",
      "postcode": "8700-409",
      "city": "OLHÃO",
      "lon": "-7.84360061497919",
      "lat": "37.02546553122935"
    },
    {
      "id": "pt.ine.add.PTCONT.1743018",
      "street": "R DR MANUEL DE ARRIAGA",
      "house": "50",
      "postcode": "8700-493",
      "city": "OLHÃO",
      "lon": "-7.844003581215003",
      "lat": "37.025890019030676"
    },
    {
      "id": "pt.ine.add.PTCONT.1751785",
      "street": "R S SEBASTIÃO",
      "house": "",
      "postcode": "8700-420",
      "city": "OLHÃO",
      "lon": "-7.843925016636432",
      "lat": "37.02586279534341"
    },
    {
      "id": "pt.ine.add.PTCONT.1761057",
      "street": "R ALM REIS",
      "house": "7",
      "postcode": "8700-363",
      "city": "OLHÃO",
      "lon": "-7.843486284260106",
      "lat": "37.025978865164106"
    },
    {
      "id": "pt.ine.add.PTCONT.1770411",
      "street": "R S SEBASTIÃO",
      "house": "",
      "postcode": "8700-420",
      "city": "OLHÃO",
      "lon": "-7.843711628598084",
      "lat": "37.02582623213274"
    },
    {
      "id": "pt.ine.add.PTCONT.1773309",
      "street": "R S SEBASTIÃO",
      "house": "31",
      "postcode": "8700-420",
      "city": "OLHÃO",
      "lon": "-7.843925494824475",
      "lat": "37.025736645968436"
    },
    {
      "id": "pt.ine.add.PTCONT.1779458",
      "street": "TV FARO",
      "house": "15",
      "postcode": "8700-533",
      "city": "OLHÃO",
      "lon": "-7.843218383078887",
      "lat": "37.02550064111994"
    },
    {
      "id": "pt.ine.add.PTCONT.1779468",
      "street": "TV FARO",
      "house": "12",
      "postcode": "8700-533",
      "city": "OLHÃO",
      "lon": "-7.843533254862929",
      "lat": "37.02544734536945"
    },
    {
      "id": "pt.ine.add.PTCONT.1794145",
      "street": "R ALM REIS",
      "house": "23",
      "postcode": "8700-363",
      "city": "OLHÃO",
      "lon": "-7.843575437205163",
      "lat": "37.02617731927063"
    },
    {
      "id": "pt.ine.add.PTCONT.1804619",
      "street": "R FARO",
      "house": "40",
      "postcode": "8700-409",
      "city": "OLHÃO",
      "lon": "-7.844016048604508",
      "lat": "37.0255656622955"
    },
    {
      "id": "pt.ine.add.PTCONT.1814325",
      "street": "R FARO",
      "house": "26",
      "postcode": "8700-409",
      "city": "OLHÃO",
      "lon": "-7.843881225543107",
      "lat": "37.0255563230182"
    },
    {
      "id": "pt.ine.add.PTCONT.1820614",
      "street": "R FARO",
      "house": "22",
      "postcode": "8700-409",
      "city": "OLHÃO",
      "lon": "-7.84371289330516",
      "lat": "37.02549283735439"
    },
    {
      "id": "pt.ine.add.PTCONT.1828790",
      "street": "R FARO",
      "house": "34",
      "postcode": "8700-409",
      "city": "OLHÃO",
      "lon": "-7.843948654146166",
      "lat": "37.02555648734096"
    },
    {
      "id": "pt.ine.add.PTCONT.1834445",
      "street": "R S SEBASTIÃO",
      "house": "21",
      "postcode": "8700-420",
      "city": "OLHÃO",
      "lon": "-7.843610998238977",
      "lat": "37.02569082538882"
    },
    {
      "id": "pt.ine.add.PTCONT.1842553",
      "street": "R S SEBASTIÃO",
      "house": "9",
      "postcode": "8700-420",
      "city": "OLHÃO",
      "lon": "-7.843262821932232",
      "lat": "37.02563591096563"
    }
  ]
}