{
  "data": {
    "distrito": "Vila Real",
    "concelho": "Vila Real",
    "freguesia": "Campeã",
    "OBJECTID": 64,
    "BGRI2021": "17140600203",
    "DT21": "17",
    "DTMN21": "1714",
    "DTMNFR21": "171406",
    "DTMNFRSEC21": "171406002",
    "SECNUM21": "002",
    "SSNUM21": "03",
    "SECSSNUM21": "00203",
    "OBJECTID_1": 187974,
    "DT": "17",
    "CC": "14",
    "fr": "06",
    "SEC": "002",
    "SS": "03"
  },
  "addresses": [
    {
      "id": "pt.ine.add.PTCONT.5300495",
      "street": "R S MARTA",
      "house": "",
      "postcode": "5000-072",
      "city": "CAMPEÃ",
      "lon": "-7.867812253235063",
      "lat": "41.265315831098825"
    },
    {
      "id": "pt.ine.add.PTCONT.5301629",
      "street": "AV LUIS DE CAMÕES",
      "house": "",
      "postcode": "5000-072",
      "city": "CAMPEÃ",
      "lon": "-7.867428228340009",
      "lat": "41.26584619375312"
    },
    {
      "id": "pt.ine.add.PTCONT.5308650",
      "street": "AV LUIS DE CAMÕES",
      "house": "",
      "postcode": "5000-072",
      "city": "CAMPEÃ",
      "lon": "-7.8672732378308154",
      "lat": "41.26580981916835"
    },
    {
      "id": "pt.ine.add.PTCONT.5308651",
      "street": "TV LADRILHO",
      "house": "",
      "postcode": "5000-072",
      "city": "CAMPEÃ",
      "lon": "-7.867382173165661",
      "lat": "41.26543189396982"
    },
    {
      "id": "pt.ine.add.PTCONT.5314174",
      "street": "R S MARTA",
      "house": "",
      "postcode": "5000-072",
      "city": "CAMPEÃ",
      "lon": "-7.867357612525891",
      "lat": "41.26560291720774"
    },
    {
      "id": "pt.ine.add.PTCONT.5318229",
      "street": "R S MARTA",
      "house": "",
      "postcode": "5000-072",
      "city": "CAMPEÃ",
      "lon": "-7.86895409420493",
      "lat": "41.26625489399562"
    },
    {
      "id": "pt.ine.add.PTCONT.5323498",
      "street": "TV LADRILHO",
      "house": "",
      "postcode": "5000-072",
      "city": "CAMPEÃ",
      "lon": "-7.867203170547869",
      "lat": "41.265431480693685"
    },
    {
      "id": "pt.ine.add.PTCONT.5327357",
      "street": "R S MARTA",
      "house": "",
      "postcode": "5000-072",
      "city": "CAMPEÃ",
      "lon": "-7.8703569239176865",
      "lat": "41.26759072633099"
    },
    {
      "id": "pt.ine.add.PTCONT.5328897",
      "street": "AV LUIS DE CAMÕES",
      "house": "",
      "postcode": "5000-072",
      "city": "CAMPEÃ",
      "lon": "-7.867189739324472",
      "lat": "41.2658006221385"
    },
    {
      "id": "pt.ine.add.PTCONT.5334190",
      "street": "R S MARTA",
      "house": "",
      "postcode": "5000-072",
      "city": "CAMPEÃ",
      "lon": "-7.870465050698693",
      "lat": "41.26741088896795"
    },
    {
      "id": "pt.ine.add.PTCONT.5349028",
      "street": "AV LUIS DE CAMÕES",
      "house": "",
      "postcode": "5000-072",
      "city": "CAMPEÃ",
      "lon": "-7.867106313924742",
      "lat": "41.26577341680458"
    },
    {
      "id": "pt.ine.add.PTCONT.5351959",
      "street": "R BALSA",
      "house": "",
      "postcode": "5000-072",
      "city": "CAMPEÃ",
      "lon": "-7.868286536904756",
      "lat": "41.266073276336265"
    },
    {
      "id": "pt.ine.add.PTCONT.5353320",
      "street": "AV LUIS DE CAMÕES",
      "house": "",
      "postcode": "5000-072",
      "city": "CAMPEÃ",
      "lon": "-7.86702303480576",
      "lat": "41.26571019492304"
    },
    {
      "id": "pt.ine.add.PTCONT.5378068",
      "street": "AV LUIS DE CAMÕES",
      "house": "",
      "postcode": "5000-072",
      "city": "CAMPEÃ",
      "lon": "-7.866963696062546",
      "lat": "41.265629019911664"
    },
    {
      "id": "pt.ine.add.PTCONT.5379324",
      "street": "AV LUIS DE CAMÕES",
      "house": "",
      "postcode": "5000-072",
      "city": "CAMPEÃ",
      "lon": "-7.86784572157116",
      "lat": "41.26589217743355"
    },
    {
      "id": "pt.ine.add.PTCONT.5382298",
      "street": "TV LADRILHO",
      "house": "",
      "postcode": "5000-072",
      "city": "CAMPEÃ",
      "lon": "-7.8672748446301775",
      "lat": "41.26541363779258"
    },
    {
      "id": "pt.ine.add.PTCONT.5395285",
      "street": "R BALSA",
      "house": "",
      "postcode": "5000-072",
      "city": "CAMPEÃ",
      "lon": "-7.868834975439661",
      "lat": "41.26620059539994"
    },
    {
      "id": "pt.ine.add.PTCONT.5406844",
      "street": "R S MARTA",
      "house": "",
      "postcode": "5000-072",
      "city": "CAMPEÃ",
      "lon": "-7.868588365988466",
      "lat": "41.265209566360376"
    },
    {
      "id": "pt.ine.add.PTCONT.5406845",
      "street": "R BALSA",
      "house": "",
      "postcode": "5000-072",
      "city": "CAMPEÃ",
      "lon": "-7.868465395870523",
      "lat": "41.2661097044224"
    },
    {
      "id": "pt.ine.add.PTCONT.5408022",
      "street": "R EIRA",
      "house": "",
      "postcode": "5000-072",
      "city": "CAMPEÃ",
      "lon": "-7.867011649561813",
      "lat": "41.26557510551355"
    },
    {
      "id": "pt.ine.add.PTCONT.5415034",
      "street": "R LUIS DE CAMÕES",
      "house": "",
      "postcode": "5000-072",
      "city": "CAMPEÃ",
      "lon": "-7.867988414792932",
      "lat": "41.26601856499072"
    },
    {
      "id": "pt.ine.add.PTCONT.5422217",
      "street": "R EIRA",
      "house": "",
      "postcode": "5000-072",
      "city": "CAMPEÃ",
      "lon": "-7.867035772485032",
      "lat": "41.26551213181822"
    },
    {
      "id": "pt.ine.add.PTCONT.5423429",
      "street": "AV LUIS DE CAMÕES",
      "house": "",
      "postcode": "5000-072",
      "city": "CAMPEÃ",
      "lon": "-7.867595189086857",
      "lat": "41.2658735915288"
    }
  ]
}