{
  "data": {
    "distrito": "Viseu",
    "concelho": "Viseu",
    "freguesia": "Campo",
    "OBJECTID": 1236,
    "BGRI2021": "18230600322",
    "DT21": "18",
    "DTMN21": "1823",
    "DTMNFR21": "182306",
    "DTMNFRSEC21": "182306003",
    "SECNUM21": "003",
    "SSNUM21": "22",
    "SECSSNUM21": "00322",
    "OBJECTID_1": 200758,
    "DT": "18",
    "CC": "23",
    "fr": "06",
    "SEC": "003",
    "SS": "22"
  },
  "addresses": [
    {
      "id": "pt.ine.add.PTCONT.5436724",
      "street": "R JOSE AUGUSTO SEIXAS",
      "house": "21",
      "postcode": "3515-360",
      "city": "VISEU",
      "lon": "-7.919907478428203",
      "lat": "40.70291249797146"
    },
    {
      "id": "pt.ine.add.PTCONT.5436734",
      "street": "R COMAREIRO",
      "house": "8",
      "postcode": "3515-360",
      "city": "VISEU",
      "lon": "-7.918781304953362",
      "lat": "40.703558779250706"
    },
    {
      "id": "pt.ine.add.PTCONT.5458779",
      "street": "R JOÃO MARQUES",
      "house": "9",
      "postcode": "3515-275",
      "city": "VISEU",
      "lon": "-7.9169018676946274",
      "lat": "40.706607999554194"
    },
    {
      "id": "pt.ine.add.PTCONT.5470659",
      "street": "R JOSE AUGUSTO SEIXAS",
      "house": "23",
      "postcode": "3515-360",
      "city": "VISEU",
      "lon": "-7.9202034076599235",
      "lat": "40.70287702373896"
    },
    {
      "id": "pt.ine.add.PTCONT.5505961",
      "street": "R JOSE AUGUSTO SEIXAS",
      "house": "",
      "postcode": "3515-360",
      "city": "VISEU",
      "lon": "-7.91885888204503",
      "lat": "40.70519784950103"
    },
    {
      "id": "pt.ine.add.PTCONT.5506945",
      "street": "R JOÃO MARQUES",
      "house": "13",
      "postcode": "3515-275",
      "city": "VISEU",
      "lon": "-7.91760055096937",
      "lat": "40.706447214418866"
    },
    {
      "id": "pt.ine.add.PTCONT.5522521",
      "street": "R JOSE AUGUSTO SEIXAS",
      "house": "10",
      "postcode": "3515-360",
      "city": "VISEU",
      "lon": "-7.918556801610846",
      "lat": "40.703459306237626"
    },
    {
      "id": "pt.ine.add.PTCONT.5552070",
      "street": "R JOSE AUGUSTO SEIXAS",
      "house": "3",
      "postcode": "3515-360",
      "city": "VISEU",
      "lon": "-7.91864476176298",
      "lat": "40.705548650342806"
    },
    {
      "id": "pt.ine.add.PTCONT.5555122",
      "street": "R JOSE AUGUSTO SEIXAS",
      "house": "19",
      "postcode": "3515-360",
      "city": "VISEU",
      "lon": "-7.919847884697798",
      "lat": "40.703047464273624"
    },
    {
      "id": "pt.ine.add.PTCONT.5555134",
      "street": "TV BARRETA",
      "house": "19",
      "postcode": "3515-472",
      "city": "VISEU",
      "lon": "-7.916652699222018",
      "lat": "40.70681464959739"
    },
    {
      "id": "pt.ine.add.PTCONT.5577119",
      "street": "R JOSE AUGUSTO SEIXAS",
      "house": "5",
      "postcode": "3515-360",
      "city": "VISEU",
      "lon": "-7.918857958611811",
      "lat": "40.705486010596566"
    },
    {
      "id": "pt.ine.add.PTCONT.5586405",
      "street": "R JOÃO MARQUES",
      "house": "7",
      "postcode": "3515-275",
      "city": "VISEU",
      "lon": "-7.91687785172403",
      "lat": "40.70671601560016"
    },
    {
      "id": "pt.ine.add.PTCONT.5589024",
      "street": "R JOÃO MARQUES",
      "house": "1",
      "postcode": "3515-275",
      "city": "VISEU",
      "lon": "-7.91614319648434",
      "lat": "40.70702081011085"
    },
    {
      "id": "pt.ine.add.PTCONT.5605600",
      "street": "R JOÃO MARQUES",
      "house": "",
      "postcode": "3515-275",
      "city": "VISEU",
      "lon": "-7.916333054957991",
      "lat": "40.706859075247046"
    },
    {
      "id": "pt.ine.add.PTCONT.5608226",
      "street": "TV JOSE AUGUSTO SEIXAS",
      "house": "8",
      "postcode": "3515-360",
      "city": "VISEU",
      "lon": "-7.9184453636590995",
      "lat": "40.704998969382316"
    },
    {
      "id": "pt.ine.add.PTCONT.5619835",
      "street": "TV JOSE AUGUSTO SEIXAS",
      "house": "10",
      "postcode": "3515-360",
      "city": "VISEU",
      "lon": "-7.9185629129402635",
      "lat": "40.70524232527922"
    },
    {
      "id": "pt.ine.add.PTCONT.5621635",
      "street": "R D AFONSO TELES",
      "house": "FRACAO A",
      "postcode": "3515-275",
      "city": "VISEU",
      "lon": "-7.91797979307384",
      "lat": "40.706267820038356"
    },
    {
      "id": "pt.ine.add.PTCONT.5623583",
      "street": "R JOÃO MARQUES",
      "house": "11",
      "postcode": "3515-275",
      "city": "VISEU",
      "lon": "-7.917032295199423",
      "lat": "40.7065271979793"
    },
    {
      "id": "pt.ine.add.PTCONT.5632170",
      "street": "R JOSE AUGUSTO SEIXAS",
      "house": "30",
      "postcode": "3515-360",
      "city": "VISEU",
      "lon": "-7.91838414552064",
      "lat": "40.705638216766296"
    },
    {
      "id": "pt.ine.add.PTCONT.5640456",
      "street": "R JOSE AUGUSTO SEIXAS",
      "house": "",
      "postcode": "3515-360",
      "city": "VISEU",
      "lon": "-7.91957369290716",
      "lat": "40.70368631889328"
    },
    {
      "id": "pt.ine.add.PTCONT.5654724",
      "street": "R JOSE AUGUSTO SEIXAS",
      "house": "17",
      "postcode": "3515-360",
      "city": "VISEU",
      "lon": "-7.919752016998852",
      "lat": "40.70342550096718"
    },
    {
      "id": "pt.ine.add.PTCONT.5655517",
      "street": "R D AFONSO TELES",
      "house": "FRACAO B",
      "postcode": "3515-275",
      "city": "VISEU",
      "lon": "-7.917991915996664",
      "lat": "40.70617779176545"
    },
    {
      "id": "pt.ine.add.PTCONT.5657919",
      "street": "TV JOSE AUGUSTO SEIXAS",
      "house": "",
      "postcode": "3515-360",
      "city": "VISEU",
      "lon": "-7.918399159690453",
      "lat": "40.70464768500492"
    },
    {
      "id": "pt.ine.add.PTCONT.5659276",
      "street": "TV JOSE AUGUSTO SEIXAS",
      "house": "10",
      "postcode": "3515-360",
      "city": "VISEU",
      "lon": "-7.9181373595289255",
      "lat": "40.70510645730918"
    },
    {
      "id": "pt.ine.add.PTCONT.5661126",
      "street": "R JOSE AUGUSTO SEIXAS",
      "house": "9",
      "postcode": "3515-360",
      "city": "VISEU",
      "lon": "-7.919297393648493",
      "lat": "40.704982540374324"
    },
    {
      "id": "pt.ine.add.PTCONT.5669858",
      "street": "R COMAREIRO",
      "house": "6",
      "postcode": "3515-360",
      "city": "VISEU",
      "lon": "-7.91895850695694",
      "lat": "40.70364915900125"
    }
  ]
}