{
  "data": {
    "distrito": "Viseu",
    "concelho": "Moimenta da Beira",
    "freguesia": "Alvite",
    "OBJECTID": 311,
    "BGRI2021": "18070200107",
    "DT21": "18",
    "DTMN21": "1807",
    "DTMNFR21": "180702",
    "DTMNFRSEC21": "180702001",
    "SECNUM21": "001",
    "SSNUM21": "07",
    "SECSSNUM21": "00107",
    "OBJECTID_1": 192437,
    "DT": "18",
    "CC": "07",
    "fr": "02",
    "SEC": "001",
    "SS": "07"
  },
  "addresses": [
    {
      "id": "pt.ine.add.PTCONT.5436483",
      "street": "R S SEBASTIÃO",
      "house": "",
      "postcode": "3620-049",
      "city": "ALVITE MBR",
      "lon": "-7.742889686503283",
      "lat": "40.95393799683743"
    },
    {
      "id": "pt.ine.add.PTCONT.5440242",
      "street": "",
      "house": "",
      "postcode": "3620-049",
      "city": "ALVITE MBR",
      "lon": "-7.7386341729899755",
      "lat": "40.95251878604749"
    },
    {
      "id": "pt.ine.add.PTCONT.5503444",
      "street": "",
      "house": "",
      "postcode": "3620-049",
      "city": "ALVITE MBR",
      "lon": "-7.74043998530818",
      "lat": "40.952434903316885"
    },
    {
      "id": "pt.ine.add.PTCONT.5528964",
      "street": "R MARTINS",
      "house": "",
      "postcode": "3620-049",
      "city": "ALVITE MBR",
      "lon": "-7.73921442525629",
      "lat": "40.952808919547415"
    },
    {
      "id": "pt.ine.add.PTCONT.5591739",
      "street": "",
      "house": "",
      "postcode": "3620-049",
      "city": "ALVITE MBR",
      "lon": "-7.736300815123862",
      "lat": "40.953429256562345"
    },
    {
      "id": "pt.ine.add.PTCONT.5547833",
      "street": "",
      "house": "",
      "postcode": "3620-049",
      "city": "ALVITE MBR",
      "lon": "-7.740022447478284",
      "lat": "40.95474768290212"
    },
    {
      "id": "pt.ine.add.PTCONT.5549670",
      "street": "",
      "house": "",
      "postcode": "3620-049",
      "city": "ALVITE MBR",
      "lon": "-7.736542934892607",
      "lat": "40.95266469189362"
    },
    {
      "id": "pt.ine.add.PTCONT.5556668",
      "street": "R PONTE CERDEIRA",
      "house": "",
      "postcode": "3620-049",
      "city": "ALVITE MBR",
      "lon": "-7.739494714776089",
      "lat": "40.955610331371595"
    },
    {
      "id": "pt.ine.add.PTCONT.5573254",
      "street": "R S SEBASTIÃO",
      "house": "",
      "postcode": "3620-049",
      "city": "ALVITE MBR",
      "lon": "-7.742816249691892",
      "lat": "40.954306940067454"
    },
    {
      "id": "pt.ine.add.PTCONT.5587992",
      "street": "",
      "house": "",
      "postcode": "3620-049",
      "city": "ALVITE MBR",
      "lon": "-7.742340595369502",
      "lat": "40.95238733234064"
    },
    {
      "id": "pt.ine.add.PTCONT.5611225",
      "street": "",
      "house": "",
      "postcode": "3620-049",
      "city": "ALVITE MBR",
      "lon": "-7.738993508172772",
      "lat": "40.95600482490876"
    },
    {
      "id": "pt.ine.add.PTCONT.5612127",
      "street": "R CENTRO",
      "house": "",
      "postcode": "3620-049",
      "city": "ALVITE MBR",
      "lon": "-7.739536598432796",
      "lat": "40.95255788869649"
    },
    {
      "id": "pt.ine.add.PTCONT.5626652",
      "street": "",
      "house": "",
      "postcode": "3620-049",
      "city": "ALVITE MBR",
      "lon": "-7.738775087672446",
      "lat": "40.95278940845834"
    },
    {
      "id": "pt.ine.add.PTCONT.5629080",
      "street": "",
      "house": "",
      "postcode": "3620-049",
      "city": "ALVITE MBR",
      "lon": "-7.742253368635314",
      "lat": "40.95308039704124"
    },
    {
      "id": "pt.ine.add.PTCONT.5644192",
      "street": "",
      "house": "",
      "postcode": "3620-049",
      "city": "ALVITE MBR",
      "lon": "-7.738478916296152",
      "lat": "40.95266232963816"
    }
  ]
}