{
  "data": {
    "distrito": "Set√∫bal",
    "concelho": "Palmela",
    "freguesia": "Pinhal Novo",
    "OBJECTID": 918,
    "BGRI2021": "15080301519",
    "DT21": "15",
    "DTMN21": "1508",
    "DTMNFR21": "150803",
    "DTMNFRSEC21": "150803015",
    "SECNUM21": "015",
    "SSNUM21": "19",
    "SECSSNUM21": "01519",
    "OBJECTID_1": 165847,
    "DT": "15",
    "CC": "08",
    "fr": "03",
    "SEC": "015",
    "SS": "19"
  },
  "addresses": [
    {
      "id": "pt.ine.add.PTCONT.4667422",
      "street": "R 5 DE OUTUBRO QTA DOS FOFOS",
      "house": "",
      "postcode": "2955-108",
      "city": "PINHAL NOVO",
      "lon": "-8.900917103913855",
      "lat": "38.614893687187134"
    },
    {
      "id": "pt.ine.add.PTCONT.4689448",
      "street": "R POVO",
      "house": "4",
      "postcode": "2955-244",
      "city": "PINHAL NOVO",
      "lon": "-8.902298682394",
      "lat": "38.61417296798421"
    },
    {
      "id": "pt.ine.add.PTCONT.4761642",
      "street": "R POVO MONTE DO AMBROSIO",
      "house": "",
      "postcode": "2955-244",
      "city": "PINHAL NOVO",
      "lon": "-8.901671441521943",
      "lat": "38.61779837205425"
    },
    {
      "id": "pt.ine.add.PTCONT.4990539",
      "street": "R 5 DE OUTUBRO QTA STO CRISTOF",
      "house": "",
      "postcode": "2955-108",
      "city": "PINHAL NOVO",
      "lon": "-8.901197784439404",
      "lat": "38.61429730597769"
    },
    {
      "id": "pt.ine.add.PTCONT.5071683",
      "street": "R 5 DE OUTUBRO",
      "house": "",
      "postcode": "2955-247",
      "city": "PINHAL NOVO",
      "lon": "-8.901269308748192",
      "lat": "38.617773988298836"
    },
    {
      "id": "pt.ine.add.PTCONT.5074729",
      "street": "R POVO",
      "house": "6",
      "postcode": "2955-244",
      "city": "PINHAL NOVO",
      "lon": "-8.902187337906373",
      "lat": "38.614497993910035"
    },
    {
      "id": "pt.ine.add.PTCONT.5088910",
      "street": "ESTR MONTINHOSO",
      "house": "CCI 7901",
      "postcode": "2955-245",
      "city": "PINHAL NOVO",
      "lon": "-8.900978167987834",
      "lat": "38.613082644572245"
    },
    {
      "id": "pt.ine.add.PTCONT.5103101",
      "street": "R 5 DE OUTUBRO",
      "house": "",
      "postcode": "2955-108",
      "city": "PINHAL NOVO",
      "lon": "-8.901302744038345",
      "lat": "38.61444975579799"
    },
    {
      "id": "pt.ine.add.PTCONT.5103102",
      "street": "ESTR MONTINHOSO",
      "house": "CCI 7902",
      "postcode": "2955-245",
      "city": "PINHAL NOVO",
      "lon": "-8.90158740440167",
      "lat": "38.61315071030898"
    },
    {
      "id": "pt.ine.add.PTCONT.5112838",
      "street": "R POVO",
      "house": "",
      "postcode": "2955-244",
      "city": "PINHAL NOVO",
      "lon": "-8.901865565482515",
      "lat": "38.617698006994864"
    },
    {
      "id": "pt.ine.add.PTCONT.5114545",
      "street": "R 5 DE OUTUBRO",
      "house": "",
      "postcode": "2955-108",
      "city": "PINHAL NOVO",
      "lon": "-8.901246638634317",
      "lat": "38.61349525826179"
    },
    {
      "id": "pt.ine.add.PTCONT.5127568",
      "street": "R 5 DE OUTUBRO QTA DE S BERNARDO",
      "house": "",
      "postcode": "2955-108",
      "city": "PINHAL NOVO",
      "lon": "-8.901215654852852",
      "lat": "38.61381975574215"
    }
  ]
}