{
  "data": {
    "distrito": "Set√∫bal",
    "concelho": "Palmela",
    "freguesia": "Pinhal Novo",
    "OBJECTID": 1016,
    "BGRI2021": "15080301524",
    "DT21": "15",
    "DTMN21": "1508",
    "DTMNFR21": "150803",
    "DTMNFRSEC21": "150803015",
    "SECNUM21": "015",
    "SSNUM21": "24",
    "SECSSNUM21": "01524",
    "OBJECTID_1": 165681,
    "DT": "15",
    "CC": "08",
    "fr": "03",
    "SEC": "015",
    "SS": "24"
  },
  "addresses": [
    {
      "id": "pt.ine.add.PTCONT.4682072",
      "street": "R CHORA",
      "house": "",
      "postcode": "2955-013",
      "city": "PINHAL NOVO",
      "lon": "-8.933312217641609",
      "lat": "38.61952301139475"
    },
    {
      "id": "pt.ine.add.PTCONT.4682073",
      "street": "R SOBRAL",
      "house": "",
      "postcode": "2955-269",
      "city": "PINHAL NOVO",
      "lon": "-8.933477331745152",
      "lat": "38.61888230374474"
    },
    {
      "id": "pt.ine.add.PTCONT.4664692",
      "street": "R SOSSEGO CCI",
      "house": "CCI11906",
      "postcode": "2955-225",
      "city": "PINHAL NOVO",
      "lon": "-8.93163880716086",
      "lat": "38.61668786934906"
    },
    {
      "id": "pt.ine.add.PTCONT.4678442",
      "street": "R FRATERNIDADE",
      "house": "",
      "postcode": "2955-258",
      "city": "PINHAL NOVO",
      "lon": "-8.930239152824528",
      "lat": "38.61471561965309"
    },
    {
      "id": "pt.ine.add.PTCONT.4696938",
      "street": "R SOSSEGO",
      "house": "33",
      "postcode": "2955-225",
      "city": "PINHAL NOVO",
      "lon": "-8.93315355217324",
      "lat": "38.618677330741214"
    },
    {
      "id": "pt.ine.add.PTCONT.4708416",
      "street": "R SOBRAL",
      "house": "21",
      "postcode": "2955-269",
      "city": "PINHAL NOVO",
      "lon": "-8.932420285509565",
      "lat": "38.6146827239229"
    },
    {
      "id": "pt.ine.add.PTCONT.4737089",
      "street": "R SOBRAL",
      "house": "28",
      "postcode": "2955-269",
      "city": "PINHAL NOVO",
      "lon": "-8.93309491946469",
      "lat": "38.61753369697144"
    },
    {
      "id": "pt.ine.add.PTCONT.4748226",
      "street": "R SOBRAL",
      "house": "25",
      "postcode": "2955-269",
      "city": "PINHAL NOVO",
      "lon": "-8.932482503431865",
      "lat": "38.61615062755394"
    },
    {
      "id": "pt.ine.add.PTCONT.4766351",
      "street": "R SOBRAL",
      "house": "24",
      "postcode": "2955-269",
      "city": "PINHAL NOVO",
      "lon": "-8.932753745290121",
      "lat": "38.615761423699226"
    },
    {
      "id": "pt.ine.add.PTCONT.4834252",
      "street": "R SOBRAL",
      "house": "19",
      "postcode": "2955-269",
      "city": "PINHAL NOVO",
      "lon": "-8.931967143731953",
      "lat": "38.6141993782812"
    },
    {
      "id": "pt.ine.add.PTCONT.4848006",
      "street": "R SOBRAL",
      "house": "22",
      "postcode": "2955-269",
      "city": "PINHAL NOVO",
      "lon": "-8.932415387478116",
      "lat": "38.614241357893484"
    },
    {
      "id": "pt.ine.add.PTCONT.4861783",
      "street": "R FRATERNIDADE",
      "house": "11309",
      "postcode": "2955-258",
      "city": "PINHAL NOVO",
      "lon": "-8.930038959179155",
      "lat": "38.61633845074144"
    },
    {
      "id": "pt.ine.add.PTCONT.4869489",
      "street": "R SOBRAL",
      "house": "",
      "postcode": "2955-269",
      "city": "PINHAL NOVO",
      "lon": "-8.932645317918741",
      "lat": "38.61530274894731"
    },
    {
      "id": "pt.ine.add.PTCONT.4888954",
      "street": "R FRATERNIDADE",
      "house": "",
      "postcode": "2955-258",
      "city": "PINHAL NOVO",
      "lon": "-8.929849285107554",
      "lat": "38.61579925334597"
    },
    {
      "id": "pt.ine.add.PTCONT.4888944",
      "street": "R FRATERNIDADE",
      "house": "",
      "postcode": "2955-258",
      "city": "PINHAL NOVO",
      "lon": "-8.929849285107554",
      "lat": "38.61579925334597"
    },
    {
      "id": "pt.ine.add.PTCONT.4897535",
      "street": "R SOSSEGO",
      "house": "",
      "postcode": "2955-225",
      "city": "PINHAL NOVO",
      "lon": "-8.930630861511661",
      "lat": "38.61794687662396"
    },
    {
      "id": "pt.ine.add.PTCONT.4899266",
      "street": "R FRATERNIDADE",
      "house": "",
      "postcode": "2955-258",
      "city": "PINHAL NOVO",
      "lon": "-8.92952276768424",
      "lat": "38.614306122783944"
    },
    {
      "id": "pt.ine.add.PTCONT.4941984",
      "street": "R FRATERNIDADE CCI",
      "house": "CCI 1131",
      "postcode": "2955-258",
      "city": "PINHAL NOVO",
      "lon": "-8.93063766476043",
      "lat": "38.61648751002828"
    },
    {
      "id": "pt.ine.add.PTCONT.5027712",
      "street": "R SOBRAL",
      "house": "",
      "postcode": "2955-269",
      "city": "PINHAL NOVO",
      "lon": "-8.93326035906886",
      "lat": "38.61795594865439"
    },
    {
      "id": "pt.ine.add.PTCONT.5074629",
      "street": "R 25 DE ABRIL",
      "house": "18",
      "postcode": "2955-254",
      "city": "PINHAL NOVO",
      "lon": "-8.932386728825591",
      "lat": "38.61372808890773"
    },
    {
      "id": "pt.ine.add.PTCONT.5108669",
      "street": "R SOSSEGO",
      "house": "34",
      "postcode": "2955-225",
      "city": "PINHAL NOVO",
      "lon": "-8.933375200673492",
      "lat": "38.61899110007064"
    }
  ]
}