{
  "data": {
    "distrito": "Castelo Branco",
    "concelho": "Fund√£o",
    "freguesia": "Lavacolhos",
    "OBJECTID": 294,
    "BGRI2021": "05041900110",
    "DT21": "05",
    "DTMN21": "0504",
    "DTMNFR21": "050419",
    "DTMNFRSEC21": "050419001",
    "SECNUM21": "001",
    "SSNUM21": "10",
    "SECSSNUM21": "00110",
    "OBJECTID_1": 43947,
    "DT": "05",
    "CC": "04",
    "fr": "19",
    "SEC": "001",
    "SS": "10"
  },
  "addresses": [
    {
      "id": "pt.ine.add.PTCONT.953784",
      "street": "R PEREIRINHA",
      "house": "28",
      "postcode": "6230-500",
      "city": "LAVACOLHOS",
      "lon": "-7.618454745742751",
      "lat": "40.13140137096248"
    },
    {
      "id": "pt.ine.add.PTCONT.954475",
      "street": "R ADRO",
      "house": "15",
      "postcode": "6230-500",
      "city": "LAVACOLHOS",
      "lon": "-7.619449566873185",
      "lat": "40.13173000127865"
    },
    {
      "id": "pt.ine.add.PTCONT.959960",
      "street": "R PEREIRINHA",
      "house": "4",
      "postcode": "6230-500",
      "city": "LAVACOLHOS",
      "lon": "-7.616750331757448",
      "lat": "40.1318170626672"
    },
    {
      "id": "pt.ine.add.PTCONT.962241",
      "street": "R FIGUEIRAS",
      "house": "2",
      "postcode": "6230-500",
      "city": "LAVACOLHOS",
      "lon": "-7.619275681057819",
      "lat": "40.1314500459971"
    },
    {
      "id": "pt.ine.add.PTCONT.963355",
      "street": "R STA HELENA",
      "house": "4",
      "postcode": "6230-500",
      "city": "LAVACOLHOS",
      "lon": "-7.61758545284974",
      "lat": "40.13154159941602"
    },
    {
      "id": "pt.ine.add.PTCONT.978917",
      "street": "R PEREIRINHA",
      "house": "24",
      "postcode": "6230-500",
      "city": "LAVACOLHOS",
      "lon": "-7.617962185145542",
      "lat": "40.13137216315162"
    },
    {
      "id": "pt.ine.add.PTCONT.982356",
      "street": "R SANTO AMARO",
      "house": "9",
      "postcode": "6230-500",
      "city": "LAVACOLHOS",
      "lon": "-7.617075642205414",
      "lat": "40.132241791436215"
    },
    {
      "id": "pt.ine.add.PTCONT.988482",
      "street": "R ADRO",
      "house": "1A",
      "postcode": "6230-500",
      "city": "LAVACOLHOS",
      "lon": "-7.618544259033569",
      "lat": "40.13197814834165"
    },
    {
      "id": "pt.ine.add.PTCONT.997650",
      "street": "R PEREIRINHA",
      "house": "6",
      "postcode": "6230-500",
      "city": "LAVACOLHOS",
      "lon": "-7.616879798725072",
      "lat": "40.1317636042753"
    },
    {
      "id": "pt.ine.add.PTCONT.997651",
      "street": "R ADRO",
      "house": "7",
      "postcode": "6230-500",
      "city": "LAVACOLHOS",
      "lon": "-7.6191441135886935",
      "lat": "40.1317826816339"
    },
    {
      "id": "pt.ine.add.PTCONT.1000382",
      "street": "R ADRO",
      "house": "13A",
      "postcode": "6230-500",
      "city": "LAVACOLHOS",
      "lon": "-7.619367303416059",
      "lat": "40.13174764823495"
    },
    {
      "id": "pt.ine.add.PTCONT.1018713",
      "street": "R ADRO",
      "house": "17",
      "postcode": "6230-500",
      "city": "LAVACOLHOS",
      "lon": "-7.61950829740717",
      "lat": "40.13172125583003"
    },
    {
      "id": "pt.ine.add.PTCONT.1031137",
      "street": "R PEREIRINHA",
      "house": "14",
      "postcode": "6230-500",
      "city": "LAVACOLHOS",
      "lon": "-7.61755086773511",
      "lat": "40.1314603920695"
    },
    {
      "id": "pt.ine.add.PTCONT.1041504",
      "street": "R STA HELENA",
      "house": "3",
      "postcode": "6230-500",
      "city": "LAVACOLHOS",
      "lon": "-7.617843840177839",
      "lat": "40.13150672563065"
    },
    {
      "id": "pt.ine.add.PTCONT.1042594",
      "street": "R ADRO",
      "house": "3",
      "postcode": "6230-500",
      "city": "LAVACOLHOS",
      "lon": "-7.618991183199317",
      "lat": "40.131836038398355"
    },
    {
      "id": "pt.ine.add.PTCONT.1048277",
      "street": "R STA HELENA",
      "house": "16",
      "postcode": "6230-500",
      "city": "LAVACOLHOS",
      "lon": "-7.617631294315047",
      "lat": "40.1316858983746"
    },
    {
      "id": "pt.ine.add.PTCONT.1057296",
      "street": "R FIGUEIRAS",
      "house": "10",
      "postcode": "6230-500",
      "city": "LAVACOLHOS",
      "lon": "-7.619567095707902",
      "lat": "40.131703504720434"
    },
    {
      "id": "pt.ine.add.PTCONT.1061035",
      "street": "R PEREIRINHA",
      "house": "22",
      "postcode": "6230-500",
      "city": "LAVACOLHOS",
      "lon": "-7.617868325269805",
      "lat": "40.131371745595665"
    },
    {
      "id": "pt.ine.add.PTCONT.1061913",
      "street": "R FIGUEIRAS",
      "house": "6",
      "postcode": "6230-500",
      "city": "LAVACOLHOS",
      "lon": "-7.619380663312831",
      "lat": "40.13153156514014"
    },
    {
      "id": "pt.ine.add.PTCONT.1074609",
      "street": "R PEREIRINHA",
      "house": "2",
      "postcode": "6230-500",
      "city": "LAVACOLHOS",
      "lon": "-7.616443648578036",
      "lat": "40.13203183715929"
    },
    {
      "id": "pt.ine.add.PTCONT.1076732",
      "street": "R ADRO",
      "house": "11",
      "postcode": "6230-500",
      "city": "LAVACOLHOS",
      "lon": "-7.619308505026264",
      "lat": "40.131765399242376"
    },
    {
      "id": "pt.ine.add.PTCONT.1077826",
      "street": "R ADRO",
      "house": "5",
      "postcode": "6230-500",
      "city": "LAVACOLHOS",
      "lon": "-7.619085111575702",
      "lat": "40.13182744941805"
    },
    {
      "id": "pt.ine.add.PTCONT.1084556",
      "street": "R SANTO AMARO",
      "house": "13",
      "postcode": "6230-500",
      "city": "LAVACOLHOS",
      "lon": "-7.618062679028941",
      "lat": "40.13204805498219"
    },
    {
      "id": "pt.ine.add.PTCONT.1087011",
      "street": "R PEREIRINHA",
      "house": "12",
      "postcode": "6230-500",
      "city": "LAVACOLHOS",
      "lon": "-7.617433270496412",
      "lat": "40.13149589220867"
    },
    {
      "id": "pt.ine.add.PTCONT.1090400",
      "street": "R ADRO",
      "house": "9",
      "postcode": "6230-500",
      "city": "LAVACOLHOS",
      "lon": "-7.619226241490937",
      "lat": "40.13178304609786"
    }
  ]
}