{
  "data": {
    "distrito": "Setúbal",
    "concelho": "Almada",
    "freguesia": "União das freguesias de Almada, Cova da Piedade, Pragal e Cacilhas",
    "OBJECTID": 1513,
    "BGRI2021": "15031200702",
    "DT21": "15",
    "DTMN21": "1503",
    "DTMNFR21": "150312",
    "DTMNFRSEC21": "150312007",
    "SECNUM21": "007",
    "SSNUM21": "02",
    "SECSSNUM21": "00702",
    "OBJECTID_1": 162453,
    "DT": "15",
    "CC": "03",
    "fr": "12",
    "SEC": "007",
    "SS": "02"
  },
  "addresses": [
    {
      "id": "pt.ine.add.PTCONT.4691543",
      "street": "R AFONSO GALO",
      "house": "56A",
      "postcode": "2800-668",
      "city": "ALMADA",
      "lon": "-9.164303249958678",
      "lat": "38.678996440442816"
    },
    {
      "id": "pt.ine.add.PTCONT.4696075",
      "street": "R D LEONOR DE MASCARENHAS",
      "house": "18",
      "postcode": "2800-147",
      "city": "ALMADA",
      "lon": "-9.162398188310409",
      "lat": "38.679977071407535"
    },
    {
      "id": "pt.ine.add.PTCONT.4696076",
      "street": "R D LEONOR DE MASCARENHAS",
      "house": "18",
      "postcode": "2800-147",
      "city": "ALMADA",
      "lon": "-9.162398188310409",
      "lat": "38.679977071407535"
    },
    {
      "id": "pt.ine.add.PTCONT.4699698",
      "street": "R AFONSO GALO",
      "house": "24",
      "postcode": "2800-668",
      "city": "ALMADA",
      "lon": "-9.162470105117844",
      "lat": "38.67938191526743"
    },
    {
      "id": "pt.ine.add.PTCONT.4699699",
      "street": "R AFONSO GALO",
      "house": "24",
      "postcode": "2800-668",
      "city": "ALMADA",
      "lon": "-9.162470105117844",
      "lat": "38.67938191526743"
    },
    {
      "id": "pt.ine.add.PTCONT.4699700",
      "street": "R AFONSO GALO",
      "house": "24",
      "postcode": "2800-668",
      "city": "ALMADA",
      "lon": "-9.162470105117844",
      "lat": "38.67938191526743"
    },
    {
      "id": "pt.ine.add.PTCONT.4699701",
      "street": "R AFONSO GALO",
      "house": "24",
      "postcode": "2800-668",
      "city": "ALMADA",
      "lon": "-9.162470105117844",
      "lat": "38.67938191526743"
    },
    {
      "id": "pt.ine.add.PTCONT.4699702",
      "street": "R AFONSO GALO",
      "house": "24",
      "postcode": "2800-668",
      "city": "ALMADA",
      "lon": "-9.162470105117844",
      "lat": "38.67938191526743"
    },
    {
      "id": "pt.ine.add.PTCONT.4699703",
      "street": "R AFONSO GALO",
      "house": "24",
      "postcode": "2800-668",
      "city": "ALMADA",
      "lon": "-9.162470105117844",
      "lat": "38.67938191526743"
    },
    {
      "id": "pt.ine.add.PTCONT.4709990",
      "street": "R D LEONOR DE MASCARENHAS",
      "house": "24",
      "postcode": "2800-147",
      "city": "ALMADA",
      "lon": "-9.162108349210925",
      "lat": "38.67979946354296"
    },
    {
      "id": "pt.ine.add.PTCONT.4709991",
      "street": "R D LEONOR DE MASCARENHAS",
      "house": "24",
      "postcode": "2800-147",
      "city": "ALMADA",
      "lon": "-9.162108349210925",
      "lat": "38.67979946354296"
    },
    {
      "id": "pt.ine.add.PTCONT.4709992",
      "street": "R D LEONOR DE MASCARENHAS",
      "house": "24",
      "postcode": "2800-147",
      "city": "ALMADA",
      "lon": "-9.162108349210925",
      "lat": "38.67979946354296"
    },
    {
      "id": "pt.ine.add.PTCONT.4725463",
      "street": "R AFONSO GALO",
      "house": "28",
      "postcode": "2800-668",
      "city": "ALMADA",
      "lon": "-9.162720697327046",
      "lat": "38.67922657451046"
    },
    {
      "id": "pt.ine.add.PTCONT.4725464",
      "street": "R AFONSO GALO",
      "house": "28",
      "postcode": "2800-668",
      "city": "ALMADA",
      "lon": "-9.162720697327046",
      "lat": "38.67922657451046"
    },
    {
      "id": "pt.ine.add.PTCONT.4725465",
      "street": "R AFONSO GALO",
      "house": "28",
      "postcode": "2800-668",
      "city": "ALMADA",
      "lon": "-9.162720697327046",
      "lat": "38.67922657451046"
    },
    {
      "id": "pt.ine.add.PTCONT.4725466",
      "street": "R AFONSO GALO",
      "house": "28",
      "postcode": "2800-668",
      "city": "ALMADA",
      "lon": "-9.162720697327046",
      "lat": "38.67922657451046"
    },
    {
      "id": "pt.ine.add.PTCONT.4725467",
      "street": "R AFONSO GALO",
      "house": "28",
      "postcode": "2800-668",
      "city": "ALMADA",
      "lon": "-9.162720697327046",
      "lat": "38.67922657451046"
    },
    {
      "id": "pt.ine.add.PTCONT.4728361",
      "street": "R AFONSO GALO",
      "house": "28",
      "postcode": "2800-668",
      "city": "ALMADA",
      "lon": "-9.162720697327046",
      "lat": "38.67922657451046"
    },
    {
      "id": "pt.ine.add.PTCONT.4732954",
      "street": "R AFONSO GALO",
      "house": "48",
      "postcode": "2800-668",
      "city": "ALMADA",
      "lon": "-9.1639934018263",
      "lat": "38.67902619596984"
    },
    {
      "id": "pt.ine.add.PTCONT.4739944",
      "street": "R FERNÃO LOURENÇO",
      "house": "33",
      "postcode": "2800-074",
      "city": "ALMADA",
      "lon": "-9.163149839179653",
      "lat": "38.67950204118591"
    },
    {
      "id": "pt.ine.add.PTCONT.4739945",
      "street": "R FERNÃO LOURENÇO",
      "house": "33",
      "postcode": "2800-074",
      "city": "ALMADA",
      "lon": "-9.163149839179653",
      "lat": "38.67950204118591"
    },
    {
      "id": "pt.ine.add.PTCONT.4739946",
      "street": "R FERNÃO LOURENÇO",
      "house": "33",
      "postcode": "2800-074",
      "city": "ALMADA",
      "lon": "-9.163149839179653",
      "lat": "38.67950204118591"
    },
    {
      "id": "pt.ine.add.PTCONT.4740317",
      "street": "R FERNÃO LOURENÇO",
      "house": "33",
      "postcode": "2800-074",
      "city": "ALMADA",
      "lon": "-9.163149839179653",
      "lat": "38.67950204118591"
    },
    {
      "id": "pt.ine.add.PTCONT.4742815",
      "street": "R FERNÃO LOURENÇO",
      "house": "33",
      "postcode": "2800-074",
      "city": "ALMADA",
      "lon": "-9.163149839179653",
      "lat": "38.67950204118591"
    },
    {
      "id": "pt.ine.add.PTCONT.4745679",
      "street": "R D LEONOR DE MASCARENHAS",
      "house": "18 A",
      "postcode": "2800-147",
      "city": "ALMADA",
      "lon": "-9.162270891136718",
      "lat": "38.67991513626232"
    },
    {
      "id": "pt.ine.add.PTCONT.4745680",
      "street": "R D LEONOR DE MASCARENHAS",
      "house": "18 A",
      "postcode": "2800-147",
      "city": "ALMADA",
      "lon": "-9.162270891136718",
      "lat": "38.67991513626232"
    },
    {
      "id": "pt.ine.add.PTCONT.4745681",
      "street": "R D LEONOR DE MASCARENHAS",
      "house": "18 A",
      "postcode": "2800-147",
      "city": "ALMADA",
      "lon": "-9.162270891136718",
      "lat": "38.67991513626232"
    },
    {
      "id": "pt.ine.add.PTCONT.4769213",
      "street": "R FERNÃO LOURENÇO",
      "house": "23",
      "postcode": "2800-074",
      "city": "ALMADA",
      "lon": "-9.162681834182017",
      "lat": "38.67972235262442"
    },
    {
      "id": "pt.ine.add.PTCONT.4769214",
      "street": "R FERNÃO LOURENÇO",
      "house": "23",
      "postcode": "2800-074",
      "city": "ALMADA",
      "lon": "-9.162681834182017",
      "lat": "38.67972235262442"
    },
    {
      "id": "pt.ine.add.PTCONT.4769215",
      "street": "R FERNÃO LOURENÇO",
      "house": "23",
      "postcode": "2800-074",
      "city": "ALMADA",
      "lon": "-9.162681834182017",
      "lat": "38.67972235262442"
    },
    {
      "id": "pt.ine.add.PTCONT.4769216",
      "street": "R FERNÃO LOURENÇO",
      "house": "23",
      "postcode": "2800-074",
      "city": "ALMADA",
      "lon": "-9.162681834182017",
      "lat": "38.67972235262442"
    },
    {
      "id": "pt.ine.add.PTCONT.4769217",
      "street": "R FERNÃO LOURENÇO",
      "house": "23",
      "postcode": "2800-074",
      "city": "ALMADA",
      "lon": "-9.162681834182017",
      "lat": "38.67972235262442"
    },
    {
      "id": "pt.ine.add.PTCONT.4769218",
      "street": "R FERNÃO LOURENÇO",
      "house": "23",
      "postcode": "2800-074",
      "city": "ALMADA",
      "lon": "-9.162681834182017",
      "lat": "38.67972235262442"
    },
    {
      "id": "pt.ine.add.PTCONT.4771863",
      "street": "R FERNÃO LOURENÇO",
      "house": "23",
      "postcode": "2800-074",
      "city": "ALMADA",
      "lon": "-9.162681834182017",
      "lat": "38.67972235262442"
    },
    {
      "id": "pt.ine.add.PTCONT.4794785",
      "street": "R FERNAO LOURENCO",
      "house": "19",
      "postcode": "2800-074",
      "city": "ALMADA",
      "lon": "-9.162580227742668",
      "lat": "38.679849358080986"
    },
    {
      "id": "pt.ine.add.PTCONT.4794786",
      "street": "R FERNAO LOURENCO",
      "house": "19",
      "postcode": "2800-074",
      "city": "ALMADA",
      "lon": "-9.162580227742668",
      "lat": "38.679849358080986"
    },
    {
      "id": "pt.ine.add.PTCONT.4796239",
      "street": "R FERNAO LOURENCO",
      "house": "19 A",
      "postcode": "2800-074",
      "city": "ALMADA",
      "lon": "-9.162580227742668",
      "lat": "38.679849358080986"
    },
    {
      "id": "pt.ine.add.PTCONT.4796636",
      "street": "R FERNÃO LOURENÇO",
      "house": "25",
      "postcode": "2800-074",
      "city": "ALMADA",
      "lon": "-9.162738640552064",
      "lat": "38.679676812861196"
    },
    {
      "id": "pt.ine.add.PTCONT.4796637",
      "street": "R FERNÃO LOURENÇO",
      "house": "25",
      "postcode": "2800-074",
      "city": "ALMADA",
      "lon": "-9.162738640552064",
      "lat": "38.679676812861196"
    },
    {
      "id": "pt.ine.add.PTCONT.4796638",
      "street": "R FERNÃO LOURENÇO",
      "house": "25",
      "postcode": "2800-074",
      "city": "ALMADA",
      "lon": "-9.162738640552064",
      "lat": "38.679676812861196"
    },
    {
      "id": "pt.ine.add.PTCONT.4796639",
      "street": "R FERNÃO LOURENÇO",
      "house": "25",
      "postcode": "2800-074",
      "city": "ALMADA",
      "lon": "-9.162738640552064",
      "lat": "38.679676812861196"
    },
    {
      "id": "pt.ine.add.PTCONT.4796640",
      "street": "R FERNÃO LOURENÇO",
      "house": "25",
      "postcode": "2800-074",
      "city": "ALMADA",
      "lon": "-9.162738640552064",
      "lat": "38.679676812861196"
    },
    {
      "id": "pt.ine.add.PTCONT.4796641",
      "street": "R FERNÃO LOURENÇO",
      "house": "25",
      "postcode": "2800-074",
      "city": "ALMADA",
      "lon": "-9.162738640552064",
      "lat": "38.679676812861196"
    },
    {
      "id": "pt.ine.add.PTCONT.4796642",
      "street": "R FERNÃO LOURENÇO",
      "house": "25",
      "postcode": "2800-074",
      "city": "ALMADA",
      "lon": "-9.162738640552064",
      "lat": "38.679676812861196"
    },
    {
      "id": "pt.ine.add.PTCONT.4796643",
      "street": "R FERNÃO LOURENÇO",
      "house": "25",
      "postcode": "2800-074",
      "city": "ALMADA",
      "lon": "-9.162738640552064",
      "lat": "38.679676812861196"
    },
    {
      "id": "pt.ine.add.PTCONT.4798854",
      "street": "R AFONSO GALO",
      "house": "46",
      "postcode": "2800-668",
      "city": "ALMADA",
      "lon": "-9.163890119054438",
      "lat": "38.679036114297155"
    },
    {
      "id": "pt.ine.add.PTCONT.4798855",
      "street": "R AFONSO GALO",
      "house": "46",
      "postcode": "2800-668",
      "city": "ALMADA",
      "lon": "-9.163890119054438",
      "lat": "38.679036114297155"
    },
    {
      "id": "pt.ine.add.PTCONT.4825499",
      "street": "R AFONSO GALO",
      "house": "32",
      "postcode": "2800-668",
      "city": "ALMADA",
      "lon": "-9.163041908077671",
      "lat": "38.679187714354164"
    },
    {
      "id": "pt.ine.add.PTCONT.4825500",
      "street": "R AFONSO GALO",
      "house": "32",
      "postcode": "2800-668",
      "city": "ALMADA",
      "lon": "-9.163041908077671",
      "lat": "38.679187714354164"
    },
    {
      "id": "pt.ine.add.PTCONT.4825501",
      "street": "R AFONSO GALO",
      "house": "32",
      "postcode": "2800-668",
      "city": "ALMADA",
      "lon": "-9.163041908077671",
      "lat": "38.679187714354164"
    },
    {
      "id": "pt.ine.add.PTCONT.4825502",
      "street": "R AFONSO GALO",
      "house": "32",
      "postcode": "2800-668",
      "city": "ALMADA",
      "lon": "-9.163041908077671",
      "lat": "38.679187714354164"
    },
    {
      "id": "pt.ine.add.PTCONT.4825507",
      "street": "R AFONSO GALO",
      "house": "32",
      "postcode": "2800-668",
      "city": "ALMADA",
      "lon": "-9.163041908077671",
      "lat": "38.679187714354164"
    },
    {
      "id": "pt.ine.add.PTCONT.4825508",
      "street": "R AFONSO GALO",
      "house": "32",
      "postcode": "2800-668",
      "city": "ALMADA",
      "lon": "-9.163041908077671",
      "lat": "38.679187714354164"
    },
    {
      "id": "pt.ine.add.PTCONT.4825509",
      "street": "R AFONSO GALO",
      "house": "34",
      "postcode": "2800-668",
      "city": "ALMADA",
      "lon": "-9.163201996849407",
      "lat": "38.67913225678915"
    },
    {
      "id": "pt.ine.add.PTCONT.4825510",
      "street": "R AFONSO GALO",
      "house": "34",
      "postcode": "2800-668",
      "city": "ALMADA",
      "lon": "-9.163201996849407",
      "lat": "38.67913225678915"
    },
    {
      "id": "pt.ine.add.PTCONT.4825511",
      "street": "R AFONSO GALO",
      "house": "34",
      "postcode": "2800-668",
      "city": "ALMADA",
      "lon": "-9.163201996849407",
      "lat": "38.67913225678915"
    },
    {
      "id": "pt.ine.add.PTCONT.4825512",
      "street": "R AFONSO GALO",
      "house": "34",
      "postcode": "2800-668",
      "city": "ALMADA",
      "lon": "-9.163201996849407",
      "lat": "38.67913225678915"
    },
    {
      "id": "pt.ine.add.PTCONT.4825513",
      "street": "R AFONSO GALO",
      "house": "34",
      "postcode": "2800-668",
      "city": "ALMADA",
      "lon": "-9.163201996849407",
      "lat": "38.67913225678915"
    },
    {
      "id": "pt.ine.add.PTCONT.4828153",
      "street": "R AFONSO GALO",
      "house": "34",
      "postcode": "2800-668",
      "city": "ALMADA",
      "lon": "-9.163201996849407",
      "lat": "38.67913225678915"
    },
    {
      "id": "pt.ine.add.PTCONT.4833818",
      "street": "R AFONSO GALO",
      "house": "50",
      "postcode": "2800-668",
      "city": "ALMADA",
      "lon": "-9.164062213916017",
      "lat": "38.679016581438766"
    },
    {
      "id": "pt.ine.add.PTCONT.4833819",
      "street": "R AFONSO GALO",
      "house": "50",
      "postcode": "2800-668",
      "city": "ALMADA",
      "lon": "-9.164062213916017",
      "lat": "38.679016581438766"
    },
    {
      "id": "pt.ine.add.PTCONT.4848928",
      "street": "R AFONSO GALO",
      "house": "12",
      "postcode": "2800-668",
      "city": "ALMADA",
      "lon": "-9.16200364637132",
      "lat": "38.67971030551228"
    },
    {
      "id": "pt.ine.add.PTCONT.4848929",
      "street": "R AFONSO GALO",
      "house": "12",
      "postcode": "2800-668",
      "city": "ALMADA",
      "lon": "-9.16200364637132",
      "lat": "38.67971030551228"
    },
    {
      "id": "pt.ine.add.PTCONT.4854434",
      "street": "R FERNÃO LOURENÇO",
      "house": "29",
      "postcode": "2800-074",
      "city": "ALMADA",
      "lon": "-9.162898214326411",
      "lat": "38.679585328539375"
    },
    {
      "id": "pt.ine.add.PTCONT.4854435",
      "street": "R FERNÃO LOURENÇO",
      "house": "29",
      "postcode": "2800-074",
      "city": "ALMADA",
      "lon": "-9.162898214326411",
      "lat": "38.679585328539375"
    },
    {
      "id": "pt.ine.add.PTCONT.4854436",
      "street": "R FERNÃO LOURENÇO",
      "house": "29",
      "postcode": "2800-074",
      "city": "ALMADA",
      "lon": "-9.162898214326411",
      "lat": "38.679585328539375"
    },
    {
      "id": "pt.ine.add.PTCONT.4854437",
      "street": "R FERNÃO LOURENÇO",
      "house": "29",
      "postcode": "2800-074",
      "city": "ALMADA",
      "lon": "-9.162898214326411",
      "lat": "38.679585328539375"
    },
    {
      "id": "pt.ine.add.PTCONT.4854438",
      "street": "R FERNÃO LOURENÇO",
      "house": "29",
      "postcode": "2800-074",
      "city": "ALMADA",
      "lon": "-9.162898214326411",
      "lat": "38.679585328539375"
    },
    {
      "id": "pt.ine.add.PTCONT.4854439",
      "street": "R FERNÃO LOURENÇO",
      "house": "29",
      "postcode": "2800-074",
      "city": "ALMADA",
      "lon": "-9.162898214326411",
      "lat": "38.679585328539375"
    },
    {
      "id": "pt.ine.add.PTCONT.4876363",
      "street": "R AFONSO GALO",
      "house": "30",
      "postcode": "2800-668",
      "city": "ALMADA",
      "lon": "-9.162892793000209",
      "lat": "38.67920704336305"
    },
    {
      "id": "pt.ine.add.PTCONT.4876364",
      "street": "R AFONSO GALO",
      "house": "30",
      "postcode": "2800-668",
      "city": "ALMADA",
      "lon": "-9.162892793000209",
      "lat": "38.67920704336305"
    },
    {
      "id": "pt.ine.add.PTCONT.4876365",
      "street": "R AFONSO GALO",
      "house": "30",
      "postcode": "2800-668",
      "city": "ALMADA",
      "lon": "-9.162892793000209",
      "lat": "38.67920704336305"
    },
    {
      "id": "pt.ine.add.PTCONT.4876366",
      "street": "R AFONSO GALO",
      "house": "30",
      "postcode": "2800-668",
      "city": "ALMADA",
      "lon": "-9.162892793000209",
      "lat": "38.67920704336305"
    },
    {
      "id": "pt.ine.add.PTCONT.4876367",
      "street": "R AFONSO GALO",
      "house": "30",
      "postcode": "2800-668",
      "city": "ALMADA",
      "lon": "-9.162892793000209",
      "lat": "38.67920704336305"
    },
    {
      "id": "pt.ine.add.PTCONT.4878014",
      "street": "R AFONSO GALO",
      "house": "30",
      "postcode": "2800-668",
      "city": "ALMADA",
      "lon": "-9.162892793000209",
      "lat": "38.67920704336305"
    },
    {
      "id": "pt.ine.add.PTCONT.4878835",
      "street": "R FERNÃO LOURENÇO",
      "house": "49",
      "postcode": "2800-074",
      "city": "ALMADA",
      "lon": "-9.164216756477503",
      "lat": "38.679375535980725"
    },
    {
      "id": "pt.ine.add.PTCONT.4904674",
      "street": "R AFONSO GALO",
      "house": "20",
      "postcode": "2800-668",
      "city": "ALMADA",
      "lon": "-9.162241589450229",
      "lat": "38.679474005726625"
    },
    {
      "id": "pt.ine.add.PTCONT.4911890",
      "street": "R D LEONOR DE MASCARENHAS",
      "house": "26",
      "postcode": "2800-147",
      "city": "ALMADA",
      "lon": "-9.16203914916532",
      "lat": "38.67978205656177"
    },
    {
      "id": "pt.ine.add.PTCONT.4911891",
      "street": "R FERNÃO LOURENÇO",
      "house": "43",
      "postcode": "2800-074",
      "city": "ALMADA",
      "lon": "-9.16395312621602",
      "lat": "38.6794228997461"
    },
    {
      "id": "pt.ine.add.PTCONT.4911892",
      "street": "R FERNÃO LOURENÇO",
      "house": "43",
      "postcode": "2800-074",
      "city": "ALMADA",
      "lon": "-9.16395312621602",
      "lat": "38.6794228997461"
    },
    {
      "id": "pt.ine.add.PTCONT.4933922",
      "street": "R FERNÃO LOURENÇO",
      "house": "37",
      "postcode": "2800-074",
      "city": "ALMADA",
      "lon": "-9.163493644018121",
      "lat": "38.679435956998375"
    },
    {
      "id": "pt.ine.add.PTCONT.4934067",
      "street": "R FERNÃO LOURENÇO",
      "house": "37",
      "postcode": "2800-074",
      "city": "ALMADA",
      "lon": "-9.163493644018121",
      "lat": "38.679435956998375"
    },
    {
      "id": "pt.ine.add.PTCONT.4934068",
      "street": "R FERNÃO LOURENÇO",
      "house": "37",
      "postcode": "2800-074",
      "city": "ALMADA",
      "lon": "-9.163493644018121",
      "lat": "38.679435956998375"
    },
    {
      "id": "pt.ine.add.PTCONT.4934069",
      "street": "R FERNÃO LOURENÇO",
      "house": "37",
      "postcode": "2800-074",
      "city": "ALMADA",
      "lon": "-9.163493644018121",
      "lat": "38.679435956998375"
    },
    {
      "id": "pt.ine.add.PTCONT.4935265",
      "street": "R FERNÃO LOURENÇO",
      "house": "37",
      "postcode": "2800-074",
      "city": "ALMADA",
      "lon": "-9.163493644018121",
      "lat": "38.679435956998375"
    },
    {
      "id": "pt.ine.add.PTCONT.4947620",
      "street": "R AFONSO GALO",
      "house": "54",
      "postcode": "2800-668",
      "city": "ALMADA",
      "lon": "-9.164234437923634",
      "lat": "38.67900605511505"
    },
    {
      "id": "pt.ine.add.PTCONT.4947621",
      "street": "R AFONSO GALO",
      "house": "54",
      "postcode": "2800-668",
      "city": "ALMADA",
      "lon": "-9.164234437923634",
      "lat": "38.67900605511505"
    },
    {
      "id": "pt.ine.add.PTCONT.4949842",
      "street": "R AFONSO GALO",
      "house": "38",
      "postcode": "2800-668",
      "city": "ALMADA",
      "lon": "-9.163488477890514",
      "lat": "38.67907568546073"
    },
    {
      "id": "pt.ine.add.PTCONT.4949843",
      "street": "R AFONSO GALO",
      "house": "38",
      "postcode": "2800-668",
      "city": "ALMADA",
      "lon": "-9.163488477890514",
      "lat": "38.67907568546073"
    },
    {
      "id": "pt.ine.add.PTCONT.4949882",
      "street": "R FERNÃO LOURENÇO",
      "house": "21",
      "postcode": "2800-074",
      "city": "ALMADA",
      "lon": "-9.162613537397347",
      "lat": "38.679767993514574"
    },
    {
      "id": "pt.ine.add.PTCONT.4949883",
      "street": "R FERNÃO LOURENÇO",
      "house": "21",
      "postcode": "2800-074",
      "city": "ALMADA",
      "lon": "-9.162613537397347",
      "lat": "38.679767993514574"
    },
    {
      "id": "pt.ine.add.PTCONT.4949884",
      "street": "R FERNÃO LOURENÇO",
      "house": "21",
      "postcode": "2800-074",
      "city": "ALMADA",
      "lon": "-9.162613537397347",
      "lat": "38.679767993514574"
    },
    {
      "id": "pt.ine.add.PTCONT.4949885",
      "street": "R FERNÃO LOURENÇO",
      "house": "21",
      "postcode": "2800-074",
      "city": "ALMADA",
      "lon": "-9.162613537397347",
      "lat": "38.679767993514574"
    },
    {
      "id": "pt.ine.add.PTCONT.4949903",
      "street": "R FERNÃO LOURENÇO",
      "house": "21",
      "postcode": "2800-074",
      "city": "ALMADA",
      "lon": "-9.162613537397347",
      "lat": "38.679767993514574"
    },
    {
      "id": "pt.ine.add.PTCONT.4949904",
      "street": "R FERNÃO LOURENÇO",
      "house": "21",
      "postcode": "2800-074",
      "city": "ALMADA",
      "lon": "-9.162613537397347",
      "lat": "38.679767993514574"
    },
    {
      "id": "pt.ine.add.PTCONT.4957671",
      "street": "R FERNAO LOURENCO",
      "house": "79",
      "postcode": "2800-074",
      "city": "ALMADA",
      "lon": "-9.163653991324525",
      "lat": "38.67939851238997"
    },
    {
      "id": "pt.ine.add.PTCONT.4957672",
      "street": "R FERNAO LOURENCO",
      "house": "39",
      "postcode": "2800-074",
      "city": "ALMADA",
      "lon": "-9.163653991324525",
      "lat": "38.67939851238997"
    },
    {
      "id": "pt.ine.add.PTCONT.4957673",
      "street": "R FERNAO LOURENCO",
      "house": "79",
      "postcode": "2800-074",
      "city": "ALMADA",
      "lon": "-9.163653991324525",
      "lat": "38.67939851238997"
    },
    {
      "id": "pt.ine.add.PTCONT.4964628",
      "street": "R PAULA VICENTE",
      "house": "3",
      "postcode": "2800-185",
      "city": "ALMADA",
      "lon": "-9.164430417919124",
      "lat": "38.67904936659737"
    },
    {
      "id": "pt.ine.add.PTCONT.4964635",
      "street": "R PAULA VICENTE",
      "house": "3",
      "postcode": "2800-185",
      "city": "ALMADA",
      "lon": "-9.164430417919124",
      "lat": "38.67904936659737"
    },
    {
      "id": "pt.ine.add.PTCONT.4964636",
      "street": "R PAULA VICENTE",
      "house": "3",
      "postcode": "2800-185",
      "city": "ALMADA",
      "lon": "-9.164430417919124",
      "lat": "38.67904936659737"
    },
    {
      "id": "pt.ine.add.PTCONT.4964637",
      "street": "R PAULA VICENTE",
      "house": "3",
      "postcode": "2800-185",
      "city": "ALMADA",
      "lon": "-9.164430417919124",
      "lat": "38.67904936659737"
    },
    {
      "id": "pt.ine.add.PTCONT.4964638",
      "street": "R PAULA VICENTE",
      "house": "3",
      "postcode": "2800-185",
      "city": "ALMADA",
      "lon": "-9.164430417919124",
      "lat": "38.67904936659737"
    },
    {
      "id": "pt.ine.add.PTCONT.4964639",
      "street": "R PAULA VICENTE",
      "house": "3",
      "postcode": "2800-185",
      "city": "ALMADA",
      "lon": "-9.164430417919124",
      "lat": "38.67904936659737"
    },
    {
      "id": "pt.ine.add.PTCONT.4964640",
      "street": "R PAULA VICENTE",
      "house": "3",
      "postcode": "2800-185",
      "city": "ALMADA",
      "lon": "-9.164430417919124",
      "lat": "38.67904936659737"
    },
    {
      "id": "pt.ine.add.PTCONT.4964641",
      "street": "R PAULA VICENTE",
      "house": "3",
      "postcode": "2800-185",
      "city": "ALMADA",
      "lon": "-9.164430417919124",
      "lat": "38.67904936659737"
    },
    {
      "id": "pt.ine.add.PTCONT.4964642",
      "street": "R PAULA VICENTE",
      "house": "3",
      "postcode": "2800-185",
      "city": "ALMADA",
      "lon": "-9.164430417919124",
      "lat": "38.67904936659737"
    },
    {
      "id": "pt.ine.add.PTCONT.4964643",
      "street": "R PAULA VICENTE",
      "house": "3",
      "postcode": "2800-185",
      "city": "ALMADA",
      "lon": "-9.164430417919124",
      "lat": "38.67904936659737"
    },
    {
      "id": "pt.ine.add.PTCONT.4964644",
      "street": "R PAULA VICENTE",
      "house": "3",
      "postcode": "2800-185",
      "city": "ALMADA",
      "lon": "-9.164430417919124",
      "lat": "38.67904936659737"
    },
    {
      "id": "pt.ine.add.PTCONT.4964645",
      "street": "R PAULA VICENTE",
      "house": "3",
      "postcode": "2800-185",
      "city": "ALMADA",
      "lon": "-9.164430417919124",
      "lat": "38.67904936659737"
    },
    {
      "id": "pt.ine.add.PTCONT.4968005",
      "street": "R AFONSO GALO",
      "house": "18",
      "postcode": "2800-668",
      "city": "ALMADA",
      "lon": "-9.162184911907904",
      "lat": "38.6795285520438"
    },
    {
      "id": "pt.ine.add.PTCONT.4975615",
      "street": "R FERNÃO LOURENÇO",
      "house": "47",
      "postcode": "2800-074",
      "city": "ALMADA",
      "lon": "-9.164124963515869",
      "lat": "38.67938535321086"
    },
    {
      "id": "pt.ine.add.PTCONT.4997368",
      "street": "R FERNÃO LOURENÇO",
      "house": "35",
      "postcode": "2800-074",
      "city": "ALMADA",
      "lon": "-9.163310315954035",
      "lat": "38.679473603833486"
    },
    {
      "id": "pt.ine.add.PTCONT.4997369",
      "street": "R FERNÃO LOURENÇO",
      "house": "35",
      "postcode": "2800-074",
      "city": "ALMADA",
      "lon": "-9.163310315954035",
      "lat": "38.679473603833486"
    },
    {
      "id": "pt.ine.add.PTCONT.4997394",
      "street": "R FERNÃO LOURENÇO",
      "house": "35",
      "postcode": "2800-074",
      "city": "ALMADA",
      "lon": "-9.163310315954035",
      "lat": "38.679473603833486"
    },
    {
      "id": "pt.ine.add.PTCONT.4997395",
      "street": "R FERNÃO LOURENÇO",
      "house": "35",
      "postcode": "2800-074",
      "city": "ALMADA",
      "lon": "-9.163310315954035",
      "lat": "38.679473603833486"
    },
    {
      "id": "pt.ine.add.PTCONT.4997396",
      "street": "R FERNÃO LOURENÇO",
      "house": "35",
      "postcode": "2800-074",
      "city": "ALMADA",
      "lon": "-9.163310315954035",
      "lat": "38.679473603833486"
    },
    {
      "id": "pt.ine.add.PTCONT.5000132",
      "street": "R FERNÃO LOURENÇO",
      "house": "35",
      "postcode": "2800-074",
      "city": "ALMADA",
      "lon": "-9.163310315954035",
      "lat": "38.679473603833486"
    },
    {
      "id": "pt.ine.add.PTCONT.5007433",
      "street": "R AFONSO GALO",
      "house": "52",
      "postcode": "2800-668",
      "city": "ALMADA",
      "lon": "-9.164165367396151",
      "lat": "38.67899765617321"
    },
    {
      "id": "pt.ine.add.PTCONT.5007434",
      "street": "R AFONSO GALO",
      "house": "52",
      "postcode": "2800-668",
      "city": "ALMADA",
      "lon": "-9.164165367396151",
      "lat": "38.67899765617321"
    },
    {
      "id": "pt.ine.add.PTCONT.5023065",
      "street": "R AFONSO GALO",
      "house": "22",
      "postcode": "2800-668",
      "city": "ALMADA",
      "lon": "-9.162344486079213",
      "lat": "38.679437068470136"
    },
    {
      "id": "pt.ine.add.PTCONT.5023066",
      "street": "R AFONSO GALO",
      "house": "22",
      "postcode": "2800-668",
      "city": "ALMADA",
      "lon": "-9.162344486079213",
      "lat": "38.679437068470136"
    },
    {
      "id": "pt.ine.add.PTCONT.5023067",
      "street": "R AFONSO GALO",
      "house": "22",
      "postcode": "2800-668",
      "city": "ALMADA",
      "lon": "-9.162344486079213",
      "lat": "38.679437068470136"
    },
    {
      "id": "pt.ine.add.PTCONT.5023068",
      "street": "R AFONSO GALO",
      "house": "22",
      "postcode": "2800-668",
      "city": "ALMADA",
      "lon": "-9.162344486079213",
      "lat": "38.679437068470136"
    },
    {
      "id": "pt.ine.add.PTCONT.5023083",
      "street": "R AFONSO GALO",
      "house": "22",
      "postcode": "2800-668",
      "city": "ALMADA",
      "lon": "-9.162344486079213",
      "lat": "38.679437068470136"
    },
    {
      "id": "pt.ine.add.PTCONT.5026020",
      "street": "R AFONSO GALO",
      "house": "22",
      "postcode": "2800-668",
      "city": "ALMADA",
      "lon": "-9.162344486079213",
      "lat": "38.679437068470136"
    },
    {
      "id": "pt.ine.add.PTCONT.5026930",
      "street": "R PAULA VICENTE",
      "house": "1",
      "postcode": "2800-185",
      "city": "ALMADA",
      "lon": "-9.164467991181988",
      "lat": "38.67926522546141"
    },
    {
      "id": "pt.ine.add.PTCONT.5026931",
      "street": "R PAULA VICENTE",
      "house": "1",
      "postcode": "2800-185",
      "city": "ALMADA",
      "lon": "-9.164467991181988",
      "lat": "38.67926522546141"
    },
    {
      "id": "pt.ine.add.PTCONT.5026932",
      "street": "R PAULA VICENTE",
      "house": "1",
      "postcode": "2800-185",
      "city": "ALMADA",
      "lon": "-9.164467991181988",
      "lat": "38.67926522546141"
    },
    {
      "id": "pt.ine.add.PTCONT.5026938",
      "street": "R PAULA VICENTE",
      "house": "1",
      "postcode": "2800-185",
      "city": "ALMADA",
      "lon": "-9.164467991181988",
      "lat": "38.67926522546141"
    },
    {
      "id": "pt.ine.add.PTCONT.5026939",
      "street": "R PAULA VICENTE",
      "house": "1",
      "postcode": "2800-185",
      "city": "ALMADA",
      "lon": "-9.164467991181988",
      "lat": "38.67926522546141"
    },
    {
      "id": "pt.ine.add.PTCONT.5026940",
      "street": "R PAULA VICENTE",
      "house": "1",
      "postcode": "2800-185",
      "city": "ALMADA",
      "lon": "-9.164467991181988",
      "lat": "38.67926522546141"
    },
    {
      "id": "pt.ine.add.PTCONT.5026941",
      "street": "R PAULA VICENTE",
      "house": "1",
      "postcode": "2800-185",
      "city": "ALMADA",
      "lon": "-9.164467991181988",
      "lat": "38.67926522546141"
    },
    {
      "id": "pt.ine.add.PTCONT.5026942",
      "street": "R PAULA VICENTE",
      "house": "1",
      "postcode": "2800-185",
      "city": "ALMADA",
      "lon": "-9.164467991181988",
      "lat": "38.67926522546141"
    },
    {
      "id": "pt.ine.add.PTCONT.5026943",
      "street": "R PAULA VICENTE",
      "house": "1",
      "postcode": "2800-185",
      "city": "ALMADA",
      "lon": "-9.164467991181988",
      "lat": "38.67926522546141"
    },
    {
      "id": "pt.ine.add.PTCONT.5026944",
      "street": "R PAULA VICENTE",
      "house": "1",
      "postcode": "2800-185",
      "city": "ALMADA",
      "lon": "-9.164467991181988",
      "lat": "38.67926522546141"
    },
    {
      "id": "pt.ine.add.PTCONT.5029664",
      "street": "R PAULA VICENTE",
      "house": "1",
      "postcode": "2800-185",
      "city": "ALMADA",
      "lon": "-9.164467991181988",
      "lat": "38.67926522546141"
    },
    {
      "id": "pt.ine.add.PTCONT.5029666",
      "street": "R PAULA VICENTE",
      "house": "1",
      "postcode": "2800-185",
      "city": "ALMADA",
      "lon": "-9.164467991181988",
      "lat": "38.67926522546141"
    },
    {
      "id": "pt.ine.add.PTCONT.5030020",
      "street": "R PAULA VICENTE",
      "house": "1",
      "postcode": "2800-185",
      "city": "ALMADA",
      "lon": "-9.164467991181988",
      "lat": "38.67926522546141"
    },
    {
      "id": "pt.ine.add.PTCONT.5030021",
      "street": "R PAULA VICENTE",
      "house": "1",
      "postcode": "2800-185",
      "city": "ALMADA",
      "lon": "-9.164467991181988",
      "lat": "38.67926522546141"
    },
    {
      "id": "pt.ine.add.PTCONT.5030522",
      "street": "R PAULA VICENTE",
      "house": "1",
      "postcode": "2800-185",
      "city": "ALMADA",
      "lon": "-9.164467991181988",
      "lat": "38.67926522546141"
    },
    {
      "id": "pt.ine.add.PTCONT.5048663",
      "street": "R AFONSO GALO",
      "house": "14-A",
      "postcode": "2800-668",
      "city": "ALMADA",
      "lon": "-9.162071427588998",
      "lat": "38.6796286378059"
    },
    {
      "id": "pt.ine.add.PTCONT.5051667",
      "street": "R AFONSO GALO",
      "house": "14",
      "postcode": "2800-668",
      "city": "ALMADA",
      "lon": "-9.162071427588998",
      "lat": "38.6796286378059"
    },
    {
      "id": "pt.ine.add.PTCONT.5052646",
      "street": "R FERNÃO LOURENÇO",
      "house": "31",
      "postcode": "2800-074",
      "city": "ALMADA",
      "lon": "-9.163000594390933",
      "lat": "38.67951236355059"
    },
    {
      "id": "pt.ine.add.PTCONT.5052647",
      "street": "R FERNÃO LOURENÇO",
      "house": "31",
      "postcode": "2800-074",
      "city": "ALMADA",
      "lon": "-9.163000594390933",
      "lat": "38.67951236355059"
    },
    {
      "id": "pt.ine.add.PTCONT.5052648",
      "street": "R FERNÃO LOURENÇO",
      "house": "31",
      "postcode": "2800-074",
      "city": "ALMADA",
      "lon": "-9.163000594390933",
      "lat": "38.67951236355059"
    },
    {
      "id": "pt.ine.add.PTCONT.5052649",
      "street": "R FERNÃO LOURENÇO",
      "house": "31",
      "postcode": "2800-074",
      "city": "ALMADA",
      "lon": "-9.163000594390933",
      "lat": "38.67951236355059"
    },
    {
      "id": "pt.ine.add.PTCONT.5052650",
      "street": "R FERNÃO LOURENÇO",
      "house": "31",
      "postcode": "2800-074",
      "city": "ALMADA",
      "lon": "-9.163000594390933",
      "lat": "38.67951236355059"
    },
    {
      "id": "pt.ine.add.PTCONT.5052651",
      "street": "R FERNÃO LOURENÇO",
      "house": "31",
      "postcode": "2800-074",
      "city": "ALMADA",
      "lon": "-9.163000594390933",
      "lat": "38.67951236355059"
    },
    {
      "id": "pt.ine.add.PTCONT.5063309",
      "street": "R AFONSO GALO",
      "house": "44",
      "postcode": "2800-668",
      "city": "ALMADA",
      "lon": "-9.163741133726788",
      "lat": "38.67906445116872"
    },
    {
      "id": "pt.ine.add.PTCONT.5067059",
      "street": "R AFONSO GALO",
      "house": "42",
      "postcode": "2800-668",
      "city": "ALMADA",
      "lon": "-9.163683553419117",
      "lat": "38.679055950679235"
    },
    {
      "id": "pt.ine.add.PTCONT.5067060",
      "street": "R AFONSO GALO",
      "house": "42",
      "postcode": "2800-668",
      "city": "ALMADA",
      "lon": "-9.163683553419117",
      "lat": "38.679055950679235"
    },
    {
      "id": "pt.ine.add.PTCONT.5067095",
      "street": "R FERNÃO LOURENÇO",
      "house": "41",
      "postcode": "2800-074",
      "city": "ALMADA",
      "lon": "-9.163791099530135",
      "lat": "38.67934325652744"
    },
    {
      "id": "pt.ine.add.PTCONT.5067096",
      "street": "R FERNÃO LOURENÇO",
      "house": "41",
      "postcode": "2800-074",
      "city": "ALMADA",
      "lon": "-9.163791099530135",
      "lat": "38.67934325652744"
    },
    {
      "id": "pt.ine.add.PTCONT.5070562",
      "street": "R D LEONOR DE MASCARENHAS",
      "house": "22",
      "postcode": "2800-147",
      "city": "ALMADA",
      "lon": "-9.162201174964117",
      "lat": "38.679861702215206"
    },
    {
      "id": "pt.ine.add.PTCONT.5070563",
      "street": "R D LEONOR DE MASCARENHAS",
      "house": "22",
      "postcode": "2800-147",
      "city": "ALMADA",
      "lon": "-9.162201174964117",
      "lat": "38.679861702215206"
    },
    {
      "id": "pt.ine.add.PTCONT.5070564",
      "street": "R D LEONOR DE MASCARENHAS",
      "house": "22",
      "postcode": "2800-147",
      "city": "ALMADA",
      "lon": "-9.162201174964117",
      "lat": "38.679861702215206"
    },
    {
      "id": "pt.ine.add.PTCONT.5070565",
      "street": "R D LEONOR DE MASCARENHAS",
      "house": "22",
      "postcode": "2800-147",
      "city": "ALMADA",
      "lon": "-9.162201174964117",
      "lat": "38.679861702215206"
    },
    {
      "id": "pt.ine.add.PTCONT.5074081",
      "street": "R AFONSO GALO",
      "house": "40",
      "postcode": "2800-668",
      "city": "ALMADA",
      "lon": "-9.163591760782543",
      "lat": "38.67906576748668"
    },
    {
      "id": "pt.ine.add.PTCONT.5074082",
      "street": "R AFONSO GALO",
      "house": "40",
      "postcode": "2800-668",
      "city": "ALMADA",
      "lon": "-9.163591760782543",
      "lat": "38.67906576748668"
    },
    {
      "id": "pt.ine.add.PTCONT.5075662",
      "street": "R AFONSO GALO",
      "house": "26",
      "postcode": "2800-668",
      "city": "ALMADA",
      "lon": "-9.162595465879043",
      "lat": "38.67930874835015"
    },
    {
      "id": "pt.ine.add.PTCONT.5075663",
      "street": "R AFONSO GALO",
      "house": "26",
      "postcode": "2800-668",
      "city": "ALMADA",
      "lon": "-9.162595465879043",
      "lat": "38.67930874835015"
    },
    {
      "id": "pt.ine.add.PTCONT.5075664",
      "street": "R AFONSO GALO",
      "house": "26",
      "postcode": "2800-668",
      "city": "ALMADA",
      "lon": "-9.162595465879043",
      "lat": "38.67930874835015"
    },
    {
      "id": "pt.ine.add.PTCONT.5075665",
      "street": "R AFONSO GALO",
      "house": "26",
      "postcode": "2800-668",
      "city": "ALMADA",
      "lon": "-9.162595465879043",
      "lat": "38.67930874835015"
    },
    {
      "id": "pt.ine.add.PTCONT.5075666",
      "street": "R AFONSO GALO",
      "house": "26",
      "postcode": "2800-668",
      "city": "ALMADA",
      "lon": "-9.162595465879043",
      "lat": "38.67930874835015"
    },
    {
      "id": "pt.ine.add.PTCONT.5075667",
      "street": "R AFONSO GALO",
      "house": "36",
      "postcode": "2800-668",
      "city": "ALMADA",
      "lon": "-9.163374092150498",
      "lat": "38.679112724938044"
    },
    {
      "id": "pt.ine.add.PTCONT.5075668",
      "street": "R AFONSO GALO",
      "house": "36",
      "postcode": "2800-668",
      "city": "ALMADA",
      "lon": "-9.163374092150498",
      "lat": "38.679112724938044"
    },
    {
      "id": "pt.ine.add.PTCONT.5075669",
      "street": "R AFONSO GALO",
      "house": "36",
      "postcode": "2800-668",
      "city": "ALMADA",
      "lon": "-9.163374092150498",
      "lat": "38.679112724938044"
    },
    {
      "id": "pt.ine.add.PTCONT.5075670",
      "street": "R AFONSO GALO",
      "house": "36",
      "postcode": "2800-668",
      "city": "ALMADA",
      "lon": "-9.163374092150498",
      "lat": "38.679112724938044"
    },
    {
      "id": "pt.ine.add.PTCONT.5075671",
      "street": "R AFONSO GALO",
      "house": "36",
      "postcode": "2800-668",
      "city": "ALMADA",
      "lon": "-9.163374092150498",
      "lat": "38.679112724938044"
    },
    {
      "id": "pt.ine.add.PTCONT.5075672",
      "street": "R AFONSO GALO",
      "house": "36",
      "postcode": "2800-668",
      "city": "ALMADA",
      "lon": "-9.163374092150498",
      "lat": "38.679112724938044"
    },
    {
      "id": "pt.ine.add.PTCONT.5077114",
      "street": "R AFONSO GALO",
      "house": "26",
      "postcode": "2800-668",
      "city": "ALMADA",
      "lon": "-9.162595465879043",
      "lat": "38.67930874835015"
    },
    {
      "id": "pt.ine.add.PTCONT.5101682",
      "street": "R AFONSO GALO",
      "house": "16",
      "postcode": "2800-668",
      "city": "ALMADA",
      "lon": "-9.162139595609357",
      "lat": "38.67957399043661"
    },
    {
      "id": "pt.ine.add.PTCONT.5114479",
      "street": "R FERNÃO LOURENÇO",
      "house": "45",
      "postcode": "2800-074",
      "city": "ALMADA",
      "lon": "-9.164056021858679",
      "lat": "38.67938596099638"
    },
    {
      "id": "pt.ine.add.PTCONT.5114480",
      "street": "R FERNÃO LOURENÇO",
      "house": "45",
      "postcode": "2800-074",
      "city": "ALMADA",
      "lon": "-9.164056021858679",
      "lat": "38.67938596099638"
    },
    {
      "id": "pt.ine.add.PTCONT.5120709",
      "street": "R FERNÃO LOURENÇO",
      "house": "17",
      "postcode": "2800-074",
      "city": "ALMADA",
      "lon": "-9.162500698473904",
      "lat": "38.67991311363692"
    },
    {
      "id": "pt.ine.add.PTCONT.5120708",
      "street": "R FERNÃO LOURENÇO",
      "house": "17",
      "postcode": "2800-074",
      "city": "ALMADA",
      "lon": "-9.162500698473904",
      "lat": "38.67991311363692"
    },
    {
      "id": "pt.ine.add.PTCONT.5120710",
      "street": "R FERNÃO LOURENÇO",
      "house": "17",
      "postcode": "2800-074",
      "city": "ALMADA",
      "lon": "-9.162500698473904",
      "lat": "38.67991311363692"
    },
    {
      "id": "pt.ine.add.PTCONT.5124033",
      "street": "R FERNÃO LOURENÇO",
      "house": "27",
      "postcode": "2800-074",
      "city": "ALMADA",
      "lon": "-9.162806937170254",
      "lat": "38.679631171899565"
    },
    {
      "id": "pt.ine.add.PTCONT.5124034",
      "street": "R FERNÃO LOURENÇO",
      "house": "27",
      "postcode": "2800-074",
      "city": "ALMADA",
      "lon": "-9.162806937170254",
      "lat": "38.679631171899565"
    },
    {
      "id": "pt.ine.add.PTCONT.5124035",
      "street": "R FERNÃO LOURENÇO",
      "house": "27",
      "postcode": "2800-074",
      "city": "ALMADA",
      "lon": "-9.162806937170254",
      "lat": "38.679631171899565"
    },
    {
      "id": "pt.ine.add.PTCONT.5124036",
      "street": "R FERNÃO LOURENÇO",
      "house": "27",
      "postcode": "2800-074",
      "city": "ALMADA",
      "lon": "-9.162806937170254",
      "lat": "38.679631171899565"
    },
    {
      "id": "pt.ine.add.PTCONT.5124037",
      "street": "R FERNÃO LOURENÇO",
      "house": "27",
      "postcode": "2800-074",
      "city": "ALMADA",
      "lon": "-9.162806937170254",
      "lat": "38.679631171899565"
    },
    {
      "id": "pt.ine.add.PTCONT.5124038",
      "street": "R FERNÃO LOURENÇO",
      "house": "27",
      "postcode": "2800-074",
      "city": "ALMADA",
      "lon": "-9.162806937170254",
      "lat": "38.679631171899565"
    },
    {
      "id": "pt.ine.add.PTCONT.5129423",
      "street": "R AFONSO GALO",
      "house": "44",
      "postcode": "2800-668",
      "city": "ALMADA",
      "lon": "-9.163741133726788",
      "lat": "38.67906445116872"
    },
    {
      "id": "pt.ine.add.PTCONT.5130742",
      "street": "R FERNÃO LOURENÇO",
      "house": "37",
      "postcode": "2800-074",
      "city": "ALMADA",
      "lon": "-9.163493644018121",
      "lat": "38.679435956998375"
    },
    {
      "id": "pt.ine.add.PTCONT.5132684",
      "street": "R FERNÃO LOURENÇO",
      "house": "33",
      "postcode": "2800-074",
      "city": "ALMADA",
      "lon": "-9.163149839179653",
      "lat": "38.67950204118591"
    },
    {
      "id": "pt.ine.add.PTCONT.5133634",
      "street": "R FERNÃO LOURENÇO",
      "house": "23",
      "postcode": "2800-074",
      "city": "ALMADA",
      "lon": "-9.162681834182017",
      "lat": "38.67972235262442"
    }
  ]
}