{
  "data": {
    "distrito": "Porto",
    "concelho": "Póvoa de Varzim",
    "freguesia": "União das freguesias da Póvoa de Varzim, Beiriz e Argivai",
    "OBJECTID": 72,
    "BGRI2021": "13131502212",
    "DT21": "13",
    "DTMN21": "1313",
    "DTMNFR21": "131315",
    "DTMNFRSEC21": "131315022",
    "SECNUM21": "022",
    "SSNUM21": "12",
    "SECSSNUM21": "02212",
    "OBJECTID_1": 139629,
    "DT": "13",
    "CC": "13",
    "fr": "15",
    "SEC": "022",
    "SS": "12"
  },
  "addresses": [
    {
      "id": "pt.ine.add.PTCONT.3549334",
      "street": "R DR ANTÓNIO DA SILVEIRA",
      "house": "44 E",
      "postcode": "4490-607",
      "city": "PÓVOA DE VARZIM",
      "lon": "-8.763124164011787",
      "lat": "41.37756499962895"
    },
    {
      "id": "pt.ine.add.PTCONT.3621087",
      "street": "R DR ANTÓNIO DA SILVEIRA",
      "house": "28",
      "postcode": "4490-607",
      "city": "PÓVOA DE VARZIM",
      "lon": "-8.762718443515148",
      "lat": "41.37763925200349"
    },
    {
      "id": "pt.ine.add.PTCONT.3621088",
      "street": "R DR ANTÓNIO DA SILVEIRA",
      "house": "28",
      "postcode": "4490-607",
      "city": "PÓVOA DE VARZIM",
      "lon": "-8.762718443515148",
      "lat": "41.37763925200349"
    },
    {
      "id": "pt.ine.add.PTCONT.3706109",
      "street": "R DR ANTÓNIO DA SILVEIRA",
      "house": "44",
      "postcode": "4490-607",
      "city": "PÓVOA DE VARZIM",
      "lon": "-8.763076524227646",
      "lat": "41.37758326839209"
    },
    {
      "id": "pt.ine.add.PTCONT.3812706",
      "street": "R DR ANTÓNIO DA SILVEIRA",
      "house": "40",
      "postcode": "4490-607",
      "city": "PÓVOA DE VARZIM",
      "lon": "-8.763028536924345",
      "lat": "41.37756552314275"
    },
    {
      "id": "pt.ine.add.PTCONT.3871795",
      "street": "R DR ANTÓNIO DA SILVEIRA",
      "house": "38",
      "postcode": "4490-607",
      "city": "PÓVOA DE VARZIM",
      "lon": "-8.762980897112568",
      "lat": "41.37758379186644"
    },
    {
      "id": "pt.ine.add.PTCONT.3871796",
      "street": "R DR ANTÓNIO DA SILVEIRA",
      "house": "38",
      "postcode": "4490-607",
      "city": "PÓVOA DE VARZIM",
      "lon": "-8.762980897112568",
      "lat": "41.37758379186644"
    },
    {
      "id": "pt.ine.add.PTCONT.3906487",
      "street": "R DR ANTÓNIO DA SILVEIRA",
      "house": "36",
      "postcode": "4490-607",
      "city": "PÓVOA DE VARZIM",
      "lon": "-8.762861450065195",
      "lat": "41.377593449596155"
    },
    {
      "id": "pt.ine.add.PTCONT.3994384",
      "street": "R FORTALEZA",
      "house": "1",
      "postcode": "4490-511",
      "city": "PÓVOA DE VARZIM",
      "lon": "-8.762671150857548",
      "lat": "41.377693534594364"
    },
    {
      "id": "pt.ine.add.PTCONT.4073218",
      "street": "R FORTALEZA",
      "house": "17",
      "postcode": "4490-511",
      "city": "PÓVOA DE VARZIM",
      "lon": "-8.763149895471079",
      "lat": "41.37775394219382"
    },
    {
      "id": "pt.ine.add.PTCONT.4151544",
      "street": "R FORTALEZA",
      "house": "15",
      "postcode": "4490-511",
      "city": "PÓVOA DE VARZIM",
      "lon": "-8.76305409435319",
      "lat": "41.37773645873508"
    },
    {
      "id": "pt.ine.add.PTCONT.4177853",
      "street": "R FORTALEZA",
      "house": "13",
      "postcode": "4490-511",
      "city": "PÓVOA DE VARZIM",
      "lon": "-8.762790771799652",
      "lat": "41.377701884057785"
    },
    {
      "id": "pt.ine.add.PTCONT.4229936",
      "street": "R DR ANTÓNIO DA SILVEIRA",
      "house": "34",
      "postcode": "4490-607",
      "city": "PÓVOA DE VARZIM",
      "lon": "-8.762789990235614",
      "lat": "41.377620852571205"
    },
    {
      "id": "pt.ine.add.PTCONT.4236337",
      "street": "R DR ANTÓNIO DA SILVEIRA",
      "house": "46",
      "postcode": "4490-607",
      "city": "PÓVOA DE VARZIM",
      "lon": "-8.763160197951263",
      "lat": "41.37758281028683"
    },
    {
      "id": "pt.ine.add.PTCONT.4243227",
      "street": "R TEN VEIGA LEAL",
      "house": "209",
      "postcode": "4490-586",
      "city": "PÓVOA DE VARZIM",
      "lon": "-8.763292119774524",
      "lat": "41.377627107772916"
    },
    {
      "id": "pt.ine.add.PTCONT.4336109",
      "street": "R DR ANTÓNIO DA SILVEIRA",
      "house": "24",
      "postcode": "4490-607",
      "city": "PÓVOA DE VARZIM",
      "lon": "-8.762479722691566",
      "lat": "41.37767657379415"
    },
    {
      "id": "pt.ine.add.PTCONT.4336110",
      "street": "R DR ANTÓNIO DA SILVEIRA",
      "house": "26",
      "postcode": "4490-607",
      "city": "PÓVOA DE VARZIM",
      "lon": "-8.762622816311488",
      "lat": "41.37763977518085"
    }
  ]
}