{
  "data": {
    "distrito": "Coimbra",
    "concelho": "Pampilhosa da Serra",
    "freguesia": "Janeiro de Baixo",
    "OBJECTID": 319,
    "BGRI2021": "06120400102",
    "DT21": "06",
    "DTMN21": "0612",
    "DTMNFR21": "061204",
    "DTMNFRSEC21": "061204001",
    "SECNUM21": "001",
    "SSNUM21": "02",
    "SECSSNUM21": "00102",
    "OBJECTID_1": 55462,
    "DT": "06",
    "CC": "12",
    "fr": "04",
    "SEC": "001",
    "SS": "02"
  },
  "addresses": [
    {
      "id": "pt.ine.add.PTCONT.1100080",
      "street": "R IGREJA",
      "house": "3",
      "postcode": "3320-105",
      "city": "JANEIRO DE BAIXO",
      "lon": "-7.805007863586791",
      "lat": "40.04595545112368"
    },
    {
      "id": "pt.ine.add.PTCONT.1130213",
      "street": "R ESCOLAS",
      "house": "",
      "postcode": "3320-105",
      "city": "JANEIRO DE BAIXO",
      "lon": "-7.805254375344301",
      "lat": "40.045866087887106"
    },
    {
      "id": "pt.ine.add.PTCONT.1134507",
      "street": "ESTR ESCOLAS",
      "house": "9",
      "postcode": "3320-105",
      "city": "JANEIRO DE BAIXO",
      "lon": "-7.807436255694615",
      "lat": "40.045385911554895"
    },
    {
      "id": "pt.ine.add.PTCONT.1150518",
      "street": "R ESCOLAS",
      "house": "11",
      "postcode": "3320-105",
      "city": "JANEIRO DE BAIXO",
      "lon": "-7.806453274876913",
      "lat": "40.04510395531441"
    },
    {
      "id": "pt.ine.add.PTCONT.1170494",
      "street": "ESTR ESCOLAS",
      "house": "",
      "postcode": "3320-105",
      "city": "JANEIRO DE BAIXO",
      "lon": "-7.805760838002567",
      "lat": "40.045327153704505"
    },
    {
      "id": "pt.ine.add.PTCONT.1178612",
      "street": "R ESCOLAS",
      "house": "",
      "postcode": "3320-105",
      "city": "JANEIRO DE BAIXO",
      "lon": "-7.806839280877041",
      "lat": "40.04524914054734"
    },
    {
      "id": "pt.ine.add.PTCONT.1180572",
      "street": "BC SOBREIRAS",
      "house": "9",
      "postcode": "3320-105",
      "city": "JANEIRO DE BAIXO",
      "lon": "-7.805408694187264",
      "lat": "40.04545224373817"
    },
    {
      "id": "pt.ine.add.PTCONT.1202586",
      "street": "R IGREJA",
      "house": "",
      "postcode": "3320-105",
      "city": "JANEIRO DE BAIXO",
      "lon": "-7.805124915220162",
      "lat": "40.0459828008226"
    },
    {
      "id": "pt.ine.add.PTCONT.1214747",
      "street": "ESTR ESCOLAS",
      "house": "9A",
      "postcode": "3320-105",
      "city": "JANEIRO DE BAIXO",
      "lon": "-7.807706198262571",
      "lat": "40.04529660894179"
    },
    {
      "id": "pt.ine.add.PTCONT.1218338",
      "street": "BC SOBREIRAS",
      "house": "7",
      "postcode": "3320-105",
      "city": "JANEIRO DE BAIXO",
      "lon": "-7.8051855770533916",
      "lat": "40.045550679626274"
    },
    {
      "id": "pt.ine.add.PTCONT.1241131",
      "street": "R ESCOLAS",
      "house": "",
      "postcode": "3320-105",
      "city": "JANEIRO DE BAIXO",
      "lon": "-7.806745665774474",
      "lat": "40.04522185859297"
    },
    {
      "id": "pt.ine.add.PTCONT.1245044",
      "street": "R IGREJA",
      "house": "",
      "postcode": "3320-105",
      "city": "JANEIRO DE BAIXO",
      "lon": "-7.804364492249543",
      "lat": "40.045719468868896"
    },
    {
      "id": "pt.ine.add.PTCONT.1245045",
      "street": "R ESCOLAS",
      "house": "",
      "postcode": "3320-105",
      "city": "JANEIRO DE BAIXO",
      "lon": "-7.80677081940533",
      "lat": "40.0448616853062"
    },
    {
      "id": "pt.ine.add.PTCONT.1314466",
      "street": "BC SOBREIRAS",
      "house": "3",
      "postcode": "3320-105",
      "city": "JANEIRO DE BAIXO",
      "lon": "-7.805031904208994",
      "lat": "40.045829433772184"
    },
    {
      "id": "pt.ine.add.PTCONT.1318386",
      "street": "R ESCOLAS",
      "house": "",
      "postcode": "3320-105",
      "city": "JANEIRO DE BAIXO",
      "lon": "-7.805607814430851",
      "lat": "40.04547081892695"
    },
    {
      "id": "pt.ine.add.PTCONT.1322325",
      "street": "R ESCOLAS",
      "house": "",
      "postcode": "3320-105",
      "city": "JANEIRO DE BAIXO",
      "lon": "-7.806102037083276",
      "lat": "40.045039921852364"
    },
    {
      "id": "pt.ine.add.PTCONT.1324502",
      "street": "R IGREJA",
      "house": "",
      "postcode": "3320-105",
      "city": "JANEIRO DE BAIXO",
      "lon": "-7.805077740598236",
      "lat": "40.04604570998801"
    },
    {
      "id": "pt.ine.add.PTCONT.1332778",
      "street": "R ESCOLAS",
      "house": "N 1",
      "postcode": "3320-105",
      "city": "JANEIRO DE BAIXO",
      "lon": "-7.805419549816664",
      "lat": "40.045632396486695"
    },
    {
      "id": "pt.ine.add.PTCONT.1335535",
      "street": "ESTR ESTIZADA PAS ESCOLAS",
      "house": "9B",
      "postcode": "3320-105",
      "city": "JANEIRO DE BAIXO",
      "lon": "-7.807893343935021",
      "lat": "40.04536918319192"
    },
    {
      "id": "pt.ine.add.PTCONT.1357678",
      "street": "R ESCOLAS",
      "house": "",
      "postcode": "3320-105",
      "city": "JANEIRO DE BAIXO",
      "lon": "-7.805195612265173",
      "lat": "40.04590194600603"
    },
    {
      "id": "pt.ine.add.PTCONT.1362163",
      "street": "R CH√ÉO DE CIMA",
      "house": "",
      "postcode": "3320-105",
      "city": "JANEIRO DE BAIXO",
      "lon": "-7.809161916068727",
      "lat": "40.04473330347453"
    }
  ]
}