{
  "data": {
    "distrito": "Faro",
    "concelho": "Loulé",
    "freguesia": "Loulé (São Clemente)",
    "OBJECTID": 891,
    "BGRI2021": "08080800707",
    "DT21": "08",
    "DTMN21": "0808",
    "DTMNFR21": "080808",
    "DTMNFRSEC21": "080808007",
    "SECNUM21": "007",
    "SSNUM21": "07",
    "SECSSNUM21": "00707",
    "OBJECTID_1": 69163,
    "DT": "08",
    "CC": "08",
    "fr": "08",
    "SEC": "007",
    "SS": "07"
  },
  "addresses": [
    {
      "id": "pt.ine.add.PTCONT.1482347",
      "street": "CPO 307 Z",
      "house": "",
      "postcode": "8100-245",
      "city": "LOULÉ",
      "lon": "-7.9859106966060045",
      "lat": "37.12983698209765"
    },
    {
      "id": "pt.ine.add.PTCONT.1531028",
      "street": "ESTR GOLDRA DE CIMA",
      "house": "",
      "postcode": "8100-246",
      "city": "LOULÉ",
      "lon": "-7.9842134319293985",
      "lat": "37.12879864134631"
    },
    {
      "id": "pt.ine.add.PTCONT.1540421",
      "street": "",
      "house": "",
      "postcode": "8100-246",
      "city": "LOULÉ",
      "lon": "-7.983671671674626",
      "lat": "37.129608915367115"
    },
    {
      "id": "pt.ine.add.PTCONT.1543287",
      "street": "GOLDRA",
      "house": "428 F",
      "postcode": "8100-246",
      "city": "LOULÉ",
      "lon": "-7.985077876976346",
      "lat": "37.12986297693757"
    },
    {
      "id": "pt.ine.add.PTCONT.1563519",
      "street": "R GOLDRA DE CIMA",
      "house": "",
      "postcode": "8100-246",
      "city": "LOULÉ",
      "lon": "-7.985157248649543",
      "lat": "37.12955671500174"
    },
    {
      "id": "pt.ine.add.PTCONT.1618945",
      "street": "ESTR GOLDRA DE CIMA",
      "house": "",
      "postcode": "8100-246",
      "city": "LOULÉ",
      "lon": "-7.986015030900796",
      "lat": "37.12826025321432"
    },
    {
      "id": "pt.ine.add.PTCONT.1676951",
      "street": "",
      "house": "",
      "postcode": "8100-256",
      "city": "LOULÉ",
      "lon": "-7.986646522143595",
      "lat": "37.1275852384845"
    },
    {
      "id": "pt.ine.add.PTCONT.1687911",
      "street": "",
      "house": "",
      "postcode": "8100-245",
      "city": "LOULÉ",
      "lon": "-7.986270759842363",
      "lat": "37.12986446048575"
    },
    {
      "id": "pt.ine.add.PTCONT.1847774",
      "street": "CASA VERDE",
      "house": "",
      "postcode": "8100-246",
      "city": "LOULÉ",
      "lon": "-7.984278782351511",
      "lat": "37.129907029506306"
    }
  ]
}