{
  "data": {
    "distrito": "Braga",
    "concelho": "Vila Nova de Famalicão",
    "freguesia": "União das freguesias de Vila Nova de Famalicão e Calendário",
    "OBJECTID": 561,
    "BGRI2021": "03126000916",
    "DT21": "03",
    "DTMN21": "0312",
    "DTMNFR21": "031260",
    "DTMNFRSEC21": "031260009",
    "SECNUM21": "009",
    "SSNUM21": "16",
    "SECSSNUM21": "00916",
    "OBJECTID_1": 30583,
    "DT": "03",
    "CC": "12",
    "fr": "60",
    "SEC": "009",
    "SS": "16"
  },
  "addresses": [
    {
      "id": "pt.ine.add.PTCONT.464721",
      "street": "R ALDEIA NOVA",
      "house": "227",
      "postcode": "4760-199",
      "city": "VILA NOVA DE FAMALICÃO",
      "lon": "-8.537205464212091",
      "lat": "41.38542315916259"
    },
    {
      "id": "pt.ine.add.PTCONT.473660",
      "street": "AV D AFONSO HENRIQUES",
      "house": "1861",
      "postcode": "4760-283",
      "city": "VILA NOVA DE FAMALICÃO",
      "lon": "-8.534160862836327",
      "lat": "41.384137234067964"
    },
    {
      "id": "pt.ine.add.PTCONT.485524",
      "street": "R ALDEIA NOVA",
      "house": "181",
      "postcode": "4760-199",
      "city": "VILA NOVA DE FAMALICÃO",
      "lon": "-8.536908644002681",
      "lat": "41.38575734921396"
    },
    {
      "id": "pt.ine.add.PTCONT.497399",
      "street": "R RODRIGUES SAMPAIO",
      "house": "2026",
      "postcode": "4760-381",
      "city": "VILA NOVA DE FAMALICÃO",
      "lon": "-8.534392051177617",
      "lat": "41.38673858494457"
    },
    {
      "id": "pt.ine.add.PTCONT.500242",
      "street": "R ALDEIA NOVA",
      "house": "218",
      "postcode": "4760-199",
      "city": "VILA NOVA DE FAMALICÃO",
      "lon": "-8.537063004264269",
      "lat": "41.38558573139711"
    },
    {
      "id": "pt.ine.add.PTCONT.517021",
      "street": "R BARAO FAMALICAO",
      "house": "1988",
      "postcode": "4760-300",
      "city": "VILA NOVA DE FAMALICÃO",
      "lon": "-8.534763004014968",
      "lat": "41.38679131473482"
    },
    {
      "id": "pt.ine.add.PTCONT.542019",
      "street": "TV LAGE",
      "house": "68",
      "postcode": "4760-600",
      "city": "VILA NOVA DE FAMALICÃO",
      "lon": "-8.532191413606068",
      "lat": "41.38661117812283"
    },
    {
      "id": "pt.ine.add.PTCONT.551003",
      "street": "R ALDEIA NOVA",
      "house": "83",
      "postcode": "4760-199",
      "city": "VILA NOVA DE FAMALICÃO",
      "lon": "-8.536291361722332",
      "lat": "41.38647082981485"
    },
    {
      "id": "pt.ine.add.PTCONT.559939",
      "street": "R BARÃO DE FAMALICÃO",
      "house": "1956",
      "postcode": "4760-300",
      "city": "VILA NOVA DE FAMALICÃO",
      "lon": "-8.53460553303764",
      "lat": "41.38645871624084"
    },
    {
      "id": "pt.ine.add.PTCONT.559940",
      "street": "R ALDEIA NOVA",
      "house": "103",
      "postcode": "4760-199",
      "city": "VILA NOVA DE FAMALICÃO",
      "lon": "-8.536398070542754",
      "lat": "41.386326391862085"
    },
    {
      "id": "pt.ine.add.PTCONT.571293",
      "street": "R ALDEIA NOVA",
      "house": "145",
      "postcode": "4760-199",
      "city": "VILA NOVA DE FAMALICÃO",
      "lon": "-8.536742438952139",
      "lat": "41.385947016371645"
    },
    {
      "id": "pt.ine.add.PTCONT.584085",
      "street": "R BARAO FAMALICAO",
      "house": "25",
      "postcode": "4760-300",
      "city": "VILA NOVA DE FAMALICÃO",
      "lon": "-8.532231409686515",
      "lat": "41.38728633947061"
    },
    {
      "id": "pt.ine.add.PTCONT.591596",
      "street": "TV LAGE",
      "house": "18",
      "postcode": "4760-600",
      "city": "VILA NOVA DE FAMALICÃO",
      "lon": "-8.532611012650314",
      "lat": "41.386798806149365"
    },
    {
      "id": "pt.ine.add.PTCONT.591624",
      "street": "R ALDEIA NOVA",
      "house": "241",
      "postcode": "4760-199",
      "city": "VILA NOVA DE FAMALICÃO",
      "lon": "-8.537300381358978",
      "lat": "41.38530577376725"
    },
    {
      "id": "pt.ine.add.PTCONT.621228",
      "street": "TV LAGE",
      "house": "48",
      "postcode": "4760-600",
      "city": "VILA NOVA DE FAMALICÃO",
      "lon": "-8.53289584904623",
      "lat": "41.38645566485111"
    },
    {
      "id": "pt.ine.add.PTCONT.624059",
      "street": "TV LAGE",
      "house": "103",
      "postcode": "4760-600",
      "city": "VILA NOVA DE FAMALICÃO",
      "lon": "-8.532768253772266",
      "lat": "41.38709539215887"
    },
    {
      "id": "pt.ine.add.PTCONT.629927",
      "street": "TV LAGE",
      "house": "45",
      "postcode": "4760-600",
      "city": "VILA NOVA DE FAMALICÃO",
      "lon": "-8.532455756299269",
      "lat": "41.38682635706738"
    },
    {
      "id": "pt.ine.add.PTCONT.635677",
      "street": "R BARÃO DE FAMALICÃO",
      "house": "389",
      "postcode": "4760-300",
      "city": "VILA NOVA DE FAMALICÃO",
      "lon": "-8.534055693184342",
      "lat": "41.38647864139378"
    },
    {
      "id": "pt.ine.add.PTCONT.635678",
      "street": "R BARÃO DE FAMALICÃO",
      "house": "389",
      "postcode": "4760-300",
      "city": "VILA NOVA DE FAMALICÃO",
      "lon": "-8.534055693184342",
      "lat": "41.38647864139378"
    },
    {
      "id": "pt.ine.add.PTCONT.638852",
      "street": "TV LAGE",
      "house": "35",
      "postcode": "4760-600",
      "city": "VILA NOVA DE FAMALICÃO",
      "lon": "-8.532420440635885",
      "lat": "41.3869165196333"
    },
    {
      "id": "pt.ine.add.PTCONT.642772",
      "street": "R BARAO FAMALICAO",
      "house": "",
      "postcode": "4760-300",
      "city": "VILA NOVA DE FAMALICÃO",
      "lon": "-8.533865124724871",
      "lat": "41.386596357260956"
    },
    {
      "id": "pt.ine.add.PTCONT.642773",
      "street": "R BARAO DE FAMALICAO",
      "house": "363",
      "postcode": "4760-300",
      "city": "VILA NOVA DE FAMALICÃO",
      "lon": "-8.533865124724871",
      "lat": "41.386596357260956"
    },
    {
      "id": "pt.ine.add.PTCONT.668089",
      "street": "R ALDEIA NOVA",
      "house": "261",
      "postcode": "4760-199",
      "city": "VILA NOVA DE FAMALICÃO",
      "lon": "-8.537394963538429",
      "lat": "41.38513436545069"
    },
    {
      "id": "pt.ine.add.PTCONT.671169",
      "street": "R TOMÁS DE AQUINO E SÁ",
      "house": "185",
      "postcode": "4760-390",
      "city": "VILA NOVA DE FAMALICÃO",
      "lon": "-8.532767748717731",
      "lat": "41.385060489419715"
    },
    {
      "id": "pt.ine.add.PTCONT.718730",
      "street": "R BARÃO DE FAMALICÃO",
      "house": "323",
      "postcode": "4760-300",
      "city": "VILA NOVA DE FAMALICÃO",
      "lon": "-8.533758409843472",
      "lat": "41.38674079288527"
    },
    {
      "id": "pt.ine.add.PTCONT.754638",
      "street": "TV LAGE",
      "house": "7",
      "postcode": "4760-600",
      "city": "VILA NOVA DE FAMALICÃO",
      "lon": "-8.532314272768906",
      "lat": "41.38715099202222"
    },
    {
      "id": "pt.ine.add.PTCONT.769395",
      "street": "R ALDEIA NOVA",
      "house": "36",
      "postcode": "4760-199",
      "city": "VILA NOVA DE FAMALICÃO",
      "lon": "-8.535661332903025",
      "lat": "41.38705829561989"
    },
    {
      "id": "pt.ine.add.PTCONT.781737",
      "street": "TV LAGE",
      "house": "21",
      "postcode": "4760-600",
      "city": "VILA NOVA DE FAMALICÃO",
      "lon": "-8.532349423467137",
      "lat": "41.38703381806246"
    },
    {
      "id": "pt.ine.add.PTCONT.784633",
      "street": "R RODRIGUES SAMPAIO",
      "house": "2006",
      "postcode": "4760-381",
      "city": "VILA NOVA DE FAMALICÃO",
      "lon": "-8.534571051309996",
      "lat": "41.38668393657593"
    },
    {
      "id": "pt.ine.add.PTCONT.784656",
      "street": "TV LAGE",
      "house": "6",
      "postcode": "4760-600",
      "city": "VILA NOVA DE FAMALICÃO",
      "lon": "-8.532635860674333",
      "lat": "41.386951787895455"
    },
    {
      "id": "pt.ine.add.PTCONT.784662",
      "street": "TV LAGE",
      "house": "24",
      "postcode": "4760-600",
      "city": "VILA NOVA DE FAMALICÃO",
      "lon": "-8.532717950688804",
      "lat": "41.386690386818"
    },
    {
      "id": "pt.ine.add.PTCONT.787333",
      "street": "R TOMÁS DE AQUINO E SÁ",
      "house": "783",
      "postcode": "4760-390",
      "city": "VILA NOVA DE FAMALICÃO",
      "lon": "-8.532098026578648",
      "lat": "41.38698066601288"
    },
    {
      "id": "pt.ine.add.PTCONT.787334",
      "street": "R BARÃO DE FAMALICÃO",
      "house": "383",
      "postcode": "4760-300",
      "city": "VILA NOVA DE FAMALICÃO",
      "lon": "-8.534152332653065",
      "lat": "41.38664037664933"
    },
    {
      "id": "pt.ine.add.PTCONT.799623",
      "street": "R ALDEIA NOVA",
      "house": "27",
      "postcode": "4760-199",
      "city": "VILA NOVA DE FAMALICÃO",
      "lon": "-8.535911343676576",
      "lat": "41.38688634472494"
    },
    {
      "id": "pt.ine.add.PTCONT.808963",
      "street": "R BARÃO DE FAMALICÃO",
      "house": "145",
      "postcode": "4760-300",
      "city": "VILA NOVA DE FAMALICÃO",
      "lon": "-8.53250501095825",
      "lat": "41.38706029014334"
    },
    {
      "id": "pt.ine.add.PTCONT.838582",
      "street": "R ALDEIA NOVA",
      "house": "125",
      "postcode": "4760-199",
      "city": "VILA NOVA DE FAMALICÃO",
      "lon": "-8.536588076997319",
      "lat": "41.38611863375537"
    },
    {
      "id": "pt.ine.add.PTCONT.846101",
      "street": "R BARÃO DE FAMALICÃO",
      "house": "313",
      "postcode": "4760-300",
      "city": "VILA NOVA DE FAMALICÃO",
      "lon": "-8.53282786615704",
      "lat": "41.38706817309739"
    }
  ]
}