{
  "data": {
    "distrito": "Lisboa",
    "concelho": "Sintra",
    "freguesia": "Uni達o das freguesias de Sintra (Santa Maria e S達o Miguel, S達o Martinho e S達o Pedro de Penaferrim)",
    "OBJECTID": 1492,
    "BGRI2021": "11112801513",
    "DT21": "11",
    "DTMN21": "1111",
    "DTMNFR21": "111128",
    "DTMNFRSEC21": "111128015",
    "SECNUM21": "015",
    "SSNUM21": "13",
    "SECSSNUM21": "01513",
    "OBJECTID_1": 113624,
    "DT": "11",
    "CC": "11",
    "fr": "28",
    "SEC": "015",
    "SS": "13"
  },
  "addresses": [
    {
      "id": "pt.ine.add.PTCONT.2318083",
      "street": "AZ CARRICA CASA DA CARRICA",
      "house": "",
      "postcode": "2710-710",
      "city": "SINTRA",
      "lon": "-9.424612630522796",
      "lat": "38.814480523409294"
    },
    {
      "id": "pt.ine.add.PTCONT.2324719",
      "street": "URB SARAIVA",
      "house": "",
      "postcode": "2710-710",
      "city": "SINTRA",
      "lon": "-9.42435678894797",
      "lat": "38.814339230937485"
    },
    {
      "id": "pt.ine.add.PTCONT.2354142",
      "street": "ESTR NAFARROS",
      "house": "99",
      "postcode": "2710-711",
      "city": "SINTRA",
      "lon": "-9.42337627972059",
      "lat": "38.81487250251385"
    },
    {
      "id": "pt.ine.add.PTCONT.2381300",
      "street": "R ROCHIO",
      "house": "17",
      "postcode": "2710-709",
      "city": "SINTRA",
      "lon": "-9.424639192625696",
      "lat": "38.81403886007008"
    },
    {
      "id": "pt.ine.add.PTCONT.2381301",
      "street": "URB SARAIVA",
      "house": "",
      "postcode": "2710-710",
      "city": "SINTRA",
      "lon": "-9.424422764033322",
      "lat": "38.81416735831508"
    },
    {
      "id": "pt.ine.add.PTCONT.2409686",
      "street": "R ROCHIO",
      "house": "15",
      "postcode": "2710-709",
      "city": "SINTRA",
      "lon": "-9.42463659003359",
      "lat": "38.813894768127795"
    },
    {
      "id": "pt.ine.add.PTCONT.2459184",
      "street": "R ROCHIO",
      "house": "25",
      "postcode": "2710-709",
      "city": "SINTRA",
      "lon": "-9.42394838104364",
      "lat": "38.814037488046125"
    },
    {
      "id": "pt.ine.add.PTCONT.2509351",
      "street": "URB SARAIVA",
      "house": "6",
      "postcode": "2710-710",
      "city": "SINTRA",
      "lon": "-9.424046158177225",
      "lat": "38.81435167163758"
    },
    {
      "id": "pt.ine.add.PTCONT.2527018",
      "street": "R ROCHIO",
      "house": "45",
      "postcode": "2710-709",
      "city": "SINTRA",
      "lon": "-9.423252233117221",
      "lat": "38.81437845759815"
    },
    {
      "id": "pt.ine.add.PTCONT.2590259",
      "street": "ESTR NAFARROS",
      "house": "91",
      "postcode": "2710-710",
      "city": "SINTRA",
      "lon": "-9.423373842102912",
      "lat": "38.81473741627017"
    },
    {
      "id": "pt.ine.add.PTCONT.2614427",
      "street": "ESTR NAFARROS",
      "house": "95",
      "postcode": "2710-711",
      "city": "SINTRA",
      "lon": "-9.423101316582875",
      "lat": "38.81494759956525"
    },
    {
      "id": "pt.ine.add.PTCONT.2714794",
      "street": "URB SARAIVA",
      "house": "8",
      "postcode": "2710-710",
      "city": "SINTRA",
      "lon": "-9.424429757452032",
      "lat": "38.81455460541602"
    },
    {
      "id": "pt.ine.add.PTCONT.2723544",
      "street": "URB SARAIVA",
      "house": "",
      "postcode": "2710-710",
      "city": "SINTRA",
      "lon": "-9.424096754350257",
      "lat": "38.81460332373869"
    },
    {
      "id": "pt.ine.add.PTCONT.2802734",
      "street": "LG PAQUETE",
      "house": "",
      "postcode": "2710-711",
      "city": "SINTRA",
      "lon": "-9.423584127028315",
      "lat": "38.814906236793945"
    },
    {
      "id": "pt.ine.add.PTCONT.2802735",
      "street": "LG PAQUETE",
      "house": "",
      "postcode": "2710-711",
      "city": "SINTRA",
      "lon": "-9.423584127028315",
      "lat": "38.814906236793945"
    },
    {
      "id": "pt.ine.add.PTCONT.2807630",
      "street": "ESTR NAFARROS",
      "house": "97",
      "postcode": "2710-710",
      "city": "SINTRA",
      "lon": "-9.423228262205107",
      "lat": "38.81496421274535"
    },
    {
      "id": "pt.ine.add.PTCONT.2958391",
      "street": "R ROCHIO",
      "house": "19",
      "postcode": "2710-709",
      "city": "SINTRA",
      "lon": "-9.424292079349224",
      "lat": "38.813943614219276"
    },
    {
      "id": "pt.ine.add.PTCONT.3170275",
      "street": "R ROCHIO",
      "house": "27",
      "postcode": "2710-709",
      "city": "SINTRA",
      "lon": "-9.423833272864936",
      "lat": "38.81403875993639"
    },
    {
      "id": "pt.ine.add.PTCONT.3190370",
      "street": "URB SARAIVA",
      "house": "",
      "postcode": "2710-710",
      "city": "SINTRA",
      "lon": "-9.424358577868842",
      "lat": "38.81443829415156"
    },
    {
      "id": "pt.ine.add.PTCONT.3197146",
      "street": "URB SARAIVA",
      "house": "",
      "postcode": "2710-710",
      "city": "SINTRA",
      "lon": "-9.424071293622587",
      "lat": "38.81446849194535"
    },
    {
      "id": "pt.ine.add.PTCONT.3254047",
      "street": "R ROCHIO",
      "house": "47",
      "postcode": "2710-709",
      "city": "SINTRA",
      "lon": "-9.42315172230795",
      "lat": "38.814550710962784"
    },
    {
      "id": "pt.ine.add.PTCONT.3384111",
      "street": "URB SARAIVA",
      "house": "",
      "postcode": "2710-710",
      "city": "SINTRA",
      "lon": "-9.42445424303089",
      "lat": "38.81463540264137"
    },
    {
      "id": "pt.ine.add.PTCONT.3410744",
      "street": "URB SARAIVA",
      "house": "",
      "postcode": "2710-710",
      "city": "SINTRA",
      "lon": "-9.424432811134723",
      "lat": "38.814086179350895"
    }
  ]
}