{
  "data": {
    "distrito": "Lisboa",
    "concelho": "Sintra",
    "freguesia": "Uni達o das freguesias de Sintra (Santa Maria e S達o Miguel, S達o Martinho e S達o Pedro de Penaferrim)",
    "OBJECTID": 1342,
    "BGRI2021": "11112801524",
    "DT21": "11",
    "DTMN21": "1111",
    "DTMNFR21": "111128",
    "DTMNFRSEC21": "111128015",
    "SECNUM21": "015",
    "SSNUM21": "24",
    "SECSSNUM21": "01524",
    "OBJECTID_1": 112297,
    "DT": "11",
    "CC": "11",
    "fr": "28",
    "SEC": "015",
    "SS": "24"
  },
  "addresses": [
    {
      "id": "pt.ine.add.PTCONT.2270920",
      "street": "R LUZIO CASAL DOS GANSOS",
      "house": "82",
      "postcode": "2710-267",
      "city": "SINTRA",
      "lon": "-9.433482877303092",
      "lat": "38.81919214248673"
    },
    {
      "id": "pt.ine.add.PTCONT.2291058",
      "street": "R ALTO PEDREGAL",
      "house": "80",
      "postcode": "2710-267",
      "city": "SINTRA",
      "lon": "-9.43295644076746",
      "lat": "38.81746855550445"
    },
    {
      "id": "pt.ine.add.PTCONT.2324713",
      "street": "R LUZIO",
      "house": "98",
      "postcode": "2710-267",
      "city": "SINTRA",
      "lon": "-9.4332153739005",
      "lat": "38.81841146485"
    },
    {
      "id": "pt.ine.add.PTCONT.2324714",
      "street": "R PARTICULAR",
      "house": "17",
      "postcode": "2710-416",
      "city": "SINTRA",
      "lon": "-9.434034368012565",
      "lat": "38.817861894903956"
    },
    {
      "id": "pt.ine.add.PTCONT.2344381",
      "street": "R LUZIO FAMILIA PESCADOR",
      "house": "",
      "postcode": "2710-267",
      "city": "SINTRA",
      "lon": "-9.437498645174612",
      "lat": "38.81715670569597"
    },
    {
      "id": "pt.ine.add.PTCONT.2409673",
      "street": "R PARTICULAR",
      "house": "6",
      "postcode": "2710-416",
      "city": "SINTRA",
      "lon": "-9.433830767572182",
      "lat": "38.81806232786459"
    },
    {
      "id": "pt.ine.add.PTCONT.2468983",
      "street": "R PARTICULAR",
      "house": "20",
      "postcode": "2710-416",
      "city": "SINTRA",
      "lon": "-9.434268201492765",
      "lat": "38.81805745622847"
    },
    {
      "id": "pt.ine.add.PTCONT.2574392",
      "street": "R LUZIO CANTINHO DA SAUDADE",
      "house": "86",
      "postcode": "2710-267",
      "city": "SINTRA",
      "lon": "-9.433435520485197",
      "lat": "38.81912060941459"
    },
    {
      "id": "pt.ine.add.PTCONT.2590242",
      "street": "LUZIO",
      "house": "",
      "postcode": "2710-267",
      "city": "SINTRA",
      "lon": "-9.43722303202916",
      "lat": "38.81719581307441"
    },
    {
      "id": "pt.ine.add.PTCONT.2696823",
      "street": "R LUZIO CANTINHO SAUDADE",
      "house": "86",
      "postcode": "2710-267",
      "city": "SINTRA",
      "lon": "-9.433251662548976",
      "lat": "38.819140670978996"
    },
    {
      "id": "pt.ine.add.PTCONT.2696824",
      "street": "R ALTO PEDREGAL",
      "house": "80",
      "postcode": "2710-267",
      "city": "SINTRA",
      "lon": "-9.43296598732449",
      "lat": "38.81736035887572"
    },
    {
      "id": "pt.ine.add.PTCONT.2826995",
      "street": "R LUZIO",
      "house": "92",
      "postcode": "2710-267",
      "city": "SINTRA",
      "lon": "-9.43359193201727",
      "lat": "38.81885764980172"
    },
    {
      "id": "pt.ine.add.PTCONT.3124585",
      "street": "R LUZIO CANTINHO SAUDADE",
      "house": "86",
      "postcode": "2710-267",
      "city": "SINTRA",
      "lon": "-9.433080626147138",
      "lat": "38.819232649813614"
    },
    {
      "id": "pt.ine.add.PTCONT.3265059",
      "street": "R LUZIO CASAL DOS GANSOS",
      "house": "82",
      "postcode": "2710-267",
      "city": "SINTRA",
      "lon": "-9.43319918146001",
      "lat": "38.81942048852929"
    },
    {
      "id": "pt.ine.add.PTCONT.3355656",
      "street": "R PARTICULAR",
      "house": "7",
      "postcode": "2710-416",
      "city": "SINTRA",
      "lon": "-9.434037194420847",
      "lat": "38.8173844642222"
    },
    {
      "id": "pt.ine.add.PTCONT.3401838",
      "street": "R PARTICULAR",
      "house": "10",
      "postcode": "2710-416",
      "city": "SINTRA",
      "lon": "-9.433480183363578",
      "lat": "38.817777990056584"
    },
    {
      "id": "pt.ine.add.PTCONT.3428808",
      "street": "R LUZIO GANSOS",
      "house": "82",
      "postcode": "2710-267",
      "city": "SINTRA",
      "lon": "-9.433826423041626",
      "lat": "38.8190892347671"
    }
  ]
}