{
  "data": {
    "distrito": "Lisboa",
    "concelho": "Sintra",
    "freguesia": "Uni達o das freguesias de Sintra (Santa Maria e S達o Miguel, S達o Martinho e S達o Pedro de Penaferrim)",
    "OBJECTID": 1413,
    "BGRI2021": "11112801525",
    "DT21": "11",
    "DTMN21": "1111",
    "DTMNFR21": "111128",
    "DTMNFRSEC21": "111128015",
    "SECNUM21": "015",
    "SSNUM21": "25",
    "SECSSNUM21": "01525",
    "OBJECTID_1": 114450,
    "DT": "11",
    "CC": "11",
    "fr": "28",
    "SEC": "015",
    "SS": "25"
  },
  "addresses": [
    {
      "id": "pt.ine.add.PTCONT.2324718",
      "street": "TV CARRICOS",
      "house": "3",
      "postcode": "2710-711",
      "city": "SINTRA",
      "lon": "-9.423297842069841",
      "lat": "38.81563000253429"
    },
    {
      "id": "pt.ine.add.PTCONT.2336086",
      "street": "TV TOMADIA",
      "house": "3",
      "postcode": "2710-711",
      "city": "SINTRA",
      "lon": "-9.422326869825833",
      "lat": "38.81605506948849"
    },
    {
      "id": "pt.ine.add.PTCONT.2427963",
      "street": "LG DC CHAFARIZ",
      "house": "9",
      "postcode": "2710-711",
      "city": "SINTRA",
      "lon": "-9.424871930293907",
      "lat": "38.815450471028335"
    },
    {
      "id": "pt.ine.add.PTCONT.2443278",
      "street": "TV TOMADIA",
      "house": "2",
      "postcode": "2710-711",
      "city": "SINTRA",
      "lon": "-9.422308863468587",
      "lat": "38.815694966460505"
    },
    {
      "id": "pt.ine.add.PTCONT.2500203",
      "street": "R COSTA",
      "house": "7",
      "postcode": "2710-711",
      "city": "SINTRA",
      "lon": "-9.424375491737477",
      "lat": "38.81537489172525"
    },
    {
      "id": "pt.ine.add.PTCONT.2518505",
      "street": "R TOMADIA",
      "house": "46",
      "postcode": "2710-711",
      "city": "SINTRA",
      "lon": "-9.422937424596336",
      "lat": "38.815435816673336"
    },
    {
      "id": "pt.ine.add.PTCONT.2574394",
      "street": "R COSTA",
      "house": "28",
      "postcode": "2710-711",
      "city": "SINTRA",
      "lon": "-9.423197817170431",
      "lat": "38.815829273176305"
    },
    {
      "id": "pt.ine.add.PTCONT.2627825",
      "street": "R TOMADIA",
      "house": "22",
      "postcode": "2710-711",
      "city": "SINTRA",
      "lon": "-9.42234128576949",
      "lat": "38.815577510566825"
    },
    {
      "id": "pt.ine.add.PTCONT.2728583",
      "street": "TV TOMADIA",
      "house": "8",
      "postcode": "2710-711",
      "city": "SINTRA",
      "lon": "-9.42221969735284",
      "lat": "38.815858086265095"
    },
    {
      "id": "pt.ine.add.PTCONT.2769297",
      "street": "R COSTA",
      "house": "28",
      "postcode": "2710-711",
      "city": "SINTRA",
      "lon": "-9.4228853926726",
      "lat": "38.81574264765767"
    },
    {
      "id": "pt.ine.add.PTCONT.2812597",
      "street": "R TOMADIA",
      "house": "1",
      "postcode": "2710-711",
      "city": "SINTRA",
      "lon": "-9.42170898817571",
      "lat": "38.8156295248549"
    },
    {
      "id": "pt.ine.add.PTCONT.2912597",
      "street": "R TOMADIA",
      "house": "44",
      "postcode": "2710-711",
      "city": "SINTRA",
      "lon": "-9.422857009710691",
      "lat": "38.815445712088454"
    },
    {
      "id": "pt.ine.add.PTCONT.2915530",
      "street": "R TOMADIA",
      "house": "44",
      "postcode": "2710-711",
      "city": "SINTRA",
      "lon": "-9.422857009710691",
      "lat": "38.815445712088454"
    },
    {
      "id": "pt.ine.add.PTCONT.2958383",
      "street": "R MINA",
      "house": "5",
      "postcode": "2710-711",
      "city": "SINTRA",
      "lon": "-9.419304098663074",
      "lat": "38.81890775173711"
    },
    {
      "id": "pt.ine.add.PTCONT.2958387",
      "street": "LG CHAFARIZ",
      "house": "13",
      "postcode": "2710-711",
      "city": "SINTRA",
      "lon": "-9.424705244644999",
      "lat": "38.815146057672145"
    },
    {
      "id": "pt.ine.add.PTCONT.3078582",
      "street": "R TOMADIA",
      "house": "42",
      "postcode": "2710-711",
      "city": "SINTRA",
      "lon": "-9.422844036660614",
      "lat": "38.81536478742409"
    },
    {
      "id": "pt.ine.add.PTCONT.3104352",
      "street": "AV 25 DE ABRIL",
      "house": "30",
      "postcode": "2710-711",
      "city": "SINTRA",
      "lon": "-9.420676082002116",
      "lat": "38.81773066440858"
    },
    {
      "id": "pt.ine.add.PTCONT.3115383",
      "street": "LG CHAFARIZ",
      "house": "12",
      "postcode": "2710-711",
      "city": "SINTRA",
      "lon": "-9.424774961343385",
      "lat": "38.81518131699418"
    },
    {
      "id": "pt.ine.add.PTCONT.3124639",
      "street": "R TOMADIA",
      "house": "20",
      "postcode": "2710-711",
      "city": "SINTRA",
      "lon": "-9.42222585030395",
      "lat": "38.81556076941093"
    },
    {
      "id": "pt.ine.add.PTCONT.3124640",
      "street": "TV TOMADIA",
      "house": "4",
      "postcode": "2710-711",
      "city": "SINTRA",
      "lon": "-9.422298164264177",
      "lat": "38.81574012225758"
    },
    {
      "id": "pt.ine.add.PTCONT.3145246",
      "street": "R TOMADIA",
      "house": "14 A",
      "postcode": "2710-711",
      "city": "SINTRA",
      "lon": "-9.421880031184381",
      "lat": "38.81553756251425"
    },
    {
      "id": "pt.ine.add.PTCONT.3162490",
      "street": "R TOMADIA",
      "house": "26",
      "postcode": "2710-711",
      "city": "SINTRA",
      "lon": "-9.42265403376558",
      "lat": "38.81568214906848"
    },
    {
      "id": "pt.ine.add.PTCONT.3162491",
      "street": "R TOMADIA",
      "house": "26",
      "postcode": "2710-711",
      "city": "SINTRA",
      "lon": "-9.42265403376558",
      "lat": "38.81568214906848"
    },
    {
      "id": "pt.ine.add.PTCONT.3162492",
      "street": "R TOMADIA",
      "house": "26A",
      "postcode": "2710-711",
      "city": "SINTRA",
      "lon": "-9.422757633555545",
      "lat": "38.8156810053775"
    },
    {
      "id": "pt.ine.add.PTCONT.3162496",
      "street": "LG CARRICOS",
      "house": "3",
      "postcode": "2710-711",
      "city": "SINTRA",
      "lon": "-9.423017514525434",
      "lat": "38.815407909703445"
    },
    {
      "id": "pt.ine.add.PTCONT.3180687",
      "street": "R TOMADIA",
      "house": "40",
      "postcode": "2710-711",
      "city": "SINTRA",
      "lon": "-9.422762972103849",
      "lat": "38.815338659770276"
    },
    {
      "id": "pt.ine.add.PTCONT.3190361",
      "street": "R TOMADIA",
      "house": "20",
      "postcode": "2710-711",
      "city": "SINTRA",
      "lon": "-9.422075881684075",
      "lat": "38.815544409188114"
    },
    {
      "id": "pt.ine.add.PTCONT.3197144",
      "street": "R TOMADIA",
      "house": "24",
      "postcode": "2710-711",
      "city": "SINTRA",
      "lon": "-9.422456234096014",
      "lat": "38.81556723435273"
    },
    {
      "id": "pt.ine.add.PTCONT.3226975",
      "street": "TV TOMADIA",
      "house": "6",
      "postcode": "2710-711",
      "city": "SINTRA",
      "lon": "-9.422264767581627",
      "lat": "38.81580354362699"
    },
    {
      "id": "pt.ine.add.PTCONT.3226982",
      "street": "TV CARRICOS",
      "house": "5",
      "postcode": "2710-711",
      "city": "SINTRA",
      "lon": "-9.423205103488545",
      "lat": "38.81559499658197"
    },
    {
      "id": "pt.ine.add.PTCONT.3281899",
      "street": "AV 25 DE ABRIL",
      "house": "28",
      "postcode": "2710-711",
      "city": "SINTRA",
      "lon": "-9.420631006138809",
      "lat": "38.817145670961374"
    },
    {
      "id": "pt.ine.add.PTCONT.3284239",
      "street": "TV CARRIFOS",
      "house": "3",
      "postcode": "2710-711",
      "city": "SINTRA",
      "lon": "-9.423353934864464",
      "lat": "38.815548315109325"
    },
    {
      "id": "pt.ine.add.PTCONT.3297578",
      "street": "R MINA CASA MATO DA COSTA",
      "house": "",
      "postcode": "2710-711",
      "city": "SINTRA",
      "lon": "-9.421059056139569",
      "lat": "38.81917665661413"
    },
    {
      "id": "pt.ine.add.PTCONT.3337910",
      "street": "R COSTA",
      "house": "28 A",
      "postcode": "2710-711",
      "city": "SINTRA",
      "lon": "-9.42307363210462",
      "lat": "38.81596575772433"
    },
    {
      "id": "pt.ine.add.PTCONT.3384100",
      "street": "R TOMADIA",
      "house": "14 A",
      "postcode": "2710-711",
      "city": "SINTRA",
      "lon": "-9.421789728074314",
      "lat": "38.815637641732096"
    },
    {
      "id": "pt.ine.add.PTCONT.3410573",
      "street": "R MINA",
      "house": "",
      "postcode": "2710-711",
      "city": "SINTRA",
      "lon": "-9.419976483744158",
      "lat": "38.816603422996764"
    }
  ]
}