{
  "data": {
    "distrito": "Évora",
    "concelho": "Redondo",
    "freguesia": "Montoito",
    "OBJECTID": 102,
    "BGRI2021": "07100100102",
    "DT21": "07",
    "DTMN21": "0710",
    "DTMNFR21": "071001",
    "DTMNFRSEC21": "071001001",
    "SECNUM21": "001",
    "SSNUM21": "02",
    "SECSSNUM21": "00102",
    "OBJECTID_1": 62862,
    "DT": "07",
    "CC": "10",
    "fr": "01",
    "SEC": "001",
    "SS": "02"
  },
  "addresses": [
    {
      "id": "pt.ine.add.PTCONT.1368846",
      "street": "R 1 MINISTRO VASCO GONÇALVES",
      "house": "9",
      "postcode": "7200-052",
      "city": "MONTOITO",
      "lon": "-7.573265014267351",
      "lat": "38.47757004635437"
    },
    {
      "id": "pt.ine.add.PTCONT.1371107",
      "street": "R PROF BENTO JESUS CARAÇA",
      "house": "7",
      "postcode": "7200-052",
      "city": "MONTOITO",
      "lon": "-7.5738573577820425",
      "lat": "38.47803230738304"
    },
    {
      "id": "pt.ine.add.PTCONT.1371902",
      "street": "R MONTOITO",
      "house": "2",
      "postcode": "7200-052",
      "city": "MONTOITO",
      "lon": "-7.574155027978164",
      "lat": "38.47806976200189"
    },
    {
      "id": "pt.ine.add.PTCONT.1371903",
      "street": "R MONTOITO",
      "house": "2",
      "postcode": "7200-052",
      "city": "MONTOITO",
      "lon": "-7.574155027978164",
      "lat": "38.47806976200189"
    },
    {
      "id": "pt.ine.add.PTCONT.1371904",
      "street": "R MONTOITO",
      "house": "2",
      "postcode": "7200-052",
      "city": "MONTOITO",
      "lon": "-7.574155027978164",
      "lat": "38.47806976200189"
    },
    {
      "id": "pt.ine.add.PTCONT.1375782",
      "street": "R PROF BENTO JESUS CARAÇA",
      "house": "4",
      "postcode": "7200-052",
      "city": "MONTOITO",
      "lon": "-7.573929664210004",
      "lat": "38.477573221022006"
    },
    {
      "id": "pt.ine.add.PTCONT.1379676",
      "street": "R 1 MINISTRO VASCO GONÇALVES",
      "house": "1",
      "postcode": "7200-052",
      "city": "MONTOITO",
      "lon": "-7.5737121428939735",
      "lat": "38.4775451570713"
    },
    {
      "id": "pt.ine.add.PTCONT.1381611",
      "street": "R 1 MINISTRO VASCO GONÇALVES",
      "house": "14",
      "postcode": "7200-052",
      "city": "MONTOITO",
      "lon": "-7.572897683435297",
      "lat": "38.47764936635348"
    },
    {
      "id": "pt.ine.add.PTCONT.1386771",
      "street": "LG 24 DE ABRIL",
      "house": "2",
      "postcode": "7200-052",
      "city": "MONTOITO",
      "lon": "-7.574251712072331",
      "lat": "38.47742161405232"
    },
    {
      "id": "pt.ine.add.PTCONT.1410152",
      "street": "R LIBERDADE",
      "house": "16",
      "postcode": "7200-052",
      "city": "MONTOITO",
      "lon": "-7.5746265381231686",
      "lat": "38.477855807880665"
    },
    {
      "id": "pt.ine.add.PTCONT.1417829",
      "street": "R 1 MINISTRO VASCO GONÇALVES",
      "house": "2",
      "postcode": "7200-052",
      "city": "MONTOITO",
      "lon": "-7.5735860886400195",
      "lat": "38.477544555035216"
    },
    {
      "id": "pt.ine.add.PTCONT.1427153",
      "street": "TV POCINHO",
      "house": "1",
      "postcode": "7200-052",
      "city": "MONTOITO",
      "lon": "-7.574202396467688",
      "lat": "38.47787180186672"
    },
    {
      "id": "pt.ine.add.PTCONT.1427154",
      "street": "TV POCINHO",
      "house": "1",
      "postcode": "7200-052",
      "city": "MONTOITO",
      "lon": "-7.574202396467688",
      "lat": "38.47787180186672"
    },
    {
      "id": "pt.ine.add.PTCONT.1431269",
      "street": "R 1 MINISTRO VASCO GONÇALVES",
      "house": "7",
      "postcode": "7200-052",
      "city": "MONTOITO",
      "lon": "-7.573368288914754",
      "lat": "38.47755252296431"
    },
    {
      "id": "pt.ine.add.PTCONT.1434287",
      "street": "R 1 MINISTRO VASCO GONÇALVES",
      "house": "11",
      "postcode": "7200-052",
      "city": "MONTOITO",
      "lon": "-7.573093052364398",
      "lat": "38.477578232834475"
    },
    {
      "id": "pt.ine.add.PTCONT.1447283",
      "street": "R PROF BENTO JESUS CARAÇA",
      "house": "5",
      "postcode": "7200-052",
      "city": "MONTOITO",
      "lon": "-7.57373993122359",
      "lat": "38.477750498027895"
    },
    {
      "id": "pt.ine.add.PTCONT.1449605",
      "street": "R LIBERDADE",
      "house": "18",
      "postcode": "7200-052",
      "city": "MONTOITO",
      "lon": "-7.574569935582524",
      "lat": "38.477765453385175"
    },
    {
      "id": "pt.ine.add.PTCONT.1453913",
      "street": "R MONTOITO",
      "house": "1",
      "postcode": "7200-052",
      "city": "MONTOITO",
      "lon": "-7.574303863195141",
      "lat": "38.478088489028444"
    },
    {
      "id": "pt.ine.add.PTCONT.1461010",
      "street": "TV POCINHO",
      "house": "2",
      "postcode": "7200-052",
      "city": "MONTOITO",
      "lon": "-7.574215107977826",
      "lat": "38.477709710203364"
    },
    {
      "id": "pt.ine.add.PTCONT.1466326",
      "street": "TV POCINHO",
      "house": "3",
      "postcode": "7200-052",
      "city": "MONTOITO",
      "lon": "-7.574227640663532",
      "lat": "38.477570771230376"
    }
  ]
}