{
  "data": {
    "distrito": "Braga",
    "concelho": "Vila Nova de Famalicão",
    "freguesia": "Requião",
    "OBJECTID": 1499,
    "BGRI2021": "03123300213",
    "DT21": "03",
    "DTMN21": "0312",
    "DTMNFR21": "031233",
    "DTMNFRSEC21": "031233002",
    "SECNUM21": "002",
    "SSNUM21": "13",
    "SECSSNUM21": "00213",
    "OBJECTID_1": 30459,
    "DT": "03",
    "CC": "12",
    "fr": "33",
    "SEC": "002",
    "SS": "13"
  },
  "addresses": [
    {
      "id": "pt.ine.add.PTCONT.529633",
      "street": "R DR FRANCISCO ALVES",
      "house": "317",
      "postcode": "4770-435",
      "city": "REQUIÃO",
      "lon": "-8.484344350327836",
      "lat": "41.40878192754156"
    },
    {
      "id": "pt.ine.add.PTCONT.530920",
      "street": "R CODECEIRA",
      "house": "215",
      "postcode": "4770-428",
      "city": "REQUIÃO",
      "lon": "-8.49056314458436",
      "lat": "41.40872675992529"
    },
    {
      "id": "pt.ine.add.PTCONT.534277",
      "street": "R RIBEIRA E FORNO",
      "house": "472",
      "postcode": "4770-444",
      "city": "REQUIÃO",
      "lon": "-8.48414630844168",
      "lat": "41.40753998350159"
    },
    {
      "id": "pt.ine.add.PTCONT.538550",
      "street": "R QUINTÃO",
      "house": "312",
      "postcode": "4770-456",
      "city": "REQUIÃO",
      "lon": "-8.492680624872364",
      "lat": "41.40232733836583"
    },
    {
      "id": "pt.ine.add.PTCONT.544304",
      "street": "R CARDOSOS",
      "house": "88",
      "postcode": "4770-435",
      "city": "REQUIÃO",
      "lon": "-8.483946680191284",
      "lat": "41.408224894434504"
    },
    {
      "id": "pt.ine.add.PTCONT.544315",
      "street": "R NOVA DE QUINTÃO",
      "house": "102",
      "postcode": "4770-456",
      "city": "REQUIÃO",
      "lon": "-8.493395642915049",
      "lat": "41.40187490259768"
    },
    {
      "id": "pt.ine.add.PTCONT.558899",
      "street": "R QUINTÃO",
      "house": "238",
      "postcode": "4770-456",
      "city": "REQUIÃO",
      "lon": "-8.491905309162073",
      "lat": "41.402689917888154"
    },
    {
      "id": "pt.ine.add.PTCONT.573954",
      "street": "R DR FRANCISCO ALVES",
      "house": "435",
      "postcode": "4770-435",
      "city": "REQUIÃO",
      "lon": "-8.483840497342674",
      "lat": "41.40849533736754"
    },
    {
      "id": "pt.ine.add.PTCONT.593892",
      "street": "R NOVA DE QUINTÃO",
      "house": "126",
      "postcode": "4770-456",
      "city": "REQUIÃO",
      "lon": "-8.493646966837392",
      "lat": "41.401910131307616"
    },
    {
      "id": "pt.ine.add.PTCONT.598773",
      "street": "R DR FRANCISCO ALVES",
      "house": "337",
      "postcode": "4770-435",
      "city": "REQUIÃO",
      "lon": "-8.484690984702876",
      "lat": "41.408744852981435"
    },
    {
      "id": "pt.ine.add.PTCONT.608936",
      "street": "R CODECEIRA",
      "house": "51",
      "postcode": "4770-428",
      "city": "REQUIÃO",
      "lon": "-8.490505715158198",
      "lat": "41.40915912898322"
    },
    {
      "id": "pt.ine.add.PTCONT.615114",
      "street": "R FORNELO",
      "house": "8",
      "postcode": "4770-429",
      "city": "REQUIÃO",
      "lon": "-8.49191316240429",
      "lat": "41.40629148492793"
    },
    {
      "id": "pt.ine.add.PTCONT.661456",
      "street": "R CODECEIRA",
      "house": "229",
      "postcode": "4770-428",
      "city": "REQUIÃO",
      "lon": "-8.49032153625484",
      "lat": "41.40828631560644"
    },
    {
      "id": "pt.ine.add.PTCONT.673478",
      "street": "R DR FRANCISCO ALVES",
      "house": "459",
      "postcode": "4770-435",
      "city": "REQUIÃO",
      "lon": "-8.486150689131765",
      "lat": "41.40885743503665"
    },
    {
      "id": "pt.ine.add.PTCONT.673479",
      "street": "R BAIRRO",
      "house": "",
      "postcode": "4770-432",
      "city": "REQUIÃO",
      "lon": "-8.490487459237608",
      "lat": "41.40582771519597"
    },
    {
      "id": "pt.ine.add.PTCONT.677119",
      "street": "R DR FRANCISCO ALVES",
      "house": "435",
      "postcode": "4770-435",
      "city": "REQUIÃO",
      "lon": "-8.485875520533842",
      "lat": "41.40884027106979"
    },
    {
      "id": "pt.ine.add.PTCONT.708880",
      "street": "R DR FRANCISCO ALVES",
      "house": "359",
      "postcode": "4770-435",
      "city": "REQUIÃO",
      "lon": "-8.484930322377926",
      "lat": "41.40877113332168"
    },
    {
      "id": "pt.ine.add.PTCONT.711847",
      "street": "R DR FRANCISCO ALVES",
      "house": "409",
      "postcode": "4770-435",
      "city": "REQUIÃO",
      "lon": "-8.485564327257974",
      "lat": "41.408796204883664"
    },
    {
      "id": "pt.ine.add.PTCONT.714994",
      "street": "R CARDOSOS",
      "house": "74",
      "postcode": "4770-435",
      "city": "REQUIÃO",
      "lon": "-8.483935495661228",
      "lat": "41.40836899211913"
    },
    {
      "id": "pt.ine.add.PTCONT.741754",
      "street": "R FORNELO",
      "house": "1",
      "postcode": "4770-429",
      "city": "REQUIÃO",
      "lon": "-8.490486058284423",
      "lat": "41.40775457028323"
    },
    {
      "id": "pt.ine.add.PTCONT.745429",
      "street": "R BAIRRO",
      "house": "163",
      "postcode": "4770-432",
      "city": "REQUIÃO",
      "lon": "-8.48968487339004",
      "lat": "41.40558709782858"
    },
    {
      "id": "pt.ine.add.PTCONT.756795",
      "street": "R DR FRANCISCO ALVES",
      "house": "291",
      "postcode": "4770-435",
      "city": "REQUIÃO",
      "lon": "-8.484021537878933",
      "lat": "41.40880092046121"
    },
    {
      "id": "pt.ine.add.PTCONT.782223",
      "street": "R CARDOSOS",
      "house": "124",
      "postcode": "4770-435",
      "city": "REQUIÃO",
      "lon": "-8.483908961266929",
      "lat": "41.40788285841845"
    },
    {
      "id": "pt.ine.add.PTCONT.792653",
      "street": "R DR FRANCISCO ALVES",
      "house": "711",
      "postcode": "4770-435",
      "city": "REQUIÃO",
      "lon": "-8.488523354504212",
      "lat": "41.4097055077725"
    },
    {
      "id": "pt.ine.add.PTCONT.818242",
      "street": "R CARDOSOS",
      "house": "54",
      "postcode": "4770-435",
      "city": "REQUIÃO",
      "lon": "-8.483936561258894",
      "lat": "41.408567076288975"
    },
    {
      "id": "pt.ine.add.PTCONT.823046",
      "street": "R BAIRRO",
      "house": "",
      "postcode": "4770-432",
      "city": "REQUIÃO",
      "lon": "-8.49050005968673",
      "lat": "41.40594472775712"
    },
    {
      "id": "pt.ine.add.PTCONT.839928",
      "street": "R FORNELO",
      "house": "8",
      "postcode": "4770-429",
      "city": "REQUIÃO",
      "lon": "-8.49191316240429",
      "lat": "41.40629148492793"
    }
  ]
}