{
  "data": {
    "distrito": "Viana do Castelo",
    "concelho": "Arcos de Valdevez",
    "freguesia": "Soajo",
    "OBJECTID": 625,
    "BGRI2021": "16014600114",
    "DT21": "16",
    "DTMN21": "1601",
    "DTMNFR21": "160146",
    "DTMNFRSEC21": "160146001",
    "SECNUM21": "001",
    "SSNUM21": "14",
    "SECSSNUM21": "00114",
    "OBJECTID_1": 171695,
    "DT": "16",
    "CC": "01",
    "fr": "46",
    "SEC": "001",
    "SS": "14"
  },
  "addresses": [
    {
      "id": "pt.ine.add.PTCONT.5136933",
      "street": "",
      "house": "",
      "postcode": "4970-653",
      "city": "SOAJO",
      "lon": "-8.267839436450233",
      "lat": "41.87153040276559"
    },
    {
      "id": "pt.ine.add.PTCONT.5142042",
      "street": "",
      "house": "",
      "postcode": "4970-653",
      "city": "SOAJO",
      "lon": "-8.270235387973571",
      "lat": "41.87099637442019"
    },
    {
      "id": "pt.ine.add.PTCONT.5142653",
      "street": "",
      "house": "",
      "postcode": "4970-653",
      "city": "SOAJO",
      "lon": "-8.26705904349429",
      "lat": "41.872764762709686"
    },
    {
      "id": "pt.ine.add.PTCONT.5157737",
      "street": "SIT BAIRROS",
      "house": "6",
      "postcode": "4970-653",
      "city": "SOAJO",
      "lon": "-8.266951175124685",
      "lat": "41.87302598307719"
    },
    {
      "id": "pt.ine.add.PTCONT.5160046",
      "street": "",
      "house": "",
      "postcode": "4970-678",
      "city": "SOAJO",
      "lon": "-8.273697466791917",
      "lat": "41.86777802206726"
    },
    {
      "id": "pt.ine.add.PTCONT.5172830",
      "street": "SIT BAIRROS",
      "house": "1",
      "postcode": "4970-653",
      "city": "SOAJO",
      "lon": "-8.266817299991162",
      "lat": "41.87236890084052"
    },
    {
      "id": "pt.ine.add.PTCONT.5174595",
      "street": "",
      "house": "",
      "postcode": "4970-653",
      "city": "SOAJO",
      "lon": "-8.266889687558985",
      "lat": "41.87242283612148"
    },
    {
      "id": "pt.ine.add.PTCONT.5174679",
      "street": "SIT BAIRROS",
      "house": "16",
      "postcode": "4970-653",
      "city": "SOAJO",
      "lon": "-8.266950949735106",
      "lat": "41.872917944193006"
    },
    {
      "id": "pt.ine.add.PTCONT.5177039",
      "street": "SIT BAIRROS",
      "house": "9",
      "postcode": "4970-653",
      "city": "SOAJO",
      "lon": "-8.267203236702496",
      "lat": "41.87259353245164"
    },
    {
      "id": "pt.ine.add.PTCONT.5178653",
      "street": "SIT BAIRROS",
      "house": "1",
      "postcode": "4970-653",
      "city": "SOAJO",
      "lon": "-8.267132428531296",
      "lat": "41.87329586956146"
    },
    {
      "id": "pt.ine.add.PTCONT.5180458",
      "street": "",
      "house": "",
      "postcode": "4970-673",
      "city": "SOAJO",
      "lon": "-8.279330319970818",
      "lat": "41.86593432137241"
    },
    {
      "id": "pt.ine.add.PTCONT.5185024",
      "street": "",
      "house": "",
      "postcode": "4970-653",
      "city": "SOAJO",
      "lon": "-8.267274288096102",
      "lat": "41.87200823735815"
    },
    {
      "id": "pt.ine.add.PTCONT.5188472",
      "street": "",
      "house": "",
      "postcode": "4970-653",
      "city": "SOAJO",
      "lon": "-8.267011968579997",
      "lat": "41.87329601007124"
    },
    {
      "id": "pt.ine.add.PTCONT.5194127",
      "street": "",
      "house": "",
      "postcode": "4970-673",
      "city": "SOAJO",
      "lon": "-8.280247361537183",
      "lat": "41.86665341195988"
    },
    {
      "id": "pt.ine.add.PTCONT.5203888",
      "street": "SIT BAIRROS",
      "house": "10",
      "postcode": "4970-653",
      "city": "SOAJO",
      "lon": "-8.267107734793525",
      "lat": "41.873007793993274"
    },
    {
      "id": "pt.ine.add.PTCONT.5203927",
      "street": "SIT BAIRROS",
      "house": "6",
      "postcode": "4970-653",
      "city": "SOAJO",
      "lon": "-8.267266195886567",
      "lat": "41.8738989318845"
    },
    {
      "id": "pt.ine.add.PTCONT.5209360",
      "street": "",
      "house": "",
      "postcode": "4970-653",
      "city": "SOAJO",
      "lon": "-8.26704716676135",
      "lat": "41.872845805923674"
    },
    {
      "id": "pt.ine.add.PTCONT.5211485",
      "street": "SEM DESIGNACAO",
      "house": "3",
      "postcode": "4970-653",
      "city": "SOAJO",
      "lon": "-8.266650288873869",
      "lat": "41.8731523790015"
    },
    {
      "id": "pt.ine.add.PTCONT.5216302",
      "street": "",
      "house": "2164",
      "postcode": "4970-653",
      "city": "SOAJO",
      "lon": "-8.268489560301274",
      "lat": "41.871367579492095"
    },
    {
      "id": "pt.ine.add.PTCONT.5217456",
      "street": "SIT BAIRROS",
      "house": "24",
      "postcode": "4970-653",
      "city": "SOAJO",
      "lon": "-8.266950423830886",
      "lat": "41.8726658534553"
    },
    {
      "id": "pt.ine.add.PTCONT.5220159",
      "street": "SIT BAIRROS",
      "house": "120",
      "postcode": "4970-653",
      "city": "SOAJO",
      "lon": "-8.270388878885917",
      "lat": "41.86954666517206"
    },
    {
      "id": "pt.ine.add.PTCONT.5220924",
      "street": "SIT BAIRROS",
      "house": "1",
      "postcode": "4970-653",
      "city": "SOAJO",
      "lon": "-8.266746375313135",
      "lat": "41.87301721830387"
    },
    {
      "id": "pt.ine.add.PTCONT.5223306",
      "street": "",
      "house": "",
      "postcode": "4970-653",
      "city": "SOAJO",
      "lon": "-8.268236715790463",
      "lat": "41.871421896848965"
    },
    {
      "id": "pt.ine.add.PTCONT.5226800",
      "street": "CAM SOUTO BAIRROS",
      "house": "2",
      "postcode": "4970-653",
      "city": "SOAJO",
      "lon": "-8.26771278971849",
      "lat": "41.87432156257363"
    },
    {
      "id": "pt.ine.add.PTCONT.5229005",
      "street": "",
      "house": "",
      "postcode": "4970-678",
      "city": "SOAJO",
      "lon": "-8.271073931049859",
      "lat": "41.86883458610879"
    },
    {
      "id": "pt.ine.add.PTCONT.5230191",
      "street": "",
      "house": "",
      "postcode": "4970-653",
      "city": "SOAJO",
      "lon": "-8.26667376227132",
      "lat": "41.872855244052374"
    },
    {
      "id": "pt.ine.add.PTCONT.5231386",
      "street": "SIT BAIRROS",
      "house": "2",
      "postcode": "4970-653",
      "city": "SOAJO",
      "lon": "-8.267047768233525",
      "lat": "41.873133909612804"
    },
    {
      "id": "pt.ine.add.PTCONT.5236222",
      "street": "SIT BAIRROS",
      "house": "13",
      "postcode": "4970-653",
      "city": "SOAJO",
      "lon": "-8.266661472716269",
      "lat": "41.872738215931314"
    },
    {
      "id": "pt.ine.add.PTCONT.5237432",
      "street": "SIT BAIRROS",
      "house": "26",
      "postcode": "4970-653",
      "city": "SOAJO",
      "lon": "-8.26693858453983",
      "lat": "41.87276490314104"
    },
    {
      "id": "pt.ine.add.PTCONT.5241019",
      "street": "CAM LAGE CARDEIRA",
      "house": "2",
      "postcode": "4970-653",
      "city": "SOAJO",
      "lon": "-8.26671006874628",
      "lat": "41.872936231184504"
    },
    {
      "id": "pt.ine.add.PTCONT.5242090",
      "street": "SIT BAIRROS",
      "house": "24",
      "postcode": "4970-653",
      "city": "SOAJO",
      "lon": "-8.267538558961595",
      "lat": "41.871656801037176"
    },
    {
      "id": "pt.ine.add.PTCONT.5246787",
      "street": "SIT BAIRROS",
      "house": "5",
      "postcode": "4970-653",
      "city": "SOAJO",
      "lon": "-8.266877923305657",
      "lat": "41.87255789876946"
    },
    {
      "id": "pt.ine.add.PTCONT.5249200",
      "street": "CAM SOUTO DE BAIRROS",
      "house": "2",
      "postcode": "4970-653",
      "city": "SOAJO",
      "lon": "-8.267966024613202",
      "lat": "41.874447311136166"
    },
    {
      "id": "pt.ine.add.PTCONT.5249212",
      "street": "",
      "house": "",
      "postcode": "4970-653",
      "city": "SOAJO",
      "lon": "-8.270221572337775",
      "lat": "41.87016809045574"
    },
    {
      "id": "pt.ine.add.PTCONT.5250310",
      "street": "",
      "house": "",
      "postcode": "4970-653",
      "city": "SOAJO",
      "lon": "-8.268220208585554",
      "lat": "41.875023220986506"
    },
    {
      "id": "pt.ine.add.PTCONT.5251874",
      "street": "SIT BAIRROS",
      "house": "8",
      "postcode": "4970-653",
      "city": "SOAJO",
      "lon": "-8.267410315692791",
      "lat": "41.8736916884413"
    },
    {
      "id": "pt.ine.add.PTCONT.5253822",
      "street": "",
      "house": "",
      "postcode": "4970-653",
      "city": "SOAJO",
      "lon": "-8.266781931621985",
      "lat": "41.872738075790664"
    },
    {
      "id": "pt.ine.add.PTCONT.5258432",
      "street": "",
      "house": "",
      "postcode": "4970-653",
      "city": "SOAJO",
      "lon": "-8.267724401393446",
      "lat": "41.87411447397816"
    },
    {
      "id": "pt.ine.add.PTCONT.5264132",
      "street": "SIT BAIRROS",
      "house": "18",
      "postcode": "4970-653",
      "city": "SOAJO",
      "lon": "-8.267587156869816",
      "lat": "41.871854815953895"
    },
    {
      "id": "pt.ine.add.PTCONT.5265348",
      "street": "SIT BAIRROS",
      "house": "12",
      "postcode": "4970-653",
      "city": "SOAJO",
      "lon": "-8.266782719489747",
      "lat": "41.87311621189088"
    },
    {
      "id": "pt.ine.add.PTCONT.5270071",
      "street": "",
      "house": "",
      "postcode": "4970-653",
      "city": "SOAJO",
      "lon": "-8.267447019478228",
      "lat": "41.87396174334064"
    },
    {
      "id": "pt.ine.add.PTCONT.5270076",
      "street": "AV 25 ABRIL",
      "house": "2418",
      "postcode": "4970-653",
      "city": "SOAJO",
      "lon": "-8.270186840257768",
      "lat": "41.87082537033317"
    },
    {
      "id": "pt.ine.add.PTCONT.5271171",
      "street": "SIT BAIRROS",
      "house": "4",
      "postcode": "4970-653",
      "city": "SOAJO",
      "lon": "-8.267167719931143",
      "lat": "41.87289068158038"
    },
    {
      "id": "pt.ine.add.PTCONT.5281576",
      "street": "SIT BAIRROS",
      "house": "7",
      "postcode": "4970-653",
      "city": "SOAJO",
      "lon": "-8.267034594617098",
      "lat": "41.872593729231255"
    },
    {
      "id": "pt.ine.add.PTCONT.5281601",
      "street": "",
      "house": "",
      "postcode": "4970-653",
      "city": "SOAJO",
      "lon": "-8.267166722863982",
      "lat": "41.87241350981943"
    }
  ]
}