{
  "data": {
    "distrito": "Lisboa",
    "concelho": "Alenquer",
    "freguesia": "União das freguesias de Aldeia Galega da Merceana e Aldeia Gavinha",
    "OBJECTID": 126,
    "BGRI2021": "11011800205",
    "DT21": "11",
    "DTMN21": "1101",
    "DTMNFR21": "110118",
    "DTMNFRSEC21": "110118002",
    "SECNUM21": "002",
    "SSNUM21": "05",
    "SECSSNUM21": "00205",
    "OBJECTID_1": 98809,
    "DT": "11",
    "CC": "01",
    "fr": "18",
    "SEC": "002",
    "SS": "05"
  },
  "addresses": [
    {
      "id": "pt.ine.add.PTCONT.2313570",
      "street": "LG FONTE",
      "house": "",
      "postcode": "2580-101",
      "city": "ALDEIA GAVINHA",
      "lon": "-9.095652661195619",
      "lat": "39.07284755949095"
    },
    {
      "id": "pt.ine.add.PTCONT.2331660",
      "street": "ESTR POÇO MOURO LUGAL DO MONDEGO",
      "house": "",
      "postcode": "2580-101",
      "city": "ALDEIA GAVINHA",
      "lon": "-9.099473185902552",
      "lat": "39.080156964218205"
    },
    {
      "id": "pt.ine.add.PTCONT.2438641",
      "street": "R CASAL",
      "house": "10",
      "postcode": "2580-101",
      "city": "ALDEIA GAVINHA",
      "lon": "-9.09935158297996",
      "lat": "39.083950070502176"
    },
    {
      "id": "pt.ine.add.PTCONT.2477097",
      "street": "EN 9",
      "house": "2",
      "postcode": "2580-101",
      "city": "ALDEIA GAVINHA",
      "lon": "-9.10336273483994",
      "lat": "39.08485352507585"
    },
    {
      "id": "pt.ine.add.PTCONT.2493865",
      "street": "R CASAL",
      "house": "",
      "postcode": "2580-101",
      "city": "ALDEIA GAVINHA",
      "lon": "-9.099302281744224",
      "lat": "39.08457198666401"
    },
    {
      "id": "pt.ine.add.PTCONT.2498707",
      "street": "R CASAL",
      "house": "4",
      "postcode": "2580-101",
      "city": "ALDEIA GAVINHA",
      "lon": "-9.099182176594441",
      "lat": "39.08423970970509"
    },
    {
      "id": "pt.ine.add.PTCONT.2498708",
      "street": "AZ ZE DUQUE",
      "house": "15",
      "postcode": "2580-101",
      "city": "ALDEIA GAVINHA",
      "lon": "-9.098374263146358",
      "lat": "39.08347176833225"
    },
    {
      "id": "pt.ine.add.PTCONT.2498837",
      "street": "ESTR POÇO MOURO",
      "house": "",
      "postcode": "2580-101",
      "city": "ALDEIA GAVINHA",
      "lon": "-9.100802856402941",
      "lat": "39.07682221881845"
    },
    {
      "id": "pt.ine.add.PTCONT.2513673",
      "street": "R FONTE",
      "house": "2",
      "postcode": "2580-108",
      "city": "ALDEIA GAVINHA",
      "lon": "-9.094341066100029",
      "lat": "39.07241701762868"
    },
    {
      "id": "pt.ine.add.PTCONT.2513674",
      "street": "ESTR POÇO MOURO",
      "house": "",
      "postcode": "2580-101",
      "city": "ALDEIA GAVINHA",
      "lon": "-9.1009716357806",
      "lat": "39.077334237844994"
    },
    {
      "id": "pt.ine.add.PTCONT.2610138",
      "street": "R PALMEIRAS",
      "house": "2",
      "postcode": "2580-101",
      "city": "ALDEIA GAVINHA",
      "lon": "-9.096478625749691",
      "lat": "39.08345141707807"
    },
    {
      "id": "pt.ine.add.PTCONT.2651532",
      "street": "R PALMEIRAS",
      "house": "16",
      "postcode": "2580-101",
      "city": "ALDEIA GAVINHA",
      "lon": "-9.09636049565733",
      "lat": "39.08326323852178"
    },
    {
      "id": "pt.ine.add.PTCONT.2665997",
      "street": "R CASAL",
      "house": "2",
      "postcode": "2580-101",
      "city": "ALDEIA GAVINHA",
      "lon": "-9.099195821052302",
      "lat": "39.08439272171054"
    },
    {
      "id": "pt.ine.add.PTCONT.2687959",
      "street": "R FRANCISCO DE SOUSA E ALMADA CAZAL DA FIGUEIRINHA",
      "house": "16",
      "postcode": "2580-101",
      "city": "ALDEIA GAVINHA",
      "lon": "-9.098244468654464",
      "lat": "39.08242798914477"
    },
    {
      "id": "pt.ine.add.PTCONT.2688078",
      "street": "ESTR POÇO MOURO",
      "house": "",
      "postcode": "2580-101",
      "city": "ALDEIA GAVINHA",
      "lon": "-9.09822661120883",
      "lat": "39.07857298567671"
    },
    {
      "id": "pt.ine.add.PTCONT.2689807",
      "street": "AZ ZE DUQUE",
      "house": "5",
      "postcode": "2580-101",
      "city": "ALDEIA GAVINHA",
      "lon": "-9.096650737079562",
      "lat": "39.08335992128235"
    },
    {
      "id": "pt.ine.add.PTCONT.2701695",
      "street": "EN 9",
      "house": "16",
      "postcode": "2580-101",
      "city": "ALDEIA GAVINHA",
      "lon": "-9.099812464533711",
      "lat": "39.08469386073367"
    },
    {
      "id": "pt.ine.add.PTCONT.2701755",
      "street": "R TRAS OUTEIRO",
      "house": "",
      "postcode": "2580-101",
      "city": "ALDEIA GAVINHA",
      "lon": "-9.096653670047951",
      "lat": "39.08102699051221"
    },
    {
      "id": "pt.ine.add.PTCONT.2710018",
      "street": "AZ ZE DUQUE",
      "house": "17",
      "postcode": "2580-101",
      "city": "ALDEIA GAVINHA",
      "lon": "-9.09837340390726",
      "lat": "39.08340872393757"
    },
    {
      "id": "pt.ine.add.PTCONT.2733202",
      "street": "R CASAL",
      "house": "",
      "postcode": "2580-101",
      "city": "ALDEIA GAVINHA",
      "lon": "-9.099175043452599",
      "lat": "39.08456403363954"
    },
    {
      "id": "pt.ine.add.PTCONT.2737375",
      "street": "AZ ZE DUQUE",
      "house": "19",
      "postcode": "2580-101",
      "city": "ALDEIA GAVINHA",
      "lon": "-9.0985935772537",
      "lat": "39.08345193775293"
    },
    {
      "id": "pt.ine.add.PTCONT.2781833",
      "street": "LG FONTE",
      "house": "6",
      "postcode": "2580-101",
      "city": "ALDEIA GAVINHA",
      "lon": "-9.095595502697666",
      "lat": "39.07289306818858"
    },
    {
      "id": "pt.ine.add.PTCONT.2781834",
      "street": "ESTR POÇO MOURO",
      "house": "",
      "postcode": "2580-101",
      "city": "ALDEIA GAVINHA",
      "lon": "-9.102267398354902",
      "lat": "39.078287262911715"
    },
    {
      "id": "pt.ine.add.PTCONT.2804932",
      "street": "EN 9",
      "house": "20",
      "postcode": "2580-101",
      "city": "ALDEIA GAVINHA",
      "lon": "-9.099384647966847",
      "lat": "39.084679392352285"
    },
    {
      "id": "pt.ine.add.PTCONT.2829248",
      "street": "AZ ZE DUQUE",
      "house": "23",
      "postcode": "2580-101",
      "city": "ALDEIA GAVINHA",
      "lon": "-9.098964344395187",
      "lat": "39.083520925824104"
    },
    {
      "id": "pt.ine.add.PTCONT.2835325",
      "street": "EN 9",
      "house": "10",
      "postcode": "2580-101",
      "city": "ALDEIA GAVINHA",
      "lon": "-9.100227618368868",
      "lat": "39.08462736638025"
    },
    {
      "id": "pt.ine.add.PTCONT.2856296",
      "street": "AZ ZE DUQUE",
      "house": "9",
      "postcode": "2580-101",
      "city": "ALDEIA GAVINHA",
      "lon": "-9.097655719998787",
      "lat": "39.08332458969096"
    },
    {
      "id": "pt.ine.add.PTCONT.2862640",
      "street": "AZ ZE DUQUE",
      "house": "3",
      "postcode": "2580-101",
      "city": "ALDEIA GAVINHA",
      "lon": "-9.09662836071731",
      "lat": "39.08341415035465"
    },
    {
      "id": "pt.ine.add.PTCONT.2873715",
      "street": "R FRANCISCO DE SOUSA E ALMADA TERRA DO MEL",
      "house": "12",
      "postcode": "2580-101",
      "city": "ALDEIA GAVINHA",
      "lon": "-9.096343060445987",
      "lat": "39.08283102928101"
    },
    {
      "id": "pt.ine.add.PTCONT.2923194",
      "street": "EN 9",
      "house": "18",
      "postcode": "2580-101",
      "city": "ALDEIA GAVINHA",
      "lon": "-9.099581468098163",
      "lat": "39.08470478309964"
    },
    {
      "id": "pt.ine.add.PTCONT.2923195",
      "street": "R CASAL",
      "house": "6",
      "postcode": "2580-101",
      "city": "ALDEIA GAVINHA",
      "lon": "-9.099460132500901",
      "lat": "39.08428244307678"
    },
    {
      "id": "pt.ine.add.PTCONT.2924015",
      "street": "R PALMEIRAS",
      "house": "18",
      "postcode": "2580-101",
      "city": "ALDEIA GAVINHA",
      "lon": "-9.096210638386307",
      "lat": "39.08329149855182"
    },
    {
      "id": "pt.ine.add.PTCONT.3027074",
      "street": "CSL MARTELA",
      "house": "",
      "postcode": "2580-101",
      "city": "ALDEIA GAVINHA",
      "lon": "-9.09714304112229",
      "lat": "39.08132018833522"
    },
    {
      "id": "pt.ine.add.PTCONT.3092682",
      "street": "AZ ZE DUQUE",
      "house": "13",
      "postcode": "2580-101",
      "city": "ALDEIA GAVINHA",
      "lon": "-9.098281326020556",
      "lat": "39.08343650826936"
    },
    {
      "id": "pt.ine.add.PTCONT.3149609",
      "street": "R CASAL",
      "house": "8",
      "postcode": "2580-101",
      "city": "ALDEIA GAVINHA",
      "lon": "-9.09924979187724",
      "lat": "39.08411304644662"
    },
    {
      "id": "pt.ine.add.PTCONT.3157769",
      "street": "EN 9 VILLA NOBRE",
      "house": "22",
      "postcode": "2580-101",
      "city": "ALDEIA GAVINHA",
      "lon": "-9.099107919010548",
      "lat": "39.08472672220484"
    },
    {
      "id": "pt.ine.add.PTCONT.3195325",
      "street": "EN 9",
      "house": "12",
      "postcode": "2580-101",
      "city": "ALDEIA GAVINHA",
      "lon": "-9.100183608262661",
      "lat": "39.08478986382262"
    },
    {
      "id": "pt.ine.add.PTCONT.3249815",
      "street": "EN 9",
      "house": "4",
      "postcode": "2580-101",
      "city": "ALDEIA GAVINHA",
      "lon": "-9.101837468125451",
      "lat": "39.08487521522054"
    },
    {
      "id": "pt.ine.add.PTCONT.3268319",
      "street": "R FRANCISCO DE SOUSA E ALMADA",
      "house": "14",
      "postcode": "2580-101",
      "city": "ALDEIA GAVINHA",
      "lon": "-9.098094491237301",
      "lat": "39.082447245224316"
    },
    {
      "id": "pt.ine.add.PTCONT.3277613",
      "street": "AZ ZE DUQUE",
      "house": "25",
      "postcode": "2580-101",
      "city": "ALDEIA GAVINHA",
      "lon": "-9.099162266805616",
      "lat": "39.08362737438649"
    },
    {
      "id": "pt.ine.add.PTCONT.3340115",
      "street": "R PALMEIRAS",
      "house": "12",
      "postcode": "2580-101",
      "city": "ALDEIA GAVINHA",
      "lon": "-9.096510965358686",
      "lat": "39.0832800100371"
    },
    {
      "id": "pt.ine.add.PTCONT.3363285",
      "street": "R CARLOS DUFF OUINTA DA CHOCAPALHA",
      "house": "",
      "postcode": "2580-081",
      "city": "ALDEIA GALEGA DA MERCEANA",
      "lon": "-9.106766839111843",
      "lat": "39.07606098802325"
    },
    {
      "id": "pt.ine.add.PTCONT.3363286",
      "street": "QTA CHOCAPALHAS",
      "house": "",
      "postcode": "2580-081",
      "city": "ALDEIA GALEGA DA MERCEANA",
      "lon": "-9.106766839111843",
      "lat": "39.07606098802325"
    },
    {
      "id": "pt.ine.add.PTCONT.3371327",
      "street": "LG FONTE",
      "house": "",
      "postcode": "2580-101",
      "city": "ALDEIA GAVINHA",
      "lon": "-9.095399573032811",
      "lat": "39.07293071479511"
    },
    {
      "id": "pt.ine.add.PTCONT.3397720",
      "street": "EN 9",
      "house": "14",
      "postcode": "2580-101",
      "city": "ALDEIA GAVINHA",
      "lon": "-9.099998343676964",
      "lat": "39.084764378266996"
    },
    {
      "id": "pt.ine.add.PTCONT.3397721",
      "street": "EN 9",
      "house": "14",
      "postcode": "2580-101",
      "city": "ALDEIA GAVINHA",
      "lon": "-9.099998343676964",
      "lat": "39.084764378266996"
    },
    {
      "id": "pt.ine.add.PTCONT.3415267",
      "street": "R PALHEIRAS",
      "house": "14",
      "postcode": "2580-101",
      "city": "ALDEIA GAVINHA",
      "lon": "-9.096464497359657",
      "lat": "39.08326237926442"
    },
    {
      "id": "pt.ine.add.PTCONT.3435221",
      "street": "R PALMEIRAS",
      "house": "",
      "postcode": "2580-101",
      "city": "ALDEIA GAVINHA",
      "lon": "-9.096468417544177",
      "lat": "39.083550582375125"
    },
    {
      "id": "pt.ine.add.PTCONT.3442583",
      "street": "R CARLOS DUFF OUINTA DA CHOCAPALHA",
      "house": "",
      "postcode": "2580-081",
      "city": "ALDEIA GALEGA DA MERCEANA",
      "lon": "-9.106766839111843",
      "lat": "39.07606098802325"
    },
    {
      "id": "pt.ine.add.PTCONT.3444671",
      "street": "AZ ZE DUQUE",
      "house": "11",
      "postcode": "2580-101",
      "city": "ALDEIA GAVINHA",
      "lon": "-9.098200190199782",
      "lat": "39.083419165166326"
    }
  ]
}