{
  "data": {
    "distrito": "Viseu",
    "concelho": "Moimenta da Beira",
    "freguesia": "Leomil",
    "OBJECTID": 86,
    "BGRI2021": "18070900133",
    "DT21": "18",
    "DTMN21": "1807",
    "DTMNFR21": "180709",
    "DTMNFRSEC21": "180709001",
    "SECNUM21": "001",
    "SSNUM21": "33",
    "SECSSNUM21": "00133",
    "OBJECTID_1": 192577,
    "DT": "18",
    "CC": "07",
    "fr": "09",
    "SEC": "001",
    "SS": "33"
  },
  "addresses": [
    {
      "id": "pt.ine.add.PTCONT.5432752",
      "street": "R CARRIL",
      "house": "",
      "postcode": "3620-200",
      "city": "LEOMIL MBR",
      "lon": "-7.681458228166908",
      "lat": "40.98906594203334"
    },
    {
      "id": "pt.ine.add.PTCONT.5436374",
      "street": "ESTR MUNICIPAL",
      "house": "",
      "postcode": "3620-200",
      "city": "LEOMIL MBR",
      "lon": "-7.677710839140636",
      "lat": "40.98965450827605"
    },
    {
      "id": "pt.ine.add.PTCONT.5460595",
      "street": "R ESTRADA",
      "house": "",
      "postcode": "3620-200",
      "city": "LEOMIL MBR",
      "lon": "-7.679019990100099",
      "lat": "40.989371524937"
    },
    {
      "id": "pt.ine.add.PTCONT.5469302",
      "street": "ESTR MUNICIPAL",
      "house": "31",
      "postcode": "3620-200",
      "city": "LEOMIL MBR",
      "lon": "-7.679459612390427",
      "lat": "40.98938226040526"
    },
    {
      "id": "pt.ine.add.PTCONT.5474747",
      "street": "R CARRIL",
      "house": "",
      "postcode": "3620-200",
      "city": "LEOMIL MBR",
      "lon": "-7.681750398374579",
      "lat": "40.989787455380835"
    },
    {
      "id": "pt.ine.add.PTCONT.5477800",
      "street": "R FONTANARIO",
      "house": "35",
      "postcode": "3620-200",
      "city": "LEOMIL MBR",
      "lon": "-7.67917515296267",
      "lat": "40.989273085288865"
    },
    {
      "id": "pt.ine.add.PTCONT.5495374",
      "street": "R CARRIL",
      "house": "",
      "postcode": "3620-200",
      "city": "LEOMIL MBR",
      "lon": "-7.680827798009453",
      "lat": "40.98915351648366"
    },
    {
      "id": "pt.ine.add.PTCONT.5499923",
      "street": "ESTR MUNICIPAL",
      "house": "",
      "postcode": "3620-200",
      "city": "LEOMIL MBR",
      "lon": "-7.678071798279007",
      "lat": "40.989007601560424"
    },
    {
      "id": "pt.ine.add.PTCONT.5505648",
      "street": "LG CARRIL",
      "house": "28",
      "postcode": "3620-200",
      "city": "LEOMIL MBR",
      "lon": "-7.680151311803601",
      "lat": "40.98902479581477"
    },
    {
      "id": "pt.ine.add.PTCONT.5521529",
      "street": "R ESTRADA",
      "house": "",
      "postcode": "3620-200",
      "city": "LEOMIL MBR",
      "lon": "-7.681927913259997",
      "lat": "40.98989620562742"
    },
    {
      "id": "pt.ine.add.PTCONT.5527229",
      "street": "ESTR MUNICIPAL",
      "house": "",
      "postcode": "3620-200",
      "city": "LEOMIL MBR",
      "lon": "-7.677769203051511",
      "lat": "40.98980781722091"
    },
    {
      "id": "pt.ine.add.PTCONT.5544793",
      "street": "R CARRIL",
      "house": "",
      "postcode": "3620-200",
      "city": "LEOMIL MBR",
      "lon": "-7.681100991274053",
      "lat": "40.9891725972225"
    },
    {
      "id": "pt.ine.add.PTCONT.5562659",
      "street": "R CARRIL",
      "house": "",
      "postcode": "3620-200",
      "city": "LEOMIL MBR",
      "lon": "-7.681078823501654",
      "lat": "40.98893839035514"
    },
    {
      "id": "pt.ine.add.PTCONT.5565226",
      "street": "",
      "house": "",
      "postcode": "3620-200",
      "city": "LEOMIL MBR",
      "lon": "-7.6800907860263665",
      "lat": "40.98918664101394"
    },
    {
      "id": "pt.ine.add.PTCONT.5582384",
      "street": "R CARRIL",
      "house": "",
      "postcode": "3620-200",
      "city": "LEOMIL MBR",
      "lon": "-7.681886456683649",
      "lat": "40.989004586696865"
    },
    {
      "id": "pt.ine.add.PTCONT.5589808",
      "street": "R CARRIL",
      "house": "",
      "postcode": "3620-200",
      "city": "LEOMIL MBR",
      "lon": "-7.681537848177911",
      "lat": "40.98958852149943"
    },
    {
      "id": "pt.ine.add.PTCONT.5589809",
      "street": "ESTR MUNICIPAL",
      "house": "",
      "postcode": "3620-200",
      "city": "LEOMIL MBR",
      "lon": "-7.679340902318993",
      "lat": "40.98936378396697"
    },
    {
      "id": "pt.ine.add.PTCONT.5602687",
      "street": "R RIBEIRA",
      "house": "",
      "postcode": "3620-200",
      "city": "LEOMIL MBR",
      "lon": "-7.677975431752449",
      "lat": "40.98919631800172"
    },
    {
      "id": "pt.ine.add.PTCONT.5609889",
      "street": "EM 30 A",
      "house": "30A",
      "postcode": "3620-200",
      "city": "LEOMIL MBR",
      "lon": "-7.680054458089445",
      "lat": "40.98928554898937"
    },
    {
      "id": "pt.ine.add.PTCONT.5609904",
      "street": "ESTR MUNICIPAL",
      "house": "",
      "postcode": "3620-200",
      "city": "LEOMIL MBR",
      "lon": "-7.6777482858584305",
      "lat": "40.989393522452694"
    },
    {
      "id": "pt.ine.add.PTCONT.5634100",
      "street": "R CARRIL",
      "house": "",
      "postcode": "3620-200",
      "city": "LEOMIL MBR",
      "lon": "-7.681775086257101",
      "lat": "40.98965248285475"
    },
    {
      "id": "pt.ine.add.PTCONT.5648321",
      "street": "ESTR MUNICIPAL",
      "house": "10",
      "postcode": "3620-200",
      "city": "LEOMIL MBR",
      "lon": "-7.681821821746398",
      "lat": "40.98976972578313"
    }
  ]
}