{
  "data": {
    "distrito": "Viseu",
    "concelho": "Moimenta da Beira",
    "freguesia": "Leomil",
    "OBJECTID": 379,
    "BGRI2021": "18070900147",
    "DT21": "18",
    "DTMN21": "1807",
    "DTMNFR21": "180709",
    "DTMNFRSEC21": "180709001",
    "SECNUM21": "001",
    "SSNUM21": "47",
    "SECSSNUM21": "00147",
    "OBJECTID_1": 192691,
    "DT": "18",
    "CC": "07",
    "fr": "09",
    "SEC": "001",
    "SS": "47"
  },
  "addresses": [
    {
      "id": "pt.ine.add.PTCONT.5435821",
      "street": "R FORNO PUBLICO",
      "house": "",
      "postcode": "3620-161",
      "city": "LEOMIL MBR",
      "lon": "-7.641244434293762",
      "lat": "41.000211148758765"
    },
    {
      "id": "pt.ine.add.PTCONT.5436518",
      "street": "R LOUREIRO",
      "house": "",
      "postcode": "3620-161",
      "city": "LEOMIL MBR",
      "lon": "-7.641016136939332",
      "lat": "41.0005433441614"
    },
    {
      "id": "pt.ine.add.PTCONT.5440292",
      "street": "LG CAPELA",
      "house": "",
      "postcode": "3620-161",
      "city": "LEOMIL MBR",
      "lon": "-7.641072817861478",
      "lat": "41.000912774215685"
    },
    {
      "id": "pt.ine.add.PTCONT.5449621",
      "street": "R LOUREIRO",
      "house": "",
      "postcode": "3620-161",
      "city": "LEOMIL MBR",
      "lon": "-7.641429244798244",
      "lat": "41.00093230424076"
    },
    {
      "id": "pt.ine.add.PTCONT.5453286",
      "street": "R CEMITÉRIO",
      "house": "",
      "postcode": "3620-161",
      "city": "LEOMIL MBR",
      "lon": "-7.6414046710337535",
      "lat": "41.00104025447096"
    },
    {
      "id": "pt.ine.add.PTCONT.5458434",
      "street": "R ESCOLA",
      "house": "",
      "postcode": "3620-161",
      "city": "LEOMIL MBR",
      "lon": "-7.640713954612861",
      "lat": "40.99962358570984"
    },
    {
      "id": "pt.ine.add.PTCONT.5467527",
      "street": "R ESCOLA",
      "house": "",
      "postcode": "3620-161",
      "city": "LEOMIL MBR",
      "lon": "-7.64063661188932",
      "lat": "41.000433668300985"
    },
    {
      "id": "pt.ine.add.PTCONT.5474891",
      "street": "QTA EIRA BEIRA VALENTE LEOMIL",
      "house": "",
      "postcode": "3620-161",
      "city": "LEOMIL MBR",
      "lon": "-7.641810913708664",
      "lat": "41.00075383981967"
    },
    {
      "id": "pt.ine.add.PTCONT.5480107",
      "street": "R LOUREIRO",
      "house": "",
      "postcode": "3620-161",
      "city": "LEOMIL MBR",
      "lon": "-7.641370487229732",
      "lat": "41.000842007725986"
    },
    {
      "id": "pt.ine.add.PTCONT.5493049",
      "street": "R ESCOLA",
      "house": "",
      "postcode": "3620-161",
      "city": "LEOMIL MBR",
      "lon": "-7.640531990748648",
      "lat": "41.00011806069171"
    },
    {
      "id": "pt.ine.add.PTCONT.5500075",
      "street": "R BECO",
      "house": "",
      "postcode": "3620-161",
      "city": "LEOMIL MBR",
      "lon": "-7.640954366163992",
      "lat": "41.00085824102105"
    },
    {
      "id": "pt.ine.add.PTCONT.5516885",
      "street": "R ESCOLA",
      "house": "",
      "postcode": "3620-161",
      "city": "LEOMIL MBR",
      "lon": "-7.640507281756939",
      "lat": "41.0002440193432"
    },
    {
      "id": "pt.ine.add.PTCONT.5518647",
      "street": "ESTR MUNICIPAL",
      "house": "",
      "postcode": "3620-161",
      "city": "LEOMIL MBR",
      "lon": "-7.642875970898594",
      "lat": "40.99817405689238"
    },
    {
      "id": "pt.ine.add.PTCONT.5536159",
      "street": "R ESCOLA",
      "house": "",
      "postcode": "3620-161",
      "city": "LEOMIL MBR",
      "lon": "-7.640554219400451",
      "lat": "41.00032526121109"
    },
    {
      "id": "pt.ine.add.PTCONT.5538890",
      "street": "R FORNO",
      "house": "",
      "postcode": "3620-161",
      "city": "LEOMIL MBR",
      "lon": "-7.640849407880602",
      "lat": "41.00058765522055"
    },
    {
      "id": "pt.ine.add.PTCONT.5552557",
      "street": "R FORNO",
      "house": "",
      "postcode": "3620-161",
      "city": "LEOMIL MBR",
      "lon": "-7.641038836022273",
      "lat": "41.00068751446806"
    },
    {
      "id": "pt.ine.add.PTCONT.5573097",
      "street": "R ESCOLA",
      "house": "",
      "postcode": "3620-161",
      "city": "LEOMIL MBR",
      "lon": "-7.640792728467624",
      "lat": "41.00021822504423"
    },
    {
      "id": "pt.ine.add.PTCONT.5595537",
      "street": "R ESCOLA",
      "house": "",
      "postcode": "3620-161",
      "city": "LEOMIL MBR",
      "lon": "-7.6404724976301654",
      "lat": "41.00012681104166"
    },
    {
      "id": "pt.ine.add.PTCONT.5610043",
      "street": "R BECO",
      "house": "",
      "postcode": "3620-161",
      "city": "LEOMIL MBR",
      "lon": "-7.6407190046470275",
      "lat": "41.00054207533149"
    },
    {
      "id": "pt.ine.add.PTCONT.5619470",
      "street": "R ESCOLA",
      "house": "",
      "postcode": "3620-161",
      "city": "LEOMIL MBR",
      "lon": "-7.64278235990773",
      "lat": "40.997975557718014"
    },
    {
      "id": "pt.ine.add.PTCONT.5628899",
      "street": "R ESCOLA PRIMARIA",
      "house": "",
      "postcode": "3620-161",
      "city": "LEOMIL MBR",
      "lon": "-7.6406388906610125",
      "lat": "41.000127522030695"
    },
    {
      "id": "pt.ine.add.PTCONT.5650700",
      "street": "R CEMITÉRIO",
      "house": "",
      "postcode": "3620-161",
      "city": "LEOMIL MBR",
      "lon": "-7.6411908680605345",
      "lat": "41.001021333099374"
    },
    {
      "id": "pt.ine.add.PTCONT.5657383",
      "street": "R CEMITÉRIO",
      "house": "",
      "postcode": "3620-161",
      "city": "LEOMIL MBR",
      "lon": "-7.641498951202674",
      "lat": "41.00114871164178"
    },
    {
      "id": "pt.ine.add.PTCONT.5664139",
      "street": "R FORNO",
      "house": "",
      "postcode": "3620-161",
      "city": "LEOMIL MBR",
      "lon": "-7.641218186908927",
      "lat": "41.00054420652826"
    }
  ]
}