{
  "data": {
    "distrito": "Faro",
    "concelho": "Tavira",
    "freguesia": "União das freguesias de Luz de Tavira e Santo Estêvão",
    "OBJECTID": 204,
    "BGRI2021": "08141100115",
    "DT21": "08",
    "DTMN21": "0814",
    "DTMNFR21": "081411",
    "DTMNFRSEC21": "081411001",
    "SECNUM21": "001",
    "SSNUM21": "15",
    "SECSSNUM21": "00115",
    "OBJECTID_1": 73160,
    "DT": "08",
    "CC": "14",
    "fr": "11",
    "SEC": "001",
    "SS": "15"
  },
  "addresses": [
    {
      "id": "pt.ine.add.PTCONT.1491655",
      "street": "SIT MEIA ARRAIA",
      "house": "846X",
      "postcode": "8800-508",
      "city": "SANTO ESTEVÃO TVR",
      "lon": "-7.714885207117513",
      "lat": "37.1123228486201"
    },
    {
      "id": "pt.ine.add.PTCONT.1491656",
      "street": "SIT MEIA ARRAIA",
      "house": "846X",
      "postcode": "8800-508",
      "city": "SANTO ESTEVÃO TVR",
      "lon": "-7.714885207117513",
      "lat": "37.1123228486201"
    },
    {
      "id": "pt.ine.add.PTCONT.1500251",
      "street": "SIT CAMPINA",
      "house": "882",
      "postcode": "8800-107",
      "city": "LUZ TVR",
      "lon": "-7.711036401800451",
      "lat": "37.110471050321046"
    },
    {
      "id": "pt.ine.add.PTCONT.1530535",
      "street": "SIT CAMPINA",
      "house": "880C",
      "postcode": "8800-107",
      "city": "LUZ TVR",
      "lon": "-7.711218212761453",
      "lat": "37.11217469840115"
    },
    {
      "id": "pt.ine.add.PTCONT.1530536",
      "street": "SIT CAMPINA",
      "house": "643G",
      "postcode": "8800-107",
      "city": "LUZ TVR",
      "lon": "-7.714698211618497",
      "lat": "37.107456469905976"
    },
    {
      "id": "pt.ine.add.PTCONT.1530537",
      "street": "SIT CAMPINA",
      "house": "643G",
      "postcode": "8800-107",
      "city": "LUZ TVR",
      "lon": "-7.714698211618497",
      "lat": "37.107456469905976"
    },
    {
      "id": "pt.ine.add.PTCONT.1607661",
      "street": "SIT CAMPINA",
      "house": "926 C",
      "postcode": "8800-107",
      "city": "LUZ TVR",
      "lon": "-7.708947954310704",
      "lat": "37.101651236026946"
    },
    {
      "id": "pt.ine.add.PTCONT.1628249",
      "street": "SIT CAMPINA",
      "house": "940C",
      "postcode": "8800-107",
      "city": "LUZ TVR",
      "lon": "-7.713110744035579",
      "lat": "37.101557926192605"
    },
    {
      "id": "pt.ine.add.PTCONT.1706146",
      "street": "SIT CAMPINA",
      "house": "884C",
      "postcode": "8800-107",
      "city": "LUZ TVR",
      "lon": "-7.710947548374035",
      "lat": "37.11026349045136"
    },
    {
      "id": "pt.ine.add.PTCONT.1708533",
      "street": "SIT CAMPINA",
      "house": "881 C",
      "postcode": "8800-107",
      "city": "LUZ TVR",
      "lon": "-7.711436223181322",
      "lat": "37.11140957406301"
    },
    {
      "id": "pt.ine.add.PTCONT.1708838",
      "street": "SIT CAMPINA",
      "house": "870C",
      "postcode": "8800-107",
      "city": "LUZ TVR",
      "lon": "-7.711359425175563",
      "lat": "37.11308526992061"
    },
    {
      "id": "pt.ine.add.PTCONT.1723287",
      "street": "SIT CAMPINA",
      "house": "872",
      "postcode": "8800-107",
      "city": "LUZ TVR",
      "lon": "-7.711374023993194",
      "lat": "37.112481612637524"
    },
    {
      "id": "pt.ine.add.PTCONT.1774020",
      "street": "POMAR POMBO ASSECA",
      "house": "308",
      "postcode": "8800-107",
      "city": "LUZ TVR",
      "lon": "-7.712959636206659",
      "lat": "37.11262240077975"
    },
    {
      "id": "pt.ine.add.PTCONT.1774021",
      "street": "POMAR DO POMBO ASSECA",
      "house": "",
      "postcode": "8800-107",
      "city": "LUZ TVR",
      "lon": "-7.712959636206659",
      "lat": "37.11262240077975"
    },
    {
      "id": "pt.ine.add.PTCONT.1788775",
      "street": "SIT CAMPINA",
      "house": "",
      "postcode": "8800-107",
      "city": "LUZ TVR",
      "lon": "-7.710026245174273",
      "lat": "37.103970812395474"
    },
    {
      "id": "pt.ine.add.PTCONT.1788776",
      "street": "SIT CAMPINA",
      "house": "",
      "postcode": "8800-107",
      "city": "LUZ TVR",
      "lon": "-7.710026245174273",
      "lat": "37.103970812395474"
    },
    {
      "id": "pt.ine.add.PTCONT.1806528",
      "street": "SIT CAMPINA",
      "house": "",
      "postcode": "8800-107",
      "city": "LUZ TVR",
      "lon": "-7.711555185116929",
      "lat": "37.11227501340516"
    },
    {
      "id": "pt.ine.add.PTCONT.1817842",
      "street": "SIT CAMPINA",
      "house": "",
      "postcode": "8800-107",
      "city": "LUZ TVR",
      "lon": "-7.7081280739501965",
      "lat": "37.10141402481414"
    },
    {
      "id": "pt.ine.add.PTCONT.1829393",
      "street": "SIT CAMPINA",
      "house": "",
      "postcode": "8800-107",
      "city": "LUZ TVR",
      "lon": "-7.71065922868599",
      "lat": "37.10140504811889"
    },
    {
      "id": "pt.ine.add.PTCONT.1838079",
      "street": "",
      "house": "",
      "postcode": "8800-508",
      "city": "SANTO ESTEVÃO TVR",
      "lon": "-7.711747613566227",
      "lat": "37.11409583553427"
    },
    {
      "id": "pt.ine.add.PTCONT.1845337",
      "street": "",
      "house": "",
      "postcode": "8800-107",
      "city": "LUZ TVR",
      "lon": "-7.711706254557029",
      "lat": "37.11343791592077"
    }
  ]
}