{
  "data": {
    "distrito": "Leiria",
    "concelho": "Caldas da Rainha",
    "freguesia": "União das freguesias de Caldas da Rainha - Nossa Senhora do Pópulo, Coto e São Gregório",
    "OBJECTID": 857,
    "BGRI2021": "10061701703",
    "DT21": "10",
    "DTMN21": "1006",
    "DTMNFR21": "100617",
    "DTMNFRSEC21": "100617017",
    "SECNUM21": "017",
    "SSNUM21": "03",
    "SECSSNUM21": "01703",
    "OBJECTID_1": 88048,
    "DT": "10",
    "CC": "06",
    "fr": "17",
    "SEC": "017",
    "SS": "03"
  },
  "addresses": [
    {
      "id": "pt.ine.add.PTCONT.1986767",
      "street": "R MIGUEL BOMBARDA",
      "house": "11",
      "postcode": "2500-238",
      "city": "CALDAS DA RAINHA",
      "lon": "-9.135356589223727",
      "lat": "39.40492023116914"
    },
    {
      "id": "pt.ine.add.PTCONT.2028889",
      "street": "R MIGUEL BOMBARDA",
      "house": "15C",
      "postcode": "2500-238",
      "city": "CALDAS DA RAINHA",
      "lon": "-9.135648865214387",
      "lat": "39.405061822392135"
    },
    {
      "id": "pt.ine.add.PTCONT.2028890",
      "street": "R MIGUEL BOMBARDA",
      "house": "15C",
      "postcode": "2500-238",
      "city": "CALDAS DA RAINHA",
      "lon": "-9.135648865214387",
      "lat": "39.405061822392135"
    },
    {
      "id": "pt.ine.add.PTCONT.2028891",
      "street": "R MIGUEL BOMBARDA",
      "house": "15C",
      "postcode": "2500-238",
      "city": "CALDAS DA RAINHA",
      "lon": "-9.135648865214387",
      "lat": "39.405061822392135"
    },
    {
      "id": "pt.ine.add.PTCONT.2028892",
      "street": "R MIGUEL BOMBARDA",
      "house": "15C",
      "postcode": "2500-238",
      "city": "CALDAS DA RAINHA",
      "lon": "-9.135648865214387",
      "lat": "39.405061822392135"
    },
    {
      "id": "pt.ine.add.PTCONT.2028893",
      "street": "R MIGUEL BOMBARDA",
      "house": "15C",
      "postcode": "2500-238",
      "city": "CALDAS DA RAINHA",
      "lon": "-9.135648865214387",
      "lat": "39.405061822392135"
    },
    {
      "id": "pt.ine.add.PTCONT.2028894",
      "street": "R MIGUEL BOMBARDA",
      "house": "15C",
      "postcode": "2500-238",
      "city": "CALDAS DA RAINHA",
      "lon": "-9.135648865214387",
      "lat": "39.405061822392135"
    },
    {
      "id": "pt.ine.add.PTCONT.2029924",
      "street": "R MIGUEL BOMBARDA",
      "house": "15C",
      "postcode": "2500-238",
      "city": "CALDAS DA RAINHA",
      "lon": "-9.135648865214387",
      "lat": "39.405061822392135"
    },
    {
      "id": "pt.ine.add.PTCONT.2041554",
      "street": "R HEROIS DA GRANDE GUERRA",
      "house": "111",
      "postcode": "2500-215",
      "city": "CALDAS DA RAINHA",
      "lon": "-9.135355042229783",
      "lat": "39.40481216224553"
    },
    {
      "id": "pt.ine.add.PTCONT.2043062",
      "street": "R HEROIS DA GRANDE GUERRA",
      "house": "111",
      "postcode": "2500-215",
      "city": "CALDAS DA RAINHA",
      "lon": "-9.135355042229783",
      "lat": "39.40481216224553"
    },
    {
      "id": "pt.ine.add.PTCONT.2070891",
      "street": "R MIGUEL BOMBARDA",
      "house": "17A",
      "postcode": "2500-238",
      "city": "CALDAS DA RAINHA",
      "lon": "-9.135871104098022",
      "lat": "39.405176996041114"
    },
    {
      "id": "pt.ine.add.PTCONT.2070892",
      "street": "R MIGUEL BOMBARDA",
      "house": "17A",
      "postcode": "2500-238",
      "city": "CALDAS DA RAINHA",
      "lon": "-9.135871104098022",
      "lat": "39.405176996041114"
    },
    {
      "id": "pt.ine.add.PTCONT.2070893",
      "street": "R MIGUEL BOMBARDA",
      "house": "17A",
      "postcode": "2500-238",
      "city": "CALDAS DA RAINHA",
      "lon": "-9.135871104098022",
      "lat": "39.405176996041114"
    },
    {
      "id": "pt.ine.add.PTCONT.2070894",
      "street": "R MIGUEL BOMBARDA",
      "house": "17A",
      "postcode": "2500-238",
      "city": "CALDAS DA RAINHA",
      "lon": "-9.135871104098022",
      "lat": "39.405176996041114"
    },
    {
      "id": "pt.ine.add.PTCONT.2070895",
      "street": "R MIGUEL BOMBARDA",
      "house": "17A",
      "postcode": "2500-238",
      "city": "CALDAS DA RAINHA",
      "lon": "-9.135871104098022",
      "lat": "39.405176996041114"
    },
    {
      "id": "pt.ine.add.PTCONT.2070896",
      "street": "R MIGUEL BOMBARDA",
      "house": "17A",
      "postcode": "2500-238",
      "city": "CALDAS DA RAINHA",
      "lon": "-9.135871104098022",
      "lat": "39.405176996041114"
    },
    {
      "id": "pt.ine.add.PTCONT.2133649",
      "street": "R COR ANDRADA MENDONCA",
      "house": "22B",
      "postcode": "2500-148",
      "city": "CALDAS DA RAINHA",
      "lon": "-9.136005891671473",
      "lat": "39.404860594236425"
    },
    {
      "id": "pt.ine.add.PTCONT.2133650",
      "street": "R COR ANDRADA MENDONCA",
      "house": "22B",
      "postcode": "2500-148",
      "city": "CALDAS DA RAINHA",
      "lon": "-9.136005891671473",
      "lat": "39.404860594236425"
    },
    {
      "id": "pt.ine.add.PTCONT.2133651",
      "street": "R COR ANDRADA MENDONCA",
      "house": "22B",
      "postcode": "2500-148",
      "city": "CALDAS DA RAINHA",
      "lon": "-9.136005891671473",
      "lat": "39.404860594236425"
    },
    {
      "id": "pt.ine.add.PTCONT.2133652",
      "street": "R COR ANDRADA MENDONCA",
      "house": "22B",
      "postcode": "2500-148",
      "city": "CALDAS DA RAINHA",
      "lon": "-9.136005891671473",
      "lat": "39.404860594236425"
    },
    {
      "id": "pt.ine.add.PTCONT.2133653",
      "street": "R COR ANDRADA MENDONCA",
      "house": "22B",
      "postcode": "2500-148",
      "city": "CALDAS DA RAINHA",
      "lon": "-9.136005891671473",
      "lat": "39.404860594236425"
    },
    {
      "id": "pt.ine.add.PTCONT.2133654",
      "street": "R COR ANDRADA MENDONCA",
      "house": "22",
      "postcode": "2500-148",
      "city": "CALDAS DA RAINHA",
      "lon": "-9.136005891671473",
      "lat": "39.404860594236425"
    },
    {
      "id": "pt.ine.add.PTCONT.2133655",
      "street": "R COR ANDRADA MENDONCA",
      "house": "22B",
      "postcode": "2500-148",
      "city": "CALDAS DA RAINHA",
      "lon": "-9.136005891671473",
      "lat": "39.404860594236425"
    },
    {
      "id": "pt.ine.add.PTCONT.2135047",
      "street": "R COR ANDRADA MENDONCA",
      "house": "22B",
      "postcode": "2500-148",
      "city": "CALDAS DA RAINHA",
      "lon": "-9.136005891671473",
      "lat": "39.404860594236425"
    },
    {
      "id": "pt.ine.add.PTCONT.2219080",
      "street": "R COR ANDRADA MENDONÇA",
      "house": "22",
      "postcode": "2500-148",
      "city": "CALDAS DA RAINHA",
      "lon": "-9.135984093644398",
      "lat": "39.404959857547425"
    },
    {
      "id": "pt.ine.add.PTCONT.2219081",
      "street": "R COR ANDRADA MENDONÇA",
      "house": "22",
      "postcode": "2500-148",
      "city": "CALDAS DA RAINHA",
      "lon": "-9.135984093644398",
      "lat": "39.404959857547425"
    },
    {
      "id": "pt.ine.add.PTCONT.2219082",
      "street": "R COR ANDRADA MENDONÇA",
      "house": "22",
      "postcode": "2500-148",
      "city": "CALDAS DA RAINHA",
      "lon": "-9.135984093644398",
      "lat": "39.404959857547425"
    },
    {
      "id": "pt.ine.add.PTCONT.2228127",
      "street": "R COR ANDRADA MENDONÇA",
      "house": "26",
      "postcode": "2500-148",
      "city": "CALDAS DA RAINHA",
      "lon": "-9.1359621665634",
      "lat": "39.40505011511179"
    }
  ]
}