{
  "data": {
    "distrito": "Leiria",
    "concelho": "Caldas da Rainha",
    "freguesia": "União das freguesias de Caldas da Rainha - Nossa Senhora do Pópulo, Coto e São Gregório",
    "OBJECTID": 862,
    "BGRI2021": "10061701704",
    "DT21": "10",
    "DTMN21": "1006",
    "DTMNFR21": "100617",
    "DTMNFRSEC21": "100617017",
    "SECNUM21": "017",
    "SSNUM21": "04",
    "SECSSNUM21": "01704",
    "OBJECTID_1": 87612,
    "DT": "10",
    "CC": "06",
    "fr": "17",
    "SEC": "017",
    "SS": "04"
  },
  "addresses": [
    {
      "id": "pt.ine.add.PTCONT.1991226",
      "street": "R ESPERANÇA",
      "house": "25",
      "postcode": "2500-155",
      "city": "CALDAS DA RAINHA",
      "lon": "-9.138832446835865",
      "lat": "39.405232493729606"
    },
    {
      "id": "pt.ine.add.PTCONT.2000207",
      "street": "R HENRIQUE SALLES",
      "house": "76",
      "postcode": "2500-213",
      "city": "CALDAS DA RAINHA",
      "lon": "-9.13882998891155",
      "lat": "39.405061384791146"
    },
    {
      "id": "pt.ine.add.PTCONT.2000208",
      "street": "R HENRIQUE SALLES",
      "house": "76",
      "postcode": "2500-213",
      "city": "CALDAS DA RAINHA",
      "lon": "-9.13882998891155",
      "lat": "39.405061384791146"
    },
    {
      "id": "pt.ine.add.PTCONT.2000209",
      "street": "R HENRIQUE SALLES",
      "house": "76",
      "postcode": "2500-213",
      "city": "CALDAS DA RAINHA",
      "lon": "-9.13882998891155",
      "lat": "39.405061384791146"
    },
    {
      "id": "pt.ine.add.PTCONT.2039432",
      "street": "TV ESPERANÇA",
      "house": "3",
      "postcode": "2500-155",
      "city": "CALDAS DA RAINHA",
      "lon": "-9.138378161703423",
      "lat": "39.40512833804655"
    },
    {
      "id": "pt.ine.add.PTCONT.2040839",
      "street": "TV ESPERANÇA",
      "house": "3",
      "postcode": "2500-155",
      "city": "CALDAS DA RAINHA",
      "lon": "-9.138378161703423",
      "lat": "39.40512833804655"
    },
    {
      "id": "pt.ine.add.PTCONT.2061309",
      "street": "R HENRIQUE SALLES",
      "house": "84",
      "postcode": "2500-213",
      "city": "CALDAS DA RAINHA",
      "lon": "-9.139062806282263",
      "lat": "39.40510440604967"
    },
    {
      "id": "pt.ine.add.PTCONT.2061310",
      "street": "R HENRIQUE SALLES",
      "house": "84",
      "postcode": "2500-213",
      "city": "CALDAS DA RAINHA",
      "lon": "-9.139062806282263",
      "lat": "39.40510440604967"
    },
    {
      "id": "pt.ine.add.PTCONT.2061311",
      "street": "R HENRIQUE SALLES",
      "house": "84",
      "postcode": "2500-213",
      "city": "CALDAS DA RAINHA",
      "lon": "-9.139062806282263",
      "lat": "39.40510440604967"
    },
    {
      "id": "pt.ine.add.PTCONT.2080895",
      "street": "R ESPERANCA",
      "house": "31",
      "postcode": "2500-155",
      "city": "CALDAS DA RAINHA",
      "lon": "-9.139007092614372",
      "lat": "39.40526701114069"
    },
    {
      "id": "pt.ine.add.PTCONT.2080901",
      "street": "R SACRAMENTO",
      "house": "22",
      "postcode": "2500-182",
      "city": "CALDAS DA RAINHA",
      "lon": "-9.137912657107739",
      "lat": "39.40505129804675"
    },
    {
      "id": "pt.ine.add.PTCONT.2094714",
      "street": "R HENRIQUE SALLES",
      "house": "86",
      "postcode": "2500-213",
      "city": "CALDAS DA RAINHA",
      "lon": "-9.139202496837527",
      "lat": "39.40513021857922"
    },
    {
      "id": "pt.ine.add.PTCONT.2094715",
      "street": "R HENRIQUE SALLES",
      "house": "86",
      "postcode": "2500-213",
      "city": "CALDAS DA RAINHA",
      "lon": "-9.139202496837527",
      "lat": "39.40513021857922"
    },
    {
      "id": "pt.ine.add.PTCONT.2094716",
      "street": "R HENRIQUE SALLES",
      "house": "86",
      "postcode": "2500-213",
      "city": "CALDAS DA RAINHA",
      "lon": "-9.139202496837527",
      "lat": "39.40513021857922"
    },
    {
      "id": "pt.ine.add.PTCONT.2094717",
      "street": "R ESPERANÇA",
      "house": "21",
      "postcode": "2500-155",
      "city": "CALDAS DA RAINHA",
      "lon": "-9.138646063339563",
      "lat": "39.40518907066114"
    },
    {
      "id": "pt.ine.add.PTCONT.2094718",
      "street": "R ESPERANÇA",
      "house": "21",
      "postcode": "2500-155",
      "city": "CALDAS DA RAINHA",
      "lon": "-9.138646063339563",
      "lat": "39.40518907066114"
    },
    {
      "id": "pt.ine.add.PTCONT.2094853",
      "street": "R ESPERANÇA",
      "house": "9",
      "postcode": "2500-155",
      "city": "CALDAS DA RAINHA",
      "lon": "-9.138261947075836",
      "lat": "39.40512033539161"
    },
    {
      "id": "pt.ine.add.PTCONT.2095490",
      "street": "R ESPERANÇA",
      "house": "21",
      "postcode": "2500-155",
      "city": "CALDAS DA RAINHA",
      "lon": "-9.138646063339563",
      "lat": "39.40518907066114"
    },
    {
      "id": "pt.ine.add.PTCONT.2101438",
      "street": "R ESPERANCA",
      "house": "23",
      "postcode": "2500-155",
      "city": "CALDAS DA RAINHA",
      "lon": "-9.138750928282452",
      "lat": "39.405215184749366"
    },
    {
      "id": "pt.ine.add.PTCONT.2101439",
      "street": "R ESPERANCA",
      "house": "23A",
      "postcode": "2500-155",
      "city": "CALDAS DA RAINHA",
      "lon": "-9.138750928282452",
      "lat": "39.405215184749366"
    },
    {
      "id": "pt.ine.add.PTCONT.2102074",
      "street": "R ESPERANCA",
      "house": "23A",
      "postcode": "2500-155",
      "city": "CALDAS DA RAINHA",
      "lon": "-9.138750928282452",
      "lat": "39.405215184749366"
    },
    {
      "id": "pt.ine.add.PTCONT.2120657",
      "street": "R ALEGRIA",
      "house": "10",
      "postcode": "2500-151",
      "city": "CALDAS DA RAINHA",
      "lon": "-9.139528441853926",
      "lat": "39.40519044715684"
    },
    {
      "id": "pt.ine.add.PTCONT.2122997",
      "street": "R ESPERANÇA",
      "house": "35",
      "postcode": "2500-155",
      "city": "CALDAS DA RAINHA",
      "lon": "-9.139170000591921",
      "lat": "39.40529262294845"
    },
    {
      "id": "pt.ine.add.PTCONT.2122998",
      "street": "R ESPERANÇA",
      "house": "35",
      "postcode": "2500-155",
      "city": "CALDAS DA RAINHA",
      "lon": "-9.139170000591921",
      "lat": "39.40529262294845"
    },
    {
      "id": "pt.ine.add.PTCONT.2124984",
      "street": "R HENRIQUE SALLES",
      "house": "68",
      "postcode": "2500-213",
      "city": "CALDAS DA RAINHA",
      "lon": "-9.138573825458062",
      "lat": "39.40500955799666"
    },
    {
      "id": "pt.ine.add.PTCONT.2124985",
      "street": "R HENRIQUE SALLES",
      "house": "68",
      "postcode": "2500-213",
      "city": "CALDAS DA RAINHA",
      "lon": "-9.138573825458062",
      "lat": "39.40500955799666"
    },
    {
      "id": "pt.ine.add.PTCONT.2124986",
      "street": "R HENRIQUE SALLES",
      "house": "68",
      "postcode": "2500-213",
      "city": "CALDAS DA RAINHA",
      "lon": "-9.138573825458062",
      "lat": "39.40500955799666"
    },
    {
      "id": "pt.ine.add.PTCONT.2124987",
      "street": "R HENRIQUE SALLES",
      "house": "68",
      "postcode": "2500-213",
      "city": "CALDAS DA RAINHA",
      "lon": "-9.138573825458062",
      "lat": "39.40500955799666"
    },
    {
      "id": "pt.ine.add.PTCONT.2154257",
      "street": "R HENRIQUE SALLES",
      "house": "80",
      "postcode": "2500-213",
      "city": "CALDAS DA RAINHA",
      "lon": "-9.138946332872841",
      "lat": "39.40507839261246"
    },
    {
      "id": "pt.ine.add.PTCONT.2154258",
      "street": "R HENRIQUE SALLES",
      "house": "80",
      "postcode": "2500-213",
      "city": "CALDAS DA RAINHA",
      "lon": "-9.138946332872841",
      "lat": "39.40507839261246"
    },
    {
      "id": "pt.ine.add.PTCONT.2170767",
      "street": "R ESPERANÇA",
      "house": "27",
      "postcode": "2500-155",
      "city": "CALDAS DA RAINHA",
      "lon": "-9.138901968754933",
      "lat": "39.40522288581928"
    },
    {
      "id": "pt.ine.add.PTCONT.2170768",
      "street": "R ESPERANÇA",
      "house": "27",
      "postcode": "2500-155",
      "city": "CALDAS DA RAINHA",
      "lon": "-9.138901968754933",
      "lat": "39.40522288581928"
    },
    {
      "id": "pt.ine.add.PTCONT.2170769",
      "street": "R ESPERANÇA",
      "house": "27",
      "postcode": "2500-155",
      "city": "CALDAS DA RAINHA",
      "lon": "-9.138901968754933",
      "lat": "39.40522288581928"
    },
    {
      "id": "pt.ine.add.PTCONT.2170770",
      "street": "R ESPERANÇA",
      "house": "27",
      "postcode": "2500-155",
      "city": "CALDAS DA RAINHA",
      "lon": "-9.138901968754933",
      "lat": "39.40522288581928"
    },
    {
      "id": "pt.ine.add.PTCONT.2173835",
      "street": "R HENRIQUE SALLES",
      "house": "64",
      "postcode": "2500-213",
      "city": "CALDAS DA RAINHA",
      "lon": "-9.138375963508404",
      "lat": "39.40497524055144"
    },
    {
      "id": "pt.ine.add.PTCONT.2173836",
      "street": "R HENRIQUE SALLES",
      "house": "64",
      "postcode": "2500-213",
      "city": "CALDAS DA RAINHA",
      "lon": "-9.138375963508404",
      "lat": "39.40497524055144"
    },
    {
      "id": "pt.ine.add.PTCONT.2173837",
      "street": "R HENRIQUE SALLES",
      "house": "64",
      "postcode": "2500-213",
      "city": "CALDAS DA RAINHA",
      "lon": "-9.138375963508404",
      "lat": "39.40497524055144"
    },
    {
      "id": "pt.ine.add.PTCONT.2173838",
      "street": "R HENRIQUE SALLES",
      "house": "64",
      "postcode": "2500-213",
      "city": "CALDAS DA RAINHA",
      "lon": "-9.138375963508404",
      "lat": "39.40497524055144"
    },
    {
      "id": "pt.ine.add.PTCONT.2174331",
      "street": "R SACRAMENTO",
      "house": "28",
      "postcode": "2500-182",
      "city": "CALDAS DA RAINHA",
      "lon": "-9.137991848668541",
      "lat": "39.40490650436901"
    },
    {
      "id": "pt.ine.add.PTCONT.2174479",
      "street": "R SACRAMENTO",
      "house": "28",
      "postcode": "2500-182",
      "city": "CALDAS DA RAINHA",
      "lon": "-9.137991848668541",
      "lat": "39.40490650436901"
    },
    {
      "id": "pt.ine.add.PTCONT.2179324",
      "street": "R HENRIQUE SALLES",
      "house": "7O",
      "postcode": "2500-213",
      "city": "CALDAS DA RAINHA",
      "lon": "-9.13871364500439",
      "lat": "39.40504437685267"
    },
    {
      "id": "pt.ine.add.PTCONT.2179325",
      "street": "R HENRIQUE SALLES",
      "house": "7O",
      "postcode": "2500-213",
      "city": "CALDAS DA RAINHA",
      "lon": "-9.13871364500439",
      "lat": "39.40504437685267"
    },
    {
      "id": "pt.ine.add.PTCONT.2180768",
      "street": "R HENRIQUE SALLES",
      "house": "7O",
      "postcode": "2500-213",
      "city": "CALDAS DA RAINHA",
      "lon": "-9.13871364500439",
      "lat": "39.40504437685267"
    },
    {
      "id": "pt.ine.add.PTCONT.2181765",
      "street": "R ESPERANÇA",
      "house": "39",
      "postcode": "2500-155",
      "city": "CALDAS DA RAINHA",
      "lon": "-9.139449382629717",
      "lat": "39.405344247568564"
    },
    {
      "id": "pt.ine.add.PTCONT.2181766",
      "street": "R ESPERANÇA",
      "house": "33",
      "postcode": "2500-155",
      "city": "CALDAS DA RAINHA",
      "lon": "-9.139076873334549",
      "lat": "39.40527541459137"
    },
    {
      "id": "pt.ine.add.PTCONT.2185981",
      "street": "R HENRIQUE SALLES",
      "house": "92",
      "postcode": "2500-213",
      "city": "CALDAS DA RAINHA",
      "lon": "-9.139342187492423",
      "lat": "39.40515603093957"
    },
    {
      "id": "pt.ine.add.PTCONT.2185982",
      "street": "R HENRIQUE SALLES",
      "house": "92",
      "postcode": "2500-213",
      "city": "CALDAS DA RAINHA",
      "lon": "-9.139342187492423",
      "lat": "39.40515603093957"
    },
    {
      "id": "pt.ine.add.PTCONT.2185983",
      "street": "R HENRIQUE SALLES",
      "house": "92",
      "postcode": "2500-213",
      "city": "CALDAS DA RAINHA",
      "lon": "-9.139342187492423",
      "lat": "39.40515603093957"
    },
    {
      "id": "pt.ine.add.PTCONT.2185984",
      "street": "R HENRIQUE SALLES",
      "house": "92",
      "postcode": "2500-213",
      "city": "CALDAS DA RAINHA",
      "lon": "-9.139342187492423",
      "lat": "39.40515603093957"
    },
    {
      "id": "pt.ine.add.PTCONT.2187445",
      "street": "R HENRIQUE SALLES",
      "house": "92",
      "postcode": "2500-213",
      "city": "CALDAS DA RAINHA",
      "lon": "-9.139342187492423",
      "lat": "39.40515603093957"
    },
    {
      "id": "pt.ine.add.PTCONT.2187649",
      "street": "R HENRIQUE SALLES",
      "house": "92",
      "postcode": "2500-213",
      "city": "CALDAS DA RAINHA",
      "lon": "-9.139342187492423",
      "lat": "39.40515603093957"
    },
    {
      "id": "pt.ine.add.PTCONT.2199019",
      "street": "R ESPERANÇA",
      "house": "5",
      "postcode": "2500-155",
      "city": "CALDAS DA RAINHA",
      "lon": "-9.138133865391676",
      "lat": "39.405094421439024"
    },
    {
      "id": "pt.ine.add.PTCONT.2199020",
      "street": "R ESPERANÇA",
      "house": "5",
      "postcode": "2500-155",
      "city": "CALDAS DA RAINHA",
      "lon": "-9.138133865391676",
      "lat": "39.405094421439024"
    },
    {
      "id": "pt.ine.add.PTCONT.2199021",
      "street": "R ESPERANÇA",
      "house": "5",
      "postcode": "2500-155",
      "city": "CALDAS DA RAINHA",
      "lon": "-9.138133865391676",
      "lat": "39.405094421439024"
    },
    {
      "id": "pt.ine.add.PTCONT.2199023",
      "street": "R ESPERANÇA",
      "house": "5",
      "postcode": "2500-155",
      "city": "CALDAS DA RAINHA",
      "lon": "-9.138133865391676",
      "lat": "39.405094421439024"
    },
    {
      "id": "pt.ine.add.PTCONT.2225935",
      "street": "R ESPERANÇA",
      "house": "37",
      "postcode": "2500-155",
      "city": "CALDAS DA RAINHA",
      "lon": "-9.139321170694293",
      "lat": "39.40530932920339"
    },
    {
      "id": "pt.ine.add.PTCONT.2225936",
      "street": "R ESPERANÇA",
      "house": "37",
      "postcode": "2500-155",
      "city": "CALDAS DA RAINHA",
      "lon": "-9.139321170694293",
      "lat": "39.40530932920339"
    },
    {
      "id": "pt.ine.add.PTCONT.2225937",
      "street": "R ESPERANÇA",
      "house": "37",
      "postcode": "2500-155",
      "city": "CALDAS DA RAINHA",
      "lon": "-9.139321170694293",
      "lat": "39.40530932920339"
    },
    {
      "id": "pt.ine.add.PTCONT.2225938",
      "street": "R ESPERANÇA",
      "house": "37",
      "postcode": "2500-155",
      "city": "CALDAS DA RAINHA",
      "lon": "-9.139321170694293",
      "lat": "39.40530932920339"
    },
    {
      "id": "pt.ine.add.PTCONT.2225939",
      "street": "R ESPERANÇA",
      "house": "37",
      "postcode": "2500-155",
      "city": "CALDAS DA RAINHA",
      "lon": "-9.139321170694293",
      "lat": "39.40530932920339"
    },
    {
      "id": "pt.ine.add.PTCONT.2227364",
      "street": "R ESPERANÇA",
      "house": "37",
      "postcode": "2500-155",
      "city": "CALDAS DA RAINHA",
      "lon": "-9.139321170694293",
      "lat": "39.40530932920339"
    },
    {
      "id": "pt.ine.add.PTCONT.2241242",
      "street": "R HENRIQUE SALLES",
      "house": "58",
      "postcode": "2500-213",
      "city": "CALDAS DA RAINHA",
      "lon": "-9.138154884739789",
      "lat": "39.40494112335157"
    },
    {
      "id": "pt.ine.add.PTCONT.2241243",
      "street": "R HENRIQUE SALLES",
      "house": "58",
      "postcode": "2500-213",
      "city": "CALDAS DA RAINHA",
      "lon": "-9.138154884739789",
      "lat": "39.40494112335157"
    },
    {
      "id": "pt.ine.add.PTCONT.2241244",
      "street": "R HENRIQUE SALLES",
      "house": "58",
      "postcode": "2500-213",
      "city": "CALDAS DA RAINHA",
      "lon": "-9.138154884739789",
      "lat": "39.40494112335157"
    },
    {
      "id": "pt.ine.add.PTCONT.2241245",
      "street": "R HENRIQUE SALLES",
      "house": "58",
      "postcode": "2500-213",
      "city": "CALDAS DA RAINHA",
      "lon": "-9.138154884739789",
      "lat": "39.40494112335157"
    },
    {
      "id": "pt.ine.add.PTCONT.2259026",
      "street": "TV ESPERANÇA",
      "house": "2",
      "postcode": "2500-155",
      "city": "CALDAS DA RAINHA",
      "lon": "-9.138540810491726",
      "lat": "39.40513593927403"
    },
    {
      "id": "pt.ine.add.PTCONT.2261545",
      "street": "R HENRIQUE SALLES",
      "house": "76",
      "postcode": "2500-213",
      "city": "CALDAS DA RAINHA",
      "lon": "-9.13882998891155",
      "lat": "39.405061384791146"
    },
    {
      "id": "pt.ine.add.PTCONT.2264309",
      "street": "TV ESPERANÇA",
      "house": "2",
      "postcode": "2500-155",
      "city": "CALDAS DA RAINHA",
      "lon": "-9.138540810491726",
      "lat": "39.40513593927403"
    }
  ]
}