{
  "data": {
    "distrito": "Viana do Castelo",
    "concelho": "Ponte de Lima",
    "freguesia": "Arca e Ponte de Lima",
    "OBJECTID": 1309,
    "BGRI2021": "16075200105",
    "DT21": "16",
    "DTMN21": "1607",
    "DTMNFR21": "160752",
    "DTMNFRSEC21": "160752001",
    "SECNUM21": "001",
    "SSNUM21": "05",
    "SECSSNUM21": "00105",
    "OBJECTID_1": 176415,
    "DT": "16",
    "CC": "07",
    "fr": "52",
    "SEC": "001",
    "SS": "05"
  },
  "addresses": [
    {
      "id": "pt.ine.add.PTCONT.5136366",
      "street": "R SOBRAL",
      "house": "",
      "postcode": "4990-106",
      "city": "PONTE DE LIMA",
      "lon": "-8.580623722368694",
      "lat": "41.76177932226512"
    },
    {
      "id": "pt.ine.add.PTCONT.5138732",
      "street": "LG CONS ARNALDO NORTON DE MATOS",
      "house": "2",
      "postcode": "4990-081",
      "city": "PONTE DE LIMA",
      "lon": "-8.580823011811807",
      "lat": "41.761040266330056"
    },
    {
      "id": "pt.ine.add.PTCONT.5138742",
      "street": "LG CONS ARNALDO NORTON DE MATOS",
      "house": "2",
      "postcode": "4990-081",
      "city": "PONTE DE LIMA",
      "lon": "-8.580823011811807",
      "lat": "41.761040266330056"
    },
    {
      "id": "pt.ine.add.PTCONT.5138743",
      "street": "LG CONS ARNALDO NORTON DE MATOS",
      "house": "2",
      "postcode": "4990-081",
      "city": "PONTE DE LIMA",
      "lon": "-8.580823011811807",
      "lat": "41.761040266330056"
    },
    {
      "id": "pt.ine.add.PTCONT.5138744",
      "street": "LG CONS ARNALDO NORTON DE MATOS",
      "house": "2",
      "postcode": "4990-081",
      "city": "PONTE DE LIMA",
      "lon": "-8.580823011811807",
      "lat": "41.761040266330056"
    },
    {
      "id": "pt.ine.add.PTCONT.5138745",
      "street": "LG CONS ARNALDO NORTON DE MATOS",
      "house": "2",
      "postcode": "4990-081",
      "city": "PONTE DE LIMA",
      "lon": "-8.580823011811807",
      "lat": "41.761040266330056"
    },
    {
      "id": "pt.ine.add.PTCONT.5138746",
      "street": "LG CONS ARNALDO NORTON DE MATOS",
      "house": "2",
      "postcode": "4990-081",
      "city": "PONTE DE LIMA",
      "lon": "-8.580823011811807",
      "lat": "41.761040266330056"
    },
    {
      "id": "pt.ine.add.PTCONT.5138747",
      "street": "LG CONS ARNALDO NORTON DE MATOS",
      "house": "2",
      "postcode": "4990-081",
      "city": "PONTE DE LIMA",
      "lon": "-8.580823011811807",
      "lat": "41.761040266330056"
    },
    {
      "id": "pt.ine.add.PTCONT.5138748",
      "street": "LG CONS ARNALDO NORTON DE MATOS",
      "house": "2",
      "postcode": "4990-081",
      "city": "PONTE DE LIMA",
      "lon": "-8.580823011811807",
      "lat": "41.761040266330056"
    },
    {
      "id": "pt.ine.add.PTCONT.5138749",
      "street": "LG CONS ARNALDO NORTON DE MATOS",
      "house": "2",
      "postcode": "4990-081",
      "city": "PONTE DE LIMA",
      "lon": "-8.580823011811807",
      "lat": "41.761040266330056"
    },
    {
      "id": "pt.ine.add.PTCONT.5138750",
      "street": "LG CONS ARNALDO NORTON DE MATOS",
      "house": "2",
      "postcode": "4990-081",
      "city": "PONTE DE LIMA",
      "lon": "-8.580823011811807",
      "lat": "41.761040266330056"
    },
    {
      "id": "pt.ine.add.PTCONT.5138751",
      "street": "LG CONS ARNALDO NORTON DE MATOS",
      "house": "2",
      "postcode": "4990-081",
      "city": "PONTE DE LIMA",
      "lon": "-8.580823011811807",
      "lat": "41.761040266330056"
    },
    {
      "id": "pt.ine.add.PTCONT.5138752",
      "street": "LG CONS ARNALDO NORTON DE MATOS",
      "house": "2",
      "postcode": "4990-081",
      "city": "PONTE DE LIMA",
      "lon": "-8.580823011811807",
      "lat": "41.761040266330056"
    },
    {
      "id": "pt.ine.add.PTCONT.5139191",
      "street": "LG CONS ARNALDO NORTON DE MATOS",
      "house": "2",
      "postcode": "4990-081",
      "city": "PONTE DE LIMA",
      "lon": "-8.580823011811807",
      "lat": "41.761040266330056"
    },
    {
      "id": "pt.ine.add.PTCONT.5139859",
      "street": "R DR MANUEL PEREIRA MELO",
      "house": "FRAC I",
      "postcode": "4990-106",
      "city": "PONTE DE LIMA",
      "lon": "-8.581571297845116",
      "lat": "41.76143349801421"
    },
    {
      "id": "pt.ine.add.PTCONT.5139860",
      "street": "R SOBRAL",
      "house": "BL 01",
      "postcode": "4990-106",
      "city": "PONTE DE LIMA",
      "lon": "-8.581571297845116",
      "lat": "41.76143349801421"
    },
    {
      "id": "pt.ine.add.PTCONT.5139861",
      "street": "R SOBRAL",
      "house": "BL 01",
      "postcode": "4990-106",
      "city": "PONTE DE LIMA",
      "lon": "-8.581571297845116",
      "lat": "41.76143349801421"
    },
    {
      "id": "pt.ine.add.PTCONT.5139862",
      "street": "R SOBRAL",
      "house": "BL 01",
      "postcode": "4990-106",
      "city": "PONTE DE LIMA",
      "lon": "-8.581571297845116",
      "lat": "41.76143349801421"
    },
    {
      "id": "pt.ine.add.PTCONT.5139863",
      "street": "R SOBRAL",
      "house": "BL 01",
      "postcode": "4990-106",
      "city": "PONTE DE LIMA",
      "lon": "-8.581571297845116",
      "lat": "41.76143349801421"
    },
    {
      "id": "pt.ine.add.PTCONT.5139864",
      "street": "R SOBRAL",
      "house": "BL 01",
      "postcode": "4990-106",
      "city": "PONTE DE LIMA",
      "lon": "-8.581571297845116",
      "lat": "41.76143349801421"
    },
    {
      "id": "pt.ine.add.PTCONT.5139865",
      "street": "R SOBRAL",
      "house": "BL 01",
      "postcode": "4990-106",
      "city": "PONTE DE LIMA",
      "lon": "-8.581571297845116",
      "lat": "41.76143349801421"
    },
    {
      "id": "pt.ine.add.PTCONT.5139866",
      "street": "R SOBRAL",
      "house": "BL 01",
      "postcode": "4990-106",
      "city": "PONTE DE LIMA",
      "lon": "-8.581571297845116",
      "lat": "41.76143349801421"
    },
    {
      "id": "pt.ine.add.PTCONT.5139867",
      "street": "R DR MANUEL PEREIRA MELO W",
      "house": "W",
      "postcode": "4990-106",
      "city": "PONTE DE LIMA",
      "lon": "-8.581571297845116",
      "lat": "41.76143349801421"
    },
    {
      "id": "pt.ine.add.PTCONT.5139868",
      "street": "R DR MANUEL PEREIRA MELO L",
      "house": "L7 BL1",
      "postcode": "4990-106",
      "city": "PONTE DE LIMA",
      "lon": "-8.581571297845116",
      "lat": "41.76143349801421"
    },
    {
      "id": "pt.ine.add.PTCONT.5139883",
      "street": "R DR MANUEL PEREIRA MELO Y",
      "house": "Y",
      "postcode": "4990-106",
      "city": "PONTE DE LIMA",
      "lon": "-8.581571297845116",
      "lat": "41.76143349801421"
    },
    {
      "id": "pt.ine.add.PTCONT.5140380",
      "street": "R SOBRAL",
      "house": "BL 01",
      "postcode": "4990-106",
      "city": "PONTE DE LIMA",
      "lon": "-8.581571297845116",
      "lat": "41.76143349801421"
    },
    {
      "id": "pt.ine.add.PTCONT.5140392",
      "street": "R DR MANUEL PEREIRA MELO",
      "house": "FRACAO Z",
      "postcode": "4990-106",
      "city": "PONTE DE LIMA",
      "lon": "-8.581571297845116",
      "lat": "41.76143349801421"
    },
    {
      "id": "pt.ine.add.PTCONT.5153698",
      "street": "LG CONS ARNALDO NORTON DE MATOS",
      "house": "1",
      "postcode": "4990-081",
      "city": "PONTE DE LIMA",
      "lon": "-8.580593167493193",
      "lat": "41.76084308673201"
    },
    {
      "id": "pt.ine.add.PTCONT.5153699",
      "street": "LG CONS ARNALDO NORTON DE MATOS",
      "house": "1",
      "postcode": "4990-081",
      "city": "PONTE DE LIMA",
      "lon": "-8.580593167493193",
      "lat": "41.76084308673201"
    },
    {
      "id": "pt.ine.add.PTCONT.5153700",
      "street": "LG CONS ARNALDO NORTON DE MATOS",
      "house": "1",
      "postcode": "4990-081",
      "city": "PONTE DE LIMA",
      "lon": "-8.580593167493193",
      "lat": "41.76084308673201"
    },
    {
      "id": "pt.ine.add.PTCONT.5153701",
      "street": "LG CONS ARNALDO NORTON DE MATOS",
      "house": "1",
      "postcode": "4990-081",
      "city": "PONTE DE LIMA",
      "lon": "-8.580593167493193",
      "lat": "41.76084308673201"
    },
    {
      "id": "pt.ine.add.PTCONT.5170159",
      "street": "R DR CASSIANO BATISTA",
      "house": "4",
      "postcode": "4990-144",
      "city": "PONTE DE LIMA",
      "lon": "-8.581070956143892",
      "lat": "41.76211070550729"
    },
    {
      "id": "pt.ine.add.PTCONT.5170160",
      "street": "R DR CASSIANO BATISTA",
      "house": "4",
      "postcode": "4990-144",
      "city": "PONTE DE LIMA",
      "lon": "-8.581070956143892",
      "lat": "41.76211070550729"
    },
    {
      "id": "pt.ine.add.PTCONT.5170655",
      "street": "R DR CASSIANO BATISTA",
      "house": "4",
      "postcode": "4990-144",
      "city": "PONTE DE LIMA",
      "lon": "-8.581070956143892",
      "lat": "41.76211070550729"
    },
    {
      "id": "pt.ine.add.PTCONT.5170656",
      "street": "R DR CASSIANO BATISTA",
      "house": "4",
      "postcode": "4990-144",
      "city": "PONTE DE LIMA",
      "lon": "-8.581070956143892",
      "lat": "41.76211070550729"
    },
    {
      "id": "pt.ine.add.PTCONT.5170657",
      "street": "R DR CASSIANO BATISTA",
      "house": "4",
      "postcode": "4990-144",
      "city": "PONTE DE LIMA",
      "lon": "-8.581070956143892",
      "lat": "41.76211070550729"
    },
    {
      "id": "pt.ine.add.PTCONT.5170658",
      "street": "R DR CASSIANO BATISTA",
      "house": "4",
      "postcode": "4990-144",
      "city": "PONTE DE LIMA",
      "lon": "-8.581070956143892",
      "lat": "41.76211070550729"
    },
    {
      "id": "pt.ine.add.PTCONT.5171058",
      "street": "R DR CASSIANO BATISTA",
      "house": "4",
      "postcode": "4990-144",
      "city": "PONTE DE LIMA",
      "lon": "-8.581070956143892",
      "lat": "41.76211070550729"
    },
    {
      "id": "pt.ine.add.PTCONT.5171160",
      "street": "LG ASSOCIAÇÃO EMPRESARIAL",
      "house": "2",
      "postcode": "4990-144",
      "city": "PONTE DE LIMA",
      "lon": "-8.581070956143892",
      "lat": "41.76211070550729"
    },
    {
      "id": "pt.ine.add.PTCONT.5175228",
      "street": "R MARQUES DE TERENA",
      "house": "4",
      "postcode": "4990-126",
      "city": "PONTE DE LIMA",
      "lon": "-8.580043159215485",
      "lat": "41.76129539802788"
    },
    {
      "id": "pt.ine.add.PTCONT.5175229",
      "street": "R MQ TERENA",
      "house": "",
      "postcode": "4990-126",
      "city": "PONTE DE LIMA",
      "lon": "-8.580043159215485",
      "lat": "41.76129539802788"
    },
    {
      "id": "pt.ine.add.PTCONT.5175230",
      "street": "R MARQUES DE TERENA",
      "house": "4",
      "postcode": "4990-126",
      "city": "PONTE DE LIMA",
      "lon": "-8.580043159215485",
      "lat": "41.76129539802788"
    },
    {
      "id": "pt.ine.add.PTCONT.5175231",
      "street": "R MARQUES DE TERENA",
      "house": "4",
      "postcode": "4990-126",
      "city": "PONTE DE LIMA",
      "lon": "-8.580043159215485",
      "lat": "41.76129539802788"
    },
    {
      "id": "pt.ine.add.PTCONT.5175232",
      "street": "R MARQUES DE TERENA",
      "house": "4",
      "postcode": "4990-126",
      "city": "PONTE DE LIMA",
      "lon": "-8.580043159215485",
      "lat": "41.76129539802788"
    },
    {
      "id": "pt.ine.add.PTCONT.5175233",
      "street": "R MARQUES DE TERENA",
      "house": "4",
      "postcode": "4990-126",
      "city": "PONTE DE LIMA",
      "lon": "-8.580043159215485",
      "lat": "41.76129539802788"
    },
    {
      "id": "pt.ine.add.PTCONT.5175234",
      "street": "R MARQUES DE TERENA",
      "house": "4",
      "postcode": "4990-126",
      "city": "PONTE DE LIMA",
      "lon": "-8.580043159215485",
      "lat": "41.76129539802788"
    },
    {
      "id": "pt.ine.add.PTCONT.5175235",
      "street": "R MARQUES DE TERENA",
      "house": "4",
      "postcode": "4990-126",
      "city": "PONTE DE LIMA",
      "lon": "-8.580043159215485",
      "lat": "41.76129539802788"
    },
    {
      "id": "pt.ine.add.PTCONT.5175236",
      "street": "R MARQUES DE TERENA",
      "house": "4",
      "postcode": "4990-126",
      "city": "PONTE DE LIMA",
      "lon": "-8.580043159215485",
      "lat": "41.76129539802788"
    },
    {
      "id": "pt.ine.add.PTCONT.5175237",
      "street": "R MARQUES DE TERENA",
      "house": "4",
      "postcode": "4990-126",
      "city": "PONTE DE LIMA",
      "lon": "-8.580043159215485",
      "lat": "41.76129539802788"
    },
    {
      "id": "pt.ine.add.PTCONT.5175809",
      "street": "R MQ TERENA",
      "house": "PORTA E",
      "postcode": "4990-126",
      "city": "PONTE DE LIMA",
      "lon": "-8.580043159215485",
      "lat": "41.76129539802788"
    },
    {
      "id": "pt.ine.add.PTCONT.5186645",
      "street": "R DR MANUEL PEREIRA DE MELO",
      "house": "",
      "postcode": "4990-115",
      "city": "PONTE DE LIMA",
      "lon": "-8.581257903518068",
      "lat": "41.7613266799399"
    },
    {
      "id": "pt.ine.add.PTCONT.5186646",
      "street": "R DR MANUEL PEREIRA DE MELO",
      "house": "",
      "postcode": "4990-115",
      "city": "PONTE DE LIMA",
      "lon": "-8.581257903518068",
      "lat": "41.7613266799399"
    },
    {
      "id": "pt.ine.add.PTCONT.5186647",
      "street": "R DR MANUEL PEREIRA DE MELO",
      "house": "",
      "postcode": "4990-115",
      "city": "PONTE DE LIMA",
      "lon": "-8.581257903518068",
      "lat": "41.7613266799399"
    },
    {
      "id": "pt.ine.add.PTCONT.5186648",
      "street": "R DR MANUEL PEREIRA DE MELO",
      "house": "",
      "postcode": "4990-115",
      "city": "PONTE DE LIMA",
      "lon": "-8.581257903518068",
      "lat": "41.7613266799399"
    },
    {
      "id": "pt.ine.add.PTCONT.5186657",
      "street": "R DR MANUEL PEREIRA DE MELO",
      "house": "",
      "postcode": "4990-115",
      "city": "PONTE DE LIMA",
      "lon": "-8.581257903518068",
      "lat": "41.7613266799399"
    },
    {
      "id": "pt.ine.add.PTCONT.5186658",
      "street": "R DR MANUEL PEREIRA DE MELO",
      "house": "",
      "postcode": "4990-115",
      "city": "PONTE DE LIMA",
      "lon": "-8.581257903518068",
      "lat": "41.7613266799399"
    },
    {
      "id": "pt.ine.add.PTCONT.5186659",
      "street": "R DR MANUEL PEREIRA DE MELO",
      "house": "",
      "postcode": "4990-115",
      "city": "PONTE DE LIMA",
      "lon": "-8.581257903518068",
      "lat": "41.7613266799399"
    },
    {
      "id": "pt.ine.add.PTCONT.5186660",
      "street": "R DR MANUEL PEREIRA DE MELO",
      "house": "",
      "postcode": "4990-115",
      "city": "PONTE DE LIMA",
      "lon": "-8.581257903518068",
      "lat": "41.7613266799399"
    },
    {
      "id": "pt.ine.add.PTCONT.5188004",
      "street": "R SOBRAL",
      "house": "1",
      "postcode": "4990-106",
      "city": "PONTE DE LIMA",
      "lon": "-8.580081669984079",
      "lat": "41.761646381162116"
    },
    {
      "id": "pt.ine.add.PTCONT.5188005",
      "street": "R SOBRAL H",
      "house": "H",
      "postcode": "4990-106",
      "city": "PONTE DE LIMA",
      "lon": "-8.580081669984079",
      "lat": "41.761646381162116"
    },
    {
      "id": "pt.ine.add.PTCONT.5188077",
      "street": "R SOBRAL",
      "house": "1",
      "postcode": "4990-106",
      "city": "PONTE DE LIMA",
      "lon": "-8.580081669984079",
      "lat": "41.761646381162116"
    },
    {
      "id": "pt.ine.add.PTCONT.5188078",
      "street": "R SOBRAL FRK",
      "house": "FRK",
      "postcode": "4990-106",
      "city": "PONTE DE LIMA",
      "lon": "-8.580081669984079",
      "lat": "41.761646381162116"
    },
    {
      "id": "pt.ine.add.PTCONT.5188079",
      "street": "R SOBRAL",
      "house": "1",
      "postcode": "4990-106",
      "city": "PONTE DE LIMA",
      "lon": "-8.580081669984079",
      "lat": "41.761646381162116"
    },
    {
      "id": "pt.ine.add.PTCONT.5188080",
      "street": "R SOBRAL M",
      "house": "M",
      "postcode": "4990-106",
      "city": "PONTE DE LIMA",
      "lon": "-8.580081669984079",
      "lat": "41.761646381162116"
    },
    {
      "id": "pt.ine.add.PTCONT.5192230",
      "street": "R DR CASSIANO BATISTA",
      "house": "",
      "postcode": "4990-144",
      "city": "PONTE DE LIMA",
      "lon": "-8.581452617472117",
      "lat": "41.7616590464071"
    },
    {
      "id": "pt.ine.add.PTCONT.5192231",
      "street": "R DR CASSIANO BATISTA",
      "house": "",
      "postcode": "4990-144",
      "city": "PONTE DE LIMA",
      "lon": "-8.581452617472117",
      "lat": "41.7616590464071"
    },
    {
      "id": "pt.ine.add.PTCONT.5192232",
      "street": "R DR CASSIANO BATISTA",
      "house": "",
      "postcode": "4990-144",
      "city": "PONTE DE LIMA",
      "lon": "-8.581452617472117",
      "lat": "41.7616590464071"
    },
    {
      "id": "pt.ine.add.PTCONT.5192233",
      "street": "R DR CASSIANO BATISTA",
      "house": "",
      "postcode": "4990-144",
      "city": "PONTE DE LIMA",
      "lon": "-8.581452617472117",
      "lat": "41.7616590464071"
    },
    {
      "id": "pt.ine.add.PTCONT.5192234",
      "street": "R DR CASSIANO BATISTA",
      "house": "",
      "postcode": "4990-144",
      "city": "PONTE DE LIMA",
      "lon": "-8.581452617472117",
      "lat": "41.7616590464071"
    },
    {
      "id": "pt.ine.add.PTCONT.5214401",
      "street": "R SOBRAL",
      "house": "BL 0 01",
      "postcode": "4990-106",
      "city": "PONTE DE LIMA",
      "lon": "-8.580627100430462",
      "lat": "41.76226549313565"
    },
    {
      "id": "pt.ine.add.PTCONT.5214402",
      "street": "R SOBRAL",
      "house": "BL 0 01",
      "postcode": "4990-106",
      "city": "PONTE DE LIMA",
      "lon": "-8.580627100430462",
      "lat": "41.76226549313565"
    },
    {
      "id": "pt.ine.add.PTCONT.5214403",
      "street": "R SOBRAL",
      "house": "BL 0 01",
      "postcode": "4990-106",
      "city": "PONTE DE LIMA",
      "lon": "-8.580627100430462",
      "lat": "41.76226549313565"
    },
    {
      "id": "pt.ine.add.PTCONT.5214404",
      "street": "R SOBRAL",
      "house": "BL 0 01",
      "postcode": "4990-106",
      "city": "PONTE DE LIMA",
      "lon": "-8.580627100430462",
      "lat": "41.76226549313565"
    },
    {
      "id": "pt.ine.add.PTCONT.5214405",
      "street": "R SOBRAL",
      "house": "BL 0 01",
      "postcode": "4990-106",
      "city": "PONTE DE LIMA",
      "lon": "-8.580627100430462",
      "lat": "41.76226549313565"
    },
    {
      "id": "pt.ine.add.PTCONT.5214406",
      "street": "R SOBRAL",
      "house": "BL 0 01",
      "postcode": "4990-106",
      "city": "PONTE DE LIMA",
      "lon": "-8.580627100430462",
      "lat": "41.76226549313565"
    },
    {
      "id": "pt.ine.add.PTCONT.5214407",
      "street": "R SOBRAL T",
      "house": "T",
      "postcode": "4990-106",
      "city": "PONTE DE LIMA",
      "lon": "-8.580627100430462",
      "lat": "41.76226549313565"
    },
    {
      "id": "pt.ine.add.PTCONT.5218672",
      "street": "R SOBRAL",
      "house": "2",
      "postcode": "4990-106",
      "city": "PONTE DE LIMA",
      "lon": "-8.580832086525424",
      "lat": "41.76234572518819"
    },
    {
      "id": "pt.ine.add.PTCONT.5218673",
      "street": "R SOBRAL",
      "house": "2",
      "postcode": "4990-106",
      "city": "PONTE DE LIMA",
      "lon": "-8.580832086525424",
      "lat": "41.76234572518819"
    },
    {
      "id": "pt.ine.add.PTCONT.5218674",
      "street": "R SOBRAL",
      "house": "2",
      "postcode": "4990-106",
      "city": "PONTE DE LIMA",
      "lon": "-8.580832086525424",
      "lat": "41.76234572518819"
    },
    {
      "id": "pt.ine.add.PTCONT.5218741",
      "street": "R SOBRAL",
      "house": "2",
      "postcode": "4990-106",
      "city": "PONTE DE LIMA",
      "lon": "-8.580832086525424",
      "lat": "41.76234572518819"
    },
    {
      "id": "pt.ine.add.PTCONT.5218742",
      "street": "R SOBRAL",
      "house": "2",
      "postcode": "4990-106",
      "city": "PONTE DE LIMA",
      "lon": "-8.580832086525424",
      "lat": "41.76234572518819"
    },
    {
      "id": "pt.ine.add.PTCONT.5218743",
      "street": "R SOBRAL",
      "house": "2",
      "postcode": "4990-106",
      "city": "PONTE DE LIMA",
      "lon": "-8.580832086525424",
      "lat": "41.76234572518819"
    },
    {
      "id": "pt.ine.add.PTCONT.5218744",
      "street": "R SOBRAL",
      "house": "2",
      "postcode": "4990-106",
      "city": "PONTE DE LIMA",
      "lon": "-8.580832086525424",
      "lat": "41.76234572518819"
    },
    {
      "id": "pt.ine.add.PTCONT.5218745",
      "street": "R SOBRAL",
      "house": "2",
      "postcode": "4990-106",
      "city": "PONTE DE LIMA",
      "lon": "-8.580832086525424",
      "lat": "41.76234572518819"
    },
    {
      "id": "pt.ine.add.PTCONT.5235387",
      "street": "R SOBRAL",
      "house": "",
      "postcode": "4990-106",
      "city": "PONTE DE LIMA",
      "lon": "-8.580119306387484",
      "lat": "41.7618713199495"
    },
    {
      "id": "pt.ine.add.PTCONT.5259014",
      "street": "LG CONS ARNALDO NORTON DE MATOS",
      "house": "3",
      "postcode": "4990-081",
      "city": "PONTE DE LIMA",
      "lon": "-8.580438848509395",
      "lat": "41.76113179676653"
    },
    {
      "id": "pt.ine.add.PTCONT.5259015",
      "street": "LG CONS ARNALDO NORTON DE MATOS",
      "house": "3",
      "postcode": "4990-081",
      "city": "PONTE DE LIMA",
      "lon": "-8.580438848509395",
      "lat": "41.76113179676653"
    },
    {
      "id": "pt.ine.add.PTCONT.5259016",
      "street": "LG CONS ARNALDO NORTON DE MATOS",
      "house": "3",
      "postcode": "4990-081",
      "city": "PONTE DE LIMA",
      "lon": "-8.580438848509395",
      "lat": "41.76113179676653"
    },
    {
      "id": "pt.ine.add.PTCONT.5259027",
      "street": "LG CONS ARNALDO NORTON DE MATOS",
      "house": "3",
      "postcode": "4990-081",
      "city": "PONTE DE LIMA",
      "lon": "-8.580438848509395",
      "lat": "41.76113179676653"
    },
    {
      "id": "pt.ine.add.PTCONT.5259028",
      "street": "LG CONS ARNALDO NORTON DE MATOS",
      "house": "3",
      "postcode": "4990-081",
      "city": "PONTE DE LIMA",
      "lon": "-8.580438848509395",
      "lat": "41.76113179676653"
    },
    {
      "id": "pt.ine.add.PTCONT.5259029",
      "street": "LG CONS ARNALDO NORTON DE MATOS",
      "house": "3",
      "postcode": "4990-081",
      "city": "PONTE DE LIMA",
      "lon": "-8.580438848509395",
      "lat": "41.76113179676653"
    },
    {
      "id": "pt.ine.add.PTCONT.5259030",
      "street": "LG CONS ARNALDO NORTON DE MATOS",
      "house": "3",
      "postcode": "4990-081",
      "city": "PONTE DE LIMA",
      "lon": "-8.580438848509395",
      "lat": "41.76113179676653"
    },
    {
      "id": "pt.ine.add.PTCONT.5259031",
      "street": "LG CONS ARNALDO NORTON DE MATOS",
      "house": "3",
      "postcode": "4990-081",
      "city": "PONTE DE LIMA",
      "lon": "-8.580438848509395",
      "lat": "41.76113179676653"
    },
    {
      "id": "pt.ine.add.PTCONT.5259032",
      "street": "LG CONS ARNALDO NORTON DE MATOS",
      "house": "3",
      "postcode": "4990-081",
      "city": "PONTE DE LIMA",
      "lon": "-8.580438848509395",
      "lat": "41.76113179676653"
    },
    {
      "id": "pt.ine.add.PTCONT.5263633",
      "street": "R SOBRAL I",
      "house": "I",
      "postcode": "4990-106",
      "city": "PONTE DE LIMA",
      "lon": "-8.580240304409436",
      "lat": "41.76197889002518"
    },
    {
      "id": "pt.ine.add.PTCONT.5279749",
      "street": "R DR CASSIANO BATISTA",
      "house": "",
      "postcode": "4990-144",
      "city": "PONTE DE LIMA",
      "lon": "-8.581176924907533",
      "lat": "41.76178616960844"
    },
    {
      "id": "pt.ine.add.PTCONT.5279750",
      "street": "R DR CASSIANO BATISTA",
      "house": "",
      "postcode": "4990-144",
      "city": "PONTE DE LIMA",
      "lon": "-8.581176924907533",
      "lat": "41.76178616960844"
    },
    {
      "id": "pt.ine.add.PTCONT.5279751",
      "street": "R DR CASSIANO BATISTA",
      "house": "",
      "postcode": "4990-144",
      "city": "PONTE DE LIMA",
      "lon": "-8.581176924907533",
      "lat": "41.76178616960844"
    },
    {
      "id": "pt.ine.add.PTCONT.5279752",
      "street": "R DR CASSIANO BATISTA",
      "house": "",
      "postcode": "4990-144",
      "city": "PONTE DE LIMA",
      "lon": "-8.581176924907533",
      "lat": "41.76178616960844"
    },
    {
      "id": "pt.ine.add.PTCONT.5279753",
      "street": "R DR CASSIANO BATISTA",
      "house": "",
      "postcode": "4990-144",
      "city": "PONTE DE LIMA",
      "lon": "-8.581176924907533",
      "lat": "41.76178616960844"
    },
    {
      "id": "pt.ine.add.PTCONT.5279754",
      "street": "R DR CASSIANO BATISTA",
      "house": "",
      "postcode": "4990-144",
      "city": "PONTE DE LIMA",
      "lon": "-8.581176924907533",
      "lat": "41.76178616960844"
    },
    {
      "id": "pt.ine.add.PTCONT.5279755",
      "street": "R DR CASSIANO BATISTA",
      "house": "6",
      "postcode": "4990-144",
      "city": "PONTE DE LIMA",
      "lon": "-8.581176924907533",
      "lat": "41.76178616960844"
    },
    {
      "id": "pt.ine.add.PTCONT.5279756",
      "street": "R DR CASSIANO BATISTA",
      "house": "",
      "postcode": "4990-144",
      "city": "PONTE DE LIMA",
      "lon": "-8.581176924907533",
      "lat": "41.76178616960844"
    },
    {
      "id": "pt.ine.add.PTCONT.5281624",
      "street": "LG CONS ARNALDO NORTON DE MATOS",
      "house": "2",
      "postcode": "4990-081",
      "city": "PONTE DE LIMA",
      "lon": "-8.580823011811807",
      "lat": "41.761040266330056"
    },
    {
      "id": "pt.ine.add.PTCONT.5282566",
      "street": "R DR MANUEL PEREIRA DE MELO",
      "house": "",
      "postcode": "4990-115",
      "city": "PONTE DE LIMA",
      "lon": "-8.581257903518068",
      "lat": "41.7613266799399"
    },
    {
      "id": "pt.ine.add.PTCONT.5284809",
      "street": "R SOBRAL",
      "house": "2",
      "postcode": "4990-106",
      "city": "PONTE DE LIMA",
      "lon": "-8.580832086525424",
      "lat": "41.76234572518819"
    }
  ]
}