{
  "data": {
    "distrito": "Braga",
    "concelho": "Vieira do Minho",
    "freguesia": "Cantelães",
    "OBJECTID": 95,
    "BGRI2021": "03110500101",
    "DT21": "03",
    "DTMN21": "0311",
    "DTMNFR21": "031105",
    "DTMNFRSEC21": "031105001",
    "SECNUM21": "001",
    "SSNUM21": "01",
    "SECSSNUM21": "00101",
    "OBJECTID_1": 30023,
    "DT": "03",
    "CC": "11",
    "fr": "05",
    "SEC": "001",
    "SS": "01"
  },
  "addresses": [
    {
      "id": "pt.ine.add.PTCONT.459454",
      "street": "R DR MARIA JULIA ALVES MARTINS",
      "house": "554",
      "postcode": "4850-073",
      "city": "CANTELÃES",
      "lon": "-8.133828424610146",
      "lat": "41.63481860606414"
    },
    {
      "id": "pt.ine.add.PTCONT.481505",
      "street": "CABINE",
      "house": "38",
      "postcode": "4850-073",
      "city": "CANTELÃES",
      "lon": "-8.134272481383473",
      "lat": "41.6348456133431"
    },
    {
      "id": "pt.ine.add.PTCONT.484774",
      "street": "",
      "house": "",
      "postcode": "4850-073",
      "city": "CANTELÃES",
      "lon": "-8.13471654009413",
      "lat": "41.63493564438184"
    },
    {
      "id": "pt.ine.add.PTCONT.502123",
      "street": "",
      "house": "",
      "postcode": "4850-071",
      "city": "CANTELÃES",
      "lon": "-8.134872563590235",
      "lat": "41.6350616930416"
    },
    {
      "id": "pt.ine.add.PTCONT.538172",
      "street": "CABINE",
      "house": "538",
      "postcode": "4850-073",
      "city": "CANTELÃES",
      "lon": "-8.133780419460342",
      "lat": "41.63490864274867"
    },
    {
      "id": "pt.ine.add.PTCONT.574610",
      "street": "VALDEMAR MORAIS RAMALHO",
      "house": "33",
      "postcode": "4850-510",
      "city": "",
      "lon": "-8.133828430121856",
      "lat": "41.63531380621274"
    },
    {
      "id": "pt.ine.add.PTCONT.633982",
      "street": "R VALDEMAR MORAIS RAMALHO",
      "house": "N 1",
      "postcode": "4850-073",
      "city": "CANTELÃES",
      "lon": "-8.133624401477512",
      "lat": "41.63516074545021"
    },
    {
      "id": "pt.ine.add.PTCONT.672138",
      "street": "R VALDEMAR MORAIS RAMALHO",
      "house": "97",
      "postcode": "4850-073",
      "city": "CANTELÃES",
      "lon": "-8.134188478365742",
      "lat": "41.63530479975476"
    },
    {
      "id": "pt.ine.add.PTCONT.699621",
      "street": "SEM DESIGNCAO",
      "house": "53",
      "postcode": "4850-071",
      "city": "CANTELÃES",
      "lon": "-8.134008455822183",
      "lat": "41.63542184860718"
    },
    {
      "id": "pt.ine.add.PTCONT.711510",
      "street": "",
      "house": "",
      "postcode": "4850-073",
      "city": "CANTELÃES",
      "lon": "-8.134896563238915",
      "lat": "41.63493564172234"
    },
    {
      "id": "pt.ine.add.PTCONT.717639",
      "street": "",
      "house": "",
      "postcode": "4850-073",
      "city": "CANTELÃES",
      "lon": "-8.134104459183682",
      "lat": "41.63479159308516"
    },
    {
      "id": "pt.ine.add.PTCONT.796487",
      "street": "",
      "house": "",
      "postcode": "4850-073",
      "city": "CANTELÃES",
      "lon": "-8.133744415820123",
      "lat": "41.63500768298515"
    }
  ]
}