{
  "data": {
    "distrito": "Braga",
    "concelho": "Vila Verde",
    "freguesia": "Cervães",
    "OBJECTID": 105,
    "BGRI2021": "03130900103",
    "DT21": "03",
    "DTMN21": "0313",
    "DTMNFR21": "031309",
    "DTMNFRSEC21": "031309001",
    "SECNUM21": "001",
    "SSNUM21": "03",
    "SECSSNUM21": "00103",
    "OBJECTID_1": 32462,
    "DT": "03",
    "CC": "13",
    "fr": "09",
    "SEC": "001",
    "SS": "03"
  },
  "addresses": [
    {
      "id": "pt.ine.add.PTCONT.464103",
      "street": "R VEIGA",
      "house": "7",
      "postcode": "4730-016",
      "city": "CERVÃES",
      "lon": "-8.51699360732021",
      "lat": "41.58708851151298"
    },
    {
      "id": "pt.ine.add.PTCONT.544383",
      "street": "R BOUCA DAS COVAS",
      "house": "5",
      "postcode": "4730-052",
      "city": "CERVÃES",
      "lon": "-8.512402103172148",
      "lat": "41.583277180529485"
    },
    {
      "id": "pt.ine.add.PTCONT.562206",
      "street": "R VEIGA",
      "house": "9",
      "postcode": "4730-016",
      "city": "CERVÃES",
      "lon": "-8.517018178844873",
      "lat": "41.58718747005841"
    },
    {
      "id": "pt.ine.add.PTCONT.590933",
      "street": "R VEIGA",
      "house": "3",
      "postcode": "4730-016",
      "city": "CERVÃES",
      "lon": "-8.51772851064663",
      "lat": "41.587653287850074"
    },
    {
      "id": "pt.ine.add.PTCONT.627366",
      "street": "R VEIGA",
      "house": "2",
      "postcode": "4730-016",
      "city": "CERVÃES",
      "lon": "-8.51795946957626",
      "lat": "41.58817472893589"
    },
    {
      "id": "pt.ine.add.PTCONT.635009",
      "street": "R PEDREIRA DE CERVAINHOS",
      "house": "24",
      "postcode": "4730-016",
      "city": "CERVÃES",
      "lon": "-8.518139840146217",
      "lat": "41.5882551582343"
    },
    {
      "id": "pt.ine.add.PTCONT.649014",
      "street": "EN 205",
      "house": "",
      "postcode": "4730-100",
      "city": "CERVÃES",
      "lon": "-8.512712832973051",
      "lat": "41.58309608111271"
    },
    {
      "id": "pt.ine.add.PTCONT.656582",
      "street": "R VEIGA",
      "house": "6",
      "postcode": "4730-016",
      "city": "CERVÃES",
      "lon": "-8.517429605568035",
      "lat": "41.58780735009421"
    },
    {
      "id": "pt.ine.add.PTCONT.729881",
      "street": "R PEDREIRA DE CERVAINHOS",
      "house": "26",
      "postcode": "4730-016",
      "city": "CERVÃES",
      "lon": "-8.518292105154014",
      "lat": "41.58764239739992"
    },
    {
      "id": "pt.ine.add.PTCONT.762949",
      "street": "R BOUCA DAS COVAS",
      "house": "3",
      "postcode": "4730-052",
      "city": "CERVÃES",
      "lon": "-8.512331311852813",
      "lat": "41.58347549536174"
    },
    {
      "id": "pt.ine.add.PTCONT.777860",
      "street": "R VEIGA",
      "house": "7",
      "postcode": "4730-016",
      "city": "CERVÃES",
      "lon": "-8.518126242732022",
      "lat": "41.58798509312139"
    },
    {
      "id": "pt.ine.add.PTCONT.786770",
      "street": "R VEIGA",
      "house": "4",
      "postcode": "4730-016",
      "city": "CERVÃES",
      "lon": "-8.517562484967494",
      "lat": "41.58796897224083"
    },
    {
      "id": "pt.ine.add.PTCONT.801866",
      "street": "BC ESCORREGADOURO",
      "house": "6",
      "postcode": "4730-016",
      "city": "CERVÃES",
      "lon": "-8.516800662650697",
      "lat": "41.58690908176589"
    },
    {
      "id": "pt.ine.add.PTCONT.834802",
      "street": "R VEIGA",
      "house": "5",
      "postcode": "4730-016",
      "city": "CERVÃES",
      "lon": "-8.517162354747486",
      "lat": "41.58723200700043"
    },
    {
      "id": "pt.ine.add.PTCONT.849340",
      "street": "R BOUÇA DAS COVAS",
      "house": "1",
      "postcode": "4730-052",
      "city": "CERVÃES",
      "lon": "-8.511794997367204",
      "lat": "41.58404449586553"
    }
  ]
}