{
  "data": {
    "distrito": "Viseu",
    "concelho": "Castro Daire",
    "freguesia": "Moledo",
    "OBJECTID": 116,
    "BGRI2021": "18031300220",
    "DT21": "18",
    "DTMN21": "1803",
    "DTMNFR21": "180313",
    "DTMNFRSEC21": "180313002",
    "SECNUM21": "002",
    "SSNUM21": "20",
    "SECSSNUM21": "00220",
    "OBJECTID_1": 189747,
    "DT": "18",
    "CC": "03",
    "fr": "13",
    "SEC": "002",
    "SS": "20"
  },
  "addresses": [
    {
      "id": "pt.ine.add.PTCONT.5430797",
      "street": "R CENTRAL",
      "house": "",
      "postcode": "3600-461",
      "city": "MOLEDO CDR",
      "lon": "-7.878407366100678",
      "lat": "40.81539990051952"
    },
    {
      "id": "pt.ine.add.PTCONT.5430804",
      "street": "R FUNDO DO POVO",
      "house": "",
      "postcode": "3600-461",
      "city": "MOLEDO CDR",
      "lon": "-7.879555722494872",
      "lat": "40.815753621380615"
    },
    {
      "id": "pt.ine.add.PTCONT.5435826",
      "street": "R CENTRAL",
      "house": "44",
      "postcode": "3600-461",
      "city": "MOLEDO CDR",
      "lon": "-7.879670204492815",
      "lat": "40.816816452362204"
    },
    {
      "id": "pt.ine.add.PTCONT.5445485",
      "street": "R CENTRAL",
      "house": "276",
      "postcode": "3600-461",
      "city": "MOLEDO CDR",
      "lon": "-7.878478205721121",
      "lat": "40.81547209617234"
    },
    {
      "id": "pt.ine.add.PTCONT.5465690",
      "street": "ESTR MACIEIRAS",
      "house": "48",
      "postcode": "3600-460",
      "city": "MOLEDO CDR",
      "lon": "-7.873716495359292",
      "lat": "40.82686169571623"
    },
    {
      "id": "pt.ine.add.PTCONT.5468653",
      "street": "R FUNDO DO POVO",
      "house": "",
      "postcode": "3600-461",
      "city": "MOLEDO CDR",
      "lon": "-7.8792235758208085",
      "lat": "40.815824930278154"
    },
    {
      "id": "pt.ine.add.PTCONT.5476326",
      "street": "LUGAR DO CAMPO",
      "house": "",
      "postcode": "3600-460",
      "city": "MOLEDO CDR",
      "lon": "-7.876222501013178",
      "lat": "40.82872231057761"
    },
    {
      "id": "pt.ine.add.PTCONT.5481766",
      "street": "R FUNDO DO POVO",
      "house": "",
      "postcode": "3600-461",
      "city": "MOLEDO CDR",
      "lon": "-7.8791876403909535",
      "lat": "40.815923905222114"
    },
    {
      "id": "pt.ine.add.PTCONT.5487488",
      "street": "R FUNDO DO POVO",
      "house": "18",
      "postcode": "3600-461",
      "city": "MOLEDO CDR",
      "lon": "-7.8793889974190305",
      "lat": "40.815960367829824"
    },
    {
      "id": "pt.ine.add.PTCONT.5490797",
      "street": "LUGAR DO CAMPO",
      "house": "",
      "postcode": "3600-460",
      "city": "MOLEDO CDR",
      "lon": "-7.876048920223616",
      "lat": "40.82762332716466"
    },
    {
      "id": "pt.ine.add.PTCONT.5505409",
      "street": "R CENTRAL",
      "house": "4",
      "postcode": "3600-461",
      "city": "MOLEDO CDR",
      "lon": "-7.878737929378869",
      "lat": "40.81574281641383"
    },
    {
      "id": "pt.ine.add.PTCONT.5509261",
      "street": "R FUNDO DO POVO",
      "house": "22",
      "postcode": "3600-461",
      "city": "MOLEDO CDR",
      "lon": "-7.879531297312886",
      "lat": "40.815942670839604"
    },
    {
      "id": "pt.ine.add.PTCONT.5509262",
      "street": "R NOVA",
      "house": "",
      "postcode": "3600-461",
      "city": "MOLEDO CDR",
      "lon": "-7.881706432236449",
      "lat": "40.81746926063402"
    },
    {
      "id": "pt.ine.add.PTCONT.5511268",
      "street": "R CENTRAL",
      "house": "196",
      "postcode": "3600-461",
      "city": "MOLEDO CDR",
      "lon": "-7.879164415904403",
      "lat": "40.81579778535061"
    },
    {
      "id": "pt.ine.add.PTCONT.5511269",
      "street": "R NOVA",
      "house": "",
      "postcode": "3600-461",
      "city": "MOLEDO CDR",
      "lon": "-7.881457215488736",
      "lat": "40.81754976151491"
    },
    {
      "id": "pt.ine.add.PTCONT.5513569",
      "street": "LUGAR DO CAMPO",
      "house": "",
      "postcode": "3600-460",
      "city": "MOLEDO CDR",
      "lon": "-7.877741549258403",
      "lat": "40.82830245300308"
    },
    {
      "id": "pt.ine.add.PTCONT.5513678",
      "street": "R NOVA",
      "house": "484",
      "postcode": "3600-461",
      "city": "MOLEDO CDR",
      "lon": "-7.881352207551994",
      "lat": "40.817108291883265"
    },
    {
      "id": "pt.ine.add.PTCONT.5536597",
      "street": "R NOVA",
      "house": "",
      "postcode": "3600-461",
      "city": "MOLEDO CDR",
      "lon": "-7.8807889495947725",
      "lat": "40.818736949856486"
    },
    {
      "id": "pt.ine.add.PTCONT.5538564",
      "street": "R FUNDO DO POVO",
      "house": "28",
      "postcode": "3600-461",
      "city": "MOLEDO CDR",
      "lon": "-7.879567163677588",
      "lat": "40.8158617054594"
    },
    {
      "id": "pt.ine.add.PTCONT.5538565",
      "street": "R CENTRAL",
      "house": "",
      "postcode": "3600-461",
      "city": "MOLEDO CDR",
      "lon": "-7.880190939465587",
      "lat": "40.81702470795096"
    },
    {
      "id": "pt.ine.add.PTCONT.5538580",
      "street": "LUGAR DO CAMPO",
      "house": "",
      "postcode": "3600-460",
      "city": "MOLEDO CDR",
      "lon": "-7.876756768180987",
      "lat": "40.828516386447326"
    },
    {
      "id": "pt.ine.add.PTCONT.5542088",
      "street": "R CENTRAL",
      "house": "196",
      "postcode": "3600-461",
      "city": "MOLEDO CDR",
      "lon": "-7.879057880084755",
      "lat": "40.81576153117469"
    },
    {
      "id": "pt.ine.add.PTCONT.5542119",
      "street": "ESTR MACIEIRAS",
      "house": "110",
      "postcode": "3600-460",
      "city": "MOLEDO CDR",
      "lon": "-7.873753742937098",
      "lat": "40.82642954454976"
    },
    {
      "id": "pt.ine.add.PTCONT.5554654",
      "street": "R CENTRAL",
      "house": "252",
      "postcode": "3600-461",
      "city": "MOLEDO CDR",
      "lon": "-7.8786905534980916",
      "lat": "40.81573370704513"
    },
    {
      "id": "pt.ine.add.PTCONT.5554684",
      "street": "ESTR MACIEIRAS",
      "house": "",
      "postcode": "3600-460",
      "city": "MOLEDO CDR",
      "lon": "-7.873705939093237",
      "lat": "40.82652849091298"
    },
    {
      "id": "pt.ine.add.PTCONT.5559425",
      "street": "R NOVA",
      "house": "",
      "postcode": "3600-461",
      "city": "MOLEDO CDR",
      "lon": "-7.882119009101555",
      "lat": "40.81807348775408"
    },
    {
      "id": "pt.ine.add.PTCONT.5559983",
      "street": "R LINHAR",
      "house": "",
      "postcode": "3600-461",
      "city": "MOLEDO CDR",
      "lon": "-7.8785727849816505",
      "lat": "40.81553533924334"
    },
    {
      "id": "pt.ine.add.PTCONT.5560003",
      "street": "R CENTRAL",
      "house": "2",
      "postcode": "3600-461",
      "city": "MOLEDO CDR",
      "lon": "-7.879139989595178",
      "lat": "40.81598683472197"
    },
    {
      "id": "pt.ine.add.PTCONT.5574731",
      "street": "QTA VALES",
      "house": "",
      "postcode": "3600-460",
      "city": "MOLEDO CDR",
      "lon": "-7.875468279107304",
      "lat": "40.824497333436454"
    },
    {
      "id": "pt.ine.add.PTCONT.5576637",
      "street": "R CENTRAL",
      "house": "210",
      "postcode": "3600-461",
      "city": "MOLEDO CDR",
      "lon": "-7.878951275650006",
      "lat": "40.81574328657199"
    },
    {
      "id": "pt.ine.add.PTCONT.5578505",
      "street": "R FUNDO DO POVO",
      "house": "",
      "postcode": "3600-461",
      "city": "MOLEDO CDR",
      "lon": "-7.879330249091292",
      "lat": "40.81582516495793"
    },
    {
      "id": "pt.ine.add.PTCONT.5580327",
      "street": "R LANTEIRO",
      "house": "",
      "postcode": "3600-461",
      "city": "MOLEDO CDR",
      "lon": "-7.879653524618566",
      "lat": "40.814970408914526"
    },
    {
      "id": "pt.ine.add.PTCONT.5585892",
      "street": "TV PEREIRAS",
      "house": "41",
      "postcode": "3600-461",
      "city": "MOLEDO CDR",
      "lon": "-7.880379319816761",
      "lat": "40.81735830238576"
    },
    {
      "id": "pt.ine.add.PTCONT.5589608",
      "street": "R FUNDO DO POVO",
      "house": "",
      "postcode": "3600-461",
      "city": "MOLEDO CDR",
      "lon": "-7.879270608613185",
      "lat": "40.815924087785554"
    },
    {
      "id": "pt.ine.add.PTCONT.5614181",
      "street": "R CENTRAL",
      "house": "236",
      "postcode": "3600-461",
      "city": "MOLEDO CDR",
      "lon": "-7.878832784324981",
      "lat": "40.81573402058607"
    },
    {
      "id": "pt.ine.add.PTCONT.5638269",
      "street": "R FUNDO DO POVO",
      "house": "",
      "postcode": "3600-461",
      "city": "MOLEDO CDR",
      "lon": "-7.879413114281152",
      "lat": "40.81585236192614"
    },
    {
      "id": "pt.ine.add.PTCONT.5641595",
      "street": "ESTR MACIEIRAS",
      "house": "",
      "postcode": "3600-460",
      "city": "MOLEDO CDR",
      "lon": "-7.873681352828023",
      "lat": "40.82675355797681"
    },
    {
      "id": "pt.ine.add.PTCONT.5645843",
      "street": "LUGAR DO CAMPO",
      "house": "",
      "postcode": "3600-460",
      "city": "MOLEDO CDR",
      "lon": "-7.87591789248145",
      "lat": "40.82778512321126"
    },
    {
      "id": "pt.ine.add.PTCONT.5651352",
      "street": "TV PEREIRAS",
      "house": "4",
      "postcode": "3600-461",
      "city": "MOLEDO CDR",
      "lon": "-7.880557522516969",
      "lat": "40.81725063368228"
    },
    {
      "id": "pt.ine.add.PTCONT.5653596",
      "street": "R LANTEIRO",
      "house": "58",
      "postcode": "3600-461",
      "city": "MOLEDO CDR",
      "lon": "-7.879049119215375",
      "lat": "40.81495106980087"
    },
    {
      "id": "pt.ine.add.PTCONT.5668237",
      "street": "R CENTRAL",
      "house": "92",
      "postcode": "3600-461",
      "city": "MOLEDO CDR",
      "lon": "-7.880081835025571",
      "lat": "40.81766381727534"
    }
  ]
}