{
  "data": {
    "distrito": "Braga",
    "concelho": "Vila Verde",
    "freguesia": "Uni√£o das freguesias de Marrancos e Arcozelo",
    "OBJECTID": 1078,
    "BGRI2021": "03136400109",
    "DT21": "03",
    "DTMN21": "0313",
    "DTMNFR21": "031364",
    "DTMNFRSEC21": "031364001",
    "SECNUM21": "001",
    "SSNUM21": "09",
    "SECSSNUM21": "00109",
    "OBJECTID_1": 31913,
    "DT": "03",
    "CC": "13",
    "fr": "64",
    "SEC": "001",
    "SS": "09"
  },
  "addresses": [
    {
      "id": "pt.ine.add.PTCONT.482919",
      "street": "R SOUTO",
      "house": "8",
      "postcode": "4730-020",
      "city": "ARCOZELO VVD",
      "lon": "-8.533891594677433",
      "lat": "41.65884381633286"
    },
    {
      "id": "pt.ine.add.PTCONT.511378",
      "street": "R ESCUSA",
      "house": "1",
      "postcode": "4730-020",
      "city": "ARCOZELO VVD",
      "lon": "-8.533921411987833",
      "lat": "41.65978008414614"
    },
    {
      "id": "pt.ine.add.PTCONT.516749",
      "street": "R FONTES",
      "house": "35",
      "postcode": "4730-020",
      "city": "ARCOZELO VVD",
      "lon": "-8.533575001441967",
      "lat": "41.66394094136916"
    },
    {
      "id": "pt.ine.add.PTCONT.529592",
      "street": "R POCAS",
      "house": "3",
      "postcode": "4730-020",
      "city": "ARCOZELO VVD",
      "lon": "-8.531705490722373",
      "lat": "41.66062512235279"
    },
    {
      "id": "pt.ine.add.PTCONT.533401",
      "street": "R POCAS",
      "house": "5",
      "postcode": "4730-020",
      "city": "ARCOZELO VVD",
      "lon": "-8.531754569827884",
      "lat": "41.66079602002889"
    },
    {
      "id": "pt.ine.add.PTCONT.533402",
      "street": "R SOUTO",
      "house": "18",
      "postcode": "4730-020",
      "city": "ARCOZELO VVD",
      "lon": "-8.533870318432525",
      "lat": "41.65928506570579"
    },
    {
      "id": "pt.ine.add.PTCONT.538507",
      "street": "R ESCUSA",
      "house": "37",
      "postcode": "4730-020",
      "city": "ARCOZELO VVD",
      "lon": "-8.532188011903099",
      "lat": "41.66293736582801"
    },
    {
      "id": "pt.ine.add.PTCONT.547264",
      "street": "R SOUTO",
      "house": "23",
      "postcode": "4730-020",
      "city": "ARCOZELO VVD",
      "lon": "-8.533585303672277",
      "lat": "41.65979025928271"
    },
    {
      "id": "pt.ine.add.PTCONT.564932",
      "street": "R SOUTO",
      "house": "31",
      "postcode": "4730-020",
      "city": "ARCOZELO VVD",
      "lon": "-8.532337138679722",
      "lat": "41.65986662996493"
    },
    {
      "id": "pt.ine.add.PTCONT.570030",
      "street": "R SOUTO",
      "house": "25",
      "postcode": "4730-020",
      "city": "ARCOZELO VVD",
      "lon": "-8.53336891938768",
      "lat": "41.65974599513557"
    },
    {
      "id": "pt.ine.add.PTCONT.571696",
      "street": "R SOUTO",
      "house": "24",
      "postcode": "4730-020",
      "city": "ARCOZELO VVD",
      "lon": "-8.533115292123647",
      "lat": "41.65950378155708"
    },
    {
      "id": "pt.ine.add.PTCONT.585193",
      "street": "R FONTES",
      "house": "29",
      "postcode": "4730-020",
      "city": "ARCOZELO VVD",
      "lon": "-8.533157444270826",
      "lat": "41.66437456668726"
    },
    {
      "id": "pt.ine.add.PTCONT.599585",
      "street": "R SOUTO",
      "house": "26",
      "postcode": "4730-020",
      "city": "ARCOZELO VVD",
      "lon": "-8.532874452060836",
      "lat": "41.65938757298332"
    },
    {
      "id": "pt.ine.add.PTCONT.600035",
      "street": "R FONTES",
      "house": "19",
      "postcode": "4730-020",
      "city": "ARCOZELO VVD",
      "lon": "-8.532523592247616",
      "lat": "41.6647819315981"
    },
    {
      "id": "pt.ine.add.PTCONT.630996",
      "street": "R FONTES",
      "house": "17",
      "postcode": "4730-020",
      "city": "ARCOZELO VVD",
      "lon": "-8.532055716406639",
      "lat": "41.66484658149789"
    },
    {
      "id": "pt.ine.add.PTCONT.635199",
      "street": "R FONTES",
      "house": "17",
      "postcode": "4730-020",
      "city": "ARCOZELO VVD",
      "lon": "-8.532199853651749",
      "lat": "41.664855084678045"
    },
    {
      "id": "pt.ine.add.PTCONT.708836",
      "street": "R ESCUSA",
      "house": "59",
      "postcode": "4730-020",
      "city": "ARCOZELO VVD",
      "lon": "-8.530781997827578",
      "lat": "41.66468893127636"
    },
    {
      "id": "pt.ine.add.PTCONT.711826",
      "street": "R ESCUSA",
      "house": "1",
      "postcode": "4730-020",
      "city": "ARCOZELO VVD",
      "lon": "-8.533754446031912",
      "lat": "41.659960737737336"
    },
    {
      "id": "pt.ine.add.PTCONT.718851",
      "street": "R RIBEIRO",
      "house": "46",
      "postcode": "4730-020",
      "city": "ARCOZELO VVD",
      "lon": "-8.533907837157138",
      "lat": "41.6633995671464"
    },
    {
      "id": "pt.ine.add.PTCONT.750899",
      "street": "R POCAS",
      "house": "1",
      "postcode": "4730-020",
      "city": "ARCOZELO VVD",
      "lon": "-8.531800317142523",
      "lat": "41.66042671485727"
    },
    {
      "id": "pt.ine.add.PTCONT.754444",
      "street": "R SOUTO",
      "house": "20",
      "postcode": "4730-020",
      "city": "ARCOZELO VVD",
      "lon": "-8.533581901087617",
      "lat": "41.659241053087975"
    },
    {
      "id": "pt.ine.add.PTCONT.759502",
      "street": "TV COSTA",
      "house": "6",
      "postcode": "4730-020",
      "city": "ARCOZELO VVD",
      "lon": "-8.532736227136118",
      "lat": "41.66033342893565"
    },
    {
      "id": "pt.ine.add.PTCONT.760716",
      "street": "AV VIRTELOS",
      "house": "81",
      "postcode": "4730-020",
      "city": "ARCOZELO VVD",
      "lon": "-8.531714387532395",
      "lat": "41.66012089138399"
    },
    {
      "id": "pt.ine.add.PTCONT.765700",
      "street": "R SOUTO",
      "house": "30",
      "postcode": "4730-020",
      "city": "ARCOZELO VVD",
      "lon": "-8.532468146462316",
      "lat": "41.65969510694247"
    },
    {
      "id": "pt.ine.add.PTCONT.765993",
      "street": "R SOUTO",
      "house": "28",
      "postcode": "4730-020",
      "city": "ARCOZELO VVD",
      "lon": "-8.53283982660299",
      "lat": "41.6596127827738"
    },
    {
      "id": "pt.ine.add.PTCONT.784248",
      "street": "TV COSTA",
      "house": "8",
      "postcode": "4730-020",
      "city": "ARCOZELO VVD",
      "lon": "-8.532927542905604",
      "lat": "41.66020671357558"
    },
    {
      "id": "pt.ine.add.PTCONT.786722",
      "street": "R FONTES",
      "house": "5",
      "postcode": "4730-020",
      "city": "ARCOZELO VVD",
      "lon": "-8.530771043622089",
      "lat": "41.664860036943935"
    },
    {
      "id": "pt.ine.add.PTCONT.792923",
      "street": "R FONTES",
      "house": "27",
      "postcode": "4730-020",
      "city": "ARCOZELO VVD",
      "lon": "-8.53289452180066",
      "lat": "41.664573559973064"
    },
    {
      "id": "pt.ine.add.PTCONT.796896",
      "street": "R SOUTO",
      "house": "35",
      "postcode": "4730-020",
      "city": "ARCOZELO VVD",
      "lon": "-8.531977573437903",
      "lat": "41.659966917613815"
    },
    {
      "id": "pt.ine.add.PTCONT.818079",
      "street": "AV VIRTELOS",
      "house": "79",
      "postcode": "4730-020",
      "city": "ARCOZELO VVD",
      "lon": "-8.531858680815818",
      "lat": "41.660156405189205"
    },
    {
      "id": "pt.ine.add.PTCONT.818080",
      "street": "R RIBEIRO",
      "house": "6",
      "postcode": "4730-020",
      "city": "ARCOZELO VVD",
      "lon": "-8.534198664093575",
      "lat": "41.65995918847643"
    },
    {
      "id": "pt.ine.add.PTCONT.823003",
      "street": "R FONTES",
      "house": "21",
      "postcode": "4730-020",
      "city": "ARCOZELO VVD",
      "lon": "-8.53253476437603",
      "lat": "41.66464683927505"
    },
    {
      "id": "pt.ine.add.PTCONT.823008",
      "street": "R SOUTO",
      "house": "19",
      "postcode": "4730-020",
      "city": "ARCOZELO VVD",
      "lon": "-8.534040967990594",
      "lat": "41.65969863500886"
    },
    {
      "id": "pt.ine.add.PTCONT.825216",
      "street": "R SOUTO",
      "house": "27",
      "postcode": "4730-020",
      "city": "ARCOZELO VVD",
      "lon": "-8.533020916696952",
      "lat": "41.65977421718966"
    },
    {
      "id": "pt.ine.add.PTCONT.834742",
      "street": "AV VIRTELOS",
      "house": "65",
      "postcode": "4730-020",
      "city": "ARCOZELO VVD",
      "lon": "-8.53266768234951",
      "lat": "41.65895612033408"
    }
  ]
}