{
  "data": {
    "ilha": "Ilha Terceira (Açores)",
    "concelho": "Praia da Vitória",
    "freguesia": "Biscoitos",
    "OBJECTID": 27,
    "BGRI2021": "43020200118",
    "DT21": "43",
    "DTMN21": "4302",
    "DTMNFR21": "430202",
    "DTMNFRSEC21": "430202001",
    "SECNUM21": "001",
    "SSNUM21": "18",
    "SECSSNUM21": "00118",
    "OBJECTID_1": 208470,
    "DT": "43",
    "CC": "02",
    "fr": "02",
    "SEC": "001",
    "SS": "18",
    "BGRI2021_1": "43020200118"
  },
  "addresses": [
    {
      "id": "pt.ine.add.AC26.9319",
      "street": "CAM CONCELHO",
      "house": "171",
      "postcode": "9760-053",
      "city": "BISCOITOS",
      "lon": "-27.26532696148614",
      "lat": "38.79280714873616"
    },
    {
      "id": "pt.ine.add.AC26.9320",
      "street": "CAM CONCELHO",
      "house": "163A",
      "postcode": "9760-053",
      "city": "BISCOITOS",
      "lon": "-27.264015369735432",
      "lat": "38.79310750408841"
    },
    {
      "id": "pt.ine.add.AC26.9321",
      "street": "CAM CONCELHO",
      "house": "163",
      "postcode": "9760-053",
      "city": "BISCOITOS",
      "lon": "-27.263830500768464",
      "lat": "38.79293670014285"
    },
    {
      "id": "pt.ine.add.AC26.10190",
      "street": "CAM CONCELHO",
      "house": "161",
      "postcode": "9760-053",
      "city": "BISCOITOS",
      "lon": "-27.263417359727658",
      "lat": "38.79331612176284"
    },
    {
      "id": "pt.ine.add.AC26.10191",
      "street": "CAM CONCELHO",
      "house": "159",
      "postcode": "9760-053",
      "city": "BISCOITOS",
      "lon": "-27.263221937917166",
      "lat": "38.79340667868668"
    },
    {
      "id": "pt.ine.add.AC26.10192",
      "street": "CAM CONCELHO",
      "house": "155",
      "postcode": "9760-053",
      "city": "BISCOITOS",
      "lon": "-27.263289137751784",
      "lat": "38.79289286286403"
    },
    {
      "id": "pt.ine.add.AC26.10193",
      "street": "CAM CONCELHO",
      "house": "151",
      "postcode": "9760-053",
      "city": "BISCOITOS",
      "lon": "-27.261644493780604",
      "lat": "38.79343725627591"
    },
    {
      "id": "pt.ine.add.AC26.10194",
      "street": "CAN MOINHO",
      "house": "4",
      "postcode": "9760-066",
      "city": "BISCOITOS",
      "lon": "-27.260917739827644",
      "lat": "38.793078414976385"
    },
    {
      "id": "pt.ine.add.AC26.10195",
      "street": "CAN MOINHO",
      "house": "6",
      "postcode": "9760-066",
      "city": "BISCOITOS",
      "lon": "-27.26102035474175",
      "lat": "38.79279882443128"
    },
    {
      "id": "pt.ine.add.AC26.10196",
      "street": "CAN MOINHO",
      "house": "10",
      "postcode": "9760-066",
      "city": "BISCOITOS",
      "lon": "-27.261203013158145",
      "lat": "38.79236585670526"
    },
    {
      "id": "pt.ine.add.AC26.10197",
      "street": "CAM CONCELHO",
      "house": "145",
      "postcode": "9760-066",
      "city": "BISCOITOS",
      "lon": "-27.260228126044023",
      "lat": "38.79343140735077"
    },
    {
      "id": "pt.ine.add.AC26.10198",
      "street": "CAM CONCELHO",
      "house": "139",
      "postcode": "9760-066",
      "city": "BISCOITOS",
      "lon": "-27.25979062457512",
      "lat": "38.793450404129246"
    },
    {
      "id": "pt.ine.add.AC26.10199",
      "street": "CAM CONCELHO",
      "house": "139",
      "postcode": "9760-066",
      "city": "BISCOITOS",
      "lon": "-27.25979062457512",
      "lat": "38.793450404129246"
    },
    {
      "id": "pt.ine.add.AC26.10200",
      "street": "CAM CONCELHO",
      "house": "139",
      "postcode": "9760-066",
      "city": "BISCOITOS",
      "lon": "-27.25979062457512",
      "lat": "38.793450404129246"
    },
    {
      "id": "pt.ine.add.AC26.10201",
      "street": "CAM CONCELHO",
      "house": "139",
      "postcode": "9760-066",
      "city": "BISCOITOS",
      "lon": "-27.25979062457512",
      "lat": "38.793450404129246"
    },
    {
      "id": "pt.ine.add.AC26.10202",
      "street": "CAM CONCELHO",
      "house": "137",
      "postcode": "9760-066",
      "city": "BISCOITOS",
      "lon": "-27.259663993134414",
      "lat": "38.793459697242334"
    },
    {
      "id": "pt.ine.add.AC26.10203",
      "street": "CAM CONCELHO",
      "house": "133",
      "postcode": "9760-066",
      "city": "BISCOITOS",
      "lon": "-27.259491334635094",
      "lat": "38.79347810409283"
    },
    {
      "id": "pt.ine.add.AC26.10204",
      "street": "CAN CALDEIRO",
      "house": "2",
      "postcode": "9760-054",
      "city": "BISCOITOS",
      "lon": "-27.259268666269367",
      "lat": "38.79240621108174"
    },
    {
      "id": "pt.ine.add.AC26.11026",
      "street": "CAN CALDEIRO",
      "house": "4",
      "postcode": "9760-054",
      "city": "BISCOITOS",
      "lon": "-27.25927952811245",
      "lat": "38.7922259538096"
    },
    {
      "id": "pt.ine.add.AC26.11027",
      "street": "CAN CALDEIRO",
      "house": "8",
      "postcode": "9760-054",
      "city": "BISCOITOS",
      "lon": "-27.25952055311498",
      "lat": "38.79200913896399"
    },
    {
      "id": "pt.ine.add.AC26.11028",
      "street": "CAN CALDEIRO",
      "house": "12",
      "postcode": "9760-054",
      "city": "BISCOITOS",
      "lon": "-27.25963481738742",
      "lat": "38.79176557034535"
    },
    {
      "id": "pt.ine.add.AC26.11029",
      "street": "CAN CALDEIRO",
      "house": "14",
      "postcode": "9760-054",
      "city": "BISCOITOS",
      "lon": "-27.259703611005868",
      "lat": "38.791684312542706"
    },
    {
      "id": "pt.ine.add.AC26.11030",
      "street": "CAN CALDEIRO",
      "house": "1B",
      "postcode": "9760-054",
      "city": "BISCOITOS",
      "lon": "-27.26005925504344",
      "lat": "38.79132305522474"
    },
    {
      "id": "pt.ine.add.AC26.11031",
      "street": "CAN CALDEIRO",
      "house": "ZB",
      "postcode": "9760-054",
      "city": "BISCOITOS",
      "lon": "-27.2608049115693",
      "lat": "38.79055540228352"
    },
    {
      "id": "pt.ine.add.AC26.11032",
      "street": "CAN CALDEIRO",
      "house": "30",
      "postcode": "9760-054",
      "city": "BISCOITOS",
      "lon": "-27.26094232941209",
      "lat": "38.79034782730303"
    },
    {
      "id": "pt.ine.add.AC26.11033",
      "street": "CAN CALDEIRO",
      "house": "32 C",
      "postcode": "9760-054",
      "city": "BISCOITOS",
      "lon": "-27.261125869761724",
      "lat": "38.790158172423794"
    },
    {
      "id": "pt.ine.add.AC26.11034",
      "street": "CAN CALDEIRO",
      "house": "32",
      "postcode": "9760-054",
      "city": "BISCOITOS",
      "lon": "-27.261125869761724",
      "lat": "38.790158172423794"
    },
    {
      "id": "pt.ine.add.AC26.11035",
      "street": "CAN CALDEIRO",
      "house": "32A",
      "postcode": "9760-054",
      "city": "BISCOITOS",
      "lon": "-27.261125869761724",
      "lat": "38.790158172423794"
    },
    {
      "id": "pt.ine.add.AC26.11036",
      "street": "CAN CALDEIRO",
      "house": "32B",
      "postcode": "9760-054",
      "city": "BISCOITOS",
      "lon": "-27.261125869761724",
      "lat": "38.790158172423794"
    },
    {
      "id": "pt.ine.add.AC26.11037",
      "street": "CAN CALDEIRO",
      "house": "32",
      "postcode": "9760-054",
      "city": "BISCOITOS",
      "lon": "-27.261125869761724",
      "lat": "38.790158172423794"
    },
    {
      "id": "pt.ine.add.AC26.11038",
      "street": "CAN CALDEIRO",
      "house": "32",
      "postcode": "9760-054",
      "city": "BISCOITOS",
      "lon": "-27.261125869761724",
      "lat": "38.790158172423794"
    },
    {
      "id": "pt.ine.add.AC26.11039",
      "street": "CAN CALDEIRO",
      "house": "44",
      "postcode": "9760-054",
      "city": "BISCOITOS",
      "lon": "-27.261743428872975",
      "lat": "38.78900329802738"
    },
    {
      "id": "pt.ine.add.AC26.11040",
      "street": "CAN CALDEIRO",
      "house": "49",
      "postcode": "9760-054",
      "city": "BISCOITOS",
      "lon": "-27.26185830718376",
      "lat": "38.788930947357116"
    },
    {
      "id": "pt.ine.add.AC26.11041",
      "street": "R MANGAS",
      "house": "37",
      "postcode": "9760-054",
      "city": "BISCOITOS",
      "lon": "-27.262284497392457",
      "lat": "38.78897504988909"
    },
    {
      "id": "pt.ine.add.AC26.11883",
      "street": "R MANGAS",
      "house": "29",
      "postcode": "9760-054",
      "city": "BISCOITOS",
      "lon": "-27.263540606709057",
      "lat": "38.78926059707733"
    },
    {
      "id": "pt.ine.add.AC26.11884",
      "street": "R MANGAS",
      "house": "27",
      "postcode": "9760-054",
      "city": "BISCOITOS",
      "lon": "-27.26380510219813",
      "lat": "38.78916988365992"
    },
    {
      "id": "pt.ine.add.AC26.11885",
      "street": "R MANGAS",
      "house": "29",
      "postcode": "9760-054",
      "city": "BISCOITOS",
      "lon": "-27.264161976778613",
      "lat": "38.78915105415767"
    },
    {
      "id": "pt.ine.add.AC26.11886",
      "street": "R MANGAS",
      "house": "31",
      "postcode": "9760-054",
      "city": "BISCOITOS",
      "lon": "-27.264509634673686",
      "lat": "38.78975404912249"
    },
    {
      "id": "pt.ine.add.AC26.11887",
      "street": "R MANGAS",
      "house": "",
      "postcode": "9760-054",
      "city": "BISCOITOS",
      "lon": "-27.264796625965968",
      "lat": "38.789519095954844"
    },
    {
      "id": "pt.ine.add.AC26.11888",
      "street": "R MANGAS",
      "house": "19",
      "postcode": "9760-054",
      "city": "BISCOITOS",
      "lon": "-27.26544383199754",
      "lat": "38.79016646724855"
    },
    {
      "id": "pt.ine.add.AC26.11889",
      "street": "R MANGAS",
      "house": "",
      "postcode": "9760-054",
      "city": "BISCOITOS",
      "lon": "-27.265329623452217",
      "lat": "38.79041905312041"
    },
    {
      "id": "pt.ine.add.AC26.11890",
      "street": "R BOIÕES",
      "house": "13",
      "postcode": "9760-054",
      "city": "BISCOITOS",
      "lon": "-27.265514790302493",
      "lat": "38.790670959037016"
    },
    {
      "id": "pt.ine.add.AC26.11891",
      "street": "R MANGAS",
      "house": "1A",
      "postcode": "9760-054",
      "city": "BISCOITOS",
      "lon": "-27.265425481631645",
      "lat": "38.791428141330684"
    },
    {
      "id": "pt.ine.add.AC26.11892",
      "street": "R MANGAS",
      "house": "9",
      "postcode": "9760-054",
      "city": "BISCOITOS",
      "lon": "-27.265623035612077",
      "lat": "38.79191432201124"
    },
    {
      "id": "pt.ine.add.AC26.11893",
      "street": "R MANGAS",
      "house": "5",
      "postcode": "9760-054",
      "city": "BISCOITOS",
      "lon": "-27.265520272794173",
      "lat": "38.792148858663225"
    },
    {
      "id": "pt.ine.add.AC26.11894",
      "street": "R MANGAS",
      "house": "7",
      "postcode": "9760-054",
      "city": "BISCOITOS",
      "lon": "-27.265611821924196",
      "lat": "38.791995452423876"
    },
    {
      "id": "pt.ine.add.AC26.45605",
      "street": "CAM CONCELHO",
      "house": "16SA",
      "postcode": "9760-053",
      "city": "BISCOITOS",
      "lon": "-27.264268729977243",
      "lat": "38.79311594304556"
    },
    {
      "id": "pt.ine.add.AC26.45606",
      "street": "CAN ADADA",
      "house": "",
      "postcode": "9760-066",
      "city": "BISCOITOS",
      "lon": "-27.263804382043602",
      "lat": "38.7920986749521"
    },
    {
      "id": "pt.ine.add.AC26.45607",
      "street": "R MANGAS",
      "house": "SA",
      "postcode": "9760-054",
      "city": "BISCOITOS",
      "lon": "-27.265289577834007",
      "lat": "38.79204124272285"
    },
    {
      "id": "pt.ine.add.AC26.48308",
      "street": "CAM CONCELHO",
      "house": "141",
      "postcode": "9760-066",
      "city": "BISCOITOS",
      "lon": "-27.259962595540724",
      "lat": "38.79324275357037"
    },
    {
      "id": "pt.ine.add.AC26.48309",
      "street": "CAN CALDEIRO",
      "house": "40 A",
      "postcode": "9760-054",
      "city": "BISCOITOS",
      "lon": "-27.26177902609048",
      "lat": "38.78929159151061"
    },
    {
      "id": "pt.ine.add.AC26.48310",
      "street": "R MANGAS",
      "house": "",
      "postcode": "9760-054",
      "city": "BISCOITOS",
      "lon": "-27.264646773679093",
      "lat": "38.78947437710677"
    },
    {
      "id": "pt.ine.add.AC26.52388",
      "street": "CAN CALDEIRO",
      "house": "6",
      "postcode": "9760-054",
      "city": "BISCOITOS",
      "lon": "-27.259417476170302",
      "lat": "38.792162566039025"
    },
    {
      "id": "pt.ine.add.AC26.52387",
      "street": "CAM CONCELHO",
      "house": "157",
      "postcode": "9760-053",
      "city": "BISCOITOS",
      "lon": "-27.262968709201548",
      "lat": "38.793434283790866"
    },
    {
      "id": "pt.ine.add.AC26.52389",
      "street": "CAN CALDEIRO",
      "house": "22",
      "postcode": "9760-054",
      "city": "BISCOITOS",
      "lon": "-27.260208354865497",
      "lat": "38.79116051343348"
    },
    {
      "id": "pt.ine.add.AC26.52662",
      "street": "CAN CALDEIRO",
      "house": "16",
      "postcode": "9760-054",
      "city": "BISCOITOS",
      "lon": "-27.259841295920957",
      "lat": "38.79154883157515"
    },
    {
      "id": "pt.ine.add.AC26.52663",
      "street": "CAN CALDEIRO",
      "house": "16",
      "postcode": "9760-054",
      "city": "BISCOITOS",
      "lon": "-27.26073671116962",
      "lat": "38.790798869319296"
    },
    {
      "id": "pt.ine.add.AC26.52664",
      "street": "R MANGAS",
      "house": "1",
      "postcode": "9760-054",
      "city": "BISCOITOS",
      "lon": "-27.265394847389004",
      "lat": "38.79248257492037"
    },
    {
      "id": "pt.ine.add.AC26.56313",
      "street": "CAN MOINHO",
      "house": "2",
      "postcode": "9760-066",
      "city": "BISCOITOS",
      "lon": "-27.260814664358065",
      "lat": "38.793231843250695"
    },
    {
      "id": "pt.ine.add.AC26.56314",
      "street": "CAN CALDEIRO",
      "house": "10",
      "postcode": "9760-054",
      "city": "BISCOITOS",
      "lon": "-27.2595661216562",
      "lat": "38.79187386286694"
    },
    {
      "id": "pt.ine.add.AC26.56315",
      "street": "CAN CALDEIRO",
      "house": "38 A B",
      "postcode": "9760-054",
      "city": "BISCOITOS",
      "lon": "-27.26146919468933",
      "lat": "38.78958065836944"
    },
    {
      "id": "pt.ine.add.AC26.56316",
      "street": "CAN CALDEIRO",
      "house": "38 A B",
      "postcode": "9760-054",
      "city": "BISCOITOS",
      "lon": "-27.26146919468933",
      "lat": "38.78958065836944"
    },
    {
      "id": "pt.ine.add.AC26.56317",
      "street": "R MANGAS",
      "house": "31",
      "postcode": "9760-054",
      "city": "BISCOITOS",
      "lon": "-27.26339092153725",
      "lat": "38.78926093455191"
    },
    {
      "id": "pt.ine.add.AC26.56318",
      "street": "R MANGAS",
      "house": "17",
      "postcode": "9760-054",
      "city": "BISCOITOS",
      "lon": "-27.26536349855413",
      "lat": "38.790238742986254"
    },
    {
      "id": "pt.ine.add.AC26.61244",
      "street": "CAM CONCELHO",
      "house": "147",
      "postcode": "9760-053",
      "city": "BISCOITOS",
      "lon": "-27.26110302962831",
      "lat": "38.79336637413235"
    },
    {
      "id": "pt.ine.add.AC26.64535",
      "street": "CAN CALDEIRO",
      "house": "24",
      "postcode": "9760-054",
      "city": "BISCOITOS",
      "lon": "-27.260323172635474",
      "lat": "38.79107014110695"
    },
    {
      "id": "pt.ine.add.AC26.64536",
      "street": "CAN CALDEIRO",
      "house": "34",
      "postcode": "9760-054",
      "city": "BISCOITOS",
      "lon": "-27.261217360034337",
      "lat": "38.78998674637406"
    },
    {
      "id": "pt.ine.add.AC26.64537",
      "street": "R MANGAS",
      "house": "45",
      "postcode": "9760-054",
      "city": "BISCOITOS",
      "lon": "-27.26246885674899",
      "lat": "38.78901068261149"
    },
    {
      "id": "pt.ine.add.AC26.66587",
      "street": "CAN ADADA",
      "house": "",
      "postcode": "9760-066",
      "city": "BISCOITOS",
      "lon": "-27.26340156651302",
      "lat": "38.79215365356707"
    },
    {
      "id": "pt.ine.add.AC26.66588",
      "street": "CAM CONCELHO",
      "house": "131",
      "postcode": "9760-066",
      "city": "BISCOITOS",
      "lon": "-27.25921513959834",
      "lat": "38.793523775375355"
    },
    {
      "id": "pt.ine.add.AC26.67829",
      "street": "CAN CALDEIRO",
      "house": "42",
      "postcode": "9760-054",
      "city": "BISCOITOS",
      "lon": "-27.261697866248266",
      "lat": "38.789138575019386"
    },
    {
      "id": "pt.ine.add.AC26.69744",
      "street": "CAN CALDEIRO",
      "house": "UO",
      "postcode": "9760-054",
      "city": "BISCOITOS",
      "lon": "-27.26009350405885",
      "lat": "38.79124187405952"
    },
    {
      "id": "pt.ine.add.AC26.72659",
      "street": "CAM CONCELHO",
      "house": "149",
      "postcode": "9760-053",
      "city": "BISCOITOS",
      "lon": "-27.261333426474305",
      "lat": "38.79339289407348"
    },
    {
      "id": "pt.ine.add.AC26.72660",
      "street": "CAN MOINHO",
      "house": "",
      "postcode": "9760-066",
      "city": "BISCOITOS",
      "lon": "-27.26087869516642",
      "lat": "38.79184390498297"
    },
    {
      "id": "pt.ine.add.AC26.72662",
      "street": "R MANGAS",
      "house": "11B",
      "postcode": "9760-054",
      "city": "BISCOITOS",
      "lon": "-27.265366304966054",
      "lat": "38.790995716077866"
    },
    {
      "id": "pt.ine.add.AC26.75129",
      "street": "CAN ADADA",
      "house": "2",
      "postcode": "9760-066",
      "city": "BISCOITOS",
      "lon": "-27.263818122276096",
      "lat": "38.79270242500413"
    },
    {
      "id": "pt.ine.add.AC26.75130",
      "street": "CAN ADADA",
      "house": "2",
      "postcode": "9760-066",
      "city": "BISCOITOS",
      "lon": "-27.263818122276096",
      "lat": "38.79270242500413"
    },
    {
      "id": "pt.ine.add.AC26.75131",
      "street": "CAN ADADA",
      "house": "2",
      "postcode": "9760-066",
      "city": "BISCOITOS",
      "lon": "-27.263818122276096",
      "lat": "38.79270242500413"
    },
    {
      "id": "pt.ine.add.AC26.75132",
      "street": "CAN MOINHO",
      "house": "",
      "postcode": "9760-066",
      "city": "BISCOITOS",
      "lon": "-27.26088053458172",
      "lat": "38.79234855376451"
    },
    {
      "id": "pt.ine.add.AC26.75133",
      "street": "CAM CONCELHO",
      "house": "135",
      "postcode": "9760-066",
      "city": "BISCOITOS",
      "lon": "-27.259594805536725",
      "lat": "38.79343281599311"
    },
    {
      "id": "pt.ine.add.AC26.75134",
      "street": "CAN CALDEIRO",
      "house": "36",
      "postcode": "9760-054",
      "city": "BISCOITOS",
      "lon": "-27.261388923687015",
      "lat": "38.7896709545713"
    },
    {
      "id": "pt.ine.add.AC26.77782",
      "street": "CAM CONCELHO",
      "house": "",
      "postcode": "9760-053",
      "city": "BISCOITOS",
      "lon": "-27.265062454530888",
      "lat": "38.79289786558215"
    },
    {
      "id": "pt.ine.add.AC26.77783",
      "street": "R MANGAS",
      "house": "3",
      "postcode": "9760-054",
      "city": "BISCOITOS",
      "lon": "-27.265578515096422",
      "lat": "38.792328959466026"
    },
    {
      "id": "pt.ine.add.AC26.82818",
      "street": "CAN ADADA",
      "house": "2",
      "postcode": "9760-066",
      "city": "BISCOITOS",
      "lon": "-27.263818122276096",
      "lat": "38.79270242500413"
    },
    {
      "id": "pt.ine.add.AC26.84631",
      "street": "CAM CONCELHO",
      "house": "153",
      "postcode": "9760-053",
      "city": "BISCOITOS",
      "lon": "-27.262116902424697",
      "lat": "38.79351730248288"
    },
    {
      "id": "pt.ine.add.AC26.85992",
      "street": "CAM CONCELHO",
      "house": "165B",
      "postcode": "9760-053",
      "city": "BISCOITOS",
      "lon": "-27.264302875220842",
      "lat": "38.793007725940846"
    },
    {
      "id": "pt.ine.add.AC26.86628",
      "street": "CAN ADADA",
      "house": "2",
      "postcode": "9760-066",
      "city": "BISCOITOS",
      "lon": "-27.263818122276096",
      "lat": "38.79270242500413"
    },
    {
      "id": "pt.ine.add.AC26.86710",
      "street": "CAN CALDEIRO",
      "house": "6",
      "postcode": "9760-054",
      "city": "BISCOITOS",
      "lon": "-27.259417476170302",
      "lat": "38.792162566039025"
    },
    {
      "id": "pt.ine.add.AC26.88555",
      "street": "CAN CALDEIRO",
      "house": "40",
      "postcode": "9760-054",
      "city": "BISCOITOS",
      "lon": "-27.26157203302395",
      "lat": "38.789364148321475"
    },
    {
      "id": "pt.ine.add.AC26.106548",
      "street": "CAN ADADA",
      "house": "9",
      "postcode": "9760-066",
      "city": "BISCOITOS",
      "lon": "-27.26341337971478",
      "lat": "38.79223473186229"
    },
    {
      "id": "pt.ine.add.AC26.106639",
      "street": "CAM CONCELHO",
      "house": "",
      "postcode": "9760-053",
      "city": "BISCOITOS",
      "lon": "-27.26361258188969",
      "lat": "38.79317149502229"
    },
    {
      "id": "pt.ine.add.AC26.106640",
      "street": "CAM CONCELHO",
      "house": "129",
      "postcode": "9760-066",
      "city": "BISCOITOS",
      "lon": "-27.25876573135124",
      "lat": "38.79343465484634"
    },
    {
      "id": "pt.ine.add.AC26.106662",
      "street": "R MANGAS",
      "house": "",
      "postcode": "9760-054",
      "city": "BISCOITOS",
      "lon": "-27.26289564354216",
      "lat": "38.78921699150636"
    },
    {
      "id": "pt.ine.add.AC26.106753",
      "street": "R MANGAS",
      "house": "33",
      "postcode": "9760-054",
      "city": "BISCOITOS",
      "lon": "-27.263240971237856",
      "lat": "38.78918917912981"
    },
    {
      "id": "pt.ine.add.AC26.107967",
      "street": "R MANGAS",
      "house": "39",
      "postcode": "9760-054",
      "city": "BISCOITOS",
      "lon": "-27.262572914322423",
      "lat": "38.78912760046958"
    }
  ]
}