{
  "data": {
    "ilha": "Ilha de São Miguel (Açores)",
    "concelho": "Nordeste",
    "freguesia": "Nordeste",
    "OBJECTID": 97,
    "BGRI2021": "42020400207",
    "DT21": "42",
    "DTMN21": "4202",
    "DTMNFR21": "420204",
    "DTMNFRSEC21": "420204002",
    "SECNUM21": "002",
    "SSNUM21": "07",
    "SECSSNUM21": "00207",
    "OBJECTID_1": 206159,
    "DT": "42",
    "CC": "02",
    "fr": "04",
    "SEC": "002",
    "SS": "07",
    "BGRI2021_1": "42020400207"
  },
  "addresses": [
    {
      "id": "pt.ine.add.AC26.25617",
      "street": "R ANTÓNIO ALVES DE OLIVEIRA",
      "house": "4",
      "postcode": "9630-147",
      "city": "NORDESTE",
      "lon": "-25.146459739832682",
      "lat": "37.83179356428564"
    },
    {
      "id": "pt.ine.add.AC26.25618",
      "street": "R ANTÓNIO ALVES DE OLIVEIRA",
      "house": "6",
      "postcode": "9630-147",
      "city": "NORDESTE",
      "lon": "-25.14643815106766",
      "lat": "37.83174816451773"
    },
    {
      "id": "pt.ine.add.AC26.25619",
      "street": "R ANTÓNIO ALVES DE OLIVEIRA",
      "house": "12",
      "postcode": "9630-147",
      "city": "NORDESTE",
      "lon": "-25.146428596654992",
      "lat": "37.83167591826686"
    },
    {
      "id": "pt.ine.add.AC26.25620",
      "street": "R ANTONIO ALVES OLIVEIRA",
      "house": "18",
      "postcode": "9630-147",
      "city": "NORDESTE",
      "lon": "-25.146332462197314",
      "lat": "37.83143108132461"
    },
    {
      "id": "pt.ine.add.AC26.25621",
      "street": "R ANTONIO ALVES DE OLIVEIRA",
      "house": "18A",
      "postcode": "9630-147",
      "city": "NORDESTE",
      "lon": "-25.146332462197314",
      "lat": "37.83143108132461"
    },
    {
      "id": "pt.ine.add.AC26.25622",
      "street": "R ANTÓNIO ALVES DE OLIVEIRA",
      "house": "20",
      "postcode": "9630-147",
      "city": "NORDESTE",
      "lon": "-25.146299966592444",
      "lat": "37.83136748585456"
    },
    {
      "id": "pt.ine.add.AC26.25623",
      "street": "R ANTÓNIO ALVES DE OLIVEIRA",
      "house": "22",
      "postcode": "9630-147",
      "city": "NORDESTE",
      "lon": "-25.14627973081281",
      "lat": "37.831268035480264"
    },
    {
      "id": "pt.ine.add.AC26.25624",
      "street": "R ANTÓNIO ALVES DE OLIVEIRA",
      "house": "30",
      "postcode": "9630-147",
      "city": "NORDESTE",
      "lon": "-25.14615268033737",
      "lat": "37.83089654391069"
    },
    {
      "id": "pt.ine.add.AC26.26471",
      "street": "R ANTÓNIO ALVES DE OLIVEIRA",
      "house": "38",
      "postcode": "9630-147",
      "city": "NORDESTE",
      "lon": "-25.14608836636843",
      "lat": "37.83074232758317"
    },
    {
      "id": "pt.ine.add.AC26.26472",
      "street": "R ANTÓNIO ALVES DE OLIVEIRA",
      "house": "40",
      "postcode": "9630-147",
      "city": "NORDESTE",
      "lon": "-25.146066552630483",
      "lat": "37.830705936183215"
    },
    {
      "id": "pt.ine.add.AC26.26473",
      "street": "R ANTÓNIO ALVES DE OLIVEIRA",
      "house": "42",
      "postcode": "9630-147",
      "city": "NORDESTE",
      "lon": "-25.14604564085481",
      "lat": "37.830633511060526"
    },
    {
      "id": "pt.ine.add.AC26.26474",
      "street": "R ANTÓNIO ALVES DE OLIVEIRA",
      "house": "46A",
      "postcode": "9630-147",
      "city": "NORDESTE",
      "lon": "-25.146003591928697",
      "lat": "37.83049766923451"
    },
    {
      "id": "pt.ine.add.AC26.26475",
      "street": "R ANTÓNIO ALVES DE OLIVEIRA",
      "house": "48",
      "postcode": "9630-147",
      "city": "NORDESTE",
      "lon": "-25.145982680265416",
      "lat": "37.83042524410135"
    },
    {
      "id": "pt.ine.add.AC26.26476",
      "street": "AV DR MARIANO MACHADO",
      "house": "1A",
      "postcode": "9630-176",
      "city": "NORDESTE",
      "lon": "-25.146566973521672",
      "lat": "37.8306867788456"
    },
    {
      "id": "pt.ine.add.AC26.26477",
      "street": "R PRIOR LUCIANO DA GRACA E SOUSA",
      "house": "4",
      "postcode": "9630-181",
      "city": "NORDESTE",
      "lon": "-25.146606492127624",
      "lat": "37.831831922417415"
    },
    {
      "id": "pt.ine.add.AC26.26478",
      "street": "R PRIOR LUCIANO DA GRAÇA E SOUSA",
      "house": "14",
      "postcode": "9630-181",
      "city": "NORDESTE",
      "lon": "-25.14685109598237",
      "lat": "37.83159244917506"
    },
    {
      "id": "pt.ine.add.AC26.26479",
      "street": "R PRIOR LUCIANO DA GRAÇA E SOUSA",
      "house": "16",
      "postcode": "9630-181",
      "city": "NORDESTE",
      "lon": "-25.146942410522115",
      "lat": "37.831575862427975"
    },
    {
      "id": "pt.ine.add.AC26.26480",
      "street": "R PRIOR LUCIANO DA GRAÇA E SOUSA",
      "house": "18",
      "postcode": "9630-181",
      "city": "NORDESTE",
      "lon": "-25.147022817804206",
      "lat": "37.831541079990195"
    },
    {
      "id": "pt.ine.add.AC26.26481",
      "street": "R PRIOR LUCIANO DA GRAÇA E SOUSA",
      "house": "1",
      "postcode": "9630-181",
      "city": "NORDESTE",
      "lon": "-25.147013938959777",
      "lat": "37.831441808469755"
    },
    {
      "id": "pt.ine.add.AC26.26482",
      "street": "R PRIOR LUCIANO DA GRAÇA E SOUSA",
      "house": "3",
      "postcode": "9630-181",
      "city": "NORDESTE",
      "lon": "-25.14680881969618",
      "lat": "37.83146561603725"
    },
    {
      "id": "pt.ine.add.AC26.47120",
      "street": "R ANTÓNIO ALVES DE OLIVEIRA",
      "house": "26",
      "postcode": "9630-147",
      "city": "NORDESTE",
      "lon": "-25.146206087616335",
      "lat": "37.831032564517535"
    },
    {
      "id": "pt.ine.add.AC26.47600",
      "street": "R DR MANUEL JOÃO DA SILVEIRA",
      "house": "1",
      "postcode": "9630-142",
      "city": "NORDESTE",
      "lon": "-25.147003346271823",
      "lat": "37.83186520482706"
    },
    {
      "id": "pt.ine.add.AC26.50175",
      "street": "R ANTÓNIO ALVES DE OLIVEIRA",
      "house": "50",
      "postcode": "9630-147",
      "city": "NORDESTE",
      "lon": "-25.146052856328275",
      "lat": "37.83034524129973"
    },
    {
      "id": "pt.ine.add.AC26.54899",
      "street": "R DR MANUEL JOÃO DA SILVEIRA",
      "house": "5",
      "postcode": "9630-142",
      "city": "NORDESTE",
      "lon": "-25.147181603960217",
      "lat": "37.83155259085147"
    },
    {
      "id": "pt.ine.add.AC26.63052",
      "street": "R ANTÓNIO ALVES DE OLIVEIRA",
      "house": "36",
      "postcode": "9630-147",
      "city": "NORDESTE",
      "lon": "-25.14615561149443",
      "lat": "37.83077943432036"
    },
    {
      "id": "pt.ine.add.AC26.71810",
      "street": "R ANTÓNIO ALVES DE OLIVEIRA",
      "house": "24",
      "postcode": "9630-147",
      "city": "NORDESTE",
      "lon": "-25.146271754832142",
      "lat": "37.83113273020579"
    },
    {
      "id": "pt.ine.add.AC26.71811",
      "street": "R ANTÓNIO ALVES DE OLIVEIRA",
      "house": "34",
      "postcode": "9630-147",
      "city": "NORDESTE",
      "lon": "-25.14614290080459",
      "lat": "37.83083330606688"
    },
    {
      "id": "pt.ine.add.AC26.73044",
      "street": "AV DR MARIANO MACHADO",
      "house": "1",
      "postcode": "9630-176",
      "city": "NORDESTE",
      "lon": "-25.1465928450451",
      "lat": "37.830561018373274"
    },
    {
      "id": "pt.ine.add.AC26.76274",
      "street": "R ANTÓNIO ALVES DE OLIVEIRA",
      "house": "28",
      "postcode": "9630-147",
      "city": "NORDESTE",
      "lon": "-25.14617336680973",
      "lat": "37.83097797744588"
    },
    {
      "id": "pt.ine.add.AC26.79564",
      "street": "R ANTÓNIO ALVES DE OLIVEIRA",
      "house": "2",
      "postcode": "9630-147",
      "city": "NORDESTE",
      "lon": "-25.146512922821078",
      "lat": "37.83193859319539"
    },
    {
      "id": "pt.ine.add.AC26.80772",
      "street": "R PRIOR LUCIANO GRACA E SOUSA",
      "house": "2",
      "postcode": "9630-181",
      "city": "NORDESTE",
      "lon": "-25.146606492127624",
      "lat": "37.831831922417415"
    },
    {
      "id": "pt.ine.add.AC26.86247",
      "street": "PCT REPUBLICA",
      "house": "2",
      "postcode": "9630-141",
      "city": "NORDESTE",
      "lon": "-25.146576336889087",
      "lat": "37.83212884303247"
    },
    {
      "id": "pt.ine.add.AC26.88775",
      "street": "R PRIOR LUCIANO DA GRAÇA E SOUSA",
      "house": "12",
      "postcode": "9630-181",
      "city": "NORDESTE",
      "lon": "-25.146781821139935",
      "lat": "37.83163641870024"
    },
    {
      "id": "pt.ine.add.AC26.106691",
      "street": "R ANTÓNIO ALVES DE OLIVEIRA",
      "house": "14B",
      "postcode": "9630-147",
      "city": "NORDESTE",
      "lon": "-25.146341791037994",
      "lat": "37.83151233601281"
    },
    {
      "id": "pt.ine.add.AC26.108140",
      "street": "R PRIOR LUCIANO DA GRAÇA E SOUSA",
      "house": "8",
      "postcode": "9630-181",
      "city": "NORDESTE",
      "lon": "-25.146700286575644",
      "lat": "37.83171624312469"
    }
  ]
}