{
  "data": {
    "ilha": "Ilha de São Miguel (Açores)",
    "concelho": "Nordeste",
    "freguesia": "Nordeste",
    "OBJECTID": 108,
    "BGRI2021": "42020400212",
    "DT21": "42",
    "DTMN21": "4202",
    "DTMNFR21": "420204",
    "DTMNFRSEC21": "420204002",
    "SECNUM21": "002",
    "SSNUM21": "12",
    "SECSSNUM21": "00212",
    "OBJECTID_1": 206119,
    "DT": "42",
    "CC": "02",
    "fr": "04",
    "SEC": "002",
    "SS": "12",
    "BGRI2021_1": "42020400212"
  },
  "addresses": [
    {
      "id": "pt.ine.add.AC26.23169",
      "street": "R TOPO",
      "house": "1",
      "postcode": "9630-166",
      "city": "NORDESTE",
      "lon": "-25.146502133375968",
      "lat": "37.83373180694195"
    },
    {
      "id": "pt.ine.add.AC26.23170",
      "street": "ESTR REGIONAL",
      "house": "11",
      "postcode": "9630-161",
      "city": "NORDESTE",
      "lon": "-25.147557462084357",
      "lat": "37.83333386503978"
    },
    {
      "id": "pt.ine.add.AC26.23171",
      "street": "ESTR REGIONAL",
      "house": "9",
      "postcode": "9630-161",
      "city": "NORDESTE",
      "lon": "-25.147582073322262",
      "lat": "37.83371275535406"
    },
    {
      "id": "pt.ine.add.AC26.23172",
      "street": "R PARQUE",
      "house": "6",
      "postcode": "9630-163",
      "city": "NORDESTE",
      "lon": "-25.14699541024305",
      "lat": "37.83309070907194"
    },
    {
      "id": "pt.ine.add.AC26.23173",
      "street": "R PARQUE",
      "house": "5",
      "postcode": "9630-163",
      "city": "NORDESTE",
      "lon": "-25.147240332777336",
      "lat": "37.83329282705841"
    },
    {
      "id": "pt.ine.add.AC26.23938",
      "street": "ESTR REGIONAL",
      "house": "18A",
      "postcode": "9630-161",
      "city": "NORDESTE",
      "lon": "-25.147741633205293",
      "lat": "37.834147840642125"
    },
    {
      "id": "pt.ine.add.AC26.23939",
      "street": "ESTR REGIONAL",
      "house": "18C",
      "postcode": "9630-161",
      "city": "NORDESTE",
      "lon": "-25.14779157269863",
      "lat": "37.833968386738924"
    },
    {
      "id": "pt.ine.add.AC26.23940",
      "street": "ESTR REGIONAL",
      "house": "18F",
      "postcode": "9630-161",
      "city": "NORDESTE",
      "lon": "-25.147858051913335",
      "lat": "37.83358191749513"
    },
    {
      "id": "pt.ine.add.AC26.23941",
      "street": "R PALMEIRA",
      "house": "3",
      "postcode": "9630-161",
      "city": "NORDESTE",
      "lon": "-25.14813692357083",
      "lat": "37.83424417859494"
    },
    {
      "id": "pt.ine.add.AC26.24754",
      "street": "SIT NORDESTE",
      "house": "3",
      "postcode": "9630-150",
      "city": "NORDESTE",
      "lon": "-25.148252245833454",
      "lat": "37.832813087753834"
    },
    {
      "id": "pt.ine.add.AC26.24755",
      "street": "SEM DESIGNACAO",
      "house": "1",
      "postcode": "9630-159",
      "city": "NORDESTE",
      "lon": "-25.148400352448963",
      "lat": "37.83279739309096"
    },
    {
      "id": "pt.ine.add.AC26.24756",
      "street": "R NOVA",
      "house": "1B",
      "postcode": "9630-159",
      "city": "NORDESTE",
      "lon": "-25.148089306703955",
      "lat": "37.83251312962261"
    },
    {
      "id": "pt.ine.add.AC26.25610",
      "street": "R GROTA DO BRAVO",
      "house": "1",
      "postcode": "9630-153",
      "city": "NORDESTE",
      "lon": "-25.147812206127544",
      "lat": "37.83268901033968"
    },
    {
      "id": "pt.ine.add.AC26.25611",
      "street": "R DEBAIXO DA PONTE",
      "house": "2",
      "postcode": "9630-164",
      "city": "NORDESTE",
      "lon": "-25.14742107187167",
      "lat": "37.832881120093646"
    },
    {
      "id": "pt.ine.add.AC26.25612",
      "street": "R DEBAIXO DA PONTE",
      "house": "8",
      "postcode": "9630-164",
      "city": "NORDESTE",
      "lon": "-25.147231814055363",
      "lat": "37.832724938353294"
    },
    {
      "id": "pt.ine.add.AC26.25613",
      "street": "R DR MANUEL JOÃO DA SILVEIRA",
      "house": "10",
      "postcode": "9630-142",
      "city": "NORDESTE",
      "lon": "-25.147030659031923",
      "lat": "37.83213599407095"
    },
    {
      "id": "pt.ine.add.AC26.25614",
      "street": "R DR MANUEL JOÃO DA SILVEIRA",
      "house": "18",
      "postcode": "9630-142",
      "city": "NORDESTE",
      "lon": "-25.147292704882652",
      "lat": "37.83165347094993"
    },
    {
      "id": "pt.ine.add.AC26.25615",
      "street": "R NOVA",
      "house": "3",
      "postcode": "9630-159",
      "city": "NORDESTE",
      "lon": "-25.148140499605773",
      "lat": "37.83182902428498"
    },
    {
      "id": "pt.ine.add.AC26.25616",
      "street": "PCT REPUBLICA",
      "house": "11",
      "postcode": "9630-141",
      "city": "NORDESTE",
      "lon": "-25.146828555980168",
      "lat": "37.832493292342704"
    },
    {
      "id": "pt.ine.add.AC26.47597",
      "street": "R ERVA MA",
      "house": "3",
      "postcode": "9630-183",
      "city": "NORDESTE",
      "lon": "-25.14800409663423",
      "lat": "37.83455750850575"
    },
    {
      "id": "pt.ine.add.AC26.50170",
      "street": "R TOPO",
      "house": "4",
      "postcode": "9630-166",
      "city": "NORDESTE",
      "lon": "-25.146395173875298",
      "lat": "37.83391937455546"
    },
    {
      "id": "pt.ine.add.AC26.50171",
      "street": "R PARQUE",
      "house": "4",
      "postcode": "9630-163",
      "city": "NORDESTE",
      "lon": "-25.14696020866841",
      "lat": "37.83313521493647"
    },
    {
      "id": "pt.ine.add.AC26.50174",
      "street": "R DR MANUEL JOÃO DA SILVEIRA",
      "house": "4",
      "postcode": "9630-142",
      "city": "NORDESTE",
      "lon": "-25.14694912415618",
      "lat": "37.83221581865397"
    },
    {
      "id": "pt.ine.add.AC26.54688",
      "street": "R PARQUE",
      "house": "8",
      "postcode": "9630-163",
      "city": "NORDESTE",
      "lon": "-25.147042420736827",
      "lat": "37.83302836509028"
    },
    {
      "id": "pt.ine.add.AC26.54690",
      "street": "R DR MANUEL JOÃO DA SILVEIRA",
      "house": "16",
      "postcode": "9630-142",
      "city": "NORDESTE",
      "lon": "-25.147103990834477",
      "lat": "37.83192987261611"
    },
    {
      "id": "pt.ine.add.AC26.54691",
      "street": "R NOVA",
      "house": "5",
      "postcode": "9630-159",
      "city": "NORDESTE",
      "lon": "-25.14751896331096",
      "lat": "37.83169307901135"
    },
    {
      "id": "pt.ine.add.AC26.59152",
      "street": "R PARQUE",
      "house": "3",
      "postcode": "9630-163",
      "city": "NORDESTE",
      "lon": "-25.147276435692422",
      "lat": "37.83321228738048"
    },
    {
      "id": "pt.ine.add.AC26.59159",
      "street": "R NOVA",
      "house": "7",
      "postcode": "9630-159",
      "city": "NORDESTE",
      "lon": "-25.147404256764492",
      "lat": "37.83173633407981"
    },
    {
      "id": "pt.ine.add.AC26.59785",
      "street": "R PARQUE",
      "house": "2",
      "postcode": "9630-163",
      "city": "NORDESTE",
      "lon": "-25.14692455625279",
      "lat": "37.83319773764973"
    },
    {
      "id": "pt.ine.add.AC26.63049",
      "street": "ESTR REGIONAL",
      "house": "7G",
      "postcode": "9630-161",
      "city": "NORDESTE",
      "lon": "-25.147327683634465",
      "lat": "37.8338889921609"
    },
    {
      "id": "pt.ine.add.AC26.63051",
      "street": "R DEBAIXO DA PONTE",
      "house": "4",
      "postcode": "9630-164",
      "city": "NORDESTE",
      "lon": "-25.147365407725268",
      "lat": "37.832835184317474"
    },
    {
      "id": "pt.ine.add.AC26.66053",
      "street": "R TOPO",
      "house": "2",
      "postcode": "9630-166",
      "city": "NORDESTE",
      "lon": "-25.146348162250266",
      "lat": "37.83398171824057"
    },
    {
      "id": "pt.ine.add.AC26.66056",
      "street": "R NOVA",
      "house": "1",
      "postcode": "9630-159",
      "city": "NORDESTE",
      "lon": "-25.14789666922557",
      "lat": "37.83249207548253"
    },
    {
      "id": "pt.ine.add.AC26.68951",
      "street": "R ERVA MA",
      "house": "5",
      "postcode": "9630-183",
      "city": "NORDESTE",
      "lon": "-25.14825353168916",
      "lat": "37.834579455847454"
    },
    {
      "id": "pt.ine.add.AC26.68952",
      "street": "R ERVA MA",
      "house": "1A",
      "postcode": "9630-183",
      "city": "NORDESTE",
      "lon": "-25.147834621346615",
      "lat": "37.83451879460321"
    },
    {
      "id": "pt.ine.add.AC26.68955",
      "street": "R DEBAIXO DA PONTE",
      "house": "6",
      "postcode": "9630-164",
      "city": "NORDESTE",
      "lon": "-25.14730951829888",
      "lat": "37.83279825694939"
    },
    {
      "id": "pt.ine.add.AC26.69091",
      "street": "R DR MANUEL JOÃO DA SILVEIRA",
      "house": "14",
      "postcode": "9630-142",
      "city": "NORDESTE",
      "lon": "-25.147056755754203",
      "lat": "37.83200122508591"
    },
    {
      "id": "pt.ine.add.AC26.76270",
      "street": "ESTR REGIONAL",
      "house": "18",
      "postcode": "9630-161",
      "city": "NORDESTE",
      "lon": "-25.147840610762337",
      "lat": "37.83382496653928"
    },
    {
      "id": "pt.ine.add.AC26.79563",
      "street": "R PARQUE",
      "house": "12",
      "postcode": "9630-163",
      "city": "NORDESTE",
      "lon": "-25.147212793635028",
      "lat": "37.833031046314545"
    },
    {
      "id": "pt.ine.add.AC26.82367",
      "street": "R ERVA MA",
      "house": "3A",
      "postcode": "9630-183",
      "city": "NORDESTE",
      "lon": "-25.148106097269565",
      "lat": "37.8345681249243"
    },
    {
      "id": "pt.ine.add.AC26.84956",
      "street": "R DEBAIXO DA PONTE",
      "house": "10",
      "postcode": "9630-164",
      "city": "NORDESTE",
      "lon": "-25.147200443951444",
      "lat": "37.832616300946704"
    },
    {
      "id": "pt.ine.add.AC26.85925",
      "street": "R ERVA MA",
      "house": "1",
      "postcode": "9630-183",
      "city": "NORDESTE",
      "lon": "-25.147751282102742",
      "lat": "37.83467068712534"
    },
    {
      "id": "pt.ine.add.AC26.86192",
      "street": "ESTR REGIONAL",
      "house": "18A",
      "postcode": "9630-161",
      "city": "NORDESTE",
      "lon": "-25.147815509312107",
      "lat": "37.834374302301626"
    },
    {
      "id": "pt.ine.add.AC26.86499",
      "street": "R PALMEIRA",
      "house": "1A",
      "postcode": "9630-183",
      "city": "NORDESTE",
      "lon": "-25.148156711988296",
      "lat": "37.83436164555845"
    },
    {
      "id": "pt.ine.add.AC26.86797",
      "street": "R TOPO",
      "house": "8",
      "postcode": "9630-166",
      "city": "NORDESTE",
      "lon": "-25.146466029351597",
      "lat": "37.833812346346924"
    },
    {
      "id": "pt.ine.add.AC26.98416",
      "street": "R TOPO",
      "house": "6",
      "postcode": "9630-166",
      "city": "NORDESTE",
      "lon": "-25.14643105256857",
      "lat": "37.83384784360381"
    },
    {
      "id": "pt.ine.add.AC26.106492",
      "street": "R PARQUE",
      "house": "1",
      "postcode": "9630-163",
      "city": "NORDESTE",
      "lon": "-25.14732389673588",
      "lat": "37.833131926418666"
    },
    {
      "id": "pt.ine.add.AC26.107060",
      "street": "ESTR REGIONAL",
      "house": "7F",
      "postcode": "9630-161",
      "city": "NORDESTE",
      "lon": "-25.146846664078783",
      "lat": "37.83449423634728"
    }
  ]
}