{
  "data": {
    "distrito": "Leiria",
    "concelho": "Batalha",
    "freguesia": "São Mamede",
    "OBJECTID": 544,
    "BGRI2021": "10040300115",
    "DT21": "10",
    "DTMN21": "1004",
    "DTMNFR21": "100403",
    "DTMNFRSEC21": "100403001",
    "SECNUM21": "001",
    "SSNUM21": "15",
    "SECSSNUM21": "00115",
    "OBJECTID_1": 86950,
    "DT": "10",
    "CC": "04",
    "fr": "03",
    "SEC": "001",
    "SS": "15"
  },
  "addresses": [
    {
      "id": "pt.ine.add.PTCONT.2000044",
      "street": "R NSA SRA DA ASSUNÇAO",
      "house": "",
      "postcode": "2495-035",
      "city": "SÃO MAMEDE",
      "lon": "-8.70361113814069",
      "lat": "39.562604442124375"
    },
    {
      "id": "pt.ine.add.PTCONT.2012493",
      "street": "R DA ESPERANÇA",
      "house": "1",
      "postcode": "2495-035",
      "city": "SÃO MAMEDE",
      "lon": "-8.702304891577782",
      "lat": "39.562241568433265"
    },
    {
      "id": "pt.ine.add.PTCONT.2025709",
      "street": "TV MUDO",
      "house": "1",
      "postcode": "2495-035",
      "city": "SÃO MAMEDE",
      "lon": "-8.700629100980363",
      "lat": "39.56222274342324"
    },
    {
      "id": "pt.ine.add.PTCONT.2039262",
      "street": "R JOÃO PAULO II",
      "house": "53",
      "postcode": "2495-019",
      "city": "SÃO MAMEDE",
      "lon": "-8.705720771646186",
      "lat": "39.57009672153823"
    },
    {
      "id": "pt.ine.add.PTCONT.2071167",
      "street": "R BARREIRAS",
      "house": "",
      "postcode": "2495-035",
      "city": "SÃO MAMEDE",
      "lon": "-8.700411834694544",
      "lat": "39.562692157564825"
    },
    {
      "id": "pt.ine.add.PTCONT.2083935",
      "street": "R JOÃO PAULO II",
      "house": "",
      "postcode": "2495-019",
      "city": "SÃO MAMEDE",
      "lon": "-8.704037695379169",
      "lat": "39.57205046718332"
    },
    {
      "id": "pt.ine.add.PTCONT.2087414",
      "street": "R PAZ",
      "house": "6",
      "postcode": "2495-019",
      "city": "SÃO MAMEDE",
      "lon": "-8.703398737594952",
      "lat": "39.57218870625811"
    },
    {
      "id": "pt.ine.add.PTCONT.2094582",
      "street": "R NSA SRA DA ASSUNÇAO",
      "house": "19",
      "postcode": "2495-035",
      "city": "SÃO MAMEDE",
      "lon": "-8.703844595623409",
      "lat": "39.5626933638111"
    },
    {
      "id": "pt.ine.add.PTCONT.2101334",
      "street": "TV MUDO",
      "house": "5",
      "postcode": "2495-035",
      "city": "SÃO MAMEDE",
      "lon": "-8.70028171127155",
      "lat": "39.56243159560105"
    },
    {
      "id": "pt.ine.add.PTCONT.2108014",
      "street": "TV MUDO",
      "house": "3",
      "postcode": "2495-035",
      "city": "SÃO MAMEDE",
      "lon": "-8.700350279538599",
      "lat": "39.56227814541854"
    },
    {
      "id": "pt.ine.add.PTCONT.2113002",
      "street": "R PAZ",
      "house": "22",
      "postcode": "2495-019",
      "city": "SÃO MAMEDE",
      "lon": "-8.700715486935833",
      "lat": "39.57139123274224"
    },
    {
      "id": "pt.ine.add.PTCONT.2127187",
      "street": "R PAZ",
      "house": "10",
      "postcode": "2495-019",
      "city": "SÃO MAMEDE",
      "lon": "-8.702465669556945",
      "lat": "39.57194109159862"
    },
    {
      "id": "pt.ine.add.PTCONT.2185806",
      "street": "R ESPERANÇA",
      "house": "5",
      "postcode": "2495-035",
      "city": "SÃO MAMEDE",
      "lon": "-8.70089562507859",
      "lat": "39.562086339673925"
    },
    {
      "id": "pt.ine.add.PTCONT.2185807",
      "street": "R NSA SRA ASSUNCAO",
      "house": "5",
      "postcode": "2495-035",
      "city": "SÃO MAMEDE",
      "lon": "-8.70089562507859",
      "lat": "39.562086339673925"
    },
    {
      "id": "pt.ine.add.PTCONT.2192281",
      "street": "R NSA SRA DA ASSUNÇAO",
      "house": "1",
      "postcode": "2495-035",
      "city": "SÃO MAMEDE",
      "lon": "-8.706238273279222",
      "lat": "39.56369034478535"
    },
    {
      "id": "pt.ine.add.PTCONT.2223673",
      "street": "R ESPERANÇA",
      "house": "3",
      "postcode": "2495-035",
      "city": "SÃO MAMEDE",
      "lon": "-8.701302145886489",
      "lat": "39.56199428493052"
    },
    {
      "id": "pt.ine.add.PTCONT.2252080",
      "street": "R JOÃO PAULO II",
      "house": "43",
      "postcode": "2495-019",
      "city": "SÃO MAMEDE",
      "lon": "-8.704191200287204",
      "lat": "39.57231991631911"
    },
    {
      "id": "pt.ine.add.PTCONT.2255106",
      "street": "R BARREIRAS",
      "house": "",
      "postcode": "2495-035",
      "city": "SÃO MAMEDE",
      "lon": "-8.700424424680255",
      "lat": "39.56280918444671"
    },
    {
      "id": "pt.ine.add.PTCONT.2258869",
      "street": "R NSA SRA DA ASSUNÇAO",
      "house": "5",
      "postcode": "2495-035",
      "city": "SÃO MAMEDE",
      "lon": "-8.70570130733186",
      "lat": "39.56348583539759"
    }
  ]
}