{
  "data": {
    "distrito": "Braga",
    "concelho": "Celorico de Basto",
    "freguesia": "Moreira do Castelo",
    "OBJECTID": 44,
    "BGRI2021": "03051500112",
    "DT21": "03",
    "DTMN21": "0305",
    "DTMNFR21": "030515",
    "DTMNFRSEC21": "030515001",
    "SECNUM21": "001",
    "SSNUM21": "12",
    "SECSSNUM21": "00112",
    "OBJECTID_1": 24185,
    "DT": "03",
    "CC": "05",
    "fr": "15",
    "SEC": "001",
    "SS": "12"
  },
  "addresses": [
    {
      "id": "pt.ine.add.PTCONT.507029",
      "street": "R PERTOUTIM",
      "house": "",
      "postcode": "4890-454",
      "city": "MOREIRA DO CASTELO",
      "lon": "-8.056775059147583",
      "lat": "41.35226112741956"
    },
    {
      "id": "pt.ine.add.PTCONT.517552",
      "street": "R RIO BOM",
      "house": "",
      "postcode": "4890-454",
      "city": "MOREIRA DO CASTELO",
      "lon": "-8.058089459439884",
      "lat": "41.35229800801955"
    },
    {
      "id": "pt.ine.add.PTCONT.568489",
      "street": "R RIO BOM",
      "house": "",
      "postcode": "4890-454",
      "city": "MOREIRA DO CASTELO",
      "lon": "-8.058090885895794",
      "lat": "41.351055445465"
    },
    {
      "id": "pt.ine.add.PTCONT.601596",
      "street": "R RIO BOM",
      "house": "",
      "postcode": "4890-454",
      "city": "MOREIRA DO CASTELO",
      "lon": "-8.05831785979902",
      "lat": "41.351109617690945"
    },
    {
      "id": "pt.ine.add.PTCONT.604412",
      "street": "R LUGAR NOVO",
      "house": "",
      "postcode": "4890-454",
      "city": "MOREIRA DO CASTELO",
      "lon": "-8.057383720381681",
      "lat": "41.35291882747392"
    },
    {
      "id": "pt.ine.add.PTCONT.728515",
      "street": "R SEQUEIROS",
      "house": "",
      "postcode": "4890-455",
      "city": "MOREIRA DO CASTELO",
      "lon": "-8.052322565337146",
      "lat": "41.358155758949266"
    },
    {
      "id": "pt.ine.add.PTCONT.737486",
      "street": "R LUGAR NOVO",
      "house": "",
      "postcode": "4890-455",
      "city": "MOREIRA DO CASTELO",
      "lon": "-8.05667624061309",
      "lat": "41.35501631034704"
    },
    {
      "id": "pt.ine.add.PTCONT.758342",
      "street": "R LUGAR NOVO",
      "house": "",
      "postcode": "4890-454",
      "city": "MOREIRA DO CASTELO",
      "lon": "-8.05710838761775",
      "lat": "41.353341837788456"
    }
  ]
}