{
  "data": {
    "distrito": "Porto",
    "concelho": "Póvoa de Varzim",
    "freguesia": "União das freguesias da Póvoa de Varzim, Beiriz e Argivai",
    "OBJECTID": 175,
    "BGRI2021": "13131500211",
    "DT21": "13",
    "DTMN21": "1313",
    "DTMNFR21": "131315",
    "DTMNFRSEC21": "131315002",
    "SECNUM21": "002",
    "SSNUM21": "11",
    "SECSSNUM21": "00211",
    "OBJECTID_1": 139867,
    "DT": "13",
    "CC": "13",
    "fr": "15",
    "SEC": "002",
    "SS": "11"
  },
  "addresses": [
    {
      "id": "pt.ine.add.PTCONT.3541651",
      "street": "R SENHOR DO MONTE",
      "house": "2",
      "postcode": "4490-584",
      "city": "PÓVOA DE VARZIM",
      "lon": "-8.75865914639493",
      "lat": "41.381911265004966"
    },
    {
      "id": "pt.ine.add.PTCONT.3549388",
      "street": "R CIDADE DO PORTO",
      "house": "68",
      "postcode": "4490-506",
      "city": "PÓVOA DE VARZIM",
      "lon": "-8.759658977315834",
      "lat": "41.381455626925266"
    },
    {
      "id": "pt.ine.add.PTCONT.3568829",
      "street": "R ROCHA PEIXOTO",
      "house": "3",
      "postcode": "4490-679",
      "city": "PÓVOA DE VARZIM",
      "lon": "-8.759810404421883",
      "lat": "41.381040619751545"
    },
    {
      "id": "pt.ine.add.PTCONT.3568847",
      "street": "R FERNANDO BARBOSA",
      "house": "23",
      "postcode": "4490-635",
      "city": "PÓVOA DE VARZIM",
      "lon": "-8.75846606792727",
      "lat": "41.38172323113277"
    },
    {
      "id": "pt.ine.add.PTCONT.3568848",
      "street": "R FERNANDO BARBOSA",
      "house": "23",
      "postcode": "4490-635",
      "city": "PÓVOA DE VARZIM",
      "lon": "-8.75846606792727",
      "lat": "41.38172323113277"
    },
    {
      "id": "pt.ine.add.PTCONT.3568849",
      "street": "R FERNANDO BARBOSA",
      "house": "23",
      "postcode": "4490-635",
      "city": "PÓVOA DE VARZIM",
      "lon": "-8.75846606792727",
      "lat": "41.38172323113277"
    },
    {
      "id": "pt.ine.add.PTCONT.3610901",
      "street": "R FERNANDO BARBOSA",
      "house": "31",
      "postcode": "4490-635",
      "city": "PÓVOA DE VARZIM",
      "lon": "-8.75814888011499",
      "lat": "41.38105866077158"
    },
    {
      "id": "pt.ine.add.PTCONT.3610902",
      "street": "R FERNANDO BARBOSA",
      "house": "31",
      "postcode": "4490-635",
      "city": "PÓVOA DE VARZIM",
      "lon": "-8.75814888011499",
      "lat": "41.38105866077158"
    },
    {
      "id": "pt.ine.add.PTCONT.3746673",
      "street": "R SENHOR DO MONTE",
      "house": "1",
      "postcode": "4490-584",
      "city": "PÓVOA DE VARZIM",
      "lon": "-8.7585744317891",
      "lat": "41.38180367788583"
    },
    {
      "id": "pt.ine.add.PTCONT.3790776",
      "street": "R FERNANDO BARBOSA",
      "house": "35",
      "postcode": "4490-635",
      "city": "PÓVOA DE VARZIM",
      "lon": "-8.758137443332785",
      "lat": "41.38111274670975"
    },
    {
      "id": "pt.ine.add.PTCONT.3847845",
      "street": "R FERNANDO BARBOSA",
      "house": "27 A",
      "postcode": "4490-635",
      "city": "PÓVOA DE VARZIM",
      "lon": "-8.75812333410861",
      "lat": "41.38088772410703"
    },
    {
      "id": "pt.ine.add.PTCONT.3854559",
      "street": "R FERNANDO BARBOSA",
      "house": "17",
      "postcode": "4490-635",
      "city": "PÓVOA DE VARZIM",
      "lon": "-8.758417733797398",
      "lat": "41.38166946998711"
    },
    {
      "id": "pt.ine.add.PTCONT.3854560",
      "street": "R FERNANDO BARBOSA",
      "house": "17",
      "postcode": "4490-635",
      "city": "PÓVOA DE VARZIM",
      "lon": "-8.758417733797398",
      "lat": "41.38166946998711"
    },
    {
      "id": "pt.ine.add.PTCONT.3854561",
      "street": "R FERNANDO BARBOSA",
      "house": "17",
      "postcode": "4490-635",
      "city": "PÓVOA DE VARZIM",
      "lon": "-8.758417733797398",
      "lat": "41.38166946998711"
    },
    {
      "id": "pt.ine.add.PTCONT.3854562",
      "street": "R FERNANDO BARBOSA",
      "house": "17",
      "postcode": "4490-635",
      "city": "PÓVOA DE VARZIM",
      "lon": "-8.758417733797398",
      "lat": "41.38166946998711"
    },
    {
      "id": "pt.ine.add.PTCONT.3859153",
      "street": "R SENHOR DO MONTE",
      "house": "4",
      "postcode": "4490-584",
      "city": "PÓVOA DE VARZIM",
      "lon": "-8.758827972296224",
      "lat": "41.3820634145556"
    },
    {
      "id": "pt.ine.add.PTCONT.4005313",
      "street": "R SENHOR DO MONTE",
      "house": "3",
      "postcode": "4490-584",
      "city": "PÓVOA DE VARZIM",
      "lon": "-8.758731734482218",
      "lat": "41.382000910054686"
    },
    {
      "id": "pt.ine.add.PTCONT.4040126",
      "street": "R FERNANDO BARBOSA",
      "house": "27",
      "postcode": "4490-635",
      "city": "PÓVOA DE VARZIM",
      "lon": "-8.758123765142123",
      "lat": "41.38093274161432"
    },
    {
      "id": "pt.ine.add.PTCONT.4040127",
      "street": "R AMADINHA",
      "house": "25",
      "postcode": "4490-495",
      "city": "PÓVOA DE VARZIM",
      "lon": "-8.758384856099797",
      "lat": "41.380733235849384"
    },
    {
      "id": "pt.ine.add.PTCONT.4049280",
      "street": "R FERNANDO BARBOSA",
      "house": "21",
      "postcode": "4490-635",
      "city": "PÓVOA DE VARZIM",
      "lon": "-8.758122299632173",
      "lat": "41.38077968208812"
    },
    {
      "id": "pt.ine.add.PTCONT.4118903",
      "street": "R CIDADE DO PORTO",
      "house": "70",
      "postcode": "4490-506",
      "city": "PÓVOA DE VARZIM",
      "lon": "-8.759707312301027",
      "lat": "41.38150938754548"
    },
    {
      "id": "pt.ine.add.PTCONT.4145189",
      "street": "R CIDADE DO PORTO",
      "house": "72",
      "postcode": "4490-506",
      "city": "PÓVOA DE VARZIM",
      "lon": "-8.759636278942992",
      "lat": "41.38158180607181"
    },
    {
      "id": "pt.ine.add.PTCONT.4177937",
      "street": "R FERNANDO BARBOSA",
      "house": "25",
      "postcode": "4490-635",
      "city": "PÓVOA DE VARZIM",
      "lon": "-8.758134857073442",
      "lat": "41.3808426416699"
    },
    {
      "id": "pt.ine.add.PTCONT.4197335",
      "street": "R FERNANDO BARBOSA",
      "house": "21 A",
      "postcode": "4490-635",
      "city": "PÓVOA DE VARZIM",
      "lon": "-8.758121609984347",
      "lat": "41.38070765407436"
    },
    {
      "id": "pt.ine.add.PTCONT.4212423",
      "street": "R SENHOR DO MONTE",
      "house": "5 6 7",
      "postcode": "4490-584",
      "city": "PÓVOA DE VARZIM",
      "lon": "-8.759032402718153",
      "lat": "41.38218835828559"
    },
    {
      "id": "pt.ine.add.PTCONT.4309892",
      "street": "R FERNANDO BARBOSA",
      "house": "33",
      "postcode": "4490-635",
      "city": "PÓVOA DE VARZIM",
      "lon": "-8.758209253832042",
      "lat": "41.381121360604034"
    },
    {
      "id": "pt.ine.add.PTCONT.4328980",
      "street": "R FERNANDO BARBOSA",
      "house": "29",
      "postcode": "4490-635",
      "city": "PÓVOA DE VARZIM",
      "lon": "-8.758124282383635",
      "lat": "41.38098676262257"
    },
    {
      "id": "pt.ine.add.PTCONT.4328981",
      "street": "R FERNANDO BARBOSA",
      "house": "29",
      "postcode": "4490-635",
      "city": "PÓVOA DE VARZIM",
      "lon": "-8.758124282383635",
      "lat": "41.38098676262257"
    },
    {
      "id": "pt.ine.add.PTCONT.4356647",
      "street": "R FERNANDO BARBOSA",
      "house": "23",
      "postcode": "4490-635",
      "city": "PÓVOA DE VARZIM",
      "lon": "-8.758182673062517",
      "lat": "41.380842381939516"
    },
    {
      "id": "pt.ine.add.PTCONT.4356648",
      "street": "R FERNANDO BARBOSA",
      "house": "23",
      "postcode": "4490-635",
      "city": "PÓVOA DE VARZIM",
      "lon": "-8.758182673062517",
      "lat": "41.380842381939516"
    },
    {
      "id": "pt.ine.add.PTCONT.4361936",
      "street": "R CIDADE DO PORTO",
      "house": "74",
      "postcode": "4490-506",
      "city": "PÓVOA DE VARZIM",
      "lon": "-8.759506165911533",
      "lat": "41.38172657792052"
    },
    {
      "id": "pt.ine.add.PTCONT.4361949",
      "street": "R FERNANDO BARBOSA",
      "house": "9",
      "postcode": "4490-635",
      "city": "PÓVOA DE VARZIM",
      "lon": "-8.758369313504708",
      "lat": "41.38160670532017"
    },
    {
      "id": "pt.ine.add.PTCONT.4361950",
      "street": "R FERNANDO BARBOSA",
      "house": "35",
      "postcode": "4490-635",
      "city": "PÓVOA DE VARZIM",
      "lon": "-8.75815017327908",
      "lat": "41.381193713287665"
    }
  ]
}