{
  "data": {
    "distrito": "Braga",
    "concelho": "Esposende",
    "freguesia": "Antas",
    "OBJECTID": 49,
    "BGRI2021": "03060100129",
    "DT21": "03",
    "DTMN21": "0306",
    "DTMNFR21": "030601",
    "DTMNFRSEC21": "030601001",
    "SECNUM21": "001",
    "SSNUM21": "29",
    "SECSSNUM21": "00129",
    "OBJECTID_1": 24329,
    "DT": "03",
    "CC": "06",
    "fr": "01",
    "SEC": "001",
    "SS": "29"
  },
  "addresses": [
    {
      "id": "pt.ine.add.PTCONT.464351",
      "street": "R MIGUEL PACHECO AZEVEDO",
      "house": "21",
      "postcode": "4740-016",
      "city": "ANTAS EPS",
      "lon": "-8.767344465376366",
      "lat": "41.60474362075801"
    },
    {
      "id": "pt.ine.add.PTCONT.492186",
      "street": "R PADRE AVELINO ALVES",
      "house": "82",
      "postcode": "4740-016",
      "city": "ANTAS EPS",
      "lon": "-8.768874005246913",
      "lat": "41.60780540593986"
    },
    {
      "id": "pt.ine.add.PTCONT.528354",
      "street": "R REGO DAS PEQUENAS",
      "house": "12",
      "postcode": "4740-016",
      "city": "ANTAS EPS",
      "lon": "-8.766922229994067",
      "lat": "41.606951835985654"
    },
    {
      "id": "pt.ine.add.PTCONT.531162",
      "street": "CANGOSTA DA FEIRA",
      "house": "17",
      "postcode": "4740-011",
      "city": "ANTAS EPS",
      "lon": "-8.767821450235374",
      "lat": "41.60445287245196"
    },
    {
      "id": "pt.ine.add.PTCONT.531163",
      "street": "CANGOSTA DA FEIRA",
      "house": "17",
      "postcode": "4740-011",
      "city": "ANTAS EPS",
      "lon": "-8.767821450235374",
      "lat": "41.60445287245196"
    },
    {
      "id": "pt.ine.add.PTCONT.531164",
      "street": "R RUI MIGUEL PACHECO AZEVEDO",
      "house": "17",
      "postcode": "4740-015",
      "city": "ANTAS EPS",
      "lon": "-8.767821450235374",
      "lat": "41.60445287245196"
    },
    {
      "id": "pt.ine.add.PTCONT.578105",
      "street": "R CÂNDIDO MEIRA DA CRUZ",
      "house": "36",
      "postcode": "4740-011",
      "city": "ANTAS EPS",
      "lon": "-8.768504679786982",
      "lat": "41.60684406088193"
    },
    {
      "id": "pt.ine.add.PTCONT.589670",
      "street": "R REGO DAS PEQUENAS",
      "house": "7",
      "postcode": "4740-016",
      "city": "ANTAS EPS",
      "lon": "-8.766670850455782",
      "lat": "41.60700724332894"
    },
    {
      "id": "pt.ine.add.PTCONT.625381",
      "street": "R MIGUEL PALHECO AZEVEDO",
      "house": "41",
      "postcode": "4740-016",
      "city": "ANTAS EPS",
      "lon": "-8.766242440606744",
      "lat": "41.60736074457601"
    },
    {
      "id": "pt.ine.add.PTCONT.629265",
      "street": "TV REGO DO MONTE",
      "house": "10",
      "postcode": "4740-016",
      "city": "ANTAS EPS",
      "lon": "-8.767346132771845",
      "lat": "41.607363664489704"
    },
    {
      "id": "pt.ine.add.PTCONT.629266",
      "street": "R CÂNDIDO MEIRA DA CRUZ",
      "house": "8",
      "postcode": "4740-011",
      "city": "ANTAS EPS",
      "lon": "-8.768245695311945",
      "lat": "41.60490071042212"
    },
    {
      "id": "pt.ine.add.PTCONT.636944",
      "street": "R PEREIRA",
      "house": "3",
      "postcode": "4740-016",
      "city": "ANTAS EPS",
      "lon": "-8.766379302045209",
      "lat": "41.609088684861355"
    },
    {
      "id": "pt.ine.add.PTCONT.654238",
      "street": "R PEREIRA",
      "house": "",
      "postcode": "4740-016",
      "city": "ANTAS EPS",
      "lon": "-8.767602542712494",
      "lat": "41.60904592559715"
    },
    {
      "id": "pt.ine.add.PTCONT.660591",
      "street": "R REGO DAS PEQUENAS",
      "house": "2",
      "postcode": "4740-016",
      "city": "ANTAS EPS",
      "lon": "-8.766354099537311",
      "lat": "41.607738281459014"
    },
    {
      "id": "pt.ine.add.PTCONT.678568",
      "street": "R CÂNDIDO MEIRA DA CRUZ",
      "house": "16",
      "postcode": "4740-011",
      "city": "ANTAS EPS",
      "lon": "-8.768276219932218",
      "lat": "41.60556680961375"
    },
    {
      "id": "pt.ine.add.PTCONT.686774",
      "street": "R REGO DAS PEQUENAS",
      "house": "4",
      "postcode": "4740-016",
      "city": "ANTAS EPS",
      "lon": "-8.76649329354235",
      "lat": "41.60725131937213"
    },
    {
      "id": "pt.ine.add.PTCONT.701798",
      "street": "R PADRE AVELINO REIS",
      "house": "86",
      "postcode": "4740-016",
      "city": "ANTAS EPS",
      "lon": "-8.768652447501852",
      "lat": "41.60845489126071"
    },
    {
      "id": "pt.ine.add.PTCONT.710587",
      "street": "CANGOSTA DA FEIRA",
      "house": "6",
      "postcode": "4740-011",
      "city": "ANTAS EPS",
      "lon": "-8.768637297384837",
      "lat": "41.60446637249936"
    },
    {
      "id": "pt.ine.add.PTCONT.716748",
      "street": "R CÂNDIDO MEIRA DA CRUZ",
      "house": "26",
      "postcode": "4740-011",
      "city": "ANTAS EPS",
      "lon": "-8.76858343648993",
      "lat": "41.60631241214881"
    },
    {
      "id": "pt.ine.add.PTCONT.720161",
      "street": "R CÂNDIDO MEIRA DA CRUZ",
      "house": "30",
      "postcode": "4740-011",
      "city": "ANTAS EPS",
      "lon": "-8.768632655418816",
      "lat": "41.606438190717576"
    },
    {
      "id": "pt.ine.add.PTCONT.733005",
      "street": "R MIGUEL PACHECO DE AZEVEDO",
      "house": "31",
      "postcode": "4740-016",
      "city": "ANTAS EPS",
      "lon": "-8.76703575255434",
      "lat": "41.60629394597487"
    },
    {
      "id": "pt.ine.add.PTCONT.740332",
      "street": "R CÂNDIDO MEIRA DA CRUZ",
      "house": "16",
      "postcode": "4740-011",
      "city": "ANTAS EPS",
      "lon": "-8.768289893045928",
      "lat": "41.60573780282527"
    },
    {
      "id": "pt.ine.add.PTCONT.743658",
      "street": "R MIGUEL PACHECO DE AZEVEDO",
      "house": "9",
      "postcode": "4740-016",
      "city": "ANTAS EPS",
      "lon": "-8.766811802576987",
      "lat": "41.606700343463146"
    },
    {
      "id": "pt.ine.add.PTCONT.755621",
      "street": "R REGO DAS PEQUENAS",
      "house": "10",
      "postcode": "4740-016",
      "city": "ANTAS EPS",
      "lon": "-8.766839758446055",
      "lat": "41.607105352129075"
    },
    {
      "id": "pt.ine.add.PTCONT.786969",
      "street": "R REGO DO MONTE",
      "house": "2A",
      "postcode": "4740-016",
      "city": "ANTAS EPS",
      "lon": "-8.766532715063716",
      "lat": "41.60760224320975"
    },
    {
      "id": "pt.ine.add.PTCONT.791386",
      "street": "R REGO DO MONTE",
      "house": "4",
      "postcode": "4740-016",
      "city": "ANTAS EPS",
      "lon": "-8.766795476051064",
      "lat": "41.60748374812172"
    },
    {
      "id": "pt.ine.add.PTCONT.803632",
      "street": "R MIGUEL PACHECO DE AZEVEDO",
      "house": "45",
      "postcode": "4740-016",
      "city": "ANTAS EPS",
      "lon": "-8.766151403662644",
      "lat": "41.60786544841525"
    },
    {
      "id": "pt.ine.add.PTCONT.839105",
      "street": "R MIGUEL PACHECO AZEVEDO",
      "house": "23",
      "postcode": "4740-016",
      "city": "ANTAS EPS",
      "lon": "-8.767344465376366",
      "lat": "41.60474362075801"
    },
    {
      "id": "pt.ine.add.PTCONT.840295",
      "street": "R PADRE AVELINO ALVES",
      "house": "80",
      "postcode": "4740-016",
      "city": "ANTAS EPS",
      "lon": "-8.76894350468101",
      "lat": "41.60755292033748"
    }
  ]
}