{
  "data": {
    "distrito": "Beja",
    "concelho": "Odemira",
    "freguesia": "São Teotónio",
    "OBJECTID": 958,
    "BGRI2021": "02112100502",
    "DT21": "02",
    "DTMN21": "0211",
    "DTMNFR21": "021121",
    "DTMNFRSEC21": "021121005",
    "SECNUM21": "005",
    "SSNUM21": "02",
    "SECSSNUM21": "00502",
    "OBJECTID_1": 17929,
    "DT": "02",
    "CC": "11",
    "fr": "21",
    "SEC": "005",
    "SS": "02"
  },
  "addresses": [
    {
      "id": "pt.ine.add.PTCONT.359587",
      "street": "LOISAS CEREJAL",
      "house": "",
      "postcode": "7630-575",
      "city": "SÃO TEOTÓNIO",
      "lon": "-8.654810386706862",
      "lat": "37.392431568633555"
    },
    {
      "id": "pt.ine.add.PTCONT.366746",
      "street": "ALCANFORADO",
      "house": "",
      "postcode": "7630-590",
      "city": "SÃO TEOTÓNIO",
      "lon": "-8.671836663756475",
      "lat": "37.40305022701411"
    },
    {
      "id": "pt.ine.add.PTCONT.391793",
      "street": "ALCANFORADO",
      "house": "",
      "postcode": "7630-590",
      "city": "SÃO TEOTÓNIO",
      "lon": "-8.673335489201259",
      "lat": "37.40101611467208"
    },
    {
      "id": "pt.ine.add.PTCONT.397418",
      "street": "BEM PARECE",
      "house": "",
      "postcode": "7630-590",
      "city": "SÃO TEOTÓNIO",
      "lon": "-8.668215271981854",
      "lat": "37.40044473076639"
    },
    {
      "id": "pt.ine.add.PTCONT.404827",
      "street": "MTE CEREJALINHO",
      "house": "",
      "postcode": "7630-590",
      "city": "SÃO TEOTÓNIO",
      "lon": "-8.655465802592854",
      "lat": "37.39412257868602"
    },
    {
      "id": "pt.ine.add.PTCONT.405586",
      "street": "MTE DA PALMEIRA",
      "house": "",
      "postcode": "7630-590",
      "city": "SÃO TEOTÓNIO",
      "lon": "-8.665408324592864",
      "lat": "37.41395453080024"
    },
    {
      "id": "pt.ine.add.PTCONT.424145",
      "street": "MTE CARAPETEIRO",
      "house": "",
      "postcode": "7630-590",
      "city": "SÃO TEOTÓNIO",
      "lon": "-8.657931114405379",
      "lat": "37.39623805097667"
    },
    {
      "id": "pt.ine.add.PTCONT.433742",
      "street": "PERNA SECA",
      "house": "",
      "postcode": "7630-590",
      "city": "SÃO TEOTÓNIO",
      "lon": "-8.662139369761388",
      "lat": "37.400472072026865"
    },
    {
      "id": "pt.ine.add.PTCONT.439700",
      "street": "MTE PERNA SECA",
      "house": "",
      "postcode": "7630-590",
      "city": "SÃO TEOTÓNIO",
      "lon": "-8.659910133577483",
      "lat": "37.39985131727713"
    },
    {
      "id": "pt.ine.add.PTCONT.454211",
      "street": "BEM PARECE",
      "house": "",
      "postcode": "7630-590",
      "city": "SÃO TEOTÓNIO",
      "lon": "-8.668335976030535",
      "lat": "37.39994862840845"
    }
  ]
}