{
  "data": {
    "distrito": "Beja",
    "concelho": "Odemira",
    "freguesia": "São Teotónio",
    "OBJECTID": 553,
    "BGRI2021": "02112100509",
    "DT21": "02",
    "DTMN21": "0211",
    "DTMNFR21": "021121",
    "DTMNFRSEC21": "021121005",
    "SECNUM21": "005",
    "SSNUM21": "09",
    "SECSSNUM21": "00509",
    "OBJECTID_1": 17930,
    "DT": "02",
    "CC": "11",
    "fr": "21",
    "SEC": "005",
    "SS": "09"
  },
  "addresses": [
    {
      "id": "pt.ine.add.PTCONT.456763",
      "street": "MTE PEGANITOS",
      "house": "",
      "postcode": "7630-590",
      "city": "SÃO TEOTÓNIO",
      "lon": "-8.663041891235403",
      "lat": "37.427588403725075"
    },
    {
      "id": "pt.ine.add.PTCONT.457198",
      "street": "MTE DESPRESO",
      "house": "",
      "postcode": "7630-590",
      "city": "SÃO TEOTÓNIO",
      "lon": "-8.662736857574755",
      "lat": "37.42277839128937"
    },
    {
      "id": "pt.ine.add.PTCONT.458349",
      "street": "MTE FONTE DO COURCHO DE BAIXO",
      "house": "",
      "postcode": "7630-590",
      "city": "SÃO TEOTÓNIO",
      "lon": "-8.661333661234641",
      "lat": "37.4353086650978"
    },
    {
      "id": "pt.ine.add.PTCONT.458607",
      "street": "MTE CORGO DA FONTE VELHO",
      "house": "",
      "postcode": "7630-590",
      "city": "SÃO TEOTÓNIO",
      "lon": "-8.663687719406983",
      "lat": "37.434252954756346"
    },
    {
      "id": "pt.ine.add.PTCONT.458768",
      "street": "MTE ALAGUINHA",
      "house": "",
      "postcode": "7630-590",
      "city": "SÃO TEOTÓNIO",
      "lon": "-8.663016339349609",
      "lat": "37.43358021197038"
    },
    {
      "id": "pt.ine.add.PTCONT.353001",
      "street": "MTE CORGO 2",
      "house": "",
      "postcode": "7630-590",
      "city": "SÃO TEOTÓNIO",
      "lon": "-8.662058086948353",
      "lat": "37.4306742534027"
    },
    {
      "id": "pt.ine.add.PTCONT.353522",
      "street": "",
      "house": "",
      "postcode": "7630-590",
      "city": "SÃO TEOTÓNIO",
      "lon": "-8.697375821346045",
      "lat": "37.433547322918905"
    },
    {
      "id": "pt.ine.add.PTCONT.354576",
      "street": "MTE FONTE CORCHO",
      "house": "",
      "postcode": "7630-590",
      "city": "SÃO TEOTÓNIO",
      "lon": "-8.660360754066597",
      "lat": "37.43352901685427"
    },
    {
      "id": "pt.ine.add.PTCONT.357017",
      "street": "MTE PEGOES",
      "house": "",
      "postcode": "7630-590",
      "city": "SÃO TEOTÓNIO",
      "lon": "-8.661652985871585",
      "lat": "37.427693732842684"
    },
    {
      "id": "pt.ine.add.PTCONT.357018",
      "street": "MTE PEGOES",
      "house": "",
      "postcode": "7630-590",
      "city": "SÃO TEOTÓNIO",
      "lon": "-8.661652985871585",
      "lat": "37.427693732842684"
    },
    {
      "id": "pt.ine.add.PTCONT.359499",
      "street": "MTE FONTE DO COURCHO DE BAIXO",
      "house": "",
      "postcode": "7630-590",
      "city": "SÃO TEOTÓNIO",
      "lon": "-8.672305875352777",
      "lat": "37.433844543317996"
    },
    {
      "id": "pt.ine.add.PTCONT.362749",
      "street": "MTE TERRA NOVA",
      "house": "",
      "postcode": "7630-590",
      "city": "SÃO TEOTÓNIO",
      "lon": "-8.689679773453877",
      "lat": "37.4226546099533"
    },
    {
      "id": "pt.ine.add.PTCONT.369221",
      "street": "MTE SOALHEIRA DO COVÃO DO SOBRAL",
      "house": "",
      "postcode": "7630-590",
      "city": "SÃO TEOTÓNIO",
      "lon": "-8.664955072646393",
      "lat": "37.42174128348563"
    },
    {
      "id": "pt.ine.add.PTCONT.375489",
      "street": "",
      "house": "",
      "postcode": "7630-590",
      "city": "SÃO TEOTÓNIO",
      "lon": "-8.68220328409925",
      "lat": "37.43378997019383"
    },
    {
      "id": "pt.ine.add.PTCONT.376566",
      "street": "MTE COVÃO DO SOBRAL",
      "house": "",
      "postcode": "7630-590",
      "city": "SÃO TEOTÓNIO",
      "lon": "-8.67877806257348",
      "lat": "37.432003820886855"
    },
    {
      "id": "pt.ine.add.PTCONT.377327",
      "street": "MTE FONTE CORCHO",
      "house": "",
      "postcode": "7630-590",
      "city": "SÃO TEOTÓNIO",
      "lon": "-8.658607687070212",
      "lat": "37.43166273018609"
    },
    {
      "id": "pt.ine.add.PTCONT.378165",
      "street": "MTE OLEIROS DE CIMA",
      "house": "",
      "postcode": "7630-590",
      "city": "SÃO TEOTÓNIO",
      "lon": "-8.70174446159989",
      "lat": "37.447951453283004"
    },
    {
      "id": "pt.ine.add.PTCONT.387515",
      "street": "",
      "house": "",
      "postcode": "7630-590",
      "city": "SÃO TEOTÓNIO",
      "lon": "-8.684323049620021",
      "lat": "37.420859674661386"
    },
    {
      "id": "pt.ine.add.PTCONT.388526",
      "street": "MTE PEGANITOS",
      "house": "",
      "postcode": "7630-590",
      "city": "SÃO TEOTÓNIO",
      "lon": "-8.663638711482742",
      "lat": "37.42891020680212"
    },
    {
      "id": "pt.ine.add.PTCONT.391800",
      "street": "MTE OLEIROS DE CIMA",
      "house": "",
      "postcode": "7630-590",
      "city": "SÃO TEOTÓNIO",
      "lon": "-8.700068020683206",
      "lat": "37.44893258995733"
    },
    {
      "id": "pt.ine.add.PTCONT.394183",
      "street": "MTE COVAO RÚIVO",
      "house": "",
      "postcode": "7630-590",
      "city": "SÃO TEOTÓNIO",
      "lon": "-8.699483548316985",
      "lat": "37.45535052561164"
    },
    {
      "id": "pt.ine.add.PTCONT.397426",
      "street": "MTE DESPRESO",
      "house": "",
      "postcode": "7630-590",
      "city": "SÃO TEOTÓNIO",
      "lon": "-8.66266971097125",
      "lat": "37.42286879287954"
    },
    {
      "id": "pt.ine.add.PTCONT.403154",
      "street": "MTE COVÃO RÚIVO",
      "house": "",
      "postcode": "7630-590",
      "city": "SÃO TEOTÓNIO",
      "lon": "-8.685658680749468",
      "lat": "37.428899427842154"
    },
    {
      "id": "pt.ine.add.PTCONT.403155",
      "street": "MTE COVÃO RÚIVO",
      "house": "",
      "postcode": "7630-590",
      "city": "SÃO TEOTÓNIO",
      "lon": "-8.685658680749468",
      "lat": "37.428899427842154"
    },
    {
      "id": "pt.ine.add.PTCONT.403156",
      "street": "MTE COVÃO RÚIVO",
      "house": "",
      "postcode": "7630-590",
      "city": "SÃO TEOTÓNIO",
      "lon": "-8.685658680749468",
      "lat": "37.428899427842154"
    },
    {
      "id": "pt.ine.add.PTCONT.403157",
      "street": "MTE COVÃO DO SOBRAL",
      "house": "",
      "postcode": "7630-590",
      "city": "SÃO TEOTÓNIO",
      "lon": "-8.679357675930119",
      "lat": "37.4324696667255"
    },
    {
      "id": "pt.ine.add.PTCONT.403158",
      "street": "MTE COVAO DO SOBRAL",
      "house": "",
      "postcode": "7630-590",
      "city": "SÃO TEOTÓNIO",
      "lon": "-8.665295057464423",
      "lat": "37.42189292474432"
    },
    {
      "id": "pt.ine.add.PTCONT.403927",
      "street": "MTE CERRO DA GUERRA",
      "house": "",
      "postcode": "7630-590",
      "city": "SÃO TEOTÓNIO",
      "lon": "-8.666065347682107",
      "lat": "37.423781570522294"
    },
    {
      "id": "pt.ine.add.PTCONT.404837",
      "street": "MTE OLEIROS DE CIMA",
      "house": "",
      "postcode": "7630-590",
      "city": "SÃO TEOTÓNIO",
      "lon": "-8.703663435930999",
      "lat": "37.447662894081944"
    },
    {
      "id": "pt.ine.add.PTCONT.406402",
      "street": "MTE FONTE DO COURCHO DE BAIXO",
      "house": "",
      "postcode": "7630-590",
      "city": "SÃO TEOTÓNIO",
      "lon": "-8.67154002987317",
      "lat": "37.4341904165432"
    },
    {
      "id": "pt.ine.add.PTCONT.414468",
      "street": "MTE CORGO DA BARREIRA",
      "house": "",
      "postcode": "7630-590",
      "city": "SÃO TEOTÓNIO",
      "lon": "-8.691954330340918",
      "lat": "37.42468916377462"
    },
    {
      "id": "pt.ine.add.PTCONT.416069",
      "street": "MTE VALE ESQUEIRO",
      "house": "",
      "postcode": "7630-590",
      "city": "SÃO TEOTÓNIO",
      "lon": "-8.665436119294311",
      "lat": "37.43702920131282"
    },
    {
      "id": "pt.ine.add.PTCONT.418442",
      "street": "MTE CORGO 1",
      "house": "",
      "postcode": "7630-590",
      "city": "SÃO TEOTÓNIO",
      "lon": "-8.663765553811423",
      "lat": "37.43087383194025"
    },
    {
      "id": "pt.ine.add.PTCONT.418443",
      "street": "MTE FONTE CORCHO",
      "house": "",
      "postcode": "7630-590",
      "city": "SÃO TEOTÓNIO",
      "lon": "-8.66145670592953",
      "lat": "37.43352412318001"
    },
    {
      "id": "pt.ine.add.PTCONT.420844",
      "street": "MTE OLEIROS DE CIMA",
      "house": "",
      "postcode": "7630-590",
      "city": "SÃO TEOTÓNIO",
      "lon": "-8.70182724869079",
      "lat": "37.44843759621069"
    },
    {
      "id": "pt.ine.add.PTCONT.420849",
      "street": "MTE CORGO DA FONTE",
      "house": "",
      "postcode": "7630-590",
      "city": "SÃO TEOTÓNIO",
      "lon": "-8.665230688422069",
      "lat": "37.43833658417426"
    },
    {
      "id": "pt.ine.add.PTCONT.421783",
      "street": "MTE VALE ESTRADAS",
      "house": "",
      "postcode": "7630-590",
      "city": "SÃO TEOTÓNIO",
      "lon": "-8.659150757097567",
      "lat": "37.431768435407605"
    },
    {
      "id": "pt.ine.add.PTCONT.422218",
      "street": "QTA VIDIGUEIRA",
      "house": "",
      "postcode": "7630-590",
      "city": "SÃO TEOTÓNIO",
      "lon": "-8.6766440565702",
      "lat": "37.44469980142681"
    },
    {
      "id": "pt.ine.add.PTCONT.423324",
      "street": "MTE PEGOES",
      "house": "",
      "postcode": "7630-590",
      "city": "SÃO TEOTÓNIO",
      "lon": "-8.661699316502531",
      "lat": "37.42785570694485"
    },
    {
      "id": "pt.ine.add.PTCONT.427807",
      "street": "",
      "house": "",
      "postcode": "7630-590",
      "city": "SÃO TEOTÓNIO",
      "lon": "-8.674542881805554",
      "lat": "37.42597754337205"
    },
    {
      "id": "pt.ine.add.PTCONT.436931",
      "street": "",
      "house": "",
      "postcode": "7630-590",
      "city": "SÃO TEOTÓNIO",
      "lon": "-8.68421761722903",
      "lat": "37.42034659208795"
    },
    {
      "id": "pt.ine.add.PTCONT.439633",
      "street": "",
      "house": "",
      "postcode": "7630-590",
      "city": "SÃO TEOTÓNIO",
      "lon": "-8.693243922497652",
      "lat": "37.426431012101126"
    },
    {
      "id": "pt.ine.add.PTCONT.439722",
      "street": "MTE OLEIROS DE CIMA",
      "house": "",
      "postcode": "7630-590",
      "city": "SÃO TEOTÓNIO",
      "lon": "-8.699272353230775",
      "lat": "37.44832372264328"
    },
    {
      "id": "pt.ine.add.PTCONT.440486",
      "street": "MTE VALE TRÁS DA PALMEIRA",
      "house": "",
      "postcode": "7630-590",
      "city": "SÃO TEOTÓNIO",
      "lon": "-8.666024491259952",
      "lat": "37.421204872746294"
    },
    {
      "id": "pt.ine.add.PTCONT.440580",
      "street": "MTE VALE TRÁS DA PALMEIRA",
      "house": "",
      "postcode": "7630-590",
      "city": "SÃO TEOTÓNIO",
      "lon": "-8.666024491259952",
      "lat": "37.421204872746294"
    },
    {
      "id": "pt.ine.add.PTCONT.442867",
      "street": "MTE COREL DOS TOJOS PONTALAO",
      "house": "",
      "postcode": "7630-590",
      "city": "SÃO TEOTÓNIO",
      "lon": "-8.668782277937265",
      "lat": "37.41821908211178"
    },
    {
      "id": "pt.ine.add.PTCONT.444474",
      "street": "MTE CORGO DA BARREIRA",
      "house": "",
      "postcode": "7630-590",
      "city": "SÃO TEOTÓNIO",
      "lon": "-8.691858079888771",
      "lat": "37.42541943383946"
    },
    {
      "id": "pt.ine.add.PTCONT.454980",
      "street": "MTE CASARÕES",
      "house": "",
      "postcode": "7630-590",
      "city": "SÃO TEOTÓNIO",
      "lon": "-8.701806153731109",
      "lat": "37.4441579351287"
    },
    {
      "id": "pt.ine.add.PTCONT.455806",
      "street": "MTE FONTE DO COURCHO",
      "house": "",
      "postcode": "7630-590",
      "city": "SÃO TEOTÓNIO",
      "lon": "-8.662843823194768",
      "lat": "37.43635608345869"
    }
  ]
}