{
  "data": {
    "distrito": "Beja",
    "concelho": "Odemira",
    "freguesia": "São Teotónio",
    "OBJECTID": 790,
    "BGRI2021": "02112100510",
    "DT21": "02",
    "DTMN21": "0211",
    "DTMNFR21": "021121",
    "DTMNFRSEC21": "021121005",
    "SECNUM21": "005",
    "SSNUM21": "10",
    "SECSSNUM21": "00510",
    "OBJECTID_1": 17638,
    "DT": "02",
    "CC": "11",
    "fr": "21",
    "SEC": "005",
    "SS": "10"
  },
  "addresses": [
    {
      "id": "pt.ine.add.PTCONT.353750",
      "street": "MTE ROUXINOL",
      "house": "",
      "postcode": "7630-590",
      "city": "SÃO TEOTÓNIO",
      "lon": "-8.65864550701766",
      "lat": "37.44515061517096"
    },
    {
      "id": "pt.ine.add.PTCONT.361965",
      "street": "CORGA DA COLMEIA",
      "house": "",
      "postcode": "7630-590",
      "city": "SÃO TEOTÓNIO",
      "lon": "-8.653718668941426",
      "lat": "37.448443066174775"
    },
    {
      "id": "pt.ine.add.PTCONT.363508",
      "street": "MTE NOVO - CAEIRO",
      "house": "",
      "postcode": "7630-590",
      "city": "SÃO TEOTÓNIO",
      "lon": "-8.65272325079706",
      "lat": "37.4450416497484"
    },
    {
      "id": "pt.ine.add.PTCONT.367627",
      "street": "CHOUÇA DOS VALES",
      "house": "",
      "postcode": "7630-590",
      "city": "SÃO TEOTÓNIO",
      "lon": "-8.657803326435552",
      "lat": "37.441063794857655"
    },
    {
      "id": "pt.ine.add.PTCONT.409623",
      "street": "",
      "house": "",
      "postcode": "7630-590",
      "city": "SÃO TEOTÓNIO",
      "lon": "-8.645939978112244",
      "lat": "37.44461176479696"
    },
    {
      "id": "pt.ine.add.PTCONT.372415",
      "street": "CORGA DA COLMEIA",
      "house": "",
      "postcode": "7630-590",
      "city": "SÃO TEOTÓNIO",
      "lon": "-8.65304143579864",
      "lat": "37.44856317800205"
    },
    {
      "id": "pt.ine.add.PTCONT.379630",
      "street": "MOITA VELHA",
      "house": "",
      "postcode": "7630-578",
      "city": "SÃO TEOTÓNIO",
      "lon": "-8.670117843519568",
      "lat": "37.46443456243036"
    },
    {
      "id": "pt.ine.add.PTCONT.379631",
      "street": "MOITA VELHA",
      "house": "",
      "postcode": "7630-578",
      "city": "SÃO TEOTÓNIO",
      "lon": "-8.670117843519568",
      "lat": "37.46443456243036"
    },
    {
      "id": "pt.ine.add.PTCONT.380476",
      "street": "MESINHA DO MONTE NOVO",
      "house": "",
      "postcode": "7630-590",
      "city": "SÃO TEOTÓNIO",
      "lon": "-8.660048683022174",
      "lat": "37.44381088075598"
    },
    {
      "id": "pt.ine.add.PTCONT.381286",
      "street": "MTE NOVO - CAEIRO",
      "house": "",
      "postcode": "7630-590",
      "city": "SÃO TEOTÓNIO",
      "lon": "-8.6515922961404",
      "lat": "37.44491146579436"
    },
    {
      "id": "pt.ine.add.PTCONT.381392",
      "street": "ARRIFANA",
      "house": "",
      "postcode": "7630-590",
      "city": "SÃO TEOTÓNIO",
      "lon": "-8.648806492932815",
      "lat": "37.44240984961884"
    },
    {
      "id": "pt.ine.add.PTCONT.383793",
      "street": "VALE TEJUSO",
      "house": "",
      "postcode": "7630-590",
      "city": "SÃO TEOTÓNIO",
      "lon": "-8.650144924288993",
      "lat": "37.446422484334825"
    },
    {
      "id": "pt.ine.add.PTCONT.384648",
      "street": "MESA DALTA",
      "house": "",
      "postcode": "7630-590",
      "city": "SÃO TEOTÓNIO",
      "lon": "-8.667844686262594",
      "lat": "37.44839801680711"
    },
    {
      "id": "pt.ine.add.PTCONT.387747",
      "street": "MOITE DE CIMA",
      "house": "",
      "postcode": "7630-578",
      "city": "SÃO TEOTÓNIO",
      "lon": "-8.663081629639171",
      "lat": "37.46206065433642"
    },
    {
      "id": "pt.ine.add.PTCONT.390169",
      "street": "CHOUÇA DOS VALES",
      "house": "",
      "postcode": "7630-590",
      "city": "SÃO TEOTÓNIO",
      "lon": "-8.656425903034183",
      "lat": "37.4412320825197"
    },
    {
      "id": "pt.ine.add.PTCONT.397499",
      "street": "ARRIFANA",
      "house": "",
      "postcode": "7630-590",
      "city": "SÃO TEOTÓNIO",
      "lon": "-8.648972155405442",
      "lat": "37.441850503365934"
    },
    {
      "id": "pt.ine.add.PTCONT.399042",
      "street": "MTE NOVO - CAEIRO",
      "house": "",
      "postcode": "7630-590",
      "city": "SÃO TEOTÓNIO",
      "lon": "-8.652237403608675",
      "lat": "37.44505279479837"
    },
    {
      "id": "pt.ine.add.PTCONT.399859",
      "street": "MTE NOVO",
      "house": "",
      "postcode": "7630-590",
      "city": "SÃO TEOTÓNIO",
      "lon": "-8.660575377731055",
      "lat": "37.43996124023175"
    },
    {
      "id": "pt.ine.add.PTCONT.406387",
      "street": "CHOUÇA DOS VALES",
      "house": "",
      "postcode": "7630-590",
      "city": "SÃO TEOTÓNIO",
      "lon": "-8.65618861060074",
      "lat": "37.441233132921795"
    },
    {
      "id": "pt.ine.add.PTCONT.414452",
      "street": "MESA DALTA",
      "house": "",
      "postcode": "7630-590",
      "city": "SÃO TEOTÓNIO",
      "lon": "-8.665650299816294",
      "lat": "37.4449300494483"
    },
    {
      "id": "pt.ine.add.PTCONT.415180",
      "street": "MTE NOVO DO CORVO",
      "house": "",
      "postcode": "7630-590",
      "city": "SÃO TEOTÓNIO",
      "lon": "-8.65893727374304",
      "lat": "37.44001358947024"
    },
    {
      "id": "pt.ine.add.PTCONT.415181",
      "street": "CASA NOVINHA",
      "house": "",
      "postcode": "7630-590",
      "city": "SÃO TEOTÓNIO",
      "lon": "-8.650639863494744",
      "lat": "37.44116745872192"
    },
    {
      "id": "pt.ine.add.PTCONT.415305",
      "street": "CASA NOVINHA",
      "house": "",
      "postcode": "7630-590",
      "city": "SÃO TEOTÓNIO",
      "lon": "-8.650639863494744",
      "lat": "37.44116745872192"
    },
    {
      "id": "pt.ine.add.PTCONT.416045",
      "street": "MTE ROUXINOL",
      "house": "",
      "postcode": "7630-590",
      "city": "SÃO TEOTÓNIO",
      "lon": "-8.65784044860992",
      "lat": "37.44637955824682"
    },
    {
      "id": "pt.ine.add.PTCONT.416046",
      "street": "MTE NOVO DO ROUXINOL",
      "house": "",
      "postcode": "7630-590",
      "city": "SÃO TEOTÓNIO",
      "lon": "-8.655637662805663",
      "lat": "37.443253821308886"
    },
    {
      "id": "pt.ine.add.PTCONT.416047",
      "street": "MOITA VELHA",
      "house": "",
      "postcode": "7630-578",
      "city": "SÃO TEOTÓNIO",
      "lon": "-8.670662650287765",
      "lat": "37.464747435721485"
    },
    {
      "id": "pt.ine.add.PTCONT.419231",
      "street": "MTE NOVO DO ROUXINOL",
      "house": "",
      "postcode": "7630-590",
      "city": "SÃO TEOTÓNIO",
      "lon": "-8.655217311035045",
      "lat": "37.44293131715996"
    },
    {
      "id": "pt.ine.add.PTCONT.419234",
      "street": "VALE TEJUSO",
      "house": "",
      "postcode": "7630-590",
      "city": "SÃO TEOTÓNIO",
      "lon": "-8.652374969588568",
      "lat": "37.44697133035945"
    },
    {
      "id": "pt.ine.add.PTCONT.420830",
      "street": "VALE TEJUSO NOVO",
      "house": "",
      "postcode": "7630-590",
      "city": "SÃO TEOTÓNIO",
      "lon": "-8.649316987709227",
      "lat": "37.44763344955713"
    },
    {
      "id": "pt.ine.add.PTCONT.422460",
      "street": "VALE TEJUSO NOVO",
      "house": "",
      "postcode": "7630-590",
      "city": "SÃO TEOTÓNIO",
      "lon": "-8.649634581890336",
      "lat": "37.447803252816456"
    },
    {
      "id": "pt.ine.add.PTCONT.426378",
      "street": "BARREIRINHAS VELHAS",
      "house": "",
      "postcode": "7630-590",
      "city": "SÃO TEOTÓNIO",
      "lon": "-8.658041092535834",
      "lat": "37.43951301001147"
    },
    {
      "id": "pt.ine.add.PTCONT.427251",
      "street": "CHOUÇA DOS VALES",
      "house": "",
      "postcode": "7630-590",
      "city": "SÃO TEOTÓNIO",
      "lon": "-8.656019241392219",
      "lat": "37.441251902467044"
    },
    {
      "id": "pt.ine.add.PTCONT.428978",
      "street": "MTE NOVO - CAEIRO",
      "house": "",
      "postcode": "7630-590",
      "city": "SÃO TEOTÓNIO",
      "lon": "-8.65217047370038",
      "lat": "37.44517922942728"
    },
    {
      "id": "pt.ine.add.PTCONT.429656",
      "street": "FLÔR DA MOITA",
      "house": "",
      "postcode": "7630-578",
      "city": "SÃO TEOTÓNIO",
      "lon": "-8.672150154980706",
      "lat": "37.46568671061242"
    },
    {
      "id": "pt.ine.add.PTCONT.436394",
      "street": "MTE NOVO DA RELVA GRANDE",
      "house": "",
      "postcode": "7630-590",
      "city": "SÃO TEOTÓNIO",
      "lon": "-8.660254028356682",
      "lat": "37.44247647800505"
    },
    {
      "id": "pt.ine.add.PTCONT.439032",
      "street": "MOITA VELHA",
      "house": "",
      "postcode": "7630-578",
      "city": "SÃO TEOTÓNIO",
      "lon": "-8.67078627520529",
      "lat": "37.46464776315675"
    },
    {
      "id": "pt.ine.add.PTCONT.439707",
      "street": "MTE NOVO",
      "house": "",
      "postcode": "7630-590",
      "city": "SÃO TEOTÓNIO",
      "lon": "-8.660124600622739",
      "lat": "37.4401344420408"
    },
    {
      "id": "pt.ine.add.PTCONT.439709",
      "street": "",
      "house": "",
      "postcode": "7630-590",
      "city": "SÃO TEOTÓNIO",
      "lon": "-8.646167827145254",
      "lat": "37.44488107745123"
    },
    {
      "id": "pt.ine.add.PTCONT.447687",
      "street": "MOITA VELHA",
      "house": "",
      "postcode": "7630-578",
      "city": "SÃO TEOTÓNIO",
      "lon": "-8.670924300779603",
      "lat": "37.46498050544357"
    },
    {
      "id": "pt.ine.add.PTCONT.450936",
      "street": "MTE DO ENGANO",
      "house": "",
      "postcode": "7630-590",
      "city": "SÃO TEOTÓNIO",
      "lon": "-8.652267538516805",
      "lat": "37.4526841680746"
    },
    {
      "id": "pt.ine.add.PTCONT.454277",
      "street": "",
      "house": "",
      "postcode": "7630-590",
      "city": "SÃO TEOTÓNIO",
      "lon": "-8.646166023050743",
      "lat": "37.44296194423749"
    }
  ]
}