{
  "data": {
    "distrito": "Beja",
    "concelho": "Odemira",
    "freguesia": "São Teotónio",
    "OBJECTID": 1117,
    "BGRI2021": "02112100526",
    "DT21": "02",
    "DTMN21": "0211",
    "DTMNFR21": "021121",
    "DTMNFRSEC21": "021121005",
    "SECNUM21": "005",
    "SSNUM21": "26",
    "SECSSNUM21": "00526",
    "OBJECTID_1": 17938,
    "DT": "02",
    "CC": "11",
    "fr": "21",
    "SEC": "005",
    "SS": "26"
  },
  "addresses": [
    {
      "id": "pt.ine.add.PTCONT.457076",
      "street": "",
      "house": "",
      "postcode": "7630-568",
      "city": "SÃO TEOTÓNIO",
      "lon": "-8.654854797409424",
      "lat": "37.49972299250117"
    },
    {
      "id": "pt.ine.add.PTCONT.458159",
      "street": "",
      "house": "",
      "postcode": "7630-568",
      "city": "SÃO TEOTÓNIO",
      "lon": "-8.654240947657696",
      "lat": "37.49926619391562"
    },
    {
      "id": "pt.ine.add.PTCONT.353875",
      "street": "CM 1187",
      "house": "",
      "postcode": "7630-568",
      "city": "SÃO TEOTÓNIO",
      "lon": "-8.654004973702412",
      "lat": "37.499483473836996"
    },
    {
      "id": "pt.ine.add.PTCONT.354310",
      "street": "",
      "house": "",
      "postcode": "7630-577",
      "city": "SÃO TEOTÓNIO",
      "lon": "-8.662134975402562",
      "lat": "37.4768953678027"
    },
    {
      "id": "pt.ine.add.PTCONT.356115",
      "street": "MTE NOVO",
      "house": "",
      "postcode": "7630-590",
      "city": "SÃO TEOTÓNIO",
      "lon": "-8.665730465996306",
      "lat": "37.4833213572105"
    },
    {
      "id": "pt.ine.add.PTCONT.358739",
      "street": "",
      "house": "",
      "postcode": "7630-568",
      "city": "SÃO TEOTÓNIO",
      "lon": "-8.655640479891412",
      "lat": "37.500494376577244"
    },
    {
      "id": "pt.ine.add.PTCONT.361032",
      "street": "ASSOREIRO",
      "house": "",
      "postcode": "7630-733",
      "city": "ZAMBUJEIRA DO MAR",
      "lon": "-8.658031569332795",
      "lat": "37.50119556255075"
    },
    {
      "id": "pt.ine.add.PTCONT.361111",
      "street": "CM 1187",
      "house": "",
      "postcode": "7630-568",
      "city": "SÃO TEOTÓNIO",
      "lon": "-8.653947993562477",
      "lat": "37.499420655324826"
    },
    {
      "id": "pt.ine.add.PTCONT.365901",
      "street": "",
      "house": "",
      "postcode": "7630-577",
      "city": "SÃO TEOTÓNIO",
      "lon": "-8.667102798299362",
      "lat": "37.48482820997991"
    },
    {
      "id": "pt.ine.add.PTCONT.368409",
      "street": "MTE VALE D AGUA DE CIMA",
      "house": "",
      "postcode": "7630-638",
      "city": "SÃO TEOTÓNIO",
      "lon": "-8.665025860761713",
      "lat": "37.49237955959594"
    },
    {
      "id": "pt.ine.add.PTCONT.373084",
      "street": "MTE PINHEIRO",
      "house": "",
      "postcode": "7630-577",
      "city": "SÃO TEOTÓNIO",
      "lon": "-8.657341819792252",
      "lat": "37.47532196168916"
    },
    {
      "id": "pt.ine.add.PTCONT.373330",
      "street": "MTE DO PINHEIRO",
      "house": "",
      "postcode": "7630-577",
      "city": "SÃO TEOTÓNIO",
      "lon": "-8.657702123905356",
      "lat": "37.47511313254985"
    },
    {
      "id": "pt.ine.add.PTCONT.376663",
      "street": "MTE DO PINHEIRO",
      "house": "",
      "postcode": "7630-577",
      "city": "SÃO TEOTÓNIO",
      "lon": "-8.65750887319474",
      "lat": "37.47496082038164"
    },
    {
      "id": "pt.ine.add.PTCONT.378150",
      "street": "",
      "house": "",
      "postcode": "7630-577",
      "city": "SÃO TEOTÓNIO",
      "lon": "-8.654115253204132",
      "lat": "37.47302967240682"
    },
    {
      "id": "pt.ine.add.PTCONT.378868",
      "street": "MTE NOVO",
      "house": "",
      "postcode": "7630-638",
      "city": "SÃO TEOTÓNIO",
      "lon": "-8.667768919860482",
      "lat": "37.49013270402153"
    },
    {
      "id": "pt.ine.add.PTCONT.390974",
      "street": "",
      "house": "",
      "postcode": "7630-568",
      "city": "SÃO TEOTÓNIO",
      "lon": "-8.655652416330394",
      "lat": "37.50058442340168"
    },
    {
      "id": "pt.ine.add.PTCONT.392574",
      "street": "",
      "house": "",
      "postcode": "7630-568",
      "city": "SÃO TEOTÓNIO",
      "lon": "-8.654933204171332",
      "lat": "37.49961452660554"
    },
    {
      "id": "pt.ine.add.PTCONT.396593",
      "street": "",
      "house": "",
      "postcode": "7630-577",
      "city": "SÃO TEOTÓNIO",
      "lon": "-8.65891797962571",
      "lat": "37.47599971803343"
    },
    {
      "id": "pt.ine.add.PTCONT.408044",
      "street": "",
      "house": "",
      "postcode": "7630-577",
      "city": "SÃO TEOTÓNIO",
      "lon": "-8.659138709233126",
      "lat": "37.47523288563868"
    },
    {
      "id": "pt.ine.add.PTCONT.415209",
      "street": "",
      "house": "",
      "postcode": "7630-577",
      "city": "SÃO TEOTÓNIO",
      "lon": "-8.659447539117869",
      "lat": "37.47574508027544"
    },
    {
      "id": "pt.ine.add.PTCONT.415307",
      "street": "MTE NOVO",
      "house": "",
      "postcode": "7630-638",
      "city": "SÃO TEOTÓNIO",
      "lon": "-8.667836312154032",
      "lat": "37.49006932919283"
    },
    {
      "id": "pt.ine.add.PTCONT.427977",
      "street": "MTE VALE D AGUA DE CIMA",
      "house": "",
      "postcode": "7630-638",
      "city": "SÃO TEOTÓNIO",
      "lon": "-8.66341674846448",
      "lat": "37.49349502013965"
    },
    {
      "id": "pt.ine.add.PTCONT.428015",
      "street": "",
      "house": "",
      "postcode": "7630-568",
      "city": "SÃO TEOTÓNIO",
      "lon": "-8.654943948303718",
      "lat": "37.49953338946633"
    },
    {
      "id": "pt.ine.add.PTCONT.434630",
      "street": "CM 1187",
      "house": "",
      "postcode": "7630-568",
      "city": "SÃO TEOTÓNIO",
      "lon": "-8.654152734362363",
      "lat": "37.49959094176607"
    },
    {
      "id": "pt.ine.add.PTCONT.434635",
      "street": "CM 1187",
      "house": "",
      "postcode": "7630-568",
      "city": "SÃO TEOTÓNIO",
      "lon": "-8.654767463785145",
      "lat": "37.500173876382206"
    },
    {
      "id": "pt.ine.add.PTCONT.438948",
      "street": "PORTELA DAS SELADAS",
      "house": "",
      "postcode": "7630-578",
      "city": "SÃO TEOTÓNIO",
      "lon": "-8.662526836734255",
      "lat": "37.4763530128621"
    },
    {
      "id": "pt.ine.add.PTCONT.442029",
      "street": "MONTINHO DOS MEDRONHEIROS",
      "house": "",
      "postcode": "7630-568",
      "city": "SÃO TEOTÓNIO",
      "lon": "-8.65671955887042",
      "lat": "37.49955256230871"
    },
    {
      "id": "pt.ine.add.PTCONT.449406",
      "street": "MTE DO PINHEIRO",
      "house": "",
      "postcode": "7630-577",
      "city": "SÃO TEOTÓNIO",
      "lon": "-8.657892666450293",
      "lat": "37.4748780264133"
    },
    {
      "id": "pt.ine.add.PTCONT.451025",
      "street": "",
      "house": "",
      "postcode": "7630-578",
      "city": "SÃO TEOTÓNIO",
      "lon": "-8.65534461481345",
      "lat": "37.472618795092544"
    },
    {
      "id": "pt.ine.add.PTCONT.454210",
      "street": "CASA NOVA DA CRUZ",
      "house": "",
      "postcode": "7630-568",
      "city": "SÃO TEOTÓNIO",
      "lon": "-8.65799758026229",
      "lat": "37.50118670362164"
    }
  ]
}