{
  "data": {
    "distrito": "Vila Real",
    "concelho": "Peso da RÃ©gua",
    "freguesia": "Vilarinho dos Freires",
    "OBJECTID": 121,
    "BGRI2021": "17081000107",
    "DT21": "17",
    "DTMN21": "1708",
    "DTMNFR21": "170810",
    "DTMNFRSEC21": "170810001",
    "SECNUM21": "001",
    "SSNUM21": "07",
    "SECSSNUM21": "00107",
    "OBJECTID_1": 184304,
    "DT": "17",
    "CC": "08",
    "fr": "10",
    "SEC": "001",
    "SS": "07"
  },
  "addresses": [
    {
      "id": "pt.ine.add.PTCONT.5312822",
      "street": "R VALE",
      "house": "153",
      "postcode": "5050-366",
      "city": "VILARINHO DOS FREIRES",
      "lon": "-7.747493397091184",
      "lat": "41.17063800965229"
    },
    {
      "id": "pt.ine.add.PTCONT.5316770",
      "street": "R FUNDO DO POVO",
      "house": "17",
      "postcode": "5050-366",
      "city": "VILARINHO DOS FREIRES",
      "lon": "-7.74789311377724",
      "lat": "41.17156679418949"
    },
    {
      "id": "pt.ine.add.PTCONT.5325475",
      "street": "R FUNDO DO POVO",
      "house": "15",
      "postcode": "5050-366",
      "city": "VILARINHO DOS FREIRES",
      "lon": "-7.747812178979485",
      "lat": "41.17114331951788"
    },
    {
      "id": "pt.ine.add.PTCONT.5355877",
      "street": "R FUNDO DO POVO",
      "house": "16",
      "postcode": "5050-366",
      "city": "VILARINHO DOS FREIRES",
      "lon": "-7.747979006354391",
      "lat": "41.1711438774569"
    },
    {
      "id": "pt.ine.add.PTCONT.5366806",
      "street": "R LAPA",
      "house": "75",
      "postcode": "5050-366",
      "city": "VILARINHO DOS FREIRES",
      "lon": "-7.7490398674291265",
      "lat": "41.17109339371577"
    },
    {
      "id": "pt.ine.add.PTCONT.5375335",
      "street": "LG EIRO",
      "house": "47",
      "postcode": "5050-366",
      "city": "VILARINHO DOS FREIRES",
      "lon": "-7.747718537560199",
      "lat": "41.17085486735177"
    },
    {
      "id": "pt.ine.add.PTCONT.5375336",
      "street": "LG EIRO",
      "house": "47",
      "postcode": "5050-366",
      "city": "VILARINHO DOS FREIRES",
      "lon": "-7.747718537560199",
      "lat": "41.17085486735177"
    },
    {
      "id": "pt.ine.add.PTCONT.5384996",
      "street": "R VALE",
      "house": "173",
      "postcode": "5050-366",
      "city": "VILARINHO DOS FREIRES",
      "lon": "-7.747563838258211",
      "lat": "41.1708183322714"
    },
    {
      "id": "pt.ine.add.PTCONT.5393658",
      "street": "LG EIRO",
      "house": "36",
      "postcode": "5050-366",
      "city": "VILARINHO DOS FREIRES",
      "lon": "-7.74762283860276",
      "lat": "41.17091757749106"
    },
    {
      "id": "pt.ine.add.PTCONT.5393659",
      "street": "LG EIRO",
      "house": "29",
      "postcode": "5050-366",
      "city": "VILARINHO DOS FREIRES",
      "lon": "-7.747705618792561",
      "lat": "41.171025906590245"
    },
    {
      "id": "pt.ine.add.PTCONT.5397771",
      "street": "R FUNDO DO POVO",
      "house": "3",
      "postcode": "5050-366",
      "city": "VILARINHO DOS FREIRES",
      "lon": "-7.747764830573883",
      "lat": "41.17108913508151"
    }
  ]
}