{
  "data": {
    "distrito": "Porto",
    "concelho": "Lousada",
    "freguesia": "União das freguesias de Silvares, Pias, Nogueira e Alvarenga",
    "OBJECTID": 208,
    "BGRI2021": "13053200308",
    "DT21": "13",
    "DTMN21": "1305",
    "DTMNFR21": "130532",
    "DTMNFRSEC21": "130532003",
    "SECNUM21": "003",
    "SSNUM21": "08",
    "SECSSNUM21": "00308",
    "OBJECTID_1": 129862,
    "DT": "13",
    "CC": "05",
    "fr": "32",
    "SEC": "003",
    "SS": "08"
  },
  "addresses": [
    {
      "id": "pt.ine.add.PTCONT.3667749",
      "street": "R SANTO ANTÓNIO",
      "house": "",
      "postcode": "4620-651",
      "city": "LOUSADA",
      "lon": "-8.278359546447978",
      "lat": "41.279333307712555"
    },
    {
      "id": "pt.ine.add.PTCONT.3708769",
      "street": "ESTR PONTERRINHAS",
      "house": "124",
      "postcode": "4620-675",
      "city": "LOUSADA",
      "lon": "-8.277395873010294",
      "lat": "41.280766186182866"
    },
    {
      "id": "pt.ine.add.PTCONT.3708770",
      "street": "ESTR PONTERRINHAS",
      "house": "124",
      "postcode": "4620-675",
      "city": "LOUSADA",
      "lon": "-8.277395873010294",
      "lat": "41.280766186182866"
    },
    {
      "id": "pt.ine.add.PTCONT.3708771",
      "street": "ESTR PONTERRINHAS",
      "house": "124",
      "postcode": "4620-675",
      "city": "LOUSADA",
      "lon": "-8.277395873010294",
      "lat": "41.280766186182866"
    },
    {
      "id": "pt.ine.add.PTCONT.3708772",
      "street": "ESTR PONTERRINHAS",
      "house": "124",
      "postcode": "4620-675",
      "city": "LOUSADA",
      "lon": "-8.277395873010294",
      "lat": "41.280766186182866"
    },
    {
      "id": "pt.ine.add.PTCONT.3708773",
      "street": "ESTR PONTERRINHAS",
      "house": "124",
      "postcode": "4620-675",
      "city": "LOUSADA",
      "lon": "-8.277395873010294",
      "lat": "41.280766186182866"
    },
    {
      "id": "pt.ine.add.PTCONT.3708774",
      "street": "ESTR PONTERRINHAS",
      "house": "124",
      "postcode": "4620-675",
      "city": "LOUSADA",
      "lon": "-8.277395873010294",
      "lat": "41.280766186182866"
    },
    {
      "id": "pt.ine.add.PTCONT.3708775",
      "street": "ESTR PONTERRINHAS",
      "house": "124",
      "postcode": "4620-675",
      "city": "LOUSADA",
      "lon": "-8.277395873010294",
      "lat": "41.280766186182866"
    },
    {
      "id": "pt.ine.add.PTCONT.3708776",
      "street": "ESTR PONTERRINHAS",
      "house": "124",
      "postcode": "4620-675",
      "city": "LOUSADA",
      "lon": "-8.277395873010294",
      "lat": "41.280766186182866"
    },
    {
      "id": "pt.ine.add.PTCONT.3708777",
      "street": "ESTR PONTERRINHAS",
      "house": "124",
      "postcode": "4620-675",
      "city": "LOUSADA",
      "lon": "-8.277395873010294",
      "lat": "41.280766186182866"
    },
    {
      "id": "pt.ine.add.PTCONT.3708778",
      "street": "ESTR PONTERRINHAS",
      "house": "124",
      "postcode": "4620-675",
      "city": "LOUSADA",
      "lon": "-8.277395873010294",
      "lat": "41.280766186182866"
    },
    {
      "id": "pt.ine.add.PTCONT.3708779",
      "street": "ESTR PONTERRINHAS",
      "house": "124",
      "postcode": "4620-675",
      "city": "LOUSADA",
      "lon": "-8.277395873010294",
      "lat": "41.280766186182866"
    },
    {
      "id": "pt.ine.add.PTCONT.3810621",
      "street": "R SANTO ANTÓNIO",
      "house": "905",
      "postcode": "4620-651",
      "city": "LOUSADA",
      "lon": "-8.277479011046857",
      "lat": "41.28057699392558"
    },
    {
      "id": "pt.ine.add.PTCONT.3810622",
      "street": "R SANTO ANTÓNIO",
      "house": "905",
      "postcode": "4620-651",
      "city": "LOUSADA",
      "lon": "-8.277479011046857",
      "lat": "41.28057699392558"
    },
    {
      "id": "pt.ine.add.PTCONT.3810623",
      "street": "R SANTO ANTÓNIO",
      "house": "905",
      "postcode": "4620-651",
      "city": "LOUSADA",
      "lon": "-8.277479011046857",
      "lat": "41.28057699392558"
    },
    {
      "id": "pt.ine.add.PTCONT.3810624",
      "street": "R SANTO ANTÓNIO",
      "house": "905",
      "postcode": "4620-651",
      "city": "LOUSADA",
      "lon": "-8.277479011046857",
      "lat": "41.28057699392558"
    },
    {
      "id": "pt.ine.add.PTCONT.3810625",
      "street": "R SANTO ANTÓNIO",
      "house": "905",
      "postcode": "4620-651",
      "city": "LOUSADA",
      "lon": "-8.277479011046857",
      "lat": "41.28057699392558"
    },
    {
      "id": "pt.ine.add.PTCONT.3810626",
      "street": "R SANTO ANTÓNIO",
      "house": "905",
      "postcode": "4620-651",
      "city": "LOUSADA",
      "lon": "-8.277479011046857",
      "lat": "41.28057699392558"
    },
    {
      "id": "pt.ine.add.PTCONT.3810627",
      "street": "R SANTO ANTÓNIO",
      "house": "905",
      "postcode": "4620-651",
      "city": "LOUSADA",
      "lon": "-8.277479011046857",
      "lat": "41.28057699392558"
    },
    {
      "id": "pt.ine.add.PTCONT.3810652",
      "street": "R SANTO ANTÓNIO",
      "house": "905",
      "postcode": "4620-651",
      "city": "LOUSADA",
      "lon": "-8.277479011046857",
      "lat": "41.28057699392558"
    },
    {
      "id": "pt.ine.add.PTCONT.3822781",
      "street": "AV MAJOR ARROCHELA LOBO",
      "house": "157",
      "postcode": "4620-697",
      "city": "LOUSADA",
      "lon": "-8.278767136559813",
      "lat": "41.2801251617597"
    },
    {
      "id": "pt.ine.add.PTCONT.3842536",
      "street": "R SANTO ANTÓNIO",
      "house": "657",
      "postcode": "4620-651",
      "city": "LOUSADA",
      "lon": "-8.279217983895315",
      "lat": "41.27890002012556"
    },
    {
      "id": "pt.ine.add.PTCONT.3857079",
      "street": "AV MAJOR ARROCHELA LOBO",
      "house": "38",
      "postcode": "4620-697",
      "city": "LOUSADA",
      "lon": "-8.27903940443",
      "lat": "41.27910734309814"
    },
    {
      "id": "pt.ine.add.PTCONT.3857080",
      "street": "AV MAJOR ARROCHELA LOBO",
      "house": "38",
      "postcode": "4620-697",
      "city": "LOUSADA",
      "lon": "-8.27903940443",
      "lat": "41.27910734309814"
    },
    {
      "id": "pt.ine.add.PTCONT.3857081",
      "street": "AV MAJOR ARROCHELA LOBO",
      "house": "38",
      "postcode": "4620-697",
      "city": "LOUSADA",
      "lon": "-8.27903940443",
      "lat": "41.27910734309814"
    },
    {
      "id": "pt.ine.add.PTCONT.3857082",
      "street": "AV MAJOR ARROCHELA LOBO",
      "house": "38",
      "postcode": "4620-697",
      "city": "LOUSADA",
      "lon": "-8.27903940443",
      "lat": "41.27910734309814"
    },
    {
      "id": "pt.ine.add.PTCONT.3857083",
      "street": "AV MAJOR ARROCHELA LOBO",
      "house": "38",
      "postcode": "4620-697",
      "city": "LOUSADA",
      "lon": "-8.27903940443",
      "lat": "41.27910734309814"
    },
    {
      "id": "pt.ine.add.PTCONT.3861459",
      "street": "AV MAJOR ARROCHELA LOBO",
      "house": "38",
      "postcode": "4620-697",
      "city": "LOUSADA",
      "lon": "-8.27903940443",
      "lat": "41.27910734309814"
    },
    {
      "id": "pt.ine.add.PTCONT.3906670",
      "street": "AV MAJOR ARROCHELA LOBO",
      "house": "157",
      "postcode": "4620-697",
      "city": "LOUSADA",
      "lon": "-8.278183256097126",
      "lat": "41.2805761086302"
    },
    {
      "id": "pt.ine.add.PTCONT.4055733",
      "street": "R SANTO ANTÓNIO",
      "house": "669",
      "postcode": "4620-651",
      "city": "LOUSADA",
      "lon": "-8.278919642747002",
      "lat": "41.27892741095387"
    },
    {
      "id": "pt.ine.add.PTCONT.4188659",
      "street": "AV MAJOR ARROCHELA LOBO",
      "house": "",
      "postcode": "4620-697",
      "city": "LOUSADA",
      "lon": "-8.278170322846194",
      "lat": "41.28012591530866"
    },
    {
      "id": "pt.ine.add.PTCONT.4282838",
      "street": "R ENG AMARO DA COSTA",
      "house": "232",
      "postcode": "4620-656",
      "city": "LOUSADA",
      "lon": "-8.279433918774966",
      "lat": "41.27938597236229"
    },
    {
      "id": "pt.ine.add.PTCONT.4282839",
      "street": "R ENG AMARO DA COSTA",
      "house": "232",
      "postcode": "4620-656",
      "city": "LOUSADA",
      "lon": "-8.279433918774966",
      "lat": "41.27938597236229"
    },
    {
      "id": "pt.ine.add.PTCONT.4299148",
      "street": "R SANTO ANTÓNIO",
      "house": "713",
      "postcode": "4620-651",
      "city": "LOUSADA",
      "lon": "-8.278609825223706",
      "lat": "41.279161911984474"
    },
    {
      "id": "pt.ine.add.PTCONT.4376549",
      "street": "AV MAJOR ARROCHELA LOBO",
      "house": "29",
      "postcode": "4620-697",
      "city": "LOUSADA",
      "lon": "-8.279314316252165",
      "lat": "41.27927807398802"
    }
  ]
}