{
  "data": {
    "distrito": "Setúbal",
    "concelho": "Montijo",
    "freguesia": "União das freguesias de Montijo e Afonsoeiro",
    "OBJECTID": 590,
    "BGRI2021": "15071001507",
    "DT21": "15",
    "DTMN21": "1507",
    "DTMNFR21": "150710",
    "DTMNFRSEC21": "150710015",
    "SECNUM21": "015",
    "SSNUM21": "07",
    "SECSSNUM21": "01507",
    "OBJECTID_1": 164595,
    "DT": "15",
    "CC": "07",
    "fr": "10",
    "SEC": "015",
    "SS": "07"
  },
  "addresses": [
    {
      "id": "pt.ine.add.PTCONT.4680696",
      "street": "R DO CICLO PREPARATÓRIO",
      "house": "358",
      "postcode": "2870-498",
      "city": "MONTIJO",
      "lon": "-8.98814519738192",
      "lat": "38.71557528106825"
    },
    {
      "id": "pt.ine.add.PTCONT.4682855",
      "street": "R CICLO PREPARATORIO",
      "house": "358",
      "postcode": "2870-081",
      "city": "MONTIJO",
      "lon": "-8.988029801672704",
      "lat": "38.715540093037326"
    },
    {
      "id": "pt.ine.add.PTCONT.4706197",
      "street": "R CICLO PREPARATORIO",
      "house": "530",
      "postcode": "2870-081",
      "city": "MONTIJO",
      "lon": "-8.986437373678687",
      "lat": "38.71505628786397"
    },
    {
      "id": "pt.ine.add.PTCONT.4711895",
      "street": "R CICLO PREPARATORIO",
      "house": "378",
      "postcode": "2870-081",
      "city": "MONTIJO",
      "lon": "-8.98793568273607",
      "lat": "38.715360621775076"
    },
    {
      "id": "pt.ine.add.PTCONT.4723288",
      "street": "R LAGOA BARRO",
      "house": "6",
      "postcode": "2870-081",
      "city": "MONTIJO",
      "lon": "-8.991425326119584",
      "lat": "38.71681236245458"
    },
    {
      "id": "pt.ine.add.PTCONT.4737803",
      "street": "AV FIALHO GOUVEIA",
      "house": "",
      "postcode": "2870-152",
      "city": "MONTIJO",
      "lon": "-8.985912517415013",
      "lat": "38.712492844302645"
    },
    {
      "id": "pt.ine.add.PTCONT.4739269",
      "street": "ESTR CIRCUNVALACAO JUNTO AO MODELO",
      "house": "",
      "postcode": "2870-152",
      "city": "MONTIJO",
      "lon": "-8.985912517415013",
      "lat": "38.712492844302645"
    },
    {
      "id": "pt.ine.add.PTCONT.4813003",
      "street": "R LAGOA DO BARRO",
      "house": "2",
      "postcode": "2870-081",
      "city": "MONTIJO",
      "lon": "-8.991601226828152",
      "lat": "38.71709932595044"
    },
    {
      "id": "pt.ine.add.PTCONT.4877644",
      "street": "R LAGOA DO BARRO",
      "house": "3",
      "postcode": "2870-081",
      "city": "MONTIJO",
      "lon": "-8.992249647660936",
      "lat": "38.716518052938824"
    },
    {
      "id": "pt.ine.add.PTCONT.4949214",
      "street": "ESTR VELHA DE SAMOUCO",
      "house": "",
      "postcode": "2870-081",
      "city": "MONTIJO",
      "lon": "-8.988922461853557",
      "lat": "38.71422740627811"
    },
    {
      "id": "pt.ine.add.PTCONT.4978384",
      "street": "R CICLO PREPARATORIO",
      "house": "30",
      "postcode": "2870-081",
      "city": "MONTIJO",
      "lon": "-8.98599061296881",
      "lat": "38.71519466733351"
    },
    {
      "id": "pt.ine.add.PTCONT.5050275",
      "street": "AV FIALHO GOUVEIA",
      "house": "",
      "postcode": "2870-152",
      "city": "MONTIJO",
      "lon": "-8.9859954523398",
      "lat": "38.712699422832614"
    },
    {
      "id": "pt.ine.add.PTCONT.5061304",
      "street": "R CICLO PREPARATORIO",
      "house": "528",
      "postcode": "2870-081",
      "city": "MONTIJO",
      "lon": "-8.986723395219476",
      "lat": "38.71493709630799"
    },
    {
      "id": "pt.ine.add.PTCONT.5064897",
      "street": "ESTR REAL",
      "house": "1",
      "postcode": "2870-491",
      "city": "MONTIJO",
      "lon": "-8.992291255469734",
      "lat": "38.71711227306017"
    },
    {
      "id": "pt.ine.add.PTCONT.5122513",
      "street": "R LAGOA DO BARRO",
      "house": "4",
      "postcode": "2870-081",
      "city": "MONTIJO",
      "lon": "-8.99155362305888",
      "lat": "38.71696455597019"
    }
  ]
}