{
  "data": {
    "distrito": "Viseu",
    "concelho": "Viseu",
    "freguesia": "União das freguesias de Boa Aldeia, Farminhão e Torredeita",
    "OBJECTID": 565,
    "BGRI2021": "18233600206",
    "DT21": "18",
    "DTMN21": "1823",
    "DTMNFR21": "182336",
    "DTMNFRSEC21": "182336002",
    "SECNUM21": "002",
    "SSNUM21": "06",
    "SECSSNUM21": "00206",
    "OBJECTID_1": 201191,
    "DT": "18",
    "CC": "23",
    "fr": "36",
    "SEC": "002",
    "SS": "06"
  },
  "addresses": [
    {
      "id": "pt.ine.add.PTCONT.5427514",
      "street": "R MORGADO DA TORRE",
      "house": "",
      "postcode": "3510-857",
      "city": "TORREDEITA",
      "lon": "-8.021653592668782",
      "lat": "40.64072193523197"
    },
    {
      "id": "pt.ine.add.PTCONT.5432041",
      "street": "R PINHEIRAS",
      "house": "18",
      "postcode": "3510-811",
      "city": "TORREDEITA",
      "lon": "-8.023453534187126",
      "lat": "40.6388595825087"
    },
    {
      "id": "pt.ine.add.PTCONT.5441435",
      "street": "R PINHEIRAS",
      "house": "10",
      "postcode": "3510-811",
      "city": "TORREDEITA",
      "lon": "-8.022790428209284",
      "lat": "40.63953434083983"
    },
    {
      "id": "pt.ine.add.PTCONT.5461372",
      "street": "R SENHORA DE MARCO",
      "house": "",
      "postcode": "3510-811",
      "city": "TORREDEITA",
      "lon": "-8.022872185815908",
      "lat": "40.640137767128266"
    },
    {
      "id": "pt.ine.add.PTCONT.5490216",
      "street": "R COMBATENTES DO ULTRAMAR",
      "house": "2",
      "postcode": "3510-850",
      "city": "TORREDEITA",
      "lon": "-8.02298899550038",
      "lat": "40.64099337220398"
    },
    {
      "id": "pt.ine.add.PTCONT.5493566",
      "street": "R PINHEIRAS",
      "house": "O8",
      "postcode": "3510-811",
      "city": "TORREDEITA",
      "lon": "-8.022648303706283",
      "lat": "40.63969629854206"
    },
    {
      "id": "pt.ine.add.PTCONT.5494097",
      "street": "R PINHEIRAS",
      "house": "8",
      "postcode": "3510-811",
      "city": "TORREDEITA",
      "lon": "-8.022648303706283",
      "lat": "40.63969629854206"
    },
    {
      "id": "pt.ine.add.PTCONT.5529849",
      "street": "R PINHEIRAS",
      "house": "16",
      "postcode": "3510-811",
      "city": "TORREDEITA",
      "lon": "-8.023287755255867",
      "lat": "40.6390305237536"
    },
    {
      "id": "pt.ine.add.PTCONT.5553238",
      "street": "TV PINHEIRAS",
      "house": "8",
      "postcode": "3510-811",
      "city": "TORREDEITA",
      "lon": "-8.0235235491536",
      "lat": "40.639417971268365"
    },
    {
      "id": "pt.ine.add.PTCONT.5583493",
      "street": "R PINHEIRAS",
      "house": "",
      "postcode": "3510-811",
      "city": "TORREDEITA",
      "lon": "-8.02296794226797",
      "lat": "40.63941744270524"
    },
    {
      "id": "pt.ine.add.PTCONT.5624613",
      "street": "R MORGADO DA TORRE",
      "house": "52",
      "postcode": "3510-857",
      "city": "TORREDEITA",
      "lon": "-8.02147601285464",
      "lat": "40.640874852036596"
    }
  ]
}