{
  "data": {
    "distrito": "Viana do Castelo",
    "concelho": "Arcos de Valdevez",
    "freguesia": "União das freguesias de Arcos de Valdevez (São Paio) e Giela",
    "OBJECTID": 755,
    "BGRI2021": "16015300102",
    "DT21": "16",
    "DTMN21": "1601",
    "DTMNFR21": "160153",
    "DTMNFRSEC21": "160153001",
    "SECNUM21": "001",
    "SSNUM21": "02",
    "SECSSNUM21": "00102",
    "OBJECTID_1": 172300,
    "DT": "16",
    "CC": "01",
    "fr": "53",
    "SEC": "001",
    "SS": "02"
  },
  "addresses": [
    {
      "id": "pt.ine.add.PTCONT.5152199",
      "street": "AV 5 DE OUTUBRO",
      "house": "6",
      "postcode": "4970-151",
      "city": "ARCOS DE VALDEVEZ",
      "lon": "-8.419727168500131",
      "lat": "41.83998339374382"
    },
    {
      "id": "pt.ine.add.PTCONT.5152200",
      "street": "AV 5 DE OUTUBRO",
      "house": "6",
      "postcode": "4970-151",
      "city": "ARCOS DE VALDEVEZ",
      "lon": "-8.419727168500131",
      "lat": "41.83998339374382"
    },
    {
      "id": "pt.ine.add.PTCONT.5152201",
      "street": "AV 5 DE OUTUBRO",
      "house": "6",
      "postcode": "4970-151",
      "city": "ARCOS DE VALDEVEZ",
      "lon": "-8.419727168500131",
      "lat": "41.83998339374382"
    },
    {
      "id": "pt.ine.add.PTCONT.5152202",
      "street": "AV 5 DE OUTUBRO",
      "house": "6",
      "postcode": "4970-151",
      "city": "ARCOS DE VALDEVEZ",
      "lon": "-8.419727168500131",
      "lat": "41.83998339374382"
    },
    {
      "id": "pt.ine.add.PTCONT.5152203",
      "street": "AV 5 DE OUTUBRO",
      "house": "6",
      "postcode": "4970-151",
      "city": "ARCOS DE VALDEVEZ",
      "lon": "-8.419727168500131",
      "lat": "41.83998339374382"
    },
    {
      "id": "pt.ine.add.PTCONT.5152204",
      "street": "AV 5 DE OUTUBRO",
      "house": "6",
      "postcode": "4970-151",
      "city": "ARCOS DE VALDEVEZ",
      "lon": "-8.419727168500131",
      "lat": "41.83998339374382"
    },
    {
      "id": "pt.ine.add.PTCONT.5152216",
      "street": "AV 5 DE OUTUBRO",
      "house": "6",
      "postcode": "4970-151",
      "city": "ARCOS DE VALDEVEZ",
      "lon": "-8.419727168500131",
      "lat": "41.83998339374382"
    },
    {
      "id": "pt.ine.add.PTCONT.5152217",
      "street": "AV 5 DE OUTUBRO",
      "house": "6",
      "postcode": "4970-151",
      "city": "ARCOS DE VALDEVEZ",
      "lon": "-8.419727168500131",
      "lat": "41.83998339374382"
    },
    {
      "id": "pt.ine.add.PTCONT.5152218",
      "street": "AV 5 DE OUTUBRO",
      "house": "12",
      "postcode": "4970-151",
      "city": "ARCOS DE VALDEVEZ",
      "lon": "-8.419726405173261",
      "lat": "41.83981233286577"
    },
    {
      "id": "pt.ine.add.PTCONT.5152219",
      "street": "AV 5 DE OUTUBRO",
      "house": "12",
      "postcode": "4970-151",
      "city": "ARCOS DE VALDEVEZ",
      "lon": "-8.419726405173261",
      "lat": "41.83981233286577"
    },
    {
      "id": "pt.ine.add.PTCONT.5152220",
      "street": "AV 5 DE OUTUBRO",
      "house": "12",
      "postcode": "4970-151",
      "city": "ARCOS DE VALDEVEZ",
      "lon": "-8.419726405173261",
      "lat": "41.83981233286577"
    },
    {
      "id": "pt.ine.add.PTCONT.5152221",
      "street": "AV 5 DE OUTUBRO",
      "house": "12",
      "postcode": "4970-151",
      "city": "ARCOS DE VALDEVEZ",
      "lon": "-8.419726405173261",
      "lat": "41.83981233286577"
    },
    {
      "id": "pt.ine.add.PTCONT.5152222",
      "street": "AV 5 DE OUTUBRO",
      "house": "12",
      "postcode": "4970-151",
      "city": "ARCOS DE VALDEVEZ",
      "lon": "-8.419726405173261",
      "lat": "41.83981233286577"
    },
    {
      "id": "pt.ine.add.PTCONT.5152223",
      "street": "AV 5 DE OUTUBRO",
      "house": "12",
      "postcode": "4970-151",
      "city": "ARCOS DE VALDEVEZ",
      "lon": "-8.419726405173261",
      "lat": "41.83981233286577"
    },
    {
      "id": "pt.ine.add.PTCONT.5152224",
      "street": "AV 5 DE OUTUBRO",
      "house": "12",
      "postcode": "4970-151",
      "city": "ARCOS DE VALDEVEZ",
      "lon": "-8.419726405173261",
      "lat": "41.83981233286577"
    },
    {
      "id": "pt.ine.add.PTCONT.5152225",
      "street": "AV 5 DE OUTUBRO",
      "house": "12",
      "postcode": "4970-151",
      "city": "ARCOS DE VALDEVEZ",
      "lon": "-8.419726405173261",
      "lat": "41.83981233286577"
    },
    {
      "id": "pt.ine.add.PTCONT.5153015",
      "street": "AV 5 DE OUTUBRO",
      "house": "12",
      "postcode": "4970-151",
      "city": "ARCOS DE VALDEVEZ",
      "lon": "-8.419726405173261",
      "lat": "41.83981233286577"
    },
    {
      "id": "pt.ine.add.PTCONT.5153058",
      "street": "AV 5 DE OUTUBRO",
      "house": "6",
      "postcode": "4970-151",
      "city": "ARCOS DE VALDEVEZ",
      "lon": "-8.419727168500131",
      "lat": "41.83998339374382"
    },
    {
      "id": "pt.ine.add.PTCONT.5195084",
      "street": "AV 5 DE OUTUBRO",
      "house": "4",
      "postcode": "4970-151",
      "city": "ARCOS DE VALDEVEZ",
      "lon": "-8.420037182427976",
      "lat": "41.83930737188051"
    },
    {
      "id": "pt.ine.add.PTCONT.5195085",
      "street": "AV 5 DE OUTUBRO",
      "house": "4",
      "postcode": "4970-151",
      "city": "ARCOS DE VALDEVEZ",
      "lon": "-8.420037182427976",
      "lat": "41.83930737188051"
    },
    {
      "id": "pt.ine.add.PTCONT.5195086",
      "street": "AV 5 DE OUTUBRO",
      "house": "4",
      "postcode": "4970-151",
      "city": "ARCOS DE VALDEVEZ",
      "lon": "-8.420037182427976",
      "lat": "41.83930737188051"
    },
    {
      "id": "pt.ine.add.PTCONT.5195087",
      "street": "AV 5 DE OUTUBRO",
      "house": "4",
      "postcode": "4970-151",
      "city": "ARCOS DE VALDEVEZ",
      "lon": "-8.420037182427976",
      "lat": "41.83930737188051"
    },
    {
      "id": "pt.ine.add.PTCONT.5195088",
      "street": "AV 5 DE OUTUBRO",
      "house": "4",
      "postcode": "4970-151",
      "city": "ARCOS DE VALDEVEZ",
      "lon": "-8.420037182427976",
      "lat": "41.83930737188051"
    },
    {
      "id": "pt.ine.add.PTCONT.5195089",
      "street": "AV 5 DE OUTUBRO",
      "house": "4",
      "postcode": "4970-151",
      "city": "ARCOS DE VALDEVEZ",
      "lon": "-8.420037182427976",
      "lat": "41.83930737188051"
    },
    {
      "id": "pt.ine.add.PTCONT.5195090",
      "street": "AV 5 DE OUTUBRO",
      "house": "4",
      "postcode": "4970-151",
      "city": "ARCOS DE VALDEVEZ",
      "lon": "-8.420037182427976",
      "lat": "41.83930737188051"
    },
    {
      "id": "pt.ine.add.PTCONT.5195091",
      "street": "AV 5 DE OUTUBRO",
      "house": "4",
      "postcode": "4970-151",
      "city": "ARCOS DE VALDEVEZ",
      "lon": "-8.420037182427976",
      "lat": "41.83930737188051"
    },
    {
      "id": "pt.ine.add.PTCONT.5195110",
      "street": "AV 5 DE OUTUBRO",
      "house": "4",
      "postcode": "4970-151",
      "city": "ARCOS DE VALDEVEZ",
      "lon": "-8.420037182427976",
      "lat": "41.83930737188051"
    },
    {
      "id": "pt.ine.add.PTCONT.5244554",
      "street": "R DR AMÉRICO SEQUEIRA",
      "house": "60",
      "postcode": "4970-151",
      "city": "ARCOS DE VALDEVEZ",
      "lon": "-8.420725449653268",
      "lat": "41.83975581574636"
    },
    {
      "id": "pt.ine.add.PTCONT.5256041",
      "street": "AV 5 DE OUTUBRO",
      "house": "18",
      "postcode": "4970-151",
      "city": "ARCOS DE VALDEVEZ",
      "lon": "-8.41977367956301",
      "lat": "41.83961414218854"
    },
    {
      "id": "pt.ine.add.PTCONT.5256042",
      "street": "AV 5 DE OUTUBRO",
      "house": "18",
      "postcode": "4970-151",
      "city": "ARCOS DE VALDEVEZ",
      "lon": "-8.41977367956301",
      "lat": "41.83961414218854"
    },
    {
      "id": "pt.ine.add.PTCONT.5256043",
      "street": "AV 5 DE OUTUBRO",
      "house": "18",
      "postcode": "4970-151",
      "city": "ARCOS DE VALDEVEZ",
      "lon": "-8.41977367956301",
      "lat": "41.83961414218854"
    },
    {
      "id": "pt.ine.add.PTCONT.5256290",
      "street": "AV 5 DE OUTUBRO",
      "house": "18",
      "postcode": "4970-151",
      "city": "ARCOS DE VALDEVEZ",
      "lon": "-8.41977367956301",
      "lat": "41.83961414218854"
    },
    {
      "id": "pt.ine.add.PTCONT.5256291",
      "street": "AV 5 DE OUTUBRO",
      "house": "18",
      "postcode": "4970-151",
      "city": "ARCOS DE VALDEVEZ",
      "lon": "-8.41977367956301",
      "lat": "41.83961414218854"
    },
    {
      "id": "pt.ine.add.PTCONT.5256292",
      "street": "AV 5 DE OUTUBRO",
      "house": "18",
      "postcode": "4970-151",
      "city": "ARCOS DE VALDEVEZ",
      "lon": "-8.41977367956301",
      "lat": "41.83961414218854"
    },
    {
      "id": "pt.ine.add.PTCONT.5256293",
      "street": "AV 5 DE OUTUBRO",
      "house": "18",
      "postcode": "4970-151",
      "city": "ARCOS DE VALDEVEZ",
      "lon": "-8.41977367956301",
      "lat": "41.83961414218854"
    },
    {
      "id": "pt.ine.add.PTCONT.5256294",
      "street": "AV 5 DE OUTUBRO",
      "house": "18",
      "postcode": "4970-151",
      "city": "ARCOS DE VALDEVEZ",
      "lon": "-8.41977367956301",
      "lat": "41.83961414218854"
    },
    {
      "id": "pt.ine.add.PTCONT.5256295",
      "street": "AV 5 DE OUTUBRO",
      "house": "18",
      "postcode": "4970-151",
      "city": "ARCOS DE VALDEVEZ",
      "lon": "-8.41977367956301",
      "lat": "41.83961414218854"
    },
    {
      "id": "pt.ine.add.PTCONT.5271145",
      "street": "AV 5 DE OUTUBRO",
      "house": "22",
      "postcode": "4970-151",
      "city": "ARCOS DE VALDEVEZ",
      "lon": "-8.419808873957216",
      "lat": "41.83940697833294"
    },
    {
      "id": "pt.ine.add.PTCONT.5271146",
      "street": "AV 5 DE OUTUBRO",
      "house": "22",
      "postcode": "4970-151",
      "city": "ARCOS DE VALDEVEZ",
      "lon": "-8.419808873957216",
      "lat": "41.83940697833294"
    },
    {
      "id": "pt.ine.add.PTCONT.5271147",
      "street": "AV 5 DE OUTUBRO",
      "house": "22",
      "postcode": "4970-151",
      "city": "ARCOS DE VALDEVEZ",
      "lon": "-8.419808873957216",
      "lat": "41.83940697833294"
    },
    {
      "id": "pt.ine.add.PTCONT.5271148",
      "street": "AV 5 DE OUTUBRO",
      "house": "22",
      "postcode": "4970-151",
      "city": "ARCOS DE VALDEVEZ",
      "lon": "-8.419808873957216",
      "lat": "41.83940697833294"
    },
    {
      "id": "pt.ine.add.PTCONT.5271149",
      "street": "AV 5 DE OUTUBRO",
      "house": "22",
      "postcode": "4970-151",
      "city": "ARCOS DE VALDEVEZ",
      "lon": "-8.419808873957216",
      "lat": "41.83940697833294"
    },
    {
      "id": "pt.ine.add.PTCONT.5271150",
      "street": "AV 5 DE OUTUBRO",
      "house": "22",
      "postcode": "4970-151",
      "city": "ARCOS DE VALDEVEZ",
      "lon": "-8.419808873957216",
      "lat": "41.83940697833294"
    }
  ]
}