{
  "data": {
    "distrito": "Leiria",
    "concelho": "Alcobaça",
    "freguesia": "União das freguesias de Pataias e Martingança",
    "OBJECTID": 190,
    "BGRI2021": "10012300401",
    "DT21": "10",
    "DTMN21": "1001",
    "DTMNFR21": "100123",
    "DTMNFRSEC21": "100123004",
    "SECNUM21": "004",
    "SSNUM21": "01",
    "SECSSNUM21": "00401",
    "OBJECTID_1": 84680,
    "DT": "10",
    "CC": "01",
    "fr": "23",
    "SEC": "004",
    "SS": "01"
  },
  "addresses": [
    {
      "id": "pt.ine.add.PTCONT.1979882",
      "street": "R SITIO",
      "house": "30",
      "postcode": "2445-332",
      "city": "PATAIAS",
      "lon": "-9.007466276839857",
      "lat": "39.665858670788126"
    },
    {
      "id": "pt.ine.add.PTCONT.1984277",
      "street": "URB BELO POR DO SOL",
      "house": "",
      "postcode": "2445-332",
      "city": "PATAIAS",
      "lon": "-9.007917134750535",
      "lat": "39.66649473853369"
    },
    {
      "id": "pt.ine.add.PTCONT.2015081",
      "street": "R SITIO",
      "house": "34",
      "postcode": "2445-332",
      "city": "PATAIAS",
      "lon": "-9.007872977933522",
      "lat": "39.66576554285332"
    },
    {
      "id": "pt.ine.add.PTCONT.2015082",
      "street": "R SITIO",
      "house": "",
      "postcode": "2445-332",
      "city": "PATAIAS",
      "lon": "-9.005886298116042",
      "lat": "39.66624882945264"
    },
    {
      "id": "pt.ine.add.PTCONT.2015083",
      "street": "R SITIO",
      "house": "",
      "postcode": "2445-332",
      "city": "PATAIAS",
      "lon": "-9.005886298116042",
      "lat": "39.66624882945264"
    },
    {
      "id": "pt.ine.add.PTCONT.2015084",
      "street": "R SITIO",
      "house": "",
      "postcode": "2445-332",
      "city": "PATAIAS",
      "lon": "-9.005886298116042",
      "lat": "39.66624882945264"
    },
    {
      "id": "pt.ine.add.PTCONT.2016839",
      "street": "R SITIO",
      "house": "",
      "postcode": "2445-332",
      "city": "PATAIAS",
      "lon": "-9.005886298116042",
      "lat": "39.66624882945264"
    },
    {
      "id": "pt.ine.add.PTCONT.2020168",
      "street": "R ÁGUAS LUXUOSAS",
      "house": "71",
      "postcode": "2445-306",
      "city": "PATAIAS",
      "lon": "-9.004693216769766",
      "lat": "39.66775287235132"
    },
    {
      "id": "pt.ine.add.PTCONT.2041268",
      "street": "R POETA JOAQUIM RODRIGUES RATO",
      "house": "23",
      "postcode": "2445-357",
      "city": "PATAIAS",
      "lon": "-9.00430629878601",
      "lat": "39.6675666386035"
    },
    {
      "id": "pt.ine.add.PTCONT.2050176",
      "street": "R SITIO",
      "house": "6",
      "postcode": "2445-332",
      "city": "PATAIAS",
      "lon": "-9.004099381095171",
      "lat": "39.666865681927675"
    },
    {
      "id": "pt.ine.add.PTCONT.2063502",
      "street": "R SITIO",
      "house": "4",
      "postcode": "2445-332",
      "city": "PATAIAS",
      "lon": "-9.003960566747411",
      "lat": "39.66694778164503"
    },
    {
      "id": "pt.ine.add.PTCONT.2067624",
      "street": "R ÁGUAS LUXUOSAS",
      "house": "91",
      "postcode": "2445-306",
      "city": "PATAIAS",
      "lon": "-9.0062948415612",
      "lat": "39.66722746931116"
    },
    {
      "id": "pt.ine.add.PTCONT.2073955",
      "street": "R A",
      "house": "",
      "postcode": "2445-336",
      "city": "PATAIAS",
      "lon": "-9.008863154254858",
      "lat": "39.66665873242796"
    },
    {
      "id": "pt.ine.add.PTCONT.2080252",
      "street": "R DO SITÍO",
      "house": "27",
      "postcode": "2445-332",
      "city": "PATAIAS",
      "lon": "-9.007513715544839",
      "lat": "39.666101199717964"
    },
    {
      "id": "pt.ine.add.PTCONT.2089536",
      "street": "R SITIO",
      "house": "32",
      "postcode": "2445-332",
      "city": "PATAIAS",
      "lon": "-9.007686765605454",
      "lat": "39.66578495836774"
    },
    {
      "id": "pt.ine.add.PTCONT.2095200",
      "street": "URB BELO POR DO SOL",
      "house": "",
      "postcode": "2445-332",
      "city": "PATAIAS",
      "lon": "-9.008308209470616",
      "lat": "39.66608649851954"
    },
    {
      "id": "pt.ine.add.PTCONT.2105596",
      "street": "R ÁGUAS LUXUOSAS",
      "house": "69",
      "postcode": "2445-306",
      "city": "PATAIAS",
      "lon": "-9.004472152834436",
      "lat": "39.66778155080509"
    },
    {
      "id": "pt.ine.add.PTCONT.2120479",
      "street": "R ÁGUAS LUXUOSAS",
      "house": "81",
      "postcode": "2445-306",
      "city": "PATAIAS",
      "lon": "-9.005597377825561",
      "lat": "39.6673678091553"
    },
    {
      "id": "pt.ine.add.PTCONT.2120480",
      "street": "R ÁGUAS LUXUOSAS",
      "house": "85",
      "postcode": "2445-306",
      "city": "PATAIAS",
      "lon": "-9.005911775126345",
      "lat": "39.667347433670926"
    },
    {
      "id": "pt.ine.add.PTCONT.2131952",
      "street": "R POETA JOAQUIM RODRIGUES RATO",
      "house": "3",
      "postcode": "2445-357",
      "city": "PATAIAS",
      "lon": "-9.004080146620929",
      "lat": "39.66719006099307"
    },
    {
      "id": "pt.ine.add.PTCONT.2131953",
      "street": "R POETA JOAQUIM RODRIGUES RATO",
      "house": "3",
      "postcode": "2445-357",
      "city": "PATAIAS",
      "lon": "-9.004080146620929",
      "lat": "39.66719006099307"
    },
    {
      "id": "pt.ine.add.PTCONT.2131954",
      "street": "R POETA JOAQUIM RODRIGUES RATO",
      "house": "3",
      "postcode": "2445-357",
      "city": "PATAIAS",
      "lon": "-9.004080146620929",
      "lat": "39.66719006099307"
    },
    {
      "id": "pt.ine.add.PTCONT.2131955",
      "street": "R POETA JOAQUIM RODRIGUES RATO",
      "house": "1 FRENTE",
      "postcode": "2445-357",
      "city": "PATAIAS",
      "lon": "-9.004080146620929",
      "lat": "39.66719006099307"
    },
    {
      "id": "pt.ine.add.PTCONT.2131956",
      "street": "R POETA JOAQUIM RODRIGUES RATO",
      "house": "3",
      "postcode": "2445-357",
      "city": "PATAIAS",
      "lon": "-9.004080146620929",
      "lat": "39.66719006099307"
    },
    {
      "id": "pt.ine.add.PTCONT.2131957",
      "street": "R POETA JOAQUIM RODRIGUES RATO",
      "house": "3",
      "postcode": "2445-357",
      "city": "PATAIAS",
      "lon": "-9.004080146620929",
      "lat": "39.66719006099307"
    },
    {
      "id": "pt.ine.add.PTCONT.2131958",
      "street": "R POETA JOAQUIM RODRIGUES RATO",
      "house": "3",
      "postcode": "2445-357",
      "city": "PATAIAS",
      "lon": "-9.004080146620929",
      "lat": "39.66719006099307"
    },
    {
      "id": "pt.ine.add.PTCONT.2131959",
      "street": "R POETA JOAQUIM RODRIGUES RATO",
      "house": "3",
      "postcode": "2445-357",
      "city": "PATAIAS",
      "lon": "-9.004080146620929",
      "lat": "39.66719006099307"
    },
    {
      "id": "pt.ine.add.PTCONT.2132736",
      "street": "R POETA JOAQUIM RODRIGUES RATO",
      "house": "3",
      "postcode": "2445-357",
      "city": "PATAIAS",
      "lon": "-9.004080146620929",
      "lat": "39.66719006099307"
    },
    {
      "id": "pt.ine.add.PTCONT.2132806",
      "street": "R POETA JOAQUIM RODRIGUES RATO",
      "house": "3",
      "postcode": "2445-357",
      "city": "PATAIAS",
      "lon": "-9.004080146620929",
      "lat": "39.66719006099307"
    },
    {
      "id": "pt.ine.add.PTCONT.2133297",
      "street": "R ÁGUAS LUXUOSAS",
      "house": "77",
      "postcode": "2445-306",
      "city": "PATAIAS",
      "lon": "-9.005041216049873",
      "lat": "39.667624168775504"
    },
    {
      "id": "pt.ine.add.PTCONT.2139648",
      "street": "R SÍTIO",
      "house": "2",
      "postcode": "2445-332",
      "city": "PATAIAS",
      "lon": "-9.008607933482963",
      "lat": "39.666750721959104"
    },
    {
      "id": "pt.ine.add.PTCONT.2140098",
      "street": "R SITIO",
      "house": "28",
      "postcode": "2445-332",
      "city": "PATAIAS",
      "lon": "-9.00714125557834",
      "lat": "39.66596018912432"
    },
    {
      "id": "pt.ine.add.PTCONT.2145049",
      "street": "R A URB DA FLORESTA",
      "house": "9",
      "postcode": "2445-336",
      "city": "PATAIAS",
      "lon": "-9.008107892924135",
      "lat": "39.66683554924601"
    },
    {
      "id": "pt.ine.add.PTCONT.2150746",
      "street": "R ÁGUAS LUXUOSAS",
      "house": "97",
      "postcode": "2445-306",
      "city": "PATAIAS",
      "lon": "-9.006758114368978",
      "lat": "39.666998822083904"
    },
    {
      "id": "pt.ine.add.PTCONT.2155157",
      "street": "R SITIO",
      "house": "36",
      "postcode": "2445-332",
      "city": "PATAIAS",
      "lon": "-9.008152750631364",
      "lat": "39.665772441690436"
    },
    {
      "id": "pt.ine.add.PTCONT.2173273",
      "street": "URB BELO POR DO SOL",
      "house": "39",
      "postcode": "2445-284",
      "city": "PATAIAS",
      "lon": "-9.006334763457604",
      "lat": "39.666695784363995"
    },
    {
      "id": "pt.ine.add.PTCONT.2187899",
      "street": "URB BELO POR DO SOL",
      "house": "",
      "postcode": "2445-332",
      "city": "PATAIAS",
      "lon": "-9.007761790277176",
      "lat": "39.6661896868604"
    },
    {
      "id": "pt.ine.add.PTCONT.2199276",
      "street": "R ÁGUAS LUXUOSAS",
      "house": "79",
      "postcode": "2445-306",
      "city": "PATAIAS",
      "lon": "-9.005319637181884",
      "lat": "39.66752300630627"
    },
    {
      "id": "pt.ine.add.PTCONT.2227792",
      "street": "URB BELO POR DO SOL",
      "house": "",
      "postcode": "2445-332",
      "city": "PATAIAS",
      "lon": "-9.008475208660375",
      "lat": "39.66639146161183"
    },
    {
      "id": "pt.ine.add.PTCONT.2258758",
      "street": "R SITIO",
      "house": "2",
      "postcode": "2445-332",
      "city": "PATAIAS",
      "lon": "-9.00370477306657",
      "lat": "39.66699473210293"
    },
    {
      "id": "pt.ine.add.PTCONT.2261830",
      "street": "R ÁGUAS LUXUOSAS",
      "house": "89",
      "postcode": "2445-306",
      "city": "PATAIAS",
      "lon": "-9.006132610341986",
      "lat": "39.66730074115805"
    },
    {
      "id": "pt.ine.add.PTCONT.2262948",
      "street": "R POETA JOAQUIM RODRIGUES RATO",
      "house": "3",
      "postcode": "2445-357",
      "city": "PATAIAS",
      "lon": "-9.004080146620929",
      "lat": "39.66719006099307"
    }
  ]
}