{
  "data": {
    "distrito": "Leiria",
    "concelho": "Alcobaça",
    "freguesia": "União das freguesias de Pataias e Martingança",
    "OBJECTID": 201,
    "BGRI2021": "10012300409",
    "DT21": "10",
    "DTMN21": "1001",
    "DTMNFR21": "100123",
    "DTMNFRSEC21": "100123004",
    "SECNUM21": "004",
    "SSNUM21": "09",
    "SECSSNUM21": "00409",
    "OBJECTID_1": 83864,
    "DT": "10",
    "CC": "01",
    "fr": "23",
    "SEC": "004",
    "SS": "09"
  },
  "addresses": [
    {
      "id": "pt.ine.add.PTCONT.2039182",
      "street": "R FLORES",
      "house": "",
      "postcode": "2445-310",
      "city": "PATAIAS",
      "lon": "-8.994241051103131",
      "lat": "39.66880355088092"
    },
    {
      "id": "pt.ine.add.PTCONT.2050484",
      "street": "TV TAPADA",
      "house": "1",
      "postcode": "2445-368",
      "city": "PATAIAS",
      "lon": "-8.99459310234889",
      "lat": "39.668999083375304"
    },
    {
      "id": "pt.ine.add.PTCONT.2053404",
      "street": "R AGRICULTORES",
      "house": "3",
      "postcode": "2445-338",
      "city": "PATAIAS",
      "lon": "-8.994502114848117",
      "lat": "39.66917988877095"
    },
    {
      "id": "pt.ine.add.PTCONT.2054769",
      "street": "R CABOUQUEIROS",
      "house": "1",
      "postcode": "2445-340",
      "city": "PATAIAS",
      "lon": "-8.99449786479777",
      "lat": "39.66883767239233"
    },
    {
      "id": "pt.ine.add.PTCONT.2130296",
      "street": "R FLORES",
      "house": "8",
      "postcode": "2445-310",
      "city": "PATAIAS",
      "lon": "-8.994300322530243",
      "lat": "39.66888417007871"
    },
    {
      "id": "pt.ine.add.PTCONT.2185723",
      "street": "R FLORES",
      "house": "4",
      "postcode": "2445-310",
      "city": "PATAIAS",
      "lon": "-8.994396566162566",
      "lat": "39.66912663247539"
    },
    {
      "id": "pt.ine.add.PTCONT.2194760",
      "street": "R AGRICULTORES",
      "house": "4",
      "postcode": "2445-338",
      "city": "PATAIAS",
      "lon": "-8.994468050335012",
      "lat": "39.669252193622775"
    },
    {
      "id": "pt.ine.add.PTCONT.2194761",
      "street": "TV TAPADA",
      "house": "",
      "postcode": "2445-368",
      "city": "PATAIAS",
      "lon": "-8.994381334592493",
      "lat": "39.6688385366756"
    },
    {
      "id": "pt.ine.add.PTCONT.2264016",
      "street": "TV TAPADA",
      "house": "2",
      "postcode": "2445-368",
      "city": "PATAIAS",
      "lon": "-8.994580442618087",
      "lat": "39.66891811857218"
    },
    {
      "id": "pt.ine.add.PTCONT.2267204",
      "street": "R AGRICULTORES",
      "house": "7",
      "postcode": "2445-338",
      "city": "PATAIAS",
      "lon": "-8.99455937357077",
      "lat": "39.66909840533579"
    }
  ]
}