{
  "data": {
    "distrito": "Leiria",
    "concelho": "Alcobaça",
    "freguesia": "União das freguesias de Pataias e Martingança",
    "OBJECTID": 710,
    "BGRI2021": "10012300417",
    "DT21": "10",
    "DTMN21": "1001",
    "DTMNFR21": "100123",
    "DTMNFRSEC21": "100123004",
    "SECNUM21": "004",
    "SSNUM21": "17",
    "SECSSNUM21": "00417",
    "OBJECTID_1": 84529,
    "DT": "10",
    "CC": "01",
    "fr": "23",
    "SEC": "004",
    "SS": "17"
  },
  "addresses": [
    {
      "id": "pt.ine.add.PTCONT.2065334",
      "street": "AV RAINHA STA ISABEL",
      "house": "141",
      "postcode": "2445-204",
      "city": "PATAIAS",
      "lon": "-8.994771796344153",
      "lat": "39.67024966431484"
    },
    {
      "id": "pt.ine.add.PTCONT.2089557",
      "street": "LG ANTÓNIO OLIVEIRA CORREIA NEVES",
      "house": "1",
      "postcode": "2445-255",
      "city": "PATAIAS",
      "lon": "-8.995363313364072",
      "lat": "39.6700201108605"
    },
    {
      "id": "pt.ine.add.PTCONT.2115574",
      "street": "R SOSSEGO",
      "house": "1",
      "postcode": "2445-333",
      "city": "PATAIAS",
      "lon": "-8.99487466150952",
      "lat": "39.67008678364295"
    },
    {
      "id": "pt.ine.add.PTCONT.2155183",
      "street": "AV RAINHA STA ISABEL",
      "house": "151",
      "postcode": "2445-204",
      "city": "PATAIAS",
      "lon": "-8.995259329984535",
      "lat": "39.67009293504741"
    },
    {
      "id": "pt.ine.add.PTCONT.2157311",
      "street": "R SAUDADE",
      "house": "14",
      "postcode": "2445-301",
      "city": "PATAIAS",
      "lon": "-8.995083524235856",
      "lat": "39.670013181387986"
    },
    {
      "id": "pt.ine.add.PTCONT.2173376",
      "street": "R SAUDADE",
      "house": "2",
      "postcode": "2445-301",
      "city": "PATAIAS",
      "lon": "-8.995257538849856",
      "lat": "39.66994884399455"
    },
    {
      "id": "pt.ine.add.PTCONT.2187914",
      "street": "AV RAINHA STA ISABEL",
      "house": "139",
      "postcode": "2445-204",
      "city": "PATAIAS",
      "lon": "-8.994621422645706",
      "lat": "39.67034084516957"
    },
    {
      "id": "pt.ine.add.PTCONT.2187915",
      "street": "AV RAINHA STA ISABEL",
      "house": "139",
      "postcode": "2445-204",
      "city": "PATAIAS",
      "lon": "-8.994621422645706",
      "lat": "39.67034084516957"
    },
    {
      "id": "pt.ine.add.PTCONT.2187916",
      "street": "AV RAINHA STA ISABEL",
      "house": "139",
      "postcode": "2445-204",
      "city": "PATAIAS",
      "lon": "-8.994621422645706",
      "lat": "39.67034084516957"
    },
    {
      "id": "pt.ine.add.PTCONT.2187917",
      "street": "AV RAINHA STA ISABEL",
      "house": "139",
      "postcode": "2445-204",
      "city": "PATAIAS",
      "lon": "-8.994621422645706",
      "lat": "39.67034084516957"
    },
    {
      "id": "pt.ine.add.PTCONT.2187918",
      "street": "AV RAINHA STA ISABEL",
      "house": "139",
      "postcode": "2445-204",
      "city": "PATAIAS",
      "lon": "-8.994621422645706",
      "lat": "39.67034084516957"
    },
    {
      "id": "pt.ine.add.PTCONT.2187919",
      "street": "AV RAINHA STA ISABEL",
      "house": "139",
      "postcode": "2445-204",
      "city": "PATAIAS",
      "lon": "-8.994621422645706",
      "lat": "39.67034084516957"
    },
    {
      "id": "pt.ine.add.PTCONT.2187920",
      "street": "AV RAINHA STA ISABEL",
      "house": "139",
      "postcode": "2445-204",
      "city": "PATAIAS",
      "lon": "-8.994621422645706",
      "lat": "39.67034084516957"
    },
    {
      "id": "pt.ine.add.PTCONT.2232084",
      "street": "AV RAINHA STA ISABEL",
      "house": "149",
      "postcode": "2445-204",
      "city": "PATAIAS",
      "lon": "-8.995131927973402",
      "lat": "39.6701569264545"
    },
    {
      "id": "pt.ine.add.PTCONT.2232085",
      "street": "AV RAINHA STA ISABEL",
      "house": "149",
      "postcode": "2445-204",
      "city": "PATAIAS",
      "lon": "-8.995131927973402",
      "lat": "39.6701569264545"
    }
  ]
}