{
  "data": {
    "distrito": "Viseu",
    "concelho": "Penalva do Castelo",
    "freguesia": "Lusinde",
    "OBJECTID": 416,
    "BGRI2021": "18110600112",
    "DT21": "18",
    "DTMN21": "1811",
    "DTMNFR21": "181106",
    "DTMNFRSEC21": "181106001",
    "SECNUM21": "001",
    "SSNUM21": "12",
    "SECSSNUM21": "00112",
    "OBJECTID_1": 194817,
    "DT": "18",
    "CC": "11",
    "fr": "06",
    "SEC": "001",
    "SS": "12"
  },
  "addresses": [
    {
      "id": "pt.ine.add.PTCONT.5441192",
      "street": "R 5 DE OUTUBRO",
      "house": "26",
      "postcode": "3550-182",
      "city": "LUSINDE",
      "lon": "-7.726788186282923",
      "lat": "40.69298401777506"
    },
    {
      "id": "pt.ine.add.PTCONT.5452347",
      "street": "R LAGINHA",
      "house": "25",
      "postcode": "3550-182",
      "city": "LUSINDE",
      "lon": "-7.727258376909349",
      "lat": "40.691535853196015"
    },
    {
      "id": "pt.ine.add.PTCONT.5466893",
      "street": "R SANTO ANTÓNIO",
      "house": "34",
      "postcode": "3550-182",
      "city": "LUSINDE",
      "lon": "-7.72762331646827",
      "lat": "40.69183430329815"
    },
    {
      "id": "pt.ine.add.PTCONT.5470346",
      "street": "R 5 DE OUTUBRO",
      "house": "28",
      "postcode": "3550-182",
      "city": "LUSINDE",
      "lon": "-7.726870125470965",
      "lat": "40.69312838744193"
    },
    {
      "id": "pt.ine.add.PTCONT.5497845",
      "street": "R 5 DE OUTUBRO",
      "house": "22",
      "postcode": "3550-182",
      "city": "LUSINDE",
      "lon": "-7.726873899179773",
      "lat": "40.69250705002613"
    },
    {
      "id": "pt.ine.add.PTCONT.5508514",
      "street": "R LAGINHA",
      "house": "25",
      "postcode": "3550-182",
      "city": "LUSINDE",
      "lon": "-7.727210345131339",
      "lat": "40.6916527504355"
    },
    {
      "id": "pt.ine.add.PTCONT.5510809",
      "street": "R SANTO ANTÓNIO",
      "house": "22",
      "postcode": "3550-182",
      "city": "LUSINDE",
      "lon": "-7.727470558753397",
      "lat": "40.69166267007949"
    },
    {
      "id": "pt.ine.add.PTCONT.5527235",
      "street": "R 5 DE OUTUBRO",
      "house": "38",
      "postcode": "3550-182",
      "city": "LUSINDE",
      "lon": "-7.726676020065299",
      "lat": "40.693920151433204"
    },
    {
      "id": "pt.ine.add.PTCONT.5536269",
      "street": "R 5 DE OUTUBRO",
      "house": "36",
      "postcode": "3550-182",
      "city": "LUSINDE",
      "lon": "-7.726794601327378",
      "lat": "40.69387554342704"
    },
    {
      "id": "pt.ine.add.PTCONT.5555819",
      "street": "R 5 DE OUTUBRO",
      "house": "32",
      "postcode": "3550-182",
      "city": "LUSINDE",
      "lon": "-7.727046108933257",
      "lat": "40.69337214376047"
    },
    {
      "id": "pt.ine.add.PTCONT.5564169",
      "street": "R 5 DE OUTUBRO",
      "house": "24",
      "postcode": "3550-182",
      "city": "LUSINDE",
      "lon": "-7.726458352679387",
      "lat": "40.69274872432672"
    },
    {
      "id": "pt.ine.add.PTCONT.5626755",
      "street": "R 5 DE OUTUBRO",
      "house": "42",
      "postcode": "3550-182",
      "city": "LUSINDE",
      "lon": "-7.726492645977982",
      "lat": "40.69489205436818"
    },
    {
      "id": "pt.ine.add.PTCONT.5636003",
      "street": "R 5 DE OUTUBRO",
      "house": "20",
      "postcode": "3550-182",
      "city": "LUSINDE",
      "lon": "-7.727052013047847",
      "lat": "40.69239961562153"
    },
    {
      "id": "pt.ine.add.PTCONT.5647512",
      "street": "R SANTO ANTÓNIO",
      "house": "28",
      "postcode": "3550-182",
      "city": "LUSINDE",
      "lon": "-7.727553043800575",
      "lat": "40.691716990369486"
    },
    {
      "id": "pt.ine.add.PTCONT.5659990",
      "street": "R 5 DE OUTUBRO",
      "house": "30",
      "postcode": "3550-182",
      "city": "LUSINDE",
      "lon": "-7.726928513060076",
      "lat": "40.69325466402587"
    },
    {
      "id": "pt.ine.add.PTCONT.5664656",
      "street": "R 5 DE OUTUBRO",
      "house": "40",
      "postcode": "3550-182",
      "city": "LUSINDE",
      "lon": "-7.72630455582692",
      "lat": "40.694693280005836"
    }
  ]
}