{
  "data": {
    "distrito": "Bragança",
    "concelho": "Bragança",
    "freguesia": "Samil",
    "OBJECTID": 773,
    "BGRI2021": "04024000116",
    "DT21": "04",
    "DTMN21": "0402",
    "DTMNFR21": "040240",
    "DTMNFRSEC21": "040240001",
    "SECNUM21": "001",
    "SSNUM21": "16",
    "SECSSNUM21": "00116",
    "OBJECTID_1": 34365,
    "DT": "04",
    "CC": "02",
    "fr": "40",
    "SEC": "001",
    "SS": "16"
  },
  "addresses": [
    {
      "id": "pt.ine.add.PTCONT.853413",
      "street": "R JOSE DE SA",
      "house": "5",
      "postcode": "5300-107",
      "city": "BRAGANÇA",
      "lon": "-6.776938111521995",
      "lat": "41.78292536080393"
    },
    {
      "id": "pt.ine.add.PTCONT.853905",
      "street": "R JOSE DE SA",
      "house": "5",
      "postcode": "5300-107",
      "city": "BRAGANÇA",
      "lon": "-6.776938111521995",
      "lat": "41.78292536080393"
    },
    {
      "id": "pt.ine.add.PTCONT.855002",
      "street": "R ANTÓNIO DE SOUZA",
      "house": "15",
      "postcode": "5300-679",
      "city": "BRAGANÇA",
      "lon": "-6.776452837315213",
      "lat": "41.78255050247397"
    },
    {
      "id": "pt.ine.add.PTCONT.856521",
      "street": "R DR MANUEL TEIXEIRA",
      "house": "27",
      "postcode": "5300-675",
      "city": "BRAGANÇA",
      "lon": "-6.7761804229960925",
      "lat": "41.78234921609973"
    },
    {
      "id": "pt.ine.add.PTCONT.870280",
      "street": "R JOSE DE SA",
      "house": "9",
      "postcode": "5300-107",
      "city": "BRAGANÇA",
      "lon": "-6.777185074497835",
      "lat": "41.78262217026338"
    },
    {
      "id": "pt.ine.add.PTCONT.870281",
      "street": "R JOSE DE SA",
      "house": "9",
      "postcode": "5300-107",
      "city": "BRAGANÇA",
      "lon": "-6.777185074497835",
      "lat": "41.78262217026338"
    },
    {
      "id": "pt.ine.add.PTCONT.870998",
      "street": "R JOSE DE SA",
      "house": "7",
      "postcode": "5300-107",
      "city": "BRAGANÇA",
      "lon": "-6.776900706437598",
      "lat": "41.782987941005295"
    },
    {
      "id": "pt.ine.add.PTCONT.870999",
      "street": "R JOSE DE SA",
      "house": "7",
      "postcode": "5300-107",
      "city": "BRAGANÇA",
      "lon": "-6.776900706437598",
      "lat": "41.782987941005295"
    },
    {
      "id": "pt.ine.add.PTCONT.872252",
      "street": "R FERNÃO LOPES",
      "house": "3",
      "postcode": "5300-675",
      "city": "BRAGANÇA",
      "lon": "-6.775776807609829",
      "lat": "41.783235756184325"
    },
    {
      "id": "pt.ine.add.PTCONT.873086",
      "street": "LOTEAM FRAGA SELVAGEM",
      "house": "",
      "postcode": "5300-675",
      "city": "BRAGANÇA",
      "lon": "-6.77635048953621",
      "lat": "41.78227019691547"
    },
    {
      "id": "pt.ine.add.PTCONT.880061",
      "street": "R FERNÃO LOPES",
      "house": "8",
      "postcode": "5300-183",
      "city": "BRAGANÇA",
      "lon": "-6.7756185737082255",
      "lat": "41.783323917453906"
    },
    {
      "id": "pt.ine.add.PTCONT.885865",
      "street": "R DR MANUEL TEIXEIRA",
      "house": "29",
      "postcode": "5300-675",
      "city": "BRAGANÇA",
      "lon": "-6.776131181715263",
      "lat": "41.782402653112406"
    },
    {
      "id": "pt.ine.add.PTCONT.890212",
      "street": "R ANTÓNIO DE SOUZA",
      "house": "17",
      "postcode": "5300-679",
      "city": "BRAGANÇA",
      "lon": "-6.77652688873657",
      "lat": "41.78246134585956"
    },
    {
      "id": "pt.ine.add.PTCONT.895479",
      "street": "R ANTÓNIO DE SOUZA",
      "house": "21",
      "postcode": "5300-107",
      "city": "BRAGANÇA",
      "lon": "-6.776710498586704",
      "lat": "41.782310461131885"
    },
    {
      "id": "pt.ine.add.PTCONT.900197",
      "street": "R COR GENTIL BESSA",
      "house": "8",
      "postcode": "5300-679",
      "city": "BRAGANÇA",
      "lon": "-6.776129730972044",
      "lat": "41.783041857423626"
    },
    {
      "id": "pt.ine.add.PTCONT.901214",
      "street": "R JOSE DE SA",
      "house": "7",
      "postcode": "5300-107",
      "city": "BRAGANÇA",
      "lon": "-6.777062541697275",
      "lat": "41.78272876120573"
    },
    {
      "id": "pt.ine.add.PTCONT.901942",
      "street": "R COR GENTIL BESSA",
      "house": "2",
      "postcode": "5300-679",
      "city": "BRAGANÇA",
      "lon": "-6.775907952074802",
      "lat": "41.78329132451166"
    },
    {
      "id": "pt.ine.add.PTCONT.902650",
      "street": "R COR GENTIL BESSA",
      "house": "7",
      "postcode": "5300-679",
      "city": "BRAGANÇA",
      "lon": "-6.775829657055209",
      "lat": "41.783011302720546"
    },
    {
      "id": "pt.ine.add.PTCONT.907102",
      "street": "R DR DANIEL RODRIGUES",
      "house": "5",
      "postcode": "5300-668",
      "city": "BRAGANÇA",
      "lon": "-6.77714892070251",
      "lat": "41.782054546923156"
    },
    {
      "id": "pt.ine.add.PTCONT.912345",
      "street": "R DR MANUEL TEIXEIRA",
      "house": "",
      "postcode": "5300-675",
      "city": "BRAGANÇA",
      "lon": "-6.776352577056011",
      "lat": "41.782171187254164"
    },
    {
      "id": "pt.ine.add.PTCONT.916061",
      "street": "R COR GENTIL BESSA",
      "house": "9",
      "postcode": "5300-679",
      "city": "BRAGANÇA",
      "lon": "-6.775900862239625",
      "lat": "41.78305715966686"
    },
    {
      "id": "pt.ine.add.PTCONT.916062",
      "street": "R ANTÓNIO DE SOUZA",
      "house": "19",
      "postcode": "5300-679",
      "city": "BRAGANÇA",
      "lon": "-6.776637396274116",
      "lat": "41.78235461347772"
    },
    {
      "id": "pt.ine.add.PTCONT.921458",
      "street": "R FERNÃO LOPES",
      "house": "6",
      "postcode": "5300-675",
      "city": "BRAGANÇA",
      "lon": "-6.775833139401374",
      "lat": "41.78341648418557"
    },
    {
      "id": "pt.ine.add.PTCONT.926032",
      "street": "R JOSE DE SA",
      "house": "17",
      "postcode": "5300-107",
      "city": "BRAGANÇA",
      "lon": "-6.777528998459164",
      "lat": "41.78228411100381"
    },
    {
      "id": "pt.ine.add.PTCONT.927442",
      "street": "R JOSE DE SA",
      "house": "1",
      "postcode": "5300-107",
      "city": "BRAGANÇA",
      "lon": "-6.7767543106791495",
      "lat": "41.783085246740065"
    },
    {
      "id": "pt.ine.add.PTCONT.927443",
      "street": "R JOSE DE SA",
      "house": "1",
      "postcode": "5300-107",
      "city": "BRAGANÇA",
      "lon": "-6.7767543106791495",
      "lat": "41.783085246740065"
    },
    {
      "id": "pt.ine.add.PTCONT.927487",
      "street": "R JOSE DE SA",
      "house": "1",
      "postcode": "5300-107",
      "city": "BRAGANÇA",
      "lon": "-6.7767543106791495",
      "lat": "41.783085246740065"
    },
    {
      "id": "pt.ine.add.PTCONT.929163",
      "street": "R ANTÓNIO DE SOUZA",
      "house": "11",
      "postcode": "5300-679",
      "city": "BRAGANÇA",
      "lon": "-6.776353026359113",
      "lat": "41.78272038285156"
    },
    {
      "id": "pt.ine.add.PTCONT.931548",
      "street": "R COR GENTIL BESSA",
      "house": "4",
      "postcode": "5300-679",
      "city": "BRAGANÇA",
      "lon": "-6.77605529867359",
      "lat": "41.783149015506574"
    },
    {
      "id": "pt.ine.add.PTCONT.932276",
      "street": "R DR MANUEL TEIXEIRA",
      "house": "25",
      "postcode": "5300-675",
      "city": "BRAGANÇA",
      "lon": "-6.776290930902022",
      "lat": "41.782242484054926"
    },
    {
      "id": "pt.ine.add.PTCONT.937623",
      "street": "R COR GENTIL BESSA",
      "house": "5",
      "postcode": "5300-679",
      "city": "BRAGANÇA",
      "lon": "-6.775826619399745",
      "lat": "41.78315531672043"
    },
    {
      "id": "pt.ine.add.PTCONT.937624",
      "street": "R ANTÓNIO DE SOUZA",
      "house": "13",
      "postcode": "5300-679",
      "city": "BRAGANÇA",
      "lon": "-6.776378406139441",
      "lat": "41.78265766079167"
    },
    {
      "id": "pt.ine.add.PTCONT.938664",
      "street": "R ANTÓNIO DE SOUZA",
      "house": "7",
      "postcode": "5300-679",
      "city": "BRAGANÇA",
      "lon": "-6.776097260241559",
      "lat": "41.782870414568215"
    },
    {
      "id": "pt.ine.add.PTCONT.942459",
      "street": "R DR DANIEL RODRIGUES",
      "house": "3",
      "postcode": "5300-668",
      "city": "BRAGANÇA",
      "lon": "-6.777472473172275",
      "lat": "41.78211238462626"
    },
    {
      "id": "pt.ine.add.PTCONT.943142",
      "street": "R DR DANIEL RODRIGUES",
      "house": "1",
      "postcode": "5300-668",
      "city": "BRAGANÇA",
      "lon": "-6.777628047248669",
      "lat": "41.78215023306834"
    }
  ]
}