{
  "data": {
    "distrito": "Coimbra",
    "concelho": "Cantanhede",
    "freguesia": "Cadima",
    "OBJECTID": 847,
    "BGRI2021": "06020300214",
    "DT21": "06",
    "DTMN21": "0602",
    "DTMNFR21": "060203",
    "DTMNFRSEC21": "060203002",
    "SECNUM21": "002",
    "SSNUM21": "14",
    "SECSSNUM21": "00214",
    "OBJECTID_1": 47744,
    "DT": "06",
    "CC": "02",
    "fr": "03",
    "SEC": "002",
    "SS": "14"
  },
  "addresses": [
    {
      "id": "pt.ine.add.PTCONT.1117646",
      "street": "R DR MARIA CONCEIÇÃO ZUZARTE GIL PESSOA",
      "house": "172",
      "postcode": "3060-115",
      "city": "CADIMA",
      "lon": "-8.620786783205935",
      "lat": "40.29346963592219"
    },
    {
      "id": "pt.ine.add.PTCONT.1118559",
      "street": "R OUTEIRO",
      "house": "8",
      "postcode": "3060-115",
      "city": "CADIMA",
      "lon": "-8.620916990730834",
      "lat": "40.29358616094752"
    },
    {
      "id": "pt.ine.add.PTCONT.1120548",
      "street": "TV MANUEL VALDAGUA",
      "house": "11",
      "postcode": "3060-115",
      "city": "CADIMA",
      "lon": "-8.619892143568128",
      "lat": "40.29335632948418"
    },
    {
      "id": "pt.ine.add.PTCONT.1138476",
      "street": "R DR MARIA CONCEIÇÃO ZUZARTE GIL PESSOA",
      "house": "112",
      "postcode": "3060-115",
      "city": "CADIMA",
      "lon": "-8.62024450595826",
      "lat": "40.293291806633704"
    },
    {
      "id": "pt.ine.add.PTCONT.1140020",
      "street": "R OUTEIRO",
      "house": "272",
      "postcode": "3060-115",
      "city": "CADIMA",
      "lon": "-8.621924552983995",
      "lat": "40.2946806021611"
    },
    {
      "id": "pt.ine.add.PTCONT.1150255",
      "street": "R DR MARIA CONCEIÇÃO ZUZARTE GIL PESSOA",
      "house": "128",
      "postcode": "3060-115",
      "city": "CADIMA",
      "lon": "-8.620503624927416",
      "lat": "40.29334474948235"
    },
    {
      "id": "pt.ine.add.PTCONT.1164103",
      "street": "TV MANUEL VALDAGUA",
      "house": "35",
      "postcode": "3060-115",
      "city": "CADIMA",
      "lon": "-8.61991010768381",
      "lat": "40.29422079983446"
    },
    {
      "id": "pt.ine.add.PTCONT.1189567",
      "street": "R OUTEIRO",
      "house": "46",
      "postcode": "3060-115",
      "city": "CADIMA",
      "lon": "-8.622132675584034",
      "lat": "40.294184409980716"
    },
    {
      "id": "pt.ine.add.PTCONT.1197999",
      "street": "R BAIRROS",
      "house": "27",
      "postcode": "3060-115",
      "city": "CADIMA",
      "lon": "-8.619805230945394",
      "lat": "40.29435632634618"
    },
    {
      "id": "pt.ine.add.PTCONT.1218197",
      "street": "R OUTEIRO",
      "house": "30",
      "postcode": "3060-115",
      "city": "CADIMA",
      "lon": "-8.621318404463805",
      "lat": "40.29380060429574"
    },
    {
      "id": "pt.ine.add.PTCONT.1233581",
      "street": "R TRAVESSA MANUEL VALDÁGUA",
      "house": "11",
      "postcode": "3060-115",
      "city": "CADIMA",
      "lon": "-8.61997420856504",
      "lat": "40.29331996143133"
    },
    {
      "id": "pt.ine.add.PTCONT.1233582",
      "street": "R BAIRROS",
      "house": "113",
      "postcode": "3060-115",
      "city": "CADIMA",
      "lon": "-8.620239923249928",
      "lat": "40.29429145715427"
    },
    {
      "id": "pt.ine.add.PTCONT.1237007",
      "street": "TV MANUEL VALDAGUA",
      "house": "19",
      "postcode": "3060-115",
      "city": "CADIMA",
      "lon": "-8.61982287273517",
      "lat": "40.29353673465502"
    },
    {
      "id": "pt.ine.add.PTCONT.1262508",
      "street": "R DO OUTEIRO",
      "house": "160",
      "postcode": "3060-115",
      "city": "CADIMA",
      "lon": "-8.621765291579672",
      "lat": "40.295628730539455"
    },
    {
      "id": "pt.ine.add.PTCONT.1264514",
      "street": "R BAIRROS",
      "house": "91",
      "postcode": "3060-115",
      "city": "CADIMA",
      "lon": "-8.619959089162135",
      "lat": "40.29449076431186"
    },
    {
      "id": "pt.ine.add.PTCONT.1320929",
      "street": "R DR MARIA CONCEIÇÃO ZUZARTE GIL PESSOA",
      "house": "74",
      "postcode": "3060-115",
      "city": "CADIMA",
      "lon": "-8.620079794451495",
      "lat": "40.29328349432458"
    },
    {
      "id": "pt.ine.add.PTCONT.1330469",
      "street": "R OUTEIRO",
      "house": "66",
      "postcode": "3060-115",
      "city": "CADIMA",
      "lon": "-8.622134363444468",
      "lat": "40.2944185506698"
    },
    {
      "id": "pt.ine.add.PTCONT.1339681",
      "street": "R BAIRROS",
      "house": "99",
      "postcode": "3060-115",
      "city": "CADIMA",
      "lon": "-8.62008774573151",
      "lat": "40.29439116031965"
    }
  ]
}