{
  "data": {
    "distrito": "Coimbra",
    "concelho": "Cantanhede",
    "freguesia": "Febres",
    "OBJECTID": 300,
    "BGRI2021": "06020700337",
    "DT21": "06",
    "DTMN21": "0602",
    "DTMNFR21": "060207",
    "DTMNFRSEC21": "060207003",
    "SECNUM21": "003",
    "SSNUM21": "37",
    "SECSSNUM21": "00337",
    "OBJECTID_1": 48127,
    "DT": "06",
    "CC": "02",
    "fr": "07",
    "SEC": "003",
    "SS": "37"
  },
  "addresses": [
    {
      "id": "pt.ine.add.PTCONT.1118619",
      "street": "R LIBERDADE",
      "house": "61",
      "postcode": "3060-316",
      "city": "FEBRES",
      "lon": "-8.64464205251097",
      "lat": "40.406197717802385"
    },
    {
      "id": "pt.ine.add.PTCONT.1123230",
      "street": "R LIBERDADE",
      "house": "15",
      "postcode": "3060-316",
      "city": "FEBRES",
      "lon": "-8.638994962377476",
      "lat": "40.4072041631844"
    },
    {
      "id": "pt.ine.add.PTCONT.1133263",
      "street": "R LIBERDADE",
      "house": "55",
      "postcode": "3060-316",
      "city": "FEBRES",
      "lon": "-8.644195840083105",
      "lat": "40.406388806650575"
    },
    {
      "id": "pt.ine.add.PTCONT.1144577",
      "street": "TV RUA CONS COSTA SOARES",
      "house": "1",
      "postcode": "3060-314",
      "city": "FEBRES",
      "lon": "-8.636557185978605",
      "lat": "40.40731386388656"
    },
    {
      "id": "pt.ine.add.PTCONT.1155400",
      "street": "R COMÉRCIO",
      "house": "3",
      "postcode": "3060-316",
      "city": "FEBRES",
      "lon": "-8.636605515024518",
      "lat": "40.40747575257002"
    },
    {
      "id": "pt.ine.add.PTCONT.1177361",
      "street": "R LIBERDADE",
      "house": "",
      "postcode": "3060-316",
      "city": "FEBRES",
      "lon": "-8.642371755464518",
      "lat": "40.406640003749914"
    },
    {
      "id": "pt.ine.add.PTCONT.1184040",
      "street": "R LIBERDADE",
      "house": "49",
      "postcode": "3060-316",
      "city": "FEBRES",
      "lon": "-8.643595054512451",
      "lat": "40.40639146067542"
    },
    {
      "id": "pt.ine.add.PTCONT.1199389",
      "street": "R LIBERDADE",
      "house": "5",
      "postcode": "3060-316",
      "city": "FEBRES",
      "lon": "-8.637890510719576",
      "lat": "40.40759622692114"
    },
    {
      "id": "pt.ine.add.PTCONT.1232430",
      "street": "R COMÉRCIO",
      "house": "5",
      "postcode": "3060-316",
      "city": "FEBRES",
      "lon": "-8.636688983971624",
      "lat": "40.40761047166947"
    },
    {
      "id": "pt.ine.add.PTCONT.1243769",
      "street": "R LIBERDADE",
      "house": "17",
      "postcode": "3060-316",
      "city": "FEBRES",
      "lon": "-8.639301181664926",
      "lat": "40.407193817493656"
    },
    {
      "id": "pt.ine.add.PTCONT.1251370",
      "street": "R PINHAL DAS ALMAS",
      "house": "1",
      "postcode": "3060-316",
      "city": "FEBRES",
      "lon": "-8.64507614120317",
      "lat": "40.40596165337599"
    },
    {
      "id": "pt.ine.add.PTCONT.1256577",
      "street": "R LIBERDADE",
      "house": "53",
      "postcode": "3060-316",
      "city": "FEBRES",
      "lon": "-8.644042766765802",
      "lat": "40.40639848866907"
    },
    {
      "id": "pt.ine.add.PTCONT.1282951",
      "street": "R LIBERDADE",
      "house": "45",
      "postcode": "3060-316",
      "city": "FEBRES",
      "lon": "-8.643266503263277",
      "lat": "40.40656401539064"
    },
    {
      "id": "pt.ine.add.PTCONT.1307172",
      "street": "R LIBERDADE",
      "house": "9",
      "postcode": "3060-316",
      "city": "FEBRES",
      "lon": "-8.638207367868898",
      "lat": "40.40743274407369"
    },
    {
      "id": "pt.ine.add.PTCONT.1308714",
      "street": "R LIBERDADE",
      "house": "51",
      "postcode": "3060-316",
      "city": "FEBRES",
      "lon": "-8.643807572934108",
      "lat": "40.40645356076068"
    },
    {
      "id": "pt.ine.add.PTCONT.1323276",
      "street": "R LIBERDADE",
      "house": "43",
      "postcode": "3060-316",
      "city": "FEBRES",
      "lon": "-8.642995288195635",
      "lat": "40.406529189688214"
    },
    {
      "id": "pt.ine.add.PTCONT.1337508",
      "street": "R LIBERDADE",
      "house": "47",
      "postcode": "3060-316",
      "city": "FEBRES",
      "lon": "-8.643431017146497",
      "lat": "40.40650925637231"
    }
  ]
}