{
  "data": {
    "distrito": "Viana do Castelo",
    "concelho": "Ponte de Lima",
    "freguesia": "Cabaços e Fojo Lobal",
    "OBJECTID": 1235,
    "BGRI2021": "16075600121",
    "DT21": "16",
    "DTMN21": "1607",
    "DTMNFR21": "160756",
    "DTMNFRSEC21": "160756001",
    "SECNUM21": "001",
    "SSNUM21": "21",
    "SECSSNUM21": "00121",
    "OBJECTID_1": 175516,
    "DT": "16",
    "CC": "07",
    "fr": "56",
    "SEC": "001",
    "SS": "21"
  },
  "addresses": [
    {
      "id": "pt.ine.add.PTCONT.5140758",
      "street": "R CONTOMIL",
      "house": "",
      "postcode": "4990-565",
      "city": "CABAÇOS PTL",
      "lon": "-8.580978948466552",
      "lat": "41.69349568519217"
    },
    {
      "id": "pt.ine.add.PTCONT.5145056",
      "street": "MANUEL ARMINDO ARAÚJO MAGALHÃES",
      "house": "61",
      "postcode": "4990-605",
      "city": "FOJO LOBAL",
      "lon": "-8.586375451339089",
      "lat": "41.69733703422382"
    },
    {
      "id": "pt.ine.add.PTCONT.5150798",
      "street": "R STO ANTÓNIO",
      "house": "603",
      "postcode": "4990-605",
      "city": "FOJO LOBAL",
      "lon": "-8.58586973080297",
      "lat": "41.69545729418643"
    },
    {
      "id": "pt.ine.add.PTCONT.5158045",
      "street": "R CONTOMIL",
      "house": "119",
      "postcode": "4990-565",
      "city": "CABAÇOS PTL",
      "lon": "-8.581639924158505",
      "lat": "41.69353812499461"
    },
    {
      "id": "pt.ine.add.PTCONT.5159345",
      "street": "R VARZIELA",
      "house": "701",
      "postcode": "4990-605",
      "city": "FOJO LOBAL",
      "lon": "-8.58522121943232",
      "lat": "41.69376718690173"
    },
    {
      "id": "pt.ine.add.PTCONT.5193746",
      "street": "R CONTOMIL",
      "house": "36",
      "postcode": "4990-565",
      "city": "CABAÇOS PTL",
      "lon": "-8.58065537191502",
      "lat": "41.69360498791746"
    },
    {
      "id": "pt.ine.add.PTCONT.5205813",
      "street": "R CONTOMIL",
      "house": "310",
      "postcode": "4990-565",
      "city": "CABAÇOS PTL",
      "lon": "-8.582219446636044",
      "lat": "41.693959026934756"
    },
    {
      "id": "pt.ine.add.PTCONT.5223243",
      "street": "R STO ANTÓNIO",
      "house": "519",
      "postcode": "4990-605",
      "city": "FOJO LOBAL",
      "lon": "-8.585939265763736",
      "lat": "41.69680754674095"
    },
    {
      "id": "pt.ine.add.PTCONT.5225987",
      "street": "COSTEIRA",
      "house": "24",
      "postcode": "4990-605",
      "city": "FOJO LOBAL",
      "lon": "-8.586355284059602",
      "lat": "41.6961756610902"
    },
    {
      "id": "pt.ine.add.PTCONT.5242403",
      "street": "R VARZIELA",
      "house": "",
      "postcode": "4990-605",
      "city": "FOJO LOBAL",
      "lon": "-8.584747079266359",
      "lat": "41.692958734870885"
    }
  ]
}