{
  "data": {
    "distrito": "Viana do Castelo",
    "concelho": "Ponte de Lima",
    "freguesia": "Cabaços e Fojo Lobal",
    "OBJECTID": 566,
    "BGRI2021": "16075600139",
    "DT21": "16",
    "DTMN21": "1607",
    "DTMNFR21": "160756",
    "DTMNFRSEC21": "160756001",
    "SECNUM21": "001",
    "SSNUM21": "39",
    "SECSSNUM21": "00139",
    "OBJECTID_1": 175514,
    "DT": "16",
    "CC": "07",
    "fr": "56",
    "SEC": "001",
    "SS": "39"
  },
  "addresses": [
    {
      "id": "pt.ine.add.PTCONT.5144294",
      "street": "R FONTE VELHA",
      "house": "190",
      "postcode": "4990-605",
      "city": "FOJO LOBAL",
      "lon": "-8.578431656754507",
      "lat": "41.705588288834385"
    },
    {
      "id": "pt.ine.add.PTCONT.5144938",
      "street": "R FOJO VELHO",
      "house": "",
      "postcode": "4990-605",
      "city": "FOJO LOBAL",
      "lon": "-8.580672312008293",
      "lat": "41.7064439198091"
    },
    {
      "id": "pt.ine.add.PTCONT.5145389",
      "street": "AV S JUSTA",
      "house": "1117",
      "postcode": "4990-605",
      "city": "FOJO LOBAL",
      "lon": "-8.5772162962775",
      "lat": "41.70706056180038"
    },
    {
      "id": "pt.ine.add.PTCONT.5151133",
      "street": "R NSA SRA DA CONCEIÇÃO",
      "house": "57",
      "postcode": "4990-605",
      "city": "FOJO LOBAL",
      "lon": "-8.577792375926252",
      "lat": "41.7069682991318"
    },
    {
      "id": "pt.ine.add.PTCONT.5171630",
      "street": "R NSA SRA DA CONCEIÇÃO",
      "house": "125",
      "postcode": "4990-605",
      "city": "FOJO LOBAL",
      "lon": "-8.578445946700429",
      "lat": "41.7076590372669"
    },
    {
      "id": "pt.ine.add.PTCONT.5196590",
      "street": "R JOSE LUIS LOPES DANTAS",
      "house": "71",
      "postcode": "4990-605",
      "city": "FOJO LOBAL",
      "lon": "-8.577938722877471",
      "lat": "41.70728285503558"
    },
    {
      "id": "pt.ine.add.PTCONT.5199536",
      "street": "R NSA SRA DA CONCEIÇÃO",
      "house": "193",
      "postcode": "4990-605",
      "city": "FOJO LOBAL",
      "lon": "-8.578964569134923",
      "lat": "41.70794513807927"
    },
    {
      "id": "pt.ine.add.PTCONT.5214124",
      "street": "ANTÓNIO NOGUEIRA DE BARROS",
      "house": "1101",
      "postcode": "4990-605",
      "city": "FOJO LOBAL",
      "lon": "-8.577082277586378",
      "lat": "41.70679097480634"
    },
    {
      "id": "pt.ine.add.PTCONT.5222356",
      "street": "R S SALVADOR DE FOJO LOBAL",
      "house": "106",
      "postcode": "4990-605",
      "city": "FOJO LOBAL",
      "lon": "-8.577391050309219",
      "lat": "41.704520900375556"
    },
    {
      "id": "pt.ine.add.PTCONT.5223559",
      "street": "AV S JUSTA",
      "house": "899",
      "postcode": "4990-605",
      "city": "FOJO LOBAL",
      "lon": "-8.577314201940242",
      "lat": "41.70557460664792"
    },
    {
      "id": "pt.ine.add.PTCONT.5232864",
      "street": "R NSA SRA DA CONCEIÇÃO",
      "house": "207",
      "postcode": "4990-605",
      "city": "FOJO LOBAL",
      "lon": "-8.579229453754195",
      "lat": "41.70802514151711"
    },
    {
      "id": "pt.ine.add.PTCONT.5235778",
      "street": "AV ANA PINTO BARROS",
      "house": "871",
      "postcode": "4990-605",
      "city": "FOJO LOBAL",
      "lon": "-8.576901814909233",
      "lat": "41.70500897961685"
    },
    {
      "id": "pt.ine.add.PTCONT.5258710",
      "street": "R NSA SRA DA CONCEIÇÃO",
      "house": "97",
      "postcode": "4990-605",
      "city": "FOJO LOBAL",
      "lon": "-8.578180629870001",
      "lat": "41.70751600923542"
    }
  ]
}