{
  "data": {
    "distrito": "Porto",
    "concelho": "Lousada",
    "freguesia": "Meinedo",
    "OBJECTID": 343,
    "BGRI2021": "13051300214",
    "DT21": "13",
    "DTMN21": "1305",
    "DTMNFR21": "130513",
    "DTMNFRSEC21": "130513002",
    "SECNUM21": "002",
    "SSNUM21": "14",
    "SECSSNUM21": "00214",
    "OBJECTID_1": 129819,
    "DT": "13",
    "CC": "05",
    "fr": "13",
    "SEC": "002",
    "SS": "14"
  },
  "addresses": [
    {
      "id": "pt.ine.add.PTCONT.3544897",
      "street": "R S CATARINA",
      "house": "490",
      "postcode": "4620-385",
      "city": "MEINEDO",
      "lon": "-8.25033490979308",
      "lat": "41.25346913061007"
    },
    {
      "id": "pt.ine.add.PTCONT.3609338",
      "street": "AV NOVA S CATARINA",
      "house": "65",
      "postcode": "4620-385",
      "city": "MEINEDO",
      "lon": "-8.253400082365163",
      "lat": "41.25280865983865"
    },
    {
      "id": "pt.ine.add.PTCONT.3650012",
      "street": "R S CATARINA",
      "house": "486",
      "postcode": "4620-385",
      "city": "MEINEDO",
      "lon": "-8.249523684145903",
      "lat": "41.25353298333156"
    },
    {
      "id": "pt.ine.add.PTCONT.3650037",
      "street": "VLA GAS OVELHAS",
      "house": "30",
      "postcode": "4620-354",
      "city": "MEINEDO",
      "lon": "-8.255051241666331",
      "lat": "41.25530109598451"
    },
    {
      "id": "pt.ine.add.PTCONT.3669705",
      "street": "TV CALES CASA DA VESSADINHA",
      "house": "151",
      "postcode": "4620-354",
      "city": "MEINEDO",
      "lon": "-8.255668714547662",
      "lat": "41.25370669094836"
    },
    {
      "id": "pt.ine.add.PTCONT.3679418",
      "street": "R S CATARINA",
      "house": "416",
      "postcode": "4620-385",
      "city": "MEINEDO",
      "lon": "-8.249034669947044",
      "lat": "41.25363252331803"
    },
    {
      "id": "pt.ine.add.PTCONT.3686320",
      "street": "AV MAGNETO",
      "house": "401",
      "postcode": "4620-350",
      "city": "MEINEDO",
      "lon": "-8.255786984877318",
      "lat": "41.25314830238237"
    },
    {
      "id": "pt.ine.add.PTCONT.3708630",
      "street": "R VAGENS",
      "house": "40",
      "postcode": "4620-388",
      "city": "MEINEDO",
      "lon": "-8.250941665492677",
      "lat": "41.25249605370662"
    },
    {
      "id": "pt.ine.add.PTCONT.3753766",
      "street": "TV CALES",
      "house": "182",
      "postcode": "4620-354",
      "city": "MEINEDO",
      "lon": "-8.255741987355433",
      "lat": "41.254607036383945"
    },
    {
      "id": "pt.ine.add.PTCONT.3760398",
      "street": "TV CALES",
      "house": "47",
      "postcode": "4620-354",
      "city": "MEINEDO",
      "lon": "-8.255753582164061",
      "lat": "41.25442693935433"
    },
    {
      "id": "pt.ine.add.PTCONT.3760399",
      "street": "TV CALES",
      "house": "47",
      "postcode": "4620-354",
      "city": "MEINEDO",
      "lon": "-8.255753582164061",
      "lat": "41.25442693935433"
    },
    {
      "id": "pt.ine.add.PTCONT.3775824",
      "street": "R S CATARINA",
      "house": "458",
      "postcode": "4620-385",
      "city": "MEINEDO",
      "lon": "-8.249416013658108",
      "lat": "41.25337101589796"
    },
    {
      "id": "pt.ine.add.PTCONT.3825025",
      "street": "R NOVA S CATARINA",
      "house": "207",
      "postcode": "4620-383",
      "city": "MEINEDO",
      "lon": "-8.251621372849693",
      "lat": "41.2522882586328"
    },
    {
      "id": "pt.ine.add.PTCONT.3825026",
      "street": "R NOVA S CATARINA",
      "house": "207",
      "postcode": "4620-383",
      "city": "MEINEDO",
      "lon": "-8.251621372849693",
      "lat": "41.2522882586328"
    },
    {
      "id": "pt.ine.add.PTCONT.3842143",
      "street": "R S CATARINA",
      "house": "518",
      "postcode": "4620-385",
      "city": "MEINEDO",
      "lon": "-8.249988609310764",
      "lat": "41.25330740641821"
    },
    {
      "id": "pt.ine.add.PTCONT.3851444",
      "street": "R VAGENS",
      "house": "76",
      "postcode": "4620-388",
      "city": "MEINEDO",
      "lon": "-8.25113214425459",
      "lat": "41.25226174843931"
    },
    {
      "id": "pt.ine.add.PTCONT.3863860",
      "street": "LAGE",
      "house": "109",
      "postcode": "4620-367",
      "city": "MEINEDO",
      "lon": "-8.253365609443367",
      "lat": "41.2535290347445"
    },
    {
      "id": "pt.ine.add.PTCONT.3877104",
      "street": "AV NOVA S CATARINA",
      "house": "265",
      "postcode": "4620-385",
      "city": "MEINEDO",
      "lon": "-8.25228786831302",
      "lat": "41.25137814261329"
    },
    {
      "id": "pt.ine.add.PTCONT.3902448",
      "street": "R VAGENS",
      "house": "34",
      "postcode": "4620-388",
      "city": "MEINEDO",
      "lon": "-8.25079865200853",
      "lat": "41.2525862423492"
    },
    {
      "id": "pt.ine.add.PTCONT.3928692",
      "street": "VLA VIELA DAS QUELHAS",
      "house": "32",
      "postcode": "4620-354",
      "city": "MEINEDO",
      "lon": "-8.254681223373652",
      "lat": "41.25522945341155"
    },
    {
      "id": "pt.ine.add.PTCONT.3947770",
      "street": "AV NOVA S CATARINA",
      "house": "209",
      "postcode": "4620-385",
      "city": "MEINEDO",
      "lon": "-8.252610695883162",
      "lat": "41.25175598603679"
    },
    {
      "id": "pt.ine.add.PTCONT.3947787",
      "street": "R CALES",
      "house": "56",
      "postcode": "4620-354",
      "city": "MEINEDO",
      "lon": "-8.25606341559065",
      "lat": "41.25421951151771"
    },
    {
      "id": "pt.ine.add.PTCONT.3947788",
      "street": "TV CALES",
      "house": "98",
      "postcode": "4620-354",
      "city": "MEINEDO",
      "lon": "-8.256349570149318",
      "lat": "41.25411115476926"
    },
    {
      "id": "pt.ine.add.PTCONT.3947789",
      "street": "TV CALES",
      "house": "98",
      "postcode": "4620-354",
      "city": "MEINEDO",
      "lon": "-8.256349570149318",
      "lat": "41.25411115476926"
    },
    {
      "id": "pt.ine.add.PTCONT.3947790",
      "street": "TV CALES",
      "house": "98",
      "postcode": "4620-354",
      "city": "MEINEDO",
      "lon": "-8.256349570149318",
      "lat": "41.25411115476926"
    },
    {
      "id": "pt.ine.add.PTCONT.3947791",
      "street": "TV CALES",
      "house": "98",
      "postcode": "4620-354",
      "city": "MEINEDO",
      "lon": "-8.256349570149318",
      "lat": "41.25411115476926"
    },
    {
      "id": "pt.ine.add.PTCONT.3947792",
      "street": "TV CALES",
      "house": "98",
      "postcode": "4620-354",
      "city": "MEINEDO",
      "lon": "-8.256349570149318",
      "lat": "41.25411115476926"
    },
    {
      "id": "pt.ine.add.PTCONT.3947793",
      "street": "TV CALES",
      "house": "98",
      "postcode": "4620-354",
      "city": "MEINEDO",
      "lon": "-8.256349570149318",
      "lat": "41.25411115476926"
    },
    {
      "id": "pt.ine.add.PTCONT.3947794",
      "street": "TV CALES",
      "house": "98",
      "postcode": "4620-354",
      "city": "MEINEDO",
      "lon": "-8.256349570149318",
      "lat": "41.25411115476926"
    },
    {
      "id": "pt.ine.add.PTCONT.3947796",
      "street": "TV CALES",
      "house": "98",
      "postcode": "4620-354",
      "city": "MEINEDO",
      "lon": "-8.256349570149318",
      "lat": "41.25411115476926"
    },
    {
      "id": "pt.ine.add.PTCONT.4007126",
      "street": "R S CATARINA",
      "house": "464",
      "postcode": "4620-385",
      "city": "MEINEDO",
      "lon": "-8.24953526387773",
      "lat": "41.25333487843214"
    },
    {
      "id": "pt.ine.add.PTCONT.4037912",
      "street": "LAGE",
      "house": "",
      "postcode": "4620-367",
      "city": "MEINEDO",
      "lon": "-8.253842088007508",
      "lat": "41.253105337012954"
    },
    {
      "id": "pt.ine.add.PTCONT.4064606",
      "street": "R S CATARINA",
      "house": "556",
      "postcode": "4620-385",
      "city": "MEINEDO",
      "lon": "-8.250357790569561",
      "lat": "41.2529198488989"
    },
    {
      "id": "pt.ine.add.PTCONT.4064638",
      "street": "TV CALES",
      "house": "143",
      "postcode": "4620-354",
      "city": "MEINEDO",
      "lon": "-8.2557882314481",
      "lat": "41.25381461448849"
    },
    {
      "id": "pt.ine.add.PTCONT.4064639",
      "street": "TV CALES",
      "house": "143",
      "postcode": "4620-354",
      "city": "MEINEDO",
      "lon": "-8.2557882314481",
      "lat": "41.25381461448849"
    },
    {
      "id": "pt.ine.add.PTCONT.4071080",
      "street": "R VAGENS",
      "house": "50",
      "postcode": "4620-388",
      "city": "MEINEDO",
      "lon": "-8.25097723268127",
      "lat": "41.25236995797772"
    },
    {
      "id": "pt.ine.add.PTCONT.4071093",
      "street": "R CALES",
      "house": "142",
      "postcode": "4620-354",
      "city": "MEINEDO",
      "lon": "-8.256147561700823",
      "lat": "41.254552578293044"
    },
    {
      "id": "pt.ine.add.PTCONT.4123234",
      "street": "R VAGENS",
      "house": "29",
      "postcode": "4620-388",
      "city": "MEINEDO",
      "lon": "-8.250667182013801",
      "lat": "41.25246031733336"
    },
    {
      "id": "pt.ine.add.PTCONT.4123240",
      "street": "R CALES",
      "house": "",
      "postcode": "4620-354",
      "city": "MEINEDO",
      "lon": "-8.256051281436251",
      "lat": "41.25411147366072"
    },
    {
      "id": "pt.ine.add.PTCONT.4172869",
      "street": "AV NOVA S CATARINA",
      "house": "89",
      "postcode": "4620-385",
      "city": "MEINEDO",
      "lon": "-8.253125447935423",
      "lat": "41.252691891354154"
    },
    {
      "id": "pt.ine.add.PTCONT.4204704",
      "street": "AV NOVA S CATARINA",
      "house": "273",
      "postcode": "4620-385",
      "city": "MEINEDO",
      "lon": "-8.252073142027175",
      "lat": "41.251396373149234"
    },
    {
      "id": "pt.ine.add.PTCONT.4227778",
      "street": "R S CATARINA",
      "house": "",
      "postcode": "4620-385",
      "city": "MEINEDO",
      "lon": "-8.250500692553365",
      "lat": "41.252766631264116"
    },
    {
      "id": "pt.ine.add.PTCONT.4245764",
      "street": "TV CALES",
      "house": "57",
      "postcode": "4620-354",
      "city": "MEINEDO",
      "lon": "-8.255776923193851",
      "lat": "41.25414778322494"
    },
    {
      "id": "pt.ine.add.PTCONT.4251464",
      "street": "R CALES",
      "house": "96",
      "postcode": "4620-354",
      "city": "MEINEDO",
      "lon": "-8.25605111261532",
      "lat": "41.254021431494294"
    },
    {
      "id": "pt.ine.add.PTCONT.4320999",
      "street": "LAGE",
      "house": "310",
      "postcode": "4620-367",
      "city": "MEINEDO",
      "lon": "-8.251419224422396",
      "lat": "41.25266664449439"
    },
    {
      "id": "pt.ine.add.PTCONT.4343243",
      "street": "TV CALES",
      "house": "55",
      "postcode": "4620-354",
      "city": "MEINEDO",
      "lon": "-8.255514529825083",
      "lat": "41.254202087884835"
    },
    {
      "id": "pt.ine.add.PTCONT.4387261",
      "street": "AV NOVA S CATARINA",
      "house": "",
      "postcode": "4620-385",
      "city": "MEINEDO",
      "lon": "-8.253100810975905",
      "lat": "41.25226871787947"
    },
    {
      "id": "pt.ine.add.PTCONT.4388501",
      "street": "R VAGENS",
      "house": "59",
      "postcode": "4620-388",
      "city": "MEINEDO",
      "lon": "-8.250690673178495",
      "lat": "41.25225319588189"
    }
  ]
}