{
  "data": {
    "distrito": "Lisboa",
    "concelho": "Torres Vedras",
    "freguesia": "União das freguesias de Carvoeira e Carmões",
    "OBJECTID": 1865,
    "BGRI2021": "11132300113",
    "DT21": "11",
    "DTMN21": "1113",
    "DTMNFR21": "111323",
    "DTMNFRSEC21": "111323001",
    "SECNUM21": "001",
    "SSNUM21": "13",
    "SECSSNUM21": "00113",
    "OBJECTID_1": 115821,
    "DT": "11",
    "CC": "13",
    "fr": "23",
    "SEC": "001",
    "SS": "13"
  },
  "addresses": [
    {
      "id": "pt.ine.add.PTCONT.2291641",
      "street": "R ALTO DA BELA VISTA",
      "house": "3",
      "postcode": "2565-114",
      "city": "CARMÕES",
      "lon": "-9.143357289329348",
      "lat": "39.04801602513234"
    },
    {
      "id": "pt.ine.add.PTCONT.2346065",
      "street": "TV CALÇADA",
      "house": "19",
      "postcode": "2565-114",
      "city": "CARMÕES",
      "lon": "-9.143950582148593",
      "lat": "39.05074012154087"
    },
    {
      "id": "pt.ine.add.PTCONT.2381629",
      "street": "R PRINCIPAL",
      "house": "8",
      "postcode": "2565-114",
      "city": "CARMÕES",
      "lon": "-9.144516651228905",
      "lat": "39.049122892142876"
    },
    {
      "id": "pt.ine.add.PTCONT.2410323",
      "street": "R PRINCIPAL",
      "house": "36",
      "postcode": "2565-114",
      "city": "CARMÕES",
      "lon": "-9.144228302510811",
      "lat": "39.05077374353366"
    },
    {
      "id": "pt.ine.add.PTCONT.2469005",
      "street": "TV CALÇADA",
      "house": "3",
      "postcode": "2565-114",
      "city": "CARMÕES",
      "lon": "-9.144007819930597",
      "lat": "39.050703595878645"
    },
    {
      "id": "pt.ine.add.PTCONT.2469006",
      "street": "R MOINHO",
      "house": "",
      "postcode": "2565-114",
      "city": "CARMÕES",
      "lon": "-9.142774000814201",
      "lat": "39.05004773801383"
    },
    {
      "id": "pt.ine.add.PTCONT.2537036",
      "street": "R ESCOLA",
      "house": "6",
      "postcode": "2565-114",
      "city": "CARMÕES",
      "lon": "-9.143989582342352",
      "lat": "39.04861404102433"
    },
    {
      "id": "pt.ine.add.PTCONT.2546122",
      "street": "R PAZ",
      "house": "5",
      "postcode": "2565-114",
      "city": "CARMÕES",
      "lon": "-9.143226895045219",
      "lat": "39.050214956441856"
    },
    {
      "id": "pt.ine.add.PTCONT.2563345",
      "street": "R PRINCIPAL",
      "house": "12",
      "postcode": "2565-114",
      "city": "CARMÕES",
      "lon": "-9.144254853704883",
      "lat": "39.049395383795684"
    },
    {
      "id": "pt.ine.add.PTCONT.2573123",
      "street": "R PAZ",
      "house": "3",
      "postcode": "2565-114",
      "city": "CARMÕES",
      "lon": "-9.143149122645472",
      "lat": "39.050431807228584"
    },
    {
      "id": "pt.ine.add.PTCONT.2590940",
      "street": "R ALIO DA BELA VISTA",
      "house": "",
      "postcode": "2565-114",
      "city": "CARMÕES",
      "lon": "-9.141443169557542",
      "lat": "39.04987910451969"
    },
    {
      "id": "pt.ine.add.PTCONT.2607159",
      "street": "R PAZ",
      "house": "1",
      "postcode": "2565-114",
      "city": "CARMÕES",
      "lon": "-9.142974843037097",
      "lat": "39.050361257441416"
    },
    {
      "id": "pt.ine.add.PTCONT.2623273",
      "street": "R PAZ",
      "house": "",
      "postcode": "2565-114",
      "city": "CARMÕES",
      "lon": "-9.143427996397046",
      "lat": "39.0505464875891"
    },
    {
      "id": "pt.ine.add.PTCONT.2645138",
      "street": "R PRINCIPAL",
      "house": "40",
      "postcode": "2565-114",
      "city": "CARMÕES",
      "lon": "-9.144369603292322",
      "lat": "39.050961673363304"
    },
    {
      "id": "pt.ine.add.PTCONT.2664041",
      "street": "R PAZ",
      "house": "27",
      "postcode": "2565-114",
      "city": "CARMÕES",
      "lon": "-9.144208797912253",
      "lat": "39.051026119317406"
    },
    {
      "id": "pt.ine.add.PTCONT.2715233",
      "street": "R AFONSO GOMES ROQUE",
      "house": "4",
      "postcode": "2565-117",
      "city": "CARMÕES",
      "lon": "-9.143837250947286",
      "lat": "39.048462235774345"
    },
    {
      "id": "pt.ine.add.PTCONT.2793100",
      "street": "TV CALÇADA",
      "house": "4",
      "postcode": "2565-114",
      "city": "CARMÕES",
      "lon": "-9.143889235954617",
      "lat": "39.05048844656084"
    },
    {
      "id": "pt.ine.add.PTCONT.2848469",
      "street": "R PAZ",
      "house": "1",
      "postcode": "2565-114",
      "city": "CARMÕES",
      "lon": "-9.142813396456754",
      "lat": "39.05038067011471"
    },
    {
      "id": "pt.ine.add.PTCONT.2886094",
      "street": "R PAZ",
      "house": "11",
      "postcode": "2565-114",
      "city": "CARMÕES",
      "lon": "-9.143497426218913",
      "lat": "39.0505548934644"
    },
    {
      "id": "pt.ine.add.PTCONT.2886093",
      "street": "TV CALÇADA",
      "house": "",
      "postcode": "2565-114",
      "city": "CARMÕES",
      "lon": "-9.143764237257473",
      "lat": "39.05063364799423"
    },
    {
      "id": "pt.ine.add.PTCONT.2922174",
      "street": "R PRINCIPAL",
      "house": "38",
      "postcode": "2565-114",
      "city": "CARMÕES",
      "lon": "-9.144287209853871",
      "lat": "39.050854299219004"
    },
    {
      "id": "pt.ine.add.PTCONT.2939205",
      "street": "R PRINCI PAL",
      "house": "20",
      "postcode": "2565-114",
      "city": "CARMÕES",
      "lon": "-9.144079041134626",
      "lat": "39.05002742482769"
    },
    {
      "id": "pt.ine.add.PTCONT.2949689",
      "street": "R PRINCI PAL",
      "house": "22",
      "postcode": "2565-114",
      "city": "CARMÕES",
      "lon": "-9.144080068393283",
      "lat": "39.050099474984236"
    },
    {
      "id": "pt.ine.add.PTCONT.2959099",
      "street": "R PRINCIPAL",
      "house": "30",
      "postcode": "2565-114",
      "city": "CARMÕES",
      "lon": "-9.144168881616922",
      "lat": "39.050657162742205"
    },
    {
      "id": "pt.ine.add.PTCONT.3013980",
      "street": "R PAZ",
      "house": "25",
      "postcode": "2565-114",
      "city": "CARMÕES",
      "lon": "-9.144173376400872",
      "lat": "39.05097238212746"
    },
    {
      "id": "pt.ine.add.PTCONT.3032342",
      "street": "R PAZ",
      "house": "31",
      "postcode": "2565-114",
      "city": "CARMÕES",
      "lon": "-9.144394373787108",
      "lat": "39.05107855452163"
    },
    {
      "id": "pt.ine.add.PTCONT.3068595",
      "street": "R PAZ",
      "house": "29",
      "postcode": "2565-114",
      "city": "CARMÕES",
      "lon": "-9.14430120049616",
      "lat": "39.05102531815462"
    },
    {
      "id": "pt.ine.add.PTCONT.3116040",
      "street": "R PAZ",
      "house": "23",
      "postcode": "2565-114",
      "city": "CARMÕES",
      "lon": "-9.144080460236061",
      "lat": "39.05093715811531"
    },
    {
      "id": "pt.ine.add.PTCONT.3172184",
      "street": "R MOINHO QTA DA CERCA",
      "house": "",
      "postcode": "2565-114",
      "city": "CARMÕES",
      "lon": "-9.14226952471965",
      "lat": "39.04950265403343"
    },
    {
      "id": "pt.ine.add.PTCONT.3204889",
      "street": "TV CALÇADA",
      "house": "",
      "postcode": "2565-114",
      "city": "CARMÕES",
      "lon": "-9.1439978104595",
      "lat": "39.05081177122289"
    },
    {
      "id": "pt.ine.add.PTCONT.3204890",
      "street": "TV ALEGRIA",
      "house": "4",
      "postcode": "2565-114",
      "city": "CARMÕES",
      "lon": "-9.144047343928692",
      "lat": "39.050234869399716"
    },
    {
      "id": "pt.ine.add.PTCONT.3218031",
      "street": "R PAZ",
      "house": "21",
      "postcode": "2565-114",
      "city": "CARMÕES",
      "lon": "-9.144033360161227",
      "lat": "39.05087451473893"
    },
    {
      "id": "pt.ine.add.PTCONT.3261132",
      "street": "TV CALÇADA",
      "house": "",
      "postcode": "2565-114",
      "city": "CARMÕES",
      "lon": "-9.144053378981392",
      "lat": "39.050658164045345"
    },
    {
      "id": "pt.ine.add.PTCONT.3291816",
      "street": "TV CALCADINHA",
      "house": "7",
      "postcode": "2565-114",
      "city": "CARMÕES",
      "lon": "-9.143982793420898",
      "lat": "39.050568702082494"
    },
    {
      "id": "pt.ine.add.PTCONT.3302196",
      "street": "TV CALÇADA",
      "house": "5",
      "postcode": "2565-114",
      "city": "CARMÕES",
      "lon": "-9.143948913030842",
      "lat": "39.05062304004424"
    },
    {
      "id": "pt.ine.add.PTCONT.3302197",
      "street": "TV CALÇADA",
      "house": "6",
      "postcode": "2565-114",
      "city": "CARMÕES",
      "lon": "-9.143922731161501",
      "lat": "39.050407089807095"
    },
    {
      "id": "pt.ine.add.PTCONT.3429367",
      "street": "R PAZ",
      "house": "13",
      "postcode": "2565-114",
      "city": "CARMÕES",
      "lon": "-9.143602148551713",
      "lat": "39.050608030414786"
    },
    {
      "id": "pt.ine.add.PTCONT.3450071",
      "street": "R PAZ",
      "house": "7",
      "postcode": "2565-114",
      "city": "CARMÕES",
      "lon": "-9.143253716235858",
      "lat": "39.05047593822749"
    }
  ]
}