{
  "data": {
    "distrito": "Faro",
    "concelho": "Loulé",
    "freguesia": "Loulé (São Clemente)",
    "OBJECTID": 1005,
    "BGRI2021": "08080801201",
    "DT21": "08",
    "DTMN21": "0808",
    "DTMNFR21": "080808",
    "DTMNFRSEC21": "080808012",
    "SECNUM21": "012",
    "SSNUM21": "01",
    "SECSSNUM21": "01201",
    "OBJECTID_1": 69381,
    "DT": "08",
    "CC": "08",
    "fr": "08",
    "SEC": "012",
    "SS": "01"
  },
  "addresses": [
    {
      "id": "pt.ine.add.PTCONT.1493972",
      "street": "R MANUEL GUERREIRO PEREIRA",
      "house": "141",
      "postcode": "8100-602",
      "city": "LOULÉ",
      "lon": "-8.018940978907315",
      "lat": "37.136757504041995"
    },
    {
      "id": "pt.ine.add.PTCONT.1508483",
      "street": "R MANUEL GUERREIRO PEREIRA",
      "house": "139",
      "postcode": "8100-602",
      "city": "LOULÉ",
      "lon": "-8.019008493263545",
      "lat": "37.13676657965749"
    },
    {
      "id": "pt.ine.add.PTCONT.1518194",
      "street": "AV JOSE DA COSTA MEALHA",
      "house": "62",
      "postcode": "8100-501",
      "city": "LOULÉ",
      "lon": "-8.019131388797767",
      "lat": "37.137370408781884"
    },
    {
      "id": "pt.ine.add.PTCONT.1518195",
      "street": "AV JOSE DA COSTA MEALHA",
      "house": "62",
      "postcode": "8100-501",
      "city": "LOULÉ",
      "lon": "-8.019131388797767",
      "lat": "37.137370408781884"
    },
    {
      "id": "pt.ine.add.PTCONT.1518196",
      "street": "AV JOSE DA COSTA MEALHA",
      "house": "62",
      "postcode": "8100-501",
      "city": "LOULÉ",
      "lon": "-8.019131388797767",
      "lat": "37.137370408781884"
    },
    {
      "id": "pt.ine.add.PTCONT.1518197",
      "street": "AV JOSE DA COSTA MEALHA",
      "house": "62",
      "postcode": "8100-501",
      "city": "LOULÉ",
      "lon": "-8.019131388797767",
      "lat": "37.137370408781884"
    },
    {
      "id": "pt.ine.add.PTCONT.1518198",
      "street": "AV JOSE DA COSTA MEALHA",
      "house": "62",
      "postcode": "8100-501",
      "city": "LOULÉ",
      "lon": "-8.019131388797767",
      "lat": "37.137370408781884"
    },
    {
      "id": "pt.ine.add.PTCONT.1518199",
      "street": "AV JOSE DA COSTA MEALHA",
      "house": "62",
      "postcode": "8100-501",
      "city": "LOULÉ",
      "lon": "-8.019131388797767",
      "lat": "37.137370408781884"
    },
    {
      "id": "pt.ine.add.PTCONT.1551899",
      "street": "R MANUEL GUERREIRO PEREIRA",
      "house": "143",
      "postcode": "8100-602",
      "city": "LOULÉ",
      "lon": "-8.018929656557644",
      "lat": "37.1368025461908"
    },
    {
      "id": "pt.ine.add.PTCONT.1601052",
      "street": "R MANUEL GUERREIRO PEREIRA",
      "house": "99",
      "postcode": "8100-602",
      "city": "LOULÉ",
      "lon": "-8.019244692365435",
      "lat": "37.13686592349245"
    },
    {
      "id": "pt.ine.add.PTCONT.1621559",
      "street": "R GEN HUMBERTO DELGADO",
      "house": "31",
      "postcode": "8100-582",
      "city": "LOULÉ",
      "lon": "-8.019345512151993",
      "lat": "37.13718139165871"
    },
    {
      "id": "pt.ine.add.PTCONT.1621561",
      "street": "R GEN HUMBERTO DELGADO",
      "house": "31",
      "postcode": "8100-582",
      "city": "LOULÉ",
      "lon": "-8.019345512151993",
      "lat": "37.13718139165871"
    },
    {
      "id": "pt.ine.add.PTCONT.1621562",
      "street": "R GEN HUMBERTO DELGADO",
      "house": "31",
      "postcode": "8100-582",
      "city": "LOULÉ",
      "lon": "-8.019345512151993",
      "lat": "37.13718139165871"
    },
    {
      "id": "pt.ine.add.PTCONT.1621563",
      "street": "R GEN HUMBERTO DELGADO",
      "house": "31",
      "postcode": "8100-582",
      "city": "LOULÉ",
      "lon": "-8.019345512151993",
      "lat": "37.13718139165871"
    },
    {
      "id": "pt.ine.add.PTCONT.1621564",
      "street": "R GEN HUMBERTO DELGADO",
      "house": "31",
      "postcode": "8100-582",
      "city": "LOULÉ",
      "lon": "-8.019345512151993",
      "lat": "37.13718139165871"
    },
    {
      "id": "pt.ine.add.PTCONT.1622938",
      "street": "R GEN HUMBERTO DELGADO",
      "house": "31",
      "postcode": "8100-582",
      "city": "LOULÉ",
      "lon": "-8.019345512151993",
      "lat": "37.13718139165871"
    },
    {
      "id": "pt.ine.add.PTCONT.1622940",
      "street": "R GEN HUMBERTO DELGADO",
      "house": "31",
      "postcode": "8100-582",
      "city": "LOULÉ",
      "lon": "-8.019345512151993",
      "lat": "37.13718139165871"
    },
    {
      "id": "pt.ine.add.PTCONT.1661617",
      "street": "R ENG BARATA CORREIA",
      "house": "22",
      "postcode": "8100-569",
      "city": "LOULÉ",
      "lon": "-8.018681538505069",
      "lat": "37.13714471014059"
    },
    {
      "id": "pt.ine.add.PTCONT.1663662",
      "street": "R ENG BARATA CORREIA",
      "house": "22",
      "postcode": "8100-569",
      "city": "LOULÉ",
      "lon": "-8.018681538505069",
      "lat": "37.13714471014059"
    },
    {
      "id": "pt.ine.add.PTCONT.1663723",
      "street": "R ENG BARATA CORREIA",
      "house": "22",
      "postcode": "8100-569",
      "city": "LOULÉ",
      "lon": "-8.018681538505069",
      "lat": "37.13714471014059"
    },
    {
      "id": "pt.ine.add.PTCONT.1716567",
      "street": "AV JOSE DA COSTA MEALHA",
      "house": "68",
      "postcode": "8100-501",
      "city": "LOULÉ",
      "lon": "-8.018737649270685",
      "lat": "37.13725289161311"
    },
    {
      "id": "pt.ine.add.PTCONT.1716568",
      "street": "AV JOSE DA COSTA MEALHA",
      "house": "68",
      "postcode": "8100-501",
      "city": "LOULÉ",
      "lon": "-8.018737649270685",
      "lat": "37.13725289161311"
    },
    {
      "id": "pt.ine.add.PTCONT.1716569",
      "street": "AV JOSE DA COSTA MEALHA",
      "house": "68",
      "postcode": "8100-501",
      "city": "LOULÉ",
      "lon": "-8.018737649270685",
      "lat": "37.13725289161311"
    },
    {
      "id": "pt.ine.add.PTCONT.1723321",
      "street": "AV JOSE DA COSTA MEALHA",
      "house": "66",
      "postcode": "8100-501",
      "city": "LOULÉ",
      "lon": "-8.01886139700895",
      "lat": "37.13728905338452"
    },
    {
      "id": "pt.ine.add.PTCONT.1748944",
      "street": "R MANUEL GUERREIRO PEREIRA",
      "house": "105",
      "postcode": "8100-602",
      "city": "LOULÉ",
      "lon": "-8.019154709108218",
      "lat": "37.13682979458191"
    },
    {
      "id": "pt.ine.add.PTCONT.1800089",
      "street": "R GEN HUMBERTO DELGADO",
      "house": "51",
      "postcode": "8100-582",
      "city": "LOULÉ",
      "lon": "-8.019447033695588",
      "lat": "37.137028308669684"
    },
    {
      "id": "pt.ine.add.PTCONT.1800090",
      "street": "R GEN HUMBERTO DELGADO",
      "house": "51",
      "postcode": "8100-582",
      "city": "LOULÉ",
      "lon": "-8.019447033695588",
      "lat": "37.137028308669684"
    },
    {
      "id": "pt.ine.add.PTCONT.1800091",
      "street": "R GEN HUMBERTO DELGADO",
      "house": "51",
      "postcode": "8100-582",
      "city": "LOULÉ",
      "lon": "-8.019447033695588",
      "lat": "37.137028308669684"
    },
    {
      "id": "pt.ine.add.PTCONT.1800092",
      "street": "R GEN HUMBERTO DELGADO",
      "house": "51",
      "postcode": "8100-582",
      "city": "LOULÉ",
      "lon": "-8.019447033695588",
      "lat": "37.137028308669684"
    },
    {
      "id": "pt.ine.add.PTCONT.1800908",
      "street": "R GEN HUMBERTO DELGADO",
      "house": "51",
      "postcode": "8100-582",
      "city": "LOULÉ",
      "lon": "-8.019447033695588",
      "lat": "37.137028308669684"
    }
  ]
}