{
  "data": {
    "distrito": "Guarda",
    "concelho": "Vila Nova de Foz Côa",
    "freguesia": "Touça",
    "OBJECTID": 26,
    "BGRI2021": "09141600105",
    "DT21": "09",
    "DTMN21": "0914",
    "DTMNFR21": "091416",
    "DTMNFRSEC21": "091416001",
    "SECNUM21": "001",
    "SSNUM21": "05",
    "SECSSNUM21": "00105",
    "OBJECTID_1": 83634,
    "DT": "09",
    "CC": "14",
    "fr": "16",
    "SEC": "001",
    "SS": "05"
  },
  "addresses": [
    {
      "id": "pt.ine.add.PTCONT.1905180",
      "street": "AV DA LIBERDADE",
      "house": "1",
      "postcode": "5155-816",
      "city": "TOUÇA",
      "lon": "-7.233373372513409",
      "lat": "41.04438315462589"
    },
    {
      "id": "pt.ine.add.PTCONT.1916580",
      "street": "R DIREITA",
      "house": "",
      "postcode": "5155-808",
      "city": "TOUÇA",
      "lon": "-7.2336987511688156",
      "lat": "41.04407054012645"
    },
    {
      "id": "pt.ine.add.PTCONT.1937604",
      "street": "AV DA LIBERDADE",
      "house": "",
      "postcode": "5155-816",
      "city": "TOUÇA",
      "lon": "-7.233843785097679",
      "lat": "41.04390058813597"
    },
    {
      "id": "pt.ine.add.PTCONT.1942645",
      "street": "R DOS OLMOS",
      "house": "",
      "postcode": "5155-818",
      "city": "TOUÇA",
      "lon": "-7.231927790241979",
      "lat": "41.044858097473515"
    },
    {
      "id": "pt.ine.add.PTCONT.1946686",
      "street": "AV DA LIBERDADE",
      "house": "",
      "postcode": "5155-816",
      "city": "TOUÇA",
      "lon": "-7.233940147150003",
      "lat": "41.04381129591645"
    },
    {
      "id": "pt.ine.add.PTCONT.1949602",
      "street": "R DIREITA",
      "house": "1",
      "postcode": "5155-808",
      "city": "TOUÇA",
      "lon": "-7.2318017912153865",
      "lat": "41.04363251223009"
    },
    {
      "id": "pt.ine.add.PTCONT.1958483",
      "street": "R DO EMIGRANTE",
      "house": "1",
      "postcode": "5155-809",
      "city": "TOUÇA",
      "lon": "-7.232767252736892",
      "lat": "41.04347797965209"
    },
    {
      "id": "pt.ine.add.PTCONT.1966275",
      "street": "R AMÉRICO VAZ TOMÉ",
      "house": "",
      "postcode": "5155-818",
      "city": "TOUÇA",
      "lon": "-7.229403862376448",
      "lat": "41.04417200650044"
    },
    {
      "id": "pt.ine.add.PTCONT.1966276",
      "street": "R DO EMIGRANTE",
      "house": "1",
      "postcode": "5155-809",
      "city": "TOUÇA",
      "lon": "-7.233787756952767",
      "lat": "41.04364802737666"
    },
    {
      "id": "pt.ine.add.PTCONT.1872646",
      "street": "AV DA LIBERDADE",
      "house": "3",
      "postcode": "5155-816",
      "city": "TOUÇA",
      "lon": "-7.233566221654884",
      "lat": "41.04419556747704"
    },
    {
      "id": "pt.ine.add.PTCONT.1887142",
      "street": "R DIREITA",
      "house": "3",
      "postcode": "5155-808",
      "city": "TOUÇA",
      "lon": "-7.233523802998427",
      "lat": "41.043817051067855"
    },
    {
      "id": "pt.ine.add.PTCONT.1887143",
      "street": "R DOS OLMOS",
      "house": "10",
      "postcode": "5155-818",
      "city": "TOUÇA",
      "lon": "-7.2312758075544314",
      "lat": "41.04469992218176"
    }
  ]
}