{
  "data": {
    "distrito": "Setúbal",
    "concelho": "Alcochete",
    "freguesia": "São Francisco",
    "OBJECTID": 161,
    "BGRI2021": "15020300109",
    "DT21": "15",
    "DTMN21": "1502",
    "DTMNFR21": "150203",
    "DTMNFRSEC21": "150203001",
    "SECNUM21": "001",
    "SSNUM21": "09",
    "SECSSNUM21": "00109",
    "OBJECTID_1": 160635,
    "DT": "15",
    "CC": "02",
    "fr": "03",
    "SEC": "001",
    "SS": "09"
  },
  "addresses": [
    {
      "id": "pt.ine.add.PTCONT.4681280",
      "street": "R VERGÍLIO FERREIRA",
      "house": "119",
      "postcode": "2890-308",
      "city": "SÃO FRANCISCO",
      "lon": "-8.970066330589773",
      "lat": "38.730956590004105"
    },
    {
      "id": "pt.ine.add.PTCONT.4758224",
      "street": "R EÇA DE QUEIRÓS",
      "house": "45",
      "postcode": "2890-312",
      "city": "SÃO FRANCISCO",
      "lon": "-8.96970838550462",
      "lat": "38.73083304071708"
    },
    {
      "id": "pt.ine.add.PTCONT.4803063",
      "street": "R ECA QUEIROS",
      "house": "67",
      "postcode": "2890-312",
      "city": "SÃO FRANCISCO",
      "lon": "-8.96944211961162",
      "lat": "38.73068181060874"
    },
    {
      "id": "pt.ine.add.PTCONT.4900002",
      "street": "R EÇA DE QUEIRÓS",
      "house": "11",
      "postcode": "2890-312",
      "city": "SÃO FRANCISCO",
      "lon": "-8.970099987229741",
      "lat": "38.73088428537453"
    },
    {
      "id": "pt.ine.add.PTCONT.4923890",
      "street": "R JOSÉ REGIO",
      "house": "",
      "postcode": "2890-314",
      "city": "SÃO FRANCISCO",
      "lon": "-8.969022950257642",
      "lat": "38.73122528611956"
    },
    {
      "id": "pt.ine.add.PTCONT.5112218",
      "street": "R EÇA DE QUEIRÓS",
      "house": "63",
      "postcode": "2890-312",
      "city": "SÃO FRANCISCO",
      "lon": "-8.969500350469326",
      "lat": "38.730744449717186"
    },
    {
      "id": "pt.ine.add.PTCONT.5120894",
      "street": "R JOSÉ REGIO",
      "house": "",
      "postcode": "2890-314",
      "city": "SÃO FRANCISCO",
      "lon": "-8.968871361359986",
      "lat": "38.73104621079338"
    },
    {
      "id": "pt.ine.add.PTCONT.5124986",
      "street": "R EÇA DE QUEIRÓS",
      "house": "41",
      "postcode": "2890-312",
      "city": "SÃO FRANCISCO",
      "lon": "-8.969812193069338",
      "lat": "38.73085932166336"
    }
  ]
}