{
  "data": {
    "distrito": "Faro",
    "concelho": "Vila do Bispo",
    "freguesia": "Budens",
    "OBJECTID": 171,
    "BGRI2021": "08150200308",
    "DT21": "08",
    "DTMN21": "0815",
    "DTMNFR21": "081502",
    "DTMNFRSEC21": "081502003",
    "SECNUM21": "003",
    "SSNUM21": "08",
    "SECSSNUM21": "00308",
    "OBJECTID_1": 74375,
    "DT": "08",
    "CC": "15",
    "fr": "02",
    "SEC": "003",
    "SS": "08"
  },
  "addresses": [
    {
      "id": "pt.ine.add.PTCONT.1483340",
      "street": "URB BEACH VILLAS",
      "house": "27",
      "postcode": "8650-191",
      "city": "BUDENS",
      "lon": "-8.827426925643081",
      "lat": "37.06651559170657"
    },
    {
      "id": "pt.ine.add.PTCONT.1483341",
      "street": "URB BEACH VILLAS",
      "house": "29",
      "postcode": "8650-191",
      "city": "BUDENS",
      "lon": "-8.827426925643081",
      "lat": "37.06651559170657"
    },
    {
      "id": "pt.ine.add.PTCONT.1483342",
      "street": "URB BEACH VILLAS",
      "house": "28",
      "postcode": "8650-191",
      "city": "BUDENS",
      "lon": "-8.827426925643081",
      "lat": "37.06651559170657"
    },
    {
      "id": "pt.ine.add.PTCONT.1483578",
      "street": "URB BEACH VILLAS",
      "house": "26",
      "postcode": "8650-191",
      "city": "BUDENS",
      "lon": "-8.827426925643081",
      "lat": "37.06651559170657"
    },
    {
      "id": "pt.ine.add.PTCONT.1503505",
      "street": "R 28 JANEIRO",
      "house": "12",
      "postcode": "8650-200",
      "city": "BUDENS",
      "lon": "-8.825770859961555",
      "lat": "37.0661648523023"
    },
    {
      "id": "pt.ine.add.PTCONT.1503506",
      "street": "R 28 JANEIRO",
      "house": "14",
      "postcode": "8650-200",
      "city": "BUDENS",
      "lon": "-8.825770859961555",
      "lat": "37.0661648523023"
    },
    {
      "id": "pt.ine.add.PTCONT.1503507",
      "street": "R 28 JANEIRO",
      "house": "16",
      "postcode": "8650-200",
      "city": "BUDENS",
      "lon": "-8.825770859961555",
      "lat": "37.0661648523023"
    },
    {
      "id": "pt.ine.add.PTCONT.1514654",
      "street": "URB BEACH VILLAS",
      "house": "M16",
      "postcode": "8650-191",
      "city": "BUDENS",
      "lon": "-8.827595259782813",
      "lat": "37.06771300793814"
    },
    {
      "id": "pt.ine.add.PTCONT.1520787",
      "street": "R 28 DE JANEIRO",
      "house": "10",
      "postcode": "8650-200",
      "city": "BUDENS",
      "lon": "-8.825624941392109",
      "lat": "37.06619273593319"
    },
    {
      "id": "pt.ine.add.PTCONT.1555942",
      "street": "URB BEACH VILLAS",
      "house": "M17",
      "postcode": "8650-191",
      "city": "BUDENS",
      "lon": "-8.827788373704482",
      "lat": "37.067928130008376"
    },
    {
      "id": "pt.ine.add.PTCONT.1560669",
      "street": "URB BEACH VILLAS",
      "house": "MA1",
      "postcode": "8650-191",
      "city": "BUDENS",
      "lon": "-8.827138043710407",
      "lat": "37.06689572500644"
    },
    {
      "id": "pt.ine.add.PTCONT.1560670",
      "street": "URB BEACH VILLAS",
      "house": "MA1",
      "postcode": "8650-191",
      "city": "BUDENS",
      "lon": "-8.827138043710407",
      "lat": "37.06689572500644"
    },
    {
      "id": "pt.ine.add.PTCONT.1622691",
      "street": "URB BEACH VILLAS CASA KATYA",
      "house": "19",
      "postcode": "8650-191",
      "city": "BUDENS",
      "lon": "-8.827374657646573",
      "lat": "37.06818284733204"
    },
    {
      "id": "pt.ine.add.PTCONT.1624997",
      "street": "URB BEACH VILLAS A",
      "house": "A55",
      "postcode": "8650-191",
      "city": "BUDENS",
      "lon": "-8.826146565016499",
      "lat": "37.06667625859596"
    },
    {
      "id": "pt.ine.add.PTCONT.1624998",
      "street": "URB BEACH VILLAS A",
      "house": "A 56",
      "postcode": "8650-191",
      "city": "BUDENS",
      "lon": "-8.826146565016499",
      "lat": "37.06667625859596"
    },
    {
      "id": "pt.ine.add.PTCONT.1624999",
      "street": "URB BEACH VILLAS A",
      "house": "A57",
      "postcode": "8650-191",
      "city": "BUDENS",
      "lon": "-8.826146565016499",
      "lat": "37.06667625859596"
    },
    {
      "id": "pt.ine.add.PTCONT.1625000",
      "street": "URB BEACH VILLAS A",
      "house": "A58",
      "postcode": "8650-191",
      "city": "BUDENS",
      "lon": "-8.826146565016499",
      "lat": "37.06667625859596"
    },
    {
      "id": "pt.ine.add.PTCONT.1625001",
      "street": "URB BEACH VILLAS A",
      "house": "A59",
      "postcode": "8650-191",
      "city": "BUDENS",
      "lon": "-8.826146565016499",
      "lat": "37.06667625859596"
    },
    {
      "id": "pt.ine.add.PTCONT.1625002",
      "street": "URB BEACH VILLAS A",
      "house": "A60",
      "postcode": "8650-191",
      "city": "BUDENS",
      "lon": "-8.826146565016499",
      "lat": "37.06667625859596"
    },
    {
      "id": "pt.ine.add.PTCONT.1625667",
      "street": "URB BEACH VILLAS A",
      "house": "A54",
      "postcode": "8650-191",
      "city": "BUDENS",
      "lon": "-8.826146565016499",
      "lat": "37.06667625859596"
    },
    {
      "id": "pt.ine.add.PTCONT.1657677",
      "street": "URB BEACH VILLAS",
      "house": "M23",
      "postcode": "8650-191",
      "city": "BUDENS",
      "lon": "-8.826495277000738",
      "lat": "37.06669224173451"
    },
    {
      "id": "pt.ine.add.PTCONT.1665551",
      "street": "URB BEACH VILLAS",
      "house": "MA2",
      "postcode": "8650-191",
      "city": "BUDENS",
      "lon": "-8.82705843618514",
      "lat": "37.06679707483399"
    },
    {
      "id": "pt.ine.add.PTCONT.1666786",
      "street": "URB BEACH VILLAS",
      "house": "MA2",
      "postcode": "8650-191",
      "city": "BUDENS",
      "lon": "-8.82705843618514",
      "lat": "37.06679707483399"
    },
    {
      "id": "pt.ine.add.PTCONT.1695805",
      "street": "URB BEACH VILLAS",
      "house": "21",
      "postcode": "8650-191",
      "city": "BUDENS",
      "lon": "-8.827270995221504",
      "lat": "37.066678694065494"
    },
    {
      "id": "pt.ine.add.PTCONT.1695806",
      "street": "URB BEACH VILLAS",
      "house": "20",
      "postcode": "8650-191",
      "city": "BUDENS",
      "lon": "-8.827270995221504",
      "lat": "37.066678694065494"
    },
    {
      "id": "pt.ine.add.PTCONT.1697307",
      "street": "URB BEACH VILLAS",
      "house": "19",
      "postcode": "8650-191",
      "city": "BUDENS",
      "lon": "-8.827270995221504",
      "lat": "37.066678694065494"
    },
    {
      "id": "pt.ine.add.PTCONT.1697308",
      "street": "URB BEACH VILLAS",
      "house": "18",
      "postcode": "8650-191",
      "city": "BUDENS",
      "lon": "-8.827270995221504",
      "lat": "37.066678694065494"
    },
    {
      "id": "pt.ine.add.PTCONT.1703074",
      "street": "URB BEACH VILLAS CASA DUNCAN",
      "house": "",
      "postcode": "8650-191",
      "city": "BUDENS",
      "lon": "-8.82765542155309",
      "lat": "37.06814516149106"
    },
    {
      "id": "pt.ine.add.PTCONT.1714488",
      "street": "URB BEACH VILLAS",
      "house": "M20",
      "postcode": "8650-191",
      "city": "BUDENS",
      "lon": "-8.827185485202472",
      "lat": "37.06840020734018"
    },
    {
      "id": "pt.ine.add.PTCONT.1728766",
      "street": "URB BEACH VILLAS SEAVIEW",
      "house": "",
      "postcode": "8650-191",
      "city": "BUDENS",
      "lon": "-8.826627491714056",
      "lat": "37.06639412094262"
    },
    {
      "id": "pt.ine.add.PTCONT.1752849",
      "street": "URB BEACH VILLAS HOWARDS LODGE",
      "house": "9",
      "postcode": "8650-191",
      "city": "BUDENS",
      "lon": "-8.827378928263482",
      "lat": "37.06865137027158"
    },
    {
      "id": "pt.ine.add.PTCONT.1758787",
      "street": "URB BEACH VILLAS",
      "house": "23",
      "postcode": "8650-191",
      "city": "BUDENS",
      "lon": "-8.827371447451878",
      "lat": "37.0665970112963"
    },
    {
      "id": "pt.ine.add.PTCONT.1758792",
      "street": "URB BEACH VILLAS",
      "house": "22",
      "postcode": "8650-191",
      "city": "BUDENS",
      "lon": "-8.827371447451878",
      "lat": "37.0665970112963"
    },
    {
      "id": "pt.ine.add.PTCONT.1758793",
      "street": "URB BEACH VILLAS",
      "house": "25",
      "postcode": "8650-191",
      "city": "BUDENS",
      "lon": "-8.827371447451878",
      "lat": "37.0665970112963"
    },
    {
      "id": "pt.ine.add.PTCONT.1758794",
      "street": "URB BEACH VILLAS",
      "house": "24",
      "postcode": "8650-191",
      "city": "BUDENS",
      "lon": "-8.827371447451878",
      "lat": "37.0665970112963"
    },
    {
      "id": "pt.ine.add.PTCONT.1764644",
      "street": "URB BEACH VILLAS",
      "house": "MA5",
      "postcode": "8650-191",
      "city": "BUDENS",
      "lon": "-8.826775953842018",
      "lat": "37.066645547957435"
    },
    {
      "id": "pt.ine.add.PTCONT.1777024",
      "street": "URB BEACH VILLAS",
      "house": "MA3",
      "postcode": "8650-191",
      "city": "BUDENS",
      "lon": "-8.82692318592627",
      "lat": "37.0667618238685"
    },
    {
      "id": "pt.ine.add.PTCONT.1783194",
      "street": "URB BEACH VILLAS",
      "house": "MA4",
      "postcode": "8650-191",
      "city": "BUDENS",
      "lon": "-8.826843989114954",
      "lat": "37.06670822384628"
    },
    {
      "id": "pt.ine.add.PTCONT.1791760",
      "street": "URB BEACH VILLAS",
      "house": "31",
      "postcode": "8650-191",
      "city": "BUDENS",
      "lon": "-8.827515887634767",
      "lat": "37.06640694445171"
    },
    {
      "id": "pt.ine.add.PTCONT.1791761",
      "street": "URB BEACH VILLAS",
      "house": "30",
      "postcode": "8650-191",
      "city": "BUDENS",
      "lon": "-8.827515887634767",
      "lat": "37.06640694445171"
    },
    {
      "id": "pt.ine.add.PTCONT.1791762",
      "street": "URB BEACH VILLAS",
      "house": "33",
      "postcode": "8650-191",
      "city": "BUDENS",
      "lon": "-8.827515887634767",
      "lat": "37.06640694445171"
    },
    {
      "id": "pt.ine.add.PTCONT.1791763",
      "street": "URB BEACH VILLAS",
      "house": "32",
      "postcode": "8650-191",
      "city": "BUDENS",
      "lon": "-8.827515887634767",
      "lat": "37.06640694445171"
    },
    {
      "id": "pt.ine.add.PTCONT.1795708",
      "street": "R 28 DE JANEIRO",
      "house": "1",
      "postcode": "8650-200",
      "city": "BUDENS",
      "lon": "-8.825738030931747",
      "lat": "37.06626415995935"
    },
    {
      "id": "pt.ine.add.PTCONT.1809526",
      "street": "VALE DA CASA",
      "house": "",
      "postcode": "8650-194",
      "city": "BUDENS",
      "lon": "-8.825788821910487",
      "lat": "37.066903611765134"
    }
  ]
}