{
  "data": {
    "distrito": "Lisboa",
    "concelho": "Sintra",
    "freguesia": "Uni達o das freguesias de Sintra (Santa Maria e S達o Miguel, S達o Martinho e S達o Pedro de Penaferrim)",
    "OBJECTID": 1887,
    "BGRI2021": "11112801216",
    "DT21": "11",
    "DTMN21": "1111",
    "DTMNFR21": "111128",
    "DTMNFRSEC21": "111128012",
    "SECNUM21": "012",
    "SSNUM21": "16",
    "SECSSNUM21": "01216",
    "OBJECTID_1": 114096,
    "DT": "11",
    "CC": "11",
    "fr": "28",
    "SEC": "012",
    "SS": "16"
  },
  "addresses": [
    {
      "id": "pt.ine.add.PTCONT.2362852",
      "street": "R PARTICULAR A TRAVESSA DA PEDRA",
      "house": "6",
      "postcode": "2710-382",
      "city": "SINTRA",
      "lon": "-9.372018206464686",
      "lat": "38.80970865237446"
    },
    {
      "id": "pt.ine.add.PTCONT.2362855",
      "street": "R FONTE DO BARRO",
      "house": "",
      "postcode": "2710-369",
      "city": "SINTRA",
      "lon": "-9.371194084687236",
      "lat": "38.80865449341325"
    },
    {
      "id": "pt.ine.add.PTCONT.2391018",
      "street": "TV PEDRA",
      "house": "9",
      "postcode": "2710-382",
      "city": "SINTRA",
      "lon": "-9.371945712293655",
      "lat": "38.809511254154046"
    },
    {
      "id": "pt.ine.add.PTCONT.2581737",
      "street": "R PARTICULAR A TRAVESSA DA PEDRA",
      "house": "8",
      "postcode": "2710-382",
      "city": "SINTRA",
      "lon": "-9.37214419621809",
      "lat": "38.809671285824834"
    },
    {
      "id": "pt.ine.add.PTCONT.2605580",
      "street": "TV PEDRA",
      "house": "5",
      "postcode": "2710-382",
      "city": "SINTRA",
      "lon": "-9.372568674213003",
      "lat": "38.80958571470092"
    },
    {
      "id": "pt.ine.add.PTCONT.2605581",
      "street": "TV PEDRA",
      "house": "5",
      "postcode": "2710-382",
      "city": "SINTRA",
      "lon": "-9.372568674213003",
      "lat": "38.80958571470092"
    },
    {
      "id": "pt.ine.add.PTCONT.2643207",
      "street": "R FONTE DO BARRO QTA DE S JOAQUIM",
      "house": "1",
      "postcode": "2710-369",
      "city": "SINTRA",
      "lon": "-9.370626791872303",
      "lat": "38.80780478270569"
    },
    {
      "id": "pt.ine.add.PTCONT.2723399",
      "street": "TV CASAL VENTOSO CASA DA SERRA",
      "house": "",
      "postcode": "2710-356",
      "city": "SINTRA",
      "lon": "-9.372677493263232",
      "lat": "38.80855769473363"
    },
    {
      "id": "pt.ine.add.PTCONT.2769105",
      "street": "R PARTICULAR A TRAVESSA DA PEDRA",
      "house": "7",
      "postcode": "2710-382",
      "city": "SINTRA",
      "lon": "-9.372076226281125",
      "lat": "38.80973505983235"
    },
    {
      "id": "pt.ine.add.PTCONT.2815170",
      "street": "TV PEDRA",
      "house": "3",
      "postcode": "2710-382",
      "city": "SINTRA",
      "lon": "-9.372161443820158",
      "lat": "38.809337822034955"
    },
    {
      "id": "pt.ine.add.PTCONT.2826470",
      "street": "R FONTE DO BARRO",
      "house": "11",
      "postcode": "2710-369",
      "city": "SINTRA",
      "lon": "-9.370724037136727",
      "lat": "38.80876756507465"
    },
    {
      "id": "pt.ine.add.PTCONT.2950164",
      "street": "R FONTE DO BARRO",
      "house": "9",
      "postcode": "2710-369",
      "city": "SINTRA",
      "lon": "-9.370776289264695",
      "lat": "38.80846075334645"
    },
    {
      "id": "pt.ine.add.PTCONT.2953910",
      "street": "R NOVA DO LOUREL",
      "house": "7",
      "postcode": "2710-369",
      "city": "SINTRA",
      "lon": "-9.371518553070029",
      "lat": "38.80877716059111"
    },
    {
      "id": "pt.ine.add.PTCONT.2967450",
      "street": "TV PEDRA",
      "house": "4",
      "postcode": "2710-382",
      "city": "SINTRA",
      "lon": "-9.37196686088132",
      "lat": "38.809402938793"
    },
    {
      "id": "pt.ine.add.PTCONT.2994645",
      "street": "R FONTE DO BARRO",
      "house": "15",
      "postcode": "2710-369",
      "city": "SINTRA",
      "lon": "-9.370934026504806",
      "lat": "38.80892747696249"
    },
    {
      "id": "pt.ine.add.PTCONT.2994646",
      "street": "R FONTE DO BARRO",
      "house": "15",
      "postcode": "2710-369",
      "city": "SINTRA",
      "lon": "-9.370934026504806",
      "lat": "38.80892747696249"
    },
    {
      "id": "pt.ine.add.PTCONT.2994647",
      "street": "TV CASAL VENTOSO",
      "house": "",
      "postcode": "2710-356",
      "city": "SINTRA",
      "lon": "-9.37276134249935",
      "lat": "38.80874596444183"
    },
    {
      "id": "pt.ine.add.PTCONT.2997059",
      "street": "R FONTE DO BARRO",
      "house": "7",
      "postcode": "2710-369",
      "city": "SINTRA",
      "lon": "-9.370988279603806",
      "lat": "38.80807118075507"
    },
    {
      "id": "pt.ine.add.PTCONT.3022123",
      "street": "R PARTICULAR A TRAVESSA DA PEDRA",
      "house": "5",
      "postcode": "2710-382",
      "city": "SINTRA",
      "lon": "-9.372097686771006",
      "lat": "38.80964475632578"
    },
    {
      "id": "pt.ine.add.PTCONT.3068925",
      "street": "TV CASAL VENTOSO CANTINHO DA SAUDADE",
      "house": "",
      "postcode": "2710-356",
      "city": "SINTRA",
      "lon": "-9.372668168328557",
      "lat": "38.80868389996001"
    },
    {
      "id": "pt.ine.add.PTCONT.3088039",
      "street": "TV CASAL VENTOSO",
      "house": "",
      "postcode": "2710-356",
      "city": "SINTRA",
      "lon": "-9.373227371931856",
      "lat": "38.809065291619376"
    },
    {
      "id": "pt.ine.add.PTCONT.3096879",
      "street": "AV AVIACAO PORTUGUESA",
      "house": "56",
      "postcode": "2710-537",
      "city": "SINTRA",
      "lon": "-9.371813203933533",
      "lat": "38.80983693251266"
    },
    {
      "id": "pt.ine.add.PTCONT.3106201",
      "street": "CSL BARROCA",
      "house": "5",
      "postcode": "2710-356",
      "city": "SINTRA",
      "lon": "-9.37401506862566",
      "lat": "38.80934517021219"
    },
    {
      "id": "pt.ine.add.PTCONT.3106854",
      "street": "TV PEDRA",
      "house": "1",
      "postcode": "2710-382",
      "city": "SINTRA",
      "lon": "-9.372361176159952",
      "lat": "38.809569900825394"
    },
    {
      "id": "pt.ine.add.PTCONT.3115274",
      "street": "R FONTE DO BARRO",
      "house": "3",
      "postcode": "2710-369",
      "city": "SINTRA",
      "lon": "-9.370386950332712",
      "lat": "38.80791541421581"
    },
    {
      "id": "pt.ine.add.PTCONT.3124458",
      "street": "TV CASAL VENTOSO",
      "house": "",
      "postcode": "2710-356",
      "city": "SINTRA",
      "lon": "-9.37293352702977",
      "lat": "38.808717114443944"
    },
    {
      "id": "pt.ine.add.PTCONT.3142387",
      "street": "TV CASAL VENTOSO",
      "house": "",
      "postcode": "2710-356",
      "city": "SINTRA",
      "lon": "-9.373085345447414",
      "lat": "38.808841609411886"
    },
    {
      "id": "pt.ine.add.PTCONT.3142388",
      "street": "TV CASAL VENTOSO A CASINHA",
      "house": "",
      "postcode": "2710-356",
      "city": "SINTRA",
      "lon": "-9.372980660677467",
      "lat": "38.80877966735625"
    },
    {
      "id": "pt.ine.add.PTCONT.3154144",
      "street": "R PARTICULAR",
      "house": "",
      "postcode": "2710-382",
      "city": "SINTRA",
      "lon": "-9.371879302265539",
      "lat": "38.80966508741526"
    },
    {
      "id": "pt.ine.add.PTCONT.3217086",
      "street": "TV CASAL VENTOSO",
      "house": "",
      "postcode": "2710-356",
      "city": "SINTRA",
      "lon": "-9.373259560191",
      "lat": "38.808929836066305"
    },
    {
      "id": "pt.ine.add.PTCONT.3236095",
      "street": "TV PEDRA",
      "house": "11",
      "postcode": "2710-382",
      "city": "SINTRA",
      "lon": "-9.37221029360722",
      "lat": "38.80949944055096"
    },
    {
      "id": "pt.ine.add.PTCONT.3238338",
      "street": "TV PEDRA",
      "house": "11",
      "postcode": "2710-382",
      "city": "SINTRA",
      "lon": "-9.372615495964485",
      "lat": "38.80963025587883"
    },
    {
      "id": "pt.ine.add.PTCONT.3281703",
      "street": "TV CASAL VENTOSO",
      "house": "",
      "postcode": "2710-356",
      "city": "SINTRA",
      "lon": "-9.373208834588405",
      "lat": "38.80866014680348"
    },
    {
      "id": "pt.ine.add.PTCONT.3297381",
      "street": "TV PEDRA",
      "house": "14",
      "postcode": "2710-382",
      "city": "SINTRA",
      "lon": "-9.37290184925098",
      "lat": "38.8095461489814"
    },
    {
      "id": "pt.ine.add.PTCONT.3319262",
      "street": "TV PEDRA",
      "house": "5",
      "postcode": "2710-382",
      "city": "SINTRA",
      "lon": "-9.37226039196436",
      "lat": "38.80973310652082"
    },
    {
      "id": "pt.ine.add.PTCONT.3373091",
      "street": "TV PEDRA",
      "house": "7",
      "postcode": "2710-382",
      "city": "SINTRA",
      "lon": "-9.372478152269444",
      "lat": "38.80967675097929"
    },
    {
      "id": "pt.ine.add.PTCONT.3447802",
      "street": "TV PEDRA",
      "house": "1",
      "postcode": "2710-382",
      "city": "SINTRA",
      "lon": "-9.37220393244073",
      "lat": "38.80979675850947"
    },
    {
      "id": "pt.ine.add.PTCONT.3454580",
      "street": "R D AFONSO HENRIQUES QTA DO RIO",
      "house": "",
      "postcode": "2710-346",
      "city": "SINTRA",
      "lon": "-9.370711458233055",
      "lat": "38.809371207030594"
    }
  ]
}