{
  "data": {
    "distrito": "Lisboa",
    "concelho": "Mafra",
    "freguesia": "Santo Isidoro",
    "OBJECTID": 85,
    "BGRI2021": "11091300116",
    "DT21": "11",
    "DTMN21": "1109",
    "DTMNFR21": "110913",
    "DTMNFRSEC21": "110913001",
    "SECNUM21": "001",
    "SSNUM21": "16",
    "SECSSNUM21": "00116",
    "OBJECTID_1": 108880,
    "DT": "11",
    "CC": "09",
    "fr": "13",
    "SEC": "001",
    "SS": "16"
  },
  "addresses": [
    {
      "id": "pt.ine.add.PTCONT.2269904",
      "street": "R ALMOINHAS",
      "house": "9",
      "postcode": "2640-004",
      "city": "SANTO ISIDORO MFR",
      "lon": "-9.4192309354629",
      "lat": "39.002641638978815"
    },
    {
      "id": "pt.ine.add.PTCONT.2290002",
      "street": "R ALMOINHAS",
      "house": "1",
      "postcode": "2640-004",
      "city": "SANTO ISIDORO MFR",
      "lon": "-9.41881955618546",
      "lat": "39.003510871773976"
    },
    {
      "id": "pt.ine.add.PTCONT.2463343",
      "street": "R CABECOS",
      "house": "16",
      "postcode": "2640-043",
      "city": "SANTO ISIDORO MFR",
      "lon": "-9.418350936932507",
      "lat": "39.00057966469624"
    },
    {
      "id": "pt.ine.add.PTCONT.2463344",
      "street": "R BRANCA",
      "house": "",
      "postcode": "2640-076",
      "city": "SANTO ISIDORO MFR",
      "lon": "-9.420180217012918",
      "lat": "39.002153783868344"
    },
    {
      "id": "pt.ine.add.PTCONT.2634131",
      "street": "EN 247",
      "house": "",
      "postcode": "2640-043",
      "city": "SANTO ISIDORO MFR",
      "lon": "-9.417727256784056",
      "lat": "39.001199029041246"
    },
    {
      "id": "pt.ine.add.PTCONT.2639782",
      "street": "R ALMOINHAS",
      "house": "3",
      "postcode": "2640-004",
      "city": "SANTO ISIDORO MFR",
      "lon": "-9.419139782418057",
      "lat": "39.00334521106423"
    },
    {
      "id": "pt.ine.add.PTCONT.2813094",
      "street": "R BRANCA",
      "house": "3",
      "postcode": "2640-076",
      "city": "SANTO ISIDORO MFR",
      "lon": "-9.420216962335441",
      "lat": "39.002270472976655"
    },
    {
      "id": "pt.ine.add.PTCONT.2828059",
      "street": "R CABECOS CONDOMINIO JBR",
      "house": "",
      "postcode": "2640-043",
      "city": "SANTO ISIDORO MFR",
      "lon": "-9.418062574642123",
      "lat": "39.00059184859706"
    },
    {
      "id": "pt.ine.add.PTCONT.2828060",
      "street": "R CABECOS CONDOMINIO JBR",
      "house": "",
      "postcode": "2640-043",
      "city": "SANTO ISIDORO MFR",
      "lon": "-9.418062574642123",
      "lat": "39.00059184859706"
    },
    {
      "id": "pt.ine.add.PTCONT.2866009",
      "street": "R BRANCA",
      "house": "1",
      "postcode": "2640-076",
      "city": "SANTO ISIDORO MFR",
      "lon": "-9.420246083340533",
      "lat": "39.00260342070252"
    },
    {
      "id": "pt.ine.add.PTCONT.2986302",
      "street": "R BRANCA",
      "house": "6",
      "postcode": "2640-076",
      "city": "SANTO ISIDORO MFR",
      "lon": "-9.420128177340787",
      "lat": "39.001830096227195"
    },
    {
      "id": "pt.ine.add.PTCONT.3006022",
      "street": "EN 247",
      "house": "",
      "postcode": "2640-004",
      "city": "SANTO ISIDORO MFR",
      "lon": "-9.417635275926145",
      "lat": "39.00185757293851"
    },
    {
      "id": "pt.ine.add.PTCONT.3106236",
      "street": "R BRANCA",
      "house": "2",
      "postcode": "2640-076",
      "city": "SANTO ISIDORO MFR",
      "lon": "-9.420243472103088",
      "lat": "39.00245933317691"
    },
    {
      "id": "pt.ine.add.PTCONT.3244389",
      "street": "R BRANCA",
      "house": "5",
      "postcode": "2640-076",
      "city": "SANTO ISIDORO MFR",
      "lon": "-9.420130788285839",
      "lat": "39.001974183774934"
    },
    {
      "id": "pt.ine.add.PTCONT.3400894",
      "street": "R BRANCA",
      "house": "",
      "postcode": "2640-076",
      "city": "SANTO ISIDORO MFR",
      "lon": "-9.420090290166076",
      "lat": "39.00165036877052"
    },
    {
      "id": "pt.ine.add.PTCONT.3411266",
      "street": "R ALMOINHAS",
      "house": "",
      "postcode": "2640-004",
      "city": "SANTO ISIDORO MFR",
      "lon": "-9.419039298118607",
      "lat": "39.0028959552361"
    },
    {
      "id": "pt.ine.add.PTCONT.3411267",
      "street": "R ALMOINHAS",
      "house": "",
      "postcode": "2640-004",
      "city": "SANTO ISIDORO MFR",
      "lon": "-9.419039298118607",
      "lat": "39.0028959552361"
    },
    {
      "id": "pt.ine.add.PTCONT.3411268",
      "street": "R ALMOINHAS",
      "house": "",
      "postcode": "2640-004",
      "city": "SANTO ISIDORO MFR",
      "lon": "-9.419039298118607",
      "lat": "39.0028959552361"
    },
    {
      "id": "pt.ine.add.PTCONT.3411269",
      "street": "R ALMOINHAS",
      "house": "",
      "postcode": "2640-004",
      "city": "SANTO ISIDORO MFR",
      "lon": "-9.419039298118607",
      "lat": "39.0028959552361"
    }
  ]
}