{
  "data": {
    "distrito": "Évora",
    "concelho": "Estremoz",
    "freguesia": "União das freguesias de São Lourenço de Mamporcão e São Bento de Ana Loura",
    "OBJECTID": 2,
    "BGRI2021": "07041600101",
    "DT21": "07",
    "DTMN21": "0704",
    "DTMNFR21": "070416",
    "DTMNFRSEC21": "070416001",
    "SECNUM21": "001",
    "SSNUM21": "01",
    "SECSSNUM21": "00101",
    "OBJECTID_1": 59689,
    "DT": "07",
    "CC": "04",
    "fr": "16",
    "SEC": "001",
    "SS": "01"
  },
  "addresses": [
    {
      "id": "pt.ine.add.PTCONT.1380689",
      "street": "MTE PONTES AOS MARES",
      "house": "",
      "postcode": "7100-652",
      "city": "SÃO LOURENÇO DE MAMPORCÃO",
      "lon": "-7.561030858616174",
      "lat": "38.87682431860614"
    },
    {
      "id": "pt.ine.add.PTCONT.1390375",
      "street": "MTE PROVEITOS",
      "house": "",
      "postcode": "7100-652",
      "city": "SÃO LOURENÇO DE MAMPORCÃO",
      "lon": "-7.561237682040565",
      "lat": "38.874023890508006"
    },
    {
      "id": "pt.ine.add.PTCONT.1395876",
      "street": "MTE PANACAS",
      "house": "",
      "postcode": "7100-652",
      "city": "SÃO LOURENÇO DE MAMPORCÃO",
      "lon": "-7.5558761244719665",
      "lat": "38.88296932357216"
    },
    {
      "id": "pt.ine.add.PTCONT.1410176",
      "street": "MTE MESQUITAS",
      "house": "",
      "postcode": "7100-652",
      "city": "SÃO LOURENÇO DE MAMPORCÃO",
      "lon": "-7.548093402743768",
      "lat": "38.881993778102974"
    },
    {
      "id": "pt.ine.add.PTCONT.1430179",
      "street": "MTE MESQUITAS",
      "house": "",
      "postcode": "7100-652",
      "city": "SÃO LOURENÇO DE MAMPORCÃO",
      "lon": "-7.549760381025872",
      "lat": "38.883902770348385"
    },
    {
      "id": "pt.ine.add.PTCONT.1431453",
      "street": "MTE PONTES AOS MARES",
      "house": "",
      "postcode": "7100-652",
      "city": "SÃO LOURENÇO DE MAMPORCÃO",
      "lon": "-7.56075740635245",
      "lat": "38.876435641266575"
    },
    {
      "id": "pt.ine.add.PTCONT.1435764",
      "street": "MTE MESQUITAS",
      "house": "",
      "postcode": "7100-652",
      "city": "SÃO LOURENÇO DE MAMPORCÃO",
      "lon": "-7.5479316219930395",
      "lat": "38.88204701451019"
    },
    {
      "id": "pt.ine.add.PTCONT.1439729",
      "street": "CSL CASAL DOS TIBERIOS",
      "house": "",
      "postcode": "7100-652",
      "city": "SÃO LOURENÇO DE MAMPORCÃO",
      "lon": "-7.555806395670221",
      "lat": "38.8830410415556"
    },
    {
      "id": "pt.ine.add.PTCONT.1443907",
      "street": "MTE PONTES AOS MARES",
      "house": "",
      "postcode": "7100-652",
      "city": "SÃO LOURENÇO DE MAMPORCÃO",
      "lon": "-7.560974181055589",
      "lat": "38.87670693892815"
    },
    {
      "id": "pt.ine.add.PTCONT.1450210",
      "street": "MTE MESQUITAS",
      "house": "",
      "postcode": "7100-652",
      "city": "SÃO LOURENÇO DE MAMPORCÃO",
      "lon": "-7.547989611937061",
      "lat": "38.88200226592096"
    }
  ]
}