{
  "data": {
    "distrito": "Viseu",
    "concelho": "São Pedro do Sul",
    "freguesia": "Bordonhos",
    "OBJECTID": 195,
    "BGRI2021": "18160200107",
    "DT21": "18",
    "DTMN21": "1816",
    "DTMNFR21": "181602",
    "DTMNFRSEC21": "181602001",
    "SECNUM21": "001",
    "SSNUM21": "07",
    "SECSSNUM21": "00107",
    "OBJECTID_1": 196973,
    "DT": "18",
    "CC": "16",
    "fr": "02",
    "SEC": "001",
    "SS": "07"
  },
  "addresses": [
    {
      "id": "pt.ine.add.PTCONT.5440707",
      "street": "R IGREJA",
      "house": "100",
      "postcode": "3660-032",
      "city": "BORDONHOS",
      "lon": "-8.083514310866464",
      "lat": "40.771167862552645"
    },
    {
      "id": "pt.ine.add.PTCONT.5472528",
      "street": "R BARREIRO",
      "house": "4",
      "postcode": "3660-032",
      "city": "BORDONHOS",
      "lon": "-8.086770631208223",
      "lat": "40.77259200482884"
    },
    {
      "id": "pt.ine.add.PTCONT.5477069",
      "street": "LG CASAL",
      "house": "8",
      "postcode": "3660-032",
      "city": "BORDONHOS",
      "lon": "-8.086582467778634",
      "lat": "40.770646850602944"
    },
    {
      "id": "pt.ine.add.PTCONT.5554305",
      "street": "R ARRABALDE",
      "house": "",
      "postcode": "3660-032",
      "city": "BORDONHOS",
      "lon": "-8.084223584056588",
      "lat": "40.773095233526995"
    },
    {
      "id": "pt.ine.add.PTCONT.5558959",
      "street": "LG NOGUEIRA",
      "house": "14",
      "postcode": "3660-032",
      "city": "BORDONHOS",
      "lon": "-8.087114372528125",
      "lat": "40.77224995264497"
    },
    {
      "id": "pt.ine.add.PTCONT.5559724",
      "street": "R D AFONSO DE BRAGANÇA",
      "house": "36",
      "postcode": "3660-032",
      "city": "BORDONHOS",
      "lon": "-8.086298113625444",
      "lat": "40.770763800544536"
    },
    {
      "id": "pt.ine.add.PTCONT.5565170",
      "street": "R DUQUES DE BRAGANÇA",
      "house": "16",
      "postcode": "3660-032",
      "city": "BORDONHOS",
      "lon": "-8.085433097455725",
      "lat": "40.77125872111369"
    },
    {
      "id": "pt.ine.add.PTCONT.5568222",
      "street": "R IGREJA",
      "house": "104",
      "postcode": "3660-032",
      "city": "BORDONHOS",
      "lon": "-8.08381038990325",
      "lat": "40.77122201937169"
    },
    {
      "id": "pt.ine.add.PTCONT.5575557",
      "street": "R DUQUES DE BRAGANÇA",
      "house": "12",
      "postcode": "3660-032",
      "city": "BORDONHOS",
      "lon": "-8.08491212905557",
      "lat": "40.770979349908934"
    },
    {
      "id": "pt.ine.add.PTCONT.5620778",
      "street": "BORDONHOS",
      "house": "18",
      "postcode": "3660-032",
      "city": "BORDONHOS",
      "lon": "-8.086414877380944",
      "lat": "40.77316818087182"
    },
    {
      "id": "pt.ine.add.PTCONT.5655800",
      "street": "R ARRABALDE",
      "house": "45",
      "postcode": "3660-032",
      "city": "BORDONHOS",
      "lon": "-8.084472416544386",
      "lat": "40.772978273781575"
    }
  ]
}