{
  "data": {
    "distrito": "Faro",
    "concelho": "Silves",
    "freguesia": "Uni√£o das freguesias de Algoz e Tunes",
    "OBJECTID": 238,
    "BGRI2021": "08131000515",
    "DT21": "08",
    "DTMN21": "0813",
    "DTMNFR21": "081310",
    "DTMNFRSEC21": "081310005",
    "SECNUM21": "005",
    "SSNUM21": "15",
    "SECSSNUM21": "00515",
    "OBJECTID_1": 72555,
    "DT": "08",
    "CC": "13",
    "fr": "10",
    "SEC": "005",
    "SS": "15"
  },
  "addresses": [
    {
      "id": "pt.ine.add.PTCONT.1477300",
      "street": "ESTR ALDEIA DE TINES",
      "house": "",
      "postcode": "8365-051",
      "city": "ALGOZ",
      "lon": "-8.296863912573837",
      "lat": "37.16294720936484"
    },
    {
      "id": "pt.ine.add.PTCONT.1617142",
      "street": "R RIBEIRO",
      "house": "7",
      "postcode": "8365-065",
      "city": "ALGOZ",
      "lon": "-8.301887529383672",
      "lat": "37.163985386775344"
    },
    {
      "id": "pt.ine.add.PTCONT.1617143",
      "street": "R RIBEIRO",
      "house": "7",
      "postcode": "8365-065",
      "city": "ALGOZ",
      "lon": "-8.301887529383672",
      "lat": "37.163985386775344"
    },
    {
      "id": "pt.ine.add.PTCONT.1617144",
      "street": "R RIBEIRO",
      "house": "7",
      "postcode": "8365-065",
      "city": "ALGOZ",
      "lon": "-8.301887529383672",
      "lat": "37.163985386775344"
    },
    {
      "id": "pt.ine.add.PTCONT.1617145",
      "street": "R RIBEIRO",
      "house": "7",
      "postcode": "8365-065",
      "city": "ALGOZ",
      "lon": "-8.301887529383672",
      "lat": "37.163985386775344"
    },
    {
      "id": "pt.ine.add.PTCONT.1617146",
      "street": "R RIBEIRO",
      "house": "7",
      "postcode": "8365-065",
      "city": "ALGOZ",
      "lon": "-8.301887529383672",
      "lat": "37.163985386775344"
    },
    {
      "id": "pt.ine.add.PTCONT.1617156",
      "street": "R RIBEIRO",
      "house": "7",
      "postcode": "8365-065",
      "city": "ALGOZ",
      "lon": "-8.301887529383672",
      "lat": "37.163985386775344"
    },
    {
      "id": "pt.ine.add.PTCONT.1617157",
      "street": "R RIBEIRO",
      "house": "7",
      "postcode": "8365-065",
      "city": "ALGOZ",
      "lon": "-8.301887529383672",
      "lat": "37.163985386775344"
    },
    {
      "id": "pt.ine.add.PTCONT.1624511",
      "street": "R RIBEIRO",
      "house": "",
      "postcode": "8365-065",
      "city": "ALGOZ",
      "lon": "-8.301663036530318",
      "lat": "37.16429206543883"
    },
    {
      "id": "pt.ine.add.PTCONT.1624512",
      "street": "R RIBEIRO",
      "house": "",
      "postcode": "8365-065",
      "city": "ALGOZ",
      "lon": "-8.301663036530318",
      "lat": "37.16429206543883"
    },
    {
      "id": "pt.ine.add.PTCONT.1624513",
      "street": "R RIBEIRO",
      "house": "",
      "postcode": "8365-065",
      "city": "ALGOZ",
      "lon": "-8.301663036530318",
      "lat": "37.16429206543883"
    },
    {
      "id": "pt.ine.add.PTCONT.1624514",
      "street": "R RIBEIRO",
      "house": "",
      "postcode": "8365-065",
      "city": "ALGOZ",
      "lon": "-8.301663036530318",
      "lat": "37.16429206543883"
    },
    {
      "id": "pt.ine.add.PTCONT.1624515",
      "street": "R RIBEIRO",
      "house": "",
      "postcode": "8365-065",
      "city": "ALGOZ",
      "lon": "-8.301663036530318",
      "lat": "37.16429206543883"
    },
    {
      "id": "pt.ine.add.PTCONT.1624516",
      "street": "R RIBEIRO",
      "house": "",
      "postcode": "8365-065",
      "city": "ALGOZ",
      "lon": "-8.301663036530318",
      "lat": "37.16429206543883"
    },
    {
      "id": "pt.ine.add.PTCONT.1624517",
      "street": "R RIBEIRO",
      "house": "",
      "postcode": "8365-065",
      "city": "ALGOZ",
      "lon": "-8.301663036530318",
      "lat": "37.16429206543883"
    },
    {
      "id": "pt.ine.add.PTCONT.1631325",
      "street": "R RIBEIRO",
      "house": "",
      "postcode": "8365-065",
      "city": "ALGOZ",
      "lon": "-8.301403447076051",
      "lat": "37.16400409634106"
    },
    {
      "id": "pt.ine.add.PTCONT.1636444",
      "street": "R RIBEIRO",
      "house": "",
      "postcode": "8365-065",
      "city": "ALGOZ",
      "lon": "-8.301438382008314",
      "lat": "37.16452665939065"
    },
    {
      "id": "pt.ine.add.PTCONT.1646713",
      "street": "R RIBEIRO",
      "house": "",
      "postcode": "8365-065",
      "city": "ALGOZ",
      "lon": "-8.301529491550788",
      "lat": "37.16499507918968"
    },
    {
      "id": "pt.ine.add.PTCONT.1663626",
      "street": "ESTR ALDEIA TUNES",
      "house": "",
      "postcode": "8365-065",
      "city": "ALGOZ",
      "lon": "-8.300784280467354",
      "lat": "37.16403200569896"
    },
    {
      "id": "pt.ine.add.PTCONT.1666982",
      "street": "R DAS LARANJEIRAS",
      "house": "",
      "postcode": "8365-065",
      "city": "ALGOZ",
      "lon": "-8.301372127922049",
      "lat": "37.16511244003451"
    },
    {
      "id": "pt.ine.add.PTCONT.1719872",
      "street": "R RIBEIRO",
      "house": "",
      "postcode": "8365-065",
      "city": "ALGOZ",
      "lon": "-8.301776564603095",
      "lat": "37.16471540036483"
    },
    {
      "id": "pt.ine.add.PTCONT.1733264",
      "street": "R RIBEIRO",
      "house": "",
      "postcode": "8365-065",
      "city": "ALGOZ",
      "lon": "-8.30129369549394",
      "lat": "37.165283752046015"
    },
    {
      "id": "pt.ine.add.PTCONT.1754848",
      "street": "R RIBEIRO",
      "house": "",
      "postcode": "8365-065",
      "city": "ALGOZ",
      "lon": "-8.301775263161456",
      "lat": "37.1641297156268"
    },
    {
      "id": "pt.ine.add.PTCONT.1754849",
      "street": "R RIBEIRO",
      "house": "",
      "postcode": "8365-065",
      "city": "ALGOZ",
      "lon": "-8.301775263161456",
      "lat": "37.1641297156268"
    },
    {
      "id": "pt.ine.add.PTCONT.1754850",
      "street": "R RIBEIRO",
      "house": "",
      "postcode": "8365-065",
      "city": "ALGOZ",
      "lon": "-8.301775263161456",
      "lat": "37.1641297156268"
    },
    {
      "id": "pt.ine.add.PTCONT.1754851",
      "street": "R RIBEIRO",
      "house": "",
      "postcode": "8365-065",
      "city": "ALGOZ",
      "lon": "-8.301775263161456",
      "lat": "37.1641297156268"
    },
    {
      "id": "pt.ine.add.PTCONT.1754954",
      "street": "R RIBEIRO",
      "house": "",
      "postcode": "8365-065",
      "city": "ALGOZ",
      "lon": "-8.301775263161456",
      "lat": "37.1641297156268"
    },
    {
      "id": "pt.ine.add.PTCONT.1756094",
      "street": "R RIBEIRO",
      "house": "",
      "postcode": "8365-065",
      "city": "ALGOZ",
      "lon": "-8.301775263161456",
      "lat": "37.1641297156268"
    },
    {
      "id": "pt.ine.add.PTCONT.1756385",
      "street": "R RIBEIRO",
      "house": "",
      "postcode": "8365-065",
      "city": "ALGOZ",
      "lon": "-8.301775263161456",
      "lat": "37.1641297156268"
    },
    {
      "id": "pt.ine.add.PTCONT.1758475",
      "street": "R RIBEIRO",
      "house": "",
      "postcode": "8365-065",
      "city": "ALGOZ",
      "lon": "-8.300457540804633",
      "lat": "37.16392434078239"
    },
    {
      "id": "pt.ine.add.PTCONT.1766031",
      "street": "R RIBEIRO",
      "house": "",
      "postcode": "8365-065",
      "city": "ALGOZ",
      "lon": "-8.299998511636812",
      "lat": "37.1650963612929"
    },
    {
      "id": "pt.ine.add.PTCONT.1824662",
      "street": "ESTR ALDEIA TUNES",
      "house": "",
      "postcode": "8365-065",
      "city": "ALGOZ",
      "lon": "-8.300919543804433",
      "lat": "37.16410389874828"
    },
    {
      "id": "pt.ine.add.PTCONT.1839749",
      "street": "R RIBEIRO",
      "house": "",
      "postcode": "8365-065",
      "city": "ALGOZ",
      "lon": "-8.300009988403385",
      "lat": "37.165195461312486"
    },
    {
      "id": "pt.ine.add.PTCONT.1843409",
      "street": "R RIBEIRO",
      "house": "",
      "postcode": "8365-065",
      "city": "ALGOZ",
      "lon": "-8.300471580871989",
      "lat": "37.16518579975983"
    }
  ]
}