{
  "data": {
    "distrito": "Faro",
    "concelho": "Silves",
    "freguesia": "União das freguesias de Algoz e Tunes",
    "OBJECTID": 256,
    "BGRI2021": "08131000527",
    "DT21": "08",
    "DTMN21": "0813",
    "DTMNFR21": "081310",
    "DTMNFRSEC21": "081310005",
    "SECNUM21": "005",
    "SSNUM21": "27",
    "SECSSNUM21": "00527",
    "OBJECTID_1": 72427,
    "DT": "08",
    "CC": "13",
    "fr": "10",
    "SEC": "005",
    "SS": "27"
  },
  "addresses": [
    {
      "id": "pt.ine.add.PTCONT.1506350",
      "street": "SIT ALDEIA DE TUNES",
      "house": "20",
      "postcode": "8365-051",
      "city": "ALGOZ",
      "lon": "-8.285676231441732",
      "lat": "37.1645930527273"
    },
    {
      "id": "pt.ine.add.PTCONT.1509161",
      "street": "",
      "house": "",
      "postcode": "8365-051",
      "city": "ALGOZ",
      "lon": "-8.283168289740477",
      "lat": "37.16599289232274"
    },
    {
      "id": "pt.ine.add.PTCONT.1514401",
      "street": "SOLAR DA LARANGEIRA",
      "house": "",
      "postcode": "8365-087",
      "city": "ALGOZ",
      "lon": "-8.283339827433682",
      "lat": "37.173020909747386"
    },
    {
      "id": "pt.ine.add.PTCONT.1514419",
      "street": "R DO FONTANÁRIO",
      "house": "410",
      "postcode": "8365-051",
      "city": "ALGOZ",
      "lon": "-8.284865564946463",
      "lat": "37.164576072482554"
    },
    {
      "id": "pt.ine.add.PTCONT.1514420",
      "street": "",
      "house": "",
      "postcode": "8365-051",
      "city": "ALGOZ",
      "lon": "-8.28434759043668",
      "lat": "37.16454069239174"
    },
    {
      "id": "pt.ine.add.PTCONT.1514917",
      "street": "ALDEIA DE TUNES",
      "house": "7",
      "postcode": "8365-051",
      "city": "ALGOZ",
      "lon": "-8.284662871390053",
      "lat": "37.1645583107421"
    },
    {
      "id": "pt.ine.add.PTCONT.1519170",
      "street": "CASA TORREJAO",
      "house": "",
      "postcode": "8365-051",
      "city": "ALGOZ",
      "lon": "-8.283551648206684",
      "lat": "37.166271733708335"
    },
    {
      "id": "pt.ine.add.PTCONT.1523744",
      "street": "",
      "house": "",
      "postcode": "8365-051",
      "city": "ALGOZ",
      "lon": "-8.285259711642823",
      "lat": "37.16462061991953"
    },
    {
      "id": "pt.ine.add.PTCONT.1523886",
      "street": "CASA PEQUENA",
      "house": "",
      "postcode": "8365-051",
      "city": "ALGOZ",
      "lon": "-8.283179709046864",
      "lat": "37.16607397292662"
    },
    {
      "id": "pt.ine.add.PTCONT.1535394",
      "street": "CASA VELHA DA ALDEIA",
      "house": "",
      "postcode": "8365-051",
      "city": "ALGOZ",
      "lon": "-8.286047824856883",
      "lat": "37.164619605446504"
    },
    {
      "id": "pt.ine.add.PTCONT.1535395",
      "street": "CASA VELHA DA ALDEIA",
      "house": "",
      "postcode": "8365-051",
      "city": "ALGOZ",
      "lon": "-8.286047824856883",
      "lat": "37.164619605446504"
    },
    {
      "id": "pt.ine.add.PTCONT.1535396",
      "street": "CASA VELHA DA ALDEIA",
      "house": "",
      "postcode": "8365-051",
      "city": "ALGOZ",
      "lon": "-8.286047824856883",
      "lat": "37.164619605446504"
    },
    {
      "id": "pt.ine.add.PTCONT.1552622",
      "street": "",
      "house": "",
      "postcode": "8365-051",
      "city": "ALGOZ",
      "lon": "-8.285507404371495",
      "lat": "37.164620301649926"
    },
    {
      "id": "pt.ine.add.PTCONT.1560589",
      "street": "",
      "house": "",
      "postcode": "8365-051",
      "city": "ALGOZ",
      "lon": "-8.28577757837015",
      "lat": "37.16460193277383"
    },
    {
      "id": "pt.ine.add.PTCONT.1564026",
      "street": "",
      "house": "",
      "postcode": "8365-051",
      "city": "ALGOZ",
      "lon": "-8.285135829183034",
      "lat": "37.16460275777725"
    },
    {
      "id": "pt.ine.add.PTCONT.1567601",
      "street": "",
      "house": "",
      "postcode": "8365-051",
      "city": "ALGOZ",
      "lon": "-8.282965414884377",
      "lat": "37.165885022287284"
    },
    {
      "id": "pt.ine.add.PTCONT.1580816",
      "street": "",
      "house": "",
      "postcode": "8365-051",
      "city": "ALGOZ",
      "lon": "-8.283100557886948",
      "lat": "37.165902872441265"
    },
    {
      "id": "pt.ine.add.PTCONT.1584687",
      "street": "",
      "house": "",
      "postcode": "8365-051",
      "city": "ALGOZ",
      "lon": "-8.28331470978153",
      "lat": "37.166019738514464"
    },
    {
      "id": "pt.ine.add.PTCONT.1588859",
      "street": "SIT ALDEIA DE TUNES",
      "house": "408",
      "postcode": "8365-051",
      "city": "ALGOZ",
      "lon": "-8.284595300897799",
      "lat": "37.16454938657093"
    },
    {
      "id": "pt.ine.add.PTCONT.1599610",
      "street": "",
      "house": "",
      "postcode": "8365-051",
      "city": "ALGOZ",
      "lon": "-8.27872269200633",
      "lat": "37.16688147335614"
    },
    {
      "id": "pt.ine.add.PTCONT.1618812",
      "street": "",
      "house": "",
      "postcode": "8365-051",
      "city": "ALGOZ",
      "lon": "-8.281154524382032",
      "lat": "37.172582143034894"
    },
    {
      "id": "pt.ine.add.PTCONT.1660278",
      "street": "SIT ALDEIA DE TUNES",
      "house": "410",
      "postcode": "8365-051",
      "city": "ALGOZ",
      "lon": "-8.284775476909358",
      "lat": "37.16456717724722"
    },
    {
      "id": "pt.ine.add.PTCONT.1697379",
      "street": "SIT ALDEIA DE TUNES",
      "house": "375",
      "postcode": "8365-051",
      "city": "ALGOZ",
      "lon": "-8.28556360768405",
      "lat": "37.1645751765371"
    },
    {
      "id": "pt.ine.add.PTCONT.1714275",
      "street": "CASA AVO ELISA",
      "house": "",
      "postcode": "8365-051",
      "city": "ALGOZ",
      "lon": "-8.285428538803924",
      "lat": "37.16459337134959"
    },
    {
      "id": "pt.ine.add.PTCONT.1717137",
      "street": "",
      "house": "",
      "postcode": "8365-051",
      "city": "ALGOZ",
      "lon": "-8.285034500361624",
      "lat": "37.16460288772328"
    },
    {
      "id": "pt.ine.add.PTCONT.1737121",
      "street": "",
      "house": "",
      "postcode": "8365-084",
      "city": "ALGOZ",
      "lon": "-8.290061193301714",
      "lat": "37.17259771243965"
    },
    {
      "id": "pt.ine.add.PTCONT.1740317",
      "street": "",
      "house": "",
      "postcode": "8365-051",
      "city": "ALGOZ",
      "lon": "-8.285530102830347",
      "lat": "37.164710378103045"
    },
    {
      "id": "pt.ine.add.PTCONT.1740319",
      "street": "",
      "house": "",
      "postcode": "8365-051",
      "city": "ALGOZ",
      "lon": "-8.285530102830347",
      "lat": "37.164710378103045"
    },
    {
      "id": "pt.ine.add.PTCONT.1817507",
      "street": "",
      "house": "",
      "postcode": "8365-087",
      "city": "ALGOZ",
      "lon": "-8.281936514912159",
      "lat": "37.175158181032906"
    },
    {
      "id": "pt.ine.add.PTCONT.1824953",
      "street": "",
      "house": "",
      "postcode": "8365-084",
      "city": "ALGOZ",
      "lon": "-8.285785116291695",
      "lat": "37.173945871151425"
    },
    {
      "id": "pt.ine.add.PTCONT.1832039",
      "street": "",
      "house": "",
      "postcode": "8365-051",
      "city": "ALGOZ",
      "lon": "-8.281039976397388",
      "lat": "37.165806346385395"
    },
    {
      "id": "pt.ine.add.PTCONT.1834878",
      "street": "",
      "house": "",
      "postcode": "8365-051",
      "city": "ALGOZ",
      "lon": "-8.283213093945852",
      "lat": "37.16587569826353"
    },
    {
      "id": "pt.ine.add.PTCONT.1839637",
      "street": "VARGEM DO MOINHO",
      "house": "",
      "postcode": "8365-084",
      "city": "ALGOZ",
      "lon": "-8.288406922306034",
      "lat": "37.17305943013132"
    }
  ]
}