{
  "data": {
    "distrito": "Porto",
    "concelho": "Porto",
    "freguesia": "Bonfim",
    "OBJECTID": 89,
    "BGRI2021": "13120202402",
    "DT21": "13",
    "DTMN21": "1312",
    "DTMNFR21": "131202",
    "DTMNFRSEC21": "131202024",
    "SECNUM21": "024",
    "SSNUM21": "02",
    "SECSSNUM21": "02402",
    "OBJECTID_1": 138723,
    "DT": "13",
    "CC": "12",
    "fr": "02",
    "SEC": "024",
    "SS": "02"
  },
  "addresses": [
    {
      "id": "pt.ine.add.PTCONT.3540547",
      "street": "R BARÃO DE S COSME",
      "house": "84",
      "postcode": "4000-500",
      "city": "PORTO",
      "lon": "-8.598813550066742",
      "lat": "41.14543600380963"
    },
    {
      "id": "pt.ine.add.PTCONT.3540747",
      "street": "R BARÃO DE S COSME",
      "house": "84",
      "postcode": "4000-500",
      "city": "PORTO",
      "lon": "-8.598813550066742",
      "lat": "41.14543600380963"
    },
    {
      "id": "pt.ine.add.PTCONT.3540748",
      "street": "R BARÃO DE S COSME",
      "house": "84",
      "postcode": "4000-500",
      "city": "PORTO",
      "lon": "-8.598813550066742",
      "lat": "41.14543600380963"
    },
    {
      "id": "pt.ine.add.PTCONT.3540749",
      "street": "R BARÃO DE S COSME",
      "house": "84",
      "postcode": "4000-500",
      "city": "PORTO",
      "lon": "-8.598813550066742",
      "lat": "41.14543600380963"
    },
    {
      "id": "pt.ine.add.PTCONT.3548891",
      "street": "R JOAQUIM ANTÓNIO DE AGUIAR",
      "house": "97",
      "postcode": "4000-311",
      "city": "PORTO",
      "lon": "-8.598262059590324",
      "lat": "41.144933987456405"
    },
    {
      "id": "pt.ine.add.PTCONT.3612267",
      "street": "AV RODRIGUES DE FREITAS",
      "house": "141",
      "postcode": "4000-420",
      "city": "PORTO",
      "lon": "-8.598637170646448",
      "lat": "41.14576087395484"
    },
    {
      "id": "pt.ine.add.PTCONT.3626191",
      "street": "AV RODRIGUES DE FREITAS",
      "house": "163",
      "postcode": "4000-420",
      "city": "PORTO",
      "lon": "-8.59879202041163",
      "lat": "41.14576024806119"
    },
    {
      "id": "pt.ine.add.PTCONT.3663856",
      "street": "R BARÃO DE S COSME",
      "house": "72",
      "postcode": "4000-500",
      "city": "PORTO",
      "lon": "-8.598777178686172",
      "lat": "41.1453461071722"
    },
    {
      "id": "pt.ine.add.PTCONT.3664026",
      "street": "R BARÃO DE S COSME",
      "house": "72",
      "postcode": "4000-500",
      "city": "PORTO",
      "lon": "-8.598777178686172",
      "lat": "41.1453461071722"
    },
    {
      "id": "pt.ine.add.PTCONT.3664027",
      "street": "R BARÃO DE S COSME",
      "house": "72",
      "postcode": "4000-500",
      "city": "PORTO",
      "lon": "-8.598777178686172",
      "lat": "41.1453461071722"
    },
    {
      "id": "pt.ine.add.PTCONT.3671328",
      "street": "R BARAO DE S COSME",
      "house": "48",
      "postcode": "4000-500",
      "city": "PORTO",
      "lon": "-8.598716092876385",
      "lat": "41.145130249271126"
    },
    {
      "id": "pt.ine.add.PTCONT.3671329",
      "street": "R BARAO DE S COSME",
      "house": "48",
      "postcode": "4000-500",
      "city": "PORTO",
      "lon": "-8.598716092876385",
      "lat": "41.145130249271126"
    },
    {
      "id": "pt.ine.add.PTCONT.3671330",
      "street": "R BARAO S COSME",
      "house": "144",
      "postcode": "4000-500",
      "city": "PORTO",
      "lon": "-8.598716092876385",
      "lat": "41.145130249271126"
    },
    {
      "id": "pt.ine.add.PTCONT.3680218",
      "street": "R DO DQ DE PALMELA",
      "house": "215",
      "postcode": "4000-373",
      "city": "PORTO",
      "lon": "-8.598366737499559",
      "lat": "41.14485935431869"
    },
    {
      "id": "pt.ine.add.PTCONT.3680215",
      "street": "R DO DQ DE PALMELA",
      "house": "215",
      "postcode": "4000-373",
      "city": "PORTO",
      "lon": "-8.598366737499559",
      "lat": "41.14485935431869"
    },
    {
      "id": "pt.ine.add.PTCONT.3680216",
      "street": "R DO DQ DE PALMELA",
      "house": "215",
      "postcode": "4000-373",
      "city": "PORTO",
      "lon": "-8.598366737499559",
      "lat": "41.14485935431869"
    },
    {
      "id": "pt.ine.add.PTCONT.3680217",
      "street": "R DO DQ DE PALMELA",
      "house": "215",
      "postcode": "4000-373",
      "city": "PORTO",
      "lon": "-8.598366737499559",
      "lat": "41.14485935431869"
    },
    {
      "id": "pt.ine.add.PTCONT.3713042",
      "street": "R BARÃO DE S COSME",
      "house": "58",
      "postcode": "4000-500",
      "city": "PORTO",
      "lon": "-8.598740425240871",
      "lat": "41.145202185860335"
    },
    {
      "id": "pt.ine.add.PTCONT.3812528",
      "street": "R DQ TERCEIRA",
      "house": "153",
      "postcode": "4000-535",
      "city": "PORTO",
      "lon": "-8.598181733621416",
      "lat": "41.14536652144115"
    },
    {
      "id": "pt.ine.add.PTCONT.3812529",
      "street": "R DQ TERCEIRA",
      "house": "153",
      "postcode": "4000-535",
      "city": "PORTO",
      "lon": "-8.598181733621416",
      "lat": "41.14536652144115"
    },
    {
      "id": "pt.ine.add.PTCONT.3816202",
      "street": "R DQ TERCEIRA",
      "house": "153",
      "postcode": "4000-535",
      "city": "PORTO",
      "lon": "-8.598181733621416",
      "lat": "41.14536652144115"
    },
    {
      "id": "pt.ine.add.PTCONT.3838783",
      "street": "AV RODRIGUES DE FREITAS",
      "house": "171",
      "postcode": "4000-420",
      "city": "PORTO",
      "lon": "-8.59894687017193",
      "lat": "41.14575962195938"
    },
    {
      "id": "pt.ine.add.PTCONT.3909324",
      "street": "R BARÃO DE S COSME",
      "house": "78",
      "postcode": "4000-500",
      "city": "PORTO",
      "lon": "-8.598789408637206",
      "lat": "41.14539107956927"
    },
    {
      "id": "pt.ine.add.PTCONT.3915644",
      "street": "R DQ TERCEIRA",
      "house": "193",
      "postcode": "4000-535",
      "city": "PORTO",
      "lon": "-8.598458561491208",
      "lat": "41.14577059999091"
    },
    {
      "id": "pt.ine.add.PTCONT.3915645",
      "street": "R DQ TERCEIRA",
      "house": "193",
      "postcode": "4000-535",
      "city": "PORTO",
      "lon": "-8.598458561491208",
      "lat": "41.14577059999091"
    },
    {
      "id": "pt.ine.add.PTCONT.3915646",
      "street": "R DQ TERCEIRA",
      "house": "193",
      "postcode": "4000-535",
      "city": "PORTO",
      "lon": "-8.598458561491208",
      "lat": "41.14577059999091"
    },
    {
      "id": "pt.ine.add.PTCONT.3915647",
      "street": "R DQ TERCEIRA",
      "house": "193",
      "postcode": "4000-535",
      "city": "PORTO",
      "lon": "-8.598458561491208",
      "lat": "41.14577059999091"
    },
    {
      "id": "pt.ine.add.PTCONT.3915648",
      "street": "R DQ TERCEIRA",
      "house": "193",
      "postcode": "4000-535",
      "city": "PORTO",
      "lon": "-8.598458561491208",
      "lat": "41.14577059999091"
    },
    {
      "id": "pt.ine.add.PTCONT.3915649",
      "street": "R DQ TERCEIRA",
      "house": "193",
      "postcode": "4000-535",
      "city": "PORTO",
      "lon": "-8.598458561491208",
      "lat": "41.14577059999091"
    },
    {
      "id": "pt.ine.add.PTCONT.3915650",
      "street": "R DQ TERCEIRA",
      "house": "193",
      "postcode": "4000-535",
      "city": "PORTO",
      "lon": "-8.598458561491208",
      "lat": "41.14577059999091"
    },
    {
      "id": "pt.ine.add.PTCONT.3915651",
      "street": "R DQ TERCEIRA",
      "house": "193",
      "postcode": "4000-535",
      "city": "PORTO",
      "lon": "-8.598458561491208",
      "lat": "41.14577059999091"
    },
    {
      "id": "pt.ine.add.PTCONT.3915652",
      "street": "R DQ TERCEIRA",
      "house": "193",
      "postcode": "4000-535",
      "city": "PORTO",
      "lon": "-8.598458561491208",
      "lat": "41.14577059999091"
    },
    {
      "id": "pt.ine.add.PTCONT.3915653",
      "street": "R DQ TERCEIRA",
      "house": "193",
      "postcode": "4000-535",
      "city": "PORTO",
      "lon": "-8.598458561491208",
      "lat": "41.14577059999091"
    },
    {
      "id": "pt.ine.add.PTCONT.3915654",
      "street": "R DQ TERCEIRA",
      "house": "193",
      "postcode": "4000-535",
      "city": "PORTO",
      "lon": "-8.598458561491208",
      "lat": "41.14577059999091"
    },
    {
      "id": "pt.ine.add.PTCONT.3915840",
      "street": "R DQ TERCEIRA",
      "house": "193",
      "postcode": "4000-535",
      "city": "PORTO",
      "lon": "-8.598458561491208",
      "lat": "41.14577059999091"
    },
    {
      "id": "pt.ine.add.PTCONT.3915841",
      "street": "R DQ TERCEIRA",
      "house": "193",
      "postcode": "4000-535",
      "city": "PORTO",
      "lon": "-8.598458561491208",
      "lat": "41.14577059999091"
    },
    {
      "id": "pt.ine.add.PTCONT.3915842",
      "street": "R DQ TERCEIRA",
      "house": "193",
      "postcode": "4000-535",
      "city": "PORTO",
      "lon": "-8.598458561491208",
      "lat": "41.14577059999091"
    },
    {
      "id": "pt.ine.add.PTCONT.3915843",
      "street": "R DQ TERCEIRA",
      "house": "193",
      "postcode": "4000-535",
      "city": "PORTO",
      "lon": "-8.598458561491208",
      "lat": "41.14577059999091"
    },
    {
      "id": "pt.ine.add.PTCONT.3915844",
      "street": "R DQ TERCEIRA",
      "house": "193",
      "postcode": "4000-535",
      "city": "PORTO",
      "lon": "-8.598458561491208",
      "lat": "41.14577059999091"
    },
    {
      "id": "pt.ine.add.PTCONT.3920122",
      "street": "R DQ TERCEIRA",
      "house": "193",
      "postcode": "4000-535",
      "city": "PORTO",
      "lon": "-8.598458561491208",
      "lat": "41.14577059999091"
    },
    {
      "id": "pt.ine.add.PTCONT.3920981",
      "street": "R DQ TERCEIRA",
      "house": "193",
      "postcode": "4000-535",
      "city": "PORTO",
      "lon": "-8.598458561491208",
      "lat": "41.14577059999091"
    },
    {
      "id": "pt.ine.add.PTCONT.3921131",
      "street": "R DQ TERCEIRA",
      "house": "193",
      "postcode": "4000-535",
      "city": "PORTO",
      "lon": "-8.598458561491208",
      "lat": "41.14577059999091"
    },
    {
      "id": "pt.ine.add.PTCONT.3930319",
      "street": "R DQ TERCEIRA",
      "house": "133",
      "postcode": "4000-535",
      "city": "PORTO",
      "lon": "-8.59810892915362",
      "lat": "41.145177723631136"
    },
    {
      "id": "pt.ine.add.PTCONT.3936698",
      "street": "AV RODRIGUES DE FREITAS",
      "house": "139",
      "postcode": "4000-420",
      "city": "PORTO",
      "lon": "-8.598577549370088",
      "lat": "41.145752110518224"
    },
    {
      "id": "pt.ine.add.PTCONT.3949336",
      "street": "R DQ TERCEIRA",
      "house": "123",
      "postcode": "4000-535",
      "city": "PORTO",
      "lon": "-8.59808466109152",
      "lat": "41.145114791015686"
    },
    {
      "id": "pt.ine.add.PTCONT.4000575",
      "street": "R BARÃO DE S COSME",
      "house": "60",
      "postcode": "4000-500",
      "city": "PORTO",
      "lon": "-8.598752655139178",
      "lat": "41.145247158262734"
    },
    {
      "id": "pt.ine.add.PTCONT.4015928",
      "street": "R BARÃO DE S COSME",
      "house": "70",
      "postcode": "4000-500",
      "city": "PORTO",
      "lon": "-8.5987529736189",
      "lat": "41.145292178813165"
    },
    {
      "id": "pt.ine.add.PTCONT.4029737",
      "street": "R DQ TERCEIRA",
      "house": "141",
      "postcode": "4000-535",
      "city": "PORTO",
      "lon": "-8.598157465418568",
      "lat": "41.145303588843866"
    },
    {
      "id": "pt.ine.add.PTCONT.4029738",
      "street": "R DQ TERCEIRA",
      "house": "141",
      "postcode": "4000-535",
      "city": "PORTO",
      "lon": "-8.598157465418568",
      "lat": "41.145303588843866"
    },
    {
      "id": "pt.ine.add.PTCONT.4029739",
      "street": "R DQ TERCEIRA",
      "house": "141",
      "postcode": "4000-535",
      "city": "PORTO",
      "lon": "-8.598157465418568",
      "lat": "41.145303588843866"
    },
    {
      "id": "pt.ine.add.PTCONT.4029740",
      "street": "R DQ TERCEIRA",
      "house": "141",
      "postcode": "4000-535",
      "city": "PORTO",
      "lon": "-8.598157465418568",
      "lat": "41.145303588843866"
    },
    {
      "id": "pt.ine.add.PTCONT.4029741",
      "street": "R DQ TERCEIRA",
      "house": "141",
      "postcode": "4000-535",
      "city": "PORTO",
      "lon": "-8.598157465418568",
      "lat": "41.145303588843866"
    },
    {
      "id": "pt.ine.add.PTCONT.4029742",
      "street": "R DQ TERCEIRA",
      "house": "141",
      "postcode": "4000-535",
      "city": "PORTO",
      "lon": "-8.598157465418568",
      "lat": "41.145303588843866"
    },
    {
      "id": "pt.ine.add.PTCONT.4029743",
      "street": "R DQ TERCEIRA",
      "house": "141",
      "postcode": "4000-535",
      "city": "PORTO",
      "lon": "-8.598157465418568",
      "lat": "41.145303588843866"
    },
    {
      "id": "pt.ine.add.PTCONT.4029744",
      "street": "R DQ TERCEIRA",
      "house": "141",
      "postcode": "4000-535",
      "city": "PORTO",
      "lon": "-8.598157465418568",
      "lat": "41.145303588843866"
    },
    {
      "id": "pt.ine.add.PTCONT.4029745",
      "street": "R DQ TERCEIRA",
      "house": "141",
      "postcode": "4000-535",
      "city": "PORTO",
      "lon": "-8.598157465418568",
      "lat": "41.145303588843866"
    },
    {
      "id": "pt.ine.add.PTCONT.4029746",
      "street": "R DQ TERCEIRA",
      "house": "141",
      "postcode": "4000-535",
      "city": "PORTO",
      "lon": "-8.598157465418568",
      "lat": "41.145303588843866"
    },
    {
      "id": "pt.ine.add.PTCONT.4029747",
      "street": "R DQ TERCEIRA",
      "house": "141",
      "postcode": "4000-535",
      "city": "PORTO",
      "lon": "-8.598157465418568",
      "lat": "41.145303588843866"
    },
    {
      "id": "pt.ine.add.PTCONT.4029748",
      "street": "R DQ TERCEIRA",
      "house": "141",
      "postcode": "4000-535",
      "city": "PORTO",
      "lon": "-8.598157465418568",
      "lat": "41.145303588843866"
    },
    {
      "id": "pt.ine.add.PTCONT.4029775",
      "street": "R DQ TERCEIRA",
      "house": "141",
      "postcode": "4000-535",
      "city": "PORTO",
      "lon": "-8.598157465418568",
      "lat": "41.145303588843866"
    },
    {
      "id": "pt.ine.add.PTCONT.4030314",
      "street": "R DQ TERCEIRA",
      "house": "141",
      "postcode": "4000-535",
      "city": "PORTO",
      "lon": "-8.598157465418568",
      "lat": "41.145303588843866"
    },
    {
      "id": "pt.ine.add.PTCONT.4111584",
      "street": "R DQ TERCEIRA",
      "house": "135",
      "postcode": "4000-535",
      "city": "PORTO",
      "lon": "-8.598133133651526",
      "lat": "41.145231652129596"
    },
    {
      "id": "pt.ine.add.PTCONT.4144758",
      "street": "R BARÃO DE S COSME",
      "house": "20",
      "postcode": "4000-500",
      "city": "PORTO",
      "lon": "-8.598655071155301",
      "lat": "41.14492339543821"
    },
    {
      "id": "pt.ine.add.PTCONT.4144759",
      "street": "R BARÃO DE S COSME",
      "house": "20",
      "postcode": "4000-500",
      "city": "PORTO",
      "lon": "-8.598655071155301",
      "lat": "41.14492339543821"
    },
    {
      "id": "pt.ine.add.PTCONT.4144760",
      "street": "R BARÃO DE S COSME",
      "house": "20",
      "postcode": "4000-500",
      "city": "PORTO",
      "lon": "-8.598655071155301",
      "lat": "41.14492339543821"
    },
    {
      "id": "pt.ine.add.PTCONT.4144761",
      "street": "R BARÃO DE S COSME",
      "house": "20",
      "postcode": "4000-500",
      "city": "PORTO",
      "lon": "-8.598655071155301",
      "lat": "41.14492339543821"
    },
    {
      "id": "pt.ine.add.PTCONT.4151235",
      "street": "AV RODRIGUES DE FREITAS",
      "house": "165",
      "postcode": "4000-420",
      "city": "PORTO",
      "lon": "-8.598875401052396",
      "lat": "41.14575991095531"
    },
    {
      "id": "pt.ine.add.PTCONT.4164558",
      "street": "R DQ TERCEIRA",
      "house": "173",
      "postcode": "4000-535",
      "city": "PORTO",
      "lon": "-8.598242436147153",
      "lat": "41.14552835496315"
    },
    {
      "id": "pt.ine.add.PTCONT.4164559",
      "street": "R DQ TERCEIRA",
      "house": "173",
      "postcode": "4000-535",
      "city": "PORTO",
      "lon": "-8.598242436147153",
      "lat": "41.14552835496315"
    },
    {
      "id": "pt.ine.add.PTCONT.4164560",
      "street": "R DQ TERCEIRA",
      "house": "173",
      "postcode": "4000-535",
      "city": "PORTO",
      "lon": "-8.598242436147153",
      "lat": "41.14552835496315"
    },
    {
      "id": "pt.ine.add.PTCONT.4171811",
      "street": "R BARÃO DE S COSME",
      "house": "18",
      "postcode": "4000-500",
      "city": "PORTO",
      "lon": "-8.598619018663944",
      "lat": "41.14487851929462"
    },
    {
      "id": "pt.ine.add.PTCONT.4171812",
      "street": "R BARÃO DE S COSME",
      "house": "18",
      "postcode": "4000-500",
      "city": "PORTO",
      "lon": "-8.598619018663944",
      "lat": "41.14487851929462"
    },
    {
      "id": "pt.ine.add.PTCONT.4171813",
      "street": "R BARÃO DE S COSME",
      "house": "18",
      "postcode": "4000-500",
      "city": "PORTO",
      "lon": "-8.598619018663944",
      "lat": "41.14487851929462"
    },
    {
      "id": "pt.ine.add.PTCONT.4171814",
      "street": "R BARÃO DE S COSME",
      "house": "18",
      "postcode": "4000-500",
      "city": "PORTO",
      "lon": "-8.598619018663944",
      "lat": "41.14487851929462"
    },
    {
      "id": "pt.ine.add.PTCONT.4242811",
      "street": "R BARÃO DE S COSME",
      "house": "42",
      "postcode": "4000-500",
      "city": "PORTO",
      "lon": "-8.598715774423692",
      "lat": "41.14508522871918"
    },
    {
      "id": "pt.ine.add.PTCONT.4255763",
      "street": "R DQ TERCEIRA",
      "house": "159",
      "postcode": "4000-535",
      "city": "PORTO",
      "lon": "-8.598205938249688",
      "lat": "41.145420449921865"
    },
    {
      "id": "pt.ine.add.PTCONT.4255764",
      "street": "R DQ TERCEIRA",
      "house": "159",
      "postcode": "4000-535",
      "city": "PORTO",
      "lon": "-8.598205938249688",
      "lat": "41.145420449921865"
    },
    {
      "id": "pt.ine.add.PTCONT.4255765",
      "street": "R DQ TERCEIRA",
      "house": "159",
      "postcode": "4000-535",
      "city": "PORTO",
      "lon": "-8.598205938249688",
      "lat": "41.145420449921865"
    },
    {
      "id": "pt.ine.add.PTCONT.4255766",
      "street": "R DQ TERCEIRA",
      "house": "159",
      "postcode": "4000-535",
      "city": "PORTO",
      "lon": "-8.598205938249688",
      "lat": "41.145420449921865"
    },
    {
      "id": "pt.ine.add.PTCONT.4255767",
      "street": "R DQ TERCEIRA",
      "house": "159",
      "postcode": "4000-535",
      "city": "PORTO",
      "lon": "-8.598205938249688",
      "lat": "41.145420449921865"
    },
    {
      "id": "pt.ine.add.PTCONT.4255768",
      "street": "R DQ TERCEIRA",
      "house": "159",
      "postcode": "4000-535",
      "city": "PORTO",
      "lon": "-8.598205938249688",
      "lat": "41.145420449921865"
    },
    {
      "id": "pt.ine.add.PTCONT.4255769",
      "street": "R DQ TERCEIRA",
      "house": "159",
      "postcode": "4000-535",
      "city": "PORTO",
      "lon": "-8.598205938249688",
      "lat": "41.145420449921865"
    },
    {
      "id": "pt.ine.add.PTCONT.4258460",
      "street": "R DQ TERCEIRA",
      "house": "159",
      "postcode": "4000-535",
      "city": "PORTO",
      "lon": "-8.598205938249688",
      "lat": "41.145420449921865"
    },
    {
      "id": "pt.ine.add.PTCONT.4296267",
      "street": "AV RODRIGUES DE FREITAS",
      "house": "151",
      "postcode": "4000-420",
      "city": "PORTO",
      "lon": "-8.598696728249019",
      "lat": "41.14576063325114"
    },
    {
      "id": "pt.ine.add.PTCONT.4309486",
      "street": "R BARÃO DE S COSME",
      "house": "38",
      "postcode": "4000-500",
      "city": "PORTO",
      "lon": "-8.59869150581751",
      "lat": "41.145022296233485"
    },
    {
      "id": "pt.ine.add.PTCONT.4309487",
      "street": "R BARÃO DE S COSME",
      "house": "38",
      "postcode": "4000-500",
      "city": "PORTO",
      "lon": "-8.59869150581751",
      "lat": "41.145022296233485"
    },
    {
      "id": "pt.ine.add.PTCONT.4316089",
      "street": "R BARÃO DE S COSME",
      "house": "40",
      "postcode": "4000-500",
      "city": "PORTO",
      "lon": "-8.598703608270371",
      "lat": "41.145049260421835"
    },
    {
      "id": "pt.ine.add.PTCONT.4361463",
      "street": "R BARÃO DE S COSME",
      "house": "12",
      "postcode": "4000-500",
      "city": "PORTO",
      "lon": "-8.598582775206845",
      "lat": "41.14480663080612"
    },
    {
      "id": "pt.ine.add.PTCONT.4361464",
      "street": "R BARÃO DE S COSME",
      "house": "12",
      "postcode": "4000-500",
      "city": "PORTO",
      "lon": "-8.598582775206845",
      "lat": "41.14480663080612"
    },
    {
      "id": "pt.ine.add.PTCONT.4361465",
      "street": "R BARÃO DE S COSME",
      "house": "12",
      "postcode": "4000-500",
      "city": "PORTO",
      "lon": "-8.598582775206845",
      "lat": "41.14480663080612"
    },
    {
      "id": "pt.ine.add.PTCONT.4361466",
      "street": "R BARÃO DE S COSME",
      "house": "12",
      "postcode": "4000-500",
      "city": "PORTO",
      "lon": "-8.598582775206845",
      "lat": "41.14480663080612"
    },
    {
      "id": "pt.ine.add.PTCONT.4361467",
      "street": "R BARÃO DE S COSME",
      "house": "12",
      "postcode": "4000-500",
      "city": "PORTO",
      "lon": "-8.598582775206845",
      "lat": "41.14480663080612"
    },
    {
      "id": "pt.ine.add.PTCONT.4361468",
      "street": "R BARÃO DE S COSME",
      "house": "12",
      "postcode": "4000-500",
      "city": "PORTO",
      "lon": "-8.598582775206845",
      "lat": "41.14480663080612"
    },
    {
      "id": "pt.ine.add.PTCONT.4361469",
      "street": "R BARÃO DE S COSME",
      "house": "12",
      "postcode": "4000-500",
      "city": "PORTO",
      "lon": "-8.598582775206845",
      "lat": "41.14480663080612"
    },
    {
      "id": "pt.ine.add.PTCONT.4364119",
      "street": "R BARÃO DE S COSME",
      "house": "12",
      "postcode": "4000-500",
      "city": "PORTO",
      "lon": "-8.598582775206845",
      "lat": "41.14480663080612"
    },
    {
      "id": "pt.ine.add.PTCONT.4381930",
      "street": "R DQ TERCEIRA",
      "house": "117",
      "postcode": "4000-535",
      "city": "PORTO",
      "lon": "-8.598048481683058",
      "lat": "41.14505190647091"
    },
    {
      "id": "pt.ine.add.PTCONT.4382583",
      "street": "R DQ TERCEIRA",
      "house": "173",
      "postcode": "4000-535",
      "city": "PORTO",
      "lon": "-8.598242436147153",
      "lat": "41.14552835496315"
    },
    {
      "id": "pt.ine.add.PTCONT.4383989",
      "street": "R BARÃO DE S COSME",
      "house": "20",
      "postcode": "4000-500",
      "city": "PORTO",
      "lon": "-8.598655071155301",
      "lat": "41.14492339543821"
    },
    {
      "id": "pt.ine.add.PTCONT.4386082",
      "street": "R DQ TERCEIRA",
      "house": "141",
      "postcode": "4000-535",
      "city": "PORTO",
      "lon": "-8.598157465418568",
      "lat": "41.145303588843866"
    }
  ]
}