{
  "data": {
    "distrito": "Setúbal",
    "concelho": "Almada",
    "freguesia": "União das freguesias de Laranjeiro e Feijó",
    "OBJECTID": 953,
    "BGRI2021": "15031500407",
    "DT21": "15",
    "DTMN21": "1503",
    "DTMNFR21": "150315",
    "DTMNFRSEC21": "150315004",
    "SECNUM21": "004",
    "SSNUM21": "07",
    "SECSSNUM21": "00407",
    "OBJECTID_1": 161979,
    "DT": "15",
    "CC": "03",
    "fr": "15",
    "SEC": "004",
    "SS": "07"
  },
  "addresses": [
    {
      "id": "pt.ine.add.PTCONT.4675368",
      "street": "R CESAR DE SA",
      "house": "20",
      "postcode": "2810-317",
      "city": "ALMADA",
      "lon": "-9.166763887246512",
      "lat": "38.64313207816048"
    },
    {
      "id": "pt.ine.add.PTCONT.4690020",
      "street": "R MANUEL LUIS VIEIRA",
      "house": "9",
      "postcode": "2810-327",
      "city": "ALMADA",
      "lon": "-9.166348791871133",
      "lat": "38.64382035167413"
    },
    {
      "id": "pt.ine.add.PTCONT.4708115",
      "street": "R CESAR DE SA",
      "house": "2",
      "postcode": "2810-317",
      "city": "ALMADA",
      "lon": "-9.165913411887457",
      "lat": "38.643896260320716"
    },
    {
      "id": "pt.ine.add.PTCONT.4708116",
      "street": "R CESAR DE SA",
      "house": "6",
      "postcode": "2810-317",
      "city": "ALMADA",
      "lon": "-9.166094579167405",
      "lat": "38.643714501080645"
    },
    {
      "id": "pt.ine.add.PTCONT.4708232",
      "street": "R CESAR DE SA",
      "house": "8",
      "postcode": "2810-317",
      "city": "ALMADA",
      "lon": "-9.16616258132412",
      "lat": "38.64365084471302"
    },
    {
      "id": "pt.ine.add.PTCONT.4722975",
      "street": "R QUINTA DO CHIADO",
      "house": "31",
      "postcode": "2810-120",
      "city": "ALMADA",
      "lon": "-9.166979633225862",
      "lat": "38.64295901997184"
    },
    {
      "id": "pt.ine.add.PTCONT.4742678",
      "street": "R MANUEL LUIS VIEIRA",
      "house": "11",
      "postcode": "2810-327",
      "city": "ALMADA",
      "lon": "-9.166428278473585",
      "lat": "38.64375659371314"
    },
    {
      "id": "pt.ine.add.PTCONT.4795415",
      "street": "R CESAR DE SA",
      "house": "18",
      "postcode": "2810-317",
      "city": "ALMADA",
      "lon": "-9.166684531010828",
      "lat": "38.643204843177564"
    },
    {
      "id": "pt.ine.add.PTCONT.4816412",
      "street": "R MANUEL LUIS VIEIRA",
      "house": "17",
      "postcode": "2810-327",
      "city": "ALMADA",
      "lon": "-9.166745835287943",
      "lat": "38.64347454083848"
    },
    {
      "id": "pt.ine.add.PTCONT.4849505",
      "street": "R MANUEL LUIS VIEIRA",
      "house": "21",
      "postcode": "2810-327",
      "city": "ALMADA",
      "lon": "-9.166915644313555",
      "lat": "38.64330188867067"
    },
    {
      "id": "pt.ine.add.PTCONT.4860374",
      "street": "R MANUEL LUIS VIEIRA",
      "house": "1",
      "postcode": "2810-327",
      "city": "ALMADA",
      "lon": "-9.16596335858832",
      "lat": "38.644175066626666"
    },
    {
      "id": "pt.ine.add.PTCONT.4873443",
      "street": "R CESAR DE SA",
      "house": "12",
      "postcode": "2810-317",
      "city": "ALMADA",
      "lon": "-9.16637845965218",
      "lat": "38.64348679444248"
    },
    {
      "id": "pt.ine.add.PTCONT.4909826",
      "street": "R CESAR DE SA",
      "house": "4",
      "postcode": "2810-317",
      "city": "ALMADA",
      "lon": "-9.16598128507347",
      "lat": "38.64382359721969"
    },
    {
      "id": "pt.ine.add.PTCONT.4963943",
      "street": "R QUINTA DO CHIADO",
      "house": "29",
      "postcode": "2810-120",
      "city": "ALMADA",
      "lon": "-9.16710816259615",
      "lat": "38.643111019568195"
    },
    {
      "id": "pt.ine.add.PTCONT.5033098",
      "street": "R CESAR DE SA",
      "house": "14",
      "postcode": "2810-317",
      "city": "ALMADA",
      "lon": "-9.166503237131563",
      "lat": "38.643377596473286"
    },
    {
      "id": "pt.ine.add.PTCONT.5035474",
      "street": "R MANUEL LUIS VIEIRA",
      "house": "23",
      "postcode": "2810-327",
      "city": "ALMADA",
      "lon": "-9.166995000416778",
      "lat": "38.64322912349973"
    },
    {
      "id": "pt.ine.add.PTCONT.5046208",
      "street": "R CESAR DE SA",
      "house": "10",
      "postcode": "2810-317",
      "city": "ALMADA",
      "lon": "-9.16629897329751",
      "lat": "38.643550552368986"
    },
    {
      "id": "pt.ine.add.PTCONT.5081952",
      "street": "R CESAR DE SA",
      "house": "16",
      "postcode": "2810-317",
      "city": "ALMADA",
      "lon": "-9.166571238609594",
      "lat": "38.6433139398739"
    },
    {
      "id": "pt.ine.add.PTCONT.5114506",
      "street": "R MANUEL LUIS VIEIRA",
      "house": "3",
      "postcode": "2810-327",
      "city": "ALMADA",
      "lon": "-9.166065815191091",
      "lat": "38.64411110609513"
    },
    {
      "id": "pt.ine.add.PTCONT.5134193",
      "street": "R CESAR DE SA",
      "house": "22",
      "postcode": "2810-317",
      "city": "ALMADA",
      "lon": "-9.166877308481231",
      "lat": "38.643031988116995"
    }
  ]
}