{
  "data": {
    "distrito": "Portalegre",
    "concelho": "Nisa",
    "freguesia": "Alpalhão",
    "OBJECTID": 93,
    "BGRI2021": "12120100125",
    "DT21": "12",
    "DTMN21": "1212",
    "DTMNFR21": "121201",
    "DTMNFRSEC21": "121201001",
    "SECNUM21": "001",
    "SSNUM21": "25",
    "SECSSNUM21": "00125",
    "OBJECTID_1": 123560,
    "DT": "12",
    "CC": "12",
    "fr": "01",
    "SEC": "001",
    "SS": "25"
  },
  "addresses": [
    {
      "id": "pt.ine.add.PTCONT.3535590",
      "street": "R DIREITA",
      "house": "18",
      "postcode": "6050-011",
      "city": "ALPALHÃO",
      "lon": "-7.61755551581775",
      "lat": "39.41705753540483"
    },
    {
      "id": "pt.ine.add.PTCONT.3535923",
      "street": "R DIREITA",
      "house": "30",
      "postcode": "6050-011",
      "city": "ALPALHÃO",
      "lon": "-7.617750638997636",
      "lat": "39.41731573185303"
    },
    {
      "id": "pt.ine.add.PTCONT.3482923",
      "street": "R CASTELO",
      "house": "",
      "postcode": "6050-031",
      "city": "ALPALHÃO",
      "lon": "-7.617486611443199",
      "lat": "39.41732704473673"
    },
    {
      "id": "pt.ine.add.PTCONT.3478264",
      "street": "R BORRALHO",
      "house": "5 7",
      "postcode": "6050-032",
      "city": "ALPALHÃO",
      "lon": "-7.61761228558561",
      "lat": "39.417606819753175"
    },
    {
      "id": "pt.ine.add.PTCONT.3480646",
      "street": "R DIREITA",
      "house": "26",
      "postcode": "6050-011",
      "city": "ALPALHÃO",
      "lon": "-7.617672474625218",
      "lat": "39.4172170215321"
    },
    {
      "id": "pt.ine.add.PTCONT.3484765",
      "street": "LG JOAQUIM LOPES SUBTIL",
      "house": "1",
      "postcode": "6050-031",
      "city": "ALPALHÃO",
      "lon": "-7.617503438733034",
      "lat": "39.41708540834921"
    },
    {
      "id": "pt.ine.add.PTCONT.3489805",
      "street": "R CASTELO",
      "house": "17",
      "postcode": "6050-031",
      "city": "ALPALHÃO",
      "lon": "-7.617485682473793",
      "lat": "39.41745313909527"
    },
    {
      "id": "pt.ine.add.PTCONT.3490154",
      "street": "R DIREITA",
      "house": "22",
      "postcode": "6050-011",
      "city": "ALPALHÃO",
      "lon": "-7.617627479419433",
      "lat": "39.417169736987866"
    },
    {
      "id": "pt.ine.add.PTCONT.3493659",
      "street": "R CASTELO",
      "house": "15",
      "postcode": "6050-031",
      "city": "ALPALHÃO",
      "lon": "-7.617474402359217",
      "lat": "39.417408053927396"
    },
    {
      "id": "pt.ine.add.PTCONT.3494075",
      "street": "R CASTELO",
      "house": "21",
      "postcode": "6050-031",
      "city": "ALPALHÃO",
      "lon": "-7.6174732742942215",
      "lat": "39.417561168502814"
    },
    {
      "id": "pt.ine.add.PTCONT.3495682",
      "street": "R BORRALHO",
      "house": "13",
      "postcode": "6050-032",
      "city": "ALPALHÃO",
      "lon": "-7.617747242097657",
      "lat": "39.41750233354285"
    },
    {
      "id": "pt.ine.add.PTCONT.3495683",
      "street": "R DIREITA",
      "house": "2O",
      "postcode": "6050-011",
      "city": "ALPALHÃO",
      "lon": "-7.617595703268376",
      "lat": "39.41711288428736"
    },
    {
      "id": "pt.ine.add.PTCONT.3495790",
      "street": "R BORRALHO",
      "house": "1",
      "postcode": "6050-032",
      "city": "ALPALHÃO",
      "lon": "-7.617530670374744",
      "lat": "39.41765149323245"
    },
    {
      "id": "pt.ine.add.PTCONT.3496626",
      "street": "LG ANTÓNIO TEMUDO SEQUEIRA",
      "house": "15",
      "postcode": "6050-033",
      "city": "ALPALHÃO",
      "lon": "-7.617846532895471",
      "lat": "39.41743924766094"
    },
    {
      "id": "pt.ine.add.PTCONT.3497313",
      "street": "R CASTELO",
      "house": "9",
      "postcode": "6050-031",
      "city": "ALPALHÃO",
      "lon": "-7.617486943216573",
      "lat": "39.41728201103658"
    },
    {
      "id": "pt.ine.add.PTCONT.3507636",
      "street": "R CASTELO",
      "house": "7",
      "postcode": "6050-031",
      "city": "ALPALHÃO",
      "lon": "-7.617487274989203",
      "lat": "39.4172369773361"
    },
    {
      "id": "pt.ine.add.PTCONT.3513964",
      "street": "R DO CASTELO",
      "house": "13",
      "postcode": "6050-081",
      "city": "ALPALHÃO",
      "lon": "-7.617474004219614",
      "lat": "39.417462094366236"
    },
    {
      "id": "pt.ine.add.PTCONT.3518070",
      "street": "R BORRALHO",
      "house": "",
      "postcode": "6050-032",
      "city": "ALPALHÃO",
      "lon": "-7.617682421436807",
      "lat": "39.4175440812876"
    },
    {
      "id": "pt.ine.add.PTCONT.3522218",
      "street": "R DIREITA",
      "house": "28",
      "postcode": "6050-011",
      "city": "ALPALHÃO",
      "lon": "-7.617706638053551",
      "lat": "39.417267451063076"
    },
    {
      "id": "pt.ine.add.PTCONT.3527388",
      "street": "R CASTELO",
      "house": "5",
      "postcode": "6050-031",
      "city": "ALPALHÃO",
      "lon": "-7.617487606761088",
      "lat": "39.417191943635245"
    },
    {
      "id": "pt.ine.add.PTCONT.3527389",
      "street": "R CASTELO",
      "house": "3",
      "postcode": "6050-031",
      "city": "ALPALHÃO",
      "lon": "-7.617499550378965",
      "lat": "39.417146961401116"
    },
    {
      "id": "pt.ine.add.PTCONT.3528512",
      "street": "R DIREITA",
      "house": "32",
      "postcode": "6050-011",
      "city": "ALPALHÃO",
      "lon": "-7.617795304928822",
      "lat": "39.41737416830062"
    }
  ]
}