{
  "data": {
    "distrito": "Beja",
    "concelho": "Serpa",
    "freguesia": "Pias",
    "OBJECTID": 53,
    "BGRI2021": "02130300328",
    "DT21": "02",
    "DTMN21": "0213",
    "DTMNFR21": "021303",
    "DTMNFRSEC21": "021303003",
    "SECNUM21": "003",
    "SSNUM21": "28",
    "SECSSNUM21": "00328",
    "OBJECTID_1": 18587,
    "DT": "02",
    "CC": "13",
    "fr": "03",
    "SEC": "003",
    "SS": "28"
  },
  "addresses": [
    {
      "id": "pt.ine.add.PTCONT.359363",
      "street": "MTE JOSE PIMENTINHA",
      "house": "",
      "postcode": "7830-282",
      "city": "PIAS SRP",
      "lon": "-7.467576183043031",
      "lat": "38.01593025828219"
    },
    {
      "id": "pt.ine.add.PTCONT.364957",
      "street": "MTE ANTÓNIO CORREIA",
      "house": "",
      "postcode": "7830-282",
      "city": "PIAS SRP",
      "lon": "-7.468897223574446",
      "lat": "38.012135876847054"
    },
    {
      "id": "pt.ine.add.PTCONT.366609",
      "street": "MTE OLIPIO ROMÃO",
      "house": "",
      "postcode": "7830-282",
      "city": "PIAS SRP",
      "lon": "-7.457388903659126",
      "lat": "38.01046668425947"
    },
    {
      "id": "pt.ine.add.PTCONT.373087",
      "street": "MTE ANTÓNIO RATO",
      "house": "",
      "postcode": "7830-282",
      "city": "PIAS SRP",
      "lon": "-7.453317832941199",
      "lat": "37.998785401987114"
    },
    {
      "id": "pt.ine.add.PTCONT.373088",
      "street": "MTE FRANCISCO NUNES",
      "house": "",
      "postcode": "7830-282",
      "city": "PIAS SRP",
      "lon": "-7.466374667001402",
      "lat": "38.01405856312183"
    },
    {
      "id": "pt.ine.add.PTCONT.373892",
      "street": "MTE JORGE NUNES",
      "house": "",
      "postcode": "7830-282",
      "city": "PIAS SRP",
      "lon": "-7.465730852229987",
      "lat": "38.01347832689213"
    },
    {
      "id": "pt.ine.add.PTCONT.376386",
      "street": "MTE AMANDIO AUGUSTO",
      "house": "",
      "postcode": "7830-282",
      "city": "PIAS SRP",
      "lon": "-7.467735682575066",
      "lat": "38.01592215181248"
    },
    {
      "id": "pt.ine.add.PTCONT.377948",
      "street": "MTE MÁRIO ALBERTO",
      "house": "",
      "postcode": "7830-282",
      "city": "PIAS SRP",
      "lon": "-7.460606542430506",
      "lat": "38.020962735776095"
    },
    {
      "id": "pt.ine.add.PTCONT.385227",
      "street": "MTE MANUEL BRAGA",
      "house": "",
      "postcode": "7830-282",
      "city": "PIAS SRP",
      "lon": "-7.464703538065856",
      "lat": "38.01864372717214"
    },
    {
      "id": "pt.ine.add.PTCONT.392398",
      "street": "MTE JOÃO COELHO",
      "house": "",
      "postcode": "7830-282",
      "city": "PIAS SRP",
      "lon": "-7.467349545648357",
      "lat": "38.013289301928666"
    },
    {
      "id": "pt.ine.add.PTCONT.395639",
      "street": "MTE JOÃO RICO",
      "house": "",
      "postcode": "7830-282",
      "city": "PIAS SRP",
      "lon": "-7.458689606264739",
      "lat": "38.02012291802565"
    },
    {
      "id": "pt.ine.add.PTCONT.395988",
      "street": "MTE MANUEL VIEGAS",
      "house": "",
      "postcode": "7830-282",
      "city": "PIAS SRP",
      "lon": "-7.46624598380605",
      "lat": "38.011922670517606"
    },
    {
      "id": "pt.ine.add.PTCONT.402131",
      "street": "MTE MANUEL MACHADO",
      "house": "",
      "postcode": "7830-282",
      "city": "PIAS SRP",
      "lon": "-7.460905533473216",
      "lat": "38.02069286038835"
    },
    {
      "id": "pt.ine.add.PTCONT.408383",
      "street": "MTE HERDEIROS JOSE RITA",
      "house": "",
      "postcode": "7830-282",
      "city": "PIAS SRP",
      "lon": "-7.464633780151871",
      "lat": "38.01892261322601"
    },
    {
      "id": "pt.ine.add.PTCONT.409431",
      "street": "MTE ANTONIO",
      "house": "SN",
      "postcode": "7830-282",
      "city": "PIAS SRP",
      "lon": "-7.465093304759979",
      "lat": "38.01471796584221"
    },
    {
      "id": "pt.ine.add.PTCONT.415877",
      "street": "MTE ANTÓNIO GREGORIO",
      "house": "",
      "postcode": "7830-282",
      "city": "PIAS SRP",
      "lon": "-7.465208644410908",
      "lat": "38.01455645681542"
    },
    {
      "id": "pt.ine.add.PTCONT.427099",
      "street": "MTE DOMINGOS LUIS",
      "house": "",
      "postcode": "7830-282",
      "city": "PIAS SRP",
      "lon": "-7.4653160549533135",
      "lat": "38.01526878756127"
    },
    {
      "id": "pt.ine.add.PTCONT.429500",
      "street": "MTE FRANCISCO FARINHO",
      "house": "",
      "postcode": "7830-282",
      "city": "PIAS SRP",
      "lon": "-7.4688177582398145",
      "lat": "38.0108471224341"
    },
    {
      "id": "pt.ine.add.PTCONT.431023",
      "street": "MTE BENTO BRAVO",
      "house": "",
      "postcode": "7830-282",
      "city": "PIAS SRP",
      "lon": "-7.464248470259996",
      "lat": "38.014956409593125"
    },
    {
      "id": "pt.ine.add.PTCONT.432774",
      "street": "MTE MANUEL MOISAO",
      "house": "",
      "postcode": "7830-282",
      "city": "PIAS SRP",
      "lon": "-7.455853394506145",
      "lat": "38.018944440635565"
    },
    {
      "id": "pt.ine.add.PTCONT.432875",
      "street": "MTE MANUEL DUARTE",
      "house": "",
      "postcode": "7830-282",
      "city": "PIAS SRP",
      "lon": "-7.468991558822855",
      "lat": "38.01051476629082"
    },
    {
      "id": "pt.ine.add.PTCONT.434821",
      "street": "MTE SIDÓNIO CORDEIRO",
      "house": "",
      "postcode": "7830-282",
      "city": "PIAS SRP",
      "lon": "-7.467203557464535",
      "lat": "38.01306324713173"
    },
    {
      "id": "pt.ine.add.PTCONT.435964",
      "street": "MTE CUSTÓDIO PESTANA",
      "house": "",
      "postcode": "7830-282",
      "city": "PIAS SRP",
      "lon": "-7.466017232420937",
      "lat": "38.013290760270394"
    },
    {
      "id": "pt.ine.add.PTCONT.437860",
      "street": "MTE ANTÓNIO",
      "house": "",
      "postcode": "7830-282",
      "city": "PIAS SRP",
      "lon": "-7.461023088845319",
      "lat": "38.02033170751299"
    },
    {
      "id": "pt.ine.add.PTCONT.438772",
      "street": "MTE FRANCISCO",
      "house": "",
      "postcode": "7830-282",
      "city": "PIAS SRP",
      "lon": "-7.467949200857496",
      "lat": "38.01576126589883"
    },
    {
      "id": "pt.ine.add.PTCONT.439533",
      "street": "MTE MANUEL MOITA",
      "house": "",
      "postcode": "7830-282",
      "city": "PIAS SRP",
      "lon": "-7.4637823426171295",
      "lat": "38.01862947788977"
    },
    {
      "id": "pt.ine.add.PTCONT.441033",
      "street": "MTE JOÃO CARRASCO",
      "house": "",
      "postcode": "7830-282",
      "city": "PIAS SRP",
      "lon": "-7.464359171186104",
      "lat": "38.01906519757631"
    },
    {
      "id": "pt.ine.add.PTCONT.443503",
      "street": "MTE JOSE PINTO",
      "house": "",
      "postcode": "7830-282",
      "city": "PIAS SRP",
      "lon": "-7.4662635826970964",
      "lat": "38.016660419158356"
    },
    {
      "id": "pt.ine.add.PTCONT.447535",
      "street": "MTE JOSE SALVADOR",
      "house": "",
      "postcode": "7830-282",
      "city": "PIAS SRP",
      "lon": "-7.468148723582025",
      "lat": "38.0130595866715"
    },
    {
      "id": "pt.ine.add.PTCONT.447536",
      "street": "MTE JOSE GROU",
      "house": "",
      "postcode": "7830-282",
      "city": "PIAS SRP",
      "lon": "-7.462358443302307",
      "lat": "38.01367535726968"
    },
    {
      "id": "pt.ine.add.PTCONT.453661",
      "street": "MTE CARAPINHOS",
      "house": "",
      "postcode": "7830-282",
      "city": "PIAS SRP",
      "lon": "-7.44326598556567",
      "lat": "38.01082612794507"
    },
    {
      "id": "pt.ine.add.PTCONT.453662",
      "street": "MTE CARAPINHOS",
      "house": "",
      "postcode": "7830-282",
      "city": "PIAS SRP",
      "lon": "-7.44326598556567",
      "lat": "38.01082612794507"
    }
  ]
}