{
  "data": {
    "distrito": "Ã‰vora",
    "concelho": "Arraiolos",
    "freguesia": "Vimieiro",
    "OBJECTID": 178,
    "BGRI2021": "07020600204",
    "DT21": "07",
    "DTMN21": "0702",
    "DTMNFR21": "070206",
    "DTMNFRSEC21": "070206002",
    "SECNUM21": "002",
    "SSNUM21": "04",
    "SECSSNUM21": "00204",
    "OBJECTID_1": 58797,
    "DT": "07",
    "CC": "02",
    "fr": "06",
    "SEC": "002",
    "SS": "04"
  },
  "addresses": [
    {
      "id": "pt.ine.add.PTCONT.1379848",
      "street": "",
      "house": "",
      "postcode": "7040-602",
      "city": "VIMIEIRO ARL",
      "lon": "-7.786635517360086",
      "lat": "38.789881548815984"
    },
    {
      "id": "pt.ine.add.PTCONT.1425605",
      "street": "MTE PACO",
      "house": "",
      "postcode": "7040-610",
      "city": "VIMIEIRO ARL",
      "lon": "-7.816487263490939",
      "lat": "38.78913078048403"
    },
    {
      "id": "pt.ine.add.PTCONT.1428457",
      "street": "MTE BRANCO",
      "house": "",
      "postcode": "7040-610",
      "city": "VIMIEIRO ARL",
      "lon": "-7.814262858802793",
      "lat": "38.805312173355844"
    },
    {
      "id": "pt.ine.add.PTCONT.1458279",
      "street": "MTE BRANCO",
      "house": "",
      "postcode": "7040-610",
      "city": "VIMIEIRO ARL",
      "lon": "-7.814146692941103",
      "lat": "38.805546064913884"
    },
    {
      "id": "pt.ine.add.PTCONT.1443786",
      "street": "SEM DESIGNACAO",
      "house": "16",
      "postcode": "7040-602",
      "city": "VIMIEIRO ARL",
      "lon": "-7.783433504056849",
      "lat": "38.7911833215974"
    },
    {
      "id": "pt.ine.add.PTCONT.1452236",
      "street": "SIT VENDA DO DUQUE",
      "house": "14",
      "postcode": "7040-602",
      "city": "VIMIEIRO ARL",
      "lon": "-7.7833332514430404",
      "lat": "38.79089862784918"
    },
    {
      "id": "pt.ine.add.PTCONT.1456009",
      "street": "SIT VENDA DO DUQUE",
      "house": "10-12",
      "postcode": "7040-602",
      "city": "VIMIEIRO ARL",
      "lon": "-7.783310451591523",
      "lat": "38.79081520100429"
    },
    {
      "id": "pt.ine.add.PTCONT.1456629",
      "street": "SIT VENDA DO DUQUE",
      "house": "10-12",
      "postcode": "7040-602",
      "city": "VIMIEIRO ARL",
      "lon": "-7.783310451591523",
      "lat": "38.79081520100429"
    }
  ]
}