{
  "data": {
    "distrito": "Ã‰vora",
    "concelho": "Arraiolos",
    "freguesia": "Vimieiro",
    "OBJECTID": 235,
    "BGRI2021": "07020600206",
    "DT21": "07",
    "DTMN21": "0702",
    "DTMNFR21": "070206",
    "DTMNFRSEC21": "070206002",
    "SECNUM21": "002",
    "SSNUM21": "06",
    "SECSSNUM21": "00206",
    "OBJECTID_1": 59077,
    "DT": "07",
    "CC": "02",
    "fr": "06",
    "SEC": "002",
    "SS": "06"
  },
  "addresses": [
    {
      "id": "pt.ine.add.PTCONT.1379859",
      "street": "MTE FONTE",
      "house": "",
      "postcode": "7040-602",
      "city": "VIMIEIRO ARL",
      "lon": "-7.801615075355887",
      "lat": "38.809366615702494"
    },
    {
      "id": "pt.ine.add.PTCONT.1381560",
      "street": "MTE OUTEIRO",
      "house": "",
      "postcode": "7040-602",
      "city": "VIMIEIRO ARL",
      "lon": "-7.7927744529899385",
      "lat": "38.80182851130261"
    },
    {
      "id": "pt.ine.add.PTCONT.1392374",
      "street": "MTE POSTAS",
      "house": "",
      "postcode": "7040-604",
      "city": "VIMIEIRO ARL",
      "lon": "-7.784279121743162",
      "lat": "38.797038212478974"
    },
    {
      "id": "pt.ine.add.PTCONT.1392375",
      "street": "MTE POSTAS",
      "house": "",
      "postcode": "7040-604",
      "city": "VIMIEIRO ARL",
      "lon": "-7.784279121743162",
      "lat": "38.797038212478974"
    },
    {
      "id": "pt.ine.add.PTCONT.1424113",
      "street": "QTA ALTA",
      "house": "",
      "postcode": "7040-605",
      "city": "VIMIEIRO ARL",
      "lon": "-7.811669422288137",
      "lat": "38.818826094732344"
    },
    {
      "id": "pt.ine.add.PTCONT.1435656",
      "street": "MTE VELHO",
      "house": "",
      "postcode": "7040-613",
      "city": "VIMIEIRO ARL",
      "lon": "-7.791539353514136",
      "lat": "38.81699440105649"
    },
    {
      "id": "pt.ine.add.PTCONT.1435657",
      "street": "MTE VELHO",
      "house": "",
      "postcode": "7040-613",
      "city": "VIMIEIRO ARL",
      "lon": "-7.791539353514136",
      "lat": "38.81699440105649"
    },
    {
      "id": "pt.ine.add.PTCONT.1435658",
      "street": "MTE VELHO",
      "house": "",
      "postcode": "7040-613",
      "city": "VIMIEIRO ARL",
      "lon": "-7.791539353514136",
      "lat": "38.81699440105649"
    },
    {
      "id": "pt.ine.add.PTCONT.1439993",
      "street": "MTE CARVALHO",
      "house": "",
      "postcode": "7040-614",
      "city": "VIMIEIRO ARL",
      "lon": "-7.811048053889334",
      "lat": "38.81873430349752"
    },
    {
      "id": "pt.ine.add.PTCONT.1444565",
      "street": "MTE NOVO DAS VIUVAS",
      "house": "",
      "postcode": "7040-613",
      "city": "VIMIEIRO ARL",
      "lon": "-7.809062164628146",
      "lat": "38.82500738632944"
    },
    {
      "id": "pt.ine.add.PTCONT.1453772",
      "street": "MTE VIUVAS",
      "house": "EN 4",
      "postcode": "7040-613",
      "city": "VIMIEIRO ARL",
      "lon": "-7.807161134218186",
      "lat": "38.822696051528325"
    }
  ]
}