{
  "data": {
    "distrito": "Évora",
    "concelho": "Arraiolos",
    "freguesia": "Vimieiro",
    "OBJECTID": 131,
    "BGRI2021": "07020600236",
    "DT21": "07",
    "DTMN21": "0702",
    "DTMNFR21": "070206",
    "DTMNFRSEC21": "070206002",
    "SECNUM21": "002",
    "SSNUM21": "36",
    "SECSSNUM21": "00236",
    "OBJECTID_1": 58802,
    "DT": "07",
    "CC": "02",
    "fr": "06",
    "SEC": "002",
    "SS": "36"
  },
  "addresses": [
    {
      "id": "pt.ine.add.PTCONT.1374670",
      "street": "MTE OUTEIRO ALTO",
      "house": "",
      "postcode": "7040-613",
      "city": "VIMIEIRO ARL",
      "lon": "-7.820022664902868",
      "lat": "38.83077536318944"
    },
    {
      "id": "pt.ine.add.PTCONT.1374671",
      "street": "MTE OUTEIRO ALTO",
      "house": "",
      "postcode": "7040-613",
      "city": "VIMIEIRO ARL",
      "lon": "-7.820022664902868",
      "lat": "38.83077536318944"
    },
    {
      "id": "pt.ine.add.PTCONT.1388003",
      "street": "MTE TEJA",
      "house": "",
      "postcode": "7040-669",
      "city": "VIMIEIRO ARL",
      "lon": "-7.808637531663441",
      "lat": "38.83737416797987"
    },
    {
      "id": "pt.ine.add.PTCONT.1379066",
      "street": "QTA CHAMOINHA",
      "house": "",
      "postcode": "7040-613",
      "city": "VIMIEIRO ARL",
      "lon": "-7.828789734843481",
      "lat": "38.83005086719923"
    },
    {
      "id": "pt.ine.add.PTCONT.1379854",
      "street": "QTA CHAMOINHA",
      "house": "",
      "postcode": "7040-613",
      "city": "VIMIEIRO ARL",
      "lon": "-7.8273956242774565",
      "lat": "38.830200363069416"
    },
    {
      "id": "pt.ine.add.PTCONT.1380603",
      "street": "MTE FRAUSTA",
      "house": "",
      "postcode": "7040-669",
      "city": "VIMIEIRO ARL",
      "lon": "-7.814302132746334",
      "lat": "38.871367744695014"
    },
    {
      "id": "pt.ine.add.PTCONT.1385048",
      "street": "MTE OUTEIRO ALTO",
      "house": "",
      "postcode": "7040-613",
      "city": "VIMIEIRO ARL",
      "lon": "-7.817225326491411",
      "lat": "38.83051560917909"
    },
    {
      "id": "pt.ine.add.PTCONT.1390803",
      "street": "MTE OUTEIRO ALTO",
      "house": "",
      "postcode": "7040-613",
      "city": "VIMIEIRO ARL",
      "lon": "-7.826393097727651",
      "lat": "38.83034186305647"
    },
    {
      "id": "pt.ine.add.PTCONT.1399613",
      "street": "MTE COURELA DE S JOÃO",
      "house": "",
      "postcode": "7040-669",
      "city": "VIMIEIRO ARL",
      "lon": "-7.820207162521183",
      "lat": "38.838612799647535"
    },
    {
      "id": "pt.ine.add.PTCONT.1406969",
      "street": "MTE OUTEIRO ALTO",
      "house": "",
      "postcode": "7040-613",
      "city": "VIMIEIRO ARL",
      "lon": "-7.815421643445747",
      "lat": "38.82952884770914"
    },
    {
      "id": "pt.ine.add.PTCONT.1410751",
      "street": "MTE ESTRADA",
      "house": "",
      "postcode": "7040-669",
      "city": "VIMIEIRO ARL",
      "lon": "-7.8017026075574485",
      "lat": "38.862504902810024"
    },
    {
      "id": "pt.ine.add.PTCONT.1410752",
      "street": "QTA PARREIRINHA",
      "house": "",
      "postcode": "7040-613",
      "city": "VIMIEIRO ARL",
      "lon": "-7.82815630747751",
      "lat": "38.83005822341599"
    },
    {
      "id": "pt.ine.add.PTCONT.1416600",
      "street": "HRD CAIXEIROS",
      "house": "",
      "postcode": "7040-669",
      "city": "VIMIEIRO ARL",
      "lon": "-7.8229183202883155",
      "lat": "38.848186490775134"
    },
    {
      "id": "pt.ine.add.PTCONT.1418255",
      "street": "MTE CASA AMARELA",
      "house": "",
      "postcode": "7040-613",
      "city": "VIMIEIRO ARL",
      "lon": "-7.817042704139012",
      "lat": "38.83274909516704"
    },
    {
      "id": "pt.ine.add.PTCONT.1420412",
      "street": "QTA CHAMOINHA",
      "house": "",
      "postcode": "7040-613",
      "city": "VIMIEIRO ARL",
      "lon": "-7.828523865061959",
      "lat": "38.83028438200358"
    },
    {
      "id": "pt.ine.add.PTCONT.1429272",
      "street": "MTE CANADA",
      "house": "",
      "postcode": "7040-669",
      "city": "VIMIEIRO ARL",
      "lon": "-7.81887750649395",
      "lat": "38.837158946595956"
    },
    {
      "id": "pt.ine.add.PTCONT.1434883",
      "street": "MTE VALE DE PERNA",
      "house": "",
      "postcode": "7040-669",
      "city": "VIMIEIRO ARL",
      "lon": "-7.817911001444368",
      "lat": "38.8395524636683"
    },
    {
      "id": "pt.ine.add.PTCONT.1436893",
      "street": "S JOÃO",
      "house": "",
      "postcode": "7040-700",
      "city": "VIMIEIRO ARL",
      "lon": "-7.827643441553455",
      "lat": "38.83419154853809"
    },
    {
      "id": "pt.ine.add.PTCONT.1448461",
      "street": "QTA S JOÃO",
      "house": "",
      "postcode": "7040-613",
      "city": "VIMIEIRO ARL",
      "lon": "-7.831596829172271",
      "lat": "38.830733744960355"
    },
    {
      "id": "pt.ine.add.PTCONT.1449869",
      "street": "HRD CAIXEIROS",
      "house": "",
      "postcode": "7040-669",
      "city": "VIMIEIRO ARL",
      "lon": "-7.822060730537745",
      "lat": "38.849373260695295"
    },
    {
      "id": "pt.ine.add.PTCONT.1450751",
      "street": "MTE CANADA",
      "house": "",
      "postcode": "7040-669",
      "city": "VIMIEIRO ARL",
      "lon": "-7.818922783561572",
      "lat": "38.8373392278865"
    },
    {
      "id": "pt.ine.add.PTCONT.1450752",
      "street": "MTE OLIVEIRA",
      "house": "",
      "postcode": "7040-669",
      "city": "VIMIEIRO ARL",
      "lon": "-7.827015761219454",
      "lat": "38.843603238646566"
    }
  ]
}