{
  "data": {
    "distrito": "Viana do Castelo",
    "concelho": "Caminha",
    "freguesia": "Âncora",
    "OBJECTID": 136,
    "BGRI2021": "16020100116",
    "DT21": "16",
    "DTMN21": "1602",
    "DTMNFR21": "160201",
    "DTMNFRSEC21": "160201001",
    "SECNUM21": "001",
    "SSNUM21": "16",
    "SECSSNUM21": "00116",
    "OBJECTID_1": 172729,
    "DT": "16",
    "CC": "02",
    "fr": "01",
    "SEC": "001",
    "SS": "16"
  },
  "addresses": [
    {
      "id": "pt.ine.add.PTCONT.5139237",
      "street": "R LAUREANAS",
      "house": "31",
      "postcode": "4910-014",
      "city": "ÂNCORA",
      "lon": "-8.840401428587363",
      "lat": "41.79461443916845"
    },
    {
      "id": "pt.ine.add.PTCONT.5141519",
      "street": "",
      "house": "",
      "postcode": "4910-014",
      "city": "ÂNCORA",
      "lon": "-8.840673028018905",
      "lat": "41.795242998288764"
    },
    {
      "id": "pt.ine.add.PTCONT.5166666",
      "street": "R CADINHO",
      "house": "",
      "postcode": "4910-014",
      "city": "ÂNCORA",
      "lon": "-8.838446820498644",
      "lat": "41.797399476058146"
    },
    {
      "id": "pt.ine.add.PTCONT.5178959",
      "street": "R LAUREANAS",
      "house": "22",
      "postcode": "4910-014",
      "city": "ÂNCORA",
      "lon": "-8.840521930237884",
      "lat": "41.79463170379784"
    },
    {
      "id": "pt.ine.add.PTCONT.5179449",
      "street": "R PACO",
      "house": "",
      "postcode": "4910-024",
      "city": "ÂNCORA",
      "lon": "-8.840827489854851",
      "lat": "41.79397258006799"
    },
    {
      "id": "pt.ine.add.PTCONT.5185091",
      "street": "R CADINHO",
      "house": "302",
      "postcode": "4910-014",
      "city": "ÂNCORA",
      "lon": "-8.838037572840117",
      "lat": "41.79738398151362"
    },
    {
      "id": "pt.ine.add.PTCONT.5199037",
      "street": "R LAUREANAS",
      "house": "60",
      "postcode": "4910-014",
      "city": "ÂNCORA",
      "lon": "-8.83992268679127",
      "lat": "41.794842468534064"
    },
    {
      "id": "pt.ine.add.PTCONT.5222131",
      "street": "R CADINHO",
      "house": "534",
      "postcode": "4910-014",
      "city": "ÂNCORA",
      "lon": "-8.838337643524026",
      "lat": "41.796220713104866"
    },
    {
      "id": "pt.ine.add.PTCONT.5228969",
      "street": "ASPRA",
      "house": "",
      "postcode": "4910-014",
      "city": "ÂNCORA",
      "lon": "-8.838947256381823",
      "lat": "41.795856836702136"
    },
    {
      "id": "pt.ine.add.PTCONT.5248382",
      "street": "R CADINHO",
      "house": "272",
      "postcode": "4910-014",
      "city": "ÂNCORA",
      "lon": "-8.8387313153347",
      "lat": "41.79701058671319"
    },
    {
      "id": "pt.ine.add.PTCONT.5259711",
      "street": "R LAUREANAS",
      "house": "84",
      "postcode": "4910-014",
      "city": "ÂNCORA",
      "lon": "-8.839842726810788",
      "lat": "41.795230102802954"
    },
    {
      "id": "pt.ine.add.PTCONT.5264212",
      "street": "R PORTELA",
      "house": "922",
      "postcode": "4910-014",
      "city": "ÂNCORA",
      "lon": "-8.84055965643266",
      "lat": "41.793686123828834"
    },
    {
      "id": "pt.ine.add.PTCONT.5264339",
      "street": "ESTR TRINDADE",
      "house": "13",
      "postcode": "4910-027",
      "city": "ÂNCORA",
      "lon": "-8.840957148011537",
      "lat": "41.79372869180704"
    },
    {
      "id": "pt.ine.add.PTCONT.5276774",
      "street": "R CADINHO",
      "house": "796",
      "postcode": "4910-014",
      "city": "ÂNCORA",
      "lon": "-8.839301552725015",
      "lat": "41.795251437527426"
    },
    {
      "id": "pt.ine.add.PTCONT.5277039",
      "street": "R CADINHO",
      "house": "",
      "postcode": "4910-014",
      "city": "ÂNCORA",
      "lon": "-8.83966500536938",
      "lat": "41.79438488488561"
    }
  ]
}