{
  "data": {
    "distrito": "Beja",
    "concelho": "Serpa",
    "freguesia": "Uni√£o das freguesias de Serpa (Salvador e Santa Maria)",
    "OBJECTID": 3,
    "BGRI2021": "02130800504",
    "DT21": "02",
    "DTMN21": "0213",
    "DTMNFR21": "021308",
    "DTMNFRSEC21": "021308005",
    "SECNUM21": "005",
    "SSNUM21": "04",
    "SECSSNUM21": "00504",
    "OBJECTID_1": 18681,
    "DT": "02",
    "CC": "13",
    "fr": "08",
    "SEC": "005",
    "SS": "04"
  },
  "addresses": [
    {
      "id": "pt.ine.add.PTCONT.372948",
      "street": "R PRIOR",
      "house": "22",
      "postcode": "7830-432",
      "city": "SERPA",
      "lon": "-7.598277151003782",
      "lat": "37.9435465648007"
    },
    {
      "id": "pt.ine.add.PTCONT.372949",
      "street": "R PRIOR",
      "house": "20",
      "postcode": "7830-432",
      "city": "SERPA",
      "lon": "-7.598284980351643",
      "lat": "37.94350464775238"
    },
    {
      "id": "pt.ine.add.PTCONT.396264",
      "street": "R GOVERNADOR",
      "house": "15",
      "postcode": "7830-409",
      "city": "SERPA",
      "lon": "-7.597899552555614",
      "lat": "37.943368643319054"
    },
    {
      "id": "pt.ine.add.PTCONT.401139",
      "street": "R PRIOR",
      "house": "ZOA",
      "postcode": "7830-432",
      "city": "SERPA",
      "lon": "-7.598294454417431",
      "lat": "37.94348490552497"
    },
    {
      "id": "pt.ine.add.PTCONT.429554",
      "street": "PC REPUBLICA",
      "house": "10",
      "postcode": "7830-389",
      "city": "SERPA",
      "lon": "-7.5978698302768395",
      "lat": "37.94351656850803"
    },
    {
      "id": "pt.ine.add.PTCONT.440378",
      "street": "R PORTAS DE BEJA",
      "house": "7",
      "postcode": "7830-431",
      "city": "SERPA",
      "lon": "-7.598117598680665",
      "lat": "37.943606756625414"
    },
    {
      "id": "pt.ine.add.PTCONT.440379",
      "street": "R PORTAS DE BEJA",
      "house": "7",
      "postcode": "7830-431",
      "city": "SERPA",
      "lon": "-7.598117598680665",
      "lat": "37.943606756625414"
    },
    {
      "id": "pt.ine.add.PTCONT.451850",
      "street": "R PORTAS DE BEJA",
      "house": "1",
      "postcode": "7830-431",
      "city": "SERPA",
      "lon": "-7.597855329459638",
      "lat": "37.94361903360955"
    },
    {
      "id": "pt.ine.add.PTCONT.451851",
      "street": "R PORTAS DE BEJA",
      "house": "1",
      "postcode": "7830-431",
      "city": "SERPA",
      "lon": "-7.597855329459638",
      "lat": "37.94361903360955"
    }
  ]
}