{
  "data": {
    "distrito": "Viseu",
    "concelho": "Viseu",
    "freguesia": "União das freguesias de Boa Aldeia, Farminhão e Torredeita",
    "OBJECTID": 1066,
    "BGRI2021": "18233600101",
    "DT21": "18",
    "DTMN21": "1823",
    "DTMNFR21": "182336",
    "DTMNFRSEC21": "182336001",
    "SECNUM21": "001",
    "SSNUM21": "01",
    "SECSSNUM21": "00101",
    "OBJECTID_1": 202216,
    "DT": "18",
    "CC": "23",
    "fr": "36",
    "SEC": "001",
    "SS": "01"
  },
  "addresses": [
    {
      "id": "pt.ine.add.PTCONT.5429372",
      "street": "R CARVALHA",
      "house": "15",
      "postcode": "3510-645",
      "city": "FARMINHÃO",
      "lon": "-8.014456927221044",
      "lat": "40.605783506121846"
    },
    {
      "id": "pt.ine.add.PTCONT.5437769",
      "street": "R CARVALHA",
      "house": "11",
      "postcode": "3510-645",
      "city": "FARMINHÃO",
      "lon": "-8.014668699947324",
      "lat": "40.60629702270468"
    },
    {
      "id": "pt.ine.add.PTCONT.5439214",
      "street": "LG NSA SRA DA SAÚDE",
      "house": "",
      "postcode": "3510-645",
      "city": "FARMINHÃO",
      "lon": "-8.013226635838258",
      "lat": "40.60661071869907"
    },
    {
      "id": "pt.ine.add.PTCONT.5443012",
      "street": "BC CUCOS",
      "house": "",
      "postcode": "3510-645",
      "city": "FARMINHÃO",
      "lon": "-8.013499021591883",
      "lat": "40.60625979637585"
    },
    {
      "id": "pt.ine.add.PTCONT.5452577",
      "street": "R CARVALHA",
      "house": "13",
      "postcode": "3510-645",
      "city": "FARMINHÃO",
      "lon": "-8.014160885375572",
      "lat": "40.60615241687578"
    },
    {
      "id": "pt.ine.add.PTCONT.5461181",
      "street": "BC CUCOS",
      "house": "",
      "postcode": "3510-645",
      "city": "FARMINHÃO",
      "lon": "-8.01343939760768",
      "lat": "40.60656591308556"
    },
    {
      "id": "pt.ine.add.PTCONT.5469455",
      "street": "BC CUCOS",
      "house": "",
      "postcode": "3510-645",
      "city": "FARMINHÃO",
      "lon": "-8.01326246881001",
      "lat": "40.606394629910604"
    },
    {
      "id": "pt.ine.add.PTCONT.5480362",
      "street": "LG NSA SRA DA SAÚDE",
      "house": "2",
      "postcode": "3510-645",
      "city": "FARMINHÃO",
      "lon": "-8.01348580915273",
      "lat": "40.607043239329876"
    },
    {
      "id": "pt.ine.add.PTCONT.5482112",
      "street": "LG NSA SRA DA SAÚDE",
      "house": "4",
      "postcode": "3510-645",
      "city": "FARMINHÃO",
      "lon": "-8.013273560609827",
      "lat": "40.60679987761367"
    },
    {
      "id": "pt.ine.add.PTCONT.5503726",
      "street": "R CARVALHA",
      "house": "3",
      "postcode": "3510-645",
      "city": "FARMINHÃO",
      "lon": "-8.015601689326934",
      "lat": "40.6065501226171"
    },
    {
      "id": "pt.ine.add.PTCONT.5537565",
      "street": "LAD NSA SRA DA PENHA",
      "house": "2",
      "postcode": "3510-645",
      "city": "FARMINHÃO",
      "lon": "-8.015601358114383",
      "lat": "40.60673923250527"
    },
    {
      "id": "pt.ine.add.PTCONT.5538935",
      "street": "R CARVALHA",
      "house": "16",
      "postcode": "3510-645",
      "city": "FARMINHÃO",
      "lon": "-8.01345262654116",
      "lat": "40.605773464839096"
    },
    {
      "id": "pt.ine.add.PTCONT.5541502",
      "street": "LG NSA SRA DA SAÚDE",
      "house": "6",
      "postcode": "3510-645",
      "city": "FARMINHÃO",
      "lon": "-8.013203133316544",
      "lat": "40.606538652312835"
    },
    {
      "id": "pt.ine.add.PTCONT.5550722",
      "street": "R CARVALHA",
      "house": "7",
      "postcode": "3510-645",
      "city": "FARMINHÃO",
      "lon": "-8.015366072145753",
      "lat": "40.60615365170602"
    },
    {
      "id": "pt.ine.add.PTCONT.5558247",
      "street": "LAD NSA SRA DA PENHA",
      "house": "4",
      "postcode": "3510-645",
      "city": "FARMINHÃO",
      "lon": "-8.015400270705102",
      "lat": "40.60686510123472"
    },
    {
      "id": "pt.ine.add.PTCONT.5563143",
      "street": "R CARVALHA",
      "house": "",
      "postcode": "3510-645",
      "city": "FARMINHÃO",
      "lon": "-8.013369114554964",
      "lat": "40.60622364078094"
    },
    {
      "id": "pt.ine.add.PTCONT.5573300",
      "street": "LAD NSA SRA DA PENHA",
      "house": "",
      "postcode": "3510-645",
      "city": "FARMINHÃO",
      "lon": "-8.014407323245027",
      "lat": "40.60710722676862"
    },
    {
      "id": "pt.ine.add.PTCONT.5601067",
      "street": "R CARVALHA",
      "house": "10",
      "postcode": "3510-645",
      "city": "FARMINHÃO",
      "lon": "-8.015591592973308",
      "lat": "40.60556854012446"
    },
    {
      "id": "pt.ine.add.PTCONT.5609127",
      "street": "R CARVALHA",
      "house": "21",
      "postcode": "3510-645",
      "city": "FARMINHÃO",
      "lon": "-8.013735493312488",
      "lat": "40.60616998851682"
    },
    {
      "id": "pt.ine.add.PTCONT.5625393",
      "street": "BC CUCOS",
      "house": "5",
      "postcode": "3510-645",
      "city": "FARMINHÃO",
      "lon": "-8.013581875001758",
      "lat": "40.6061788349001"
    },
    {
      "id": "pt.ine.add.PTCONT.5637534",
      "street": "R CARVALHA",
      "house": "12",
      "postcode": "3510-645",
      "city": "FARMINHÃO",
      "lon": "-8.014976777137193",
      "lat": "40.60580204946732"
    }
  ]
}