{
  "data": {
    "distrito": "Santarém",
    "concelho": "Ferreira do Zêzere",
    "freguesia": "Águas Belas",
    "OBJECTID": 249,
    "BGRI2021": "14110100133",
    "DT21": "14",
    "DTMN21": "1411",
    "DTMNFR21": "141101",
    "DTMNFRSEC21": "141101001",
    "SECNUM21": "001",
    "SSNUM21": "33",
    "SECSSNUM21": "00133",
    "OBJECTID_1": 151519,
    "DT": "14",
    "CC": "11",
    "fr": "01",
    "SEC": "001",
    "SS": "33"
  },
  "addresses": [
    {
      "id": "pt.ine.add.PTCONT.4395911",
      "street": "R ANTÓNIO TEIXEIRA ANTUNES",
      "house": "",
      "postcode": "2240-029",
      "city": "ÁGUAS BELAS FZZ",
      "lon": "-8.30257811408148",
      "lat": "39.7134112759046"
    },
    {
      "id": "pt.ine.add.PTCONT.4398042",
      "street": "R NSA SRA DA GRAÇA",
      "house": "",
      "postcode": "2240-029",
      "city": "ÁGUAS BELAS FZZ",
      "lon": "-8.302645725659355",
      "lat": "39.71244746685018"
    },
    {
      "id": "pt.ine.add.PTCONT.4405478",
      "street": "R ANTÓNIO RODRIGUES RESENDE",
      "house": "",
      "postcode": "2240-028",
      "city": "ÁGUAS BELAS FZZ",
      "lon": "-8.30721606447092",
      "lat": "39.70739698332264"
    },
    {
      "id": "pt.ine.add.PTCONT.4408873",
      "street": "R NSA SRA DA GRAÇA",
      "house": "",
      "postcode": "2240-029",
      "city": "ÁGUAS BELAS FZZ",
      "lon": "-8.304077326196513",
      "lat": "39.711319537611345"
    },
    {
      "id": "pt.ine.add.PTCONT.4408958",
      "street": "R NSA SRA DA GRAÇA",
      "house": "",
      "postcode": "2240-028",
      "city": "ÁGUAS BELAS FZZ",
      "lon": "-8.306435942137039",
      "lat": "39.70785748946316"
    },
    {
      "id": "pt.ine.add.PTCONT.4420605",
      "street": "R ANTÓNIO TEIXEIRA ANTUNES",
      "house": "",
      "postcode": "2240-029",
      "city": "ÁGUAS BELAS FZZ",
      "lon": "-8.302588122820847",
      "lat": "39.712735763403565"
    },
    {
      "id": "pt.ine.add.PTCONT.4432925",
      "street": "R NSA SRA DA GRAÇA",
      "house": "",
      "postcode": "2240-028",
      "city": "ÁGUAS BELAS FZZ",
      "lon": "-8.30557606667322",
      "lat": "39.709074667011315"
    },
    {
      "id": "pt.ine.add.PTCONT.4440815",
      "street": "R NSA SRA DA GRAÇA",
      "house": "",
      "postcode": "2240-028",
      "city": "ÁGUAS BELAS FZZ",
      "lon": "-8.305402629483472",
      "lat": "39.7096693630094"
    },
    {
      "id": "pt.ine.add.PTCONT.4509386",
      "street": "R S MARCOS",
      "house": "",
      "postcode": "2240-029",
      "city": "ÁGUAS BELAS FZZ",
      "lon": "-8.302789195793066",
      "lat": "39.713888319414075"
    },
    {
      "id": "pt.ine.add.PTCONT.4518072",
      "street": "R NSA SRA DA GRAÇA",
      "house": "",
      "postcode": "2240-029",
      "city": "ÁGUAS BELAS FZZ",
      "lon": "-8.302645990230365",
      "lat": "39.71255554613717"
    },
    {
      "id": "pt.ine.add.PTCONT.4532042",
      "street": "R NSA SRA DA GRAÇA",
      "house": "",
      "postcode": "2240-029",
      "city": "ÁGUAS BELAS FZZ",
      "lon": "-8.303006131294078",
      "lat": "39.71199660804556"
    },
    {
      "id": "pt.ine.add.PTCONT.4541829",
      "street": "R NSA SRA DA GRAÇA",
      "house": "",
      "postcode": "2240-028",
      "city": "ÁGUAS BELAS FZZ",
      "lon": "-8.305634147611956",
      "lat": "39.70898451427906"
    },
    {
      "id": "pt.ine.add.PTCONT.4542566",
      "street": "R NSA SRA DA GRAÇA",
      "house": "",
      "postcode": "2240-028",
      "city": "ÁGUAS BELAS FZZ",
      "lon": "-8.305286935878167",
      "lat": "39.71003880700435"
    },
    {
      "id": "pt.ine.add.PTCONT.4548632",
      "street": "R NSA SRA DA GRAÇA",
      "house": "",
      "postcode": "2240-028",
      "city": "ÁGUAS BELAS FZZ",
      "lon": "-8.306486237603604",
      "lat": "39.70931649089383"
    },
    {
      "id": "pt.ine.add.PTCONT.4559162",
      "street": "R NSA SRA DA GRAÇA MORADIA CASTANHEIRA",
      "house": "",
      "postcode": "2240-028",
      "city": "ÁGUAS BELAS FZZ",
      "lon": "-8.305541330144841",
      "lat": "39.70917379169174"
    },
    {
      "id": "pt.ine.add.PTCONT.4566823",
      "street": "R NSA SRA DA GRAÇA",
      "house": "",
      "postcode": "2240-029",
      "city": "ÁGUAS BELAS FZZ",
      "lon": "-8.302936493280013",
      "lat": "39.71213180952524"
    },
    {
      "id": "pt.ine.add.PTCONT.4597292",
      "street": "R NSA SRA DA GRAÇA",
      "house": "",
      "postcode": "2240-028",
      "city": "ÁGUAS BELAS FZZ",
      "lon": "-8.305877906188941",
      "lat": "39.708533819579756"
    },
    {
      "id": "pt.ine.add.PTCONT.4598773",
      "street": "R NSA SRA DA GRAÇA",
      "house": "",
      "postcode": "2240-028",
      "city": "ÁGUAS BELAS FZZ",
      "lon": "-8.305994965422762",
      "lat": "39.70871377824379"
    },
    {
      "id": "pt.ine.add.PTCONT.4609139",
      "street": "R NSA SRA DA GRAÇA",
      "house": "",
      "postcode": "2240-028",
      "city": "ÁGUAS BELAS FZZ",
      "lon": "-8.30638887065873",
      "lat": "39.70768643343756"
    },
    {
      "id": "pt.ine.add.PTCONT.4628114",
      "street": "R NSA SRA DA GRAÇA",
      "house": "",
      "postcode": "2240-028",
      "city": "ÁGUAS BELAS FZZ",
      "lon": "-8.306157319287975",
      "lat": "39.70835327057661"
    },
    {
      "id": "pt.ine.add.PTCONT.4636175",
      "street": "R S MARCOS QTA DOS ANJCS",
      "house": "",
      "postcode": "2240-029",
      "city": "ÁGUAS BELAS FZZ",
      "lon": "-8.302952969967127",
      "lat": "39.71409523260938"
    },
    {
      "id": "pt.ine.add.PTCONT.4639707",
      "street": "R NSA SRA DA GRAÇA",
      "house": "",
      "postcode": "2240-028",
      "city": "ÁGUAS BELAS FZZ",
      "lon": "-8.306691690870068",
      "lat": "39.70754187477845"
    },
    {
      "id": "pt.ine.add.PTCONT.4639708",
      "street": "R NSA SRA DA GRAÇA",
      "house": "",
      "postcode": "2240-028",
      "city": "ÁGUAS BELAS FZZ",
      "lon": "-8.306691690870068",
      "lat": "39.70754187477845"
    },
    {
      "id": "pt.ine.add.PTCONT.4639709",
      "street": "R NSA SRA DA GRAÇA",
      "house": "",
      "postcode": "2240-028",
      "city": "ÁGUAS BELAS FZZ",
      "lon": "-8.306691690870068",
      "lat": "39.70754187477845"
    }
  ]
}