{
  "data": {
    "distrito": "Setúbal",
    "concelho": "Grândola",
    "freguesia": "Melides",
    "OBJECTID": 357,
    "BGRI2021": "15050300226",
    "DT21": "15",
    "DTMN21": "1505",
    "DTMNFR21": "150503",
    "DTMNFRSEC21": "150503002",
    "SECNUM21": "002",
    "SSNUM21": "26",
    "SECSSNUM21": "00226",
    "OBJECTID_1": 163236,
    "DT": "15",
    "CC": "05",
    "fr": "03",
    "SEC": "002",
    "SS": "26"
  },
  "addresses": [
    {
      "id": "pt.ine.add.PTCONT.4697256",
      "street": "ESTR VALINHO DA ESTRADA",
      "house": "",
      "postcode": "7570-769",
      "city": "MELIDES",
      "lon": "-8.69326527568807",
      "lat": "38.160092810384135"
    },
    {
      "id": "pt.ine.add.PTCONT.4697261",
      "street": "",
      "house": "",
      "postcode": "7570-769",
      "city": "MELIDES",
      "lon": "-8.69796555619928",
      "lat": "38.15943638362527"
    },
    {
      "id": "pt.ine.add.PTCONT.4759245",
      "street": "CILHA DO ARIEIRO",
      "house": "",
      "postcode": "7570-769",
      "city": "MELIDES",
      "lon": "-8.701260597314613",
      "lat": "38.16116250390328"
    },
    {
      "id": "pt.ine.add.PTCONT.4766592",
      "street": "",
      "house": "",
      "postcode": "7570-769",
      "city": "MELIDES",
      "lon": "-8.699540615125757",
      "lat": "38.158595061267555"
    },
    {
      "id": "pt.ine.add.PTCONT.4805420",
      "street": "MTE NOVO DOS BACELOS",
      "house": "",
      "postcode": "7570-769",
      "city": "MELIDES",
      "lon": "-8.701159889373542",
      "lat": "38.162402438386636"
    },
    {
      "id": "pt.ine.add.PTCONT.4909459",
      "street": "MTE BACELO",
      "house": "",
      "postcode": "7570-769",
      "city": "MELIDES",
      "lon": "-8.699929100774725",
      "lat": "38.163087842038784"
    },
    {
      "id": "pt.ine.add.PTCONT.4934608",
      "street": "ESTR VALINHO DA ESTRADA",
      "house": "",
      "postcode": "7570-769",
      "city": "MELIDES",
      "lon": "-8.69399376568892",
      "lat": "38.15986410989559"
    },
    {
      "id": "pt.ine.add.PTCONT.4990996",
      "street": "",
      "house": "",
      "postcode": "7570-769",
      "city": "MELIDES",
      "lon": "-8.694996564009706",
      "lat": "38.15969715546458"
    },
    {
      "id": "pt.ine.add.PTCONT.5046018",
      "street": "",
      "house": "",
      "postcode": "7570-769",
      "city": "MELIDES",
      "lon": "-8.693493536935721",
      "lat": "38.16010073040109"
    },
    {
      "id": "pt.ine.add.PTCONT.5078777",
      "street": "",
      "house": "",
      "postcode": "7570-769",
      "city": "MELIDES",
      "lon": "-8.70003965189062",
      "lat": "38.15968192852016"
    },
    {
      "id": "pt.ine.add.PTCONT.5110469",
      "street": "",
      "house": "",
      "postcode": "7570-769",
      "city": "MELIDES",
      "lon": "-8.69459764425165",
      "lat": "38.15975311701235"
    }
  ]
}