{
  "data": {
    "distrito": "Aveiro",
    "concelho": "Águeda",
    "freguesia": "União das freguesias de Águeda e Borralha",
    "OBJECTID": 848,
    "BGRI2021": "01012100216",
    "DT21": "01",
    "DTMN21": "0101",
    "DTMNFR21": "010121",
    "DTMNFRSEC21": "010121002",
    "SECNUM21": "002",
    "SSNUM21": "16",
    "SECSSNUM21": "00216",
    "OBJECTID_1": 50,
    "DT": "01",
    "CC": "01",
    "fr": "21",
    "SEC": "002",
    "SS": "16"
  },
  "addresses": [
    {
      "id": "pt.ine.add.PTCONT.300069",
      "street": "R ENG JÚLIO PORTELA",
      "house": "49",
      "postcode": "3750-158",
      "city": "ÁGUEDA",
      "lon": "-8.446460132085814",
      "lat": "40.57385597285997"
    },
    {
      "id": "pt.ine.add.PTCONT.331900",
      "street": "R ENG JÚLIO PORTELA",
      "house": "75",
      "postcode": "3750-158",
      "city": "ÁGUEDA",
      "lon": "-8.44671007024653",
      "lat": "40.5742695375956"
    },
    {
      "id": "pt.ine.add.PTCONT.331901",
      "street": "R TEN COR ALBANO MELLO",
      "house": "124",
      "postcode": "3750-166",
      "city": "ÁGUEDA",
      "lon": "-8.447879577379947",
      "lat": "40.57433839913317"
    },
    {
      "id": "pt.ine.add.PTCONT.334584",
      "street": "R ARMANDO CASTELA",
      "house": "38",
      "postcode": "3750-124",
      "city": "ÁGUEDA",
      "lon": "-8.447243869453285",
      "lat": "40.57477238301791"
    },
    {
      "id": "pt.ine.add.PTCONT.337255",
      "street": "AV ARCEBISPO PRIMAZ",
      "house": "",
      "postcode": "3750-123",
      "city": "ÁGUEDA",
      "lon": "-8.447512251020518",
      "lat": "40.574078246269124"
    },
    {
      "id": "pt.ine.add.PTCONT.339803",
      "street": "R ARMANDO CASTELA",
      "house": "16",
      "postcode": "3750-124",
      "city": "ÁGUEDA",
      "lon": "-8.447632583504266",
      "lat": "40.57455519861177"
    },
    {
      "id": "pt.ine.add.PTCONT.342587",
      "street": "R ENG JÚLIO PORTELA",
      "house": "19",
      "postcode": "3750-158",
      "city": "ÁGUEDA",
      "lon": "-8.446235537470729",
      "lat": "40.57381155543763"
    },
    {
      "id": "pt.ine.add.PTCONT.7789",
      "street": "R ENG JÚLIO PORTELA",
      "house": "81",
      "postcode": "3750-158",
      "city": "ÁGUEDA",
      "lon": "-8.446781433655712",
      "lat": "40.57437740722241"
    },
    {
      "id": "pt.ine.add.PTCONT.15663",
      "street": "AV ARCEBISPO PRIMAZ",
      "house": "",
      "postcode": "3750-123",
      "city": "ÁGUEDA",
      "lon": "-8.447201996943567",
      "lat": "40.57339468879518"
    },
    {
      "id": "pt.ine.add.PTCONT.45476",
      "street": "R ADRO",
      "house": "46",
      "postcode": "3750-134",
      "city": "ÁGUEDA",
      "lon": "-8.446339515252353",
      "lat": "40.573315983019924"
    },
    {
      "id": "pt.ine.add.PTCONT.53150",
      "street": "AV ARCEBISPO PRIMAZ",
      "house": "19",
      "postcode": "3750-123",
      "city": "ÁGUEDA",
      "lon": "-8.447226921702093",
      "lat": "40.57367378477953"
    },
    {
      "id": "pt.ine.add.PTCONT.83100",
      "street": "R ENG JÚLIO PORTELA",
      "house": "57",
      "postcode": "3750-158",
      "city": "ÁGUEDA",
      "lon": "-8.446650306663011",
      "lat": "40.574116610032014"
    },
    {
      "id": "pt.ine.add.PTCONT.104493",
      "street": "R ARMANDO CASTELA",
      "house": "20",
      "postcode": "3750-124",
      "city": "ÁGUEDA",
      "lon": "-8.447538526313611",
      "lat": "40.57464550746348"
    },
    {
      "id": "pt.ine.add.PTCONT.107166",
      "street": "R ARMANDO CASTELA",
      "house": "32",
      "postcode": "3750-124",
      "city": "ÁGUEDA",
      "lon": "-8.447397018684601",
      "lat": "40.57469091893782"
    },
    {
      "id": "pt.ine.add.PTCONT.115013",
      "street": "R ENG JÚLIO PORTELA",
      "house": "2",
      "postcode": "3750-158",
      "city": "ÁGUEDA",
      "lon": "-8.446116559088823",
      "lat": "40.5736227669427"
    },
    {
      "id": "pt.ine.add.PTCONT.117719",
      "street": "R ENG JÚLIO PORTELA",
      "house": "77",
      "postcode": "3750-158",
      "city": "ÁGUEDA",
      "lon": "-8.446651441638556",
      "lat": "40.574359749549"
    },
    {
      "id": "pt.ine.add.PTCONT.117720",
      "street": "R ENG JÚLIO PORTELA",
      "house": "41",
      "postcode": "3750-158",
      "city": "ÁGUEDA",
      "lon": "-8.446472698018951",
      "lat": "40.574018033848375"
    },
    {
      "id": "pt.ine.add.PTCONT.120369",
      "street": "R ENG JÚLIO PORTELA",
      "house": "109",
      "postcode": "3750-158",
      "city": "ÁGUEDA",
      "lon": "-8.446735035357461",
      "lat": "40.57455763881687"
    },
    {
      "id": "pt.ine.add.PTCONT.133775",
      "street": "R ENG JÚLIO PORTELA",
      "house": "33",
      "postcode": "3750-158",
      "city": "ÁGUEDA",
      "lon": "-8.446389693761141",
      "lat": "40.57394621671984"
    },
    {
      "id": "pt.ine.add.PTCONT.136487",
      "street": "AV ARCEBISPO PRIMAZ",
      "house": "17",
      "postcode": "3750-123",
      "city": "ÁGUEDA",
      "lon": "-8.447251257049114",
      "lat": "40.57382680840172"
    },
    {
      "id": "pt.ine.add.PTCONT.141848",
      "street": "R ARMANDO CASTELA",
      "house": "12",
      "postcode": "3750-124",
      "city": "ÁGUEDA",
      "lon": "-8.447655907991631",
      "lat": "40.57449209813979"
    },
    {
      "id": "pt.ine.add.PTCONT.141849",
      "street": "R ARMANDO CASTELA",
      "house": "12",
      "postcode": "3750-124",
      "city": "ÁGUEDA",
      "lon": "-8.447655907991631",
      "lat": "40.57449209813979"
    },
    {
      "id": "pt.ine.add.PTCONT.149426",
      "street": "R ENG JÚLIO PORTELA",
      "house": "7",
      "postcode": "3750-158",
      "city": "ÁGUEDA",
      "lon": "-8.44618800480007",
      "lat": "40.57374864729126"
    },
    {
      "id": "pt.ine.add.PTCONT.154660",
      "street": "R ADRO",
      "house": "48",
      "postcode": "3750-134",
      "city": "ÁGUEDA",
      "lon": "-8.446398395383012",
      "lat": "40.573279802224654"
    },
    {
      "id": "pt.ine.add.PTCONT.162840",
      "street": "R ENG JÚLIO PORTELA",
      "house": "59",
      "postcode": "3750-158",
      "city": "ÁGUEDA",
      "lon": "-8.446685988208953",
      "lat": "40.57417054487164"
    },
    {
      "id": "pt.ine.add.PTCONT.191907",
      "street": "R ARMANDO CASTELA",
      "house": "48",
      "postcode": "3750-124",
      "city": "ÁGUEDA",
      "lon": "-8.447172968054383",
      "lat": "40.57476357051561"
    },
    {
      "id": "pt.ine.add.PTCONT.197334",
      "street": "R ENG JÚLIO PORTELA",
      "house": "56",
      "postcode": "3750-158",
      "city": "ÁGUEDA",
      "lon": "-8.44675890735361",
      "lat": "40.574611605690265"
    },
    {
      "id": "pt.ine.add.PTCONT.197335",
      "street": "R ENG JÚLIO PORTELA",
      "house": "99",
      "postcode": "3750-158",
      "city": "ÁGUEDA",
      "lon": "-8.44671120544453",
      "lat": "40.57451267710474"
    },
    {
      "id": "pt.ine.add.PTCONT.200025",
      "street": "R ENG JÚLIO PORTELA",
      "house": "25",
      "postcode": "3750-158",
      "city": "ÁGUEDA",
      "lon": "-8.446282944271916",
      "lat": "40.573847448058835"
    },
    {
      "id": "pt.ine.add.PTCONT.202601",
      "street": "R ADRO",
      "house": "38",
      "postcode": "3750-134",
      "city": "ÁGUEDA",
      "lon": "-8.446268951375744",
      "lat": "40.5733792113064"
    },
    {
      "id": "pt.ine.add.PTCONT.202602",
      "street": "R ARMANDO CASTELA",
      "house": "36",
      "postcode": "3750-124",
      "city": "ÁGUEDA",
      "lon": "-8.447314518115194",
      "lat": "40.57472716448112"
    },
    {
      "id": "pt.ine.add.PTCONT.213734",
      "street": "R ENG JÚLIO PORTELA",
      "house": "5",
      "postcode": "3750-158",
      "city": "ÁGUEDA",
      "lon": "-8.44612866252655",
      "lat": "40.57368577112446"
    },
    {
      "id": "pt.ine.add.PTCONT.219286",
      "street": "R ADRO",
      "house": "24",
      "postcode": "3750-134",
      "city": "ÁGUEDA",
      "lon": "-8.446198387366392",
      "lat": "40.57344243954959"
    },
    {
      "id": "pt.ine.add.PTCONT.219287",
      "street": "R ARMANDO CASTELA",
      "house": "56",
      "postcode": "3750-124",
      "city": "ÁGUEDA",
      "lon": "-8.446900878024246",
      "lat": "40.574665251827334"
    },
    {
      "id": "pt.ine.add.PTCONT.232614",
      "street": "R ENG JÚLIO PORTELA",
      "house": "49",
      "postcode": "3750-158",
      "city": "ÁGUEDA",
      "lon": "-8.446520231147744",
      "lat": "40.57408094187298"
    },
    {
      "id": "pt.ine.add.PTCONT.232615",
      "street": "R ADRO",
      "house": "12",
      "postcode": "3750-134",
      "city": "ÁGUEDA",
      "lon": "-8.446151736322328",
      "lat": "40.57356863993012"
    },
    {
      "id": "pt.ine.add.PTCONT.235358",
      "street": "R ARMANDO CASTELA",
      "house": "6",
      "postcode": "3750-124",
      "city": "ÁGUEDA",
      "lon": "-8.447738492451887",
      "lat": "40.57447386268501"
    },
    {
      "id": "pt.ine.add.PTCONT.240781",
      "street": "R ARMANDO CASTELA",
      "house": "26",
      "postcode": "3750-124",
      "city": "ÁGUEDA",
      "lon": "-8.44749145547405",
      "lat": "40.574681656694565"
    },
    {
      "id": "pt.ine.add.PTCONT.243623",
      "street": "R ENG JÚLIO PORTELA",
      "house": "65",
      "postcode": "3750-158",
      "city": "ÁGUEDA",
      "lon": "-8.446698008197545",
      "lat": "40.57421553865085"
    },
    {
      "id": "pt.ine.add.PTCONT.278712",
      "street": "R ARMANDO CASTELA",
      "house": "18",
      "postcode": "3750-124",
      "city": "ÁGUEDA",
      "lon": "-8.447597449118978",
      "lat": "40.57461833122939"
    }
  ]
}