{
  "data": {
    "distrito": "Guarda",
    "concelho": "Trancoso",
    "freguesia": "União das freguesias de Trancoso (São Pedro e Santa Maria) e Souto Maior",
    "OBJECTID": 56,
    "BGRI2021": "09133200346",
    "DT21": "09",
    "DTMN21": "0913",
    "DTMNFR21": "091332",
    "DTMNFRSEC21": "091332003",
    "SECNUM21": "003",
    "SSNUM21": "46",
    "SECSSNUM21": "00346",
    "OBJECTID_1": 83080,
    "DT": "09",
    "CC": "13",
    "fr": "32",
    "SEC": "003",
    "SS": "46"
  },
  "addresses": [
    {
      "id": "pt.ine.add.PTCONT.1912931",
      "street": "R DO CASTELO",
      "house": "",
      "postcode": "6420-576",
      "city": "TRANCOSO",
      "lon": "-7.396728321517361",
      "lat": "40.783507063643064"
    },
    {
      "id": "pt.ine.add.PTCONT.1916610",
      "street": "",
      "house": "",
      "postcode": "6420-576",
      "city": "TRANCOSO",
      "lon": "-7.397063139533262",
      "lat": "40.780006306522786"
    },
    {
      "id": "pt.ine.add.PTCONT.1924490",
      "street": "QTA DA JUNQUEIRA",
      "house": "",
      "postcode": "6420-579",
      "city": "TRANCOSO",
      "lon": "-7.407317268355009",
      "lat": "40.776082097362405"
    },
    {
      "id": "pt.ine.add.PTCONT.1928324",
      "street": "QTA DO SAMEIRO",
      "house": "",
      "postcode": "6420-576",
      "city": "TRANCOSO",
      "lon": "-7.398866450239974",
      "lat": "40.792669624034254"
    },
    {
      "id": "pt.ine.add.PTCONT.1938682",
      "street": "R DO CASTELO",
      "house": "",
      "postcode": "6420-576",
      "city": "TRANCOSO",
      "lon": "-7.396668097023832",
      "lat": "40.78359672794294"
    },
    {
      "id": "pt.ine.add.PTCONT.1938683",
      "street": "R DO CASTELO",
      "house": "",
      "postcode": "6420-576",
      "city": "TRANCOSO",
      "lon": "-7.39676644510434",
      "lat": "40.78327318044829"
    },
    {
      "id": "pt.ine.add.PTCONT.1940027",
      "street": "QTA DO SAMEIRO",
      "house": "",
      "postcode": "6420-576",
      "city": "TRANCOSO",
      "lon": "-7.398068092524626",
      "lat": "40.79307876417305"
    },
    {
      "id": "pt.ine.add.PTCONT.1948774",
      "street": "QTA DO SAMEIRO",
      "house": "",
      "postcode": "6420-576",
      "city": "TRANCOSO",
      "lon": "-7.398516778156819",
      "lat": "40.792145117061025"
    },
    {
      "id": "pt.ine.add.PTCONT.1958569",
      "street": "",
      "house": "",
      "postcode": "6420-576",
      "city": "TRANCOSO",
      "lon": "-7.396968392226256",
      "lat": "40.78107728153643"
    },
    {
      "id": "pt.ine.add.PTCONT.1960861",
      "street": "R DE S BRÁS",
      "house": "",
      "postcode": "6420-575",
      "city": "TRANCOSO",
      "lon": "-7.415515445752426",
      "lat": "40.79028902514268"
    },
    {
      "id": "pt.ine.add.PTCONT.1975341",
      "street": "QTA DO SAMEIRO",
      "house": "",
      "postcode": "6420-576",
      "city": "TRANCOSO",
      "lon": "-7.3985043351763125",
      "lat": "40.792199066952996"
    },
    {
      "id": "pt.ine.add.PTCONT.1976288",
      "street": "QTA DA JUNQUEIRA",
      "house": "",
      "postcode": "6420-579",
      "city": "TRANCOSO",
      "lon": "-7.407283106343876",
      "lat": "40.775955814187846"
    },
    {
      "id": "pt.ine.add.PTCONT.1859669",
      "street": "QTA DO SAMEIRO",
      "house": "",
      "postcode": "6420-576",
      "city": "TRANCOSO",
      "lon": "-7.398248289763895",
      "lat": "40.792854790681154"
    },
    {
      "id": "pt.ine.add.PTCONT.1861182",
      "street": "QTA DA JUNQUEIRA",
      "house": "",
      "postcode": "6420-579",
      "city": "TRANCOSO",
      "lon": "-7.407398907304053",
      "lat": "40.77619967423072"
    },
    {
      "id": "pt.ine.add.PTCONT.1864674",
      "street": "QTA DE VALE GRALHAS",
      "house": "",
      "postcode": "6420-575",
      "city": "TRANCOSO",
      "lon": "-7.409813089994915",
      "lat": "40.780780303491774"
    },
    {
      "id": "pt.ine.add.PTCONT.1867161",
      "street": "R DA QUINTA",
      "house": "",
      "postcode": "6420-576",
      "city": "TRANCOSO",
      "lon": "-7.396970738573496",
      "lat": "40.78515650033496"
    },
    {
      "id": "pt.ine.add.PTCONT.1867228",
      "street": "QTA DO SAMEIRO",
      "house": "",
      "postcode": "6420-576",
      "city": "TRANCOSO",
      "lon": "-7.398355911190559",
      "lat": "40.79276542753405"
    }
  ]
}