{
  "data": {
    "distrito": "Beja",
    "concelho": "Serpa",
    "freguesia": "União das freguesias de Serpa (Salvador e Santa Maria)",
    "OBJECTID": 206,
    "BGRI2021": "02130800423",
    "DT21": "02",
    "DTMN21": "0213",
    "DTMNFR21": "021308",
    "DTMNFRSEC21": "021308004",
    "SECNUM21": "004",
    "SSNUM21": "23",
    "SECSSNUM21": "00423",
    "OBJECTID_1": 18793,
    "DT": "02",
    "CC": "13",
    "fr": "08",
    "SEC": "004",
    "SS": "23"
  },
  "addresses": [
    {
      "id": "pt.ine.add.PTCONT.352641",
      "street": "JOÃO PELADO",
      "house": "15",
      "postcode": "7830-377",
      "city": "SERPA",
      "lon": "-7.595097935674899",
      "lat": "37.94239120603484"
    },
    {
      "id": "pt.ine.add.PTCONT.369023",
      "street": "R ESTREITA",
      "house": "7",
      "postcode": "7830-349",
      "city": "SERPA",
      "lon": "-7.595606836461524",
      "lat": "37.94263744927594"
    },
    {
      "id": "pt.ine.add.PTCONT.369029",
      "street": "LG 5 DE OUTUBRO",
      "house": "2",
      "postcode": "7830-325",
      "city": "SERPA",
      "lon": "-7.595574021094674",
      "lat": "37.9424571136551"
    },
    {
      "id": "pt.ine.add.PTCONT.374709",
      "street": "LG PRIOR BELAS",
      "house": "6",
      "postcode": "7830-367",
      "city": "SERPA",
      "lon": "-7.595006275894642",
      "lat": "37.94231037000241"
    },
    {
      "id": "pt.ine.add.PTCONT.381964",
      "street": "LG 5 DE OUTUBRO",
      "house": "5",
      "postcode": "7830-325",
      "city": "SERPA",
      "lon": "-7.595789181757071",
      "lat": "37.94262951698623"
    },
    {
      "id": "pt.ine.add.PTCONT.420167",
      "street": "R ESTREITA",
      "house": "1",
      "postcode": "7830-349",
      "city": "SERPA",
      "lon": "-7.595290752443436",
      "lat": "37.94248767875242"
    },
    {
      "id": "pt.ine.add.PTCONT.423987",
      "street": "LG PRIOR BELAS",
      "house": "6A",
      "postcode": "7830-367",
      "city": "SERPA",
      "lon": "-7.595029421844675",
      "lat": "37.94225642013854"
    },
    {
      "id": "pt.ine.add.PTCONT.429462",
      "street": "R ESTREITA",
      "house": "5",
      "postcode": "7830-349",
      "city": "SERPA",
      "lon": "-7.595402791387425",
      "lat": "37.94253741484615"
    }
  ]
}