{
  "data": {
    "distrito": "Lisboa",
    "concelho": "Cascais",
    "freguesia": "Alcabideche",
    "OBJECTID": 1201,
    "BGRI2021": "11050100418",
    "DT21": "11",
    "DTMN21": "1105",
    "DTMNFR21": "110501",
    "DTMNFRSEC21": "110501004",
    "SECNUM21": "004",
    "SSNUM21": "18",
    "SECSSNUM21": "00418",
    "OBJECTID_1": 102274,
    "DT": "11",
    "CC": "05",
    "fr": "01",
    "SEC": "004",
    "SS": "18"
  },
  "addresses": [
    {
      "id": "pt.ine.add.PTCONT.2922364",
      "street": "R FIGUEIREDOS",
      "house": "",
      "postcode": "2755-133",
      "city": "ALCABIDECHE",
      "lon": "-9.44203186443388",
      "lat": "38.75279192107166"
    },
    {
      "id": "pt.ine.add.PTCONT.2922365",
      "street": "R 19 DE NOVEMBRO CASA DAS PENUAS",
      "house": "5",
      "postcode": "2755-129",
      "city": "ALCABIDECHE",
      "lon": "-9.441561314387908",
      "lat": "38.7528512358557"
    },
    {
      "id": "pt.ine.add.PTCONT.2972468",
      "street": "R CEDRO REFUGIO DA SERRA",
      "house": "20",
      "postcode": "2755-127",
      "city": "ALCABIDECHE",
      "lon": "-9.441831427090603",
      "lat": "38.753154470565505"
    },
    {
      "id": "pt.ine.add.PTCONT.2999770",
      "street": "R FIGUEIREDOS",
      "house": "ANERO",
      "postcode": "2755-133",
      "city": "ALCABIDECHE",
      "lon": "-9.44202200845879",
      "lat": "38.75288210766396"
    },
    {
      "id": "pt.ine.add.PTCONT.3025835",
      "street": "R FIGUEIREDOS",
      "house": "4",
      "postcode": "2755-133",
      "city": "ALCABIDECHE",
      "lon": "-9.442099718278243",
      "lat": "38.75272810776479"
    },
    {
      "id": "pt.ine.add.PTCONT.3026066",
      "street": "R FIGUEIREDOS",
      "house": "4",
      "postcode": "2755-133",
      "city": "ALCABIDECHE",
      "lon": "-9.442099718278243",
      "lat": "38.75272810776479"
    },
    {
      "id": "pt.ine.add.PTCONT.3045189",
      "street": "R 19 DE NOVEMBRO",
      "house": "15",
      "postcode": "2755-129",
      "city": "ALCABIDECHE",
      "lon": "-9.441858199743907",
      "lat": "38.75273081258128"
    },
    {
      "id": "pt.ine.add.PTCONT.3074148",
      "street": "R CEDRO",
      "house": "9",
      "postcode": "2755-127",
      "city": "ALCABIDECHE",
      "lon": "-9.442061610603837",
      "lat": "38.75316090036829"
    },
    {
      "id": "pt.ine.add.PTCONT.3135863",
      "street": "R CEDRO",
      "house": "2",
      "postcode": "2755-127",
      "city": "ALCABIDECHE",
      "lon": "-9.442168738439236",
      "lat": "38.75335786813629"
    },
    {
      "id": "pt.ine.add.PTCONT.3149644",
      "street": "R 19 DE NOVEMBRO",
      "house": "25",
      "postcode": "2755-129",
      "city": "ALCABIDECHE",
      "lon": "-9.441707372641552",
      "lat": "38.752660440501344"
    },
    {
      "id": "pt.ine.add.PTCONT.3324054",
      "street": "R ESCADINHAS",
      "house": "2",
      "postcode": "2755-131",
      "city": "ALCABIDECHE",
      "lon": "-9.441993249567561",
      "lat": "38.7525671630099"
    },
    {
      "id": "pt.ine.add.PTCONT.3412356",
      "street": "R FIGUEIREDOS",
      "house": "4A",
      "postcode": "2755-133",
      "city": "ALCABIDECHE",
      "lon": "-9.442154261551067",
      "lat": "38.75256535967468"
    },
    {
      "id": "pt.ine.add.PTCONT.3412357",
      "street": "R FIGUEIREDOS",
      "house": "4A",
      "postcode": "2755-133",
      "city": "ALCABIDECHE",
      "lon": "-9.442154261551067",
      "lat": "38.75256535967468"
    },
    {
      "id": "pt.ine.add.PTCONT.3415506",
      "street": "R 19 DE NOVEMBRO ALTINHO DE JANES",
      "house": "137",
      "postcode": "2755-129",
      "city": "ALCABIDECHE",
      "lon": "-9.44169522464881",
      "lat": "38.753255079505514"
    },
    {
      "id": "pt.ine.add.PTCONT.3447859",
      "street": "R 19 DE NOVEMBRO",
      "house": "21",
      "postcode": "2755-129",
      "city": "ALCABIDECHE",
      "lon": "-9.441822545831231",
      "lat": "38.75266815848572"
    },
    {
      "id": "pt.ine.add.PTCONT.3448611",
      "street": "R 19 DE NOVEMBRO",
      "house": "35",
      "postcode": "2755-129",
      "city": "ALCABIDECHE",
      "lon": "-9.441628839829564",
      "lat": "38.75276941125405"
    },
    {
      "id": "pt.ine.add.PTCONT.2477355",
      "street": "R CEDRO",
      "house": "33",
      "postcode": "2755-127",
      "city": "ALCABIDECHE",
      "lon": "-9.441839803102576",
      "lat": "38.75298323197725"
    },
    {
      "id": "pt.ine.add.PTCONT.2505252",
      "street": "R 19 DE NOVEMBRO CASA ROSALINA",
      "house": "61",
      "postcode": "2755-129",
      "city": "ALCABIDECHE",
      "lon": "-9.44150561856611",
      "lat": "38.752950943226445"
    },
    {
      "id": "pt.ine.add.PTCONT.2586267",
      "street": "R ESCADINHAS",
      "house": "2A",
      "postcode": "2755-131",
      "city": "ALCABIDECHE",
      "lon": "-9.441865753318668",
      "lat": "38.7525145450825"
    },
    {
      "id": "pt.ine.add.PTCONT.2657937",
      "street": "R FIGUEIREDOS",
      "house": "62",
      "postcode": "2755-133",
      "city": "ALCABIDECHE",
      "lon": "-9.442287516450884",
      "lat": "38.752933179505185"
    },
    {
      "id": "pt.ine.add.PTCONT.2719168",
      "street": "R FIGUEIREDOS",
      "house": "14A",
      "postcode": "2755-133",
      "city": "ALCABIDECHE",
      "lon": "-9.442272231497196",
      "lat": "38.752726175447606"
    },
    {
      "id": "pt.ine.add.PTCONT.2719169",
      "street": "R FIGUEIREDOS",
      "house": "14A",
      "postcode": "2755-133",
      "city": "ALCABIDECHE",
      "lon": "-9.442272231497196",
      "lat": "38.752726175447606"
    },
    {
      "id": "pt.ine.add.PTCONT.2746604",
      "street": "R FIGUEIREDOS CASA DO BELO MONTE",
      "house": "90",
      "postcode": "2755-133",
      "city": "ALCABIDECHE",
      "lon": "-9.442396619032943",
      "lat": "38.75323821639013"
    },
    {
      "id": "pt.ine.add.PTCONT.2760515",
      "street": "R ESCADINHAS",
      "house": "141",
      "postcode": "2755-131",
      "city": "ALCABIDECHE",
      "lon": "-9.442098566773332",
      "lat": "38.752665067314524"
    }
  ]
}