{
  "data": {
    "distrito": "Lisboa",
    "concelho": "Cascais",
    "freguesia": "Alcabideche",
    "OBJECTID": 1771,
    "BGRI2021": "11050100420",
    "DT21": "11",
    "DTMN21": "1105",
    "DTMNFR21": "110501",
    "DTMNFRSEC21": "110501004",
    "SECNUM21": "004",
    "SSNUM21": "20",
    "SECSSNUM21": "00420",
    "OBJECTID_1": 102019,
    "DT": "11",
    "CC": "05",
    "fr": "01",
    "SEC": "004",
    "SS": "20"
  },
  "addresses": [
    {
      "id": "pt.ine.add.PTCONT.2940323",
      "street": "LG POLEIRINHO",
      "house": "108",
      "postcode": "2755-187",
      "city": "ALCABIDECHE",
      "lon": "-9.44568556133164",
      "lat": "38.753183309414084"
    },
    {
      "id": "pt.ine.add.PTCONT.2972496",
      "street": "R PICOAS",
      "house": "260",
      "postcode": "2755-185",
      "city": "ALCABIDECHE",
      "lon": "-9.446128817572111",
      "lat": "38.752890086617576"
    },
    {
      "id": "pt.ine.add.PTCONT.3018096",
      "street": "R PICOAS",
      "house": "146",
      "postcode": "2755-185",
      "city": "ALCABIDECHE",
      "lon": "-9.444855020834808",
      "lat": "38.75305751996702"
    },
    {
      "id": "pt.ine.add.PTCONT.3027370",
      "street": "R FRANCISCO CORREIA NUNES",
      "house": "178",
      "postcode": "2755-171",
      "city": "ALCABIDECHE",
      "lon": "-9.446459755174375",
      "lat": "38.753372779467504"
    },
    {
      "id": "pt.ine.add.PTCONT.3102279",
      "street": "CAM URUGUAY",
      "house": "22",
      "postcode": "2755-207",
      "city": "ALCABIDECHE",
      "lon": "-9.446144823710924",
      "lat": "38.75376364563566"
    },
    {
      "id": "pt.ine.add.PTCONT.3250034",
      "street": "R PICOAS",
      "house": "292",
      "postcode": "2755-185",
      "city": "ALCABIDECHE",
      "lon": "-9.446348489705608",
      "lat": "38.75295067177286"
    },
    {
      "id": "pt.ine.add.PTCONT.3250035",
      "street": "R PICOAS",
      "house": "292",
      "postcode": "2755-185",
      "city": "ALCABIDECHE",
      "lon": "-9.446348489705608",
      "lat": "38.75295067177286"
    },
    {
      "id": "pt.ine.add.PTCONT.3437322",
      "street": "LG POLEIRINHO",
      "house": "152",
      "postcode": "2755-187",
      "city": "ALCABIDECHE",
      "lon": "-9.444928642411657",
      "lat": "38.75330890693327"
    },
    {
      "id": "pt.ine.add.PTCONT.2512974",
      "street": "R PICOAS",
      "house": "304",
      "postcode": "2755-185",
      "city": "ALCABIDECHE",
      "lon": "-9.446567997136226",
      "lat": "38.75300225074605"
    },
    {
      "id": "pt.ine.add.PTCONT.2513100",
      "street": "R PICOAS",
      "house": "304",
      "postcode": "2755-185",
      "city": "ALCABIDECHE",
      "lon": "-9.446567997136226",
      "lat": "38.75300225074605"
    },
    {
      "id": "pt.ine.add.PTCONT.2555716",
      "street": "R PICOAS",
      "house": "208",
      "postcode": "2755-185",
      "city": "ALCABIDECHE",
      "lon": "-9.44532359023676",
      "lat": "38.75289012274676"
    },
    {
      "id": "pt.ine.add.PTCONT.2555717",
      "street": "R PICOAS",
      "house": "",
      "postcode": "2755-185",
      "city": "ALCABIDECHE",
      "lon": "-9.44532359023676",
      "lat": "38.75289012274676"
    },
    {
      "id": "pt.ine.add.PTCONT.2595249",
      "street": "R FRANCISCO CORREIA NUNES",
      "house": "",
      "postcode": "2755-171",
      "city": "ALCABIDECHE",
      "lon": "-9.446312883171236",
      "lat": "38.75351855173274"
    },
    {
      "id": "pt.ine.add.PTCONT.2674931",
      "street": "R PICOAS",
      "house": "296",
      "postcode": "2755-185",
      "city": "ALCABIDECHE",
      "lon": "-9.446432131881224",
      "lat": "38.75312087661271"
    },
    {
      "id": "pt.ine.add.PTCONT.2690521",
      "street": "R MIRADOURO",
      "house": "38A",
      "postcode": "2755-137",
      "city": "ALCABIDECHE",
      "lon": "-9.445879097533222",
      "lat": "38.753073044244374"
    },
    {
      "id": "pt.ine.add.PTCONT.2701555",
      "street": "R MIRADOURO",
      "house": "38",
      "postcode": "2755-137",
      "city": "ALCABIDECHE",
      "lon": "-9.446214274376434",
      "lat": "38.75315935502121"
    },
    {
      "id": "pt.ine.add.PTCONT.2708435",
      "street": "R MIRADOURO",
      "house": "38A",
      "postcode": "2755-137",
      "city": "ALCABIDECHE",
      "lon": "-9.445972094826779",
      "lat": "38.75312604530852"
    },
    {
      "id": "pt.ine.add.PTCONT.2719184",
      "street": "R MIRA GUINCHO",
      "house": "38 A",
      "postcode": "2755-177",
      "city": "ALCABIDECHE",
      "lon": "-9.446121771891095",
      "lat": "38.753133371444335"
    },
    {
      "id": "pt.ine.add.PTCONT.2782118",
      "street": "R MIRA GUINCHO",
      "house": "40",
      "postcode": "2755-177",
      "city": "ALCABIDECHE",
      "lon": "-9.445969949964836",
      "lat": "38.75300897037558"
    },
    {
      "id": "pt.ine.add.PTCONT.2797479",
      "street": "R MIRADOURO",
      "house": "38A",
      "postcode": "2755-137",
      "city": "ALCABIDECHE",
      "lon": "-9.446354431053765",
      "lat": "38.75327487922747"
    }
  ]
}