{
  "data": {
    "distrito": "Évora",
    "concelho": "Évora",
    "freguesia": "Nossa Senhora de Machede",
    "OBJECTID": 993,
    "BGRI2021": "07050300139",
    "DT21": "07",
    "DTMN21": "0705",
    "DTMNFR21": "070503",
    "DTMNFRSEC21": "070503001",
    "SECNUM21": "001",
    "SSNUM21": "39",
    "SECSSNUM21": "00139",
    "OBJECTID_1": 61352,
    "DT": "07",
    "CC": "05",
    "fr": "03",
    "SEC": "001",
    "SS": "39"
  },
  "addresses": [
    {
      "id": "pt.ine.add.PTCONT.1368521",
      "street": "R REPUBLICA",
      "house": "17",
      "postcode": "7005-680",
      "city": "N SENHORA DE MACHEDE",
      "lon": "-7.773333715616289",
      "lat": "38.57640557050482"
    },
    {
      "id": "pt.ine.add.PTCONT.1375459",
      "street": "R REPUBLICA",
      "house": "31",
      "postcode": "7005-680",
      "city": "N SENHORA DE MACHEDE",
      "lon": "-7.7741636096365285",
      "lat": "38.576259528966126"
    },
    {
      "id": "pt.ine.add.PTCONT.1376986",
      "street": "R REPUBLICA",
      "house": "25",
      "postcode": "7005-680",
      "city": "N SENHORA DE MACHEDE",
      "lon": "-7.774048722465405",
      "lat": "38.57623023901793"
    },
    {
      "id": "pt.ine.add.PTCONT.1383927",
      "street": "R LUIS DE CAMÕES",
      "house": "6",
      "postcode": "7005-688",
      "city": "N SENHORA DE MACHEDE",
      "lon": "-7.77282113135966",
      "lat": "38.574353174690486"
    },
    {
      "id": "pt.ine.add.PTCONT.1385759",
      "street": "R FÁBRICA DAS PELES",
      "house": "13",
      "postcode": "7005-686",
      "city": "N SENHORA DE MACHEDE",
      "lon": "-7.771599032361878",
      "lat": "38.576776272860634"
    },
    {
      "id": "pt.ine.add.PTCONT.1387170",
      "street": "R FÁBRICA DAS PELES",
      "house": "13A",
      "postcode": "7005-686",
      "city": "N SENHORA DE MACHEDE",
      "lon": "-7.7715497291775115",
      "lat": "38.57673781970446"
    },
    {
      "id": "pt.ine.add.PTCONT.1390900",
      "street": "R FÁBRICA DAS PELES",
      "house": "",
      "postcode": "7005-686",
      "city": "N SENHORA DE MACHEDE",
      "lon": "-7.770933930288431",
      "lat": "38.5765989572233"
    },
    {
      "id": "pt.ine.add.PTCONT.1392877",
      "street": "R LUIS CAMOES",
      "house": "4A",
      "postcode": "7005-688",
      "city": "N SENHORA DE MACHEDE",
      "lon": "-7.772485042371741",
      "lat": "38.57433788487746"
    },
    {
      "id": "pt.ine.add.PTCONT.1402255",
      "street": "R REPUBLICA",
      "house": "15",
      "postcode": "7005-680",
      "city": "N SENHORA DE MACHEDE",
      "lon": "-7.77324147766117",
      "lat": "38.576464914244"
    },
    {
      "id": "pt.ine.add.PTCONT.1413615",
      "street": "R FÁBRICA DAS PELES",
      "house": "11",
      "postcode": "7005-686",
      "city": "N SENHORA DE MACHEDE",
      "lon": "-7.7716442454446115",
      "lat": "38.57680514918238"
    },
    {
      "id": "pt.ine.add.PTCONT.1417448",
      "street": "R REPUBLICA",
      "house": "33",
      "postcode": "7005-680",
      "city": "N SENHORA DE MACHEDE",
      "lon": "-7.774320631053502",
      "lat": "38.57621542166104"
    },
    {
      "id": "pt.ine.add.PTCONT.1419597",
      "street": "R FÁBRICA DAS PELES",
      "house": "15",
      "postcode": "7005-686",
      "city": "N SENHORA DE MACHEDE",
      "lon": "-7.7715063719684805",
      "lat": "38.576691283672254"
    },
    {
      "id": "pt.ine.add.PTCONT.1426989",
      "street": "R LUIS DE CAMÕES",
      "house": "2",
      "postcode": "7005-688",
      "city": "N SENHORA DE MACHEDE",
      "lon": "-7.772093404169729",
      "lat": "38.574300497313466"
    },
    {
      "id": "pt.ine.add.PTCONT.1427000",
      "street": "R FÁBRICA DAS PELES",
      "house": "11 A",
      "postcode": "7005-686",
      "city": "N SENHORA DE MACHEDE",
      "lon": "-7.771831308110238",
      "lat": "38.57698975592193"
    },
    {
      "id": "pt.ine.add.PTCONT.1436898",
      "street": "R REPUBLICA",
      "house": "27",
      "postcode": "7005-680",
      "city": "N SENHORA DE MACHEDE",
      "lon": "-7.774106818524368",
      "lat": "38.576302967009255"
    },
    {
      "id": "pt.ine.add.PTCONT.1445933",
      "street": "R LUÍS DE CAMÕES",
      "house": "4",
      "postcode": "7005-688",
      "city": "N SENHORA DE MACHEDE",
      "lon": "-7.77219668053859",
      "lat": "38.574300815795475"
    },
    {
      "id": "pt.ine.add.PTCONT.1450381",
      "street": "R REPUBLICA",
      "house": "29",
      "postcode": "7005-680",
      "city": "N SENHORA DE MACHEDE",
      "lon": "-7.774095598032319",
      "lat": "38.5761968311357"
    }
  ]
}