{
  "data": {
    "distrito": "Évora",
    "concelho": "Évora",
    "freguesia": "Nossa Senhora de Machede",
    "OBJECTID": 488,
    "BGRI2021": "07050300156",
    "DT21": "07",
    "DTMN21": "0705",
    "DTMNFR21": "070503",
    "DTMNFRSEC21": "070503001",
    "SECNUM21": "001",
    "SSNUM21": "56",
    "SECSSNUM21": "00156",
    "OBJECTID_1": 60537,
    "DT": "07",
    "CC": "05",
    "fr": "03",
    "SEC": "001",
    "SS": "56"
  },
  "addresses": [
    {
      "id": "pt.ine.add.PTCONT.1370081",
      "street": "TV IGREJA",
      "house": "10",
      "postcode": "7005-697",
      "city": "N SENHORA DE MACHEDE",
      "lon": "-7.777732614661278",
      "lat": "38.57835035840354"
    },
    {
      "id": "pt.ine.add.PTCONT.1376982",
      "street": "TV 31 DE JANEIRO",
      "house": "3",
      "postcode": "7005-694",
      "city": "N SENHORA DE MACHEDE",
      "lon": "-7.776538617043374",
      "lat": "38.57828011841132"
    },
    {
      "id": "pt.ine.add.PTCONT.1382384",
      "street": "R ENG SEBASTIÃO JOSÉ PERDIGÃO",
      "house": "10",
      "postcode": "7005-685",
      "city": "N SENHORA DE MACHEDE",
      "lon": "-7.776206542151953",
      "lat": "38.57793447508524"
    },
    {
      "id": "pt.ine.add.PTCONT.1388896",
      "street": "TV 31 DE JANEIRO",
      "house": "11",
      "postcode": "7005-694",
      "city": "N SENHORA DE MACHEDE",
      "lon": "-7.776709159812947",
      "lat": "38.57840444158546"
    },
    {
      "id": "pt.ine.add.PTCONT.1390399",
      "street": "TV 31 DE JANEIRO",
      "house": "4",
      "postcode": "7005-694",
      "city": "N SENHORA DE MACHEDE",
      "lon": "-7.77663812357898",
      "lat": "38.57832547593873"
    },
    {
      "id": "pt.ine.add.PTCONT.1400041",
      "street": "R ENG SEBASTIÃO JOSÉ PERDIGÃO",
      "house": "12",
      "postcode": "7005-685",
      "city": "N SENHORA DE MACHEDE",
      "lon": "-7.776499017530616",
      "lat": "38.577823918626514"
    },
    {
      "id": "pt.ine.add.PTCONT.1403169",
      "street": "LG BENTO DE JESUS CARAÇA",
      "house": "10",
      "postcode": "7005-673",
      "city": "N SENHORA DE MACHEDE",
      "lon": "-7.777307042720752",
      "lat": "38.578131289194026"
    },
    {
      "id": "pt.ine.add.PTCONT.1408915",
      "street": "TV IGREJA",
      "house": "",
      "postcode": "7005-099",
      "city": "N SENHORA DE MACHEDE",
      "lon": "-7.777638656148616",
      "lat": "38.57841627647311"
    },
    {
      "id": "pt.ine.add.PTCONT.1419277",
      "street": "LG BENTO DE JESUS CARAÇA",
      "house": "6",
      "postcode": "7005-673",
      "city": "N SENHORA DE MACHEDE",
      "lon": "-7.777328523461372",
      "lat": "38.578007042642525"
    },
    {
      "id": "pt.ine.add.PTCONT.1420614",
      "street": "TV 31 DE JANEIRO",
      "house": "1 A",
      "postcode": "7005-694",
      "city": "N SENHORA DE MACHEDE",
      "lon": "-7.776297367605228",
      "lat": "38.5781329360385"
    },
    {
      "id": "pt.ine.add.PTCONT.1422807",
      "street": "TV 31 DE JANEIRO",
      "house": "5",
      "postcode": "7005-694",
      "city": "N SENHORA DE MACHEDE",
      "lon": "-7.776605877517242",
      "lat": "38.57840412705679"
    },
    {
      "id": "pt.ine.add.PTCONT.1423537",
      "street": "TV IGREJA",
      "house": "2",
      "postcode": "7005-697",
      "city": "N SENHORA DE MACHEDE",
      "lon": "-7.77821240253521",
      "lat": "38.57842702587021"
    },
    {
      "id": "pt.ine.add.PTCONT.1440123",
      "street": "TV IGREJA",
      "house": "",
      "postcode": "7005-697",
      "city": "N SENHORA DE MACHEDE",
      "lon": "-7.778340635937186",
      "lat": "38.5783085942664"
    },
    {
      "id": "pt.ine.add.PTCONT.1442427",
      "street": "TV 31 DE JANEIRO",
      "house": "1",
      "postcode": "7005-694",
      "city": "N SENHORA DE MACHEDE",
      "lon": "-7.776477239511965",
      "lat": "38.57833873262219"
    },
    {
      "id": "pt.ine.add.PTCONT.1460000",
      "street": "LG BENTO DE JESUS CARAÇA",
      "house": "8",
      "postcode": "7005-673",
      "city": "N SENHORA DE MACHEDE",
      "lon": "-7.777179197349889",
      "lat": "38.57808337596849"
    },
    {
      "id": "pt.ine.add.PTCONT.1464421",
      "street": "TV IGREJA",
      "house": "4",
      "postcode": "7005-697",
      "city": "N SENHORA DE MACHEDE",
      "lon": "-7.7782654635177915",
      "lat": "38.5783702214408"
    }
  ]
}