{
  "data": {
    "distrito": "Aveiro",
    "concelho": "Águeda",
    "freguesia": "União das freguesias de Recardães e Espinhel",
    "OBJECTID": 464,
    "BGRI2021": "01012400112",
    "DT21": "01",
    "DTMN21": "0101",
    "DTMNFR21": "010124",
    "DTMNFRSEC21": "010124001",
    "SECNUM21": "001",
    "SSNUM21": "12",
    "SECSSNUM21": "00112",
    "OBJECTID_1": 78,
    "DT": "01",
    "CC": "01",
    "fr": "24",
    "SEC": "001",
    "SS": "12"
  },
  "addresses": [
    {
      "id": "pt.ine.add.PTCONT.294953",
      "street": "R PRINCIPAL",
      "house": "1207",
      "postcode": "3750-406",
      "city": "ESPINHEL",
      "lon": "-8.490719903703027",
      "lat": "40.55542869133085"
    },
    {
      "id": "pt.ine.add.PTCONT.303333",
      "street": "R PATULEIA",
      "house": "247",
      "postcode": "3750-405",
      "city": "ESPINHEL",
      "lon": "-8.488788590710838",
      "lat": "40.54298030345246"
    },
    {
      "id": "pt.ine.add.PTCONT.313368",
      "street": "R D MANUEL BAPTISTA DA CUNHA",
      "house": "",
      "postcode": "3750-405",
      "city": "ESPINHEL",
      "lon": "-8.489408596757658",
      "lat": "40.54637339930619"
    },
    {
      "id": "pt.ine.add.PTCONT.315962",
      "street": "R DR MANUEL BAPTISTA DA CUNHA",
      "house": "699",
      "postcode": "3750-405",
      "city": "ESPINHEL",
      "lon": "-8.487633587291594",
      "lat": "40.55004402309104"
    },
    {
      "id": "pt.ine.add.PTCONT.336853",
      "street": "R D MANUEL BAPTISTA DA CUNHA",
      "house": "371",
      "postcode": "3750-405",
      "city": "ESPINHEL",
      "lon": "-8.489295509861785",
      "lat": "40.547310301055134"
    },
    {
      "id": "pt.ine.add.PTCONT.336854",
      "street": "LG DR ALBANO BATISTA DA CUNHA",
      "house": "",
      "postcode": "3750-405",
      "city": "ESPINHEL",
      "lon": "-8.488164344554525",
      "lat": "40.54324337782736"
    },
    {
      "id": "pt.ine.add.PTCONT.337601",
      "street": "R PATULEIA",
      "house": "321",
      "postcode": "3750-405",
      "city": "ESPINHEL",
      "lon": "-8.48819847347255",
      "lat": "40.54300012919917"
    },
    {
      "id": "pt.ine.add.PTCONT.345140",
      "street": "R COSTA DAS PEDRAS",
      "house": "219",
      "postcode": "3750-405",
      "city": "ESPINHEL",
      "lon": "-8.491141192648138",
      "lat": "40.54142412141415"
    },
    {
      "id": "pt.ine.add.PTCONT.345470",
      "street": "R D MANUEL BAPTISTA DA CUNHA",
      "house": "",
      "postcode": "3750-405",
      "city": "ESPINHEL",
      "lon": "-8.48939540804507",
      "lat": "40.54611228572971"
    },
    {
      "id": "pt.ine.add.PTCONT.348755",
      "street": "R LOUREDO",
      "house": "337",
      "postcode": "3750-406",
      "city": "ESPINHEL",
      "lon": "-8.488412602814044",
      "lat": "40.55671456321114"
    },
    {
      "id": "pt.ine.add.PTCONT.350716",
      "street": "R D MANUEL BAPTISTA DA CUNHA",
      "house": "",
      "postcode": "3750-405",
      "city": "ESPINHEL",
      "lon": "-8.489519279852997",
      "lat": "40.547210552501575"
    },
    {
      "id": "pt.ine.add.PTCONT.351455",
      "street": "R PATULEIA",
      "house": "231",
      "postcode": "3750-405",
      "city": "ESPINHEL",
      "lon": "-8.488751987275586",
      "lat": "40.542755283020426"
    },
    {
      "id": "pt.ine.add.PTCONT.2700",
      "street": "BC RANZAL",
      "house": "37",
      "postcode": "3750-405",
      "city": "ESPINHEL",
      "lon": "-8.489619985651656",
      "lat": "40.54616562489893"
    },
    {
      "id": "pt.ine.add.PTCONT.18554",
      "street": "R CANTO",
      "house": "101",
      "postcode": "3750-406",
      "city": "ESPINHEL",
      "lon": "-8.489509332663186",
      "lat": "40.55646804200094"
    },
    {
      "id": "pt.ine.add.PTCONT.23945",
      "street": "R PATULEIA",
      "house": "339",
      "postcode": "3750-405",
      "city": "ESPINHEL",
      "lon": "-8.488163964157655",
      "lat": "40.543171336406054"
    },
    {
      "id": "pt.ine.add.PTCONT.23946",
      "street": "R BARROCA",
      "house": "57",
      "postcode": "3750-405",
      "city": "ESPINHEL",
      "lon": "-8.489542487224279",
      "lat": "40.542680804515115"
    },
    {
      "id": "pt.ine.add.PTCONT.29839",
      "street": "R D MANUEL BAPTISTA DA CUNHA",
      "house": "171",
      "postcode": "3750-405",
      "city": "ESPINHEL",
      "lon": "-8.489180107996143",
      "lat": "40.545581635595134"
    },
    {
      "id": "pt.ine.add.PTCONT.33991",
      "street": "R BARROCA",
      "house": "82",
      "postcode": "3750-405",
      "city": "ESPINHEL",
      "lon": "-8.489448244563695",
      "lat": "40.542717116503454"
    },
    {
      "id": "pt.ine.add.PTCONT.33992",
      "street": "R BREJEIRA",
      "house": "",
      "postcode": "3750-405",
      "city": "ESPINHEL",
      "lon": "-8.489152488855286",
      "lat": "40.549282906016636"
    },
    {
      "id": "pt.ine.add.PTCONT.43022",
      "street": "R D MANUEL BAPTISTA DA CUNHA",
      "house": "",
      "postcode": "3750-405",
      "city": "ESPINHEL",
      "lon": "-8.489119415634873",
      "lat": "40.545266636415235"
    },
    {
      "id": "pt.ine.add.PTCONT.45756",
      "street": "R D MANUEL BAPTISTA DA CUNHA",
      "house": "365",
      "postcode": "3750-405",
      "city": "ESPINHEL",
      "lon": "-8.489437265385329",
      "lat": "40.54732787459301"
    },
    {
      "id": "pt.ine.add.PTCONT.45762",
      "street": "R CURTINHAL",
      "house": "7",
      "postcode": "3750-405",
      "city": "ESPINHEL",
      "lon": "-8.491295027986043",
      "lat": "40.54149568722775"
    },
    {
      "id": "pt.ine.add.PTCONT.50121",
      "street": "R D MANUEL BAPTISTA DA CUNHA",
      "house": "357",
      "postcode": "3750-405",
      "city": "ESPINHEL",
      "lon": "-8.489108775508772",
      "lat": "40.54771611583821"
    },
    {
      "id": "pt.ine.add.PTCONT.51206",
      "street": "LG DR ALBANO BATISTA DA CUNHA",
      "house": "96",
      "postcode": "3750-405",
      "city": "ESPINHEL",
      "lon": "-8.488604388410046",
      "lat": "40.543863392041764"
    },
    {
      "id": "pt.ine.add.PTCONT.51207",
      "street": "R BREJEIRA",
      "house": "",
      "postcode": "3750-405",
      "city": "ESPINHEL",
      "lon": "-8.48860330394355",
      "lat": "40.5503562293948"
    },
    {
      "id": "pt.ine.add.PTCONT.53537",
      "street": "R BREJEIRA",
      "house": "126",
      "postcode": "3750-405",
      "city": "ESPINHEL",
      "lon": "-8.488997684474057",
      "lat": "40.54903123416056"
    },
    {
      "id": "pt.ine.add.PTCONT.58980",
      "street": "R CANTO",
      "house": "23",
      "postcode": "3750-406",
      "city": "ESPINHEL",
      "lon": "-8.488767374402192",
      "lat": "40.55682153524956"
    },
    {
      "id": "pt.ine.add.PTCONT.58982",
      "street": "R DIREITA",
      "house": "1463",
      "postcode": "3750-405",
      "city": "ESPINHEL",
      "lon": "-8.488856557655778",
      "lat": "40.551364044798085"
    },
    {
      "id": "pt.ine.add.PTCONT.61182",
      "street": "R D MANUEL BAPTISTA DA CUNHA",
      "house": "327",
      "postcode": "3750-405",
      "city": "ESPINHEL",
      "lon": "-8.489553787712309",
      "lat": "40.54703934501555"
    },
    {
      "id": "pt.ine.add.PTCONT.67801",
      "street": "R DR MANUEL BAPTISTA DA CUNHA",
      "house": "579",
      "postcode": "3750-405",
      "city": "ESPINHEL",
      "lon": "-8.48834848764311",
      "lat": "40.54905124268059"
    },
    {
      "id": "pt.ine.add.PTCONT.69708",
      "street": "R CANTO",
      "house": "113",
      "postcode": "3750-406",
      "city": "ESPINHEL",
      "lon": "-8.489638871029557",
      "lat": "40.556404605202346"
    },
    {
      "id": "pt.ine.add.PTCONT.72477",
      "street": "R D MANUEL BAPTISTA DA CUNHA",
      "house": "525",
      "postcode": "3750-405",
      "city": "ESPINHEL",
      "lon": "-8.489074456898019",
      "lat": "40.54792334385521"
    },
    {
      "id": "pt.ine.add.PTCONT.75209",
      "street": "R LOUREDO",
      "house": "349",
      "postcode": "3750-406",
      "city": "ESPINHEL",
      "lon": "-8.48847225508401",
      "lat": "40.55683144867783"
    },
    {
      "id": "pt.ine.add.PTCONT.86755",
      "street": "R CANTO",
      "house": "152",
      "postcode": "3750-406",
      "city": "ESPINHEL",
      "lon": "-8.49003953034005",
      "lat": "40.5562592832395"
    },
    {
      "id": "pt.ine.add.PTCONT.86756",
      "street": "R CANTO",
      "house": "106",
      "postcode": "3750-406",
      "city": "ESPINHEL",
      "lon": "-8.489568938854205",
      "lat": "40.55657592174386"
    },
    {
      "id": "pt.ine.add.PTCONT.88732",
      "street": "R D MANUEL BAPTISTA DA CUNHA",
      "house": "",
      "postcode": "3750-405",
      "city": "ESPINHEL",
      "lon": "-8.489300158669332",
      "lat": "40.54595948898302"
    },
    {
      "id": "pt.ine.add.PTCONT.91233",
      "street": "R CANTO",
      "house": "112",
      "postcode": "3750-406",
      "city": "ESPINHEL",
      "lon": "-8.489792882552361",
      "lat": "40.55650318815795"
    },
    {
      "id": "pt.ine.add.PTCONT.93429",
      "street": "R DIREITA",
      "house": "1549",
      "postcode": "3750-405",
      "city": "ESPINHEL",
      "lon": "-8.489544631678916",
      "lat": "40.55199229582198"
    },
    {
      "id": "pt.ine.add.PTCONT.107468",
      "street": "R DR MANUEL BAPTISTA DA CUNHA",
      "house": "513",
      "postcode": "3750-405",
      "city": "ESPINHEL",
      "lon": "-8.488102050157092",
      "lat": "40.5493311648807"
    },
    {
      "id": "pt.ine.add.PTCONT.112386",
      "street": "BC CRUZEIRO",
      "house": "50",
      "postcode": "3750-405",
      "city": "ESPINHEL",
      "lon": "-8.490547509536158",
      "lat": "40.542125042974746"
    },
    {
      "id": "pt.ine.add.PTCONT.115279",
      "street": "R D MANUEL BATISTA CUNHA",
      "house": "451",
      "postcode": "3750-405",
      "city": "ESPINHEL",
      "lon": "-8.489051657170236",
      "lat": "40.54807650447255"
    },
    {
      "id": "pt.ine.add.PTCONT.117981",
      "street": "R D MANUEL BAPTISTA DA CUNHA",
      "house": "",
      "postcode": "3750-405",
      "city": "ESPINHEL",
      "lon": "-8.489431442846838",
      "lat": "40.54622924375078"
    },
    {
      "id": "pt.ine.add.PTCONT.128114",
      "street": "R D MANUEL BAPTISTA DA CUNHA",
      "house": "",
      "postcode": "3750-405",
      "city": "ESPINHEL",
      "lon": "-8.489033541597268",
      "lat": "40.54465453916295"
    },
    {
      "id": "pt.ine.add.PTCONT.128115",
      "street": "R PATULEIA",
      "house": "303",
      "postcode": "3750-405",
      "city": "ESPINHEL",
      "lon": "-8.488269013596208",
      "lat": "40.54294588044376"
    },
    {
      "id": "pt.ine.add.PTCONT.134041",
      "street": "R D MANUEL BAPTISTA DA CUNHA",
      "house": "257",
      "postcode": "3750-405",
      "city": "ESPINHEL",
      "lon": "-8.489420831108365",
      "lat": "40.54645440944457"
    },
    {
      "id": "pt.ine.add.PTCONT.136307",
      "street": "R LOUREDO",
      "house": "287",
      "postcode": "3750-406",
      "city": "ESPINHEL",
      "lon": "-8.488351142068327",
      "lat": "40.55625548175157"
    },
    {
      "id": "pt.ine.add.PTCONT.146525",
      "street": "R BARROCA",
      "house": "31",
      "postcode": "3750-405",
      "city": "ESPINHEL",
      "lon": "-8.489023245709859",
      "lat": "40.54270942113026"
    },
    {
      "id": "pt.ine.add.PTCONT.155225",
      "street": "R D MANUEL BAPTISTA DA CUNHA",
      "house": "337",
      "postcode": "3750-405",
      "city": "ESPINHEL",
      "lon": "-8.489353485145891",
      "lat": "40.547112005330106"
    },
    {
      "id": "pt.ine.add.PTCONT.168454",
      "street": "R BREJEIRA",
      "house": "207",
      "postcode": "3750-405",
      "city": "ESPINHEL",
      "lon": "-8.489118694183247",
      "lat": "40.54958919082828"
    },
    {
      "id": "pt.ine.add.PTCONT.170695",
      "street": "R BREJEIRA",
      "house": "",
      "postcode": "3750-405",
      "city": "ESPINHEL",
      "lon": "-8.488967940988664",
      "lat": "40.55010295811198"
    },
    {
      "id": "pt.ine.add.PTCONT.172381",
      "street": "R D MANUEL BAPTISTA DA CUNHA",
      "house": "",
      "postcode": "3750-405",
      "city": "ESPINHEL",
      "lon": "-8.489364717514027",
      "lat": "40.547003906885145"
    },
    {
      "id": "pt.ine.add.PTCONT.172382",
      "street": "R DIREITA",
      "house": "1511",
      "postcode": "3750-405",
      "city": "ESPINHEL",
      "lon": "-8.488246371096455",
      "lat": "40.552068336236694"
    },
    {
      "id": "pt.ine.add.PTCONT.181058",
      "street": "R BARROCA",
      "house": "64",
      "postcode": "3750-405",
      "city": "ESPINHEL",
      "lon": "-8.488964605964968",
      "lat": "40.5427816443447"
    },
    {
      "id": "pt.ine.add.PTCONT.184448",
      "street": "R D MANUEL BAPTISTA DA CUNHA",
      "house": "405",
      "postcode": "3750-405",
      "city": "ESPINHEL",
      "lon": "-8.4892734264165",
      "lat": "40.54759853927669"
    },
    {
      "id": "pt.ine.add.PTCONT.184449",
      "street": "R PATULEIA",
      "house": "249",
      "postcode": "3750-405",
      "city": "ESPINHEL",
      "lon": "-8.488776405414967",
      "lat": "40.54290829837001"
    },
    {
      "id": "pt.ine.add.PTCONT.186464",
      "street": "R DIREITA",
      "house": "1475",
      "postcode": "3750-405",
      "city": "ESPINHEL",
      "lon": "-8.487937612885982",
      "lat": "40.551727083105966"
    },
    {
      "id": "pt.ine.add.PTCONT.193660",
      "street": "R CANTO",
      "house": "87",
      "postcode": "3750-406",
      "city": "ESPINHEL",
      "lon": "-8.489309479279768",
      "lat": "40.55663075379492"
    },
    {
      "id": "pt.ine.add.PTCONT.193662",
      "street": "R PATULEIA",
      "house": "271",
      "postcode": "3750-405",
      "city": "ESPINHEL",
      "lon": "-8.488492532682217",
      "lat": "40.542801107967954"
    },
    {
      "id": "pt.ine.add.PTCONT.198760",
      "street": "R CANTO",
      "house": "67",
      "postcode": "3750-406",
      "city": "ESPINHEL",
      "lon": "-8.48920350576218",
      "lat": "40.55668511229079"
    },
    {
      "id": "pt.ine.add.PTCONT.200372",
      "street": "R D MANUEL BAPTISTA DA CUNHA",
      "house": "155",
      "postcode": "3750-405",
      "city": "ESPINHEL",
      "lon": "-8.489155449493259",
      "lat": "40.54538359454346"
    },
    {
      "id": "pt.ine.add.PTCONT.213987",
      "street": "R LOUREDO",
      "house": "373",
      "postcode": "3750-406",
      "city": "ESPINHEL",
      "lon": "-8.48865021274651",
      "lat": "40.55699299660853"
    },
    {
      "id": "pt.ine.add.PTCONT.216795",
      "street": "R DIREITA",
      "house": "1476",
      "postcode": "3750-405",
      "city": "ESPINHEL",
      "lon": "-8.488033010079763",
      "lat": "40.55190689629445"
    },
    {
      "id": "pt.ine.add.PTCONT.219645",
      "street": "R BREJEIRA",
      "house": "",
      "postcode": "3750-405",
      "city": "ESPINHEL",
      "lon": "-8.488979031431393",
      "lat": "40.549967844256976"
    },
    {
      "id": "pt.ine.add.PTCONT.224878",
      "street": "R BARROCA",
      "house": "64",
      "postcode": "3750-405",
      "city": "ESPINHEL",
      "lon": "-8.4895198334458",
      "lat": "40.54286098088267"
    },
    {
      "id": "pt.ine.add.PTCONT.227483",
      "street": "R D MANUEL BAPTISTA DA CUNHA",
      "house": "",
      "postcode": "3750-405",
      "city": "ESPINHEL",
      "lon": "-8.489228280730167",
      "lat": "40.545761593521405"
    },
    {
      "id": "pt.ine.add.PTCONT.230311",
      "street": "R CURTINHAL",
      "house": "",
      "postcode": "3750-405",
      "city": "ESPINHEL",
      "lon": "-8.491710328343425",
      "lat": "40.541899638681215"
    },
    {
      "id": "pt.ine.add.PTCONT.232902",
      "street": "R BARROCA",
      "house": "49",
      "postcode": "3750-405",
      "city": "ESPINHEL",
      "lon": "-8.489447337873369",
      "lat": "40.54254601813459"
    },
    {
      "id": "pt.ine.add.PTCONT.243961",
      "street": "R BREJEIRA",
      "house": "167",
      "postcode": "3750-405",
      "city": "ESPINHEL",
      "lon": "-8.489318670363902",
      "lat": "40.54945349475268"
    },
    {
      "id": "pt.ine.add.PTCONT.243962",
      "street": "R PATULEIA",
      "house": "7",
      "postcode": "3750-405",
      "city": "ESPINHEL",
      "lon": "-8.490930110778299",
      "lat": "40.54168592975628"
    },
    {
      "id": "pt.ine.add.PTCONT.249291",
      "street": "R LOUREDO",
      "house": "225",
      "postcode": "3750-406",
      "city": "ESPINHEL",
      "lon": "-8.48821817710838",
      "lat": "40.555670545763604"
    },
    {
      "id": "pt.ine.add.PTCONT.254542",
      "street": "R DR MANUEL BAPTISTA DA CUNHA",
      "house": "739",
      "postcode": "3750-405",
      "city": "ESPINHEL",
      "lon": "-8.48755289552898",
      "lat": "40.55041348849603"
    },
    {
      "id": "pt.ine.add.PTCONT.254543",
      "street": "R D MANUEL BAPTISTA DA CUNHA",
      "house": "",
      "postcode": "3750-405",
      "city": "ESPINHEL",
      "lon": "-8.488278369387398",
      "lat": "40.5491865379683"
    },
    {
      "id": "pt.ine.add.PTCONT.257368",
      "street": "R D MANUEL BAPTISTA DA CUNHA",
      "house": "11",
      "postcode": "3750-405",
      "city": "ESPINHEL",
      "lon": "-8.488901261479034",
      "lat": "40.54419567516946"
    },
    {
      "id": "pt.ine.add.PTCONT.260479",
      "street": "R BREJEIRA",
      "house": "261",
      "postcode": "3750-405",
      "city": "ESPINHEL",
      "lon": "-8.488945187980953",
      "lat": "40.55026512382048"
    },
    {
      "id": "pt.ine.add.PTCONT.260480",
      "street": "BC RANZAL",
      "house": "39",
      "postcode": "3750-405",
      "city": "ESPINHEL",
      "lon": "-8.489750077335133",
      "lat": "40.54621025000548"
    },
    {
      "id": "pt.ine.add.PTCONT.262807",
      "street": "R D MANUEL BAPTISTA DA CUNHA",
      "house": "123",
      "postcode": "3750-405",
      "city": "ESPINHEL",
      "lon": "-8.489047300627426",
      "lat": "40.545023714942396"
    },
    {
      "id": "pt.ine.add.PTCONT.264909",
      "street": "R D MANUEL BAPTISTA DA CUNHA",
      "house": "70",
      "postcode": "3750-405",
      "city": "ESPINHEL",
      "lon": "-8.488629044700708",
      "lat": "40.54406143327243"
    },
    {
      "id": "pt.ine.add.PTCONT.279037",
      "street": "R BARROCA",
      "house": "71",
      "postcode": "3750-405",
      "city": "ESPINHEL",
      "lon": "-8.489258900418097",
      "lat": "40.5426276470574"
    },
    {
      "id": "pt.ine.add.PTCONT.286836",
      "street": "R D MANUEL BAPTISTA DA CUNHA",
      "house": "",
      "postcode": "3750-405",
      "city": "ESPINHEL",
      "lon": "-8.488723861199311",
      "lat": "40.54413318405998"
    },
    {
      "id": "pt.ine.add.PTCONT.286837",
      "street": "R DR MANUEL BAPTISTA DA CUNHA",
      "house": "82",
      "postcode": "3750-405",
      "city": "ESPINHEL",
      "lon": "-8.488960123587551",
      "lat": "40.54862611068215"
    },
    {
      "id": "pt.ine.add.PTCONT.289549",
      "street": "R D MANUEL BAPTISTA DA CUNHA",
      "house": "",
      "postcode": "3750-405",
      "city": "ESPINHEL",
      "lon": "-8.488985274875146",
      "lat": "40.54445657076562"
    }
  ]
}