{
  "data": {
    "distrito": "Aveiro",
    "concelho": "Águeda",
    "freguesia": "União das freguesias de Recardães e Espinhel",
    "OBJECTID": 526,
    "BGRI2021": "01012400123",
    "DT21": "01",
    "DTMN21": "0101",
    "DTMNFR21": "010124",
    "DTMNFRSEC21": "010124001",
    "SECNUM21": "001",
    "SSNUM21": "23",
    "SECSSNUM21": "00123",
    "OBJECTID_1": 1145,
    "DT": "01",
    "CC": "01",
    "fr": "24",
    "SEC": "001",
    "SS": "23"
  },
  "addresses": [
    {
      "id": "pt.ine.add.PTCONT.312487",
      "street": "R FEIRA",
      "house": "474",
      "postcode": "3750-406",
      "city": "ESPINHEL",
      "lon": "-8.491804013064533",
      "lat": "40.55945970546852"
    },
    {
      "id": "pt.ine.add.PTCONT.313369",
      "street": "R FEIRA",
      "house": "231",
      "postcode": "3750-406",
      "city": "ESPINHEL",
      "lon": "-8.49052457973136",
      "lat": "40.558662199122296"
    },
    {
      "id": "pt.ine.add.PTCONT.315961",
      "street": "LG FEIRA",
      "house": "594",
      "postcode": "3750-406",
      "city": "ESPINHEL",
      "lon": "-8.492530179803468",
      "lat": "40.55835880218181"
    },
    {
      "id": "pt.ine.add.PTCONT.318667",
      "street": "R FEIRA",
      "house": "17",
      "postcode": "3750-406",
      "city": "ESPINHEL",
      "lon": "-8.48926692929894",
      "lat": "40.55751340457124"
    },
    {
      "id": "pt.ine.add.PTCONT.323655",
      "street": "BR FEIRA",
      "house": "83",
      "postcode": "3750-406",
      "city": "ESPINHEL",
      "lon": "-8.490871824485037",
      "lat": "40.55957065949871"
    },
    {
      "id": "pt.ine.add.PTCONT.351550",
      "street": "LG FEIRA",
      "house": "154",
      "postcode": "3750-406",
      "city": "ESPINHEL",
      "lon": "-8.491493521850845",
      "lat": "40.558803282261806"
    },
    {
      "id": "pt.ine.add.PTCONT.7944",
      "street": "R FEIRA",
      "house": "504",
      "postcode": "3750-406",
      "city": "ESPINHEL",
      "lon": "-8.491909219563475",
      "lat": "40.55926126222336"
    },
    {
      "id": "pt.ine.add.PTCONT.15940",
      "street": "R FEIRA",
      "house": "462",
      "postcode": "3750-406",
      "city": "ESPINHEL",
      "lon": "-8.491686374137707",
      "lat": "40.55954111832924"
    },
    {
      "id": "pt.ine.add.PTCONT.23943",
      "street": "R FEIRA",
      "house": "71",
      "postcode": "3750-406",
      "city": "ESPINHEL",
      "lon": "-8.489599955708657",
      "lat": "40.55797164779765"
    },
    {
      "id": "pt.ine.add.PTCONT.29718",
      "street": "BR FEIRA",
      "house": "71",
      "postcode": "3750-406",
      "city": "ESPINHEL",
      "lon": "-8.490823972721435",
      "lat": "40.55945373879699"
    },
    {
      "id": "pt.ine.add.PTCONT.29719",
      "street": "BR FEIRA",
      "house": "253",
      "postcode": "3750-406",
      "city": "ESPINHEL",
      "lon": "-8.490702738847826",
      "lat": "40.558859764401916"
    },
    {
      "id": "pt.ine.add.PTCONT.43020",
      "street": "LG FEIRA",
      "house": "",
      "postcode": "3750-406",
      "city": "ESPINHEL",
      "lon": "-8.492068698980159",
      "lat": "40.55817112564214"
    },
    {
      "id": "pt.ine.add.PTCONT.43021",
      "street": "R FEIRA",
      "house": "261",
      "postcode": "3750-406",
      "city": "ESPINHEL",
      "lon": "-8.490808235258818",
      "lat": "40.55871535303436"
    },
    {
      "id": "pt.ine.add.PTCONT.45754",
      "street": "R PRINCIPAL",
      "house": "1078",
      "postcode": "3750-406",
      "city": "ESPINHEL",
      "lon": "-8.490408119313544",
      "lat": "40.55674443027022"
    },
    {
      "id": "pt.ine.add.PTCONT.53534",
      "street": "R PATEIRA",
      "house": "961",
      "postcode": "3750-403",
      "city": "ESPINHEL",
      "lon": "-8.493483382215542",
      "lat": "40.56877495479816"
    },
    {
      "id": "pt.ine.add.PTCONT.78038",
      "street": "R MATA",
      "house": "",
      "postcode": "3750-406",
      "city": "ESPINHEL",
      "lon": "-8.490108703812387",
      "lat": "40.55816819346598"
    },
    {
      "id": "pt.ine.add.PTCONT.93485",
      "street": "BR FEIRA",
      "house": "33",
      "postcode": "3750-406",
      "city": "ESPINHEL",
      "lon": "-8.490751212966451",
      "lat": "40.559093752123516"
    },
    {
      "id": "pt.ine.add.PTCONT.101535",
      "street": "BR FEIRA",
      "house": "21",
      "postcode": "3750-406",
      "city": "ESPINHEL",
      "lon": "-8.49072697586422",
      "lat": "40.55897675826662"
    },
    {
      "id": "pt.ine.add.PTCONT.102311",
      "street": "R FEIRA",
      "house": "245",
      "postcode": "3750-406",
      "city": "ESPINHEL",
      "lon": "-8.490678310267125",
      "lat": "40.558706749925626"
    },
    {
      "id": "pt.ine.add.PTCONT.130508",
      "street": "R FOGO",
      "house": "105",
      "postcode": "3750-406",
      "city": "ESPINHEL",
      "lon": "-8.492889691016526",
      "lat": "40.55934826603113"
    },
    {
      "id": "pt.ine.add.PTCONT.134040",
      "street": "LG FEIRA",
      "house": "54",
      "postcode": "3750-406",
      "city": "ESPINHEL",
      "lon": "-8.491891643404252",
      "lat": "40.55818068092212"
    },
    {
      "id": "pt.ine.add.PTCONT.142019",
      "street": "BR FEIRA",
      "house": "93",
      "postcode": "3750-406",
      "city": "ESPINHEL",
      "lon": "-8.490883919291464",
      "lat": "40.559624653831285"
    },
    {
      "id": "pt.ine.add.PTCONT.146523",
      "street": "R ARROTAS",
      "house": "33",
      "postcode": "3750-406",
      "city": "ESPINHEL",
      "lon": "-8.491324528521973",
      "lat": "40.56032570169614"
    },
    {
      "id": "pt.ine.add.PTCONT.155222",
      "street": "R PRINCIPAL",
      "house": "",
      "postcode": "3750-406",
      "city": "ESPINHEL",
      "lon": "-8.492378497054181",
      "lat": "40.55427987184226"
    },
    {
      "id": "pt.ine.add.PTCONT.159977",
      "street": "R GANDARA",
      "house": "62",
      "postcode": "3750-406",
      "city": "ESPINHEL",
      "lon": "-8.492569598382008",
      "lat": "40.559106119353714"
    },
    {
      "id": "pt.ine.add.PTCONT.165708",
      "street": "R PRINCIPAL",
      "house": "978",
      "postcode": "3750-406",
      "city": "ESPINHEL",
      "lon": "-8.489727155485895",
      "lat": "40.55746695838099"
    },
    {
      "id": "pt.ine.add.PTCONT.173901",
      "street": "R FEIRA",
      "house": "33",
      "postcode": "3750-406",
      "city": "ESPINHEL",
      "lon": "-8.48945717497814",
      "lat": "40.557764966363685"
    },
    {
      "id": "pt.ine.add.PTCONT.200392",
      "street": "R ARROTAS",
      "house": "67",
      "postcode": "3750-406",
      "city": "ESPINHEL",
      "lon": "-8.49133787193131",
      "lat": "40.56061382980759"
    },
    {
      "id": "pt.ine.add.PTCONT.211419",
      "street": "BR FEIRA",
      "house": "",
      "postcode": "3750-406",
      "city": "ESPINHEL",
      "lon": "-8.490775498080893",
      "lat": "40.55921975112268"
    },
    {
      "id": "pt.ine.add.PTCONT.219646",
      "street": "R FEIRA",
      "house": "205",
      "postcode": "3750-406",
      "city": "ESPINHEL",
      "lon": "-8.4901940316234",
      "lat": "40.558672226554066"
    },
    {
      "id": "pt.ine.add.PTCONT.241055",
      "street": "R MATA",
      "house": "28",
      "postcode": "3750-406",
      "city": "ESPINHEL",
      "lon": "-8.490228543434592",
      "lat": "40.55850101918894"
    },
    {
      "id": "pt.ine.add.PTCONT.247326",
      "street": "R MATA",
      "house": "48",
      "postcode": "3750-406",
      "city": "ESPINHEL",
      "lon": "-8.490263055073042",
      "lat": "40.55832981180918"
    },
    {
      "id": "pt.ine.add.PTCONT.247458",
      "street": "R FEIRA",
      "house": "57",
      "postcode": "3750-406",
      "city": "ESPINHEL",
      "lon": "-8.489338390588987",
      "lat": "40.55763025316705"
    },
    {
      "id": "pt.ine.add.PTCONT.254123",
      "street": "R FOGO",
      "house": "46",
      "postcode": "3750-406",
      "city": "ESPINHEL",
      "lon": "-8.492204878276116",
      "lat": "40.55935039661031"
    },
    {
      "id": "pt.ine.add.PTCONT.268212",
      "street": "R PRINCIPAL",
      "house": "1110",
      "postcode": "3750-406",
      "city": "ESPINHEL",
      "lon": "-8.490583973924497",
      "lat": "40.55650974841868"
    },
    {
      "id": "pt.ine.add.PTCONT.270871",
      "street": "LG FEIRA",
      "house": "528",
      "postcode": "3750-406",
      "city": "ESPINHEL",
      "lon": "-8.49195510160667",
      "lat": "40.55900897136524"
    },
    {
      "id": "pt.ine.add.PTCONT.276372",
      "street": "BR FEIRA",
      "house": "59",
      "postcode": "3750-406",
      "city": "ESPINHEL",
      "lon": "-8.490811398680368",
      "lat": "40.559309692957996"
    },
    {
      "id": "pt.ine.add.PTCONT.279033",
      "street": "R FEIRA",
      "house": "",
      "postcode": "3750-406",
      "city": "ESPINHEL",
      "lon": "-8.489077591266025",
      "lat": "40.55743294038708"
    }
  ]
}