{
  "data": {
    "distrito": "Braga",
    "concelho": "Guimarães",
    "freguesia": "União das freguesias de Prazins Santo Tirso e Corvite",
    "OBJECTID": 508,
    "BGRI2021": "03088500103",
    "DT21": "03",
    "DTMN21": "0308",
    "DTMNFR21": "030885",
    "DTMNFRSEC21": "030885001",
    "SECNUM21": "001",
    "SSNUM21": "03",
    "SECSSNUM21": "00103",
    "OBJECTID_1": 27084,
    "DT": "03",
    "CC": "08",
    "fr": "85",
    "SEC": "001",
    "SS": "03"
  },
  "addresses": [
    {
      "id": "pt.ine.add.PTCONT.458853",
      "street": "R SOUTO NOVO",
      "house": "",
      "postcode": "4805-332",
      "city": "CORVITE",
      "lon": "-8.315933639639967",
      "lat": "41.47110186824853"
    },
    {
      "id": "pt.ine.add.PTCONT.458854",
      "street": "R SOUTO NOVO",
      "house": "",
      "postcode": "4805-332",
      "city": "CORVITE",
      "lon": "-8.315933639639967",
      "lat": "41.47110186824853"
    },
    {
      "id": "pt.ine.add.PTCONT.483383",
      "street": "R PADRE ANTÓNIO MATOS",
      "house": "",
      "postcode": "4805-216",
      "city": "CORVITE",
      "lon": "-8.317495842341723",
      "lat": "41.47319728092727"
    },
    {
      "id": "pt.ine.add.PTCONT.492369",
      "street": "R PADRE ANTÓNIO MATOS",
      "house": "",
      "postcode": "4805-216",
      "city": "CORVITE",
      "lon": "-8.319894121479697",
      "lat": "41.47040220581387"
    },
    {
      "id": "pt.ine.add.PTCONT.496557",
      "street": "R TULHA VELHA",
      "house": "148",
      "postcode": "4805-338",
      "city": "CORVITE",
      "lon": "-8.317623495825806",
      "lat": "41.4717744618222"
    },
    {
      "id": "pt.ine.add.PTCONT.496943",
      "street": "R SANTA MARIA",
      "house": "",
      "postcode": "4805-316",
      "city": "CORVITE",
      "lon": "-8.31557104039634",
      "lat": "41.47413675443558"
    },
    {
      "id": "pt.ine.add.PTCONT.526265",
      "street": "R SANTA MARIA",
      "house": "580",
      "postcode": "4805-316",
      "city": "CORVITE",
      "lon": "-8.316160317137696",
      "lat": "41.475081226170836"
    },
    {
      "id": "pt.ine.add.PTCONT.530391",
      "street": "R SOUTO NOVO",
      "house": "95",
      "postcode": "4805-332",
      "city": "CORVITE",
      "lon": "-8.318040061726",
      "lat": "41.47091842328161"
    },
    {
      "id": "pt.ine.add.PTCONT.534539",
      "street": "R S MARIA",
      "house": "768",
      "postcode": "4805-316",
      "city": "CORVITE",
      "lon": "-8.315441318955541",
      "lat": "41.47483926321284"
    },
    {
      "id": "pt.ine.add.PTCONT.538203",
      "street": "R PADRE ANTÓNIO MATOS",
      "house": "",
      "postcode": "4805-216",
      "city": "CORVITE",
      "lon": "-8.319811615543298",
      "lat": "41.470852534329"
    },
    {
      "id": "pt.ine.add.PTCONT.593524",
      "street": "R SOUTO NOVO",
      "house": "",
      "postcode": "4805-332",
      "city": "CORVITE",
      "lon": "-8.315150340462216",
      "lat": "41.473534160581806"
    },
    {
      "id": "pt.ine.add.PTCONT.605382",
      "street": "R S MARIA",
      "house": "302",
      "postcode": "4805-316",
      "city": "CORVITE",
      "lon": "-8.31754829732032",
      "lat": "41.47480889248097"
    },
    {
      "id": "pt.ine.add.PTCONT.605383",
      "street": "R SANTA MARIA",
      "house": "",
      "postcode": "4805-316",
      "city": "CORVITE",
      "lon": "-8.31754829732032",
      "lat": "41.47480889248097"
    },
    {
      "id": "pt.ine.add.PTCONT.605384",
      "street": "R S MARIA",
      "house": "302",
      "postcode": "4805-316",
      "city": "CORVITE",
      "lon": "-8.31754829732032",
      "lat": "41.47480889248097"
    },
    {
      "id": "pt.ine.add.PTCONT.605385",
      "street": "R S MARIA",
      "house": "324",
      "postcode": "4805-316",
      "city": "CORVITE",
      "lon": "-8.31754829732032",
      "lat": "41.47480889248097"
    },
    {
      "id": "pt.ine.add.PTCONT.614482",
      "street": "R SOUTO NOVO",
      "house": "",
      "postcode": "4805-332",
      "city": "CORVITE",
      "lon": "-8.316064917973184",
      "lat": "41.470957597268175"
    },
    {
      "id": "pt.ine.add.PTCONT.614483",
      "street": "R SOUTO NOVO",
      "house": "",
      "postcode": "4805-332",
      "city": "CORVITE",
      "lon": "-8.316064917973184",
      "lat": "41.470957597268175"
    },
    {
      "id": "pt.ine.add.PTCONT.625451",
      "street": "R SOUTO NOVO",
      "house": "797",
      "postcode": "4805-332",
      "city": "CORVITE",
      "lon": "-8.316387886487094",
      "lat": "41.47086704422125"
    },
    {
      "id": "pt.ine.add.PTCONT.650034",
      "street": "TV SOUTO NOVO",
      "house": "9",
      "postcode": "4805-332",
      "city": "CORVITE",
      "lon": "-8.317284959886539",
      "lat": "41.47059549466676"
    },
    {
      "id": "pt.ine.add.PTCONT.652683",
      "street": "R PADRE ANTÓNIO MATOS",
      "house": "",
      "postcode": "4805-216",
      "city": "CORVITE",
      "lon": "-8.319632022219134",
      "lat": "41.470843821790226"
    },
    {
      "id": "pt.ine.add.PTCONT.685553",
      "street": "R SANTA MARIA",
      "house": "516",
      "postcode": "4805-316",
      "city": "CORVITE",
      "lon": "-8.316507325967933",
      "lat": "41.47501764623963"
    },
    {
      "id": "pt.ine.add.PTCONT.699649",
      "street": "R TULHA VELHA",
      "house": "66",
      "postcode": "4805-338",
      "city": "CORVITE",
      "lon": "-8.31800622047662",
      "lat": "41.471647792816206"
    },
    {
      "id": "pt.ine.add.PTCONT.744649",
      "street": "R PADRE ANTÓNIO MATOS",
      "house": "",
      "postcode": "4805-216",
      "city": "CORVITE",
      "lon": "-8.316883815741066",
      "lat": "41.47267603484451"
    },
    {
      "id": "pt.ine.add.PTCONT.744650",
      "street": "R SOUTO NOVO",
      "house": "94",
      "postcode": "4805-332",
      "city": "CORVITE",
      "lon": "-8.317501256516625",
      "lat": "41.4708832726759"
    },
    {
      "id": "pt.ine.add.PTCONT.759221",
      "street": "R SOUTO NOVO",
      "house": "215",
      "postcode": "4805-332",
      "city": "CORVITE",
      "lon": "-8.319724693013322",
      "lat": "41.469763204449855"
    },
    {
      "id": "pt.ine.add.PTCONT.765584",
      "street": "R SANTA MARIA",
      "house": "464",
      "postcode": "4805-316",
      "city": "CORVITE",
      "lon": "-8.316830517391018",
      "lat": "41.47499912272849"
    },
    {
      "id": "pt.ine.add.PTCONT.765585",
      "street": "R PADRE ANTÓNIO MATOS",
      "house": "311",
      "postcode": "4805-216",
      "city": "CORVITE",
      "lon": "-8.318095855858287",
      "lat": "41.47370053524814"
    },
    {
      "id": "pt.ine.add.PTCONT.765992",
      "street": "R PADRE ANTÓNIO MATOS",
      "house": "311",
      "postcode": "4805-216",
      "city": "CORVITE",
      "lon": "-8.318095855858287",
      "lat": "41.47370053524814"
    },
    {
      "id": "pt.ine.add.PTCONT.789251",
      "street": "R TULHA VELHA",
      "house": "",
      "postcode": "4805-338",
      "city": "CORVITE",
      "lon": "-8.318449184774716",
      "lat": "41.471656083841054"
    }
  ]
}