{
  "data": {
    "distrito": "Braga",
    "concelho": "Guimarães",
    "freguesia": "União das freguesias de Prazins Santo Tirso e Corvite",
    "OBJECTID": 769,
    "BGRI2021": "03088500113",
    "DT21": "03",
    "DTMN21": "0308",
    "DTMNFR21": "030885",
    "DTMNFRSEC21": "030885001",
    "SECNUM21": "001",
    "SSNUM21": "13",
    "SECSSNUM21": "00113",
    "OBJECTID_1": 27688,
    "DT": "03",
    "CC": "08",
    "fr": "85",
    "SEC": "001",
    "SS": "13"
  },
  "addresses": [
    {
      "id": "pt.ine.add.PTCONT.469170",
      "street": "R CENTRAL",
      "house": "906",
      "postcode": "4800-269",
      "city": "SANTO TIRSO PRAZINS",
      "lon": "-8.318328237976967",
      "lat": "41.47963371959044"
    },
    {
      "id": "pt.ine.add.PTCONT.469171",
      "street": "R CENTRAL",
      "house": "906",
      "postcode": "4800-269",
      "city": "SANTO TIRSO PRAZINS",
      "lon": "-8.318328237976967",
      "lat": "41.47963371959044"
    },
    {
      "id": "pt.ine.add.PTCONT.469172",
      "street": "R CENTRAL",
      "house": "906",
      "postcode": "4800-269",
      "city": "SANTO TIRSO PRAZINS",
      "lon": "-8.318328237976967",
      "lat": "41.47963371959044"
    },
    {
      "id": "pt.ine.add.PTCONT.469173",
      "street": "R CENTRAL",
      "house": "906",
      "postcode": "4800-269",
      "city": "SANTO TIRSO PRAZINS",
      "lon": "-8.318328237976967",
      "lat": "41.47963371959044"
    },
    {
      "id": "pt.ine.add.PTCONT.469190",
      "street": "R CENTRAL",
      "house": "534",
      "postcode": "4800-269",
      "city": "SANTO TIRSO PRAZINS",
      "lon": "-8.320972636929469",
      "lat": "41.47908019455353"
    },
    {
      "id": "pt.ine.add.PTCONT.492622",
      "street": "R CENTRAL",
      "house": "790",
      "postcode": "4800-269",
      "city": "SANTO TIRSO PRAZINS",
      "lon": "-8.319130002554747",
      "lat": "41.479488363727846"
    },
    {
      "id": "pt.ine.add.PTCONT.496206",
      "street": "R CENTRAL",
      "house": "1202",
      "postcode": "4800-269",
      "city": "SANTO TIRSO PRAZINS",
      "lon": "-8.31659416502149",
      "lat": "41.48033880118666"
    },
    {
      "id": "pt.ine.add.PTCONT.497027",
      "street": "R CENTRAL",
      "house": "1202",
      "postcode": "4800-269",
      "city": "SANTO TIRSO PRAZINS",
      "lon": "-8.31659416502149",
      "lat": "41.48033880118666"
    },
    {
      "id": "pt.ine.add.PTCONT.526263",
      "street": "R SOUTO RIBAS",
      "house": "34",
      "postcode": "4805-331",
      "city": "CORVITE",
      "lon": "-8.321468659266548",
      "lat": "41.476720366826186"
    },
    {
      "id": "pt.ine.add.PTCONT.526264",
      "street": "R SOUTO DAS RIBAS",
      "house": "",
      "postcode": "4805-331",
      "city": "CORVITE",
      "lon": "-8.321468659266548",
      "lat": "41.476720366826186"
    },
    {
      "id": "pt.ine.add.PTCONT.528953",
      "street": "R AFAO",
      "house": "231",
      "postcode": "4800-893",
      "city": "SANTO TIRSO PRAZINS",
      "lon": "-8.320978577175364",
      "lat": "41.47699128474764"
    },
    {
      "id": "pt.ine.add.PTCONT.530132",
      "street": "R NSA SRA DA CONCEIÇÃO",
      "house": "965",
      "postcode": "4800-704",
      "city": "SANTO TIRSO PRAZINS",
      "lon": "-8.321688022314584",
      "lat": "41.47805258175487"
    },
    {
      "id": "pt.ine.add.PTCONT.531913",
      "street": "R CENTRAL",
      "house": "496",
      "postcode": "4800-269",
      "city": "SANTO TIRSO PRAZINS",
      "lon": "-8.321330749253157",
      "lat": "41.47871045010604"
    },
    {
      "id": "pt.ine.add.PTCONT.531914",
      "street": "R CENTRAL",
      "house": "496",
      "postcode": "4800-269",
      "city": "SANTO TIRSO PRAZINS",
      "lon": "-8.321330749253157",
      "lat": "41.47871045010604"
    },
    {
      "id": "pt.ine.add.PTCONT.543668",
      "street": "TV VEIGA",
      "house": "103",
      "postcode": "4800-702",
      "city": "SANTO TIRSO PRAZINS",
      "lon": "-8.317621460602352",
      "lat": "41.47949979733243"
    },
    {
      "id": "pt.ine.add.PTCONT.552419",
      "street": "R ARRIBAS",
      "house": "55",
      "postcode": "4800-894",
      "city": "SANTO TIRSO PRAZINS",
      "lon": "-8.321424314749134",
      "lat": "41.47794496722579"
    },
    {
      "id": "pt.ine.add.PTCONT.554827",
      "street": "R CENTRAL",
      "house": "",
      "postcode": "4800-269",
      "city": "SANTO TIRSO PRAZINS",
      "lon": "-8.320217166760637",
      "lat": "41.47866724751084"
    },
    {
      "id": "pt.ine.add.PTCONT.554828",
      "street": "R CENTRAL",
      "house": "",
      "postcode": "4800-269",
      "city": "SANTO TIRSO PRAZINS",
      "lon": "-8.320217166760637",
      "lat": "41.47866724751084"
    },
    {
      "id": "pt.ine.add.PTCONT.554829",
      "street": "R CENTRAL",
      "house": "",
      "postcode": "4800-269",
      "city": "SANTO TIRSO PRAZINS",
      "lon": "-8.320217166760637",
      "lat": "41.47866724751084"
    },
    {
      "id": "pt.ine.add.PTCONT.576556",
      "street": "R NSA SRA DA CONCEIÇÃO",
      "house": "",
      "postcode": "4800-704",
      "city": "SANTO TIRSO PRAZINS",
      "lon": "-8.321760353345754",
      "lat": "41.47822353686174"
    },
    {
      "id": "pt.ine.add.PTCONT.585543",
      "street": "R PACO",
      "house": "",
      "postcode": "4800-703",
      "city": "SANTO TIRSO PRAZINS",
      "lon": "-8.321085807535768",
      "lat": "41.47681103193224"
    },
    {
      "id": "pt.ine.add.PTCONT.593236",
      "street": "R NSA SRA DA CONCEIÇÃO",
      "house": "883",
      "postcode": "4800-704",
      "city": "SANTO TIRSO PRAZINS",
      "lon": "-8.32177282198864",
      "lat": "41.478394590118015"
    },
    {
      "id": "pt.ine.add.PTCONT.602424",
      "street": "R SOUTO DAS RIBAS",
      "house": "",
      "postcode": "4805-331",
      "city": "CORVITE",
      "lon": "-8.321098274120846",
      "lat": "41.476982085308066"
    },
    {
      "id": "pt.ine.add.PTCONT.622801",
      "street": "TV VEIGA",
      "house": "7",
      "postcode": "4800-702",
      "city": "SANTO TIRSO PRAZINS",
      "lon": "-8.31731106116601",
      "lat": "41.479815430532476"
    },
    {
      "id": "pt.ine.add.PTCONT.622802",
      "street": "TV VEIGA",
      "house": "7",
      "postcode": "4800-702",
      "city": "SANTO TIRSO PRAZINS",
      "lon": "-8.31731106116601",
      "lat": "41.479815430532476"
    },
    {
      "id": "pt.ine.add.PTCONT.622803",
      "street": "TV VEIGA",
      "house": "7",
      "postcode": "4800-702",
      "city": "SANTO TIRSO PRAZINS",
      "lon": "-8.31731106116601",
      "lat": "41.479815430532476"
    },
    {
      "id": "pt.ine.add.PTCONT.622804",
      "street": "R CENTRAL",
      "house": "498",
      "postcode": "4800-269",
      "city": "SANTO TIRSO PRAZINS",
      "lon": "-8.321080547154928",
      "lat": "41.47913404153023"
    },
    {
      "id": "pt.ine.add.PTCONT.630353",
      "street": "R PACO",
      "house": "424",
      "postcode": "4800-703",
      "city": "SANTO TIRSO PRAZINS",
      "lon": "-8.317208042137715",
      "lat": "41.47725849376397"
    },
    {
      "id": "pt.ine.add.PTCONT.630411",
      "street": "TV VEIGA",
      "house": "",
      "postcode": "4800-702",
      "city": "SANTO TIRSO PRAZINS",
      "lon": "-8.317478246809008",
      "lat": "41.47966209676692"
    },
    {
      "id": "pt.ine.add.PTCONT.630412",
      "street": "TV VEIGA",
      "house": "",
      "postcode": "4800-702",
      "city": "SANTO TIRSO PRAZINS",
      "lon": "-8.317478246809008",
      "lat": "41.47966209676692"
    },
    {
      "id": "pt.ine.add.PTCONT.630413",
      "street": "TV VEIGA",
      "house": "",
      "postcode": "4800-702",
      "city": "SANTO TIRSO PRAZINS",
      "lon": "-8.317478246809008",
      "lat": "41.47966209676692"
    },
    {
      "id": "pt.ine.add.PTCONT.654883",
      "street": "R NSA SRA DA CONCEIÇÃO",
      "house": "941",
      "postcode": "4800-704",
      "city": "SANTO TIRSO PRAZINS",
      "lon": "-8.321449927964602",
      "lat": "41.478521173573334"
    },
    {
      "id": "pt.ine.add.PTCONT.654884",
      "street": "R NSA SRA DA CONCEIÇÃO",
      "house": "941",
      "postcode": "4800-704",
      "city": "SANTO TIRSO PRAZINS",
      "lon": "-8.321449927964602",
      "lat": "41.478521173573334"
    },
    {
      "id": "pt.ine.add.PTCONT.660396",
      "street": "R CENTRAL",
      "house": "1080",
      "postcode": "4800-269",
      "city": "SANTO TIRSO PRAZINS",
      "lon": "-8.316844909595098",
      "lat": "41.48009529626668"
    },
    {
      "id": "pt.ine.add.PTCONT.669829",
      "street": "R CENTRAL",
      "house": "690",
      "postcode": "4800-269",
      "city": "SANTO TIRSO PRAZINS",
      "lon": "-8.319883019529671",
      "lat": "41.47904595346453"
    },
    {
      "id": "pt.ine.add.PTCONT.687476",
      "street": "R AFAO",
      "house": "103",
      "postcode": "4800-893",
      "city": "SANTO TIRSO PRAZINS",
      "lon": "-8.321399692256588",
      "lat": "41.477710906652085"
    },
    {
      "id": "pt.ine.add.PTCONT.705194",
      "street": "R CENTRAL",
      "house": "988",
      "postcode": "4800-269",
      "city": "SANTO TIRSO PRAZINS",
      "lon": "-8.31796918237107",
      "lat": "41.4796793165806"
    },
    {
      "id": "pt.ine.add.PTCONT.705195",
      "street": "R CENTRAL",
      "house": "988",
      "postcode": "4800-269",
      "city": "SANTO TIRSO PRAZINS",
      "lon": "-8.31796918237107",
      "lat": "41.4796793165806"
    },
    {
      "id": "pt.ine.add.PTCONT.705196",
      "street": "R CENTRAL",
      "house": "988",
      "postcode": "4800-269",
      "city": "SANTO TIRSO PRAZINS",
      "lon": "-8.31796918237107",
      "lat": "41.4796793165806"
    },
    {
      "id": "pt.ine.add.PTCONT.706241",
      "street": "R CENTRAL",
      "house": "988",
      "postcode": "4800-269",
      "city": "SANTO TIRSO PRAZINS",
      "lon": "-8.31796918237107",
      "lat": "41.4796793165806"
    },
    {
      "id": "pt.ine.add.PTCONT.765287",
      "street": "R CENTRAL",
      "house": "1028",
      "postcode": "4800-269",
      "city": "SANTO TIRSO PRAZINS",
      "lon": "-8.317730058701338",
      "lat": "41.479796751035586"
    },
    {
      "id": "pt.ine.add.PTCONT.774189",
      "street": "R CENTRAL",
      "house": "1102",
      "postcode": "4800-269",
      "city": "SANTO TIRSO PRAZINS",
      "lon": "-8.316797145236473",
      "lat": "41.48014039193653"
    },
    {
      "id": "pt.ine.add.PTCONT.780743",
      "street": "R SOUTO RIBAS",
      "house": "102",
      "postcode": "4805-331",
      "city": "CORVITE",
      "lon": "-8.32138537467542",
      "lat": "41.47690058080895"
    },
    {
      "id": "pt.ine.add.PTCONT.780744",
      "street": "R SOUTO RIBAS",
      "house": "15",
      "postcode": "4805-331",
      "city": "CORVITE",
      "lon": "-8.32138537467542",
      "lat": "41.47690058080895"
    },
    {
      "id": "pt.ine.add.PTCONT.780745",
      "street": "R SOUTO RIBAS",
      "house": "66",
      "postcode": "4805-331",
      "city": "CORVITE",
      "lon": "-8.32138537467542",
      "lat": "41.47690058080895"
    },
    {
      "id": "pt.ine.add.PTCONT.794127",
      "street": "R SOUTO RIBAS",
      "house": "120",
      "postcode": "4805-331",
      "city": "CORVITE",
      "lon": "-8.321254018103348",
      "lat": "41.4770178461961"
    },
    {
      "id": "pt.ine.add.PTCONT.794128",
      "street": "R SOUTO RIBAS",
      "house": "118",
      "postcode": "4805-331",
      "city": "CORVITE",
      "lon": "-8.321254018103348",
      "lat": "41.4770178461961"
    },
    {
      "id": "pt.ine.add.PTCONT.797168",
      "street": "R CENTRAL",
      "house": "1020",
      "postcode": "4800-269",
      "city": "SANTO TIRSO PRAZINS",
      "lon": "-8.317131774534525",
      "lat": "41.47992376402646"
    },
    {
      "id": "pt.ine.add.PTCONT.804207",
      "street": "R CENTRAL",
      "house": "692",
      "postcode": "4800-269",
      "city": "SANTO TIRSO PRAZINS",
      "lon": "-8.319740277345227",
      "lat": "41.479370324761064"
    },
    {
      "id": "pt.ine.add.PTCONT.823528",
      "street": "R NSA SRA DA CONCEIÇÃO",
      "house": "951",
      "postcode": "4800-704",
      "city": "SANTO TIRSO PRAZINS",
      "lon": "-8.321413280495957",
      "lat": "41.47826912495614"
    },
    {
      "id": "pt.ine.add.PTCONT.823529",
      "street": "R NSA SRA DA CONCEIÇÃO",
      "house": "941",
      "postcode": "4800-704",
      "city": "SANTO TIRSO PRAZINS",
      "lon": "-8.321413280495957",
      "lat": "41.47826912495614"
    },
    {
      "id": "pt.ine.add.PTCONT.823530",
      "street": "R NSA SRA DA CONCEIÇÃO",
      "house": "951",
      "postcode": "4800-704",
      "city": "SANTO TIRSO PRAZINS",
      "lon": "-8.321413280495957",
      "lat": "41.47826912495614"
    },
    {
      "id": "pt.ine.add.PTCONT.828169",
      "street": "R CENTRAL",
      "house": "1044",
      "postcode": "4800-269",
      "city": "SANTO TIRSO PRAZINS",
      "lon": "-8.317024171721744",
      "lat": "41.47997795938484"
    },
    {
      "id": "pt.ine.add.PTCONT.831194",
      "street": "R CENTRAL",
      "house": "650",
      "postcode": "4800-269",
      "city": "SANTO TIRSO PRAZINS",
      "lon": "-8.319955838295321",
      "lat": "41.479387982565136"
    }
  ]
}