{
  "data": {
    "distrito": "Setúbal",
    "concelho": "Santiago do Cacém",
    "freguesia": "São Francisco da Serra",
    "OBJECTID": 715,
    "BGRI2021": "15091000108",
    "DT21": "15",
    "DTMN21": "1509",
    "DTMNFR21": "150910",
    "DTMNFRSEC21": "150910001",
    "SECNUM21": "001",
    "SSNUM21": "08",
    "SECSSNUM21": "00108",
    "OBJECTID_1": 166457,
    "DT": "15",
    "CC": "09",
    "fr": "10",
    "SEC": "001",
    "SS": "08"
  },
  "addresses": [
    {
      "id": "pt.ine.add.PTCONT.4668266",
      "street": "MTE ALAGOA",
      "house": "",
      "postcode": "7540-515",
      "city": "SÃO FRANCISCO DA SERRA",
      "lon": "-8.636378210403393",
      "lat": "38.071070916670884"
    },
    {
      "id": "pt.ine.add.PTCONT.4692301",
      "street": "MTE TRAZ DA PEDRA DE CIMA",
      "house": "",
      "postcode": "7540-515",
      "city": "SÃO FRANCISCO DA SERRA",
      "lon": "-8.632358997021338",
      "lat": "38.06848140411012"
    },
    {
      "id": "pt.ine.add.PTCONT.4727005",
      "street": "MTE CORTENARIZES",
      "house": "",
      "postcode": "7540-551",
      "city": "SÃO FRANCISCO DA SERRA",
      "lon": "-8.619155619680457",
      "lat": "38.058359383820154"
    },
    {
      "id": "pt.ine.add.PTCONT.4727006",
      "street": "MTE TRAZ DA PEDRA DE BAIXO",
      "house": "",
      "postcode": "7540-515",
      "city": "SÃO FRANCISCO DA SERRA",
      "lon": "-8.636355702999435",
      "lat": "38.070121988792835"
    },
    {
      "id": "pt.ine.add.PTCONT.4794992",
      "street": "MTE VALE POCINHO",
      "house": "",
      "postcode": "7540-515",
      "city": "SÃO FRANCISCO DA SERRA",
      "lon": "-8.633089829962715",
      "lat": "38.06994071499315"
    },
    {
      "id": "pt.ine.add.PTCONT.4851642",
      "street": "MTE OUTEIRINHO",
      "house": "",
      "postcode": "7540-515",
      "city": "SÃO FRANCISCO DA SERRA",
      "lon": "-8.630806642924096",
      "lat": "38.06851329520435"
    },
    {
      "id": "pt.ine.add.PTCONT.4923577",
      "street": "MTE VALE PALHEIROS",
      "house": "",
      "postcode": "7540-515",
      "city": "SÃO FRANCISCO DA SERRA",
      "lon": "-8.636421612210489",
      "lat": "38.07719683658055"
    },
    {
      "id": "pt.ine.add.PTCONT.4923696",
      "street": "MTE VALE PALHEIROS",
      "house": "",
      "postcode": "7540-515",
      "city": "SÃO FRANCISCO DA SERRA",
      "lon": "-8.636421612210489",
      "lat": "38.07719683658055"
    },
    {
      "id": "pt.ine.add.PTCONT.4998986",
      "street": "MTE PEREIRINHO",
      "house": "",
      "postcode": "7540-515",
      "city": "SÃO FRANCISCO DA SERRA",
      "lon": "-8.638154439275295",
      "lat": "38.071000029319634"
    },
    {
      "id": "pt.ine.add.PTCONT.5009417",
      "street": "MTE CASINHA NOVA",
      "house": "",
      "postcode": "7540-515",
      "city": "SÃO FRANCISCO DA SERRA",
      "lon": "-8.63903760136018",
      "lat": "38.07145581945726"
    },
    {
      "id": "pt.ine.add.PTCONT.5028374",
      "street": "MTE MOINHO",
      "house": "",
      "postcode": "7540-515",
      "city": "SÃO FRANCISCO DA SERRA",
      "lon": "-8.636016202721969",
      "lat": "38.06962994937837"
    },
    {
      "id": "pt.ine.add.PTCONT.5122390",
      "street": "MTE TRAS DA PEDRA",
      "house": "",
      "postcode": "7540-515",
      "city": "SÃO FRANCISCO DA SERRA",
      "lon": "-8.633690525439187",
      "lat": "38.06778498182854"
    }
  ]
}