{
  "data": {
    "distrito": "Braga",
    "concelho": "Terras de Bouro",
    "freguesia": "Souto",
    "OBJECTID": 102,
    "BGRI2021": "03101400107",
    "DT21": "03",
    "DTMN21": "0310",
    "DTMNFR21": "031014",
    "DTMNFRSEC21": "031014001",
    "SECNUM21": "001",
    "SSNUM21": "07",
    "SECSSNUM21": "00107",
    "OBJECTID_1": 29056,
    "DT": "03",
    "CC": "10",
    "fr": "14",
    "SEC": "001",
    "SS": "07"
  },
  "addresses": [
    {
      "id": "pt.ine.add.PTCONT.492084",
      "street": "R IGREJA MOIMENTA",
      "house": "",
      "postcode": "4840-130",
      "city": "SOUTO TBR",
      "lon": "-8.343055029731575",
      "lat": "41.69153856837398"
    },
    {
      "id": "pt.ine.add.PTCONT.492085",
      "street": "IGREJA",
      "house": "129",
      "postcode": "4840-130",
      "city": "SOUTO TBR",
      "lon": "-8.342579925201553",
      "lat": "41.693196087016574"
    },
    {
      "id": "pt.ine.add.PTCONT.511014",
      "street": "",
      "house": "",
      "postcode": "4840-130",
      "city": "SOUTO TBR",
      "lon": "-8.34314623073885",
      "lat": "41.69372626231422"
    },
    {
      "id": "pt.ine.add.PTCONT.511021",
      "street": "CASA DE SANTA ISABEL",
      "house": "",
      "postcode": "4840-130",
      "city": "SOUTO TBR",
      "lon": "-8.34291726397658",
      "lat": "41.693501592043056"
    },
    {
      "id": "pt.ine.add.PTCONT.540947",
      "street": "",
      "house": "",
      "postcode": "4840-130",
      "city": "SOUTO TBR",
      "lon": "-8.34271308338006",
      "lat": "41.69351096815172"
    },
    {
      "id": "pt.ine.add.PTCONT.578989",
      "street": "IGREJA",
      "house": "129",
      "postcode": "4840-130",
      "city": "SOUTO TBR",
      "lon": "-8.343095926398666",
      "lat": "41.69303308163457"
    },
    {
      "id": "pt.ine.add.PTCONT.587652",
      "street": "",
      "house": "",
      "postcode": "4840-130",
      "city": "SOUTO TBR",
      "lon": "-8.342953535110663",
      "lat": "41.693573554141715"
    },
    {
      "id": "pt.ine.add.PTCONT.588324",
      "street": "IGREJA",
      "house": "142",
      "postcode": "4840-130",
      "city": "SOUTO TBR",
      "lon": "-8.342518403663856",
      "lat": "41.69274602208288"
    },
    {
      "id": "pt.ine.add.PTCONT.590557",
      "street": "",
      "house": "",
      "postcode": "4840-130",
      "city": "SOUTO TBR",
      "lon": "-8.342868717332285",
      "lat": "41.69334862047468"
    },
    {
      "id": "pt.ine.add.PTCONT.593486",
      "street": "",
      "house": "",
      "postcode": "4840-130",
      "city": "SOUTO TBR",
      "lon": "-8.342725329576366",
      "lat": "41.69358297413687"
    },
    {
      "id": "pt.ine.add.PTCONT.595126",
      "street": "",
      "house": "",
      "postcode": "4840-130",
      "city": "SOUTO TBR",
      "lon": "-8.342435602623977",
      "lat": "41.69314232873169"
    },
    {
      "id": "pt.ine.add.PTCONT.617327",
      "street": "IGREJA SOUTO",
      "house": "130",
      "postcode": "4840-130",
      "city": "SOUTO TBR",
      "lon": "-8.34268788964577",
      "lat": "41.693150872480985"
    },
    {
      "id": "pt.ine.add.PTCONT.622719",
      "street": "IGREJA",
      "house": "166",
      "postcode": "4840-130",
      "city": "SOUTO TBR",
      "lon": "-8.343239223687348",
      "lat": "41.69277171703048"
    },
    {
      "id": "pt.ine.add.PTCONT.630584",
      "street": "IGREJA",
      "house": "145",
      "postcode": "4840-130",
      "city": "SOUTO TBR",
      "lon": "-8.34249569320355",
      "lat": "41.69315122280797"
    },
    {
      "id": "pt.ine.add.PTCONT.633860",
      "street": "IGREJA",
      "house": "169",
      "postcode": "4840-130",
      "city": "SOUTO TBR",
      "lon": "-8.34322902814878",
      "lat": "41.693329955202174"
    },
    {
      "id": "pt.ine.add.PTCONT.643226",
      "street": "IGREJA",
      "house": "118",
      "postcode": "4840-130",
      "city": "SOUTO TBR",
      "lon": "-8.342821516173968",
      "lat": "41.693609809279955"
    },
    {
      "id": "pt.ine.add.PTCONT.646536",
      "street": "IGREJA",
      "house": "170",
      "postcode": "4840-130",
      "city": "SOUTO TBR",
      "lon": "-8.34331349539469",
      "lat": "41.69344684676327"
    },
    {
      "id": "pt.ine.add.PTCONT.675775",
      "street": "IGREJA",
      "house": "143",
      "postcode": "4840-130",
      "city": "SOUTO TBR",
      "lon": "-8.342662871532866",
      "lat": "41.69284479770908"
    },
    {
      "id": "pt.ine.add.PTCONT.684753",
      "street": "IGREJA",
      "house": "163",
      "postcode": "4840-130",
      "city": "SOUTO TBR",
      "lon": "-8.342901799455463",
      "lat": "41.692439202439736"
    },
    {
      "id": "pt.ine.add.PTCONT.687791",
      "street": "IGREJA",
      "house": "147",
      "postcode": "4840-130",
      "city": "SOUTO TBR",
      "lon": "-8.342445834191485",
      "lat": "41.692593094084756"
    },
    {
      "id": "pt.ine.add.PTCONT.692319",
      "street": "",
      "house": "",
      "postcode": "4840-130",
      "city": "SOUTO TBR",
      "lon": "-8.342977793956544",
      "lat": "41.69364553816448"
    },
    {
      "id": "pt.ine.add.PTCONT.714627",
      "street": "IGREJA",
      "house": "162",
      "postcode": "4840-130",
      "city": "SOUTO TBR",
      "lon": "-8.34311593885313",
      "lat": "41.691799559837534"
    },
    {
      "id": "pt.ine.add.PTCONT.732753",
      "street": "IGREJA",
      "house": "134",
      "postcode": "4840-130",
      "city": "SOUTO TBR",
      "lon": "-8.34261529009783",
      "lat": "41.69298894111497"
    },
    {
      "id": "pt.ine.add.PTCONT.732754",
      "street": "IGREJA",
      "house": "137",
      "postcode": "4840-130",
      "city": "SOUTO TBR",
      "lon": "-8.342435456670769",
      "lat": "41.69309731129368"
    },
    {
      "id": "pt.ine.add.PTCONT.741347",
      "street": "IGREJA",
      "house": "141",
      "postcode": "4840-130",
      "city": "SOUTO TBR",
      "lon": "-8.34241119863758",
      "lat": "41.69302532714767"
    },
    {
      "id": "pt.ine.add.PTCONT.753538",
      "street": "IGREJA",
      "house": "111",
      "postcode": "4840-130",
      "city": "SOUTO TBR",
      "lon": "-8.343266325273396",
      "lat": "41.69371703922894"
    },
    {
      "id": "pt.ine.add.PTCONT.765102",
      "street": "IGREJA",
      "house": "146",
      "postcode": "4840-130",
      "city": "SOUTO TBR",
      "lon": "-8.34243408472685",
      "lat": "41.69267414735933"
    },
    {
      "id": "pt.ine.add.PTCONT.771475",
      "street": "IGREJA",
      "house": "133",
      "postcode": "4840-130",
      "city": "SOUTO TBR",
      "lon": "-8.343024350502633",
      "lat": "41.69318627258411"
    },
    {
      "id": "pt.ine.add.PTCONT.781280",
      "street": "IGREJA SOUTO",
      "house": "164",
      "postcode": "4840-130",
      "city": "SOUTO TBR",
      "lon": "-8.34290229679178",
      "lat": "41.692592261740444"
    },
    {
      "id": "pt.ine.add.PTCONT.789222",
      "street": "CASA AMELIA HERDEIROS",
      "house": "",
      "postcode": "4840-130",
      "city": "SOUTO TBR",
      "lon": "-8.342712644935343",
      "lat": "41.6933759158478"
    },
    {
      "id": "pt.ine.add.PTCONT.793860",
      "street": "IGREJA",
      "house": "165",
      "postcode": "4840-130",
      "city": "SOUTO TBR",
      "lon": "-8.342963674532756",
      "lat": "41.692997309037644"
    },
    {
      "id": "pt.ine.add.PTCONT.841321",
      "street": "CASA DC CRUZEIRO",
      "house": "",
      "postcode": "4840-130",
      "city": "SOUTO TBR",
      "lon": "-8.342797052825514",
      "lat": "41.693474800815885"
    }
  ]
}