{
  "data": {
    "distrito": "Viseu",
    "concelho": "São Pedro do Sul",
    "freguesia": "União das freguesias de São Martinho das Moitas e Covas do Rio",
    "OBJECTID": 84,
    "BGRI2021": "18162200106",
    "DT21": "18",
    "DTMN21": "1816",
    "DTMNFR21": "181622",
    "DTMNFRSEC21": "181622001",
    "SECNUM21": "001",
    "SSNUM21": "06",
    "SECSSNUM21": "00106",
    "OBJECTID_1": 196952,
    "DT": "18",
    "CC": "16",
    "fr": "22",
    "SEC": "001",
    "SS": "06"
  },
  "addresses": [
    {
      "id": "pt.ine.add.PTCONT.5444311",
      "street": "R AIDO",
      "house": "9",
      "postcode": "3660-329",
      "city": "SÃO MARTINHO DAS MOITAS",
      "lon": "-8.020737442689057",
      "lat": "40.87630115326586"
    },
    {
      "id": "pt.ine.add.PTCONT.5462606",
      "street": "TV PEDREIRA",
      "house": "2",
      "postcode": "3660-326",
      "city": "SÃO MARTINHO DAS MOITAS",
      "lon": "-8.019928994475853",
      "lat": "40.877317908199764"
    },
    {
      "id": "pt.ine.add.PTCONT.5468018",
      "street": "R AIDO",
      "house": "7",
      "postcode": "3660-329",
      "city": "SÃO MARTINHO DAS MOITAS",
      "lon": "-8.020726020847219",
      "lat": "40.87604000214474"
    },
    {
      "id": "pt.ine.add.PTCONT.5497576",
      "street": "R BARROJEIRA",
      "house": "30",
      "postcode": "3660-326",
      "city": "SÃO MARTINHO DAS MOITAS",
      "lon": "-8.019538540842154",
      "lat": "40.876705196245915"
    },
    {
      "id": "pt.ine.add.PTCONT.5499372",
      "street": "R CANDAL",
      "house": "3",
      "postcode": "3660-329",
      "city": "SÃO MARTINHO DAS MOITAS",
      "lon": "-8.020916534748947",
      "lat": "40.875625965525664"
    },
    {
      "id": "pt.ine.add.PTCONT.5508038",
      "street": "TV BARROJEIRA",
      "house": "",
      "postcode": "3660-326",
      "city": "SÃO MARTINHO DAS MOITAS",
      "lon": "-8.0200958970867",
      "lat": "40.87684081607691"
    },
    {
      "id": "pt.ine.add.PTCONT.5524890",
      "street": "R PONTE",
      "house": "",
      "postcode": "3660-326",
      "city": "SÃO MARTINHO DAS MOITAS",
      "lon": "-8.019561821702855",
      "lat": "40.87696635912769"
    },
    {
      "id": "pt.ine.add.PTCONT.5527244",
      "street": "R PONTE",
      "house": "",
      "postcode": "3660-326",
      "city": "SÃO MARTINHO DAS MOITAS",
      "lon": "-8.01956171399834",
      "lat": "40.877029392803685"
    },
    {
      "id": "pt.ine.add.PTCONT.5553197",
      "street": "TV BARROJEIRA",
      "house": "2",
      "postcode": "3660-326",
      "city": "SÃO MARTINHO DAS MOITAS",
      "lon": "-8.019633172310352",
      "lat": "40.87686737625681"
    },
    {
      "id": "pt.ine.add.PTCONT.5560663",
      "street": "R AIDO",
      "house": "",
      "postcode": "3660-329",
      "city": "SÃO MARTINHO DAS MOITAS",
      "lon": "-8.020154770989855",
      "lat": "40.87710201370167"
    },
    {
      "id": "pt.ine.add.PTCONT.5562486",
      "street": "R PONTE",
      "house": "12",
      "postcode": "3660-326",
      "city": "SÃO MARTINHO DAS MOITAS",
      "lon": "-8.01953829461169",
      "lat": "40.87684927322501"
    },
    {
      "id": "pt.ine.add.PTCONT.5571396",
      "street": "BC COTO",
      "house": "",
      "postcode": "3660-326",
      "city": "SÃO MARTINHO DAS MOITAS",
      "lon": "-8.020047615558306",
      "lat": "40.877327029359336"
    },
    {
      "id": "pt.ine.add.PTCONT.5584666",
      "street": "R PONTE",
      "house": "",
      "postcode": "3660-326",
      "city": "SÃO MARTINHO DAS MOITAS",
      "lon": "-8.019573469893363",
      "lat": "40.87709243815713"
    },
    {
      "id": "pt.ine.add.PTCONT.5586599",
      "street": "R PONTE",
      "house": "",
      "postcode": "3660-326",
      "city": "SÃO MARTINHO DAS MOITAS",
      "lon": "-8.019361173588422",
      "lat": "40.87636283805555"
    },
    {
      "id": "pt.ine.add.PTCONT.5590310",
      "street": "BC COTO",
      "house": "",
      "postcode": "3660-326",
      "city": "SÃO MARTINHO DAS MOITAS",
      "lon": "-8.019727404776564",
      "lat": "40.87726368126367"
    },
    {
      "id": "pt.ine.add.PTCONT.5596483",
      "street": "BC COTO",
      "house": "2",
      "postcode": "3660-326",
      "city": "SÃO MARTINHO DAS MOITAS",
      "lon": "-8.01965629986202",
      "lat": "40.877218587218806"
    },
    {
      "id": "pt.ine.add.PTCONT.5653939",
      "street": "BC COTO",
      "house": "",
      "postcode": "3660-326",
      "city": "SÃO MARTINHO DAS MOITAS",
      "lon": "-8.019597058658373",
      "lat": "40.87717350480561"
    },
    {
      "id": "pt.ine.add.PTCONT.5667929",
      "street": "TV PEDREIRA",
      "house": "O4",
      "postcode": "3660-326",
      "city": "SÃO MARTINHO DAS MOITAS",
      "lon": "-8.019834131402696",
      "lat": "40.87729080060131"
    }
  ]
}