{
  "data": {
    "distrito": "Viseu",
    "concelho": "São Pedro do Sul",
    "freguesia": "União das freguesias de São Martinho das Moitas e Covas do Rio",
    "OBJECTID": 52,
    "BGRI2021": "18162200117",
    "DT21": "18",
    "DTMN21": "1816",
    "DTMNFR21": "181622",
    "DTMNFRSEC21": "181622001",
    "SECNUM21": "001",
    "SSNUM21": "17",
    "SECSSNUM21": "00117",
    "OBJECTID_1": 196801,
    "DT": "18",
    "CC": "16",
    "fr": "22",
    "SEC": "001",
    "SS": "17"
  },
  "addresses": [
    {
      "id": "pt.ine.add.PTCONT.5435030",
      "street": "R PRINCIPAL",
      "house": "42",
      "postcode": "3660-327",
      "city": "SÃO MARTINHO DAS MOITAS",
      "lon": "-8.033635980031546",
      "lat": "40.88226518609173"
    },
    {
      "id": "pt.ine.add.PTCONT.5465442",
      "street": "R PRINCIPAL",
      "house": "",
      "postcode": "3660-327",
      "city": "SÃO MARTINHO DAS MOITAS",
      "lon": "-8.034608777973007",
      "lat": "40.882329054677136"
    },
    {
      "id": "pt.ine.add.PTCONT.5468017",
      "street": "R PRINCIPAL",
      "house": "38",
      "postcode": "3660-327",
      "city": "SÃO MARTINHO DAS MOITAS",
      "lon": "-8.033280179466349",
      "lat": "40.882174830509726"
    },
    {
      "id": "pt.ine.add.PTCONT.5480630",
      "street": "R PRINCIPAL",
      "house": "",
      "postcode": "3660-327",
      "city": "SÃO MARTINHO DAS MOITAS",
      "lon": "-8.034407080782701",
      "lat": "40.88232888225438"
    },
    {
      "id": "pt.ine.add.PTCONT.5519227",
      "street": "R PRINCIPAL",
      "house": "44",
      "postcode": "3660-327",
      "city": "SÃO MARTINHO DAS MOITAS",
      "lon": "-8.033470011669376",
      "lat": "40.882174994653916"
    },
    {
      "id": "pt.ine.add.PTCONT.5519228",
      "street": "R PRINCIPAL",
      "house": "",
      "postcode": "3660-327",
      "city": "SÃO MARTINHO DAS MOITAS",
      "lon": "-8.034394346605023",
      "lat": "40.88291418451525"
    },
    {
      "id": "pt.ine.add.PTCONT.5568107",
      "street": "R PRINCIPAL",
      "house": "60",
      "postcode": "3660-327",
      "city": "SÃO MARTINHO DAS MOITAS",
      "lon": "-8.034229032266856",
      "lat": "40.88238275866426"
    },
    {
      "id": "pt.ine.add.PTCONT.5577270",
      "street": "R ALQUEVES",
      "house": "8",
      "postcode": "3660-327",
      "city": "SÃO MARTINHO DAS MOITAS",
      "lon": "-8.03348264581753",
      "lat": "40.8816617308906"
    },
    {
      "id": "pt.ine.add.PTCONT.5577271",
      "street": "R PRINCIPAL",
      "house": "39",
      "postcode": "3660-327",
      "city": "SÃO MARTINHO DAS MOITAS",
      "lon": "-8.033233195183218",
      "lat": "40.88185962117972"
    },
    {
      "id": "pt.ine.add.PTCONT.5584624",
      "street": "R PRINCIPAL",
      "house": "",
      "postcode": "3660-328",
      "city": "SÃO MARTINHO DAS MOITAS",
      "lon": "-8.03089327909916",
      "lat": "40.883559481806415"
    },
    {
      "id": "pt.ine.add.PTCONT.5590266",
      "street": "R PRINCIPAL",
      "house": "37",
      "postcode": "3660-327",
      "city": "SÃO MARTINHO DAS MOITAS",
      "lon": "-8.03303126884704",
      "lat": "40.88201252807342"
    },
    {
      "id": "pt.ine.add.PTCONT.5592111",
      "street": "R ALQUEVES",
      "house": "4",
      "postcode": "3660-327",
      "city": "SÃO MARTINHO DAS MOITAS",
      "lon": "-8.033588967021233",
      "lat": "40.881967986523996"
    },
    {
      "id": "pt.ine.add.PTCONT.5592125",
      "street": "TV FONTE",
      "house": "3",
      "postcode": "3660-327",
      "city": "SÃO MARTINHO DAS MOITAS",
      "lon": "-8.034098495377835",
      "lat": "40.88240065632037"
    },
    {
      "id": "pt.ine.add.PTCONT.5613696",
      "street": "R PRINCIPAL",
      "house": "40",
      "postcode": "3660-327",
      "city": "SÃO MARTINHO DAS MOITAS",
      "lon": "-8.033754490664318",
      "lat": "40.88235533641954"
    },
    {
      "id": "pt.ine.add.PTCONT.5629417",
      "street": "R COSTINHA",
      "house": "",
      "postcode": "3660-327",
      "city": "SÃO MARTINHO DAS MOITAS",
      "lon": "-8.033233844909137",
      "lat": "40.88142739041541"
    },
    {
      "id": "pt.ine.add.PTCONT.5668903",
      "street": "R COSTINHA",
      "house": "",
      "postcode": "3660-327",
      "city": "SÃO MARTINHO DAS MOITAS",
      "lon": "-8.032972774284465",
      "lat": "40.881463183336855"
    }
  ]
}