{
  "data": {
    "distrito": "Leiria",
    "concelho": "Porto de Mós",
    "freguesia": "União das freguesias de Arrimal e Mendiga",
    "OBJECTID": 510,
    "BGRI2021": "10161600113",
    "DT21": "10",
    "DTMN21": "1016",
    "DTMNFR21": "101616",
    "DTMNFRSEC21": "101616001",
    "SECNUM21": "001",
    "SSNUM21": "13",
    "SECSSNUM21": "00113",
    "OBJECTID_1": 97868,
    "DT": "10",
    "CC": "16",
    "fr": "16",
    "SEC": "001",
    "SS": "13"
  },
  "addresses": [
    {
      "id": "pt.ine.add.PTCONT.1983639",
      "street": "R VALE DA PIA",
      "house": "9",
      "postcode": "2480-044",
      "city": "ARRIMAL",
      "lon": "-8.893293837354408",
      "lat": "39.47387335972316"
    },
    {
      "id": "pt.ine.add.PTCONT.1988058",
      "street": "R DIREITA",
      "house": "87",
      "postcode": "2480-043",
      "city": "ARRIMAL",
      "lon": "-8.885706939770625",
      "lat": "39.48160556296595"
    },
    {
      "id": "pt.ine.add.PTCONT.2007145",
      "street": "CANTO DAS CHOMARIAS",
      "house": "3",
      "postcode": "2480-043",
      "city": "ARRIMAL",
      "lon": "-8.884755775619713",
      "lat": "39.48178284568575"
    },
    {
      "id": "pt.ine.add.PTCONT.2014470",
      "street": "R DIREITA",
      "house": "93",
      "postcode": "2480-043",
      "city": "ARRIMAL",
      "lon": "-8.886537311729157",
      "lat": "39.48100573301377"
    },
    {
      "id": "pt.ine.add.PTCONT.2018650",
      "street": "R DIREITA",
      "house": "75",
      "postcode": "2480-043",
      "city": "ARRIMAL",
      "lon": "-8.884102617402915",
      "lat": "39.482651724111754"
    },
    {
      "id": "pt.ine.add.PTCONT.2026344",
      "street": "R SALGUEIRA",
      "house": "1",
      "postcode": "2480-044",
      "city": "ARRIMAL",
      "lon": "-8.893858740103086",
      "lat": "39.47345534963203"
    },
    {
      "id": "pt.ine.add.PTCONT.2034864",
      "street": "R DIREITA",
      "house": "91",
      "postcode": "2480-043",
      "city": "ARRIMAL",
      "lon": "-8.886144982976745",
      "lat": "39.481269473285614"
    },
    {
      "id": "pt.ine.add.PTCONT.2116992",
      "street": "R DIREITA",
      "house": "97",
      "postcode": "2480-043",
      "city": "ARRIMAL",
      "lon": "-8.886939995441418",
      "lat": "39.480624835155275"
    },
    {
      "id": "pt.ine.add.PTCONT.2122184",
      "street": "CANTO DAS CHOMARIAS",
      "house": "1",
      "postcode": "2480-043",
      "city": "ARRIMAL",
      "lon": "-8.885001875397613",
      "lat": "39.48197039852552"
    },
    {
      "id": "pt.ine.add.PTCONT.2144664",
      "street": "R DIREITA",
      "house": "85",
      "postcode": "2480-043",
      "city": "ARRIMAL",
      "lon": "-8.88544196207813",
      "lat": "39.48182344224028"
    },
    {
      "id": "pt.ine.add.PTCONT.2165546",
      "street": "R DIREITA",
      "house": "73",
      "postcode": "2480-043",
      "city": "ARRIMAL",
      "lon": "-8.884232496209341",
      "lat": "39.482840029126685"
    },
    {
      "id": "pt.ine.add.PTCONT.2227213",
      "street": "R VALE DA PIA",
      "house": "11",
      "postcode": "2480-044",
      "city": "ARRIMAL",
      "lon": "-8.893444024304596",
      "lat": "39.473791316024304"
    },
    {
      "id": "pt.ine.add.PTCONT.2255080",
      "street": "R DIREITA",
      "house": "77",
      "postcode": "2480-043",
      "city": "ARRIMAL",
      "lon": "-8.884381259554106",
      "lat": "39.482622903551885"
    }
  ]
}