{
  "data": {
    "distrito": "Leiria",
    "concelho": "Porto de Mós",
    "freguesia": "União das freguesias de Arrimal e Mendiga",
    "OBJECTID": 247,
    "BGRI2021": "10161600164",
    "DT21": "10",
    "DTMN21": "1016",
    "DTMNFR21": "101616",
    "DTMNFRSEC21": "101616001",
    "SECNUM21": "001",
    "SSNUM21": "64",
    "SECSSNUM21": "00164",
    "OBJECTID_1": 98684,
    "DT": "10",
    "CC": "16",
    "fr": "16",
    "SEC": "001",
    "SS": "64"
  },
  "addresses": [
    {
      "id": "pt.ine.add.PTCONT.1994454",
      "street": "R PRINCIPAL",
      "house": "36",
      "postcode": "2480-215",
      "city": "MENDIGA",
      "lon": "-8.847028678688673",
      "lat": "39.50117818348239"
    },
    {
      "id": "pt.ine.add.PTCONT.1994544",
      "street": "R BALSEIRAS",
      "house": "16",
      "postcode": "2480-215",
      "city": "MENDIGA",
      "lon": "-8.849039759552973",
      "lat": "39.500021948159386"
    },
    {
      "id": "pt.ine.add.PTCONT.2025279",
      "street": "R PRINCIPAL",
      "house": "56",
      "postcode": "2480-215",
      "city": "MENDIGA",
      "lon": "-8.847680170526127",
      "lat": "39.49894949120377"
    },
    {
      "id": "pt.ine.add.PTCONT.2040724",
      "street": "R BALSEIRAS",
      "house": "2",
      "postcode": "2480-215",
      "city": "MENDIGA",
      "lon": "-8.849052198803992",
      "lat": "39.498968071031356"
    },
    {
      "id": "pt.ine.add.PTCONT.2042922",
      "street": "R PRINCIPAL",
      "house": "62",
      "postcode": "2480-215",
      "city": "MENDIGA",
      "lon": "-8.848144248125884",
      "lat": "39.49885656958243"
    },
    {
      "id": "pt.ine.add.PTCONT.2051565",
      "street": "BC OUINCHOUSOS",
      "house": "3",
      "postcode": "2480-215",
      "city": "MENDIGA",
      "lon": "-8.847972641024825",
      "lat": "39.49912783015146"
    },
    {
      "id": "pt.ine.add.PTCONT.2064719",
      "street": "R PRINCIPAL",
      "house": "28",
      "postcode": "2480-215",
      "city": "MENDIGA",
      "lon": "-8.846758972811259",
      "lat": "39.50208953013024"
    },
    {
      "id": "pt.ine.add.PTCONT.2079989",
      "street": "R PRINCIPAL",
      "house": "34",
      "postcode": "2480-215",
      "city": "MENDIGA",
      "lon": "-8.846984849239789",
      "lat": "39.50143965097596"
    },
    {
      "id": "pt.ine.add.PTCONT.2081988",
      "street": "R TALISCAS",
      "house": "17",
      "postcode": "2480-215",
      "city": "MENDIGA",
      "lon": "-8.848707641521456",
      "lat": "39.50278008564783"
    },
    {
      "id": "pt.ine.add.PTCONT.2092186",
      "street": "R PRINCIPAL",
      "house": "14",
      "postcode": "2480-215",
      "city": "MENDIGA",
      "lon": "-8.845536466530547",
      "lat": "39.504195621025865"
    },
    {
      "id": "pt.ine.add.PTCONT.2098682",
      "street": "R PRINCIPAL",
      "house": "32",
      "postcode": "2480-215",
      "city": "MENDIGA",
      "lon": "-8.846905313872133",
      "lat": "39.50162027610895"
    },
    {
      "id": "pt.ine.add.PTCONT.2115541",
      "street": "R BALSEIRAS",
      "house": "6",
      "postcode": "2480-215",
      "city": "MENDIGA",
      "lon": "-8.848789164775596",
      "lat": "39.49939301207547"
    },
    {
      "id": "pt.ine.add.PTCONT.2144312",
      "street": "R BALSEIRAS",
      "house": "28",
      "postcode": "2480-215",
      "city": "MENDIGA",
      "lon": "-8.848870939618012",
      "lat": "39.501698259860234"
    },
    {
      "id": "pt.ine.add.PTCONT.2150167",
      "street": "R PRINCIPAL",
      "house": "22",
      "postcode": "2480-215",
      "city": "MENDIGA",
      "lon": "-8.846316255619254",
      "lat": "39.503137040067536"
    },
    {
      "id": "pt.ine.add.PTCONT.2152318",
      "street": "R BALSEIRAS",
      "house": "14",
      "postcode": "2480-215",
      "city": "MENDIGA",
      "lon": "-8.849070661664118",
      "lat": "39.49963446367631"
    },
    {
      "id": "pt.ine.add.PTCONT.2185064",
      "street": "R BALSEIRAS",
      "house": "22",
      "postcode": "2480-215",
      "city": "MENDIGA",
      "lon": "-8.848874250387082",
      "lat": "39.50088762392777"
    },
    {
      "id": "pt.ine.add.PTCONT.2197448",
      "street": "R BALSEIRAS",
      "house": "8",
      "postcode": "2480-215",
      "city": "MENDIGA",
      "lon": "-8.84890790995003",
      "lat": "39.49963546579981"
    },
    {
      "id": "pt.ine.add.PTCONT.2197449",
      "street": "R BALSEIRAS",
      "house": "8",
      "postcode": "2480-215",
      "city": "MENDIGA",
      "lon": "-8.84890790995003",
      "lat": "39.49963546579981"
    },
    {
      "id": "pt.ine.add.PTCONT.2205034",
      "street": "R PRINCIPAL",
      "house": "40",
      "postcode": "2480-215",
      "city": "MENDIGA",
      "lon": "-8.847572950736016",
      "lat": "39.50096768273917"
    },
    {
      "id": "pt.ine.add.PTCONT.2218722",
      "street": "R BALSEIRAS",
      "house": "14",
      "postcode": "2480-215",
      "city": "MENDIGA",
      "lon": "-8.848886322567374",
      "lat": "39.49979772185761"
    },
    {
      "id": "pt.ine.add.PTCONT.2220206",
      "street": "R PRINCIPAL",
      "house": "42",
      "postcode": "2480-215",
      "city": "MENDIGA",
      "lon": "-8.847280196928041",
      "lat": "39.50076232407903"
    },
    {
      "id": "pt.ine.add.PTCONT.2223016",
      "street": "R PRINCIPAL",
      "house": "44",
      "postcode": "2480-215",
      "city": "MENDIGA",
      "lon": "-8.847207864337584",
      "lat": "39.500510576825235"
    },
    {
      "id": "pt.ine.add.PTCONT.2225159",
      "street": "R GALEGAS",
      "house": "4",
      "postcode": "2480-215",
      "city": "MENDIGA",
      "lon": "-8.84866543350815",
      "lat": "39.498664219373595"
    },
    {
      "id": "pt.ine.add.PTCONT.2233619",
      "street": "R PRINCIPAL",
      "house": "48",
      "postcode": "2480-215",
      "city": "MENDIGA",
      "lon": "-8.847306407944709",
      "lat": "39.49991551996848"
    },
    {
      "id": "pt.ine.add.PTCONT.2234149",
      "street": "R PRINCIPAL",
      "house": "64",
      "postcode": "2480-215",
      "city": "MENDIGA",
      "lon": "-8.848189179201777",
      "lat": "39.49870317690399"
    },
    {
      "id": "pt.ine.add.PTCONT.2240298",
      "street": "R TALISLAS",
      "house": "3",
      "postcode": "2480-215",
      "city": "MENDIGA",
      "lon": "-8.84652825870593",
      "lat": "39.50454080582"
    },
    {
      "id": "pt.ine.add.PTCONT.2243207",
      "street": "R PRINCIPAL",
      "house": "30",
      "postcode": "2480-215",
      "city": "MENDIGA",
      "lon": "-8.846814705335484",
      "lat": "39.50185501019565"
    },
    {
      "id": "pt.ine.add.PTCONT.2250340",
      "street": "R PRINCIPAL",
      "house": "50",
      "postcode": "2480-215",
      "city": "MENDIGA",
      "lon": "-8.847281314103444",
      "lat": "39.4997355372692"
    },
    {
      "id": "pt.ine.add.PTCONT.2266588",
      "street": "R PRINCIPAL",
      "house": "66",
      "postcode": "2480-215",
      "city": "MENDIGA",
      "lon": "-8.84828144055508",
      "lat": "39.498630554668566"
    }
  ]
}