{
  "data": {
    "distrito": "Viseu",
    "concelho": "São João da Pesqueira",
    "freguesia": "Soutelo do Douro",
    "OBJECTID": 314,
    "BGRI2021": "18150900103",
    "DT21": "18",
    "DTMN21": "1815",
    "DTMNFR21": "181509",
    "DTMNFRSEC21": "181509001",
    "SECNUM21": "001",
    "SSNUM21": "03",
    "SECSSNUM21": "00103",
    "OBJECTID_1": 196053,
    "DT": "18",
    "CC": "15",
    "fr": "09",
    "SEC": "001",
    "SS": "03"
  },
  "addresses": [
    {
      "id": "pt.ine.add.PTCONT.5431399",
      "street": "R CABO VILA",
      "house": "63",
      "postcode": "5130-406",
      "city": "SOUTELO DO DOURO",
      "lon": "-7.432273450375599",
      "lat": "41.18711484009161"
    },
    {
      "id": "pt.ine.add.PTCONT.5435027",
      "street": "R ADRO",
      "house": "18",
      "postcode": "5130-406",
      "city": "SOUTELO DO DOURO",
      "lon": "-7.432874076380353",
      "lat": "41.18667728515541"
    },
    {
      "id": "pt.ine.add.PTCONT.5436938",
      "street": "TV PRAÇA",
      "house": "6",
      "postcode": "5130-406",
      "city": "SOUTELO DO DOURO",
      "lon": "-7.433086594416277",
      "lat": "41.1868676663824"
    },
    {
      "id": "pt.ine.add.PTCONT.5437997",
      "street": "R FORNO",
      "house": "10",
      "postcode": "5130-406",
      "city": "SOUTELO DO DOURO",
      "lon": "-7.432193189396624",
      "lat": "41.18681721134125"
    },
    {
      "id": "pt.ine.add.PTCONT.5449351",
      "street": "R FORNO",
      "house": "5",
      "postcode": "5130-406",
      "city": "SOUTELO DO DOURO",
      "lon": "-7.4325022055487056",
      "lat": "41.18690012986167"
    },
    {
      "id": "pt.ine.add.PTCONT.5453599",
      "street": "R CABO VILA",
      "house": "55",
      "postcode": "5130-406",
      "city": "SOUTELO DO DOURO",
      "lon": "-7.431843327220277",
      "lat": "41.18721126862954"
    },
    {
      "id": "pt.ine.add.PTCONT.5458931",
      "street": "R ADRO",
      "house": "24",
      "postcode": "5130-406",
      "city": "SOUTELO DO DOURO",
      "lon": "-7.433182133940395",
      "lat": "41.18685023854881"
    },
    {
      "id": "pt.ine.add.PTCONT.5460243",
      "street": "R ADRO",
      "house": "8",
      "postcode": "5130-406",
      "city": "SOUTELO DO DOURO",
      "lon": "-7.4322783467115885",
      "lat": "41.18665565303552"
    },
    {
      "id": "pt.ine.add.PTCONT.5460244",
      "street": "R CABO VILA",
      "house": "67",
      "postcode": "5130-406",
      "city": "SOUTELO DO DOURO",
      "lon": "-7.43236908646067",
      "lat": "41.18708840927032"
    },
    {
      "id": "pt.ine.add.PTCONT.5466014",
      "street": "R CABO VILA",
      "house": "61",
      "postcode": "5130-406",
      "city": "SOUTELO DO DOURO",
      "lon": "-7.432153497059262",
      "lat": "41.18718614409066"
    },
    {
      "id": "pt.ine.add.PTCONT.5471099",
      "street": "R ADRO",
      "house": "12",
      "postcode": "5130-406",
      "city": "SOUTELO DO DOURO",
      "lon": "-7.432564484992242",
      "lat": "41.18664838964665"
    },
    {
      "id": "pt.ine.add.PTCONT.5474150",
      "street": "R FORNO",
      "house": "12",
      "postcode": "5130-406",
      "city": "SOUTELO DO DOURO",
      "lon": "-7.432096209202457",
      "lat": "41.18696969336374"
    },
    {
      "id": "pt.ine.add.PTCONT.5480658",
      "street": "TV CABO VILA",
      "house": "7",
      "postcode": "5130-406",
      "city": "SOUTELO DO DOURO",
      "lon": "-7.431714241178502",
      "lat": "41.1870213932672"
    },
    {
      "id": "pt.ine.add.PTCONT.5481406",
      "street": "R FORNO",
      "house": "8",
      "postcode": "5130-406",
      "city": "SOUTELO DO DOURO",
      "lon": "-7.432406281823977",
      "lat": "41.186953571800785"
    },
    {
      "id": "pt.ine.add.PTCONT.5482424",
      "street": "TV ADRO",
      "house": "6",
      "postcode": "5130-406",
      "city": "SOUTELO DO DOURO",
      "lon": "-7.433468656372065",
      "lat": "41.18680695823996"
    },
    {
      "id": "pt.ine.add.PTCONT.5486049",
      "street": "R FORNO",
      "house": "11",
      "postcode": "5130-406",
      "city": "SOUTELO DO DOURO",
      "lon": "-7.432312469983351",
      "lat": "41.18680893296668"
    },
    {
      "id": "pt.ine.add.PTCONT.5486050",
      "street": "R FORNO",
      "house": "9",
      "postcode": "5130-406",
      "city": "SOUTELO DO DOURO",
      "lon": "-7.432360239806967",
      "lat": "41.18680021938134"
    },
    {
      "id": "pt.ine.add.PTCONT.5493365",
      "street": "QLHA QUELHA FORNO",
      "house": "4",
      "postcode": "5130-406",
      "city": "SOUTELO DO DOURO",
      "lon": "-7.4324766409732",
      "lat": "41.187062050876"
    },
    {
      "id": "pt.ine.add.PTCONT.5495933",
      "street": "R FORNO",
      "house": "7",
      "postcode": "5130-406",
      "city": "SOUTELO DO DOURO",
      "lon": "-7.4323715823031815",
      "lat": "41.18685431390715"
    },
    {
      "id": "pt.ine.add.PTCONT.5498516",
      "street": "TV PRAÇA",
      "house": "4",
      "postcode": "5130-406",
      "city": "SOUTELO DO DOURO",
      "lon": "-7.432979711830644",
      "lat": "41.18683099966761"
    },
    {
      "id": "pt.ine.add.PTCONT.5505010",
      "street": "R FORNO",
      "house": "3",
      "postcode": "5130-406",
      "city": "SOUTELO DO DOURO",
      "lon": "-7.432537097232904",
      "lat": "41.18698138038071"
    },
    {
      "id": "pt.ine.add.PTCONT.5523316",
      "street": "R FORNO",
      "house": "7",
      "postcode": "5130-406",
      "city": "SOUTELO DO DOURO",
      "lon": "-7.43223875097423",
      "lat": "41.18701558216164"
    },
    {
      "id": "pt.ine.add.PTCONT.5527488",
      "street": "R FORNO",
      "house": "6",
      "postcode": "5130-406",
      "city": "SOUTELO DO DOURO",
      "lon": "-7.432432326450679",
      "lat": "41.18674663245882"
    },
    {
      "id": "pt.ine.add.PTCONT.5539231",
      "street": "R ADRO",
      "house": "14",
      "postcode": "5130-406",
      "city": "SOUTELO DO DOURO",
      "lon": "-7.432647818039045",
      "lat": "41.186657900763144"
    },
    {
      "id": "pt.ine.add.PTCONT.5542706",
      "street": "TV CABO VILA",
      "house": "9",
      "postcode": "5130-406",
      "city": "SOUTELO DO DOURO",
      "lon": "-7.431760570066692",
      "lat": "41.18714773492921"
    },
    {
      "id": "pt.ine.add.PTCONT.5548163",
      "street": "QLHA QUELHA FORNO",
      "house": "",
      "postcode": "5130-406",
      "city": "SOUTELO DO DOURO",
      "lon": "-7.432441365385449",
      "lat": "41.187016815011674"
    },
    {
      "id": "pt.ine.add.PTCONT.5548170",
      "street": "TV ADRO",
      "house": "2",
      "postcode": "5130-406",
      "city": "SOUTELO DO DOURO",
      "lon": "-7.433301606208697",
      "lat": "41.18682395180978"
    },
    {
      "id": "pt.ine.add.PTCONT.5560631",
      "street": "R CABO VILA",
      "house": "1",
      "postcode": "5130-406",
      "city": "SOUTELO DO DOURO",
      "lon": "-7.432584099435827",
      "lat": "41.187044696048574"
    },
    {
      "id": "pt.ine.add.PTCONT.5571866",
      "street": "R FORNO",
      "house": "13",
      "postcode": "5130-406",
      "city": "SOUTELO DO DOURO",
      "lon": "-7.4322771946427215",
      "lat": "41.18676369705205"
    },
    {
      "id": "pt.ine.add.PTCONT.5595841",
      "street": "PC 25 ABRIL",
      "house": "2",
      "postcode": "5130-406",
      "city": "SOUTELO DO DOURO",
      "lon": "-7.432703860134393",
      "lat": "41.18699139893036"
    },
    {
      "id": "pt.ine.add.PTCONT.5595842",
      "street": "R ADRO",
      "house": "22",
      "postcode": "5130-406",
      "city": "SOUTELO DO DOURO",
      "lon": "-7.43311119849217",
      "lat": "41.18679578191051"
    },
    {
      "id": "pt.ine.add.PTCONT.5604879",
      "street": "R ADRO",
      "house": "26",
      "postcode": "5130-406",
      "city": "SOUTELO DO DOURO",
      "lon": "-7.433205203840215",
      "lat": "41.186922412769206"
    },
    {
      "id": "pt.ine.add.PTCONT.5612535",
      "street": "R ADRO",
      "house": "10",
      "postcode": "5130-406",
      "city": "SOUTELO DO DOURO",
      "lon": "-7.432469137564389",
      "lat": "41.18664780963249"
    },
    {
      "id": "pt.ine.add.PTCONT.5612536",
      "street": "R FORNO",
      "house": "9",
      "postcode": "5130-406",
      "city": "SOUTELO DO DOURO",
      "lon": "-7.432227408561555",
      "lat": "41.18696148762491"
    },
    {
      "id": "pt.ine.add.PTCONT.5613692",
      "street": "R FORNO",
      "house": "4",
      "postcode": "5130-406",
      "city": "SOUTELO DO DOURO",
      "lon": "-7.432693956582674",
      "lat": "41.18680224940724"
    },
    {
      "id": "pt.ine.add.PTCONT.5627331",
      "street": "R ADRO",
      "house": "4",
      "postcode": "5130-406",
      "city": "SOUTELO DO DOURO",
      "lon": "-7.431860721401159",
      "lat": "41.1866981321906"
    },
    {
      "id": "pt.ine.add.PTCONT.5633235",
      "street": "QLHA FORNO",
      "house": "5",
      "postcode": "5130-406",
      "city": "SOUTELO DO DOURO",
      "lon": "-7.432213377733828",
      "lat": "41.18715949577433"
    },
    {
      "id": "pt.ine.add.PTCONT.5635879",
      "street": "R CABO VILA",
      "house": "59",
      "postcode": "5130-406",
      "city": "SOUTELO DO DOURO",
      "lon": "-7.4320698753128225",
      "lat": "41.18720364361323"
    },
    {
      "id": "pt.ine.add.PTCONT.5653021",
      "street": "R PRAÇA 25 ABRIL",
      "house": "7",
      "postcode": "5130-406",
      "city": "SOUTELO DO DOURO",
      "lon": "-7.432765755142311",
      "lat": "41.18677567328044"
    },
    {
      "id": "pt.ine.add.PTCONT.5655696",
      "street": "R CABO VILA",
      "house": "",
      "postcode": "5130-406",
      "city": "SOUTELO DO DOURO",
      "lon": "-7.432499998097516",
      "lat": "41.187107214226025"
    },
    {
      "id": "pt.ine.add.PTCONT.5664346",
      "street": "R PACO",
      "house": "1",
      "postcode": "5130-406",
      "city": "SOUTELO DO DOURO",
      "lon": "-7.4334082014124006",
      "lat": "41.186887629237106"
    },
    {
      "id": "pt.ine.add.PTCONT.5669006",
      "street": "TV ADRO",
      "house": "4",
      "postcode": "5130-406",
      "city": "SOUTELO DO DOURO",
      "lon": "-7.433385323009491",
      "lat": "41.186797447715215"
    }
  ]
}