{
  "data": {
    "distrito": "Lisboa",
    "concelho": "Lourinhã",
    "freguesia": "União das freguesias de São Bartolomeu dos Galegos e Moledo",
    "OBJECTID": 530,
    "BGRI2021": "11081400105",
    "DT21": "11",
    "DTMN21": "1108",
    "DTMNFR21": "110814",
    "DTMNFRSEC21": "110814001",
    "SECNUM21": "001",
    "SSNUM21": "05",
    "SECSSNUM21": "00105",
    "OBJECTID_1": 107194,
    "DT": "11",
    "CC": "08",
    "fr": "14",
    "SEC": "001",
    "SS": "05"
  },
  "addresses": [
    {
      "id": "pt.ine.add.PTCONT.2327269",
      "street": "LG FUNDACAO NACIONAL",
      "house": "2",
      "postcode": "2530-520",
      "city": "MOLEDO LNH",
      "lon": "-9.257381464834673",
      "lat": "39.28287860960287"
    },
    {
      "id": "pt.ine.add.PTCONT.2352724",
      "street": "LG FUNDACAO NACIONAL",
      "house": "1",
      "postcode": "2530-520",
      "city": "MOLEDO LNH",
      "lon": "-9.257195770836098",
      "lat": "39.28286238867349"
    },
    {
      "id": "pt.ine.add.PTCONT.2361674",
      "street": "R D PEDRO I",
      "house": "33",
      "postcode": "2530-552",
      "city": "MOLEDO LNH",
      "lon": "-9.257413567938247",
      "lat": "39.28343673148938"
    },
    {
      "id": "pt.ine.add.PTCONT.2642976",
      "street": "R LUSIADAS",
      "house": "4",
      "postcode": "2530-553",
      "city": "MOLEDO LNH",
      "lon": "-9.257407664343551",
      "lat": "39.28306750289727"
    },
    {
      "id": "pt.ine.add.PTCONT.2722024",
      "street": "R D PEDRO I",
      "house": "41",
      "postcode": "2530-552",
      "city": "MOLEDO LNH",
      "lon": "-9.257627114544114",
      "lat": "39.28302034868954"
    },
    {
      "id": "pt.ine.add.PTCONT.2855288",
      "street": "R D PEDRO I",
      "house": "37",
      "postcode": "2530-552",
      "city": "MOLEDO LNH",
      "lon": "-9.257560755318984",
      "lat": "39.28321914286039"
    },
    {
      "id": "pt.ine.add.PTCONT.2936923",
      "street": "LG FUNDACAO NACIONAL",
      "house": "3",
      "postcode": "2530-520",
      "city": "MOLEDO LNH",
      "lon": "-9.257542255089566",
      "lat": "39.28278698715816"
    },
    {
      "id": "pt.ine.add.PTCONT.3038953",
      "street": "R D PEDRO I",
      "house": "39",
      "postcode": "2530-552",
      "city": "MOLEDO LNH",
      "lon": "-9.257605522895044",
      "lat": "39.28311963385932"
    },
    {
      "id": "pt.ine.add.PTCONT.3418401",
      "street": "LG FUNDACAO NACIONAL",
      "house": "4",
      "postcode": "2530-520",
      "city": "MOLEDO LNH",
      "lon": "-9.257647409967914",
      "lat": "39.28284001333761"
    }
  ]
}