{
  "data": {
    "distrito": "Porto",
    "concelho": "Amarante",
    "freguesia": "Vila Caiz",
    "OBJECTID": 1132,
    "BGRI2021": "13013800207",
    "DT21": "13",
    "DTMN21": "1301",
    "DTMNFR21": "130138",
    "DTMNFRSEC21": "130138002",
    "SECNUM21": "002",
    "SSNUM21": "07",
    "SECSSNUM21": "00207",
    "OBJECTID_1": 126293,
    "DT": "13",
    "CC": "01",
    "fr": "38",
    "SEC": "002",
    "SS": "07"
  },
  "addresses": [
    {
      "id": "pt.ine.add.PTCONT.3546279",
      "street": "R SELALA",
      "house": "185",
      "postcode": "4600-791",
      "city": "VILA CAIZ",
      "lon": "-8.151464154881241",
      "lat": "41.22954900658993"
    },
    {
      "id": "pt.ine.add.PTCONT.3546300",
      "street": "R CARVALHAL DE BAIXO",
      "house": "34",
      "postcode": "4600-784",
      "city": "VILA CAIZ",
      "lon": "-8.147194885677532",
      "lat": "41.232512013979985"
    },
    {
      "id": "pt.ine.add.PTCONT.3565966",
      "street": "R MONTE",
      "house": "41",
      "postcode": "4600-784",
      "city": "VILA CAIZ",
      "lon": "-8.147528743072348",
      "lat": "41.23198072062941"
    },
    {
      "id": "pt.ine.add.PTCONT.3570894",
      "street": "R MONTE",
      "house": "41",
      "postcode": "4600-784",
      "city": "VILA CAIZ",
      "lon": "-8.147528743072348",
      "lat": "41.23198072062941"
    },
    {
      "id": "pt.ine.add.PTCONT.3591322",
      "street": "R PENA",
      "house": "",
      "postcode": "4600-787",
      "city": "VILA CAIZ",
      "lon": "-8.144189325214747",
      "lat": "41.23373692318472"
    },
    {
      "id": "pt.ine.add.PTCONT.3617829",
      "street": "R MONTE",
      "house": "35",
      "postcode": "4600-784",
      "city": "VILA CAIZ",
      "lon": "-8.147445295459645",
      "lat": "41.232187829302376"
    },
    {
      "id": "pt.ine.add.PTCONT.3617830",
      "street": "R MONTE",
      "house": "29",
      "postcode": "4600-784",
      "city": "VILA CAIZ",
      "lon": "-8.147445295459645",
      "lat": "41.232187829302376"
    },
    {
      "id": "pt.ine.add.PTCONT.3617831",
      "street": "R ESPORÃ•ES",
      "house": "",
      "postcode": "4600-791",
      "city": "VILA CAIZ",
      "lon": "-8.145571620907996",
      "lat": "41.226695438965876"
    },
    {
      "id": "pt.ine.add.PTCONT.3623652",
      "street": "R MONTE",
      "house": "121",
      "postcode": "4600-784",
      "city": "VILA CAIZ",
      "lon": "-8.14800578379408",
      "lat": "41.231710531733995"
    },
    {
      "id": "pt.ine.add.PTCONT.3623653",
      "street": "R MONTE",
      "house": "121",
      "postcode": "4600-784",
      "city": "VILA CAIZ",
      "lon": "-8.14800578379408",
      "lat": "41.231710531733995"
    },
    {
      "id": "pt.ine.add.PTCONT.3666997",
      "street": "R BARROCA",
      "house": "112",
      "postcode": "4600-784",
      "city": "VILA CAIZ",
      "lon": "-8.1495204279149",
      "lat": "41.23111604380629"
    },
    {
      "id": "pt.ine.add.PTCONT.3668998",
      "street": "R CARVALHAL DE BAIXO",
      "house": "",
      "postcode": "4600-784",
      "city": "VILA CAIZ",
      "lon": "-8.148793158179165",
      "lat": "41.23237674329975"
    },
    {
      "id": "pt.ine.add.PTCONT.3687850",
      "street": "R CARVALHAL",
      "house": "645",
      "postcode": "4600-784",
      "city": "VILA CAIZ",
      "lon": "-8.151428710370993",
      "lat": "41.23075558506824"
    },
    {
      "id": "pt.ine.add.PTCONT.3694479",
      "street": "R FURNAS",
      "house": "128",
      "postcode": "4600-791",
      "city": "VILA CAIZ",
      "lon": "-8.151702883294247",
      "lat": "41.230206280385495"
    },
    {
      "id": "pt.ine.add.PTCONT.3702251",
      "street": "R SELALA",
      "house": "217",
      "postcode": "4600-791",
      "city": "VILA CAIZ",
      "lon": "-8.152239277849075",
      "lat": "41.22907165378457"
    },
    {
      "id": "pt.ine.add.PTCONT.3707891",
      "street": "R SELALA",
      "house": "3",
      "postcode": "4600-791",
      "city": "VILA CAIZ",
      "lon": "-8.152251635604854",
      "lat": "41.23054835289811"
    },
    {
      "id": "pt.ine.add.PTCONT.3707892",
      "street": "R SELALA",
      "house": "3",
      "postcode": "4600-791",
      "city": "VILA CAIZ",
      "lon": "-8.152251635604854",
      "lat": "41.23054835289811"
    },
    {
      "id": "pt.ine.add.PTCONT.3712951",
      "street": "R SELALA",
      "house": "3",
      "postcode": "4600-791",
      "city": "VILA CAIZ",
      "lon": "-8.152251635604854",
      "lat": "41.23054835289811"
    },
    {
      "id": "pt.ine.add.PTCONT.3727629",
      "street": "R CARVALHAL",
      "house": "645",
      "postcode": "4600-784",
      "city": "VILA CAIZ",
      "lon": "-8.150987448288083",
      "lat": "41.23093573990249"
    },
    {
      "id": "pt.ine.add.PTCONT.3727630",
      "street": "R CARVALHAL",
      "house": "645",
      "postcode": "4600-784",
      "city": "VILA CAIZ",
      "lon": "-8.150987448288083",
      "lat": "41.23093573990249"
    },
    {
      "id": "pt.ine.add.PTCONT.3759641",
      "street": "R BARROCA",
      "house": "206",
      "postcode": "4600-784",
      "city": "VILA CAIZ",
      "lon": "-8.149174844320102",
      "lat": "41.23238569494866"
    },
    {
      "id": "pt.ine.add.PTCONT.3777523",
      "street": "R PICADEIRO",
      "house": "",
      "postcode": "4600-787",
      "city": "VILA CAIZ",
      "lon": "-8.144903869372195",
      "lat": "41.22746087307942"
    },
    {
      "id": "pt.ine.add.PTCONT.3790097",
      "street": "R CARVALHAL",
      "house": "443",
      "postcode": "4600-784",
      "city": "VILA CAIZ",
      "lon": "-8.149723521891605",
      "lat": "41.23241262990089"
    },
    {
      "id": "pt.ine.add.PTCONT.3792863",
      "street": "R SELALA",
      "house": "45",
      "postcode": "4600-791",
      "city": "VILA CAIZ",
      "lon": "-8.152502066130976",
      "lat": "41.23040424260339"
    },
    {
      "id": "pt.ine.add.PTCONT.3815102",
      "street": "R MONTE",
      "house": "28",
      "postcode": "4600-784",
      "city": "VILA CAIZ",
      "lon": "-8.147898551949629",
      "lat": "41.23222378906397"
    },
    {
      "id": "pt.ine.add.PTCONT.3817665",
      "street": "R CARVALHAL DE BAIXO",
      "house": "24",
      "postcode": "4600-784",
      "city": "VILA CAIZ",
      "lon": "-8.149926289285274",
      "lat": "41.23240359619356"
    },
    {
      "id": "pt.ine.add.PTCONT.3869053",
      "street": "R BARROCA",
      "house": "6",
      "postcode": "4600-784",
      "city": "VILA CAIZ",
      "lon": "-8.150796685747226",
      "lat": "41.23121490183986"
    },
    {
      "id": "pt.ine.add.PTCONT.3876201",
      "street": "R CARVALHAL DE BAIXO",
      "house": "",
      "postcode": "4600-784",
      "city": "VILA CAIZ",
      "lon": "-8.146968460060343",
      "lat": "41.23345748985473"
    },
    {
      "id": "pt.ine.add.PTCONT.3876202",
      "street": "R SELALA",
      "house": "206",
      "postcode": "4600-791",
      "city": "VILA CAIZ",
      "lon": "-8.152119921553576",
      "lat": "41.22877453241758"
    },
    {
      "id": "pt.ine.add.PTCONT.3887216",
      "street": "R CARVALHAL DE BAIXO",
      "house": "50",
      "postcode": "4600-784",
      "city": "VILA CAIZ",
      "lon": "-8.146944380395365",
      "lat": "41.23239498882534"
    },
    {
      "id": "pt.ine.add.PTCONT.3902631",
      "street": "R CARVALHAL DE BAIXO",
      "house": "96",
      "postcode": "4600-784",
      "city": "VILA CAIZ",
      "lon": "-8.146598479228114",
      "lat": "41.23239502986787"
    },
    {
      "id": "pt.ine.add.PTCONT.3902731",
      "street": "R CARVALHAL DE BAIXO",
      "house": "96",
      "postcode": "4600-784",
      "city": "VILA CAIZ",
      "lon": "-8.146598479228114",
      "lat": "41.23239502986787"
    },
    {
      "id": "pt.ine.add.PTCONT.3926904",
      "street": "R DE SELALA",
      "house": "265",
      "postcode": "4600-791",
      "city": "VILA CAIZ",
      "lon": "-8.152036396420996",
      "lat": "41.22864848629729"
    },
    {
      "id": "pt.ine.add.PTCONT.3944491",
      "street": "R CARVALHAL DE BAIXO",
      "house": "252",
      "postcode": "4600-784",
      "city": "VILA CAIZ",
      "lon": "-8.14730228903949",
      "lat": "41.23276412037918"
    },
    {
      "id": "pt.ine.add.PTCONT.3966100",
      "street": "R CARVALHAL",
      "house": "583",
      "postcode": "4600-784",
      "city": "VILA CAIZ",
      "lon": "-8.151059051860924",
      "lat": "41.23107979713926"
    },
    {
      "id": "pt.ine.add.PTCONT.3976644",
      "street": "R CARVALHAL BAIXO",
      "house": "238",
      "postcode": "4600-784",
      "city": "VILA CAIZ",
      "lon": "-8.147493100555106",
      "lat": "41.23262002836618"
    },
    {
      "id": "pt.ine.add.PTCONT.3976645",
      "street": "R CARVALHAL BAIXO",
      "house": "228",
      "postcode": "4600-784",
      "city": "VILA CAIZ",
      "lon": "-8.147493100555106",
      "lat": "41.23262002836618"
    },
    {
      "id": "pt.ine.add.PTCONT.3991628",
      "street": "R CARVALHAL DE BAIXO",
      "house": "52",
      "postcode": "4600-784",
      "city": "VILA CAIZ",
      "lon": "-8.146729711154531",
      "lat": "41.23253007848824"
    },
    {
      "id": "pt.ine.add.PTCONT.3991629",
      "street": "R CARVALHAL BAIXO",
      "house": "66",
      "postcode": "4600-784",
      "city": "VILA CAIZ",
      "lon": "-8.146729711154531",
      "lat": "41.23253007848824"
    },
    {
      "id": "pt.ine.add.PTCONT.3997938",
      "street": "R BARROCA",
      "house": "146",
      "postcode": "4600-784",
      "city": "VILA CAIZ",
      "lon": "-8.149747219620561",
      "lat": "41.231791331722796"
    },
    {
      "id": "pt.ine.add.PTCONT.3997939",
      "street": "R BARROCA",
      "house": "146",
      "postcode": "4600-784",
      "city": "VILA CAIZ",
      "lon": "-8.149747219620561",
      "lat": "41.231791331722796"
    },
    {
      "id": "pt.ine.add.PTCONT.3997942",
      "street": "TV CARVALHAL DE BAIXO",
      "house": "77",
      "postcode": "4600-784",
      "city": "VILA CAIZ",
      "lon": "-8.146777523040763",
      "lat": "41.23301630344541"
    },
    {
      "id": "pt.ine.add.PTCONT.4011246",
      "street": "R SELALA",
      "house": "",
      "postcode": "4600-791",
      "city": "VILA CAIZ",
      "lon": "-8.152609315188826",
      "lat": "41.23008007060043"
    },
    {
      "id": "pt.ine.add.PTCONT.4025795",
      "street": "R BARROCA",
      "house": "198",
      "postcode": "4600-784",
      "city": "VILA CAIZ",
      "lon": "-8.149282157433914",
      "lat": "41.2322416115817"
    },
    {
      "id": "pt.ine.add.PTCONT.4030583",
      "street": "R CARVALHAL BAIXO",
      "house": "71",
      "postcode": "4600-784",
      "city": "VILA CAIZ",
      "lon": "-8.146586673662206",
      "lat": "41.23298931313114"
    },
    {
      "id": "pt.ine.add.PTCONT.4043827",
      "street": "R MONTE",
      "house": "168",
      "postcode": "4600-784",
      "city": "VILA CAIZ",
      "lon": "-8.148160932195522",
      "lat": "41.23210669953176"
    },
    {
      "id": "pt.ine.add.PTCONT.4051830",
      "street": "R SELALA",
      "house": "205",
      "postcode": "4600-791",
      "city": "VILA CAIZ",
      "lon": "-8.152358595609469",
      "lat": "41.22923371087575"
    },
    {
      "id": "pt.ine.add.PTCONT.4070233",
      "street": "R MONTE",
      "house": "123",
      "postcode": "4600-784",
      "city": "VILA CAIZ",
      "lon": "-8.148649900886506",
      "lat": "41.231845510686334"
    },
    {
      "id": "pt.ine.add.PTCONT.4102917",
      "street": "R FURNAS",
      "house": "130",
      "postcode": "4600-791",
      "city": "VILA CAIZ",
      "lon": "-8.150713061014201",
      "lat": "41.23071967960679"
    },
    {
      "id": "pt.ine.add.PTCONT.4110208",
      "street": "R PICADEIRO",
      "house": "303",
      "postcode": "4600-787",
      "city": "VILA CAIZ",
      "lon": "-8.144474840805668",
      "lat": "41.22938783163927"
    },
    {
      "id": "pt.ine.add.PTCONT.4128731",
      "street": "TV CARVALHAL DE BAIXO",
      "house": "63",
      "postcode": "4600-784",
      "city": "VILA CAIZ",
      "lon": "-8.146729756011421",
      "lat": "41.23274618098707"
    },
    {
      "id": "pt.ine.add.PTCONT.4148871",
      "street": "R CARVALHAL DE BAIXO",
      "house": "113",
      "postcode": "4600-784",
      "city": "VILA CAIZ",
      "lon": "-8.14630030485702",
      "lat": "41.232476102855465"
    },
    {
      "id": "pt.ine.add.PTCONT.4155407",
      "street": "R FURNAS",
      "house": "140",
      "postcode": "4600-791",
      "city": "VILA CAIZ",
      "lon": "-8.151726806722198",
      "lat": "41.23044939193413"
    },
    {
      "id": "pt.ine.add.PTCONT.4169346",
      "street": "R CARVALHAL DE BAIXO",
      "house": "276",
      "postcode": "4600-784",
      "city": "VILA CAIZ",
      "lon": "-8.147004169156123",
      "lat": "41.233106319021275"
    },
    {
      "id": "pt.ine.add.PTCONT.4211283",
      "street": "R MONTE",
      "house": "188",
      "postcode": "4600-784",
      "city": "VILA CAIZ",
      "lon": "-8.148005924836527",
      "lat": "41.23233182648148"
    },
    {
      "id": "pt.ine.add.PTCONT.4245755",
      "street": "R CARVALHAL DE BAIXO",
      "house": "",
      "postcode": "4600-784",
      "city": "VILA CAIZ",
      "lon": "-8.147207120920264",
      "lat": "41.233943691425026"
    },
    {
      "id": "pt.ine.add.PTCONT.4284632",
      "street": "R PENA",
      "house": "",
      "postcode": "4600-787",
      "city": "VILA CAIZ",
      "lon": "-8.144970298346104",
      "lat": "41.2360626746818"
    },
    {
      "id": "pt.ine.add.PTCONT.4346059",
      "street": "R BARROCA",
      "house": "42",
      "postcode": "4600-784",
      "city": "VILA CAIZ",
      "lon": "-8.149973773012585",
      "lat": "41.231521170587996"
    },
    {
      "id": "pt.ine.add.PTCONT.4365552",
      "street": "R CARVALHAL DE BAIXO",
      "house": "79",
      "postcode": "4600-784",
      "city": "VILA CAIZ",
      "lon": "-8.146348057205056",
      "lat": "41.23268319561023"
    },
    {
      "id": "pt.ine.add.PTCONT.4377613",
      "street": "R CARVALHAL",
      "house": "661",
      "postcode": "4600-784",
      "city": "VILA CAIZ",
      "lon": "-8.151810374609342",
      "lat": "41.23071950661797"
    }
  ]
}