{
  "data": {
    "distrito": "Setúbal",
    "concelho": "Moita",
    "freguesia": "União das freguesias de Baixa da Banheira e Vale da Amoreira",
    "OBJECTID": 112,
    "BGRI2021": "15060701003",
    "DT21": "15",
    "DTMN21": "1506",
    "DTMNFR21": "150607",
    "DTMNFRSEC21": "150607010",
    "SECNUM21": "010",
    "SSNUM21": "03",
    "SECSSNUM21": "01003",
    "OBJECTID_1": 163781,
    "DT": "15",
    "CC": "06",
    "fr": "07",
    "SEC": "010",
    "SS": "03"
  },
  "addresses": [
    {
      "id": "pt.ine.add.PTCONT.4696687",
      "street": "R LIBERDADE",
      "house": "74",
      "postcode": "2835-083",
      "city": "BAIXA DA BANHEIRA",
      "lon": "-9.045217305354079",
      "lat": "38.65603579787817"
    },
    {
      "id": "pt.ine.add.PTCONT.4868888",
      "street": "R LIBERDADE",
      "house": "76",
      "postcode": "2835-083",
      "city": "BAIXA DA BANHEIRA",
      "lon": "-9.045251367437341",
      "lat": "38.6559943061067"
    },
    {
      "id": "pt.ine.add.PTCONT.4965237",
      "street": "R LIBERDADE",
      "house": "82",
      "postcode": "2835-083",
      "city": "BAIXA DA BANHEIRA",
      "lon": "-9.045301701562408",
      "lat": "38.6558506777795"
    },
    {
      "id": "pt.ine.add.PTCONT.4986925",
      "street": "R S FRANCISCO DE ASSIS",
      "house": "20",
      "postcode": "2835-159",
      "city": "BAIXA DA BANHEIRA",
      "lon": "-9.04515296790263",
      "lat": "38.6563450047732"
    },
    {
      "id": "pt.ine.add.PTCONT.4986926",
      "street": "R S FRANCISCO DE ASSIS",
      "house": "20",
      "postcode": "2835-159",
      "city": "BAIXA DA BANHEIRA",
      "lon": "-9.04515296790263",
      "lat": "38.6563450047732"
    },
    {
      "id": "pt.ine.add.PTCONT.4990441",
      "street": "R LIBERDADE",
      "house": "68",
      "postcode": "2835-083",
      "city": "BAIXA DA BANHEIRA",
      "lon": "-9.045143596284456",
      "lat": "38.65624385010116"
    },
    {
      "id": "pt.ine.add.PTCONT.5045544",
      "street": "R LIBERDADE",
      "house": "78",
      "postcode": "2835-083",
      "city": "BAIXA DA BANHEIRA",
      "lon": "-9.045275355687224",
      "lat": "38.65594503247696"
    },
    {
      "id": "pt.ine.add.PTCONT.5049202",
      "street": "R LIBERDADE",
      "house": "72",
      "postcode": "2835-083",
      "city": "BAIXA DA BANHEIRA",
      "lon": "-9.045172949412944",
      "lat": "38.65617145969048"
    },
    {
      "id": "pt.ine.add.PTCONT.5049203",
      "street": "R CLUBE UNIAO BANHEIRENSE O CHINQUILHO",
      "house": "15",
      "postcode": "2835-078",
      "city": "BAIXA DA BANHEIRA",
      "lon": "-9.045401961284771",
      "lat": "38.65577569219586"
    },
    {
      "id": "pt.ine.add.PTCONT.5049204",
      "street": "R CLUBE UNIAO BANHEIRENSE O CHINQUILHO",
      "house": "13",
      "postcode": "2835-078",
      "city": "BAIXA DA BANHEIRA",
      "lon": "-9.045401961284771",
      "lat": "38.65577569219586"
    },
    {
      "id": "pt.ine.add.PTCONT.5051669",
      "street": "R CLUBE UNIAO BANHEIRENSE O CHINQUILHO",
      "house": "13",
      "postcode": "2835-078",
      "city": "BAIXA DA BANHEIRA",
      "lon": "-9.045401961284771",
      "lat": "38.65577569219586"
    },
    {
      "id": "pt.ine.add.PTCONT.5051740",
      "street": "R CLUBE UNIAO BANHEIRENSE O CHINQUILHO",
      "house": "15",
      "postcode": "2835-078",
      "city": "BAIXA DA BANHEIRA",
      "lon": "-9.045401961284771",
      "lat": "38.65577569219586"
    },
    {
      "id": "pt.ine.add.PTCONT.5130774",
      "street": "R LIBERDADE",
      "house": "82",
      "postcode": "2835-083",
      "city": "BAIXA DA BANHEIRA",
      "lon": "-9.045301701562408",
      "lat": "38.6558506777795"
    }
  ]
}