{
  "data": {
    "distrito": "Lisboa",
    "concelho": "Sintra",
    "freguesia": "Algueir√£o-Mem Martins",
    "OBJECTID": 2319,
    "BGRI2021": "11110204201",
    "DT21": "11",
    "DTMN21": "1111",
    "DTMNFR21": "111102",
    "DTMNFRSEC21": "111102042",
    "SECNUM21": "042",
    "SSNUM21": "01",
    "SECSSNUM21": "04201",
    "OBJECTID_1": 114066,
    "DT": "11",
    "CC": "11",
    "fr": "02",
    "SEC": "042",
    "SS": "01"
  },
  "addresses": [
    {
      "id": "pt.ine.add.PTCONT.2270742",
      "street": "R MORES",
      "house": "41",
      "postcode": "2725-098",
      "city": "MEM MARTINS",
      "lon": "-9.339198680487279",
      "lat": "38.80235057717962"
    },
    {
      "id": "pt.ine.add.PTCONT.2270743",
      "street": "R MORES",
      "house": "41",
      "postcode": "2725-098",
      "city": "MEM MARTINS",
      "lon": "-9.339198680487279",
      "lat": "38.80235057717962"
    },
    {
      "id": "pt.ine.add.PTCONT.2270744",
      "street": "R MORES",
      "house": "41",
      "postcode": "2725-098",
      "city": "MEM MARTINS",
      "lon": "-9.339198680487279",
      "lat": "38.80235057717962"
    },
    {
      "id": "pt.ine.add.PTCONT.2270745",
      "street": "R MORES",
      "house": "41",
      "postcode": "2725-098",
      "city": "MEM MARTINS",
      "lon": "-9.339198680487279",
      "lat": "38.80235057717962"
    },
    {
      "id": "pt.ine.add.PTCONT.2270746",
      "street": "R MORES",
      "house": "41",
      "postcode": "2725-098",
      "city": "MEM MARTINS",
      "lon": "-9.339198680487279",
      "lat": "38.80235057717962"
    },
    {
      "id": "pt.ine.add.PTCONT.2270747",
      "street": "R MORES",
      "house": "41",
      "postcode": "2725-098",
      "city": "MEM MARTINS",
      "lon": "-9.339198680487279",
      "lat": "38.80235057717962"
    },
    {
      "id": "pt.ine.add.PTCONT.2270748",
      "street": "R MORES",
      "house": "41",
      "postcode": "2725-098",
      "city": "MEM MARTINS",
      "lon": "-9.339198680487279",
      "lat": "38.80235057717962"
    },
    {
      "id": "pt.ine.add.PTCONT.2270749",
      "street": "R MORES",
      "house": "41",
      "postcode": "2725-098",
      "city": "MEM MARTINS",
      "lon": "-9.339198680487279",
      "lat": "38.80235057717962"
    },
    {
      "id": "pt.ine.add.PTCONT.2270750",
      "street": "R MORES",
      "house": "41",
      "postcode": "2725-098",
      "city": "MEM MARTINS",
      "lon": "-9.339198680487279",
      "lat": "38.80235057717962"
    },
    {
      "id": "pt.ine.add.PTCONT.2270751",
      "street": "R MORES",
      "house": "41",
      "postcode": "2725-098",
      "city": "MEM MARTINS",
      "lon": "-9.339198680487279",
      "lat": "38.80235057717962"
    },
    {
      "id": "pt.ine.add.PTCONT.2294361",
      "street": "R MORES",
      "house": "29",
      "postcode": "2725-098",
      "city": "MEM MARTINS",
      "lon": "-9.339499711679048",
      "lat": "38.80177098109318"
    },
    {
      "id": "pt.ine.add.PTCONT.2294359",
      "street": "R MORES",
      "house": "29",
      "postcode": "2725-098",
      "city": "MEM MARTINS",
      "lon": "-9.339499711679048",
      "lat": "38.80177098109318"
    },
    {
      "id": "pt.ine.add.PTCONT.2294360",
      "street": "R MORES",
      "house": "29",
      "postcode": "2725-098",
      "city": "MEM MARTINS",
      "lon": "-9.339499711679048",
      "lat": "38.80177098109318"
    },
    {
      "id": "pt.ine.add.PTCONT.2294362",
      "street": "R MORES",
      "house": "29",
      "postcode": "2725-098",
      "city": "MEM MARTINS",
      "lon": "-9.339499711679048",
      "lat": "38.80177098109318"
    },
    {
      "id": "pt.ine.add.PTCONT.2294363",
      "street": "R MORES",
      "house": "29",
      "postcode": "2725-098",
      "city": "MEM MARTINS",
      "lon": "-9.339499711679048",
      "lat": "38.80177098109318"
    },
    {
      "id": "pt.ine.add.PTCONT.2294364",
      "street": "R MORES",
      "house": "29",
      "postcode": "2725-098",
      "city": "MEM MARTINS",
      "lon": "-9.339499711679048",
      "lat": "38.80177098109318"
    },
    {
      "id": "pt.ine.add.PTCONT.2294365",
      "street": "R MORES",
      "house": "29",
      "postcode": "2725-098",
      "city": "MEM MARTINS",
      "lon": "-9.339499711679048",
      "lat": "38.80177098109318"
    },
    {
      "id": "pt.ine.add.PTCONT.2294366",
      "street": "R MORES",
      "house": "29",
      "postcode": "2725-098",
      "city": "MEM MARTINS",
      "lon": "-9.339499711679048",
      "lat": "38.80177098109318"
    },
    {
      "id": "pt.ine.add.PTCONT.2294367",
      "street": "R MORES",
      "house": "29",
      "postcode": "2725-098",
      "city": "MEM MARTINS",
      "lon": "-9.339499711679048",
      "lat": "38.80177098109318"
    },
    {
      "id": "pt.ine.add.PTCONT.2348348",
      "street": "R MORES",
      "house": "25",
      "postcode": "2725-098",
      "city": "MEM MARTINS",
      "lon": "-9.33957769414467",
      "lat": "38.80161704618346"
    },
    {
      "id": "pt.ine.add.PTCONT.2348345",
      "street": "R MORES",
      "house": "25",
      "postcode": "2725-098",
      "city": "MEM MARTINS",
      "lon": "-9.33957769414467",
      "lat": "38.80161704618346"
    },
    {
      "id": "pt.ine.add.PTCONT.2348346",
      "street": "R MORES",
      "house": "25",
      "postcode": "2725-098",
      "city": "MEM MARTINS",
      "lon": "-9.33957769414467",
      "lat": "38.80161704618346"
    },
    {
      "id": "pt.ine.add.PTCONT.2348347",
      "street": "R MORES",
      "house": "25",
      "postcode": "2725-098",
      "city": "MEM MARTINS",
      "lon": "-9.33957769414467",
      "lat": "38.80161704618346"
    },
    {
      "id": "pt.ine.add.PTCONT.2348349",
      "street": "R MORES",
      "house": "25",
      "postcode": "2725-098",
      "city": "MEM MARTINS",
      "lon": "-9.33957769414467",
      "lat": "38.80161704618346"
    },
    {
      "id": "pt.ine.add.PTCONT.2348350",
      "street": "R MORES",
      "house": "25",
      "postcode": "2725-098",
      "city": "MEM MARTINS",
      "lon": "-9.33957769414467",
      "lat": "38.80161704618346"
    },
    {
      "id": "pt.ine.add.PTCONT.2348351",
      "street": "R MORES",
      "house": "25",
      "postcode": "2725-098",
      "city": "MEM MARTINS",
      "lon": "-9.33957769414467",
      "lat": "38.80161704618346"
    },
    {
      "id": "pt.ine.add.PTCONT.2348352",
      "street": "R MORES",
      "house": "25",
      "postcode": "2725-098",
      "city": "MEM MARTINS",
      "lon": "-9.33957769414467",
      "lat": "38.80161704618346"
    },
    {
      "id": "pt.ine.add.PTCONT.2348455",
      "street": "R MORES",
      "house": "25",
      "postcode": "2725-098",
      "city": "MEM MARTINS",
      "lon": "-9.33957769414467",
      "lat": "38.80161704618346"
    },
    {
      "id": "pt.ine.add.PTCONT.2353579",
      "street": "R GUILHERMINA SUGGIA",
      "house": "8",
      "postcode": "2725-057",
      "city": "MEM MARTINS",
      "lon": "-9.340052609727083",
      "lat": "38.801792293476716"
    },
    {
      "id": "pt.ine.add.PTCONT.2353580",
      "street": "R GUILHERMINA SUGGIA",
      "house": "6",
      "postcode": "2725-057",
      "city": "MEM MARTINS",
      "lon": "-9.340052609727083",
      "lat": "38.801792293476716"
    },
    {
      "id": "pt.ine.add.PTCONT.2353581",
      "street": "R GUILHERMINA SUGGIA",
      "house": "8",
      "postcode": "2725-057",
      "city": "MEM MARTINS",
      "lon": "-9.340052609727083",
      "lat": "38.801792293476716"
    },
    {
      "id": "pt.ine.add.PTCONT.2353582",
      "street": "R GUILHERMINA SUGGIA",
      "house": "8",
      "postcode": "2725-057",
      "city": "MEM MARTINS",
      "lon": "-9.340052609727083",
      "lat": "38.801792293476716"
    },
    {
      "id": "pt.ine.add.PTCONT.2353583",
      "street": "R GUILHERMINA SUGGIA",
      "house": "8",
      "postcode": "2725-057",
      "city": "MEM MARTINS",
      "lon": "-9.340052609727083",
      "lat": "38.801792293476716"
    },
    {
      "id": "pt.ine.add.PTCONT.2353584",
      "street": "R GUILHERMINA SUGGIA",
      "house": "8",
      "postcode": "2725-057",
      "city": "MEM MARTINS",
      "lon": "-9.340052609727083",
      "lat": "38.801792293476716"
    },
    {
      "id": "pt.ine.add.PTCONT.2381083",
      "street": "PCT IVO CRUZ",
      "house": "3",
      "postcode": "2725-065",
      "city": "MEM MARTINS",
      "lon": "-9.339862118368412",
      "lat": "38.80210052048851"
    },
    {
      "id": "pt.ine.add.PTCONT.2381084",
      "street": "PCT IVO CRUZ",
      "house": "3",
      "postcode": "2725-065",
      "city": "MEM MARTINS",
      "lon": "-9.339862118368412",
      "lat": "38.80210052048851"
    },
    {
      "id": "pt.ine.add.PTCONT.2381085",
      "street": "PCT IVO CRUZ",
      "house": "3",
      "postcode": "2725-065",
      "city": "MEM MARTINS",
      "lon": "-9.339862118368412",
      "lat": "38.80210052048851"
    },
    {
      "id": "pt.ine.add.PTCONT.2381086",
      "street": "PCT IVO CRUZ",
      "house": "3",
      "postcode": "2725-065",
      "city": "MEM MARTINS",
      "lon": "-9.339862118368412",
      "lat": "38.80210052048851"
    },
    {
      "id": "pt.ine.add.PTCONT.2381087",
      "street": "PCT IVO CRUZ",
      "house": "3",
      "postcode": "2725-065",
      "city": "MEM MARTINS",
      "lon": "-9.339862118368412",
      "lat": "38.80210052048851"
    },
    {
      "id": "pt.ine.add.PTCONT.2381088",
      "street": "PCT IVO CRUZ",
      "house": "3",
      "postcode": "2725-065",
      "city": "MEM MARTINS",
      "lon": "-9.339862118368412",
      "lat": "38.80210052048851"
    },
    {
      "id": "pt.ine.add.PTCONT.2427392",
      "street": "R MORES",
      "house": "31 33",
      "postcode": "2725-098",
      "city": "MEM MARTINS",
      "lon": "-9.339410219645528",
      "lat": "38.801925034787715"
    },
    {
      "id": "pt.ine.add.PTCONT.2462786",
      "street": "R MORES",
      "house": "39",
      "postcode": "2725-098",
      "city": "MEM MARTINS",
      "lon": "-9.339254253022405",
      "lat": "38.8022329043393"
    },
    {
      "id": "pt.ine.add.PTCONT.2462787",
      "street": "R MORES",
      "house": "39",
      "postcode": "2725-098",
      "city": "MEM MARTINS",
      "lon": "-9.339254253022405",
      "lat": "38.8022329043393"
    },
    {
      "id": "pt.ine.add.PTCONT.2462788",
      "street": "R MORES",
      "house": "39",
      "postcode": "2725-098",
      "city": "MEM MARTINS",
      "lon": "-9.339254253022405",
      "lat": "38.8022329043393"
    },
    {
      "id": "pt.ine.add.PTCONT.2462789",
      "street": "R MORES",
      "house": "39",
      "postcode": "2725-098",
      "city": "MEM MARTINS",
      "lon": "-9.339254253022405",
      "lat": "38.8022329043393"
    },
    {
      "id": "pt.ine.add.PTCONT.2462790",
      "street": "R MORES",
      "house": "39",
      "postcode": "2725-098",
      "city": "MEM MARTINS",
      "lon": "-9.339254253022405",
      "lat": "38.8022329043393"
    },
    {
      "id": "pt.ine.add.PTCONT.2465744",
      "street": "R MORES",
      "house": "39",
      "postcode": "2725-098",
      "city": "MEM MARTINS",
      "lon": "-9.339254253022405",
      "lat": "38.8022329043393"
    },
    {
      "id": "pt.ine.add.PTCONT.2589697",
      "street": "R GUILHERMINA SUGGIA",
      "house": "4",
      "postcode": "2725-057",
      "city": "MEM MARTINS",
      "lon": "-9.339911004830224",
      "lat": "38.80158658086994"
    },
    {
      "id": "pt.ine.add.PTCONT.2589698",
      "street": "R GUILHERMINA SUGGIA",
      "house": "4",
      "postcode": "2725-057",
      "city": "MEM MARTINS",
      "lon": "-9.339911004830224",
      "lat": "38.80158658086994"
    },
    {
      "id": "pt.ine.add.PTCONT.2589699",
      "street": "R GUILHERMINA SUGGIA",
      "house": "4",
      "postcode": "2725-057",
      "city": "MEM MARTINS",
      "lon": "-9.339911004830224",
      "lat": "38.80158658086994"
    },
    {
      "id": "pt.ine.add.PTCONT.2589700",
      "street": "R GUILHERMINA SUGGIA",
      "house": "4",
      "postcode": "2725-057",
      "city": "MEM MARTINS",
      "lon": "-9.339911004830224",
      "lat": "38.80158658086994"
    },
    {
      "id": "pt.ine.add.PTCONT.2592248",
      "street": "R GUILHERMINA SUGGIA",
      "house": "4",
      "postcode": "2725-057",
      "city": "MEM MARTINS",
      "lon": "-9.339911004830224",
      "lat": "38.80158658086994"
    },
    {
      "id": "pt.ine.add.PTCONT.2673412",
      "street": "R GUILHERMINA SUGGIA",
      "house": "2",
      "postcode": "2725-057",
      "city": "MEM MARTINS",
      "lon": "-9.339701561039934",
      "lat": "38.80145362972497"
    },
    {
      "id": "pt.ine.add.PTCONT.2673413",
      "street": "R GUILHERMINA SUGGIA",
      "house": "2",
      "postcode": "2725-057",
      "city": "MEM MARTINS",
      "lon": "-9.339701561039934",
      "lat": "38.80145362972497"
    },
    {
      "id": "pt.ine.add.PTCONT.2673414",
      "street": "R GUILHERMINA SUGGIA",
      "house": "2",
      "postcode": "2725-057",
      "city": "MEM MARTINS",
      "lon": "-9.339701561039934",
      "lat": "38.80145362972497"
    },
    {
      "id": "pt.ine.add.PTCONT.2673415",
      "street": "R GUILHERMINA SUGGIA",
      "house": "2",
      "postcode": "2725-057",
      "city": "MEM MARTINS",
      "lon": "-9.339701561039934",
      "lat": "38.80145362972497"
    },
    {
      "id": "pt.ine.add.PTCONT.2673416",
      "street": "R GUILHERMINA SUGGIA",
      "house": "2",
      "postcode": "2725-057",
      "city": "MEM MARTINS",
      "lon": "-9.339701561039934",
      "lat": "38.80145362972497"
    },
    {
      "id": "pt.ine.add.PTCONT.2673417",
      "street": "R GUILHERMINA SUGGIA",
      "house": "2",
      "postcode": "2725-057",
      "city": "MEM MARTINS",
      "lon": "-9.339701561039934",
      "lat": "38.80145362972497"
    },
    {
      "id": "pt.ine.add.PTCONT.2673418",
      "street": "R GUILHERMINA SUGGIA",
      "house": "2",
      "postcode": "2725-057",
      "city": "MEM MARTINS",
      "lon": "-9.339701561039934",
      "lat": "38.80145362972497"
    },
    {
      "id": "pt.ine.add.PTCONT.2673419",
      "street": "R GUILHERMINA SUGGIA",
      "house": "2",
      "postcode": "2725-057",
      "city": "MEM MARTINS",
      "lon": "-9.339701561039934",
      "lat": "38.80145362972497"
    },
    {
      "id": "pt.ine.add.PTCONT.2673420",
      "street": "R GUILHERMINA SUGGIA",
      "house": "2",
      "postcode": "2725-057",
      "city": "MEM MARTINS",
      "lon": "-9.339701561039934",
      "lat": "38.80145362972497"
    },
    {
      "id": "pt.ine.add.PTCONT.2673421",
      "street": "R GUILHERMINA SUGGIA",
      "house": "2",
      "postcode": "2725-057",
      "city": "MEM MARTINS",
      "lon": "-9.339701561039934",
      "lat": "38.80145362972497"
    },
    {
      "id": "pt.ine.add.PTCONT.2673422",
      "street": "R GUILHERMINA SUGGIA",
      "house": "2",
      "postcode": "2725-057",
      "city": "MEM MARTINS",
      "lon": "-9.339701561039934",
      "lat": "38.80145362972497"
    },
    {
      "id": "pt.ine.add.PTCONT.2801386",
      "street": "R MORES",
      "house": "35",
      "postcode": "2725-098",
      "city": "MEM MARTINS",
      "lon": "-9.339354343879016",
      "lat": "38.80202469558476"
    },
    {
      "id": "pt.ine.add.PTCONT.2948673",
      "street": "PCT IVO CRUZ",
      "house": "5",
      "postcode": "2725-065",
      "city": "MEM MARTINS",
      "lon": "-9.339734756908829",
      "lat": "38.802056797815894"
    },
    {
      "id": "pt.ine.add.PTCONT.2948674",
      "street": "PCT IVO CRUZ",
      "house": "4",
      "postcode": "2725-065",
      "city": "MEM MARTINS",
      "lon": "-9.339734756908829",
      "lat": "38.802056797815894"
    },
    {
      "id": "pt.ine.add.PTCONT.2948675",
      "street": "PCT IVO CRUZ",
      "house": "4",
      "postcode": "2725-065",
      "city": "MEM MARTINS",
      "lon": "-9.339734756908829",
      "lat": "38.802056797815894"
    },
    {
      "id": "pt.ine.add.PTCONT.2948676",
      "street": "PCT IVO CRUZ",
      "house": "4",
      "postcode": "2725-065",
      "city": "MEM MARTINS",
      "lon": "-9.339734756908829",
      "lat": "38.802056797815894"
    },
    {
      "id": "pt.ine.add.PTCONT.2948677",
      "street": "PCT IVO CRUZ",
      "house": "4",
      "postcode": "2725-065",
      "city": "MEM MARTINS",
      "lon": "-9.339734756908829",
      "lat": "38.802056797815894"
    },
    {
      "id": "pt.ine.add.PTCONT.2948678",
      "street": "PCT IVO CRUZ",
      "house": "4",
      "postcode": "2725-065",
      "city": "MEM MARTINS",
      "lon": "-9.339734756908829",
      "lat": "38.802056797815894"
    },
    {
      "id": "pt.ine.add.PTCONT.2948679",
      "street": "PCT IVO CRUZ",
      "house": "4",
      "postcode": "2725-065",
      "city": "MEM MARTINS",
      "lon": "-9.339734756908829",
      "lat": "38.802056797815894"
    },
    {
      "id": "pt.ine.add.PTCONT.2948680",
      "street": "PCT IVO CRUZ",
      "house": "4",
      "postcode": "2725-065",
      "city": "MEM MARTINS",
      "lon": "-9.339734756908829",
      "lat": "38.802056797815894"
    },
    {
      "id": "pt.ine.add.PTCONT.2984589",
      "street": "R VIANA DA MOTA",
      "house": "11",
      "postcode": "2725-153",
      "city": "MEM MARTINS",
      "lon": "-9.339569408529545",
      "lat": "38.80249087141896"
    },
    {
      "id": "pt.ine.add.PTCONT.3062463",
      "street": "R DR IVO CRUZ",
      "house": "2",
      "postcode": "2725-064",
      "city": "MEM MARTINS",
      "lon": "-9.340065942298752",
      "lat": "38.80190024724709"
    },
    {
      "id": "pt.ine.add.PTCONT.3062464",
      "street": "R DR IVO CRUZ",
      "house": "2",
      "postcode": "2725-064",
      "city": "MEM MARTINS",
      "lon": "-9.340065942298752",
      "lat": "38.80190024724709"
    },
    {
      "id": "pt.ine.add.PTCONT.3062465",
      "street": "R DR IVO CRUZ",
      "house": "2",
      "postcode": "2725-064",
      "city": "MEM MARTINS",
      "lon": "-9.340065942298752",
      "lat": "38.80190024724709"
    },
    {
      "id": "pt.ine.add.PTCONT.3062466",
      "street": "R DR IVO CRUZ",
      "house": "2",
      "postcode": "2725-064",
      "city": "MEM MARTINS",
      "lon": "-9.340065942298752",
      "lat": "38.80190024724709"
    },
    {
      "id": "pt.ine.add.PTCONT.3062467",
      "street": "R DR IVO CRUZ",
      "house": "2",
      "postcode": "2725-064",
      "city": "MEM MARTINS",
      "lon": "-9.340065942298752",
      "lat": "38.80190024724709"
    },
    {
      "id": "pt.ine.add.PTCONT.3062468",
      "street": "R DR IVO CRUZ",
      "house": "2",
      "postcode": "2725-064",
      "city": "MEM MARTINS",
      "lon": "-9.340065942298752",
      "lat": "38.80190024724709"
    },
    {
      "id": "pt.ine.add.PTCONT.3062469",
      "street": "R DR IVO CRUZ",
      "house": "2",
      "postcode": "2725-064",
      "city": "MEM MARTINS",
      "lon": "-9.340065942298752",
      "lat": "38.80190024724709"
    },
    {
      "id": "pt.ine.add.PTCONT.3062470",
      "street": "R DR IVO CRUZ",
      "house": "2",
      "postcode": "2725-064",
      "city": "MEM MARTINS",
      "lon": "-9.340065942298752",
      "lat": "38.80190024724709"
    },
    {
      "id": "pt.ine.add.PTCONT.3062580",
      "street": "R DR IVO CRUZ",
      "house": "2",
      "postcode": "2725-064",
      "city": "MEM MARTINS",
      "lon": "-9.340065942298752",
      "lat": "38.80190024724709"
    },
    {
      "id": "pt.ine.add.PTCONT.3096367",
      "street": "R MORES",
      "house": "37",
      "postcode": "2725-098",
      "city": "MEM MARTINS",
      "lon": "-9.339320879087365",
      "lat": "38.802088094473696"
    },
    {
      "id": "pt.ine.add.PTCONT.3244759",
      "street": "R VIANA DA MOTA",
      "house": "7 7A",
      "postcode": "2725-153",
      "city": "MEM MARTINS",
      "lon": "-9.339384196193356",
      "lat": "38.80242973050678"
    },
    {
      "id": "pt.ine.add.PTCONT.3262753",
      "street": "R VIANA MOTA",
      "house": "9",
      "postcode": "2725-153",
      "city": "MEM MARTINS",
      "lon": "-9.339476878260484",
      "lat": "38.80246480402865"
    },
    {
      "id": "pt.ine.add.PTCONT.3428178",
      "street": "R GUILHERMINA SUGGIA",
      "house": "6",
      "postcode": "2725-057",
      "city": "MEM MARTINS",
      "lon": "-9.339970222009377",
      "lat": "38.801685053059174"
    },
    {
      "id": "pt.ine.add.PTCONT.3428179",
      "street": "R GUILHERMINA SUGGIA",
      "house": "6",
      "postcode": "2725-057",
      "city": "MEM MARTINS",
      "lon": "-9.339970222009377",
      "lat": "38.801685053059174"
    },
    {
      "id": "pt.ine.add.PTCONT.3428180",
      "street": "R GUILHERMINA SUGGIA",
      "house": "6",
      "postcode": "2725-057",
      "city": "MEM MARTINS",
      "lon": "-9.339970222009377",
      "lat": "38.801685053059174"
    },
    {
      "id": "pt.ine.add.PTCONT.3428181",
      "street": "R GUILHERMINA SUGGIA",
      "house": "6",
      "postcode": "2725-057",
      "city": "MEM MARTINS",
      "lon": "-9.339970222009377",
      "lat": "38.801685053059174"
    },
    {
      "id": "pt.ine.add.PTCONT.3428182",
      "street": "R GUILHERMINA SUGGIA",
      "house": "6",
      "postcode": "2725-057",
      "city": "MEM MARTINS",
      "lon": "-9.339970222009377",
      "lat": "38.801685053059174"
    },
    {
      "id": "pt.ine.add.PTCONT.3430879",
      "street": "R GUILHERMINA SUGGIA",
      "house": "6",
      "postcode": "2725-057",
      "city": "MEM MARTINS",
      "lon": "-9.339970222009377",
      "lat": "38.801685053059174"
    },
    {
      "id": "pt.ine.add.PTCONT.3434720",
      "street": "R MORES",
      "house": "29",
      "postcode": "2725-098",
      "city": "MEM MARTINS",
      "lon": "-9.339499711679048",
      "lat": "38.80177098109318"
    },
    {
      "id": "pt.ine.add.PTCONT.3438850",
      "street": "R GUILHERMINA SUGGIA",
      "house": "2",
      "postcode": "2725-057",
      "city": "MEM MARTINS",
      "lon": "-9.339701561039934",
      "lat": "38.80145362972497"
    },
    {
      "id": "pt.ine.add.PTCONT.3447301",
      "street": "PCT IVO CRUZ",
      "house": "4",
      "postcode": "2725-065",
      "city": "MEM MARTINS",
      "lon": "-9.339734756908829",
      "lat": "38.802056797815894"
    },
    {
      "id": "pt.ine.add.PTCONT.3452638",
      "street": "R GUILHERMINA SUGGIA",
      "house": "4",
      "postcode": "2725-057",
      "city": "MEM MARTINS",
      "lon": "-9.339911004830224",
      "lat": "38.80158658086994"
    }
  ]
}