{
  "data": {
    "distrito": "Castelo Branco",
    "concelho": "Sertã",
    "freguesia": "Castelo",
    "OBJECTID": 12,
    "BGRI2021": "05090300127",
    "DT21": "05",
    "DTMN21": "0509",
    "DTMNFR21": "050903",
    "DTMNFRSEC21": "050903001",
    "SECNUM21": "001",
    "SSNUM21": "27",
    "SECSSNUM21": "00127",
    "OBJECTID_1": 46092,
    "DT": "05",
    "CC": "09",
    "fr": "03",
    "SEC": "001",
    "SS": "27"
  },
  "addresses": [
    {
      "id": "pt.ine.add.PTCONT.953601",
      "street": "R CASAL DA ESCUSA",
      "house": "",
      "postcode": "6100-090",
      "city": "CASTELO SRT",
      "lon": "-8.13327194742547",
      "lat": "39.86063861996491"
    },
    {
      "id": "pt.ine.add.PTCONT.959978",
      "street": "R LAMEIRA",
      "house": "",
      "postcode": "6100-102",
      "city": "CASTELO SRT",
      "lon": "-8.141265202749738",
      "lat": "39.856738553783586"
    },
    {
      "id": "pt.ine.add.PTCONT.963321",
      "street": "R S LOURENÇO",
      "house": "",
      "postcode": "6100-102",
      "city": "CASTELO SRT",
      "lon": "-8.136883053372763",
      "lat": "39.858981377852054"
    },
    {
      "id": "pt.ine.add.PTCONT.963322",
      "street": "R S LOURENÇO",
      "house": "",
      "postcode": "6100-102",
      "city": "CASTELO SRT",
      "lon": "-8.138110141965852",
      "lat": "39.85915245338555"
    },
    {
      "id": "pt.ine.add.PTCONT.967957",
      "street": "R S LOURENÇO",
      "house": "",
      "postcode": "6100-102",
      "city": "CASTELO SRT",
      "lon": "-8.138367211967385",
      "lat": "39.85872914033222"
    },
    {
      "id": "pt.ine.add.PTCONT.976790",
      "street": "R BREJEIRO",
      "house": "",
      "postcode": "6100-102",
      "city": "CASTELO SRT",
      "lon": "-8.143321628772284",
      "lat": "39.85457684921954"
    },
    {
      "id": "pt.ine.add.PTCONT.985733",
      "street": "R S LOURENÇO",
      "house": "",
      "postcode": "6100-102",
      "city": "CASTELO SRT",
      "lon": "-8.135994909234896",
      "lat": "39.85958483337737"
    },
    {
      "id": "pt.ine.add.PTCONT.987298",
      "street": "R VALE DAS AVEIAS",
      "house": "",
      "postcode": "6100-090",
      "city": "CASTELO SRT",
      "lon": "-8.134685975478547",
      "lat": "39.85779258114197"
    },
    {
      "id": "pt.ine.add.PTCONT.993151",
      "street": "R S LOURENÇO",
      "house": "",
      "postcode": "6100-102",
      "city": "CASTELO SRT",
      "lon": "-8.138390597880823",
      "lat": "39.85890026123074"
    },
    {
      "id": "pt.ine.add.PTCONT.1000649",
      "street": "R CASAL DA ESCUSA",
      "house": "",
      "postcode": "6100-090",
      "city": "CASTELO SRT",
      "lon": "-8.135539143626037",
      "lat": "39.859855036351355"
    },
    {
      "id": "pt.ine.add.PTCONT.1014258",
      "street": "R CASAL DA ESCUSA",
      "house": "",
      "postcode": "6100-090",
      "city": "CASTELO SRT",
      "lon": "-8.133692669758625",
      "lat": "39.860683650689204"
    },
    {
      "id": "pt.ine.add.PTCONT.1020942",
      "street": "SIT VERGEIRO",
      "house": "",
      "postcode": "6100-102",
      "city": "CASTELO SRT",
      "lon": "-8.140820889546552",
      "lat": "39.85456803601037"
    },
    {
      "id": "pt.ine.add.PTCONT.1028266",
      "street": "R MOURISCO",
      "house": "",
      "postcode": "6100-106",
      "city": "CASTELO SRT",
      "lon": "-8.140692649294689",
      "lat": "39.85731500362439"
    },
    {
      "id": "pt.ine.add.PTCONT.1029130",
      "street": "R CASAL DA ESCUSA",
      "house": "",
      "postcode": "6100-090",
      "city": "CASTELO SRT",
      "lon": "-8.133318690871471",
      "lat": "39.85951281775864"
    },
    {
      "id": "pt.ine.add.PTCONT.1042809",
      "street": "R S LOURENÇO",
      "house": "",
      "postcode": "6100-102",
      "city": "CASTELO SRT",
      "lon": "-8.138939746319569",
      "lat": "39.85755827835745"
    },
    {
      "id": "pt.ine.add.PTCONT.1054132",
      "street": "R CASAL DA ESCUSA",
      "house": "",
      "postcode": "6100-090",
      "city": "CASTELO SRT",
      "lon": "-8.133517368777571",
      "lat": "39.86067464502371"
    },
    {
      "id": "pt.ine.add.PTCONT.1062155",
      "street": "R S LOURENÇO",
      "house": "",
      "postcode": "6100-102",
      "city": "CASTELO SRT",
      "lon": "-8.137151865801215",
      "lat": "39.85939566404089"
    }
  ]
}