{
  "data": {
    "ilha": "Ilha Terceira (Açores)",
    "concelho": "Praia da Vitória",
    "freguesia": "Lajes",
    "OBJECTID": 99,
    "BGRI2021": "43020600310",
    "DT21": "43",
    "DTMN21": "4302",
    "DTMNFR21": "430206",
    "DTMNFRSEC21": "430206003",
    "SECNUM21": "003",
    "SSNUM21": "10",
    "SECSSNUM21": "00310",
    "OBJECTID_1": 208430,
    "DT": "43",
    "CC": "02",
    "fr": "06",
    "SEC": "003",
    "SS": "10",
    "BGRI2021_1": "43020600310"
  },
  "addresses": [
    {
      "id": "pt.ine.add.AC26.3458",
      "street": "R CABOUCO DOS VENTOS",
      "house": "295",
      "postcode": "9760-312",
      "city": "LAJES VPV",
      "lon": "-27.119092145883798",
      "lat": "38.77486209662977"
    },
    {
      "id": "pt.ine.add.AC26.5919",
      "street": "R CALDEIRA",
      "house": "51",
      "postcode": "9760-260",
      "city": "LAJES VPV",
      "lon": "-27.116110094298907",
      "lat": "38.78169596311874"
    },
    {
      "id": "pt.ine.add.AC26.6797",
      "street": "R CALDEIRA",
      "house": "45",
      "postcode": "9760-260",
      "city": "LAJES VPV",
      "lon": "-27.11655799127508",
      "lat": "38.78101062870143"
    },
    {
      "id": "pt.ine.add.AC26.6798",
      "street": "R CALDEIRA",
      "house": "4J",
      "postcode": "9760-260",
      "city": "LAJES VPV",
      "lon": "-27.116649214527957",
      "lat": "38.78046983613236"
    },
    {
      "id": "pt.ine.add.AC26.6799",
      "street": "CAN FONTE",
      "house": "4",
      "postcode": "9760-261",
      "city": "LAJES VPV",
      "lon": "-27.115426084006376",
      "lat": "38.77875882865305"
    },
    {
      "id": "pt.ine.add.AC26.6800",
      "street": "CAN FONTE",
      "house": "8",
      "postcode": "9760-261",
      "city": "LAJES VPV",
      "lon": "-27.115874479613836",
      "lat": "38.778388905400014"
    },
    {
      "id": "pt.ine.add.AC26.6801",
      "street": "CAN FONTE",
      "house": "10",
      "postcode": "9760-261",
      "city": "LAJES VPV",
      "lon": "-27.116035320070786",
      "lat": "38.778181476801606"
    },
    {
      "id": "pt.ine.add.AC26.6802",
      "street": "R CALDEIRA",
      "house": "29",
      "postcode": "9760-260",
      "city": "LAJES VPV",
      "lon": "-27.114713310020477",
      "lat": "38.779390349119986"
    },
    {
      "id": "pt.ine.add.AC26.6803",
      "street": "R CALDEIRA",
      "house": "2",
      "postcode": "9760-260",
      "city": "LAJES VPV",
      "lon": "-27.11475754133202",
      "lat": "38.778254832048106"
    },
    {
      "id": "pt.ine.add.AC26.6804",
      "street": "R CALDEIRA",
      "house": "23",
      "postcode": "9760-260",
      "city": "LAJES VPV",
      "lon": "-27.114755274058414",
      "lat": "38.77683999775292"
    },
    {
      "id": "pt.ine.add.AC26.6805",
      "street": "R CALDEIRA",
      "house": "11",
      "postcode": "9760-260",
      "city": "LAJES VPV",
      "lon": "-27.11446614023115",
      "lat": "38.77601120495636"
    },
    {
      "id": "pt.ine.add.AC26.6806",
      "street": "R CALDEIRA",
      "house": "3",
      "postcode": "9760-260",
      "city": "LAJES VPV",
      "lon": "-27.114407672191533",
      "lat": "38.77544352507967"
    },
    {
      "id": "pt.ine.add.AC26.6807",
      "street": "LG RIBEIRA DOS PÃES",
      "house": "378",
      "postcode": "9760-319",
      "city": "LAJES VPV",
      "lon": "-27.115268630023294",
      "lat": "38.77391970146814"
    },
    {
      "id": "pt.ine.add.AC26.6808",
      "street": "RIBEIRA DOS PAES",
      "house": "378",
      "postcode": "9760-319",
      "city": "LAJES VPV",
      "lon": "-27.115383676190298",
      "lat": "38.773874529428895"
    },
    {
      "id": "pt.ine.add.AC26.6809",
      "street": "RIBEIRA DOS PAES",
      "house": "380",
      "postcode": "9760-319",
      "city": "LAJES VPV",
      "lon": "-27.11545279098249",
      "lat": "38.773901496284125"
    },
    {
      "id": "pt.ine.add.AC26.7625",
      "street": "RIBEIRA DOS PAES",
      "house": "388",
      "postcode": "9760-319",
      "city": "LAJES VPV",
      "lon": "-27.116028953999667",
      "lat": "38.77425238211506"
    },
    {
      "id": "pt.ine.add.AC26.7626",
      "street": "RIBEIRA DOS PAES",
      "house": "410",
      "postcode": "9760-319",
      "city": "LAJES VPV",
      "lon": "-27.119587494037205",
      "lat": "38.77505984825101"
    },
    {
      "id": "pt.ine.add.AC26.7627",
      "street": "CABOUCO DOS VENTOS",
      "house": "116",
      "postcode": "9760-312",
      "city": "LAJES VPV",
      "lon": "-27.121280392094004",
      "lat": "38.77542758348876"
    },
    {
      "id": "pt.ine.add.AC26.7628",
      "street": "CAN MALICIAS",
      "house": "4",
      "postcode": "9760-283",
      "city": "LAJES VPV",
      "lon": "-27.121580166066423",
      "lat": "38.7756976230277"
    },
    {
      "id": "pt.ine.add.AC26.7629",
      "street": "CAN MALICIAS",
      "house": "16",
      "postcode": "9760-283",
      "city": "LAJES VPV",
      "lon": "-27.12123609803298",
      "lat": "38.77646397490003"
    },
    {
      "id": "pt.ine.add.AC26.7630",
      "street": "CAN MALICIAS",
      "house": "18",
      "postcode": "9760-283",
      "city": "LAJES VPV",
      "lon": "-27.12117876535408",
      "lat": "38.776599209840626"
    },
    {
      "id": "pt.ine.add.AC26.7631",
      "street": "CAN MALICIAS",
      "house": "20",
      "postcode": "9760-283",
      "city": "LAJES VPV",
      "lon": "-27.12112156963554",
      "lat": "38.776815549893136"
    },
    {
      "id": "pt.ine.add.AC26.46216",
      "street": "CAN MILICIAS",
      "house": "18 A",
      "postcode": "9760-283",
      "city": "LAJES VPV",
      "lon": "-27.120821731882753",
      "lat": "38.77650946250238"
    },
    {
      "id": "pt.ine.add.AC26.48756",
      "street": "R CALDEIRA",
      "house": "",
      "postcode": "9760-260",
      "city": "LAJES VPV",
      "lon": "-27.11454760498716",
      "lat": "38.77656083881246"
    },
    {
      "id": "pt.ine.add.AC26.48757",
      "street": "R CALDEIRA",
      "house": "7",
      "postcode": "9760-260",
      "city": "LAJES VPV",
      "lon": "-27.11441977462442",
      "lat": "38.775812992955494"
    },
    {
      "id": "pt.ine.add.AC26.51286",
      "street": "R CALDEIRA",
      "house": "52",
      "postcode": "9760-260",
      "city": "LAJES VPV",
      "lon": "-27.116110576556142",
      "lat": "38.78199334843774"
    },
    {
      "id": "pt.ine.add.AC26.51287",
      "street": "R CALDEIRA",
      "house": "37",
      "postcode": "9760-260",
      "city": "LAJES VPV",
      "lon": "-27.11627971787643",
      "lat": "38.77980333903753"
    },
    {
      "id": "pt.ine.add.AC26.51288",
      "street": "R CALDEIRA",
      "house": "19",
      "postcode": "9760-260",
      "city": "LAJES VPV",
      "lon": "-27.114823799058147",
      "lat": "38.77649748588832"
    },
    {
      "id": "pt.ine.add.AC26.53154",
      "street": "RIBEIRA DOS PAES",
      "house": "406",
      "postcode": "9760-319",
      "city": "LAJES VPV",
      "lon": "-27.118493684545655",
      "lat": "38.77496183364108"
    },
    {
      "id": "pt.ine.add.AC26.61256",
      "street": "RIBEIRA DOS PAES",
      "house": "390",
      "postcode": "9760-319",
      "city": "LAJES VPV",
      "lon": "-27.116293918595037",
      "lat": "38.774369270895725"
    },
    {
      "id": "pt.ine.add.AC26.61257",
      "street": "CABOUCO DOS VENTOS",
      "house": "414",
      "postcode": "9760-312",
      "city": "LAJES VPV",
      "lon": "-27.121038576739124",
      "lat": "38.775391787373735"
    },
    {
      "id": "pt.ine.add.AC26.62521",
      "street": "CAN MALICIAS",
      "house": "12",
      "postcode": "9760-283",
      "city": "LAJES VPV",
      "lon": "-27.121419469481026",
      "lat": "38.775977152780605"
    },
    {
      "id": "pt.ine.add.AC26.64997",
      "street": "RIBEIRA DOS PAES",
      "house": "374",
      "postcode": "9760-319",
      "city": "LAJES VPV",
      "lon": "-27.115176056776146",
      "lat": "38.77362240652168"
    },
    {
      "id": "pt.ine.add.AC26.68280",
      "street": "R CALDEIRA",
      "house": "39",
      "postcode": "9760-260",
      "city": "LAJES VPV",
      "lon": "-27.1166375694843",
      "lat": "38.780388742518035"
    },
    {
      "id": "pt.ine.add.AC26.68281",
      "street": "R CALDEIRA",
      "house": "21 A",
      "postcode": "9760-260",
      "city": "LAJES VPV",
      "lon": "-27.114766483119688",
      "lat": "38.77665074107084"
    },
    {
      "id": "pt.ine.add.AC26.70275",
      "street": "R CALDEIRA",
      "house": "1 C",
      "postcode": "9760-260",
      "city": "LAJES VPV",
      "lon": "-27.11440739866363",
      "lat": "38.775272303028494"
    },
    {
      "id": "pt.ine.add.AC26.73317",
      "street": "R CALDEIRA",
      "house": "41 A",
      "postcode": "9760-260",
      "city": "LAJES VPV",
      "lon": "-27.116568785408937",
      "lat": "38.78056904500521"
    },
    {
      "id": "pt.ine.add.AC26.73318",
      "street": "R CALDEIRA",
      "house": "13",
      "postcode": "9760-260",
      "city": "LAJES VPV",
      "lon": "-27.11447778209207",
      "lat": "38.77609229885278"
    },
    {
      "id": "pt.ine.add.AC26.73319",
      "street": "R CALDEIRA",
      "house": "1 B",
      "postcode": "9760-260",
      "city": "LAJES VPV",
      "lon": "-27.114487752819237",
      "lat": "38.77512803712145"
    },
    {
      "id": "pt.ine.add.AC26.73320",
      "street": "RIBEIRA DOS PAES",
      "house": "396",
      "postcode": "9760-319",
      "city": "LAJES VPV",
      "lon": "-27.11711170894662",
      "lat": "38.77463880535865"
    },
    {
      "id": "pt.ine.add.AC26.73321",
      "street": "RIBEIRA DOS PAES",
      "house": "394",
      "postcode": "9760-319",
      "city": "LAJES VPV",
      "lon": "-27.11707739395151",
      "lat": "38.77477401526611"
    },
    {
      "id": "pt.ine.add.AC26.75587",
      "street": "RIBEIRA DOS PÃES",
      "house": "398",
      "postcode": "9760-319",
      "city": "LAJES VPV",
      "lon": "-27.11775672121374",
      "lat": "38.77484542638605"
    },
    {
      "id": "pt.ine.add.AC26.75588",
      "street": "RIBEIRA DOS PAES",
      "house": "412",
      "postcode": "9760-319",
      "city": "LAJES VPV",
      "lon": "-27.120750652429376",
      "lat": "38.775319991604"
    },
    {
      "id": "pt.ine.add.AC26.78178",
      "street": "CAN FONTE",
      "house": "6",
      "postcode": "9760-261",
      "city": "LAJES VPV",
      "lon": "-27.115587086601302",
      "lat": "38.778650529178314"
    },
    {
      "id": "pt.ine.add.AC26.82436",
      "street": "R CABOUCO DOS VENTOS",
      "house": "317",
      "postcode": "9760-312",
      "city": "LAJES VPV",
      "lon": "-27.121406780935658",
      "lat": "38.775283265055904"
    },
    {
      "id": "pt.ine.add.AC26.83684",
      "street": "CAN MALICIAS",
      "house": "12",
      "postcode": "9760-283",
      "city": "LAJES VPV",
      "lon": "-27.121040054141723",
      "lat": "38.77626592072443"
    },
    {
      "id": "pt.ine.add.AC26.83796",
      "street": "R CALDEIRA",
      "house": "5",
      "postcode": "9760-260",
      "city": "LAJES VPV",
      "lon": "-27.114396563127787",
      "lat": "38.77569586357276"
    },
    {
      "id": "pt.ine.add.AC26.84240",
      "street": "R CALDEIRA",
      "house": "57",
      "postcode": "9760-260",
      "city": "LAJES VPV",
      "lon": "-27.115915100625053",
      "lat": "38.78214674122539"
    },
    {
      "id": "pt.ine.add.AC26.86928",
      "street": "RIBEIRA DOS PAES",
      "house": "404",
      "postcode": "9760-319",
      "city": "LAJES VPV",
      "lon": "-27.117975583266304",
      "lat": "38.774926310976284"
    },
    {
      "id": "pt.ine.add.AC26.87227",
      "street": "CABOUCO DOS VENTOS",
      "house": "",
      "postcode": "9760-251",
      "city": "LAJES VPV",
      "lon": "-27.12052036495823",
      "lat": "38.775293194205396"
    },
    {
      "id": "pt.ine.add.AC26.87917",
      "street": "R DA CALDEIRA",
      "house": "23 F",
      "postcode": "9760-321",
      "city": "LAJES VPV",
      "lon": "-27.11512520477877",
      "lat": "38.777794873911816"
    },
    {
      "id": "pt.ine.add.AC26.89118",
      "street": "R RIBEIRA DOS PÃES",
      "house": "384",
      "postcode": "9760-319",
      "city": "LAJES VPV",
      "lon": "-27.11583295970573",
      "lat": "38.774072342474796"
    },
    {
      "id": "pt.ine.add.AC26.98050",
      "street": "R CALDEIRA",
      "house": "43",
      "postcode": "9760-260",
      "city": "LAJES VPV",
      "lon": "-27.116500235586276",
      "lat": "38.78089353429153"
    },
    {
      "id": "pt.ine.add.AC26.99014",
      "street": "RIBEIRA DOS PAES",
      "house": "382",
      "postcode": "9760-319",
      "city": "LAJES VPV",
      "lon": "-27.115568331416043",
      "lat": "38.77416272147682"
    },
    {
      "id": "pt.ine.add.AC26.99173",
      "street": "R CALDEIRA",
      "house": "49",
      "postcode": "9760-260",
      "city": "LAJES VPV",
      "lon": "-27.116282074052727",
      "lat": "38.78125421924605"
    },
    {
      "id": "pt.ine.add.AC26.100164",
      "street": "R CALDEIRA",
      "house": "9",
      "postcode": "9760-260",
      "city": "LAJES VPV",
      "lon": "-27.11441990420649",
      "lat": "38.775894098130706"
    },
    {
      "id": "pt.ine.add.AC26.101816",
      "street": "R CALDEIRA",
      "house": "53",
      "postcode": "9760-260",
      "city": "LAJES VPV",
      "lon": "-27.116167513717688",
      "lat": "38.78160578914527"
    },
    {
      "id": "pt.ine.add.AC26.102450",
      "street": "R CALDEIRA",
      "house": "33",
      "postcode": "9760-260",
      "city": "LAJES VPV",
      "lon": "-27.116302275138196",
      "lat": "38.77951494237665"
    },
    {
      "id": "pt.ine.add.AC26.106339",
      "street": "R CALDEIRA",
      "house": "31",
      "postcode": "9760-260",
      "city": "LAJES VPV",
      "lon": "-27.114920337140106",
      "lat": "38.779263981999456"
    },
    {
      "id": "pt.ine.add.AC26.106363",
      "street": "CAN MALICIAS",
      "house": "6",
      "postcode": "9760-283",
      "city": "LAJES VPV",
      "lon": "-27.121499810285794",
      "lat": "38.77583288209125"
    },
    {
      "id": "pt.ine.add.AC26.107287",
      "street": "CAN FONTE",
      "house": "6 A",
      "postcode": "9760-261",
      "city": "LAJES VPV",
      "lon": "-27.11580572467184",
      "lat": "38.77858723086289"
    },
    {
      "id": "pt.ine.add.AC26.107371",
      "street": "R CABOUCO DOS VENTOS",
      "house": "313",
      "postcode": "9760-312",
      "city": "LAJES VPV",
      "lon": "-27.121671635612525",
      "lat": "38.77532804812718"
    },
    {
      "id": "pt.ine.add.AC26.108282",
      "street": "R CALDEIRA",
      "house": "23 C",
      "postcode": "9760-260",
      "city": "LAJES VPV",
      "lon": "-27.114813529295862",
      "lat": "38.77727250205809"
    }
  ]
}