{
  "data": {
    "distrito": "Setúbal",
    "concelho": "Almada",
    "freguesia": "União das freguesias de Caparica e Trafaria",
    "OBJECTID": 1476,
    "BGRI2021": "15031301806",
    "DT21": "15",
    "DTMN21": "1503",
    "DTMNFR21": "150313",
    "DTMNFRSEC21": "150313018",
    "SECNUM21": "018",
    "SSNUM21": "06",
    "SECSSNUM21": "01806",
    "OBJECTID_1": 161422,
    "DT": "15",
    "CC": "03",
    "fr": "13",
    "SEC": "018",
    "SS": "06"
  },
  "addresses": [
    {
      "id": "pt.ine.add.PTCONT.4670609",
      "street": "R LAVOURA QTA CAUTELEIRO",
      "house": "9",
      "postcode": "2825-047",
      "city": "CAPARICA",
      "lon": "-9.204867774756444",
      "lat": "38.66891218404999"
    },
    {
      "id": "pt.ine.add.PTCONT.4674207",
      "street": "R 1 DE MAIO",
      "house": "15A 3",
      "postcode": "2825-095",
      "city": "CAPARICA",
      "lon": "-9.206950510124395",
      "lat": "38.673730327306686"
    },
    {
      "id": "pt.ine.add.PTCONT.4681360",
      "street": "QTA MURTINHEIRA A",
      "house": "A",
      "postcode": "2825-076",
      "city": "CAPARICA",
      "lon": "-9.204687181932062",
      "lat": "38.669130028825684"
    },
    {
      "id": "pt.ine.add.PTCONT.4688849",
      "street": "R LAVOURA PATIO MATEUS",
      "house": "1",
      "postcode": "2825-047",
      "city": "CAPARICA",
      "lon": "-9.205080817021324",
      "lat": "38.668558922838066"
    },
    {
      "id": "pt.ine.add.PTCONT.4692346",
      "street": "R AZINHAGA FORMOZINHOS",
      "house": "",
      "postcode": "2825-109",
      "city": "CAPARICA",
      "lon": "-9.205963855601182",
      "lat": "38.674604141782574"
    },
    {
      "id": "pt.ine.add.PTCONT.4695047",
      "street": "AZ FORMOZINHO",
      "house": "",
      "postcode": "2825-109",
      "city": "CAPARICA",
      "lon": "-9.205963855601182",
      "lat": "38.674604141782574"
    },
    {
      "id": "pt.ine.add.PTCONT.4699354",
      "street": "R LAVOURA PATIO MATEUS",
      "house": "6",
      "postcode": "2825-047",
      "city": "CAPARICA",
      "lon": "-9.205032714513901",
      "lat": "38.66841523706952"
    },
    {
      "id": "pt.ine.add.PTCONT.4702851",
      "street": "R 1 DE MAIO",
      "house": "5",
      "postcode": "2825-095",
      "city": "CAPARICA",
      "lon": "-9.207011086980181",
      "lat": "38.6754773047386"
    },
    {
      "id": "pt.ine.add.PTCONT.4702852",
      "street": "R 1 DE MAIO",
      "house": "5",
      "postcode": "2825-095",
      "city": "CAPARICA",
      "lon": "-9.207011086980181",
      "lat": "38.6754773047386"
    },
    {
      "id": "pt.ine.add.PTCONT.4702853",
      "street": "R 1 DE MAIO",
      "house": "5",
      "postcode": "2825-095",
      "city": "CAPARICA",
      "lon": "-9.207011086980181",
      "lat": "38.6754773047386"
    },
    {
      "id": "pt.ine.add.PTCONT.4703199",
      "street": "AZ FORMOZINHO",
      "house": "28",
      "postcode": "2825-109",
      "city": "CAPARICA",
      "lon": "-9.205240497630475",
      "lat": "38.67387212705418"
    },
    {
      "id": "pt.ine.add.PTCONT.4703200",
      "street": "AZ FORMOZINHO",
      "house": "28",
      "postcode": "2825-109",
      "city": "CAPARICA",
      "lon": "-9.205240497630475",
      "lat": "38.67387212705418"
    },
    {
      "id": "pt.ine.add.PTCONT.4703201",
      "street": "AZ FORMOZINHO",
      "house": "28",
      "postcode": "2825-109",
      "city": "CAPARICA",
      "lon": "-9.205240497630475",
      "lat": "38.67387212705418"
    },
    {
      "id": "pt.ine.add.PTCONT.4713996",
      "street": "R 1 MAIO",
      "house": "15 A",
      "postcode": "2825-095",
      "city": "CAPARICA",
      "lon": "-9.20682372509628",
      "lat": "38.67370446767249"
    },
    {
      "id": "pt.ine.add.PTCONT.4720687",
      "street": "R LAVOURA QTA CAUTELEIRO",
      "house": "2",
      "postcode": "2825-047",
      "city": "CAPARICA",
      "lon": "-9.204746982197788",
      "lat": "38.6685169426324"
    },
    {
      "id": "pt.ine.add.PTCONT.4721603",
      "street": "AZ FORMOZINHO",
      "house": "",
      "postcode": "2825-109",
      "city": "CAPARICA",
      "lon": "-9.205525378399603",
      "lat": "38.674482052745944"
    },
    {
      "id": "pt.ine.add.PTCONT.4721604",
      "street": "R LAVOURA PATIO MATEUS",
      "house": "3",
      "postcode": "2825-047",
      "city": "CAPARICA",
      "lon": "-9.205183809586426",
      "lat": "38.66853095503997"
    },
    {
      "id": "pt.ine.add.PTCONT.4725563",
      "street": "R 1 DE MAIO",
      "house": "7",
      "postcode": "2825-095",
      "city": "CAPARICA",
      "lon": "-9.206963783174755",
      "lat": "38.675387660065454"
    },
    {
      "id": "pt.ine.add.PTCONT.4725564",
      "street": "R 1 DE MAIO",
      "house": "7",
      "postcode": "2825-095",
      "city": "CAPARICA",
      "lon": "-9.206963783174755",
      "lat": "38.675387660065454"
    },
    {
      "id": "pt.ine.add.PTCONT.4728968",
      "street": "AZ FORMOZINHO",
      "house": "9",
      "postcode": "2825-109",
      "city": "CAPARICA",
      "lon": "-9.205073263876702",
      "lat": "38.674215960540494"
    },
    {
      "id": "pt.ine.add.PTCONT.4728969",
      "street": "AZ FORMOZINHO",
      "house": "9",
      "postcode": "2825-109",
      "city": "CAPARICA",
      "lon": "-9.205073263876702",
      "lat": "38.674215960540494"
    },
    {
      "id": "pt.ine.add.PTCONT.4729024",
      "street": "AZ FORMOZINHO",
      "house": "4",
      "postcode": "2825-109",
      "city": "CAPARICA",
      "lon": "-9.2062072838444",
      "lat": "38.674746034875874"
    },
    {
      "id": "pt.ine.add.PTCONT.4729733",
      "street": "AZ FORMOZINHO",
      "house": "1AB",
      "postcode": "2825-109",
      "city": "CAPARICA",
      "lon": "-9.20535814466723",
      "lat": "38.67482588660514"
    },
    {
      "id": "pt.ine.add.PTCONT.4729872",
      "street": "AZ FORMOZINHO",
      "house": "MOINHO",
      "postcode": "2825-109",
      "city": "CAPARICA",
      "lon": "-9.204586030871774",
      "lat": "38.67236479628567"
    },
    {
      "id": "pt.ine.add.PTCONT.4729873",
      "street": "R 1 DE MAIO",
      "house": "15A 11",
      "postcode": "2825-095",
      "city": "CAPARICA",
      "lon": "-9.206840379249053",
      "lat": "38.67328094312629"
    },
    {
      "id": "pt.ine.add.PTCONT.4732548",
      "street": "R B",
      "house": "11",
      "postcode": "2825-109",
      "city": "CAPARICA",
      "lon": "-9.205091406149835",
      "lat": "38.6738915095718"
    },
    {
      "id": "pt.ine.add.PTCONT.4732549",
      "street": "R B",
      "house": "11",
      "postcode": "2825-109",
      "city": "CAPARICA",
      "lon": "-9.205091406149835",
      "lat": "38.6738915095718"
    },
    {
      "id": "pt.ine.add.PTCONT.4736272",
      "street": "QTA CAUTELEIRO",
      "house": "7",
      "postcode": "2825-109",
      "city": "CAPARICA",
      "lon": "-9.20485427199309",
      "lat": "38.668777189055376"
    },
    {
      "id": "pt.ine.add.PTCONT.4747526",
      "street": "R BAIRRO FIGUEIRA",
      "house": "",
      "postcode": "2825-047",
      "city": "CAPARICA",
      "lon": "-9.204698611853502",
      "lat": "38.6683552433433"
    },
    {
      "id": "pt.ine.add.PTCONT.4753058",
      "street": "QTA CAUTELEIRO",
      "house": "4",
      "postcode": "2825-109",
      "city": "CAPARICA",
      "lon": "-9.20507147764095",
      "lat": "38.66870313509128"
    },
    {
      "id": "pt.ine.add.PTCONT.4758299",
      "street": "R LAVOURA",
      "house": "7A",
      "postcode": "2825-047",
      "city": "CAPARICA",
      "lon": "-9.204668845940775",
      "lat": "38.66867079313355"
    },
    {
      "id": "pt.ine.add.PTCONT.4758300",
      "street": "R LAVOURA QTA CAUTELEIRO",
      "house": "12",
      "postcode": "2825-047",
      "city": "CAPARICA",
      "lon": "-9.204874563067612",
      "lat": "38.66859684479473"
    },
    {
      "id": "pt.ine.add.PTCONT.4772587",
      "street": "R 1 DE MAIO",
      "house": "17A",
      "postcode": "2825-095",
      "city": "CAPARICA",
      "lon": "-9.206955539813876",
      "lat": "38.673297901578536"
    },
    {
      "id": "pt.ine.add.PTCONT.4775203",
      "street": "AZ FORMOZINHO",
      "house": "",
      "postcode": "2825-109",
      "city": "CAPARICA",
      "lon": "-9.204879154640395",
      "lat": "38.67429881077079"
    },
    {
      "id": "pt.ine.add.PTCONT.4786558",
      "street": "AZ FORMOZINHO",
      "house": "8C",
      "postcode": "2825-109",
      "city": "CAPARICA",
      "lon": "-9.204947150238997",
      "lat": "38.674235132257486"
    },
    {
      "id": "pt.ine.add.PTCONT.4789059",
      "street": "AZ FORMOZINHO",
      "house": "8A",
      "postcode": "2825-109",
      "city": "CAPARICA",
      "lon": "-9.204947150238997",
      "lat": "38.674235132257486"
    },
    {
      "id": "pt.ine.add.PTCONT.4793261",
      "street": "AZ FORMOZINHO",
      "house": "3",
      "postcode": "2825-109",
      "city": "CAPARICA",
      "lon": "-9.205060028175067",
      "lat": "38.67409897906251"
    },
    {
      "id": "pt.ine.add.PTCONT.4793262",
      "street": "AZ FORMOZINHO",
      "house": "3",
      "postcode": "2825-109",
      "city": "CAPARICA",
      "lon": "-9.205060028175067",
      "lat": "38.67409897906251"
    },
    {
      "id": "pt.ine.add.PTCONT.4796780",
      "street": "AZ FORMOZINHO",
      "house": "5",
      "postcode": "2825-109",
      "city": "CAPARICA",
      "lon": "-9.205076488066707",
      "lat": "38.67443212076001"
    },
    {
      "id": "pt.ine.add.PTCONT.4796781",
      "street": "AZ FORMOZINHO",
      "house": "5",
      "postcode": "2825-109",
      "city": "CAPARICA",
      "lon": "-9.205076488066707",
      "lat": "38.67443212076001"
    },
    {
      "id": "pt.ine.add.PTCONT.4798971",
      "street": "AZ FORMOZINHO",
      "house": "4A",
      "postcode": "2825-109",
      "city": "CAPARICA",
      "lon": "-9.20620647693442",
      "lat": "38.67469199484469"
    },
    {
      "id": "pt.ine.add.PTCONT.4807569",
      "street": "AZ FORMOZINHO",
      "house": "13",
      "postcode": "2825-109",
      "city": "CAPARICA",
      "lon": "-9.20512412740205",
      "lat": "38.6737741068339"
    },
    {
      "id": "pt.ine.add.PTCONT.4807570",
      "street": "AZ FORMOZINHO",
      "house": "4",
      "postcode": "2825-109",
      "city": "CAPARICA",
      "lon": "-9.204968113934276",
      "lat": "38.674099821510296"
    },
    {
      "id": "pt.ine.add.PTCONT.4807638",
      "street": "AZ FORMOZINHO",
      "house": "4",
      "postcode": "2825-109",
      "city": "CAPARICA",
      "lon": "-9.204968113934276",
      "lat": "38.674099821510296"
    },
    {
      "id": "pt.ine.add.PTCONT.4807901",
      "street": "R LAVOURA QTA CAUTELEIRO",
      "house": "10",
      "postcode": "2825-047",
      "city": "CAPARICA",
      "lon": "-9.205039429969824",
      "lat": "38.66886557130471"
    },
    {
      "id": "pt.ine.add.PTCONT.4811253",
      "street": "R 1 DE MAIO",
      "house": "15A 6",
      "postcode": "2825-095",
      "city": "CAPARICA",
      "lon": "-9.206821975854949",
      "lat": "38.67358738094036"
    },
    {
      "id": "pt.ine.add.PTCONT.4814636",
      "street": "AZ FORMOZINHO",
      "house": "8",
      "postcode": "2825-109",
      "city": "CAPARICA",
      "lon": "-9.204878348741852",
      "lat": "38.674244770711965"
    },
    {
      "id": "pt.ine.add.PTCONT.4818139",
      "street": "AZ FORMOZINHO",
      "house": "16",
      "postcode": "2825-109",
      "city": "CAPARICA",
      "lon": "-9.204965696061672",
      "lat": "38.67393770133143"
    },
    {
      "id": "pt.ine.add.PTCONT.4818140",
      "street": "AZ FORMOZINHO",
      "house": "1",
      "postcode": "2825-109",
      "city": "CAPARICA",
      "lon": "-9.206989588449932",
      "lat": "38.6755765890983"
    },
    {
      "id": "pt.ine.add.PTCONT.4818193",
      "street": "AZ FORMOZINHO",
      "house": "16",
      "postcode": "2825-109",
      "city": "CAPARICA",
      "lon": "-9.204965696061672",
      "lat": "38.67393770133143"
    },
    {
      "id": "pt.ine.add.PTCONT.4818481",
      "street": "R 1 DE MAIO",
      "house": "9A",
      "postcode": "2825-095",
      "city": "CAPARICA",
      "lon": "-9.207057901498992",
      "lat": "38.67476525036956"
    },
    {
      "id": "pt.ine.add.PTCONT.4822062",
      "street": "R BAIRRO DA FIGUEIRA VARANDA 1",
      "house": "1",
      "postcode": "2825-047",
      "city": "CAPARICA",
      "lon": "-9.20508867891168",
      "lat": "38.66831563704647"
    },
    {
      "id": "pt.ine.add.PTCONT.4825178",
      "street": "AZ FORMOZINHO",
      "house": "1",
      "postcode": "2825-109",
      "city": "CAPARICA",
      "lon": "-9.205128963853138",
      "lat": "38.67409834717928"
    },
    {
      "id": "pt.ine.add.PTCONT.4828477",
      "street": "AZ FORMOZINHO",
      "house": "10",
      "postcode": "2825-109",
      "city": "CAPARICA",
      "lon": "-9.205293979168976",
      "lat": "38.67437607956169"
    },
    {
      "id": "pt.ine.add.PTCONT.4833110",
      "street": "R 5 DE OUTUBRO",
      "house": "123",
      "postcode": "2825-047",
      "city": "CAPARICA",
      "lon": "-9.205531954891256",
      "lat": "38.66876196899778"
    },
    {
      "id": "pt.ine.add.PTCONT.4839332",
      "street": "R A",
      "house": "14",
      "postcode": "2825-109",
      "city": "CAPARICA",
      "lon": "-9.204875931059197",
      "lat": "38.67408265053235"
    },
    {
      "id": "pt.ine.add.PTCONT.4839600",
      "street": "PTO MATEUS",
      "house": "6",
      "postcode": "2825-047",
      "city": "CAPARICA",
      "lon": "-9.205090962260924",
      "lat": "38.668468750690245"
    },
    {
      "id": "pt.ine.add.PTCONT.4839606",
      "street": "R LAVOURA QTA CAUTELEIRC",
      "house": "2A",
      "postcode": "2825-047",
      "city": "CAPARICA",
      "lon": "-9.204827938048558",
      "lat": "38.66855223247754"
    },
    {
      "id": "pt.ine.add.PTCONT.4842775",
      "street": "R ALTO DO MACHADO",
      "house": "1",
      "postcode": "2825-109",
      "city": "CAPARICA",
      "lon": "-9.205430104028064",
      "lat": "38.67425772869917"
    },
    {
      "id": "pt.ine.add.PTCONT.4842776",
      "street": "R ALTO DO MACHADO",
      "house": "1",
      "postcode": "2825-109",
      "city": "CAPARICA",
      "lon": "-9.205430104028064",
      "lat": "38.67425772869917"
    },
    {
      "id": "pt.ine.add.PTCONT.4842778",
      "street": "AZ FORMOZINHO",
      "house": "17",
      "postcode": "2825-109",
      "city": "CAPARICA",
      "lon": "-9.204919739043458",
      "lat": "38.673938122525826"
    },
    {
      "id": "pt.ine.add.PTCONT.4842779",
      "street": "AZ FORMOZINHO",
      "house": "17",
      "postcode": "2825-109",
      "city": "CAPARICA",
      "lon": "-9.204919739043458",
      "lat": "38.673938122525826"
    },
    {
      "id": "pt.ine.add.PTCONT.4842780",
      "street": "AZ FORMOZINHO",
      "house": "9",
      "postcode": "2825-109",
      "city": "CAPARICA",
      "lon": "-9.20679305572961",
      "lat": "38.675497322473234"
    },
    {
      "id": "pt.ine.add.PTCONT.4846191",
      "street": "R 1 DE MAIO",
      "house": "21 ANEX",
      "postcode": "2825-095",
      "city": "CAPARICA",
      "lon": "-9.205948505632907",
      "lat": "38.67049667596821"
    },
    {
      "id": "pt.ine.add.PTCONT.4850777",
      "street": "R LAVOURA",
      "house": "4",
      "postcode": "2825-047",
      "city": "CAPARICA",
      "lon": "-9.204620744172855",
      "lat": "38.66852710718753"
    },
    {
      "id": "pt.ine.add.PTCONT.4850778",
      "street": "LG CARLOS DA MAIA CASA DA MANGUEIRA",
      "house": "14",
      "postcode": "2825-047",
      "city": "CAPARICA",
      "lon": "-9.205655171200002",
      "lat": "38.66931932979551"
    },
    {
      "id": "pt.ine.add.PTCONT.4850949",
      "street": "LG CARLOS DA MAIA",
      "house": "18",
      "postcode": "2825-047",
      "city": "CAPARICA",
      "lon": "-9.205557552840363",
      "lat": "38.66970756529079"
    },
    {
      "id": "pt.ine.add.PTCONT.4850950",
      "street": "R 1 DE MAIO",
      "house": "23",
      "postcode": "2825-095",
      "city": "CAPARICA",
      "lon": "-9.205810301500295",
      "lat": "38.66970524733207"
    },
    {
      "id": "pt.ine.add.PTCONT.4859916",
      "street": "R 5 DE OUTUBRO",
      "house": "119",
      "postcode": "2825-047",
      "city": "CAPARICA",
      "lon": "-9.205593025271448",
      "lat": "38.66900462269295"
    },
    {
      "id": "pt.ine.add.PTCONT.4872750",
      "street": "R LAVOURA",
      "house": "B",
      "postcode": "2825-047",
      "city": "CAPARICA",
      "lon": "-9.204644584552016",
      "lat": "38.66935561699016"
    },
    {
      "id": "pt.ine.add.PTCONT.4878660",
      "street": "R 1 DE MAIO",
      "house": "",
      "postcode": "2825-095",
      "city": "CAPARICA",
      "lon": "-9.207025721359107",
      "lat": "38.674918680266686"
    },
    {
      "id": "pt.ine.add.PTCONT.4889526",
      "street": "R 1 DE MAIO",
      "house": "11 13",
      "postcode": "2825-095",
      "city": "CAPARICA",
      "lon": "-9.207131058732687",
      "lat": "38.674278151634915"
    },
    {
      "id": "pt.ine.add.PTCONT.4897309",
      "street": "AZ FORMOZINHO",
      "house": "",
      "postcode": "2825-109",
      "city": "CAPARICA",
      "lon": "-9.205201795866111",
      "lat": "38.67435890884765"
    },
    {
      "id": "pt.ine.add.PTCONT.4897464",
      "street": "R LAVOURA CASINHA PAZ",
      "house": "",
      "postcode": "2825-047",
      "city": "CAPARICA",
      "lon": "-9.204845872146725",
      "lat": "38.668984448085624"
    },
    {
      "id": "pt.ine.add.PTCONT.4897465",
      "street": "R AZINHAGA FORMOZINHOS",
      "house": "5",
      "postcode": "2825-109",
      "city": "CAPARICA",
      "lon": "-9.20582598331037",
      "lat": "38.674605406506394"
    },
    {
      "id": "pt.ine.add.PTCONT.4897466",
      "street": "AZ FORMOZINHO",
      "house": "5",
      "postcode": "2825-109",
      "city": "CAPARICA",
      "lon": "-9.20582598331037",
      "lat": "38.674605406506394"
    },
    {
      "id": "pt.ine.add.PTCONT.4905752",
      "street": "R LAVOURA",
      "house": "4",
      "postcode": "2825-047",
      "city": "CAPARICA",
      "lon": "-9.204631158501892",
      "lat": "38.668454948443305"
    },
    {
      "id": "pt.ine.add.PTCONT.4906049",
      "street": "R LAVOURA QTA CAUTELEIRO",
      "house": "6",
      "postcode": "2825-047",
      "city": "CAPARICA",
      "lon": "-9.204807109743548",
      "lat": "38.668696549991914"
    },
    {
      "id": "pt.ine.add.PTCONT.4906634",
      "street": "AZ FORMOZINHO",
      "house": "15",
      "postcode": "2825-109",
      "city": "CAPARICA",
      "lon": "-9.205000969805981",
      "lat": "38.67399142548334"
    },
    {
      "id": "pt.ine.add.PTCONT.4906635",
      "street": "AZ FORMOZINHO",
      "house": "15",
      "postcode": "2825-109",
      "city": "CAPARICA",
      "lon": "-9.205000969805981",
      "lat": "38.67399142548334"
    },
    {
      "id": "pt.ine.add.PTCONT.4906636",
      "street": "R ALTO DO MACHADO",
      "house": "1",
      "postcode": "2825-109",
      "city": "CAPARICA",
      "lon": "-9.205407931716737",
      "lat": "38.67431197944068"
    },
    {
      "id": "pt.ine.add.PTCONT.4906637",
      "street": "R ALTO DO MACHADO",
      "house": "1",
      "postcode": "2825-109",
      "city": "CAPARICA",
      "lon": "-9.205407931716737",
      "lat": "38.67431197944068"
    },
    {
      "id": "pt.ine.add.PTCONT.4907288",
      "street": "R BAIRRO FIGUEIRA",
      "house": "",
      "postcode": "2825-047",
      "city": "CAPARICA",
      "lon": "-9.204676843492704",
      "lat": "38.668436514040124"
    },
    {
      "id": "pt.ine.add.PTCONT.4910376",
      "street": "AZ FORMOZINHO",
      "house": "15",
      "postcode": "2825-109",
      "city": "CAPARICA",
      "lon": "-9.20505814744462",
      "lat": "38.67397288559423"
    },
    {
      "id": "pt.ine.add.PTCONT.4911611",
      "street": "AZ FORMOZINHO",
      "house": "13A",
      "postcode": "2825-109",
      "city": "CAPARICA",
      "lon": "-9.205146434119747",
      "lat": "38.673728862817136"
    },
    {
      "id": "pt.ine.add.PTCONT.4914373",
      "street": "QTA MURTINHEIRA",
      "house": "",
      "postcode": "2825-076",
      "city": "CAPARICA",
      "lon": "-9.204743818718141",
      "lat": "38.669075462389785"
    },
    {
      "id": "pt.ine.add.PTCONT.4917733",
      "street": "AZ FORMOZINHO",
      "house": "1",
      "postcode": "2825-109",
      "city": "CAPARICA",
      "lon": "-9.205524303213844",
      "lat": "38.674409999351546"
    },
    {
      "id": "pt.ine.add.PTCONT.4917734",
      "street": "AZ FORMOZINHO",
      "house": "1",
      "postcode": "2825-109",
      "city": "CAPARICA",
      "lon": "-9.205524303213844",
      "lat": "38.674409999351546"
    },
    {
      "id": "pt.ine.add.PTCONT.4917943",
      "street": "AZ FORMOZINHO",
      "house": "1A",
      "postcode": "2825-109",
      "city": "CAPARICA",
      "lon": "-9.205200586652653",
      "lat": "38.67427784876859"
    },
    {
      "id": "pt.ine.add.PTCONT.4930897",
      "street": "R LAVOURA PATIO MATEUS",
      "house": "2",
      "postcode": "2825-047",
      "city": "CAPARICA",
      "lon": "-9.205161773078371",
      "lat": "38.66859421244881"
    },
    {
      "id": "pt.ine.add.PTCONT.4933302",
      "street": "R BAIRRO DA FIGUEIRA VARANDA 1",
      "house": "4",
      "postcode": "2825-047",
      "city": "CAPARICA",
      "lon": "-9.204882291369103",
      "lat": "38.66834455232284"
    },
    {
      "id": "pt.ine.add.PTCONT.4938495",
      "street": "R BAIRRO DA FIGUEIRA VARANDA 1",
      "house": "3",
      "postcode": "2825-047",
      "city": "CAPARICA",
      "lon": "-9.204927841929667",
      "lat": "38.668317111137654"
    },
    {
      "id": "pt.ine.add.PTCONT.4946066",
      "street": "AZ FORMOZINHO",
      "house": "10",
      "postcode": "2825-109",
      "city": "CAPARICA",
      "lon": "-9.205360361944155",
      "lat": "38.67420432071137"
    },
    {
      "id": "pt.ine.add.PTCONT.4946141",
      "street": "AZ FORMOZINHO",
      "house": "10",
      "postcode": "2825-109",
      "city": "CAPARICA",
      "lon": "-9.205360361944155",
      "lat": "38.67420432071137"
    },
    {
      "id": "pt.ine.add.PTCONT.4947466",
      "street": "R BAIRRO DA FIGUEIRA VARANDA 1",
      "house": "2",
      "postcode": "2825-047",
      "city": "CAPARICA",
      "lon": "-9.204997309277303",
      "lat": "38.66835250615253"
    },
    {
      "id": "pt.ine.add.PTCONT.4949886",
      "street": "AZ FORMOZINHO",
      "house": "3A",
      "postcode": "2825-109",
      "city": "CAPARICA",
      "lon": "-9.205006074404276",
      "lat": "38.67433367918173"
    },
    {
      "id": "pt.ine.add.PTCONT.4949887",
      "street": "AZ FORMOZINHO",
      "house": "3A",
      "postcode": "2825-109",
      "city": "CAPARICA",
      "lon": "-9.205006074404276",
      "lat": "38.67433367918173"
    },
    {
      "id": "pt.ine.add.PTCONT.4949906",
      "street": "CAM ALTO",
      "house": "",
      "postcode": "2825-109",
      "city": "CAPARICA",
      "lon": "-9.206855315498531",
      "lat": "38.67428068365395"
    },
    {
      "id": "pt.ine.add.PTCONT.4964681",
      "street": "AZ FORMOZINHO",
      "house": "",
      "postcode": "2825-109",
      "city": "CAPARICA",
      "lon": "-9.204903207823014",
      "lat": "38.67437065359263"
    },
    {
      "id": "pt.ine.add.PTCONT.4964682",
      "street": "R 1 DE MAIO",
      "house": "17C",
      "postcode": "2825-095",
      "city": "CAPARICA",
      "lon": "-9.206804028083376",
      "lat": "38.673155166157905"
    },
    {
      "id": "pt.ine.add.PTCONT.4967744",
      "street": "AZ FORMOZINHO",
      "house": "9",
      "postcode": "2825-109",
      "city": "CAPARICA",
      "lon": "-9.20503946766272",
      "lat": "38.674261309851815"
    },
    {
      "id": "pt.ine.add.PTCONT.4967745",
      "street": "AZ FORMOZINHO",
      "house": "9",
      "postcode": "2825-109",
      "city": "CAPARICA",
      "lon": "-9.20503946766272",
      "lat": "38.674261309851815"
    },
    {
      "id": "pt.ine.add.PTCONT.4967746",
      "street": "AZ FORMOZINHO",
      "house": "1",
      "postcode": "2825-109",
      "city": "CAPARICA",
      "lon": "-9.205142871413246",
      "lat": "38.67426036202658"
    },
    {
      "id": "pt.ine.add.PTCONT.4967747",
      "street": "R B",
      "house": "11",
      "postcode": "2825-109",
      "city": "CAPARICA",
      "lon": "-9.20499841753935",
      "lat": "38.67382029862638"
    },
    {
      "id": "pt.ine.add.PTCONT.4968090",
      "street": "R 1 MAIO",
      "house": "17",
      "postcode": "2825-095",
      "city": "CAPARICA",
      "lon": "-9.206804969951007",
      "lat": "38.673218212865166"
    },
    {
      "id": "pt.ine.add.PTCONT.4979201",
      "street": "AZ FORMOZINHO",
      "house": "",
      "postcode": "2825-109",
      "city": "CAPARICA",
      "lon": "-9.206044684492621",
      "lat": "38.67463042396949"
    },
    {
      "id": "pt.ine.add.PTCONT.4979202",
      "street": "AZ FORMOZINHO",
      "house": "",
      "postcode": "2825-109",
      "city": "CAPARICA",
      "lon": "-9.206044684492621",
      "lat": "38.67463042396949"
    },
    {
      "id": "pt.ine.add.PTCONT.4982481",
      "street": "AZ FORMOZINHO",
      "house": "3",
      "postcode": "2825-109",
      "city": "CAPARICA",
      "lon": "-9.206977695184099",
      "lat": "38.67554967459628"
    },
    {
      "id": "pt.ine.add.PTCONT.4982482",
      "street": "AZ FORMOZINHO",
      "house": "7",
      "postcode": "2825-109",
      "city": "CAPARICA",
      "lon": "-9.206828062486435",
      "lat": "38.675533032691625"
    },
    {
      "id": "pt.ine.add.PTCONT.4986432",
      "street": "R LAVOURA QTA CAUTELEIRO",
      "house": "1",
      "postcode": "2825-047",
      "city": "CAPARICA",
      "lon": "-9.20476901905062",
      "lat": "38.668453685296"
    },
    {
      "id": "pt.ine.add.PTCONT.4989986",
      "street": "R 1 MAIO",
      "house": "9",
      "postcode": "2825-095",
      "city": "CAPARICA",
      "lon": "-9.20688768145342",
      "lat": "38.67337058790331"
    },
    {
      "id": "pt.ine.add.PTCONT.4996110",
      "street": "QTA MURTINHEIRA B",
      "house": "B",
      "postcode": "2825-076",
      "city": "CAPARICA",
      "lon": "-9.204517942296837",
      "lat": "38.66933876139925"
    },
    {
      "id": "pt.ine.add.PTCONT.4996111",
      "street": "R LAVOURA",
      "house": "7",
      "postcode": "2825-047",
      "city": "CAPARICA",
      "lon": "-9.204702505577455",
      "lat": "38.6686164372353"
    },
    {
      "id": "pt.ine.add.PTCONT.4996112",
      "street": "R 1 DE MAIO",
      "house": "15A 7",
      "postcode": "2825-095",
      "city": "CAPARICA",
      "lon": "-9.206832523141324",
      "lat": "38.67352422875472"
    },
    {
      "id": "pt.ine.add.PTCONT.4997416",
      "street": "R 1 DE MAIO",
      "house": "21",
      "postcode": "2825-095",
      "city": "CAPARICA",
      "lon": "-9.206030539850014",
      "lat": "38.67060401835963"
    },
    {
      "id": "pt.ine.add.PTCONT.4997417",
      "street": "R 1 DE MAIO",
      "house": "21",
      "postcode": "2825-095",
      "city": "CAPARICA",
      "lon": "-9.206030539850014",
      "lat": "38.67060401835963"
    },
    {
      "id": "pt.ine.add.PTCONT.5000742",
      "street": "AZ FORMOZINHO",
      "house": "11",
      "postcode": "2825-109",
      "city": "CAPARICA",
      "lon": "-9.205398189368523",
      "lat": "38.67442917155752"
    },
    {
      "id": "pt.ine.add.PTCONT.5000830",
      "street": "AZ FORMOZINHO",
      "house": "11",
      "postcode": "2825-109",
      "city": "CAPARICA",
      "lon": "-9.205398189368523",
      "lat": "38.67442917155752"
    },
    {
      "id": "pt.ine.add.PTCONT.5004044",
      "street": "AZ FORMOZINHO",
      "house": "6",
      "postcode": "2825-109",
      "city": "CAPARICA",
      "lon": "-9.205203139442329",
      "lat": "38.67444897560076"
    },
    {
      "id": "pt.ine.add.PTCONT.5004045",
      "street": "AZ FORMOZINHO",
      "house": "6",
      "postcode": "2825-109",
      "city": "CAPARICA",
      "lon": "-9.205203139442329",
      "lat": "38.67444897560076"
    },
    {
      "id": "pt.ine.add.PTCONT.5004046",
      "street": "AZ FORMOZINHO",
      "house": "6",
      "postcode": "2825-109",
      "city": "CAPARICA",
      "lon": "-9.205203139442329",
      "lat": "38.67444897560076"
    },
    {
      "id": "pt.ine.add.PTCONT.5004047",
      "street": "AZ FORMOZINHO",
      "house": "6",
      "postcode": "2825-109",
      "city": "CAPARICA",
      "lon": "-9.205203139442329",
      "lat": "38.67444897560076"
    },
    {
      "id": "pt.ine.add.PTCONT.5004048",
      "street": "AZ FORMOZINHO",
      "house": "6",
      "postcode": "2825-109",
      "city": "CAPARICA",
      "lon": "-9.205203139442329",
      "lat": "38.67444897560076"
    },
    {
      "id": "pt.ine.add.PTCONT.5007954",
      "street": "AZ FORMOZINHO",
      "house": "11 B",
      "postcode": "2825-109",
      "city": "CAPARICA",
      "lon": "-9.205324550338872",
      "lat": "38.67411456997369"
    },
    {
      "id": "pt.ine.add.PTCONT.5007955",
      "street": "AZ FORMOZINHO",
      "house": "10A",
      "postcode": "2825-109",
      "city": "CAPARICA",
      "lon": "-9.205295322861533",
      "lat": "38.67446614631184"
    },
    {
      "id": "pt.ine.add.PTCONT.5010836",
      "street": "AZ FORMOZINHO",
      "house": "11 A",
      "postcode": "2825-109",
      "city": "CAPARICA",
      "lon": "-9.205324550338872",
      "lat": "38.67411456997369"
    },
    {
      "id": "pt.ine.add.PTCONT.5037747",
      "street": "R 1 MAIO",
      "house": "15",
      "postcode": "2825-095",
      "city": "CAPARICA",
      "lon": "-9.206822917752861",
      "lat": "38.673650427642556"
    },
    {
      "id": "pt.ine.add.PTCONT.5041192",
      "street": "AZ FORMOZINHO",
      "house": "2",
      "postcode": "2825-109",
      "city": "CAPARICA",
      "lon": "-9.204776556648616",
      "lat": "38.674353798423816"
    },
    {
      "id": "pt.ine.add.PTCONT.5041193",
      "street": "AZ FORMOZINHO",
      "house": "2",
      "postcode": "2825-109",
      "city": "CAPARICA",
      "lon": "-9.204776556648616",
      "lat": "38.674353798423816"
    },
    {
      "id": "pt.ine.add.PTCONT.5045000",
      "street": "R 5 DE OUTUBRO",
      "house": "121",
      "postcode": "2825-047",
      "city": "CAPARICA",
      "lon": "-9.205579252369983",
      "lat": "38.66885161443849"
    },
    {
      "id": "pt.ine.add.PTCONT.5059763",
      "street": "AZ FORMOZINHO",
      "house": "",
      "postcode": "2825-109",
      "city": "CAPARICA",
      "lon": "-9.20534820077426",
      "lat": "38.674159392674916"
    },
    {
      "id": "pt.ine.add.PTCONT.5059766",
      "street": "LG CARLOS DA MAIA",
      "house": "13",
      "postcode": "2825-047",
      "city": "CAPARICA",
      "lon": "-9.20581332219628",
      "lat": "38.66913772104222"
    },
    {
      "id": "pt.ine.add.PTCONT.5070494",
      "street": "AZ FORMOZINHO",
      "house": "28E",
      "postcode": "2825-109",
      "city": "CAPARICA",
      "lon": "-9.205218325287339",
      "lat": "38.673926377763586"
    },
    {
      "id": "pt.ine.add.PTCONT.5070495",
      "street": "AZ FORMOZINHO",
      "house": "28",
      "postcode": "2825-109",
      "city": "CAPARICA",
      "lon": "-9.205218325287339",
      "lat": "38.673926377763586"
    },
    {
      "id": "pt.ine.add.PTCONT.5070496",
      "street": "AZ FORMOZINHO",
      "house": "28A",
      "postcode": "2825-109",
      "city": "CAPARICA",
      "lon": "-9.205218325287339",
      "lat": "38.673926377763586"
    },
    {
      "id": "pt.ine.add.PTCONT.5074922",
      "street": "AZ FORMOZINHO",
      "house": "1B",
      "postcode": "2825-109",
      "city": "CAPARICA",
      "lon": "-9.205234517132235",
      "lat": "38.67424150608763"
    },
    {
      "id": "pt.ine.add.PTCONT.5074924",
      "street": "R LAVOURA",
      "house": "8",
      "postcode": "2825-047",
      "city": "CAPARICA",
      "lon": "-9.204690211578898",
      "lat": "38.66856250238281"
    },
    {
      "id": "pt.ine.add.PTCONT.5077512",
      "street": "AZ FORMOZINHO",
      "house": "4",
      "postcode": "2825-109",
      "city": "CAPARICA",
      "lon": "-9.205029859053715",
      "lat": "38.67438750862337"
    },
    {
      "id": "pt.ine.add.PTCONT.5077513",
      "street": "AZ FORMOZINHO",
      "house": "4",
      "postcode": "2825-109",
      "city": "CAPARICA",
      "lon": "-9.205029859053715",
      "lat": "38.67438750862337"
    },
    {
      "id": "pt.ine.add.PTCONT.5080542",
      "street": "R LAVOURA QTA CAUTELEIRO",
      "house": "3A",
      "postcode": "2825-047",
      "city": "CAPARICA",
      "lon": "-9.204817523905675",
      "lat": "38.6686243912355"
    },
    {
      "id": "pt.ine.add.PTCONT.5081549",
      "street": "R BAIRRO FIGUEIRA",
      "house": "10",
      "postcode": "2825-047",
      "city": "CAPARICA",
      "lon": "-9.203846057957545",
      "lat": "38.6682009092376"
    },
    {
      "id": "pt.ine.add.PTCONT.5088281",
      "street": "R 1 DE MAIO",
      "house": "15A 8",
      "postcode": "2825-095",
      "city": "CAPARICA",
      "lon": "-9.20679657551406",
      "lat": "38.67342547180706"
    },
    {
      "id": "pt.ine.add.PTCONT.5091739",
      "street": "AZ FORMOZINHO",
      "house": "1",
      "postcode": "2825-109",
      "city": "CAPARICA",
      "lon": "-9.205630798629192",
      "lat": "38.674616204594074"
    },
    {
      "id": "pt.ine.add.PTCONT.5091740",
      "street": "AZ FORMOZINHO",
      "house": "1",
      "postcode": "2825-109",
      "city": "CAPARICA",
      "lon": "-9.205630798629192",
      "lat": "38.674616204594074"
    },
    {
      "id": "pt.ine.add.PTCONT.5092063",
      "street": "R LAVOURA PATIO MATEUS",
      "house": "5",
      "postcode": "2825-047",
      "city": "CAPARICA",
      "lon": "-9.205229091480362",
      "lat": "38.66848550036943"
    },
    {
      "id": "pt.ine.add.PTCONT.5098837",
      "street": "R 1 DE MAIO",
      "house": "19",
      "postcode": "2825-095",
      "city": "CAPARICA",
      "lon": "-9.20645141844903",
      "lat": "38.672626936276494"
    },
    {
      "id": "pt.ine.add.PTCONT.5098838",
      "street": "AZ FORMOZINHO",
      "house": "S",
      "postcode": "2825-109",
      "city": "CAPARICA",
      "lon": "-9.206862934706955",
      "lat": "38.67555973623022"
    },
    {
      "id": "pt.ine.add.PTCONT.5109349",
      "street": "AZ FORMOZINHO",
      "house": "",
      "postcode": "2825-109",
      "city": "CAPARICA",
      "lon": "-9.204820499294996",
      "lat": "38.674218277132596"
    },
    {
      "id": "pt.ine.add.PTCONT.5109359",
      "street": "AZ FORMOZINHO",
      "house": "48",
      "postcode": "2825-109",
      "city": "CAPARICA",
      "lon": "-9.20509852632021",
      "lat": "38.674368863402655"
    },
    {
      "id": "pt.ine.add.PTCONT.5120947",
      "street": "LG CARLOS DA MAIA",
      "house": "16",
      "postcode": "2825-047",
      "city": "CAPARICA",
      "lon": "-9.205553521480203",
      "lat": "38.669437364838785"
    },
    {
      "id": "pt.ine.add.PTCONT.5126559",
      "street": "R 1 DE MAIO",
      "house": "15A 10",
      "postcode": "2825-095",
      "city": "CAPARICA",
      "lon": "-9.206818342847734",
      "lat": "38.673344200796656"
    },
    {
      "id": "pt.ine.add.PTCONT.5129827",
      "street": "R 1 DE MAIO",
      "house": "21",
      "postcode": "2825-095",
      "city": "CAPARICA",
      "lon": "-9.206030539850014",
      "lat": "38.67060401835963"
    },
    {
      "id": "pt.ine.add.PTCONT.5133808",
      "street": "TV GREMIO",
      "house": "8",
      "postcode": "2825-153",
      "city": "CAPARICA",
      "lon": "-9.204889677323722",
      "lat": "38.66883992000998"
    },
    {
      "id": "pt.ine.add.PTCONT.5134333",
      "street": "R AZINHAGA FORMOZINHOS",
      "house": "7",
      "postcode": "2825-109",
      "city": "CAPARICA",
      "lon": "-9.205928580832326",
      "lat": "38.674550417941354"
    }
  ]
}