{
  "data": {
    "distrito": "Viseu",
    "concelho": "Tondela",
    "freguesia": "Canas de Santa Maria",
    "OBJECTID": 410,
    "BGRI2021": "18210300226",
    "DT21": "18",
    "DTMN21": "1821",
    "DTMNFR21": "182103",
    "DTMNFRSEC21": "182103002",
    "SECNUM21": "002",
    "SSNUM21": "26",
    "SECSSNUM21": "00226",
    "OBJECTID_1": 198959,
    "DT": "18",
    "CC": "21",
    "fr": "03",
    "SEC": "002",
    "SS": "26"
  },
  "addresses": [
    {
      "id": "pt.ine.add.PTCONT.5429978",
      "street": "R LADOEIRA",
      "house": "",
      "postcode": "3460-020",
      "city": "TONDELA",
      "lon": "-8.058373010181425",
      "lat": "40.554679217766925"
    },
    {
      "id": "pt.ine.add.PTCONT.5494466",
      "street": "R AMIEIRA",
      "house": "148",
      "postcode": "3460-020",
      "city": "TONDELA",
      "lon": "-8.060593655850802",
      "lat": "40.553735072946814"
    },
    {
      "id": "pt.ine.add.PTCONT.5548984",
      "street": "R LADOEIRA",
      "house": "273",
      "postcode": "3460-020",
      "city": "TONDELA",
      "lon": "-8.057994547458131",
      "lat": "40.555264318872574"
    },
    {
      "id": "pt.ine.add.PTCONT.5555576",
      "street": "R LADOEIRA",
      "house": "105",
      "postcode": "3460-020",
      "city": "TONDELA",
      "lon": "-8.058858231376993",
      "lat": "40.55363491203038"
    },
    {
      "id": "pt.ine.add.PTCONT.5607699",
      "street": "R CIRCUNVALAÇÃO",
      "house": "182",
      "postcode": "3460-020",
      "city": "TONDELA",
      "lon": "-8.058623032702856",
      "lat": "40.55279726456603"
    },
    {
      "id": "pt.ine.add.PTCONT.5618464",
      "street": "R LADOEIRA",
      "house": "121",
      "postcode": "3460-020",
      "city": "TONDELA",
      "lon": "-8.059955015108656",
      "lat": "40.55474326759437"
    },
    {
      "id": "pt.ine.add.PTCONT.5629785",
      "street": "R AMIEIRA",
      "house": "88",
      "postcode": "3460-020",
      "city": "TONDELA",
      "lon": "-8.059425458659033",
      "lat": "40.55315799247575"
    },
    {
      "id": "pt.ine.add.PTCONT.5635783",
      "street": "R AMIEIRA",
      "house": "100",
      "postcode": "3460-020",
      "city": "TONDELA",
      "lon": "-8.059578831573576",
      "lat": "40.5532571488626"
    },
    {
      "id": "pt.ine.add.PTCONT.5661597",
      "street": "R ESMOITADAS",
      "house": "",
      "postcode": "3460-020",
      "city": "TONDELA",
      "lon": "-8.059270453996163",
      "lat": "40.554544714822576"
    }
  ]
}