{
  "data": {
    "distrito": "Lisboa",
    "concelho": "Azambuja",
    "freguesia": "Aveiras de Cima",
    "OBJECTID": 45,
    "BGRI2021": "11030300417",
    "DT21": "11",
    "DTMN21": "1103",
    "DTMNFR21": "110303",
    "DTMNFRSEC21": "110303004",
    "SECNUM21": "004",
    "SSNUM21": "17",
    "SECSSNUM21": "00417",
    "OBJECTID_1": 99887,
    "DT": "11",
    "CC": "03",
    "fr": "03",
    "SEC": "004",
    "SS": "17"
  },
  "addresses": [
    {
      "id": "pt.ine.add.PTCONT.2273709",
      "street": "R FONTE SANTA",
      "house": "14",
      "postcode": "2050-112",
      "city": "AVEIRAS DE CIMA",
      "lon": "-8.90624071438838",
      "lat": "39.13356213096847"
    },
    {
      "id": "pt.ine.add.PTCONT.2275799",
      "street": "R MOINHO NOVO",
      "house": "51",
      "postcode": "2050-143",
      "city": "AVEIRAS DE CIMA",
      "lon": "-8.904014501827351",
      "lat": "39.13622504490074"
    },
    {
      "id": "pt.ine.add.PTCONT.2295922",
      "street": "TV FERREA III",
      "house": "02",
      "postcode": "2050-107",
      "city": "AVEIRAS DE CIMA",
      "lon": "-8.903389305553205",
      "lat": "39.1361661267154"
    },
    {
      "id": "pt.ine.add.PTCONT.2302340",
      "street": "TV FERREA III",
      "house": "02",
      "postcode": "2050-107",
      "city": "AVEIRAS DE CIMA",
      "lon": "-8.903389305553205",
      "lat": "39.1361661267154"
    },
    {
      "id": "pt.ine.add.PTCONT.2304732",
      "street": "TV FERREA III",
      "house": "04",
      "postcode": "2050-106",
      "city": "AVEIRAS DE CIMA",
      "lon": "-8.90370332716378",
      "lat": "39.136326183741"
    },
    {
      "id": "pt.ine.add.PTCONT.2313765",
      "street": "R ANTÓNIO AMARO DOS SANTOS",
      "house": "92",
      "postcode": "2050-075",
      "city": "AVEIRAS DE CIMA",
      "lon": "-8.902843292804967",
      "lat": "39.13488167918101"
    },
    {
      "id": "pt.ine.add.PTCONT.2313766",
      "street": "TV JULIÃO",
      "house": "18",
      "postcode": "2050-136",
      "city": "AVEIRAS DE CIMA",
      "lon": "-8.910175428709945",
      "lat": "39.1337881717869"
    },
    {
      "id": "pt.ine.add.PTCONT.2322916",
      "street": "R FERREA",
      "house": "30",
      "postcode": "2050-104",
      "city": "AVEIRAS DE CIMA",
      "lon": "-8.903990487915442",
      "lat": "39.13614413736198"
    },
    {
      "id": "pt.ine.add.PTCONT.2322917",
      "street": "R MOINHO NOVO",
      "house": "28",
      "postcode": "2050-143",
      "city": "AVEIRAS DE CIMA",
      "lon": "-8.903989505763974",
      "lat": "39.13605407011566"
    },
    {
      "id": "pt.ine.add.PTCONT.2331830",
      "street": "R DOMINGOS SOARES ADRIAO",
      "house": "27",
      "postcode": "2050-101",
      "city": "AVEIRAS DE CIMA",
      "lon": "-8.904845485935116",
      "lat": "39.13818315285649"
    },
    {
      "id": "pt.ine.add.PTCONT.2350223",
      "street": "R MOINHO NOVO",
      "house": "32",
      "postcode": "2050-143",
      "city": "AVEIRAS DE CIMA",
      "lon": "-8.903935805729958",
      "lat": "39.13643273497759"
    },
    {
      "id": "pt.ine.add.PTCONT.2358474",
      "street": "R FONTE SANTA",
      "house": "26",
      "postcode": "2050-112",
      "city": "AVEIRAS DE CIMA",
      "lon": "-8.906969674929806",
      "lat": "39.133593322943405"
    },
    {
      "id": "pt.ine.add.PTCONT.2358773",
      "street": "R FONTE SANTA",
      "house": "40",
      "postcode": "2050-112",
      "city": "AVEIRAS DE CIMA",
      "lon": "-8.908676089704368",
      "lat": "39.13311359742196"
    },
    {
      "id": "pt.ine.add.PTCONT.2358774",
      "street": "TV JULIÃO",
      "house": "14",
      "postcode": "2050-136",
      "city": "AVEIRAS DE CIMA",
      "lon": "-8.910012139082545",
      "lat": "39.133663157047394"
    },
    {
      "id": "pt.ine.add.PTCONT.2393662",
      "street": "R FERREA",
      "house": "42",
      "postcode": "2050-104",
      "city": "AVEIRAS DE CIMA",
      "lon": "-8.90484541085711",
      "lat": "39.13605741349368"
    },
    {
      "id": "pt.ine.add.PTCONT.2405597",
      "street": "TV NARCISO",
      "house": "",
      "postcode": "2050-146",
      "city": "AVEIRAS DE CIMA",
      "lon": "-8.906897200766636",
      "lat": "39.134368438451716"
    },
    {
      "id": "pt.ine.add.PTCONT.2411983",
      "street": "R DOMINGOS SOARES ADRIAO",
      "house": "3",
      "postcode": "2050-101",
      "city": "AVEIRAS DE CIMA",
      "lon": "-8.904773402888871",
      "lat": "39.13687756122374"
    },
    {
      "id": "pt.ine.add.PTCONT.2438727",
      "street": "R AMEIXOEIRA",
      "house": "135",
      "postcode": "2050-070",
      "city": "AVEIRAS DE CIMA",
      "lon": "-8.904455902015359",
      "lat": "39.13851900447854"
    },
    {
      "id": "pt.ine.add.PTCONT.2438728",
      "street": "R MOINHO NOVO",
      "house": "37",
      "postcode": "2050-143",
      "city": "AVEIRAS DE CIMA",
      "lon": "-8.903916089602735",
      "lat": "39.1356852532998"
    },
    {
      "id": "pt.ine.add.PTCONT.2439820",
      "street": "R MOINHO NOVO",
      "house": "37",
      "postcode": "2050-143",
      "city": "AVEIRAS DE CIMA",
      "lon": "-8.903916089602735",
      "lat": "39.1356852532998"
    },
    {
      "id": "pt.ine.add.PTCONT.2450977",
      "street": "TV JULIAO",
      "house": "6",
      "postcode": "2050-136",
      "city": "AVEIRAS DE CIMA",
      "lon": "-8.910018260061259",
      "lat": "39.133167710586655"
    },
    {
      "id": "pt.ine.add.PTCONT.2496011",
      "street": "R AMEIXOEIRA",
      "house": "143",
      "postcode": "2050-070",
      "city": "AVEIRAS DE CIMA",
      "lon": "-8.90499007225325",
      "lat": "39.13871363025589"
    },
    {
      "id": "pt.ine.add.PTCONT.2505201",
      "street": "R FONTE SANTA",
      "house": "44",
      "postcode": "2050-112",
      "city": "AVEIRAS DE CIMA",
      "lon": "-8.9093455430248",
      "lat": "39.132992045093054"
    },
    {
      "id": "pt.ine.add.PTCONT.2522986",
      "street": "R AMEIXOEIRA",
      "house": "155",
      "postcode": "2050-070",
      "city": "AVEIRAS DE CIMA",
      "lon": "-8.905408099163742",
      "lat": "39.138863986366744"
    },
    {
      "id": "pt.ine.add.PTCONT.2575099",
      "street": "TV FERREA II",
      "house": "31",
      "postcode": "2050-106",
      "city": "AVEIRAS DE CIMA",
      "lon": "-8.903978456254373",
      "lat": "39.13716205012891"
    },
    {
      "id": "pt.ine.add.PTCONT.2577207",
      "street": "TV JOSE DA COSTA",
      "house": "6",
      "postcode": "2050-135",
      "city": "AVEIRAS DE CIMA",
      "lon": "-8.906963729769975",
      "lat": "39.13410678286656"
    },
    {
      "id": "pt.ine.add.PTCONT.2586205",
      "street": "R MOINHO NOVO",
      "house": "39",
      "postcode": "2050-143",
      "city": "AVEIRAS DE CIMA",
      "lon": "-8.903974601573992",
      "lat": "39.13574791795547"
    },
    {
      "id": "pt.ine.add.PTCONT.2586207",
      "street": "R FONTE SANTA",
      "house": "32",
      "postcode": "2050-112",
      "city": "AVEIRAS DE CIMA",
      "lon": "-8.907854502352583",
      "lat": "39.134127887475564"
    },
    {
      "id": "pt.ine.add.PTCONT.2640519",
      "street": "R MOINHO NOVO",
      "house": "",
      "postcode": "2050-143",
      "city": "AVEIRAS DE CIMA",
      "lon": "-8.903855024638624",
      "lat": "39.13538841374134"
    },
    {
      "id": "pt.ine.add.PTCONT.2657884",
      "street": "R FONTE SANTA",
      "house": "26",
      "postcode": "2050-112",
      "city": "AVEIRAS DE CIMA",
      "lon": "-8.906773274740827",
      "lat": "39.133612641498125"
    },
    {
      "id": "pt.ine.add.PTCONT.2666202",
      "street": "R DOMINGOS SOARES ADRIAO",
      "house": "19",
      "postcode": "2050-101",
      "city": "AVEIRAS DE CIMA",
      "lon": "-8.905261049774081",
      "lat": "39.13810834156807"
    },
    {
      "id": "pt.ine.add.PTCONT.2698280",
      "street": "TV FERREA II",
      "house": "15",
      "postcode": "2050-106",
      "city": "AVEIRAS DE CIMA",
      "lon": "-8.90376615976275",
      "lat": "39.13678514436477"
    },
    {
      "id": "pt.ine.add.PTCONT.2699263",
      "street": "TV NARCISO",
      "house": "O2",
      "postcode": "2050-146",
      "city": "AVEIRAS DE CIMA",
      "lon": "-8.906624216621736",
      "lat": "39.13373072669636"
    },
    {
      "id": "pt.ine.add.PTCONT.2733394",
      "street": "R ALTO DO MOINHO",
      "house": "",
      "postcode": "2050-069",
      "city": "AVEIRAS DE CIMA",
      "lon": "-8.904601499260608",
      "lat": "39.13702281717221"
    },
    {
      "id": "pt.ine.add.PTCONT.2733395",
      "street": "R MOINHO NOVO",
      "house": "",
      "postcode": "2050-143",
      "city": "AVEIRAS DE CIMA",
      "lon": "-8.903994392108462",
      "lat": "39.135441536315106"
    },
    {
      "id": "pt.ine.add.PTCONT.2737253",
      "street": "R FERREA",
      "house": "44",
      "postcode": "2050-104",
      "city": "AVEIRAS DE CIMA",
      "lon": "-8.904996935404514",
      "lat": "39.13616449860237"
    },
    {
      "id": "pt.ine.add.PTCONT.2737254",
      "street": "R FERREA",
      "house": "",
      "postcode": "2050-104",
      "city": "AVEIRAS DE CIMA",
      "lon": "-8.903665294229235",
      "lat": "39.1360201844629"
    },
    {
      "id": "pt.ine.add.PTCONT.2746286",
      "street": "R MOINHO NOVO",
      "house": "43",
      "postcode": "2050-143",
      "city": "AVEIRAS DE CIMA",
      "lon": "-8.903929520417883",
      "lat": "39.13585630459798"
    },
    {
      "id": "pt.ine.add.PTCONT.2746558",
      "street": "TV FERREA II",
      "house": "25",
      "postcode": "2050-106",
      "city": "AVEIRAS DE CIMA",
      "lon": "-8.903884069240359",
      "lat": "39.13699153426836"
    },
    {
      "id": "pt.ine.add.PTCONT.2746559",
      "street": "R MOINHO NOVO",
      "house": "23",
      "postcode": "2050-143",
      "city": "AVEIRAS DE CIMA",
      "lon": "-8.903854435466611",
      "lat": "39.13533437338497"
    },
    {
      "id": "pt.ine.add.PTCONT.2746560",
      "street": "R MOINHO NOVO",
      "house": "13",
      "postcode": "2050-143",
      "city": "AVEIRAS DE CIMA",
      "lon": "-8.903609905017918",
      "lat": "39.13518286474545"
    },
    {
      "id": "pt.ine.add.PTCONT.2771205",
      "street": "R MOINHO NOVO",
      "house": "61",
      "postcode": "2050-143",
      "city": "AVEIRAS DE CIMA",
      "lon": "-8.904492302568077",
      "lat": "39.136555156520046"
    },
    {
      "id": "pt.ine.add.PTCONT.2782303",
      "street": "R MOINHO NOVO",
      "house": "S",
      "postcode": "2050-143",
      "city": "AVEIRAS DE CIMA",
      "lon": "-8.903204449631163",
      "lat": "39.135122492703914"
    },
    {
      "id": "pt.ine.add.PTCONT.2782304",
      "street": "R FONTE SANTA",
      "house": "",
      "postcode": "2050-112",
      "city": "AVEIRAS DE CIMA",
      "lon": "-8.906413985516558",
      "lat": "39.13354296676462"
    },
    {
      "id": "pt.ine.add.PTCONT.2804512",
      "street": "R DOMINGOS SOARES ADRIAO",
      "house": "",
      "postcode": "2050-101",
      "city": "AVEIRAS DE CIMA",
      "lon": "-8.904452560419921",
      "lat": "39.138212775994006"
    },
    {
      "id": "pt.ine.add.PTCONT.2810575",
      "street": "R AMEIXOEIRA",
      "house": "133",
      "postcode": "2050-070",
      "city": "AVEIRAS DE CIMA",
      "lon": "-8.904363280863212",
      "lat": "39.13851061003792"
    },
    {
      "id": "pt.ine.add.PTCONT.2829392",
      "street": "R MOINHO NOVO",
      "house": "",
      "postcode": "2050-143",
      "city": "AVEIRAS DE CIMA",
      "lon": "-8.904447123439377",
      "lat": "39.1366545366223"
    },
    {
      "id": "pt.ine.add.PTCONT.2835573",
      "street": "R AMEIXOEIRA",
      "house": "145 A",
      "postcode": "2050-070",
      "city": "AVEIRAS DE CIMA",
      "lon": "-8.905106316353818",
      "lat": "39.13876690457911"
    },
    {
      "id": "pt.ine.add.PTCONT.2856313",
      "street": "R ALTO DO MOINHO",
      "house": "9",
      "postcode": "2050-069",
      "city": "AVEIRAS DE CIMA",
      "lon": "-8.904509273194671",
      "lat": "39.137050449714"
    },
    {
      "id": "pt.ine.add.PTCONT.2908457",
      "street": "R FERREA",
      "house": "21",
      "postcode": "2050-104",
      "city": "AVEIRAS DE CIMA",
      "lon": "-8.904438082295618",
      "lat": "39.13582591806475"
    },
    {
      "id": "pt.ine.add.PTCONT.2908458",
      "street": "R MOINHO NOVO",
      "house": "11",
      "postcode": "2050-143",
      "city": "AVEIRAS DE CIMA",
      "lon": "-8.903526595637016",
      "lat": "39.13496723841572"
    },
    {
      "id": "pt.ine.add.PTCONT.2922701",
      "street": "R FERREA",
      "house": "",
      "postcode": "2050-104",
      "city": "AVEIRAS DE CIMA",
      "lon": "-8.903526318474803",
      "lat": "39.13600308841298"
    },
    {
      "id": "pt.ine.add.PTCONT.2940043",
      "street": "R DOMINGOS SOARES ADRIAO",
      "house": "37",
      "postcode": "2050-101",
      "city": "AVEIRAS DE CIMA",
      "lon": "-8.904407969871317",
      "lat": "39.13836619638558"
    },
    {
      "id": "pt.ine.add.PTCONT.2940178",
      "street": "R FERREA",
      "house": "40",
      "postcode": "2050-104",
      "city": "AVEIRAS DE CIMA",
      "lon": "-8.908804781080526",
      "lat": "39.13324785169274"
    },
    {
      "id": "pt.ine.add.PTCONT.2963403",
      "street": "TV JULIÃO",
      "house": "08",
      "postcode": "2050-136",
      "city": "AVEIRAS DE CIMA",
      "lon": "-8.909291181608701",
      "lat": "39.13330766528424"
    },
    {
      "id": "pt.ine.add.PTCONT.2969712",
      "street": "R FONTE SANTA",
      "house": "38",
      "postcode": "2050-112",
      "city": "AVEIRAS DE CIMA",
      "lon": "-8.908821088976667",
      "lat": "39.13368009721504"
    },
    {
      "id": "pt.ine.add.PTCONT.2972405",
      "street": "R FERREA",
      "house": "",
      "postcode": "2050-104",
      "city": "AVEIRAS DE CIMA",
      "lon": "-8.904671838207534",
      "lat": "39.136049555253784"
    },
    {
      "id": "pt.ine.add.PTCONT.2990420",
      "street": "R DOMINGOS SOARES ADRIÃO",
      "house": "21",
      "postcode": "2050-101",
      "city": "AVEIRAS DE CIMA",
      "lon": "-8.905018572075498",
      "lat": "39.138145977185914"
    },
    {
      "id": "pt.ine.add.PTCONT.2997394",
      "street": "R FERREA",
      "house": "18",
      "postcode": "2050-104",
      "city": "AVEIRAS DE CIMA",
      "lon": "-8.903445167526732",
      "lat": "39.13598561003534"
    },
    {
      "id": "pt.ine.add.PTCONT.2997404",
      "street": "R DOMINGOS SOARES ADRIAO",
      "house": "4",
      "postcode": "2050-101",
      "city": "AVEIRAS DE CIMA",
      "lon": "-8.904611688211093",
      "lat": "39.136896646512426"
    },
    {
      "id": "pt.ine.add.PTCONT.2999408",
      "street": "R MOINHO NOVO",
      "house": "OS",
      "postcode": "2050-143",
      "city": "AVEIRAS DE CIMA",
      "lon": "-8.903260115061316",
      "lat": "39.13492396262788"
    },
    {
      "id": "pt.ine.add.PTCONT.2999687",
      "street": "R FERREA",
      "house": "40",
      "postcode": "2050-104",
      "city": "AVEIRAS DE CIMA",
      "lon": "-8.904707319524926",
      "lat": "39.136121379362905"
    },
    {
      "id": "pt.ine.add.PTCONT.2999688",
      "street": "R FERREA",
      "house": "52",
      "postcode": "2050-104",
      "city": "AVEIRAS DE CIMA",
      "lon": "-8.906661241100695",
      "lat": "39.13500052095409"
    },
    {
      "id": "pt.ine.add.PTCONT.2999691",
      "street": "R FERREA",
      "house": "52",
      "postcode": "2050-104",
      "city": "AVEIRAS DE CIMA",
      "lon": "-8.906661241100695",
      "lat": "39.13500052095409"
    },
    {
      "id": "pt.ine.add.PTCONT.2999692",
      "street": "R FERREA",
      "house": "52",
      "postcode": "2050-104",
      "city": "AVEIRAS DE CIMA",
      "lon": "-8.906661241100695",
      "lat": "39.13500052095409"
    },
    {
      "id": "pt.ine.add.PTCONT.2999693",
      "street": "R FERREA",
      "house": "52",
      "postcode": "2050-104",
      "city": "AVEIRAS DE CIMA",
      "lon": "-8.906661241100695",
      "lat": "39.13500052095409"
    },
    {
      "id": "pt.ine.add.PTCONT.2999694",
      "street": "R FERREA",
      "house": "52",
      "postcode": "2050-104",
      "city": "AVEIRAS DE CIMA",
      "lon": "-8.906661241100695",
      "lat": "39.13500052095409"
    },
    {
      "id": "pt.ine.add.PTCONT.3027288",
      "street": "R AMEIXOEIRA",
      "house": "139",
      "postcode": "2050-070",
      "city": "AVEIRAS DE CIMA",
      "lon": "-8.90485059922896",
      "lat": "39.1386515022558"
    },
    {
      "id": "pt.ine.add.PTCONT.3027294",
      "street": "R FONTE SANTA",
      "house": "32",
      "postcode": "2050-112",
      "city": "AVEIRAS DE CIMA",
      "lon": "-8.907747065317155",
      "lat": "39.13382235077746"
    },
    {
      "id": "pt.ine.add.PTCONT.3034200",
      "street": "R AMEIXOEIRA",
      "house": "151",
      "postcode": "2050-070",
      "city": "AVEIRAS DE CIMA",
      "lon": "-8.905439941535938",
      "lat": "39.138602561651304"
    },
    {
      "id": "pt.ine.add.PTCONT.3036291",
      "street": "R FERREA",
      "house": "10",
      "postcode": "2050-104",
      "city": "AVEIRAS DE CIMA",
      "lon": "-8.90328365074612",
      "lat": "39.13602270691964"
    },
    {
      "id": "pt.ine.add.PTCONT.3045090",
      "street": "R FERREA",
      "house": "28",
      "postcode": "2050-104",
      "city": "AVEIRAS DE CIMA",
      "lon": "-8.904070558693942",
      "lat": "39.13606254138741"
    },
    {
      "id": "pt.ine.add.PTCONT.3054859",
      "street": "TV FERREA II",
      "house": "21",
      "postcode": "2050-106",
      "city": "AVEIRAS DE CIMA",
      "lon": "-8.903825065316045",
      "lat": "39.136883835971375"
    },
    {
      "id": "pt.ine.add.PTCONT.3054862",
      "street": "R FERREA",
      "house": "22",
      "postcode": "2050-104",
      "city": "AVEIRAS DE CIMA",
      "lon": "-8.903700872692054",
      "lat": "39.13610101561442"
    },
    {
      "id": "pt.ine.add.PTCONT.3066553",
      "street": "R DOMINGOS SOARES ADRIAO",
      "house": "2",
      "postcode": "2050-101",
      "city": "AVEIRAS DE CIMA",
      "lon": "-8.904472219123456",
      "lat": "39.13683451800097"
    },
    {
      "id": "pt.ine.add.PTCONT.3074081",
      "street": "R FERREA",
      "house": "52",
      "postcode": "2050-104",
      "city": "AVEIRAS DE CIMA",
      "lon": "-8.906929991401794",
      "lat": "39.135250943498"
    },
    {
      "id": "pt.ine.add.PTCONT.3092897",
      "street": "R DOMINGOS SOARES ADRIAO",
      "house": "29",
      "postcode": "2050-101",
      "city": "AVEIRAS DE CIMA",
      "lon": "-8.904614376451528",
      "lat": "39.13820269761981"
    },
    {
      "id": "pt.ine.add.PTCONT.3092901",
      "street": "R DOMINGOS SOARES ADRIAO",
      "house": "1",
      "postcode": "2050-101",
      "city": "AVEIRAS DE CIMA",
      "lon": "-8.90459786232828",
      "lat": "39.13668956845215"
    },
    {
      "id": "pt.ine.add.PTCONT.3099427",
      "street": "TV JOSE DA COSTA",
      "house": "8",
      "postcode": "2050-135",
      "city": "AVEIRAS DE CIMA",
      "lon": "-8.907218348887373",
      "lat": "39.13412310684536"
    },
    {
      "id": "pt.ine.add.PTCONT.3102613",
      "street": "R MOINHO NOVO",
      "house": "",
      "postcode": "2050-143",
      "city": "AVEIRAS DE CIMA",
      "lon": "-8.904378027908542",
      "lat": "39.136682015984135"
    },
    {
      "id": "pt.ine.add.PTCONT.3117827",
      "street": "TV FERREA II",
      "house": "13",
      "postcode": "2050-106",
      "city": "AVEIRAS DE CIMA",
      "lon": "-8.903695885673015",
      "lat": "39.13670454263547"
    },
    {
      "id": "pt.ine.add.PTCONT.3129623",
      "street": "R FERREA",
      "house": "27",
      "postcode": "2050-104",
      "city": "AVEIRAS DE CIMA",
      "lon": "-8.904959782017245",
      "lat": "39.135939560299256"
    },
    {
      "id": "pt.ine.add.PTCONT.3144937",
      "street": "R FERREA",
      "house": "48",
      "postcode": "2050-104",
      "city": "AVEIRAS DE CIMA",
      "lon": "-8.905100134951867",
      "lat": "39.13608274875143"
    },
    {
      "id": "pt.ine.add.PTCONT.3164899",
      "street": "R MOINHO NOVO",
      "house": "19",
      "postcode": "2050-143",
      "city": "AVEIRAS DE CIMA",
      "lon": "-8.903795531199462",
      "lat": "39.13523568175463"
    },
    {
      "id": "pt.ine.add.PTCONT.3213150",
      "street": "R MOINHO NOVO",
      "house": "36",
      "postcode": "2050-143",
      "city": "AVEIRAS DE CIMA",
      "lon": "-8.904088115567001",
      "lat": "39.13661187505719"
    },
    {
      "id": "pt.ine.add.PTCONT.3213151",
      "street": "R MOINHO NOVO",
      "house": "53",
      "postcode": "2050-143",
      "city": "AVEIRAS DE CIMA",
      "lon": "-8.904085954529975",
      "lat": "39.13641372713397"
    },
    {
      "id": "pt.ine.add.PTCONT.3222025",
      "street": "R FONTE SANTA",
      "house": "30",
      "postcode": "2050-112",
      "city": "AVEIRAS DE CIMA",
      "lon": "-8.907612237082171",
      "lat": "39.134183541803026"
    },
    {
      "id": "pt.ine.add.PTCONT.3241100",
      "street": "R AMEIXOEIRA",
      "house": "137",
      "postcode": "2050-070",
      "city": "AVEIRAS DE CIMA",
      "lon": "-8.904734650464501",
      "lat": "39.13862524783012"
    },
    {
      "id": "pt.ine.add.PTCONT.3260701",
      "street": "R DOMINGOS SOARES ADRIÃO",
      "house": "5",
      "postcode": "2050-101",
      "city": "AVEIRAS DE CIMA",
      "lon": "-8.904902192229937",
      "lat": "39.13702082644449"
    },
    {
      "id": "pt.ine.add.PTCONT.3260702",
      "street": "R MOINHO NOVO",
      "house": "1",
      "postcode": "2050-143",
      "city": "AVEIRAS DE CIMA",
      "lon": "-8.90291513327492",
      "lat": "39.1351063891343"
    },
    {
      "id": "pt.ine.add.PTCONT.3268469",
      "street": "R DOMINGOS SOARES ADRIAO",
      "house": "41",
      "postcode": "2050-101",
      "city": "AVEIRAS DE CIMA",
      "lon": "-8.904374060042542",
      "lat": "39.13843847974594"
    },
    {
      "id": "pt.ine.add.PTCONT.3268470",
      "street": "R DOMINGOS SOARES ADRIÃO",
      "house": "7",
      "postcode": "2050-101",
      "city": "AVEIRAS DE CIMA",
      "lon": "-8.905019810359203",
      "lat": "39.137200194991074"
    },
    {
      "id": "pt.ine.add.PTCONT.3277778",
      "street": "R MOINHO NOVO",
      "house": "33",
      "postcode": "2050-143",
      "city": "AVEIRAS DE CIMA",
      "lon": "-8.90392608321406",
      "lat": "39.13554106920958"
    },
    {
      "id": "pt.ine.add.PTCONT.3277781",
      "street": "R FERREA",
      "house": "14",
      "postcode": "2050-104",
      "city": "AVEIRAS DE CIMA",
      "lon": "-8.903352844206514",
      "lat": "39.13600423493186"
    },
    {
      "id": "pt.ine.add.PTCONT.3286406",
      "street": "R MOINHO NOVO",
      "house": "33",
      "postcode": "2050-143",
      "city": "AVEIRAS DE CIMA",
      "lon": "-8.90392608321406",
      "lat": "39.13554106920958"
    },
    {
      "id": "pt.ine.add.PTCONT.3286700",
      "street": "TV PONTE",
      "house": "2",
      "postcode": "2050-152",
      "city": "AVEIRAS DE CIMA",
      "lon": "-8.907527338238626",
      "lat": "39.13382381088001"
    },
    {
      "id": "pt.ine.add.PTCONT.3299867",
      "street": "R FERREA",
      "house": "15",
      "postcode": "2050-104",
      "city": "AVEIRAS DE CIMA",
      "lon": "-8.904046250110719",
      "lat": "39.13595461368393"
    },
    {
      "id": "pt.ine.add.PTCONT.3299868",
      "street": "TV FERREA III",
      "house": "5",
      "postcode": "2050-107",
      "city": "AVEIRAS DE CIMA",
      "lon": "-8.903585419352776",
      "lat": "39.13611979361475"
    },
    {
      "id": "pt.ine.add.PTCONT.3324103",
      "street": "R DOMINGOS SOARES ADRIAO",
      "house": "33",
      "postcode": "2050-101",
      "city": "AVEIRAS DE CIMA",
      "lon": "-8.9044418796318",
      "lat": "39.13829391301514"
    },
    {
      "id": "pt.ine.add.PTCONT.3333328",
      "street": "R FERREA",
      "house": "17",
      "postcode": "2050-104",
      "city": "AVEIRAS DE CIMA",
      "lon": "-8.90426598399213",
      "lat": "39.13595316007744"
    },
    {
      "id": "pt.ine.add.PTCONT.3342474",
      "street": "R AMEIXOEIRA",
      "house": "151",
      "postcode": "2050-070",
      "city": "AVEIRAS DE CIMA",
      "lon": "-8.905291756289357",
      "lat": "39.138801705631636"
    },
    {
      "id": "pt.ine.add.PTCONT.3367503",
      "street": "R DOMINGOS SOARES ADRIAO",
      "house": "2",
      "postcode": "2050-101",
      "city": "AVEIRAS DE CIMA",
      "lon": "-8.904356961336042",
      "lat": "39.13687131021834"
    },
    {
      "id": "pt.ine.add.PTCONT.3370255",
      "street": "R FONTE SANTA",
      "house": "14A",
      "postcode": "2050-112",
      "city": "AVEIRAS DE CIMA",
      "lon": "-8.906078121459542",
      "lat": "39.13350015770619"
    },
    {
      "id": "pt.ine.add.PTCONT.3378956",
      "street": "TV DO NARCISO",
      "house": "2",
      "postcode": "2050-146",
      "city": "AVEIRAS DE CIMA",
      "lon": "-8.906530123569597",
      "lat": "39.13358723306622"
    },
    {
      "id": "pt.ine.add.PTCONT.3379249",
      "street": "R FONTE SANTA",
      "house": "34",
      "postcode": "2050-112",
      "city": "AVEIRAS DE CIMA",
      "lon": "-8.907950292237823",
      "lat": "39.13337063113611"
    },
    {
      "id": "pt.ine.add.PTCONT.3393526",
      "street": "R CARRASCO",
      "house": "",
      "postcode": "2050-095",
      "city": "AVEIRAS DE CIMA",
      "lon": "-8.908529579235353",
      "lat": "39.13768131046716"
    },
    {
      "id": "pt.ine.add.PTCONT.3397552",
      "street": "R MOINHO NOVO",
      "house": "11",
      "postcode": "2050-143",
      "city": "AVEIRAS DE CIMA",
      "lon": "-8.903608334407194",
      "lat": "39.135038757113946"
    },
    {
      "id": "pt.ine.add.PTCONT.3412237",
      "street": "R MOINHO NOVO",
      "house": "21",
      "postcode": "2050-143",
      "city": "AVEIRAS DE CIMA",
      "lon": "-8.903946070328955",
      "lat": "39.13525270101721"
    },
    {
      "id": "pt.ine.add.PTCONT.3412268",
      "street": "R FERREA",
      "house": "19",
      "postcode": "2050-104",
      "city": "AVEIRAS DE CIMA",
      "lon": "-8.90426244702797",
      "lat": "39.1356289179945"
    },
    {
      "id": "pt.ine.add.PTCONT.3415441",
      "street": "R ALTO DO MOINHO",
      "house": "1",
      "postcode": "2050-069",
      "city": "AVEIRAS DE CIMA",
      "lon": "-8.904232398058806",
      "lat": "39.13711533345998"
    },
    {
      "id": "pt.ine.add.PTCONT.3455226",
      "street": "R MOINHO NOVO",
      "house": "15",
      "postcode": "2050-143",
      "city": "AVEIRAS DE CIMA",
      "lon": "-8.903794058394094",
      "lat": "39.13510058085733"
    }
  ]
}