{
  "data": {
    "distrito": "Porto",
    "concelho": "Gondomar",
    "freguesia": "Rio Tinto",
    "OBJECTID": 1091,
    "BGRI2021": "13040802503",
    "DT21": "13",
    "DTMN21": "1304",
    "DTMNFR21": "130408",
    "DTMNFRSEC21": "130408025",
    "SECNUM21": "025",
    "SSNUM21": "03",
    "SECSSNUM21": "02503",
    "OBJECTID_1": 129291,
    "DT": "13",
    "CC": "04",
    "fr": "08",
    "SEC": "025",
    "SS": "03"
  },
  "addresses": [
    {
      "id": "pt.ine.add.PTCONT.3604995",
      "street": "R PERO DA COVILHÃ",
      "house": "28",
      "postcode": "4435-394",
      "city": "RIO TINTO",
      "lon": "-8.547330054703545",
      "lat": "41.175608123929244"
    },
    {
      "id": "pt.ine.add.PTCONT.3648659",
      "street": "R AFONSO DE PAIVA",
      "house": "117",
      "postcode": "4435-084",
      "city": "RIO TINTO",
      "lon": "-8.548269735870733",
      "lat": "41.175325606485075"
    },
    {
      "id": "pt.ine.add.PTCONT.3648660",
      "street": "R AFONSO DE PAIVA",
      "house": "117",
      "postcode": "4435-084",
      "city": "RIO TINTO",
      "lon": "-8.548269735870733",
      "lat": "41.175325606485075"
    },
    {
      "id": "pt.ine.add.PTCONT.3654887",
      "street": "R CARVALHO ARAÚJO",
      "house": "83",
      "postcode": "4435-150",
      "city": "RIO TINTO",
      "lon": "-8.548307192409926",
      "lat": "41.17559560132975"
    },
    {
      "id": "pt.ine.add.PTCONT.3656551",
      "street": "R PERO DA COVILHÃ",
      "house": "32",
      "postcode": "4435-394",
      "city": "RIO TINTO",
      "lon": "-8.547389696473365",
      "lat": "41.17561691375"
    },
    {
      "id": "pt.ine.add.PTCONT.3669448",
      "street": "R PERO DA COVILHÃ",
      "house": "98",
      "postcode": "4435-394",
      "city": "RIO TINTO",
      "lon": "-8.548091095190472",
      "lat": "41.17534425891501"
    },
    {
      "id": "pt.ine.add.PTCONT.3669449",
      "street": "R PERO DA COVILHÃ",
      "house": "98",
      "postcode": "4435-394",
      "city": "RIO TINTO",
      "lon": "-8.548091095190472",
      "lat": "41.17534425891501"
    },
    {
      "id": "pt.ine.add.PTCONT.3680413",
      "street": "R CARVALHO ARAÚJO",
      "house": "63",
      "postcode": "4435-150",
      "city": "RIO TINTO",
      "lon": "-8.548045416054409",
      "lat": "41.17565957499144"
    },
    {
      "id": "pt.ine.add.PTCONT.3693618",
      "street": "R CARVALHO ARAÚJO",
      "house": "25",
      "postcode": "4435-150",
      "city": "RIO TINTO",
      "lon": "-8.547700674174692",
      "lat": "41.175795881354915"
    },
    {
      "id": "pt.ine.add.PTCONT.3766374",
      "street": "R PERO DA COVILHÃ",
      "house": "44",
      "postcode": "4435-394",
      "city": "RIO TINTO",
      "lon": "-8.547496609086007",
      "lat": "41.17556250317806"
    },
    {
      "id": "pt.ine.add.PTCONT.3824744",
      "street": "R PERO DA COVILHÃ",
      "house": "38",
      "postcode": "4435-394",
      "city": "RIO TINTO",
      "lon": "-8.547425163824487",
      "lat": "41.17557176452982"
    },
    {
      "id": "pt.ine.add.PTCONT.3851256",
      "street": "R FERRARIA",
      "house": "251",
      "postcode": "4435-250",
      "city": "RIO TINTO",
      "lon": "-8.54725957348651",
      "lat": "41.175770455296785"
    },
    {
      "id": "pt.ine.add.PTCONT.3896532",
      "street": "R PERO DA COVILHÃ",
      "house": "86",
      "postcode": "4435-394",
      "city": "RIO TINTO",
      "lon": "-8.548007903736025",
      "lat": "41.17538057593547"
    },
    {
      "id": "pt.ine.add.PTCONT.3957238",
      "street": "R PERO DA COVILHÃ",
      "house": "64",
      "postcode": "4435-394",
      "city": "RIO TINTO",
      "lon": "-8.547817743381122",
      "lat": "41.1754622997396"
    },
    {
      "id": "pt.ine.add.PTCONT.3957239",
      "street": "R PERO DA COVILHÃ",
      "house": "64",
      "postcode": "4435-394",
      "city": "RIO TINTO",
      "lon": "-8.547817743381122",
      "lat": "41.1754622997396"
    },
    {
      "id": "pt.ine.add.PTCONT.3996982",
      "street": "R CARVALHO ARAÚJO",
      "house": "15",
      "postcode": "4435-150",
      "city": "RIO TINTO",
      "lon": "-8.547581844303188",
      "lat": "41.17585033499962"
    },
    {
      "id": "pt.ine.add.PTCONT.3996983",
      "street": "R CARVALHO ARAÚJO",
      "house": "3",
      "postcode": "4435-150",
      "city": "RIO TINTO",
      "lon": "-8.547403258727526",
      "lat": "41.175877990492765"
    },
    {
      "id": "pt.ine.add.PTCONT.3996984",
      "street": "R CARVALHO ARAÚJO",
      "house": "3",
      "postcode": "4435-150",
      "city": "RIO TINTO",
      "lon": "-8.547403258727526",
      "lat": "41.175877990492765"
    },
    {
      "id": "pt.ine.add.PTCONT.4044298",
      "street": "R FERRARIA",
      "house": "255",
      "postcode": "4435-250",
      "city": "RIO TINTO",
      "lon": "-8.547331586217407",
      "lat": "41.17585123529069"
    },
    {
      "id": "pt.ine.add.PTCONT.4055814",
      "street": "R CARVALHO ARAÚJO",
      "house": "73",
      "postcode": "4435-150",
      "city": "RIO TINTO",
      "lon": "-8.548223830224845",
      "lat": "41.17560490613468"
    },
    {
      "id": "pt.ine.add.PTCONT.4055815",
      "street": "R CARVALHO ARAÚJO",
      "house": "73",
      "postcode": "4435-150",
      "city": "RIO TINTO",
      "lon": "-8.548223830224845",
      "lat": "41.17560490613468"
    },
    {
      "id": "pt.ine.add.PTCONT.4127430",
      "street": "R FERRARIA",
      "house": "245",
      "postcode": "4435-250",
      "city": "RIO TINTO",
      "lon": "-8.547187617636055",
      "lat": "41.1756986793806"
    },
    {
      "id": "pt.ine.add.PTCONT.4134544",
      "street": "R CARVALHO ARAÚJO",
      "house": "47",
      "postcode": "4435-150",
      "city": "RIO TINTO",
      "lon": "-8.547783979893941",
      "lat": "41.175777572803554"
    },
    {
      "id": "pt.ine.add.PTCONT.4213367",
      "street": "R CARVALHO ARAÚJO",
      "house": "55",
      "postcode": "4435-150",
      "city": "RIO TINTO",
      "lon": "-8.547926529912479",
      "lat": "41.17570502486675"
    },
    {
      "id": "pt.ine.add.PTCONT.4214896",
      "street": "R PERO DA COVILHÃ",
      "house": "82",
      "postcode": "4435-394",
      "city": "RIO TINTO",
      "lon": "-8.547889074869277",
      "lat": "41.17543502989635"
    },
    {
      "id": "pt.ine.add.PTCONT.4214897",
      "street": "R PERO DA COVILHÃ",
      "house": "82",
      "postcode": "4435-394",
      "city": "RIO TINTO",
      "lon": "-8.547889074869277",
      "lat": "41.17543502989635"
    },
    {
      "id": "pt.ine.add.PTCONT.4272265",
      "street": "R CARVALHO ARAÚJO",
      "house": "71",
      "postcode": "4435-150",
      "city": "RIO TINTO",
      "lon": "-8.548105057963518",
      "lat": "41.17566836444101"
    },
    {
      "id": "pt.ine.add.PTCONT.4284504",
      "street": "R PERO DA COVILHÃ",
      "house": "60",
      "postcode": "4435-394",
      "city": "RIO TINTO",
      "lon": "-8.547651246244728",
      "lat": "41.1755169250782"
    },
    {
      "id": "pt.ine.add.PTCONT.4287303",
      "street": "R PERO DA COVILHÃ",
      "house": "50",
      "postcode": "4435-394",
      "city": "RIO TINTO",
      "lon": "-8.547532076334404",
      "lat": "41.17551735392502"
    },
    {
      "id": "pt.ine.add.PTCONT.4319140",
      "street": "R CARVALHO ARAÚJO",
      "house": "59",
      "postcode": "4435-150",
      "city": "RIO TINTO",
      "lon": "-8.547998145687638",
      "lat": "41.17572277557517"
    },
    {
      "id": "pt.ine.add.PTCONT.4325826",
      "street": "R CARVALHO ARAÚJO",
      "house": "49",
      "postcode": "4435-150",
      "city": "RIO TINTO",
      "lon": "-8.547843224325524",
      "lat": "41.17572333352084"
    },
    {
      "id": "pt.ine.add.PTCONT.4385156",
      "street": "R CARVALHO ARAÚJO",
      "house": "5",
      "postcode": "4435-150",
      "city": "RIO TINTO",
      "lon": "-8.547486734868285",
      "lat": "41.17588669452818"
    }
  ]
}