{
  "data": {
    "distrito": "Faro",
    "concelho": "Loul√©",
    "freguesia": "Almancil",
    "OBJECTID": 941,
    "BGRI2021": "08080100724",
    "DT21": "08",
    "DTMN21": "0808",
    "DTMNFR21": "080801",
    "DTMNFRSEC21": "080801007",
    "SECNUM21": "007",
    "SSNUM21": "24",
    "SECSSNUM21": "00724",
    "OBJECTID_1": 68989,
    "DT": "08",
    "CC": "08",
    "fr": "01",
    "SEC": "007",
    "SS": "24"
  },
  "addresses": [
    {
      "id": "pt.ine.add.PTCONT.1487736",
      "street": "R ALAMO CASA BOTA",
      "house": "27",
      "postcode": "8135-024",
      "city": "ALMANCIL",
      "lon": "-8.019108148380766",
      "lat": "37.047750181458056"
    },
    {
      "id": "pt.ine.add.PTCONT.1551581",
      "street": "R MIRA VILA ROMA",
      "house": "31",
      "postcode": "8135-024",
      "city": "ALMANCIL",
      "lon": "-8.020514492949989",
      "lat": "37.04696758943401"
    },
    {
      "id": "pt.ine.add.PTCONT.1554710",
      "street": "R MIRA",
      "house": "38",
      "postcode": "8135-024",
      "city": "ALMANCIL",
      "lon": "-8.020105007838273",
      "lat": "37.05020205764751"
    },
    {
      "id": "pt.ine.add.PTCONT.1576627",
      "street": "R MIRA CASA VELA",
      "house": "30",
      "postcode": "8135-024",
      "city": "ALMANCIL",
      "lon": "-8.019873868259012",
      "lat": "37.04687687227172"
    },
    {
      "id": "pt.ine.add.PTCONT.1583774",
      "street": "R MIRA CASA MOSEGA",
      "house": "33",
      "postcode": "8135-024",
      "city": "ALMANCIL",
      "lon": "-8.020243325730023",
      "lat": "37.04789543872181"
    },
    {
      "id": "pt.ine.add.PTCONT.1713372",
      "street": "R MIRA",
      "house": "39",
      "postcode": "8135-024",
      "city": "ALMANCIL",
      "lon": "-8.02019435534268",
      "lat": "37.05059861538326"
    },
    {
      "id": "pt.ine.add.PTCONT.1727624",
      "street": "R ALAMO",
      "house": "",
      "postcode": "8135-024",
      "city": "ALMANCIL",
      "lon": "-8.018412274015441",
      "lat": "37.04701964027918"
    },
    {
      "id": "pt.ine.add.PTCONT.1784851",
      "street": "R MIRA CLARIDADE",
      "house": "32",
      "postcode": "8135-024",
      "city": "ALMANCIL",
      "lon": "-8.020243926094006",
      "lat": "37.047489955697756"
    },
    {
      "id": "pt.ine.add.PTCONT.1813832",
      "street": "R ALAMO CASA DAS ARVORES",
      "house": "",
      "postcode": "8135-024",
      "city": "ALMANCIL",
      "lon": "-8.018771457728386",
      "lat": "37.047380416854196"
    },
    {
      "id": "pt.ine.add.PTCONT.1830554",
      "street": "R MIRA CAP JULUCA",
      "house": "34",
      "postcode": "8135-024",
      "city": "ALMANCIL",
      "lon": "-8.020231270288285",
      "lat": "37.048445082748614"
    }
  ]
}