{
  "data": {
    "distrito": "Porto",
    "concelho": "Matosinhos",
    "freguesia": "União das freguesias de Matosinhos e Leça da Palmeira",
    "OBJECTID": 1149,
    "BGRI2021": "13081203702",
    "DT21": "13",
    "DTMN21": "1308",
    "DTMNFR21": "130812",
    "DTMNFRSEC21": "130812037",
    "SECNUM21": "037",
    "SSNUM21": "02",
    "SECSSNUM21": "03702",
    "OBJECTID_1": 133666,
    "DT": "13",
    "CC": "08",
    "fr": "12",
    "SEC": "037",
    "SS": "02"
  },
  "addresses": [
    {
      "id": "pt.ine.add.PTCONT.3552699",
      "street": "R ÁLVARO CASTELÕES",
      "house": "513",
      "postcode": "4450-042",
      "city": "MATOSINHOS",
      "lon": "-8.689187534194518",
      "lat": "41.184314192548584"
    },
    {
      "id": "pt.ine.add.PTCONT.3577558",
      "street": "R CONDE ALTO MEARIM",
      "house": "622",
      "postcode": "4450-028",
      "city": "MATOSINHOS",
      "lon": "-8.687549459459678",
      "lat": "41.18419386972448"
    },
    {
      "id": "pt.ine.add.PTCONT.3581082",
      "street": "R CONDE ALTO MEARIM",
      "house": "578",
      "postcode": "4450-028",
      "city": "MATOSINHOS",
      "lon": "-8.687624120670556",
      "lat": "41.18463221548684"
    },
    {
      "id": "pt.ine.add.PTCONT.3581083",
      "street": "R CONDE ALTO MEARIM",
      "house": "578",
      "postcode": "4450-028",
      "city": "MATOSINHOS",
      "lon": "-8.687624120670556",
      "lat": "41.18463221548684"
    },
    {
      "id": "pt.ine.add.PTCONT.3581084",
      "street": "R CONDE ALTO MEARIM",
      "house": "578",
      "postcode": "4450-028",
      "city": "MATOSINHOS",
      "lon": "-8.687624120670556",
      "lat": "41.18463221548684"
    },
    {
      "id": "pt.ine.add.PTCONT.3583579",
      "street": "R CONDE ALTO MEARIM",
      "house": "578",
      "postcode": "4450-028",
      "city": "MATOSINHOS",
      "lon": "-8.687624120670556",
      "lat": "41.18463221548684"
    },
    {
      "id": "pt.ine.add.PTCONT.3583787",
      "street": "R CONDE ALTO MEARIM",
      "house": "578",
      "postcode": "4450-028",
      "city": "MATOSINHOS",
      "lon": "-8.687624120670556",
      "lat": "41.18463221548684"
    },
    {
      "id": "pt.ine.add.PTCONT.3584629",
      "street": "R CONDE ALTO MEARIM",
      "house": "482",
      "postcode": "4450-028",
      "city": "MATOSINHOS",
      "lon": "-8.688991695295881",
      "lat": "41.18507277322878"
    },
    {
      "id": "pt.ine.add.PTCONT.3584630",
      "street": "R CONDE ALTO MEARIM",
      "house": "588",
      "postcode": "4450-028",
      "city": "MATOSINHOS",
      "lon": "-8.688169896186416",
      "lat": "41.184271919873005"
    },
    {
      "id": "pt.ine.add.PTCONT.3597664",
      "street": "R ÁLVARO CASTELÕES",
      "house": "421",
      "postcode": "4450-042",
      "city": "MATOSINHOS",
      "lon": "-8.689892389313412",
      "lat": "41.18500195730326"
    },
    {
      "id": "pt.ine.add.PTCONT.3604161",
      "street": "R ÁLVARO CASTELÕES",
      "house": "541",
      "postcode": "4450-042",
      "city": "MATOSINHOS",
      "lon": "-8.689148894812762",
      "lat": "41.18423799571277"
    },
    {
      "id": "pt.ine.add.PTCONT.3605991",
      "street": "R CONDE ALTO MEARIM",
      "house": "624 TRAZ",
      "postcode": "4450-028",
      "city": "MATOSINHOS",
      "lon": "-8.687465879369373",
      "lat": "41.184176263469354"
    },
    {
      "id": "pt.ine.add.PTCONT.3610477",
      "street": "R CONDE ALTO MEARIM",
      "house": "588",
      "postcode": "4450-028",
      "city": "MATOSINHOS",
      "lon": "-8.687908452871326",
      "lat": "41.184363222475305"
    },
    {
      "id": "pt.ine.add.PTCONT.3611898",
      "street": "R CONDE ALTO MEARIM",
      "house": "502",
      "postcode": "4450-028",
      "city": "MATOSINHOS",
      "lon": "-8.688331375114155",
      "lat": "41.18504551040513"
    },
    {
      "id": "pt.ine.add.PTCONT.3611899",
      "street": "R CONDE ALTO MEARIM",
      "house": "502",
      "postcode": "4450-028",
      "city": "MATOSINHOS",
      "lon": "-8.688331375114155",
      "lat": "41.18504551040513"
    },
    {
      "id": "pt.ine.add.PTCONT.3611900",
      "street": "R CONDE ALTO MEARIM",
      "house": "502",
      "postcode": "4450-028",
      "city": "MATOSINHOS",
      "lon": "-8.688331375114155",
      "lat": "41.18504551040513"
    },
    {
      "id": "pt.ine.add.PTCONT.3611901",
      "street": "R CONDE ALTO MEARIM",
      "house": "502",
      "postcode": "4450-028",
      "city": "MATOSINHOS",
      "lon": "-8.688331375114155",
      "lat": "41.18504551040513"
    },
    {
      "id": "pt.ine.add.PTCONT.3611902",
      "street": "R CONDE ALTO MEARIM",
      "house": "502",
      "postcode": "4450-028",
      "city": "MATOSINHOS",
      "lon": "-8.688331375114155",
      "lat": "41.18504551040513"
    },
    {
      "id": "pt.ine.add.PTCONT.3612046",
      "street": "R CONDE ALTO MEARIM",
      "house": "502",
      "postcode": "4450-028",
      "city": "MATOSINHOS",
      "lon": "-8.688331375114155",
      "lat": "41.18504551040513"
    },
    {
      "id": "pt.ine.add.PTCONT.3631720",
      "street": "R CONDE ALTO MEARIM",
      "house": "598",
      "postcode": "4450-028",
      "city": "MATOSINHOS",
      "lon": "-8.687528053012105",
      "lat": "41.18448211005118"
    },
    {
      "id": "pt.ine.add.PTCONT.3631721",
      "street": "R CONDE ALTO MEARIM",
      "house": "598",
      "postcode": "4450-028",
      "city": "MATOSINHOS",
      "lon": "-8.687528053012105",
      "lat": "41.18448211005118"
    },
    {
      "id": "pt.ine.add.PTCONT.3631722",
      "street": "R CONDE ALTO MEARIM",
      "house": "598",
      "postcode": "4450-028",
      "city": "MATOSINHOS",
      "lon": "-8.687528053012105",
      "lat": "41.18448211005118"
    },
    {
      "id": "pt.ine.add.PTCONT.3631723",
      "street": "R CONDE ALTO MEARIM",
      "house": "598",
      "postcode": "4450-028",
      "city": "MATOSINHOS",
      "lon": "-8.687528053012105",
      "lat": "41.18448211005118"
    },
    {
      "id": "pt.ine.add.PTCONT.3631724",
      "street": "R CONDE ALTO MEARIM",
      "house": "598",
      "postcode": "4450-028",
      "city": "MATOSINHOS",
      "lon": "-8.687528053012105",
      "lat": "41.18448211005118"
    },
    {
      "id": "pt.ine.add.PTCONT.3631725",
      "street": "R CONDE ALTO MEARIM",
      "house": "598",
      "postcode": "4450-028",
      "city": "MATOSINHOS",
      "lon": "-8.687528053012105",
      "lat": "41.18448211005118"
    },
    {
      "id": "pt.ine.add.PTCONT.3631726",
      "street": "R CONDE ALTO MEARIM",
      "house": "598",
      "postcode": "4450-028",
      "city": "MATOSINHOS",
      "lon": "-8.687528053012105",
      "lat": "41.18448211005118"
    },
    {
      "id": "pt.ine.add.PTCONT.3631727",
      "street": "R CONDE ALTO MEARIM",
      "house": "598",
      "postcode": "4450-028",
      "city": "MATOSINHOS",
      "lon": "-8.687528053012105",
      "lat": "41.18448211005118"
    },
    {
      "id": "pt.ine.add.PTCONT.3631728",
      "street": "R CONDE ALTO MEARIM",
      "house": "598",
      "postcode": "4450-028",
      "city": "MATOSINHOS",
      "lon": "-8.687528053012105",
      "lat": "41.18448211005118"
    },
    {
      "id": "pt.ine.add.PTCONT.3635138",
      "street": "R CONDE ALTO MEARIM",
      "house": "598",
      "postcode": "4450-028",
      "city": "MATOSINHOS",
      "lon": "-8.687528053012105",
      "lat": "41.18448211005118"
    },
    {
      "id": "pt.ine.add.PTCONT.3635233",
      "street": "R 1 DE DEZEMBRO",
      "house": "518",
      "postcode": "4450-226",
      "city": "MATOSINHOS",
      "lon": "-8.689728733259024",
      "lat": "41.18538092846393"
    },
    {
      "id": "pt.ine.add.PTCONT.3638231",
      "street": "R CONDE ALTO MEARIM",
      "house": "434",
      "postcode": "4450-028",
      "city": "MATOSINHOS",
      "lon": "-8.688859670296603",
      "lat": "41.185502181075734"
    },
    {
      "id": "pt.ine.add.PTCONT.3642764",
      "street": "R 1 DE DEZEMBRO",
      "house": "512",
      "postcode": "4450-226",
      "city": "MATOSINHOS",
      "lon": "-8.689572039191258",
      "lat": "41.18517458702855"
    },
    {
      "id": "pt.ine.add.PTCONT.3661855",
      "street": "R CONDE ALTO MEARIM",
      "house": "588",
      "postcode": "4450-028",
      "city": "MATOSINHOS",
      "lon": "-8.687884844154324",
      "lat": "41.184390349068636"
    },
    {
      "id": "pt.ine.add.PTCONT.3663581",
      "street": "R CONDE ALTO MEARIM",
      "house": "616",
      "postcode": "4450-028",
      "city": "MATOSINHOS",
      "lon": "-8.687384804803026",
      "lat": "41.18445578666571"
    },
    {
      "id": "pt.ine.add.PTCONT.3668644",
      "street": "R ÁLVARO CASTELÕES",
      "house": "421 TRAS",
      "postcode": "4450-042",
      "city": "MATOSINHOS",
      "lon": "-8.689975437122905",
      "lat": "41.18495653434697"
    },
    {
      "id": "pt.ine.add.PTCONT.3674987",
      "street": "R CONDE ALTO MEARIM",
      "house": "682",
      "postcode": "4450-028",
      "city": "MATOSINHOS",
      "lon": "-8.68678494274214",
      "lat": "41.183990448898996"
    },
    {
      "id": "pt.ine.add.PTCONT.3674988",
      "street": "R CONDE ALTO MEARIM",
      "house": "682",
      "postcode": "4450-028",
      "city": "MATOSINHOS",
      "lon": "-8.68678494274214",
      "lat": "41.183990448898996"
    },
    {
      "id": "pt.ine.add.PTCONT.3674989",
      "street": "R CONDE ALTO MEARIM",
      "house": "682",
      "postcode": "4450-028",
      "city": "MATOSINHOS",
      "lon": "-8.68678494274214",
      "lat": "41.183990448898996"
    },
    {
      "id": "pt.ine.add.PTCONT.3674990",
      "street": "R CONDE ALTO MEARIM",
      "house": "682",
      "postcode": "4450-028",
      "city": "MATOSINHOS",
      "lon": "-8.68678494274214",
      "lat": "41.183990448898996"
    },
    {
      "id": "pt.ine.add.PTCONT.3674991",
      "street": "R CONDE ALTO MEARIM",
      "house": "682",
      "postcode": "4450-028",
      "city": "MATOSINHOS",
      "lon": "-8.68678494274214",
      "lat": "41.183990448898996"
    },
    {
      "id": "pt.ine.add.PTCONT.3674992",
      "street": "R CONDE ALTO MEARIM",
      "house": "682",
      "postcode": "4450-028",
      "city": "MATOSINHOS",
      "lon": "-8.68678494274214",
      "lat": "41.183990448898996"
    },
    {
      "id": "pt.ine.add.PTCONT.3684037",
      "street": "R ÁLVARO CASTELÕES",
      "house": "443",
      "postcode": "4450-042",
      "city": "MATOSINHOS",
      "lon": "-8.6900209749046",
      "lat": "41.184704194076225"
    },
    {
      "id": "pt.ine.add.PTCONT.3687523",
      "street": "R ÁLVARO CASTELÕES",
      "house": "513",
      "postcode": "4450-042",
      "city": "MATOSINHOS",
      "lon": "-8.689376773490643",
      "lat": "41.18421581266762"
    },
    {
      "id": "pt.ine.add.PTCONT.3694313",
      "street": "R CONDE ALTO MEARIM",
      "house": "482",
      "postcode": "4450-028",
      "city": "MATOSINHOS",
      "lon": "-8.689223279655684",
      "lat": "41.18480709573444"
    },
    {
      "id": "pt.ine.add.PTCONT.3694314",
      "street": "R CONDE ALTO MEARIM",
      "house": "482",
      "postcode": "4450-028",
      "city": "MATOSINHOS",
      "lon": "-8.689223279655684",
      "lat": "41.18480709573444"
    },
    {
      "id": "pt.ine.add.PTCONT.3694315",
      "street": "R CONDE ALTO MEARIM",
      "house": "482",
      "postcode": "4450-028",
      "city": "MATOSINHOS",
      "lon": "-8.689223279655684",
      "lat": "41.18480709573444"
    },
    {
      "id": "pt.ine.add.PTCONT.3694316",
      "street": "R CONDE ALTO MEARIM",
      "house": "482",
      "postcode": "4450-028",
      "city": "MATOSINHOS",
      "lon": "-8.689223279655684",
      "lat": "41.18480709573444"
    },
    {
      "id": "pt.ine.add.PTCONT.3696687",
      "street": "R CONDE ALTO MEARIM",
      "house": "624 TRAZ",
      "postcode": "4450-028",
      "city": "MATOSINHOS",
      "lon": "-8.687649234346404",
      "lat": "41.1840041560997"
    },
    {
      "id": "pt.ine.add.PTCONT.3709307",
      "street": "R CONDE ALTO MEARIM",
      "house": "554",
      "postcode": "4450-028",
      "city": "MATOSINHOS",
      "lon": "-8.687858458882836",
      "lat": "41.18475083413042"
    },
    {
      "id": "pt.ine.add.PTCONT.3729217",
      "street": "R CONDE ALTO MEARIM",
      "house": "406",
      "postcode": "4450-028",
      "city": "MATOSINHOS",
      "lon": "-8.689135624985312",
      "lat": "41.185716952051514"
    },
    {
      "id": "pt.ine.add.PTCONT.3729218",
      "street": "R CONDE ALTO MEARIM",
      "house": "406",
      "postcode": "4450-028",
      "city": "MATOSINHOS",
      "lon": "-8.689135624985312",
      "lat": "41.185716952051514"
    },
    {
      "id": "pt.ine.add.PTCONT.3740296",
      "street": "R CONDE ALTO MEARIM",
      "house": "588",
      "postcode": "4450-028",
      "city": "MATOSINHOS",
      "lon": "-8.688241025961522",
      "lat": "41.18422655559852"
    },
    {
      "id": "pt.ine.add.PTCONT.3761064",
      "street": "R 1 DE DEZEMBRO",
      "house": "476",
      "postcode": "4450-226",
      "city": "MATOSINHOS",
      "lon": "-8.690083329340341",
      "lat": "41.185163538961646"
    },
    {
      "id": "pt.ine.add.PTCONT.3761067",
      "street": "R CONDE ALTO MEARIM",
      "house": "678 TRAZ",
      "postcode": "4450-028",
      "city": "MATOSINHOS",
      "lon": "-8.687045551531167",
      "lat": "41.183800105656374"
    },
    {
      "id": "pt.ine.add.PTCONT.3776462",
      "street": "R ALVARO CASTELOES",
      "house": "507 513",
      "postcode": "4450-042",
      "city": "MATOSINHOS",
      "lon": "-8.689511253362632",
      "lat": "41.18430212739734"
    },
    {
      "id": "pt.ine.add.PTCONT.3776463",
      "street": "R ALVARO CASTELOES",
      "house": "513",
      "postcode": "4450-042",
      "city": "MATOSINHOS",
      "lon": "-8.689511253362632",
      "lat": "41.18430212739734"
    },
    {
      "id": "pt.ine.add.PTCONT.3776464",
      "street": "R CONDE ALTO MEARIM",
      "house": "622 TRAZ",
      "postcode": "4450-028",
      "city": "MATOSINHOS",
      "lon": "-8.687608747228582",
      "lat": "41.1841575671365"
    },
    {
      "id": "pt.ine.add.PTCONT.3780930",
      "street": "R CONDE ALTO MEARIM",
      "house": "678",
      "postcode": "4450-028",
      "city": "MATOSINHOS",
      "lon": "-8.687022018528626",
      "lat": "41.18383623600233"
    },
    {
      "id": "pt.ine.add.PTCONT.3785232",
      "street": "R CONDE ALTO MEARIM",
      "house": "574",
      "postcode": "4450-028",
      "city": "MATOSINHOS",
      "lon": "-8.68807875967003",
      "lat": "41.1844086560949"
    },
    {
      "id": "pt.ine.add.PTCONT.3788143",
      "street": "R GODINHO",
      "house": "677",
      "postcode": "4450-150",
      "city": "MATOSINHOS",
      "lon": "-8.687116150384574",
      "lat": "41.18369171458929"
    },
    {
      "id": "pt.ine.add.PTCONT.3788144",
      "street": "R ÁLVARO CASTELÕES",
      "house": "425",
      "postcode": "4450-042",
      "city": "MATOSINHOS",
      "lon": "-8.69009309569935",
      "lat": "41.18477587962493"
    },
    {
      "id": "pt.ine.add.PTCONT.3795662",
      "street": "R ÁLVARO CASTELÕES",
      "house": "605",
      "postcode": "4450-042",
      "city": "MATOSINHOS",
      "lon": "-8.688698814561157",
      "lat": "41.18358131574722"
    },
    {
      "id": "pt.ine.add.PTCONT.3795663",
      "street": "R ÁLVARO CASTELÕES",
      "house": "605",
      "postcode": "4450-042",
      "city": "MATOSINHOS",
      "lon": "-8.688698814561157",
      "lat": "41.18358131574722"
    },
    {
      "id": "pt.ine.add.PTCONT.3795664",
      "street": "R ÁLVARO CASTELÕES",
      "house": "605",
      "postcode": "4450-042",
      "city": "MATOSINHOS",
      "lon": "-8.688698814561157",
      "lat": "41.18358131574722"
    },
    {
      "id": "pt.ine.add.PTCONT.3795665",
      "street": "R ÁLVARO CASTELÕES",
      "house": "605",
      "postcode": "4450-042",
      "city": "MATOSINHOS",
      "lon": "-8.688698814561157",
      "lat": "41.18358131574722"
    },
    {
      "id": "pt.ine.add.PTCONT.3797033",
      "street": "R ÁLVARO CASTELÕES",
      "house": "605",
      "postcode": "4450-042",
      "city": "MATOSINHOS",
      "lon": "-8.688698814561157",
      "lat": "41.18358131574722"
    },
    {
      "id": "pt.ine.add.PTCONT.3798360",
      "street": "R ÁLVARO CASTELÕES",
      "house": "445",
      "postcode": "4450-042",
      "city": "MATOSINHOS",
      "lon": "-8.689747842819274",
      "lat": "41.184822570232726"
    },
    {
      "id": "pt.ine.add.PTCONT.3817321",
      "street": "R CONDE ALTO MEARIM",
      "house": "574",
      "postcode": "4450-028",
      "city": "MATOSINHOS",
      "lon": "-8.688010491577371",
      "lat": "41.1844615358676"
    },
    {
      "id": "pt.ine.add.PTCONT.3817322",
      "street": "R ÁLVARO CASTELÕES",
      "house": "445",
      "postcode": "4450-042",
      "city": "MATOSINHOS",
      "lon": "-8.68966487125653",
      "lat": "41.18487699694614"
    },
    {
      "id": "pt.ine.add.PTCONT.3817323",
      "street": "R ÁLVARO CASTELÕES",
      "house": "541 TRAS",
      "postcode": "4450-042",
      "city": "MATOSINHOS",
      "lon": "-8.689057770589041",
      "lat": "41.184265033386964"
    },
    {
      "id": "pt.ine.add.PTCONT.3819317",
      "street": "R CONDE ALTO MEARIM",
      "house": "548",
      "postcode": "4450-028",
      "city": "MATOSINHOS",
      "lon": "-8.687914155455298",
      "lat": "41.18479865054789"
    },
    {
      "id": "pt.ine.add.PTCONT.3819322",
      "street": "R CONDE ALTO MEARIM",
      "house": "686",
      "postcode": "4450-028",
      "city": "MATOSINHOS",
      "lon": "-8.686689369003252",
      "lat": "41.18396389544559"
    },
    {
      "id": "pt.ine.add.PTCONT.3830543",
      "street": "R CONDE ALTO MEARIM",
      "house": "588",
      "postcode": "4450-028",
      "city": "MATOSINHOS",
      "lon": "-8.68796834862235",
      "lat": "41.18439895109306"
    },
    {
      "id": "pt.ine.add.PTCONT.3832377",
      "street": "R CONDE ALTO MEARIM",
      "house": "410",
      "postcode": "4450-028",
      "city": "MATOSINHOS",
      "lon": "-8.689051661762573",
      "lat": "41.18565432736744"
    },
    {
      "id": "pt.ine.add.PTCONT.3844847",
      "street": "R CONDE ALTO MEARIM",
      "house": "546",
      "postcode": "4450-028",
      "city": "MATOSINHOS",
      "lon": "-8.6879600784211",
      "lat": "41.18483119682746"
    },
    {
      "id": "pt.ine.add.PTCONT.3857733",
      "street": "R ALVARO CASTELOES",
      "house": "463",
      "postcode": "4450-042",
      "city": "MATOSINHOS",
      "lon": "-8.689402208429561",
      "lat": "41.1848242402048"
    },
    {
      "id": "pt.ine.add.PTCONT.3857734",
      "street": "R ALVARO CASTELOES",
      "house": "463",
      "postcode": "4450-042",
      "city": "MATOSINHOS",
      "lon": "-8.689402208429561",
      "lat": "41.1848242402048"
    },
    {
      "id": "pt.ine.add.PTCONT.3857735",
      "street": "R ALVARO CASTELOES",
      "house": "463",
      "postcode": "4450-042",
      "city": "MATOSINHOS",
      "lon": "-8.689402208429561",
      "lat": "41.1848242402048"
    },
    {
      "id": "pt.ine.add.PTCONT.3857736",
      "street": "R ALVARO CASTELOES",
      "house": "463",
      "postcode": "4450-042",
      "city": "MATOSINHOS",
      "lon": "-8.689402208429561",
      "lat": "41.1848242402048"
    },
    {
      "id": "pt.ine.add.PTCONT.3857737",
      "street": "R ALVARO CASTELOES",
      "house": "463",
      "postcode": "4450-042",
      "city": "MATOSINHOS",
      "lon": "-8.689402208429561",
      "lat": "41.1848242402048"
    },
    {
      "id": "pt.ine.add.PTCONT.3857743",
      "street": "R ALVARO CASTELOES",
      "house": "463",
      "postcode": "4450-042",
      "city": "MATOSINHOS",
      "lon": "-8.689402208429561",
      "lat": "41.1848242402048"
    },
    {
      "id": "pt.ine.add.PTCONT.3857744",
      "street": "R ALVARO CASTELOES",
      "house": "463",
      "postcode": "4450-042",
      "city": "MATOSINHOS",
      "lon": "-8.689402208429561",
      "lat": "41.1848242402048"
    },
    {
      "id": "pt.ine.add.PTCONT.3857745",
      "street": "R ALVARO CASTELOES",
      "house": "463",
      "postcode": "4450-042",
      "city": "MATOSINHOS",
      "lon": "-8.689402208429561",
      "lat": "41.1848242402048"
    },
    {
      "id": "pt.ine.add.PTCONT.3857746",
      "street": "R ALVARO CASTELOES",
      "house": "463",
      "postcode": "4450-042",
      "city": "MATOSINHOS",
      "lon": "-8.689402208429561",
      "lat": "41.1848242402048"
    },
    {
      "id": "pt.ine.add.PTCONT.3857747",
      "street": "R ALVARO CASTELOES",
      "house": "463",
      "postcode": "4450-042",
      "city": "MATOSINHOS",
      "lon": "-8.689402208429561",
      "lat": "41.1848242402048"
    },
    {
      "id": "pt.ine.add.PTCONT.3857748",
      "street": "R ALVARO CASTELOES",
      "house": "463 S",
      "postcode": "4450-042",
      "city": "MATOSINHOS",
      "lon": "-8.689402208429561",
      "lat": "41.1848242402048"
    },
    {
      "id": "pt.ine.add.PTCONT.3857749",
      "street": "R ALVARO CASTELOES",
      "house": "463",
      "postcode": "4450-042",
      "city": "MATOSINHOS",
      "lon": "-8.689402208429561",
      "lat": "41.1848242402048"
    },
    {
      "id": "pt.ine.add.PTCONT.3857750",
      "street": "R ALVARO CASTELOES",
      "house": "463",
      "postcode": "4450-042",
      "city": "MATOSINHOS",
      "lon": "-8.689402208429561",
      "lat": "41.1848242402048"
    },
    {
      "id": "pt.ine.add.PTCONT.3857751",
      "street": "R ALVARO CASTELOES",
      "house": "463",
      "postcode": "4450-042",
      "city": "MATOSINHOS",
      "lon": "-8.689402208429561",
      "lat": "41.1848242402048"
    },
    {
      "id": "pt.ine.add.PTCONT.3857752",
      "street": "R ALVARO CASTELOES",
      "house": "463 BL B",
      "postcode": "4450-042",
      "city": "MATOSINHOS",
      "lon": "-8.689402208429561",
      "lat": "41.1848242402048"
    },
    {
      "id": "pt.ine.add.PTCONT.3861477",
      "street": "R ALVARO CASTELOES",
      "house": "463",
      "postcode": "4450-042",
      "city": "MATOSINHOS",
      "lon": "-8.689402208429561",
      "lat": "41.1848242402048"
    },
    {
      "id": "pt.ine.add.PTCONT.3871049",
      "street": "R CONDE ALTO MEARIM",
      "house": "418",
      "postcode": "4450-028",
      "city": "MATOSINHOS",
      "lon": "-8.689015525271854",
      "lat": "41.18560948035773"
    },
    {
      "id": "pt.ine.add.PTCONT.3871050",
      "street": "R CONDE ALTO MEARIM",
      "house": "418",
      "postcode": "4450-028",
      "city": "MATOSINHOS",
      "lon": "-8.689015525271854",
      "lat": "41.18560948035773"
    },
    {
      "id": "pt.ine.add.PTCONT.3871051",
      "street": "R CONDE ALTO MEARIM",
      "house": "418",
      "postcode": "4450-028",
      "city": "MATOSINHOS",
      "lon": "-8.689015525271854",
      "lat": "41.18560948035773"
    },
    {
      "id": "pt.ine.add.PTCONT.3871052",
      "street": "R CONDE ALTO MEARIM",
      "house": "418",
      "postcode": "4450-028",
      "city": "MATOSINHOS",
      "lon": "-8.689015525271854",
      "lat": "41.18560948035773"
    },
    {
      "id": "pt.ine.add.PTCONT.3871266",
      "street": "R CONDE ALTO MEARIM",
      "house": "668",
      "postcode": "4450-028",
      "city": "MATOSINHOS",
      "lon": "-8.68686897753304",
      "lat": "41.18406207920649"
    },
    {
      "id": "pt.ine.add.PTCONT.3871267",
      "street": "R CONDE ALTO MEARIM",
      "house": "668",
      "postcode": "4450-028",
      "city": "MATOSINHOS",
      "lon": "-8.68686897753304",
      "lat": "41.18406207920649"
    },
    {
      "id": "pt.ine.add.PTCONT.3871268",
      "street": "R CONDE ALTO MEARIM",
      "house": "668",
      "postcode": "4450-028",
      "city": "MATOSINHOS",
      "lon": "-8.68686897753304",
      "lat": "41.18406207920649"
    },
    {
      "id": "pt.ine.add.PTCONT.3877298",
      "street": "R ÁLVARO CASTELÕES",
      "house": "485",
      "postcode": "4450-042",
      "city": "MATOSINHOS",
      "lon": "-8.689637070242206",
      "lat": "41.184408908259044"
    },
    {
      "id": "pt.ine.add.PTCONT.3883855",
      "street": "R CONDE ALTO MEARIM",
      "house": "660 TRAZ",
      "postcode": "4450-028",
      "city": "MATOSINHOS",
      "lon": "-8.687131028230496",
      "lat": "41.18404281036137"
    },
    {
      "id": "pt.ine.add.PTCONT.3888300",
      "street": "R CONDE ALTO MEARIM",
      "house": "588",
      "postcode": "4450-028",
      "city": "MATOSINHOS",
      "lon": "-8.688133761064707",
      "lat": "41.18422707256728"
    },
    {
      "id": "pt.ine.add.PTCONT.3908100",
      "street": "R CONDE ALTO MEARIM",
      "house": "574",
      "postcode": "4450-028",
      "city": "MATOSINHOS",
      "lon": "-8.687648679955542",
      "lat": "41.18465261081155"
    },
    {
      "id": "pt.ine.add.PTCONT.3908851",
      "street": "R GODINHO",
      "house": "635",
      "postcode": "4450-150",
      "city": "MATOSINHOS",
      "lon": "-8.687460564034707",
      "lat": "41.18354598870545"
    },
    {
      "id": "pt.ine.add.PTCONT.3909075",
      "street": "R ÁLVARO CASTELÕES",
      "house": "637",
      "postcode": "4450-042",
      "city": "MATOSINHOS",
      "lon": "-8.688423919670683",
      "lat": "41.18334953121475"
    },
    {
      "id": "pt.ine.add.PTCONT.3909076",
      "street": "R ÁLVARO CASTELÕES",
      "house": "637",
      "postcode": "4450-042",
      "city": "MATOSINHOS",
      "lon": "-8.688423919670683",
      "lat": "41.18334953121475"
    },
    {
      "id": "pt.ine.add.PTCONT.3909077",
      "street": "R ÁLVARO CASTELÕES",
      "house": "637",
      "postcode": "4450-042",
      "city": "MATOSINHOS",
      "lon": "-8.688423919670683",
      "lat": "41.18334953121475"
    },
    {
      "id": "pt.ine.add.PTCONT.3909078",
      "street": "R ÁLVARO CASTELÕES",
      "house": "637",
      "postcode": "4450-042",
      "city": "MATOSINHOS",
      "lon": "-8.688423919670683",
      "lat": "41.18334953121475"
    },
    {
      "id": "pt.ine.add.PTCONT.3909079",
      "street": "R ÁLVARO CASTELÕES",
      "house": "637",
      "postcode": "4450-042",
      "city": "MATOSINHOS",
      "lon": "-8.688423919670683",
      "lat": "41.18334953121475"
    },
    {
      "id": "pt.ine.add.PTCONT.3909080",
      "street": "R ÁLVARO CASTELÕES",
      "house": "637",
      "postcode": "4450-042",
      "city": "MATOSINHOS",
      "lon": "-8.688423919670683",
      "lat": "41.18334953121475"
    },
    {
      "id": "pt.ine.add.PTCONT.3909081",
      "street": "R ÁLVARO CASTELÕES",
      "house": "637",
      "postcode": "4450-042",
      "city": "MATOSINHOS",
      "lon": "-8.688423919670683",
      "lat": "41.18334953121475"
    },
    {
      "id": "pt.ine.add.PTCONT.3909082",
      "street": "R ÁLVARO CASTELÕES",
      "house": "637",
      "postcode": "4450-042",
      "city": "MATOSINHOS",
      "lon": "-8.688423919670683",
      "lat": "41.18334953121475"
    },
    {
      "id": "pt.ine.add.PTCONT.3909083",
      "street": "R ÁLVARO CASTELÕES",
      "house": "637",
      "postcode": "4450-042",
      "city": "MATOSINHOS",
      "lon": "-8.688423919670683",
      "lat": "41.18334953121475"
    },
    {
      "id": "pt.ine.add.PTCONT.3913202",
      "street": "R CONDE ALTO MEARIM",
      "house": "406",
      "postcode": "4450-028",
      "city": "MATOSINHOS",
      "lon": "-8.689289423828821",
      "lat": "41.1855811451229"
    },
    {
      "id": "pt.ine.add.PTCONT.3913227",
      "street": "R ÁLVARO CASTELÕES",
      "house": "637",
      "postcode": "4450-042",
      "city": "MATOSINHOS",
      "lon": "-8.688423919670683",
      "lat": "41.18334953121475"
    },
    {
      "id": "pt.ine.add.PTCONT.3913803",
      "street": "R CONDE ALTO MEARIM",
      "house": "622",
      "postcode": "4450-028",
      "city": "MATOSINHOS",
      "lon": "-8.687751007216953",
      "lat": "41.184066839231875"
    },
    {
      "id": "pt.ine.add.PTCONT.3921048",
      "street": "R CONDE ALTO MEARIM",
      "house": "622",
      "postcode": "4450-028",
      "city": "MATOSINHOS",
      "lon": "-8.687264862074242",
      "lat": "41.18436632093949"
    },
    {
      "id": "pt.ine.add.PTCONT.3921049",
      "street": "R CONDE ALTO MEARIM",
      "house": "622",
      "postcode": "4450-028",
      "city": "MATOSINHOS",
      "lon": "-8.687264862074242",
      "lat": "41.18436632093949"
    },
    {
      "id": "pt.ine.add.PTCONT.3921050",
      "street": "R CONDE ALTO MEARIM",
      "house": "622",
      "postcode": "4450-028",
      "city": "MATOSINHOS",
      "lon": "-8.687264862074242",
      "lat": "41.18436632093949"
    },
    {
      "id": "pt.ine.add.PTCONT.3931624",
      "street": "R CONDE ALTO MEARIM",
      "house": "630",
      "postcode": "4450-028",
      "city": "MATOSINHOS",
      "lon": "-8.687097094570872",
      "lat": "41.18425907655744"
    },
    {
      "id": "pt.ine.add.PTCONT.3931625",
      "street": "R CONDE ALTO MEARIM",
      "house": "630",
      "postcode": "4450-028",
      "city": "MATOSINHOS",
      "lon": "-8.687097094570872",
      "lat": "41.18425907655744"
    },
    {
      "id": "pt.ine.add.PTCONT.3933874",
      "street": "R CONDE ALTO MEARIM",
      "house": "540",
      "postcode": "4450-028",
      "city": "MATOSINHOS",
      "lon": "-8.688450159283418",
      "lat": "41.18448838980242"
    },
    {
      "id": "pt.ine.add.PTCONT.3948446",
      "street": "R 1 DE DEZEMBRO",
      "house": "468",
      "postcode": "4450-226",
      "city": "MATOSINHOS",
      "lon": "-8.690146978919115",
      "lat": "41.18512864296041"
    },
    {
      "id": "pt.ine.add.PTCONT.3953051",
      "street": "R CONDE ALTO MEARIM",
      "house": "588",
      "postcode": "4450-028",
      "city": "MATOSINHOS",
      "lon": "-8.688050636868969",
      "lat": "41.184263490279854"
    },
    {
      "id": "pt.ine.add.PTCONT.3953912",
      "street": "R 1 DE DEZEMBRO",
      "house": "496",
      "postcode": "4450-226",
      "city": "MATOSINHOS",
      "lon": "-8.689882273611772",
      "lat": "41.18530658525783"
    },
    {
      "id": "pt.ine.add.PTCONT.3971783",
      "street": "R ÁLVARO CASTELÕES",
      "house": "549",
      "postcode": "4450-042",
      "city": "MATOSINHOS",
      "lon": "-8.689079233817125",
      "lat": "41.183949640964535"
    },
    {
      "id": "pt.ine.add.PTCONT.3971784",
      "street": "R ÁLVARO CASTELÕES",
      "house": "549",
      "postcode": "4450-042",
      "city": "MATOSINHOS",
      "lon": "-8.689079233817125",
      "lat": "41.183949640964535"
    },
    {
      "id": "pt.ine.add.PTCONT.3971785",
      "street": "R ÁLVARO CASTELÕES",
      "house": "549",
      "postcode": "4450-042",
      "city": "MATOSINHOS",
      "lon": "-8.689079233817125",
      "lat": "41.183949640964535"
    },
    {
      "id": "pt.ine.add.PTCONT.3971786",
      "street": "R ÁLVARO CASTELÕES",
      "house": "549",
      "postcode": "4450-042",
      "city": "MATOSINHOS",
      "lon": "-8.689079233817125",
      "lat": "41.183949640964535"
    },
    {
      "id": "pt.ine.add.PTCONT.3972537",
      "street": "R ÁLVARO CASTELÕES",
      "house": "463",
      "postcode": "4450-042",
      "city": "MATOSINHOS",
      "lon": "-8.689710257693818",
      "lat": "41.18460664894631"
    },
    {
      "id": "pt.ine.add.PTCONT.3972538",
      "street": "R ÁLVARO CASTELÕES",
      "house": "463",
      "postcode": "4450-042",
      "city": "MATOSINHOS",
      "lon": "-8.689710257693818",
      "lat": "41.18460664894631"
    },
    {
      "id": "pt.ine.add.PTCONT.3972539",
      "street": "R ÁLVARO CASTELÕES",
      "house": "463",
      "postcode": "4450-042",
      "city": "MATOSINHOS",
      "lon": "-8.689710257693818",
      "lat": "41.18460664894631"
    },
    {
      "id": "pt.ine.add.PTCONT.3972540",
      "street": "R ÁLVARO CASTELÕES",
      "house": "463",
      "postcode": "4450-042",
      "city": "MATOSINHOS",
      "lon": "-8.689710257693818",
      "lat": "41.18460664894631"
    },
    {
      "id": "pt.ine.add.PTCONT.3972541",
      "street": "R ÁLVARO CASTELÕES",
      "house": "463",
      "postcode": "4450-042",
      "city": "MATOSINHOS",
      "lon": "-8.689710257693818",
      "lat": "41.18460664894631"
    },
    {
      "id": "pt.ine.add.PTCONT.3972542",
      "street": "R ÁLVARO CASTELÕES",
      "house": "463",
      "postcode": "4450-042",
      "city": "MATOSINHOS",
      "lon": "-8.689710257693818",
      "lat": "41.18460664894631"
    },
    {
      "id": "pt.ine.add.PTCONT.3972543",
      "street": "R ÁLVARO CASTELÕES",
      "house": "463",
      "postcode": "4450-042",
      "city": "MATOSINHOS",
      "lon": "-8.689710257693818",
      "lat": "41.18460664894631"
    },
    {
      "id": "pt.ine.add.PTCONT.3976720",
      "street": "R ÁLVARO CASTELÕES",
      "house": "619",
      "postcode": "4450-042",
      "city": "MATOSINHOS",
      "lon": "-8.688607280677497",
      "lat": "41.1835097229408"
    },
    {
      "id": "pt.ine.add.PTCONT.3976721",
      "street": "R ÁLVARO CASTELÕES",
      "house": "619",
      "postcode": "4450-042",
      "city": "MATOSINHOS",
      "lon": "-8.688607280677497",
      "lat": "41.1835097229408"
    },
    {
      "id": "pt.ine.add.PTCONT.3976722",
      "street": "R ÁLVARO CASTELÕES",
      "house": "619",
      "postcode": "4450-042",
      "city": "MATOSINHOS",
      "lon": "-8.688607280677497",
      "lat": "41.1835097229408"
    },
    {
      "id": "pt.ine.add.PTCONT.3976723",
      "street": "R ÁLVARO CASTELÕES",
      "house": "619",
      "postcode": "4450-042",
      "city": "MATOSINHOS",
      "lon": "-8.688607280677497",
      "lat": "41.1835097229408"
    },
    {
      "id": "pt.ine.add.PTCONT.3976724",
      "street": "R ÁLVARO CASTELÕES",
      "house": "619",
      "postcode": "4450-042",
      "city": "MATOSINHOS",
      "lon": "-8.688607280677497",
      "lat": "41.1835097229408"
    },
    {
      "id": "pt.ine.add.PTCONT.3976725",
      "street": "R ÁLVARO CASTELÕES",
      "house": "619",
      "postcode": "4450-042",
      "city": "MATOSINHOS",
      "lon": "-8.688607280677497",
      "lat": "41.1835097229408"
    },
    {
      "id": "pt.ine.add.PTCONT.3976726",
      "street": "R ÁLVARO CASTELÕES",
      "house": "619",
      "postcode": "4450-042",
      "city": "MATOSINHOS",
      "lon": "-8.688607280677497",
      "lat": "41.1835097229408"
    },
    {
      "id": "pt.ine.add.PTCONT.3976727",
      "street": "R ÁLVARO CASTELÕES",
      "house": "619",
      "postcode": "4450-042",
      "city": "MATOSINHOS",
      "lon": "-8.688607280677497",
      "lat": "41.1835097229408"
    },
    {
      "id": "pt.ine.add.PTCONT.3977706",
      "street": "R ÁLVARO CASTELÕES",
      "house": "619",
      "postcode": "4450-042",
      "city": "MATOSINHOS",
      "lon": "-8.688607280677497",
      "lat": "41.1835097229408"
    },
    {
      "id": "pt.ine.add.PTCONT.3984762",
      "street": "R 1 DE DEZEMBRO",
      "house": "512",
      "postcode": "4450-226",
      "city": "MATOSINHOS",
      "lon": "-8.689464010663082",
      "lat": "41.18508506604508"
    },
    {
      "id": "pt.ine.add.PTCONT.3993133",
      "street": "R CONDE ALTO MEARIM",
      "house": "560",
      "postcode": "4450-028",
      "city": "MATOSINHOS",
      "lon": "-8.687804302994884",
      "lat": "41.18473290000348"
    },
    {
      "id": "pt.ine.add.PTCONT.3997654",
      "street": "R CONDE ALTO MEARIM",
      "house": "482",
      "postcode": "4450-028",
      "city": "MATOSINHOS",
      "lon": "-8.688856691812038",
      "lat": "41.185143140454734"
    },
    {
      "id": "pt.ine.add.PTCONT.3999563",
      "street": "R 1 DE DEZEMBRO",
      "house": "494",
      "postcode": "4450-226",
      "city": "MATOSINHOS",
      "lon": "-8.689927027795783",
      "lat": "41.18526741454372"
    },
    {
      "id": "pt.ine.add.PTCONT.4004441",
      "street": "R CONDE ALTO MEARIM",
      "house": "588",
      "postcode": "4450-028",
      "city": "MATOSINHOS",
      "lon": "-8.687943979911093",
      "lat": "41.18433603846188"
    },
    {
      "id": "pt.ine.add.PTCONT.4004477",
      "street": "R CONDE ALTO MEARIM",
      "house": "588",
      "postcode": "4450-028",
      "city": "MATOSINHOS",
      "lon": "-8.687873457739213",
      "lat": "41.184453433943716"
    },
    {
      "id": "pt.ine.add.PTCONT.4018231",
      "street": "R 1 DE DEZEMBRO",
      "house": "540",
      "postcode": "4450-226",
      "city": "MATOSINHOS",
      "lon": "-8.689527490243231",
      "lat": "41.18554397806772"
    },
    {
      "id": "pt.ine.add.PTCONT.4023291",
      "street": "R CONDE ALTO MEARIM",
      "house": "588",
      "postcode": "4450-028",
      "city": "MATOSINHOS",
      "lon": "-8.6876286030159",
      "lat": "41.184588517699154"
    },
    {
      "id": "pt.ine.add.PTCONT.4030172",
      "street": "R CONDE ALTO MEARIM",
      "house": "588",
      "postcode": "4450-028",
      "city": "MATOSINHOS",
      "lon": "-8.687991425258621",
      "lat": "41.18430879701737"
    },
    {
      "id": "pt.ine.add.PTCONT.4032232",
      "street": "R CONDE ALTO MEARIM",
      "house": "400",
      "postcode": "4450-028",
      "city": "MATOSINHOS",
      "lon": "-8.6892434255706",
      "lat": "41.1857794615711"
    },
    {
      "id": "pt.ine.add.PTCONT.4036840",
      "street": "R 1 DE DEZEMBRO",
      "house": "512",
      "postcode": "4450-226",
      "city": "MATOSINHOS",
      "lon": "-8.689476996113775",
      "lat": "41.18521106335191"
    },
    {
      "id": "pt.ine.add.PTCONT.4045246",
      "street": "R GODINHO",
      "house": "665",
      "postcode": "4450-150",
      "city": "MATOSINHOS",
      "lon": "-8.68721111670791",
      "lat": "41.1836462362843"
    },
    {
      "id": "pt.ine.add.PTCONT.4065382",
      "street": "R 1 DE DEZEMBRO",
      "house": "458",
      "postcode": "4450-226",
      "city": "MATOSINHOS",
      "lon": "-8.690274237911394",
      "lat": "41.185054136401064"
    },
    {
      "id": "pt.ine.add.PTCONT.4071849",
      "street": "R ÁLVARO CASTELÕES",
      "house": "413",
      "postcode": "4450-042",
      "city": "MATOSINHOS",
      "lon": "-8.690209016924932",
      "lat": "41.18486184296893"
    },
    {
      "id": "pt.ine.add.PTCONT.4071850",
      "street": "R ÁLVARO CASTELÕES",
      "house": "413",
      "postcode": "4450-042",
      "city": "MATOSINHOS",
      "lon": "-8.690209016924932",
      "lat": "41.18486184296893"
    },
    {
      "id": "pt.ine.add.PTCONT.4084699",
      "street": "R CONDE ALTO MEARIM",
      "house": "492",
      "postcode": "4450-028",
      "city": "MATOSINHOS",
      "lon": "-8.688451244459811",
      "lat": "41.185125971071415"
    },
    {
      "id": "pt.ine.add.PTCONT.4084700",
      "street": "R CONDE ALTO MEARIM",
      "house": "492",
      "postcode": "4450-028",
      "city": "MATOSINHOS",
      "lon": "-8.688451244459811",
      "lat": "41.185125971071415"
    },
    {
      "id": "pt.ine.add.PTCONT.4084750",
      "street": "R CONDE ALTO MEARIM",
      "house": "492",
      "postcode": "4450-028",
      "city": "MATOSINHOS",
      "lon": "-8.688451244459811",
      "lat": "41.185125971071415"
    },
    {
      "id": "pt.ine.add.PTCONT.4084751",
      "street": "R CONDE ALTO MEARIM",
      "house": "492",
      "postcode": "4450-028",
      "city": "MATOSINHOS",
      "lon": "-8.688451244459811",
      "lat": "41.185125971071415"
    },
    {
      "id": "pt.ine.add.PTCONT.4084752",
      "street": "R CONDE ALTO MEARIM",
      "house": "492",
      "postcode": "4450-028",
      "city": "MATOSINHOS",
      "lon": "-8.688451244459811",
      "lat": "41.185125971071415"
    },
    {
      "id": "pt.ine.add.PTCONT.4084753",
      "street": "R CONDE ALTO MEARIM",
      "house": "492",
      "postcode": "4450-028",
      "city": "MATOSINHOS",
      "lon": "-8.688451244459811",
      "lat": "41.185125971071415"
    },
    {
      "id": "pt.ine.add.PTCONT.4089583",
      "street": "R CONDE ALTO MEARIM",
      "house": "682",
      "postcode": "4450-028",
      "city": "MATOSINHOS",
      "lon": "-8.68698633963623",
      "lat": "41.183845411882565"
    },
    {
      "id": "pt.ine.add.PTCONT.4102632",
      "street": "R CONDE ALTO MEARIM",
      "house": "588",
      "postcode": "4450-028",
      "city": "MATOSINHOS",
      "lon": "-8.687813789937882",
      "lat": "41.18444471704828"
    },
    {
      "id": "pt.ine.add.PTCONT.4104404",
      "street": "R CONDE ALTO MEARIM",
      "house": "524",
      "postcode": "4450-028",
      "city": "MATOSINHOS",
      "lon": "-8.688424821171695",
      "lat": "41.184819952660014"
    },
    {
      "id": "pt.ine.add.PTCONT.4104405",
      "street": "R CONDE ALTO MEARIM",
      "house": "524",
      "postcode": "4450-028",
      "city": "MATOSINHOS",
      "lon": "-8.688424821171695",
      "lat": "41.184819952660014"
    },
    {
      "id": "pt.ine.add.PTCONT.4104406",
      "street": "R CONDE ALTO MEARIM",
      "house": "524",
      "postcode": "4450-028",
      "city": "MATOSINHOS",
      "lon": "-8.688424821171695",
      "lat": "41.184819952660014"
    },
    {
      "id": "pt.ine.add.PTCONT.4113526",
      "street": "R CONDE ALTO MEARIM",
      "house": "624 TRAZ",
      "postcode": "4450-028",
      "city": "MATOSINHOS",
      "lon": "-8.6875070523283",
      "lat": "41.18409734617771"
    },
    {
      "id": "pt.ine.add.PTCONT.4123953",
      "street": "R GODINHO",
      "house": "579",
      "postcode": "4450-150",
      "city": "MATOSINHOS",
      "lon": "-8.688113784334803",
      "lat": "41.183272714018344"
    },
    {
      "id": "pt.ine.add.PTCONT.4135255",
      "street": "R 1 DE DEZEMBRO",
      "house": "512",
      "postcode": "4450-226",
      "city": "MATOSINHOS",
      "lon": "-8.689523984131807",
      "lat": "41.1851297977599"
    },
    {
      "id": "pt.ine.add.PTCONT.4135294",
      "street": "R CONDE ALTO MEARIM",
      "house": "540",
      "postcode": "4450-028",
      "city": "MATOSINHOS",
      "lon": "-8.688296134643574",
      "lat": "41.184597369343344"
    },
    {
      "id": "pt.ine.add.PTCONT.4140652",
      "street": "R 1 DE DEZEMBRO",
      "house": "550",
      "postcode": "4450-226",
      "city": "MATOSINHOS",
      "lon": "-8.689468507153572",
      "lat": "41.18561629731354"
    },
    {
      "id": "pt.ine.add.PTCONT.4142212",
      "street": "R CONDE ALTO MEARIM",
      "house": "660",
      "postcode": "4450-028",
      "city": "MATOSINHOS",
      "lon": "-8.686905415134774",
      "lat": "41.184142942618905"
    },
    {
      "id": "pt.ine.add.PTCONT.4142213",
      "street": "R CONDE ALTO MEARIM",
      "house": "660",
      "postcode": "4450-028",
      "city": "MATOSINHOS",
      "lon": "-8.686905415134774",
      "lat": "41.184142942618905"
    },
    {
      "id": "pt.ine.add.PTCONT.4148582",
      "street": "R CONDE ALTO MEARIM",
      "house": "540",
      "postcode": "4450-028",
      "city": "MATOSINHOS",
      "lon": "-8.688125644012926",
      "lat": "41.184677326165314"
    },
    {
      "id": "pt.ine.add.PTCONT.4148609",
      "street": "R CONDE ALTO MEARIM",
      "house": "540",
      "postcode": "4450-028",
      "city": "MATOSINHOS",
      "lon": "-8.688054817739904",
      "lat": "41.184758706060244"
    },
    {
      "id": "pt.ine.add.PTCONT.4148612",
      "street": "R CONDE ALTO MEARIM",
      "house": "574",
      "postcode": "4450-028",
      "city": "MATOSINHOS",
      "lon": "-8.688184711307656",
      "lat": "41.18434560080929"
    },
    {
      "id": "pt.ine.add.PTCONT.4150304",
      "street": "R CONDE ALTO MEARIM",
      "house": "562",
      "postcode": "4450-028",
      "city": "MATOSINHOS",
      "lon": "-8.687784134001532",
      "lat": "41.18468447302532"
    },
    {
      "id": "pt.ine.add.PTCONT.4150305",
      "street": "R CONDE ALTO MEARIM",
      "house": "562",
      "postcode": "4450-028",
      "city": "MATOSINHOS",
      "lon": "-8.687784134001532",
      "lat": "41.18468447302532"
    },
    {
      "id": "pt.ine.add.PTCONT.4150306",
      "street": "R CONDE ALTO MEARIM",
      "house": "562",
      "postcode": "4450-028",
      "city": "MATOSINHOS",
      "lon": "-8.687784134001532",
      "lat": "41.18468447302532"
    },
    {
      "id": "pt.ine.add.PTCONT.4155151",
      "street": "R CONDE ALTO MEARIM",
      "house": "482",
      "postcode": "4450-028",
      "city": "MATOSINHOS",
      "lon": "-8.689183098555",
      "lat": "41.18491571308674"
    },
    {
      "id": "pt.ine.add.PTCONT.4168152",
      "street": "R 1 DE DEZEMBRO",
      "house": "512",
      "postcode": "4450-226",
      "city": "MATOSINHOS",
      "lon": "-8.689440935789127",
      "lat": "41.18517522039261"
    },
    {
      "id": "pt.ine.add.PTCONT.4168153",
      "street": "R CONDE ALTO MEARIM",
      "house": "588",
      "postcode": "4450-028",
      "city": "MATOSINHOS",
      "lon": "-8.688063087314228",
      "lat": "41.184326460317585"
    },
    {
      "id": "pt.ine.add.PTCONT.4171957",
      "street": "R ÁLVARO CASTELÕES",
      "house": "583",
      "postcode": "4450-042",
      "city": "MATOSINHOS",
      "lon": "-8.688860466410006",
      "lat": "41.18379205381997"
    },
    {
      "id": "pt.ine.add.PTCONT.4171958",
      "street": "R ÁLVARO CASTELÕES",
      "house": "583",
      "postcode": "4450-042",
      "city": "MATOSINHOS",
      "lon": "-8.688860466410006",
      "lat": "41.18379205381997"
    },
    {
      "id": "pt.ine.add.PTCONT.4171959",
      "street": "R ÁLVARO CASTELÕES",
      "house": "583",
      "postcode": "4450-042",
      "city": "MATOSINHOS",
      "lon": "-8.688860466410006",
      "lat": "41.18379205381997"
    },
    {
      "id": "pt.ine.add.PTCONT.4171960",
      "street": "R ÁLVARO CASTELÕES",
      "house": "583",
      "postcode": "4450-042",
      "city": "MATOSINHOS",
      "lon": "-8.688860466410006",
      "lat": "41.18379205381997"
    },
    {
      "id": "pt.ine.add.PTCONT.4171961",
      "street": "R ÁLVARO CASTELÕES",
      "house": "583",
      "postcode": "4450-042",
      "city": "MATOSINHOS",
      "lon": "-8.688860466410006",
      "lat": "41.18379205381997"
    },
    {
      "id": "pt.ine.add.PTCONT.4171962",
      "street": "R ÁLVARO CASTELÕES",
      "house": "583",
      "postcode": "4450-042",
      "city": "MATOSINHOS",
      "lon": "-8.688860466410006",
      "lat": "41.18379205381997"
    },
    {
      "id": "pt.ine.add.PTCONT.4171963",
      "street": "R ÁLVARO CASTELÕES",
      "house": "583",
      "postcode": "4450-042",
      "city": "MATOSINHOS",
      "lon": "-8.688860466410006",
      "lat": "41.18379205381997"
    },
    {
      "id": "pt.ine.add.PTCONT.4171964",
      "street": "R ÁLVARO CASTELÕES",
      "house": "583",
      "postcode": "4450-042",
      "city": "MATOSINHOS",
      "lon": "-8.688860466410006",
      "lat": "41.18379205381997"
    },
    {
      "id": "pt.ine.add.PTCONT.4171965",
      "street": "R ÁLVARO CASTELÕES",
      "house": "583",
      "postcode": "4450-042",
      "city": "MATOSINHOS",
      "lon": "-8.688860466410006",
      "lat": "41.18379205381997"
    },
    {
      "id": "pt.ine.add.PTCONT.4171966",
      "street": "R ÁLVARO CASTELÕES",
      "house": "583",
      "postcode": "4450-042",
      "city": "MATOSINHOS",
      "lon": "-8.688860466410006",
      "lat": "41.18379205381997"
    },
    {
      "id": "pt.ine.add.PTCONT.4171967",
      "street": "R ÁLVARO CASTELÕES",
      "house": "583",
      "postcode": "4450-042",
      "city": "MATOSINHOS",
      "lon": "-8.688860466410006",
      "lat": "41.18379205381997"
    },
    {
      "id": "pt.ine.add.PTCONT.4172161",
      "street": "R ÁLVARO CASTELÕES",
      "house": "583",
      "postcode": "4450-042",
      "city": "MATOSINHOS",
      "lon": "-8.688860466410006",
      "lat": "41.18379205381997"
    },
    {
      "id": "pt.ine.add.PTCONT.4172162",
      "street": "R ÁLVARO CASTELÕES",
      "house": "583",
      "postcode": "4450-042",
      "city": "MATOSINHOS",
      "lon": "-8.688860466410006",
      "lat": "41.18379205381997"
    },
    {
      "id": "pt.ine.add.PTCONT.4174630",
      "street": "R CONDE ALTO MEARIM",
      "house": "570",
      "postcode": "4450-028",
      "city": "MATOSINHOS",
      "lon": "-8.688224977192288",
      "lat": "41.184399432477974"
    },
    {
      "id": "pt.ine.add.PTCONT.4181048",
      "street": "R CONDE ALTO MEARIM",
      "house": "570",
      "postcode": "4450-028",
      "city": "MATOSINHOS",
      "lon": "-8.688029004562853",
      "lat": "41.184524718912634"
    },
    {
      "id": "pt.ine.add.PTCONT.4181049",
      "street": "R CONDE ALTO MEARIM",
      "house": "574",
      "postcode": "4450-028",
      "city": "MATOSINHOS",
      "lon": "-8.687933429553606",
      "lat": "41.18449816650217"
    },
    {
      "id": "pt.ine.add.PTCONT.4185020",
      "street": "R GODINHO",
      "house": "653",
      "postcode": "4450-150",
      "city": "MATOSINHOS",
      "lon": "-8.687369222673263",
      "lat": "41.183596858649324"
    },
    {
      "id": "pt.ine.add.PTCONT.4187576",
      "street": "R CONDE ALTO MEARIM",
      "house": "588",
      "postcode": "4450-028",
      "city": "MATOSINHOS",
      "lon": "-8.688192896468994",
      "lat": "41.184172761833416"
    },
    {
      "id": "pt.ine.add.PTCONT.4192824",
      "street": "R ÁLVARO CASTELÕES",
      "house": "547",
      "postcode": "4450-042",
      "city": "MATOSINHOS",
      "lon": "-8.689168979258389",
      "lat": "41.184023984730224"
    },
    {
      "id": "pt.ine.add.PTCONT.4200704",
      "street": "R 1 DE DEZEMBRO",
      "house": "512",
      "postcode": "4450-226",
      "city": "MATOSINHOS",
      "lon": "-8.689596104860131",
      "lat": "41.185201483615"
    },
    {
      "id": "pt.ine.add.PTCONT.4210324",
      "street": "R 1 DE DEZEMBRO",
      "house": "554",
      "postcode": "4450-226",
      "city": "MATOSINHOS",
      "lon": "-8.689421137693493",
      "lat": "41.18565254328189"
    },
    {
      "id": "pt.ine.add.PTCONT.4210325",
      "street": "R CONDE ALTO MEARIM",
      "house": "430",
      "postcode": "4450-028",
      "city": "MATOSINHOS",
      "lon": "-8.688931790718113",
      "lat": "41.18557386734424"
    },
    {
      "id": "pt.ine.add.PTCONT.4210326",
      "street": "R CONDE ALTO MEARIM",
      "house": "430",
      "postcode": "4450-028",
      "city": "MATOSINHOS",
      "lon": "-8.688931790718113",
      "lat": "41.18557386734424"
    },
    {
      "id": "pt.ine.add.PTCONT.4210327",
      "street": "R CONDE ALTO MEARIM",
      "house": "430",
      "postcode": "4450-028",
      "city": "MATOSINHOS",
      "lon": "-8.688931790718113",
      "lat": "41.18557386734424"
    },
    {
      "id": "pt.ine.add.PTCONT.4222279",
      "street": "R CONDE ALTO MEARIM",
      "house": "446",
      "postcode": "4450-028",
      "city": "MATOSINHOS",
      "lon": "-8.68876549285207",
      "lat": "41.185446023723784"
    },
    {
      "id": "pt.ine.add.PTCONT.4228547",
      "street": "R CONDE ALTO MEARIM",
      "house": "460",
      "postcode": "4450-028",
      "city": "MATOSINHOS",
      "lon": "-8.68865583729595",
      "lat": "41.18535909586671"
    },
    {
      "id": "pt.ine.add.PTCONT.4240118",
      "street": "R 1 DE DEZEMBRO",
      "house": "498",
      "postcode": "4450-226",
      "city": "MATOSINHOS",
      "lon": "-8.689811400364322",
      "lat": "41.18529048602822"
    },
    {
      "id": "pt.ine.add.PTCONT.4250269",
      "street": "R CONDE ALTO MEARIM",
      "house": "472",
      "postcode": "4450-028",
      "city": "MATOSINHOS",
      "lon": "-8.688648826751097",
      "lat": "41.18522021422547"
    },
    {
      "id": "pt.ine.add.PTCONT.4250696",
      "street": "R CONDE ALTO MEARIM",
      "house": "534",
      "postcode": "4450-028",
      "city": "MATOSINHOS",
      "lon": "-8.688079642840522",
      "lat": "41.18487564219798"
    },
    {
      "id": "pt.ine.add.PTCONT.4250697",
      "street": "R CONDE ALTO MEARIM",
      "house": "534",
      "postcode": "4450-028",
      "city": "MATOSINHOS",
      "lon": "-8.688079642840522",
      "lat": "41.18487564219798"
    },
    {
      "id": "pt.ine.add.PTCONT.4250698",
      "street": "R CONDE ALTO MEARIM",
      "house": "534",
      "postcode": "4450-028",
      "city": "MATOSINHOS",
      "lon": "-8.688079642840522",
      "lat": "41.18487564219798"
    },
    {
      "id": "pt.ine.add.PTCONT.4250699",
      "street": "R CONDE ALTO MEARIM",
      "house": "534",
      "postcode": "4450-028",
      "city": "MATOSINHOS",
      "lon": "-8.688079642840522",
      "lat": "41.18487564219798"
    },
    {
      "id": "pt.ine.add.PTCONT.4250700",
      "street": "R CONDE ALTO MEARIM",
      "house": "534",
      "postcode": "4450-028",
      "city": "MATOSINHOS",
      "lon": "-8.688079642840522",
      "lat": "41.18487564219798"
    },
    {
      "id": "pt.ine.add.PTCONT.4251951",
      "street": "R CONDE ALTO MEARIM",
      "house": "534",
      "postcode": "4450-028",
      "city": "MATOSINHOS",
      "lon": "-8.688079642840522",
      "lat": "41.18487564219798"
    },
    {
      "id": "pt.ine.add.PTCONT.4254862",
      "street": "R ÁLVARO CASTELÕES",
      "house": "463 C",
      "postcode": "4450-042",
      "city": "MATOSINHOS",
      "lon": "-8.689804994745552",
      "lat": "41.184534156750836"
    },
    {
      "id": "pt.ine.add.PTCONT.4268103",
      "street": "R 1 DE DEZEMBRO",
      "house": "478",
      "postcode": "4450-226",
      "city": "MATOSINHOS",
      "lon": "-8.690037089178865",
      "lat": "41.185199352020156"
    },
    {
      "id": "pt.ine.add.PTCONT.4282714",
      "street": "R CONDE ALTO MEARIM",
      "house": "646",
      "postcode": "4450-028",
      "city": "MATOSINHOS",
      "lon": "-8.686989222644726",
      "lat": "41.18418756105835"
    },
    {
      "id": "pt.ine.add.PTCONT.4282883",
      "street": "R CONDE ALTO MEARIM",
      "house": "646",
      "postcode": "4450-028",
      "city": "MATOSINHOS",
      "lon": "-8.686989222644726",
      "lat": "41.18418756105835"
    },
    {
      "id": "pt.ine.add.PTCONT.4286480",
      "street": "R CONDE ALTO MEARIM",
      "house": "588 TRAS",
      "postcode": "4450-028",
      "city": "MATOSINHOS",
      "lon": "-8.68773504447999",
      "lat": "41.1845683145851"
    },
    {
      "id": "pt.ine.add.PTCONT.4286481",
      "street": "R CONDE ALTO MEARIM",
      "house": "588",
      "postcode": "4450-028",
      "city": "MATOSINHOS",
      "lon": "-8.687849317060794",
      "lat": "41.1844175330639"
    },
    {
      "id": "pt.ine.add.PTCONT.4288381",
      "street": "R ÁLVARO CASTELÕES",
      "house": "391",
      "postcode": "4450-042",
      "city": "MATOSINHOS",
      "lon": "-8.690344043406588",
      "lat": "41.18498619898815"
    },
    {
      "id": "pt.ine.add.PTCONT.4293450",
      "street": "R CONDE ALTO MEARIM",
      "house": "622",
      "postcode": "4450-028",
      "city": "MATOSINHOS",
      "lon": "-8.687679877271925",
      "lat": "41.18411220320603"
    },
    {
      "id": "pt.ine.add.PTCONT.4295618",
      "street": "R CONDE ALTO MEARIM",
      "house": "622 TRAZ",
      "postcode": "4450-028",
      "city": "MATOSINHOS",
      "lon": "-8.687857739944022",
      "lat": "41.184003295150916"
    },
    {
      "id": "pt.ine.add.PTCONT.4313388",
      "street": "R CONDE ALTO MEARIM",
      "house": "540",
      "postcode": "4450-028",
      "city": "MATOSINHOS",
      "lon": "-8.688184855859163",
      "lat": "41.18463201936015"
    },
    {
      "id": "pt.ine.add.PTCONT.4326609",
      "street": "R CONDE ALTO MEARIM",
      "house": "570",
      "postcode": "4450-028",
      "city": "MATOSINHOS",
      "lon": "-8.688153923249766",
      "lat": "41.18445380066566"
    },
    {
      "id": "pt.ine.add.PTCONT.4345308",
      "street": "R ÁLVARO CASTELÕES",
      "house": "575",
      "postcode": "4450-042",
      "city": "MATOSINHOS",
      "lon": "-8.688669884631642",
      "lat": "41.184014147478365"
    },
    {
      "id": "pt.ine.add.PTCONT.4345309",
      "street": "R ÁLVARO CASTELÕES",
      "house": "575",
      "postcode": "4450-042",
      "city": "MATOSINHOS",
      "lon": "-8.688669884631642",
      "lat": "41.184014147478365"
    },
    {
      "id": "pt.ine.add.PTCONT.4345310",
      "street": "R ÁLVARO CASTELÕES",
      "house": "575",
      "postcode": "4450-042",
      "city": "MATOSINHOS",
      "lon": "-8.688669884631642",
      "lat": "41.184014147478365"
    },
    {
      "id": "pt.ine.add.PTCONT.4345311",
      "street": "R ÁLVARO CASTELÕES",
      "house": "575",
      "postcode": "4450-042",
      "city": "MATOSINHOS",
      "lon": "-8.688669884631642",
      "lat": "41.184014147478365"
    },
    {
      "id": "pt.ine.add.PTCONT.4345312",
      "street": "R ÁLVARO CASTELÕES",
      "house": "575",
      "postcode": "4450-042",
      "city": "MATOSINHOS",
      "lon": "-8.688669884631642",
      "lat": "41.184014147478365"
    },
    {
      "id": "pt.ine.add.PTCONT.4345315",
      "street": "R ÁLVARO CASTELÕES",
      "house": "575",
      "postcode": "4450-042",
      "city": "MATOSINHOS",
      "lon": "-8.688669884631642",
      "lat": "41.184014147478365"
    },
    {
      "id": "pt.ine.add.PTCONT.4345316",
      "street": "R ÁLVARO CASTELÕES",
      "house": "575",
      "postcode": "4450-042",
      "city": "MATOSINHOS",
      "lon": "-8.688669884631642",
      "lat": "41.184014147478365"
    },
    {
      "id": "pt.ine.add.PTCONT.4345317",
      "street": "R ÁLVARO CASTELÕES",
      "house": "575",
      "postcode": "4450-042",
      "city": "MATOSINHOS",
      "lon": "-8.688669884631642",
      "lat": "41.184014147478365"
    },
    {
      "id": "pt.ine.add.PTCONT.4345318",
      "street": "R ÁLVARO CASTELÕES",
      "house": "575",
      "postcode": "4450-042",
      "city": "MATOSINHOS",
      "lon": "-8.688669884631642",
      "lat": "41.184014147478365"
    },
    {
      "id": "pt.ine.add.PTCONT.4345319",
      "street": "R ÁLVARO CASTELÕES",
      "house": "575",
      "postcode": "4450-042",
      "city": "MATOSINHOS",
      "lon": "-8.688669884631642",
      "lat": "41.184014147478365"
    },
    {
      "id": "pt.ine.add.PTCONT.4345320",
      "street": "R ÁLVARO CASTELÕES",
      "house": "575",
      "postcode": "4450-042",
      "city": "MATOSINHOS",
      "lon": "-8.688669884631642",
      "lat": "41.184014147478365"
    },
    {
      "id": "pt.ine.add.PTCONT.4345355",
      "street": "R ÁLVARO CASTELÕES",
      "house": "575",
      "postcode": "4450-042",
      "city": "MATOSINHOS",
      "lon": "-8.688669884631642",
      "lat": "41.184014147478365"
    },
    {
      "id": "pt.ine.add.PTCONT.4345782",
      "street": "R CONDE ALTO MEARIM",
      "house": "588",
      "postcode": "4450-028",
      "city": "MATOSINHOS",
      "lon": "-8.68824064575762",
      "lat": "41.184181535981146"
    },
    {
      "id": "pt.ine.add.PTCONT.4347554",
      "street": "R ÁLVARO CASTELÕES",
      "house": "653",
      "postcode": "4450-042",
      "city": "MATOSINHOS",
      "lon": "-8.688305871590995",
      "lat": "41.183247101144545"
    },
    {
      "id": "pt.ine.add.PTCONT.4347555",
      "street": "R ÁLVARO CASTELÕES",
      "house": "653",
      "postcode": "4450-042",
      "city": "MATOSINHOS",
      "lon": "-8.688305871590995",
      "lat": "41.183247101144545"
    },
    {
      "id": "pt.ine.add.PTCONT.4347556",
      "street": "R ÁLVARO CASTELÕES",
      "house": "653",
      "postcode": "4450-042",
      "city": "MATOSINHOS",
      "lon": "-8.688305871590995",
      "lat": "41.183247101144545"
    },
    {
      "id": "pt.ine.add.PTCONT.4347557",
      "street": "R ÁLVARO CASTELÕES",
      "house": "653",
      "postcode": "4450-042",
      "city": "MATOSINHOS",
      "lon": "-8.688305871590995",
      "lat": "41.183247101144545"
    },
    {
      "id": "pt.ine.add.PTCONT.4347558",
      "street": "R ÁLVARO CASTELÕES",
      "house": "653",
      "postcode": "4450-042",
      "city": "MATOSINHOS",
      "lon": "-8.688305871590995",
      "lat": "41.183247101144545"
    },
    {
      "id": "pt.ine.add.PTCONT.4347559",
      "street": "R ÁLVARO CASTELÕES",
      "house": "653",
      "postcode": "4450-042",
      "city": "MATOSINHOS",
      "lon": "-8.688305871590995",
      "lat": "41.183247101144545"
    },
    {
      "id": "pt.ine.add.PTCONT.4347560",
      "street": "R ÁLVARO CASTELÕES",
      "house": "653",
      "postcode": "4450-042",
      "city": "MATOSINHOS",
      "lon": "-8.688305871590995",
      "lat": "41.183247101144545"
    },
    {
      "id": "pt.ine.add.PTCONT.4347561",
      "street": "R ÁLVARO CASTELÕES",
      "house": "653",
      "postcode": "4450-042",
      "city": "MATOSINHOS",
      "lon": "-8.688305871590995",
      "lat": "41.183247101144545"
    },
    {
      "id": "pt.ine.add.PTCONT.4347562",
      "street": "R ÁLVARO CASTELÕES",
      "house": "653",
      "postcode": "4450-042",
      "city": "MATOSINHOS",
      "lon": "-8.688305871590995",
      "lat": "41.183247101144545"
    },
    {
      "id": "pt.ine.add.PTCONT.4351106",
      "street": "R ÁLVARO CASTELÕES",
      "house": "653",
      "postcode": "4450-042",
      "city": "MATOSINHOS",
      "lon": "-8.688305871590995",
      "lat": "41.183247101144545"
    },
    {
      "id": "pt.ine.add.PTCONT.4352176",
      "street": "R CONDE ALTO MEARIM",
      "house": "624",
      "postcode": "4450-028",
      "city": "MATOSINHOS",
      "lon": "-8.687203200612618",
      "lat": "41.1843323184685"
    },
    {
      "id": "pt.ine.add.PTCONT.4353842",
      "street": "R ÁLVARO CASTELÕES",
      "house": "601",
      "postcode": "4450-042",
      "city": "MATOSINHOS",
      "lon": "-8.688750530056625",
      "lat": "41.18363225295318"
    },
    {
      "id": "pt.ine.add.PTCONT.4353843",
      "street": "R ÁLVARO CASTELÕES",
      "house": "601",
      "postcode": "4450-042",
      "city": "MATOSINHOS",
      "lon": "-8.688750530056625",
      "lat": "41.18363225295318"
    },
    {
      "id": "pt.ine.add.PTCONT.4353844",
      "street": "R ÁLVARO CASTELÕES",
      "house": "601",
      "postcode": "4450-042",
      "city": "MATOSINHOS",
      "lon": "-8.688750530056625",
      "lat": "41.18363225295318"
    },
    {
      "id": "pt.ine.add.PTCONT.4353845",
      "street": "R ÁLVARO CASTELÕES",
      "house": "601",
      "postcode": "4450-042",
      "city": "MATOSINHOS",
      "lon": "-8.688750530056625",
      "lat": "41.18363225295318"
    },
    {
      "id": "pt.ine.add.PTCONT.4353846",
      "street": "R ÁLVARO CASTELÕES",
      "house": "601",
      "postcode": "4450-042",
      "city": "MATOSINHOS",
      "lon": "-8.688750530056625",
      "lat": "41.18363225295318"
    },
    {
      "id": "pt.ine.add.PTCONT.4360527",
      "street": "R ÁLVARO CASTELÕES",
      "house": "415",
      "postcode": "4450-042",
      "city": "MATOSINHOS",
      "lon": "-8.690164063431716",
      "lat": "41.184832719931215"
    },
    {
      "id": "pt.ine.add.PTCONT.4366977",
      "street": "R CONDE ALTO MEARIM",
      "house": "514",
      "postcode": "4450-028",
      "city": "MATOSINHOS",
      "lon": "-8.688271022292655",
      "lat": "41.18495575845195"
    },
    {
      "id": "pt.ine.add.PTCONT.4366978",
      "street": "R CONDE ALTO MEARIM",
      "house": "514",
      "postcode": "4450-028",
      "city": "MATOSINHOS",
      "lon": "-8.688271022292655",
      "lat": "41.18495575845195"
    },
    {
      "id": "pt.ine.add.PTCONT.4371558",
      "street": "R 1 DE DEZEMBRO",
      "house": "498",
      "postcode": "4450-226",
      "city": "MATOSINHOS",
      "lon": "-8.689763497561561",
      "lat": "41.18526370470091"
    },
    {
      "id": "pt.ine.add.PTCONT.4379937",
      "street": "R ÁLVARO CASTELÕES",
      "house": "575",
      "postcode": "4450-042",
      "city": "MATOSINHOS",
      "lon": "-8.688669884631642",
      "lat": "41.184014147478365"
    },
    {
      "id": "pt.ine.add.PTCONT.4381280",
      "street": "R CONDE ALTO MEARIM",
      "house": "430",
      "postcode": "4450-028",
      "city": "MATOSINHOS",
      "lon": "-8.688931790718113",
      "lat": "41.18557386734424"
    },
    {
      "id": "pt.ine.add.PTCONT.4388049",
      "street": "R CONDE ALTO MEARIM",
      "house": "402",
      "postcode": "4450-028",
      "city": "MATOSINHOS",
      "lon": "-8.689135624985312",
      "lat": "41.185716952051514"
    },
    {
      "id": "pt.ine.add.PTCONT.4391060",
      "street": "R 1 DE DEZEMBRO",
      "house": "512",
      "postcode": "4450-226",
      "city": "MATOSINHOS",
      "lon": "-8.689404875503902",
      "lat": "41.18513937742158"
    }
  ]
}