{
  "data": {
    "distrito": "Coimbra",
    "concelho": "Figueira da Foz",
    "freguesia": "Lavos",
    "OBJECTID": 937,
    "BGRI2021": "06052200209",
    "DT21": "06",
    "DTMN21": "0605",
    "DTMNFR21": "060522",
    "DTMNFRSEC21": "060522002",
    "SECNUM21": "002",
    "SSNUM21": "09",
    "SECSSNUM21": "00209",
    "OBJECTID_1": 50934,
    "DT": "06",
    "CC": "05",
    "fr": "22",
    "SEC": "002",
    "SS": "09"
  },
  "addresses": [
    {
      "id": "pt.ine.add.PTCONT.1104914",
      "street": "ESTR S LUZIA",
      "house": "19",
      "postcode": "3090-461",
      "city": "LAVOS",
      "lon": "-8.828520139104727",
      "lat": "40.09012851633056"
    },
    {
      "id": "pt.ine.add.PTCONT.1109950",
      "street": "R CAMELIAS",
      "house": "32",
      "postcode": "3090-461",
      "city": "LAVOS",
      "lon": "-8.829746334011256",
      "lat": "40.090787588052045"
    },
    {
      "id": "pt.ine.add.PTCONT.1122539",
      "street": "R CAMELIAS",
      "house": "18",
      "postcode": "3090-461",
      "city": "LAVOS",
      "lon": "-8.829535350243",
      "lat": "40.08964510194663"
    },
    {
      "id": "pt.ine.add.PTCONT.1131781",
      "street": "R CAMELIAS",
      "house": "14",
      "postcode": "3090-461",
      "city": "LAVOS",
      "lon": "-8.829183602501544",
      "lat": "40.089647216237545"
    },
    {
      "id": "pt.ine.add.PTCONT.1138038",
      "street": "ESTR S LUZIA",
      "house": "13",
      "postcode": "3090-461",
      "city": "LAVOS",
      "lon": "-8.827979414935163",
      "lat": "40.08999667219044"
    },
    {
      "id": "pt.ine.add.PTCONT.1141831",
      "street": "ESTR S LUZIA",
      "house": "21",
      "postcode": "3090-461",
      "city": "LAVOS",
      "lon": "-8.828685939338282",
      "lat": "40.09028962780229"
    },
    {
      "id": "pt.ine.add.PTCONT.1147845",
      "street": "ESTR S LUZIA",
      "house": "11",
      "postcode": "3090-461",
      "city": "LAVOS",
      "lon": "-8.827896607474058",
      "lat": "40.08992512136095"
    },
    {
      "id": "pt.ine.add.PTCONT.1149217",
      "street": "R CAMELIAS",
      "house": "30",
      "postcode": "3090-461",
      "city": "LAVOS",
      "lon": "-8.829698056417495",
      "lat": "40.090652789254435"
    },
    {
      "id": "pt.ine.add.PTCONT.1153955",
      "street": "R CAMELIAS",
      "house": "28",
      "postcode": "3090-461",
      "city": "LAVOS",
      "lon": "-8.829697138345992",
      "lat": "40.09056273534809"
    },
    {
      "id": "pt.ine.add.PTCONT.1175472",
      "street": "ESTR S LUZIA",
      "house": "31",
      "postcode": "3090-461",
      "city": "LAVOS",
      "lon": "-8.82928868729996",
      "lat": "40.09075431575477"
    },
    {
      "id": "pt.ine.add.PTCONT.1259456",
      "street": "ESTR S LUZIA",
      "house": "33",
      "postcode": "3090-461",
      "city": "LAVOS",
      "lon": "-8.829406764372617",
      "lat": "40.09083465950551"
    },
    {
      "id": "pt.ine.add.PTCONT.1265585",
      "street": "R S LUZIA",
      "house": "17",
      "postcode": "3090-461",
      "city": "LAVOS",
      "lon": "-8.828272539629626",
      "lat": "40.08999491338999"
    },
    {
      "id": "pt.ine.add.PTCONT.1302127",
      "street": "R CAMELIAS",
      "house": "12",
      "postcode": "3090-461",
      "city": "LAVOS",
      "lon": "-8.8290313619012",
      "lat": "40.0896661428854"
    },
    {
      "id": "pt.ine.add.PTCONT.1303896",
      "street": "ESTR S LUZIA",
      "house": "35",
      "postcode": "3090-458",
      "city": "LAVOS",
      "lon": "-8.829583651018465",
      "lat": "40.09093266142358"
    },
    {
      "id": "pt.ine.add.PTCONT.1326897",
      "street": "R DAS CAMÃ‰LIAS",
      "house": "",
      "postcode": "3090-451",
      "city": "LAVOS",
      "lon": "-8.829724536377878",
      "lat": "40.09094982610722"
    },
    {
      "id": "pt.ine.add.PTCONT.1328134",
      "street": "R CAMELIAS",
      "house": "10",
      "postcode": "3090-461",
      "city": "LAVOS",
      "lon": "-8.828844038107434",
      "lat": "40.08969428600556"
    },
    {
      "id": "pt.ine.add.PTCONT.1334272",
      "street": "R CAMELIAS",
      "house": "22",
      "postcode": "3090-461",
      "city": "LAVOS",
      "lon": "-8.829972111301199",
      "lat": "40.089930665374816"
    },
    {
      "id": "pt.ine.add.PTCONT.1343817",
      "street": "ESTR S LUZIA",
      "house": "27",
      "postcode": "3090-461",
      "city": "LAVOS",
      "lon": "-8.829194244189724",
      "lat": "40.09069184174332"
    },
    {
      "id": "pt.ine.add.PTCONT.1346722",
      "street": "R CAMELIAS",
      "house": "24",
      "postcode": "3090-461",
      "city": "LAVOS",
      "lon": "-8.829869341386834",
      "lat": "40.09020146191038"
    },
    {
      "id": "pt.ine.add.PTCONT.1361719",
      "street": "ESTR S LUZIA",
      "house": "23",
      "postcode": "3090-461",
      "city": "LAVOS",
      "lon": "-8.828781206599128",
      "lat": "40.0904331507757"
    }
  ]
}