{
  "data": {
    "distrito": "Beja",
    "concelho": "Odemira",
    "freguesia": "São Martinho das Amoreiras",
    "OBJECTID": 1255,
    "BGRI2021": "02110700101",
    "DT21": "02",
    "DTMN21": "0211",
    "DTMNFR21": "021107",
    "DTMNFRSEC21": "021107001",
    "SECNUM21": "001",
    "SSNUM21": "01",
    "SECSSNUM21": "00101",
    "OBJECTID_1": 18169,
    "DT": "02",
    "CC": "11",
    "fr": "07",
    "SEC": "001",
    "SS": "01"
  },
  "addresses": [
    {
      "id": "pt.ine.add.PTCONT.457353",
      "street": "MTE ESPOSEIRO",
      "house": "",
      "postcode": "7630-536",
      "city": "S MARTINHO DAS AMOREIRAS",
      "lon": "-8.383880507504239",
      "lat": "37.65412905138505"
    },
    {
      "id": "pt.ine.add.PTCONT.360246",
      "street": "MTE DA BOA VISTA",
      "house": "",
      "postcode": "7630-536",
      "city": "S MARTINHO DAS AMOREIRAS",
      "lon": "-8.381701648008463",
      "lat": "37.660008052169175"
    },
    {
      "id": "pt.ine.add.PTCONT.362802",
      "street": "MTE EIRINHAS DO CORGO DO PEREIRO",
      "house": "",
      "postcode": "7630-536",
      "city": "S MARTINHO DAS AMOREIRAS",
      "lon": "-8.391928464179788",
      "lat": "37.65145377631207"
    },
    {
      "id": "pt.ine.add.PTCONT.364333",
      "street": "MTE DA BORRACHEIRA",
      "house": "",
      "postcode": "7630-536",
      "city": "S MARTINHO DAS AMOREIRAS",
      "lon": "-8.388643730012504",
      "lat": "37.6552000057361"
    },
    {
      "id": "pt.ine.add.PTCONT.365096",
      "street": "MTE NOVO DA PANELA",
      "house": "",
      "postcode": "7630-536",
      "city": "S MARTINHO DAS AMOREIRAS",
      "lon": "-8.392227879398293",
      "lat": "37.64957006928808"
    },
    {
      "id": "pt.ine.add.PTCONT.366740",
      "street": "MTE DO CERRO",
      "house": "",
      "postcode": "7630-536",
      "city": "S MARTINHO DAS AMOREIRAS",
      "lon": "-8.397351401444167",
      "lat": "37.64683774173429"
    },
    {
      "id": "pt.ine.add.PTCONT.366741",
      "street": "MTE DO CURRAL VELHO",
      "house": "",
      "postcode": "7630-536",
      "city": "S MARTINHO DAS AMOREIRAS",
      "lon": "-8.39435583646863",
      "lat": "37.642420593700734"
    },
    {
      "id": "pt.ine.add.PTCONT.371566",
      "street": "MTE VALE DE BRIQUE",
      "house": "",
      "postcode": "7630-536",
      "city": "S MARTINHO DAS AMOREIRAS",
      "lon": "-8.395621437121363",
      "lat": "37.64467023874378"
    },
    {
      "id": "pt.ine.add.PTCONT.373246",
      "street": "MTE DA PÓLVORA",
      "house": "",
      "postcode": "7630-536",
      "city": "S MARTINHO DAS AMOREIRAS",
      "lon": "-8.395067493592254",
      "lat": "37.64825737562336"
    },
    {
      "id": "pt.ine.add.PTCONT.375729",
      "street": "MTE SUMEDEIRA",
      "house": "",
      "postcode": "7630-536",
      "city": "S MARTINHO DAS AMOREIRAS",
      "lon": "-8.392526872384265",
      "lat": "37.64756923430163"
    },
    {
      "id": "pt.ine.add.PTCONT.378112",
      "street": "MTE DO CERRO",
      "house": "",
      "postcode": "7630-536",
      "city": "S MARTINHO DAS AMOREIRAS",
      "lon": "-8.398235865171836",
      "lat": "37.647015953585154"
    },
    {
      "id": "pt.ine.add.PTCONT.378113",
      "street": "MTE DO CERRO",
      "house": "",
      "postcode": "7630-536",
      "city": "S MARTINHO DAS AMOREIRAS",
      "lon": "-8.398235865171836",
      "lat": "37.647015953585154"
    },
    {
      "id": "pt.ine.add.PTCONT.381278",
      "street": "MTE VALE DE BRIQUE",
      "house": "",
      "postcode": "7630-536",
      "city": "S MARTINHO DAS AMOREIRAS",
      "lon": "-8.39611868718843",
      "lat": "37.6442997287935"
    },
    {
      "id": "pt.ine.add.PTCONT.384592",
      "street": "MTE DA CAIADA",
      "house": "",
      "postcode": "7630-536",
      "city": "S MARTINHO DAS AMOREIRAS",
      "lon": "-8.396057563350912",
      "lat": "37.64624598500692"
    },
    {
      "id": "pt.ine.add.PTCONT.385356",
      "street": "MTE DO LAGAR",
      "house": "",
      "postcode": "7630-536",
      "city": "S MARTINHO DAS AMOREIRAS",
      "lon": "-8.396721701844926",
      "lat": "37.64820864177177"
    },
    {
      "id": "pt.ine.add.PTCONT.391851",
      "street": "MTE CASINHA DA HORTA DO LAGAR",
      "house": "",
      "postcode": "7630-536",
      "city": "S MARTINHO DAS AMOREIRAS",
      "lon": "-8.39344786529842",
      "lat": "37.65172072716266"
    },
    {
      "id": "pt.ine.add.PTCONT.392545",
      "street": "MTE DO PERU",
      "house": "",
      "postcode": "7630-536",
      "city": "S MARTINHO DAS AMOREIRAS",
      "lon": "-8.39913915191535",
      "lat": "37.64929340196869"
    },
    {
      "id": "pt.ine.add.PTCONT.394220",
      "street": "MTE DAS ÁGUAS FRIAS",
      "house": "",
      "postcode": "7630-536",
      "city": "S MARTINHO DAS AMOREIRAS",
      "lon": "-8.393027729739234",
      "lat": "37.638468215036035"
    },
    {
      "id": "pt.ine.add.PTCONT.398990",
      "street": "EN 123",
      "house": "",
      "postcode": "7630-520",
      "city": "S MARTINHO DAS AMOREIRAS",
      "lon": "-8.394633451463548",
      "lat": "37.65373630076882"
    },
    {
      "id": "pt.ine.add.PTCONT.400625",
      "street": "MTE VINHA DO PEIXO",
      "house": "",
      "postcode": "7630-536",
      "city": "S MARTINHO DAS AMOREIRAS",
      "lon": "-8.397082974722515",
      "lat": "37.65423539372697"
    },
    {
      "id": "pt.ine.add.PTCONT.400626",
      "street": "MTE DO PINHEIRO",
      "house": "",
      "postcode": "7630-536",
      "city": "S MARTINHO DAS AMOREIRAS",
      "lon": "-8.394149302310923",
      "lat": "37.651394824109325"
    },
    {
      "id": "pt.ine.add.PTCONT.401438",
      "street": "MTE NOVO DAS ÁGUAS FRIAS",
      "house": "",
      "postcode": "7630-536",
      "city": "S MARTINHO DAS AMOREIRAS",
      "lon": "-8.390093186918522",
      "lat": "37.63843860413676"
    },
    {
      "id": "pt.ine.add.PTCONT.410422",
      "street": "MTE DA MACEIRA",
      "house": "",
      "postcode": "7630-536",
      "city": "S MARTINHO DAS AMOREIRAS",
      "lon": "-8.389485035953886",
      "lat": "37.64609827458917"
    },
    {
      "id": "pt.ine.add.PTCONT.412004",
      "street": "MTE CERCA DO LAGAR",
      "house": "",
      "postcode": "7630-536",
      "city": "S MARTINHO DAS AMOREIRAS",
      "lon": "-8.393408177845286",
      "lat": "37.650090039759846"
    },
    {
      "id": "pt.ine.add.PTCONT.415168",
      "street": "MTE BURDO",
      "house": "",
      "postcode": "7630-536",
      "city": "S MARTINHO DAS AMOREIRAS",
      "lon": "-8.402128744778178",
      "lat": "37.65189946594701"
    },
    {
      "id": "pt.ine.add.PTCONT.416044",
      "street": "MTE CASINHA DA HORTA",
      "house": "",
      "postcode": "7630-536",
      "city": "S MARTINHO DAS AMOREIRAS",
      "lon": "-8.392269763731596",
      "lat": "37.651840448656245"
    },
    {
      "id": "pt.ine.add.PTCONT.420043",
      "street": "MTE VELHO",
      "house": "",
      "postcode": "7630-536",
      "city": "S MARTINHO DAS AMOREIRAS",
      "lon": "-8.390583054267298",
      "lat": "37.655628259229395"
    },
    {
      "id": "pt.ine.add.PTCONT.427985",
      "street": "MTE CORGO DO PEREIRO",
      "house": "",
      "postcode": "7630-536",
      "city": "S MARTINHO DAS AMOREIRAS",
      "lon": "-8.39027408722592",
      "lat": "37.65147541398664"
    },
    {
      "id": "pt.ine.add.PTCONT.432113",
      "street": "MTE CORGO DO LAGAR",
      "house": "",
      "postcode": "7630-536",
      "city": "S MARTINHO DAS AMOREIRAS",
      "lon": "-8.3944847396144",
      "lat": "37.650105679038"
    },
    {
      "id": "pt.ine.add.PTCONT.434603",
      "street": "MTE DA PARREIRA",
      "house": "",
      "postcode": "7630-536",
      "city": "S MARTINHO DAS AMOREIRAS",
      "lon": "-8.39502777302117",
      "lat": "37.64662668793222"
    },
    {
      "id": "pt.ine.add.PTCONT.435497",
      "street": "MTE CHAVEIRA",
      "house": "",
      "postcode": "7630-536",
      "city": "S MARTINHO DAS AMOREIRAS",
      "lon": "-8.391936313163564",
      "lat": "37.653715219952254"
    },
    {
      "id": "pt.ine.add.PTCONT.438052",
      "street": "MONTINHO VALE DE BRIQUE",
      "house": "",
      "postcode": "7630-536",
      "city": "S MARTINHO DAS AMOREIRAS",
      "lon": "-8.398518964412172",
      "lat": "37.643780793797994"
    },
    {
      "id": "pt.ine.add.PTCONT.441283",
      "street": "MTE DA PANELA",
      "house": "",
      "postcode": "7630-536",
      "city": "S MARTINHO DAS AMOREIRAS",
      "lon": "-8.391222931751678",
      "lat": "37.65059939048323"
    },
    {
      "id": "pt.ine.add.PTCONT.454963",
      "street": "MTE CORGO DO LAGAR",
      "house": "",
      "postcode": "7630-536",
      "city": "S MARTINHO DAS AMOREIRAS",
      "lon": "-8.395178276352489",
      "lat": "37.650761856292085"
    },
    {
      "id": "pt.ine.add.PTCONT.455786",
      "street": "MTE VALE DE BRIQUE",
      "house": "",
      "postcode": "7630-536",
      "city": "S MARTINHO DAS AMOREIRAS",
      "lon": "-8.395542819301227",
      "lat": "37.644868629594704"
    },
    {
      "id": "pt.ine.add.PTCONT.455787",
      "street": "MTE MOINHO DO PIPÃO",
      "house": "",
      "postcode": "7630-536",
      "city": "S MARTINHO DAS AMOREIRAS",
      "lon": "-8.385747649258935",
      "lat": "37.66002648543144"
    }
  ]
}