{
  "data": {
    "distrito": "Beja",
    "concelho": "Odemira",
    "freguesia": "São Martinho das Amoreiras",
    "OBJECTID": 10,
    "BGRI2021": "02110700106",
    "DT21": "02",
    "DTMN21": "0211",
    "DTMNFR21": "021107",
    "DTMNFRSEC21": "021107001",
    "SECNUM21": "001",
    "SSNUM21": "06",
    "SECSSNUM21": "00106",
    "OBJECTID_1": 18171,
    "DT": "02",
    "CC": "11",
    "fr": "07",
    "SEC": "001",
    "SS": "06"
  },
  "addresses": [
    {
      "id": "pt.ine.add.PTCONT.356149",
      "street": "MTE GARCIA GALEGO DO MEIO",
      "house": "",
      "postcode": "7630-536",
      "city": "S MARTINHO DAS AMOREIRAS",
      "lon": "-8.347459036661983",
      "lat": "37.65822823710934"
    },
    {
      "id": "pt.ine.add.PTCONT.365097",
      "street": "MTE DA VÁRZEA DE DOMINGOS DE ÉGUA",
      "house": "",
      "postcode": "7630-536",
      "city": "S MARTINHO DAS AMOREIRAS",
      "lon": "-8.362408538097778",
      "lat": "37.65500164461188"
    },
    {
      "id": "pt.ine.add.PTCONT.373247",
      "street": "MTE DA HORTA NOVA",
      "house": "",
      "postcode": "7630-536",
      "city": "S MARTINHO DAS AMOREIRAS",
      "lon": "-8.379886036895149",
      "lat": "37.64561419447856"
    },
    {
      "id": "pt.ine.add.PTCONT.380477",
      "street": "MTE GARCIA GALEGO",
      "house": "",
      "postcode": "7630-536",
      "city": "S MARTINHO DAS AMOREIRAS",
      "lon": "-8.346658796181877",
      "lat": "37.65580605099317"
    },
    {
      "id": "pt.ine.add.PTCONT.380478",
      "street": "MTE GARCIA GALEGO",
      "house": "",
      "postcode": "7630-536",
      "city": "S MARTINHO DAS AMOREIRAS",
      "lon": "-8.346658796181877",
      "lat": "37.65580605099317"
    },
    {
      "id": "pt.ine.add.PTCONT.381282",
      "street": "MTE PERO CAVALEIRO",
      "house": "",
      "postcode": "7630-536",
      "city": "S MARTINHO DAS AMOREIRAS",
      "lon": "-8.371606011965724",
      "lat": "37.653613917625954"
    },
    {
      "id": "pt.ine.add.PTCONT.386932",
      "street": "MTE CARVALHOSO",
      "house": "",
      "postcode": "7630-536",
      "city": "S MARTINHO DAS AMOREIRAS",
      "lon": "-8.362229538700458",
      "lat": "37.648379781556784"
    },
    {
      "id": "pt.ine.add.PTCONT.392550",
      "street": "MTE CLEMENTES",
      "house": "",
      "postcode": "7630-536",
      "city": "S MARTINHO DAS AMOREIRAS",
      "lon": "-8.359144713488398",
      "lat": "37.65123283370986"
    },
    {
      "id": "pt.ine.add.PTCONT.395798",
      "street": "MTE ESCANCHADOS",
      "house": "",
      "postcode": "7630-536",
      "city": "S MARTINHO DAS AMOREIRAS",
      "lon": "-8.363403623955692",
      "lat": "37.66530691458105"
    },
    {
      "id": "pt.ine.add.PTCONT.410426",
      "street": "MTE FERROSO",
      "house": "",
      "postcode": "7630-536",
      "city": "S MARTINHO DAS AMOREIRAS",
      "lon": "-8.354753442784054",
      "lat": "37.66070146154329"
    },
    {
      "id": "pt.ine.add.PTCONT.411278",
      "street": "MTE DO CEGONHO",
      "house": "",
      "postcode": "7630-536",
      "city": "S MARTINHO DAS AMOREIRAS",
      "lon": "-8.348278347005351",
      "lat": "37.64760417830818"
    },
    {
      "id": "pt.ine.add.PTCONT.412008",
      "street": "MTE GARCIA GALEGO",
      "house": "",
      "postcode": "7630-536",
      "city": "S MARTINHO DAS AMOREIRAS",
      "lon": "-8.346035678973363",
      "lat": "37.659834559690765"
    },
    {
      "id": "pt.ine.add.PTCONT.412846",
      "street": "MTE FOLHADOS",
      "house": "",
      "postcode": "7630-536",
      "city": "S MARTINHO DAS AMOREIRAS",
      "lon": "-8.384215912213776",
      "lat": "37.64267686684803"
    },
    {
      "id": "pt.ine.add.PTCONT.417612",
      "street": "MTE DOMINGOS DE ÉGUA",
      "house": "",
      "postcode": "7630-536",
      "city": "S MARTINHO DAS AMOREIRAS",
      "lon": "-8.362503271360254",
      "lat": "37.656325901703724"
    },
    {
      "id": "pt.ine.add.PTCONT.419229",
      "street": "MTE CLEMENTES",
      "house": "",
      "postcode": "7630-536",
      "city": "S MARTINHO DAS AMOREIRAS",
      "lon": "-8.358747665455011",
      "lat": "37.651089436819085"
    },
    {
      "id": "pt.ine.add.PTCONT.419232",
      "street": "MTE ALTO",
      "house": "",
      "postcode": "7630-536",
      "city": "S MARTINHO DAS AMOREIRAS",
      "lon": "-8.354401427333766",
      "lat": "37.645196239432586"
    },
    {
      "id": "pt.ine.add.PTCONT.429612",
      "street": "GARCIA GALEGO",
      "house": "",
      "postcode": "7630-532",
      "city": "S MARTINHO DAS AMOREIRAS",
      "lon": "-8.346692896830206",
      "lat": "37.65584202848303"
    },
    {
      "id": "pt.ine.add.PTCONT.432117",
      "street": "MTE DOMINGOS DE ÉGUA",
      "house": "",
      "postcode": "7630-536",
      "city": "S MARTINHO DAS AMOREIRAS",
      "lon": "-8.362797834102661",
      "lat": "37.656298299111036"
    },
    {
      "id": "pt.ine.add.PTCONT.436331",
      "street": "MTE FERROSO DE CIMA",
      "house": "",
      "postcode": "7630-536",
      "city": "S MARTINHO DAS AMOREIRAS",
      "lon": "-8.356539742458585",
      "lat": "37.659247513927646"
    },
    {
      "id": "pt.ine.add.PTCONT.443650",
      "street": "MTE CAVALO",
      "house": "",
      "postcode": "7630-536",
      "city": "S MARTINHO DAS AMOREIRAS",
      "lon": "-8.379653939552838",
      "lat": "37.64395687317471"
    },
    {
      "id": "pt.ine.add.PTCONT.445266",
      "street": "MTE GARCIA GALEGO",
      "house": "",
      "postcode": "7630-536",
      "city": "S MARTINHO DAS AMOREIRAS",
      "lon": "-8.346273699512459",
      "lat": "37.65984313960457"
    },
    {
      "id": "pt.ine.add.PTCONT.446985",
      "street": "MTE CANAFICHAL",
      "house": "",
      "postcode": "7630-536",
      "city": "S MARTINHO DAS AMOREIRAS",
      "lon": "-8.37278738111002",
      "lat": "37.64743980293484"
    }
  ]
}