{
  "data": {
    "distrito": "Beja",
    "concelho": "Odemira",
    "freguesia": "São Martinho das Amoreiras",
    "OBJECTID": 30,
    "BGRI2021": "02110700120",
    "DT21": "02",
    "DTMN21": "0211",
    "DTMNFR21": "021107",
    "DTMNFRSEC21": "021107001",
    "SECNUM21": "001",
    "SSNUM21": "20",
    "SECSSNUM21": "00120",
    "OBJECTID_1": 18175,
    "DT": "02",
    "CC": "11",
    "fr": "07",
    "SEC": "001",
    "SS": "20"
  },
  "addresses": [
    {
      "id": "pt.ine.add.PTCONT.457367",
      "street": "MTE PELÃO",
      "house": "",
      "postcode": "7630-536",
      "city": "S MARTINHO DAS AMOREIRAS",
      "lon": "-8.36093896676814",
      "lat": "37.59309779103851"
    },
    {
      "id": "pt.ine.add.PTCONT.457810",
      "street": "MTE PORTELA NOVA",
      "house": "",
      "postcode": "7630-536",
      "city": "S MARTINHO DAS AMOREIRAS",
      "lon": "-8.3678486213651",
      "lat": "37.59393118185912"
    },
    {
      "id": "pt.ine.add.PTCONT.356159",
      "street": "MTE CORTE BARAL",
      "house": "",
      "postcode": "7630-536",
      "city": "S MARTINHO DAS AMOREIRAS",
      "lon": "-8.376550382514361",
      "lat": "37.613023514633056"
    },
    {
      "id": "pt.ine.add.PTCONT.357013",
      "street": "MTE MOURIPCA",
      "house": "",
      "postcode": "7630-536",
      "city": "S MARTINHO DAS AMOREIRAS",
      "lon": "-8.360692143054388",
      "lat": "37.60500033374965"
    },
    {
      "id": "pt.ine.add.PTCONT.362011",
      "street": "MTE DAS VINHAS VENHAS",
      "house": "",
      "postcode": "7630-536",
      "city": "S MARTINHO DAS AMOREIRAS",
      "lon": "-8.371360461014573",
      "lat": "37.59800562736076"
    },
    {
      "id": "pt.ine.add.PTCONT.365107",
      "street": "MTE PEMPILHAIS",
      "house": "",
      "postcode": "7630-536",
      "city": "S MARTINHO DAS AMOREIRAS",
      "lon": "-8.36321939374315",
      "lat": "37.61294214368642"
    },
    {
      "id": "pt.ine.add.PTCONT.365108",
      "street": "MTE PEMPILHAIS",
      "house": "",
      "postcode": "7630-536",
      "city": "S MARTINHO DAS AMOREIRAS",
      "lon": "-8.36321939374315",
      "lat": "37.61294214368642"
    },
    {
      "id": "pt.ine.add.PTCONT.370762",
      "street": "MTE BRESO",
      "house": "",
      "postcode": "7630-536",
      "city": "S MARTINHO DAS AMOREIRAS",
      "lon": "-8.376567801534833",
      "lat": "37.618366327645056"
    },
    {
      "id": "pt.ine.add.PTCONT.370763",
      "street": "MTE QUATRO OLIVEIRAS",
      "house": "",
      "postcode": "7630-536",
      "city": "S MARTINHO DAS AMOREIRAS",
      "lon": "-8.37991589362422",
      "lat": "37.603249820207836"
    },
    {
      "id": "pt.ine.add.PTCONT.373250",
      "street": "MTE NOVO VÁRZEA DAS PEDRAS",
      "house": "",
      "postcode": "7630-536",
      "city": "S MARTINHO DAS AMOREIRAS",
      "lon": "-8.36625832072698",
      "lat": "37.6140804321501"
    },
    {
      "id": "pt.ine.add.PTCONT.374902",
      "street": "MTE CHACIN",
      "house": "",
      "postcode": "7630-536",
      "city": "S MARTINHO DAS AMOREIRAS",
      "lon": "-8.359683163821604",
      "lat": "37.6083809800819"
    },
    {
      "id": "pt.ine.add.PTCONT.375744",
      "street": "MTE ATRAVEÇADO",
      "house": "",
      "postcode": "7630-536",
      "city": "S MARTINHO DAS AMOREIRAS",
      "lon": "-8.36425518733143",
      "lat": "37.59629886679499"
    },
    {
      "id": "pt.ine.add.PTCONT.377324",
      "street": "MTE DO ARMAZÉM",
      "house": "",
      "postcode": "7630-536",
      "city": "S MARTINHO DAS AMOREIRAS",
      "lon": "-8.362423865845642",
      "lat": "37.61206072491361"
    },
    {
      "id": "pt.ine.add.PTCONT.378117",
      "street": "MTE CONSTANÇANOS",
      "house": "",
      "postcode": "7630-536",
      "city": "S MARTINHO DAS AMOREIRAS",
      "lon": "-8.362519061632836",
      "lat": "37.61724121356814"
    },
    {
      "id": "pt.ine.add.PTCONT.382068",
      "street": "MTE PANTA ANICA",
      "house": "",
      "postcode": "7630-536",
      "city": "S MARTINHO DAS AMOREIRAS",
      "lon": "-8.37152019726025",
      "lat": "37.594833822245285"
    },
    {
      "id": "pt.ine.add.PTCONT.386934",
      "street": "MTE CAPA NOVA",
      "house": "",
      "postcode": "7630-536",
      "city": "S MARTINHO DAS AMOREIRAS",
      "lon": "-8.363777855398597",
      "lat": "37.59206514842495"
    },
    {
      "id": "pt.ine.add.PTCONT.391852",
      "street": "MTE DA LADEIRA",
      "house": "",
      "postcode": "7630-536",
      "city": "S MARTINHO DAS AMOREIRAS",
      "lon": "-8.365082971332962",
      "lat": "37.62220063365522"
    },
    {
      "id": "pt.ine.add.PTCONT.391853",
      "street": "MTE MOGUEIRO",
      "house": "",
      "postcode": "7630-536",
      "city": "S MARTINHO DAS AMOREIRAS",
      "lon": "-8.373912724302489",
      "lat": "37.62045305280446"
    },
    {
      "id": "pt.ine.add.PTCONT.392560",
      "street": "MTE LARANJEIRO",
      "house": "",
      "postcode": "7630-536",
      "city": "S MARTINHO DAS AMOREIRAS",
      "lon": "-8.36682005861497",
      "lat": "37.598140843961076"
    },
    {
      "id": "pt.ine.add.PTCONT.406395",
      "street": "MTE CHACIN",
      "house": "",
      "postcode": "7630-536",
      "city": "S MARTINHO DAS AMOREIRAS",
      "lon": "-8.359955298490066",
      "lat": "37.6084885758272"
    },
    {
      "id": "pt.ine.add.PTCONT.408792",
      "street": "MTE CONGUEIRA",
      "house": "",
      "postcode": "7630-536",
      "city": "S MARTINHO DAS AMOREIRAS",
      "lon": "-8.388637750508977",
      "lat": "37.60713253535936"
    },
    {
      "id": "pt.ine.add.PTCONT.409632",
      "street": "MTE COLHIEIROS",
      "house": "",
      "postcode": "7630-536",
      "city": "S MARTINHO DAS AMOREIRAS",
      "lon": "-8.374257585487218",
      "lat": "37.61500138288018"
    },
    {
      "id": "pt.ine.add.PTCONT.413642",
      "street": "MTE CAEIRO",
      "house": "",
      "postcode": "7630-536",
      "city": "S MARTINHO DAS AMOREIRAS",
      "lon": "-8.380397118504055",
      "lat": "37.61178116464154"
    },
    {
      "id": "pt.ine.add.PTCONT.417626",
      "street": "MTE BAIXA DO LARANGEIRO",
      "house": "",
      "postcode": "7630-521",
      "city": "S MARTINHO DAS AMOREIRAS",
      "lon": "-8.365410316941693",
      "lat": "37.59634164839876"
    },
    {
      "id": "pt.ine.add.PTCONT.418433",
      "street": "MTE CONSTANÇANOS",
      "house": "",
      "postcode": "7630-536",
      "city": "S MARTINHO DAS AMOREIRAS",
      "lon": "-8.359551709490825",
      "lat": "37.6173190239126"
    },
    {
      "id": "pt.ine.add.PTCONT.419243",
      "street": "MTE VALE VINHA",
      "house": "",
      "postcode": "7630-536",
      "city": "S MARTINHO DAS AMOREIRAS",
      "lon": "-8.364637288469678",
      "lat": "37.61363313028641"
    },
    {
      "id": "pt.ine.add.PTCONT.420841",
      "street": "MTE NOVO DAS HORTAS",
      "house": "",
      "postcode": "7630-536",
      "city": "S MARTINHO DAS AMOREIRAS",
      "lon": "-8.375468491263913",
      "lat": "37.61817938351044"
    },
    {
      "id": "pt.ine.add.PTCONT.420842",
      "street": "MTE VILARES",
      "house": "",
      "postcode": "7630-536",
      "city": "S MARTINHO DAS AMOREIRAS",
      "lon": "-8.375180837718908",
      "lat": "37.60631397670999"
    },
    {
      "id": "pt.ine.add.PTCONT.422470",
      "street": "MTE DA CHÃ",
      "house": "",
      "postcode": "7630-536",
      "city": "S MARTINHO DAS AMOREIRAS",
      "lon": "-8.361183870490509",
      "lat": "37.595430881802606"
    },
    {
      "id": "pt.ine.add.PTCONT.430458",
      "street": "MTE DO CERRO",
      "house": "",
      "postcode": "7630-536",
      "city": "S MARTINHO DAS AMOREIRAS",
      "lon": "-8.386503779022744",
      "lat": "37.629067130676"
    },
    {
      "id": "pt.ine.add.PTCONT.433757",
      "street": "MTE NOVO DA VINHA",
      "house": "",
      "postcode": "7630-536",
      "city": "S MARTINHO DAS AMOREIRAS",
      "lon": "-8.368980951954992",
      "lat": "37.59752387258386"
    },
    {
      "id": "pt.ine.add.PTCONT.436333",
      "street": "MTE FONTE FERROSA",
      "house": "",
      "postcode": "7630-536",
      "city": "S MARTINHO DAS AMOREIRAS",
      "lon": "-8.377893550076964",
      "lat": "37.608155405891104"
    },
    {
      "id": "pt.ine.add.PTCONT.436334",
      "street": "MTE MOLE MOLE",
      "house": "",
      "postcode": "7630-536",
      "city": "S MARTINHO DAS AMOREIRAS",
      "lon": "-8.359747161168105",
      "lat": "37.59214503596685"
    },
    {
      "id": "pt.ine.add.PTCONT.439715",
      "street": "MTE NOVO DAS FLORES",
      "house": "",
      "postcode": "7630-536",
      "city": "S MARTINHO DAS AMOREIRAS",
      "lon": "-8.376410782898702",
      "lat": "37.61884417401437"
    },
    {
      "id": "pt.ine.add.PTCONT.439721",
      "street": "MTE DA VINHA DE BAIXO",
      "house": "",
      "postcode": "7630-521",
      "city": "S MARTINHO DAS AMOREIRAS",
      "lon": "-8.367379944458445",
      "lat": "37.5961305277714"
    },
    {
      "id": "pt.ine.add.PTCONT.442860",
      "street": "MTE CORGO DA METADE",
      "house": "",
      "postcode": "7630-536",
      "city": "S MARTINHO DAS AMOREIRAS",
      "lon": "-8.370413557072425",
      "lat": "37.62430734933505"
    },
    {
      "id": "pt.ine.add.PTCONT.442861",
      "street": "MTE DAS FLORES",
      "house": "",
      "postcode": "7630-536",
      "city": "S MARTINHO DAS AMOREIRAS",
      "lon": "-8.377068975821999",
      "lat": "37.619221229142575"
    },
    {
      "id": "pt.ine.add.PTCONT.443664",
      "street": "MTE JOÃO GRANDE",
      "house": "",
      "postcode": "7630-536",
      "city": "S MARTINHO DAS AMOREIRAS",
      "lon": "-8.372113941514234",
      "lat": "37.60699596841715"
    }
  ]
}