{
  "data": {
    "distrito": "Lisboa",
    "concelho": "Alenquer",
    "freguesia": "União das freguesias de Ribafria e Pereiro de Palhacana",
    "OBJECTID": 100,
    "BGRI2021": "11012100105",
    "DT21": "11",
    "DTMN21": "1101",
    "DTMNFR21": "110121",
    "DTMNFRSEC21": "110121001",
    "SECNUM21": "001",
    "SSNUM21": "05",
    "SECSSNUM21": "00105",
    "OBJECTID_1": 99001,
    "DT": "11",
    "CC": "01",
    "fr": "21",
    "SEC": "001",
    "SS": "05"
  },
  "addresses": [
    {
      "id": "pt.ine.add.PTCONT.2295708",
      "street": "R QUINTA DE VALVERDE",
      "house": "5",
      "postcode": "2580-259",
      "city": "PEREIRO DE PALHACANA",
      "lon": "-9.107670490708019",
      "lat": "39.03336738720767"
    },
    {
      "id": "pt.ine.add.PTCONT.2304475",
      "street": "R QUINTA DE VALVERDE",
      "house": "9",
      "postcode": "2580-259",
      "city": "PEREIRO DE PALHACANA",
      "lon": "-9.107493892898663",
      "lat": "39.03396335289712"
    },
    {
      "id": "pt.ine.add.PTCONT.2414224",
      "street": "LG CRUZ",
      "house": "16",
      "postcode": "2580-258",
      "city": "PEREIRO DE PALHACANA",
      "lon": "-9.108898325594716",
      "lat": "39.042868957781714"
    },
    {
      "id": "pt.ine.add.PTCONT.2477110",
      "street": "R SANTO ALEIXO",
      "house": "18",
      "postcode": "2580-258",
      "city": "PEREIRO DE PALHACANA",
      "lon": "-9.109392086333878",
      "lat": "39.04265765511934"
    },
    {
      "id": "pt.ine.add.PTCONT.2477111",
      "street": "R SANTO ALEIXO",
      "house": "",
      "postcode": "2580-258",
      "city": "PEREIRO DE PALHACANA",
      "lon": "-9.11035380751362",
      "lat": "39.038686337690706"
    },
    {
      "id": "pt.ine.add.PTCONT.2548049",
      "street": "R DOS BOGANHOS",
      "house": "3",
      "postcode": "2580-259",
      "city": "PEREIRO DE PALHACANA",
      "lon": "-9.107676181414591",
      "lat": "39.03378168135509"
    },
    {
      "id": "pt.ine.add.PTCONT.2560575",
      "street": "R SANTO ALEIXO",
      "house": "10",
      "postcode": "2580-258",
      "city": "PEREIRO DE PALHACANA",
      "lon": "-9.110258411272246",
      "lat": "39.04098402837909"
    },
    {
      "id": "pt.ine.add.PTCONT.2612299",
      "street": "EN 115 3",
      "house": "10",
      "postcode": "2580-259",
      "city": "PEREIRO DE PALHACANA",
      "lon": "-9.110010570438341",
      "lat": "39.03221287522305"
    },
    {
      "id": "pt.ine.add.PTCONT.2698088",
      "street": "AZ CASIMIRO MORAIS",
      "house": "",
      "postcode": "2580-259",
      "city": "PEREIRO DE PALHACANA",
      "lon": "-9.107593616085426",
      "lat": "39.03365626721567"
    },
    {
      "id": "pt.ine.add.PTCONT.2701372",
      "street": "TV MARIA DA CONCEIÇÃO FREITAS",
      "house": "20",
      "postcode": "2580-258",
      "city": "PEREIRO DE PALHACANA",
      "lon": "-9.10825467052076",
      "lat": "39.0430995265656"
    },
    {
      "id": "pt.ine.add.PTCONT.2710029",
      "street": "R ESCOLA",
      "house": "4",
      "postcode": "2580-258",
      "city": "PEREIRO DE PALHACANA",
      "lon": "-9.108469645787151",
      "lat": "39.042773462042895"
    },
    {
      "id": "pt.ine.add.PTCONT.2737043",
      "street": "EN 115 3",
      "house": "8",
      "postcode": "2580-259",
      "city": "PEREIRO DE PALHACANA",
      "lon": "-9.10908343498399",
      "lat": "39.03197743617157"
    },
    {
      "id": "pt.ine.add.PTCONT.2804439",
      "street": "R SANTO ALEIXO",
      "house": "8",
      "postcode": "2580-258",
      "city": "PEREIRO DE PALHACANA",
      "lon": "-9.110587989784937",
      "lat": "39.04059394777331"
    },
    {
      "id": "pt.ine.add.PTCONT.2835286",
      "street": "R QUINTA DE VALVERDE",
      "house": "7",
      "postcode": "2580-259",
      "city": "PEREIRO DE PALHACANA",
      "lon": "-9.107544333223785",
      "lat": "39.03343149324974"
    },
    {
      "id": "pt.ine.add.PTCONT.2850544",
      "street": "R SANTO ALEIXO",
      "house": "2",
      "postcode": "2580-258",
      "city": "PEREIRO DE PALHACANA",
      "lon": "-9.112035269373113",
      "lat": "39.03750127239056"
    },
    {
      "id": "pt.ine.add.PTCONT.2890299",
      "street": "EN 115 3",
      "house": "16",
      "postcode": "2580-259",
      "city": "PEREIRO DE PALHACANA",
      "lon": "-9.111215098170504",
      "lat": "39.032463995880974"
    },
    {
      "id": "pt.ine.add.PTCONT.2890474",
      "street": "R SANTO ALEIXO",
      "house": "8",
      "postcode": "2580-258",
      "city": "PEREIRO DE PALHACANA",
      "lon": "-9.110378995645284",
      "lat": "39.04051463241463"
    },
    {
      "id": "pt.ine.add.PTCONT.2899252",
      "street": "R SANTO ALEIXO",
      "house": "2",
      "postcode": "2580-258",
      "city": "PEREIRO DE PALHACANA",
      "lon": "-9.111941143720928",
      "lat": "39.037375958487864"
    },
    {
      "id": "pt.ine.add.PTCONT.2926165",
      "street": "EN 115-3",
      "house": "",
      "postcode": "2580-259",
      "city": "PEREIRO DE PALHACANA",
      "lon": "-9.111193120713253",
      "lat": "39.03254524702906"
    },
    {
      "id": "pt.ine.add.PTCONT.2926207",
      "street": "R PRINCIPAL",
      "house": "10",
      "postcode": "2580-258",
      "city": "PEREIRO DE PALHACANA",
      "lon": "-9.112151486213172",
      "lat": "39.03671665133066"
    },
    {
      "id": "pt.ine.add.PTCONT.2963250",
      "street": "R SANTO ALEIXO",
      "house": "14",
      "postcode": "2580-258",
      "city": "PEREIRO DE PALHACANA",
      "lon": "-9.109950438490786",
      "lat": "39.041265838102795"
    },
    {
      "id": "pt.ine.add.PTCONT.2972116",
      "street": "EN 115 3",
      "house": "20",
      "postcode": "2580-259",
      "city": "PEREIRO DE PALHACANA",
      "lon": "-9.111642973608685",
      "lat": "39.032505444132404"
    },
    {
      "id": "pt.ine.add.PTCONT.3008477",
      "street": "R ESCOLA",
      "house": "8",
      "postcode": "2580-258",
      "city": "PEREIRO DE PALHACANA",
      "lon": "-9.10833142803469",
      "lat": "39.0428016401094"
    },
    {
      "id": "pt.ine.add.PTCONT.3066539",
      "street": "LG CRUZ",
      "house": "12",
      "postcode": "2580-258",
      "city": "PEREIRO DE PALHACANA",
      "lon": "-9.109025489819258",
      "lat": "39.042876901191"
    },
    {
      "id": "pt.ine.add.PTCONT.3083575",
      "street": "R ESCOLA",
      "house": "6",
      "postcode": "2580-258",
      "city": "PEREIRO DE PALHACANA",
      "lon": "-9.108411776418684",
      "lat": "39.042764938572574"
    },
    {
      "id": "pt.ine.add.PTCONT.3099090",
      "street": "R SANTO ALEIXO",
      "house": "16",
      "postcode": "2580-258",
      "city": "PEREIRO DE PALHACANA",
      "lon": "-9.10985879179222",
      "lat": "39.04132065015004"
    },
    {
      "id": "pt.ine.add.PTCONT.3148828",
      "street": "R QUINTA DE VALVERDE",
      "house": "11",
      "postcode": "2580-259",
      "city": "PEREIRO DE PALHACANA",
      "lon": "-9.107666899765166",
      "lat": "39.03562828133807"
    },
    {
      "id": "pt.ine.add.PTCONT.3203681",
      "street": "R PRINCIPAL",
      "house": "2",
      "postcode": "2580-254",
      "city": "PEREIRO DE PALHACANA",
      "lon": "-9.111777200465843",
      "lat": "39.03302674872709"
    },
    {
      "id": "pt.ine.add.PTCONT.3212935",
      "street": "R QUINTA DE VALVERDE",
      "house": "01",
      "postcode": "2580-259",
      "city": "PEREIRO DE PALHACANA",
      "lon": "-9.107643065851267",
      "lat": "39.033052356347056"
    },
    {
      "id": "pt.ine.add.PTCONT.3268322",
      "street": "R SANTO ALEIXO",
      "house": "22",
      "postcode": "2580-258",
      "city": "PEREIRO DE PALHACANA",
      "lon": "-9.109568918334471",
      "lat": "39.042917389737276"
    },
    {
      "id": "pt.ine.add.PTCONT.3277621",
      "street": "TV MARIA DA CONCEIÇÃO FREITAS",
      "house": "18",
      "postcode": "2580-258",
      "city": "PEREIRO DE PALHACANA",
      "lon": "-9.108310806472627",
      "lat": "39.04298196081628"
    },
    {
      "id": "pt.ine.add.PTCONT.3323915",
      "street": "R ESCOLA",
      "house": "3",
      "postcode": "2580-258",
      "city": "PEREIRO DE PALHACANA",
      "lon": "-9.10819457216847",
      "lat": "39.04292888817913"
    },
    {
      "id": "pt.ine.add.PTCONT.3333154",
      "street": "R SANTO ALEIXO",
      "house": "6",
      "postcode": "2580-258",
      "city": "PEREIRO DE PALHACANA",
      "lon": "-9.11099716381974",
      "lat": "39.04011312472418"
    },
    {
      "id": "pt.ine.add.PTCONT.3370538",
      "street": "EN 115",
      "house": "14",
      "postcode": "2580-259",
      "city": "PEREIRO DE PALHACANA",
      "lon": "-9.111053682598481",
      "lat": "39.03248336423282"
    },
    {
      "id": "pt.ine.add.PTCONT.3397732",
      "street": "R SANTO ALEIXO",
      "house": "4",
      "postcode": "2580-258",
      "city": "PEREIRO DE PALHACANA",
      "lon": "-9.11141378192637",
      "lat": "39.0393349930168"
    },
    {
      "id": "pt.ine.add.PTCONT.3415275",
      "street": "LG IGREJA",
      "house": "4",
      "postcode": "2580-258",
      "city": "PEREIRO DE PALHACANA",
      "lon": "-9.109499375620574",
      "lat": "39.042899957127936"
    },
    {
      "id": "pt.ine.add.PTCONT.3448834",
      "street": "EN 115 3",
      "house": "18",
      "postcode": "2580-259",
      "city": "PEREIRO DE PALHACANA",
      "lon": "-9.11149211196992",
      "lat": "39.03245266512654"
    }
  ]
}