{
  "data": {
    "distrito": "Lisboa",
    "concelho": "Alenquer",
    "freguesia": "Uni√£o das freguesias de Ribafria e Pereiro de Palhacana",
    "OBJECTID": 82,
    "BGRI2021": "11012100120",
    "DT21": "11",
    "DTMN21": "1101",
    "DTMNFR21": "110121",
    "DTMNFRSEC21": "110121001",
    "SECNUM21": "001",
    "SSNUM21": "20",
    "SECSSNUM21": "00120",
    "OBJECTID_1": 99222,
    "DT": "11",
    "CC": "01",
    "fr": "21",
    "SEC": "001",
    "SS": "20"
  },
  "addresses": [
    {
      "id": "pt.ine.add.PTCONT.2286576",
      "street": "EN 115",
      "house": "",
      "postcode": "2580-613",
      "city": "PEREIRO DE PALHACANA",
      "lon": "-9.131410784420735",
      "lat": "39.05850441434363"
    },
    {
      "id": "pt.ine.add.PTCONT.2486418",
      "street": "R CASAL LAGARTO",
      "house": "1",
      "postcode": "2580-261",
      "city": "PEREIRO DE PALHACANA",
      "lon": "-9.121226652950337",
      "lat": "39.061392447864364"
    },
    {
      "id": "pt.ine.add.PTCONT.2513595",
      "street": "R EMIGRANTE",
      "house": "1",
      "postcode": "2580-261",
      "city": "PEREIRO DE PALHACANA",
      "lon": "-9.122423532043834",
      "lat": "39.0602293554807"
    },
    {
      "id": "pt.ine.add.PTCONT.2585954",
      "street": "QTA BOIRO",
      "house": "",
      "postcode": "2580-258",
      "city": "PEREIRO DE PALHACANA",
      "lon": "-9.108644505192352",
      "lat": "39.058003516952866"
    },
    {
      "id": "pt.ine.add.PTCONT.2612484",
      "street": "R PRINCIPAL",
      "house": "11",
      "postcode": "2580-261",
      "city": "PEREIRO DE PALHACANA",
      "lon": "-9.121310909265713",
      "lat": "39.05832021696574"
    },
    {
      "id": "pt.ine.add.PTCONT.2618882",
      "street": "R CASAL LAGARTO",
      "house": "",
      "postcode": "2580-261",
      "city": "PEREIRO DE PALHACANA",
      "lon": "-9.12157672945539",
      "lat": "39.060813008716345"
    },
    {
      "id": "pt.ine.add.PTCONT.2664157",
      "street": "R CASAL LAGARTO",
      "house": "3",
      "postcode": "2580-261",
      "city": "PEREIRO DE PALHACANA",
      "lon": "-9.121146416024215",
      "lat": "39.061438164616774"
    },
    {
      "id": "pt.ine.add.PTCONT.2687078",
      "street": "R CASAL LAGARTO",
      "house": "8",
      "postcode": "2580-261",
      "city": "PEREIRO DE PALHACANA",
      "lon": "-9.121462840489826",
      "lat": "39.06010239101352"
    },
    {
      "id": "pt.ine.add.PTCONT.2687079",
      "street": "R CASAL LAGARTO",
      "house": "16",
      "postcode": "2580-261",
      "city": "PEREIRO DE PALHACANA",
      "lon": "-9.119236935433921",
      "lat": "39.06121112836508"
    },
    {
      "id": "pt.ine.add.PTCONT.2862621",
      "street": "R CASAL LAGARTO",
      "house": "2",
      "postcode": "2580-261",
      "city": "PEREIRO DE PALHACANA",
      "lon": "-9.121518590511615",
      "lat": "39.05995780040473"
    },
    {
      "id": "pt.ine.add.PTCONT.2899227",
      "street": "R PRINCIPAL",
      "house": "1",
      "postcode": "2580-261",
      "city": "PEREIRO DE PALHACANA",
      "lon": "-9.121529388844309",
      "lat": "39.059903664594"
    },
    {
      "id": "pt.ine.add.PTCONT.2917161",
      "street": "R CASAL LAGARTO",
      "house": "10",
      "postcode": "2580-261",
      "city": "PEREIRO DE PALHACANA",
      "lon": "-9.12093860371797",
      "lat": "39.06144893256203"
    },
    {
      "id": "pt.ine.add.PTCONT.3044965",
      "street": "R CASAL LAGARTO",
      "house": "12",
      "postcode": "2580-261",
      "city": "PEREIRO DE PALHACANA",
      "lon": "-9.120593797250272",
      "lat": "39.06157795621814"
    },
    {
      "id": "pt.ine.add.PTCONT.3054658",
      "street": "R CASAL LAGARTO",
      "house": "20",
      "postcode": "2580-261",
      "city": "PEREIRO DE PALHACANA",
      "lon": "-9.119816026015677",
      "lat": "39.06214299733014"
    },
    {
      "id": "pt.ine.add.PTCONT.3157759",
      "street": "R PRINCIPAL",
      "house": "5",
      "postcode": "2580-261",
      "city": "PEREIRO DE PALHACANA",
      "lon": "-9.12128529410488",
      "lat": "39.05896896559093"
    },
    {
      "id": "pt.ine.add.PTCONT.3194946",
      "street": "R EMIGRANTE",
      "house": "2",
      "postcode": "2580-261",
      "city": "PEREIRO DE PALHACANA",
      "lon": "-9.12224949946359",
      "lat": "39.060176787507366"
    },
    {
      "id": "pt.ine.add.PTCONT.3277605",
      "street": "R CASAL LAGARTO",
      "house": "5",
      "postcode": "2580-261",
      "city": "PEREIRO DE PALHACANA",
      "lon": "-9.12149059283279",
      "lat": "39.06126410777375"
    },
    {
      "id": "pt.ine.add.PTCONT.3286525",
      "street": "R CASAL LAGARTO",
      "house": "2",
      "postcode": "2580-261",
      "city": "PEREIRO DE PALHACANA",
      "lon": "-9.121361887607419",
      "lat": "39.061148102648275"
    },
    {
      "id": "pt.ine.add.PTCONT.3286528",
      "street": "R PRINCIPAL",
      "house": "9",
      "postcode": "2580-261",
      "city": "PEREIRO DE PALHACANA",
      "lon": "-9.121312667007649",
      "lat": "39.05844630543567"
    },
    {
      "id": "pt.ine.add.PTCONT.3339756",
      "street": "R CASAL LAGARTO",
      "house": "6",
      "postcode": "2580-261",
      "city": "PEREIRO DE PALHACANA",
      "lon": "-9.12150779216328",
      "lat": "39.06001193621416"
    },
    {
      "id": "pt.ine.add.PTCONT.3394626",
      "street": "R CASAL LAGARTO",
      "house": "11",
      "postcode": "2580-261",
      "city": "PEREIRO DE PALHACANA",
      "lon": "-9.120763301795378",
      "lat": "39.062963656883205"
    },
    {
      "id": "pt.ine.add.PTCONT.3440974",
      "street": "R PRINCIPAL",
      "house": "18",
      "postcode": "2580-261",
      "city": "PEREIRO DE PALHACANA",
      "lon": "-9.12128830667573",
      "lat": "39.06001379632483"
    }
  ]
}