{
  "data": {
    "distrito": "Coimbra",
    "concelho": "Coimbra",
    "freguesia": "União das freguesias de Santa Clara e Castelo Viegas",
    "OBJECTID": 108,
    "BGRI2021": "06033600903",
    "DT21": "06",
    "DTMN21": "0603",
    "DTMNFR21": "060336",
    "DTMNFRSEC21": "060336009",
    "SECNUM21": "009",
    "SSNUM21": "03",
    "SECSSNUM21": "00903",
    "OBJECTID_1": 49179,
    "DT": "06",
    "CC": "03",
    "fr": "36",
    "SEC": "009",
    "SS": "03"
  },
  "addresses": [
    {
      "id": "pt.ine.add.PTCONT.1102318",
      "street": "R CAP SALGUEIRO MAIA",
      "house": "19",
      "postcode": "3040-006",
      "city": "COIMBRA",
      "lon": "-8.443224081046004",
      "lat": "40.20149328594053"
    },
    {
      "id": "pt.ine.add.PTCONT.1105832",
      "street": "R CAP SALGUEIRO MAIA",
      "house": "13",
      "postcode": "3040-006",
      "city": "COIMBRA",
      "lon": "-8.441593656617886",
      "lat": "40.19937225823582"
    },
    {
      "id": "pt.ine.add.PTCONT.1110557",
      "street": "R CAP SALGUEIRO MAIA",
      "house": "17 19 2",
      "postcode": "3040-006",
      "city": "COIMBRA",
      "lon": "-8.441806037874711",
      "lat": "40.19958783286783"
    },
    {
      "id": "pt.ine.add.PTCONT.1110558",
      "street": "R CAP SALGUEIRO MAIA",
      "house": "17 19 2",
      "postcode": "3040-006",
      "city": "COIMBRA",
      "lon": "-8.441806037874711",
      "lat": "40.19958783286783"
    },
    {
      "id": "pt.ine.add.PTCONT.1110559",
      "street": "R CAP SALGUEIRO MAIA",
      "house": "17 19 2",
      "postcode": "3040-006",
      "city": "COIMBRA",
      "lon": "-8.441806037874711",
      "lat": "40.19958783286783"
    },
    {
      "id": "pt.ine.add.PTCONT.1110560",
      "street": "R CAP SALGUEIRO MAIA",
      "house": "21",
      "postcode": "3040-006",
      "city": "COIMBRA",
      "lon": "-8.441806037874711",
      "lat": "40.19958783286783"
    },
    {
      "id": "pt.ine.add.PTCONT.1110561",
      "street": "R CAP SALGUEIRO MAIA",
      "house": "17 19 2",
      "postcode": "3040-006",
      "city": "COIMBRA",
      "lon": "-8.441806037874711",
      "lat": "40.19958783286783"
    },
    {
      "id": "pt.ine.add.PTCONT.1110562",
      "street": "R CAP SALGUEIRO MAIA",
      "house": "17 19 2",
      "postcode": "3040-006",
      "city": "COIMBRA",
      "lon": "-8.441806037874711",
      "lat": "40.19958783286783"
    },
    {
      "id": "pt.ine.add.PTCONT.1112567",
      "street": "R CAP SALGUEIRO MAIA",
      "house": "18",
      "postcode": "3040-006",
      "city": "COIMBRA",
      "lon": "-8.443658723269017",
      "lat": "40.20151013248078"
    },
    {
      "id": "pt.ine.add.PTCONT.1114067",
      "street": "R CAP SALGUEIRO MAIA",
      "house": "18",
      "postcode": "3040-006",
      "city": "COIMBRA",
      "lon": "-8.443658723269017",
      "lat": "40.20151013248078"
    },
    {
      "id": "pt.ine.add.PTCONT.1116963",
      "street": "R CAP SALGUEIRO MAIA",
      "house": "31 J I",
      "postcode": "3040-006",
      "city": "COIMBRA",
      "lon": "-8.44213480319043",
      "lat": "40.19956894397319"
    },
    {
      "id": "pt.ine.add.PTCONT.1116964",
      "street": "R CAP SALGUEIRO MAIA",
      "house": "31 J I",
      "postcode": "3040-006",
      "city": "COIMBRA",
      "lon": "-8.44213480319043",
      "lat": "40.19956894397319"
    },
    {
      "id": "pt.ine.add.PTCONT.1122857",
      "street": "R CAP SALGUEIRO MAIA",
      "house": "31 G",
      "postcode": "3040-006",
      "city": "COIMBRA",
      "lon": "-8.442334623941974",
      "lat": "40.19960443384685"
    },
    {
      "id": "pt.ine.add.PTCONT.1131237",
      "street": "R TRÁS DO OBSERVATÓRIO",
      "house": "",
      "postcode": "3040-006",
      "city": "COIMBRA",
      "lon": "-8.4463414593047",
      "lat": "40.20001693708335"
    },
    {
      "id": "pt.ine.add.PTCONT.1136937",
      "street": "R CAP SALGUEIRO MAIA",
      "house": "39 A",
      "postcode": "3040-006",
      "city": "COIMBRA",
      "lon": "-8.442416999425854",
      "lat": "40.1996402372382"
    },
    {
      "id": "pt.ine.add.PTCONT.1139382",
      "street": "R OBSERVATORIO",
      "house": "8",
      "postcode": "3040-004",
      "city": "COIMBRA",
      "lon": "-8.441850565125804",
      "lat": "40.19904736215805"
    },
    {
      "id": "pt.ine.add.PTCONT.1140629",
      "street": "BC OBSERVATORIO",
      "house": "4",
      "postcode": "3040-003",
      "city": "COIMBRA",
      "lon": "-8.441533954754254",
      "lat": "40.19915627652523"
    },
    {
      "id": "pt.ine.add.PTCONT.1144201",
      "street": "R CAP SALGUEIRO MAIA",
      "house": "",
      "postcode": "3040-006",
      "city": "COIMBRA",
      "lon": "-8.446375615484424",
      "lat": "40.199782692180925"
    },
    {
      "id": "pt.ine.add.PTCONT.1144885",
      "street": "R MONTE",
      "house": "6",
      "postcode": "3040-321",
      "city": "COIMBRA",
      "lon": "-8.446017316894872",
      "lat": "40.19848681655567"
    },
    {
      "id": "pt.ine.add.PTCONT.1144886",
      "street": "R CAP SALGUEIRO MAIA",
      "house": "25 27 2",
      "postcode": "3040-006",
      "city": "COIMBRA",
      "lon": "-8.441947340096235",
      "lat": "40.1996685087704"
    },
    {
      "id": "pt.ine.add.PTCONT.1144887",
      "street": "R CAP SALGUEIRO MAIA",
      "house": "25 27 2",
      "postcode": "3040-006",
      "city": "COIMBRA",
      "lon": "-8.441947340096235",
      "lat": "40.1996685087704"
    },
    {
      "id": "pt.ine.add.PTCONT.1144888",
      "street": "R CAP SALGUEIRO MAIA",
      "house": "25 27 2",
      "postcode": "3040-006",
      "city": "COIMBRA",
      "lon": "-8.441947340096235",
      "lat": "40.1996685087704"
    },
    {
      "id": "pt.ine.add.PTCONT.1144889",
      "street": "R MONTE",
      "house": "6",
      "postcode": "3040-321",
      "city": "COIMBRA",
      "lon": "-8.446017316894872",
      "lat": "40.19848681655567"
    },
    {
      "id": "pt.ine.add.PTCONT.1147397",
      "street": "R CAP SALGUEIRO MAIA",
      "house": "31 F",
      "postcode": "3040-006",
      "city": "COIMBRA",
      "lon": "-8.44231138031712",
      "lat": "40.19965853112592"
    },
    {
      "id": "pt.ine.add.PTCONT.1149727",
      "street": "R OBSERVATORIO",
      "house": "14",
      "postcode": "3040-004",
      "city": "COIMBRA",
      "lon": "-8.442202816703219",
      "lat": "40.199028410430856"
    },
    {
      "id": "pt.ine.add.PTCONT.1157544",
      "street": "R MONTE",
      "house": "22",
      "postcode": "3040-321",
      "city": "COIMBRA",
      "lon": "-8.445690460295264",
      "lat": "40.198919981176054"
    },
    {
      "id": "pt.ine.add.PTCONT.1159666",
      "street": "R MONTE",
      "house": "16",
      "postcode": "3040-321",
      "city": "COIMBRA",
      "lon": "-8.445853889113588",
      "lat": "40.198703398983305"
    },
    {
      "id": "pt.ine.add.PTCONT.1161691",
      "street": "R CAP SALGUEIRO MAIA VILA GLLRIA",
      "house": "33",
      "postcode": "3040-006",
      "city": "COIMBRA",
      "lon": "-8.442124121662676",
      "lat": "40.199803124988264"
    },
    {
      "id": "pt.ine.add.PTCONT.1161692",
      "street": "R CAP SALGUEIRO MAIA VILA GLLRIA",
      "house": "33",
      "postcode": "3040-006",
      "city": "COIMBRA",
      "lon": "-8.442124121662676",
      "lat": "40.199803124988264"
    },
    {
      "id": "pt.ine.add.PTCONT.1165525",
      "street": "R CENTRAL DA MESURA",
      "house": "10",
      "postcode": "3040-197",
      "city": "COIMBRA",
      "lon": "-8.444687856185007",
      "lat": "40.19797706800963"
    },
    {
      "id": "pt.ine.add.PTCONT.1169557",
      "street": "R CAP SALGUEIRO MAIA",
      "house": "11",
      "postcode": "3040-006",
      "city": "COIMBRA",
      "lon": "-8.441499618996204",
      "lat": "40.19935449705655"
    },
    {
      "id": "pt.ine.add.PTCONT.1171458",
      "street": "R CAP SALGUEIRO MAIA",
      "house": "",
      "postcode": "3040-006",
      "city": "COIMBRA",
      "lon": "-8.442790381471468",
      "lat": "40.2016835700815"
    },
    {
      "id": "pt.ine.add.PTCONT.1171459",
      "street": "R CAP SALGUEIRO MAIA",
      "house": "",
      "postcode": "3040-006",
      "city": "COIMBRA",
      "lon": "-8.442790381471468",
      "lat": "40.2016835700815"
    },
    {
      "id": "pt.ine.add.PTCONT.1174181",
      "street": "R OBSERVATORIO",
      "house": "10",
      "postcode": "3040-004",
      "city": "COIMBRA",
      "lon": "-8.442014905626287",
      "lat": "40.19902891201075"
    },
    {
      "id": "pt.ine.add.PTCONT.1175184",
      "street": "R CAP SALGUEIRO MAIA",
      "house": "93",
      "postcode": "3040-006",
      "city": "COIMBRA",
      "lon": "-8.442827665227863",
      "lat": "40.202133763429366"
    },
    {
      "id": "pt.ine.add.PTCONT.1175185",
      "street": "R CAP SALGUEIRO MAIA",
      "house": "93",
      "postcode": "3040-006",
      "city": "COIMBRA",
      "lon": "-8.442827665227863",
      "lat": "40.202133763429366"
    },
    {
      "id": "pt.ine.add.PTCONT.1175186",
      "street": "R CAP SALGUEIRO MAIA",
      "house": "93",
      "postcode": "3040-006",
      "city": "COIMBRA",
      "lon": "-8.442827665227863",
      "lat": "40.202133763429366"
    },
    {
      "id": "pt.ine.add.PTCONT.1175187",
      "street": "R CAP SALGUEIRO MAIA",
      "house": "93",
      "postcode": "3040-006",
      "city": "COIMBRA",
      "lon": "-8.442827665227863",
      "lat": "40.202133763429366"
    },
    {
      "id": "pt.ine.add.PTCONT.1175188",
      "street": "R CAP SALGUEIRO MAIA",
      "house": "93",
      "postcode": "3040-006",
      "city": "COIMBRA",
      "lon": "-8.442827665227863",
      "lat": "40.202133763429366"
    },
    {
      "id": "pt.ine.add.PTCONT.1175189",
      "street": "R CAP SALGUEIRO MAIA",
      "house": "93",
      "postcode": "3040-006",
      "city": "COIMBRA",
      "lon": "-8.442827665227863",
      "lat": "40.202133763429366"
    },
    {
      "id": "pt.ine.add.PTCONT.1175190",
      "street": "R CAP SALGUEIRO MAIA",
      "house": "93",
      "postcode": "3040-006",
      "city": "COIMBRA",
      "lon": "-8.442827665227863",
      "lat": "40.202133763429366"
    },
    {
      "id": "pt.ine.add.PTCONT.1175191",
      "street": "R CAP SALGUEIRO MAIA",
      "house": "93",
      "postcode": "3040-006",
      "city": "COIMBRA",
      "lon": "-8.442827665227863",
      "lat": "40.202133763429366"
    },
    {
      "id": "pt.ine.add.PTCONT.1175192",
      "street": "R CAP SALGUEIRO MAIA",
      "house": "93",
      "postcode": "3040-006",
      "city": "COIMBRA",
      "lon": "-8.442827665227863",
      "lat": "40.202133763429366"
    },
    {
      "id": "pt.ine.add.PTCONT.1175193",
      "street": "R CAP SALGUEIRO MAIA",
      "house": "93",
      "postcode": "3040-006",
      "city": "COIMBRA",
      "lon": "-8.442827665227863",
      "lat": "40.202133763429366"
    },
    {
      "id": "pt.ine.add.PTCONT.1175194",
      "street": "R CAP SALGUEIRO MAIA",
      "house": "93",
      "postcode": "3040-006",
      "city": "COIMBRA",
      "lon": "-8.442827665227863",
      "lat": "40.202133763429366"
    },
    {
      "id": "pt.ine.add.PTCONT.1175195",
      "street": "R CAP SALGUEIRO MAIA",
      "house": "93",
      "postcode": "3040-006",
      "city": "COIMBRA",
      "lon": "-8.442827665227863",
      "lat": "40.202133763429366"
    },
    {
      "id": "pt.ine.add.PTCONT.1175196",
      "street": "R CAP SALGUEIRO MAIA",
      "house": "93",
      "postcode": "3040-006",
      "city": "COIMBRA",
      "lon": "-8.442827665227863",
      "lat": "40.202133763429366"
    },
    {
      "id": "pt.ine.add.PTCONT.1175197",
      "street": "R CAP SALGUEIRO MAIA",
      "house": "93",
      "postcode": "3040-006",
      "city": "COIMBRA",
      "lon": "-8.442827665227863",
      "lat": "40.202133763429366"
    },
    {
      "id": "pt.ine.add.PTCONT.1175198",
      "street": "R CAP SALGUEIRO MAIA",
      "house": "93",
      "postcode": "3040-006",
      "city": "COIMBRA",
      "lon": "-8.442827665227863",
      "lat": "40.202133763429366"
    },
    {
      "id": "pt.ine.add.PTCONT.1175199",
      "street": "R CAP SALGUEIRO MAIA",
      "house": "93",
      "postcode": "3040-006",
      "city": "COIMBRA",
      "lon": "-8.442827665227863",
      "lat": "40.202133763429366"
    },
    {
      "id": "pt.ine.add.PTCONT.1175200",
      "street": "R CAP SALGUEIRO MAIA",
      "house": "93",
      "postcode": "3040-006",
      "city": "COIMBRA",
      "lon": "-8.442827665227863",
      "lat": "40.202133763429366"
    },
    {
      "id": "pt.ine.add.PTCONT.1175201",
      "street": "R CAP SALGUEIRO MAIA",
      "house": "93",
      "postcode": "3040-006",
      "city": "COIMBRA",
      "lon": "-8.442827665227863",
      "lat": "40.202133763429366"
    },
    {
      "id": "pt.ine.add.PTCONT.1175202",
      "street": "R CAP SALGUEIRO MAIA",
      "house": "93",
      "postcode": "3040-006",
      "city": "COIMBRA",
      "lon": "-8.442827665227863",
      "lat": "40.202133763429366"
    },
    {
      "id": "pt.ine.add.PTCONT.1175203",
      "street": "R CAP SALGUEIRO MAIA",
      "house": "93",
      "postcode": "3040-006",
      "city": "COIMBRA",
      "lon": "-8.442827665227863",
      "lat": "40.202133763429366"
    },
    {
      "id": "pt.ine.add.PTCONT.1175204",
      "street": "R CAP SALGUEIRO MAIA",
      "house": "93",
      "postcode": "3040-006",
      "city": "COIMBRA",
      "lon": "-8.442827665227863",
      "lat": "40.202133763429366"
    },
    {
      "id": "pt.ine.add.PTCONT.1175205",
      "street": "R CAP SALGUEIRO MAIA",
      "house": "93",
      "postcode": "3040-006",
      "city": "COIMBRA",
      "lon": "-8.442827665227863",
      "lat": "40.202133763429366"
    },
    {
      "id": "pt.ine.add.PTCONT.1175206",
      "street": "R CAP SALGUEIRO MAIA",
      "house": "93",
      "postcode": "3040-006",
      "city": "COIMBRA",
      "lon": "-8.442827665227863",
      "lat": "40.202133763429366"
    },
    {
      "id": "pt.ine.add.PTCONT.1175207",
      "street": "R CAP SALGUEIRO MAIA",
      "house": "93",
      "postcode": "3040-006",
      "city": "COIMBRA",
      "lon": "-8.442827665227863",
      "lat": "40.202133763429366"
    },
    {
      "id": "pt.ine.add.PTCONT.1175208",
      "street": "R CAP SALGUEIRO MAIA",
      "house": "93",
      "postcode": "3040-006",
      "city": "COIMBRA",
      "lon": "-8.442827665227863",
      "lat": "40.202133763429366"
    },
    {
      "id": "pt.ine.add.PTCONT.1175209",
      "street": "R CAP SALGUEIRO MAIA",
      "house": "93",
      "postcode": "3040-006",
      "city": "COIMBRA",
      "lon": "-8.442827665227863",
      "lat": "40.202133763429366"
    },
    {
      "id": "pt.ine.add.PTCONT.1175210",
      "street": "R CAP SALGUEIRO MAIA",
      "house": "93",
      "postcode": "3040-006",
      "city": "COIMBRA",
      "lon": "-8.442827665227863",
      "lat": "40.202133763429366"
    },
    {
      "id": "pt.ine.add.PTCONT.1175211",
      "street": "R CAP SALGUEIRO MAIA",
      "house": "93",
      "postcode": "3040-006",
      "city": "COIMBRA",
      "lon": "-8.442827665227863",
      "lat": "40.202133763429366"
    },
    {
      "id": "pt.ine.add.PTCONT.1175212",
      "street": "R CAP SALGUEIRO MAIA",
      "house": "93",
      "postcode": "3040-006",
      "city": "COIMBRA",
      "lon": "-8.442827665227863",
      "lat": "40.202133763429366"
    },
    {
      "id": "pt.ine.add.PTCONT.1175213",
      "street": "R CAP SALGUEIRO MAIA",
      "house": "93",
      "postcode": "3040-006",
      "city": "COIMBRA",
      "lon": "-8.442827665227863",
      "lat": "40.202133763429366"
    },
    {
      "id": "pt.ine.add.PTCONT.1175214",
      "street": "R CAP SALGUEIRO MAIA",
      "house": "93",
      "postcode": "3040-006",
      "city": "COIMBRA",
      "lon": "-8.442827665227863",
      "lat": "40.202133763429366"
    },
    {
      "id": "pt.ine.add.PTCONT.1175215",
      "street": "R CAP SALGUEIRO MAIA",
      "house": "93",
      "postcode": "3040-006",
      "city": "COIMBRA",
      "lon": "-8.442827665227863",
      "lat": "40.202133763429366"
    },
    {
      "id": "pt.ine.add.PTCONT.1175216",
      "street": "R CAP SALGUEIRO MAIA",
      "house": "93",
      "postcode": "3040-006",
      "city": "COIMBRA",
      "lon": "-8.442827665227863",
      "lat": "40.202133763429366"
    },
    {
      "id": "pt.ine.add.PTCONT.1175217",
      "street": "R CAP SALGUEIRO MAIA",
      "house": "93",
      "postcode": "3040-006",
      "city": "COIMBRA",
      "lon": "-8.442827665227863",
      "lat": "40.202133763429366"
    },
    {
      "id": "pt.ine.add.PTCONT.1175218",
      "street": "R CAP SALGUEIRO MAIA",
      "house": "93",
      "postcode": "3040-006",
      "city": "COIMBRA",
      "lon": "-8.442827665227863",
      "lat": "40.202133763429366"
    },
    {
      "id": "pt.ine.add.PTCONT.1175219",
      "street": "R CAP SALGUEIRO MAIA",
      "house": "93",
      "postcode": "3040-006",
      "city": "COIMBRA",
      "lon": "-8.442827665227863",
      "lat": "40.202133763429366"
    },
    {
      "id": "pt.ine.add.PTCONT.1175220",
      "street": "R CAP SALGUEIRO MAIA",
      "house": "93",
      "postcode": "3040-006",
      "city": "COIMBRA",
      "lon": "-8.442827665227863",
      "lat": "40.202133763429366"
    },
    {
      "id": "pt.ine.add.PTCONT.1175221",
      "street": "R CAP SALGUEIRO MAIA",
      "house": "93",
      "postcode": "3040-006",
      "city": "COIMBRA",
      "lon": "-8.442827665227863",
      "lat": "40.202133763429366"
    },
    {
      "id": "pt.ine.add.PTCONT.1175222",
      "street": "R CAP SALGUEIRO MAIA",
      "house": "93",
      "postcode": "3040-006",
      "city": "COIMBRA",
      "lon": "-8.442827665227863",
      "lat": "40.202133763429366"
    },
    {
      "id": "pt.ine.add.PTCONT.1175227",
      "street": "R CAP SALGUEIRO MAIA",
      "house": "93",
      "postcode": "3040-006",
      "city": "COIMBRA",
      "lon": "-8.442827665227863",
      "lat": "40.202133763429366"
    },
    {
      "id": "pt.ine.add.PTCONT.1175228",
      "street": "R CAP SALGUEIRO MAIA",
      "house": "93",
      "postcode": "3040-006",
      "city": "COIMBRA",
      "lon": "-8.442827665227863",
      "lat": "40.202133763429366"
    },
    {
      "id": "pt.ine.add.PTCONT.1175229",
      "street": "R CAP SALGUEIRO MAIA",
      "house": "93",
      "postcode": "3040-006",
      "city": "COIMBRA",
      "lon": "-8.442827665227863",
      "lat": "40.202133763429366"
    },
    {
      "id": "pt.ine.add.PTCONT.1177090",
      "street": "R CAP SALGUEIRO MAIA",
      "house": "10",
      "postcode": "3040-006",
      "city": "COIMBRA",
      "lon": "-8.442919452387244",
      "lat": "40.20165620713631"
    },
    {
      "id": "pt.ine.add.PTCONT.1177091",
      "street": "R CAP SALGUEIRO MAIA",
      "house": "10",
      "postcode": "3040-006",
      "city": "COIMBRA",
      "lon": "-8.442919452387244",
      "lat": "40.20165620713631"
    },
    {
      "id": "pt.ine.add.PTCONT.1180593",
      "street": "R CENTRAL DA MESURA",
      "house": "6",
      "postcode": "3040-197",
      "city": "COIMBRA",
      "lon": "-8.444617473061419",
      "lat": "40.19799526916008"
    },
    {
      "id": "pt.ine.add.PTCONT.1180852",
      "street": "R OBSERVATORIO",
      "house": "",
      "postcode": "3040-004",
      "city": "COIMBRA",
      "lon": "-8.442866488924802",
      "lat": "40.20034149282851"
    },
    {
      "id": "pt.ine.add.PTCONT.1183121",
      "street": "R CAP SALGUEIRO MAIA",
      "house": "9",
      "postcode": "3040-006",
      "city": "COIMBRA",
      "lon": "-8.442965857978118",
      "lat": "40.20153000085951"
    },
    {
      "id": "pt.ine.add.PTCONT.1185713",
      "street": "R VALE ROSAL",
      "house": "2",
      "postcode": "3040-321",
      "city": "COIMBRA",
      "lon": "-8.44753658034551",
      "lat": "40.19940129833779"
    },
    {
      "id": "pt.ine.add.PTCONT.1187862",
      "street": "R MONTE",
      "house": "10",
      "postcode": "3040-321",
      "city": "COIMBRA",
      "lon": "-8.445888791206718",
      "lat": "40.19863125775512"
    },
    {
      "id": "pt.ine.add.PTCONT.1189185",
      "street": "R SENHOR DO BONFIM",
      "house": "70 D",
      "postcode": "3040-321",
      "city": "COIMBRA",
      "lon": "-8.447323267008624",
      "lat": "40.19898760771782"
    },
    {
      "id": "pt.ine.add.PTCONT.1189232",
      "street": "R MONTE",
      "house": "10",
      "postcode": "3040-321",
      "city": "COIMBRA",
      "lon": "-8.445888791206718",
      "lat": "40.19863125775512"
    },
    {
      "id": "pt.ine.add.PTCONT.1191741",
      "street": "QTA TULHA",
      "house": "",
      "postcode": "3040-200",
      "city": "COIMBRA",
      "lon": "-8.444079892682625",
      "lat": "40.20114876735282"
    },
    {
      "id": "pt.ine.add.PTCONT.1191742",
      "street": "QTA TULHA",
      "house": "",
      "postcode": "3040-200",
      "city": "COIMBRA",
      "lon": "-8.444079892682625",
      "lat": "40.20114876735282"
    },
    {
      "id": "pt.ine.add.PTCONT.1191743",
      "street": "QTA TULHA",
      "house": "",
      "postcode": "3040-200",
      "city": "COIMBRA",
      "lon": "-8.444079892682625",
      "lat": "40.20114876735282"
    },
    {
      "id": "pt.ine.add.PTCONT.1191744",
      "street": "QTA TULHA",
      "house": "",
      "postcode": "3040-200",
      "city": "COIMBRA",
      "lon": "-8.444079892682625",
      "lat": "40.20114876735282"
    },
    {
      "id": "pt.ine.add.PTCONT.1191745",
      "street": "QTA TULHA",
      "house": "",
      "postcode": "3040-200",
      "city": "COIMBRA",
      "lon": "-8.444079892682625",
      "lat": "40.20114876735282"
    },
    {
      "id": "pt.ine.add.PTCONT.1191746",
      "street": "QTA TULHA",
      "house": "",
      "postcode": "3040-200",
      "city": "COIMBRA",
      "lon": "-8.444079892682625",
      "lat": "40.20114876735282"
    },
    {
      "id": "pt.ine.add.PTCONT.1193014",
      "street": "QTA TULHA",
      "house": "",
      "postcode": "3040-200",
      "city": "COIMBRA",
      "lon": "-8.444079892682625",
      "lat": "40.20114876735282"
    },
    {
      "id": "pt.ine.add.PTCONT.1193127",
      "street": "QTA TULHA",
      "house": "",
      "postcode": "3040-200",
      "city": "COIMBRA",
      "lon": "-8.444079892682625",
      "lat": "40.20114876735282"
    },
    {
      "id": "pt.ine.add.PTCONT.1196819",
      "street": "R CAP SALGUEIRO MAIA",
      "house": "1",
      "postcode": "3040-006",
      "city": "COIMBRA",
      "lon": "-8.44128711711867",
      "lat": "40.19911190457365"
    },
    {
      "id": "pt.ine.add.PTCONT.1199620",
      "street": "BC OBSERVATORIO",
      "house": "2",
      "postcode": "3040-003",
      "city": "COIMBRA",
      "lon": "-8.441463406370552",
      "lat": "40.199138452731376"
    },
    {
      "id": "pt.ine.add.PTCONT.1203393",
      "street": "R SENHOR DO BONFIM",
      "house": "70E",
      "postcode": "3040-321",
      "city": "COIMBRA",
      "lon": "-8.447123944070102",
      "lat": "40.19906019549139"
    },
    {
      "id": "pt.ine.add.PTCONT.1204861",
      "street": "BC OBSERVATORIO",
      "house": "N",
      "postcode": "3040-003",
      "city": "COIMBRA",
      "lon": "-8.441980734793068",
      "lat": "40.19926315571206"
    },
    {
      "id": "pt.ine.add.PTCONT.1205827",
      "street": "R CAP SALGUEIRO MAIA",
      "house": "",
      "postcode": "3040-006",
      "city": "COIMBRA",
      "lon": "-8.443728617083138",
      "lat": "40.201383862883226"
    },
    {
      "id": "pt.ine.add.PTCONT.1206372",
      "street": "R MONTE",
      "house": "",
      "postcode": "3040-321",
      "city": "COIMBRA",
      "lon": "-8.4458191110645",
      "lat": "40.19880255746401"
    },
    {
      "id": "pt.ine.add.PTCONT.1207353",
      "street": "R CAP SALGUEIRO MAIA",
      "house": "5",
      "postcode": "3040-006",
      "city": "COIMBRA",
      "lon": "-8.442766277080429",
      "lat": "40.2015485466271"
    },
    {
      "id": "pt.ine.add.PTCONT.1212150",
      "street": "R CAP SALGUEIRO MAIA",
      "house": "17",
      "postcode": "3040-006",
      "city": "COIMBRA",
      "lon": "-8.443165315688747",
      "lat": "40.201484437490386"
    },
    {
      "id": "pt.ine.add.PTCONT.1212153",
      "street": "BC OBSERVATORIO",
      "house": "",
      "postcode": "3040-003",
      "city": "COIMBRA",
      "lon": "-8.441380991207065",
      "lat": "40.19909364289639"
    },
    {
      "id": "pt.ine.add.PTCONT.1213356",
      "street": "R VALE ROSAL",
      "house": "6",
      "postcode": "3040-321",
      "city": "COIMBRA",
      "lon": "-8.447631160547735",
      "lat": "40.19953612938145"
    },
    {
      "id": "pt.ine.add.PTCONT.1215567",
      "street": "R CAP SALGUEIRO MAIA",
      "house": "31H",
      "postcode": "3040-006",
      "city": "COIMBRA",
      "lon": "-8.44224058580964",
      "lat": "40.19958667327217"
    },
    {
      "id": "pt.ine.add.PTCONT.1217582",
      "street": "BC OBSERVATORIO",
      "house": "20",
      "postcode": "3040-003",
      "city": "COIMBRA",
      "lon": "-8.442192871566107",
      "lat": "40.19942469509502"
    },
    {
      "id": "pt.ine.add.PTCONT.1223575",
      "street": "BC OBSERVATORIO",
      "house": "22 B",
      "postcode": "3040-003",
      "city": "COIMBRA",
      "lon": "-8.442287318524802",
      "lat": "40.19953251327461"
    },
    {
      "id": "pt.ine.add.PTCONT.1227819",
      "street": "BC OBSERVATORIO",
      "house": "15 2",
      "postcode": "3040-003",
      "city": "COIMBRA",
      "lon": "-8.442191440297817",
      "lat": "40.19910949360344"
    },
    {
      "id": "pt.ine.add.PTCONT.1238350",
      "street": "R CAP SALGUEIRO MAIA",
      "house": "37",
      "postcode": "3040-006",
      "city": "COIMBRA",
      "lon": "-8.442324147655466",
      "lat": "40.19988364365572"
    },
    {
      "id": "pt.ine.add.PTCONT.1243997",
      "street": "BC OBSERVATORIO",
      "house": "6",
      "postcode": "3040-003",
      "city": "COIMBRA",
      "lon": "-8.441604584805688",
      "lat": "40.19919211179098"
    },
    {
      "id": "pt.ine.add.PTCONT.1245599",
      "street": "R MONTE",
      "house": "8",
      "postcode": "3040-321",
      "city": "COIMBRA",
      "lon": "-8.445935437583334",
      "lat": "40.198559084779724"
    },
    {
      "id": "pt.ine.add.PTCONT.1245586",
      "street": "R MONTE",
      "house": "8",
      "postcode": "3040-321",
      "city": "COIMBRA",
      "lon": "-8.445935437583334",
      "lat": "40.198559084779724"
    },
    {
      "id": "pt.ine.add.PTCONT.1246652",
      "street": "R CAP SALGUEIRO MAIA",
      "house": "39 E",
      "postcode": "3040-006",
      "city": "COIMBRA",
      "lon": "-8.44237034857596",
      "lat": "40.199712408799144"
    },
    {
      "id": "pt.ine.add.PTCONT.1246653",
      "street": "BC OBSERVATORIO",
      "house": "153",
      "postcode": "3040-003",
      "city": "COIMBRA",
      "lon": "-8.442203552806216",
      "lat": "40.199190514059346"
    },
    {
      "id": "pt.ine.add.PTCONT.1247532",
      "street": "BC OBSERVATORIO",
      "house": "",
      "postcode": "3040-003",
      "city": "COIMBRA",
      "lon": "-8.441745395954724",
      "lat": "40.19916471886065"
    },
    {
      "id": "pt.ine.add.PTCONT.1248204",
      "street": "R SENHOR DO BONFIM",
      "house": "70 C",
      "postcode": "3040-321",
      "city": "COIMBRA",
      "lon": "-8.447205988939036",
      "lat": "40.19902394944752"
    },
    {
      "id": "pt.ine.add.PTCONT.1249896",
      "street": "R SENHOR DO BONFIM",
      "house": "40",
      "postcode": "3040-321",
      "city": "COIMBRA",
      "lon": "-8.4460755831511",
      "lat": "40.1983875945126"
    },
    {
      "id": "pt.ine.add.PTCONT.1249897",
      "street": "R SENHOR DO BONFIM",
      "house": "40",
      "postcode": "3040-321",
      "city": "COIMBRA",
      "lon": "-8.4460755831511",
      "lat": "40.1983875945126"
    },
    {
      "id": "pt.ine.add.PTCONT.1249898",
      "street": "R SENHOR DO BONFIM",
      "house": "40",
      "postcode": "3040-321",
      "city": "COIMBRA",
      "lon": "-8.4460755831511",
      "lat": "40.1983875945126"
    },
    {
      "id": "pt.ine.add.PTCONT.1253100",
      "street": "R CAP SALGUEIRO MAIA",
      "house": "65",
      "postcode": "3040-006",
      "city": "COIMBRA",
      "lon": "-8.442903813382236",
      "lat": "40.20080069201117"
    },
    {
      "id": "pt.ine.add.PTCONT.1253101",
      "street": "R OBSERVATORIO",
      "house": "",
      "postcode": "3040-004",
      "city": "COIMBRA",
      "lon": "-8.444171463979147",
      "lat": "40.20062618125836"
    },
    {
      "id": "pt.ine.add.PTCONT.1253102",
      "street": "R OBSERVATORIO",
      "house": "",
      "postcode": "3040-004",
      "city": "COIMBRA",
      "lon": "-8.444171463979147",
      "lat": "40.20062618125836"
    },
    {
      "id": "pt.ine.add.PTCONT.1258951",
      "street": "R SENHOR DO BONFIM",
      "house": "42",
      "postcode": "3040-321",
      "city": "COIMBRA",
      "lon": "-8.44628768541728",
      "lat": "40.19854012063513"
    },
    {
      "id": "pt.ine.add.PTCONT.1258956",
      "street": "R TRÁS DO OBSERVATÓRIO",
      "house": "",
      "postcode": "3040-006",
      "city": "COIMBRA",
      "lon": "-8.44655335990589",
      "lat": "40.200124433895134"
    },
    {
      "id": "pt.ine.add.PTCONT.1263069",
      "street": "R CAP SALGUEIRO MAIA",
      "house": "55",
      "postcode": "3040-006",
      "city": "COIMBRA",
      "lon": "-8.443164331085729",
      "lat": "40.20126829942361"
    },
    {
      "id": "pt.ine.add.PTCONT.1263071",
      "street": "R CAP SALGUEIRO MAIA",
      "house": "55",
      "postcode": "3040-006",
      "city": "COIMBRA",
      "lon": "-8.443164331085729",
      "lat": "40.20126829942361"
    },
    {
      "id": "pt.ine.add.PTCONT.1263072",
      "street": "R CAP SALGUEIRO MAIA",
      "house": "55",
      "postcode": "3040-006",
      "city": "COIMBRA",
      "lon": "-8.443164331085729",
      "lat": "40.20126829942361"
    },
    {
      "id": "pt.ine.add.PTCONT.1263073",
      "street": "R CAP SALGUEIRO MAIA",
      "house": "55",
      "postcode": "3040-006",
      "city": "COIMBRA",
      "lon": "-8.443164331085729",
      "lat": "40.20126829942361"
    },
    {
      "id": "pt.ine.add.PTCONT.1263074",
      "street": "R CAP SALGUEIRO MAIA",
      "house": "55",
      "postcode": "3040-006",
      "city": "COIMBRA",
      "lon": "-8.443164331085729",
      "lat": "40.20126829942361"
    },
    {
      "id": "pt.ine.add.PTCONT.1263075",
      "street": "R CAP SALGUEIRO MAIA",
      "house": "55",
      "postcode": "3040-006",
      "city": "COIMBRA",
      "lon": "-8.443164331085729",
      "lat": "40.20126829942361"
    },
    {
      "id": "pt.ine.add.PTCONT.1264518",
      "street": "R CAP SALGUEIRO MAIA",
      "house": "55",
      "postcode": "3040-006",
      "city": "COIMBRA",
      "lon": "-8.443164331085729",
      "lat": "40.20126829942361"
    },
    {
      "id": "pt.ine.add.PTCONT.1264519",
      "street": "R CAP SALGUEIRO MAIA",
      "house": "55",
      "postcode": "3040-006",
      "city": "COIMBRA",
      "lon": "-8.443164331085729",
      "lat": "40.20126829942361"
    },
    {
      "id": "pt.ine.add.PTCONT.1264520",
      "street": "R CAP SALGUEIRO MAIA",
      "house": "55",
      "postcode": "3040-006",
      "city": "COIMBRA",
      "lon": "-8.443164331085729",
      "lat": "40.20126829942361"
    },
    {
      "id": "pt.ine.add.PTCONT.1264521",
      "street": "R CAP SALGUEIRO MAIA",
      "house": "55",
      "postcode": "3040-006",
      "city": "COIMBRA",
      "lon": "-8.443164331085729",
      "lat": "40.20126829942361"
    },
    {
      "id": "pt.ine.add.PTCONT.1264522",
      "street": "R CAP SALGUEIRO MAIA",
      "house": "55",
      "postcode": "3040-006",
      "city": "COIMBRA",
      "lon": "-8.443164331085729",
      "lat": "40.20126829942361"
    },
    {
      "id": "pt.ine.add.PTCONT.1264523",
      "street": "R CAP SALGUEIRO MAIA",
      "house": "55",
      "postcode": "3040-006",
      "city": "COIMBRA",
      "lon": "-8.443164331085729",
      "lat": "40.20126829942361"
    },
    {
      "id": "pt.ine.add.PTCONT.1264524",
      "street": "R CAP SALGUEIRO MAIA",
      "house": "55",
      "postcode": "3040-006",
      "city": "COIMBRA",
      "lon": "-8.443164331085729",
      "lat": "40.20126829942361"
    },
    {
      "id": "pt.ine.add.PTCONT.1264525",
      "street": "R CAP SALGUEIRO MAIA",
      "house": "55",
      "postcode": "3040-006",
      "city": "COIMBRA",
      "lon": "-8.443164331085729",
      "lat": "40.20126829942361"
    },
    {
      "id": "pt.ine.add.PTCONT.1264526",
      "street": "R CAP SALGUEIRO MAIA",
      "house": "55",
      "postcode": "3040-006",
      "city": "COIMBRA",
      "lon": "-8.443164331085729",
      "lat": "40.20126829942361"
    },
    {
      "id": "pt.ine.add.PTCONT.1264527",
      "street": "R CAP SALGUEIRO MAIA",
      "house": "55",
      "postcode": "3040-006",
      "city": "COIMBRA",
      "lon": "-8.443164331085729",
      "lat": "40.20126829942361"
    },
    {
      "id": "pt.ine.add.PTCONT.1264528",
      "street": "R CAP SALGUEIRO MAIA",
      "house": "55",
      "postcode": "3040-006",
      "city": "COIMBRA",
      "lon": "-8.443164331085729",
      "lat": "40.20126829942361"
    },
    {
      "id": "pt.ine.add.PTCONT.1264529",
      "street": "R CAP SALGUEIRO MAIA",
      "house": "55",
      "postcode": "3040-006",
      "city": "COIMBRA",
      "lon": "-8.443164331085729",
      "lat": "40.20126829942361"
    },
    {
      "id": "pt.ine.add.PTCONT.1264530",
      "street": "R CAP SALGUEIRO MAIA",
      "house": "55",
      "postcode": "3040-006",
      "city": "COIMBRA",
      "lon": "-8.443164331085729",
      "lat": "40.20126829942361"
    },
    {
      "id": "pt.ine.add.PTCONT.1264531",
      "street": "R CAP SALGUEIRO MAIA",
      "house": "55",
      "postcode": "3040-006",
      "city": "COIMBRA",
      "lon": "-8.443164331085729",
      "lat": "40.20126829942361"
    },
    {
      "id": "pt.ine.add.PTCONT.1270953",
      "street": "R SENHOR DO BONFIM",
      "house": "70 A",
      "postcode": "3040-321",
      "city": "COIMBRA",
      "lon": "-8.447264669553677",
      "lat": "40.19901478435044"
    },
    {
      "id": "pt.ine.add.PTCONT.1274992",
      "street": "R CAP SALGUEIRO MAIA",
      "house": "3 10",
      "postcode": "3040-006",
      "city": "COIMBRA",
      "lon": "-8.44126383205524",
      "lat": "40.19915699589159"
    },
    {
      "id": "pt.ine.add.PTCONT.1276934",
      "street": "BC OBSERVATORIO",
      "house": "30",
      "postcode": "3040-003",
      "city": "COIMBRA",
      "lon": "-8.442521881603154",
      "lat": "40.199459839642756"
    },
    {
      "id": "pt.ine.add.PTCONT.1287804",
      "street": "R CAP SALGUEIRO MAIA",
      "house": "9",
      "postcode": "3040-006",
      "city": "COIMBRA",
      "lon": "-8.441452437021148",
      "lat": "40.199309593408465"
    },
    {
      "id": "pt.ine.add.PTCONT.1287805",
      "street": "R OBSERVATORIO",
      "house": "12",
      "postcode": "3040-004",
      "city": "COIMBRA",
      "lon": "-8.442085331401788",
      "lat": "40.19901971819666"
    },
    {
      "id": "pt.ine.add.PTCONT.1288630",
      "street": "BC OBSERVATORIO",
      "house": "22 A",
      "postcode": "3040-003",
      "city": "COIMBRA",
      "lon": "-8.442322061180997",
      "lat": "40.19942435009021"
    },
    {
      "id": "pt.ine.add.PTCONT.1295635",
      "street": "BC OBSERVATORIO",
      "house": "K",
      "postcode": "3040-003",
      "city": "COIMBRA",
      "lon": "-8.44208655777675",
      "lat": "40.19928989091168"
    },
    {
      "id": "pt.ine.add.PTCONT.1298915",
      "street": "R SENHOR DO BONFIM",
      "house": "66",
      "postcode": "3040-321",
      "city": "COIMBRA",
      "lon": "-8.447170298563867",
      "lat": "40.19892498175566"
    },
    {
      "id": "pt.ine.add.PTCONT.1303436",
      "street": "QTA TULHA",
      "house": "",
      "postcode": "3040-200",
      "city": "COIMBRA",
      "lon": "-8.4439031448775",
      "lat": "40.20102315993344"
    },
    {
      "id": "pt.ine.add.PTCONT.1303437",
      "street": "QTA TULHA",
      "house": "",
      "postcode": "3040-200",
      "city": "COIMBRA",
      "lon": "-8.4439031448775",
      "lat": "40.20102315993344"
    },
    {
      "id": "pt.ine.add.PTCONT.1303438",
      "street": "QTA TULHA",
      "house": "",
      "postcode": "3040-200",
      "city": "COIMBRA",
      "lon": "-8.4439031448775",
      "lat": "40.20102315993344"
    },
    {
      "id": "pt.ine.add.PTCONT.1303439",
      "street": "QTA TULHA",
      "house": "",
      "postcode": "3040-200",
      "city": "COIMBRA",
      "lon": "-8.4439031448775",
      "lat": "40.20102315993344"
    },
    {
      "id": "pt.ine.add.PTCONT.1303440",
      "street": "QTA TULHA",
      "house": "",
      "postcode": "3040-200",
      "city": "COIMBRA",
      "lon": "-8.4439031448775",
      "lat": "40.20102315993344"
    },
    {
      "id": "pt.ine.add.PTCONT.1303441",
      "street": "QTA TULHA",
      "house": "",
      "postcode": "3040-200",
      "city": "COIMBRA",
      "lon": "-8.4439031448775",
      "lat": "40.20102315993344"
    },
    {
      "id": "pt.ine.add.PTCONT.1303442",
      "street": "QTA TULHA",
      "house": "",
      "postcode": "3040-200",
      "city": "COIMBRA",
      "lon": "-8.4439031448775",
      "lat": "40.20102315993344"
    },
    {
      "id": "pt.ine.add.PTCONT.1304821",
      "street": "QTA TULHA",
      "house": "",
      "postcode": "3040-200",
      "city": "COIMBRA",
      "lon": "-8.4439031448775",
      "lat": "40.20102315993344"
    },
    {
      "id": "pt.ine.add.PTCONT.1305357",
      "street": "BC OBSERVATORIO",
      "house": "16",
      "postcode": "3040-003",
      "city": "COIMBRA",
      "lon": "-8.442087170970446",
      "lat": "40.19942497726445"
    },
    {
      "id": "pt.ine.add.PTCONT.1305359",
      "street": "BC OBSERVATORIO",
      "house": "15 4",
      "postcode": "3040-003",
      "city": "COIMBRA",
      "lon": "-8.442227655216776",
      "lat": "40.19932553769333"
    },
    {
      "id": "pt.ine.add.PTCONT.1307413",
      "street": "BC OBSERVATORIO",
      "house": "92",
      "postcode": "3040-003",
      "city": "COIMBRA",
      "lon": "-8.442487098314283",
      "lat": "40.19955899712916"
    },
    {
      "id": "pt.ine.add.PTCONT.1316699",
      "street": "R OBSERVATORIO",
      "house": "",
      "postcode": "3040-004",
      "city": "COIMBRA",
      "lon": "-8.443294146892056",
      "lat": "40.1988273623159"
    },
    {
      "id": "pt.ine.add.PTCONT.1317433",
      "street": "BC OBSERVATORIO",
      "house": "26 A",
      "postcode": "3040-003",
      "city": "COIMBRA",
      "lon": "-8.442427843622937",
      "lat": "40.19944207921918"
    },
    {
      "id": "pt.ine.add.PTCONT.1317434",
      "street": "BC OBSERVATORIO",
      "house": "26 B",
      "postcode": "3040-003",
      "city": "COIMBRA",
      "lon": "-8.442427843622937",
      "lat": "40.19944207921918"
    },
    {
      "id": "pt.ine.add.PTCONT.1317435",
      "street": "BC OBSERVATORIO",
      "house": "1",
      "postcode": "3040-003",
      "city": "COIMBRA",
      "lon": "-8.441721457882252",
      "lat": "40.19906571814929"
    },
    {
      "id": "pt.ine.add.PTCONT.1322952",
      "street": "R CAP SALGUEIRO MAIA",
      "house": "7",
      "postcode": "3040-006",
      "city": "COIMBRA",
      "lon": "-8.441369940087736",
      "lat": "40.19924677205248"
    },
    {
      "id": "pt.ine.add.PTCONT.1323519",
      "street": "R CAP SALGUEIRO MAIA",
      "house": "14",
      "postcode": "3040-006",
      "city": "COIMBRA",
      "lon": "-8.443071930951803",
      "lat": "40.20161076964861"
    },
    {
      "id": "pt.ine.add.PTCONT.1324941",
      "street": "R CAP SALGUEIRO MAIA",
      "house": "7",
      "postcode": "3040-006",
      "city": "COIMBRA",
      "lon": "-8.442860236090866",
      "lat": "40.20154829525249"
    },
    {
      "id": "pt.ine.add.PTCONT.1325528",
      "street": "R SENHOR DO BONFIM",
      "house": "80",
      "postcode": "3040-321",
      "city": "COIMBRA",
      "lon": "-8.447231181764998",
      "lat": "40.19939312157317"
    },
    {
      "id": "pt.ine.add.PTCONT.1331917",
      "street": "R CAP SALGUEIRO MAIA",
      "house": "35",
      "postcode": "3040-006",
      "city": "COIMBRA",
      "lon": "-8.442229945542682",
      "lat": "40.19982986005097"
    },
    {
      "id": "pt.ine.add.PTCONT.1335085",
      "street": "R CAP SALGUEIRO MAIA",
      "house": "15",
      "postcode": "3040-006",
      "city": "COIMBRA",
      "lon": "-8.443071479808001",
      "lat": "40.20151170637029"
    },
    {
      "id": "pt.ine.add.PTCONT.1337761",
      "street": "R CAP SALGUEIRO MAIA",
      "house": "39 E",
      "postcode": "3040-006",
      "city": "COIMBRA",
      "lon": "-8.442406032401836",
      "lat": "40.199811377982066"
    },
    {
      "id": "pt.ine.add.PTCONT.1339935",
      "street": "R CAP SALGUEIRO MAIA",
      "house": "41",
      "postcode": "3040-006",
      "city": "COIMBRA",
      "lon": "-8.442465369242317",
      "lat": "40.19994630740593"
    },
    {
      "id": "pt.ine.add.PTCONT.1341999",
      "street": "R CAP SALGUEIRO MAIA",
      "house": "83",
      "postcode": "3040-006",
      "city": "COIMBRA",
      "lon": "-8.442660818944539",
      "lat": "40.201602863849764"
    },
    {
      "id": "pt.ine.add.PTCONT.1343428",
      "street": "R CAP SALGUEIRO MAIA",
      "house": "83",
      "postcode": "3040-006",
      "city": "COIMBRA",
      "lon": "-8.442660818944539",
      "lat": "40.201602863849764"
    },
    {
      "id": "pt.ine.add.PTCONT.1345168",
      "street": "R CENTRAL MESURA",
      "house": "4",
      "postcode": "3040-197",
      "city": "COIMBRA",
      "lon": "-8.444476830282172",
      "lat": "40.19805868860342"
    },
    {
      "id": "pt.ine.add.PTCONT.1352220",
      "street": "R SENHOR DO BONFIM",
      "house": "76",
      "postcode": "3040-321",
      "city": "COIMBRA",
      "lon": "-8.447418012547626",
      "lat": "40.199158461959684"
    },
    {
      "id": "pt.ine.add.PTCONT.1352221",
      "street": "R SENHOR DO BONFIM",
      "house": "76",
      "postcode": "3040-321",
      "city": "COIMBRA",
      "lon": "-8.447418012547626",
      "lat": "40.199158461959684"
    },
    {
      "id": "pt.ine.add.PTCONT.1352222",
      "street": "R SENHOR DO BONFIM",
      "house": "76",
      "postcode": "3040-321",
      "city": "COIMBRA",
      "lon": "-8.447418012547626",
      "lat": "40.199158461959684"
    },
    {
      "id": "pt.ine.add.PTCONT.1352223",
      "street": "R SENHOR DO BONFIM",
      "house": "70 F",
      "postcode": "3040-321",
      "city": "COIMBRA",
      "lon": "-8.447111825732554",
      "lat": "40.19897917557067"
    },
    {
      "id": "pt.ine.add.PTCONT.1352232",
      "street": "R OBSERVATORIO",
      "house": "6",
      "postcode": "3040-004",
      "city": "COIMBRA",
      "lon": "-8.441874707635384",
      "lat": "40.199191391628986"
    },
    {
      "id": "pt.ine.add.PTCONT.1353887",
      "street": "R SENHOR DO BONFIM",
      "house": "70D",
      "postcode": "3040-321",
      "city": "COIMBRA",
      "lon": "-8.447405436431252",
      "lat": "40.19897837879168"
    },
    {
      "id": "pt.ine.add.PTCONT.1353888",
      "street": "R SENHOR DO BONFIM",
      "house": "70D",
      "postcode": "3040-321",
      "city": "COIMBRA",
      "lon": "-8.447405436431252",
      "lat": "40.19897837879168"
    },
    {
      "id": "pt.ine.add.PTCONT.1356608",
      "street": "BC OBSERVATORIO",
      "house": "15 1",
      "postcode": "3040-003",
      "city": "COIMBRA",
      "lon": "-8.442215583551102",
      "lat": "40.199253522998944"
    },
    {
      "id": "pt.ine.add.PTCONT.1359909",
      "street": "R CAP SALGUEIRO MAIA",
      "house": "15",
      "postcode": "3040-006",
      "city": "COIMBRA",
      "lon": "-8.441687816768711",
      "lat": "40.199417036609766"
    },
    {
      "id": "pt.ine.add.PTCONT.1363460",
      "street": "R CAP SALGUEIRO MAIA",
      "house": "39 D",
      "postcode": "3040-006",
      "city": "COIMBRA",
      "lon": "-8.442335442199994",
      "lat": "40.19978454896912"
    },
    {
      "id": "pt.ine.add.PTCONT.1366138",
      "street": "R CENTRAL DA MESURA",
      "house": "4",
      "postcode": "3040-197",
      "city": "COIMBRA",
      "lon": "-8.444535386837064",
      "lat": "40.198022507619505"
    }
  ]
}