{
  "data": {
    "distrito": "Évora",
    "concelho": "Alandroal",
    "freguesia": "União das freguesias de Alandroal (Nossa Senhora da Conceição), São Brás dos Matos (Mina do Bugalho) e Juromenha (Nossa Senhora do Loreto)",
    "OBJECTID": 237,
    "BGRI2021": "07010700204",
    "DT21": "07",
    "DTMN21": "0701",
    "DTMNFR21": "070107",
    "DTMNFRSEC21": "070107002",
    "SECNUM21": "002",
    "SSNUM21": "04",
    "SECSSNUM21": "00204",
    "OBJECTID_1": 58628,
    "DT": "07",
    "CC": "01",
    "fr": "07",
    "SEC": "002",
    "SS": "04"
  },
  "addresses": [
    {
      "id": "pt.ine.add.PTCONT.1368401",
      "street": "MTE NOVO DA SERRA",
      "house": "",
      "postcode": "7250-203",
      "city": "ALANDROAL",
      "lon": "-7.366849806865419",
      "lat": "38.652629937434085"
    },
    {
      "id": "pt.ine.add.PTCONT.1369152",
      "street": "MTE PARROLEIRA",
      "house": "",
      "postcode": "7250-202",
      "city": "ALANDROAL",
      "lon": "-7.3881878486766945",
      "lat": "38.63878714891382"
    },
    {
      "id": "pt.ine.add.PTCONT.1372993",
      "street": "MTE FUNCHAL",
      "house": "",
      "postcode": "7250-202",
      "city": "ALANDROAL",
      "lon": "-7.383092589636377",
      "lat": "38.64829420587239"
    },
    {
      "id": "pt.ine.add.PTCONT.1375337",
      "street": "MTE BOM SITIO",
      "house": "",
      "postcode": "7250-202",
      "city": "ALANDROAL",
      "lon": "-7.36371723148537",
      "lat": "38.65015016083158"
    },
    {
      "id": "pt.ine.add.PTCONT.1388588",
      "street": "MTE SANTO ANTÓNIO",
      "house": "",
      "postcode": "7250-135",
      "city": "ALANDROAL",
      "lon": "-7.366082572811175",
      "lat": "38.65024676742626"
    },
    {
      "id": "pt.ine.add.PTCONT.1395014",
      "street": "MTE VALE PIO DE BAIXO",
      "house": "",
      "postcode": "7250-203",
      "city": "ALANDROAL",
      "lon": "-7.401440298095332",
      "lat": "38.66719233124597"
    },
    {
      "id": "pt.ine.add.PTCONT.1419071",
      "street": "MTE MIMOSAS",
      "house": "",
      "postcode": "7250-203",
      "city": "ALANDROAL",
      "lon": "-7.366870409339566",
      "lat": "38.65177430180078"
    },
    {
      "id": "pt.ine.add.PTCONT.1425576",
      "street": "MTE VALE PIO",
      "house": "",
      "postcode": "7250-202",
      "city": "ALANDROAL",
      "lon": "-7.401579085694398",
      "lat": "38.66710311831366"
    },
    {
      "id": "pt.ine.add.PTCONT.1425578",
      "street": "MTE PALMEIRA",
      "house": "",
      "postcode": "7250-203",
      "city": "ALANDROAL",
      "lon": "-7.365441348554089",
      "lat": "38.65220632960869"
    },
    {
      "id": "pt.ine.add.PTCONT.1430818",
      "street": "MTE CABRIL",
      "house": "",
      "postcode": "7250-202",
      "city": "ALANDROAL",
      "lon": "-7.38272343609162",
      "lat": "38.662758869156455"
    },
    {
      "id": "pt.ine.add.PTCONT.1432382",
      "street": "MTE VALE PIO DE CIMA",
      "house": "",
      "postcode": "7250-203",
      "city": "ALANDROAL",
      "lon": "-7.401327147637105",
      "lat": "38.66702046938319"
    },
    {
      "id": "pt.ine.add.PTCONT.1434782",
      "street": "MTE MENDES",
      "house": "",
      "postcode": "7250-202",
      "city": "ALANDROAL",
      "lon": "-7.376133536991672",
      "lat": "38.65137519816873"
    },
    {
      "id": "pt.ine.add.PTCONT.1437721",
      "street": "MTE PEGO LONGO",
      "house": "",
      "postcode": "7250-202",
      "city": "ALANDROAL",
      "lon": "-7.395347868281399",
      "lat": "38.640580100992594"
    },
    {
      "id": "pt.ine.add.PTCONT.1446819",
      "street": "MTE ROSEIRAS",
      "house": "",
      "postcode": "7250-203",
      "city": "ALANDROAL",
      "lon": "-7.368213004898973",
      "lat": "38.652990175606426"
    },
    {
      "id": "pt.ine.add.PTCONT.1447603",
      "street": "MTE ALMAS",
      "house": "",
      "postcode": "7250-202",
      "city": "ALANDROAL",
      "lon": "-7.380950770269509",
      "lat": "38.654288869570536"
    },
    {
      "id": "pt.ine.add.PTCONT.1447607",
      "street": "MTE MONTINHO",
      "house": "",
      "postcode": "7250-203",
      "city": "ALANDROAL",
      "lon": "-7.367993592945217",
      "lat": "38.65417781117914"
    },
    {
      "id": "pt.ine.add.PTCONT.1464900",
      "street": "MTE MICHÃO",
      "house": "",
      "postcode": "7250-202",
      "city": "ALANDROAL",
      "lon": "-7.399534789202558",
      "lat": "38.64899300648927"
    }
  ]
}