{
  "data": {
    "distrito": "Évora",
    "concelho": "Alandroal",
    "freguesia": "União das freguesias de Alandroal (Nossa Senhora da Conceição), São Brás dos Matos (Mina do Bugalho) e Juromenha (Nossa Senhora do Loreto)",
    "OBJECTID": 20,
    "BGRI2021": "07010700226",
    "DT21": "07",
    "DTMN21": "0701",
    "DTMNFR21": "070107",
    "DTMNFRSEC21": "070107002",
    "SECNUM21": "002",
    "SSNUM21": "26",
    "SECSSNUM21": "00226",
    "OBJECTID_1": 58547,
    "DT": "07",
    "CC": "01",
    "fr": "07",
    "SEC": "002",
    "SS": "26"
  },
  "addresses": [
    {
      "id": "pt.ine.add.PTCONT.1369173",
      "street": "LG MATADOURO F F",
      "house": "F F",
      "postcode": "7250-112",
      "city": "ALANDROAL",
      "lon": "-7.4064167042395015",
      "lat": "38.70002178123144"
    },
    {
      "id": "pt.ine.add.PTCONT.1374613",
      "street": "LUGAR COURELA DAS ESTACAS",
      "house": "32",
      "postcode": "7250-121",
      "city": "ALANDROAL",
      "lon": "-7.407153334535936",
      "lat": "38.69879225281652"
    },
    {
      "id": "pt.ine.add.PTCONT.1376263",
      "street": "LUGAR DA CRUZ DO MARTELO",
      "house": "1",
      "postcode": "7250-107",
      "city": "ALANDROAL",
      "lon": "-7.4078003858750385",
      "lat": "38.70132314977125"
    },
    {
      "id": "pt.ine.add.PTCONT.1383725",
      "street": "LG MATADOURO",
      "house": "B",
      "postcode": "7250-112",
      "city": "ALANDROAL",
      "lon": "-7.406353464346464",
      "lat": "38.700188965982655"
    },
    {
      "id": "pt.ine.add.PTCONT.1391814",
      "street": "LG MATADOURO",
      "house": "28",
      "postcode": "7250-112",
      "city": "ALANDROAL",
      "lon": "-7.407083731122857",
      "lat": "38.698854877093744"
    },
    {
      "id": "pt.ine.add.PTCONT.1391815",
      "street": "QTA PALHA",
      "house": "1",
      "postcode": "7250-154",
      "city": "ALANDROAL",
      "lon": "-7.407225621537042",
      "lat": "38.70073844199985"
    },
    {
      "id": "pt.ine.add.PTCONT.1393944",
      "street": "LG MATADOURO",
      "house": "34",
      "postcode": "7250-112",
      "city": "ALANDROAL",
      "lon": "-7.407257329714263",
      "lat": "38.69873885004248"
    },
    {
      "id": "pt.ine.add.PTCONT.1407039",
      "street": "LG MATADOURO",
      "house": "8",
      "postcode": "7250-112",
      "city": "ALANDROAL",
      "lon": "-7.407064768826702",
      "lat": "38.699593420139244"
    },
    {
      "id": "pt.ine.add.PTCONT.1407040",
      "street": "LUGAR DA CRUZ DO MARTELO",
      "house": "",
      "postcode": "7250-107",
      "city": "ALANDROAL",
      "lon": "-7.407597663484674",
      "lat": "38.7014613953918"
    },
    {
      "id": "pt.ine.add.PTCONT.1409309",
      "street": "LUGAR DA CRUZ DO MARTELO",
      "house": "",
      "postcode": "7250-107",
      "city": "ALANDROAL",
      "lon": "-7.407723923737153",
      "lat": "38.70148019482381"
    },
    {
      "id": "pt.ine.add.PTCONT.1413018",
      "street": "TV LAGARES D",
      "house": "D",
      "postcode": "7250-154",
      "city": "ALANDROAL",
      "lon": "-7.4063915124511865",
      "lat": "38.70023929084829"
    },
    {
      "id": "pt.ine.add.PTCONT.1414641",
      "street": "LG MATADOURO",
      "house": "20",
      "postcode": "7250-112",
      "city": "ALANDROAL",
      "lon": "-7.406955198506446",
      "lat": "38.69906126433442"
    },
    {
      "id": "pt.ine.add.PTCONT.1415102",
      "street": "LG MATADOURO",
      "house": "30",
      "postcode": "7250-112",
      "city": "ALANDROAL",
      "lon": "-7.407198947601107",
      "lat": "38.6988285682203"
    },
    {
      "id": "pt.ine.add.PTCONT.1422622",
      "street": "QTA PALHA",
      "house": "3",
      "postcode": "7250-154",
      "city": "ALANDROAL",
      "lon": "-7.4070868662658045",
      "lat": "38.700818653068346"
    },
    {
      "id": "pt.ine.add.PTCONT.1427233",
      "street": "LG MATADOURO",
      "house": "G",
      "postcode": "7250-112",
      "city": "ALANDROAL",
      "lon": "-7.40632369329358",
      "lat": "38.70010770843829"
    },
    {
      "id": "pt.ine.add.PTCONT.1429981",
      "street": "LG MATADOURO",
      "house": "14",
      "postcode": "7250-112",
      "city": "ALANDROAL",
      "lon": "-7.4068414023511275",
      "lat": "38.69919452455421"
    },
    {
      "id": "pt.ine.add.PTCONT.1431594",
      "street": "LG MATADOURO",
      "house": "36",
      "postcode": "7250-112",
      "city": "ALANDROAL",
      "lon": "-7.407222082308043",
      "lat": "38.69869940835326"
    },
    {
      "id": "pt.ine.add.PTCONT.1436327",
      "street": "LG MATADOURO",
      "house": "26",
      "postcode": "7250-112",
      "city": "ALANDROAL",
      "lon": "-7.407140747466094",
      "lat": "38.69890027137927"
    },
    {
      "id": "pt.ine.add.PTCONT.1441450",
      "street": "TV LAGARES E",
      "house": "E",
      "postcode": "7250-154",
      "city": "ALANDROAL",
      "lon": "-7.406521248613063",
      "lat": "38.69991433420255"
    },
    {
      "id": "pt.ine.add.PTCONT.1442218",
      "street": "LG MATADOURO",
      "house": "16",
      "postcode": "7250-112",
      "city": "ALANDROAL",
      "lon": "-7.406855867555012",
      "lat": "38.69917272571482"
    },
    {
      "id": "pt.ine.add.PTCONT.1444347",
      "street": "LUGAR DA CRUZ DO MARTELO",
      "house": "5",
      "postcode": "7250-107",
      "city": "ALANDROAL",
      "lon": "-7.407843651881116",
      "lat": "38.701392855828914"
    },
    {
      "id": "pt.ine.add.PTCONT.1454451",
      "street": "LG MATADOURO",
      "house": "10",
      "postcode": "7250-112",
      "city": "ALANDROAL",
      "lon": "-7.406763082469317",
      "lat": "38.699318536658836"
    },
    {
      "id": "pt.ine.add.PTCONT.1455408",
      "street": "LG MATADOURO",
      "house": "78",
      "postcode": "7250-112",
      "city": "ALANDROAL",
      "lon": "-7.406914041732083",
      "lat": "38.69911943951697"
    },
    {
      "id": "pt.ine.add.PTCONT.1459066",
      "street": "QTA PALHA",
      "house": "4",
      "postcode": "7250-154",
      "city": "ALANDROAL",
      "lon": "-7.406948019592425",
      "lat": "38.700907871458114"
    },
    {
      "id": "pt.ine.add.PTCONT.1460720",
      "street": "QTA PALHA",
      "house": "2",
      "postcode": "7250-154",
      "city": "ALANDROAL",
      "lon": "-7.407363192972167",
      "lat": "38.70077532814711"
    }
  ]
}