{
  "data": {
    "distrito": "Setúbal",
    "concelho": "Alcácer do Sal",
    "freguesia": "Torrão",
    "OBJECTID": 349,
    "BGRI2021": "15010400136",
    "DT21": "15",
    "DTMN21": "1501",
    "DTMNFR21": "150104",
    "DTMNFRSEC21": "150104001",
    "SECNUM21": "001",
    "SSNUM21": "36",
    "SECSSNUM21": "00136",
    "OBJECTID_1": 160441,
    "DT": "15",
    "CC": "01",
    "fr": "04",
    "SEC": "001",
    "SS": "36"
  },
  "addresses": [
    {
      "id": "pt.ine.add.PTCONT.4753458",
      "street": "MTE ZAMBUJEIRO",
      "house": "",
      "postcode": "7595-011",
      "city": "TORRÃO",
      "lon": "-8.218371264917469",
      "lat": "38.26328910734216"
    },
    {
      "id": "pt.ine.add.PTCONT.4755247",
      "street": "MTE AMOREIRAS",
      "house": "",
      "postcode": "7595-011",
      "city": "TORRÃO",
      "lon": "-8.221286891785898",
      "lat": "38.264881525553044"
    },
    {
      "id": "pt.ine.add.PTCONT.4807959",
      "street": "MTE O PARAISO",
      "house": "",
      "postcode": "7595-040",
      "city": "TORRÃO",
      "lon": "-8.222215888146344",
      "lat": "38.25834937842972"
    },
    {
      "id": "pt.ine.add.PTCONT.4860298",
      "street": "MTE SOBREIRO",
      "house": "",
      "postcode": "7595-011",
      "city": "TORRÃO",
      "lon": "-8.217956576494922",
      "lat": "38.26041557200044"
    },
    {
      "id": "pt.ine.add.PTCONT.4904937",
      "street": "MTE XARRAMINHA",
      "house": "",
      "postcode": "7595-011",
      "city": "TORRÃO",
      "lon": "-8.221492612826008",
      "lat": "38.2649174063253"
    },
    {
      "id": "pt.ine.add.PTCONT.4957765",
      "street": "MTE CHICO SENA",
      "house": "",
      "postcode": "7595-011",
      "city": "TORRÃO",
      "lon": "-8.218471739930099",
      "lat": "38.26127104308412"
    },
    {
      "id": "pt.ine.add.PTCONT.5059806",
      "street": "MTE NOCHA",
      "house": "",
      "postcode": "7595-011",
      "city": "TORRÃO",
      "lon": "-8.2182807698808",
      "lat": "38.26407294624539"
    },
    {
      "id": "pt.ine.add.PTCONT.5121013",
      "street": "",
      "house": "",
      "postcode": "7595-011",
      "city": "TORRÃO",
      "lon": "-8.217922812231695",
      "lat": "38.260857032111254"
    },
    {
      "id": "pt.ine.add.PTCONT.5124515",
      "street": "MTE BIGOTES",
      "house": "",
      "postcode": "7595-011",
      "city": "TORRÃO",
      "lon": "-8.218345833364387",
      "lat": "38.26108194789327"
    }
  ]
}