{
  "data": {
    "distrito": "Évora",
    "concelho": "Évora",
    "freguesia": "União das freguesias de Bacelo e Senhora da Saúde",
    "OBJECTID": 523,
    "BGRI2021": "07052200616",
    "DT21": "07",
    "DTMN21": "0705",
    "DTMNFR21": "070522",
    "DTMNFRSEC21": "070522006",
    "SECNUM21": "006",
    "SSNUM21": "16",
    "SECSSNUM21": "00616",
    "OBJECTID_1": 60998,
    "DT": "07",
    "CC": "05",
    "fr": "22",
    "SEC": "006",
    "SS": "16"
  },
  "addresses": [
    {
      "id": "pt.ine.add.PTCONT.1395032",
      "street": "QTA ESTRADA REDONDO",
      "house": "",
      "postcode": "7005-837",
      "city": "ÉVORA",
      "lon": "-7.8817494509810855",
      "lat": "38.578262759205124"
    },
    {
      "id": "pt.ine.add.PTCONT.1408108",
      "street": "QTA HORTA DOS COITOS",
      "house": "",
      "postcode": "7005-837",
      "city": "ÉVORA",
      "lon": "-7.882393801055708",
      "lat": "38.5779366250791"
    },
    {
      "id": "pt.ine.add.PTCONT.1427700",
      "street": "QTA VALE DO ACAFRAO",
      "house": "",
      "postcode": "7005-837",
      "city": "ÉVORA",
      "lon": "-7.879857098007379",
      "lat": "38.57792536990062"
    },
    {
      "id": "pt.ine.add.PTCONT.1431990",
      "street": "MTE S RITA",
      "house": "",
      "postcode": "7005-837",
      "city": "ÉVORA",
      "lon": "-7.876329517963203",
      "lat": "38.58240385831618"
    },
    {
      "id": "pt.ine.add.PTCONT.1436630",
      "street": "QTA VALE DO ACAFRAO",
      "house": "",
      "postcode": "7005-837",
      "city": "ÉVORA",
      "lon": "-7.881983924633315",
      "lat": "38.576839937459674"
    },
    {
      "id": "pt.ine.add.PTCONT.1442533",
      "street": "QTA ORDEM DA LIBERDADE",
      "house": "",
      "postcode": "7005-837",
      "city": "ÉVORA",
      "lon": "-7.87221432442451",
      "lat": "38.58104350114928"
    },
    {
      "id": "pt.ine.add.PTCONT.1452515",
      "street": "QTA CANADA",
      "house": "",
      "postcode": "7005-837",
      "city": "ÉVORA",
      "lon": "-7.872161375672077",
      "lat": "38.57981824339427"
    },
    {
      "id": "pt.ine.add.PTCONT.1457141",
      "street": "QTA VALE DO ACAFRAO",
      "house": "",
      "postcode": "7005-837",
      "city": "ÉVORA",
      "lon": "-7.8812707720757365",
      "lat": "38.57801742287252"
    }
  ]
}