{
  "data": {
    "distrito": "Évora",
    "concelho": "Évora",
    "freguesia": "União das freguesias de Bacelo e Senhora da Saúde",
    "OBJECTID": 831,
    "BGRI2021": "07052200624",
    "DT21": "07",
    "DTMN21": "0705",
    "DTMNFR21": "070522",
    "DTMNFRSEC21": "070522006",
    "SECNUM21": "006",
    "SSNUM21": "24",
    "SECSSNUM21": "00624",
    "OBJECTID_1": 60779,
    "DT": "07",
    "CC": "05",
    "fr": "22",
    "SEC": "006",
    "SS": "24"
  },
  "addresses": [
    {
      "id": "pt.ine.add.PTCONT.1376372",
      "street": "QTA FE",
      "house": "",
      "postcode": "7005-837",
      "city": "ÉVORA",
      "lon": "-7.873532882776981",
      "lat": "38.60425673972653"
    },
    {
      "id": "pt.ine.add.PTCONT.1381251",
      "street": "QTA RUFAS",
      "house": "",
      "postcode": "7005-837",
      "city": "ÉVORA",
      "lon": "-7.876040415233767",
      "lat": "38.602329721653575"
    },
    {
      "id": "pt.ine.add.PTCONT.1388552",
      "street": "QTA S GABRIEL",
      "house": "",
      "postcode": "7005-837",
      "city": "ÉVORA",
      "lon": "-7.870811075059062",
      "lat": "38.603984661618036"
    },
    {
      "id": "pt.ine.add.PTCONT.1389799",
      "street": "QTA NOVA DA BEIRA",
      "house": "",
      "postcode": "7005-837",
      "city": "ÉVORA",
      "lon": "-7.875091207543496",
      "lat": "38.60452566899113"
    },
    {
      "id": "pt.ine.add.PTCONT.1389984",
      "street": "QTA BOTICARIA",
      "house": "",
      "postcode": "7005-175",
      "city": "ÉVORA",
      "lon": "-7.878828966984459",
      "lat": "38.59937206678925"
    },
    {
      "id": "pt.ine.add.PTCONT.1391107",
      "street": "QTA CENTROA",
      "house": "",
      "postcode": "7005-837",
      "city": "ÉVORA",
      "lon": "-7.877930997588501",
      "lat": "38.60334279416482"
    },
    {
      "id": "pt.ine.add.PTCONT.1394996",
      "street": "MTE DO POMAR",
      "house": "",
      "postcode": "7005-837",
      "city": "ÉVORA",
      "lon": "-7.872646896074268",
      "lat": "38.60425901228256"
    },
    {
      "id": "pt.ine.add.PTCONT.1397194",
      "street": "QTA CANDEIAS",
      "house": "",
      "postcode": "7005-837",
      "city": "ÉVORA",
      "lon": "-7.871303961671099",
      "lat": "38.604192957225266"
    },
    {
      "id": "pt.ine.add.PTCONT.1400503",
      "street": "QTA CENTROA",
      "house": "",
      "postcode": "7005-175",
      "city": "ÉVORA",
      "lon": "-7.8768871284516635",
      "lat": "38.60311530468936"
    },
    {
      "id": "pt.ine.add.PTCONT.1403051",
      "street": "QTA CENTROA",
      "house": "",
      "postcode": "7005-837",
      "city": "ÉVORA",
      "lon": "-7.878266335601499",
      "lat": "38.60265889055891"
    },
    {
      "id": "pt.ine.add.PTCONT.1404247",
      "street": "QTA FE",
      "house": "",
      "postcode": "7005-837",
      "city": "ÉVORA",
      "lon": "-7.873243272927525",
      "lat": "38.60442248829485"
    },
    {
      "id": "pt.ine.add.PTCONT.1404981",
      "street": "QTA DA PERDIGOA",
      "house": "",
      "postcode": "7005-175",
      "city": "ÉVORA",
      "lon": "-7.878022230510217",
      "lat": "38.60027114629024"
    },
    {
      "id": "pt.ine.add.PTCONT.1418380",
      "street": "QTA LUZ",
      "house": "",
      "postcode": "7005-837",
      "city": "ÉVORA",
      "lon": "-7.8738523966276786",
      "lat": "38.604234664104645"
    },
    {
      "id": "pt.ine.add.PTCONT.1422088",
      "street": "QTA LAGARDONA DE CIMA",
      "house": "",
      "postcode": "7005-837",
      "city": "ÉVORA",
      "lon": "-7.8764122827927325",
      "lat": "38.6042853489529"
    },
    {
      "id": "pt.ine.add.PTCONT.1423001",
      "street": "QTA CENTROA",
      "house": "",
      "postcode": "7005-175",
      "city": "ÉVORA",
      "lon": "-7.877875321114601",
      "lat": "38.60285622204827"
    },
    {
      "id": "pt.ine.add.PTCONT.1423683",
      "street": "QTA CENTROA",
      "house": "",
      "postcode": "7005-175",
      "city": "ÉVORA",
      "lon": "-7.876703098226075",
      "lat": "38.60321399342944"
    },
    {
      "id": "pt.ine.add.PTCONT.1426660",
      "street": "QTA LAGARDONA DE CIMA",
      "house": "",
      "postcode": "7005-837",
      "city": "ÉVORA",
      "lon": "-7.876481772588067",
      "lat": "38.60411434281543"
    },
    {
      "id": "pt.ine.add.PTCONT.1429587",
      "street": "QTA FE",
      "house": "",
      "postcode": "7005-837",
      "city": "ÉVORA",
      "lon": "-7.87314004991201",
      "lat": "38.60439523400272"
    },
    {
      "id": "pt.ine.add.PTCONT.1435234",
      "street": "QTA CENTROA",
      "house": "",
      "postcode": "7005-175",
      "city": "ÉVORA",
      "lon": "-7.876805180677847",
      "lat": "38.60324810104041"
    },
    {
      "id": "pt.ine.add.PTCONT.1438821",
      "street": "QTA VALE DAVID",
      "house": "",
      "postcode": "7005-837",
      "city": "ÉVORA",
      "lon": "-7.877785216240648",
      "lat": "38.599126568791334"
    },
    {
      "id": "pt.ine.add.PTCONT.1449781",
      "street": "QTA RUFAS",
      "house": "",
      "postcode": "7005-837",
      "city": "ÉVORA",
      "lon": "-7.875936808360414",
      "lat": "38.602410569143494"
    },
    {
      "id": "pt.ine.add.PTCONT.1451800",
      "street": "QTA OLHOS DE AGUA",
      "house": "",
      "postcode": "7005-837",
      "city": "ÉVORA",
      "lon": "-7.872193604906944",
      "lat": "38.604019544455056"
    },
    {
      "id": "pt.ine.add.PTCONT.1451803",
      "street": "QTA RUFAS",
      "house": "",
      "postcode": "7005-837",
      "city": "ÉVORA",
      "lon": "-7.875994014210035",
      "lat": "38.60246474492367"
    }
  ]
}