{
  "data": {
    "distrito": "Braga",
    "concelho": "Esposende",
    "freguesia": "União das freguesias de Esposende, Marinhas e Gandra",
    "OBJECTID": 142,
    "BGRI2021": "03061800306",
    "DT21": "03",
    "DTMN21": "0306",
    "DTMNFR21": "030618",
    "DTMNFRSEC21": "030618003",
    "SECNUM21": "003",
    "SSNUM21": "06",
    "SECSSNUM21": "00306",
    "OBJECTID_1": 24284,
    "DT": "03",
    "CC": "06",
    "fr": "18",
    "SEC": "003",
    "SS": "06"
  },
  "addresses": [
    {
      "id": "pt.ine.add.PTCONT.460470",
      "street": "R ARTESAOS",
      "house": "2",
      "postcode": "4740-258",
      "city": "ESPOSENDE",
      "lon": "-8.789975010079988",
      "lat": "41.5462007907915"
    },
    {
      "id": "pt.ine.add.PTCONT.513515",
      "street": "R CÓNEGO MORGADO",
      "house": "3",
      "postcode": "4740-240",
      "city": "ESPOSENDE",
      "lon": "-8.788999483275795",
      "lat": "41.54691765199436"
    },
    {
      "id": "pt.ine.add.PTCONT.528688",
      "street": "R CÓNEGO MORGADO",
      "house": "13",
      "postcode": "4740-240",
      "city": "ESPOSENDE",
      "lon": "-8.789917548651617",
      "lat": "41.54644421908387"
    },
    {
      "id": "pt.ine.add.PTCONT.547523",
      "street": "R ARTESAOS",
      "house": "8",
      "postcode": "4740-258",
      "city": "ESPOSENDE",
      "lon": "-8.7893422985954",
      "lat": "41.54644750340137"
    },
    {
      "id": "pt.ine.add.PTCONT.657960",
      "street": "R ARTESAOS",
      "house": "14",
      "postcode": "4740-258",
      "city": "ESPOSENDE",
      "lon": "-8.788661189837931",
      "lat": "41.54664946991816"
    },
    {
      "id": "pt.ine.add.PTCONT.696081",
      "street": "R CÓNEGO MORGADO",
      "house": "2",
      "postcode": "4740-240",
      "city": "ESPOSENDE",
      "lon": "-8.78876043069814",
      "lat": "41.54698204121622"
    },
    {
      "id": "pt.ine.add.PTCONT.704885",
      "street": "R REDONDA",
      "house": "76",
      "postcode": "4740-522",
      "city": "ESPOSENDE",
      "lon": "-8.788509120371463",
      "lat": "41.54701948869043"
    },
    {
      "id": "pt.ine.add.PTCONT.710928",
      "street": "R REDONDA",
      "house": "78",
      "postcode": "4740-522",
      "city": "ESPOSENDE",
      "lon": "-8.78843384958378",
      "lat": "41.54668678057329"
    },
    {
      "id": "pt.ine.add.PTCONT.737850",
      "street": "R ARTESAOS",
      "house": "12",
      "postcode": "4740-258",
      "city": "ESPOSENDE",
      "lon": "-8.788876545416459",
      "lat": "41.54661222716083"
    },
    {
      "id": "pt.ine.add.PTCONT.745997",
      "street": "R ARTESAOS",
      "house": "4",
      "postcode": "4740-258",
      "city": "ESPOSENDE",
      "lon": "-8.789735961127993",
      "lat": "41.54626518202313"
    },
    {
      "id": "pt.ine.add.PTCONT.749995",
      "street": "R ARTESAOS",
      "house": "10",
      "postcode": "4740-258",
      "city": "ESPOSENDE",
      "lon": "-8.78913974733534",
      "lat": "41.54656570733552"
    },
    {
      "id": "pt.ine.add.PTCONT.752763",
      "street": "R CÓNEGO MORGADO",
      "house": "9",
      "postcode": "4740-240",
      "city": "ESPOSENDE",
      "lon": "-8.789705018066842",
      "lat": "41.546760562536996"
    },
    {
      "id": "pt.ine.add.PTCONT.796628",
      "street": "R ARTESAOS",
      "house": "6",
      "postcode": "4740-258",
      "city": "ESPOSENDE",
      "lon": "-8.789557288818633",
      "lat": "41.54637424663001"
    },
    {
      "id": "pt.ine.add.PTCONT.813183",
      "street": "R CÓNEGO MORGADO",
      "house": "11",
      "postcode": "4740-240",
      "city": "ESPOSENDE",
      "lon": "-8.78977555815413",
      "lat": "41.54662510414505"
    },
    {
      "id": "pt.ine.add.PTCONT.816020",
      "street": "R CÓNEGO MORGADO",
      "house": "",
      "postcode": "4740-240",
      "city": "ESPOSENDE",
      "lon": "-8.789250883940868",
      "lat": "41.54688920663866"
    }
  ]
}