{
  "data": {
    "distrito": "Vila Real",
    "concelho": "Vila Real",
    "freguesia": "Vila Marim",
    "OBJECTID": 903,
    "BGRI2021": "17142900113",
    "DT21": "17",
    "DTMN21": "1714",
    "DTMNFR21": "171429",
    "DTMNFRSEC21": "171429001",
    "SECNUM21": "001",
    "SSNUM21": "13",
    "SECSSNUM21": "00113",
    "OBJECTID_1": 188177,
    "DT": "17",
    "CC": "14",
    "fr": "29",
    "SEC": "001",
    "SS": "13"
  },
  "addresses": [
    {
      "id": "pt.ine.add.PTCONT.5293923",
      "street": "R CALVÁRIO",
      "house": "",
      "postcode": "5000-773",
      "city": "VILA REAL",
      "lon": "-7.779905992583046",
      "lat": "41.30579655015552"
    },
    {
      "id": "pt.ine.add.PTCONT.5306707",
      "street": "SEM NOME",
      "house": "",
      "postcode": "5000-773",
      "city": "VILA REAL",
      "lon": "-7.779372502413954",
      "lat": "41.30508358537336"
    },
    {
      "id": "pt.ine.add.PTCONT.5309386",
      "street": "R MANUEL AUGUSTO MACEDO",
      "house": "",
      "postcode": "5000-773",
      "city": "VILA REAL",
      "lon": "-7.77983580593084",
      "lat": "41.30552621075519"
    },
    {
      "id": "pt.ine.add.PTCONT.5310671",
      "street": "R RECTA INDEPENDENTE",
      "house": "",
      "postcode": "5000-773",
      "city": "VILA REAL",
      "lon": "-7.780262079497799",
      "lat": "41.30840884044422"
    },
    {
      "id": "pt.ine.add.PTCONT.5312324",
      "street": "R GIESTA",
      "house": "",
      "postcode": "5000-773",
      "city": "VILA REAL",
      "lon": "-7.780795200923018",
      "lat": "41.30697881654841"
    },
    {
      "id": "pt.ine.add.PTCONT.5316915",
      "street": "R CALVÁRIO",
      "house": "",
      "postcode": "5000-773",
      "city": "VILA REAL",
      "lon": "-7.779770561130564",
      "lat": "41.30655248171935"
    },
    {
      "id": "pt.ine.add.PTCONT.5319182",
      "street": "R MANUEL AUGUSTO MACEDO",
      "house": "",
      "postcode": "5000-773",
      "city": "VILA REAL",
      "lon": "-7.779671553108329",
      "lat": "41.30498545847318"
    },
    {
      "id": "pt.ine.add.PTCONT.5321935",
      "street": "R REFONTOURA",
      "house": "",
      "postcode": "5000-773",
      "city": "VILA REAL",
      "lon": "-7.779504579036246",
      "lat": "41.30494892913945"
    },
    {
      "id": "pt.ine.add.PTCONT.5323018",
      "street": "R MANUEL AUGUSTO MACEDO",
      "house": "",
      "postcode": "5000-773",
      "city": "VILA REAL",
      "lon": "-7.779861290967612",
      "lat": "41.30522915252563"
    },
    {
      "id": "pt.ine.add.PTCONT.5327292",
      "street": "R RECTA INDEPENDENTE",
      "house": "",
      "postcode": "5000-773",
      "city": "VILA REAL",
      "lon": "-7.780227178195266",
      "lat": "41.308237654987245"
    },
    {
      "id": "pt.ine.add.PTCONT.5332715",
      "street": "R CALVÁRIO",
      "house": "",
      "postcode": "5000-773",
      "city": "VILA REAL",
      "lon": "-7.779733814762401",
      "lat": "41.30672344743744"
    },
    {
      "id": "pt.ine.add.PTCONT.5342264",
      "street": "R CALVÁRIO",
      "house": "",
      "postcode": "5000-773",
      "city": "VILA REAL",
      "lon": "-7.779715183408919",
      "lat": "41.30575094385973"
    },
    {
      "id": "pt.ine.add.PTCONT.5342265",
      "street": "R MANUEL AUGUSTO MACEDO",
      "house": "",
      "postcode": "5000-773",
      "city": "VILA REAL",
      "lon": "-7.779920314079361",
      "lat": "41.305355391521395"
    },
    {
      "id": "pt.ine.add.PTCONT.5348957",
      "street": "R MANUEL AUGUSTO MACEDO",
      "house": "",
      "postcode": "5000-773",
      "city": "VILA REAL",
      "lon": "-7.779992638252051",
      "lat": "41.305229555519375"
    },
    {
      "id": "pt.ine.add.PTCONT.5353592",
      "street": "LG CAPELA",
      "house": "",
      "postcode": "5000-773",
      "city": "VILA REAL",
      "lon": "-7.779527925226899",
      "lat": "41.30504804633811"
    },
    {
      "id": "pt.ine.add.PTCONT.5376505",
      "street": "LUGAR DO ALTO",
      "house": "",
      "postcode": "5000-773",
      "city": "VILA REAL",
      "lon": "-7.781585236191504",
      "lat": "41.30884508691657"
    },
    {
      "id": "pt.ine.add.PTCONT.5382897",
      "street": "R CAPELA",
      "house": "",
      "postcode": "5000-773",
      "city": "VILA REAL",
      "lon": "-7.779725325468056",
      "lat": "41.30608412794066"
    },
    {
      "id": "pt.ine.add.PTCONT.5401243",
      "street": "LUGAR DA CAPELA",
      "house": "",
      "postcode": "5000-773",
      "city": "VILA REAL",
      "lon": "-7.7795750068819",
      "lat": "41.30517424883394"
    },
    {
      "id": "pt.ine.add.PTCONT.5402300",
      "street": "R RECTA INDEPENDENTE",
      "house": "",
      "postcode": "5000-773",
      "city": "VILA REAL",
      "lon": "-7.779941706643462",
      "lat": "41.30802968450034"
    },
    {
      "id": "pt.ine.add.PTCONT.5403335",
      "street": "R PENADA",
      "house": "",
      "postcode": "5000-773",
      "city": "VILA REAL",
      "lon": "-7.7812263187108535",
      "lat": "41.30897004810425"
    },
    {
      "id": "pt.ine.add.PTCONT.5408586",
      "street": "R REFONTOURA",
      "house": "",
      "postcode": "5000-773",
      "city": "VILA REAL",
      "lon": "-7.779994629834566",
      "lat": "41.3048603920915"
    },
    {
      "id": "pt.ine.add.PTCONT.5421737",
      "street": "R RECTA INDEPENDENTE",
      "house": "",
      "postcode": "5000-773",
      "city": "VILA REAL",
      "lon": "-7.780368434505578",
      "lat": "41.30861626138625"
    },
    {
      "id": "pt.ine.add.PTCONT.5425507",
      "street": "R MANUEL AUGUSTO MACEDO",
      "house": "",
      "postcode": "5000-773",
      "city": "VILA REAL",
      "lon": "-7.779681111429756",
      "lat": "41.30542669042375"
    }
  ]
}