{
  "data": {
    "distrito": "Vila Real",
    "concelho": "Vila Real",
    "freguesia": "Vila Real",
    "OBJECTID": 34,
    "BGRI2021": "17143800702",
    "DT21": "17",
    "DTMN21": "1714",
    "DTMNFR21": "171438",
    "DTMNFRSEC21": "171438007",
    "SECNUM21": "007",
    "SSNUM21": "02",
    "SECSSNUM21": "00702",
    "OBJECTID_1": 188111,
    "DT": "17",
    "CC": "14",
    "fr": "38",
    "SEC": "007",
    "SS": "02"
  },
  "addresses": [
    {
      "id": "pt.ine.add.PTCONT.5297631",
      "street": "R D ANTÓNIO VALENTE DA FONSECA",
      "house": "17",
      "postcode": "5000-539",
      "city": "VILA REAL",
      "lon": "-7.749639963625201",
      "lat": "41.2989466031089"
    },
    {
      "id": "pt.ine.add.PTCONT.5299354",
      "street": "PCT D JOÃO EVANGELISTA",
      "house": "23",
      "postcode": "5000-538",
      "city": "VILA REAL",
      "lon": "-7.748283203456313",
      "lat": "41.29820373594314"
    },
    {
      "id": "pt.ine.add.PTCONT.5299355",
      "street": "PCT D JOÃO EVANGELISTA",
      "house": "23",
      "postcode": "5000-538",
      "city": "VILA REAL",
      "lon": "-7.748283203456313",
      "lat": "41.29820373594314"
    },
    {
      "id": "pt.ine.add.PTCONT.5299356",
      "street": "PCT D JOÃO EVANGELISTA",
      "house": "23",
      "postcode": "5000-538",
      "city": "VILA REAL",
      "lon": "-7.748283203456313",
      "lat": "41.29820373594314"
    },
    {
      "id": "pt.ine.add.PTCONT.5299357",
      "street": "PCT D JOÃO EVANGELISTA",
      "house": "23",
      "postcode": "5000-538",
      "city": "VILA REAL",
      "lon": "-7.748283203456313",
      "lat": "41.29820373594314"
    },
    {
      "id": "pt.ine.add.PTCONT.5299358",
      "street": "PCT D JOÃO EVANGELISTA",
      "house": "23",
      "postcode": "5000-538",
      "city": "VILA REAL",
      "lon": "-7.748283203456313",
      "lat": "41.29820373594314"
    },
    {
      "id": "pt.ine.add.PTCONT.5299359",
      "street": "PCT D JOÃO EVANGELISTA",
      "house": "23",
      "postcode": "5000-538",
      "city": "VILA REAL",
      "lon": "-7.748283203456313",
      "lat": "41.29820373594314"
    },
    {
      "id": "pt.ine.add.PTCONT.5299360",
      "street": "PCT D JOÃO EVANGELISTA",
      "house": "23",
      "postcode": "5000-538",
      "city": "VILA REAL",
      "lon": "-7.748283203456313",
      "lat": "41.29820373594314"
    },
    {
      "id": "pt.ine.add.PTCONT.5299361",
      "street": "PCT D JOÃO EVANGELISTA",
      "house": "23",
      "postcode": "5000-538",
      "city": "VILA REAL",
      "lon": "-7.748283203456313",
      "lat": "41.29820373594314"
    },
    {
      "id": "pt.ine.add.PTCONT.5319521",
      "street": "AV CARVALHO ARAÚJO",
      "house": "77-91",
      "postcode": "5000-657",
      "city": "VILA REAL",
      "lon": "-7.746286225905461",
      "lat": "41.29670235517039"
    },
    {
      "id": "pt.ine.add.PTCONT.5319522",
      "street": "AV CARVALHO ARAÚJO",
      "house": "87",
      "postcode": "5000-657",
      "city": "VILA REAL",
      "lon": "-7.746286225905461",
      "lat": "41.29670235517039"
    },
    {
      "id": "pt.ine.add.PTCONT.5319523",
      "street": "AV CARVALHO ARAÚJO",
      "house": "77",
      "postcode": "5000-657",
      "city": "VILA REAL",
      "lon": "-7.746286225905461",
      "lat": "41.29670235517039"
    },
    {
      "id": "pt.ine.add.PTCONT.5319524",
      "street": "AV CARVALHO ARAÚJO",
      "house": "77 91",
      "postcode": "5000-657",
      "city": "VILA REAL",
      "lon": "-7.746286225905461",
      "lat": "41.29670235517039"
    },
    {
      "id": "pt.ine.add.PTCONT.5319525",
      "street": "AV CARVALHO ARAÚJO",
      "house": "77 A 1",
      "postcode": "5000-657",
      "city": "VILA REAL",
      "lon": "-7.746596428901151",
      "lat": "41.296739413695896"
    },
    {
      "id": "pt.ine.add.PTCONT.5319526",
      "street": "AV CARVALHO ARAÚJO",
      "house": "77 91",
      "postcode": "5000-657",
      "city": "VILA REAL",
      "lon": "-7.746286225905461",
      "lat": "41.29670235517039"
    },
    {
      "id": "pt.ine.add.PTCONT.5319527",
      "street": "AV CARVALHO ARAÚJO",
      "house": "77 91",
      "postcode": "5000-657",
      "city": "VILA REAL",
      "lon": "-7.746286225905461",
      "lat": "41.29670235517039"
    },
    {
      "id": "pt.ine.add.PTCONT.5319528",
      "street": "AV CARVALHO ARAÚJO",
      "house": "89",
      "postcode": "5000-657",
      "city": "VILA REAL",
      "lon": "-7.746286225905461",
      "lat": "41.29670235517039"
    },
    {
      "id": "pt.ine.add.PTCONT.5324046",
      "street": "PCT D JOÃO EVANGELISTA",
      "house": "11",
      "postcode": "5000-538",
      "city": "VILA REAL",
      "lon": "-7.747974528576278",
      "lat": "41.29790556696596"
    },
    {
      "id": "pt.ine.add.PTCONT.5324047",
      "street": "PCT D JOÃO EVANGELISTA",
      "house": "11",
      "postcode": "5000-538",
      "city": "VILA REAL",
      "lon": "-7.747974528576278",
      "lat": "41.29790556696596"
    },
    {
      "id": "pt.ine.add.PTCONT.5324048",
      "street": "PCT D JOÃO EVANGELISTA",
      "house": "11",
      "postcode": "5000-538",
      "city": "VILA REAL",
      "lon": "-7.747974528576278",
      "lat": "41.29790556696596"
    },
    {
      "id": "pt.ine.add.PTCONT.5324049",
      "street": "PCT D JOÃO EVANGELISTA",
      "house": "11",
      "postcode": "5000-538",
      "city": "VILA REAL",
      "lon": "-7.747974528576278",
      "lat": "41.29790556696596"
    },
    {
      "id": "pt.ine.add.PTCONT.5324050",
      "street": "PCT D JOÃO EVANGELISTA",
      "house": "11",
      "postcode": "5000-538",
      "city": "VILA REAL",
      "lon": "-7.747974528576278",
      "lat": "41.29790556696596"
    },
    {
      "id": "pt.ine.add.PTCONT.5324126",
      "street": "PCT D JOÃO EVANGELISTA",
      "house": "11",
      "postcode": "5000-538",
      "city": "VILA REAL",
      "lon": "-7.747974528576278",
      "lat": "41.29790556696596"
    },
    {
      "id": "pt.ine.add.PTCONT.5324127",
      "street": "PCT D JOÃO EVANGELISTA",
      "house": "11",
      "postcode": "5000-538",
      "city": "VILA REAL",
      "lon": "-7.747974528576278",
      "lat": "41.29790556696596"
    },
    {
      "id": "pt.ine.add.PTCONT.5324750",
      "street": "PCT D JOÃO EVANGELISTA",
      "house": "11",
      "postcode": "5000-538",
      "city": "VILA REAL",
      "lon": "-7.747974528576278",
      "lat": "41.29790556696596"
    },
    {
      "id": "pt.ine.add.PTCONT.5337526",
      "street": "AV CARVALHO ARAÚJO",
      "house": "77B",
      "postcode": "5000-657",
      "city": "VILA REAL",
      "lon": "-7.746703508547907",
      "lat": "41.29680280218015"
    },
    {
      "id": "pt.ine.add.PTCONT.5337813",
      "street": "AV CIDADE ORENSE",
      "house": "TORRE NO",
      "postcode": "5000-677",
      "city": "VILA REAL",
      "lon": "-7.750712412844645",
      "lat": "41.299310336250464"
    },
    {
      "id": "pt.ine.add.PTCONT.5337814",
      "street": "AV CIDADE DE ORENSE",
      "house": "",
      "postcode": "5000-677",
      "city": "VILA REAL",
      "lon": "-7.750712412844645",
      "lat": "41.299310336250464"
    },
    {
      "id": "pt.ine.add.PTCONT.5337815",
      "street": "AV CIDADE DE ORENSE",
      "house": "",
      "postcode": "5000-677",
      "city": "VILA REAL",
      "lon": "-7.750712412844645",
      "lat": "41.299310336250464"
    },
    {
      "id": "pt.ine.add.PTCONT.5337816",
      "street": "AV CIDADE DE ORENSE",
      "house": "",
      "postcode": "5000-677",
      "city": "VILA REAL",
      "lon": "-7.750712412844645",
      "lat": "41.299310336250464"
    },
    {
      "id": "pt.ine.add.PTCONT.5337817",
      "street": "AV CIDADE DE ORENSE",
      "house": "",
      "postcode": "5000-677",
      "city": "VILA REAL",
      "lon": "-7.750712412844645",
      "lat": "41.299310336250464"
    },
    {
      "id": "pt.ine.add.PTCONT.5337818",
      "street": "AV CIDADE DE ORENSE",
      "house": "",
      "postcode": "5000-677",
      "city": "VILA REAL",
      "lon": "-7.750712412844645",
      "lat": "41.299310336250464"
    },
    {
      "id": "pt.ine.add.PTCONT.5337819",
      "street": "AV CIDADE ORENSE",
      "house": "1 TN",
      "postcode": "5000-677",
      "city": "VILA REAL",
      "lon": "-7.750712412844645",
      "lat": "41.299310336250464"
    },
    {
      "id": "pt.ine.add.PTCONT.5337820",
      "street": "AV CIDADE DE ORENSE",
      "house": "",
      "postcode": "5000-677",
      "city": "VILA REAL",
      "lon": "-7.750712412844645",
      "lat": "41.299310336250464"
    },
    {
      "id": "pt.ine.add.PTCONT.5337821",
      "street": "AV CIDADE ORENSE",
      "house": "TORRE N",
      "postcode": "5000-677",
      "city": "VILA REAL",
      "lon": "-7.750712412844645",
      "lat": "41.299310336250464"
    },
    {
      "id": "pt.ine.add.PTCONT.5337822",
      "street": "AV CIDADE DE ORENSE",
      "house": "",
      "postcode": "5000-677",
      "city": "VILA REAL",
      "lon": "-7.750712412844645",
      "lat": "41.299310336250464"
    },
    {
      "id": "pt.ine.add.PTCONT.5337824",
      "street": "AV CIDADE DE ORENSE",
      "house": "",
      "postcode": "5000-677",
      "city": "VILA REAL",
      "lon": "-7.750712412844645",
      "lat": "41.299310336250464"
    },
    {
      "id": "pt.ine.add.PTCONT.5337825",
      "street": "AV CIDADE DE ORENSE",
      "house": "",
      "postcode": "5000-677",
      "city": "VILA REAL",
      "lon": "-7.750712412844645",
      "lat": "41.299310336250464"
    },
    {
      "id": "pt.ine.add.PTCONT.5337826",
      "street": "AV CIDADE DE ORENSE",
      "house": "",
      "postcode": "5000-677",
      "city": "VILA REAL",
      "lon": "-7.750712412844645",
      "lat": "41.299310336250464"
    },
    {
      "id": "pt.ine.add.PTCONT.5337827",
      "street": "AV CIDADE DE ORENSE",
      "house": "",
      "postcode": "5000-677",
      "city": "VILA REAL",
      "lon": "-7.750712412844645",
      "lat": "41.299310336250464"
    },
    {
      "id": "pt.ine.add.PTCONT.5337828",
      "street": "AV CIDADE ORENSE",
      "house": "1",
      "postcode": "5000-677",
      "city": "VILA REAL",
      "lon": "-7.750712412844645",
      "lat": "41.299310336250464"
    },
    {
      "id": "pt.ine.add.PTCONT.5337829",
      "street": "AV CIDADE DE ORENSE",
      "house": "",
      "postcode": "5000-677",
      "city": "VILA REAL",
      "lon": "-7.750712412844645",
      "lat": "41.299310336250464"
    },
    {
      "id": "pt.ine.add.PTCONT.5337830",
      "street": "AV CIDADE ORENSE",
      "house": "1",
      "postcode": "5000-677",
      "city": "VILA REAL",
      "lon": "-7.750712412844645",
      "lat": "41.299310336250464"
    },
    {
      "id": "pt.ine.add.PTCONT.5337831",
      "street": "AV CIDADE DE ORENSE",
      "house": "",
      "postcode": "5000-677",
      "city": "VILA REAL",
      "lon": "-7.750712412844645",
      "lat": "41.299310336250464"
    },
    {
      "id": "pt.ine.add.PTCONT.5337832",
      "street": "AV CIDADE DE ORENSE",
      "house": "",
      "postcode": "5000-677",
      "city": "VILA REAL",
      "lon": "-7.750712412844645",
      "lat": "41.299310336250464"
    },
    {
      "id": "pt.ine.add.PTCONT.5337833",
      "street": "AV CIDADE DE ORENSE",
      "house": "",
      "postcode": "5000-677",
      "city": "VILA REAL",
      "lon": "-7.750712412844645",
      "lat": "41.299310336250464"
    },
    {
      "id": "pt.ine.add.PTCONT.5337834",
      "street": "AV CIDADE DE ORENSE",
      "house": "",
      "postcode": "5000-677",
      "city": "VILA REAL",
      "lon": "-7.750712412844645",
      "lat": "41.299310336250464"
    },
    {
      "id": "pt.ine.add.PTCONT.5337835",
      "street": "AV CIDADE DE ORENSE",
      "house": "",
      "postcode": "5000-677",
      "city": "VILA REAL",
      "lon": "-7.750712412844645",
      "lat": "41.299310336250464"
    },
    {
      "id": "pt.ine.add.PTCONT.5340781",
      "street": "AV CARVALHO ARAÚJO",
      "house": "77B",
      "postcode": "5000-657",
      "city": "VILA REAL",
      "lon": "-7.746751689930401",
      "lat": "41.29673093074977"
    },
    {
      "id": "pt.ine.add.PTCONT.5345388",
      "street": "R A VOZ DE TRAS-OS-MONTES",
      "house": "15",
      "postcode": "5000-536",
      "city": "VILA REAL",
      "lon": "-7.747559251814006",
      "lat": "41.29746297388321"
    },
    {
      "id": "pt.ine.add.PTCONT.5345389",
      "street": "R A VOZ DE TRAS-OS-MONTES",
      "house": "15",
      "postcode": "5000-536",
      "city": "VILA REAL",
      "lon": "-7.747559251814006",
      "lat": "41.29746297388321"
    },
    {
      "id": "pt.ine.add.PTCONT.5345390",
      "street": "R A VOZ DE TRAS-OS-MONTES",
      "house": "15",
      "postcode": "5000-536",
      "city": "VILA REAL",
      "lon": "-7.747559251814006",
      "lat": "41.29746297388321"
    },
    {
      "id": "pt.ine.add.PTCONT.5345391",
      "street": "R A VOZ DE TRAS-OS-MONTES",
      "house": "15",
      "postcode": "5000-536",
      "city": "VILA REAL",
      "lon": "-7.747559251814006",
      "lat": "41.29746297388321"
    },
    {
      "id": "pt.ine.add.PTCONT.5345392",
      "street": "R A VOZ DE TRAS-OS-MONTES",
      "house": "15",
      "postcode": "5000-536",
      "city": "VILA REAL",
      "lon": "-7.747559251814006",
      "lat": "41.29746297388321"
    },
    {
      "id": "pt.ine.add.PTCONT.5345393",
      "street": "R A VOZ DE TRAS-OS-MONTES",
      "house": "15",
      "postcode": "5000-536",
      "city": "VILA REAL",
      "lon": "-7.747559251814006",
      "lat": "41.29746297388321"
    },
    {
      "id": "pt.ine.add.PTCONT.5345394",
      "street": "R A VOZ DE TRAS-OS-MONTES",
      "house": "15",
      "postcode": "5000-536",
      "city": "VILA REAL",
      "lon": "-7.747559251814006",
      "lat": "41.29746297388321"
    },
    {
      "id": "pt.ine.add.PTCONT.5345923",
      "street": "R A VOZ DE TRAS-OS-MONTES",
      "house": "15",
      "postcode": "5000-536",
      "city": "VILA REAL",
      "lon": "-7.747559251814006",
      "lat": "41.29746297388321"
    },
    {
      "id": "pt.ine.add.PTCONT.5360018",
      "street": "AV CARVALHO ARAÚJO",
      "house": "77B",
      "postcode": "5000-657",
      "city": "VILA REAL",
      "lon": "-7.7466800555258315",
      "lat": "41.29673069030547"
    },
    {
      "id": "pt.ine.add.PTCONT.5387122",
      "street": "AV CIDADE DE ORENSE",
      "house": "",
      "postcode": "5000-677",
      "city": "VILA REAL",
      "lon": "-7.750952622820455",
      "lat": "41.29906802215539"
    },
    {
      "id": "pt.ine.add.PTCONT.5387123",
      "street": "AV CIDADE DE ORENSE",
      "house": "",
      "postcode": "5000-677",
      "city": "VILA REAL",
      "lon": "-7.750952622820455",
      "lat": "41.29906802215539"
    },
    {
      "id": "pt.ine.add.PTCONT.5387126",
      "street": "AV CIDADE ORENSE",
      "house": "2",
      "postcode": "5000-677",
      "city": "VILA REAL",
      "lon": "-7.750952622820455",
      "lat": "41.29906802215539"
    },
    {
      "id": "pt.ine.add.PTCONT.5387127",
      "street": "AV CIDADE DE ORENSE",
      "house": "",
      "postcode": "5000-677",
      "city": "VILA REAL",
      "lon": "-7.750952622820455",
      "lat": "41.29906802215539"
    },
    {
      "id": "pt.ine.add.PTCONT.5387128",
      "street": "AV CIDADE DE ORENSE",
      "house": "",
      "postcode": "5000-677",
      "city": "VILA REAL",
      "lon": "-7.750952622820455",
      "lat": "41.29906802215539"
    },
    {
      "id": "pt.ine.add.PTCONT.5387129",
      "street": "AV CIDADE DE ORENSE",
      "house": "",
      "postcode": "5000-677",
      "city": "VILA REAL",
      "lon": "-7.750952622820455",
      "lat": "41.29906802215539"
    },
    {
      "id": "pt.ine.add.PTCONT.5387130",
      "street": "AV CIDADE DE ORENSE",
      "house": "",
      "postcode": "5000-677",
      "city": "VILA REAL",
      "lon": "-7.750952622820455",
      "lat": "41.29906802215539"
    },
    {
      "id": "pt.ine.add.PTCONT.5387131",
      "street": "AV CIDADE DE ORENSE",
      "house": "",
      "postcode": "5000-677",
      "city": "VILA REAL",
      "lon": "-7.750952622820455",
      "lat": "41.29906802215539"
    },
    {
      "id": "pt.ine.add.PTCONT.5387132",
      "street": "AV CIDADE ORENSE",
      "house": "VILA REA",
      "postcode": "5000-677",
      "city": "VILA REAL",
      "lon": "-7.750952622820455",
      "lat": "41.29906802215539"
    },
    {
      "id": "pt.ine.add.PTCONT.5387133",
      "street": "AV CIDADE ORENSE",
      "house": "TORRE SU",
      "postcode": "5000-677",
      "city": "VILA REAL",
      "lon": "-7.750952622820455",
      "lat": "41.29906802215539"
    },
    {
      "id": "pt.ine.add.PTCONT.5387134",
      "street": "AV CIDADE ORENSE T SUL",
      "house": "T SUL",
      "postcode": "5000-677",
      "city": "VILA REAL",
      "lon": "-7.750952622820455",
      "lat": "41.29906802215539"
    },
    {
      "id": "pt.ine.add.PTCONT.5387135",
      "street": "AV CIDADE DE ORENSE",
      "house": "",
      "postcode": "5000-677",
      "city": "VILA REAL",
      "lon": "-7.750952622820455",
      "lat": "41.29906802215539"
    },
    {
      "id": "pt.ine.add.PTCONT.5387136",
      "street": "AV CIDADE DE ORENSE",
      "house": "",
      "postcode": "5000-677",
      "city": "VILA REAL",
      "lon": "-7.750952622820455",
      "lat": "41.29906802215539"
    },
    {
      "id": "pt.ine.add.PTCONT.5387137",
      "street": "AV CIDADE DE ORENSE",
      "house": "",
      "postcode": "5000-677",
      "city": "VILA REAL",
      "lon": "-7.750952622820455",
      "lat": "41.29906802215539"
    },
    {
      "id": "pt.ine.add.PTCONT.5387138",
      "street": "AV CIDADE DE ORENSE",
      "house": "",
      "postcode": "5000-677",
      "city": "VILA REAL",
      "lon": "-7.750952622820455",
      "lat": "41.29906802215539"
    },
    {
      "id": "pt.ine.add.PTCONT.5387139",
      "street": "AV CIDADE DE ORENSE",
      "house": "",
      "postcode": "5000-677",
      "city": "VILA REAL",
      "lon": "-7.750952622820455",
      "lat": "41.29906802215539"
    },
    {
      "id": "pt.ine.add.PTCONT.5387140",
      "street": "AV CIDADE DE ORENSE",
      "house": "",
      "postcode": "5000-677",
      "city": "VILA REAL",
      "lon": "-7.750952622820455",
      "lat": "41.29906802215539"
    },
    {
      "id": "pt.ine.add.PTCONT.5387143",
      "street": "AV CIDADE DE ORENSE",
      "house": "",
      "postcode": "5000-677",
      "city": "VILA REAL",
      "lon": "-7.750952622820455",
      "lat": "41.29906802215539"
    },
    {
      "id": "pt.ine.add.PTCONT.5387144",
      "street": "AV CIDADE DE ORENSE",
      "house": "",
      "postcode": "5000-677",
      "city": "VILA REAL",
      "lon": "-7.750952622820455",
      "lat": "41.29906802215539"
    },
    {
      "id": "pt.ine.add.PTCONT.5387145",
      "street": "AV CIDADE DE ORENSE",
      "house": "",
      "postcode": "5000-677",
      "city": "VILA REAL",
      "lon": "-7.750952622820455",
      "lat": "41.29906802215539"
    },
    {
      "id": "pt.ine.add.PTCONT.5387146",
      "street": "AV CIDADE ORENSE",
      "house": "TORRE SU",
      "postcode": "5000-677",
      "city": "VILA REAL",
      "lon": "-7.750952622820455",
      "lat": "41.29906802215539"
    },
    {
      "id": "pt.ine.add.PTCONT.5387900",
      "street": "AV CIDADE DE ORENSE",
      "house": "",
      "postcode": "5000-677",
      "city": "VILA REAL",
      "lon": "-7.750952622820455",
      "lat": "41.29906802215539"
    },
    {
      "id": "pt.ine.add.PTCONT.5387912",
      "street": "AV CIDADE DE ORENSE",
      "house": "",
      "postcode": "5000-677",
      "city": "VILA REAL",
      "lon": "-7.750952622820455",
      "lat": "41.29906802215539"
    },
    {
      "id": "pt.ine.add.PTCONT.5390424",
      "street": "R A VOZ DE TRAS-OS-MONTES",
      "house": "11",
      "postcode": "5000-536",
      "city": "VILA REAL",
      "lon": "-7.747346362149016",
      "lat": "41.29712010324138"
    },
    {
      "id": "pt.ine.add.PTCONT.5390425",
      "street": "R A VOZ DE TRAS-OS-MONTES",
      "house": "11",
      "postcode": "5000-536",
      "city": "VILA REAL",
      "lon": "-7.747346362149016",
      "lat": "41.29712010324138"
    },
    {
      "id": "pt.ine.add.PTCONT.5390426",
      "street": "R A VOZ DE TRAS-OS-MONTES",
      "house": "11",
      "postcode": "5000-536",
      "city": "VILA REAL",
      "lon": "-7.747346362149016",
      "lat": "41.29712010324138"
    },
    {
      "id": "pt.ine.add.PTCONT.5390428",
      "street": "R A VOZ DE TRAS-OS-MONTES",
      "house": "11",
      "postcode": "5000-536",
      "city": "VILA REAL",
      "lon": "-7.747346362149016",
      "lat": "41.29712010324138"
    },
    {
      "id": "pt.ine.add.PTCONT.5390429",
      "street": "R A VOZ DE TRAS-OS-MONTES",
      "house": "11",
      "postcode": "5000-536",
      "city": "VILA REAL",
      "lon": "-7.747346362149016",
      "lat": "41.29712010324138"
    },
    {
      "id": "pt.ine.add.PTCONT.5390430",
      "street": "R A VOZ DE TRAS-OS-MONTES",
      "house": "11",
      "postcode": "5000-536",
      "city": "VILA REAL",
      "lon": "-7.747346362149016",
      "lat": "41.29712010324138"
    },
    {
      "id": "pt.ine.add.PTCONT.5390431",
      "street": "R A VOZ DE TRAS-OS-MONTES",
      "house": "11",
      "postcode": "5000-536",
      "city": "VILA REAL",
      "lon": "-7.747346362149016",
      "lat": "41.29712010324138"
    },
    {
      "id": "pt.ine.add.PTCONT.5410114",
      "street": "R A VOZ DE TRAS-OS-MONTES",
      "house": "13",
      "postcode": "5000-536",
      "city": "VILA REAL",
      "lon": "-7.747416617897681",
      "lat": "41.29735444636867"
    },
    {
      "id": "pt.ine.add.PTCONT.5410115",
      "street": "R A VOZ DE TRAS-OS-MONTES",
      "house": "13",
      "postcode": "5000-536",
      "city": "VILA REAL",
      "lon": "-7.747416617897681",
      "lat": "41.29735444636867"
    },
    {
      "id": "pt.ine.add.PTCONT.5410116",
      "street": "R A VOZ DE TRAS-OS-MONTES",
      "house": "13",
      "postcode": "5000-536",
      "city": "VILA REAL",
      "lon": "-7.747416617897681",
      "lat": "41.29735444636867"
    },
    {
      "id": "pt.ine.add.PTCONT.5410117",
      "street": "R A VOZ DE TRAS-OS-MONTES",
      "house": "13",
      "postcode": "5000-536",
      "city": "VILA REAL",
      "lon": "-7.747416617897681",
      "lat": "41.29735444636867"
    },
    {
      "id": "pt.ine.add.PTCONT.5410118",
      "street": "R A VOZ DE TRAS-OS-MONTES",
      "house": "13",
      "postcode": "5000-536",
      "city": "VILA REAL",
      "lon": "-7.747416617897681",
      "lat": "41.29735444636867"
    },
    {
      "id": "pt.ine.add.PTCONT.5410119",
      "street": "R A VOZ DE TRAS-OS-MONTES",
      "house": "13",
      "postcode": "5000-536",
      "city": "VILA REAL",
      "lon": "-7.747416617897681",
      "lat": "41.29735444636867"
    },
    {
      "id": "pt.ine.add.PTCONT.5410120",
      "street": "R A VOZ DE TRAS-OS-MONTES",
      "house": "13",
      "postcode": "5000-536",
      "city": "VILA REAL",
      "lon": "-7.747416617897681",
      "lat": "41.29735444636867"
    },
    {
      "id": "pt.ine.add.PTCONT.5410177",
      "street": "R A VOZ DE TRAS-OS-MONTES",
      "house": "13",
      "postcode": "5000-536",
      "city": "VILA REAL",
      "lon": "-7.747416617897681",
      "lat": "41.29735444636867"
    },
    {
      "id": "pt.ine.add.PTCONT.5410451",
      "street": "R A VOZ DE TRAS-OS-MONTES",
      "house": "13",
      "postcode": "5000-536",
      "city": "VILA REAL",
      "lon": "-7.747416617897681",
      "lat": "41.29735444636867"
    },
    {
      "id": "pt.ine.add.PTCONT.5413025",
      "street": "PCT D JOÃO EVANGELISTA",
      "house": "15",
      "postcode": "5000-538",
      "city": "VILA REAL",
      "lon": "-7.748116952828106",
      "lat": "41.2980501096469"
    },
    {
      "id": "pt.ine.add.PTCONT.5413026",
      "street": "PCT D JOÃO EVANGELISTA",
      "house": "15",
      "postcode": "5000-538",
      "city": "VILA REAL",
      "lon": "-7.748116952828106",
      "lat": "41.2980501096469"
    },
    {
      "id": "pt.ine.add.PTCONT.5413028",
      "street": "PCT D JOÃO EVANGELISTA",
      "house": "15",
      "postcode": "5000-538",
      "city": "VILA REAL",
      "lon": "-7.748116952828106",
      "lat": "41.2980501096469"
    },
    {
      "id": "pt.ine.add.PTCONT.5413029",
      "street": "PCT D JOÃO EVANGELISTA",
      "house": "15",
      "postcode": "5000-538",
      "city": "VILA REAL",
      "lon": "-7.748116952828106",
      "lat": "41.2980501096469"
    },
    {
      "id": "pt.ine.add.PTCONT.5413030",
      "street": "PCT D JOÃO EVANGELISTA",
      "house": "15",
      "postcode": "5000-538",
      "city": "VILA REAL",
      "lon": "-7.748116952828106",
      "lat": "41.2980501096469"
    },
    {
      "id": "pt.ine.add.PTCONT.5413031",
      "street": "PCT D JOÃO EVANGELISTA",
      "house": "15",
      "postcode": "5000-538",
      "city": "VILA REAL",
      "lon": "-7.748116952828106",
      "lat": "41.2980501096469"
    },
    {
      "id": "pt.ine.add.PTCONT.5413032",
      "street": "PCT D JOÃO EVANGELISTA",
      "house": "15",
      "postcode": "5000-538",
      "city": "VILA REAL",
      "lon": "-7.748116952828106",
      "lat": "41.2980501096469"
    },
    {
      "id": "pt.ine.add.PTCONT.5413037",
      "street": "R A VOZ DE TRAS-OS-MONTES",
      "house": "7",
      "postcode": "5000-536",
      "city": "VILA REAL",
      "lon": "-7.74726358411468",
      "lat": "41.296984763667986"
    },
    {
      "id": "pt.ine.add.PTCONT.5413038",
      "street": "R A VOZ DE TRAS-OS-MONTES",
      "house": "7",
      "postcode": "5000-536",
      "city": "VILA REAL",
      "lon": "-7.74726358411468",
      "lat": "41.296984763667986"
    },
    {
      "id": "pt.ine.add.PTCONT.5413039",
      "street": "R A VOZ DE TRAS-OS-MONTES",
      "house": "7",
      "postcode": "5000-536",
      "city": "VILA REAL",
      "lon": "-7.74726358411468",
      "lat": "41.296984763667986"
    },
    {
      "id": "pt.ine.add.PTCONT.5413040",
      "street": "R A VOZ DE TRAS-OS-MONTES",
      "house": "7",
      "postcode": "5000-536",
      "city": "VILA REAL",
      "lon": "-7.74726358411468",
      "lat": "41.296984763667986"
    },
    {
      "id": "pt.ine.add.PTCONT.5413041",
      "street": "R A VOZ DE TRAS-OS-MONTES",
      "house": "7",
      "postcode": "5000-536",
      "city": "VILA REAL",
      "lon": "-7.74726358411468",
      "lat": "41.296984763667986"
    },
    {
      "id": "pt.ine.add.PTCONT.5413042",
      "street": "R A VOZ DE TRAS-OS-MONTES",
      "house": "7",
      "postcode": "5000-536",
      "city": "VILA REAL",
      "lon": "-7.74726358411468",
      "lat": "41.296984763667986"
    },
    {
      "id": "pt.ine.add.PTCONT.5413043",
      "street": "R A VOZ DE TRAS-OS-MONTES",
      "house": "7",
      "postcode": "5000-536",
      "city": "VILA REAL",
      "lon": "-7.74726358411468",
      "lat": "41.296984763667986"
    },
    {
      "id": "pt.ine.add.PTCONT.5413819",
      "street": "PCT D JOÃO EVANGELISTA",
      "house": "15",
      "postcode": "5000-538",
      "city": "VILA REAL",
      "lon": "-7.748116952828106",
      "lat": "41.2980501096469"
    },
    {
      "id": "pt.ine.add.PTCONT.5413833",
      "street": "R A VOZ DE TRAS-OS-MONTES",
      "house": "7",
      "postcode": "5000-536",
      "city": "VILA REAL",
      "lon": "-7.74726358411468",
      "lat": "41.296984763667986"
    },
    {
      "id": "pt.ine.add.PTCONT.5421710",
      "street": "PCT D JOÃO EVANGELISTA",
      "house": "3",
      "postcode": "5000-538",
      "city": "VILA REAL",
      "lon": "-7.747843991224982",
      "lat": "41.297770068031184"
    },
    {
      "id": "pt.ine.add.PTCONT.5421711",
      "street": "PCT D JOÃO EVANGELISTA",
      "house": "3",
      "postcode": "5000-538",
      "city": "VILA REAL",
      "lon": "-7.747843991224982",
      "lat": "41.297770068031184"
    },
    {
      "id": "pt.ine.add.PTCONT.5421712",
      "street": "PCT D JOÃO EVANGELISTA",
      "house": "3",
      "postcode": "5000-538",
      "city": "VILA REAL",
      "lon": "-7.747843991224982",
      "lat": "41.297770068031184"
    },
    {
      "id": "pt.ine.add.PTCONT.5421713",
      "street": "PCT D JOÃO EVANGELISTA",
      "house": "3",
      "postcode": "5000-538",
      "city": "VILA REAL",
      "lon": "-7.747843991224982",
      "lat": "41.297770068031184"
    },
    {
      "id": "pt.ine.add.PTCONT.5421714",
      "street": "PCT D JOÃO EVANGELISTA",
      "house": "3",
      "postcode": "5000-538",
      "city": "VILA REAL",
      "lon": "-7.747843991224982",
      "lat": "41.297770068031184"
    },
    {
      "id": "pt.ine.add.PTCONT.5421715",
      "street": "PCT D JOÃO EVANGELISTA",
      "house": "3",
      "postcode": "5000-538",
      "city": "VILA REAL",
      "lon": "-7.747843991224982",
      "lat": "41.297770068031184"
    },
    {
      "id": "pt.ine.add.PTCONT.5421716",
      "street": "PCT D JOÃO EVANGELISTA",
      "house": "3",
      "postcode": "5000-538",
      "city": "VILA REAL",
      "lon": "-7.747843991224982",
      "lat": "41.297770068031184"
    },
    {
      "id": "pt.ine.add.PTCONT.5422432",
      "street": "PCT D JOÃO EVANGELISTA",
      "house": "3",
      "postcode": "5000-538",
      "city": "VILA REAL",
      "lon": "-7.747843991224982",
      "lat": "41.297770068031184"
    },
    {
      "id": "pt.ine.add.PTCONT.5423669",
      "street": "AV CIDADE ORENSE T NORTE",
      "house": "T NORTE",
      "postcode": "5000-677",
      "city": "VILA REAL",
      "lon": "-7.750712412844645",
      "lat": "41.299310336250464"
    },
    {
      "id": "pt.ine.add.PTCONT.5425202",
      "street": "AV CIDADE ORENSE",
      "house": "ENT 2",
      "postcode": "5000-677",
      "city": "VILA REAL",
      "lon": "-7.750952622820455",
      "lat": "41.29906802215539"
    }
  ]
}