{
  "data": {
    "distrito": "Coimbra",
    "concelho": "Lousã",
    "freguesia": "Gândaras",
    "OBJECTID": 305,
    "BGRI2021": "06070600114",
    "DT21": "06",
    "DTMN21": "0607",
    "DTMNFR21": "060706",
    "DTMNFRSEC21": "060706001",
    "SECNUM21": "001",
    "SSNUM21": "14",
    "SECSSNUM21": "00114",
    "OBJECTID_1": 52728,
    "DT": "06",
    "CC": "07",
    "fr": "06",
    "SEC": "001",
    "SS": "14"
  },
  "addresses": [
    {
      "id": "pt.ine.add.PTCONT.1103078",
      "street": "R ANTIGA",
      "house": "",
      "postcode": "3200-083",
      "city": "GÂNDARAS",
      "lon": "-8.273535321957125",
      "lat": "40.12334572893434"
    },
    {
      "id": "pt.ine.add.PTCONT.1106006",
      "street": "R ANTIGA",
      "house": "4",
      "postcode": "3200-083",
      "city": "GÂNDARAS",
      "lon": "-8.272994194256727",
      "lat": "40.12262590357871"
    },
    {
      "id": "pt.ine.add.PTCONT.1121637",
      "street": "BC PINHEIRO MANSO",
      "house": "",
      "postcode": "3200-083",
      "city": "GÂNDARAS",
      "lon": "-8.272606928505642",
      "lat": "40.122563328658835"
    },
    {
      "id": "pt.ine.add.PTCONT.1123979",
      "street": "R ANTIGA",
      "house": "",
      "postcode": "3200-083",
      "city": "GÂNDARAS",
      "lon": "-8.272900730238131",
      "lat": "40.12281514249397"
    },
    {
      "id": "pt.ine.add.PTCONT.1129894",
      "street": "R ANTIGA",
      "house": "",
      "postcode": "3200-083",
      "city": "GÂNDARAS",
      "lon": "-8.272936367403052",
      "lat": "40.12303124353967"
    },
    {
      "id": "pt.ine.add.PTCONT.1144313",
      "street": "R ESPINHEIRO",
      "house": "24",
      "postcode": "3200-083",
      "city": "GÂNDARAS",
      "lon": "-8.274087932314632",
      "lat": "40.123939453675256"
    },
    {
      "id": "pt.ine.add.PTCONT.1144314",
      "street": "BC PINHEIRO MANSO",
      "house": "",
      "postcode": "3200-083",
      "city": "GÂNDARAS",
      "lon": "-8.272571403041988",
      "lat": "40.12240126338089"
    },
    {
      "id": "pt.ine.add.PTCONT.1154301",
      "street": "R ANTIGA",
      "house": "",
      "postcode": "3200-083",
      "city": "GÂNDARAS",
      "lon": "-8.273030182405087",
      "lat": "40.12301311823063"
    },
    {
      "id": "pt.ine.add.PTCONT.1167254",
      "street": "R ANTIGA",
      "house": "",
      "postcode": "3200-083",
      "city": "GÂNDARAS",
      "lon": "-8.272982296731245",
      "lat": "40.12254486391877"
    },
    {
      "id": "pt.ine.add.PTCONT.1170233",
      "street": "LG VENDA",
      "house": "",
      "postcode": "3200-083",
      "city": "GÂNDARAS",
      "lon": "-8.273462562172085",
      "lat": "40.122193048754625"
    },
    {
      "id": "pt.ine.add.PTCONT.1170232",
      "street": "LG VENDA",
      "house": "",
      "postcode": "3200-083",
      "city": "GÂNDARAS",
      "lon": "-8.272747613308104",
      "lat": "40.12251812910396"
    },
    {
      "id": "pt.ine.add.PTCONT.1180701",
      "street": "R ANTIGA",
      "house": "",
      "postcode": "3200-083",
      "city": "GÂNDARAS",
      "lon": "-8.272900840910696",
      "lat": "40.12286917837766"
    },
    {
      "id": "pt.ine.add.PTCONT.1182430",
      "street": "R ANTIGA",
      "house": "",
      "postcode": "3200-083",
      "city": "GÂNDARAS",
      "lon": "-8.273253487497955",
      "lat": "40.12321098028472"
    },
    {
      "id": "pt.ine.add.PTCONT.1185863",
      "street": "R ESPINHEIRO",
      "house": "",
      "postcode": "3200-083",
      "city": "GÂNDARAS",
      "lon": "-8.273852612231503",
      "lat": "40.12360651783644"
    },
    {
      "id": "pt.ine.add.PTCONT.1189173",
      "street": "BC PINHEIRO MANSO",
      "house": "",
      "postcode": "3200-083",
      "city": "GÂNDARAS",
      "lon": "-8.272407329101757",
      "lat": "40.12248251487048"
    },
    {
      "id": "pt.ine.add.PTCONT.1195793",
      "street": "R ANTIGA",
      "house": "",
      "postcode": "3200-083",
      "city": "GÂNDARAS",
      "lon": "-8.27312420058237",
      "lat": "40.12309405862799"
    },
    {
      "id": "pt.ine.add.PTCONT.1195794",
      "street": "R ANTIGA",
      "house": "",
      "postcode": "3200-083",
      "city": "GÂNDARAS",
      "lon": "-8.27312420058237",
      "lat": "40.12309405862799"
    },
    {
      "id": "pt.ine.add.PTCONT.1202341",
      "street": "R ANTIGA",
      "house": "",
      "postcode": "3200-083",
      "city": "GÂNDARAS",
      "lon": "-8.272924008661178",
      "lat": "40.12272505436413"
    },
    {
      "id": "pt.ine.add.PTCONT.1218923",
      "street": "R ESPINHEIRO",
      "house": "",
      "postcode": "3200-083",
      "city": "GÂNDARAS",
      "lon": "-8.273746693891642",
      "lat": "40.12344453847333"
    },
    {
      "id": "pt.ine.add.PTCONT.1218924",
      "street": "LG VENDA",
      "house": "",
      "postcode": "3200-083",
      "city": "GÂNDARAS",
      "lon": "-8.273005519578476",
      "lat": "40.12242775782507"
    },
    {
      "id": "pt.ine.add.PTCONT.1255518",
      "street": "R ESPINHEIRO",
      "house": "",
      "postcode": "3200-083",
      "city": "GÂNDARAS",
      "lon": "-8.274593102546781",
      "lat": "40.12428106566915"
    },
    {
      "id": "pt.ine.add.PTCONT.1265856",
      "street": "LG VENDA",
      "house": "",
      "postcode": "3200-083",
      "city": "GÂNDARAS",
      "lon": "-8.273216314811284",
      "lat": "40.1222473829355"
    },
    {
      "id": "pt.ine.add.PTCONT.1269704",
      "street": "R ESPINHEIRO",
      "house": "",
      "postcode": "3200-083",
      "city": "GÂNDARAS",
      "lon": "-8.274193796384338",
      "lat": "40.124074414775194"
    },
    {
      "id": "pt.ine.add.PTCONT.1300281",
      "street": "R ESPINHEIRO",
      "house": "",
      "postcode": "3200-083",
      "city": "GÂNDARAS",
      "lon": "-8.27461693941376",
      "lat": "40.124461156554155"
    },
    {
      "id": "pt.ine.add.PTCONT.1306119",
      "street": "VLA VIELA DA ALAGOA",
      "house": "",
      "postcode": "3200-083",
      "city": "GÂNDARAS",
      "lon": "-8.272651313279681",
      "lat": "40.12132044659605"
    },
    {
      "id": "pt.ine.add.PTCONT.1335593",
      "street": "BC PINHEIRO MANSO",
      "house": "",
      "postcode": "3200-083",
      "city": "GÂNDARAS",
      "lon": "-8.27245445693878",
      "lat": "40.12258152421472"
    },
    {
      "id": "pt.ine.add.PTCONT.1342760",
      "street": "R RIO",
      "house": "",
      "postcode": "3200-083",
      "city": "GÂNDARAS",
      "lon": "-8.272978458065399",
      "lat": "40.1206716195565"
    },
    {
      "id": "pt.ine.add.PTCONT.1354492",
      "street": "LG VENDA",
      "house": "",
      "postcode": "3200-083",
      "city": "GÂNDARAS",
      "lon": "-8.273321823013271",
      "lat": "40.122211231234324"
    },
    {
      "id": "pt.ine.add.PTCONT.1357378",
      "street": "R ANTIGA",
      "house": "",
      "postcode": "3200-083",
      "city": "GÂNDARAS",
      "lon": "-8.273699619235568",
      "lat": "40.12337254761244"
    }
  ]
}