{
  "data": {
    "distrito": "Coimbra",
    "concelho": "Soure",
    "freguesia": "Vinha da Rainha",
    "OBJECTID": 427,
    "BGRI2021": "06151200136",
    "DT21": "06",
    "DTMN21": "0615",
    "DTMNFR21": "061512",
    "DTMNFRSEC21": "061512001",
    "SECNUM21": "001",
    "SSNUM21": "36",
    "SECSSNUM21": "00136",
    "OBJECTID_1": 56849,
    "DT": "06",
    "CC": "15",
    "fr": "12",
    "SEC": "001",
    "SS": "36"
  },
  "addresses": [
    {
      "id": "pt.ine.add.PTCONT.1139771",
      "street": "R BELINAS",
      "house": "3",
      "postcode": "3130-421",
      "city": "VINHA DA RAINHA",
      "lon": "-8.696448577127684",
      "lat": "40.04832872450543"
    },
    {
      "id": "pt.ine.add.PTCONT.1142794",
      "street": "R VALE DA QUINTA",
      "house": "5",
      "postcode": "3130-421",
      "city": "VINHA DA RAINHA",
      "lon": "-8.698990493325118",
      "lat": "40.04962221425759"
    },
    {
      "id": "pt.ine.add.PTCONT.1148672",
      "street": "R VALE DA QUINTA",
      "house": "3",
      "postcode": "3130-421",
      "city": "VINHA DA RAINHA",
      "lon": "-8.699119991189574",
      "lat": "40.049693630067765"
    },
    {
      "id": "pt.ine.add.PTCONT.1165121",
      "street": "R VALE DA QUINTA",
      "house": "7",
      "postcode": "3130-421",
      "city": "VINHA DA RAINHA",
      "lon": "-8.699022445887323",
      "lat": "40.04923479824072"
    },
    {
      "id": "pt.ine.add.PTCONT.1175417",
      "street": "R VALE PRAZO",
      "house": "5",
      "postcode": "3130-421",
      "city": "VINHA DA RAINHA",
      "lon": "-8.69864035666925",
      "lat": "40.04979503868078"
    },
    {
      "id": "pt.ine.add.PTCONT.1218920",
      "street": "R PRINCIPAL",
      "house": "46",
      "postcode": "3130-421",
      "city": "VINHA DA RAINHA",
      "lon": "-8.696477722161925",
      "lat": "40.04902204843637"
    },
    {
      "id": "pt.ine.add.PTCONT.1235150",
      "street": "R VALE PRAZO",
      "house": "7",
      "postcode": "3130-421",
      "city": "VINHA DA RAINHA",
      "lon": "-8.698852255585468",
      "lat": "40.049911082777854"
    },
    {
      "id": "pt.ine.add.PTCONT.1245338",
      "street": "R PRINCIPAL",
      "house": "44",
      "postcode": "3130-421",
      "city": "VINHA DA RAINHA",
      "lon": "-8.696795969767551",
      "lat": "40.04924565172285"
    },
    {
      "id": "pt.ine.add.PTCONT.1266392",
      "street": "R PRINCIPAL",
      "house": "40",
      "postcode": "3130-421",
      "city": "VINHA DA RAINHA",
      "lon": "-8.697692207298864",
      "lat": "40.04992574740913"
    },
    {
      "id": "pt.ine.add.PTCONT.1270275",
      "street": "R VALE PRAZO",
      "house": "3",
      "postcode": "3130-421",
      "city": "VINHA DA RAINHA",
      "lon": "-8.698323513842098",
      "lat": "40.049742548506615"
    },
    {
      "id": "pt.ine.add.PTCONT.1274337",
      "street": "R PRINCIPAL",
      "house": "50",
      "postcode": "3130-421",
      "city": "VINHA DA RAINHA",
      "lon": "-8.696123655121717",
      "lat": "40.04871756390089"
    },
    {
      "id": "pt.ine.add.PTCONT.1297953",
      "street": "R VALE PRAZO",
      "house": "1",
      "postcode": "3130-421",
      "city": "VINHA DA RAINHA",
      "lon": "-8.69811228555533",
      "lat": "40.04970755457368"
    },
    {
      "id": "pt.ine.add.PTCONT.1306655",
      "street": "R PRINCIPAL",
      "house": "42",
      "postcode": "3130-421",
      "city": "VINHA DA RAINHA",
      "lon": "-8.697350813883636",
      "lat": "40.04973828352564"
    },
    {
      "id": "pt.ine.add.PTCONT.1316679",
      "street": "R PRINCIPAL",
      "house": "",
      "postcode": "3130-421",
      "city": "VINHA DA RAINHA",
      "lon": "-8.69638338304629",
      "lat": "40.048950458735355"
    },
    {
      "id": "pt.ine.add.PTCONT.1357963",
      "street": "R PRINCIPAL",
      "house": "",
      "postcode": "3130-421",
      "city": "VINHA DA RAINHA",
      "lon": "-8.69628904412803",
      "lat": "40.048878868955256"
    }
  ]
}