{
  "data": {
    "distrito": "Viseu",
    "concelho": "Castro Daire",
    "freguesia": "Castro Daire",
    "OBJECTID": 378,
    "BGRI2021": "18030400234",
    "DT21": "18",
    "DTMN21": "1803",
    "DTMNFR21": "180304",
    "DTMNFRSEC21": "180304002",
    "SECNUM21": "002",
    "SSNUM21": "34",
    "SECSSNUM21": "00234",
    "OBJECTID_1": 189125,
    "DT": "18",
    "CC": "03",
    "fr": "04",
    "SEC": "002",
    "SS": "34"
  },
  "addresses": [
    {
      "id": "pt.ine.add.PTCONT.5428034",
      "street": "R PEREIROS",
      "house": "",
      "postcode": "3600-275",
      "city": "CASTRO DAIRE",
      "lon": "-7.9416305365997575",
      "lat": "40.922004308411836"
    },
    {
      "id": "pt.ine.add.PTCONT.5435756",
      "street": "R CARREIRA",
      "house": "4",
      "postcode": "3600-275",
      "city": "CASTRO DAIRE",
      "lon": "-7.940658372737357",
      "lat": "40.92155245254964"
    },
    {
      "id": "pt.ine.add.PTCONT.5467130",
      "street": "R PAZ",
      "house": "3",
      "postcode": "3600-290",
      "city": "CASTRO DAIRE",
      "lon": "-7.941453191170706",
      "lat": "40.92175188077763"
    },
    {
      "id": "pt.ine.add.PTCONT.5514004",
      "street": "R HORTAS",
      "house": "6",
      "postcode": "3600-275",
      "city": "CASTRO DAIRE",
      "lon": "-7.941085121356921",
      "lat": "40.92176927797356"
    },
    {
      "id": "pt.ine.add.PTCONT.5518095",
      "street": "R HORTAS",
      "house": "8",
      "postcode": "3600-275",
      "city": "CASTRO DAIRE",
      "lon": "-7.940801378861827",
      "lat": "40.92136359133346"
    },
    {
      "id": "pt.ine.add.PTCONT.5567383",
      "street": "R CARREIRA",
      "house": "",
      "postcode": "3600-275",
      "city": "CASTRO DAIRE",
      "lon": "-7.940753109799011",
      "lat": "40.92163365337583"
    },
    {
      "id": "pt.ine.add.PTCONT.5596919",
      "street": "R REIS",
      "house": "1",
      "postcode": "3600-275",
      "city": "CASTRO DAIRE",
      "lon": "-7.9414172643575744",
      "lat": "40.92185987807643"
    },
    {
      "id": "pt.ine.add.PTCONT.5602364",
      "street": "R CARREIRA",
      "house": "8",
      "postcode": "3600-275",
      "city": "CASTRO DAIRE",
      "lon": "-7.9408241823200205",
      "lat": "40.92168780041319"
    },
    {
      "id": "pt.ine.add.PTCONT.5635278",
      "street": "R CAMPOS",
      "house": "26",
      "postcode": "3600-275",
      "city": "CASTRO DAIRE",
      "lon": "-7.942051954077643",
      "lat": "40.9199519238131"
    },
    {
      "id": "pt.ine.add.PTCONT.5638161",
      "street": "R HORTAS",
      "house": "3",
      "postcode": "3600-275",
      "city": "CASTRO DAIRE",
      "lon": "-7.940801117864706",
      "lat": "40.921453638415194"
    },
    {
      "id": "pt.ine.add.PTCONT.5649669",
      "street": "R PEREIROS",
      "house": "15",
      "postcode": "3600-275",
      "city": "CASTRO DAIRE",
      "lon": "-7.941559827041799",
      "lat": "40.92182409596269"
    }
  ]
}