{
  "data": {
    "distrito": "Braga",
    "concelho": "Celorico de Basto",
    "freguesia": "Uni√£o das freguesias de Carvalho e Basto (Santa Tecla)",
    "OBJECTID": 284,
    "BGRI2021": "03052600111",
    "DT21": "03",
    "DTMN21": "0305",
    "DTMNFR21": "030526",
    "DTMNFRSEC21": "030526001",
    "SECNUM21": "001",
    "SSNUM21": "11",
    "SECSSNUM21": "00111",
    "OBJECTID_1": 23816,
    "DT": "03",
    "CC": "05",
    "fr": "26",
    "SEC": "001",
    "SS": "11"
  },
  "addresses": [
    {
      "id": "pt.ine.add.PTCONT.480539",
      "street": "",
      "house": "",
      "postcode": "4890-530",
      "city": "BASTO (SANTA TECLA)",
      "lon": "-8.03763466387421",
      "lat": "41.38313976209626"
    },
    {
      "id": "pt.ine.add.PTCONT.504208",
      "street": "",
      "house": "",
      "postcode": "4890-530",
      "city": "BASTO (SANTA TECLA)",
      "lon": "-8.035815621088435",
      "lat": "41.38438979898606"
    },
    {
      "id": "pt.ine.add.PTCONT.507057",
      "street": "",
      "house": "",
      "postcode": "4890-159",
      "city": "CARVALHO CBT",
      "lon": "-8.044762137908714",
      "lat": "41.363831770573256"
    },
    {
      "id": "pt.ine.add.PTCONT.523031",
      "street": "",
      "house": "",
      "postcode": "4890-152",
      "city": "CARVALHO CBT",
      "lon": "-8.044295548748932",
      "lat": "41.36418256991705"
    },
    {
      "id": "pt.ine.add.PTCONT.543105",
      "street": "",
      "house": "",
      "postcode": "4890-151",
      "city": "CARVALHO CBT",
      "lon": "-8.044319537717232",
      "lat": "41.36411955998473"
    },
    {
      "id": "pt.ine.add.PTCONT.528371",
      "street": "",
      "house": "",
      "postcode": "4890-152",
      "city": "CARVALHO CBT",
      "lon": "-8.044367417652504",
      "lat": "41.364065572534805"
    },
    {
      "id": "pt.ine.add.PTCONT.551249",
      "street": "",
      "house": "",
      "postcode": "4890-152",
      "city": "CARVALHO CBT",
      "lon": "-8.03818069441832",
      "lat": "41.369382034540465"
    },
    {
      "id": "pt.ine.add.PTCONT.572899",
      "street": "",
      "house": "",
      "postcode": "4890-159",
      "city": "CARVALHO CBT",
      "lon": "-8.044140005651041",
      "lat": "41.364308506658915"
    },
    {
      "id": "pt.ine.add.PTCONT.607657",
      "street": "",
      "house": "",
      "postcode": "4890-152",
      "city": "CARVALHO CBT",
      "lon": "-8.037750348392416",
      "lat": "41.36941769497279"
    },
    {
      "id": "pt.ine.add.PTCONT.620207",
      "street": "",
      "house": "",
      "postcode": "4890-152",
      "city": "CARVALHO CBT",
      "lon": "-8.042174779856557",
      "lat": "41.3680076392815"
    },
    {
      "id": "pt.ine.add.PTCONT.622209",
      "street": "",
      "house": "",
      "postcode": "4890-152",
      "city": "CARVALHO CBT",
      "lon": "-8.041468012193777",
      "lat": "41.36913258567527"
    },
    {
      "id": "pt.ine.add.PTCONT.639859",
      "street": "",
      "house": "",
      "postcode": "4890-159",
      "city": "CARVALHO CBT",
      "lon": "-8.043936741231173",
      "lat": "41.364371377781175"
    },
    {
      "id": "pt.ine.add.PTCONT.642806",
      "street": "",
      "house": "",
      "postcode": "4890-152",
      "city": "CARVALHO CBT",
      "lon": "-8.04197211770243",
      "lat": "41.36762930855531"
    },
    {
      "id": "pt.ine.add.PTCONT.642808",
      "street": "",
      "house": "",
      "postcode": "4890-159",
      "city": "CARVALHO CBT",
      "lon": "-8.044031691595281",
      "lat": "41.36485767068882"
    },
    {
      "id": "pt.ine.add.PTCONT.715263",
      "street": "",
      "house": "",
      "postcode": "4890-159",
      "city": "CARVALHO CBT",
      "lon": "-8.044666720315032",
      "lat": "41.3636876322628"
    },
    {
      "id": "pt.ine.add.PTCONT.721017",
      "street": "",
      "house": "",
      "postcode": "4890-152",
      "city": "CARVALHO CBT",
      "lon": "-8.041494456096842",
      "lat": "41.36732279132241"
    },
    {
      "id": "pt.ine.add.PTCONT.737529",
      "street": "",
      "house": "",
      "postcode": "4890-159",
      "city": "CARVALHO CBT",
      "lon": "-8.044187873615718",
      "lat": "41.36426352333939"
    },
    {
      "id": "pt.ine.add.PTCONT.751892",
      "street": "VIVENDAS CASTELO",
      "house": "5E",
      "postcode": "4890-152",
      "city": "CARVALHO CBT",
      "lon": "-8.04423572926343",
      "lat": "41.36422754405317"
    },
    {
      "id": "pt.ine.add.PTCONT.755603",
      "street": "",
      "house": "",
      "postcode": "4890-530",
      "city": "BASTO (SANTA TECLA)",
      "lon": "-8.035516697139233",
      "lat": "41.384416557956364"
    },
    {
      "id": "pt.ine.add.PTCONT.784216",
      "street": "",
      "house": "",
      "postcode": "4890-152",
      "city": "CARVALHO CBT",
      "lon": "-8.044941569636403",
      "lat": "41.36371485534729"
    },
    {
      "id": "pt.ine.add.PTCONT.788276",
      "street": "",
      "house": "",
      "postcode": "4890-530",
      "city": "BASTO (SANTA TECLA)",
      "lon": "-8.03780145701662",
      "lat": "41.38353607780694"
    },
    {
      "id": "pt.ine.add.PTCONT.803623",
      "street": "",
      "house": "",
      "postcode": "4890-159",
      "city": "CARVALHO CBT",
      "lon": "-8.044630572934814",
      "lat": "41.3639037020094"
    },
    {
      "id": "pt.ine.add.PTCONT.827528",
      "street": "COVAS CARVALHO",
      "house": "3",
      "postcode": "4890-159",
      "city": "CARVALHO CBT",
      "lon": "-8.044080198215607",
      "lat": "41.364344476659525"
    },
    {
      "id": "pt.ine.add.PTCONT.827529",
      "street": "",
      "house": "",
      "postcode": "4890-159",
      "city": "CARVALHO CBT",
      "lon": "-8.043614132215946",
      "lat": "41.36430809891756"
    },
    {
      "id": "pt.ine.add.PTCONT.831999",
      "street": "",
      "house": "",
      "postcode": "4890-152",
      "city": "CARVALHO CBT",
      "lon": "-8.040675142098678",
      "lat": "41.37195922424333"
    }
  ]
}