{
  "data": {
    "distrito": "Setúbal",
    "concelho": "Seixal",
    "freguesia": "Fernão Ferro",
    "OBJECTID": 1258,
    "BGRI2021": "15100600824",
    "DT21": "15",
    "DTMN21": "1510",
    "DTMNFR21": "151006",
    "DTMNFRSEC21": "151006008",
    "SECNUM21": "008",
    "SSNUM21": "24",
    "SECSSNUM21": "00824",
    "OBJECTID_1": 168397,
    "DT": "15",
    "CC": "10",
    "fr": "06",
    "SEC": "008",
    "SS": "24"
  },
  "addresses": [
    {
      "id": "pt.ine.add.PTCONT.4673020",
      "street": "R 1 DE MAIO",
      "house": "401",
      "postcode": "2865-371",
      "city": "FERNÃO FERRO",
      "lon": "-9.102994927363802",
      "lat": "38.57926150640483"
    },
    {
      "id": "pt.ine.add.PTCONT.4691310",
      "street": "R TRABALHADOR",
      "house": "",
      "postcode": "2865-375",
      "city": "FERNÃO FERRO",
      "lon": "-9.103028072126051",
      "lat": "38.5774596088487"
    },
    {
      "id": "pt.ine.add.PTCONT.4713028",
      "street": "R ZECA AFONSO",
      "house": "",
      "postcode": "2865-384",
      "city": "FERNÃO FERRO",
      "lon": "-9.102690809640517",
      "lat": "38.57627333187204"
    },
    {
      "id": "pt.ine.add.PTCONT.4720488",
      "street": "AV 23 DE JULHO DE 1833",
      "house": "",
      "postcode": "2865-413",
      "city": "FERNÃO FERRO",
      "lon": "-9.102761742710435",
      "lat": "38.577281653327596"
    },
    {
      "id": "pt.ine.add.PTCONT.4735673",
      "street": "AV 23 DE JULHO DE 1833",
      "house": "PARCELA 4",
      "postcode": "2865-413",
      "city": "FERNÃO FERRO",
      "lon": "-9.10279943516139",
      "lat": "38.57752456017759"
    },
    {
      "id": "pt.ine.add.PTCONT.4738699",
      "street": "AV 23 DE JULHO DE 1833 DORA VALENTE",
      "house": "",
      "postcode": "2865-413",
      "city": "FERNÃO FERRO",
      "lon": "-9.102714180353244",
      "lat": "38.578011704733186"
    },
    {
      "id": "pt.ine.add.PTCONT.4738862",
      "street": "R ZECA AFONSO QTA DO REI",
      "house": "",
      "postcode": "2865-384",
      "city": "FERNÃO FERRO",
      "lon": "-9.103393876947118",
      "lat": "38.5765017164856"
    },
    {
      "id": "pt.ine.add.PTCONT.4751609",
      "street": "R TRABALHADOR",
      "house": "",
      "postcode": "2865-375",
      "city": "FERNÃO FERRO",
      "lon": "-9.103960835464754",
      "lat": "38.57684833146255"
    },
    {
      "id": "pt.ine.add.PTCONT.4771624",
      "street": "R CAETANO LIMA",
      "house": "A1",
      "postcode": "2865-057",
      "city": "FERNÃO FERRO",
      "lon": "-9.102561056627179",
      "lat": "38.57515739998119"
    },
    {
      "id": "pt.ine.add.PTCONT.4812836",
      "street": "EN 378",
      "house": "",
      "postcode": "2865-413",
      "city": "FERNÃO FERRO",
      "lon": "-9.102794894900956",
      "lat": "38.57889383124059"
    },
    {
      "id": "pt.ine.add.PTCONT.4873324",
      "street": "R COLMEIAS",
      "house": "",
      "postcode": "2865-374",
      "city": "FERNÃO FERRO",
      "lon": "-9.102311782304824",
      "lat": "38.57966352258051"
    },
    {
      "id": "pt.ine.add.PTCONT.4881197",
      "street": "AV 23 DE JULHO DE 1833",
      "house": "",
      "postcode": "2865-413",
      "city": "FERNÃO FERRO",
      "lon": "-9.102453997143964",
      "lat": "38.577437340518834"
    },
    {
      "id": "pt.ine.add.PTCONT.4881743",
      "street": "AV 23 JULHO",
      "house": "PARCEL 3",
      "postcode": "2865-413",
      "city": "FERNÃO FERRO",
      "lon": "-9.102792199592429",
      "lat": "38.5778399041702"
    },
    {
      "id": "pt.ine.add.PTCONT.4888032",
      "street": "AV 23 DE JULHO DE 1833 QTA DAS CHINELINHAS I",
      "house": "",
      "postcode": "2865-413",
      "city": "FERNÃO FERRO",
      "lon": "-9.102009306715356",
      "lat": "38.57850398033442"
    },
    {
      "id": "pt.ine.add.PTCONT.4902493",
      "street": "AV 23 DE JULHO DE 1833 QTA DAS CHINELINHAS I",
      "house": "",
      "postcode": "2865-413",
      "city": "FERNÃO FERRO",
      "lon": "-9.102020055045267",
      "lat": "38.578449842665066"
    },
    {
      "id": "pt.ine.add.PTCONT.4916794",
      "street": "AV 23 DE JULHO DE 1833",
      "house": "",
      "postcode": "2865-413",
      "city": "FERNÃO FERRO",
      "lon": "-9.102084423684667",
      "lat": "38.57811600950883"
    },
    {
      "id": "pt.ine.add.PTCONT.4921371",
      "street": "R 1 DE MAIO",
      "house": "",
      "postcode": "2865-371",
      "city": "FERNÃO FERRO",
      "lon": "-9.103220176998729",
      "lat": "38.57894435559387"
    },
    {
      "id": "pt.ine.add.PTCONT.4934040",
      "street": "R CAETANO LIMA",
      "house": "",
      "postcode": "2865-057",
      "city": "FERNÃO FERRO",
      "lon": "-9.1028020078837",
      "lat": "38.57515540393958"
    },
    {
      "id": "pt.ine.add.PTCONT.4938195",
      "street": "AV 23 DE JULHO DE 1833",
      "house": "",
      "postcode": "2865-413",
      "city": "FERNÃO FERRO",
      "lon": "-9.102521538310313",
      "lat": "38.578193462813964"
    },
    {
      "id": "pt.ine.add.PTCONT.4941817",
      "street": "AV 23 DE JULHO DE 1833",
      "house": "",
      "postcode": "2865-413",
      "city": "FERNÃO FERRO",
      "lon": "-9.102660170065507",
      "lat": "38.577408608421734"
    },
    {
      "id": "pt.ine.add.PTCONT.4970753",
      "street": "AV 23 JULHO",
      "house": "PARCELA B",
      "postcode": "2865-413",
      "city": "FERNÃO FERRO",
      "lon": "-9.102276970388518",
      "lat": "38.578781015727905"
    },
    {
      "id": "pt.ine.add.PTCONT.4985082",
      "street": "R CAETANO LIMA",
      "house": "",
      "postcode": "2865-057",
      "city": "FERNÃO FERRO",
      "lon": "-9.102171550103222",
      "lat": "38.575205666204795"
    },
    {
      "id": "pt.ine.add.PTCONT.5025681",
      "street": "R COLMEIAS",
      "house": "",
      "postcode": "2865-374",
      "city": "FERNÃO FERRO",
      "lon": "-9.102291738369708",
      "lat": "38.57987988327107"
    },
    {
      "id": "pt.ine.add.PTCONT.5025682",
      "street": "R 1 DE MAIO",
      "house": "",
      "postcode": "2865-371",
      "city": "FERNÃO FERRO",
      "lon": "-9.103471849158616",
      "lat": "38.578032449739545"
    },
    {
      "id": "pt.ine.add.PTCONT.5047389",
      "street": "AV 23 DE JULHO DE 1833",
      "house": "",
      "postcode": "2865-413",
      "city": "FERNÃO FERRO",
      "lon": "-9.102268497320168",
      "lat": "38.5781505178617"
    },
    {
      "id": "pt.ine.add.PTCONT.5055240",
      "street": "AV 23 DE JULHO DE 1833 QTA DAS CHINELINHAS I",
      "house": "",
      "postcode": "2865-413",
      "city": "FERNÃO FERRO",
      "lon": "-9.102733193248742",
      "lat": "38.57942582112594"
    },
    {
      "id": "pt.ine.add.PTCONT.5062080",
      "street": "AV 23 DE JULHO DE 1833 ANTÓNIO VALENTE",
      "house": "PARCELA 2",
      "postcode": "2865-413",
      "city": "FERNÃO FERRO",
      "lon": "-9.102243733045896",
      "lat": "38.57801560119444"
    },
    {
      "id": "pt.ine.add.PTCONT.5100361",
      "street": "AV 23 DE JULHO DE 1833",
      "house": "",
      "postcode": "2865-413",
      "city": "FERNÃO FERRO",
      "lon": "-9.102763226335856",
      "lat": "38.57824550939079"
    },
    {
      "id": "pt.ine.add.PTCONT.5114602",
      "street": "AV 23 DE JULHO DE 1833 QTA DAS CHINELINHAS I",
      "house": "",
      "postcode": "2865-413",
      "city": "FERNÃO FERRO",
      "lon": "-9.102019086949321",
      "lat": "38.57837778576002"
    },
    {
      "id": "pt.ine.add.PTCONT.5119615",
      "street": "R CAETANO LIMA",
      "house": "A1",
      "postcode": "2865-057",
      "city": "FERNÃO FERRO",
      "lon": "-9.102563114748872",
      "lat": "38.57531052096323"
    },
    {
      "id": "pt.ine.add.PTCONT.5123604",
      "street": "R TRABALHADOR",
      "house": "",
      "postcode": "2865-375",
      "city": "FERNÃO FERRO",
      "lon": "-9.10390079751596",
      "lat": "38.576650650906146"
    },
    {
      "id": "pt.ine.add.PTCONT.5126641",
      "street": "R ZECA AFONSO QTA DO REI",
      "house": "",
      "postcode": "2865-384",
      "city": "FERNÃO FERRO",
      "lon": "-9.103724443376509",
      "lat": "38.57633682945891"
    },
    {
      "id": "pt.ine.add.PTCONT.5132643",
      "street": "R 1 DE MAIO",
      "house": "",
      "postcode": "2865-371",
      "city": "FERNÃO FERRO",
      "lon": "-9.103056142396234",
      "lat": "38.5786934879542"
    }
  ]
}