{
  "data": {
    "distrito": "Braga",
    "concelho": "Fafe",
    "freguesia": "Uni√£o de freguesias de Monte e Queimadela",
    "OBJECTID": 1234,
    "BGRI2021": "03074300156",
    "DT21": "03",
    "DTMN21": "0307",
    "DTMNFR21": "030743",
    "DTMNFRSEC21": "030743001",
    "SECNUM21": "001",
    "SSNUM21": "56",
    "SECSSNUM21": "00156",
    "OBJECTID_1": 25159,
    "DT": "03",
    "CC": "07",
    "fr": "43",
    "SEC": "001",
    "SS": "56"
  },
  "addresses": [
    {
      "id": "pt.ine.add.PTCONT.498634",
      "street": "R PICOTO",
      "house": "",
      "postcode": "4820-520",
      "city": "MONTE FAF",
      "lon": "-8.169377000151835",
      "lat": "41.52778562745336"
    },
    {
      "id": "pt.ine.add.PTCONT.531176",
      "street": "R PILOTO",
      "house": "180",
      "postcode": "4820-520",
      "city": "MONTE FAF",
      "lon": "-8.169628732681876",
      "lat": "41.52799263535626"
    },
    {
      "id": "pt.ine.add.PTCONT.531177",
      "street": "R PICOTO",
      "house": "214",
      "postcode": "4820-520",
      "city": "MONTE FAF",
      "lon": "-8.16986831683536",
      "lat": "41.52790252095324"
    },
    {
      "id": "pt.ine.add.PTCONT.531178",
      "street": "R PICOTO",
      "house": "",
      "postcode": "4820-520",
      "city": "MONTE FAF",
      "lon": "-8.17182122759978",
      "lat": "41.52771280018688"
    },
    {
      "id": "pt.ine.add.PTCONT.534233",
      "street": "R PICOTO",
      "house": "",
      "postcode": "4820-520",
      "city": "MONTE FAF",
      "lon": "-8.171138370644734",
      "lat": "41.52788410036453"
    },
    {
      "id": "pt.ine.add.PTCONT.610403",
      "street": "R PICOTO",
      "house": "",
      "postcode": "4820-520",
      "city": "MONTE FAF",
      "lon": "-8.168346528441285",
      "lat": "41.52770491354768"
    },
    {
      "id": "pt.ine.add.PTCONT.675140",
      "street": "R PICOTO",
      "house": "124",
      "postcode": "4820-520",
      "city": "MONTE FAF",
      "lon": "-8.168945693089213",
      "lat": "41.52784878931698"
    },
    {
      "id": "pt.ine.add.PTCONT.740645",
      "street": "R PILOTO",
      "house": "104",
      "postcode": "4820-520",
      "city": "MONTE FAF",
      "lon": "-8.168634158269867",
      "lat": "41.5278308783603"
    },
    {
      "id": "pt.ine.add.PTCONT.773861",
      "street": "R PICOTO",
      "house": "226",
      "postcode": "4820-520",
      "city": "MONTE FAF",
      "lon": "-8.170095949369578",
      "lat": "41.527866432738215"
    },
    {
      "id": "pt.ine.add.PTCONT.785805",
      "street": "R PICOTO",
      "house": "",
      "postcode": "4820-520",
      "city": "MONTE FAF",
      "lon": "-8.171545776304312",
      "lat": "41.52792898395618"
    }
  ]
}