{
  "data": {
    "distrito": "Braga",
    "concelho": "Amares",
    "freguesia": "União das freguesias de Caldelas, Sequeiros e Paranhos",
    "OBJECTID": 24,
    "BGRI2021": "03012600107",
    "DT21": "03",
    "DTMN21": "0301",
    "DTMNFR21": "030126",
    "DTMNFRSEC21": "030126001",
    "SECNUM21": "001",
    "SSNUM21": "07",
    "SECSSNUM21": "00107",
    "OBJECTID_1": 19779,
    "DT": "03",
    "CC": "01",
    "fr": "26",
    "SEC": "001",
    "SS": "07"
  },
  "addresses": [
    {
      "id": "pt.ine.add.PTCONT.461797",
      "street": "R MONTE DE S SEBASTIÃO",
      "house": "408",
      "postcode": "4720-258",
      "city": "CALDELAS",
      "lon": "-8.371867602504981",
      "lat": "41.67087317974855"
    },
    {
      "id": "pt.ine.add.PTCONT.517092",
      "street": "R JOSE ANTÓNIO GONÇALVES",
      "house": "331",
      "postcode": "4720-629",
      "city": "CALDELAS",
      "lon": "-8.37042120608639",
      "lat": "41.66939958898961"
    },
    {
      "id": "pt.ine.add.PTCONT.536143",
      "street": "R MONTE DE S SEBASTIÃO",
      "house": "100",
      "postcode": "4720-258",
      "city": "CALDELAS",
      "lon": "-8.374181405474873",
      "lat": "41.66985994966674"
    },
    {
      "id": "pt.ine.add.PTCONT.542130",
      "street": "R MONTE DE S SEBASTIÃO",
      "house": "258",
      "postcode": "4720-258",
      "city": "CALDELAS",
      "lon": "-8.373790208030472",
      "lat": "41.671220309174274"
    },
    {
      "id": "pt.ine.add.PTCONT.632099",
      "street": "R MONTE DE S SEBASTIÃO",
      "house": "276",
      "postcode": "4720-258",
      "city": "CALDELAS",
      "lon": "-8.373646277528119",
      "lat": "41.67126562834452"
    },
    {
      "id": "pt.ine.add.PTCONT.656157",
      "street": "R JOSE ANTÓNIO GONÇALVES",
      "house": "299",
      "postcode": "4720-629",
      "city": "CALDELAS",
      "lon": "-8.371033672134313",
      "lat": "41.669416329943125"
    },
    {
      "id": "pt.ine.add.PTCONT.657747",
      "street": "R MONTE DE S SEBASTIÃO",
      "house": "100",
      "postcode": "4720-258",
      "city": "CALDELAS",
      "lon": "-8.374361591515529",
      "lat": "41.669877578747354"
    },
    {
      "id": "pt.ine.add.PTCONT.676640",
      "street": "R JOSÉ ANTÓNIO GONÇALVES",
      "house": "319",
      "postcode": "4720-629",
      "city": "CALDELAS",
      "lon": "-8.370577605773683",
      "lat": "41.6694802981459"
    },
    {
      "id": "pt.ine.add.PTCONT.712508",
      "street": "R MONTE DE S SEBASTIÃO",
      "house": "196",
      "postcode": "4720-258",
      "city": "CALDELAS",
      "lon": "-8.374232628927153",
      "lat": "41.67071518177522"
    },
    {
      "id": "pt.ine.add.PTCONT.727561",
      "street": "R MONTE DE S SEBASTIÃO",
      "house": "18",
      "postcode": "4720-258",
      "city": "CALDELAS",
      "lon": "-8.373674525321272",
      "lat": "41.66917673995472"
    },
    {
      "id": "pt.ine.add.PTCONT.736647",
      "street": "R MONTE DE S SEBASTIÃO",
      "house": "50",
      "postcode": "4720-258",
      "city": "CALDELAS",
      "lon": "-8.374173012479915",
      "lat": "41.669587162543614"
    },
    {
      "id": "pt.ine.add.PTCONT.772749",
      "street": "R JOSE ANTÓNIO GONÇALVES",
      "house": "301",
      "postcode": "4720-629",
      "city": "CALDELAS",
      "lon": "-8.370841877918055",
      "lat": "41.66950676256361"
    },
    {
      "id": "pt.ine.add.PTCONT.778709",
      "street": "R MONTE DE S SEBASTIÃO",
      "house": "16",
      "postcode": "4720-258",
      "city": "CALDELAS",
      "lon": "-8.37319438079715",
      "lat": "41.669222761782585"
    },
    {
      "id": "pt.ine.add.PTCONT.781604",
      "street": "R CALDAS",
      "house": "164",
      "postcode": "4720-248",
      "city": "CALDELAS",
      "lon": "-8.370842739158281",
      "lat": "41.66974085374774"
    },
    {
      "id": "pt.ine.add.PTCONT.787276",
      "street": "R MONTE DE S SEBASTIÃO",
      "house": "14",
      "postcode": "4720-258",
      "city": "CALDELAS",
      "lon": "-8.373000918950998",
      "lat": "41.668863022676874"
    },
    {
      "id": "pt.ine.add.PTCONT.835634",
      "street": "R MONTE DE S SEBASTIÃO",
      "house": "220",
      "postcode": "4720-258",
      "city": "CALDELAS",
      "lon": "-8.374172857248526",
      "lat": "41.670787335742325"
    }
  ]
}