{
  "data": {
    "distrito": "Porto",
    "concelho": "Paredes",
    "freguesia": "Sobrosa",
    "OBJECTID": 1154,
    "BGRI2021": "13102100201",
    "DT21": "13",
    "DTMN21": "1310",
    "DTMNFR21": "131021",
    "DTMNFRSEC21": "131021002",
    "SECNUM21": "002",
    "SSNUM21": "01",
    "SECSSNUM21": "00201",
    "OBJECTID_1": 134722,
    "DT": "13",
    "CC": "10",
    "fr": "21",
    "SEC": "002",
    "SS": "01"
  },
  "addresses": [
    {
      "id": "pt.ine.add.PTCONT.3657790",
      "street": "TV FONTANARIO",
      "house": "38",
      "postcode": "4580-740",
      "city": "SOBROSA",
      "lon": "-8.346494833117472",
      "lat": "41.243804589773426"
    },
    {
      "id": "pt.ine.add.PTCONT.3696264",
      "street": "CC MONTE",
      "house": "",
      "postcode": "4580-738",
      "city": "SOBROSA",
      "lon": "-8.346597891897844",
      "lat": "41.24248077453922"
    },
    {
      "id": "pt.ine.add.PTCONT.3832992",
      "street": "R MONTE CASA DA CIRA",
      "house": "179",
      "postcode": "4580-738",
      "city": "SOBROSA",
      "lon": "-8.34684920095401",
      "lat": "41.24272342298593"
    },
    {
      "id": "pt.ine.add.PTCONT.3870926",
      "street": "R PENEDO DA RANHADA",
      "house": "23",
      "postcode": "4580-741",
      "city": "SOBROSA",
      "lon": "-8.346720381635981",
      "lat": "41.24346201023625"
    },
    {
      "id": "pt.ine.add.PTCONT.3903967",
      "street": "TV FONTANARIO",
      "house": "",
      "postcode": "4580-740",
      "city": "SOBROSA",
      "lon": "-8.346865443507427",
      "lat": "41.24404701697389"
    },
    {
      "id": "pt.ine.add.PTCONT.3930292",
      "street": "TV FONTANARIO",
      "house": "38",
      "postcode": "4580-740",
      "city": "SOBROSA",
      "lon": "-8.346482464161882",
      "lat": "41.243669549015095"
    },
    {
      "id": "pt.ine.add.PTCONT.4185852",
      "street": "R MONTE",
      "house": "",
      "postcode": "4580-738",
      "city": "SOBROSA",
      "lon": "-8.347089522301188",
      "lat": "41.24325422717296"
    },
    {
      "id": "pt.ine.add.PTCONT.4284597",
      "street": "R NSA SRA FATIMA",
      "house": "393",
      "postcode": "4580-740",
      "city": "SOBROSA",
      "lon": "-8.34685289770039",
      "lat": "41.24385795111944"
    },
    {
      "id": "pt.ine.add.PTCONT.4284598",
      "street": "R NSA SRA FATIMA",
      "house": "587",
      "postcode": "4580-740",
      "city": "SOBROSA",
      "lon": "-8.34685289770039",
      "lat": "41.24385795111944"
    },
    {
      "id": "pt.ine.add.PTCONT.4342270",
      "street": "CC MONTE",
      "house": "30",
      "postcode": "4580-738",
      "city": "SOBROSA",
      "lon": "-8.346215742295747",
      "lat": "41.242355422981845"
    },
    {
      "id": "pt.ine.add.PTCONT.4354553",
      "street": "R MONTE",
      "house": "17",
      "postcode": "4580-738",
      "city": "SOBROSA",
      "lon": "-8.347102039293393",
      "lat": "41.24343428882899"
    }
  ]
}