{
  "data": {
    "distrito": "Porto",
    "concelho": "Paredes",
    "freguesia": "Sobrosa",
    "OBJECTID": 589,
    "BGRI2021": "13102100207",
    "DT21": "13",
    "DTMN21": "1310",
    "DTMNFR21": "131021",
    "DTMNFRSEC21": "131021002",
    "SECNUM21": "002",
    "SSNUM21": "07",
    "SECSSNUM21": "00207",
    "OBJECTID_1": 135040,
    "DT": "13",
    "CC": "10",
    "fr": "21",
    "SEC": "002",
    "SS": "07"
  },
  "addresses": [
    {
      "id": "pt.ine.add.PTCONT.3548552",
      "street": "R CERRADO - OUTEIRO",
      "house": "67",
      "postcode": "4580-870",
      "city": "SOBROSA",
      "lon": "-8.347925809984165",
      "lat": "41.25455298759148"
    },
    {
      "id": "pt.ine.add.PTCONT.3548553",
      "street": "R CERRADO - OUTEIRO",
      "house": "67",
      "postcode": "4580-870",
      "city": "SOBROSA",
      "lon": "-8.347925809984165",
      "lat": "41.25455298759148"
    },
    {
      "id": "pt.ine.add.PTCONT.3548561",
      "street": "R PEDREGAL",
      "house": "38",
      "postcode": "4580-743",
      "city": "SOBROSA",
      "lon": "-8.34860493968023",
      "lat": "41.250625873675766"
    },
    {
      "id": "pt.ine.add.PTCONT.3651303",
      "street": "R CERRADO - OUTEIRO CASA DO CERRADO",
      "house": "",
      "postcode": "4580-870",
      "city": "SOBROSA",
      "lon": "-8.34866432426005",
      "lat": "41.25417342976061"
    },
    {
      "id": "pt.ine.add.PTCONT.3773138",
      "street": "R ARTUR BARBOSA DA FONSECA",
      "house": "71",
      "postcode": "4580-615",
      "city": "SOBROSA",
      "lon": "-8.35226342442667",
      "lat": "41.252906043368625"
    },
    {
      "id": "pt.ine.add.PTCONT.3861328",
      "street": "R ARTUR BARBOSA DA FONSECA",
      "house": "115",
      "postcode": "4580-615",
      "city": "SOBROSA",
      "lon": "-8.351988374083103",
      "lat": "41.2527174777226"
    },
    {
      "id": "pt.ine.add.PTCONT.4013215",
      "street": "R PEDREGAL",
      "house": "260",
      "postcode": "4580-743",
      "city": "SOBROSA",
      "lon": "-8.348281831600728",
      "lat": "41.25032933820604"
    },
    {
      "id": "pt.ine.add.PTCONT.4013216",
      "street": "R PEDREGAL",
      "house": "260",
      "postcode": "4580-743",
      "city": "SOBROSA",
      "lon": "-8.348281831600728",
      "lat": "41.25032933820604"
    },
    {
      "id": "pt.ine.add.PTCONT.4078641",
      "street": "R PEDREGAL",
      "house": "60",
      "postcode": "4580-743",
      "city": "SOBROSA",
      "lon": "-8.347439747229147",
      "lat": "41.25186162853186"
    },
    {
      "id": "pt.ine.add.PTCONT.4085296",
      "street": "R PEDREGAL",
      "house": "",
      "postcode": "4580-743",
      "city": "SOBROSA",
      "lon": "-8.348212963883103",
      "lat": "41.25115785643187"
    },
    {
      "id": "pt.ine.add.PTCONT.4092030",
      "street": "R TRIGAL",
      "house": "109",
      "postcode": "4580-749",
      "city": "SOBROSA",
      "lon": "-8.349985653582186",
      "lat": "41.25324351283838"
    },
    {
      "id": "pt.ine.add.PTCONT.4302433",
      "street": "LG CRUZEIRO",
      "house": "78",
      "postcode": "4580-615",
      "city": "SOBROSA",
      "lon": "-8.352919402760762",
      "lat": "41.2528327590766"
    },
    {
      "id": "pt.ine.add.PTCONT.4321995",
      "street": "R CASTANHEIRA",
      "house": "36",
      "postcode": "4580-612",
      "city": "SOBROSA",
      "lon": "-8.353028324128868",
      "lat": "41.25329176682548"
    },
    {
      "id": "pt.ine.add.PTCONT.4367578",
      "street": "R COMBATENTES DO ULTRAMAR",
      "house": "290",
      "postcode": "4580-739",
      "city": "SOBROSA",
      "lon": "-8.346631893106993",
      "lat": "41.25292562884994"
    }
  ]
}