{
  "data": {
    "distrito": "Évora",
    "concelho": "Alandroal",
    "freguesia": "União das freguesias de Alandroal (Nossa Senhora da Conceição), São Brás dos Matos (Mina do Bugalho) e Juromenha (Nossa Senhora do Loreto)",
    "OBJECTID": 201,
    "BGRI2021": "07010700148",
    "DT21": "07",
    "DTMN21": "0701",
    "DTMNFR21": "070107",
    "DTMNFRSEC21": "070107001",
    "SECNUM21": "001",
    "SSNUM21": "48",
    "SECSSNUM21": "00148",
    "OBJECTID_1": 58462,
    "DT": "07",
    "CC": "01",
    "fr": "07",
    "SEC": "001",
    "SS": "48"
  },
  "addresses": [
    {
      "id": "pt.ine.add.PTCONT.1369142",
      "street": "R ANDRÉ MENDES",
      "house": "13",
      "postcode": "7250-127",
      "city": "ALANDROAL",
      "lon": "-7.399271201636893",
      "lat": "38.70520182533313"
    },
    {
      "id": "pt.ine.add.PTCONT.1373872",
      "street": "R ANDRÉ MENDES",
      "house": "3",
      "postcode": "7250-127",
      "city": "ALANDROAL",
      "lon": "-7.398912635741891",
      "lat": "38.70541576752896"
    },
    {
      "id": "pt.ine.add.PTCONT.1378949",
      "street": "R ANTÓNIO ALVARES",
      "house": "",
      "postcode": "7250-127",
      "city": "ALANDROAL",
      "lon": "-7.399825737402714",
      "lat": "38.70493506287581"
    },
    {
      "id": "pt.ine.add.PTCONT.1378980",
      "street": "R ANDRE MENDES",
      "house": "1",
      "postcode": "7250-127",
      "city": "ALANDROAL",
      "lon": "-7.399072465637919",
      "lat": "38.70552486754097"
    },
    {
      "id": "pt.ine.add.PTCONT.1379732",
      "street": "R ANTÓNIO ALVARES",
      "house": "",
      "postcode": "7250-127",
      "city": "ALANDROAL",
      "lon": "-7.399502212683101",
      "lat": "38.70509517836955"
    },
    {
      "id": "pt.ine.add.PTCONT.1385622",
      "street": "R ANDRÉ MENDES",
      "house": "2",
      "postcode": "7250-127",
      "city": "ALANDROAL",
      "lon": "-7.398992458522793",
      "lat": "38.705479325028904"
    },
    {
      "id": "pt.ine.add.PTCONT.1394983",
      "street": "R S BENTO",
      "house": "1",
      "postcode": "7250-127",
      "city": "ALANDROAL",
      "lon": "-7.400034216106419",
      "lat": "38.70478323330971"
    },
    {
      "id": "pt.ine.add.PTCONT.1397704",
      "street": "R S BENTO",
      "house": "",
      "postcode": "7250-127",
      "city": "ALANDROAL",
      "lon": "-7.400393878653193",
      "lat": "38.704461197932375"
    },
    {
      "id": "pt.ine.add.PTCONT.1398433",
      "street": "LG S BENTO",
      "house": "",
      "postcode": "7250-111",
      "city": "ALANDROAL",
      "lon": "-7.397538320193115",
      "lat": "38.706028685124416"
    },
    {
      "id": "pt.ine.add.PTCONT.1399640",
      "street": "R S BENTO",
      "house": "",
      "postcode": "7250-127",
      "city": "ALANDROAL",
      "lon": "-7.400475356219094",
      "lat": "38.70436261994603"
    },
    {
      "id": "pt.ine.add.PTCONT.1403764",
      "street": "R ANTÓNIO ALVARES",
      "house": "8",
      "postcode": "7250-127",
      "city": "ALANDROAL",
      "lon": "-7.399735063274578",
      "lat": "38.7048083815539"
    },
    {
      "id": "pt.ine.add.PTCONT.1408938",
      "street": "R ANDRÉ MENDES",
      "house": "6",
      "postcode": "7250-106",
      "city": "ALANDROAL",
      "lon": "-7.398606138074884",
      "lat": "38.70508587679893"
    },
    {
      "id": "pt.ine.add.PTCONT.1410808",
      "street": "R S BENTO",
      "house": "5",
      "postcode": "7250-127",
      "city": "ALANDROAL",
      "lon": "-7.400243245608373",
      "lat": "38.70457735853434"
    },
    {
      "id": "pt.ine.add.PTCONT.1413592",
      "street": "R ANTÓNIO ALVARES",
      "house": "1",
      "postcode": "7250-127",
      "city": "ALANDROAL",
      "lon": "-7.3996619507606205",
      "lat": "38.70521328505206"
    },
    {
      "id": "pt.ine.add.PTCONT.1416081",
      "street": "TAPADINHA DE S BENTO",
      "house": "",
      "postcode": "7250-201",
      "city": "ALANDROAL",
      "lon": "-7.399800911769989",
      "lat": "38.703989062237405"
    },
    {
      "id": "pt.ine.add.PTCONT.1418361",
      "street": "R ANDRÉ MENDES",
      "house": "10",
      "postcode": "7250-127",
      "city": "ALANDROAL",
      "lon": "-7.399373554890181",
      "lat": "38.70531056420212"
    },
    {
      "id": "pt.ine.add.PTCONT.1435518",
      "street": "R ANTÓNIO ALVARES",
      "house": "",
      "postcode": "7250-127",
      "city": "ALANDROAL",
      "lon": "-7.39943397721672",
      "lat": "38.70502268587321"
    },
    {
      "id": "pt.ine.add.PTCONT.1436274",
      "street": "R ANDRÉ MENDES",
      "house": "11",
      "postcode": "7250-127",
      "city": "ALANDROAL",
      "lon": "-7.399328125892901",
      "lat": "38.70525623084819"
    },
    {
      "id": "pt.ine.add.PTCONT.1441423",
      "street": "R ANDRE MENDES",
      "house": "14",
      "postcode": "7250-127",
      "city": "ALANDROAL",
      "lon": "-7.399202874227531",
      "lat": "38.70513834017252"
    },
    {
      "id": "pt.ine.add.PTCONT.1445262",
      "street": "R S BENTO",
      "house": "",
      "postcode": "7250-127",
      "city": "ALANDROAL",
      "lon": "-7.400116062385486",
      "lat": "38.704648625705936"
    },
    {
      "id": "pt.ine.add.PTCONT.1447595",
      "street": "R ANDRÉ MENDES",
      "house": "4",
      "postcode": "7250-127",
      "city": "ALANDROAL",
      "lon": "-7.398878978743026",
      "lat": "38.70533448378251"
    },
    {
      "id": "pt.ine.add.PTCONT.1447596",
      "street": "R ANDRÉ MENDES",
      "house": "",
      "postcode": "7250-127",
      "city": "ALANDROAL",
      "lon": "-7.399123419986381",
      "lat": "38.70503875294295"
    },
    {
      "id": "pt.ine.add.PTCONT.1448337",
      "street": "R ANTÓNIO ALVARES",
      "house": "7",
      "postcode": "7250-127",
      "city": "ALANDROAL",
      "lon": "-7.399598316457515",
      "lat": "38.704690419195565"
    },
    {
      "id": "pt.ine.add.PTCONT.1452110",
      "street": "R ANTÓNIO ALVARES",
      "house": "",
      "postcode": "7250-127",
      "city": "ALANDROAL",
      "lon": "-7.399354706895931",
      "lat": "38.70490508385974"
    },
    {
      "id": "pt.ine.add.PTCONT.1458238",
      "street": "R ANTÓNIO ALVARES",
      "house": "",
      "postcode": "7250-127",
      "city": "ALANDROAL",
      "lon": "-7.39980329884756",
      "lat": "38.70488087387815"
    },
    {
      "id": "pt.ine.add.PTCONT.1462365",
      "street": "LG S BENTO",
      "house": "",
      "postcode": "7250-111",
      "city": "ALANDROAL",
      "lon": "-7.397434286589413",
      "lat": "38.70604909593145"
    }
  ]
}