{
  "data": {
    "distrito": "Faro",
    "concelho": "São Brás de Alportel",
    "freguesia": "São Brás de Alportel",
    "OBJECTID": 93,
    "BGRI2021": "08120100917",
    "DT21": "08",
    "DTMN21": "0812",
    "DTMNFR21": "081201",
    "DTMNFRSEC21": "081201009",
    "SECNUM21": "009",
    "SSNUM21": "17",
    "SECSSNUM21": "00917",
    "OBJECTID_1": 71879,
    "DT": "08",
    "CC": "12",
    "fr": "01",
    "SEC": "009",
    "SS": "17"
  },
  "addresses": [
    {
      "id": "pt.ine.add.PTCONT.1488572",
      "street": "EN 270",
      "house": "789 VL",
      "postcode": "8150-025",
      "city": "SÃO BRÁS DE ALPORTEL",
      "lon": "-7.920250585880679",
      "lat": "37.152218697908694"
    },
    {
      "id": "pt.ine.add.PTCONT.1494431",
      "street": "EN 270",
      "house": "836 A",
      "postcode": "8150-025",
      "city": "SÃO BRÁS DE ALPORTEL",
      "lon": "-7.923301624903844",
      "lat": "37.152070958321644"
    },
    {
      "id": "pt.ine.add.PTCONT.1502397",
      "street": "",
      "house": "",
      "postcode": "8150-063",
      "city": "SÃO BRÁS DE ALPORTEL",
      "lon": "-7.925019159767562",
      "lat": "37.153813027186"
    },
    {
      "id": "pt.ine.add.PTCONT.1511652",
      "street": "LASA CAIPIRINHA",
      "house": "",
      "postcode": "8150-063",
      "city": "SÃO BRÁS DE ALPORTEL",
      "lon": "-7.924751461197784",
      "lat": "37.152911499461396"
    },
    {
      "id": "pt.ine.add.PTCONT.1514345",
      "street": "SIT VILARINHOS",
      "house": "120A",
      "postcode": "8150-063",
      "city": "SÃO BRÁS DE ALPORTEL",
      "lon": "-7.921945013370223",
      "lat": "37.15414999171379"
    },
    {
      "id": "pt.ine.add.PTCONT.1517453",
      "street": "EN 270",
      "house": "828A",
      "postcode": "8150-025",
      "city": "SÃO BRÁS DE ALPORTEL",
      "lon": "-7.922693729312218",
      "lat": "37.15207889124707"
    },
    {
      "id": "pt.ine.add.PTCONT.1521960",
      "street": "SIT VILARINHOS",
      "house": "116A",
      "postcode": "8150-063",
      "city": "SÃO BRÁS DE ALPORTEL",
      "lon": "-7.9223946751136705",
      "lat": "37.15437605632155"
    },
    {
      "id": "pt.ine.add.PTCONT.1526264",
      "street": "ESTR SEM DEIGNACAO",
      "house": "774A",
      "postcode": "8150-063",
      "city": "SÃO BRÁS DE ALPORTEL",
      "lon": "-7.920181276021499",
      "lat": "37.15284931364126"
    },
    {
      "id": "pt.ine.add.PTCONT.1528234",
      "street": "",
      "house": "",
      "postcode": "8150-059",
      "city": "SÃO BRÁS DE ALPORTEL",
      "lon": "-7.924386259348615",
      "lat": "37.154721982139556"
    },
    {
      "id": "pt.ine.add.PTCONT.1535121",
      "street": "SIT VILARINHOS",
      "house": "117 A",
      "postcode": "8150-063",
      "city": "SÃO BRÁS DE ALPORTEL",
      "lon": "-7.922574540562139",
      "lat": "37.15446648168688"
    },
    {
      "id": "pt.ine.add.PTCONT.1535154",
      "street": "EN 270",
      "house": "",
      "postcode": "8150-025",
      "city": "SÃO BRÁS DE ALPORTEL",
      "lon": "-7.924957149630292",
      "lat": "37.15179454948731"
    },
    {
      "id": "pt.ine.add.PTCONT.1549252",
      "street": "",
      "house": "",
      "postcode": "8150-063",
      "city": "SÃO BRÁS DE ALPORTEL",
      "lon": "-7.924098010213647",
      "lat": "37.153108581552026"
    },
    {
      "id": "pt.ine.add.PTCONT.1549253",
      "street": "SIT VILARINHOS -CASA PEREIRINHA CP 877A",
      "house": "",
      "postcode": "8150-063",
      "city": "SÃO BRÁS DE ALPORTEL",
      "lon": "-7.925742962104328",
      "lat": "37.152588857636914"
    },
    {
      "id": "pt.ine.add.PTCONT.1552487",
      "street": "SIT VILARINHOS",
      "house": "110 A",
      "postcode": "8150-063",
      "city": "SÃO BRÁS DE ALPORTEL",
      "lon": "-7.923913156650141",
      "lat": "37.154829274883724"
    },
    {
      "id": "pt.ine.add.PTCONT.1552507",
      "street": "EN 270",
      "house": "",
      "postcode": "8150-025",
      "city": "SÃO BRÁS DE ALPORTEL",
      "lon": "-7.925565165893435",
      "lat": "37.15174155227677"
    },
    {
      "id": "pt.ine.add.PTCONT.1560792",
      "street": "",
      "house": "",
      "postcode": "8150-063",
      "city": "SÃO BRÁS DE ALPORTEL",
      "lon": "-7.924266394646208",
      "lat": "37.153280079289075"
    },
    {
      "id": "pt.ine.add.PTCONT.1572643",
      "street": "EN 270",
      "house": "",
      "postcode": "8150-025",
      "city": "SÃO BRÁS DE ALPORTEL",
      "lon": "-7.9254300594542695",
      "lat": "37.1517503261933"
    },
    {
      "id": "pt.ine.add.PTCONT.1584531",
      "street": "EN 270",
      "house": "",
      "postcode": "8150-025",
      "city": "SÃO BRÁS DE ALPORTEL",
      "lon": "-7.920092863136842",
      "lat": "37.152263467419395"
    },
    {
      "id": "pt.ine.add.PTCONT.1587004",
      "street": "",
      "house": "",
      "postcode": "8150-063",
      "city": "SÃO BRÁS DE ALPORTEL",
      "lon": "-7.9254712433150205",
      "lat": "37.15315604815193"
    },
    {
      "id": "pt.ine.add.PTCONT.1593154",
      "street": "EN 270",
      "house": "792 A",
      "postcode": "8150-025",
      "city": "SÃO BRÁS DE ALPORTEL",
      "lon": "-7.92048687951993",
      "lat": "37.152255164342286"
    },
    {
      "id": "pt.ine.add.PTCONT.1593747",
      "street": "EN 270",
      "house": "",
      "postcode": "8150-025",
      "city": "SÃO BRÁS DE ALPORTEL",
      "lon": "-7.921545378577271",
      "lat": "37.1521309104469"
    },
    {
      "id": "pt.ine.add.PTCONT.1596159",
      "street": "EN 270",
      "house": "828 A",
      "postcode": "8150-025",
      "city": "SÃO BRÁS DE ALPORTEL",
      "lon": "-7.922840068551145",
      "lat": "37.15207915095576"
    },
    {
      "id": "pt.ine.add.PTCONT.1600473",
      "street": "CASA DAS OLIVEIRAS",
      "house": "",
      "postcode": "8150-063",
      "city": "SÃO BRÁS DE ALPORTEL",
      "lon": "-7.924928559313242",
      "lat": "37.154011100695215"
    },
    {
      "id": "pt.ine.add.PTCONT.1610403",
      "street": "EN 270",
      "house": "",
      "postcode": "8150-025",
      "city": "SÃO BRÁS DE ALPORTEL",
      "lon": "-7.920824888457492",
      "lat": "37.15214764332553"
    },
    {
      "id": "pt.ine.add.PTCONT.1631282",
      "street": "EN 270",
      "house": "860 A",
      "postcode": "8150-063",
      "city": "SÃO BRÁS DE ALPORTEL",
      "lon": "-7.924517960254891",
      "lat": "37.15185685139641"
    },
    {
      "id": "pt.ine.add.PTCONT.1641702",
      "street": "EN 270",
      "house": "",
      "postcode": "8150-025",
      "city": "SÃO BRÁS DE ALPORTEL",
      "lon": "-7.924394135094087",
      "lat": "37.15185663340874"
    },
    {
      "id": "pt.ine.add.PTCONT.1641703",
      "street": "EN 270",
      "house": "784 A",
      "postcode": "8150-025",
      "city": "SÃO BRÁS DE ALPORTEL",
      "lon": "-7.919890264419472",
      "lat": "37.152254092547004"
    },
    {
      "id": "pt.ine.add.PTCONT.1645357",
      "street": "",
      "house": "",
      "postcode": "8150-063",
      "city": "SÃO BRÁS DE ALPORTEL",
      "lon": "-7.925710446340758",
      "lat": "37.152129261375144"
    },
    {
      "id": "pt.ine.add.PTCONT.1645358",
      "street": "EN 270",
      "house": "",
      "postcode": "8150-025",
      "city": "SÃO BRÁS DE ALPORTEL",
      "lon": "-7.921815643776329",
      "lat": "37.152095350262506"
    },
    {
      "id": "pt.ine.add.PTCONT.1646791",
      "street": "EN 270",
      "house": "782 A",
      "postcode": "8150-025",
      "city": "SÃO BRÁS DE ALPORTEL",
      "lon": "-7.919991551127946",
      "lat": "37.15226328529126"
    },
    {
      "id": "pt.ine.add.PTCONT.1660168",
      "street": "",
      "house": "",
      "postcode": "8150-063",
      "city": "SÃO BRÁS DE ALPORTEL",
      "lon": "-7.924401553466287",
      "lat": "37.1532532856488"
    },
    {
      "id": "pt.ine.add.PTCONT.1662599",
      "street": "",
      "house": "",
      "postcode": "8150-063",
      "city": "SÃO BRÁS DE ALPORTEL",
      "lon": "-7.925099712094208",
      "lat": "37.15317341783166"
    },
    {
      "id": "pt.ine.add.PTCONT.1662600",
      "street": "EN 270",
      "house": "842A",
      "postcode": "8150-025",
      "city": "SÃO BRÁS DE ALPORTEL",
      "lon": "-7.923459420003649",
      "lat": "37.15199915293627"
    },
    {
      "id": "pt.ine.add.PTCONT.1665106",
      "street": "SOALHEIRA",
      "house": "104 A",
      "postcode": "8150-059",
      "city": "SÃO BRÁS DE ALPORTEL",
      "lon": "-7.924881998748863",
      "lat": "37.154569674414155"
    },
    {
      "id": "pt.ine.add.PTCONT.1671574",
      "street": "EN 270",
      "house": "790 A",
      "postcode": "8150-025",
      "city": "SÃO BRÁS DE ALPORTEL",
      "lon": "-7.9203968496478",
      "lat": "37.152245992224444"
    },
    {
      "id": "pt.ine.add.PTCONT.1688400",
      "street": "SOALHEIRA",
      "house": "108A",
      "postcode": "8150-059",
      "city": "SÃO BRÁS DE ALPORTEL",
      "lon": "-7.924722913757126",
      "lat": "37.15511002912544"
    },
    {
      "id": "pt.ine.add.PTCONT.1702756",
      "street": "EN 270",
      "house": "",
      "postcode": "8150-025",
      "city": "SÃO BRÁS DE ALPORTEL",
      "lon": "-7.924157692023378",
      "lat": "37.151874237956505"
    },
    {
      "id": "pt.ine.add.PTCONT.1719756",
      "street": "SOALHEIRA",
      "house": "108 A",
      "postcode": "8150-059",
      "city": "SÃO BRÁS DE ALPORTEL",
      "lon": "-7.924745601469245",
      "lat": "37.155046995013144"
    },
    {
      "id": "pt.ine.add.PTCONT.1725488",
      "street": "",
      "house": "",
      "postcode": "8150-063",
      "city": "SÃO BRÁS DE ALPORTEL",
      "lon": "-7.9226988443602275",
      "lat": "37.15429550155743"
    },
    {
      "id": "pt.ine.add.PTCONT.1731900",
      "street": "EN 270",
      "house": "",
      "postcode": "8150-025",
      "city": "SÃO BRÁS DE ALPORTEL",
      "lon": "-7.925677512547691",
      "lat": "37.15182284414269"
    },
    {
      "id": "pt.ine.add.PTCONT.1754952",
      "street": "",
      "house": "",
      "postcode": "8150-063",
      "city": "SÃO BRÁS DE ALPORTEL",
      "lon": "-7.9199570722919965",
      "lat": "37.15251551938581"
    },
    {
      "id": "pt.ine.add.PTCONT.1756139",
      "street": "EN 270",
      "house": "93GA",
      "postcode": "8150-025",
      "city": "SÃO BRÁS DE ALPORTEL",
      "lon": "-7.923290716581674",
      "lat": "37.15194479094743"
    },
    {
      "id": "pt.ine.add.PTCONT.1758429",
      "street": "EN 270",
      "house": "",
      "postcode": "8150-025",
      "city": "SÃO BRÁS DE ALPORTEL",
      "lon": "-7.922006434392867",
      "lat": "37.15230293347341"
    },
    {
      "id": "pt.ine.add.PTCONT.1761495",
      "street": "",
      "house": "",
      "postcode": "8150-063",
      "city": "SÃO BRÁS DE ALPORTEL",
      "lon": "-7.923433472965776",
      "lat": "37.15324256639809"
    },
    {
      "id": "pt.ine.add.PTCONT.1784896",
      "street": "EN 270",
      "house": "850 A",
      "postcode": "8150-025",
      "city": "SÃO BRÁS DE ALPORTEL",
      "lon": "-7.923864915002187",
      "lat": "37.15190976374431"
    },
    {
      "id": "pt.ine.add.PTCONT.1794423",
      "street": "EN 270",
      "house": "",
      "postcode": "8150-025",
      "city": "SÃO BRÁS DE ALPORTEL",
      "lon": "-7.921207546726616",
      "lat": "37.1521753598093"
    },
    {
      "id": "pt.ine.add.PTCONT.1803274",
      "street": "",
      "house": "",
      "postcode": "8150-063",
      "city": "SÃO BRÁS DE ALPORTEL",
      "lon": "-7.923681425999693",
      "lat": "37.153134877901095"
    },
    {
      "id": "pt.ine.add.PTCONT.1817278",
      "street": "EN 270",
      "house": "",
      "postcode": "8150-025",
      "city": "SÃO BRÁS DE ALPORTEL",
      "lon": "-7.92477669437801",
      "lat": "37.15192038050146"
    },
    {
      "id": "pt.ine.add.PTCONT.1834751",
      "street": "",
      "house": "",
      "postcode": "8150-063",
      "city": "SÃO BRÁS DE ALPORTEL",
      "lon": "-7.9256762819121835",
      "lat": "37.152273370804124"
    },
    {
      "id": "pt.ine.add.PTCONT.1834752",
      "street": "EN 270",
      "house": "802 A",
      "postcode": "8150-025",
      "city": "SÃO BRÁS DE ALPORTEL",
      "lon": "-7.92100489776298",
      "lat": "37.15218400790316"
    },
    {
      "id": "pt.ine.add.PTCONT.1845763",
      "street": "EN 270",
      "house": "",
      "postcode": "8150-025",
      "city": "SÃO BRÁS DE ALPORTEL",
      "lon": "-7.922321527473777",
      "lat": "37.15233953657563"
    }
  ]
}