{
  "data": {
    "distrito": "Santarém",
    "concelho": "Salvaterra de Magos",
    "freguesia": "União das freguesias de Glória do Ribatejo e Granho",
    "OBJECTID": 234,
    "BGRI2021": "14150700320",
    "DT21": "14",
    "DTMN21": "1415",
    "DTMNFR21": "141507",
    "DTMNFRSEC21": "141507003",
    "SECNUM21": "003",
    "SSNUM21": "20",
    "SECSSNUM21": "00320",
    "OBJECTID_1": 153299,
    "DT": "14",
    "CC": "15",
    "fr": "07",
    "SEC": "003",
    "SS": "20"
  },
  "addresses": [
    {
      "id": "pt.ine.add.PTCONT.4399011",
      "street": "R CORUCHE",
      "house": "",
      "postcode": "2125-050",
      "city": "GLÓRIA DO RIBATEJO",
      "lon": "-8.64097645834895",
      "lat": "39.04020637914647"
    },
    {
      "id": "pt.ine.add.PTCONT.4448340",
      "street": "R JOSE AFONSO",
      "house": "12",
      "postcode": "2125-064",
      "city": "GLÓRIA DO RIBATEJO",
      "lon": "-8.640844960983808",
      "lat": "39.03958542606009"
    },
    {
      "id": "pt.ine.add.PTCONT.4450379",
      "street": "R CORUCHE",
      "house": "",
      "postcode": "2125-050",
      "city": "GLÓRIA DO RIBATEJO",
      "lon": "-8.640697907053012",
      "lat": "39.04001843172246"
    },
    {
      "id": "pt.ine.add.PTCONT.4467180",
      "street": "R CORUCHE",
      "house": "54",
      "postcode": "2125-050",
      "city": "GLÓRIA DO RIBATEJO",
      "lon": "-8.640790692858953",
      "lat": "39.04007207360327"
    },
    {
      "id": "pt.ine.add.PTCONT.4477038",
      "street": "R JOSE AFONSO",
      "house": "",
      "postcode": "2125-064",
      "city": "GLÓRIA DO RIBATEJO",
      "lon": "-8.640695329063329",
      "lat": "39.03965813825524"
    },
    {
      "id": "pt.ine.add.PTCONT.4539459",
      "street": "R ESCOLA VELHA",
      "house": "19",
      "postcode": "2125-042",
      "city": "GLÓRIA DO RIBATEJO",
      "lon": "-8.640938391130174",
      "lat": "39.039729141196794"
    },
    {
      "id": "pt.ine.add.PTCONT.4543389",
      "street": "R SARG PALHAS",
      "house": "9",
      "postcode": "2125-067",
      "city": "GLÓRIA DO RIBATEJO",
      "lon": "-8.641309921556978",
      "lat": "39.03999775153309"
    },
    {
      "id": "pt.ine.add.PTCONT.4558042",
      "street": "R CORUCHE",
      "house": "",
      "postcode": "2125-050",
      "city": "GLÓRIA DO RIBATEJO",
      "lon": "-8.640860507954466",
      "lat": "39.04014383064055"
    },
    {
      "id": "pt.ine.add.PTCONT.4562259",
      "street": "R ESCOLA VELHA",
      "house": "17",
      "postcode": "2125-042",
      "city": "GLÓRIA DO RIBATEJO",
      "lon": "-8.640973878927307",
      "lat": "39.03984608570649"
    },
    {
      "id": "pt.ine.add.PTCONT.4632603",
      "street": "R CORUCHE",
      "house": "70",
      "postcode": "2125-050",
      "city": "GLÓRIA DO RIBATEJO",
      "lon": "-8.640477042054853",
      "lat": "39.03982122509246"
    },
    {
      "id": "pt.ine.add.PTCONT.4646838",
      "street": "R CORUCHE",
      "house": "50",
      "postcode": "2125-050",
      "city": "GLÓRIA DO RIBATEJO",
      "lon": "-8.640929549430258",
      "lat": "39.04010749960396"
    },
    {
      "id": "pt.ine.add.PTCONT.4662318",
      "street": "R SARG PALHAS",
      "house": "7",
      "postcode": "2125-067",
      "city": "GLÓRIA DO RIBATEJO",
      "lon": "-8.641148610352278",
      "lat": "39.04005249995854"
    }
  ]
}