{
  "data": {
    "distrito": "Setúbal",
    "concelho": "Almada",
    "freguesia": "União das freguesias de Charneca de Caparica e Sobreda",
    "OBJECTID": 1333,
    "BGRI2021": "15031402522",
    "DT21": "15",
    "DTMN21": "1503",
    "DTMNFR21": "150314",
    "DTMNFRSEC21": "150314025",
    "SECNUM21": "025",
    "SSNUM21": "22",
    "SECSSNUM21": "02522",
    "OBJECTID_1": 162087,
    "DT": "15",
    "CC": "03",
    "fr": "14",
    "SEC": "025",
    "SS": "22"
  },
  "addresses": [
    {
      "id": "pt.ine.add.PTCONT.4667111",
      "street": "R TULIPAS",
      "house": "8",
      "postcode": "2815-665",
      "city": "SOBREDA",
      "lon": "-9.179043069409799",
      "lat": "38.650292358688155"
    },
    {
      "id": "pt.ine.add.PTCONT.4677956",
      "street": "R ALECRIM",
      "house": "13",
      "postcode": "2815-720",
      "city": "SOBREDA",
      "lon": "-9.178514471172308",
      "lat": "38.650279068201606"
    },
    {
      "id": "pt.ine.add.PTCONT.4677978",
      "street": "R QUINTA DA CANEIRA",
      "house": "2B",
      "postcode": "2815-880",
      "city": "SOBREDA",
      "lon": "-9.183141180211845",
      "lat": "38.65010250705854"
    },
    {
      "id": "pt.ine.add.PTCONT.4696489",
      "street": "R QUINTA DA CANEIRA",
      "house": "1",
      "postcode": "2815-880",
      "city": "SOBREDA",
      "lon": "-9.183072135572594",
      "lat": "38.650094118883736"
    },
    {
      "id": "pt.ine.add.PTCONT.4696549",
      "street": "R ALTO INDIO",
      "house": "",
      "postcode": "2815-625",
      "city": "SOBREDA",
      "lon": "-9.183365410421011",
      "lat": "38.65365863606797"
    },
    {
      "id": "pt.ine.add.PTCONT.4696550",
      "street": "R ALTO DO INDIO",
      "house": "72",
      "postcode": "2815-625",
      "city": "SOBREDA",
      "lon": "-9.183365410421011",
      "lat": "38.65365863606797"
    },
    {
      "id": "pt.ine.add.PTCONT.4703567",
      "street": "R QUINTA DA CANEIRA",
      "house": "",
      "postcode": "2815-880",
      "city": "SOBREDA",
      "lon": "-9.181282688132452",
      "lat": "38.65105600331705"
    },
    {
      "id": "pt.ine.add.PTCONT.4708989",
      "street": "R QUINTA DA CANEIRA",
      "house": "2",
      "postcode": "2815-880",
      "city": "SOBREDA",
      "lon": "-9.182886132539378",
      "lat": "38.6499426530643"
    },
    {
      "id": "pt.ine.add.PTCONT.4714329",
      "street": "R ALECRIM",
      "house": "16",
      "postcode": "2815-720",
      "city": "SOBREDA",
      "lon": "-9.178356814288723",
      "lat": "38.65049666816437"
    },
    {
      "id": "pt.ine.add.PTCONT.4714330",
      "street": "R ACÁCIAS",
      "house": "22",
      "postcode": "2815-743",
      "city": "SOBREDA",
      "lon": "-9.180700155489468",
      "lat": "38.64891732765867"
    },
    {
      "id": "pt.ine.add.PTCONT.4725221",
      "street": "R ALECRIM",
      "house": "30",
      "postcode": "2815-720",
      "city": "SOBREDA",
      "lon": "-9.177869343319381",
      "lat": "38.65094241320738"
    },
    {
      "id": "pt.ine.add.PTCONT.4736675",
      "street": "R GEN SOUSA DIAS",
      "house": "3",
      "postcode": "2815-623",
      "city": "SOBREDA",
      "lon": "-9.183704072793182",
      "lat": "38.65325023687857"
    },
    {
      "id": "pt.ine.add.PTCONT.4740407",
      "street": "R BERNARDINO MACHADO QTA S JOJE",
      "house": "",
      "postcode": "2815-627",
      "city": "SOBREDA",
      "lon": "-9.180300325795688",
      "lat": "38.6538032207316"
    },
    {
      "id": "pt.ine.add.PTCONT.4742686",
      "street": "R QUINTA DA CANEIRA",
      "house": "",
      "postcode": "2815-880",
      "city": "SOBREDA",
      "lon": "-9.181395838558293",
      "lat": "38.65093788587447"
    },
    {
      "id": "pt.ine.add.PTCONT.4744189",
      "street": "R GEN SOUSA DIAS",
      "house": "21",
      "postcode": "2815-623",
      "city": "SOBREDA",
      "lon": "-9.18388262398119",
      "lat": "38.65210462296405"
    },
    {
      "id": "pt.ine.add.PTCONT.4747177",
      "street": "R ALTO DO INDIO",
      "house": "72",
      "postcode": "2815-625",
      "city": "SOBREDA",
      "lon": "-9.183295178701854",
      "lat": "38.653569187136775"
    },
    {
      "id": "pt.ine.add.PTCONT.4747880",
      "street": "R GEN SOUSA DIAS",
      "house": "1",
      "postcode": "2815-623",
      "city": "SOBREDA",
      "lon": "-9.183682811038748",
      "lat": "38.6533675312278"
    },
    {
      "id": "pt.ine.add.PTCONT.4762007",
      "street": "R MARIA ISABEL INGLES",
      "house": "21",
      "postcode": "2815-845",
      "city": "SOBREDA",
      "lon": "-9.183469174707387",
      "lat": "38.64896455951784"
    },
    {
      "id": "pt.ine.add.PTCONT.4765856",
      "street": "R QUINTA DA CANEIRA",
      "house": "2",
      "postcode": "2815-880",
      "city": "SOBREDA",
      "lon": "-9.182565195452145",
      "lat": "38.649990572713634"
    },
    {
      "id": "pt.ine.add.PTCONT.4769453",
      "street": "R QUINTA DA CANEIRA",
      "house": "",
      "postcode": "2815-880",
      "city": "SOBREDA",
      "lon": "-9.182187881187174",
      "lat": "38.650111060792106"
    },
    {
      "id": "pt.ine.add.PTCONT.4772834",
      "street": "R QUINTA DA CANEIRA",
      "house": "3",
      "postcode": "2815-880",
      "city": "SOBREDA",
      "lon": "-9.183187385292852",
      "lat": "38.65012010818843"
    },
    {
      "id": "pt.ine.add.PTCONT.4786739",
      "street": "R QUINTA DA CANEIRA",
      "house": "",
      "postcode": "2815-880",
      "city": "SOBREDA",
      "lon": "-9.18119067139491",
      "lat": "38.651047819887374"
    },
    {
      "id": "pt.ine.add.PTCONT.4786842",
      "street": "QTA CANEIRA",
      "house": "86",
      "postcode": "2815-855",
      "city": "SOBREDA",
      "lon": "-9.181798747704086",
      "lat": "38.64942093733294"
    },
    {
      "id": "pt.ine.add.PTCONT.4790374",
      "street": "R ALECRIM",
      "house": "20",
      "postcode": "2815-720",
      "city": "SOBREDA",
      "lon": "-9.178592644711461",
      "lat": "38.65012523419125"
    },
    {
      "id": "pt.ine.add.PTCONT.4799069",
      "street": "R ANA OSÓRIO",
      "house": "",
      "postcode": "2815-855",
      "city": "SOBREDA",
      "lon": "-9.18134622234789",
      "lat": "38.64910971489597"
    },
    {
      "id": "pt.ine.add.PTCONT.4822333",
      "street": "R ALTO DO INDIO",
      "house": "9",
      "postcode": "2815-625",
      "city": "SOBREDA",
      "lon": "-9.18361573650861",
      "lat": "38.65349424498328"
    },
    {
      "id": "pt.ine.add.PTCONT.4825742",
      "street": "R TULIPAS",
      "house": "14",
      "postcode": "2815-665",
      "city": "SOBREDA",
      "lon": "-9.179480700350041",
      "lat": "38.650369516289295"
    },
    {
      "id": "pt.ine.add.PTCONT.4829211",
      "street": "R QUINTA CANEIRA",
      "house": "",
      "postcode": "2815-880",
      "city": "SOBREDA",
      "lon": "-9.181922400652967",
      "lat": "38.65002336192156"
    },
    {
      "id": "pt.ine.add.PTCONT.4837230",
      "street": "R GEN SOUSA DIAS",
      "house": "9",
      "postcode": "2815-623",
      "city": "SOBREDA",
      "lon": "-9.183745017289583",
      "lat": "38.65290756691176"
    },
    {
      "id": "pt.ine.add.PTCONT.4837690",
      "street": "R TULIPAS",
      "house": "18",
      "postcode": "2815-665",
      "city": "SOBREDA",
      "lon": "-9.179792777016251",
      "lat": "38.650501843558196"
    },
    {
      "id": "pt.ine.add.PTCONT.4852191",
      "street": "EN 10-1",
      "house": "",
      "postcode": "2815-892",
      "city": "SOBREDA",
      "lon": "-9.182395256651848",
      "lat": "38.648577847673806"
    },
    {
      "id": "pt.ine.add.PTCONT.4853264",
      "street": "R ANA OSÓRIO",
      "house": "20",
      "postcode": "2815-855",
      "city": "SOBREDA",
      "lon": "-9.182271226446954",
      "lat": "38.649524795963465"
    },
    {
      "id": "pt.ine.add.PTCONT.4859967",
      "street": "EN 10-1",
      "house": "215",
      "postcode": "2815-892",
      "city": "SOBREDA",
      "lon": "-9.183662452485255",
      "lat": "38.6488277044221"
    },
    {
      "id": "pt.ine.add.PTCONT.4865159",
      "street": "R ANA OSÓRIO",
      "house": "24",
      "postcode": "2815-855",
      "city": "SOBREDA",
      "lon": "-9.182582910155217",
      "lat": "38.649630095446156"
    },
    {
      "id": "pt.ine.add.PTCONT.4877599",
      "street": "R QUINTA DA CANEIRA",
      "house": "",
      "postcode": "2815-880",
      "city": "SOBREDA",
      "lon": "-9.181385796786294",
      "lat": "38.65103706339842"
    },
    {
      "id": "pt.ine.add.PTCONT.4878685",
      "street": "R ALECRIM",
      "house": "10",
      "postcode": "2815-720",
      "city": "SOBREDA",
      "lon": "-9.178062375499925",
      "lat": "38.65078755360531"
    },
    {
      "id": "pt.ine.add.PTCONT.4878686",
      "street": "R ALECRIM",
      "house": "10",
      "postcode": "2815-720",
      "city": "SOBREDA",
      "lon": "-9.178062375499925",
      "lat": "38.65078755360531"
    },
    {
      "id": "pt.ine.add.PTCONT.4878687",
      "street": "R TULIPAS",
      "house": "13",
      "postcode": "2815-665",
      "city": "SOBREDA",
      "lon": "-9.179938812874596",
      "lat": "38.65027533772508"
    },
    {
      "id": "pt.ine.add.PTCONT.4886692",
      "street": "R ACÁCIAS",
      "house": "12",
      "postcode": "2815-743",
      "city": "SOBREDA",
      "lon": "-9.180331628798685",
      "lat": "38.64964126440387"
    },
    {
      "id": "pt.ine.add.PTCONT.4886693",
      "street": "R ACÁCIAS",
      "house": "12",
      "postcode": "2815-743",
      "city": "SOBREDA",
      "lon": "-9.180331628798685",
      "lat": "38.64964126440387"
    },
    {
      "id": "pt.ine.add.PTCONT.4905533",
      "street": "R ACÁCIAS",
      "house": "14",
      "postcode": "2815-743",
      "city": "SOBREDA",
      "lon": "-9.180398443454335",
      "lat": "38.649496538846584"
    },
    {
      "id": "pt.ine.add.PTCONT.4914714",
      "street": "R GEN SOUSA DIAS",
      "house": "23",
      "postcode": "2815-623",
      "city": "SOBREDA",
      "lon": "-9.183857810200317",
      "lat": "38.65197873451375"
    },
    {
      "id": "pt.ine.add.PTCONT.4925265",
      "street": "R DALIAS",
      "house": "4",
      "postcode": "2815-666",
      "city": "SOBREDA",
      "lon": "-9.17878802995861",
      "lat": "38.650132495644094"
    },
    {
      "id": "pt.ine.add.PTCONT.4931469",
      "street": "R GEN SOUSA DIAS",
      "house": "5",
      "postcode": "2815-623",
      "city": "SOBREDA",
      "lon": "-9.183679258882744",
      "lat": "38.65312434841587"
    },
    {
      "id": "pt.ine.add.PTCONT.4936206",
      "street": "R TULIPAS",
      "house": "16",
      "postcode": "2815-665",
      "city": "SOBREDA",
      "lon": "-9.179688227141664",
      "lat": "38.65042170741655"
    },
    {
      "id": "pt.ine.add.PTCONT.4946730",
      "street": "R BERNARDINO MACHADO QTA S JOSE",
      "house": "",
      "postcode": "2815-627",
      "city": "SOBREDA",
      "lon": "-9.180696567941077",
      "lat": "38.653403322610814"
    },
    {
      "id": "pt.ine.add.PTCONT.4949064",
      "street": "R QUINTA DA CANEIRA",
      "house": "",
      "postcode": "2815-880",
      "city": "SOBREDA",
      "lon": "-9.181557688179307",
      "lat": "38.6510084989271"
    },
    {
      "id": "pt.ine.add.PTCONT.4957938",
      "street": "R QUINTA DA CANEIRA",
      "house": "3",
      "postcode": "2815-880",
      "city": "SOBREDA",
      "lon": "-9.182123696664187",
      "lat": "38.65043592290983"
    },
    {
      "id": "pt.ine.add.PTCONT.4961410",
      "street": "R QUINTA DA CANEIRA",
      "house": "2",
      "postcode": "2815-880",
      "city": "SOBREDA",
      "lon": "-9.182426580967727",
      "lat": "38.649937768519685"
    },
    {
      "id": "pt.ine.add.PTCONT.4970924",
      "street": "R GEN SOUSA DIAS",
      "house": "",
      "postcode": "2815-623",
      "city": "SOBREDA",
      "lon": "-9.183677062763579",
      "lat": "38.65218754099364"
    },
    {
      "id": "pt.ine.add.PTCONT.4979728",
      "street": "R GEN SOUSA DIAS",
      "house": "7",
      "postcode": "2815-623",
      "city": "SOBREDA",
      "lon": "-9.183689297713013",
      "lat": "38.65302517077038"
    },
    {
      "id": "pt.ine.add.PTCONT.4986697",
      "street": "R QUINTA DA CANEIRA",
      "house": "14",
      "postcode": "2815-880",
      "city": "SOBREDA",
      "lon": "-9.183688317049032",
      "lat": "38.64902564721973"
    },
    {
      "id": "pt.ine.add.PTCONT.4989185",
      "street": "R QUINTA DA CANEIRA",
      "house": "14",
      "postcode": "2815-880",
      "city": "SOBREDA",
      "lon": "-9.183688317049032",
      "lat": "38.64902564721973"
    },
    {
      "id": "pt.ine.add.PTCONT.4990196",
      "street": "R QUINTA CANEIRA CD REVEZ",
      "house": "CD REVEZ",
      "postcode": "2815-880",
      "city": "SOBREDA",
      "lon": "-9.182244520650702",
      "lat": "38.65005650504775"
    },
    {
      "id": "pt.ine.add.PTCONT.5023535",
      "street": "EN 10-1",
      "house": "217",
      "postcode": "2815-892",
      "city": "SOBREDA",
      "lon": "-9.183766346590879",
      "lat": "38.64886280311653"
    },
    {
      "id": "pt.ine.add.PTCONT.5027292",
      "street": "R ALECRIM",
      "house": "12 A",
      "postcode": "2815-720",
      "city": "SOBREDA",
      "lon": "-9.17814120481841",
      "lat": "38.650678753842904"
    },
    {
      "id": "pt.ine.add.PTCONT.5034724",
      "street": "R ACÁCIAS",
      "house": "8",
      "postcode": "2815-743",
      "city": "SOBREDA",
      "lon": "-9.180185595430416",
      "lat": "38.649867770716206"
    },
    {
      "id": "pt.ine.add.PTCONT.5040691",
      "street": "R TULIPAS",
      "house": "10",
      "postcode": "2815-665",
      "city": "SOBREDA",
      "lon": "-9.179203736444181",
      "lat": "38.65028191396293"
    },
    {
      "id": "pt.ine.add.PTCONT.5041717",
      "street": "EN 10-1",
      "house": "201 A",
      "postcode": "2815-892",
      "city": "SOBREDA",
      "lon": "-9.181590892562914",
      "lat": "38.648558036462376"
    },
    {
      "id": "pt.ine.add.PTCONT.5045312",
      "street": "R MARIA ISABEL INGLES",
      "house": "17",
      "postcode": "2815-845",
      "city": "SOBREDA",
      "lon": "-9.183135179365308",
      "lat": "38.64890450246144"
    },
    {
      "id": "pt.ine.add.PTCONT.5070893",
      "street": "EN 10-1",
      "house": "211A",
      "postcode": "2815-892",
      "city": "SOBREDA",
      "lon": "-9.183224695353207",
      "lat": "38.64874155559971"
    },
    {
      "id": "pt.ine.add.PTCONT.5074675",
      "street": "QTA INDIO",
      "house": "",
      "postcode": "2815-741",
      "city": "SOBREDA",
      "lon": "-9.183358702786123",
      "lat": "38.653199290723975"
    },
    {
      "id": "pt.ine.add.PTCONT.5075064",
      "street": "R ACÁCIAS",
      "house": "24",
      "postcode": "2815-743",
      "city": "SOBREDA",
      "lon": "-9.180720371613605",
      "lat": "38.6487279794236"
    },
    {
      "id": "pt.ine.add.PTCONT.5078159",
      "street": "R ALTO DO INDIO",
      "house": "5",
      "postcode": "2815-625",
      "city": "SOBREDA",
      "lon": "-9.18320605162917",
      "lat": "38.65375915431648"
    },
    {
      "id": "pt.ine.add.PTCONT.5085235",
      "street": "R GEN SOUSA DIAS",
      "house": "13",
      "postcode": "2815-623",
      "city": "SOBREDA",
      "lon": "-9.1837960000554",
      "lat": "38.65246571925543"
    },
    {
      "id": "pt.ine.add.PTCONT.5088574",
      "street": "R TULIPAS",
      "house": "6",
      "postcode": "2815-665",
      "city": "SOBREDA",
      "lon": "-9.178937734946267",
      "lat": "38.65015818112226"
    },
    {
      "id": "pt.ine.add.PTCONT.5097780",
      "street": "R ANA OSÓRIO",
      "house": "",
      "postcode": "2815-855",
      "city": "SOBREDA",
      "lon": "-9.183032946254658",
      "lat": "38.64977018416919"
    },
    {
      "id": "pt.ine.add.PTCONT.5099314",
      "street": "R QUINTA DA CANEIRA",
      "house": "3",
      "postcode": "2815-880",
      "city": "SOBREDA",
      "lon": "-9.182118573936153",
      "lat": "38.65008465849274"
    },
    {
      "id": "pt.ine.add.PTCONT.5099378",
      "street": "R ANA OSÓRIO",
      "house": "22",
      "postcode": "2815-855",
      "city": "SOBREDA",
      "lon": "-9.182467398644475",
      "lat": "38.649586091969674"
    },
    {
      "id": "pt.ine.add.PTCONT.5102873",
      "street": "R AGATAO LANCA",
      "house": "27",
      "postcode": "2815-741",
      "city": "SOBREDA",
      "lon": "-9.184270807531064",
      "lat": "38.651155299919054"
    },
    {
      "id": "pt.ine.add.PTCONT.5109645",
      "street": "R QUINTA DA CANEIRA",
      "house": "",
      "postcode": "2815-880",
      "city": "SOBREDA",
      "lon": "-9.18183800151472",
      "lat": "38.65053757225844"
    },
    {
      "id": "pt.ine.add.PTCONT.5117191",
      "street": "R TULIPAS",
      "house": "20",
      "postcode": "2815-665",
      "city": "SOBREDA",
      "lon": "-9.179976808842923",
      "lat": "38.650518212569956"
    },
    {
      "id": "pt.ine.add.PTCONT.5129769",
      "street": "R ALECRIM",
      "house": "3",
      "postcode": "2815-720",
      "city": "SOBREDA",
      "lon": "-9.178699549573828",
      "lat": "38.65036749355483"
    }
  ]
}