{
  "data": {
    "distrito": "Viseu",
    "concelho": "Tarouca",
    "freguesia": "Várzea da Serra",
    "OBJECTID": 87,
    "BGRI2021": "18200900109",
    "DT21": "18",
    "DTMN21": "1820",
    "DTMNFR21": "182009",
    "DTMNFRSEC21": "182009001",
    "SECNUM21": "001",
    "SSNUM21": "09",
    "SECSSNUM21": "00109",
    "OBJECTID_1": 198664,
    "DT": "18",
    "CC": "20",
    "fr": "09",
    "SEC": "001",
    "SS": "09"
  },
  "addresses": [
    {
      "id": "pt.ine.add.PTCONT.5431671",
      "street": "R S BARBARA",
      "house": "",
      "postcode": "3610-196",
      "city": "VÁRZEA DA SERRA",
      "lon": "-7.824125236318927",
      "lat": "40.99330054852745"
    },
    {
      "id": "pt.ine.add.PTCONT.5469936",
      "street": "AV S MARTINHO",
      "house": "1",
      "postcode": "3610-198",
      "city": "VÁRZEA DA SERRA",
      "lon": "-7.824084201524215",
      "lat": "40.99445303077768"
    },
    {
      "id": "pt.ine.add.PTCONT.5473900",
      "street": "R S BARBARA",
      "house": "10",
      "postcode": "3610-196",
      "city": "VÁRZEA DA SERRA",
      "lon": "-7.825052627596204",
      "lat": "40.99321298423655"
    },
    {
      "id": "pt.ine.add.PTCONT.5475481",
      "street": "R S BARBARA",
      "house": "5",
      "postcode": "3610-196",
      "city": "VÁRZEA DA SERRA",
      "lon": "-7.824017142497315",
      "lat": "40.99354338369467"
    },
    {
      "id": "pt.ine.add.PTCONT.5479068",
      "street": "R S BARBARA",
      "house": "8",
      "postcode": "3610-196",
      "city": "VÁRZEA DA SERRA",
      "lon": "-7.824292582340343",
      "lat": "40.99309389050549"
    },
    {
      "id": "pt.ine.add.PTCONT.5489866",
      "street": "R MONSENHOR MANUEL CARVALHO PINTO",
      "house": "",
      "postcode": "3610-206",
      "city": "VÁRZEA DA SERRA",
      "lon": "-7.82462580221703",
      "lat": "40.992995731769184"
    },
    {
      "id": "pt.ine.add.PTCONT.5500684",
      "street": "R S BARBARA",
      "house": "4",
      "postcode": "3610-196",
      "city": "VÁRZEA DA SERRA",
      "lon": "-7.823992953301929",
      "lat": "40.99363336510772"
    },
    {
      "id": "pt.ine.add.PTCONT.5506418",
      "street": "R S BARBARA",
      "house": "14",
      "postcode": "3610-196",
      "city": "VÁRZEA DA SERRA",
      "lon": "-7.825266376424443",
      "lat": "40.99324957374929"
    },
    {
      "id": "pt.ine.add.PTCONT.5563107",
      "street": "R S BARBARA",
      "house": "11",
      "postcode": "3610-196",
      "city": "VÁRZEA DA SERRA",
      "lon": "-7.824660741375057",
      "lat": "40.99314890394072"
    },
    {
      "id": "pt.ine.add.PTCONT.5568440",
      "street": "R MONSENHOR MANUEL CARVALHO PINTO",
      "house": "1",
      "postcode": "3610-206",
      "city": "VÁRZEA DA SERRA",
      "lon": "-7.825539797863749",
      "lat": "40.99323229432313"
    },
    {
      "id": "pt.ine.add.PTCONT.5605550",
      "street": "R S BARBARA",
      "house": "17",
      "postcode": "3610-196",
      "city": "VÁRZEA DA SERRA",
      "lon": "-7.824921271939258",
      "lat": "40.99334770256057"
    },
    {
      "id": "pt.ine.add.PTCONT.5636286",
      "street": "R S BARBARA",
      "house": "12",
      "postcode": "3610-196",
      "city": "VÁRZEA DA SERRA",
      "lon": "-7.824850721300403",
      "lat": "40.99318543062357"
    }
  ]
}