{
  "data": {
    "distrito": "Viseu",
    "concelho": "Tarouca",
    "freguesia": "Várzea da Serra",
    "OBJECTID": 109,
    "BGRI2021": "18200900128",
    "DT21": "18",
    "DTMN21": "1820",
    "DTMNFR21": "182009",
    "DTMNFRSEC21": "182009001",
    "SECNUM21": "001",
    "SSNUM21": "28",
    "SECSSNUM21": "00128",
    "OBJECTID_1": 198763,
    "DT": "18",
    "CC": "20",
    "fr": "09",
    "SEC": "001",
    "SS": "28"
  },
  "addresses": [
    {
      "id": "pt.ine.add.PTCONT.5428426",
      "street": "R CARMO",
      "house": "27",
      "postcode": "3610-199",
      "city": "VÁRZEA DA SERRA",
      "lon": "-7.825056318324423",
      "lat": "40.99752620932757"
    },
    {
      "id": "pt.ine.add.PTCONT.5431665",
      "street": "R PADRE JOSE LOURENÇO NATIVIDADE",
      "house": "18",
      "postcode": "3610-207",
      "city": "VÁRZEA DA SERRA",
      "lon": "-7.825023094913059",
      "lat": "40.997003852479224"
    },
    {
      "id": "pt.ine.add.PTCONT.5440896",
      "street": "R CARMO",
      "house": "9",
      "postcode": "3610-199",
      "city": "VÁRZEA DA SERRA",
      "lon": "-7.824548537767209",
      "lat": "40.99682249075946"
    },
    {
      "id": "pt.ine.add.PTCONT.5457373",
      "street": "R PADRE JOSE LOURENÇO NATIVIDADE",
      "house": "16",
      "postcode": "3610-207",
      "city": "VÁRZEA DA SERRA",
      "lon": "-7.824656131389216",
      "lat": "40.99668770936879"
    },
    {
      "id": "pt.ine.add.PTCONT.5460801",
      "street": "R CARMO",
      "house": "",
      "postcode": "3610-199",
      "city": "VÁRZEA DA SERRA",
      "lon": "-7.825092979347215",
      "lat": "40.99731019637552"
    },
    {
      "id": "pt.ine.add.PTCONT.5464454",
      "street": "R PADRE JOSE LOURENÇO NATIVIDADE",
      "house": "26",
      "postcode": "3610-207",
      "city": "VÁRZEA DA SERRA",
      "lon": "-7.82511712651144",
      "lat": "40.99722921929843"
    },
    {
      "id": "pt.ine.add.PTCONT.5472164",
      "street": "R PADRE JOSE LOURENÇO NATIVIDADE",
      "house": "32",
      "postcode": "3610-207",
      "city": "VÁRZEA DA SERRA",
      "lon": "-7.825233839449692",
      "lat": "40.99768876676469"
    },
    {
      "id": "pt.ine.add.PTCONT.5473818",
      "street": "R CARMO",
      "house": "",
      "postcode": "3610-199",
      "city": "VÁRZEA DA SERRA",
      "lon": "-7.824442707833215",
      "lat": "40.99657908262645"
    },
    {
      "id": "pt.ine.add.PTCONT.5502593",
      "street": "R PADRE JOSE LOURENÇO NATIVIDADE",
      "house": "11",
      "postcode": "3610-207",
      "city": "VÁRZEA DA SERRA",
      "lon": "-7.8247149681993955",
      "lat": "40.99681393150264"
    },
    {
      "id": "pt.ine.add.PTCONT.5512494",
      "street": "R PE JOSÉ LOURENÇO NATIVIDADE",
      "house": "5",
      "postcode": "3610-207",
      "city": "VÁRZEA DA SERRA",
      "lon": "-7.8245731052662455",
      "lat": "40.996651468689386"
    },
    {
      "id": "pt.ine.add.PTCONT.5535141",
      "street": "R PADRE JOSE LOURENÇO NATIVIDADE",
      "house": "22",
      "postcode": "3610-207",
      "city": "VÁRZEA DA SERRA",
      "lon": "-7.825082058451066",
      "lat": "40.99710306089246"
    },
    {
      "id": "pt.ine.add.PTCONT.5540004",
      "street": "R PADRE JOSE LOURENÇO NATIVIDADE",
      "house": "28",
      "postcode": "3610-207",
      "city": "VÁRZEA DA SERRA",
      "lon": "-7.825139597264206",
      "lat": "40.99750842260214"
    },
    {
      "id": "pt.ine.add.PTCONT.5542946",
      "street": "R CAMINHO NOVO",
      "house": "17",
      "postcode": "3610-188",
      "city": "VÁRZEA DA SERRA",
      "lon": "-7.824987691717362",
      "lat": "40.996949730122395"
    },
    {
      "id": "pt.ine.add.PTCONT.5553214",
      "street": "R CARMO",
      "house": "11",
      "postcode": "3610-199",
      "city": "VÁRZEA DA SERRA",
      "lon": "-7.824714506572986",
      "lat": "40.9969129811132"
    },
    {
      "id": "pt.ine.add.PTCONT.5566565",
      "street": "R PADRE JOSE LOURENÇO NATIVIDADE",
      "house": "23",
      "postcode": "3610-207",
      "city": "VÁRZEA DA SERRA",
      "lon": "-7.825092644024806",
      "lat": "40.99738223245241"
    },
    {
      "id": "pt.ine.add.PTCONT.5570170",
      "street": "R CARMO",
      "house": "13",
      "postcode": "3610-199",
      "city": "VÁRZEA DA SERRA",
      "lon": "-7.824786067752124",
      "lat": "40.99685914480266"
    },
    {
      "id": "pt.ine.add.PTCONT.5579391",
      "street": "R CARMO",
      "house": "1",
      "postcode": "3610-199",
      "city": "VÁRZEA DA SERRA",
      "lon": "-7.824407599389574",
      "lat": "40.99646192851728"
    },
    {
      "id": "pt.ine.add.PTCONT.5590563",
      "street": "R PADRE JOSE LOURENÇO NATIVIDADE",
      "house": "",
      "postcode": "3610-207",
      "city": "VÁRZEA DA SERRA",
      "lon": "-7.825139052443339",
      "lat": "40.997625481223096"
    },
    {
      "id": "pt.ine.add.PTCONT.5622068",
      "street": "R PADRE JOSE LOURENÇO NATIVIDADE",
      "house": "20",
      "postcode": "3610-207",
      "city": "VÁRZEA DA SERRA",
      "lon": "-7.825058540086002",
      "lat": "40.99704897031488"
    },
    {
      "id": "pt.ine.add.PTCONT.5627536",
      "street": "R CARMO",
      "house": "19",
      "postcode": "3610-199",
      "city": "VÁRZEA DA SERRA",
      "lon": "-7.824903532689339",
      "lat": "40.99715661145001"
    },
    {
      "id": "pt.ine.add.PTCONT.5644818",
      "street": "R CARMO",
      "house": "",
      "postcode": "3610-199",
      "city": "VÁRZEA DA SERRA",
      "lon": "-7.824997270595086",
      "lat": "40.997445009926054"
    },
    {
      "id": "pt.ine.add.PTCONT.5644819",
      "street": "R PADRE JOSE LOURENÇO NATIVIDADE",
      "house": "",
      "postcode": "3610-207",
      "city": "VÁRZEA DA SERRA",
      "lon": "-7.824608172121306",
      "lat": "40.99677762725579"
    },
    {
      "id": "pt.ine.add.PTCONT.5664353",
      "street": "R CARMO",
      "house": "",
      "postcode": "3610-199",
      "city": "VÁRZEA DA SERRA",
      "lon": "-7.824857167402097",
      "lat": "40.99690435805885"
    },
    {
      "id": "pt.ine.add.PTCONT.5667680",
      "street": "R PADRE JOSE LOURENÇO NATIVIDADE",
      "house": "24",
      "postcode": "3610-207",
      "city": "VÁRZEA DA SERRA",
      "lon": "-7.825105534941045",
      "lat": "40.99716615597482"
    }
  ]
}