{
  "data": {
    "distrito": "Lisboa",
    "concelho": "Sintra",
    "freguesia": "União das freguesias de Almargem do Bispo, Pêro Pinheiro e Montelavar",
    "OBJECTID": 3028,
    "BGRI2021": "11112301035",
    "DT21": "11",
    "DTMN21": "1111",
    "DTMNFR21": "111123",
    "DTMNFRSEC21": "111123010",
    "SECNUM21": "010",
    "SSNUM21": "35",
    "SECSSNUM21": "01035",
    "OBJECTID_1": 113977,
    "DT": "11",
    "CC": "11",
    "fr": "23",
    "SEC": "010",
    "SS": "35"
  },
  "addresses": [
    {
      "id": "pt.ine.add.PTCONT.2381459",
      "street": "TV PINHEIRA",
      "house": "9",
      "postcode": "2715-236",
      "city": "ALMARGEM DO BISPO",
      "lon": "-9.272556793109219",
      "lat": "38.84335575329087"
    },
    {
      "id": "pt.ine.add.PTCONT.2454681",
      "street": "TV 28 DE SETEMBRO",
      "house": "3",
      "postcode": "2715-242",
      "city": "ALMARGEM DO BISPO",
      "lon": "-9.273130607714968",
      "lat": "38.84250343838574"
    },
    {
      "id": "pt.ine.add.PTCONT.2535813",
      "street": "TV PINHEIRA",
      "house": "67",
      "postcode": "2715-236",
      "city": "ALMARGEM DO BISPO",
      "lon": "-9.272406220821548",
      "lat": "38.84330317648589"
    },
    {
      "id": "pt.ine.add.PTCONT.2661366",
      "street": "BC ESCOLA",
      "house": "2",
      "postcode": "2715-220",
      "city": "ALMARGEM DO BISPO",
      "lon": "-9.27287752189588",
      "lat": "38.84324453254278"
    },
    {
      "id": "pt.ine.add.PTCONT.2706970",
      "street": "AV JOSE MARIA PAIS",
      "house": "70",
      "postcode": "2715-230",
      "city": "ALMARGEM DO BISPO",
      "lon": "-9.272521980960219",
      "lat": "38.84261746876188"
    },
    {
      "id": "pt.ine.add.PTCONT.2743824",
      "street": "AV D AFONSO HENRIQUES",
      "house": "23",
      "postcode": "2715-214",
      "city": "ALMARGEM DO BISPO",
      "lon": "-9.273559577087372",
      "lat": "38.84267940278976"
    },
    {
      "id": "pt.ine.add.PTCONT.2949632",
      "street": "TV PINHEIRA",
      "house": "3",
      "postcode": "2715-236",
      "city": "ALMARGEM DO BISPO",
      "lon": "-9.272312367826906",
      "lat": "38.84319600060592"
    },
    {
      "id": "pt.ine.add.PTCONT.3012764",
      "street": "BC ESCOLA",
      "house": "8",
      "postcode": "2715-220",
      "city": "ALMARGEM DO BISPO",
      "lon": "-9.272821090610643",
      "lat": "38.84331714410524"
    },
    {
      "id": "pt.ine.add.PTCONT.3021888",
      "street": "AV D AFONSO HENRIQUES",
      "house": "19",
      "postcode": "2715-214",
      "city": "ALMARGEM DO BISPO",
      "lon": "-9.273335724650673",
      "lat": "38.843086930855435"
    },
    {
      "id": "pt.ine.add.PTCONT.3040054",
      "street": "AV JOSE MARIA PAIS",
      "house": "74",
      "postcode": "2715-230",
      "city": "ALMARGEM DO BISPO",
      "lon": "-9.272624907238846",
      "lat": "38.84257142656055"
    },
    {
      "id": "pt.ine.add.PTCONT.3087649",
      "street": "BC ESCOLA",
      "house": "2",
      "postcode": "2715-220",
      "city": "ALMARGEM DO BISPO",
      "lon": "-9.272960578169807",
      "lat": "38.84339685138489"
    },
    {
      "id": "pt.ine.add.PTCONT.3124216",
      "street": "TV PINHEIRA",
      "house": "5",
      "postcode": "2715-236",
      "city": "ALMARGEM DO BISPO",
      "lon": "-9.272359007017101",
      "lat": "38.84323157613569"
    },
    {
      "id": "pt.ine.add.PTCONT.3124217",
      "street": "TV PINHEIRA",
      "house": "5",
      "postcode": "2715-236",
      "city": "ALMARGEM DO BISPO",
      "lon": "-9.272359007017101",
      "lat": "38.84323157613569"
    },
    {
      "id": "pt.ine.add.PTCONT.3124218",
      "street": "TV PINHEIRA",
      "house": "5",
      "postcode": "2715-236",
      "city": "ALMARGEM DO BISPO",
      "lon": "-9.272359007017101",
      "lat": "38.84323157613569"
    },
    {
      "id": "pt.ine.add.PTCONT.3204663",
      "street": "BC ESCOLA",
      "house": "4B",
      "postcode": "2715-220",
      "city": "ALMARGEM DO BISPO",
      "lon": "-9.272845416248378",
      "lat": "38.84339797522762"
    },
    {
      "id": "pt.ine.add.PTCONT.3281365",
      "street": "TV PINHEIRA",
      "house": "1",
      "postcode": "2715-236",
      "city": "ALMARGEM DO BISPO",
      "lon": "-9.272242983611632",
      "lat": "38.84317866211751"
    },
    {
      "id": "pt.ine.add.PTCONT.3355186",
      "street": "BC ESCOLA",
      "house": "6",
      "postcode": "2715-220",
      "city": "ALMARGEM DO BISPO",
      "lon": "-9.272890762499829",
      "lat": "38.84335249466241"
    },
    {
      "id": "pt.ine.add.PTCONT.3371789",
      "street": "AV JOSE MARIA PAIS",
      "house": "58",
      "postcode": "2715-230",
      "city": "ALMARGEM DO BISPO",
      "lon": "-9.272196344513283",
      "lat": "38.843143086539726"
    },
    {
      "id": "pt.ine.add.PTCONT.3452642",
      "street": "AV JOSE MARIA PAIS",
      "house": "58A",
      "postcode": "2715-230",
      "city": "ALMARGEM DO BISPO",
      "lon": "-9.272183679454505",
      "lat": "38.843071149165354"
    }
  ]
}