{
  "data": {
    "distrito": "Faro",
    "concelho": "Olhão",
    "freguesia": "Quelfes",
    "OBJECTID": 497,
    "BGRI2021": "08100501017",
    "DT21": "08",
    "DTMN21": "0810",
    "DTMNFR21": "081005",
    "DTMNFRSEC21": "081005010",
    "SECNUM21": "010",
    "SSNUM21": "17",
    "SECSSNUM21": "01017",
    "OBJECTID_1": 70433,
    "DT": "08",
    "CC": "10",
    "fr": "05",
    "SEC": "010",
    "SS": "17"
  },
  "addresses": [
    {
      "id": "pt.ine.add.PTCONT.1470748",
      "street": "SIT PA ALECRINEIRA",
      "house": "",
      "postcode": "8700-149",
      "city": "OLHÃO",
      "lon": "-7.855250766244133",
      "lat": "37.072781639393526"
    },
    {
      "id": "pt.ine.add.PTCONT.1471966",
      "street": "",
      "house": "CXP 722 Z",
      "postcode": "8700-149",
      "city": "OLHÃO",
      "lon": "-7.852027614842691",
      "lat": "37.06859308668794"
    },
    {
      "id": "pt.ine.add.PTCONT.1473602",
      "street": "SIT ALECRINEIRA",
      "house": "",
      "postcode": "8700-149",
      "city": "OLHÃO",
      "lon": "-7.851631117923464",
      "lat": "37.0724306989857"
    },
    {
      "id": "pt.ine.add.PTCONT.1473605",
      "street": "SIT ALECRINEIRA",
      "house": "CX 701Z",
      "postcode": "8700-149",
      "city": "OLHÃO",
      "lon": "-7.845305918837059",
      "lat": "37.06791918805274"
    },
    {
      "id": "pt.ine.add.PTCONT.1490486",
      "street": "",
      "house": "",
      "postcode": "8700-149",
      "city": "OLHÃO",
      "lon": "-7.856585626020483",
      "lat": "37.07369483789579"
    },
    {
      "id": "pt.ine.add.PTCONT.1502749",
      "street": "SIT ALECRINEIRA",
      "house": "",
      "postcode": "8700-149",
      "city": "OLHÃO",
      "lon": "-7.8484519433088025",
      "lat": "37.07157610774487"
    },
    {
      "id": "pt.ine.add.PTCONT.1523617",
      "street": "",
      "house": "",
      "postcode": "8700-149",
      "city": "OLHÃO",
      "lon": "-7.846301746401763",
      "lat": "37.069228149850666"
    },
    {
      "id": "pt.ine.add.PTCONT.1525967",
      "street": "ALECRINEIRA",
      "house": "",
      "postcode": "8700-149",
      "city": "OLHÃO",
      "lon": "-7.851769192073065",
      "lat": "37.068538409903226"
    },
    {
      "id": "pt.ine.add.PTCONT.1527574",
      "street": "",
      "house": "",
      "postcode": "8700-149",
      "city": "OLHÃO",
      "lon": "-7.849393325036855",
      "lat": "37.06941579849156"
    },
    {
      "id": "pt.ine.add.PTCONT.1532127",
      "street": "",
      "house": "",
      "postcode": "8700-149",
      "city": "OLHÃO",
      "lon": "-7.856200004876101",
      "lat": "37.07150434194558"
    },
    {
      "id": "pt.ine.add.PTCONT.1546143",
      "street": "SIT POCO LONGO",
      "house": "",
      "postcode": "8700-149",
      "city": "OLHÃO",
      "lon": "-7.846383002134045",
      "lat": "37.06855254469399"
    },
    {
      "id": "pt.ine.add.PTCONT.1552087",
      "street": "",
      "house": "",
      "postcode": "8700-149",
      "city": "OLHÃO",
      "lon": "-7.849889627507482",
      "lat": "37.06900249287703"
    },
    {
      "id": "pt.ine.add.PTCONT.1563116",
      "street": "SIT ALECRINEIRA",
      "house": "",
      "postcode": "8700-149",
      "city": "OLHÃO",
      "lon": "-7.8476099275446",
      "lat": "37.071213656674225"
    },
    {
      "id": "pt.ine.add.PTCONT.1572161",
      "street": "SIT ALECRINEIRA",
      "house": "704 Z",
      "postcode": "8700-149",
      "city": "OLHÃO",
      "lon": "-7.849443608117984",
      "lat": "37.07101081028382"
    },
    {
      "id": "pt.ine.add.PTCONT.1572162",
      "street": "SIT ALECRINEIRA",
      "house": "",
      "postcode": "8700-149",
      "city": "OLHÃO",
      "lon": "-7.852226605580406",
      "lat": "37.07256727087417"
    },
    {
      "id": "pt.ine.add.PTCONT.1595619",
      "street": "SIT ALECRINEIRA",
      "house": "",
      "postcode": "8700-149",
      "city": "OLHÃO",
      "lon": "-7.853442129000675",
      "lat": "37.07228180116355"
    },
    {
      "id": "pt.ine.add.PTCONT.1606432",
      "street": "",
      "house": "",
      "postcode": "8700-149",
      "city": "OLHÃO",
      "lon": "-7.853359582703445",
      "lat": "37.07026321287683"
    },
    {
      "id": "pt.ine.add.PTCONT.1609954",
      "street": "SIT ALECRINEIRA",
      "house": "",
      "postcode": "8700-149",
      "city": "OLHÃO",
      "lon": "-7.849522657283931",
      "lat": "37.070920892446004"
    },
    {
      "id": "pt.ine.add.PTCONT.1616008",
      "street": "CPO 711 Z",
      "house": "CP 711 Z",
      "postcode": "8700-149",
      "city": "OLHÃO",
      "lon": "-7.848275842584388",
      "lat": "37.067547907747674"
    },
    {
      "id": "pt.ine.add.PTCONT.1629853",
      "street": "SIT ALECRINEIRA CASA ANNA",
      "house": "",
      "postcode": "8700-149",
      "city": "OLHÃO",
      "lon": "-7.85270831775101",
      "lat": "37.07306399819566"
    },
    {
      "id": "pt.ine.add.PTCONT.1644992",
      "street": "ALECRINEIRA",
      "house": "87247",
      "postcode": "8700-149",
      "city": "OLHÃO",
      "lon": "-7.8546207454499495",
      "lat": "37.072861258019195"
    },
    {
      "id": "pt.ine.add.PTCONT.1652067",
      "street": "CASA COLMEIA",
      "house": "729 2",
      "postcode": "8700-149",
      "city": "OLHÃO",
      "lon": "-7.849842203217072",
      "lat": "37.069660159862366"
    },
    {
      "id": "pt.ine.add.PTCONT.1684581",
      "street": "",
      "house": "",
      "postcode": "8700-149",
      "city": "OLHÃO",
      "lon": "-7.846202921342875",
      "lat": "37.068597162705785"
    },
    {
      "id": "pt.ine.add.PTCONT.1710888",
      "street": "SIT ALECRINEIRA",
      "house": "",
      "postcode": "8700-149",
      "city": "OLHÃO",
      "lon": "-7.853107594795441",
      "lat": "37.07151510371919"
    },
    {
      "id": "pt.ine.add.PTCONT.1731044",
      "street": "",
      "house": "",
      "postcode": "8700-149",
      "city": "OLHÃO",
      "lon": "-7.84893670135385",
      "lat": "37.068234305225005"
    },
    {
      "id": "pt.ine.add.PTCONT.1743009",
      "street": "SIT ALECRINEIRA",
      "house": "704 Z",
      "postcode": "8700-149",
      "city": "OLHÃO",
      "lon": "-7.847073356303532",
      "lat": "37.07036535955741"
    },
    {
      "id": "pt.ine.add.PTCONT.1745774",
      "street": "SIT ALECRINEIRA QUELFES",
      "house": "",
      "postcode": "8700-149",
      "city": "OLHÃO",
      "lon": "-7.856134599943047",
      "lat": "37.07093651598792"
    },
    {
      "id": "pt.ine.add.PTCONT.1770401",
      "street": "",
      "house": "",
      "postcode": "8700-149",
      "city": "OLHÃO",
      "lon": "-7.8548907263057455",
      "lat": "37.0728348595387"
    },
    {
      "id": "pt.ine.add.PTCONT.1773313",
      "street": "",
      "house": "",
      "postcode": "8700-149",
      "city": "OLHÃO",
      "lon": "-7.850769805765535",
      "lat": "37.06816659706546"
    },
    {
      "id": "pt.ine.add.PTCONT.1779469",
      "street": "",
      "house": "",
      "postcode": "8700-149",
      "city": "OLHÃO",
      "lon": "-7.850938071076568",
      "lat": "37.06827512573437"
    },
    {
      "id": "pt.ine.add.PTCONT.1799973",
      "street": "SIT ALECRINEIRA",
      "house": "",
      "postcode": "8700-149",
      "city": "OLHÃO",
      "lon": "-7.851141941433387",
      "lat": "37.0709157420904"
    },
    {
      "id": "pt.ine.add.PTCONT.1799974",
      "street": "SIT ALECRINEIRA",
      "house": "",
      "postcode": "8700-149",
      "city": "OLHÃO",
      "lon": "-7.853847741995748",
      "lat": "37.07206650038882"
    },
    {
      "id": "pt.ine.add.PTCONT.1816529",
      "street": "SIT ALECRINEIRA",
      "house": "CX 726Z",
      "postcode": "8700-149",
      "city": "OLHÃO",
      "lon": "-7.849657427167773",
      "lat": "37.070966268005016"
    },
    {
      "id": "pt.ine.add.PTCONT.1824792",
      "street": "",
      "house": "",
      "postcode": "8700-149",
      "city": "OLHÃO",
      "lon": "-7.847386427817095",
      "lat": "37.06784312149288"
    },
    {
      "id": "pt.ine.add.PTCONT.1837332",
      "street": "SIT ALECRINEIRA",
      "house": "CP 720 Z",
      "postcode": "8700-149",
      "city": "OLHÃO",
      "lon": "-7.8466938484599655",
      "lat": "37.069616556822666"
    },
    {
      "id": "pt.ine.add.PTCONT.1838894",
      "street": "SIT ALECRINEIRA",
      "house": "726 Z",
      "postcode": "8700-149",
      "city": "OLHÃO",
      "lon": "-7.849949624550963",
      "lat": "37.07101201932647"
    },
    {
      "id": "pt.ine.add.PTCONT.1843377",
      "street": "",
      "house": "",
      "postcode": "8700-149",
      "city": "OLHÃO",
      "lon": "-7.849026690150886",
      "lat": "37.068225510085334"
    },
    {
      "id": "pt.ine.add.PTCONT.1843686",
      "street": "SIT ALECRINEIRA",
      "house": "S N",
      "postcode": "8700-149",
      "city": "OLHÃO",
      "lon": "-7.849864946062515",
      "lat": "37.07261571895474"
    },
    {
      "id": "pt.ine.add.PTCONT.1844656",
      "street": "CASA DOS SONHOS",
      "house": "",
      "postcode": "8700-149",
      "city": "OLHÃO",
      "lon": "-7.848437031171862",
      "lat": "37.06954866763395"
    }
  ]
}