{
  "data": {
    "distrito": "Coimbra",
    "concelho": "Miranda do Corvo",
    "freguesia": "Miranda do Corvo",
    "OBJECTID": 224,
    "BGRI2021": "06090200215",
    "DT21": "06",
    "DTMN21": "0609",
    "DTMNFR21": "060902",
    "DTMNFRSEC21": "060902002",
    "SECNUM21": "002",
    "SSNUM21": "15",
    "SECSSNUM21": "00215",
    "OBJECTID_1": 53658,
    "DT": "06",
    "CC": "09",
    "fr": "02",
    "SEC": "002",
    "SS": "15"
  },
  "addresses": [
    {
      "id": "pt.ine.add.PTCONT.1101281",
      "street": "R TABUAS CIMEIRAS",
      "house": "47",
      "postcode": "3220-240",
      "city": "MIRANDA DO CORVO",
      "lon": "-8.302211533986522",
      "lat": "40.06820843789086"
    },
    {
      "id": "pt.ine.add.PTCONT.1107886",
      "street": "R SANTO ANTÓNIO",
      "house": "80",
      "postcode": "3220-240",
      "city": "MIRANDA DO CORVO",
      "lon": "-8.302790898440715",
      "lat": "40.070215947575484"
    },
    {
      "id": "pt.ine.add.PTCONT.1111226",
      "street": "LG TERREIRO",
      "house": "",
      "postcode": "3220-240",
      "city": "MIRANDA DO CORVO",
      "lon": "-8.302439694514895",
      "lat": "40.070405589168956"
    },
    {
      "id": "pt.ine.add.PTCONT.1115435",
      "street": "BC LUZ",
      "house": "",
      "postcode": "3220-240",
      "city": "MIRANDA DO CORVO",
      "lon": "-8.302424694068058",
      "lat": "40.06908171682224"
    },
    {
      "id": "pt.ine.add.PTCONT.1119566",
      "street": "R FONTINHA",
      "house": "14",
      "postcode": "3220-240",
      "city": "MIRANDA DO CORVO",
      "lon": "-8.302813538634135",
      "lat": "40.06989169542674"
    },
    {
      "id": "pt.ine.add.PTCONT.1123187",
      "street": "R LIBERDADE",
      "house": "",
      "postcode": "3220-236",
      "city": "MIRANDA DO CORVO",
      "lon": "-8.299240480282991",
      "lat": "40.07565175878642"
    },
    {
      "id": "pt.ine.add.PTCONT.1125563",
      "street": "R FONTE DO CASTANHEIRO",
      "house": "",
      "postcode": "3220-240",
      "city": "MIRANDA DO CORVO",
      "lon": "-8.302159402370506",
      "lat": "40.07082928437131"
    },
    {
      "id": "pt.ine.add.PTCONT.1134248",
      "street": "R LAGAR",
      "house": "",
      "postcode": "3220-240",
      "city": "MIRANDA DO CORVO",
      "lon": "-8.304247812921382",
      "lat": "40.07154670461256"
    },
    {
      "id": "pt.ine.add.PTCONT.1136282",
      "street": "R QUEBRA COSTAS",
      "house": "",
      "postcode": "3220-240",
      "city": "MIRANDA DO CORVO",
      "lon": "-8.302989038322497",
      "lat": "40.06975634696451"
    },
    {
      "id": "pt.ine.add.PTCONT.1143403",
      "street": "R CIMO DO LUGAR",
      "house": "",
      "postcode": "3220-240",
      "city": "MIRANDA DO CORVO",
      "lon": "-8.3025672576319",
      "lat": "40.06984702551195"
    },
    {
      "id": "pt.ine.add.PTCONT.1143404",
      "street": "R CIMO DO LUGAR",
      "house": "",
      "postcode": "3220-240",
      "city": "MIRANDA DO CORVO",
      "lon": "-8.302567949494723",
      "lat": "40.07012621307556"
    },
    {
      "id": "pt.ine.add.PTCONT.1148178",
      "street": "R FONTE DO CASTANHEIRO",
      "house": "",
      "postcode": "3220-240",
      "city": "MIRANDA DO CORVO",
      "lon": "-8.302322091238686",
      "lat": "40.07025265759709"
    },
    {
      "id": "pt.ine.add.PTCONT.1156312",
      "street": "R CIMO DO LUGAR",
      "house": "",
      "postcode": "3220-240",
      "city": "MIRANDA DO CORVO",
      "lon": "-8.302355363813682",
      "lat": "40.069487091915136"
    },
    {
      "id": "pt.ine.add.PTCONT.1156932",
      "street": "R CIMO DO LUGAR",
      "house": "43",
      "postcode": "3220-240",
      "city": "MIRANDA DO CORVO",
      "lon": "-8.302589854128508",
      "lat": "40.0695047612819"
    },
    {
      "id": "pt.ine.add.PTCONT.1160481",
      "street": "R FONTINHA",
      "house": "",
      "postcode": "3220-240",
      "city": "MIRANDA DO CORVO",
      "lon": "-8.302884252867992",
      "lat": "40.07004469523229"
    },
    {
      "id": "pt.ine.add.PTCONT.1168849",
      "street": "R FONTE DO CASTANHEIRO",
      "house": "",
      "postcode": "3220-240",
      "city": "MIRANDA DO CORVO",
      "lon": "-8.302159780877945",
      "lat": "40.07098238720762"
    },
    {
      "id": "pt.ine.add.PTCONT.1169067",
      "street": "R SANTO ANTÓNIO",
      "house": "30",
      "postcode": "3220-240",
      "city": "MIRANDA DO CORVO",
      "lon": "-8.303353686144124",
      "lat": "40.070260152333695"
    },
    {
      "id": "pt.ine.add.PTCONT.1174799",
      "street": "R QUEBRA COSTAS",
      "house": "",
      "postcode": "3220-240",
      "city": "MIRANDA DO CORVO",
      "lon": "-8.302789825760543",
      "lat": "40.06978365716038"
    },
    {
      "id": "pt.ine.add.PTCONT.1179022",
      "street": "R MANUEL DIAS MARCELINO",
      "house": "86",
      "postcode": "3220-240",
      "city": "MIRANDA DO CORVO",
      "lon": "-8.30324679512555",
      "lat": "40.06970193221346"
    },
    {
      "id": "pt.ine.add.PTCONT.1186702",
      "street": "R CIMO DO LUGAR",
      "house": "53",
      "postcode": "3220-240",
      "city": "MIRANDA DO CORVO",
      "lon": "-8.302519609654222",
      "lat": "40.0695408883572"
    },
    {
      "id": "pt.ine.add.PTCONT.1197829",
      "street": "R FONTE DO CASTANHEIRO",
      "house": "39",
      "postcode": "3220-240",
      "city": "MIRANDA DO CORVO",
      "lon": "-8.302229180599282",
      "lat": "40.070604030480105"
    },
    {
      "id": "pt.ine.add.PTCONT.1200401",
      "street": "BC QUEBRA COSTAS",
      "house": "",
      "postcode": "3220-240",
      "city": "MIRANDA DO CORVO",
      "lon": "-8.302649314049063",
      "lat": "40.06984690545748"
    },
    {
      "id": "pt.ine.add.PTCONT.1202386",
      "street": "R TABUAS CIMEIRAS",
      "house": "",
      "postcode": "3220-240",
      "city": "MIRANDA DO CORVO",
      "lon": "-8.30147311040973",
      "lat": "40.06823653162298"
    },
    {
      "id": "pt.ine.add.PTCONT.1205541",
      "street": "R CIMO DO LUGAR",
      "house": "",
      "postcode": "3220-240",
      "city": "MIRANDA DO CORVO",
      "lon": "-8.302530662560832",
      "lat": "40.069270689674205"
    },
    {
      "id": "pt.ine.add.PTCONT.1208243",
      "street": "R MANUEL DIAS MARCELINO",
      "house": "78",
      "postcode": "3220-240",
      "city": "MIRANDA DO CORVO",
      "lon": "-8.30338757509519",
      "lat": "40.069746755798064"
    },
    {
      "id": "pt.ine.add.PTCONT.1209723",
      "street": "R CIMO DO LUGAR",
      "house": "",
      "postcode": "3220-240",
      "city": "MIRANDA DO CORVO",
      "lon": "-8.302449320501136",
      "lat": "40.069559003287544"
    },
    {
      "id": "pt.ine.add.PTCONT.1209724",
      "street": "R CIMO DO LUGAR",
      "house": "38",
      "postcode": "3220-240",
      "city": "MIRANDA DO CORVO",
      "lon": "-8.302485223521444",
      "lat": "40.06985615155897"
    },
    {
      "id": "pt.ine.add.PTCONT.1211805",
      "street": "R QUEBRA COSTAS",
      "house": "24",
      "postcode": "3220-240",
      "city": "MIRANDA DO CORVO",
      "lon": "-8.302567012134508",
      "lat": "40.06974795895387"
    },
    {
      "id": "pt.ine.add.PTCONT.1228621",
      "street": "BC QUEBRA COSTAS",
      "house": "",
      "postcode": "3220-240",
      "city": "MIRANDA DO CORVO",
      "lon": "-8.302614325606918",
      "lat": "40.06991900532114"
    },
    {
      "id": "pt.ine.add.PTCONT.1236979",
      "street": "R FONTINHA",
      "house": "61",
      "postcode": "3220-240",
      "city": "MIRANDA DO CORVO",
      "lon": "-8.302906557126533",
      "lat": "40.06958535229471"
    },
    {
      "id": "pt.ine.add.PTCONT.1238420",
      "street": "R FONTE DO CASTANHEIRO",
      "house": "",
      "postcode": "3220-240",
      "city": "MIRANDA DO CORVO",
      "lon": "-8.30241573676848",
      "lat": "40.07019848428372"
    },
    {
      "id": "pt.ine.add.PTCONT.1246716",
      "street": "R TABUAS CIMEIRAS",
      "house": "",
      "postcode": "3220-240",
      "city": "MIRANDA DO CORVO",
      "lon": "-8.302527717368632",
      "lat": "40.06808189074418"
    },
    {
      "id": "pt.ine.add.PTCONT.1261840",
      "street": "R LAGAR",
      "house": "",
      "postcode": "3220-240",
      "city": "MIRANDA DO CORVO",
      "lon": "-8.303904774637171",
      "lat": "40.07031337768801"
    },
    {
      "id": "pt.ine.add.PTCONT.1263871",
      "street": "R CIMO DO LUGAR",
      "house": "81",
      "postcode": "3220-240",
      "city": "MIRANDA DO CORVO",
      "lon": "-8.302555066643192",
      "lat": "40.06965791559081"
    },
    {
      "id": "pt.ine.add.PTCONT.1271776",
      "street": "R CIMO DO LUGAR",
      "house": "",
      "postcode": "3220-240",
      "city": "MIRANDA DO CORVO",
      "lon": "-8.302427303075348",
      "lat": "40.07013542480029"
    },
    {
      "id": "pt.ine.add.PTCONT.1274504",
      "street": "R SANTO ANTÓNIO",
      "house": "",
      "postcode": "3220-240",
      "city": "MIRANDA DO CORVO",
      "lon": "-8.302661683978721",
      "lat": "40.07010806376397"
    },
    {
      "id": "pt.ine.add.PTCONT.1275742",
      "street": "R MANUEL DIAS MARCELINO",
      "house": "",
      "postcode": "3220-240",
      "city": "MIRANDA DO CORVO",
      "lon": "-8.302789088306369",
      "lat": "40.06948645748123"
    },
    {
      "id": "pt.ine.add.PTCONT.1276298",
      "street": "R RIBEIRO",
      "house": "11",
      "postcode": "3220-240",
      "city": "MIRANDA DO CORVO",
      "lon": "-8.30261240575812",
      "lat": "40.06914448492424"
    },
    {
      "id": "pt.ine.add.PTCONT.1278496",
      "street": "R SANTO ANTÓNIO",
      "house": "72",
      "postcode": "3220-240",
      "city": "MIRANDA DO CORVO",
      "lon": "-8.302966645082812",
      "lat": "40.07017966570368"
    },
    {
      "id": "pt.ine.add.PTCONT.1281900",
      "street": "R CIMO DO LUGAR",
      "house": "84",
      "postcode": "3220-240",
      "city": "MIRANDA DO CORVO",
      "lon": "-8.302413863744903",
      "lat": "40.06944197601908"
    },
    {
      "id": "pt.ine.add.PTCONT.1290182",
      "street": "R CIMO DO LUGAR",
      "house": "",
      "postcode": "3220-240",
      "city": "MIRANDA DO CORVO",
      "lon": "-8.302462001869163",
      "lat": "40.06994624633921"
    },
    {
      "id": "pt.ine.add.PTCONT.1296430",
      "street": "R TABUAS CIMEIRAS",
      "house": "",
      "postcode": "3220-240",
      "city": "MIRANDA DO CORVO",
      "lon": "-8.30178985065257",
      "lat": "40.068335137827916"
    },
    {
      "id": "pt.ine.add.PTCONT.1297701",
      "street": "R CIMO DO LUGAR",
      "house": "80",
      "postcode": "3220-240",
      "city": "MIRANDA DO CORVO",
      "lon": "-8.302391088029104",
      "lat": "40.069712191813146"
    },
    {
      "id": "pt.ine.add.PTCONT.1297702",
      "street": "BC QUEBRA COSTAS",
      "house": "",
      "postcode": "3220-240",
      "city": "MIRANDA DO CORVO",
      "lon": "-8.302625199591454",
      "lat": "40.069576758239464"
    },
    {
      "id": "pt.ine.add.PTCONT.1301201",
      "street": "BC LUZ",
      "house": "1",
      "postcode": "3220-240",
      "city": "MIRANDA DO CORVO",
      "lon": "-8.302518114807425",
      "lat": "40.06893748289819"
    },
    {
      "id": "pt.ine.add.PTCONT.1301202",
      "street": "R CIMO DO LUGAR",
      "house": "",
      "postcode": "3220-240",
      "city": "MIRANDA DO CORVO",
      "lon": "-8.30256761472118",
      "lat": "40.06999112232066"
    },
    {
      "id": "pt.ine.add.PTCONT.1310331",
      "street": "R MANUEL DIAS MARCELINO",
      "house": "",
      "postcode": "3220-240",
      "city": "MIRANDA DO CORVO",
      "lon": "-8.303493345322634",
      "lat": "40.06985467328852"
    },
    {
      "id": "pt.ine.add.PTCONT.1312275",
      "street": "R CIMO DO LUGAR",
      "house": "",
      "postcode": "3220-240",
      "city": "MIRANDA DO CORVO",
      "lon": "-8.302623949383852",
      "lat": "40.06907241935856"
    },
    {
      "id": "pt.ine.add.PTCONT.1312276",
      "street": "BC LUZ",
      "house": "",
      "postcode": "3220-240",
      "city": "MIRANDA DO CORVO",
      "lon": "-8.302635492985507",
      "lat": "40.069000353790905"
    },
    {
      "id": "pt.ine.add.PTCONT.1321533",
      "street": "R MANUEL DIAS MARCELINO",
      "house": "",
      "postcode": "3220-240",
      "city": "MIRANDA DO CORVO",
      "lon": "-8.30302391439652",
      "lat": "40.06963921673301"
    },
    {
      "id": "pt.ine.add.PTCONT.1321534",
      "street": "R CIMO DO LUGAR",
      "house": "",
      "postcode": "3220-240",
      "city": "MIRANDA DO CORVO",
      "lon": "-8.302495607361672",
      "lat": "40.06931577135439"
    },
    {
      "id": "pt.ine.add.PTCONT.1321535",
      "street": "R CIMO DO LUGAR",
      "house": "",
      "postcode": "3220-240",
      "city": "MIRANDA DO CORVO",
      "lon": "-8.302438824758571",
      "lat": "40.07005435321429"
    },
    {
      "id": "pt.ine.add.PTCONT.1326253",
      "street": "R MANUEL DIAS MARCELINO",
      "house": "54",
      "postcode": "3220-240",
      "city": "MIRANDA DO CORVO",
      "lon": "-8.303458043672451",
      "lat": "40.06980068870214"
    },
    {
      "id": "pt.ine.add.PTCONT.1345735",
      "street": "R LIBERDADE",
      "house": "",
      "postcode": "3220-236",
      "city": "MIRANDA DO CORVO",
      "lon": "-8.299192799304782",
      "lat": "40.07532760846153"
    },
    {
      "id": "pt.ine.add.PTCONT.1351171",
      "street": "",
      "house": "",
      "postcode": "3220-240",
      "city": "MIRANDA DO CORVO",
      "lon": "-8.302758189018666",
      "lat": "40.07120666449214"
    },
    {
      "id": "pt.ine.add.PTCONT.1358165",
      "street": "R SANTO ANTÓNIO",
      "house": "100",
      "postcode": "3220-240",
      "city": "MIRANDA DO CORVO",
      "lon": "-8.302568306588988",
      "lat": "40.07027030987729"
    },
    {
      "id": "pt.ine.add.PTCONT.1363168",
      "street": "R LIBERDADE",
      "house": "",
      "postcode": "3220-236",
      "city": "MIRANDA DO CORVO",
      "lon": "-8.299461580290462",
      "lat": "40.07497598587918"
    },
    {
      "id": "pt.ine.add.PTCONT.1364695",
      "street": "BC QUEBRA COSTAS",
      "house": "",
      "postcode": "3220-240",
      "city": "MIRANDA DO CORVO",
      "lon": "-8.302836491563976",
      "lat": "40.069693527967964"
    },
    {
      "id": "pt.ine.add.PTCONT.1366946",
      "street": "R MANUEL DIAS MARCELINO",
      "house": "146",
      "postcode": "3220-240",
      "city": "MIRANDA DO CORVO",
      "lon": "-8.302601375515325",
      "lat": "40.06942368967154"
    }
  ]
}