{
  "data": {
    "distrito": "Leiria",
    "concelho": "Caldas da Rainha",
    "freguesia": "União das freguesias de Caldas da Rainha - Nossa Senhora do Pópulo, Coto e São Gregório",
    "OBJECTID": 249,
    "BGRI2021": "10061700405",
    "DT21": "10",
    "DTMN21": "1006",
    "DTMNFR21": "100617",
    "DTMNFRSEC21": "100617004",
    "SECNUM21": "004",
    "SSNUM21": "05",
    "SECSSNUM21": "00405",
    "OBJECTID_1": 87625,
    "DT": "10",
    "CC": "06",
    "fr": "17",
    "SEC": "004",
    "SS": "05"
  },
  "addresses": [
    {
      "id": "pt.ine.add.PTCONT.1995729",
      "street": "R CUSTODIO MALDONADO FREITAS",
      "house": "9",
      "postcode": "2500-150",
      "city": "CALDAS DA RAINHA",
      "lon": "-9.129309805811584",
      "lat": "39.40669247893541"
    },
    {
      "id": "pt.ine.add.PTCONT.1995730",
      "street": "R CUSTODIO MALDONADO FREITAS",
      "house": "7",
      "postcode": "2500-150",
      "city": "CALDAS DA RAINHA",
      "lon": "-9.129309805811584",
      "lat": "39.40669247893541"
    },
    {
      "id": "pt.ine.add.PTCONT.1998901",
      "street": "R CUSTÓDIO MALDONADO FREITAS",
      "house": "5",
      "postcode": "2500-150",
      "city": "CALDAS DA RAINHA",
      "lon": "-9.129346682714866",
      "lat": "39.40683627280866"
    },
    {
      "id": "pt.ine.add.PTCONT.1998902",
      "street": "R CUSTÓDIO MALDONADO FREITAS",
      "house": "5",
      "postcode": "2500-150",
      "city": "CALDAS DA RAINHA",
      "lon": "-9.129346682714866",
      "lat": "39.40683627280866"
    },
    {
      "id": "pt.ine.add.PTCONT.1998903",
      "street": "R CUSTÓDIO MALDONADO FREITAS",
      "house": "5",
      "postcode": "2500-150",
      "city": "CALDAS DA RAINHA",
      "lon": "-9.129346682714866",
      "lat": "39.40683627280866"
    },
    {
      "id": "pt.ine.add.PTCONT.1998904",
      "street": "R CUSTÓDIO MALDONADO FREITAS",
      "house": "5",
      "postcode": "2500-150",
      "city": "CALDAS DA RAINHA",
      "lon": "-9.129346682714866",
      "lat": "39.40683627280866"
    },
    {
      "id": "pt.ine.add.PTCONT.2004423",
      "street": "R CUSTÓDIO MALDONADO FREITAS",
      "house": "3",
      "postcode": "2500-150",
      "city": "CALDAS DA RAINHA",
      "lon": "-9.129488295966098",
      "lat": "39.40699718334873"
    },
    {
      "id": "pt.ine.add.PTCONT.2004424",
      "street": "R CUSTÓDIO MALDONADO FREITAS",
      "house": "3",
      "postcode": "2500-150",
      "city": "CALDAS DA RAINHA",
      "lon": "-9.129488295966098",
      "lat": "39.40699718334873"
    },
    {
      "id": "pt.ine.add.PTCONT.2015337",
      "street": "R CUSTODIO MALDONADO FREITAS",
      "house": "21",
      "postcode": "2500-150",
      "city": "CALDAS DA RAINHA",
      "lon": "-9.129176599178361",
      "lat": "39.40630632480327"
    },
    {
      "id": "pt.ine.add.PTCONT.2015338",
      "street": "R CUSTODIO MALDONADO FREITAS",
      "house": "23",
      "postcode": "2500-150",
      "city": "CALDAS DA RAINHA",
      "lon": "-9.129176599178361",
      "lat": "39.40630632480327"
    },
    {
      "id": "pt.ine.add.PTCONT.2030623",
      "street": "R CUSTODIO MALDONADO FREITAS",
      "house": "29",
      "postcode": "2500-150",
      "city": "CALDAS DA RAINHA",
      "lon": "-9.129139338557998",
      "lat": "39.406135513578974"
    },
    {
      "id": "pt.ine.add.PTCONT.2032119",
      "street": "R CUSTODIO MALDONADO FREITAS",
      "house": "27",
      "postcode": "2500-150",
      "city": "CALDAS DA RAINHA",
      "lon": "-9.129139338557998",
      "lat": "39.406135513578974"
    },
    {
      "id": "pt.ine.add.PTCONT.2036230",
      "street": "R CUSTÓDIO MALDONADO FREITAS",
      "house": "15",
      "postcode": "2500-150",
      "city": "CALDAS DA RAINHA",
      "lon": "-9.129225981319218",
      "lat": "39.40651305963732"
    },
    {
      "id": "pt.ine.add.PTCONT.2036231",
      "street": "R CUSTÓDIO MALDONADO FREITAS",
      "house": "15",
      "postcode": "2500-150",
      "city": "CALDAS DA RAINHA",
      "lon": "-9.129225981319218",
      "lat": "39.40651305963732"
    },
    {
      "id": "pt.ine.add.PTCONT.2045384",
      "street": "R RAMALHO ORTIGÃO",
      "house": "15",
      "postcode": "2500-247",
      "city": "CALDAS DA RAINHA",
      "lon": "-9.12892556168398",
      "lat": "39.406614707083065"
    },
    {
      "id": "pt.ine.add.PTCONT.2045385",
      "street": "R RAMALHO ORTIGÃO",
      "house": "15",
      "postcode": "2500-247",
      "city": "CALDAS DA RAINHA",
      "lon": "-9.12892556168398",
      "lat": "39.406614707083065"
    },
    {
      "id": "pt.ine.add.PTCONT.2058869",
      "street": "R RAMALHO ORTIGÃO",
      "house": "23",
      "postcode": "2500-247",
      "city": "CALDAS DA RAINHA",
      "lon": "-9.129093466071215",
      "lat": "39.406991557566265"
    },
    {
      "id": "pt.ine.add.PTCONT.2058870",
      "street": "R RAMALHO ORTIGÃO",
      "house": "23",
      "postcode": "2500-247",
      "city": "CALDAS DA RAINHA",
      "lon": "-9.129093466071215",
      "lat": "39.406991557566265"
    },
    {
      "id": "pt.ine.add.PTCONT.2061028",
      "street": "R RAMALHO ORTIGÃO",
      "house": "27",
      "postcode": "2500-247",
      "city": "CALDAS DA RAINHA",
      "lon": "-9.129257784302357",
      "lat": "39.40711624657241"
    },
    {
      "id": "pt.ine.add.PTCONT.2061029",
      "street": "R RAMALHO ORTIGÃO",
      "house": "25",
      "postcode": "2500-247",
      "city": "CALDAS DA RAINHA",
      "lon": "-9.129257784302357",
      "lat": "39.40711624657241"
    },
    {
      "id": "pt.ine.add.PTCONT.2061030",
      "street": "R RAMALHO ORTIGÃO",
      "house": "27",
      "postcode": "2500-247",
      "city": "CALDAS DA RAINHA",
      "lon": "-9.129257784302357",
      "lat": "39.40711624657241"
    },
    {
      "id": "pt.ine.add.PTCONT.2061032",
      "street": "R RAMALHO ORTIGÃO",
      "house": "25",
      "postcode": "2500-247",
      "city": "CALDAS DA RAINHA",
      "lon": "-9.129257784302357",
      "lat": "39.40711624657241"
    },
    {
      "id": "pt.ine.add.PTCONT.2063165",
      "street": "R RAMALHO ORTIGÃO",
      "house": "7",
      "postcode": "2500-247",
      "city": "CALDAS DA RAINHA",
      "lon": "-9.128756250334082",
      "lat": "39.40613879295357"
    },
    {
      "id": "pt.ine.add.PTCONT.2063166",
      "street": "R RAMALHO ORTIGÃO",
      "house": "7",
      "postcode": "2500-247",
      "city": "CALDAS DA RAINHA",
      "lon": "-9.128756250334082",
      "lat": "39.40613879295357"
    },
    {
      "id": "pt.ine.add.PTCONT.2080294",
      "street": "R RAMALHO ORTIGÃO",
      "house": "9",
      "postcode": "2500-247",
      "city": "CALDAS DA RAINHA",
      "lon": "-9.128780492414934",
      "lat": "39.406210640316864"
    },
    {
      "id": "pt.ine.add.PTCONT.2080295",
      "street": "R RAMALHO ORTIGÃO",
      "house": "9",
      "postcode": "2500-247",
      "city": "CALDAS DA RAINHA",
      "lon": "-9.128780492414934",
      "lat": "39.406210640316864"
    },
    {
      "id": "pt.ine.add.PTCONT.2082639",
      "street": "R RAMALHO ORTIGÃO",
      "house": "11",
      "postcode": "2500-247",
      "city": "CALDAS DA RAINHA",
      "lon": "-9.128840713585745",
      "lat": "39.406363241418795"
    },
    {
      "id": "pt.ine.add.PTCONT.2082640",
      "street": "R RAMALHO ORTIGÃO",
      "house": "11",
      "postcode": "2500-247",
      "city": "CALDAS DA RAINHA",
      "lon": "-9.128840713585745",
      "lat": "39.406363241418795"
    },
    {
      "id": "pt.ine.add.PTCONT.2082641",
      "street": "R RAMALHO ORTIGÃO",
      "house": "29",
      "postcode": "2500-247",
      "city": "CALDAS DA RAINHA",
      "lon": "-9.129548903924238",
      "lat": "39.40717680130364"
    },
    {
      "id": "pt.ine.add.PTCONT.2082642",
      "street": "R RAMALHO ORTIGÃO",
      "house": "29",
      "postcode": "2500-247",
      "city": "CALDAS DA RAINHA",
      "lon": "-9.129548903924238",
      "lat": "39.40717680130364"
    },
    {
      "id": "pt.ine.add.PTCONT.2082643",
      "street": "R RAMALHO ORTIGÃO",
      "house": "29",
      "postcode": "2500-247",
      "city": "CALDAS DA RAINHA",
      "lon": "-9.129548903924238",
      "lat": "39.40717680130364"
    },
    {
      "id": "pt.ine.add.PTCONT.2082644",
      "street": "R RAMALHO ORTIGÃO",
      "house": "29",
      "postcode": "2500-247",
      "city": "CALDAS DA RAINHA",
      "lon": "-9.129548903924238",
      "lat": "39.40717680130364"
    },
    {
      "id": "pt.ine.add.PTCONT.2089813",
      "street": "R CUSTODIO MALDONADO FREITAS",
      "house": "35",
      "postcode": "2500-150",
      "city": "CALDAS DA RAINHA",
      "lon": "-9.129043394056524",
      "lat": "39.40592017047459"
    },
    {
      "id": "pt.ine.add.PTCONT.2089814",
      "street": "R CUSTODIO MALDONADO FREITAS",
      "house": "35",
      "postcode": "2500-150",
      "city": "CALDAS DA RAINHA",
      "lon": "-9.129043394056524",
      "lat": "39.40592017047459"
    },
    {
      "id": "pt.ine.add.PTCONT.2089819",
      "street": "R CUSTÓDIO MALDONADO FREITAS",
      "house": "19",
      "postcode": "2500-150",
      "city": "CALDAS DA RAINHA",
      "lon": "-9.12918974549747",
      "lat": "39.40641429450367"
    },
    {
      "id": "pt.ine.add.PTCONT.2089820",
      "street": "R CUSTÓDIO MALDONADO FREITAS",
      "house": "19",
      "postcode": "2500-150",
      "city": "CALDAS DA RAINHA",
      "lon": "-9.12918974549747",
      "lat": "39.40641429450367"
    },
    {
      "id": "pt.ine.add.PTCONT.2111097",
      "street": "R RAMALHO ORTIGÃO",
      "house": "5",
      "postcode": "2500-247",
      "city": "CALDAS DA RAINHA",
      "lon": "-9.128719375037331",
      "lat": "39.40599499885599"
    },
    {
      "id": "pt.ine.add.PTCONT.2111098",
      "street": "R RAMALHO ORTIGÃO",
      "house": "5",
      "postcode": "2500-247",
      "city": "CALDAS DA RAINHA",
      "lon": "-9.128719375037331",
      "lat": "39.40599499885599"
    },
    {
      "id": "pt.ine.add.PTCONT.2124993",
      "street": "R CUSTÓDIO MALDONADO FREITAS",
      "house": "33",
      "postcode": "2500-150",
      "city": "CALDAS DA RAINHA",
      "lon": "-9.129114839900263",
      "lat": "39.40604565477602"
    },
    {
      "id": "pt.ine.add.PTCONT.2124994",
      "street": "R CUSTÓDIO MALDONADO FREITAS",
      "house": "33",
      "postcode": "2500-150",
      "city": "CALDAS DA RAINHA",
      "lon": "-9.129114839900263",
      "lat": "39.40604565477602"
    },
    {
      "id": "pt.ine.add.PTCONT.2151072",
      "street": "R DIARIO DE NOTICIAS",
      "house": "87",
      "postcode": "2500-176",
      "city": "CALDAS DA RAINHA",
      "lon": "-9.129087010329574",
      "lat": "39.40572164622276"
    },
    {
      "id": "pt.ine.add.PTCONT.2159283",
      "street": "R RAMALHO ORTIGÃO",
      "house": "13",
      "postcode": "2500-247",
      "city": "CALDAS DA RAINHA",
      "lon": "-9.12890119121256",
      "lat": "39.40653385399984"
    },
    {
      "id": "pt.ine.add.PTCONT.2159284",
      "street": "R RAMALHO ORTIGÃO",
      "house": "13",
      "postcode": "2500-247",
      "city": "CALDAS DA RAINHA",
      "lon": "-9.12890119121256",
      "lat": "39.40653385399984"
    },
    {
      "id": "pt.ine.add.PTCONT.2161411",
      "street": "R RAMALHO ORTIGÃO",
      "house": "17",
      "postcode": "2500-247",
      "city": "CALDAS DA RAINHA",
      "lon": "-9.128962437756222",
      "lat": "39.40675850109061"
    },
    {
      "id": "pt.ine.add.PTCONT.2161412",
      "street": "R RAMALHO ORTIGÃO",
      "house": "17",
      "postcode": "2500-247",
      "city": "CALDAS DA RAINHA",
      "lon": "-9.128962437756222",
      "lat": "39.40675850109061"
    },
    {
      "id": "pt.ine.add.PTCONT.2161413",
      "street": "R RAMALHO ORTIGÃO",
      "house": "19A",
      "postcode": "2500-247",
      "city": "CALDAS DA RAINHA",
      "lon": "-9.128962437756222",
      "lat": "39.40675850109061"
    },
    {
      "id": "pt.ine.add.PTCONT.2161414",
      "street": "R RAMALHO ORTIGÃO",
      "house": "19",
      "postcode": "2500-247",
      "city": "CALDAS DA RAINHA",
      "lon": "-9.128962437756222",
      "lat": "39.40675850109061"
    },
    {
      "id": "pt.ine.add.PTCONT.2201214",
      "street": "R RAMALHO ORTIGÃO",
      "house": "3",
      "postcode": "2500-247",
      "city": "CALDAS DA RAINHA",
      "lon": "-9.128683652461637",
      "lat": "39.40593225658465"
    },
    {
      "id": "pt.ine.add.PTCONT.2201215",
      "street": "R RAMALHO ORTIGÃO",
      "house": "3",
      "postcode": "2500-247",
      "city": "CALDAS DA RAINHA",
      "lon": "-9.128683652461637",
      "lat": "39.40593225658465"
    },
    {
      "id": "pt.ine.add.PTCONT.2229552",
      "street": "R RAMALHO ORTIGÃO",
      "house": "1",
      "postcode": "2500-247",
      "city": "CALDAS DA RAINHA",
      "lon": "-9.128669482544382",
      "lat": "39.40575224072257"
    },
    {
      "id": "pt.ine.add.PTCONT.2229553",
      "street": "R RAMALHO ORTIGÃO",
      "house": "1",
      "postcode": "2500-247",
      "city": "CALDAS DA RAINHA",
      "lon": "-9.128669482544382",
      "lat": "39.40575224072257"
    },
    {
      "id": "pt.ine.add.PTCONT.2229554",
      "street": "R RAMALHO ORTIGÃO",
      "house": "1",
      "postcode": "2500-247",
      "city": "CALDAS DA RAINHA",
      "lon": "-9.128669482544382",
      "lat": "39.40575224072257"
    },
    {
      "id": "pt.ine.add.PTCONT.2229555",
      "street": "R RAMALHO ORTIGÃO",
      "house": "1",
      "postcode": "2500-247",
      "city": "CALDAS DA RAINHA",
      "lon": "-9.128669482544382",
      "lat": "39.40575224072257"
    },
    {
      "id": "pt.ine.add.PTCONT.2241253",
      "street": "R CUSTODIO MALDONADO FREITAS",
      "house": "13",
      "postcode": "2500-150",
      "city": "CALDAS DA RAINHA",
      "lon": "-9.1292854348691",
      "lat": "39.40661162593975"
    },
    {
      "id": "pt.ine.add.PTCONT.2241254",
      "street": "R CUSTODIO MALDONADO FREITAS",
      "house": "11",
      "postcode": "2500-150",
      "city": "CALDAS DA RAINHA",
      "lon": "-9.1292854348691",
      "lat": "39.40661162593975"
    },
    {
      "id": "pt.ine.add.PTCONT.2247253",
      "street": "R RAMALHO ORTIGÃO",
      "house": "21",
      "postcode": "2500-247",
      "city": "CALDAS DA RAINHA",
      "lon": "-9.129034268680305",
      "lat": "39.40691100268844"
    }
  ]
}