{
  "data": {
    "distrito": "Aveiro",
    "concelho": "Oliveira de Azeméis",
    "freguesia": "União das freguesias de Nogueira do Cravo e Pindelo",
    "OBJECTID": 419,
    "BGRI2021": "01132000309",
    "DT21": "01",
    "DTMN21": "0113",
    "DTMNFR21": "011320",
    "DTMNFRSEC21": "011320003",
    "SECNUM21": "003",
    "SSNUM21": "09",
    "SECSSNUM21": "00309",
    "OBJECTID_1": 8568,
    "DT": "01",
    "CC": "13",
    "fr": "20",
    "SEC": "003",
    "SS": "09"
  },
  "addresses": [
    {
      "id": "pt.ine.add.PTCONT.310820",
      "street": "AV DESCOBRIMENTOS",
      "house": "1133",
      "postcode": "3700-768",
      "city": "NOGUEIRA DO CRAVO OAZ",
      "lon": "-8.446534581625153",
      "lat": "40.88242251623545"
    },
    {
      "id": "pt.ine.add.PTCONT.310821",
      "street": "AV DESCOBRIMENTOS",
      "house": "",
      "postcode": "3700-768",
      "city": "NOGUEIRA DO CRAVO OAZ",
      "lon": "-8.446534581625153",
      "lat": "40.88242251623545"
    },
    {
      "id": "pt.ine.add.PTCONT.320343",
      "street": "R REMOLHA",
      "house": "315",
      "postcode": "3720-444",
      "city": "PINDELO",
      "lon": "-8.439775216315917",
      "lat": "40.88059470159032"
    },
    {
      "id": "pt.ine.add.PTCONT.341899",
      "street": "R 25 DE ABRIL",
      "house": "150",
      "postcode": "3720-444",
      "city": "PINDELO",
      "lon": "-8.439084280010489",
      "lat": "40.879984209848466"
    },
    {
      "id": "pt.ine.add.PTCONT.65962",
      "street": "R REMOLHA",
      "house": "501",
      "postcode": "3720-444",
      "city": "PINDELO",
      "lon": "-8.438735443629932",
      "lat": "40.88152495620193"
    },
    {
      "id": "pt.ine.add.PTCONT.79626",
      "street": "R REMOLHA",
      "house": "335",
      "postcode": "3720-444",
      "city": "PINDELO",
      "lon": "-8.439505041588045",
      "lat": "40.88118073185376"
    },
    {
      "id": "pt.ine.add.PTCONT.143630",
      "street": "R REMOLHA",
      "house": "376",
      "postcode": "3720-444",
      "city": "PINDELO",
      "lon": "-8.439101617879672",
      "lat": "40.881172798019115"
    },
    {
      "id": "pt.ine.add.PTCONT.229231",
      "street": "R REMOLHA",
      "house": "331",
      "postcode": "3720-444",
      "city": "PINDELO",
      "lon": "-8.439633512039537",
      "lat": "40.88073915512949"
    }
  ]
}