{
  "data": {
    "distrito": "Aveiro",
    "concelho": "Oliveira de Azeméis",
    "freguesia": "União das freguesias de Nogueira do Cravo e Pindelo",
    "OBJECTID": 272,
    "BGRI2021": "01132000313",
    "DT21": "01",
    "DTMN21": "0113",
    "DTMNFR21": "011320",
    "DTMNFRSEC21": "011320003",
    "SECNUM21": "003",
    "SSNUM21": "13",
    "SECSSNUM21": "00313",
    "OBJECTID_1": 9100,
    "DT": "01",
    "CC": "13",
    "fr": "20",
    "SEC": "003",
    "SS": "13"
  },
  "addresses": [
    {
      "id": "pt.ine.add.PTCONT.301636",
      "street": "R FONTINHA",
      "house": "271",
      "postcode": "3700-788",
      "city": "NOGUEIRA DO CRAVO OAZ",
      "lon": "-8.447195082282544",
      "lat": "40.89163262294875"
    },
    {
      "id": "pt.ine.add.PTCONT.301637",
      "street": "CC COELHEIRA",
      "house": "55",
      "postcode": "3700-755",
      "city": "NOGUEIRA DO CRAVO OAZ",
      "lon": "-8.44745754159501",
      "lat": "40.89192906583447"
    },
    {
      "id": "pt.ine.add.PTCONT.301638",
      "street": "CC COELHEIRA",
      "house": "55",
      "postcode": "3700-755",
      "city": "NOGUEIRA DO CRAVO OAZ",
      "lon": "-8.44745754159501",
      "lat": "40.89192906583447"
    },
    {
      "id": "pt.ine.add.PTCONT.301639",
      "street": "CC COELHEIRA",
      "house": "55",
      "postcode": "3700-755",
      "city": "NOGUEIRA DO CRAVO OAZ",
      "lon": "-8.44745754159501",
      "lat": "40.89192906583447"
    },
    {
      "id": "pt.ine.add.PTCONT.303640",
      "street": "R MANUEL PEREIRA GODINHO",
      "house": "594",
      "postcode": "3700-780",
      "city": "NOGUEIRA DO CRAVO OAZ",
      "lon": "-8.447518790289822",
      "lat": "40.892334114216325"
    },
    {
      "id": "pt.ine.add.PTCONT.332084",
      "street": "R FONTINHA",
      "house": "247",
      "postcode": "3700-788",
      "city": "NOGUEIRA DO CRAVO OAZ",
      "lon": "-8.446862152517776",
      "lat": "40.89148945254458"
    },
    {
      "id": "pt.ine.add.PTCONT.333653",
      "street": "R FONTINHA",
      "house": "107",
      "postcode": "3700-788",
      "city": "NOGUEIRA DO CRAVO OAZ",
      "lon": "-8.447904099905097",
      "lat": "40.89100935966539"
    },
    {
      "id": "pt.ine.add.PTCONT.350619",
      "street": "R FONTINHA",
      "house": "255",
      "postcode": "3700-788",
      "city": "NOGUEIRA DO CRAVO OAZ",
      "lon": "-8.446755868648024",
      "lat": "40.89159779906202"
    },
    {
      "id": "pt.ine.add.PTCONT.20013",
      "street": "R MANUEL PEREIRA GODINHO",
      "house": "604",
      "postcode": "3700-780",
      "city": "NOGUEIRA DO CRAVO OAZ",
      "lon": "-8.447246720277418",
      "lat": "40.89251495127516"
    },
    {
      "id": "pt.ine.add.PTCONT.36224",
      "street": "CC COELHEIRA",
      "house": "46",
      "postcode": "3700-755",
      "city": "NOGUEIRA DO CRAVO OAZ",
      "lon": "-8.44754013532346",
      "lat": "40.89182978805073"
    },
    {
      "id": "pt.ine.add.PTCONT.47214",
      "street": "CC ARROTEIA",
      "house": "17",
      "postcode": "3700-750",
      "city": "NOGUEIRA DO CRAVO OAZ",
      "lon": "-8.447884720965748",
      "lat": "40.891927900748016"
    },
    {
      "id": "pt.ine.add.PTCONT.51563",
      "street": "R FONTINHA",
      "house": "177",
      "postcode": "3700-788",
      "city": "NOGUEIRA DO CRAVO OAZ",
      "lon": "-8.44701424027835",
      "lat": "40.89102979459085"
    },
    {
      "id": "pt.ine.add.PTCONT.61416",
      "street": "R FONTINHA",
      "house": "11",
      "postcode": "3700-788",
      "city": "NOGUEIRA DO CRAVO OAZ",
      "lon": "-8.448795499699866",
      "lat": "40.89131308597551"
    },
    {
      "id": "pt.ine.add.PTCONT.65943",
      "street": "R MANUEL PEREIRA GODINHO",
      "house": "205",
      "postcode": "3700-780",
      "city": "NOGUEIRA DO CRAVO OAZ",
      "lon": "-8.447050987264138",
      "lat": "40.891272823814546"
    },
    {
      "id": "pt.ine.add.PTCONT.72148",
      "street": "R MANUEL PEREIRA GODINHO",
      "house": "546",
      "postcode": "3700-780",
      "city": "NOGUEIRA DO CRAVO OAZ",
      "lon": "-8.448027583740561",
      "lat": "40.89202656339104"
    },
    {
      "id": "pt.ine.add.PTCONT.84044",
      "street": "R FONTINHA",
      "house": "145",
      "postcode": "3700-788",
      "city": "NOGUEIRA DO CRAVO OAZ",
      "lon": "-8.447713605255673",
      "lat": "40.890874807639"
    },
    {
      "id": "pt.ine.add.PTCONT.86003",
      "street": "R FONTINHA",
      "house": "73",
      "postcode": "3700-788",
      "city": "NOGUEIRA DO CRAVO OAZ",
      "lon": "-8.448366785646401",
      "lat": "40.89099008630836"
    },
    {
      "id": "pt.ine.add.PTCONT.138248",
      "street": "R MANUEL PEREIRA GODINHO",
      "house": "446",
      "postcode": "3700-780",
      "city": "NOGUEIRA DO CRAVO OAZ",
      "lon": "-8.448487882060283",
      "lat": "40.89150302806655"
    },
    {
      "id": "pt.ine.add.PTCONT.138249",
      "street": "CC ARROTEIA",
      "house": "47",
      "postcode": "3700-750",
      "city": "NOGUEIRA DO CRAVO OAZ",
      "lon": "-8.447658028461193",
      "lat": "40.89166738043944"
    },
    {
      "id": "pt.ine.add.PTCONT.147101",
      "street": "R MANUEL PEREIRA GODINHO",
      "house": "468",
      "postcode": "3700-780",
      "city": "NOGUEIRA DO CRAVO OAZ",
      "lon": "-8.448417498178035",
      "lat": "40.891674311440454"
    },
    {
      "id": "pt.ine.add.PTCONT.149328",
      "street": "R FONTINHA",
      "house": "65",
      "postcode": "3700-788",
      "city": "NOGUEIRA DO CRAVO OAZ",
      "lon": "-8.448842535573796",
      "lat": "40.89122290935856"
    },
    {
      "id": "pt.ine.add.PTCONT.151904",
      "street": "R FONTINHA",
      "house": "201",
      "postcode": "3700-788",
      "city": "NOGUEIRA DO CRAVO OAZ",
      "lon": "-8.44694338505685",
      "lat": "40.89110202571028"
    },
    {
      "id": "pt.ine.add.PTCONT.158322",
      "street": "R MANUEL PEREIRA GODINHO",
      "house": "520",
      "postcode": "3700-780",
      "city": "NOGUEIRA DO CRAVO OAZ",
      "lon": "-8.448133524527234",
      "lat": "40.891846178363984"
    },
    {
      "id": "pt.ine.add.PTCONT.212728",
      "street": "R FONTINHA",
      "house": "93",
      "postcode": "3700-788",
      "city": "NOGUEIRA DO CRAVO OAZ",
      "lon": "-8.44808225964864",
      "lat": "40.891044892405716"
    },
    {
      "id": "pt.ine.add.PTCONT.213936",
      "street": "R FONTINHA",
      "house": "161",
      "postcode": "3700-788",
      "city": "NOGUEIRA DO CRAVO OAZ",
      "lon": "-8.447452640566546",
      "lat": "40.89089352876402"
    },
    {
      "id": "pt.ine.add.PTCONT.218323",
      "street": "R MANUEL PEREIRA GODINHO",
      "house": "478",
      "postcode": "3700-780",
      "city": "NOGUEIRA DO CRAVO OAZ",
      "lon": "-8.448299435959212",
      "lat": "40.8918007011459"
    },
    {
      "id": "pt.ine.add.PTCONT.229030",
      "street": "R FONTINHA",
      "house": "271",
      "postcode": "3700-788",
      "city": "NOGUEIRA DO CRAVO OAZ",
      "lon": "-8.4473012376978",
      "lat": "40.89149726201914"
    },
    {
      "id": "pt.ine.add.PTCONT.229031",
      "street": "R FONTINHA",
      "house": "229",
      "postcode": "3700-788",
      "city": "NOGUEIRA DO CRAVO OAZ",
      "lon": "-8.446861556996499",
      "lat": "40.891363387155245"
    },
    {
      "id": "pt.ine.add.PTCONT.257267",
      "street": "R MANUEL PEREIRA GODINHO",
      "house": "442",
      "postcode": "3700-780",
      "city": "NOGUEIRA DO CRAVO OAZ",
      "lon": "-8.448605943393744",
      "lat": "40.89137663816492"
    },
    {
      "id": "pt.ine.add.PTCONT.258895",
      "street": "R MANUEL PEREIRA GODINHO",
      "house": "590",
      "postcode": "3700-780",
      "city": "NOGUEIRA DO CRAVO OAZ",
      "lon": "-8.447601341787612",
      "lat": "40.89222583172542"
    },
    {
      "id": "pt.ine.add.PTCONT.258896",
      "street": "R FONTINHA",
      "house": "209",
      "postcode": "3700-788",
      "city": "NOGUEIRA DO CRAVO OAZ",
      "lon": "-8.446849052972702",
      "lat": "40.891228349371254"
    }
  ]
}