{
  "data": {
    "distrito": "Leiria",
    "concelho": "Pombal",
    "freguesia": "União das freguesias de Santiago e São Simão de Litém e Albergaria dos Doze",
    "OBJECTID": 2254,
    "BGRI2021": "10151900122",
    "DT21": "10",
    "DTMN21": "1015",
    "DTMNFR21": "101519",
    "DTMNFRSEC21": "101519001",
    "SECNUM21": "001",
    "SSNUM21": "22",
    "SECSSNUM21": "00122",
    "OBJECTID_1": 96133,
    "DT": "10",
    "CC": "15",
    "fr": "19",
    "SEC": "001",
    "SS": "22"
  },
  "addresses": [
    {
      "id": "pt.ine.add.PTCONT.1985889",
      "street": "R ANDRES",
      "house": "",
      "postcode": "3100-632",
      "city": "SANTIAGO DE LITÉM",
      "lon": "-8.618325889212732",
      "lat": "39.856984936079975"
    },
    {
      "id": "pt.ine.add.PTCONT.1994421",
      "street": "R ANDRES",
      "house": "",
      "postcode": "3100-632",
      "city": "SANTIAGO DE LITÉM",
      "lon": "-8.61853343964891",
      "lat": "39.85658778772521"
    },
    {
      "id": "pt.ine.add.PTCONT.2004791",
      "street": "R LAPA",
      "house": "",
      "postcode": "3100-666",
      "city": "SANTIAGO DE LITÉM",
      "lon": "-8.612427062716813",
      "lat": "39.85400133376969"
    },
    {
      "id": "pt.ine.add.PTCONT.2045018",
      "street": "R ENG GUILHERME SANTOS",
      "house": "",
      "postcode": "3100-641",
      "city": "SANTIAGO DE LITÉM",
      "lon": "-8.617318953824423",
      "lat": "39.85172041850286"
    },
    {
      "id": "pt.ine.add.PTCONT.2051431",
      "street": "R ENG GUILHERME SANTOS",
      "house": "",
      "postcode": "3100-641",
      "city": "SANTIAGO DE LITÉM",
      "lon": "-8.618731783986252",
      "lat": "39.8548847545078"
    },
    {
      "id": "pt.ine.add.PTCONT.2060547",
      "street": "R CARVALINHOS",
      "house": "",
      "postcode": "3100-632",
      "city": "SANTIAGO DE LITÉM",
      "lon": "-8.617903012985488",
      "lat": "39.85501431021612"
    },
    {
      "id": "pt.ine.add.PTCONT.2067102",
      "street": "R ANDRES",
      "house": "",
      "postcode": "3100-632",
      "city": "SANTIAGO DE LITÉM",
      "lon": "-8.61851584219444",
      "lat": "39.85740744043109"
    },
    {
      "id": "pt.ine.add.PTCONT.2077660",
      "street": "R ANDRES",
      "house": "",
      "postcode": "3100-632",
      "city": "SANTIAGO DE LITÉM",
      "lon": "-8.618707517870087",
      "lat": "39.85641593821224"
    },
    {
      "id": "pt.ine.add.PTCONT.2095370",
      "street": "R CARVALINHOS",
      "house": "",
      "postcode": "3100-632",
      "city": "SANTIAGO DE LITÉM",
      "lon": "-8.618655190631147",
      "lat": "39.85562359714514"
    },
    {
      "id": "pt.ine.add.PTCONT.2121636",
      "street": "R CARVALINHOS",
      "house": "",
      "postcode": "3100-632",
      "city": "SANTIAGO DE LITÉM",
      "lon": "-8.617853990733712",
      "lat": "39.85469028587388"
    },
    {
      "id": "pt.ine.add.PTCONT.2147950",
      "street": "R ANDRES",
      "house": "",
      "postcode": "3100-632",
      "city": "SANTIAGO DE LITÉM",
      "lon": "-8.618729683013777",
      "lat": "39.85624472449978"
    },
    {
      "id": "pt.ine.add.PTCONT.2156674",
      "street": "R ENG GUILHERME SANTOS",
      "house": "",
      "postcode": "3100-666",
      "city": "SANTIAGO DE LITÉM",
      "lon": "-8.614182650946208",
      "lat": "39.85104898299095"
    },
    {
      "id": "pt.ine.add.PTCONT.2240258",
      "street": "R CARVALINHOS",
      "house": "",
      "postcode": "3100-632",
      "city": "SANTIAGO DE LITÉM",
      "lon": "-8.618098240881707",
      "lat": "39.854527150337695"
    },
    {
      "id": "pt.ine.add.PTCONT.2251049",
      "street": "R ENG GUILHERME SANTOS",
      "house": "",
      "postcode": "3100-666",
      "city": "SANTIAGO DE LITÉM",
      "lon": "-8.613703202137545",
      "lat": "39.850996932053235"
    },
    {
      "id": "pt.ine.add.PTCONT.2254146",
      "street": "R ANDRES",
      "house": "13",
      "postcode": "3100-632",
      "city": "SANTIAGO DE LITÉM",
      "lon": "-8.618693039605434",
      "lat": "39.856019718780416"
    }
  ]
}