{
  "data": {
    "distrito": "Lisboa",
    "concelho": "Loures",
    "freguesia": "União das freguesias de Santo Antão e São Julião do Tojal",
    "OBJECTID": 1518,
    "BGRI2021": "11072900624",
    "DT21": "11",
    "DTMN21": "1107",
    "DTMNFR21": "110729",
    "DTMNFRSEC21": "110729006",
    "SECNUM21": "006",
    "SSNUM21": "24",
    "SECSSNUM21": "00624",
    "OBJECTID_1": 105994,
    "DT": "11",
    "CC": "07",
    "fr": "29",
    "SEC": "006",
    "SS": "24"
  },
  "addresses": [
    {
      "id": "pt.ine.add.PTCONT.2902327",
      "street": "R FREDERICO SILVA",
      "house": "41",
      "postcode": "2660-162",
      "city": "SANTO ANTÃO DO TOJAL",
      "lon": "-9.162542403338145",
      "lat": "38.866130722061285"
    },
    {
      "id": "pt.ine.add.PTCONT.2929040",
      "street": "R FREDERICO SILVA",
      "house": "43",
      "postcode": "2660-162",
      "city": "SANTO ANTÃO DO TOJAL",
      "lon": "-9.162385795039706",
      "lat": "38.86645637779139"
    },
    {
      "id": "pt.ine.add.PTCONT.2929041",
      "street": "R FREDERICO SILVA",
      "house": "39",
      "postcode": "2660-162",
      "city": "SANTO ANTÃO DO TOJAL",
      "lon": "-9.162502127243537",
      "lat": "38.865734740594256"
    },
    {
      "id": "pt.ine.add.PTCONT.3002085",
      "street": "BC 28 DE SETEMBRO",
      "house": "",
      "postcode": "2660-162",
      "city": "SANTO ANTÃO DO TOJAL",
      "lon": "-9.162811355547573",
      "lat": "38.86800194122922"
    },
    {
      "id": "pt.ine.add.PTCONT.3020720",
      "street": "R FREDERICO SILVA",
      "house": "49",
      "postcode": "2660-162",
      "city": "SANTO ANTÃO DO TOJAL",
      "lon": "-9.162514117964335",
      "lat": "38.86736501897455"
    },
    {
      "id": "pt.ine.add.PTCONT.3086633",
      "street": "R FELISBERTO GOMES MESQUITA",
      "house": "1",
      "postcode": "2660-155",
      "city": "SANTO ANTÃO DO TOJAL",
      "lon": "-9.161516997634786",
      "lat": "38.86693242968519"
    },
    {
      "id": "pt.ine.add.PTCONT.3154249",
      "street": "R JOSE DIAS COELHO",
      "house": "18",
      "postcode": "2660-174",
      "city": "SANTO ANTÃO DO TOJAL",
      "lon": "-9.16179582406519",
      "lat": "38.867092111515774"
    },
    {
      "id": "pt.ine.add.PTCONT.3154250",
      "street": "LG 25 ABRIL",
      "house": "28",
      "postcode": "2660-114",
      "city": "SANTO ANTÃO DO TOJAL",
      "lon": "-9.161775509110269",
      "lat": "38.867281451038544"
    },
    {
      "id": "pt.ine.add.PTCONT.3353925",
      "street": "BC 28 DE SETEMBRO",
      "house": "1",
      "postcode": "2660-162",
      "city": "SANTO ANTÃO DO TOJAL",
      "lon": "-9.162690822823976",
      "lat": "38.86763369054088"
    },
    {
      "id": "pt.ine.add.PTCONT.3441448",
      "street": "R JOSE DIAS COELHO",
      "house": "28",
      "postcode": "2660-174",
      "city": "SANTO ANTÃO DO TOJAL",
      "lon": "-9.161626781317967",
      "lat": "38.86735482221228"
    },
    {
      "id": "pt.ine.add.PTCONT.3449854",
      "street": "LG 25 ABRIL",
      "house": "28",
      "postcode": "2660-114",
      "city": "SANTO ANTÃO DO TOJAL",
      "lon": "-9.161775509110269",
      "lat": "38.867281451038544"
    },
    {
      "id": "pt.ine.add.PTCONT.2329185",
      "street": "BC 28 DE SETEMBRO",
      "house": "",
      "postcode": "2660-162",
      "city": "SANTO ANTÃO DO TOJAL",
      "lon": "-9.162681121216092",
      "lat": "38.86775988310555"
    },
    {
      "id": "pt.ine.add.PTCONT.2377862",
      "street": "R JOSE DIAS COELHO",
      "house": "22",
      "postcode": "2660-174",
      "city": "SANTO ANTÃO DO TOJAL",
      "lon": "-9.161634018780637",
      "lat": "38.867057506137876"
    },
    {
      "id": "pt.ine.add.PTCONT.2433462",
      "street": "R RIBEIRO DOS SANTOS",
      "house": "4",
      "postcode": "2660-162",
      "city": "SANTO ANTÃO DO TOJAL",
      "lon": "-9.16310585723298",
      "lat": "38.866053692569174"
    },
    {
      "id": "pt.ine.add.PTCONT.2433463",
      "street": "R RIBEIRO DOS SANTOS",
      "house": "4",
      "postcode": "2660-162",
      "city": "SANTO ANTÃO DO TOJAL",
      "lon": "-9.16310585723298",
      "lat": "38.866053692569174"
    },
    {
      "id": "pt.ine.add.PTCONT.2516661",
      "street": "R FREDERICO SILVA",
      "house": "47",
      "postcode": "2660-162",
      "city": "SANTO ANTÃO DO TOJAL",
      "lon": "-9.162466737108725",
      "lat": "38.86727536017164"
    },
    {
      "id": "pt.ine.add.PTCONT.2569295",
      "street": "BC 28 DE SETEMBRO",
      "house": "",
      "postcode": "2660-162",
      "city": "SANTO ANTÃO DO TOJAL",
      "lon": "-9.16245668553325",
      "lat": "38.86817621328291"
    },
    {
      "id": "pt.ine.add.PTCONT.2643479",
      "street": "R BENTO DE JESUS CARAÇA",
      "house": "2",
      "postcode": "2660-384",
      "city": "SÃO JULIÃO DO TOJAL",
      "lon": "-9.16162188002306",
      "lat": "38.86781425531712"
    },
    {
      "id": "pt.ine.add.PTCONT.2681045",
      "street": "R FELISBERTO GOMES MESQUITA",
      "house": "3",
      "postcode": "2660-155",
      "city": "SANTO ANTÃO DO TOJAL",
      "lon": "-9.16144956208498",
      "lat": "38.867050122943105"
    },
    {
      "id": "pt.ine.add.PTCONT.2728008",
      "street": "R RIBEIRO DOS SANTOS",
      "house": "20",
      "postcode": "2660-162",
      "city": "SANTO ANTÃO DO TOJAL",
      "lon": "-9.164311901928201",
      "lat": "38.86659251541998"
    },
    {
      "id": "pt.ine.add.PTCONT.2838279",
      "street": "BC 28 DE SETEMBRO",
      "house": "1 A",
      "postcode": "2660-162",
      "city": "SANTO ANTÃO DO TOJAL",
      "lon": "-9.162597749265204",
      "lat": "38.86757145757634"
    }
  ]
}