{
  "data": {
    "distrito": "Faro",
    "concelho": "Loulé",
    "freguesia": "Loulé (São Clemente)",
    "OBJECTID": 744,
    "BGRI2021": "08080801311",
    "DT21": "08",
    "DTMN21": "0808",
    "DTMNFR21": "080808",
    "DTMNFRSEC21": "080808013",
    "SECNUM21": "013",
    "SSNUM21": "11",
    "SECSSNUM21": "01311",
    "OBJECTID_1": 69871,
    "DT": "08",
    "CC": "08",
    "fr": "08",
    "SEC": "013",
    "SS": "11"
  },
  "addresses": [
    {
      "id": "pt.ine.add.PTCONT.1468919",
      "street": "R ERMELINDA ABOIM",
      "house": "7",
      "postcode": "8100-787",
      "city": "LOULÉ",
      "lon": "-8.016637558065582",
      "lat": "37.14163000156218"
    },
    {
      "id": "pt.ine.add.PTCONT.1484968",
      "street": "R ROMEIRINHAS",
      "house": "26",
      "postcode": "8100-787",
      "city": "LOULÉ",
      "lon": "-8.01599619652561",
      "lat": "37.14150322118582"
    },
    {
      "id": "pt.ine.add.PTCONT.1496816",
      "street": "R ERMELINDA ABOIM",
      "house": "",
      "postcode": "8100-787",
      "city": "LOULÉ",
      "lon": "-8.0163792245484",
      "lat": "37.14127833390945"
    },
    {
      "id": "pt.ine.add.PTCONT.1585187",
      "street": "R ROMEIRINHAS",
      "house": "",
      "postcode": "8100-787",
      "city": "LOULÉ",
      "lon": "-8.016198778954935",
      "lat": "37.14151243176747"
    },
    {
      "id": "pt.ine.add.PTCONT.1665627",
      "street": "R ROMEIRINHAS",
      "house": "LOTE",
      "postcode": "8100-787",
      "city": "LOULÉ",
      "lon": "-8.016728111757104",
      "lat": "37.14129669817583"
    },
    {
      "id": "pt.ine.add.PTCONT.1747161",
      "street": "R ERMELINDA ABOIM",
      "house": "",
      "postcode": "8100-787",
      "city": "LOULÉ",
      "lon": "-8.016717022097714",
      "lat": "37.14118856004138"
    },
    {
      "id": "pt.ine.add.PTCONT.1784351",
      "street": "R FREDERICO VALERIO",
      "house": "",
      "postcode": "8100-787",
      "city": "LOULÉ",
      "lon": "-8.016142876775252",
      "lat": "37.14126909032278"
    },
    {
      "id": "pt.ine.add.PTCONT.1795070",
      "street": "R JOSE DA SILVA MALTEZINHO",
      "house": "",
      "postcode": "8100-787",
      "city": "LOULÉ",
      "lon": "-8.01595146694057",
      "lat": "37.14131395431105"
    },
    {
      "id": "pt.ine.add.PTCONT.1797253",
      "street": "R ROMEIRINHAS",
      "house": "",
      "postcode": "8100-787",
      "city": "LOULÉ",
      "lon": "-8.016390189145039",
      "lat": "37.14146756738195"
    },
    {
      "id": "pt.ine.add.PTCONT.1806323",
      "street": "R ERMELINDA ABOIM",
      "house": "",
      "postcode": "8100-787",
      "city": "LOULÉ",
      "lon": "-8.016716580335682",
      "lat": "37.141476898925454"
    }
  ]
}