{
  "data": {
    "distrito": "Bragan√ßa",
    "concelho": "Mogadouro",
    "freguesia": "Castelo Branco",
    "OBJECTID": 597,
    "BGRI2021": "04080700120",
    "DT21": "04",
    "DTMN21": "0408",
    "DTMNFR21": "040807",
    "DTMNFRSEC21": "040807001",
    "SECNUM21": "001",
    "SSNUM21": "20",
    "SECSSNUM21": "00120",
    "OBJECTID_1": 38017,
    "DT": "04",
    "CC": "08",
    "fr": "07",
    "SEC": "001",
    "SS": "20"
  },
  "addresses": [
    {
      "id": "pt.ine.add.PTCONT.861331",
      "street": "R ESTRADA",
      "house": "4",
      "postcode": "5200-150",
      "city": "CASTELO BRANCO MGD",
      "lon": "-6.772649971020795",
      "lat": "41.244968580763874"
    },
    {
      "id": "pt.ine.add.PTCONT.867428",
      "street": "R ESTRADA PRINCIPAL",
      "house": "",
      "postcode": "5200-150",
      "city": "CASTELO BRANCO MGD",
      "lon": "-6.772535348778961",
      "lat": "41.2453183788256"
    },
    {
      "id": "pt.ine.add.PTCONT.880348",
      "street": "R ESTRADA",
      "house": "10",
      "postcode": "5200-150",
      "city": "CASTELO BRANCO MGD",
      "lon": "-6.773050827530251",
      "lat": "41.24462216448498"
    },
    {
      "id": "pt.ine.add.PTCONT.894240",
      "street": "R OUSEIRA",
      "house": "",
      "postcode": "5200-150",
      "city": "CASTELO BRANCO MGD",
      "lon": "-6.773617732559206",
      "lat": "41.24374647668214"
    },
    {
      "id": "pt.ine.add.PTCONT.935582",
      "street": "R BARREIRO",
      "house": "12",
      "postcode": "5200-150",
      "city": "CASTELO BRANCO MGD",
      "lon": "-6.773100213508211",
      "lat": "41.244541712678924"
    },
    {
      "id": "pt.ine.add.PTCONT.942813",
      "street": "R ESTRADA",
      "house": "8A",
      "postcode": "5200-150",
      "city": "CASTELO BRANCO MGD",
      "lon": "-6.772917209165667",
      "lat": "41.244737636742585"
    },
    {
      "id": "pt.ine.add.PTCONT.949019",
      "street": "CRZT MEIRINHOS",
      "house": "1",
      "postcode": "5200-130",
      "city": "CASTELO BRANCO MGD",
      "lon": "-6.756253507637543",
      "lat": "41.269084148042545"
    },
    {
      "id": "pt.ine.add.PTCONT.949972",
      "street": "R ESTRADA",
      "house": "",
      "postcode": "5200-150",
      "city": "CASTELO BRANCO MGD",
      "lon": "-6.772978148505748",
      "lat": "41.24467532932619"
    }
  ]
}