{
  "data": {
    "distrito": "Bragan√ßa",
    "concelho": "Mogadouro",
    "freguesia": "Castelo Branco",
    "OBJECTID": 615,
    "BGRI2021": "04080700122",
    "DT21": "04",
    "DTMN21": "0408",
    "DTMNFR21": "040807",
    "DTMNFRSEC21": "040807001",
    "SECNUM21": "001",
    "SSNUM21": "22",
    "SECSSNUM21": "00122",
    "OBJECTID_1": 38010,
    "DT": "04",
    "CC": "08",
    "fr": "07",
    "SEC": "001",
    "SS": "22"
  },
  "addresses": [
    {
      "id": "pt.ine.add.PTCONT.859683",
      "street": "LUGAR DA MOTRETA",
      "house": "",
      "postcode": "5200-130",
      "city": "CASTELO BRANCO MGD",
      "lon": "-6.75599530835376",
      "lat": "41.27455541038371"
    },
    {
      "id": "pt.ine.add.PTCONT.881240",
      "street": "R EIRAS",
      "house": "",
      "postcode": "5200-130",
      "city": "CASTELO BRANCO MGD",
      "lon": "-6.755565012201207",
      "lat": "41.2751535203689"
    },
    {
      "id": "pt.ine.add.PTCONT.882624",
      "street": "LUGAR DA MOTRETA",
      "house": "",
      "postcode": "5200-130",
      "city": "CASTELO BRANCO MGD",
      "lon": "-6.756406680551563",
      "lat": "41.274857458687734"
    },
    {
      "id": "pt.ine.add.PTCONT.884231",
      "street": "R EIRAS",
      "house": "24",
      "postcode": "5200-130",
      "city": "CASTELO BRANCO MGD",
      "lon": "-6.755617282583532",
      "lat": "41.27493805322162"
    },
    {
      "id": "pt.ine.add.PTCONT.906487",
      "street": "R 25 DE ABRIL",
      "house": "",
      "postcode": "5200-130",
      "city": "CASTELO BRANCO MGD",
      "lon": "-6.75588981409733",
      "lat": "41.27446410959686"
    },
    {
      "id": "pt.ine.add.PTCONT.913348",
      "street": "R 25 DE ABRIL",
      "house": "25",
      "postcode": "5200-130",
      "city": "CASTELO BRANCO MGD",
      "lon": "-6.755445307884557",
      "lat": "41.27460285215584"
    },
    {
      "id": "pt.ine.add.PTCONT.916770",
      "street": "R 25 DE ABRIL",
      "house": "",
      "postcode": "5200-130",
      "city": "CASTELO BRANCO MGD",
      "lon": "-6.7553595187182855",
      "lat": "41.27527711499077"
    },
    {
      "id": "pt.ine.add.PTCONT.943439",
      "street": "R 25 DE ABRIL",
      "house": "23",
      "postcode": "5200-130",
      "city": "CASTELO BRANCO MGD",
      "lon": "-6.755673527140315",
      "lat": "41.27453355248684"
    },
    {
      "id": "pt.ine.add.PTCONT.948207",
      "street": "R DA IGREJA",
      "house": "",
      "postcode": "5200-130",
      "city": "CASTELO BRANCO MGD",
      "lon": "-6.755281674550313",
      "lat": "41.27500606737425"
    }
  ]
}