{
  "data": {
    "distrito": "Guarda",
    "concelho": "Gouveia",
    "freguesia": "Vila Nova de Tazem",
    "OBJECTID": 670,
    "BGRI2021": "09062100204",
    "DT21": "09",
    "DTMN21": "0906",
    "DTMNFR21": "090621",
    "DTMNFRSEC21": "090621002",
    "SECNUM21": "002",
    "SSNUM21": "04",
    "SECSSNUM21": "00204",
    "OBJECTID_1": 77592,
    "DT": "09",
    "CC": "06",
    "fr": "21",
    "SEC": "002",
    "SS": "04"
  },
  "addresses": [
    {
      "id": "pt.ine.add.PTCONT.1904257",
      "street": "R MANUEL DA COSTA MORGADO",
      "house": "49 A",
      "postcode": "6290-631",
      "city": "VILA NOVA DE TAZEM",
      "lon": "-7.727739552585072",
      "lat": "40.4946110007196"
    },
    {
      "id": "pt.ine.add.PTCONT.1905570",
      "street": "R ALBERTO ALMEIDA ANDRADE ALBUQUERQUE",
      "house": "18",
      "postcode": "6290-631",
      "city": "VILA NOVA DE TAZEM",
      "lon": "-7.7229417216355225",
      "lat": "40.4940987761067"
    },
    {
      "id": "pt.ine.add.PTCONT.1917371",
      "street": "R MANUEL DA COSTA MORGADO",
      "house": "37",
      "postcode": "6290-631",
      "city": "VILA NOVA DE TAZEM",
      "lon": "-7.7249074943922595",
      "lat": "40.494781140301605"
    },
    {
      "id": "pt.ine.add.PTCONT.1919074",
      "street": "R MANUEL DA COSTA MORGADO",
      "house": "63",
      "postcode": "6290-631",
      "city": "VILA NOVA DE TAZEM",
      "lon": "-7.735134251866347",
      "lat": "40.4928446279055"
    },
    {
      "id": "pt.ine.add.PTCONT.1923928",
      "street": "R MANUEL DA COSTA MORGADO",
      "house": "33",
      "postcode": "6290-631",
      "city": "VILA NOVA DE TAZEM",
      "lon": "-7.723407465863663",
      "lat": "40.495100026443"
    },
    {
      "id": "pt.ine.add.PTCONT.1930491",
      "street": "R MANUEL DA COSTA MORGADO",
      "house": "49",
      "postcode": "6290-631",
      "city": "VILA NOVA DE TAZEM",
      "lon": "-7.72717292496396",
      "lat": "40.494681054995304"
    },
    {
      "id": "pt.ine.add.PTCONT.1932902",
      "street": "R MANUEL DA COSTA MORGADO",
      "house": "41",
      "postcode": "6290-631",
      "city": "VILA NOVA DE TAZEM",
      "lon": "-7.72557772578249",
      "lat": "40.49513471585929"
    },
    {
      "id": "pt.ine.add.PTCONT.1938093",
      "street": "R MANUEL DA COSTA MORGADO",
      "house": "35",
      "postcode": "6290-631",
      "city": "VILA NOVA DE TAZEM",
      "lon": "-7.7237137182025455",
      "lat": "40.49517315482601"
    },
    {
      "id": "pt.ine.add.PTCONT.1946987",
      "street": "R MANUEL COSTA MORGADO",
      "house": "4",
      "postcode": "6290-631",
      "city": "VILA NOVA DE TAZEM",
      "lon": "-7.722216751724947",
      "lat": "40.49498773452461"
    },
    {
      "id": "pt.ine.add.PTCONT.1962888",
      "street": "R MANUEL DA COSTA MORGADO",
      "house": "45",
      "postcode": "6290-631",
      "city": "VILA NOVA DE TAZEM",
      "lon": "-7.726263241241822",
      "lat": "40.494911996366376"
    },
    {
      "id": "pt.ine.add.PTCONT.1855152",
      "street": "R ALBERTO ALMEIDA ANDRADE ALBUQUERQUE",
      "house": "16",
      "postcode": "6290-631",
      "city": "VILA NOVA DE TAZEM",
      "lon": "-7.721744591544405",
      "lat": "40.4950400872136"
    },
    {
      "id": "pt.ine.add.PTCONT.1870380",
      "street": "R BARREIRINHA",
      "house": "2",
      "postcode": "6290-631",
      "city": "VILA NOVA DE TAZEM",
      "lon": "-7.722618905020433",
      "lat": "40.49480905581523"
    },
    {
      "id": "pt.ine.add.PTCONT.1875031",
      "street": "R MANUEL DA COSTA MORGADO",
      "house": "55",
      "postcode": "6290-631",
      "city": "VILA NOVA DE TAZEM",
      "lon": "-7.728177400946399",
      "lat": "40.494378395480084"
    },
    {
      "id": "pt.ine.add.PTCONT.1878800",
      "street": "R MANUEL DA COSTA MORGADO",
      "house": "57",
      "postcode": "6290-631",
      "city": "VILA NOVA DE TAZEM",
      "lon": "-7.7285905193770255",
      "lat": "40.49433481524138"
    },
    {
      "id": "pt.ine.add.PTCONT.1879765",
      "street": "R MANUEL DA COSTA MORGADO",
      "house": "43",
      "postcode": "6290-631",
      "city": "VILA NOVA DE TAZEM",
      "lon": "-7.725920565733063",
      "lat": "40.49500984882737"
    },
    {
      "id": "pt.ine.add.PTCONT.1883768",
      "street": "R MANUEL DA COSTA MORGADO",
      "house": "47",
      "postcode": "6290-631",
      "city": "VILA NOVA DE TAZEM",
      "lon": "-7.7265347608813455",
      "lat": "40.49487693031874"
    }
  ]
}