{
  "data": {
    "distrito": "Viseu",
    "concelho": "Penalva do Castelo",
    "freguesia": "Castelo de Penalva",
    "OBJECTID": 174,
    "BGRI2021": "18110200122",
    "DT21": "18",
    "DTMN21": "1811",
    "DTMNFR21": "181102",
    "DTMNFRSEC21": "181102001",
    "SECNUM21": "001",
    "SSNUM21": "22",
    "SECSSNUM21": "00122",
    "OBJECTID_1": 194741,
    "DT": "18",
    "CC": "11",
    "fr": "02",
    "SEC": "001",
    "SS": "22"
  },
  "addresses": [
    {
      "id": "pt.ine.add.PTCONT.5427463",
      "street": "R 25 DE ABRIL",
      "house": "19",
      "postcode": "3550-031",
      "city": "CASTELO DE PENALVA",
      "lon": "-7.676850736729968",
      "lat": "40.656461878767"
    },
    {
      "id": "pt.ine.add.PTCONT.5435569",
      "street": "R BECO REPOUSO",
      "house": "5",
      "postcode": "3550-031",
      "city": "CASTELO DE PENALVA",
      "lon": "-7.673379218898959",
      "lat": "40.65575471466364"
    },
    {
      "id": "pt.ine.add.PTCONT.5449034",
      "street": "R 25 ABRIL",
      "house": "11",
      "postcode": "3550-031",
      "city": "CASTELO DE PENALVA",
      "lon": "-7.670076914818269",
      "lat": "40.65623680202559"
    },
    {
      "id": "pt.ine.add.PTCONT.5455915",
      "street": "R 25 DE ABRIL",
      "house": "",
      "postcode": "3550-031",
      "city": "CASTELO DE PENALVA",
      "lon": "-7.675681260311483",
      "lat": "40.65629515958567"
    },
    {
      "id": "pt.ine.add.PTCONT.5457674",
      "street": "R 25 DE ABRIL",
      "house": "7",
      "postcode": "3550-031",
      "city": "CASTELO DE PENALVA",
      "lon": "-7.669688653560371",
      "lat": "40.655956085464766"
    },
    {
      "id": "pt.ine.add.PTCONT.5457690",
      "street": "R CASCALHEDO",
      "house": "",
      "postcode": "3550-031",
      "city": "CASTELO DE PENALVA",
      "lon": "-7.671416071713803",
      "lat": "40.6558009128334"
    },
    {
      "id": "pt.ine.add.PTCONT.5467454",
      "street": "R CASCALHEDO",
      "house": "5",
      "postcode": "3550-031",
      "city": "CASTELO DE PENALVA",
      "lon": "-7.671094712969724",
      "lat": "40.65610580190061"
    },
    {
      "id": "pt.ine.add.PTCONT.5472913",
      "street": "R CONSTANTINO DE ALMEIDA",
      "house": "1",
      "postcode": "3550-031",
      "city": "CASTELO DE PENALVA",
      "lon": "-7.672139687990909",
      "lat": "40.65546160886258"
    },
    {
      "id": "pt.ine.add.PTCONT.5490135",
      "street": "R CONSTANTINO DE ALMEIDA",
      "house": "",
      "postcode": "3550-031",
      "city": "CASTELO DE PENALVA",
      "lon": "-7.674113414474507",
      "lat": "40.655595543045294"
    },
    {
      "id": "pt.ine.add.PTCONT.5495906",
      "street": "R CONSTANTINO DE ALMEIDA",
      "house": "4",
      "postcode": "3550-031",
      "city": "CASTELO DE PENALVA",
      "lon": "-7.672892704540059",
      "lat": "40.656004920313855"
    },
    {
      "id": "pt.ine.add.PTCONT.5512771",
      "street": "R 25 DE ABRIL",
      "house": "",
      "postcode": "3550-031",
      "city": "CASTELO DE PENALVA",
      "lon": "-7.674167720983639",
      "lat": "40.656298159065784"
    },
    {
      "id": "pt.ine.add.PTCONT.5516126",
      "street": "R 25 DE ABRIL",
      "house": "19 A",
      "postcode": "3550-031",
      "city": "CASTELO DE PENALVA",
      "lon": "-7.676649727424064",
      "lat": "40.65646108434958"
    },
    {
      "id": "pt.ine.add.PTCONT.5539817",
      "street": "R ALTO",
      "house": "",
      "postcode": "3550-031",
      "city": "CASTELO DE PENALVA",
      "lon": "-7.672776816596673",
      "lat": "40.65566226342983"
    },
    {
      "id": "pt.ine.add.PTCONT.5540682",
      "street": "R 25 DE ABRIL",
      "house": "13",
      "postcode": "3550-031",
      "city": "CASTELO DE PENALVA",
      "lon": "-7.671934651420569",
      "lat": "40.656046123627995"
    },
    {
      "id": "pt.ine.add.PTCONT.5545866",
      "street": "R 25 DE ABRIL",
      "house": "5",
      "postcode": "3550-031",
      "city": "CASTELO DE PENALVA",
      "lon": "-7.669168960057253",
      "lat": "40.655872952450125"
    },
    {
      "id": "pt.ine.add.PTCONT.5548723",
      "street": "R CONSTANTINO DE ALMEIDA",
      "house": "",
      "postcode": "3550-031",
      "city": "CASTELO DE PENALVA",
      "lon": "-7.674111131069546",
      "lat": "40.655928723801864"
    },
    {
      "id": "pt.ine.add.PTCONT.5557867",
      "street": "R S JOSE",
      "house": "",
      "postcode": "3550-054",
      "city": "CASTELO DE PENALVA",
      "lon": "-7.6782812667921885",
      "lat": "40.656494537709875"
    },
    {
      "id": "pt.ine.add.PTCONT.5559073",
      "street": "R CONSTANTINO DE ALMEIDA",
      "house": "",
      "postcode": "3550-031",
      "city": "CASTELO DE PENALVA",
      "lon": "-7.672975596203554",
      "lat": "40.655987240392136"
    },
    {
      "id": "pt.ine.add.PTCONT.5568520",
      "street": "R S JOSE",
      "house": "8",
      "postcode": "3550-054",
      "city": "CASTELO DE PENALVA",
      "lon": "-7.677506266455379",
      "lat": "40.6539610403504"
    },
    {
      "id": "pt.ine.add.PTCONT.5572331",
      "street": "R CONSTANTINO DE ALMEIDA",
      "house": "",
      "postcode": "3550-031",
      "city": "CASTELO DE PENALVA",
      "lon": "-7.672667553470585",
      "lat": "40.65607606378474"
    },
    {
      "id": "pt.ine.add.PTCONT.5583384",
      "street": "BC REPOUSO",
      "house": "2",
      "postcode": "3550-031",
      "city": "CASTELO DE PENALVA",
      "lon": "-7.673401445177293",
      "lat": "40.655961921149185"
    },
    {
      "id": "pt.ine.add.PTCONT.5585655",
      "street": "R SANTO ANTÃ“NIO",
      "house": "2",
      "postcode": "3550-031",
      "city": "CASTELO DE PENALVA",
      "lon": "-7.6752687114725004",
      "lat": "40.65610441684547"
    },
    {
      "id": "pt.ine.add.PTCONT.5592916",
      "street": "R ALTO",
      "house": "1",
      "postcode": "3550-031",
      "city": "CASTELO DE PENALVA",
      "lon": "-7.672811050614369",
      "lat": "40.655842502507696"
    },
    {
      "id": "pt.ine.add.PTCONT.5595239",
      "street": "R S JOSE",
      "house": "",
      "postcode": "3550-054",
      "city": "CASTELO DE PENALVA",
      "lon": "-7.677907596922236",
      "lat": "40.654061679594506"
    },
    {
      "id": "pt.ine.add.PTCONT.5595240",
      "street": "QTA SOITO",
      "house": "",
      "postcode": "3550-054",
      "city": "CASTELO DE PENALVA",
      "lon": "-7.675926263440345",
      "lat": "40.65331543103637"
    },
    {
      "id": "pt.ine.add.PTCONT.5612916",
      "street": "R FONTE",
      "house": "5",
      "postcode": "3550-054",
      "city": "CASTELO DE PENALVA",
      "lon": "-7.677695628329074",
      "lat": "40.65393477192822"
    },
    {
      "id": "pt.ine.add.PTCONT.5615261",
      "street": "R ALTO",
      "house": "8",
      "postcode": "3550-031",
      "city": "CASTELO DE PENALVA",
      "lon": "-7.6726239723084655",
      "lat": "40.655535582180896"
    },
    {
      "id": "pt.ine.add.PTCONT.5615868",
      "street": "R 25 DE ABRIL",
      "house": "",
      "postcode": "3550-031",
      "city": "CASTELO DE PENALVA",
      "lon": "-7.669899554430277",
      "lat": "40.656236090686214"
    },
    {
      "id": "pt.ine.add.PTCONT.5618510",
      "street": "R S JOSE",
      "house": "9",
      "postcode": "3550-054",
      "city": "CASTELO DE PENALVA",
      "lon": "-7.677694893592063",
      "lat": "40.6540428306393"
    },
    {
      "id": "pt.ine.add.PTCONT.5622154",
      "street": "R REGADINHA",
      "house": "",
      "postcode": "3550-043",
      "city": "CASTELO DE PENALVA",
      "lon": "-7.665098190307377",
      "lat": "40.654640832698"
    },
    {
      "id": "pt.ine.add.PTCONT.5622353",
      "street": "R 25 DE ABRIL",
      "house": "",
      "postcode": "3550-031",
      "city": "CASTELO DE PENALVA",
      "lon": "-7.6761300825193635",
      "lat": "40.65636897771729"
    },
    {
      "id": "pt.ine.add.PTCONT.5624403",
      "street": "R CASCALHEDO",
      "house": "",
      "postcode": "3550-031",
      "city": "CASTELO DE PENALVA",
      "lon": "-7.670553234300467",
      "lat": "40.655752434055245"
    },
    {
      "id": "pt.ine.add.PTCONT.5631972",
      "street": "R CASCALHEDO",
      "house": "",
      "postcode": "3550-031",
      "city": "CASTELO DE PENALVA",
      "lon": "-7.670492746185241",
      "lat": "40.6559503045915"
    },
    {
      "id": "pt.ine.add.PTCONT.5633656",
      "street": "R S JOSE",
      "house": "2",
      "postcode": "3550-054",
      "city": "CASTELO DE PENALVA",
      "lon": "-7.678248831773568",
      "lat": "40.65430616287635"
    },
    {
      "id": "pt.ine.add.PTCONT.5633850",
      "street": "R 25 DE ABRIL",
      "house": "3",
      "postcode": "3550-031",
      "city": "CASTELO DE PENALVA",
      "lon": "-7.66695150884002",
      "lat": "40.65508057562653"
    },
    {
      "id": "pt.ine.add.PTCONT.5643291",
      "street": "R 25 DE ABRIL",
      "house": "1",
      "postcode": "3550-031",
      "city": "CASTELO DE PENALVA",
      "lon": "-7.667094773064173",
      "lat": "40.65488304102149"
    },
    {
      "id": "pt.ine.add.PTCONT.5650480",
      "street": "R CONSTANTINO DE ALMEIDA",
      "house": "",
      "postcode": "3550-031",
      "city": "CASTELO DE PENALVA",
      "lon": "-7.673424227850136",
      "lat": "40.65608808366897"
    },
    {
      "id": "pt.ine.add.PTCONT.5662057",
      "street": "R REGADINHA",
      "house": "",
      "postcode": "3550-043",
      "city": "CASTELO DE PENALVA",
      "lon": "-7.664896997949641",
      "lat": "40.65466703247829"
    },
    {
      "id": "pt.ine.add.PTCONT.5665533",
      "street": "R 25 DE ABRIL",
      "house": "",
      "postcode": "3550-031",
      "city": "CASTELO DE PENALVA",
      "lon": "-7.676274919583269",
      "lat": "40.65593730456009"
    },
    {
      "id": "pt.ine.add.PTCONT.5667513",
      "street": "R PRINCIPAL",
      "house": "",
      "postcode": "3550-043",
      "city": "CASTELO DE PENALVA",
      "lon": "-7.661796923532713",
      "lat": "40.65329464602489"
    },
    {
      "id": "pt.ine.add.PTCONT.5669624",
      "street": "R S JOSE",
      "house": "",
      "postcode": "3550-054",
      "city": "CASTELO DE PENALVA",
      "lon": "-7.678228874091042",
      "lat": "40.65550376691423"
    }
  ]
}