{
  "data": {
    "ilha": "Ilha da Madeira (Madeira)",
    "concelho": "Santa Cruz",
    "freguesia": "Santa Cruz",
    "OBJECTID": 371,
    "BGRI2021": "31080500402",
    "DT21": "31",
    "DTMN21": "3108",
    "DTMNFR21": "310805",
    "DTMNFRSEC21": "310805004",
    "SECNUM21": "004",
    "SSNUM21": "02",
    "SECSSNUM21": "00402",
    "OBJECTID_1": 205299,
    "DT": "31",
    "CC": "08",
    "fr": "05",
    "SEC": "004",
    "SS": "02",
    "BGRI2021_1": "31080500402"
  },
  "addresses": [
    {
      "id": "pt.ine.add.MAD.44822",
      "street": "R PRAÇA",
      "house": "",
      "postcode": "9100-166",
      "city": "SANTA CRUZ",
      "lon": "-16.791125719866198",
      "lat": "32.68821457502197"
    },
    {
      "id": "pt.ine.add.MAD.44816",
      "street": "R BELA S JOSE",
      "house": "8",
      "postcode": "9100-151",
      "city": "SANTA CRUZ",
      "lon": "-16.79018996276608",
      "lat": "32.68835420143442"
    },
    {
      "id": "pt.ine.add.MAD.44817",
      "street": "R PRAIA",
      "house": "31",
      "postcode": "9100-167",
      "city": "SANTA CRUZ",
      "lon": "-16.790196845492044",
      "lat": "32.68816470461629"
    },
    {
      "id": "pt.ine.add.MAD.44818",
      "street": "R BELA DE S JOSE",
      "house": "",
      "postcode": "9100-151",
      "city": "SANTA CRUZ",
      "lon": "-16.78994401107889",
      "lat": "32.688321636049466"
    },
    {
      "id": "pt.ine.add.MAD.44819",
      "street": "R CRAVO",
      "house": "6",
      "postcode": "9100-155",
      "city": "SANTA CRUZ",
      "lon": "-16.791111456262954",
      "lat": "32.68803439917119"
    },
    {
      "id": "pt.ine.add.MAD.44820",
      "street": "R CRAVO",
      "house": "6",
      "postcode": "9100-155",
      "city": "SANTA CRUZ",
      "lon": "-16.791111456262954",
      "lat": "32.68803439917119"
    },
    {
      "id": "pt.ine.add.MAD.44821",
      "street": "R CRAVO",
      "house": "8 10",
      "postcode": "9100-155",
      "city": "SANTA CRUZ",
      "lon": "-16.791102414654894",
      "lat": "32.68811569910086"
    },
    {
      "id": "pt.ine.add.MAD.44823",
      "street": "R PRACA",
      "house": "12",
      "postcode": "9100-166",
      "city": "SANTA CRUZ",
      "lon": "-16.791005554375555",
      "lat": "32.688071987480576"
    },
    {
      "id": "pt.ine.add.MAD.44824",
      "street": "R CÓNEGO ALFREDO CESAR OLIVEIRA",
      "house": "27",
      "postcode": "9100-153",
      "city": "SANTA CRUZ",
      "lon": "-16.791538304868418",
      "lat": "32.68804634034681"
    },
    {
      "id": "pt.ine.add.MAD.61051",
      "street": "R DR JOSE BARROS DE SOUSA",
      "house": "J2",
      "postcode": "9100-158",
      "city": "SANTA CRUZ",
      "lon": "-16.79158419579122",
      "lat": "32.688208026374134"
    },
    {
      "id": "pt.ine.add.MAD.79879",
      "street": "R DR JOSE BARROS DE SOUSA",
      "house": "",
      "postcode": "9100-158",
      "city": "SANTA CRUZ",
      "lon": "-16.79170075979409",
      "lat": "32.68817028525665"
    },
    {
      "id": "pt.ine.add.MAD.90424",
      "street": "R CÓNEGO ALFREDO CESAR OLIVEIRA",
      "house": "15",
      "postcode": "9100-153",
      "city": "SANTA CRUZ",
      "lon": "-16.791698598265153",
      "lat": "32.688062088416274"
    },
    {
      "id": "pt.ine.add.MAD.97758",
      "street": "R CÓNEGO ALFREDO CESAR OLIVEIRA",
      "house": "",
      "postcode": "9100-153",
      "city": "SANTA CRUZ",
      "lon": "-16.791828346194027",
      "lat": "32.68815042450585"
    },
    {
      "id": "pt.ine.add.MAD.120485",
      "street": "R CÓNEGO ALFREDO CESAR OLIVEIRA",
      "house": "35",
      "postcode": "9100-153",
      "city": "SANTA CRUZ",
      "lon": "-16.791214476818443",
      "lat": "32.68785254827872"
    },
    {
      "id": "pt.ine.add.MAD.120486",
      "street": "R CRAVO",
      "house": "8 10",
      "postcode": "9100-155",
      "city": "SANTA CRUZ",
      "lon": "-16.791005554375555",
      "lat": "32.688071987480576"
    },
    {
      "id": "pt.ine.add.MAD.127943",
      "street": "R PRAIA",
      "house": "",
      "postcode": "9100-167",
      "city": "SANTA CRUZ",
      "lon": "-16.790049733782084",
      "lat": "32.68827503220119"
    },
    {
      "id": "pt.ine.add.MAD.129161",
      "street": "R DR JOSE BARROS DE SOUSA",
      "house": "",
      "postcode": "9100-158",
      "city": "SANTA CRUZ",
      "lon": "-16.791349086453554",
      "lat": "32.68818432783936"
    }
  ]
}