{
  "data": {
    "distrito": "Santarém",
    "concelho": "Santarém",
    "freguesia": "União das freguesias de Achete, Azoia de Baixo e Póvoa de Santarém",
    "OBJECTID": 904,
    "BGRI2021": "14162900320",
    "DT21": "14",
    "DTMN21": "1416",
    "DTMNFR21": "141629",
    "DTMNFRSEC21": "141629003",
    "SECNUM21": "003",
    "SSNUM21": "20",
    "SECSSNUM21": "00320",
    "OBJECTID_1": 154309,
    "DT": "14",
    "CC": "16",
    "fr": "29",
    "SEC": "003",
    "SS": "20"
  },
  "addresses": [
    {
      "id": "pt.ine.add.PTCONT.4396471",
      "street": "R VALE NEGRO",
      "house": "",
      "postcode": "2000-343",
      "city": "ACHETE",
      "lon": "-8.685545278660456",
      "lat": "39.35310874434862"
    },
    {
      "id": "pt.ine.add.PTCONT.4400541",
      "street": "",
      "house": "",
      "postcode": "2000-340",
      "city": "ACHETE",
      "lon": "-8.685557376353456",
      "lat": "39.35317173677884"
    },
    {
      "id": "pt.ine.add.PTCONT.4433443",
      "street": "R FLOR DE MAIO",
      "house": "",
      "postcode": "2000-340",
      "city": "ACHETE",
      "lon": "-8.679299186321483",
      "lat": "39.354029930701145"
    },
    {
      "id": "pt.ine.add.PTCONT.4492143",
      "street": "R VALE NEGRO",
      "house": "",
      "postcode": "2000-343",
      "city": "ACHETE",
      "lon": "-8.683228964137044",
      "lat": "39.35066077121375"
    },
    {
      "id": "pt.ine.add.PTCONT.4522694",
      "street": "R FLOR DE MAIO",
      "house": "",
      "postcode": "2000-340",
      "city": "ACHETE",
      "lon": "-8.678867212704517",
      "lat": "39.35069932079184"
    },
    {
      "id": "pt.ine.add.PTCONT.4529480",
      "street": "",
      "house": "",
      "postcode": "2000-340",
      "city": "ACHETE",
      "lon": "-8.67562370646073",
      "lat": "39.34682340439065"
    },
    {
      "id": "pt.ine.add.PTCONT.4595988",
      "street": "R FLOR DE MAIO",
      "house": "",
      "postcode": "2000-340",
      "city": "ACHETE",
      "lon": "-8.679357911427402",
      "lat": "39.34965219179546"
    },
    {
      "id": "pt.ine.add.PTCONT.4655178",
      "street": "R VALE NEGRO",
      "house": "",
      "postcode": "2000-343",
      "city": "ACHETE",
      "lon": "-8.682655940464507",
      "lat": "39.350078015082595"
    }
  ]
}