{
  "data": {
    "distrito": "Guarda",
    "concelho": "Almeida",
    "freguesia": "Uni√£o das freguesias de Castelo Mendo, Ade, Monteperobolso e Mesquitela",
    "OBJECTID": 224,
    "BGRI2021": "09023200126",
    "DT21": "09",
    "DTMN21": "0902",
    "DTMNFR21": "090232",
    "DTMNFRSEC21": "090232001",
    "SECNUM21": "001",
    "SSNUM21": "26",
    "SECSSNUM21": "00126",
    "OBJECTID_1": 75626,
    "DT": "09",
    "CC": "02",
    "fr": "32",
    "SEC": "001",
    "SS": "26"
  },
  "addresses": [
    {
      "id": "pt.ine.add.PTCONT.1899145",
      "street": "R DIREITA",
      "house": "",
      "postcode": "6355-052",
      "city": "CASTELO MENDO",
      "lon": "-6.951673960266963",
      "lat": "40.5716703872236"
    },
    {
      "id": "pt.ine.add.PTCONT.1899924",
      "street": "ESTR DE MESQUITELA",
      "house": "",
      "postcode": "6355-052",
      "city": "CASTELO MENDO",
      "lon": "-6.952044568476785",
      "lat": "40.57141303201668"
    },
    {
      "id": "pt.ine.add.PTCONT.1906018",
      "street": "R DIREITA",
      "house": "",
      "postcode": "6355-052",
      "city": "CASTELO MENDO",
      "lon": "-6.951530937034219",
      "lat": "40.57241633985636"
    },
    {
      "id": "pt.ine.add.PTCONT.1907039",
      "street": "R DIREITA",
      "house": "",
      "postcode": "6355-052",
      "city": "CASTELO MENDO",
      "lon": "-6.951537906194851",
      "lat": "40.57202019085155"
    },
    {
      "id": "pt.ine.add.PTCONT.1917869",
      "street": "R DIREITA",
      "house": "",
      "postcode": "6355-052",
      "city": "CASTELO MENDO",
      "lon": "-6.951187262826058",
      "lat": "40.572484863819746"
    },
    {
      "id": "pt.ine.add.PTCONT.1920800",
      "street": "R DIREITA",
      "house": "",
      "postcode": "6355-052",
      "city": "CASTELO MENDO",
      "lon": "-6.951340438809439",
      "lat": "40.57250444108258"
    },
    {
      "id": "pt.ine.add.PTCONT.1946865",
      "street": "R DIREITA",
      "house": "",
      "postcode": "6355-052",
      "city": "CASTELO MENDO",
      "lon": "-6.9517211180326965",
      "lat": "40.57234624508142"
    },
    {
      "id": "pt.ine.add.PTCONT.1951940",
      "street": "TV DA TULHA",
      "house": "",
      "postcode": "6355-052",
      "city": "CASTELO MENDO",
      "lon": "-6.951574047509193",
      "lat": "40.57265091100422"
    },
    {
      "id": "pt.ine.add.PTCONT.1954895",
      "street": "TV DA TULHA",
      "house": "",
      "postcode": "6355-052",
      "city": "CASTELO MENDO",
      "lon": "-6.951739347899718",
      "lat": "40.572652601747095"
    },
    {
      "id": "pt.ine.add.PTCONT.1857785",
      "street": "R DOS COMOROS",
      "house": "",
      "postcode": "6355-052",
      "city": "CASTELO MENDO",
      "lon": "-6.951772216769637",
      "lat": "40.57145527197219"
    },
    {
      "id": "pt.ine.add.PTCONT.1863896",
      "street": "R DA FONTE",
      "house": "",
      "postcode": "6355-052",
      "city": "CASTELO MENDO",
      "lon": "-6.950704276760375",
      "lat": "40.57375863142158"
    },
    {
      "id": "pt.ine.add.PTCONT.1881523",
      "street": "R DIREITA",
      "house": "",
      "postcode": "6355-052",
      "city": "CASTELO MENDO",
      "lon": "-6.951657948015984",
      "lat": "40.571237983068094"
    },
    {
      "id": "pt.ine.add.PTCONT.1882514",
      "street": "R DIREITA",
      "house": "",
      "postcode": "6355-052",
      "city": "CASTELO MENDO",
      "lon": "-6.951007144956459",
      "lat": "40.57265411576033"
    },
    {
      "id": "pt.ine.add.PTCONT.1894663",
      "street": "R DOS COMOROS",
      "house": "",
      "postcode": "6355-052",
      "city": "CASTELO MENDO",
      "lon": "-6.952215341011156",
      "lat": "40.571774978337984"
    },
    {
      "id": "pt.ine.add.PTCONT.1897210",
      "street": "ESTR DE MESQUITELA",
      "house": "",
      "postcode": "6355-052",
      "city": "CASTELO MENDO",
      "lon": "-6.953247558141351",
      "lat": "40.57217274185474"
    }
  ]
}