{
  "data": {
    "distrito": "Viana do Castelo",
    "concelho": "Ponte de Lima",
    "freguesia": "Anais",
    "OBJECTID": 1425,
    "BGRI2021": "16070100132",
    "DT21": "16",
    "DTMN21": "1607",
    "DTMNFR21": "160701",
    "DTMNFRSEC21": "160701001",
    "SECNUM21": "001",
    "SSNUM21": "32",
    "SECSSNUM21": "00132",
    "OBJECTID_1": 176202,
    "DT": "16",
    "CC": "07",
    "fr": "01",
    "SEC": "001",
    "SS": "32"
  },
  "addresses": [
    {
      "id": "pt.ine.add.PTCONT.5139633",
      "street": "R PACOS DO CONCELHO DE ALBERGARIA DE PENELA",
      "house": "",
      "postcode": "4990-523",
      "city": "ANAIS",
      "lon": "-8.531579612339588",
      "lat": "41.700565270559906"
    },
    {
      "id": "pt.ine.add.PTCONT.5158029",
      "street": "R PACOS DO CONCELHO DE ALBERGARIA DE PENELA",
      "house": "883",
      "postcode": "4990-523",
      "city": "ANAIS",
      "lon": "-8.534116854223628",
      "lat": "41.70094359606514"
    },
    {
      "id": "pt.ine.add.PTCONT.5158061",
      "street": "R INSUA",
      "house": "",
      "postcode": "4990-524",
      "city": "ANAIS",
      "lon": "-8.533846009322952",
      "lat": "41.696019618893324"
    },
    {
      "id": "pt.ine.add.PTCONT.5182079",
      "street": "R MALHOS",
      "house": "70",
      "postcode": "4990-509",
      "city": "ANAIS",
      "lon": "-8.529959403701744",
      "lat": "41.69887821662718"
    },
    {
      "id": "pt.ine.add.PTCONT.5221258",
      "street": "URB GOLFE",
      "house": "55 B",
      "postcode": "4990-509",
      "city": "ANAIS",
      "lon": "-8.529929618628984",
      "lat": "41.69989571641022"
    },
    {
      "id": "pt.ine.add.PTCONT.5221259",
      "street": "R CRUZEIRO",
      "house": "",
      "postcode": "4990-509",
      "city": "ANAIS",
      "lon": "-8.529929618628984",
      "lat": "41.69989571641022"
    },
    {
      "id": "pt.ine.add.PTCONT.5238985",
      "street": "R CARVALHINHOS",
      "house": "497",
      "postcode": "4990-524",
      "city": "ANAIS",
      "lon": "-8.535244946415295",
      "lat": "41.7007505804608"
    },
    {
      "id": "pt.ine.add.PTCONT.5239062",
      "street": "R CHAFARIZ",
      "house": "54",
      "postcode": "4990-524",
      "city": "ANAIS",
      "lon": "-8.531124255892447",
      "lat": "41.696857400923776"
    },
    {
      "id": "pt.ine.add.PTCONT.5244290",
      "street": "R PACOS DO CONCELHO DE ALBERGARIA DE PENELA",
      "house": "",
      "postcode": "4990-523",
      "city": "ANAIS",
      "lon": "-8.53162883347214",
      "lat": "41.70075417360423"
    },
    {
      "id": "pt.ine.add.PTCONT.5249499",
      "street": "R PACOS DO CONCELHO DE ALBERGARIA DE PENELA",
      "house": "",
      "postcode": "4990-523",
      "city": "ANAIS",
      "lon": "-8.531375883716159",
      "lat": "41.70064700836591"
    },
    {
      "id": "pt.ine.add.PTCONT.5256388",
      "street": "R CARVALHINHOS",
      "house": "519",
      "postcode": "4990-524",
      "city": "ANAIS",
      "lon": "-8.53521002774374",
      "lat": "41.700930772838"
    },
    {
      "id": "pt.ine.add.PTCONT.5261056",
      "street": "R INSUA",
      "house": "110",
      "postcode": "4990-524",
      "city": "ANAIS",
      "lon": "-8.53059813377823",
      "lat": "41.69725537655388"
    },
    {
      "id": "pt.ine.add.PTCONT.5263453",
      "street": "R INSUA",
      "house": "420",
      "postcode": "4990-524",
      "city": "ANAIS",
      "lon": "-8.533624752207475",
      "lat": "41.69714582977297"
    },
    {
      "id": "pt.ine.add.PTCONT.5271439",
      "street": "R PACOS DO CONCELHO DE ALBERGARIA DE PENELA",
      "house": "",
      "postcode": "4990-523",
      "city": "ANAIS",
      "lon": "-8.535413808467416",
      "lat": "41.70085803156974"
    },
    {
      "id": "pt.ine.add.PTCONT.5276447",
      "street": "R PACOS DO CONCELHO DE ALBERGARIA DE PENELA",
      "house": "885",
      "postcode": "4990-523",
      "city": "ANAIS",
      "lon": "-8.534285491081066",
      "lat": "41.701015035577285"
    },
    {
      "id": "pt.ine.add.PTCONT.5281826",
      "street": "R S MARINHA",
      "house": "2520",
      "postcode": "4990-501",
      "city": "ANAIS",
      "lon": "-8.53515485158144",
      "lat": "41.699787520048595"
    }
  ]
}