{
  "data": {
    "distrito": "Viana do Castelo",
    "concelho": "Ponte de Lima",
    "freguesia": "Anais",
    "OBJECTID": 611,
    "BGRI2021": "16070100141",
    "DT21": "16",
    "DTMN21": "1607",
    "DTMNFR21": "160701",
    "DTMNFRSEC21": "160701001",
    "SECNUM21": "001",
    "SSNUM21": "41",
    "SECSSNUM21": "00141",
    "OBJECTID_1": 175734,
    "DT": "16",
    "CC": "07",
    "fr": "01",
    "SEC": "001",
    "SS": "41"
  },
  "addresses": [
    {
      "id": "pt.ine.add.PTCONT.5140681",
      "street": "R ALBERGARIA",
      "house": "",
      "postcode": "4990-503",
      "city": "ANAIS",
      "lon": "-8.529387987161734",
      "lat": "41.703643045113004"
    },
    {
      "id": "pt.ine.add.PTCONT.5157954",
      "street": "R CRUZ",
      "house": "",
      "postcode": "4990-503",
      "city": "ANAIS",
      "lon": "-8.527441385095099",
      "lat": "41.70359572002703"
    },
    {
      "id": "pt.ine.add.PTCONT.5165867",
      "street": "R CRUZ",
      "house": "",
      "postcode": "4990-503",
      "city": "ANAIS",
      "lon": "-8.527721175554653",
      "lat": "41.70416198050277"
    },
    {
      "id": "pt.ine.add.PTCONT.5171623",
      "street": "R PACOS DO CONCELHO DE ALBERGARIA DE PENELA",
      "house": "458",
      "postcode": "4990-523",
      "city": "ANAIS",
      "lon": "-8.529522769077568",
      "lat": "41.70015822236055"
    },
    {
      "id": "pt.ine.add.PTCONT.5171624",
      "street": "R CRUZ",
      "house": "",
      "postcode": "4990-503",
      "city": "ANAIS",
      "lon": "-8.527751602467553",
      "lat": "41.70324351838597"
    },
    {
      "id": "pt.ine.add.PTCONT.5185236",
      "street": "R CRUZ",
      "house": "357",
      "postcode": "4990-503",
      "city": "ANAIS",
      "lon": "-8.527870420326273",
      "lat": "41.70302702612929"
    },
    {
      "id": "pt.ine.add.PTCONT.5191945",
      "street": "R CRUZ",
      "house": "",
      "postcode": "4990-503",
      "city": "ANAIS",
      "lon": "-8.52888837883572",
      "lat": "41.700538556357245"
    },
    {
      "id": "pt.ine.add.PTCONT.5191994",
      "street": "R PACOS DO CONCELHO DE ALBERGARIA DE PENELA",
      "house": "",
      "postcode": "4990-523",
      "city": "ANAIS",
      "lon": "-8.531304747171214",
      "lat": "41.70080031454778"
    },
    {
      "id": "pt.ine.add.PTCONT.5196060",
      "street": "R ALBERGARIA",
      "house": "435",
      "postcode": "4990-503",
      "city": "ANAIS",
      "lon": "-8.530102238226888",
      "lat": "41.7025691626374"
    },
    {
      "id": "pt.ine.add.PTCONT.5199570",
      "street": "R CRUZ",
      "house": "",
      "postcode": "4990-503",
      "city": "ANAIS",
      "lon": "-8.528342320773367",
      "lat": "41.701611853345845"
    },
    {
      "id": "pt.ine.add.PTCONT.5200632",
      "street": "R PACOS DO CONCELHO DE ALBERGARIA DE PENELA",
      "house": "",
      "postcode": "4990-523",
      "city": "ANAIS",
      "lon": "-8.529247069275064",
      "lat": "41.70025821165809"
    },
    {
      "id": "pt.ine.add.PTCONT.5201704",
      "street": "R CRUZ",
      "house": "81",
      "postcode": "4990-503",
      "city": "ANAIS",
      "lon": "-8.528962005554488",
      "lat": "41.70079040107353"
    },
    {
      "id": "pt.ine.add.PTCONT.5205447",
      "street": "R CASALTINHA",
      "house": "",
      "postcode": "4990-503",
      "city": "ANAIS",
      "lon": "-8.52888503270215",
      "lat": "41.701952118936696"
    },
    {
      "id": "pt.ine.add.PTCONT.5224666",
      "street": "R CRUZ",
      "house": "133",
      "postcode": "4990-503",
      "city": "ANAIS",
      "lon": "-8.528700412537587",
      "lat": "41.70123247384798"
    },
    {
      "id": "pt.ine.add.PTCONT.5230424",
      "street": "R ALBERGARIA",
      "house": "",
      "postcode": "4990-503",
      "city": "ANAIS",
      "lon": "-8.529804714887996",
      "lat": "41.70302936891785"
    },
    {
      "id": "pt.ine.add.PTCONT.5251896",
      "street": "R CASALTINHA",
      "house": "",
      "postcode": "4990-503",
      "city": "ANAIS",
      "lon": "-8.528799225675131",
      "lat": "41.70167330563423"
    },
    {
      "id": "pt.ine.add.PTCONT.5253121",
      "street": "R ALBERGARIA",
      "house": "249",
      "postcode": "4990-503",
      "city": "ANAIS",
      "lon": "-8.52917256351751",
      "lat": "41.70377884034348"
    },
    {
      "id": "pt.ine.add.PTCONT.5267913",
      "street": "R CRUZ",
      "house": "",
      "postcode": "4990-503",
      "city": "ANAIS",
      "lon": "-8.528865752958732",
      "lat": "41.70272648703751"
    },
    {
      "id": "pt.ine.add.PTCONT.5269177",
      "street": "R CRUZ",
      "house": "",
      "postcode": "4990-503",
      "city": "ANAIS",
      "lon": "-8.528634000018595",
      "lat": "41.700197298699884"
    },
    {
      "id": "pt.ine.add.PTCONT.5271397",
      "street": "R ALBERGARIA",
      "house": "319",
      "postcode": "4990-503",
      "city": "ANAIS",
      "lon": "-8.529434550487647",
      "lat": "41.70339978987042"
    },
    {
      "id": "pt.ine.add.PTCONT.5277241",
      "street": "R PACOS DO CONCELHO DE ALBERGARIA DE PENELA",
      "house": "",
      "postcode": "4990-523",
      "city": "ANAIS",
      "lon": "-8.531124045146159",
      "lat": "41.7007199089314"
    }
  ]
}