{
  "data": {
    "distrito": "Viana do Castelo",
    "concelho": "Ponte de Lima",
    "freguesia": "Anais",
    "OBJECTID": 87,
    "BGRI2021": "16070100147",
    "DT21": "16",
    "DTMN21": "1607",
    "DTMNFR21": "160701",
    "DTMNFRSEC21": "160701001",
    "SECNUM21": "001",
    "SSNUM21": "47",
    "SECSSNUM21": "00147",
    "OBJECTID_1": 177134,
    "DT": "16",
    "CC": "07",
    "fr": "01",
    "SEC": "001",
    "SS": "47"
  },
  "addresses": [
    {
      "id": "pt.ine.add.PTCONT.5145372",
      "street": "R SANDIM",
      "house": "145",
      "postcode": "4990-508",
      "city": "ANAIS",
      "lon": "-8.52477078224216",
      "lat": "41.70500939963595"
    },
    {
      "id": "pt.ine.add.PTCONT.5148786",
      "street": "R VALAS",
      "house": "1130",
      "postcode": "4990-516",
      "city": "ANAIS",
      "lon": "-8.528896333553739",
      "lat": "41.71163084383951"
    },
    {
      "id": "pt.ine.add.PTCONT.5158924",
      "street": "R COV√ÉO",
      "house": "",
      "postcode": "4990-508",
      "city": "ANAIS",
      "lon": "-8.52669853819808",
      "lat": "41.711809458663396"
    },
    {
      "id": "pt.ine.add.PTCONT.5166974",
      "street": "R SANDIM",
      "house": "",
      "postcode": "4990-508",
      "city": "ANAIS",
      "lon": "-8.524712409374965",
      "lat": "41.70726947776036"
    },
    {
      "id": "pt.ine.add.PTCONT.5168113",
      "street": "R POCA DE ESTADELHE",
      "house": "66",
      "postcode": "4990-508",
      "city": "ANAIS",
      "lon": "-8.52721704849767",
      "lat": "41.71014203504455"
    },
    {
      "id": "pt.ine.add.PTCONT.5180711",
      "street": "R SANDIM",
      "house": "",
      "postcode": "4990-508",
      "city": "ANAIS",
      "lon": "-8.524725462198601",
      "lat": "41.7074404997968"
    },
    {
      "id": "pt.ine.add.PTCONT.5188128",
      "street": "R SANDIM",
      "house": "",
      "postcode": "4990-508",
      "city": "ANAIS",
      "lon": "-8.524300533363803",
      "lat": "41.704731892691484"
    },
    {
      "id": "pt.ine.add.PTCONT.5221195",
      "street": "R SANDIM",
      "house": "",
      "postcode": "4990-508",
      "city": "ANAIS",
      "lon": "-8.524596521123124",
      "lat": "41.705991375320814"
    },
    {
      "id": "pt.ine.add.PTCONT.5224667",
      "street": "R SANDIM",
      "house": "226",
      "postcode": "4990-508",
      "city": "ANAIS",
      "lon": "-8.524212876631122",
      "lat": "41.70612773415649"
    },
    {
      "id": "pt.ine.add.PTCONT.5227068",
      "street": "R COSTEIRA",
      "house": "224",
      "postcode": "4990-508",
      "city": "ANAIS",
      "lon": "-8.525322321823777",
      "lat": "41.70284667711742"
    },
    {
      "id": "pt.ine.add.PTCONT.5229289",
      "street": "R PENA LONGRA",
      "house": "",
      "postcode": "4990-508",
      "city": "ANAIS",
      "lon": "-8.523874126611597",
      "lat": "41.70574173588234"
    },
    {
      "id": "pt.ine.add.PTCONT.5231629",
      "street": "R BOM JESUS",
      "house": "",
      "postcode": "4990-508",
      "city": "ANAIS",
      "lon": "-8.523702409272904",
      "lat": "41.703176320572915"
    },
    {
      "id": "pt.ine.add.PTCONT.5249449",
      "street": "R PENA LONGRA",
      "house": "",
      "postcode": "4990-508",
      "city": "ANAIS",
      "lon": "-8.524319096809995",
      "lat": "41.705812250001614"
    },
    {
      "id": "pt.ine.add.PTCONT.5251897",
      "street": "R BOM JESUS",
      "house": "531",
      "postcode": "4990-508",
      "city": "ANAIS",
      "lon": "-8.524078604786405",
      "lat": "41.70379628332623"
    },
    {
      "id": "pt.ine.add.PTCONT.5258694",
      "street": "R BOM JESUS",
      "house": "525",
      "postcode": "4990-508",
      "city": "ANAIS",
      "lon": "-8.524282516368437",
      "lat": "41.70374156838144"
    },
    {
      "id": "pt.ine.add.PTCONT.5260980",
      "street": "R SANDIM",
      "house": "451",
      "postcode": "4990-508",
      "city": "ANAIS",
      "lon": "-8.524676853044905",
      "lat": "41.705369859890716"
    },
    {
      "id": "pt.ine.add.PTCONT.5262156",
      "street": "R PENA LONGRA",
      "house": "",
      "postcode": "4990-508",
      "city": "ANAIS",
      "lon": "-8.524003504018063",
      "lat": "41.70528211718709"
    },
    {
      "id": "pt.ine.add.PTCONT.5265830",
      "street": "R SANDIM",
      "house": "",
      "postcode": "4990-508",
      "city": "ANAIS",
      "lon": "-8.524274976940724",
      "lat": "41.70447988153695"
    }
  ]
}