{
  "data": {
    "distrito": "Leiria",
    "concelho": "Leiria",
    "freguesia": "Coimbrão",
    "OBJECTID": 23,
    "BGRI2021": "10090900307",
    "DT21": "10",
    "DTMN21": "1009",
    "DTMNFR21": "100909",
    "DTMNFRSEC21": "100909003",
    "SECNUM21": "003",
    "SSNUM21": "07",
    "SECSSNUM21": "00307",
    "OBJECTID_1": 89952,
    "DT": "10",
    "CC": "09",
    "fr": "09",
    "SEC": "003",
    "SS": "07"
  },
  "addresses": [
    {
      "id": "pt.ine.add.PTCONT.1989249",
      "street": "R NSA SRA DE FÁTIMA",
      "house": "87",
      "postcode": "2425-452",
      "city": "COIMBRÃO",
      "lon": "-8.877462992738689",
      "lat": "39.89487879958052"
    },
    {
      "id": "pt.ine.add.PTCONT.1998152",
      "street": "R VALEIRA",
      "house": "",
      "postcode": "2425-452",
      "city": "COIMBRÃO",
      "lon": "-8.87758536246177",
      "lat": "39.89322086819905"
    },
    {
      "id": "pt.ine.add.PTCONT.2022535",
      "street": "R NSA SRA DE FÁTIMA",
      "house": "145",
      "postcode": "2425-452",
      "city": "COIMBRÃO",
      "lon": "-8.878049032468965",
      "lat": "39.895010129948915"
    },
    {
      "id": "pt.ine.add.PTCONT.2030893",
      "street": "R VALEIRA",
      "house": "",
      "postcode": "2425-452",
      "city": "COIMBRÃO",
      "lon": "-8.87850010995488",
      "lat": "39.89347617292972"
    },
    {
      "id": "pt.ine.add.PTCONT.2036520",
      "street": "R JANEGRA",
      "house": "95",
      "postcode": "2425-452",
      "city": "COIMBRÃO",
      "lon": "-8.879378842752464",
      "lat": "39.89472238710896"
    },
    {
      "id": "pt.ine.add.PTCONT.2062648",
      "street": "R NSA SRA DE FÁTIMA",
      "house": "75",
      "postcode": "2425-452",
      "city": "COIMBRÃO",
      "lon": "-8.877182785194629",
      "lat": "39.89491662268164"
    },
    {
      "id": "pt.ine.add.PTCONT.2065926",
      "street": "R VALEIRA",
      "house": "75",
      "postcode": "2425-452",
      "city": "COIMBRÃO",
      "lon": "-8.879093169279411",
      "lat": "39.89425590132163"
    },
    {
      "id": "pt.ine.add.PTCONT.2084454",
      "street": "R NSA SRA DE FÁTIMA",
      "house": "271",
      "postcode": "2425-452",
      "city": "COIMBRÃO",
      "lon": "-8.879501912467198",
      "lat": "39.89528898728037"
    },
    {
      "id": "pt.ine.add.PTCONT.2090061",
      "street": "R JANEGRA",
      "house": "92",
      "postcode": "2425-452",
      "city": "COIMBRÃO",
      "lon": "-8.87850693896702",
      "lat": "39.89410656497183"
    },
    {
      "id": "pt.ine.add.PTCONT.2125221",
      "street": "BC FRAGATA",
      "house": "30",
      "postcode": "2425-452",
      "city": "COIMBRÃO",
      "lon": "-8.87726199630148",
      "lat": "39.89467294630579"
    },
    {
      "id": "pt.ine.add.PTCONT.2157844",
      "street": "R JANEGRA",
      "house": "93",
      "postcode": "2425-452",
      "city": "COIMBRÃO",
      "lon": "-8.878741645489084",
      "lat": "39.89418611218961"
    },
    {
      "id": "pt.ine.add.PTCONT.2181676",
      "street": "R JANEGRA",
      "house": "91",
      "postcode": "2425-452",
      "city": "COIMBRÃO",
      "lon": "-8.879170153165191",
      "lat": "39.89488584192362"
    },
    {
      "id": "pt.ine.add.PTCONT.2197514",
      "street": "R VALEIRA",
      "house": "",
      "postcode": "2425-452",
      "city": "COIMBRÃO",
      "lon": "-8.877855333679824",
      "lat": "39.893318203301995"
    },
    {
      "id": "pt.ine.add.PTCONT.2208840",
      "street": "R VALEIRA",
      "house": "91",
      "postcode": "2425-452",
      "city": "COIMBRÃO",
      "lon": "-8.878972350130518",
      "lat": "39.89389642935962"
    },
    {
      "id": "pt.ine.add.PTCONT.2211059",
      "street": "R NSA SRA DE FÁTIMA",
      "house": "119",
      "postcode": "2425-452",
      "city": "COIMBRÃO",
      "lon": "-8.877649472760647",
      "lat": "39.89482356513598"
    },
    {
      "id": "pt.ine.add.PTCONT.2213299",
      "street": "R NSA SRA DE FÁTIMA",
      "house": "237",
      "postcode": "2425-452",
      "city": "COIMBRÃO",
      "lon": "-8.879068346523866",
      "lat": "39.89520171472508"
    },
    {
      "id": "pt.ine.add.PTCONT.2238133",
      "street": "R VALEIRA",
      "house": "",
      "postcode": "2425-452",
      "city": "COIMBRÃO",
      "lon": "-8.878171875807755",
      "lat": "39.89339722612421"
    },
    {
      "id": "pt.ine.add.PTCONT.2255597",
      "street": "R VALEIRA",
      "house": "113",
      "postcode": "2425-452",
      "city": "COIMBRÃO",
      "lon": "-8.878865761290964",
      "lat": "39.893771027658296"
    }
  ]
}