{
  "data": {
    "ilha": "Ilha da Madeira (Madeira)",
    "concelho": "Funchal",
    "freguesia": "São Gonçalo",
    "OBJECTID": 413,
    "BGRI2021": "31030600305",
    "DT21": "31",
    "DTMN21": "3103",
    "DTMNFR21": "310306",
    "DTMNFRSEC21": "310306003",
    "SECNUM21": "003",
    "SSNUM21": "05",
    "SECSSNUM21": "00305",
    "OBJECTID_1": 203759,
    "DT": "31",
    "CC": "03",
    "fr": "06",
    "SEC": "003",
    "SS": "05",
    "BGRI2021_1": "31030600305"
  },
  "addresses": [
    {
      "id": "pt.ine.add.MAD.13951",
      "street": "R BALANCAL",
      "house": "12",
      "postcode": "9060-414",
      "city": "FUNCHAL",
      "lon": "-16.872243989059914",
      "lat": "32.655454910914415"
    },
    {
      "id": "pt.ine.add.MAD.13952",
      "street": "R BALANCAL",
      "house": "14",
      "postcode": "9060-414",
      "city": "FUNCHAL",
      "lon": "-16.87218412048106",
      "lat": "32.65514014449825"
    },
    {
      "id": "pt.ine.add.MAD.13953",
      "street": "R BALANCAL",
      "house": "16",
      "postcode": "9060-414",
      "city": "FUNCHAL",
      "lon": "-16.872742095918493",
      "lat": "32.65377899061011"
    },
    {
      "id": "pt.ine.add.MAD.13954",
      "street": "ESTR AEROPORTO PALHEIRO VILLAGE",
      "house": "75",
      "postcode": "9060-382",
      "city": "FUNCHAL",
      "lon": "-16.872288664437477",
      "lat": "32.65197296793247"
    },
    {
      "id": "pt.ine.add.MAD.13955",
      "street": "ESTR AEROPORTO PALHEIRO VILLAGE",
      "house": "74",
      "postcode": "9060-382",
      "city": "FUNCHAL",
      "lon": "-16.872031006342137",
      "lat": "32.65188662356935"
    },
    {
      "id": "pt.ine.add.MAD.13956",
      "street": "ESTR AEROPORTO PALHEIRO VILLAGE",
      "house": "73",
      "postcode": "9060-382",
      "city": "FUNCHAL",
      "lon": "-16.87179466357432",
      "lat": "32.65179996071207"
    },
    {
      "id": "pt.ine.add.MAD.13960",
      "street": "ESTR AEROPORTO PALHEIRO VILLAGE",
      "house": "62",
      "postcode": "9060-382",
      "city": "FUNCHAL",
      "lon": "-16.872285036640847",
      "lat": "32.65128758920528"
    },
    {
      "id": "pt.ine.add.MAD.13961",
      "street": "ESTR AEROPORTO PALHEIRO VILLAGE",
      "house": "50",
      "postcode": "9060-382",
      "city": "FUNCHAL",
      "lon": "-16.87311800313283",
      "lat": "32.65135632783187"
    },
    {
      "id": "pt.ine.add.MAD.13962",
      "street": "ESTR AEROPORTO PALHEIRO VILLAGE",
      "house": "51",
      "postcode": "9060-382",
      "city": "FUNCHAL",
      "lon": "-16.872901847424583",
      "lat": "32.65121525259645"
    },
    {
      "id": "pt.ine.add.MAD.13963",
      "street": "ESTR AEROPORTO PALHEIRO VILLAGE",
      "house": "52",
      "postcode": "9060-382",
      "city": "FUNCHAL",
      "lon": "-16.872687384384065",
      "lat": "32.65115532138849"
    },
    {
      "id": "pt.ine.add.MAD.13964",
      "street": "ESTR AEROPORTO PALHEIRO VILLAGE",
      "house": "46",
      "postcode": "9060-382",
      "city": "FUNCHAL",
      "lon": "-16.873285888130905",
      "lat": "32.651227557750616"
    },
    {
      "id": "pt.ine.add.MAD.13965",
      "street": "ESTR AEROPORTO PALHEIRO VILLAGE",
      "house": "49",
      "postcode": "9060-382",
      "city": "FUNCHAL",
      "lon": "-16.872747380339582",
      "lat": "32.6509650300987"
    },
    {
      "id": "pt.ine.add.MAD.13966",
      "street": "ESTR AEROPORTO",
      "house": "4",
      "postcode": "9060-382",
      "city": "FUNCHAL",
      "lon": "-16.8728701322674",
      "lat": "32.650205614385605"
    },
    {
      "id": "pt.ine.add.MAD.13967",
      "street": "ESTR AEROPORTO",
      "house": "8",
      "postcode": "9060-382",
      "city": "FUNCHAL",
      "lon": "-16.8728701322674",
      "lat": "32.650205614385605"
    },
    {
      "id": "pt.ine.add.MAD.14626",
      "street": "ESTR AEROPORTO",
      "house": "2",
      "postcode": "9060-382",
      "city": "FUNCHAL",
      "lon": "-16.87303074284147",
      "lat": "32.650239292599096"
    },
    {
      "id": "pt.ine.add.MAD.14627",
      "street": "ESTR AEROPORTO",
      "house": "3",
      "postcode": "9060-382",
      "city": "FUNCHAL",
      "lon": "-16.87303074284147",
      "lat": "32.650239292599096"
    },
    {
      "id": "pt.ine.add.MAD.14628",
      "street": "ESTR AEROPORTO",
      "house": "6",
      "postcode": "9060-382",
      "city": "FUNCHAL",
      "lon": "-16.87303074284147",
      "lat": "32.650239292599096"
    },
    {
      "id": "pt.ine.add.MAD.14629",
      "street": "ESTR AEROPORTO",
      "house": "7",
      "postcode": "9060-382",
      "city": "FUNCHAL",
      "lon": "-16.87303074284147",
      "lat": "32.650239292599096"
    },
    {
      "id": "pt.ine.add.MAD.14630",
      "street": "ESTR AEROPORTO",
      "house": "1",
      "postcode": "9060-382",
      "city": "FUNCHAL",
      "lon": "-16.873170039050898",
      "lat": "32.65027328877204"
    },
    {
      "id": "pt.ine.add.MAD.14631",
      "street": "ESTR AEROPORTO",
      "house": "5",
      "postcode": "9060-382",
      "city": "FUNCHAL",
      "lon": "-16.873170039050898",
      "lat": "32.65027328877204"
    },
    {
      "id": "pt.ine.add.MAD.14632",
      "street": "ESTR AEROPORTO",
      "house": "21",
      "postcode": "9060-382",
      "city": "FUNCHAL",
      "lon": "-16.873445622647957",
      "lat": "32.650197023924854"
    },
    {
      "id": "pt.ine.add.MAD.14633",
      "street": "ESTR AEROPORTO",
      "house": "22",
      "postcode": "9060-382",
      "city": "FUNCHAL",
      "lon": "-16.873445622647957",
      "lat": "32.650197023924854"
    },
    {
      "id": "pt.ine.add.MAD.14634",
      "street": "ESTR AEROPORTO",
      "house": "24",
      "postcode": "9060-382",
      "city": "FUNCHAL",
      "lon": "-16.873445622647957",
      "lat": "32.650197023924854"
    },
    {
      "id": "pt.ine.add.MAD.14635",
      "street": "R CARLOS MARIA SANTOS",
      "house": "2",
      "postcode": "9060-052",
      "city": "FUNCHAL",
      "lon": "-16.874584857954847",
      "lat": "32.65319230588298"
    },
    {
      "id": "pt.ine.add.MAD.14636",
      "street": "VR FURNAS",
      "house": "44",
      "postcode": "9060-125",
      "city": "FUNCHAL",
      "lon": "-16.87471324272631",
      "lat": "32.65270337013275"
    },
    {
      "id": "pt.ine.add.MAD.14637",
      "street": "R CARLOS MARIA SANTOS",
      "house": "29",
      "postcode": "9060-052",
      "city": "FUNCHAL",
      "lon": "-16.874617701483476",
      "lat": "32.6527228351956"
    },
    {
      "id": "pt.ine.add.MAD.14638",
      "street": "VR FURNAS",
      "house": "1 ENT 4",
      "postcode": "9060-125",
      "city": "FUNCHAL",
      "lon": "-16.874911782615513",
      "lat": "32.65251100797476"
    },
    {
      "id": "pt.ine.add.MAD.14639",
      "street": "VR FURNAS",
      "house": "4 ENT 4",
      "postcode": "9060-125",
      "city": "FUNCHAL",
      "lon": "-16.87482388753895",
      "lat": "32.65238605739374"
    },
    {
      "id": "pt.ine.add.MAD.14640",
      "street": "R DAS FURNAS",
      "house": "38",
      "postcode": "9060-125",
      "city": "FUNCHAL",
      "lon": "-16.874689034065995",
      "lat": "32.65205437481404"
    },
    {
      "id": "pt.ine.add.MAD.15323",
      "street": "VR FURNAS",
      "house": "26",
      "postcode": "9060-125",
      "city": "FUNCHAL",
      "lon": "-16.874528914886568",
      "lat": "32.65153367366748"
    },
    {
      "id": "pt.ine.add.MAD.15324",
      "street": "VR FURNAS",
      "house": "24",
      "postcode": "9060-125",
      "city": "FUNCHAL",
      "lon": "-16.87459041264529",
      "lat": "32.65141550993954"
    },
    {
      "id": "pt.ine.add.MAD.15325",
      "street": "TV RIBEIRO SECO CIMA",
      "house": "",
      "postcode": "9060-274",
      "city": "FUNCHAL",
      "lon": "-16.873813864602994",
      "lat": "32.65098518464126"
    },
    {
      "id": "pt.ine.add.MAD.15326",
      "street": "VR FURNAS",
      "house": "57",
      "postcode": "9060-125",
      "city": "FUNCHAL",
      "lon": "-16.873813864602994",
      "lat": "32.65098518464126"
    },
    {
      "id": "pt.ine.add.MAD.15327",
      "street": "ESTR AEROPORTO",
      "house": "63",
      "postcode": "9060-382",
      "city": "FUNCHAL",
      "lon": "-16.87380947316375",
      "lat": "32.65026374210775"
    },
    {
      "id": "pt.ine.add.MAD.17433",
      "street": "ESTR AEROPORTO PALHEIRO VILLAGE",
      "house": "78",
      "postcode": "9060-382",
      "city": "FUNCHAL",
      "lon": "-16.87195310052668",
      "lat": "32.65070631584994"
    },
    {
      "id": "pt.ine.add.MAD.17434",
      "street": "ESTR AEROPORTO",
      "house": "CASA 54",
      "postcode": "9060-382",
      "city": "FUNCHAL",
      "lon": "-16.871644978353437",
      "lat": "32.65075600622945"
    },
    {
      "id": "pt.ine.add.MAD.17435",
      "street": "ESTR AEROPORTO PALHEIRO VILLAGE",
      "house": "55",
      "postcode": "9060-382",
      "city": "FUNCHAL",
      "lon": "-16.87143014141439",
      "lat": "32.65067804068851"
    },
    {
      "id": "pt.ine.add.MAD.17436",
      "street": "ESTR AEROPORTO PALHEIRO VILLAGE",
      "house": "56",
      "postcode": "9060-382",
      "city": "FUNCHAL",
      "lon": "-16.871248028104397",
      "lat": "32.65063566222547"
    },
    {
      "id": "pt.ine.add.MAD.17437",
      "street": "ESTR AEROPORTO PALHEIRO VILLAGE",
      "house": "59",
      "postcode": "9060-382",
      "city": "FUNCHAL",
      "lon": "-16.87162986417061",
      "lat": "32.651053853899526"
    },
    {
      "id": "pt.ine.add.MAD.18186",
      "street": "ESTR AEROPORTO PALHEIRO VILLAGE",
      "house": "61",
      "postcode": "9060-382",
      "city": "FUNCHAL",
      "lon": "-16.872027756417573",
      "lat": "32.651219276855485"
    },
    {
      "id": "pt.ine.add.MAD.57477",
      "street": "R CARLOS MARIA SANTOS",
      "house": "18B",
      "postcode": "9060-052",
      "city": "FUNCHAL",
      "lon": "-16.874516535376106",
      "lat": "32.65400502269626"
    },
    {
      "id": "pt.ine.add.MAD.57486",
      "street": "ESTR AEROPORTO PALHEIRO VILLAGE",
      "house": "57",
      "postcode": "9060-382",
      "city": "FUNCHAL",
      "lon": "-16.871199813524594",
      "lat": "32.65087989033037"
    },
    {
      "id": "pt.ine.add.MAD.68068",
      "street": "ESTR AEROPORTO PALHEIRO VILLAGE",
      "house": "77",
      "postcode": "9060-382",
      "city": "FUNCHAL",
      "lon": "-16.871997421061067",
      "lat": "32.650786824377256"
    },
    {
      "id": "pt.ine.add.MAD.70593",
      "street": "ESTR AEROPORTO PALHEIRO VILLAGE",
      "house": "76",
      "postcode": "9060-382",
      "city": "FUNCHAL",
      "lon": "-16.872524820108627",
      "lat": "32.65205061377565"
    },
    {
      "id": "pt.ine.add.MAD.76856",
      "street": "ESTR AEROPORTO PALHEIRO VILLAGE",
      "house": "60",
      "postcode": "9060-382",
      "city": "FUNCHAL",
      "lon": "-16.87182395122575",
      "lat": "32.651159185159095"
    },
    {
      "id": "pt.ine.add.MAD.79421",
      "street": "R CARLOS MARIA SANTOS",
      "house": "20",
      "postcode": "9060-052",
      "city": "FUNCHAL",
      "lon": "-16.87448004556236",
      "lat": "32.653789115513234"
    },
    {
      "id": "pt.ine.add.MAD.81978",
      "street": "ESTR AEROPORTO",
      "house": "16",
      "postcode": "9060-382",
      "city": "FUNCHAL",
      "lon": "-16.87316571410684",
      "lat": "32.6500659197049"
    },
    {
      "id": "pt.ine.add.MAD.81979",
      "street": "ESTR AEROPORTO",
      "house": "20",
      "postcode": "9060-382",
      "city": "FUNCHAL",
      "lon": "-16.87316571410684",
      "lat": "32.6500659197049"
    },
    {
      "id": "pt.ine.add.MAD.81980",
      "street": "ESTR AEROPORTO",
      "house": "21",
      "postcode": "9060-382",
      "city": "FUNCHAL",
      "lon": "-16.872575619666794",
      "lat": "32.649885330841244"
    },
    {
      "id": "pt.ine.add.MAD.81981",
      "street": "ESTR AEROPORTO",
      "house": "22",
      "postcode": "9060-382",
      "city": "FUNCHAL",
      "lon": "-16.872575619666794",
      "lat": "32.649885330841244"
    },
    {
      "id": "pt.ine.add.MAD.81982",
      "street": "ESTR AEROPORTO",
      "house": "23",
      "postcode": "9060-382",
      "city": "FUNCHAL",
      "lon": "-16.872575619666794",
      "lat": "32.649885330841244"
    },
    {
      "id": "pt.ine.add.MAD.81983",
      "street": "ESTR AEROPORTO",
      "house": "24",
      "postcode": "9060-382",
      "city": "FUNCHAL",
      "lon": "-16.872575619666794",
      "lat": "32.649885330841244"
    },
    {
      "id": "pt.ine.add.MAD.81985",
      "street": "ESTR AEROPORTO PALHEIRO VILLAGE",
      "house": "53",
      "postcode": "9060-382",
      "city": "FUNCHAL",
      "lon": "-16.871797187134597",
      "lat": "32.650898037589734"
    },
    {
      "id": "pt.ine.add.MAD.84770",
      "street": "ESTR AEROPORTO PALHEIRO VILLAGE",
      "house": "63",
      "postcode": "9060-382",
      "city": "FUNCHAL",
      "lon": "-16.872488090474086",
      "lat": "32.65131161593649"
    },
    {
      "id": "pt.ine.add.MAD.84771",
      "street": "ESTR AEROPORTO PALHEIRO VILLAGE",
      "house": "48",
      "postcode": "9060-382",
      "city": "FUNCHAL",
      "lon": "-16.872961842953856",
      "lat": "32.65102496122095"
    },
    {
      "id": "pt.ine.add.MAD.84772",
      "street": "ESTR AEROPORTO",
      "house": "14",
      "postcode": "9060-382",
      "city": "FUNCHAL",
      "lon": "-16.87298322531961",
      "lat": "32.65000551164717"
    },
    {
      "id": "pt.ine.add.MAD.84773",
      "street": "ESTR AEROPORTO",
      "house": "15",
      "postcode": "9060-382",
      "city": "FUNCHAL",
      "lon": "-16.87298322531961",
      "lat": "32.65000551164717"
    },
    {
      "id": "pt.ine.add.MAD.84774",
      "street": "ESTR AEROPORTO",
      "house": "18",
      "postcode": "9060-382",
      "city": "FUNCHAL",
      "lon": "-16.87298322531961",
      "lat": "32.65000551164717"
    },
    {
      "id": "pt.ine.add.MAD.84775",
      "street": "ESTR AEROPORTO",
      "house": "19",
      "postcode": "9060-382",
      "city": "FUNCHAL",
      "lon": "-16.87298322531961",
      "lat": "32.65000551164717"
    },
    {
      "id": "pt.ine.add.MAD.84776",
      "street": "ESTR AEROPORTO",
      "house": "13",
      "postcode": "9060-382",
      "city": "FUNCHAL",
      "lon": "-16.87280111277182",
      "lat": "32.64996313541167"
    },
    {
      "id": "pt.ine.add.MAD.84777",
      "street": "ESTR AEROPORTO",
      "house": "17",
      "postcode": "9060-382",
      "city": "FUNCHAL",
      "lon": "-16.87280111277182",
      "lat": "32.64996313541167"
    },
    {
      "id": "pt.ine.add.MAD.88089",
      "street": "R TEN DOMINGOSÃO JOÃO CARDOSO",
      "house": "15",
      "postcode": "9060-138",
      "city": "FUNCHAL",
      "lon": "-16.874979188185964",
      "lat": "32.65318641424808"
    },
    {
      "id": "pt.ine.add.MAD.88090",
      "street": "VR FURNAS",
      "house": "2 ENT 4",
      "postcode": "9060-125",
      "city": "FUNCHAL",
      "lon": "-16.8749089591306",
      "lat": "32.65237576746285"
    },
    {
      "id": "pt.ine.add.MAD.90510",
      "street": "ESTR AEROPORTO PALHEIRO VILLAGE",
      "house": "79",
      "postcode": "9060-382",
      "city": "FUNCHAL",
      "lon": "-16.8724454037768",
      "lat": "32.65079817824081"
    },
    {
      "id": "pt.ine.add.MAD.98133",
      "street": "ESTR AEROPORTO PALHEIRO VILLAGE",
      "house": "58",
      "postcode": "9060-382",
      "city": "FUNCHAL",
      "lon": "-16.871393523984914",
      "lat": "32.65096719018144"
    },
    {
      "id": "pt.ine.add.MAD.99604",
      "street": "R TEN DOMINGOSÃO JOÃO CARDOSO",
      "house": "17",
      "postcode": "9060-138",
      "city": "FUNCHAL",
      "lon": "-16.874994291233723",
      "lat": "32.6528885666629"
    },
    {
      "id": "pt.ine.add.MAD.105227",
      "street": "R CARLOS MARIA SANTOS",
      "house": "18A",
      "postcode": "9060-052",
      "city": "FUNCHAL",
      "lon": "-16.874497102055145",
      "lat": "32.654095501462734"
    },
    {
      "id": "pt.ine.add.MAD.119554",
      "street": "ESTR AEROPORTO",
      "house": "65",
      "postcode": "9060-382",
      "city": "FUNCHAL",
      "lon": "-16.87312395938375",
      "lat": "32.65113076762048"
    },
    {
      "id": "pt.ine.add.MAD.120267",
      "street": "R DAS FURNAS",
      "house": "36",
      "postcode": "9060-125",
      "city": "FUNCHAL",
      "lon": "-16.874689034065995",
      "lat": "32.65205437481404"
    },
    {
      "id": "pt.ine.add.MAD.120726",
      "street": "R TEN DOMINGOSÃO JOÃO CARDOSO",
      "house": "13",
      "postcode": "9060-138",
      "city": "FUNCHAL",
      "lon": "-16.875005774271898",
      "lat": "32.65343854465325"
    },
    {
      "id": "pt.ine.add.MAD.122364",
      "street": "VR FURNAS",
      "house": "42 CASA3",
      "postcode": "9060-125",
      "city": "FUNCHAL",
      "lon": "-16.874526419082397",
      "lat": "32.652435595757154"
    },
    {
      "id": "pt.ine.add.MAD.123463",
      "street": "R TEN DOMINGOSÃO JOÃO CARDOSO",
      "house": "15A",
      "postcode": "9060-138",
      "city": "FUNCHAL",
      "lon": "-16.87495504941377",
      "lat": "32.653051492252715"
    },
    {
      "id": "pt.ine.add.MAD.125701",
      "street": "R TENENTE DOMINGOS JOÃO CARDOSO",
      "house": "11",
      "postcode": "9060-138",
      "city": "FUNCHAL",
      "lon": "-16.875023397187228",
      "lat": "32.6537719785793"
    },
    {
      "id": "pt.ine.add.MAD.126060",
      "street": "VR FURNAS",
      "house": "34",
      "postcode": "9060-125",
      "city": "FUNCHAL",
      "lon": "-16.87468734020365",
      "lat": "32.651973230491"
    },
    {
      "id": "pt.ine.add.MAD.126061",
      "street": "VR FURNAS",
      "house": "32",
      "postcode": "9060-125",
      "city": "FUNCHAL",
      "lon": "-16.87468734020365",
      "lat": "32.651973230491"
    },
    {
      "id": "pt.ine.add.MAD.128686",
      "street": "ESTR AEROPORTO",
      "house": "23",
      "postcode": "9060-382",
      "city": "FUNCHAL",
      "lon": "-16.873445622647957",
      "lat": "32.650197023924854"
    }
  ]
}