{
  "data": {
    "ilha": "Ilha da Madeira (Madeira)",
    "concelho": "Funchal",
    "freguesia": "São Gonçalo",
    "OBJECTID": 347,
    "BGRI2021": "31030600311",
    "DT21": "31",
    "DTMN21": "3103",
    "DTMNFR21": "310306",
    "DTMNFRSEC21": "310306003",
    "SECNUM21": "003",
    "SSNUM21": "11",
    "SECSSNUM21": "00311",
    "OBJECTID_1": 204146,
    "DT": "31",
    "CC": "03",
    "fr": "06",
    "SEC": "003",
    "SS": "11",
    "BGRI2021_1": "31030600311"
  },
  "addresses": [
    {
      "id": "pt.ine.add.MAD.17402",
      "street": "R GOLFE",
      "house": "9",
      "postcode": "9060-416",
      "city": "FUNCHAL",
      "lon": "-16.870993687837768",
      "lat": "32.65582529582091"
    },
    {
      "id": "pt.ine.add.MAD.17403",
      "street": "R GOLFE",
      "house": "11",
      "postcode": "9060-416",
      "city": "FUNCHAL",
      "lon": "-16.871253371555497",
      "lat": "32.65549674472025"
    },
    {
      "id": "pt.ine.add.MAD.21092",
      "street": "R BALANCAL",
      "house": "62",
      "postcode": "9060-414",
      "city": "FUNCHAL",
      "lon": "-16.873168589754474",
      "lat": "32.65684805131175"
    },
    {
      "id": "pt.ine.add.MAD.21093",
      "street": "R CARIDADE PESTANA",
      "house": "5",
      "postcode": "9060-049",
      "city": "FUNCHAL",
      "lon": "-16.873982791519737",
      "lat": "32.656015178796544"
    },
    {
      "id": "pt.ine.add.MAD.21094",
      "street": "R CARIDADE PESTANA",
      "house": "5",
      "postcode": "9060-049",
      "city": "FUNCHAL",
      "lon": "-16.873982791519737",
      "lat": "32.656015178796544"
    },
    {
      "id": "pt.ine.add.MAD.21095",
      "street": "R CARIDADE PESTANA",
      "house": "5",
      "postcode": "9060-049",
      "city": "FUNCHAL",
      "lon": "-16.873982791519737",
      "lat": "32.656015178796544"
    },
    {
      "id": "pt.ine.add.MAD.21096",
      "street": "R CARIDADE PESTANA",
      "house": "5",
      "postcode": "9060-049",
      "city": "FUNCHAL",
      "lon": "-16.873982791519737",
      "lat": "32.656015178796544"
    },
    {
      "id": "pt.ine.add.MAD.21097",
      "street": "R CARIDADE PESTANA",
      "house": "5",
      "postcode": "9060-049",
      "city": "FUNCHAL",
      "lon": "-16.873982791519737",
      "lat": "32.656015178796544"
    },
    {
      "id": "pt.ine.add.MAD.21825",
      "street": "R CARIDADE PESTANA",
      "house": "37",
      "postcode": "9060-049",
      "city": "FUNCHAL",
      "lon": "-16.874251805041467",
      "lat": "32.65562335046649"
    },
    {
      "id": "pt.ine.add.MAD.21826",
      "street": "R CARIDADE PESTANA",
      "house": "109",
      "postcode": "9060-049",
      "city": "FUNCHAL",
      "lon": "-16.874251805041467",
      "lat": "32.65562335046649"
    },
    {
      "id": "pt.ine.add.MAD.21827",
      "street": "R CARIDADE PESTANA",
      "house": "91",
      "postcode": "9060-049",
      "city": "FUNCHAL",
      "lon": "-16.874535873610224",
      "lat": "32.65595280414799"
    },
    {
      "id": "pt.ine.add.MAD.21828",
      "street": "R CARIDADE PESTANA",
      "house": "87",
      "postcode": "9060-049",
      "city": "FUNCHAL",
      "lon": "-16.874549543062557",
      "lat": "32.65609690141676"
    },
    {
      "id": "pt.ine.add.MAD.21829",
      "street": "R CARIDADE PESTANA",
      "house": "85",
      "postcode": "9060-049",
      "city": "FUNCHAL",
      "lon": "-16.874550672399042",
      "lat": "32.65615099760095"
    },
    {
      "id": "pt.ine.add.MAD.21830",
      "street": "R CARIDADE PESTANA",
      "house": "81",
      "postcode": "9060-049",
      "city": "FUNCHAL",
      "lon": "-16.87457462341226",
      "lat": "32.65627690357242"
    },
    {
      "id": "pt.ine.add.MAD.21831",
      "street": "R CARIDADE PESTANA",
      "house": "75",
      "postcode": "9060-049",
      "city": "FUNCHAL",
      "lon": "-16.874195830379662",
      "lat": "32.656517052068914"
    },
    {
      "id": "pt.ine.add.MAD.21832",
      "street": "R CARIDADE PESTANA",
      "house": "73",
      "postcode": "9060-049",
      "city": "FUNCHAL",
      "lon": "-16.873971824777183",
      "lat": "32.65651137899329"
    },
    {
      "id": "pt.ine.add.MAD.21833",
      "street": "R CARIDADE PESTANA",
      "house": "67",
      "postcode": "9060-049",
      "city": "FUNCHAL",
      "lon": "-16.873607449747393",
      "lat": "32.65693168729841"
    },
    {
      "id": "pt.ine.add.MAD.21834",
      "street": "R CARIDADE PESTANA",
      "house": "55",
      "postcode": "9060-049",
      "city": "FUNCHAL",
      "lon": "-16.873984055842122",
      "lat": "32.6570974211172"
    },
    {
      "id": "pt.ine.add.MAD.21835",
      "street": "R CARIDADE PESTANA",
      "house": "61",
      "postcode": "9060-049",
      "city": "FUNCHAL",
      "lon": "-16.873800678068427",
      "lat": "32.6575060077354"
    },
    {
      "id": "pt.ine.add.MAD.21836",
      "street": "R CARIDADE PESTANA",
      "house": "53",
      "postcode": "9060-049",
      "city": "FUNCHAL",
      "lon": "-16.874217027184837",
      "lat": "32.657021790635525"
    },
    {
      "id": "pt.ine.add.MAD.22523",
      "street": "R CARIDADE PESTANA",
      "house": "49",
      "postcode": "9060-049",
      "city": "FUNCHAL",
      "lon": "-16.8745775179062",
      "lat": "32.65692621695416"
    },
    {
      "id": "pt.ine.add.MAD.22524",
      "street": "R CARIDADE PESTANA",
      "house": "39",
      "postcode": "9060-049",
      "city": "FUNCHAL",
      "lon": "-16.874535897983343",
      "lat": "32.65748600691663"
    },
    {
      "id": "pt.ine.add.MAD.22525",
      "street": "R CARIDADE PESTANA",
      "house": "35",
      "postcode": "9060-049",
      "city": "FUNCHAL",
      "lon": "-16.874887614746157",
      "lat": "32.65748075180124"
    },
    {
      "id": "pt.ine.add.MAD.22526",
      "street": "R CARIDADE PESTANA",
      "house": "11",
      "postcode": "9060-049",
      "city": "FUNCHAL",
      "lon": "-16.875808307153996",
      "lat": "32.65613220257836"
    },
    {
      "id": "pt.ine.add.MAD.22527",
      "street": "R CARIDADE PESTANA",
      "house": "5",
      "postcode": "9060-049",
      "city": "FUNCHAL",
      "lon": "-16.876445414308517",
      "lat": "32.656519505253335"
    },
    {
      "id": "pt.ine.add.MAD.22528",
      "street": "R CARIDADE PESTANA",
      "house": "4",
      "postcode": "9060-049",
      "city": "FUNCHAL",
      "lon": "-16.876545964285818",
      "lat": "32.65622939867827"
    },
    {
      "id": "pt.ine.add.MAD.22529",
      "street": "R CARIDADE PESTANA VILA VANESSA",
      "house": "1",
      "postcode": "9060-049",
      "city": "FUNCHAL",
      "lon": "-16.87679270895216",
      "lat": "32.65579280398389"
    },
    {
      "id": "pt.ine.add.MAD.22530",
      "street": "ESTR CAMACHA",
      "house": "98",
      "postcode": "9060-009",
      "city": "FUNCHAL",
      "lon": "-16.876078413853907",
      "lat": "32.65681359601845"
    },
    {
      "id": "pt.ine.add.MAD.22531",
      "street": "ESTR CAMACHA",
      "house": "102",
      "postcode": "9060-009",
      "city": "FUNCHAL",
      "lon": "-16.875237825006625",
      "lat": "32.657403367499036"
    },
    {
      "id": "pt.ine.add.MAD.22532",
      "street": "ESTR CAMACHA",
      "house": "108",
      "postcode": "9060-009",
      "city": "FUNCHAL",
      "lon": "-16.875306481143248",
      "lat": "32.65762781236129"
    },
    {
      "id": "pt.ine.add.MAD.22533",
      "street": "ESTR CAMACHA",
      "house": "110",
      "postcode": "9060-009",
      "city": "FUNCHAL",
      "lon": "-16.875244980506054",
      "lat": "32.65774597645053"
    },
    {
      "id": "pt.ine.add.MAD.22534",
      "street": "ESTR CAMACHA",
      "house": "124",
      "postcode": "9060-009",
      "city": "FUNCHAL",
      "lon": "-16.87266740156728",
      "lat": "32.65939884654598"
    },
    {
      "id": "pt.ine.add.MAD.22535",
      "street": "ESTR CAMACHA",
      "house": "122",
      "postcode": "9060-009",
      "city": "FUNCHAL",
      "lon": "-16.87267523902317",
      "lat": "32.65926344692852"
    },
    {
      "id": "pt.ine.add.MAD.56393",
      "street": "R ESTALAGEM",
      "house": "8",
      "postcode": "9060-415",
      "city": "FUNCHAL",
      "lon": "-16.8721301764495",
      "lat": "32.65766622668493"
    },
    {
      "id": "pt.ine.add.MAD.56395",
      "street": "R CARIDADE PESTANA",
      "house": "93",
      "postcode": "9060-049",
      "city": "FUNCHAL",
      "lon": "-16.874533803194385",
      "lat": "32.655853627805946"
    },
    {
      "id": "pt.ine.add.MAD.56396",
      "street": "R CARIDADE PESTANA",
      "house": "3",
      "postcode": "9060-049",
      "city": "FUNCHAL",
      "lon": "-16.876604070529112",
      "lat": "32.65594894566092"
    },
    {
      "id": "pt.ine.add.MAD.61899",
      "street": "R CARIDADE PESTANA",
      "house": "99",
      "postcode": "9060-049",
      "city": "FUNCHAL",
      "lon": "-16.87455116634835",
      "lat": "32.65566397270123"
    },
    {
      "id": "pt.ine.add.MAD.61900",
      "street": "R CARIDADE PESTANA",
      "house": "9",
      "postcode": "9060-049",
      "city": "FUNCHAL",
      "lon": "-16.876278843349958",
      "lat": "32.65671139180348"
    },
    {
      "id": "pt.ine.add.MAD.64724",
      "street": "R CARIDADE PESTANA",
      "house": "45",
      "postcode": "9060-049",
      "city": "FUNCHAL",
      "lon": "-16.87429633851481",
      "lat": "32.65724607696417"
    },
    {
      "id": "pt.ine.add.MAD.64725",
      "street": "R CARIDADE PESTANA",
      "house": "41",
      "postcode": "9060-049",
      "city": "FUNCHAL",
      "lon": "-16.87436555682497",
      "lat": "32.65749757052656"
    },
    {
      "id": "pt.ine.add.MAD.64726",
      "street": "R CARIDADE PESTANA",
      "house": "37",
      "postcode": "9060-049",
      "city": "FUNCHAL",
      "lon": "-16.874663230267014",
      "lat": "32.657457047994995"
    },
    {
      "id": "pt.ine.add.MAD.67560",
      "street": "R CARIDADE PESTANA",
      "house": "109",
      "postcode": "9060-049",
      "city": "FUNCHAL",
      "lon": "-16.87412635694537",
      "lat": "32.655742469223405"
    },
    {
      "id": "pt.ine.add.MAD.67561",
      "street": "R CARIDADE PESTANA",
      "house": "109",
      "postcode": "9060-049",
      "city": "FUNCHAL",
      "lon": "-16.87412635694537",
      "lat": "32.655742469223405"
    },
    {
      "id": "pt.ine.add.MAD.67562",
      "street": "R CARIDADE PESTANA",
      "house": "109",
      "postcode": "9060-049",
      "city": "FUNCHAL",
      "lon": "-16.87412635694537",
      "lat": "32.655742469223405"
    },
    {
      "id": "pt.ine.add.MAD.67563",
      "street": "R CARIDADE PESTANA",
      "house": "109",
      "postcode": "9060-049",
      "city": "FUNCHAL",
      "lon": "-16.87412635694537",
      "lat": "32.655742469223405"
    },
    {
      "id": "pt.ine.add.MAD.67564",
      "street": "R CARIDADE PESTANA",
      "house": "109",
      "postcode": "9060-049",
      "city": "FUNCHAL",
      "lon": "-16.87412635694537",
      "lat": "32.655742469223405"
    },
    {
      "id": "pt.ine.add.MAD.67565",
      "street": "R CARIDADE PESTANA",
      "house": "89",
      "postcode": "9060-049",
      "city": "FUNCHAL",
      "lon": "-16.874579446345127",
      "lat": "32.65599724739701"
    },
    {
      "id": "pt.ine.add.MAD.67566",
      "street": "R CARIDADE PESTANA",
      "house": "69",
      "postcode": "9060-049",
      "city": "FUNCHAL",
      "lon": "-16.873688762970538",
      "lat": "32.65674107735487"
    },
    {
      "id": "pt.ine.add.MAD.67567",
      "street": "R CARIDADE PESTANA",
      "house": "59",
      "postcode": "9060-049",
      "city": "FUNCHAL",
      "lon": "-16.8740777884313",
      "lat": "32.657501869044715"
    },
    {
      "id": "pt.ine.add.MAD.67568",
      "street": "R CARIDADE PESTANA",
      "house": "59",
      "postcode": "9060-049",
      "city": "FUNCHAL",
      "lon": "-16.8740777884313",
      "lat": "32.657501869044715"
    },
    {
      "id": "pt.ine.add.MAD.67569",
      "street": "R CARIDADE PESTANA",
      "house": "59",
      "postcode": "9060-049",
      "city": "FUNCHAL",
      "lon": "-16.8740777884313",
      "lat": "32.657501869044715"
    },
    {
      "id": "pt.ine.add.MAD.67742",
      "street": "R CARIDADE PESTANA",
      "house": "59",
      "postcode": "9060-049",
      "city": "FUNCHAL",
      "lon": "-16.8740777884313",
      "lat": "32.657501869044715"
    },
    {
      "id": "pt.ine.add.MAD.73308",
      "street": "R GOLFE",
      "house": "7",
      "postcode": "9060-416",
      "city": "FUNCHAL",
      "lon": "-16.87095913422791",
      "lat": "32.65621362163048"
    },
    {
      "id": "pt.ine.add.MAD.76678",
      "street": "R CARIDADE PESTANA",
      "house": "29",
      "postcode": "9060-049",
      "city": "FUNCHAL",
      "lon": "-16.875771968847893",
      "lat": "32.6569444413777"
    },
    {
      "id": "pt.ine.add.MAD.76679",
      "street": "ESTR CAMACHA",
      "house": "110",
      "postcode": "9060-009",
      "city": "FUNCHAL",
      "lon": "-16.87543663817826",
      "lat": "32.65773409301825"
    },
    {
      "id": "pt.ine.add.MAD.79050",
      "street": "R CARIDADE PESTANA",
      "house": "19",
      "postcode": "9060-049",
      "city": "FUNCHAL",
      "lon": "-16.87583320167587",
      "lat": "32.656303188365"
    },
    {
      "id": "pt.ine.add.MAD.84571",
      "street": "R CARIDADE PESTANA",
      "house": "1",
      "postcode": "9060-049",
      "city": "FUNCHAL",
      "lon": "-16.874367159555227",
      "lat": "32.655531438900205"
    },
    {
      "id": "pt.ine.add.MAD.84572",
      "street": "R CARIDADE PESTANA",
      "house": "1",
      "postcode": "9060-049",
      "city": "FUNCHAL",
      "lon": "-16.874367159555227",
      "lat": "32.655531438900205"
    },
    {
      "id": "pt.ine.add.MAD.84573",
      "street": "R CARIDADE PESTANA",
      "house": "1",
      "postcode": "9060-049",
      "city": "FUNCHAL",
      "lon": "-16.874367159555227",
      "lat": "32.655531438900205"
    },
    {
      "id": "pt.ine.add.MAD.84574",
      "street": "R CARIDADE PESTANA",
      "house": "47",
      "postcode": "9060-049",
      "city": "FUNCHAL",
      "lon": "-16.87359403530782",
      "lat": "32.6573106790335"
    },
    {
      "id": "pt.ine.add.MAD.87894",
      "street": "R GOLFE",
      "house": "",
      "postcode": "9060-416",
      "city": "FUNCHAL",
      "lon": "-16.87238685264629",
      "lat": "32.657193416636495"
    },
    {
      "id": "pt.ine.add.MAD.88078",
      "street": "ESTR CAMACHA",
      "house": "120",
      "postcode": "9060-009",
      "city": "FUNCHAL",
      "lon": "-16.87281436122585",
      "lat": "32.65928842690896"
    },
    {
      "id": "pt.ine.add.MAD.96322",
      "street": "R CARIDADE PESTANA",
      "house": "109",
      "postcode": "9060-049",
      "city": "FUNCHAL",
      "lon": "-16.874251805041467",
      "lat": "32.65562335046649"
    },
    {
      "id": "pt.ine.add.MAD.96707",
      "street": "R ESTALAGEM",
      "house": "23",
      "postcode": "9060-415",
      "city": "FUNCHAL",
      "lon": "-16.867426029423743",
      "lat": "32.65806100683568"
    },
    {
      "id": "pt.ine.add.MAD.97687",
      "street": "CAM QUINTA DO PALHEIRO QTA DO PALHEIRO",
      "house": "32",
      "postcode": "9060-255",
      "city": "FUNCHAL",
      "lon": "-16.866776925081705",
      "lat": "32.66017205937263"
    },
    {
      "id": "pt.ine.add.MAD.101143",
      "street": "R CARIDADE PESTANA",
      "house": "95",
      "postcode": "9060-049",
      "city": "FUNCHAL",
      "lon": "-16.87453286209963",
      "lat": "32.65580854764992"
    },
    {
      "id": "pt.ine.add.MAD.101566",
      "street": "R CARIDADE PESTANA",
      "house": "1",
      "postcode": "9060-049",
      "city": "FUNCHAL",
      "lon": "-16.874367159555227",
      "lat": "32.655531438900205"
    },
    {
      "id": "pt.ine.add.MAD.103486",
      "street": "ESTR CAMACHA",
      "house": "124",
      "postcode": "9060-009",
      "city": "FUNCHAL",
      "lon": "-16.87266740156728",
      "lat": "32.65939884654598"
    },
    {
      "id": "pt.ine.add.MAD.105556",
      "street": "R CARIDADE PESTANA",
      "house": "31",
      "postcode": "9060-049",
      "city": "FUNCHAL",
      "lon": "-16.87536120234467",
      "lat": "32.65718507135547"
    },
    {
      "id": "pt.ine.add.MAD.105682",
      "street": "R CARIDADE PESTANA",
      "house": "109",
      "postcode": "9060-049",
      "city": "FUNCHAL",
      "lon": "-16.87412635694537",
      "lat": "32.655742469223405"
    },
    {
      "id": "pt.ine.add.MAD.107062",
      "street": "R CARIDADE PESTANA",
      "house": "109",
      "postcode": "9060-049",
      "city": "FUNCHAL",
      "lon": "-16.874251805041467",
      "lat": "32.65562335046649"
    },
    {
      "id": "pt.ine.add.MAD.109671",
      "street": "ESTR CAMACHA",
      "house": "118",
      "postcode": "9060-009",
      "city": "FUNCHAL",
      "lon": "-16.872928405224556",
      "lat": "32.659133404247186"
    },
    {
      "id": "pt.ine.add.MAD.112360",
      "street": "ESTR CAMACHA",
      "house": "104",
      "postcode": "9060-009",
      "city": "FUNCHAL",
      "lon": "-16.875441458270164",
      "lat": "32.65745443696645"
    },
    {
      "id": "pt.ine.add.MAD.112698",
      "street": "R CARIDADE PESTANA",
      "house": "4",
      "postcode": "9060-049",
      "city": "FUNCHAL",
      "lon": "-16.874064667718127",
      "lat": "32.65585161674356"
    },
    {
      "id": "pt.ine.add.MAD.112702",
      "street": "R CARIDADE PESTANA",
      "house": "4",
      "postcode": "9060-049",
      "city": "FUNCHAL",
      "lon": "-16.874064667718127",
      "lat": "32.65585161674356"
    },
    {
      "id": "pt.ine.add.MAD.112703",
      "street": "R CARIDADE PESTANA",
      "house": "4",
      "postcode": "9060-049",
      "city": "FUNCHAL",
      "lon": "-16.874064667718127",
      "lat": "32.65585161674356"
    },
    {
      "id": "pt.ine.add.MAD.112704",
      "street": "R CARIDADE PESTANA",
      "house": "4",
      "postcode": "9060-049",
      "city": "FUNCHAL",
      "lon": "-16.874064667718127",
      "lat": "32.65585161674356"
    },
    {
      "id": "pt.ine.add.MAD.112705",
      "street": "R CARIDADE PESTANA",
      "house": "4",
      "postcode": "9060-049",
      "city": "FUNCHAL",
      "lon": "-16.874064667718127",
      "lat": "32.65585161674356"
    },
    {
      "id": "pt.ine.add.MAD.112706",
      "street": "R CARIDADE PESTANA",
      "house": "4",
      "postcode": "9060-049",
      "city": "FUNCHAL",
      "lon": "-16.874064667718127",
      "lat": "32.65585161674356"
    },
    {
      "id": "pt.ine.add.MAD.115285",
      "street": "R CARIDADE PESTANA",
      "house": "109",
      "postcode": "9060-049",
      "city": "FUNCHAL",
      "lon": "-16.874251805041467",
      "lat": "32.65562335046649"
    },
    {
      "id": "pt.ine.add.MAD.119828",
      "street": "R CARIDADE PESTANA",
      "house": "101",
      "postcode": "9060-049",
      "city": "FUNCHAL",
      "lon": "-16.873921666423023",
      "lat": "32.656151374356575"
    },
    {
      "id": "pt.ine.add.MAD.119829",
      "street": "R CARIDADE PESTANA",
      "house": "101",
      "postcode": "9060-049",
      "city": "FUNCHAL",
      "lon": "-16.873921666423023",
      "lat": "32.656151374356575"
    },
    {
      "id": "pt.ine.add.MAD.119830",
      "street": "R CARIDADE PESTANA",
      "house": "101",
      "postcode": "9060-049",
      "city": "FUNCHAL",
      "lon": "-16.873921666423023",
      "lat": "32.656151374356575"
    },
    {
      "id": "pt.ine.add.MAD.119831",
      "street": "R CARIDADE PESTANA",
      "house": "101",
      "postcode": "9060-049",
      "city": "FUNCHAL",
      "lon": "-16.873921666423023",
      "lat": "32.656151374356575"
    },
    {
      "id": "pt.ine.add.MAD.120327",
      "street": "R CARIDADE PESTANA",
      "house": "65",
      "postcode": "9060-049",
      "city": "FUNCHAL",
      "lon": "-16.873568956520106",
      "lat": "32.657130676648634"
    },
    {
      "id": "pt.ine.add.MAD.120844",
      "street": "R CARIDADE PESTANA",
      "house": "51",
      "postcode": "9060-049",
      "city": "FUNCHAL",
      "lon": "-16.874397649074705",
      "lat": "32.65699203598153"
    },
    {
      "id": "pt.ine.add.MAD.121335",
      "street": "R CARIDADE PESTANA",
      "house": "97",
      "postcode": "9060-049",
      "city": "FUNCHAL",
      "lon": "-16.874520133824202",
      "lat": "32.65570953052789"
    },
    {
      "id": "pt.ine.add.MAD.122484",
      "street": "R CARIDADE PESTANA",
      "house": "5",
      "postcode": "9060-049",
      "city": "FUNCHAL",
      "lon": "-16.873982791519737",
      "lat": "32.656015178796544"
    },
    {
      "id": "pt.ine.add.MAD.122507",
      "street": "R CARIDADE PESTANA",
      "house": "83",
      "postcode": "9060-049",
      "city": "FUNCHAL",
      "lon": "-16.874552366409457",
      "lat": "32.656232141876295"
    },
    {
      "id": "pt.ine.add.MAD.122508",
      "street": "R CARIDADE PESTANA",
      "house": "79",
      "postcode": "9060-049",
      "city": "FUNCHAL",
      "lon": "-16.874566788858942",
      "lat": "32.656412303255564"
    },
    {
      "id": "pt.ine.add.MAD.122524",
      "street": "ESTR CAMACHA",
      "house": "122",
      "postcode": "9060-009",
      "city": "FUNCHAL",
      "lon": "-16.87262683686203",
      "lat": "32.659498659255455"
    },
    {
      "id": "pt.ine.add.MAD.123265",
      "street": "R CARIDADE PESTANA",
      "house": "59",
      "postcode": "9060-049",
      "city": "FUNCHAL",
      "lon": "-16.8740777884313",
      "lat": "32.657501869044715"
    },
    {
      "id": "pt.ine.add.MAD.125231",
      "street": "R CARIDADE PESTANA",
      "house": "4",
      "postcode": "9060-049",
      "city": "FUNCHAL",
      "lon": "-16.874064667718127",
      "lat": "32.65585161674356"
    },
    {
      "id": "pt.ine.add.MAD.126107",
      "street": "R CARIDADE PESTANA",
      "house": "101",
      "postcode": "9060-049",
      "city": "FUNCHAL",
      "lon": "-16.873921666423023",
      "lat": "32.656151374356575"
    },
    {
      "id": "pt.ine.add.MAD.126126",
      "street": "ESTR CAMACHA",
      "house": "102",
      "postcode": "9060-009",
      "city": "FUNCHAL",
      "lon": "-16.87525111931507",
      "lat": "32.65752943256045"
    },
    {
      "id": "pt.ine.add.MAD.127693",
      "street": "R CARIDADE PESTANA",
      "house": "77",
      "postcode": "9060-049",
      "city": "FUNCHAL",
      "lon": "-16.87441908314053",
      "lat": "32.656486660620125"
    },
    {
      "id": "pt.ine.add.MAD.128248",
      "street": "R CARIDADE PESTANA",
      "house": "21",
      "postcode": "9060-049",
      "city": "FUNCHAL",
      "lon": "-16.87579339516571",
      "lat": "32.656439066060805"
    },
    {
      "id": "pt.ine.add.MAD.129240",
      "street": "R BALANCAL MIMOSAS",
      "house": "21",
      "postcode": "9060-414",
      "city": "FUNCHAL",
      "lon": "-16.871696813382872",
      "lat": "32.65477764160637"
    },
    {
      "id": "pt.ine.add.MAD.129446",
      "street": "R CARIDADE PESTANA",
      "house": "71",
      "postcode": "9060-049",
      "city": "FUNCHAL",
      "lon": "-16.873791956273053",
      "lat": "32.65657719714203"
    }
  ]
}