{
  "data": {
    "distrito": "Coimbra",
    "concelho": "Figueira da Foz",
    "freguesia": "Alhadas",
    "OBJECTID": 409,
    "BGRI2021": "06051900410",
    "DT21": "06",
    "DTMN21": "0605",
    "DTMNFR21": "060519",
    "DTMNFRSEC21": "060519004",
    "SECNUM21": "004",
    "SSNUM21": "10",
    "SECSSNUM21": "00410",
    "OBJECTID_1": 51033,
    "DT": "06",
    "CC": "05",
    "fr": "19",
    "SEC": "004",
    "SS": "10"
  },
  "addresses": [
    {
      "id": "pt.ine.add.PTCONT.1113195",
      "street": "R FANATES",
      "house": "81",
      "postcode": "3090-426",
      "city": "FIGUEIRA DA FOZ",
      "lon": "-8.753921783808726",
      "lat": "40.20108153208146"
    },
    {
      "id": "pt.ine.add.PTCONT.1122748",
      "street": "R NSA SRA DA GUADALUPE",
      "house": "J2",
      "postcode": "3090-419",
      "city": "FIGUEIRA DA FOZ",
      "lon": "-8.757840078819092",
      "lat": "40.19931332746738"
    },
    {
      "id": "pt.ine.add.PTCONT.1122749",
      "street": "R FANATES",
      "house": "",
      "postcode": "3090-426",
      "city": "FIGUEIRA DA FOZ",
      "lon": "-8.752571534812871",
      "lat": "40.19596446516334"
    },
    {
      "id": "pt.ine.add.PTCONT.1131807",
      "street": "R FANATES",
      "house": "37",
      "postcode": "3090-426",
      "city": "FIGUEIRA DA FOZ",
      "lon": "-8.753715077486559",
      "lat": "40.196444653615686"
    },
    {
      "id": "pt.ine.add.PTCONT.1141879",
      "street": "LG CAPELA",
      "house": "5",
      "postcode": "3090-419",
      "city": "FIGUEIRA DA FOZ",
      "lon": "-8.757196822268858",
      "lat": "40.19832615935661"
    },
    {
      "id": "pt.ine.add.PTCONT.1158027",
      "street": "R PITANCAS",
      "house": "2",
      "postcode": "3090-419",
      "city": "FIGUEIRA DA FOZ",
      "lon": "-8.756817885244345",
      "lat": "40.1979859812739"
    },
    {
      "id": "pt.ine.add.PTCONT.1163009",
      "street": "R PONTE VELHA",
      "house": "15",
      "postcode": "3090-415",
      "city": "FIGUEIRA DA FOZ",
      "lon": "-8.753458534566334",
      "lat": "40.19535632636845"
    },
    {
      "id": "pt.ine.add.PTCONT.1166656",
      "street": "R FANATES",
      "house": "35",
      "postcode": "3090-426",
      "city": "FIGUEIRA DA FOZ",
      "lon": "-8.75364519125905",
      "lat": "40.19650806888221"
    },
    {
      "id": "pt.ine.add.PTCONT.1166846",
      "street": "LG CAPELA",
      "house": "5",
      "postcode": "3090-419",
      "city": "FIGUEIRA DA FOZ",
      "lon": "-8.757248917002446",
      "lat": "40.19888423802492"
    },
    {
      "id": "pt.ine.add.PTCONT.1178272",
      "street": "R NSA SRA DA GUADALUPE",
      "house": "5",
      "postcode": "3090-419",
      "city": "FIGUEIRA DA FOZ",
      "lon": "-8.75689924119809",
      "lat": "40.19917430838264"
    },
    {
      "id": "pt.ine.add.PTCONT.1200100",
      "street": "R FANATES",
      "house": "41",
      "postcode": "3090-426",
      "city": "FIGUEIRA DA FOZ",
      "lon": "-8.754001027842019",
      "lat": "40.196893410405615"
    },
    {
      "id": "pt.ine.add.PTCONT.1209827",
      "street": "R PONTE VELHA",
      "house": "14",
      "postcode": "3090-415",
      "city": "FIGUEIRA DA FOZ",
      "lon": "-8.75387037086914",
      "lat": "40.1954441767283"
    },
    {
      "id": "pt.ine.add.PTCONT.1242359",
      "street": "R FANATES",
      "house": "81",
      "postcode": "3090-426",
      "city": "FIGUEIRA DA FOZ",
      "lon": "-8.753873738954116",
      "lat": "40.20096471438572"
    },
    {
      "id": "pt.ine.add.PTCONT.1257366",
      "street": "R FANATES",
      "house": "",
      "postcode": "3090-426",
      "city": "FIGUEIRA DA FOZ",
      "lon": "-8.753813785778336",
      "lat": "40.20082994892813"
    },
    {
      "id": "pt.ine.add.PTCONT.1261433",
      "street": "R LOMBA",
      "house": "40",
      "postcode": "3090-415",
      "city": "FIGUEIRA DA FOZ",
      "lon": "-8.754307510750131",
      "lat": "40.19701784739509"
    },
    {
      "id": "pt.ine.add.PTCONT.1294098",
      "street": "R LOMBA",
      "house": "4",
      "postcode": "3090-415",
      "city": "FIGUEIRA DA FOZ",
      "lon": "-8.754241075714207",
      "lat": "40.19745948817325"
    },
    {
      "id": "pt.ine.add.PTCONT.1303917",
      "street": "R FANATES",
      "house": "77",
      "postcode": "3090-426",
      "city": "FIGUEIRA DA FOZ",
      "lon": "-8.75413005839387",
      "lat": "40.20073819465941"
    },
    {
      "id": "pt.ine.add.PTCONT.1305853",
      "street": "R NSA SRA DA GUADALUPE",
      "house": "20",
      "postcode": "3090-419",
      "city": "FIGUEIRA DA FOZ",
      "lon": "-8.758746184880657",
      "lat": "40.199506561392155"
    },
    {
      "id": "pt.ine.add.PTCONT.1338318",
      "street": "R PONTE VELHA",
      "house": "26",
      "postcode": "3090-415",
      "city": "FIGUEIRA DA FOZ",
      "lon": "-8.753536469805052",
      "lat": "40.19488760682212"
    },
    {
      "id": "pt.ine.add.PTCONT.1354473",
      "street": "R PONTE VELHA",
      "house": "20",
      "postcode": "3090-415",
      "city": "FIGUEIRA DA FOZ",
      "lon": "-8.753782256141841",
      "lat": "40.19479623121757"
    }
  ]
}