{
  "data": {
    "distrito": "Lisboa",
    "concelho": "Arruda dos Vinhos",
    "freguesia": "Arruda dos Vinhos",
    "OBJECTID": 52,
    "BGRI2021": "11020200409",
    "DT21": "11",
    "DTMN21": "1102",
    "DTMNFR21": "110202",
    "DTMNFRSEC21": "110202004",
    "SECNUM21": "004",
    "SSNUM21": "09",
    "SECSSNUM21": "00409",
    "OBJECTID_1": 99588,
    "DT": "11",
    "CC": "02",
    "fr": "02",
    "SEC": "004",
    "SS": "09"
  },
  "addresses": [
    {
      "id": "pt.ine.add.PTCONT.2304542",
      "street": "CSL BATALHA CASA PALMEIRAS",
      "house": "",
      "postcode": "2630-326",
      "city": "ARRUDA DOS VINHOS",
      "lon": "-9.087479462277095",
      "lat": "39.0099167930015"
    },
    {
      "id": "pt.ine.add.PTCONT.2313601",
      "street": "CSL LAPÃO",
      "house": "",
      "postcode": "2630-326",
      "city": "ARRUDA DOS VINHOS",
      "lon": "-9.085595641003932",
      "lat": "39.01923690474537"
    },
    {
      "id": "pt.ine.add.PTCONT.2555701",
      "street": "CSL LAPÃO",
      "house": "",
      "postcode": "2630-326",
      "city": "ARRUDA DOS VINHOS",
      "lon": "-9.087882179318818",
      "lat": "39.017542823946116"
    },
    {
      "id": "pt.ine.add.PTCONT.2555702",
      "street": "CSL BISPO",
      "house": "",
      "postcode": "2630-334",
      "city": "ARRUDA DOS VINHOS",
      "lon": "-9.089283220276284",
      "lat": "39.014405757863045"
    },
    {
      "id": "pt.ine.add.PTCONT.2764366",
      "street": "",
      "house": "",
      "postcode": "2630-334",
      "city": "ARRUDA DOS VINHOS",
      "lon": "-9.089879274692896",
      "lat": "39.01494131864551"
    },
    {
      "id": "pt.ine.add.PTCONT.2829318",
      "street": "CSL CARVALHO",
      "house": "25",
      "postcode": "2630-326",
      "city": "ARRUDA DOS VINHOS",
      "lon": "-9.089583742668083",
      "lat": "39.01443031658248"
    },
    {
      "id": "pt.ine.add.PTCONT.2954216",
      "street": "",
      "house": "",
      "postcode": "2630-326",
      "city": "ARRUDA DOS VINHOS",
      "lon": "-9.085812882737635",
      "lat": "39.02165813743214"
    },
    {
      "id": "pt.ine.add.PTCONT.2954219",
      "street": "",
      "house": "",
      "postcode": "2630-334",
      "city": "ARRUDA DOS VINHOS",
      "lon": "-9.09017894966089",
      "lat": "39.01490283050715"
    },
    {
      "id": "pt.ine.add.PTCONT.2990286",
      "street": "CSL LAPÃO",
      "house": "",
      "postcode": "2630-326",
      "city": "ARRUDA DOS VINHOS",
      "lon": "-9.087707307770998",
      "lat": "39.01741815062977"
    },
    {
      "id": "pt.ine.add.PTCONT.3008489",
      "street": "",
      "house": "",
      "postcode": "2630-334",
      "city": "ARRUDA DOS VINHOS",
      "lon": "-9.087846734524952",
      "lat": "39.01662435272572"
    },
    {
      "id": "pt.ine.add.PTCONT.3110810",
      "street": "CSL CARVALHO CASAL DO CARVALHO",
      "house": "",
      "postcode": "2630-326",
      "city": "ARRUDA DOS VINHOS",
      "lon": "-9.08743351594488",
      "lat": "39.01251132111648"
    },
    {
      "id": "pt.ine.add.PTCONT.3110811",
      "street": "CSL CARVALHO",
      "house": "",
      "postcode": "2630-326",
      "city": "ARRUDA DOS VINHOS",
      "lon": "-9.087653462130275",
      "lat": "39.012554558942035"
    },
    {
      "id": "pt.ine.add.PTCONT.3240963",
      "street": "CSL LAPÃO FAMILIA FERNANDES",
      "house": "",
      "postcode": "2630-326",
      "city": "ARRUDA DOS VINHOS",
      "lon": "-9.08586662377921",
      "lat": "39.019640027522314"
    },
    {
      "id": "pt.ine.add.PTCONT.3268330",
      "street": "CSL ARRAIOIS",
      "house": "",
      "postcode": "2630-348",
      "city": "ARRUDA DOS VINHOS",
      "lon": "-9.087919948975681",
      "lat": "39.01262443784139"
    },
    {
      "id": "pt.ine.add.PTCONT.3305028",
      "street": "CSL LAPÃO",
      "house": "",
      "postcode": "2630-326",
      "city": "ARRUDA DOS VINHOS",
      "lon": "-9.087803301752409",
      "lat": "39.017687588934464"
    },
    {
      "id": "pt.ine.add.PTCONT.3314505",
      "street": "CSL ARRAIOIS",
      "house": "",
      "postcode": "2630-348",
      "city": "ARRUDA DOS VINHOS",
      "lon": "-9.086349317665182",
      "lat": "39.01087181807377"
    },
    {
      "id": "pt.ine.add.PTCONT.3393754",
      "street": "CSL BISPO",
      "house": "",
      "postcode": "2630-334",
      "city": "ARRUDA DOS VINHOS",
      "lon": "-9.089286010051273",
      "lat": "39.014612906738634"
    }
  ]
}