{
  "data": {
    "distrito": "Braga",
    "concelho": "Vila Verde",
    "freguesia": "Cervães",
    "OBJECTID": 361,
    "BGRI2021": "03130900212",
    "DT21": "03",
    "DTMN21": "0313",
    "DTMNFR21": "031309",
    "DTMNFRSEC21": "031309002",
    "SECNUM21": "002",
    "SSNUM21": "12",
    "SECSSNUM21": "00212",
    "OBJECTID_1": 31799,
    "DT": "03",
    "CC": "13",
    "fr": "09",
    "SEC": "002",
    "SS": "12"
  },
  "addresses": [
    {
      "id": "pt.ine.add.PTCONT.460336",
      "street": "TV CALEIRO DE S PEDRO",
      "house": "2",
      "postcode": "4730-006",
      "city": "CERVÃES",
      "lon": "-8.528631382436206",
      "lat": "41.59968122662385"
    },
    {
      "id": "pt.ine.add.PTCONT.464139",
      "street": "LOTEAM S PEDRO",
      "house": "8",
      "postcode": "4730-006",
      "city": "CERVÃES",
      "lon": "-8.526808074866414",
      "lat": "41.59966947750987"
    },
    {
      "id": "pt.ine.add.PTCONT.472952",
      "street": "TV S PEDRO 2",
      "house": "4",
      "postcode": "4730-019",
      "city": "CERVÃES",
      "lon": "-8.527237255405668",
      "lat": "41.59923583088615"
    },
    {
      "id": "pt.ine.add.PTCONT.487991",
      "street": "LOTEAM S PEDRO",
      "house": "2",
      "postcode": "4730-006",
      "city": "CERVÃES",
      "lon": "-8.52705941648355",
      "lat": "41.59957857984544"
    },
    {
      "id": "pt.ine.add.PTCONT.493248",
      "street": "R CALEIRO",
      "house": "7",
      "postcode": "4730-006",
      "city": "CERVÃES",
      "lon": "-8.527885295267694",
      "lat": "41.59928762950324"
    },
    {
      "id": "pt.ine.add.PTCONT.511509",
      "street": "R S PEDRO",
      "house": "1",
      "postcode": "4730-019",
      "city": "CERVÃES",
      "lon": "-8.525225538850476",
      "lat": "41.597820129710755"
    },
    {
      "id": "pt.ine.add.PTCONT.517033",
      "street": "LOTEAM S PEDRO",
      "house": "1",
      "postcode": "4730-006",
      "city": "CERVÃES",
      "lon": "-8.526758509259343",
      "lat": "41.59940854082306"
    },
    {
      "id": "pt.ine.add.PTCONT.517034",
      "street": "R S PEDRO",
      "house": "6",
      "postcode": "4730-019",
      "city": "CERVÃES",
      "lon": "-8.52543173347768",
      "lat": "41.59819758049112"
    },
    {
      "id": "pt.ine.add.PTCONT.547354",
      "street": "R CALEIRO",
      "house": "11",
      "postcode": "4730-006",
      "city": "CERVÃES",
      "lon": "-8.528124474533755",
      "lat": "41.59916976026028"
    },
    {
      "id": "pt.ine.add.PTCONT.568585",
      "street": "LOTEAM S PEDRO",
      "house": "7",
      "postcode": "4730-006",
      "city": "CERVÃES",
      "lon": "-8.526507167872799",
      "lat": "41.59949943783126"
    },
    {
      "id": "pt.ine.add.PTCONT.598790",
      "street": "TV CALEIRO DE S PEDRO",
      "house": "",
      "postcode": "4730-006",
      "city": "CERVÃES",
      "lon": "-8.528306810831548",
      "lat": "41.59956529508538"
    },
    {
      "id": "pt.ine.add.PTCONT.617778",
      "street": "TV S PEDRO 2",
      "house": "5",
      "postcode": "4730-019",
      "city": "CERVÃES",
      "lon": "-8.52661304173926",
      "lat": "41.59915693605729"
    },
    {
      "id": "pt.ine.add.PTCONT.630324",
      "street": "TV CALEIRO",
      "house": "2",
      "postcode": "4730-006",
      "city": "CERVÃES",
      "lon": "-8.52858175451376",
      "lat": "41.599411287275665"
    },
    {
      "id": "pt.ine.add.PTCONT.635376",
      "street": "R S PEDRO",
      "house": "4",
      "postcode": "4730-019",
      "city": "CERVÃES",
      "lon": "-8.525634875391791",
      "lat": "41.598070835702266"
    },
    {
      "id": "pt.ine.add.PTCONT.636542",
      "street": "R S PEDRO",
      "house": "10",
      "postcode": "4730-019",
      "city": "CERVÃES",
      "lon": "-8.52614328461075",
      "lat": "41.598834410813616"
    },
    {
      "id": "pt.ine.add.PTCONT.646999",
      "street": "TV S PEDRO 2",
      "house": "6",
      "postcode": "4730-019",
      "city": "CERVÃES",
      "lon": "-8.527348220954854",
      "lat": "41.599730652238364"
    },
    {
      "id": "pt.ine.add.PTCONT.662396",
      "street": "R CALEIRO",
      "house": "9",
      "postcode": "4730-006",
      "city": "CERVÃES",
      "lon": "-8.527980593871487",
      "lat": "41.59917925819381"
    },
    {
      "id": "pt.ine.add.PTCONT.673272",
      "street": "R MACHINCA LEIROINHA",
      "house": "36",
      "postcode": "4730-103",
      "city": "CERVÃES",
      "lon": "-8.529317174255198",
      "lat": "41.60002100466667"
    },
    {
      "id": "pt.ine.add.PTCONT.673273",
      "street": "LOTEAM S PEDRO",
      "house": "70",
      "postcode": "4730-006",
      "city": "CERVÃES",
      "lon": "-8.526736270661553",
      "lat": "41.599696734382185"
    },
    {
      "id": "pt.ine.add.PTCONT.678474",
      "street": "LOTEAM S PEDRO",
      "house": "12",
      "postcode": "4730-006",
      "city": "CERVÃES",
      "lon": "-8.526652526362426",
      "lat": "41.59973303575093"
    },
    {
      "id": "pt.ine.add.PTCONT.682218",
      "street": "TV S PEDRO 1",
      "house": "7",
      "postcode": "4730-019",
      "city": "CERVÃES",
      "lon": "-8.526246591226545",
      "lat": "41.598068745560816"
    },
    {
      "id": "pt.ine.add.PTCONT.697507",
      "street": "LOMBÃO",
      "house": "",
      "postcode": "4730-100",
      "city": "CERVÃES",
      "lon": "-8.528930370234026",
      "lat": "41.59953613893189"
    },
    {
      "id": "pt.ine.add.PTCONT.700103",
      "street": "LOTEAM S PEDRO",
      "house": "5",
      "postcode": "4730-006",
      "city": "CERVÃES",
      "lon": "-8.526578917268017",
      "lat": "41.59946317761937"
    },
    {
      "id": "pt.ine.add.PTCONT.705937",
      "street": "R S PEDRO",
      "house": "2",
      "postcode": "4730-019",
      "city": "CERVÃES",
      "lon": "-8.525346409428645",
      "lat": "41.597972779827636"
    },
    {
      "id": "pt.ine.add.PTCONT.718107",
      "street": "LOTEAM S PEDRO",
      "house": "3",
      "postcode": "4730-006",
      "city": "CERVÃES",
      "lon": "-8.526662770662448",
      "lat": "41.599444883268355"
    },
    {
      "id": "pt.ine.add.PTCONT.729920",
      "street": "LOTEAM S PEDRO",
      "house": "6",
      "postcode": "4730-006",
      "city": "CERVÃES",
      "lon": "-8.526891873728502",
      "lat": "41.59964217950983"
    },
    {
      "id": "pt.ine.add.PTCONT.761107",
      "street": "TV S PEDRO 1",
      "house": "9",
      "postcode": "4730-019",
      "city": "CERVÃES",
      "lon": "-8.526571534469339",
      "lat": "41.59824770738421"
    },
    {
      "id": "pt.ine.add.PTCONT.777898",
      "street": "TV CALEIRO DE S PEDRO",
      "house": "5",
      "postcode": "4730-006",
      "city": "CERVÃES",
      "lon": "-8.527924297400013",
      "lat": "41.59978269737481"
    },
    {
      "id": "pt.ine.add.PTCONT.777899",
      "street": "TV CALEIRO DE S PEDRO",
      "house": "5",
      "postcode": "4730-006",
      "city": "CERVÃES",
      "lon": "-8.527924297400013",
      "lat": "41.59978269737481"
    },
    {
      "id": "pt.ine.add.PTCONT.781117",
      "street": "R CALEIRO",
      "house": "3",
      "postcode": "4730-006",
      "city": "CERVÃES",
      "lon": "-8.526872490518537",
      "lat": "41.5984267504396"
    },
    {
      "id": "pt.ine.add.PTCONT.783245",
      "street": "TV S PEDRO 1",
      "house": "5",
      "postcode": "4730-019",
      "city": "CERVÃES",
      "lon": "-8.526089352829084",
      "lat": "41.59785319500735"
    },
    {
      "id": "pt.ine.add.PTCONT.786800",
      "street": "R MACHINCA LEIROINHA",
      "house": "22",
      "postcode": "4730-103",
      "city": "CERVÃES",
      "lon": "-8.526392741990994",
      "lat": "41.600409199854084"
    },
    {
      "id": "pt.ine.add.PTCONT.786987",
      "street": "R S PEDRO",
      "house": "8",
      "postcode": "4730-019",
      "city": "CERVÃES",
      "lon": "-8.525840636531846",
      "lat": "41.59837625784047"
    },
    {
      "id": "pt.ine.add.PTCONT.804517",
      "street": "R S PEDRO",
      "house": "3",
      "postcode": "4730-019",
      "city": "CERVÃES",
      "lon": "-8.525585588518917",
      "lat": "41.59785491584062"
    },
    {
      "id": "pt.ine.add.PTCONT.819306",
      "street": "R MACHINCA LEIROINHA",
      "house": "26",
      "postcode": "4730-103",
      "city": "CERVÃES",
      "lon": "-8.52754375507459",
      "lat": "41.60032422367898"
    },
    {
      "id": "pt.ine.add.PTCONT.830705",
      "street": "TV S PEDRO 2",
      "house": "8",
      "postcode": "4730-019",
      "city": "CERVÃES",
      "lon": "-8.52643410634171",
      "lat": "41.599319614419066"
    },
    {
      "id": "pt.ine.add.PTCONT.834839",
      "street": "R S PEDRO",
      "house": "8",
      "postcode": "4730-019",
      "city": "CERVÃES",
      "lon": "-8.52573328643033",
      "lat": "41.5984756648794"
    },
    {
      "id": "pt.ine.add.PTCONT.842298",
      "street": "LOTEAM S PEDRO",
      "house": "4",
      "postcode": "4730-006",
      "city": "CERVÃES",
      "lon": "-8.5269876672323",
      "lat": "41.59961484035586"
    },
    {
      "id": "pt.ine.add.PTCONT.846670",
      "street": "R S PEDRO",
      "house": "12",
      "postcode": "4730-019",
      "city": "CERVÃES",
      "lon": "-8.52613303807505",
      "lat": "41.59912256329018"
    },
    {
      "id": "pt.ine.add.PTCONT.848359",
      "street": "TV CALEIRO DE S PEDRO",
      "house": "8",
      "postcode": "4730-006",
      "city": "CERVÃES",
      "lon": "-8.527601919809493",
      "lat": "41.600026903061064"
    }
  ]
}