{
  "data": {
    "distrito": "Lisboa",
    "concelho": "Sintra",
    "freguesia": "União das freguesias de São João das Lampas e Terrugem",
    "OBJECTID": 1586,
    "BGRI2021": "11112701401",
    "DT21": "11",
    "DTMN21": "1111",
    "DTMNFR21": "111127",
    "DTMNFRSEC21": "111127014",
    "SECNUM21": "014",
    "SSNUM21": "01",
    "SECSSNUM21": "01401",
    "OBJECTID_1": 112637,
    "DT": "11",
    "CC": "11",
    "fr": "27",
    "SEC": "014",
    "SS": "01"
  },
  "addresses": [
    {
      "id": "pt.ine.add.PTCONT.2444001",
      "street": "R ULMEIRO",
      "house": "66",
      "postcode": "2705-900",
      "city": "TERRUGEM SNT",
      "lon": "-9.376986692568124",
      "lat": "38.83126501902205"
    },
    {
      "id": "pt.ine.add.PTCONT.2610318",
      "street": "R ULMEIRO",
      "house": "64",
      "postcode": "2705-900",
      "city": "TERRUGEM SNT",
      "lon": "-9.377014736561689",
      "lat": "38.83155296212899"
    },
    {
      "id": "pt.ine.add.PTCONT.2742348",
      "street": "R ULMEIRO",
      "house": "",
      "postcode": "2705-900",
      "city": "TERRUGEM SNT",
      "lon": "-9.376691168233455",
      "lat": "38.830826795533355"
    },
    {
      "id": "pt.ine.add.PTCONT.2859780",
      "street": "R SEM NOME QTA DA POPA",
      "house": "",
      "postcode": "2705-863",
      "city": "TERRUGEM SNT",
      "lon": "-9.379939823163681",
      "lat": "38.83485456828052"
    },
    {
      "id": "pt.ine.add.PTCONT.3015585",
      "street": "R BARRO AZUL",
      "house": "1",
      "postcode": "2705-835",
      "city": "TERRUGEM SNT",
      "lon": "-9.38598296076163",
      "lat": "38.834681811882476"
    },
    {
      "id": "pt.ine.add.PTCONT.3034434",
      "street": "R BARRO AZUL",
      "house": "08",
      "postcode": "2705-835",
      "city": "TERRUGEM SNT",
      "lon": "-9.386255261535458",
      "lat": "38.83707489675454"
    },
    {
      "id": "pt.ine.add.PTCONT.3034435",
      "street": "R BARRO AZUL",
      "house": "08",
      "postcode": "2705-835",
      "city": "TERRUGEM SNT",
      "lon": "-9.386255261535458",
      "lat": "38.83707489675454"
    },
    {
      "id": "pt.ine.add.PTCONT.3133998",
      "street": "R PEDRA ALTA",
      "house": "102",
      "postcode": "2705-835",
      "city": "TERRUGEM SNT",
      "lon": "-9.376870471356776",
      "lat": "38.83252731423957"
    },
    {
      "id": "pt.ine.add.PTCONT.3133999",
      "street": "R PEDRA ALTA",
      "house": "102",
      "postcode": "2705-835",
      "city": "TERRUGEM SNT",
      "lon": "-9.376870471356776",
      "lat": "38.83252731423957"
    },
    {
      "id": "pt.ine.add.PTCONT.3162629",
      "street": "R ULMEIRO",
      "house": "62",
      "postcode": "2705-900",
      "city": "TERRUGEM SNT",
      "lon": "-9.3770174015492",
      "lat": "38.83170606217652"
    }
  ]
}