{
  "data": {
    "distrito": "Lisboa",
    "concelho": "Sintra",
    "freguesia": "União das freguesias de São João das Lampas e Terrugem",
    "OBJECTID": 1749,
    "BGRI2021": "11112701406",
    "DT21": "11",
    "DTMN21": "1111",
    "DTMNFR21": "111127",
    "DTMNFRSEC21": "111127014",
    "SECNUM21": "014",
    "SSNUM21": "06",
    "SECSSNUM21": "01406",
    "OBJECTID_1": 114381,
    "DT": "11",
    "CC": "11",
    "fr": "27",
    "SEC": "014",
    "SS": "06"
  },
  "addresses": [
    {
      "id": "pt.ine.add.PTCONT.2309300",
      "street": "LG TITTO DE MORAIS",
      "house": "6",
      "postcode": "2705-831",
      "city": "TERRUGEM SNT",
      "lon": "-9.379617717638187",
      "lat": "38.84213610066103"
    },
    {
      "id": "pt.ine.add.PTCONT.2309301",
      "street": "LG TITTO DE MORAIS",
      "house": "6",
      "postcode": "2705-831",
      "city": "TERRUGEM SNT",
      "lon": "-9.379617717638187",
      "lat": "38.84213610066103"
    },
    {
      "id": "pt.ine.add.PTCONT.2309309",
      "street": "LG TITTO MORAIS",
      "house": "",
      "postcode": "2705-831",
      "city": "TERRUGEM SNT",
      "lon": "-9.379617717638187",
      "lat": "38.84213610066103"
    },
    {
      "id": "pt.ine.add.PTCONT.2391292",
      "street": "LG FONTE",
      "house": "01",
      "postcode": "2705-835",
      "city": "TERRUGEM SNT",
      "lon": "-9.385793946398202",
      "lat": "38.84032255891561"
    },
    {
      "id": "pt.ine.add.PTCONT.2409815",
      "street": "LG ROSSIO DAS OLIVEIRAS",
      "house": "3",
      "postcode": "2705-835",
      "city": "TERRUGEM SNT",
      "lon": "-9.384926034426652",
      "lat": "38.8387735604882"
    },
    {
      "id": "pt.ine.add.PTCONT.2428075",
      "street": "R CAMPO",
      "house": "9",
      "postcode": "2705-835",
      "city": "TERRUGEM SNT",
      "lon": "-9.38116695679818",
      "lat": "38.838516540377704"
    },
    {
      "id": "pt.ine.add.PTCONT.2499650",
      "street": "LG ROSSIO DAS OLIVEIRAS",
      "house": "1A",
      "postcode": "2705-835",
      "city": "TERRUGEM SNT",
      "lon": "-9.38467002288067",
      "lat": "38.838623175947326"
    },
    {
      "id": "pt.ine.add.PTCONT.2590349",
      "street": "ESTR ALPOLENTIM",
      "house": "65",
      "postcode": "2705-835",
      "city": "TERRUGEM SNT",
      "lon": "-9.385699310154555",
      "lat": "38.84083700338573"
    },
    {
      "id": "pt.ine.add.PTCONT.2592494",
      "street": "R CAMPO",
      "house": "",
      "postcode": "2705-835",
      "city": "TERRUGEM SNT",
      "lon": "-9.382024910320276",
      "lat": "38.83818309796593"
    },
    {
      "id": "pt.ine.add.PTCONT.2614256",
      "street": "LG TITTO DE MORAIS",
      "house": "4",
      "postcode": "2705-831",
      "city": "TERRUGEM SNT",
      "lon": "-9.379849956064396",
      "lat": "38.84158416204327"
    },
    {
      "id": "pt.ine.add.PTCONT.2614258",
      "street": "R CAMPO",
      "house": "1",
      "postcode": "2705-835",
      "city": "TERRUGEM SNT",
      "lon": "-9.382827329432098",
      "lat": "38.837967341532725"
    },
    {
      "id": "pt.ine.add.PTCONT.2626307",
      "street": "R CAMPO DAS URZES",
      "house": "04",
      "postcode": "2705-835",
      "city": "TERRUGEM SNT",
      "lon": "-9.384833133246088",
      "lat": "38.84004461892266"
    },
    {
      "id": "pt.ine.add.PTCONT.2635393",
      "street": "R CAMPO DAS URZES",
      "house": "6",
      "postcode": "2705-835",
      "city": "TERRUGEM SNT",
      "lon": "-9.384604880592871",
      "lat": "38.84016416289522"
    },
    {
      "id": "pt.ine.add.PTCONT.2859779",
      "street": "ESTR ALPOLENTIM",
      "house": "",
      "postcode": "2705-835",
      "city": "TERRUGEM SNT",
      "lon": "-9.38542497627372",
      "lat": "38.83964194294729"
    },
    {
      "id": "pt.ine.add.PTCONT.2892114",
      "street": "LG FONTE",
      "house": "04",
      "postcode": "2705-835",
      "city": "TERRUGEM SNT",
      "lon": "-9.385274656381808",
      "lat": "38.84026507461139"
    },
    {
      "id": "pt.ine.add.PTCONT.2921871",
      "street": "R CAMPO",
      "house": "9",
      "postcode": "2705-835",
      "city": "TERRUGEM SNT",
      "lon": "-9.38074200447372",
      "lat": "38.83858413328402"
    },
    {
      "id": "pt.ine.add.PTCONT.2951046",
      "street": "R CASTELO",
      "house": "5",
      "postcode": "2705-835",
      "city": "TERRUGEM SNT",
      "lon": "-9.385211089694259",
      "lat": "38.84058101983621"
    },
    {
      "id": "pt.ine.add.PTCONT.3003704",
      "street": "LG TITTO DE MORAIS",
      "house": "6",
      "postcode": "2705-831",
      "city": "TERRUGEM SNT",
      "lon": "-9.37991649292754",
      "lat": "38.84209688140289"
    },
    {
      "id": "pt.ine.add.PTCONT.3003705",
      "street": "LG TITTO DE MORAIS",
      "house": "6",
      "postcode": "2705-831",
      "city": "TERRUGEM SNT",
      "lon": "-9.37991649292754",
      "lat": "38.84209688140289"
    },
    {
      "id": "pt.ine.add.PTCONT.3013390",
      "street": "ESTR ALPOLENTIM",
      "house": "37",
      "postcode": "2705-835",
      "city": "TERRUGEM SNT",
      "lon": "-9.384093943454968",
      "lat": "38.842556633367124"
    },
    {
      "id": "pt.ine.add.PTCONT.3031914",
      "street": "LG FONTE",
      "house": "2",
      "postcode": "2705-835",
      "city": "TERRUGEM SNT",
      "lon": "-9.385700561366518",
      "lat": "38.840251500187925"
    },
    {
      "id": "pt.ine.add.PTCONT.3059519",
      "street": "R CAMPO",
      "house": "7",
      "postcode": "2705-835",
      "city": "TERRUGEM SNT",
      "lon": "-9.381544117426259",
      "lat": "38.838350373823104"
    },
    {
      "id": "pt.ine.add.PTCONT.3068191",
      "street": "LG FONTE",
      "house": "3",
      "postcode": "2705-835",
      "city": "TERRUGEM SNT",
      "lon": "-9.385505118541797",
      "lat": "38.84027161114347"
    },
    {
      "id": "pt.ine.add.PTCONT.3190515",
      "street": "R PEDRA ALTA",
      "house": "9",
      "postcode": "2705-835",
      "city": "TERRUGEM SNT",
      "lon": "-9.38416904480033",
      "lat": "38.83829526422651"
    },
    {
      "id": "pt.ine.add.PTCONT.3190516",
      "street": "R CASTELO",
      "house": "07",
      "postcode": "2705-835",
      "city": "TERRUGEM SNT",
      "lon": "-9.385269928858516",
      "lat": "38.840652449321674"
    },
    {
      "id": "pt.ine.add.PTCONT.3254152",
      "street": "R PEDRA ALTA",
      "house": "7",
      "postcode": "2705-835",
      "city": "TERRUGEM SNT",
      "lon": "-9.384355491394258",
      "lat": "38.838419372535746"
    },
    {
      "id": "pt.ine.add.PTCONT.3282037",
      "street": "ESTR ALPOLENTIM",
      "house": "61",
      "postcode": "2705-835",
      "city": "TERRUGEM SNT",
      "lon": "-9.385654827979566",
      "lat": "38.84092755577881"
    },
    {
      "id": "pt.ine.add.PTCONT.3306608",
      "street": "LG FONTE",
      "house": "3",
      "postcode": "2705-835",
      "city": "TERRUGEM SNT",
      "lon": "-9.385346431331",
      "lat": "38.840417433198425"
    },
    {
      "id": "pt.ine.add.PTCONT.3346759",
      "street": "R CASTELO",
      "house": "1",
      "postcode": "2705-835",
      "city": "TERRUGEM SNT",
      "lon": "-9.3850560251175",
      "lat": "38.840276425880184"
    },
    {
      "id": "pt.ine.add.PTCONT.3366787",
      "street": "ESTR ALPOLENTIM",
      "house": "39",
      "postcode": "2705-835",
      "city": "TERRUGEM SNT",
      "lon": "-9.384220614931122",
      "lat": "38.84255527651591"
    },
    {
      "id": "pt.ine.add.PTCONT.3384222",
      "street": "R CAMPO",
      "house": "2",
      "postcode": "2705-835",
      "city": "TERRUGEM SNT",
      "lon": "-9.382328411352336",
      "lat": "38.837756497802964"
    },
    {
      "id": "pt.ine.add.PTCONT.3395228",
      "street": "R CASTELO",
      "house": "4",
      "postcode": "2705-835",
      "city": "TERRUGEM SNT",
      "lon": "-9.385042306352124",
      "lat": "38.840808017529646"
    },
    {
      "id": "pt.ine.add.PTCONT.3412944",
      "street": "R CASTELO",
      "house": "3",
      "postcode": "2705-835",
      "city": "TERRUGEM SNT",
      "lon": "-9.385068802954525",
      "lat": "38.84034834919965"
    },
    {
      "id": "pt.ine.add.PTCONT.3431045",
      "street": "R CAMPO DAS URZES",
      "house": "16",
      "postcode": "2705-835",
      "city": "TERRUGEM SNT",
      "lon": "-9.382053249205805",
      "lat": "38.83980415214401"
    },
    {
      "id": "pt.ine.add.PTCONT.3456802",
      "street": "R CAMPO DAS URZES",
      "house": "2",
      "postcode": "2705-835",
      "city": "TERRUGEM SNT",
      "lon": "-9.385119118763141",
      "lat": "38.83993346318332"
    }
  ]
}