{
  "data": {
    "distrito": "Lisboa",
    "concelho": "Sintra",
    "freguesia": "União das freguesias de São João das Lampas e Terrugem",
    "OBJECTID": 2896,
    "BGRI2021": "11112701413",
    "DT21": "11",
    "DTMN21": "1111",
    "DTMNFR21": "111127",
    "DTMNFRSEC21": "111127014",
    "SECNUM21": "014",
    "SSNUM21": "13",
    "SECSSNUM21": "01413",
    "OBJECTID_1": 111751,
    "DT": "11",
    "CC": "11",
    "fr": "27",
    "SEC": "014",
    "SS": "13"
  },
  "addresses": [
    {
      "id": "pt.ine.add.PTCONT.2344749",
      "street": "ESTR ALCOLOMBAL",
      "house": "13",
      "postcode": "2705-903",
      "city": "TERRUGEM SNT",
      "lon": "-9.376500250016155",
      "lat": "38.84566425503724"
    },
    {
      "id": "pt.ine.add.PTCONT.2679160",
      "street": "R POÇO DA TERRINHA",
      "house": "14",
      "postcode": "2705-861",
      "city": "TERRUGEM SNT",
      "lon": "-9.376739824173441",
      "lat": "38.84619314871753"
    },
    {
      "id": "pt.ine.add.PTCONT.2730322",
      "street": "R POÇO DA TERRINHA",
      "house": "12",
      "postcode": "2705-861",
      "city": "TERRUGEM SNT",
      "lon": "-9.376831640187637",
      "lat": "38.846174155926875"
    },
    {
      "id": "pt.ine.add.PTCONT.2762174",
      "street": "ESTR ALCOLOMBAL CASAL DAS MARIAS",
      "house": "19",
      "postcode": "2705-903",
      "city": "TERRUGEM SNT",
      "lon": "-9.376422458973357",
      "lat": "38.84582721881017"
    },
    {
      "id": "pt.ine.add.PTCONT.2912764",
      "street": "R POÇO DA TERRINHA",
      "house": "14",
      "postcode": "2705-861",
      "city": "TERRUGEM SNT",
      "lon": "-9.376741392283026",
      "lat": "38.84628320735264"
    },
    {
      "id": "pt.ine.add.PTCONT.2930820",
      "street": "R POÇO DA TERRINHA",
      "house": "10",
      "postcode": "2705-861",
      "city": "TERRUGEM SNT",
      "lon": "-9.376900580580395",
      "lat": "38.84616441421853"
    },
    {
      "id": "pt.ine.add.PTCONT.3049633",
      "street": "ESTR ALCOLOMBAL",
      "house": "23",
      "postcode": "2705-903",
      "city": "TERRUGEM SNT",
      "lon": "-9.376299073139066",
      "lat": "38.846017690475655"
    },
    {
      "id": "pt.ine.add.PTCONT.3078658",
      "street": "ESTR ALCOLOMBAL",
      "house": "N 1",
      "postcode": "2705-903",
      "city": "TERRUGEM SNT",
      "lon": "-9.376757750804058",
      "lat": "38.84523815921862"
    },
    {
      "id": "pt.ine.add.PTCONT.3124712",
      "street": "AV 29 DE AGOSTO",
      "house": "104",
      "postcode": "2705-869",
      "city": "TERRUGEM SNT",
      "lon": "-9.377197335061936",
      "lat": "38.84600812542745"
    },
    {
      "id": "pt.ine.add.PTCONT.3133968",
      "street": "R PADRE DIOGO BIRRANO",
      "house": "3",
      "postcode": "2705-853",
      "city": "TERRUGEM SNT",
      "lon": "-9.376500492289647",
      "lat": "38.8463398174938"
    },
    {
      "id": "pt.ine.add.PTCONT.3133969",
      "street": "R POÇO DA TERRINHA",
      "house": "16",
      "postcode": "2705-861",
      "city": "TERRUGEM SNT",
      "lon": "-9.376602727231361",
      "lat": "38.84625766122549"
    },
    {
      "id": "pt.ine.add.PTCONT.3153078",
      "street": "ESTR ALCOLOMBAL",
      "house": "7",
      "postcode": "2705-903",
      "city": "TERRUGEM SNT",
      "lon": "-9.376688811280287",
      "lat": "38.84524790082973"
    },
    {
      "id": "pt.ine.add.PTCONT.3155127",
      "street": "ESTR ALCOLOMBAL",
      "house": "7",
      "postcode": "2705-903",
      "city": "TERRUGEM SNT",
      "lon": "-9.376688811280287",
      "lat": "38.84524790082973"
    },
    {
      "id": "pt.ine.add.PTCONT.3190467",
      "street": "ESTR ALCOLOMBAL",
      "house": "1",
      "postcode": "2705-903",
      "city": "TERRUGEM SNT",
      "lon": "-9.376930177941132",
      "lat": "38.84521830794625"
    }
  ]
}