{
  "data": {
    "distrito": "Portalegre",
    "concelho": "Ponte de Sor",
    "freguesia": "União das freguesias de Ponte de Sor, Tramaga e Vale de Açor",
    "OBJECTID": 205,
    "BGRI2021": "12130800808",
    "DT21": "12",
    "DTMN21": "1213",
    "DTMNFR21": "121308",
    "DTMNFRSEC21": "121308008",
    "SECNUM21": "008",
    "SSNUM21": "08",
    "SECSSNUM21": "00808",
    "OBJECTID_1": 124211,
    "DT": "12",
    "CC": "13",
    "fr": "08",
    "SEC": "008",
    "SS": "08"
  },
  "addresses": [
    {
      "id": "pt.ine.add.PTCONT.3536442",
      "street": "R SEBASTIÃO ALVES",
      "house": "9",
      "postcode": "7400-118",
      "city": "PONTE DE SOR",
      "lon": "-8.032700213574634",
      "lat": "39.244343557178915"
    },
    {
      "id": "pt.ine.add.PTCONT.3537025",
      "street": "R DR JOÃO ALVES PIMENTA",
      "house": "14",
      "postcode": "7400-118",
      "city": "PONTE DE SOR",
      "lon": "-8.032271666286706",
      "lat": "39.24430715746653"
    },
    {
      "id": "pt.ine.add.PTCONT.3538570",
      "street": "R SEBASTIÃO ALVES",
      "house": "27",
      "postcode": "7400-118",
      "city": "PONTE DE SOR",
      "lon": "-8.03164684469453",
      "lat": "39.24382021678146"
    },
    {
      "id": "pt.ine.add.PTCONT.3461067",
      "street": "R SEBASTIÃO ALVES",
      "house": "1",
      "postcode": "7400-118",
      "city": "PONTE DE SOR",
      "lon": "-8.033209962621248",
      "lat": "39.24429895864752"
    },
    {
      "id": "pt.ine.add.PTCONT.3461666",
      "street": "R SEBASTIÃO ALVES",
      "house": "",
      "postcode": "7400-118",
      "city": "PONTE DE SOR",
      "lon": "-8.03301277008348",
      "lat": "39.24448794414475"
    },
    {
      "id": "pt.ine.add.PTCONT.3463525",
      "street": "R SEBASTIÃO ALVES",
      "house": "",
      "postcode": "7400-118",
      "city": "PONTE DE SOR",
      "lon": "-8.03292053554763",
      "lat": "39.2441816142188"
    },
    {
      "id": "pt.ine.add.PTCONT.3466635",
      "street": "R DR JOÃO ALVES PIMENTA",
      "house": "24",
      "postcode": "7400-118",
      "city": "PONTE DE SOR",
      "lon": "-8.031982408890993",
      "lat": "39.24407271502413"
    },
    {
      "id": "pt.ine.add.PTCONT.3477676",
      "street": "R SEBASTIÃO ALVES",
      "house": "19",
      "postcode": "7400-118",
      "city": "PONTE DE SOR",
      "lon": "-8.032063637012294",
      "lat": "39.24397370443179"
    },
    {
      "id": "pt.ine.add.PTCONT.3483085",
      "street": "R DR JOÃO ALVES PIMENTA",
      "house": "16",
      "postcode": "7400-118",
      "city": "PONTE DE SOR",
      "lon": "-8.032190734945072",
      "lat": "39.24419899891543"
    },
    {
      "id": "pt.ine.add.PTCONT.3484270",
      "street": "R DR JOÃO ALVES PIMENTA",
      "house": "26",
      "postcode": "7400-118",
      "city": "PONTE DE SOR",
      "lon": "-8.031901400596476",
      "lat": "39.244018600431694"
    },
    {
      "id": "pt.ine.add.PTCONT.3503810",
      "street": "R DR JOÃO ALVES PIMENTA",
      "house": "28",
      "postcode": "7400-118",
      "city": "PONTE DE SOR",
      "lon": "-8.03175096806296",
      "lat": "39.24391038115772"
    },
    {
      "id": "pt.ine.add.PTCONT.3522403",
      "street": "R DOCTOR JOÃO ALVES PIMENTA",
      "house": "6",
      "postcode": "7400-118",
      "city": "PONTE DE SOR",
      "lon": "-8.032503122486837",
      "lat": "39.24446048293048"
    },
    {
      "id": "pt.ine.add.PTCONT.3523737",
      "street": "R SEBASTIÃO ALVES",
      "house": "1 1",
      "postcode": "7400-118",
      "city": "PONTE DE SOR",
      "lon": "-8.032584478896888",
      "lat": "39.244271398379176"
    },
    {
      "id": "pt.ine.add.PTCONT.3524391",
      "street": "R DR JOÃO ALVES PIMENTA",
      "house": "18",
      "postcode": "7400-118",
      "city": "PONTE DE SOR",
      "lon": "-8.032086468458381",
      "lat": "39.2442079158989"
    },
    {
      "id": "pt.ine.add.PTCONT.3534595",
      "street": "R DR JOÃO ALVES PIMENTA",
      "house": "20",
      "postcode": "7400-118",
      "city": "PONTE DE SOR",
      "lon": "-8.03205182066719",
      "lat": "39.2441358268703"
    }
  ]
}