{
  "data": {
    "distrito": "Aveiro",
    "concelho": "Oliveira de Azeméis",
    "freguesia": "União das freguesias de Nogueira do Cravo e Pindelo",
    "OBJECTID": 414,
    "BGRI2021": "01132000401",
    "DT21": "01",
    "DTMN21": "0113",
    "DTMNFR21": "011320",
    "DTMNFRSEC21": "011320004",
    "SECNUM21": "004",
    "SSNUM21": "01",
    "SECSSNUM21": "00401",
    "OBJECTID_1": 8987,
    "DT": "01",
    "CC": "13",
    "fr": "20",
    "SEC": "004",
    "SS": "01"
  },
  "addresses": [
    {
      "id": "pt.ine.add.PTCONT.333863",
      "street": "R JOSE SOUSA LEITE",
      "house": "5",
      "postcode": "3720-454",
      "city": "PINDELO",
      "lon": "-8.437271480817584",
      "lat": "40.85717978729838"
    },
    {
      "id": "pt.ine.add.PTCONT.333864",
      "street": "R JOSE SOUSA LEITE",
      "house": "183",
      "postcode": "3720-454",
      "city": "PINDELO",
      "lon": "-8.438071049772958",
      "lat": "40.85825825706193"
    },
    {
      "id": "pt.ine.add.PTCONT.336034",
      "street": "R D CONCEIÇÃO CAMOSSA",
      "house": "90",
      "postcode": "3720-454",
      "city": "PINDELO",
      "lon": "-8.440780386326564",
      "lat": "40.85681929295862"
    },
    {
      "id": "pt.ine.add.PTCONT.22850",
      "street": "R JOSE SOUSA LEITE",
      "house": "25",
      "postcode": "3720-454",
      "city": "PINDELO",
      "lon": "-8.437236683580878",
      "lat": "40.85735097102299"
    },
    {
      "id": "pt.ine.add.PTCONT.101267",
      "street": "R PADRE ANTÓNIO SOARES PINHEIRO",
      "house": "8",
      "postcode": "3720-454",
      "city": "PINDELO",
      "lon": "-8.438612286822664",
      "lat": "40.85215154070051"
    },
    {
      "id": "pt.ine.add.PTCONT.103682",
      "street": "R CONCEIÇÃO CAMOSSA",
      "house": "158",
      "postcode": "3720-454",
      "city": "PINDELO",
      "lon": "-8.440188434130883",
      "lat": "40.8570459913122"
    },
    {
      "id": "pt.ine.add.PTCONT.114465",
      "street": "R JOSE SOUSA LEITE",
      "house": "165",
      "postcode": "3720-454",
      "city": "PINDELO",
      "lon": "-8.43776206849286",
      "lat": "40.858124000915474"
    },
    {
      "id": "pt.ine.add.PTCONT.122372",
      "street": "R PADRE ANTÓNIO SOARES PINHEIRO",
      "house": "2",
      "postcode": "3720-454",
      "city": "PINDELO",
      "lon": "-8.437737195042594",
      "lat": "40.85269414581595"
    },
    {
      "id": "pt.ine.add.PTCONT.133615",
      "street": "R PADRE ANTÓNIO SOARES PINHEIRO",
      "house": "10",
      "postcode": "3720-454",
      "city": "PINDELO",
      "lon": "-8.439084907118511",
      "lat": "40.85177208442198"
    },
    {
      "id": "pt.ine.add.PTCONT.170113",
      "street": "R PADRE SOARES PINHEIRO",
      "house": "586",
      "postcode": "3720-454",
      "city": "PINDELO",
      "lon": "-8.44157211313493",
      "lat": "40.856195844491815"
    },
    {
      "id": "pt.ine.add.PTCONT.175142",
      "street": "R DR CONCEIÇÃO CAMOSSA",
      "house": "",
      "postcode": "3720-454",
      "city": "PINDELO",
      "lon": "-8.438224859132088",
      "lat": "40.85817680677737"
    },
    {
      "id": "pt.ine.add.PTCONT.196698",
      "street": "R D CONCEIÇÃO CAMOSSA",
      "house": "332",
      "postcode": "3720-454",
      "city": "PINDELO",
      "lon": "-8.438307590383571",
      "lat": "40.85811355404366"
    },
    {
      "id": "pt.ine.add.PTCONT.223836",
      "street": "R CONCEIÇÃO CAMOSSA",
      "house": "130",
      "postcode": "3720-454",
      "city": "PINDELO",
      "lon": "-8.440472446829034",
      "lat": "40.85691016229041"
    },
    {
      "id": "pt.ine.add.PTCONT.242888",
      "street": "R D CONCEIÇÃO CAMOSSA",
      "house": "300",
      "postcode": "3720-454",
      "city": "PINDELO",
      "lon": "-8.438757403766264",
      "lat": "40.85792326143573"
    },
    {
      "id": "pt.ine.add.PTCONT.247113",
      "street": "R BORRALHAIS",
      "house": "",
      "postcode": "3720-454",
      "city": "PINDELO",
      "lon": "-8.437482403689986",
      "lat": "40.856620930779705"
    },
    {
      "id": "pt.ine.add.PTCONT.253595",
      "street": "R PADRE ANTÓNIO SOARES PINHEIRO",
      "house": "4",
      "postcode": "3720-454",
      "city": "PINDELO",
      "lon": "-8.43815156150773",
      "lat": "40.85253996841702"
    },
    {
      "id": "pt.ine.add.PTCONT.256365",
      "street": "R PADRE ANTONIO SOARES PINHEIRO",
      "house": "",
      "postcode": "3720-454",
      "city": "PINDELO",
      "lon": "-8.438872315585153",
      "lat": "40.85196174994018"
    },
    {
      "id": "pt.ine.add.PTCONT.256369",
      "street": "R PADRE ANTONIO SOARES PINHEIRO",
      "house": "",
      "postcode": "3720-454",
      "city": "PINDELO",
      "lon": "-8.438872315585153",
      "lat": "40.85196174994018"
    },
    {
      "id": "pt.ine.add.PTCONT.256370",
      "street": "R PADRE ANTONIO SOARES PINHEIRO",
      "house": "",
      "postcode": "3720-454",
      "city": "PINDELO",
      "lon": "-8.438872315585153",
      "lat": "40.85196174994018"
    },
    {
      "id": "pt.ine.add.PTCONT.256371",
      "street": "R PADRE ANTONIO SOARES PINHEIRO",
      "house": "",
      "postcode": "3720-454",
      "city": "PINDELO",
      "lon": "-8.438872315585153",
      "lat": "40.85196174994018"
    },
    {
      "id": "pt.ine.add.PTCONT.256372",
      "street": "S MARTINHO",
      "house": "",
      "postcode": "3720-454",
      "city": "PINDELO",
      "lon": "-8.438872315585153",
      "lat": "40.85196174994018"
    },
    {
      "id": "pt.ine.add.PTCONT.256373",
      "street": "R PADRE ANTONIO SOARES PINHEIRO",
      "house": "",
      "postcode": "3720-454",
      "city": "PINDELO",
      "lon": "-8.438872315585153",
      "lat": "40.85196174994018"
    },
    {
      "id": "pt.ine.add.PTCONT.283100",
      "street": "R BORRALHAIS",
      "house": "171",
      "postcode": "3720-454",
      "city": "PINDELO",
      "lon": "-8.437820355216575",
      "lat": "40.85531433635122"
    }
  ]
}