{
  "data": {
    "distrito": "Aveiro",
    "concelho": "Oliveira de Azeméis",
    "freguesia": "União das freguesias de Nogueira do Cravo e Pindelo",
    "OBJECTID": 928,
    "BGRI2021": "01132000410",
    "DT21": "01",
    "DTMN21": "0113",
    "DTMNFR21": "011320",
    "DTMNFRSEC21": "011320004",
    "SECNUM21": "004",
    "SSNUM21": "10",
    "SECSSNUM21": "00410",
    "OBJECTID_1": 8691,
    "DT": "01",
    "CC": "13",
    "fr": "20",
    "SEC": "004",
    "SS": "10"
  },
  "addresses": [
    {
      "id": "pt.ine.add.PTCONT.291965",
      "street": "R ASSENTADINHO",
      "house": "173",
      "postcode": "3720-454",
      "city": "PINDELO",
      "lon": "-8.439931510862722",
      "lat": "40.86305290074557"
    },
    {
      "id": "pt.ine.add.PTCONT.291966",
      "street": "R ASSENTADINHO",
      "house": "173",
      "postcode": "3720-454",
      "city": "PINDELO",
      "lon": "-8.439931510862722",
      "lat": "40.86305290074557"
    },
    {
      "id": "pt.ine.add.PTCONT.291968",
      "street": "R ASSENTADINHO",
      "house": "173",
      "postcode": "3720-454",
      "city": "PINDELO",
      "lon": "-8.439931510862722",
      "lat": "40.86305290074557"
    },
    {
      "id": "pt.ine.add.PTCONT.291969",
      "street": "R ASSENTADINHO",
      "house": "173",
      "postcode": "3720-454",
      "city": "PINDELO",
      "lon": "-8.439931510862722",
      "lat": "40.86305290074557"
    },
    {
      "id": "pt.ine.add.PTCONT.309622",
      "street": "R CONCEIÇÃO CAMOSSA",
      "house": "121",
      "postcode": "3720-454",
      "city": "PINDELO",
      "lon": "-8.440746473123413",
      "lat": "40.85717957704273"
    },
    {
      "id": "pt.ine.add.PTCONT.310188",
      "street": "R PADRE LUIS GONGALVES",
      "house": "164",
      "postcode": "3720-454",
      "city": "PINDELO",
      "lon": "-8.440977022391204",
      "lat": "40.85830456692681"
    },
    {
      "id": "pt.ine.add.PTCONT.331324",
      "street": "R CONCEIÇÃO CAMOSSA",
      "house": "245",
      "postcode": "3720-454",
      "city": "PINDELO",
      "lon": "-8.439574874529608",
      "lat": "40.857731990883686"
    },
    {
      "id": "pt.ine.add.PTCONT.345279",
      "street": "R PADRE LUIS GONGALVES",
      "house": "142",
      "postcode": "3720-454",
      "city": "PINDELO",
      "lon": "-8.44102392072564",
      "lat": "40.85818737884388"
    },
    {
      "id": "pt.ine.add.PTCONT.4431",
      "street": "R CONCEIÇÃO CAMOSSA",
      "house": "155",
      "postcode": "3720-454",
      "city": "PINDELO",
      "lon": "-8.440402827333473",
      "lat": "40.85724352688234"
    },
    {
      "id": "pt.ine.add.PTCONT.7043",
      "street": "R ASSENTADINHO",
      "house": "93",
      "postcode": "3720-454",
      "city": "PINDELO",
      "lon": "-8.439287619259735",
      "lat": "40.86231621539933"
    },
    {
      "id": "pt.ine.add.PTCONT.7044",
      "street": "CC LEIRA",
      "house": "",
      "postcode": "3720-454",
      "city": "PINDELO",
      "lon": "-8.438188449638933",
      "lat": "40.86058119469075"
    },
    {
      "id": "pt.ine.add.PTCONT.7047",
      "street": "R PADRE LUIS GONGALVES",
      "house": "170",
      "postcode": "3720-454",
      "city": "PINDELO",
      "lon": "-8.441049100398297",
      "lat": "40.858502480985656"
    },
    {
      "id": "pt.ine.add.PTCONT.7048",
      "street": "R PADRE LUIS GONGALVES",
      "house": "234",
      "postcode": "3720-454",
      "city": "PINDELO",
      "lon": "-8.441843854778103",
      "lat": "40.85852737113776"
    },
    {
      "id": "pt.ine.add.PTCONT.9687",
      "street": "R PINHEIRO DE SOUSA",
      "house": "73",
      "postcode": "3720-452",
      "city": "PINDELO",
      "lon": "-8.437682718779502",
      "lat": "40.85892564111587"
    },
    {
      "id": "pt.ine.add.PTCONT.9688",
      "street": "R CONCEIÇÃO CAMOSSA",
      "house": "307",
      "postcode": "3720-454",
      "city": "PINDELO",
      "lon": "-8.438900221075238",
      "lat": "40.85803094100516"
    },
    {
      "id": "pt.ine.add.PTCONT.9691",
      "street": "R PADRE LUIS GONGALVES",
      "house": "",
      "postcode": "3720-454",
      "city": "PINDELO",
      "lon": "-8.441332157534147",
      "lat": "40.85815954113444"
    },
    {
      "id": "pt.ine.add.PTCONT.17284",
      "street": "CC LEIRA",
      "house": "",
      "postcode": "3720-454",
      "city": "PINDELO",
      "lon": "-8.4383788379025",
      "lat": "40.86071576353419"
    },
    {
      "id": "pt.ine.add.PTCONT.22725",
      "street": "R PADRE LUIS GONGALVES",
      "house": "194",
      "postcode": "3720-454",
      "city": "PINDELO",
      "lon": "-8.441380724948475",
      "lat": "40.85840254200116"
    },
    {
      "id": "pt.ine.add.PTCONT.28326",
      "street": "R PADRE LUIS GONGALVES",
      "house": "279",
      "postcode": "3720-454",
      "city": "PINDELO",
      "lon": "-8.441805849785053",
      "lat": "40.85800519219869"
    },
    {
      "id": "pt.ine.add.PTCONT.28327",
      "street": "R PADRE LUIS GONGALVES",
      "house": "279",
      "postcode": "3720-454",
      "city": "PINDELO",
      "lon": "-8.441805849785053",
      "lat": "40.85800519219869"
    },
    {
      "id": "pt.ine.add.PTCONT.31271",
      "street": "R PADRE LUIS GONGALVES",
      "house": "8O",
      "postcode": "3720-454",
      "city": "PINDELO",
      "lon": "-8.440879682634714",
      "lat": "40.8577735411598"
    },
    {
      "id": "pt.ine.add.PTCONT.34239",
      "street": "R PADRE LUIS GONGALVES",
      "house": "300",
      "postcode": "3720-454",
      "city": "PINDELO",
      "lon": "-8.442649966848782",
      "lat": "40.85844416727664"
    },
    {
      "id": "pt.ine.add.PTCONT.49380",
      "street": "R PADRE LUIS GONGALVES",
      "house": "220",
      "postcode": "3720-454",
      "city": "PINDELO",
      "lon": "-8.441653800091446",
      "lat": "40.85846484577927"
    },
    {
      "id": "pt.ine.add.PTCONT.49381",
      "street": "R PADRE LUIS GONGALVES",
      "house": "220",
      "postcode": "3720-454",
      "city": "PINDELO",
      "lon": "-8.441653800091446",
      "lat": "40.85846484577927"
    },
    {
      "id": "pt.ine.add.PTCONT.52535",
      "street": "R PINHEL RO SOUSA",
      "house": "7",
      "postcode": "3720-454",
      "city": "PINDELO",
      "lon": "-8.438072495185255",
      "lat": "40.85857342260654"
    },
    {
      "id": "pt.ine.add.PTCONT.52624",
      "street": "R PADRE LUIS GONGALVES",
      "house": "",
      "postcode": "3720-454",
      "city": "PINDELO",
      "lon": "-8.441270854122973",
      "lat": "40.85772747263021"
    },
    {
      "id": "pt.ine.add.PTCONT.63298",
      "street": "R CONCEIÇÃO CAMOSSA",
      "house": "341",
      "postcode": "3720-454",
      "city": "PINDELO",
      "lon": "-8.438627936328745",
      "lat": "40.85813972055728"
    },
    {
      "id": "pt.ine.add.PTCONT.76896",
      "street": "R PEDRASES",
      "house": "31",
      "postcode": "3720-454",
      "city": "PINDELO",
      "lon": "-8.43955983696953",
      "lat": "40.86218942486655"
    },
    {
      "id": "pt.ine.add.PTCONT.86290",
      "street": "R HORTELA",
      "house": "",
      "postcode": "3720-454",
      "city": "PINDELO",
      "lon": "-8.43985211934439",
      "lat": "40.86127015496688"
    },
    {
      "id": "pt.ine.add.PTCONT.92978",
      "street": "R CONCEIÇÃO CAMOSSA",
      "house": "275",
      "postcode": "3720-454",
      "city": "PINDELO",
      "lon": "-8.439184033381977",
      "lat": "40.85785009150517"
    },
    {
      "id": "pt.ine.add.PTCONT.97008",
      "street": "CC LEIRA",
      "house": "65",
      "postcode": "3720-454",
      "city": "PINDELO",
      "lon": "-8.43858009461741",
      "lat": "40.86063418723073"
    },
    {
      "id": "pt.ine.add.PTCONT.97009",
      "street": "R CONCEIÇÃO CAMOSSA",
      "house": "347",
      "postcode": "3720-454",
      "city": "PINDELO",
      "lon": "-8.438509583743514",
      "lat": "40.85819406299446"
    },
    {
      "id": "pt.ine.add.PTCONT.97010",
      "street": "R PADRE LUIS GONGALVES",
      "house": "435",
      "postcode": "3720-454",
      "city": "PINDELO",
      "lon": "-8.442647284167675",
      "lat": "40.85786786478787"
    },
    {
      "id": "pt.ine.add.PTCONT.129062",
      "street": "R ASSENTADINHO",
      "house": "",
      "postcode": "3720-454",
      "city": "PINDELO",
      "lon": "-8.438463805269267",
      "lat": "40.86113876589149"
    },
    {
      "id": "pt.ine.add.PTCONT.129063",
      "street": "R ASSENTADINHO",
      "house": "",
      "postcode": "3720-454",
      "city": "PINDELO",
      "lon": "-8.438463805269267",
      "lat": "40.86113876589149"
    },
    {
      "id": "pt.ine.add.PTCONT.129064",
      "street": "R PADRE LUIS GONGALVES",
      "house": "463",
      "postcode": "3720-454",
      "city": "PINDELO",
      "lon": "-8.442077626667",
      "lat": "40.85778834843502"
    },
    {
      "id": "pt.ine.add.PTCONT.139640",
      "street": "R CONCEIÇÃO CAMOSSA",
      "house": "215",
      "postcode": "3720-454",
      "city": "PINDELO",
      "lon": "-8.440203412838654",
      "lat": "40.85772131446524"
    },
    {
      "id": "pt.ine.add.PTCONT.146773",
      "street": "R PINHEIRO DE SOUSA",
      "house": "39",
      "postcode": "3720-452",
      "city": "PINDELO",
      "lon": "-8.438239239734653",
      "lat": "40.858726063915"
    },
    {
      "id": "pt.ine.add.PTCONT.157643",
      "street": "R TORTELA",
      "house": "159",
      "postcode": "3720-454",
      "city": "PINDELO",
      "lon": "-8.440777665052757",
      "lat": "40.86135773838839"
    },
    {
      "id": "pt.ine.add.PTCONT.157644",
      "street": "R TORTELA",
      "house": "159",
      "postcode": "3720-454",
      "city": "PINDELO",
      "lon": "-8.440777665052757",
      "lat": "40.86135773838839"
    },
    {
      "id": "pt.ine.add.PTCONT.192297",
      "street": "R PADRE LUIS GONGALVES",
      "house": "172",
      "postcode": "3720-454",
      "city": "PINDELO",
      "lon": "-8.441216185364427",
      "lat": "40.85872715578354"
    },
    {
      "id": "pt.ine.add.PTCONT.192298",
      "street": "R PADRE LUIS GONGALVES",
      "house": "172",
      "postcode": "3720-454",
      "city": "PINDELO",
      "lon": "-8.441216185364427",
      "lat": "40.85872715578354"
    },
    {
      "id": "pt.ine.add.PTCONT.192299",
      "street": "R PADRE LUIS GONGALVES",
      "house": "172",
      "postcode": "3720-454",
      "city": "PINDELO",
      "lon": "-8.441216185364427",
      "lat": "40.85872715578354"
    },
    {
      "id": "pt.ine.add.PTCONT.199447",
      "street": "R ASSENTADINHO",
      "house": "41",
      "postcode": "3720-454",
      "city": "PINDELO",
      "lon": "-8.438860547033052",
      "lat": "40.86229933852744"
    },
    {
      "id": "pt.ine.add.PTCONT.207376",
      "street": "CC LEIRA",
      "house": "",
      "postcode": "3720-454",
      "city": "PINDELO",
      "lon": "-8.438556869980403",
      "lat": "40.86074230675595"
    },
    {
      "id": "pt.ine.add.PTCONT.210180",
      "street": "R PADRE LUIS GONGALVES",
      "house": "26",
      "postcode": "3720-454",
      "city": "PINDELO",
      "lon": "-8.44092478842207",
      "lat": "40.85726914976214"
    },
    {
      "id": "pt.ine.add.PTCONT.223814",
      "street": "R PADRE LUIS GONGALVES",
      "house": "435",
      "postcode": "3720-454",
      "city": "PINDELO",
      "lon": "-8.442730933217408",
      "lat": "40.858002712883184"
    },
    {
      "id": "pt.ine.add.PTCONT.231903",
      "street": "CC LEIRA",
      "house": "",
      "postcode": "3720-454",
      "city": "PINDELO",
      "lon": "-8.438663821714087",
      "lat": "40.86078704767892"
    },
    {
      "id": "pt.ine.add.PTCONT.231904",
      "street": "R CONCEIÇÃO CAMOSSA",
      "house": "225",
      "postcode": "3720-454",
      "city": "PINDELO",
      "lon": "-8.439680659686987",
      "lat": "40.85752459846961"
    },
    {
      "id": "pt.ine.add.PTCONT.234571",
      "street": "R ASSENTADINHO",
      "house": "",
      "postcode": "3720-454",
      "city": "PINDELO",
      "lon": "-8.439905378931304",
      "lat": "40.86253068999711"
    },
    {
      "id": "pt.ine.add.PTCONT.234572",
      "street": "R PINHEIRO DE SOUSA",
      "house": "",
      "postcode": "3720-452",
      "city": "PINDELO",
      "lon": "-8.437341038552267",
      "lat": "40.859421808853995"
    },
    {
      "id": "pt.ine.add.PTCONT.242870",
      "street": "R CONCEIÇÃO CAMOSSA",
      "house": "265",
      "postcode": "3720-454",
      "city": "PINDELO",
      "lon": "-8.439528347399545",
      "lat": "40.85793022095976"
    },
    {
      "id": "pt.ine.add.PTCONT.246933",
      "street": "R PROF CONCEIÇÃO COSTA",
      "house": "33",
      "postcode": "3720-454",
      "city": "PINDELO",
      "lon": "-8.437902352721075",
      "lat": "40.86026678173787"
    },
    {
      "id": "pt.ine.add.PTCONT.246934",
      "street": "R PADRE LUIS GONGALVES",
      "house": "78",
      "postcode": "3720-454",
      "city": "PINDELO",
      "lon": "-8.44070211578788",
      "lat": "40.85784605349887"
    },
    {
      "id": "pt.ine.add.PTCONT.246935",
      "street": "R PADRE LUIS GONGALVES",
      "house": "78",
      "postcode": "3720-454",
      "city": "PINDELO",
      "lon": "-8.44070211578788",
      "lat": "40.85784605349887"
    },
    {
      "id": "pt.ine.add.PTCONT.246936",
      "street": "R PADRE LUIS GONGALVES",
      "house": "252",
      "postcode": "3720-454",
      "city": "PINDELO",
      "lon": "-8.442139186464349",
      "lat": "40.85827444484695"
    },
    {
      "id": "pt.ine.add.PTCONT.269860",
      "street": "R PADRE LUIS GONGALVES",
      "house": "126",
      "postcode": "3720-454",
      "city": "PINDELO",
      "lon": "-8.440904319608187",
      "lat": "40.85797158189386"
    },
    {
      "id": "pt.ine.add.PTCONT.273147",
      "street": "R PEDRASES",
      "house": "",
      "postcode": "3720-454",
      "city": "PINDELO",
      "lon": "-8.440658933656596",
      "lat": "40.861331040507714"
    },
    {
      "id": "pt.ine.add.PTCONT.278150",
      "street": "R CONCEIÇÃO CAMOSSA",
      "house": "287",
      "postcode": "3720-454",
      "city": "PINDELO",
      "lon": "-8.43903010167921",
      "lat": "40.85790452887697"
    },
    {
      "id": "pt.ine.add.PTCONT.288545",
      "street": "R PADRE LUIS GONGALVES",
      "house": "333",
      "postcode": "3720-454",
      "city": "PINDELO",
      "lon": "-8.442850498363178",
      "lat": "40.858209503190466"
    }
  ]
}