{
  "data": {
    "distrito": "Viseu",
    "concelho": "Viseu",
    "freguesia": "São Pedro de France",
    "OBJECTID": 1158,
    "BGRI2021": "18232900128",
    "DT21": "18",
    "DTMN21": "1823",
    "DTMNFR21": "182329",
    "DTMNFRSEC21": "182329001",
    "SECNUM21": "001",
    "SSNUM21": "28",
    "SECSSNUM21": "00128",
    "OBJECTID_1": 201172,
    "DT": "18",
    "CC": "23",
    "fr": "29",
    "SEC": "001",
    "SS": "28"
  },
  "addresses": [
    {
      "id": "pt.ine.add.PTCONT.5430403",
      "street": "AV PRINCIPAL",
      "house": "",
      "postcode": "3505-332",
      "city": "SÃO PEDRO DE FRANCE",
      "lon": "-7.792882298717184",
      "lat": "40.71023532286073"
    },
    {
      "id": "pt.ine.add.PTCONT.5444959",
      "street": "R AGOSTINHA",
      "house": "",
      "postcode": "3505-332",
      "city": "SÃO PEDRO DE FRANCE",
      "lon": "-7.792674199890998",
      "lat": "40.711594474108935"
    },
    {
      "id": "pt.ine.add.PTCONT.5450660",
      "street": "R MATADOURO",
      "house": "",
      "postcode": "3505-332",
      "city": "SÃO PEDRO DE FRANCE",
      "lon": "-7.7901340099515775",
      "lat": "40.713090800400174"
    },
    {
      "id": "pt.ine.add.PTCONT.5462911",
      "street": "R TENDA",
      "house": "",
      "postcode": "3505-332",
      "city": "SÃO PEDRO DE FRANCE",
      "lon": "-7.791612591225784",
      "lat": "40.71091595871599"
    },
    {
      "id": "pt.ine.add.PTCONT.5468577",
      "street": "R TENDA",
      "house": "",
      "postcode": "3505-332",
      "city": "SÃO PEDRO DE FRANCE",
      "lon": "-7.7917779435208265",
      "lat": "40.71097948319682"
    },
    {
      "id": "pt.ine.add.PTCONT.5483064",
      "street": "TV TEATRO",
      "house": "",
      "postcode": "3505-332",
      "city": "SÃO PEDRO DE FRANCE",
      "lon": "-7.7917546436457075",
      "lat": "40.71090737378664"
    },
    {
      "id": "pt.ine.add.PTCONT.5483246",
      "street": "R BATAREU",
      "house": "",
      "postcode": "3505-332",
      "city": "SÃO PEDRO DE FRANCE",
      "lon": "-7.7920952531831045",
      "lat": "40.711412664052034"
    },
    {
      "id": "pt.ine.add.PTCONT.5521590",
      "street": "TV TEATRO",
      "house": "",
      "postcode": "3505-332",
      "city": "SÃO PEDRO DE FRANCE",
      "lon": "-7.791671484591153",
      "lat": "40.71097016330673"
    },
    {
      "id": "pt.ine.add.PTCONT.5537739",
      "street": "R PRINCIPAL",
      "house": "",
      "postcode": "3505-332",
      "city": "SÃO PEDRO DE FRANCE",
      "lon": "-7.790262708638509",
      "lat": "40.7133793446392"
    },
    {
      "id": "pt.ine.add.PTCONT.5539890",
      "street": "TV RUSSO",
      "house": "",
      "postcode": "3505-332",
      "city": "SÃO PEDRO DE FRANCE",
      "lon": "-7.78976599906389",
      "lat": "40.71100953702321"
    },
    {
      "id": "pt.ine.add.PTCONT.5541655",
      "street": "R PRINCIPAL",
      "house": "",
      "postcode": "3505-332",
      "city": "SÃO PEDRO DE FRANCE",
      "lon": "-7.790251336256971",
      "lat": "40.71328926025888"
    },
    {
      "id": "pt.ine.add.PTCONT.5548813",
      "street": "R QUELHA",
      "house": "",
      "postcode": "3505-332",
      "city": "SÃO PEDRO DE FRANCE",
      "lon": "-7.791308456134344",
      "lat": "40.71022166861945"
    },
    {
      "id": "pt.ine.add.PTCONT.5550031",
      "street": "R MATADOURO",
      "house": "",
      "postcode": "3505-332",
      "city": "SÃO PEDRO DE FRANCE",
      "lon": "-7.789877355747144",
      "lat": "40.712369632673266"
    },
    {
      "id": "pt.ine.add.PTCONT.5557696",
      "street": "R PRINCIPAL",
      "house": "",
      "postcode": "3505-332",
      "city": "SÃO PEDRO DE FRANCE",
      "lon": "-7.789849529887331",
      "lat": "40.71087470947036"
    },
    {
      "id": "pt.ine.add.PTCONT.5571104",
      "street": "R QUELHA",
      "house": "",
      "postcode": "3505-332",
      "city": "SÃO PEDRO DE FRANCE",
      "lon": "-7.79162543716249",
      "lat": "40.710717885296205"
    },
    {
      "id": "pt.ine.add.PTCONT.5574199",
      "street": "R OLIVEIRAS",
      "house": "",
      "postcode": "3505-332",
      "city": "SÃO PEDRO DE FRANCE",
      "lon": "-7.790334360996416",
      "lat": "40.71325348657445"
    },
    {
      "id": "pt.ine.add.PTCONT.5581655",
      "street": "R QUELHA",
      "house": "51",
      "postcode": "3505-332",
      "city": "SÃO PEDRO DE FRANCE",
      "lon": "-7.7915428764061785",
      "lat": "40.710663610654706"
    },
    {
      "id": "pt.ine.add.PTCONT.5587215",
      "street": "R TENDA",
      "house": "",
      "postcode": "3505-332",
      "city": "SÃO PEDRO DE FRANCE",
      "lon": "-7.790215594272064",
      "lat": "40.71102888347045"
    },
    {
      "id": "pt.ine.add.PTCONT.5594634",
      "street": "R TENDA",
      "house": "",
      "postcode": "3505-332",
      "city": "SÃO PEDRO DE FRANCE",
      "lon": "-7.789943461091437",
      "lat": "40.711019069761775"
    },
    {
      "id": "pt.ine.add.PTCONT.5615085",
      "street": "R BATAREU",
      "house": "",
      "postcode": "3505-332",
      "city": "SÃO PEDRO DE FRANCE",
      "lon": "-7.792164465602309",
      "lat": "40.71176406596169"
    },
    {
      "id": "pt.ine.add.PTCONT.5633964",
      "street": "R QUELHA",
      "house": "",
      "postcode": "3505-332",
      "city": "SÃO PEDRO DE FRANCE",
      "lon": "-7.791897385526733",
      "lat": "40.71076371475174"
    },
    {
      "id": "pt.ine.add.PTCONT.5637715",
      "street": "R BATAREU",
      "house": "",
      "postcode": "3505-332",
      "city": "SÃO PEDRO DE FRANCE",
      "lon": "-7.791998835275499",
      "lat": "40.711754571598306"
    },
    {
      "id": "pt.ine.add.PTCONT.5660101",
      "street": "R QUELHA",
      "house": "",
      "postcode": "3505-332",
      "city": "SÃO PEDRO DE FRANCE",
      "lon": "-7.7914713211761235",
      "lat": "40.71077145968965"
    },
    {
      "id": "pt.ine.add.PTCONT.5660102",
      "street": "R CARROCA",
      "house": "",
      "postcode": "3505-332",
      "city": "SÃO PEDRO DE FRANCE",
      "lon": "-7.791601309432621",
      "lat": "40.71080786456762"
    },
    {
      "id": "pt.ine.add.PTCONT.5666167",
      "street": "R PRINCIPAL",
      "house": "",
      "postcode": "3505-332",
      "city": "SÃO PEDRO DE FRANCE",
      "lon": "-7.791826934178888",
      "lat": "40.71065544571657"
    }
  ]
}