{
  "data": {
    "distrito": "Vila Real",
    "concelho": "Vila Pouca de Aguiar",
    "freguesia": "Telões",
    "OBJECTID": 22,
    "BGRI2021": "17131100106",
    "DT21": "17",
    "DTMN21": "1713",
    "DTMNFR21": "171311",
    "DTMNFRSEC21": "171311001",
    "SECNUM21": "001",
    "SSNUM21": "06",
    "SECSSNUM21": "00106",
    "OBJECTID_1": 186754,
    "DT": "17",
    "CC": "13",
    "fr": "11",
    "SEC": "001",
    "SS": "06"
  },
  "addresses": [
    {
      "id": "pt.ine.add.PTCONT.5298346",
      "street": "R DO SOL",
      "house": "",
      "postcode": "5450-280",
      "city": "TELÕES VPA",
      "lon": "-7.6866302971362055",
      "lat": "41.45508309134724"
    },
    {
      "id": "pt.ine.add.PTCONT.5305731",
      "street": "R DO ALTO DA BOUÇA",
      "house": "",
      "postcode": "5450-280",
      "city": "TELÕES VPA",
      "lon": "-7.690724261226512",
      "lat": "41.4549638495871"
    },
    {
      "id": "pt.ine.add.PTCONT.5313238",
      "street": "R D AFONSO III",
      "house": "106",
      "postcode": "5450-280",
      "city": "TELÕES VPA",
      "lon": "-7.689551770095346",
      "lat": "41.454905311363405"
    },
    {
      "id": "pt.ine.add.PTCONT.5318792",
      "street": "R DA ENCOSTA",
      "house": "2",
      "postcode": "5450-280",
      "city": "TELÕES VPA",
      "lon": "-7.687278601956845",
      "lat": "41.45478847740928"
    },
    {
      "id": "pt.ine.add.PTCONT.5321161",
      "street": "R DO ALTO DA BOUÇA",
      "house": "",
      "postcode": "5450-280",
      "city": "TELÕES VPA",
      "lon": "-7.690000730511331",
      "lat": "41.455762410907155"
    },
    {
      "id": "pt.ine.add.PTCONT.5326504",
      "street": "R DA ENCOSTA",
      "house": "1",
      "postcode": "5450-280",
      "city": "TELÕES VPA",
      "lon": "-7.687169657377234",
      "lat": "41.45496813289726"
    },
    {
      "id": "pt.ine.add.PTCONT.5336988",
      "street": "R DO SOL",
      "house": "2",
      "postcode": "5450-280",
      "city": "TELÕES VPA",
      "lon": "-7.686775085475789",
      "lat": "41.454912579339826"
    },
    {
      "id": "pt.ine.add.PTCONT.5339558",
      "street": "R DO ALTO DA BOUÇA",
      "house": "2",
      "postcode": "5450-280",
      "city": "TELÕES VPA",
      "lon": "-7.6899945838699635",
      "lat": "41.45490701790396"
    },
    {
      "id": "pt.ine.add.PTCONT.5364173",
      "street": "R DO ALTO DA BOUÇA",
      "house": "",
      "postcode": "5450-280",
      "city": "TELÕES VPA",
      "lon": "-7.691722301260718",
      "lat": "41.45427438385418"
    },
    {
      "id": "pt.ine.add.PTCONT.5364667",
      "street": "R DO ALTO DA BOUÇA",
      "house": "",
      "postcode": "5450-280",
      "city": "TELÕES VPA",
      "lon": "-7.691476776518456",
      "lat": "41.45518283430905"
    },
    {
      "id": "pt.ine.add.PTCONT.5371748",
      "street": "R DO ALTO DA BOUÇA",
      "house": "",
      "postcode": "5450-280",
      "city": "TELÕES VPA",
      "lon": "-7.692690720879566",
      "lat": "41.45442215774223"
    },
    {
      "id": "pt.ine.add.PTCONT.5393283",
      "street": "R DO ALTO DA BOUÇA",
      "house": "7",
      "postcode": "5450-280",
      "city": "TELÕES VPA",
      "lon": "-7.6924277327612325",
      "lat": "41.45437613114801"
    },
    {
      "id": "pt.ine.add.PTCONT.5414578",
      "street": "R D AFONSO III",
      "house": "",
      "postcode": "5450-280",
      "city": "TELÕES VPA",
      "lon": "-7.686992790444624",
      "lat": "41.45632703403061"
    },
    {
      "id": "pt.ine.add.PTCONT.5420030",
      "street": "R DO LAGEDO",
      "house": "2",
      "postcode": "5450-280",
      "city": "TELÕES VPA",
      "lon": "-7.6909452319476195",
      "lat": "41.455910107339164"
    },
    {
      "id": "pt.ine.add.PTCONT.5420031",
      "street": "R DO ALTO DA BOUÇA",
      "house": "1",
      "postcode": "5450-280",
      "city": "TELÕES VPA",
      "lon": "-7.69107585527094",
      "lat": "41.45429891335643"
    }
  ]
}