{
  "data": {
    "distrito": "Vila Real",
    "concelho": "Vila Pouca de Aguiar",
    "freguesia": "Telões",
    "OBJECTID": 23,
    "BGRI2021": "17131100107",
    "DT21": "17",
    "DTMN21": "1713",
    "DTMNFR21": "171311",
    "DTMNFRSEC21": "171311001",
    "SECNUM21": "001",
    "SSNUM21": "07",
    "SECSSNUM21": "00107",
    "OBJECTID_1": 187133,
    "DT": "17",
    "CC": "13",
    "fr": "11",
    "SEC": "001",
    "SS": "07"
  },
  "addresses": [
    {
      "id": "pt.ine.add.PTCONT.5290455",
      "street": "R DO BACELO",
      "house": "2",
      "postcode": "5450-280",
      "city": "TELÕES VPA",
      "lon": "-7.683994755119602",
      "lat": "41.45371324502248"
    },
    {
      "id": "pt.ine.add.PTCONT.5298344",
      "street": "R CAPELA",
      "house": "10",
      "postcode": "5450-280",
      "city": "TELÕES VPA",
      "lon": "-7.6854744392471765",
      "lat": "41.45608703474268"
    },
    {
      "id": "pt.ine.add.PTCONT.5298345",
      "street": "R CAPELA",
      "house": "4",
      "postcode": "5450-280",
      "city": "TELÕES VPA",
      "lon": "-7.6854744392471765",
      "lat": "41.45608703474268"
    },
    {
      "id": "pt.ine.add.PTCONT.5300665",
      "street": "R D AFONSO III",
      "house": "29",
      "postcode": "5450-280",
      "city": "TELÕES VPA",
      "lon": "-7.6837059500764875",
      "lat": "41.45567496466044"
    },
    {
      "id": "pt.ine.add.PTCONT.5305730",
      "street": "R D AFONSO III",
      "house": "",
      "postcode": "5450-280",
      "city": "TELÕES VPA",
      "lon": "-7.684899534192945",
      "lat": "41.45614782340897"
    },
    {
      "id": "pt.ine.add.PTCONT.5308090",
      "street": "R D AFONSO III",
      "house": "38",
      "postcode": "5450-280",
      "city": "TELÕES VPA",
      "lon": "-7.6847924407445465",
      "lat": "41.45605736724037"
    },
    {
      "id": "pt.ine.add.PTCONT.5309570",
      "street": "R D AFONSO III",
      "house": "",
      "postcode": "5450-280",
      "city": "TELÕES VPA",
      "lon": "-7.686166305044906",
      "lat": "41.45642286864981"
    },
    {
      "id": "pt.ine.add.PTCONT.5311360",
      "street": "R D AFONSO III",
      "house": "",
      "postcode": "5450-280",
      "city": "TELÕES VPA",
      "lon": "-7.684124646316761",
      "lat": "41.45570361124101"
    },
    {
      "id": "pt.ine.add.PTCONT.5311504",
      "street": "R DA CAPELA",
      "house": "",
      "postcode": "5450-280",
      "city": "TELÕES VPA",
      "lon": "-7.684985046543439",
      "lat": "41.45589604775152"
    },
    {
      "id": "pt.ine.add.PTCONT.5315452",
      "street": "R DO BACELO",
      "house": "",
      "postcode": "5450-280",
      "city": "TELÕES VPA",
      "lon": "-7.68393261838157",
      "lat": "41.45404614631222"
    },
    {
      "id": "pt.ine.add.PTCONT.5322563",
      "street": "R PADRE JOSÉ RAFAEL",
      "house": "5",
      "postcode": "5450-280",
      "city": "TELÕES VPA",
      "lon": "-7.684817306964179",
      "lat": "41.455922405858146"
    },
    {
      "id": "pt.ine.add.PTCONT.5322564",
      "street": "R DA CAPELA",
      "house": "35",
      "postcode": "5450-280",
      "city": "TELÕES VPA",
      "lon": "-7.684782642608484",
      "lat": "41.455742193045964"
    },
    {
      "id": "pt.ine.add.PTCONT.5334356",
      "street": "R DA CAPELA",
      "house": "",
      "postcode": "5450-280",
      "city": "TELÕES VPA",
      "lon": "-7.685295969800993",
      "lat": "41.45593327407594"
    },
    {
      "id": "pt.ine.add.PTCONT.5339570",
      "street": "R DA CAPELA",
      "house": "",
      "postcode": "5450-280",
      "city": "TELÕES VPA",
      "lon": "-7.684614407162192",
      "lat": "41.455840580014"
    },
    {
      "id": "pt.ine.add.PTCONT.5341383",
      "street": "R DA CAPELA",
      "house": "",
      "postcode": "5450-280",
      "city": "TELÕES VPA",
      "lon": "-7.685116447983662",
      "lat": "41.45593257509436"
    },
    {
      "id": "pt.ine.add.PTCONT.5347483",
      "street": "R DO SOL",
      "house": "",
      "postcode": "5450-280",
      "city": "TELÕES VPA",
      "lon": "-7.68647253076881",
      "lat": "41.45479127068026"
    },
    {
      "id": "pt.ine.add.PTCONT.5355191",
      "street": "R D AFONSO III",
      "house": "",
      "postcode": "5450-280",
      "city": "TELÕES VPA",
      "lon": "-7.685293864193862",
      "lat": "41.456239397994956"
    },
    {
      "id": "pt.ine.add.PTCONT.5360980",
      "street": "R DA CAPELA",
      "house": "",
      "postcode": "5450-280",
      "city": "TELÕES VPA",
      "lon": "-7.684519034555496",
      "lat": "41.45578618482718"
    },
    {
      "id": "pt.ine.add.PTCONT.5376160",
      "street": "R D AFONSO III",
      "house": "46",
      "postcode": "5450-280",
      "city": "TELÕES VPA",
      "lon": "-7.68599955389547",
      "lat": "41.456305170150706"
    },
    {
      "id": "pt.ine.add.PTCONT.5393302",
      "street": "R DA CAPELA",
      "house": "",
      "postcode": "5450-280",
      "city": "TELÕES VPA",
      "lon": "-7.6849017656142795",
      "lat": "41.45582369221239"
    },
    {
      "id": "pt.ine.add.PTCONT.5421277",
      "street": "R D AFONSO III",
      "house": "41",
      "postcode": "5450-280",
      "city": "TELÕES VPA",
      "lon": "-7.68507880875981",
      "lat": "41.45618453730917"
    },
    {
      "id": "pt.ine.add.PTCONT.5423550",
      "street": "R D AFONSO III",
      "house": "",
      "postcode": "5450-280",
      "city": "TELÕES VPA",
      "lon": "-7.685557102214964",
      "lat": "41.45624942631693"
    }
  ]
}