{
  "data": {
    "distrito": "Viseu",
    "concelho": "Viseu",
    "freguesia": "Rio de Loba",
    "OBJECTID": 590,
    "BGRI2021": "18232300308",
    "DT21": "18",
    "DTMN21": "1823",
    "DTMNFR21": "182323",
    "DTMNFRSEC21": "182323003",
    "SECNUM21": "003",
    "SSNUM21": "08",
    "SECSSNUM21": "00308",
    "OBJECTID_1": 201904,
    "DT": "18",
    "CC": "23",
    "fr": "23",
    "SEC": "003",
    "SS": "08"
  },
  "addresses": [
    {
      "id": "pt.ine.add.PTCONT.5429432",
      "street": "R EÇA DE QUEIRÓS",
      "house": "83 B",
      "postcode": "3505-540",
      "city": "VISEU",
      "lon": "-7.886393537151172",
      "lat": "40.65583898674189"
    },
    {
      "id": "pt.ine.add.PTCONT.5445915",
      "street": "R EÇA DE QUEIRÓS",
      "house": "82 A",
      "postcode": "3505-540",
      "city": "VISEU",
      "lon": "-7.8865117131692495",
      "lat": "40.65585724949496"
    },
    {
      "id": "pt.ine.add.PTCONT.5482183",
      "street": "R EÇA DE QUEIRÓS",
      "house": "",
      "postcode": "3505-540",
      "city": "VISEU",
      "lon": "-7.886690633917066",
      "lat": "40.65543438881778"
    },
    {
      "id": "pt.ine.add.PTCONT.5482184",
      "street": "R EÇA DE QUEIRÓS",
      "house": "",
      "postcode": "3505-540",
      "city": "VISEU",
      "lon": "-7.886690633917066",
      "lat": "40.65543438881778"
    },
    {
      "id": "pt.ine.add.PTCONT.5488190",
      "street": "AV ANTÓNIO LOPES PEREIRA",
      "house": "73",
      "postcode": "3505-543",
      "city": "VISEU",
      "lon": "-7.885518310925191",
      "lat": "40.65590014958906"
    },
    {
      "id": "pt.ine.add.PTCONT.5515682",
      "street": "R ECA QUEIROS",
      "house": "81",
      "postcode": "3505-540",
      "city": "VISEU",
      "lon": "-7.886784167399987",
      "lat": "40.655722753576484"
    },
    {
      "id": "pt.ine.add.PTCONT.5516457",
      "street": "R EÇA DE QUEIRÓS",
      "house": "",
      "postcode": "3505-540",
      "city": "VISEU",
      "lon": "-7.886784167399987",
      "lat": "40.655722753576484"
    },
    {
      "id": "pt.ine.add.PTCONT.5518915",
      "street": "R EÇA DE QUEIRÓS",
      "house": "83 A",
      "postcode": "3505-540",
      "city": "VISEU",
      "lon": "-7.8862988105488965",
      "lat": "40.655874804962274"
    },
    {
      "id": "pt.ine.add.PTCONT.5524605",
      "street": "AV ANTONIO LOPES PEREIRA",
      "house": "",
      "postcode": "3505-543",
      "city": "VISEU",
      "lon": "-7.886607699071031",
      "lat": "40.655479237620014"
    },
    {
      "id": "pt.ine.add.PTCONT.5524606",
      "street": "R ECA QUEIROS",
      "house": "78",
      "postcode": "3505-540",
      "city": "VISEU",
      "lon": "-7.886607699071031",
      "lat": "40.655479237620014"
    },
    {
      "id": "pt.ine.add.PTCONT.5567880",
      "street": "R MIGUEL TORGA",
      "house": "",
      "postcode": "3505-537",
      "city": "VISEU",
      "lon": "-7.885505254891648",
      "lat": "40.656233312571736"
    },
    {
      "id": "pt.ine.add.PTCONT.5578929",
      "street": "R EÇA DE QUEIRÓS",
      "house": "82",
      "postcode": "3505-540",
      "city": "VISEU",
      "lon": "-7.886606472777023",
      "lat": "40.655812426008104"
    },
    {
      "id": "pt.ine.add.PTCONT.5584436",
      "street": "R EÇA DE QUEIRÓS",
      "house": "85",
      "postcode": "3505-540",
      "city": "VISEU",
      "lon": "-7.885943485192386",
      "lat": "40.656036137863644"
    },
    {
      "id": "pt.ine.add.PTCONT.5591843",
      "street": "AV ANTÓNIO LOPES PEREIRA",
      "house": "75 B",
      "postcode": "3505-543",
      "city": "VISEU",
      "lon": "-7.885909075983667",
      "lat": "40.65574789902751"
    },
    {
      "id": "pt.ine.add.PTCONT.5596147",
      "street": "AV ANTÓNIO LOPES PEREIRA",
      "house": "75",
      "postcode": "3505-543",
      "city": "VISEU",
      "lon": "-7.885968296753327",
      "lat": "40.65572101030281"
    },
    {
      "id": "pt.ine.add.PTCONT.5618897",
      "street": "R MIGUEL TORGA",
      "house": "",
      "postcode": "3505-537",
      "city": "VISEU",
      "lon": "-7.885340614145313",
      "lat": "40.655989820063645"
    },
    {
      "id": "pt.ine.add.PTCONT.5638730",
      "street": "R EÇA DE QUEIRÓS",
      "house": "87",
      "postcode": "3505-540",
      "city": "VISEU",
      "lon": "-7.885659270256748",
      "lat": "40.656152596264484"
    },
    {
      "id": "pt.ine.add.PTCONT.5641115",
      "street": "R EÇA DE QUEIRÓS",
      "house": "86",
      "postcode": "3505-540",
      "city": "VISEU",
      "lon": "-7.885765821873506",
      "lat": "40.65611680390075"
    },
    {
      "id": "pt.ine.add.PTCONT.5655463",
      "street": "R EÇA DE QUEIRÓS",
      "house": "",
      "postcode": "3505-540",
      "city": "VISEU",
      "lon": "-7.886867201755256",
      "lat": "40.65565088937483"
    },
    {
      "id": "pt.ine.add.PTCONT.5656537",
      "street": "R EÇA DE QUEIRÓS",
      "house": "",
      "postcode": "3505-540",
      "city": "VISEU",
      "lon": "-7.886867201755256",
      "lat": "40.65565088937483"
    },
    {
      "id": "pt.ine.add.PTCONT.5665137",
      "street": "R EÇA DE QUEIRÓS",
      "house": "84",
      "postcode": "3505-540",
      "city": "VISEU",
      "lon": "-7.886121048457777",
      "lat": "40.65598248682303"
    }
  ]
}