{
  "data": {
    "distrito": "Coimbra",
    "concelho": "Figueira da Foz",
    "freguesia": "Buarcos e São Julião",
    "OBJECTID": 1287,
    "BGRI2021": "06052000913",
    "DT21": "06",
    "DTMN21": "0605",
    "DTMNFR21": "060520",
    "DTMNFRSEC21": "060520009",
    "SECNUM21": "009",
    "SSNUM21": "13",
    "SECSSNUM21": "00913",
    "OBJECTID_1": 51085,
    "DT": "06",
    "CC": "05",
    "fr": "20",
    "SEC": "009",
    "SS": "13"
  },
  "addresses": [
    {
      "id": "pt.ine.add.PTCONT.1102812",
      "street": "R LIBERDADE",
      "house": "150",
      "postcode": "3080-168",
      "city": "FIGUEIRA DA FOZ",
      "lon": "-8.864489761358225",
      "lat": "40.152074603969304"
    },
    {
      "id": "pt.ine.add.PTCONT.1104964",
      "street": "R S LOURENÇO",
      "house": "41",
      "postcode": "3080-172",
      "city": "FIGUEIRA DA FOZ",
      "lon": "-8.864027923107999",
      "lat": "40.15169026923284"
    },
    {
      "id": "pt.ine.add.PTCONT.1115213",
      "street": "R S LOURENÇO",
      "house": "33",
      "postcode": "3080-172",
      "city": "FIGUEIRA DA FOZ",
      "lon": "-8.864061488353638",
      "lat": "40.15153695811156"
    },
    {
      "id": "pt.ine.add.PTCONT.1127669",
      "street": "R FONTE",
      "house": "117",
      "postcode": "3080-177",
      "city": "FIGUEIRA DA FOZ",
      "lon": "-8.864042844493918",
      "lat": "40.15198736766763"
    },
    {
      "id": "pt.ine.add.PTCONT.1129696",
      "street": "R LIBERDADE",
      "house": "106 108",
      "postcode": "3080-168",
      "city": "FIGUEIRA DA FOZ",
      "lon": "-8.86453713612043",
      "lat": "40.15102062173897"
    },
    {
      "id": "pt.ine.add.PTCONT.1136025",
      "street": "R LIBERDADE",
      "house": "140",
      "postcode": "3080-168",
      "city": "FIGUEIRA DA FOZ",
      "lon": "-8.864487153117613",
      "lat": "40.15183146284965"
    },
    {
      "id": "pt.ine.add.PTCONT.1165557",
      "street": "R LIBERDADE",
      "house": "136 138",
      "postcode": "3080-168",
      "city": "FIGUEIRA DA FOZ",
      "lon": "-8.864486380311675",
      "lat": "40.151759421034406"
    },
    {
      "id": "pt.ine.add.PTCONT.1167626",
      "street": "R DR ANTÓNIO LOPES GUIMARÃES",
      "house": "3",
      "postcode": "3080-169",
      "city": "FIGUEIRA DA FOZ",
      "lon": "-8.864195310069473",
      "lat": "40.15197739927771"
    },
    {
      "id": "pt.ine.add.PTCONT.1172159",
      "street": "R S LOURENÇO",
      "house": "31",
      "postcode": "3080-172",
      "city": "FIGUEIRA DA FOZ",
      "lon": "-8.86406100563572",
      "lat": "40.15149193197058"
    },
    {
      "id": "pt.ine.add.PTCONT.1173739",
      "street": "R LIBERDADE",
      "house": "132 134",
      "postcode": "3080-168",
      "city": "FIGUEIRA DA FOZ",
      "lon": "-8.864497439606886",
      "lat": "40.1516963103186"
    },
    {
      "id": "pt.ine.add.PTCONT.1176010",
      "street": "R LIBERDADE",
      "house": "112",
      "postcode": "3080-168",
      "city": "FIGUEIRA DA FOZ",
      "lon": "-8.864503861985808",
      "lat": "40.15120094868339"
    },
    {
      "id": "pt.ine.add.PTCONT.1178581",
      "street": "R S LOURENÇO",
      "house": "39",
      "postcode": "3080-172",
      "city": "FIGUEIRA DA FOZ",
      "lon": "-8.864074478917262",
      "lat": "40.15165395199262"
    },
    {
      "id": "pt.ine.add.PTCONT.1183793",
      "street": "R DR ANTÓNIO LOPES GUIMARÃES",
      "house": "4",
      "postcode": "3080-169",
      "city": "FIGUEIRA DA FOZ",
      "lon": "-8.864384141287319",
      "lat": "40.15207527106538"
    },
    {
      "id": "pt.ine.add.PTCONT.1188354",
      "street": "R S LOURENÇO",
      "house": "43",
      "postcode": "3080-172",
      "city": "FIGUEIRA DA FOZ",
      "lon": "-8.864028405807455",
      "lat": "40.151735295372625"
    },
    {
      "id": "pt.ine.add.PTCONT.1190326",
      "street": "R LIBERDADE",
      "house": "114 120",
      "postcode": "3080-168",
      "city": "FIGUEIRA DA FOZ",
      "lon": "-8.864505117802095",
      "lat": "40.15131801664354"
    },
    {
      "id": "pt.ine.add.PTCONT.1216200",
      "street": "R S LOURENÇO",
      "house": "49 53",
      "postcode": "3080-172",
      "city": "FIGUEIRA DA FOZ",
      "lon": "-8.864030529697981",
      "lat": "40.15193341038339"
    },
    {
      "id": "pt.ine.add.PTCONT.1218255",
      "street": "R FONTE",
      "house": "123",
      "postcode": "3080-177",
      "city": "FIGUEIRA DA FOZ",
      "lon": "-8.864444944225088",
      "lat": "40.15227301544912"
    },
    {
      "id": "pt.ine.add.PTCONT.1220152",
      "street": "R DR ANTÓNIO LOPES GUIMARÃES",
      "house": "7",
      "postcode": "3080-169",
      "city": "FIGUEIRA DA FOZ",
      "lon": "-8.864406453322704",
      "lat": "40.1519670601096"
    },
    {
      "id": "pt.ine.add.PTCONT.1220153",
      "street": "R DR ANTÓNIO LOPES GUIMARÃES",
      "house": "7",
      "postcode": "3080-169",
      "city": "FIGUEIRA DA FOZ",
      "lon": "-8.864406453322704",
      "lat": "40.1519670601096"
    },
    {
      "id": "pt.ine.add.PTCONT.1220154",
      "street": "R DR ANTÓNIO LOPES GUIMARÃES",
      "house": "7",
      "postcode": "3080-169",
      "city": "FIGUEIRA DA FOZ",
      "lon": "-8.864406453322704",
      "lat": "40.1519670601096"
    },
    {
      "id": "pt.ine.add.PTCONT.1220155",
      "street": "R DR ANTÓNIO LOPES GUIMARÃES",
      "house": "7",
      "postcode": "3080-169",
      "city": "FIGUEIRA DA FOZ",
      "lon": "-8.864406453322704",
      "lat": "40.1519670601096"
    },
    {
      "id": "pt.ine.add.PTCONT.1220156",
      "street": "R DR ANTÓNIO LOPES GUIMARÃES",
      "house": "7",
      "postcode": "3080-169",
      "city": "FIGUEIRA DA FOZ",
      "lon": "-8.864406453322704",
      "lat": "40.1519670601096"
    },
    {
      "id": "pt.ine.add.PTCONT.1220157",
      "street": "R DR ANTÓNIO LOPES GUIMARÃES",
      "house": "7",
      "postcode": "3080-169",
      "city": "FIGUEIRA DA FOZ",
      "lon": "-8.864406453322704",
      "lat": "40.1519670601096"
    },
    {
      "id": "pt.ine.add.PTCONT.1220158",
      "street": "R DR ANTÓNIO LOPES GUIMARÃES",
      "house": "7",
      "postcode": "3080-169",
      "city": "FIGUEIRA DA FOZ",
      "lon": "-8.864406453322704",
      "lat": "40.1519670601096"
    },
    {
      "id": "pt.ine.add.PTCONT.1220159",
      "street": "R DR ANTÓNIO LOPES GUIMARÃES",
      "house": "7",
      "postcode": "3080-169",
      "city": "FIGUEIRA DA FOZ",
      "lon": "-8.864406453322704",
      "lat": "40.1519670601096"
    },
    {
      "id": "pt.ine.add.PTCONT.1220160",
      "street": "R DR ANTÓNIO LOPES GUIMARÃES",
      "house": "7",
      "postcode": "3080-169",
      "city": "FIGUEIRA DA FOZ",
      "lon": "-8.864406453322704",
      "lat": "40.1519670601096"
    },
    {
      "id": "pt.ine.add.PTCONT.1220161",
      "street": "R DR ANTÓNIO LOPES GUIMARÃES",
      "house": "7",
      "postcode": "3080-169",
      "city": "FIGUEIRA DA FOZ",
      "lon": "-8.864406453322704",
      "lat": "40.1519670601096"
    },
    {
      "id": "pt.ine.add.PTCONT.1220265",
      "street": "R DR ANTÓNIO LOPES GUIMARÃES",
      "house": "7",
      "postcode": "3080-169",
      "city": "FIGUEIRA DA FOZ",
      "lon": "-8.864406453322704",
      "lat": "40.1519670601096"
    },
    {
      "id": "pt.ine.add.PTCONT.1220266",
      "street": "R DR ANTÓNIO LOPES GUIMARÃES",
      "house": "7",
      "postcode": "3080-169",
      "city": "FIGUEIRA DA FOZ",
      "lon": "-8.864406453322704",
      "lat": "40.1519670601096"
    },
    {
      "id": "pt.ine.add.PTCONT.1251324",
      "street": "R S LOURENÇO",
      "house": "47",
      "postcode": "3080-172",
      "city": "FIGUEIRA DA FOZ",
      "lon": "-8.864018311461324",
      "lat": "40.15188845832484"
    },
    {
      "id": "pt.ine.add.PTCONT.1271467",
      "street": "R S LOURENÇO",
      "house": "37",
      "postcode": "3080-172",
      "city": "FIGUEIRA DA FOZ",
      "lon": "-8.864050525220328",
      "lat": "40.1516090740189"
    },
    {
      "id": "pt.ine.add.PTCONT.1280093",
      "street": "R S LOURENÇO",
      "house": "35",
      "postcode": "3080-172",
      "city": "FIGUEIRA DA FOZ",
      "lon": "-8.864061874528753",
      "lat": "40.151572979024095"
    },
    {
      "id": "pt.ine.add.PTCONT.1280094",
      "street": "R S LOURENÇO",
      "house": "25",
      "postcode": "3080-172",
      "city": "FIGUEIRA DA FOZ",
      "lon": "-8.864082738732492",
      "lat": "40.15132968969295"
    },
    {
      "id": "pt.ine.add.PTCONT.1280095",
      "street": "R S LOURENÇO",
      "house": "25",
      "postcode": "3080-172",
      "city": "FIGUEIRA DA FOZ",
      "lon": "-8.864082738732492",
      "lat": "40.15132968969295"
    },
    {
      "id": "pt.ine.add.PTCONT.1280430",
      "street": "R S LOURENÇO",
      "house": "25",
      "postcode": "3080-172",
      "city": "FIGUEIRA DA FOZ",
      "lon": "-8.864082738732492",
      "lat": "40.15132968969295"
    },
    {
      "id": "pt.ine.add.PTCONT.1285911",
      "street": "R LIBERDADE",
      "house": "152 154",
      "postcode": "3080-168",
      "city": "FIGUEIRA DA FOZ",
      "lon": "-8.86447879860069",
      "lat": "40.15214671990728"
    },
    {
      "id": "pt.ine.add.PTCONT.1292084",
      "street": "R S LOURENÇO",
      "house": "45",
      "postcode": "3080-172",
      "city": "FIGUEIRA DA FOZ",
      "lon": "-8.86401773222697",
      "lat": "40.15183442695838"
    },
    {
      "id": "pt.ine.add.PTCONT.1301505",
      "street": "R MAESTRO DAVID DE SOUSA",
      "house": "66 68",
      "postcode": "3080-174",
      "city": "FIGUEIRA DA FOZ",
      "lon": "-8.864361201971436",
      "lat": "40.15103073878857"
    },
    {
      "id": "pt.ine.add.PTCONT.1305906",
      "street": "R S LOURENÇO",
      "house": "21",
      "postcode": "3080-172",
      "city": "FIGUEIRA DA FOZ",
      "lon": "-8.8640939914324",
      "lat": "40.15128458946533"
    },
    {
      "id": "pt.ine.add.PTCONT.1306716",
      "street": "R S LOURENÇO",
      "house": "6",
      "postcode": "3080-172",
      "city": "FIGUEIRA DA FOZ",
      "lon": "-8.864231482388483",
      "lat": "40.15206722925155"
    },
    {
      "id": "pt.ine.add.PTCONT.1308325",
      "street": "R S LOURENÇO",
      "house": "19",
      "postcode": "3080-172",
      "city": "FIGUEIRA DA FOZ",
      "lon": "-8.864093605244253",
      "lat": "40.15124856855123"
    },
    {
      "id": "pt.ine.add.PTCONT.1315029",
      "street": "R S LOURENÇO",
      "house": "27",
      "postcode": "3080-172",
      "city": "FIGUEIRA DA FOZ",
      "lon": "-8.864083221461991",
      "lat": "40.15137471583497"
    },
    {
      "id": "pt.ine.add.PTCONT.1315030",
      "street": "R S LOURENÇO",
      "house": "27",
      "postcode": "3080-172",
      "city": "FIGUEIRA DA FOZ",
      "lon": "-8.864083221461991",
      "lat": "40.15137471583497"
    },
    {
      "id": "pt.ine.add.PTCONT.1324078",
      "street": "R S LOURENCO",
      "house": "29",
      "postcode": "3080-172",
      "city": "FIGUEIRA DA FOZ",
      "lon": "-8.864083800738827",
      "lat": "40.151428747204946"
    },
    {
      "id": "pt.ine.add.PTCONT.1327126",
      "street": "R LIBERDADE",
      "house": "126",
      "postcode": "3080-168",
      "city": "FIGUEIRA DA FOZ",
      "lon": "-8.864506373625735",
      "lat": "40.15143508460129"
    },
    {
      "id": "pt.ine.add.PTCONT.1327127",
      "street": "R LIBERDADE",
      "house": "126",
      "postcode": "3080-168",
      "city": "FIGUEIRA DA FOZ",
      "lon": "-8.864506373625735",
      "lat": "40.15143508460129"
    },
    {
      "id": "pt.ine.add.PTCONT.1336981",
      "street": "R LIBERDADE",
      "house": "130",
      "postcode": "3080-168",
      "city": "FIGUEIRA DA FOZ",
      "lon": "-8.86449628038826",
      "lat": "40.15158824759314"
    },
    {
      "id": "pt.ine.add.PTCONT.1342569",
      "street": "R DR ANTÓNIO LOPES GUIMARÃES",
      "house": "1",
      "postcode": "3080-169",
      "city": "FIGUEIRA DA FOZ",
      "lon": "-8.864113161237455",
      "lat": "40.151977917928605"
    },
    {
      "id": "pt.ine.add.PTCONT.1348673",
      "street": "R LIBERDADE",
      "house": "1561158",
      "postcode": "3080-168",
      "city": "FIGUEIRA DA FOZ",
      "lon": "-8.864467932420812",
      "lat": "40.152227841069795"
    },
    {
      "id": "pt.ine.add.PTCONT.1357197",
      "street": "R LIBERDADE",
      "house": "128",
      "postcode": "3080-168",
      "city": "FIGUEIRA DA FOZ",
      "lon": "-8.864495604180284",
      "lat": "40.15152521100233"
    },
    {
      "id": "pt.ine.add.PTCONT.1357198",
      "street": "R LIBERDADE",
      "house": "128",
      "postcode": "3080-168",
      "city": "FIGUEIRA DA FOZ",
      "lon": "-8.864495604180284",
      "lat": "40.15152521100233"
    }
  ]
}