{
  "data": {
    "distrito": "Viana do Castelo",
    "concelho": "Viana do Castelo",
    "freguesia": "Areosa",
    "OBJECTID": 1105,
    "BGRI2021": "16090500213",
    "DT21": "16",
    "DTMN21": "1609",
    "DTMNFR21": "160905",
    "DTMNFRSEC21": "160905002",
    "SECNUM21": "002",
    "SSNUM21": "13",
    "SECSSNUM21": "00213",
    "OBJECTID_1": 178093,
    "DT": "16",
    "CC": "09",
    "fr": "05",
    "SEC": "002",
    "SS": "13"
  },
  "addresses": [
    {
      "id": "pt.ine.add.PTCONT.5150200",
      "street": "AV S JO√ÉO BOSCO MGM 18 FEVEREIRO 1868",
      "house": "750",
      "postcode": "4900-896",
      "city": "VIANA DO CASTELO",
      "lon": "-8.849538412949475",
      "lat": "41.70859359668574"
    },
    {
      "id": "pt.ine.add.PTCONT.5156927",
      "street": "R GIESTEIRA DE AREOSA",
      "house": "68",
      "postcode": "4900-771",
      "city": "VIANA DO CASTELO",
      "lon": "-8.849064434167975",
      "lat": "41.70919077781936"
    },
    {
      "id": "pt.ine.add.PTCONT.5160365",
      "street": "R TRAS DO RIO",
      "house": "169",
      "postcode": "4900-933",
      "city": "VIANA DO CASTELO",
      "lon": "-8.847959408071645",
      "lat": "41.7092246675364"
    },
    {
      "id": "pt.ine.add.PTCONT.5161665",
      "street": "R BARROSA",
      "house": "1",
      "postcode": "4900-659",
      "city": "VIANA DO CASTELO",
      "lon": "-8.84735843249539",
      "lat": "41.71029081040344"
    },
    {
      "id": "pt.ine.add.PTCONT.5162573",
      "street": "AV MEIO",
      "house": "100",
      "postcode": "4900-834",
      "city": "VIANA DO CASTELO",
      "lon": "-8.84934406323221",
      "lat": "41.70948614881778"
    },
    {
      "id": "pt.ine.add.PTCONT.5162574",
      "street": "AV MEIO",
      "house": "100",
      "postcode": "4900-834",
      "city": "VIANA DO CASTELO",
      "lon": "-8.84934406323221",
      "lat": "41.70948614881778"
    },
    {
      "id": "pt.ine.add.PTCONT.5162575",
      "street": "AV MEIO",
      "house": "100",
      "postcode": "4900-834",
      "city": "VIANA DO CASTELO",
      "lon": "-8.84934406323221",
      "lat": "41.70948614881778"
    },
    {
      "id": "pt.ine.add.PTCONT.5162576",
      "street": "AV MEIO",
      "house": "100",
      "postcode": "4900-834",
      "city": "VIANA DO CASTELO",
      "lon": "-8.84934406323221",
      "lat": "41.70948614881778"
    },
    {
      "id": "pt.ine.add.PTCONT.5162577",
      "street": "R GIESTEIRA DE AREOSA",
      "house": "207",
      "postcode": "4900-771",
      "city": "VIANA DO CASTELO",
      "lon": "-8.847834030689771",
      "lat": "41.709837681347686"
    },
    {
      "id": "pt.ine.add.PTCONT.5166136",
      "street": "AV MUNICIPAL",
      "house": "12",
      "postcode": "4900-850",
      "city": "VIANA DO CASTELO",
      "lon": "-8.849576455090817",
      "lat": "41.708773428330886"
    },
    {
      "id": "pt.ine.add.PTCONT.5167241",
      "street": "AV MUNICIPAL",
      "house": "32",
      "postcode": "4900-850",
      "city": "VIANA DO CASTELO",
      "lon": "-8.849469925355217",
      "lat": "41.708918147529076"
    },
    {
      "id": "pt.ine.add.PTCONT.5182984",
      "street": "R GIESTEIRA",
      "house": "25",
      "postcode": "4900-752",
      "city": "VIANA DO CASTELO",
      "lon": "-8.849292008347453",
      "lat": "41.70912633564166"
    },
    {
      "id": "pt.ine.add.PTCONT.5182985",
      "street": "R GIESTEIRA DE AREOSA",
      "house": "149",
      "postcode": "4900-771",
      "city": "VIANA DO CASTELO",
      "lon": "-8.848145111400246",
      "lat": "41.70971870139077"
    },
    {
      "id": "pt.ine.add.PTCONT.5195790",
      "street": "LG GIESTEIRA DE AREOSA",
      "house": "6",
      "postcode": "4900-770",
      "city": "VIANA DO CASTELO",
      "lon": "-8.847224079654389",
      "lat": "41.710093569733175"
    },
    {
      "id": "pt.ine.add.PTCONT.5199864",
      "street": "R GIESTEIRA DE AREOSA",
      "house": "188",
      "postcode": "4900-771",
      "city": "VIANA DO CASTELO",
      "lon": "-8.847964395120671",
      "lat": "41.70967480853223"
    },
    {
      "id": "pt.ine.add.PTCONT.5200992",
      "street": "R TRAS DO RIO",
      "house": "47",
      "postcode": "4900-933",
      "city": "VIANA DO CASTELO",
      "lon": "-8.849094583420877",
      "lat": "41.70865938695958"
    },
    {
      "id": "pt.ine.add.PTCONT.5202520",
      "street": "R JERONIMO VIEITAS COSTA",
      "house": "457",
      "postcode": "4900-778",
      "city": "VIANA DO CASTELO",
      "lon": "-8.847329021891694",
      "lat": "41.709804807463954"
    },
    {
      "id": "pt.ine.add.PTCONT.5213181",
      "street": "TV GIESTEIRA DE AREOSA",
      "house": "92",
      "postcode": "4900-773",
      "city": "VIANA DO CASTELO",
      "lon": "-8.848078810381274",
      "lat": "41.710241313414116"
    },
    {
      "id": "pt.ine.add.PTCONT.5218751",
      "street": "R GIESTEIRA DE AREOSA",
      "house": "233",
      "postcode": "4900-771",
      "city": "VIANA DO CASTELO",
      "lon": "-8.847416213204442",
      "lat": "41.710083372145334"
    },
    {
      "id": "pt.ine.add.PTCONT.5228436",
      "street": "R GIESTEIRA DE AREOSA",
      "house": "102",
      "postcode": "4900-771",
      "city": "VIANA DO CASTELO",
      "lon": "-8.848682069887873",
      "lat": "41.70938223169937"
    },
    {
      "id": "pt.ine.add.PTCONT.5230712",
      "street": "R RAPADOURA CASA PIMENTA DA GAMA",
      "house": "26",
      "postcode": "4900-071",
      "city": "VIANA DO CASTELO",
      "lon": "-8.848592543099803",
      "lat": "41.709977016183124"
    },
    {
      "id": "pt.ine.add.PTCONT.5236100",
      "street": "AV MUNICIPAL",
      "house": "30",
      "postcode": "4900-850",
      "city": "VIANA DO CASTELO",
      "lon": "-8.849468925862343",
      "lat": "41.70882811935048"
    },
    {
      "id": "pt.ine.add.PTCONT.5241521",
      "street": "R TRAS DO RIO",
      "house": "89",
      "postcode": "4900-933",
      "city": "VIANA DO CASTELO",
      "lon": "-8.849027092405764",
      "lat": "41.70907396573767"
    },
    {
      "id": "pt.ine.add.PTCONT.5242620",
      "street": "R TRAS DO RIO",
      "house": "125",
      "postcode": "4900-933",
      "city": "VIANA DO CASTELO",
      "lon": "-8.848305730474118",
      "lat": "41.709033440375414"
    },
    {
      "id": "pt.ine.add.PTCONT.5243179",
      "street": "R TRAS DO RIO",
      "house": "85",
      "postcode": "4900-933",
      "city": "VIANA DO CASTELO",
      "lon": "-8.849013280072404",
      "lat": "41.7089119898528"
    },
    {
      "id": "pt.ine.add.PTCONT.5245050",
      "street": "R FINCAO",
      "house": "32",
      "postcode": "4900-911",
      "city": "VIANA DO CASTELO",
      "lon": "-8.846529025927724",
      "lat": "41.71025994885981"
    },
    {
      "id": "pt.ine.add.PTCONT.5247305",
      "street": "R TRAS DO RIO",
      "house": "49",
      "postcode": "4900-933",
      "city": "VIANA DO CASTELO",
      "lon": "-8.848998868515151",
      "lat": "41.708695997047094"
    },
    {
      "id": "pt.ine.add.PTCONT.5252989",
      "street": "R TRAS DO RIO",
      "house": "",
      "postcode": "4900-933",
      "city": "VIANA DO CASTELO",
      "lon": "-8.848448605490345",
      "lat": "41.70891550633494"
    },
    {
      "id": "pt.ine.add.PTCONT.5264624",
      "street": "R GIESTEIRA DE AREOSA",
      "house": "152",
      "postcode": "4900-771",
      "city": "VIANA DO CASTELO",
      "lon": "-8.848179059699989",
      "lat": "41.70952941790556"
    },
    {
      "id": "pt.ine.add.PTCONT.5265580",
      "street": "R TRAS DO RIO",
      "house": "149",
      "postcode": "4900-933",
      "city": "VIANA DO CASTELO",
      "lon": "-8.848138826138959",
      "lat": "41.709151523756866"
    },
    {
      "id": "pt.ine.add.PTCONT.5272213",
      "street": "R TRAS DO RIO",
      "house": "191",
      "postcode": "4900-933",
      "city": "VIANA DO CASTELO",
      "lon": "-8.847805913106514",
      "lat": "41.709468715182005"
    },
    {
      "id": "pt.ine.add.PTCONT.5272364",
      "street": "R GIESTEIRA DE AREOSA",
      "house": "200",
      "postcode": "4900-771",
      "city": "VIANA DO CASTELO",
      "lon": "-8.8477128883405",
      "lat": "41.70974840034963"
    },
    {
      "id": "pt.ine.add.PTCONT.5285432",
      "street": "AV MUNICIPAL",
      "house": "168",
      "postcode": "4900-850",
      "city": "VIANA DO CASTELO",
      "lon": "-8.849072625620495",
      "lat": "41.70992900885988"
    }
  ]
}