{
  "data": {
    "distrito": "Porto",
    "concelho": "Maia",
    "freguesia": "Nogueira e Silva Escura",
    "OBJECTID": 199,
    "BGRI2021": "13062000504",
    "DT21": "13",
    "DTMN21": "1306",
    "DTMNFR21": "130620",
    "DTMNFRSEC21": "130620005",
    "SECNUM21": "005",
    "SSNUM21": "04",
    "SECSSNUM21": "00504",
    "OBJECTID_1": 130277,
    "DT": "13",
    "CC": "06",
    "fr": "20",
    "SEC": "005",
    "SS": "04"
  },
  "addresses": [
    {
      "id": "pt.ine.add.PTCONT.3542954",
      "street": "R LAVADEIRAS",
      "house": "69",
      "postcode": "4475-410",
      "city": "MAIA",
      "lon": "-8.58390748289558",
      "lat": "41.240364562143476"
    },
    {
      "id": "pt.ine.add.PTCONT.3582324",
      "street": "LUGAR DA IGREJA",
      "house": "7",
      "postcode": "4475-473",
      "city": "MAIA",
      "lon": "-8.586777443442234",
      "lat": "41.23965096093958"
    },
    {
      "id": "pt.ine.add.PTCONT.3585886",
      "street": "R AVELINO DE SOUSA MARQUES",
      "house": "686",
      "postcode": "4475-460",
      "city": "MAIA",
      "lon": "-8.58597909927804",
      "lat": "41.23978016275761"
    },
    {
      "id": "pt.ine.add.PTCONT.3585913",
      "street": "R AVELINO DE SOUSA MARQUES",
      "house": "686",
      "postcode": "4475-460",
      "city": "MAIA",
      "lon": "-8.58597909927804",
      "lat": "41.23978016275761"
    },
    {
      "id": "pt.ine.add.PTCONT.3615800",
      "street": "R JOAQUIM OLIVEIRA LOPES DOS SANTOS",
      "house": "220",
      "postcode": "4475-475",
      "city": "MAIA",
      "lon": "-8.584123437622965",
      "lat": "41.24054380089446"
    },
    {
      "id": "pt.ine.add.PTCONT.3618893",
      "street": "R AVELINO DE SOUSA MARQUES",
      "house": "696",
      "postcode": "4475-460",
      "city": "MAIA",
      "lon": "-8.586050733017869",
      "lat": "41.23978888521781"
    },
    {
      "id": "pt.ine.add.PTCONT.3618894",
      "street": "R AVELINO DE SOUSA MARQUES",
      "house": "696",
      "postcode": "4475-460",
      "city": "MAIA",
      "lon": "-8.586050733017869",
      "lat": "41.23978888521781"
    },
    {
      "id": "pt.ine.add.PTCONT.3669912",
      "street": "R JOAQUIM OLIVEIRA LOPES DOS SANTOS",
      "house": "172",
      "postcode": "4475-475",
      "city": "MAIA",
      "lon": "-8.584672345465643",
      "lat": "41.24056866220108"
    },
    {
      "id": "pt.ine.add.PTCONT.3678805",
      "street": "R JOAQUIM OLIVEIRA LOPES DOS SANTOS",
      "house": "126",
      "postcode": "4475-475",
      "city": "MAIA",
      "lon": "-8.584849416543808",
      "lat": "41.240297840992994"
    },
    {
      "id": "pt.ine.add.PTCONT.3685337",
      "street": "R JOAQUIM OLIVEIRA LOPES DOS SANTOS",
      "house": "114",
      "postcode": "4475-475",
      "city": "MAIA",
      "lon": "-8.585412424012958",
      "lat": "41.24063779120696"
    },
    {
      "id": "pt.ine.add.PTCONT.3685338",
      "street": "R JOAQUIM OLIVEIRA LOPES DOS SANTOS",
      "house": "242",
      "postcode": "4475-475",
      "city": "MAIA",
      "lon": "-8.583848891052696",
      "lat": "41.24051786328987"
    },
    {
      "id": "pt.ine.add.PTCONT.3688832",
      "street": "R JOAQUIM OLIVEIRA LOPES DOS SANTOS",
      "house": "222",
      "postcode": "4475-475",
      "city": "MAIA",
      "lon": "-8.584039812676679",
      "lat": "41.240526119976394"
    },
    {
      "id": "pt.ine.add.PTCONT.3740646",
      "street": "R JOAQUIM OLIVEIRA LOPES DOS SANTOS",
      "house": "54",
      "postcode": "4475-475",
      "city": "MAIA",
      "lon": "-8.58615163355118",
      "lat": "41.24058085977767"
    },
    {
      "id": "pt.ine.add.PTCONT.3776098",
      "street": "R PADRE ANTÓNIO COSTA",
      "house": "304",
      "postcode": "4475-454",
      "city": "MAIA",
      "lon": "-8.585253875039047",
      "lat": "41.2401341774935"
    },
    {
      "id": "pt.ine.add.PTCONT.3845354",
      "street": "R AVELINO DE SOUSA MARQUES",
      "house": "785",
      "postcode": "4475-460",
      "city": "MAIA",
      "lon": "-8.586527192361451",
      "lat": "41.239687963545165"
    },
    {
      "id": "pt.ine.add.PTCONT.3861286",
      "street": "R NOVAIS",
      "house": "584",
      "postcode": "4475-488",
      "city": "MAIA",
      "lon": "-8.584141971363552",
      "lat": "41.23976936519343"
    },
    {
      "id": "pt.ine.add.PTCONT.3871847",
      "street": "LG IGREJA",
      "house": "25",
      "postcode": "4475-062",
      "city": "MAIA",
      "lon": "-8.586800615644707",
      "lat": "41.239551823190745"
    },
    {
      "id": "pt.ine.add.PTCONT.3929112",
      "street": "R PADRE ANTÓNIO COSTA",
      "house": "282",
      "postcode": "4475-454",
      "city": "MAIA",
      "lon": "-8.58687667097377",
      "lat": "41.240199827485775"
    },
    {
      "id": "pt.ine.add.PTCONT.3971323",
      "street": "R AVELINO DE SOUSA MARQUES",
      "house": "625",
      "postcode": "4475-460",
      "city": "MAIA",
      "lon": "-8.585307312059964",
      "lat": "41.23923354537819"
    },
    {
      "id": "pt.ine.add.PTCONT.4009665",
      "street": "R JOAQUIM OLIVEIRA LOPES DOS SANTOS",
      "house": "116",
      "postcode": "4475-475",
      "city": "MAIA",
      "lon": "-8.58534066528832",
      "lat": "41.24061106040038"
    },
    {
      "id": "pt.ine.add.PTCONT.4071383",
      "street": "R LAVADEIRAS",
      "house": "27",
      "postcode": "4475-410",
      "city": "MAIA",
      "lon": "-8.583929298444561",
      "lat": "41.24006733740321"
    },
    {
      "id": "pt.ine.add.PTCONT.4075483",
      "street": "R LAVADEIRAS",
      "house": "27",
      "postcode": "4475-410",
      "city": "MAIA",
      "lon": "-8.583929298444561",
      "lat": "41.24006733740321"
    },
    {
      "id": "pt.ine.add.PTCONT.4103921",
      "street": "R PADRE ANTÓNIO COSTA",
      "house": "68",
      "postcode": "4475-454",
      "city": "MAIA",
      "lon": "-8.587209078245776",
      "lat": "41.23824460062404"
    },
    {
      "id": "pt.ine.add.PTCONT.4156334",
      "street": "R JOAQUIM OLIVEIRA LOPES DOS SANTOS",
      "house": "240",
      "postcode": "4475-475",
      "city": "MAIA",
      "lon": "-8.583944320920436",
      "lat": "41.24051748968307"
    },
    {
      "id": "pt.ine.add.PTCONT.4156335",
      "street": "R LAVADEIRAS",
      "house": "59",
      "postcode": "4475-410",
      "city": "MAIA",
      "lon": "-8.583906926050512",
      "lat": "41.24028352632634"
    },
    {
      "id": "pt.ine.add.PTCONT.4175851",
      "street": "R AVELINO DE SOUSA MARQUES",
      "house": "743",
      "postcode": "4475-460",
      "city": "MAIA",
      "lon": "-8.58638392499975",
      "lat": "41.239670519172144"
    },
    {
      "id": "pt.ine.add.PTCONT.4188740",
      "street": "R AVELINO DE SOUSA MARQUES",
      "house": "679",
      "postcode": "4475-460",
      "city": "MAIA",
      "lon": "-8.58595375045651",
      "lat": "41.239564161111126"
    },
    {
      "id": "pt.ine.add.PTCONT.4195564",
      "street": "R JOAQUIM OLIVEIRA LOPES DOS SANTOS",
      "house": "102",
      "postcode": "4475-475",
      "city": "MAIA",
      "lon": "-8.585519658599855",
      "lat": "41.24061936148056"
    },
    {
      "id": "pt.ine.add.PTCONT.4199495",
      "street": "LUGAR DA IGREJA",
      "house": "29",
      "postcode": "4475-473",
      "city": "MAIA",
      "lon": "-8.586764207364958",
      "lat": "41.23946192441349"
    },
    {
      "id": "pt.ine.add.PTCONT.4204882",
      "street": "R JOAQUIM OLIVEIRA LOPES DOS SANTOS",
      "house": "70",
      "postcode": "4475-475",
      "city": "MAIA",
      "lon": "-8.585960338609771",
      "lat": "41.24051858273439"
    },
    {
      "id": "pt.ine.add.PTCONT.4221761",
      "street": "LUGAR DA IGREJA",
      "house": "19",
      "postcode": "4475-473",
      "city": "MAIA",
      "lon": "-8.586430892702353",
      "lat": "41.23956228359947"
    },
    {
      "id": "pt.ine.add.PTCONT.4234569",
      "street": "R LAVADEIRAS",
      "house": "37",
      "postcode": "4475-410",
      "city": "MAIA",
      "lon": "-8.583917926646754",
      "lat": "41.240148419926484"
    },
    {
      "id": "pt.ine.add.PTCONT.4260976",
      "street": "R AVELINO DE SOUSA MARQUES",
      "house": "624",
      "postcode": "4475-460",
      "city": "MAIA",
      "lon": "-8.585142546495488",
      "lat": "41.23955834436414"
    },
    {
      "id": "pt.ine.add.PTCONT.4287800",
      "street": "R AVELINO SOUSA MARQUES",
      "house": "659",
      "postcode": "4475-460",
      "city": "MAIA",
      "lon": "-8.586658406720758",
      "lat": "41.239687446771825"
    },
    {
      "id": "pt.ine.add.PTCONT.4301273",
      "street": "R AVELINO DE SOUSA MARQUES",
      "house": "659",
      "postcode": "4475-460",
      "city": "MAIA",
      "lon": "-8.585618570866544",
      "lat": "41.23939439859419"
    },
    {
      "id": "pt.ine.add.PTCONT.4342605",
      "street": "R PADRE ANTÓNIO COSTA",
      "house": "204",
      "postcode": "4475-454",
      "city": "MAIA",
      "lon": "-8.587170026869734",
      "lat": "41.23949634171103"
    }
  ]
}