{
  "data": {
    "distrito": "Santar√©m",
    "concelho": "Almeirim",
    "freguesia": "Almeirim",
    "OBJECTID": 175,
    "BGRI2021": "14030100518",
    "DT21": "14",
    "DTMN21": "1403",
    "DTMNFR21": "140301",
    "DTMNFRSEC21": "140301005",
    "SECNUM21": "005",
    "SSNUM21": "18",
    "SECSSNUM21": "00518",
    "OBJECTID_1": 148559,
    "DT": "14",
    "CC": "03",
    "fr": "01",
    "SEC": "005",
    "SS": "18"
  },
  "addresses": [
    {
      "id": "pt.ine.add.PTCONT.4412138",
      "street": "R INF D HENRIQUE",
      "house": "17",
      "postcode": "2080-145",
      "city": "ALMEIRIM",
      "lon": "-8.621401126610378",
      "lat": "39.20470378648099"
    },
    {
      "id": "pt.ine.add.PTCONT.4415161",
      "street": "LG CARAVELAS",
      "house": "5",
      "postcode": "2080-031",
      "city": "ALMEIRIM",
      "lon": "-8.62189543459908",
      "lat": "39.204197300979004"
    },
    {
      "id": "pt.ine.add.PTCONT.4434497",
      "street": "R INF D HENRIQUE",
      "house": "9 A",
      "postcode": "2080-145",
      "city": "ALMEIRIM",
      "lon": "-8.621700127454465",
      "lat": "39.204414297093514"
    },
    {
      "id": "pt.ine.add.PTCONT.4446945",
      "street": "LG CARAVELAS",
      "house": "",
      "postcode": "2080-031",
      "city": "ALMEIRIM",
      "lon": "-8.622174338505479",
      "lat": "39.204349255788046"
    },
    {
      "id": "pt.ine.add.PTCONT.4461433",
      "street": "R INF D HENRIQUE",
      "house": "7",
      "postcode": "2080-145",
      "city": "ALMEIRIM",
      "lon": "-8.621745997750162",
      "lat": "39.20435105312681"
    },
    {
      "id": "pt.ine.add.PTCONT.4469288",
      "street": "R INF D HENRIQUE",
      "house": "19",
      "postcode": "2080-145",
      "city": "ALMEIRIM",
      "lon": "-8.621355068700925",
      "lat": "39.204740008988615"
    },
    {
      "id": "pt.ine.add.PTCONT.4473713",
      "street": "R VASCO GAMA",
      "house": "4",
      "postcode": "2080-165",
      "city": "ALMEIRIM",
      "lon": "-8.621309634276873",
      "lat": "39.204866302553896"
    },
    {
      "id": "pt.ine.add.PTCONT.4478260",
      "street": "R INF D HENRIQUE",
      "house": "11",
      "postcode": "2080-145",
      "city": "ALMEIRIM",
      "lon": "-8.621642680278278",
      "lat": "39.20447758958787"
    },
    {
      "id": "pt.ine.add.PTCONT.4521734",
      "street": "R INF D HENRIQUE",
      "house": "13",
      "postcode": "2080-145",
      "city": "ALMEIRIM",
      "lon": "-8.621562266535875",
      "lat": "39.20456800045384"
    },
    {
      "id": "pt.ine.add.PTCONT.4554705",
      "street": "R INF D HENRIQUE",
      "house": "3",
      "postcode": "2080-145",
      "city": "ALMEIRIM",
      "lon": "-8.621849502115566",
      "lat": "39.20425153789698"
    },
    {
      "id": "pt.ine.add.PTCONT.4590089",
      "street": "R BARTOLOMEU DIAS",
      "house": "",
      "postcode": "2080-064",
      "city": "ALMEIRIM",
      "lon": "-8.622151747090937",
      "lat": "39.20443041694579"
    },
    {
      "id": "pt.ine.add.PTCONT.4594203",
      "street": "R INF D HENRIQUE",
      "house": "5",
      "postcode": "2080-145",
      "city": "ALMEIRIM",
      "lon": "-8.621815083915077",
      "lat": "39.204296719127434"
    },
    {
      "id": "pt.ine.add.PTCONT.4648005",
      "street": "R DESCOBRIMENTOS",
      "house": "8",
      "postcode": "2080-119",
      "city": "ALMEIRIM",
      "lon": "-8.621645800067444",
      "lat": "39.20492794495348"
    },
    {
      "id": "pt.ine.add.PTCONT.4660346",
      "street": "R INF D HENRIQUE",
      "house": "2 1",
      "postcode": "2080-145",
      "city": "ALMEIRIM",
      "lon": "-8.621309135450478",
      "lat": "39.20479424569338"
    }
  ]
}