{
  "data": {
    "distrito": "Bragança",
    "concelho": "Torre de Moncorvo",
    "freguesia": "Larinho",
    "OBJECTID": 419,
    "BGRI2021": "04091000110",
    "DT21": "04",
    "DTMN21": "0409",
    "DTMNFR21": "040910",
    "DTMNFRSEC21": "040910001",
    "SECNUM21": "001",
    "SSNUM21": "10",
    "SECSSNUM21": "00110",
    "OBJECTID_1": 38339,
    "DT": "04",
    "CC": "09",
    "fr": "10",
    "SEC": "001",
    "SS": "10"
  },
  "addresses": [
    {
      "id": "pt.ine.add.PTCONT.850741",
      "street": "TV DE STA BÁRBARA",
      "house": "",
      "postcode": "5160-114",
      "city": "LARINHO",
      "lon": "-7.013288516119201",
      "lat": "41.201874187256614"
    },
    {
      "id": "pt.ine.add.PTCONT.857811",
      "street": "R DE STA BÁRBARA",
      "house": "",
      "postcode": "5160-114",
      "city": "LARINHO",
      "lon": "-7.012746597201096",
      "lat": "41.202193063140555"
    },
    {
      "id": "pt.ine.add.PTCONT.865368",
      "street": "R DR JOÃO CELESTINO LEONARDO",
      "house": "",
      "postcode": "5160-114",
      "city": "LARINHO",
      "lon": "-7.013226921780782",
      "lat": "41.20199064140057"
    },
    {
      "id": "pt.ine.add.PTCONT.869086",
      "street": "TV DE STA BÁRBARA",
      "house": "",
      "postcode": "5160-114",
      "city": "LARINHO",
      "lon": "-7.012878483317398",
      "lat": "41.20214932580356"
    },
    {
      "id": "pt.ine.add.PTCONT.879358",
      "street": "TV DE STA BÁRBARA",
      "house": "",
      "postcode": "5160-114",
      "city": "LARINHO",
      "lon": "-7.013093654654136",
      "lat": "41.20211540249948"
    },
    {
      "id": "pt.ine.add.PTCONT.889871",
      "street": "R DE STA BÁRBARA",
      "house": "",
      "postcode": "5160-114",
      "city": "LARINHO",
      "lon": "-7.013151718892962",
      "lat": "41.20220600812104"
    },
    {
      "id": "pt.ine.add.PTCONT.903721",
      "street": "TV DE STA BÁRBARA",
      "house": "",
      "postcode": "5160-114",
      "city": "LARINHO",
      "lon": "-7.013344892239189",
      "lat": "41.202063821338406"
    },
    {
      "id": "pt.ine.add.PTCONT.914289",
      "street": "R DE STA BÁRBARA",
      "house": "",
      "postcode": "5160-114",
      "city": "LARINHO",
      "lon": "-7.013154174866414",
      "lat": "41.20206196660031"
    },
    {
      "id": "pt.ine.add.PTCONT.933544",
      "street": "R DE STA BÁRBARA",
      "house": "",
      "postcode": "5160-114",
      "city": "LARINHO",
      "lon": "-7.013038760092852",
      "lat": "41.202538060677036"
    },
    {
      "id": "pt.ine.add.PTCONT.936632",
      "street": "R DA CRUZ",
      "house": "",
      "postcode": "5160-114",
      "city": "LARINHO",
      "lon": "-7.0131977099187495",
      "lat": "41.202305500382415"
    }
  ]
}