{
  "data": {
    "distrito": "Santarém",
    "concelho": "Coruche",
    "freguesia": "União das freguesias de Coruche, Fajarda e Erra",
    "OBJECTID": 201,
    "BGRI2021": "14090900315",
    "DT21": "14",
    "DTMN21": "1409",
    "DTMNFR21": "140909",
    "DTMNFRSEC21": "140909003",
    "SECNUM21": "003",
    "SSNUM21": "15",
    "SECSSNUM21": "00315",
    "OBJECTID_1": 150905,
    "DT": "14",
    "CC": "09",
    "fr": "09",
    "SEC": "003",
    "SS": "15"
  },
  "addresses": [
    {
      "id": "pt.ine.add.PTCONT.4397272",
      "street": "HRD COLMEEIRO",
      "house": "",
      "postcode": "2100-542",
      "city": "FAJARDA",
      "lon": "-8.692245104209729",
      "lat": "38.957695873268094"
    },
    {
      "id": "pt.ine.add.PTCONT.4398234",
      "street": "HRD REBOLO",
      "house": "",
      "postcode": "2100-540",
      "city": "FAJARDA",
      "lon": "-8.642438518536775",
      "lat": "38.950969880044745"
    },
    {
      "id": "pt.ine.add.PTCONT.4404389",
      "street": "HRD MARIA DE CISO",
      "house": "",
      "postcode": "2100-542",
      "city": "FAJARDA",
      "lon": "-8.665420338946612",
      "lat": "38.9543983634422"
    },
    {
      "id": "pt.ine.add.PTCONT.4406519",
      "street": "",
      "house": "",
      "postcode": "2100-542",
      "city": "FAJARDA",
      "lon": "-8.698660239765855",
      "lat": "38.96358303550377"
    },
    {
      "id": "pt.ine.add.PTCONT.4410663",
      "street": "HRD TORRE DA FALCOA",
      "house": "",
      "postcode": "2100-540",
      "city": "FAJARDA",
      "lon": "-8.638771359821048",
      "lat": "38.94951756127412"
    },
    {
      "id": "pt.ine.add.PTCONT.4410664",
      "street": "HRD CALABRE",
      "house": "",
      "postcode": "2100-540",
      "city": "FAJARDA",
      "lon": "-8.63105696096917",
      "lat": "38.95322589249477"
    },
    {
      "id": "pt.ine.add.PTCONT.4415490",
      "street": "HRD MONTINHO PICAMILHO",
      "house": "",
      "postcode": "2100-540",
      "city": "FAJARDA",
      "lon": "-8.623379183134265",
      "lat": "38.948970703462145"
    },
    {
      "id": "pt.ine.add.PTCONT.4430019",
      "street": "HRD MARIA DE CISO",
      "house": "",
      "postcode": "2100-542",
      "city": "FAJARDA",
      "lon": "-8.6638632576968",
      "lat": "38.95444148569552"
    },
    {
      "id": "pt.ine.add.PTCONT.4443603",
      "street": "HRD CALABRE",
      "house": "",
      "postcode": "2100-540",
      "city": "FAJARDA",
      "lon": "-8.63078010185356",
      "lat": "38.95322707336056"
    },
    {
      "id": "pt.ine.add.PTCONT.4463987",
      "street": "HRD MONTINHO PICAMILHO",
      "house": "",
      "postcode": "2100-540",
      "city": "FAJARDA",
      "lon": "-8.623287212365742",
      "lat": "38.949016128557034"
    },
    {
      "id": "pt.ine.add.PTCONT.4463988",
      "street": "HRD MONTINHO PICAMILHO",
      "house": "",
      "postcode": "2100-540",
      "city": "FAJARDA",
      "lon": "-8.623091797346413",
      "lat": "38.9491160344574"
    },
    {
      "id": "pt.ine.add.PTCONT.4477244",
      "street": "HRD MARIA DE CISO",
      "house": "",
      "postcode": "2100-542",
      "city": "FAJARDA",
      "lon": "-8.684779855020148",
      "lat": "38.95757826803137"
    },
    {
      "id": "pt.ine.add.PTCONT.4480716",
      "street": "HRD VINAGRE",
      "house": "",
      "postcode": "2100-540",
      "city": "FAJARDA",
      "lon": "-8.663258892762924",
      "lat": "38.95384071379677"
    },
    {
      "id": "pt.ine.add.PTCONT.4488119",
      "street": "HRD CALABRE",
      "house": "",
      "postcode": "2100-540",
      "city": "FAJARDA",
      "lon": "-8.630700548008981",
      "lat": "38.953398559860695"
    },
    {
      "id": "pt.ine.add.PTCONT.4497612",
      "street": "HRD MARIA DE CISO",
      "house": "",
      "postcode": "2100-542",
      "city": "FAJARDA",
      "lon": "-8.676477655451654",
      "lat": "38.95512207381923"
    },
    {
      "id": "pt.ine.add.PTCONT.4500221",
      "street": "HRD MARIA DE CISO",
      "house": "",
      "postcode": "2100-542",
      "city": "FAJARDA",
      "lon": "-8.684999396009793",
      "lat": "38.95762226872938"
    },
    {
      "id": "pt.ine.add.PTCONT.4505522",
      "street": "HRD VINAGRE",
      "house": "",
      "postcode": "2100-540",
      "city": "FAJARDA",
      "lon": "-8.663420797259219",
      "lat": "38.95389402471173"
    },
    {
      "id": "pt.ine.add.PTCONT.4506214",
      "street": "",
      "house": "",
      "postcode": "2100-542",
      "city": "FAJARDA",
      "lon": "-8.66351368829349",
      "lat": "38.953974672282165"
    },
    {
      "id": "pt.ine.add.PTCONT.4514044",
      "street": "HRD CALABRE",
      "house": "",
      "postcode": "2100-540",
      "city": "FAJARDA",
      "lon": "-8.630095574422437",
      "lat": "38.949365662769665"
    },
    {
      "id": "pt.ine.add.PTCONT.4522349",
      "street": "HRD REBOLO",
      "house": "",
      "postcode": "2100-540",
      "city": "FAJARDA",
      "lon": "-8.64294446330182",
      "lat": "38.95074247724756"
    },
    {
      "id": "pt.ine.add.PTCONT.4534858",
      "street": "",
      "house": "",
      "postcode": "2100-542",
      "city": "FAJARDA",
      "lon": "-8.698581340043999",
      "lat": "38.96381761844613"
    },
    {
      "id": "pt.ine.add.PTCONT.4538709",
      "street": "HRD COLMEEIRO",
      "house": "",
      "postcode": "2100-542",
      "city": "FAJARDA",
      "lon": "-8.687222695449016",
      "lat": "38.95719737853429"
    },
    {
      "id": "pt.ine.add.PTCONT.4559124",
      "street": "HRD MONTINHO PICAMILHO",
      "house": "",
      "postcode": "2100-540",
      "city": "FAJARDA",
      "lon": "-8.622676718033906",
      "lat": "38.9491447995211"
    },
    {
      "id": "pt.ine.add.PTCONT.4568980",
      "street": "HRD MONTINHO PICAMILHO",
      "house": "",
      "postcode": "2100-540",
      "city": "FAJARDA",
      "lon": "-8.622838334083536",
      "lat": "38.9491621370376"
    },
    {
      "id": "pt.ine.add.PTCONT.4569860",
      "street": "TV ALBERTOS",
      "house": "",
      "postcode": "2100-540",
      "city": "FAJARDA",
      "lon": "-8.66347867789747",
      "lat": "38.95392078492967"
    },
    {
      "id": "pt.ine.add.PTCONT.4574108",
      "street": "HRD VINAGRE",
      "house": "",
      "postcode": "2100-540",
      "city": "FAJARDA",
      "lon": "-8.66333984498101",
      "lat": "38.9538673692826"
    },
    {
      "id": "pt.ine.add.PTCONT.4590660",
      "street": "HRD TORRE DA FALCOA",
      "house": "",
      "postcode": "2100-540",
      "city": "FAJARDA",
      "lon": "-8.638621018580581",
      "lat": "38.949464165975016"
    },
    {
      "id": "pt.ine.add.PTCONT.4594834",
      "street": "R HERDADE DOS COELHOS",
      "house": "",
      "postcode": "2100-542",
      "city": "FAJARDA",
      "lon": "-8.69751750122497",
      "lat": "38.96206626335878"
    },
    {
      "id": "pt.ine.add.PTCONT.4598767",
      "street": "HRD CALABRE",
      "house": "",
      "postcode": "2100-540",
      "city": "FAJARDA",
      "lon": "-8.630551778668114",
      "lat": "38.95357034132569"
    },
    {
      "id": "pt.ine.add.PTCONT.4600024",
      "street": "",
      "house": "",
      "postcode": "2100-542",
      "city": "FAJARDA",
      "lon": "-8.69747049528553",
      "lat": "38.96195839805057"
    },
    {
      "id": "pt.ine.add.PTCONT.4601070",
      "street": "",
      "house": "",
      "postcode": "2100-542",
      "city": "FAJARDA",
      "lon": "-8.698559339305685",
      "lat": "38.96395284078281"
    },
    {
      "id": "pt.ine.add.PTCONT.4602688",
      "street": "",
      "house": "",
      "postcode": "2100-542",
      "city": "FAJARDA",
      "lon": "-8.698626487042386",
      "lat": "38.963691291659764"
    },
    {
      "id": "pt.ine.add.PTCONT.4607385",
      "street": "HRD VINAGRE",
      "house": "",
      "postcode": "2100-540",
      "city": "FAJARDA",
      "lon": "-8.663108591425626",
      "lat": "38.953796357708654"
    },
    {
      "id": "pt.ine.add.PTCONT.4609128",
      "street": "HRD MONTINHO PICAMILHO",
      "house": "",
      "postcode": "2100-540",
      "city": "FAJARDA",
      "lon": "-8.622715298856011",
      "lat": "38.948045690660216"
    },
    {
      "id": "pt.ine.add.PTCONT.4615548",
      "street": "R HERDADE DOS COELHOS",
      "house": "",
      "postcode": "2100-542",
      "city": "FAJARDA",
      "lon": "-8.694088341216727",
      "lat": "38.9588220014915"
    },
    {
      "id": "pt.ine.add.PTCONT.4631835",
      "street": "HRD TORRE DA FALCOA",
      "house": "",
      "postcode": "2100-540",
      "city": "FAJARDA",
      "lon": "-8.638933236475221",
      "lat": "38.94957090638717"
    },
    {
      "id": "pt.ine.add.PTCONT.4635323",
      "street": "HRD CALABRE",
      "house": "",
      "postcode": "2100-540",
      "city": "FAJARDA",
      "lon": "-8.62720502682295",
      "lat": "38.94840509690758"
    },
    {
      "id": "pt.ine.add.PTCONT.4646435",
      "street": "HRD MARIA DE CISO",
      "house": "",
      "postcode": "2100-542",
      "city": "FAJARDA",
      "lon": "-8.668309942194588",
      "lat": "38.95513279088604"
    },
    {
      "id": "pt.ine.add.PTCONT.4646436",
      "street": "HRD VINAGRE",
      "house": "",
      "postcode": "2100-540",
      "city": "FAJARDA",
      "lon": "-8.663189476438275",
      "lat": "38.953814005861915"
    },
    {
      "id": "pt.ine.add.PTCONT.4648560",
      "street": "HRD TORRE DA FALCOA",
      "house": "",
      "postcode": "2100-540",
      "city": "FAJARDA",
      "lon": "-8.638390187212993",
      "lat": "38.949447149987336"
    },
    {
      "id": "pt.ine.add.PTCONT.4651642",
      "street": "HRD MONTINHO PICAMILHO",
      "house": "",
      "postcode": "2100-540",
      "city": "FAJARDA",
      "lon": "-8.623331491566145",
      "lat": "38.94874570973178"
    },
    {
      "id": "pt.ine.add.PTCONT.4654795",
      "street": "",
      "house": "",
      "postcode": "2100-542",
      "city": "FAJARDA",
      "lon": "-8.697805857341905",
      "lat": "38.96205586073863"
    },
    {
      "id": "pt.ine.add.PTCONT.4662968",
      "street": "HRD REBOLO",
      "house": "",
      "postcode": "2100-540",
      "city": "FAJARDA",
      "lon": "-8.642506505973868",
      "lat": "38.9507984360255"
    }
  ]
}