{
  "data": {
    "distrito": "Guarda",
    "concelho": "Gouveia",
    "freguesia": "Folgosinho",
    "OBJECTID": 223,
    "BGRI2021": "09060500139",
    "DT21": "09",
    "DTMN21": "0906",
    "DTMNFR21": "090605",
    "DTMNFRSEC21": "090605001",
    "SECNUM21": "001",
    "SSNUM21": "39",
    "SECSSNUM21": "00139",
    "OBJECTID_1": 77374,
    "DT": "09",
    "CC": "06",
    "fr": "05",
    "SEC": "001",
    "SS": "39"
  },
  "addresses": [
    {
      "id": "pt.ine.add.PTCONT.1901315",
      "street": "R TAZEM",
      "house": "13",
      "postcode": "6290-081",
      "city": "FOLGOSINHO",
      "lon": "-7.514347165115444",
      "lat": "40.510478461586956"
    },
    {
      "id": "pt.ine.add.PTCONT.1907201",
      "street": "R GUEBRA COSTAS",
      "house": "18",
      "postcode": "6290-081",
      "city": "FOLGOSINHO",
      "lon": "-7.514099902174297",
      "lat": "40.51042310543257"
    },
    {
      "id": "pt.ine.add.PTCONT.1915933",
      "street": "R ESCOLAS",
      "house": "8",
      "postcode": "6290-081",
      "city": "FOLGOSINHO",
      "lon": "-7.5142921479315365",
      "lat": "40.51004591165535"
    },
    {
      "id": "pt.ine.add.PTCONT.1919910",
      "street": "SIT FOLGOSINHO",
      "house": "4",
      "postcode": "6290-081",
      "city": "FOLGOSINHO",
      "lon": "-7.51433677412148",
      "lat": "40.5103253155226"
    },
    {
      "id": "pt.ine.add.PTCONT.1923175",
      "street": "R TAZEM TV 5",
      "house": "2",
      "postcode": "6290-081",
      "city": "FOLGOSINHO",
      "lon": "-7.514441715299217",
      "lat": "40.510460957181635"
    },
    {
      "id": "pt.ine.add.PTCONT.1929637",
      "street": "BC LATADA",
      "house": "1",
      "postcode": "6290-081",
      "city": "FOLGOSINHO",
      "lon": "-7.514159803271539",
      "lat": "40.51032436777686"
    },
    {
      "id": "pt.ine.add.PTCONT.1932785",
      "street": "BC LATADA",
      "house": "3",
      "postcode": "6290-081",
      "city": "FOLGOSINHO",
      "lon": "-7.514349648160505",
      "lat": "40.510208315306066"
    },
    {
      "id": "pt.ine.add.PTCONT.1933594",
      "street": "R QUEBRA COSTAS",
      "house": "22",
      "postcode": "6290-081",
      "city": "FOLGOSINHO",
      "lon": "-7.514184144494524",
      "lat": "40.510243450276036"
    },
    {
      "id": "pt.ine.add.PTCONT.1933808",
      "street": "R TAZEM",
      "house": "T",
      "postcode": "6290-081",
      "city": "FOLGOSINHO",
      "lon": "-7.514122339139017",
      "lat": "40.510549300082744"
    },
    {
      "id": "pt.ine.add.PTCONT.1940513",
      "street": "BC LATADA",
      "house": "2",
      "postcode": "6290-081",
      "city": "FOLGOSINHO",
      "lon": "-7.514266151338698",
      "lat": "40.510306926704956"
    },
    {
      "id": "pt.ine.add.PTCONT.1941036",
      "street": "R TAZEM TV 5",
      "house": "4",
      "postcode": "6290-081",
      "city": "FOLGOSINHO",
      "lon": "-7.514371506171774",
      "lat": "40.51039754404756"
    },
    {
      "id": "pt.ine.add.PTCONT.1942043",
      "street": "R QUEBRA COSTAS",
      "house": "24",
      "postcode": "6290-081",
      "city": "FOLGOSINHO",
      "lon": "-7.51419668762972",
      "lat": "40.51016246958102"
    },
    {
      "id": "pt.ine.add.PTCONT.1952003",
      "street": "R TAZEM",
      "house": "9",
      "postcode": "6290-081",
      "city": "FOLGOSINHO",
      "lon": "-7.514193293293011",
      "lat": "40.51053166948729"
    },
    {
      "id": "pt.ine.add.PTCONT.1969054",
      "street": "R TAZEM",
      "house": "19",
      "postcode": "6290-081",
      "city": "FOLGOSINHO",
      "lon": "-7.514420684654235",
      "lat": "40.510181679690525"
    },
    {
      "id": "pt.ine.add.PTCONT.1971214",
      "street": "R TAZEM",
      "house": "21",
      "postcode": "6290-081",
      "city": "FOLGOSINHO",
      "lon": "-7.514373989112073",
      "lat": "40.51012739776164"
    },
    {
      "id": "pt.ine.add.PTCONT.1974670",
      "street": "SIT FOLGOSINHO",
      "house": "3",
      "postcode": "6290-081",
      "city": "FOLGOSINHO",
      "lon": "-7.514395516121149",
      "lat": "40.51035264600598"
    },
    {
      "id": "pt.ine.add.PTCONT.1855994",
      "street": "R GUEBRA COSTAS",
      "house": "14",
      "postcode": "6290-081",
      "city": "FOLGOSINHO",
      "lon": "-7.514099074156015",
      "lat": "40.510513154186704"
    },
    {
      "id": "pt.ine.add.PTCONT.1858965",
      "street": "R TAZEM",
      "house": "11",
      "postcode": "6290-081",
      "city": "FOLGOSINHO",
      "lon": "-7.514287678036501",
      "lat": "40.51053217496019"
    },
    {
      "id": "pt.ine.add.PTCONT.1864999",
      "street": "R TAZEM",
      "house": "17",
      "postcode": "6290-081",
      "city": "FOLGOSINHO",
      "lon": "-7.514466552750115",
      "lat": "40.51032601036391"
    },
    {
      "id": "pt.ine.add.PTCONT.1866015",
      "street": "R GUEBRA COSTAS",
      "house": "16",
      "postcode": "6290-081",
      "city": "FOLGOSINHO",
      "lon": "-7.514087690084199",
      "lat": "40.510468066610784"
    },
    {
      "id": "pt.ine.add.PTCONT.1874929",
      "street": "R TAZEM",
      "house": "15",
      "postcode": "6290-081",
      "city": "FOLGOSINHO",
      "lon": "-7.51444229459052",
      "lat": "40.510397923049254"
    },
    {
      "id": "pt.ine.add.PTCONT.1879716",
      "street": "R TAZEM",
      "house": "23",
      "postcode": "6290-081",
      "city": "FOLGOSINHO",
      "lon": "-7.5143744029321855",
      "lat": "40.510082373379376"
    }
  ]
}