{
  "data": {
    "distrito": "Guarda",
    "concelho": "Gouveia",
    "freguesia": "Folgosinho",
    "OBJECTID": 224,
    "BGRI2021": "09060500140",
    "DT21": "09",
    "DTMN21": "0906",
    "DTMNFR21": "090605",
    "DTMNFRSEC21": "090605001",
    "SECNUM21": "001",
    "SSNUM21": "40",
    "SECSSNUM21": "00140",
    "OBJECTID_1": 77479,
    "DT": "09",
    "CC": "06",
    "fr": "05",
    "SEC": "001",
    "SS": "40"
  },
  "addresses": [
    {
      "id": "pt.ine.add.PTCONT.1908421",
      "street": "TV FORNO",
      "house": "4",
      "postcode": "6290-081",
      "city": "FOLGOSINHO",
      "lon": "-7.513547298892204",
      "lat": "40.51021302166285"
    },
    {
      "id": "pt.ine.add.PTCONT.1912409",
      "street": "R ESCOLAS TV 1",
      "house": "1",
      "postcode": "6290-081",
      "city": "FOLGOSINHO",
      "lon": "-7.513631542412119",
      "lat": "40.510033366911586"
    },
    {
      "id": "pt.ine.add.PTCONT.1916774",
      "street": "LG PEDRAO",
      "house": "4",
      "postcode": "6290-081",
      "city": "FOLGOSINHO",
      "lon": "-7.513108283587592",
      "lat": "40.51048082664052"
    },
    {
      "id": "pt.ine.add.PTCONT.1918967",
      "street": "TV FORNO",
      "house": "2",
      "postcode": "6290-081",
      "city": "FOLGOSINHO",
      "lon": "-7.513569983371362",
      "lat": "40.510312201792516"
    },
    {
      "id": "pt.ine.add.PTCONT.1919909",
      "street": "LG PEDRAO",
      "house": "5",
      "postcode": "6290-081",
      "city": "FOLGOSINHO",
      "lon": "-7.513131382162147",
      "lat": "40.51053498247958"
    },
    {
      "id": "pt.ine.add.PTCONT.1923174",
      "street": "TV FORNO",
      "house": "3",
      "postcode": "6290-081",
      "city": "FOLGOSINHO",
      "lon": "-7.513228337359067",
      "lat": "40.5102563377246"
    },
    {
      "id": "pt.ine.add.PTCONT.1927657",
      "street": "R ESCOLAS TV 1",
      "house": "3",
      "postcode": "6290-081",
      "city": "FOLGOSINHO",
      "lon": "-7.513608775064966",
      "lat": "40.50994319166465"
    },
    {
      "id": "pt.ine.add.PTCONT.1932784",
      "street": "TV FORNO",
      "house": "9",
      "postcode": "6290-081",
      "city": "FOLGOSINHO",
      "lon": "-7.513453743483174",
      "lat": "40.51012246684074"
    },
    {
      "id": "pt.ine.add.PTCONT.1946034",
      "street": "R ESCOLAS",
      "house": "5",
      "postcode": "6290-081",
      "city": "FOLGOSINHO",
      "lon": "-7.513595236850687",
      "lat": "40.51013223079596"
    },
    {
      "id": "pt.ine.add.PTCONT.1947355",
      "street": "ADRO DE VIRIATO",
      "house": "4",
      "postcode": "6290-081",
      "city": "FOLGOSINHO",
      "lon": "-7.513450593742853",
      "lat": "40.510464652074845"
    },
    {
      "id": "pt.ine.add.PTCONT.1953767",
      "street": "LG PEDRAO",
      "house": "",
      "postcode": "6290-081",
      "city": "FOLGOSINHO",
      "lon": "-7.513036665658498",
      "lat": "40.510570495556145"
    },
    {
      "id": "pt.ine.add.PTCONT.1958836",
      "street": "R DR JOÃO DE VASCONCELOS",
      "house": "2",
      "postcode": "6290-081",
      "city": "FOLGOSINHO",
      "lon": "-7.5129424467973696",
      "lat": "40.51055197931452"
    },
    {
      "id": "pt.ine.add.PTCONT.1961981",
      "street": "R OUTAO",
      "house": "4",
      "postcode": "6290-081",
      "city": "FOLGOSINHO",
      "lon": "-7.513656712753738",
      "lat": "40.509862400766536"
    },
    {
      "id": "pt.ine.add.PTCONT.1962590",
      "street": "R ESCOLAS",
      "house": "7",
      "postcode": "6290-081",
      "city": "FOLGOSINHO",
      "lon": "-7.513677905858994",
      "lat": "40.510123668637554"
    },
    {
      "id": "pt.ine.add.PTCONT.1853013",
      "street": "R ESCOLAS TV 1",
      "house": "5",
      "postcode": "6290-081",
      "city": "FOLGOSINHO",
      "lon": "-7.5135383186368125",
      "lat": "40.50990679265465"
    },
    {
      "id": "pt.ine.add.PTCONT.1853017",
      "street": "R ESCOLAS",
      "house": "1",
      "postcode": "6290-081",
      "city": "FOLGOSINHO",
      "lon": "-7.513606289070189",
      "lat": "40.51021333792014"
    },
    {
      "id": "pt.ine.add.PTCONT.1860374",
      "street": "LG PEDRAO",
      "house": "6",
      "postcode": "6290-081",
      "city": "FOLGOSINHO",
      "lon": "-7.513202999927441",
      "lat": "40.510445313503475"
    },
    {
      "id": "pt.ine.add.PTCONT.1861994",
      "street": "R PELOURINHO",
      "house": "3",
      "postcode": "6290-081",
      "city": "FOLGOSINHO",
      "lon": "-7.5135927507850075",
      "lat": "40.51040237704193"
    },
    {
      "id": "pt.ine.add.PTCONT.1874194",
      "street": "TV FORNO",
      "house": "1",
      "postcode": "6290-081",
      "city": "FOLGOSINHO",
      "lon": "-7.513344991348692",
      "lat": "40.510401048524805"
    },
    {
      "id": "pt.ine.add.PTCONT.1875853",
      "street": "TV FORNO",
      "house": "5",
      "postcode": "6290-081",
      "city": "FOLGOSINHO",
      "lon": "-7.513428738303075",
      "lat": "40.51027542318027"
    },
    {
      "id": "pt.ine.add.PTCONT.1886708",
      "street": "R DR JOÃO DE VASCONCELOS",
      "house": "4",
      "postcode": "6290-081",
      "city": "FOLGOSINHO",
      "lon": "-7.513085848547555",
      "lat": "40.51035463180614"
    },
    {
      "id": "pt.ine.add.PTCONT.1888129",
      "street": "TV DR JOÃO DE VASCONCELOS",
      "house": "6",
      "postcode": "6290-081",
      "city": "FOLGOSINHO",
      "lon": "-7.5132530942443285",
      "lat": "40.510130396054784"
    }
  ]
}