{
  "data": {
    "ilha": "Ilha da Madeira (Madeira)",
    "concelho": "Santana",
    "freguesia": "São Roque do Faial",
    "OBJECTID": 58,
    "BGRI2021": "31090500115",
    "DT21": "31",
    "DTMN21": "3109",
    "DTMNFR21": "310905",
    "DTMNFRSEC21": "310905001",
    "SECNUM21": "001",
    "SSNUM21": "15",
    "SECSSNUM21": "00115",
    "OBJECTID_1": 205509,
    "DT": "31",
    "CC": "09",
    "fr": "05",
    "SEC": "001",
    "SS": "15",
    "BGRI2021_1": "31090500115"
  },
  "addresses": [
    {
      "id": "pt.ine.add.MAD.47359",
      "street": "SIT PICO CEDRO GORDO",
      "house": "",
      "postcode": "9230-208",
      "city": "SÃO ROQUE DO FAIAL",
      "lon": "-16.856387240823114",
      "lat": "32.76958904893804"
    },
    {
      "id": "pt.ine.add.MAD.100193",
      "street": "",
      "house": "",
      "postcode": "9230-203",
      "city": "SÃO ROQUE DO FAIAL",
      "lon": "-16.856314036944845",
      "lat": "32.770176351705835"
    },
    {
      "id": "pt.ine.add.MAD.111323",
      "street": "",
      "house": "",
      "postcode": "9230-203",
      "city": "SÃO ROQUE DO FAIAL",
      "lon": "-16.85619346694111",
      "lat": "32.77002482012149"
    },
    {
      "id": "pt.ine.add.MAD.111324",
      "street": "",
      "house": "",
      "postcode": "9230-203",
      "city": "SÃO ROQUE DO FAIAL",
      "lon": "-16.85607158707829",
      "lat": "32.76981017666845"
    },
    {
      "id": "pt.ine.add.MAD.111325",
      "street": "",
      "house": "",
      "postcode": "9230-203",
      "city": "SÃO ROQUE DO FAIAL",
      "lon": "-16.855832504493076",
      "lat": "32.77012035644515"
    },
    {
      "id": "pt.ine.add.MAD.111365",
      "street": "",
      "house": "",
      "postcode": "9230-203",
      "city": "SÃO ROQUE DO FAIAL",
      "lon": "-16.855690775073743",
      "lat": "32.77049222457827"
    },
    {
      "id": "pt.ine.add.MAD.111367",
      "street": "",
      "house": "",
      "postcode": "9230-203",
      "city": "SÃO ROQUE DO FAIAL",
      "lon": "-16.85607570305757",
      "lat": "32.770522595777656"
    },
    {
      "id": "pt.ine.add.MAD.111368",
      "street": "SIT CHÃO DE CEDRO GORFO",
      "house": "",
      "postcode": "9230-203",
      "city": "SÃO ROQUE DO FAIAL",
      "lon": "-16.856285953466287",
      "lat": "32.77036616136255"
    },
    {
      "id": "pt.ine.add.MAD.111369",
      "street": "",
      "house": "",
      "postcode": "9230-203",
      "city": "SÃO ROQUE DO FAIAL",
      "lon": "-16.856550871807897",
      "lat": "32.770272047418615"
    },
    {
      "id": "pt.ine.add.MAD.111370",
      "street": "",
      "house": "",
      "postcode": "9230-203",
      "city": "SÃO ROQUE DO FAIAL",
      "lon": "-16.856563790244074",
      "lat": "32.77038008073939"
    },
    {
      "id": "pt.ine.add.MAD.111371",
      "street": "",
      "house": "",
      "postcode": "9230-203",
      "city": "SÃO ROQUE DO FAIAL",
      "lon": "-16.8566939095152",
      "lat": "32.77047735797375"
    },
    {
      "id": "pt.ine.add.MAD.111860",
      "street": "",
      "house": "",
      "postcode": "9230-203",
      "city": "SÃO ROQUE DO FAIAL",
      "lon": "-16.856755317774674",
      "lat": "32.770350185360776"
    },
    {
      "id": "pt.ine.add.MAD.112400",
      "street": "",
      "house": "",
      "postcode": "9230-203",
      "city": "SÃO ROQUE DO FAIAL",
      "lon": "-16.85617474448243",
      "lat": "32.770151359883315"
    },
    {
      "id": "pt.ine.add.MAD.112752",
      "street": "",
      "house": "",
      "postcode": "9230-203",
      "city": "SÃO ROQUE DO FAIAL",
      "lon": "-16.856915204847358",
      "lat": "32.770338796260404"
    },
    {
      "id": "pt.ine.add.MAD.112853",
      "street": "",
      "house": "",
      "postcode": "9230-203",
      "city": "SÃO ROQUE DO FAIAL",
      "lon": "-16.856874952832165",
      "lat": "32.77045663656143"
    },
    {
      "id": "pt.ine.add.MAD.113093",
      "street": "",
      "house": "",
      "postcode": "9230-203",
      "city": "SÃO ROQUE DO FAIAL",
      "lon": "-16.855741326010737",
      "lat": "32.77035619455989"
    },
    {
      "id": "pt.ine.add.MAD.113386",
      "street": "SIT CHÃO DE CEDRO GORFO",
      "house": "",
      "postcode": "9230-203",
      "city": "SÃO ROQUE DO FAIAL",
      "lon": "-16.856042377825506",
      "lat": "32.770459958481425"
    },
    {
      "id": "pt.ine.add.MAD.114071",
      "street": "",
      "house": "",
      "postcode": "9230-203",
      "city": "SÃO ROQUE DO FAIAL",
      "lon": "-16.856040880359604",
      "lat": "32.77038783079038"
    },
    {
      "id": "pt.ine.add.MAD.114072",
      "street": "",
      "house": "",
      "postcode": "9230-203",
      "city": "SÃO ROQUE DO FAIAL",
      "lon": "-16.856387427449203",
      "lat": "32.77062620068634"
    },
    {
      "id": "pt.ine.add.MAD.114441",
      "street": "",
      "house": "",
      "postcode": "9230-203",
      "city": "SÃO ROQUE DO FAIAL",
      "lon": "-16.856696531014734",
      "lat": "32.77060358138389"
    },
    {
      "id": "pt.ine.add.MAD.114563",
      "street": "SIT CHÃO DE CEDRO GORFO",
      "house": "",
      "postcode": "9230-203",
      "city": "SÃO ROQUE DO FAIAL",
      "lon": "-16.856144974405304",
      "lat": "32.770774093782904"
    },
    {
      "id": "pt.ine.add.MAD.130260",
      "street": "",
      "house": "",
      "postcode": "9230-203",
      "city": "SÃO ROQUE DO FAIAL",
      "lon": "-16.856113709883846",
      "lat": "32.77029656416252"
    },
    {
      "id": "pt.ine.add.MAD.130268",
      "street": "",
      "house": "",
      "postcode": "9230-203",
      "city": "SÃO ROQUE DO FAIAL",
      "lon": "-16.855760610575476",
      "lat": "32.77025670273248"
    }
  ]
}