{
  "data": {
    "distrito": "Braga",
    "concelho": "Vila Verde",
    "freguesia": "Vila Verde e Barbudo",
    "OBJECTID": 260,
    "BGRI2021": "03137000115",
    "DT21": "03",
    "DTMN21": "0313",
    "DTMNFR21": "031370",
    "DTMNFRSEC21": "031370001",
    "SECNUM21": "001",
    "SSNUM21": "15",
    "SECSSNUM21": "00115",
    "OBJECTID_1": 32448,
    "DT": "03",
    "CC": "13",
    "fr": "70",
    "SEC": "001",
    "SS": "15"
  },
  "addresses": [
    {
      "id": "pt.ine.add.PTCONT.464163",
      "street": "PC REPUBLICA",
      "house": "171",
      "postcode": "4730-732",
      "city": "VILA VERDE",
      "lon": "-8.435287971972429",
      "lat": "41.65141125227788"
    },
    {
      "id": "pt.ine.add.PTCONT.481898",
      "street": "PC 5 DE OUTUBRO",
      "house": "37",
      "postcode": "4730-731",
      "city": "VILA VERDE",
      "lon": "-8.435242310216953",
      "lat": "41.65191557380365"
    },
    {
      "id": "pt.ine.add.PTCONT.488008",
      "street": "R CONDE FERREIRA",
      "house": "65",
      "postcode": "4730-742",
      "city": "VILA VERDE",
      "lon": "-8.435938783588979",
      "lat": "41.6519587589958"
    },
    {
      "id": "pt.ine.add.PTCONT.505672",
      "street": "PC REPUBLICA",
      "house": "147",
      "postcode": "4730-732",
      "city": "VILA VERDE",
      "lon": "-8.43543122532588",
      "lat": "41.65123980721587"
    },
    {
      "id": "pt.ine.add.PTCONT.505673",
      "street": "PC REPUBLICA",
      "house": "119",
      "postcode": "4730-732",
      "city": "VILA VERDE",
      "lon": "-8.435634415517555",
      "lat": "41.65105019703993"
    },
    {
      "id": "pt.ine.add.PTCONT.505674",
      "street": "PC REPUBLICA",
      "house": "119",
      "postcode": "4730-732",
      "city": "VILA VERDE",
      "lon": "-8.435634415517555",
      "lat": "41.65105019703993"
    },
    {
      "id": "pt.ine.add.PTCONT.505675",
      "street": "PC REPUBLICA",
      "house": "119",
      "postcode": "4730-732",
      "city": "VILA VERDE",
      "lon": "-8.435634415517555",
      "lat": "41.65105019703993"
    },
    {
      "id": "pt.ine.add.PTCONT.505676",
      "street": "PC REPUBLICA",
      "house": "119",
      "postcode": "4730-732",
      "city": "VILA VERDE",
      "lon": "-8.435634415517555",
      "lat": "41.65105019703993"
    },
    {
      "id": "pt.ine.add.PTCONT.505677",
      "street": "PC REPUBLICA",
      "house": "119",
      "postcode": "4730-732",
      "city": "VILA VERDE",
      "lon": "-8.435634415517555",
      "lat": "41.65105019703993"
    },
    {
      "id": "pt.ine.add.PTCONT.505678",
      "street": "PC REPUBLICA",
      "house": "119",
      "postcode": "4730-732",
      "city": "VILA VERDE",
      "lon": "-8.435634415517555",
      "lat": "41.65105019703993"
    },
    {
      "id": "pt.ine.add.PTCONT.505799",
      "street": "PC REPUBLICA",
      "house": "119",
      "postcode": "4730-732",
      "city": "VILA VERDE",
      "lon": "-8.435634415517555",
      "lat": "41.65105019703993"
    },
    {
      "id": "pt.ine.add.PTCONT.505948",
      "street": "PC REPUBLICA",
      "house": "119",
      "postcode": "4730-732",
      "city": "VILA VERDE",
      "lon": "-8.435634415517555",
      "lat": "41.65105019703993"
    },
    {
      "id": "pt.ine.add.PTCONT.544395",
      "street": "PC REPUBLICA",
      "house": "175",
      "postcode": "4730-732",
      "city": "VILA VERDE",
      "lon": "-8.435216408112456",
      "lat": "41.65151047997264"
    },
    {
      "id": "pt.ine.add.PTCONT.544396",
      "street": "PC REPUBLICA",
      "house": "175",
      "postcode": "4730-732",
      "city": "VILA VERDE",
      "lon": "-8.435216408112456",
      "lat": "41.65151047997264"
    },
    {
      "id": "pt.ine.add.PTCONT.544397",
      "street": "PC REPUBLICA",
      "house": "175",
      "postcode": "4730-732",
      "city": "VILA VERDE",
      "lon": "-8.435216408112456",
      "lat": "41.65151047997264"
    },
    {
      "id": "pt.ine.add.PTCONT.553204",
      "street": "PC REPUBLICA",
      "house": "192",
      "postcode": "4730-732",
      "city": "VILA VERDE",
      "lon": "-8.435168684730527",
      "lat": "41.6515736305813"
    },
    {
      "id": "pt.ine.add.PTCONT.553205",
      "street": "PC REPUBLICA",
      "house": "195",
      "postcode": "4730-732",
      "city": "VILA VERDE",
      "lon": "-8.435168684730527",
      "lat": "41.6515736305813"
    },
    {
      "id": "pt.ine.add.PTCONT.553206",
      "street": "PC REPUBLICA",
      "house": "195",
      "postcode": "4730-732",
      "city": "VILA VERDE",
      "lon": "-8.435168684730527",
      "lat": "41.6515736305813"
    },
    {
      "id": "pt.ine.add.PTCONT.564935",
      "street": "LG SENHOR DO RIBEIRO",
      "house": "IB",
      "postcode": "4730-073",
      "city": "BARBUDO",
      "lon": "-8.437043031361618",
      "lat": "41.65191983008587"
    },
    {
      "id": "pt.ine.add.PTCONT.605807",
      "street": "PC 5 DE OUTUBRO",
      "house": "45",
      "postcode": "4730-731",
      "city": "VILA VERDE",
      "lon": "-8.43525456718363",
      "lat": "41.65196956317155"
    },
    {
      "id": "pt.ine.add.PTCONT.641201",
      "street": "PC 5 DE OUTUBRO",
      "house": "29",
      "postcode": "4730-731",
      "city": "VILA VERDE",
      "lon": "-8.435206086303587",
      "lat": "41.65187065102398"
    },
    {
      "id": "pt.ine.add.PTCONT.718014",
      "street": "R PROF EL√çSIO DE MOURA",
      "house": "100",
      "postcode": "4730-779",
      "city": "VILA VERDE",
      "lon": "-8.436453373415773",
      "lat": "41.65161526540545"
    },
    {
      "id": "pt.ine.add.PTCONT.751969",
      "street": "PC 5 DE OUTUBRO",
      "house": "5",
      "postcode": "4730-731",
      "city": "VILA VERDE",
      "lon": "-8.435193240493119",
      "lat": "41.651690612825725"
    },
    {
      "id": "pt.ine.add.PTCONT.801923",
      "street": "PC 5 DE OUTUBRO",
      "house": "49",
      "postcode": "4730-731",
      "city": "VILA VERDE",
      "lon": "-8.43527882871797",
      "lat": "41.65202352098031"
    },
    {
      "id": "pt.ine.add.PTCONT.808275",
      "street": "PC REPUBLICA",
      "house": "153",
      "postcode": "4730-732",
      "city": "VILA VERDE",
      "lon": "-8.4353715821168",
      "lat": "41.65132099645902"
    }
  ]
}