{
  "data": {
    "distrito": "Aveiro",
    "concelho": "Ovar",
    "freguesia": "União das freguesias de Ovar, São João, Arada e São Vicente de Pereira Jusã",
    "OBJECTID": 16,
    "BGRI2021": "01150900605",
    "DT21": "01",
    "DTMN21": "0115",
    "DTMNFR21": "011509",
    "DTMNFRSEC21": "011509006",
    "SECNUM21": "006",
    "SSNUM21": "05",
    "SECSSNUM21": "00605",
    "OBJECTID_1": 10589,
    "DT": "01",
    "CC": "15",
    "fr": "09",
    "SEC": "006",
    "SS": "05"
  },
  "addresses": [
    {
      "id": "pt.ine.add.PTCONT.291313",
      "street": "AV REGUA",
      "house": "195",
      "postcode": "3880-001",
      "city": "OVAR",
      "lon": "-8.634247421703105",
      "lat": "40.86094060208144"
    },
    {
      "id": "pt.ine.add.PTCONT.301915",
      "street": "AV REGUA",
      "house": "755",
      "postcode": "3880-001",
      "city": "OVAR",
      "lon": "-8.641385635877377",
      "lat": "40.86224207983005"
    },
    {
      "id": "pt.ine.add.PTCONT.301923",
      "street": "TV ENFERMEIRO DAVID SANTOS",
      "house": "18",
      "postcode": "3880-174",
      "city": "OVAR",
      "lon": "-8.635854932994397",
      "lat": "40.85707054525496"
    },
    {
      "id": "pt.ine.add.PTCONT.309696",
      "street": "AV REGUA",
      "house": "201",
      "postcode": "3880-001",
      "city": "OVAR",
      "lon": "-8.634744127043191",
      "lat": "40.86074934220736"
    },
    {
      "id": "pt.ine.add.PTCONT.311718",
      "street": "AV REGUA",
      "house": "239",
      "postcode": "3880-001",
      "city": "OVAR",
      "lon": "-8.636111257404378",
      "lat": "40.86116661447681"
    },
    {
      "id": "pt.ine.add.PTCONT.315086",
      "street": "R COR ROCHA COLMIEIRO",
      "house": "31",
      "postcode": "3880-019",
      "city": "OVAR",
      "lon": "-8.642791513512764",
      "lat": "40.86151549237761"
    },
    {
      "id": "pt.ine.add.PTCONT.317770",
      "street": "AV REGUA",
      "house": "1093",
      "postcode": "3880-001",
      "city": "OVAR",
      "lon": "-8.64585247528413",
      "lat": "40.86316781444815"
    },
    {
      "id": "pt.ine.add.PTCONT.335599",
      "street": "AV REGUA",
      "house": "1123",
      "postcode": "3880-001",
      "city": "OVAR",
      "lon": "-8.646137478588933",
      "lat": "40.86321157119989"
    },
    {
      "id": "pt.ine.add.PTCONT.335600",
      "street": "AV REGUA",
      "house": "191",
      "postcode": "3880-001",
      "city": "OVAR",
      "lon": "-8.634152471556964",
      "lat": "40.86093200974915"
    },
    {
      "id": "pt.ine.add.PTCONT.337113",
      "street": "R CAP BELMIRO DUARTE SILVA",
      "house": "38",
      "postcode": "3880-017",
      "city": "OVAR",
      "lon": "-8.64232461570739",
      "lat": "40.86249907766722"
    },
    {
      "id": "pt.ine.add.PTCONT.342875",
      "street": "R IRMÃOS PEREIRA CHAVES",
      "house": "",
      "postcode": "3880-021",
      "city": "OVAR",
      "lon": "-8.642607742765373",
      "lat": "40.86075089611887"
    },
    {
      "id": "pt.ine.add.PTCONT.345793",
      "street": "AV REGUA",
      "house": "963",
      "postcode": "3880-001",
      "city": "OVAR",
      "lon": "-8.644213765344164",
      "lat": "40.86292295277865"
    },
    {
      "id": "pt.ine.add.PTCONT.346482",
      "street": "R COR ROCHA COLMIEIRO",
      "house": "7",
      "postcode": "3880-019",
      "city": "OVAR",
      "lon": "-8.642292826139265",
      "lat": "40.861445656382124"
    },
    {
      "id": "pt.ine.add.PTCONT.350187",
      "street": "R IRMÃOS PEREIRA CHAVES",
      "house": "",
      "postcode": "3880-021",
      "city": "OVAR",
      "lon": "-8.642665525772012",
      "lat": "40.86055253523187"
    },
    {
      "id": "pt.ine.add.PTCONT.350656",
      "street": "R MAJOR ANTERO DE MAGALHÃES",
      "house": "",
      "postcode": "3880-032",
      "city": "OVAR",
      "lon": "-8.642764134541391",
      "lat": "40.86103835889044"
    },
    {
      "id": "pt.ine.add.PTCONT.4521",
      "street": "AV REGUA",
      "house": "217",
      "postcode": "3880-001",
      "city": "OVAR",
      "lon": "-8.635565954700622",
      "lat": "40.861205010276294"
    },
    {
      "id": "pt.ine.add.PTCONT.4522",
      "street": "AV REGUA",
      "house": "187",
      "postcode": "3880-001",
      "city": "OVAR",
      "lon": "-8.634103876982655",
      "lat": "40.86077913915741"
    },
    {
      "id": "pt.ine.add.PTCONT.9822",
      "street": "AV REGUA",
      "house": "212",
      "postcode": "3880-001",
      "city": "OVAR",
      "lon": "-8.635411430261275",
      "lat": "40.86116065925646"
    },
    {
      "id": "pt.ine.add.PTCONT.12528",
      "street": "R CAP BELMIRO DUARTE SILVA",
      "house": "33",
      "postcode": "3880-017",
      "city": "OVAR",
      "lon": "-8.642215181662806",
      "lat": "40.862148373532584"
    },
    {
      "id": "pt.ine.add.PTCONT.16516",
      "street": "R MAJOR ANTERO DE MAGALHÃES",
      "house": "",
      "postcode": "3880-032",
      "city": "OVAR",
      "lon": "-8.643021953308946",
      "lat": "40.8606320033939"
    },
    {
      "id": "pt.ine.add.PTCONT.16627",
      "street": "R MAJOR ANTERO DE MAGALHÃES",
      "house": "",
      "postcode": "3880-032",
      "city": "OVAR",
      "lon": "-8.643021953308946",
      "lat": "40.8606320033939"
    },
    {
      "id": "pt.ine.add.PTCONT.16628",
      "street": "R MAJOR ANTERO DE MAGALHÃES",
      "house": "",
      "postcode": "3880-032",
      "city": "OVAR",
      "lon": "-8.643021953308946",
      "lat": "40.8606320033939"
    },
    {
      "id": "pt.ine.add.PTCONT.16629",
      "street": "R MAJOR ANTERO DE MAGALHÃES",
      "house": "",
      "postcode": "3880-032",
      "city": "OVAR",
      "lon": "-8.643021953308946",
      "lat": "40.8606320033939"
    },
    {
      "id": "pt.ine.add.PTCONT.16630",
      "street": "R MAJOR ANTERO DE MAGALHÃES",
      "house": "",
      "postcode": "3880-032",
      "city": "OVAR",
      "lon": "-8.643021953308946",
      "lat": "40.8606320033939"
    },
    {
      "id": "pt.ine.add.PTCONT.16631",
      "street": "R MAJOR ANTERO DE MAGALHÃES",
      "house": "",
      "postcode": "3880-032",
      "city": "OVAR",
      "lon": "-8.643021953308946",
      "lat": "40.8606320033939"
    },
    {
      "id": "pt.ine.add.PTCONT.16632",
      "street": "R MAJOR ANTERO DE MAGALHÃES",
      "house": "",
      "postcode": "3880-032",
      "city": "OVAR",
      "lon": "-8.643021953308946",
      "lat": "40.8606320033939"
    },
    {
      "id": "pt.ine.add.PTCONT.18021",
      "street": "R MAJOR ANTERO DE MAGALHÃES",
      "house": "",
      "postcode": "3880-032",
      "city": "OVAR",
      "lon": "-8.643021953308946",
      "lat": "40.8606320033939"
    },
    {
      "id": "pt.ine.add.PTCONT.20256",
      "street": "AV DR NUNES DA SILVA",
      "house": "693",
      "postcode": "3880-113",
      "city": "OVAR",
      "lon": "-8.633721908034406",
      "lat": "40.86045662456588"
    },
    {
      "id": "pt.ine.add.PTCONT.28386",
      "street": "R IRMÃOS PEREIRA CHAVES",
      "house": "",
      "postcode": "3880-021",
      "city": "OVAR",
      "lon": "-8.642607742765373",
      "lat": "40.86075089611887"
    },
    {
      "id": "pt.ine.add.PTCONT.28387",
      "street": "R IRMÃOS PEREIRA CHAVES",
      "house": "",
      "postcode": "3880-021",
      "city": "OVAR",
      "lon": "-8.642607742765373",
      "lat": "40.86075089611887"
    },
    {
      "id": "pt.ine.add.PTCONT.28388",
      "street": "R IRMÃOS PEREIRA CHAVES",
      "house": "",
      "postcode": "3880-021",
      "city": "OVAR",
      "lon": "-8.642607742765373",
      "lat": "40.86075089611887"
    },
    {
      "id": "pt.ine.add.PTCONT.28389",
      "street": "R IRMÃOS PEREIRA CHAVES",
      "house": "",
      "postcode": "3880-021",
      "city": "OVAR",
      "lon": "-8.642607742765373",
      "lat": "40.86075089611887"
    },
    {
      "id": "pt.ine.add.PTCONT.28393",
      "street": "R IRMÃOS PEREIRA CHAVES",
      "house": "",
      "postcode": "3880-021",
      "city": "OVAR",
      "lon": "-8.642607742765373",
      "lat": "40.86075089611887"
    },
    {
      "id": "pt.ine.add.PTCONT.28394",
      "street": "R IRMÃOS PEREIRA CHAVES",
      "house": "",
      "postcode": "3880-021",
      "city": "OVAR",
      "lon": "-8.642607742765373",
      "lat": "40.86075089611887"
    },
    {
      "id": "pt.ine.add.PTCONT.28883",
      "street": "R IRMÃOS PEREIRA CHAVES",
      "house": "",
      "postcode": "3880-021",
      "city": "OVAR",
      "lon": "-8.642607742765373",
      "lat": "40.86075089611887"
    },
    {
      "id": "pt.ine.add.PTCONT.31061",
      "street": "R MAJOR ANTERO DE MAGALHÃES",
      "house": "193",
      "postcode": "3880-032",
      "city": "OVAR",
      "lon": "-8.643111121941114",
      "lat": "40.861433036512736"
    },
    {
      "id": "pt.ine.add.PTCONT.31062",
      "street": "AV REGUA",
      "house": "223",
      "postcode": "3880-001",
      "city": "OVAR",
      "lon": "-8.63572034320658",
      "lat": "40.86123135207552"
    },
    {
      "id": "pt.ine.add.PTCONT.37187",
      "street": "R MAJOR ANTERO DE MAGALHÃES",
      "house": "",
      "postcode": "3880-032",
      "city": "OVAR",
      "lon": "-8.642764134541391",
      "lat": "40.86103835889044"
    },
    {
      "id": "pt.ine.add.PTCONT.37188",
      "street": "R MAJOR ANTERO DE MAGALHÃES",
      "house": "",
      "postcode": "3880-032",
      "city": "OVAR",
      "lon": "-8.642764134541391",
      "lat": "40.86103835889044"
    },
    {
      "id": "pt.ine.add.PTCONT.37189",
      "street": "R MAJ ANTERO MAGALHÃES",
      "house": "158BLA2",
      "postcode": "3880-032",
      "city": "OVAR",
      "lon": "-8.642764134541391",
      "lat": "40.86103835889044"
    },
    {
      "id": "pt.ine.add.PTCONT.37190",
      "street": "R MAJOR ANTERO DE MAGALHÃES",
      "house": "",
      "postcode": "3880-032",
      "city": "OVAR",
      "lon": "-8.642764134541391",
      "lat": "40.86103835889044"
    },
    {
      "id": "pt.ine.add.PTCONT.37191",
      "street": "R MAJOR ANTERO DE MAGALHÃES",
      "house": "",
      "postcode": "3880-032",
      "city": "OVAR",
      "lon": "-8.642764134541391",
      "lat": "40.86103835889044"
    },
    {
      "id": "pt.ine.add.PTCONT.37192",
      "street": "R MAJOR ANTERO DE MAGALHÃES",
      "house": "",
      "postcode": "3880-032",
      "city": "OVAR",
      "lon": "-8.642764134541391",
      "lat": "40.86103835889044"
    },
    {
      "id": "pt.ine.add.PTCONT.37193",
      "street": "R MAJOR ANTERO DE MAGALHÃES",
      "house": "",
      "postcode": "3880-032",
      "city": "OVAR",
      "lon": "-8.642764134541391",
      "lat": "40.86103835889044"
    },
    {
      "id": "pt.ine.add.PTCONT.39680",
      "street": "R CAP BELMIRO DUARTE SILVA",
      "house": "108",
      "postcode": "3880-017",
      "city": "OVAR",
      "lon": "-8.642878954645054",
      "lat": "40.862091413197575"
    },
    {
      "id": "pt.ine.add.PTCONT.48921",
      "street": "R ENFERMEIRO DAVID SANTOS",
      "house": "106",
      "postcode": "3880-174",
      "city": "OVAR",
      "lon": "-8.634771962802146",
      "lat": "40.859722673453646"
    },
    {
      "id": "pt.ine.add.PTCONT.55290",
      "street": "AV REGUA",
      "house": "753",
      "postcode": "3880-001",
      "city": "OVAR",
      "lon": "-8.640929365779726",
      "lat": "40.86151470059298"
    },
    {
      "id": "pt.ine.add.PTCONT.55350",
      "street": "AV REGUA",
      "house": "1221",
      "postcode": "3880-001",
      "city": "OVAR",
      "lon": "-8.647181287004035",
      "lat": "40.86321592880512"
    },
    {
      "id": "pt.ine.add.PTCONT.55351",
      "street": "AV REGUA",
      "house": "1097",
      "postcode": "3880-001",
      "city": "OVAR",
      "lon": "-8.645412936900923",
      "lat": "40.86307971944914"
    },
    {
      "id": "pt.ine.add.PTCONT.64971",
      "street": "R MAJOR ANTERO DE MAGALHÃES",
      "house": "80",
      "postcode": "3880-032",
      "city": "OVAR",
      "lon": "-8.643041617257328",
      "lat": "40.86164945901221"
    },
    {
      "id": "pt.ine.add.PTCONT.68025",
      "street": "AV REGUA",
      "house": "",
      "postcode": "3880-001",
      "city": "OVAR",
      "lon": "-8.64748072970013",
      "lat": "40.86359279536574"
    },
    {
      "id": "pt.ine.add.PTCONT.68026",
      "street": "R COR ROCHA COLMIEIRO",
      "house": "74",
      "postcode": "3880-019",
      "city": "OVAR",
      "lon": "-8.6429483912573",
      "lat": "40.86186598631183"
    },
    {
      "id": "pt.ine.add.PTCONT.71578",
      "street": "AV REGUA",
      "house": "1151",
      "postcode": "3880-001",
      "city": "OVAR",
      "lon": "-8.646505228860857",
      "lat": "40.86321893979548"
    },
    {
      "id": "pt.ine.add.PTCONT.74321",
      "street": "R IRMÃOS PEREIRA CHAVES",
      "house": "",
      "postcode": "3880-021",
      "city": "OVAR",
      "lon": "-8.642665525772012",
      "lat": "40.86055253523187"
    },
    {
      "id": "pt.ine.add.PTCONT.74322",
      "street": "R IRMÃOS PEREIRA CHAVES",
      "house": "",
      "postcode": "3880-021",
      "city": "OVAR",
      "lon": "-8.642665525772012",
      "lat": "40.86055253523187"
    },
    {
      "id": "pt.ine.add.PTCONT.74323",
      "street": "R IRMÃOS PEREIRA CHAVES",
      "house": "",
      "postcode": "3880-021",
      "city": "OVAR",
      "lon": "-8.642665525772012",
      "lat": "40.86055253523187"
    },
    {
      "id": "pt.ine.add.PTCONT.74324",
      "street": "R IRMÃOS PEREIRA CHAVES",
      "house": "",
      "postcode": "3880-021",
      "city": "OVAR",
      "lon": "-8.642665525772012",
      "lat": "40.86055253523187"
    },
    {
      "id": "pt.ine.add.PTCONT.74325",
      "street": "R IRMÃOS PEREIRA CHAVES",
      "house": "",
      "postcode": "3880-021",
      "city": "OVAR",
      "lon": "-8.642665525772012",
      "lat": "40.86055253523187"
    },
    {
      "id": "pt.ine.add.PTCONT.74326",
      "street": "R IRMÃOS PEREIRA CHAVES",
      "house": "",
      "postcode": "3880-021",
      "city": "OVAR",
      "lon": "-8.642665525772012",
      "lat": "40.86055253523187"
    },
    {
      "id": "pt.ine.add.PTCONT.74775",
      "street": "R IRMÃOS PEREIRA CHAVES",
      "house": "",
      "postcode": "3880-021",
      "city": "OVAR",
      "lon": "-8.642665525772012",
      "lat": "40.86055253523187"
    },
    {
      "id": "pt.ine.add.PTCONT.82464",
      "street": "R ENFERMEIRO DAVID SANTOS",
      "house": "1S6",
      "postcode": "3880-174",
      "city": "OVAR",
      "lon": "-8.634697541925535",
      "lat": "40.859290766422085"
    },
    {
      "id": "pt.ine.add.PTCONT.82485",
      "street": "AV REGUA",
      "house": "875",
      "postcode": "3880-001",
      "city": "OVAR",
      "lon": "-8.64338103379353",
      "lat": "40.862602466804"
    },
    {
      "id": "pt.ine.add.PTCONT.83865",
      "street": "R MAJOR ANTERO DE MAGALHÃES",
      "house": "101",
      "postcode": "3880-032",
      "city": "OVAR",
      "lon": "-8.643436300582133",
      "lat": "40.86053111818069"
    },
    {
      "id": "pt.ine.add.PTCONT.89633",
      "street": "AV REGUA",
      "house": "179",
      "postcode": "3880-001",
      "city": "OVAR",
      "lon": "-8.633677178852524",
      "lat": "40.86081701083725"
    },
    {
      "id": "pt.ine.add.PTCONT.93060",
      "street": "AV REGUA",
      "house": "207",
      "postcode": "3880-001",
      "city": "OVAR",
      "lon": "-8.6352680862694",
      "lat": "40.861026211327435"
    },
    {
      "id": "pt.ine.add.PTCONT.93089",
      "street": "AV REGUA",
      "house": "829",
      "postcode": "3880-001",
      "city": "OVAR",
      "lon": "-8.642704636396886",
      "lat": "40.86256043301406"
    },
    {
      "id": "pt.ine.add.PTCONT.100214",
      "street": "AV REGUA",
      "house": "757",
      "postcode": "3880-001",
      "city": "OVAR",
      "lon": "-8.64194438896308",
      "lat": "40.86241070757704"
    },
    {
      "id": "pt.ine.add.PTCONT.102152",
      "street": "AV REGUA",
      "house": "183",
      "postcode": "3880-001",
      "city": "OVAR",
      "lon": "-8.6338306841782",
      "lat": "40.86072629655444"
    },
    {
      "id": "pt.ine.add.PTCONT.102153",
      "street": "AV REGUA",
      "house": "183",
      "postcode": "3880-001",
      "city": "OVAR",
      "lon": "-8.6338306841782",
      "lat": "40.86072629655444"
    },
    {
      "id": "pt.ine.add.PTCONT.103003",
      "street": "R ENFERMEIRO DAVID SANTOS",
      "house": "202",
      "postcode": "3880-174",
      "city": "OVAR",
      "lon": "-8.6351097184014",
      "lat": "40.85890176673307"
    },
    {
      "id": "pt.ine.add.PTCONT.106420",
      "street": "AV REGUA",
      "house": "1149",
      "postcode": "3880-001",
      "city": "OVAR",
      "lon": "-8.646374413905518",
      "lat": "40.863174497967286"
    },
    {
      "id": "pt.ine.add.PTCONT.117030",
      "street": "R IRMÃOS PEREIRA CHAVES",
      "house": "",
      "postcode": "3880-021",
      "city": "OVAR",
      "lon": "-8.642480177458902",
      "lat": "40.86112966117244"
    },
    {
      "id": "pt.ine.add.PTCONT.117068",
      "street": "R IRMÃOS PEREIRA CHAVES",
      "house": "",
      "postcode": "3880-021",
      "city": "OVAR",
      "lon": "-8.642480177458902",
      "lat": "40.86112966117244"
    },
    {
      "id": "pt.ine.add.PTCONT.117069",
      "street": "R IRMÃOS PEREIRA CHAVES",
      "house": "",
      "postcode": "3880-021",
      "city": "OVAR",
      "lon": "-8.642480177458902",
      "lat": "40.86112966117244"
    },
    {
      "id": "pt.ine.add.PTCONT.117070",
      "street": "R IRMÃOS PEREIRA CHAVES",
      "house": "",
      "postcode": "3880-021",
      "city": "OVAR",
      "lon": "-8.642480177458902",
      "lat": "40.86112966117244"
    },
    {
      "id": "pt.ine.add.PTCONT.117071",
      "street": "R IRMÃOS PEREIRA CHAVES",
      "house": "",
      "postcode": "3880-021",
      "city": "OVAR",
      "lon": "-8.642480177458902",
      "lat": "40.86112966117244"
    },
    {
      "id": "pt.ine.add.PTCONT.117072",
      "street": "R IRMÃOS PEREIRA CHAVES",
      "house": "",
      "postcode": "3880-021",
      "city": "OVAR",
      "lon": "-8.642480177458902",
      "lat": "40.86112966117244"
    },
    {
      "id": "pt.ine.add.PTCONT.117073",
      "street": "R IRMÃOS PEREIRA CHAVES",
      "house": "",
      "postcode": "3880-021",
      "city": "OVAR",
      "lon": "-8.642480177458902",
      "lat": "40.86112966117244"
    },
    {
      "id": "pt.ine.add.PTCONT.117074",
      "street": "R IRMÃOS PEREIRA CHAVES",
      "house": "",
      "postcode": "3880-021",
      "city": "OVAR",
      "lon": "-8.642480177458902",
      "lat": "40.86112966117244"
    },
    {
      "id": "pt.ine.add.PTCONT.119719",
      "street": "AV REGUA",
      "house": "177",
      "postcode": "3880-001",
      "city": "OVAR",
      "lon": "-8.633582093395514",
      "lat": "40.86079040901458"
    },
    {
      "id": "pt.ine.add.PTCONT.120258",
      "street": "AV RÉGUA",
      "house": "",
      "postcode": "3880-001",
      "city": "OVAR",
      "lon": "-8.643024733373302",
      "lat": "40.86254100883153"
    },
    {
      "id": "pt.ine.add.PTCONT.125184",
      "street": "AV REGUA",
      "house": "213",
      "postcode": "3880-001",
      "city": "OVAR",
      "lon": "-8.635506380886447",
      "lat": "40.86116925054926"
    },
    {
      "id": "pt.ine.add.PTCONT.150746",
      "street": "R COR ROCHA COLMIEIRO",
      "house": "34",
      "postcode": "3880-019",
      "city": "OVAR",
      "lon": "-8.642568719315664",
      "lat": "40.8618496542164"
    },
    {
      "id": "pt.ine.add.PTCONT.161602",
      "street": "AV REGUA",
      "house": "937",
      "postcode": "3880-001",
      "city": "OVAR",
      "lon": "-8.644011442816359",
      "lat": "40.86283380109648"
    },
    {
      "id": "pt.ine.add.PTCONT.161603",
      "street": "AV REGUA",
      "house": "",
      "postcode": "3880-001",
      "city": "OVAR",
      "lon": "-8.647282693100914",
      "lat": "40.860991291492645"
    },
    {
      "id": "pt.ine.add.PTCONT.170175",
      "street": "R ENFERMEIRO DAVID SANTOS",
      "house": "126",
      "postcode": "3880-174",
      "city": "OVAR",
      "lon": "-8.634543905278422",
      "lat": "40.85936347283372"
    },
    {
      "id": "pt.ine.add.PTCONT.178162",
      "street": "AV DR NUNES DA SILVA",
      "house": "699",
      "postcode": "3880-113",
      "city": "OVAR",
      "lon": "-8.633651831420426",
      "lat": "40.86060100553814"
    },
    {
      "id": "pt.ine.add.PTCONT.183778",
      "street": "R ENFERMEIRO DAVID SANTOS",
      "house": "102",
      "postcode": "3880-174",
      "city": "OVAR",
      "lon": "-8.634380173240032",
      "lat": "40.85967034785468"
    },
    {
      "id": "pt.ine.add.PTCONT.188683",
      "street": "R ENFERMEIRO DAVID SANTOS",
      "house": "124",
      "postcode": "3880-174",
      "city": "OVAR",
      "lon": "-8.634485216330885",
      "lat": "40.85944477119285"
    },
    {
      "id": "pt.ine.add.PTCONT.196787",
      "street": "AV REGUA",
      "house": "917",
      "postcode": "3880-001",
      "city": "OVAR",
      "lon": "-8.643785261318317",
      "lat": "40.86272674509135"
    },
    {
      "id": "pt.ine.add.PTCONT.204618",
      "street": "R MAJOR ANTERO DE MAGALHÃES",
      "house": "",
      "postcode": "3880-032",
      "city": "OVAR",
      "lon": "-8.642765169879231",
      "lat": "40.86117342633697"
    },
    {
      "id": "pt.ine.add.PTCONT.204619",
      "street": "R MAJOR ANTERO DE MAGALHÃES",
      "house": "",
      "postcode": "3880-032",
      "city": "OVAR",
      "lon": "-8.642765169879231",
      "lat": "40.86117342633697"
    },
    {
      "id": "pt.ine.add.PTCONT.204620",
      "street": "R MAJOR ANTERO DE MAGALHÃES",
      "house": "",
      "postcode": "3880-032",
      "city": "OVAR",
      "lon": "-8.642765169879231",
      "lat": "40.86117342633697"
    },
    {
      "id": "pt.ine.add.PTCONT.204621",
      "street": "R MAJOR ANTERO DE MAGALHÃES",
      "house": "",
      "postcode": "3880-032",
      "city": "OVAR",
      "lon": "-8.642765169879231",
      "lat": "40.86117342633697"
    },
    {
      "id": "pt.ine.add.PTCONT.204622",
      "street": "R MAJOR ANTERO DE MAGALHÃES",
      "house": "",
      "postcode": "3880-032",
      "city": "OVAR",
      "lon": "-8.642765169879231",
      "lat": "40.86117342633697"
    },
    {
      "id": "pt.ine.add.PTCONT.204623",
      "street": "R MAJOR ANTERO DE MAGALHÃES",
      "house": "",
      "postcode": "3880-032",
      "city": "OVAR",
      "lon": "-8.642765169879231",
      "lat": "40.86117342633697"
    },
    {
      "id": "pt.ine.add.PTCONT.204624",
      "street": "R MAJOR ANTERO DE MAGALHÃES",
      "house": "",
      "postcode": "3880-032",
      "city": "OVAR",
      "lon": "-8.642765169879231",
      "lat": "40.86117342633697"
    },
    {
      "id": "pt.ine.add.PTCONT.204625",
      "street": "R MAJOR ANTERO DE MAGALHÃES",
      "house": "",
      "postcode": "3880-032",
      "city": "OVAR",
      "lon": "-8.642765169879231",
      "lat": "40.86117342633697"
    },
    {
      "id": "pt.ine.add.PTCONT.210262",
      "street": "R MAJOR ANTERO DE MAGALHÃES",
      "house": "173",
      "postcode": "3880-032",
      "city": "OVAR",
      "lon": "-8.643204139570383",
      "lat": "40.86118949558512"
    },
    {
      "id": "pt.ine.add.PTCONT.210268",
      "street": "R ENFERMEIRO DAVID SANTOS",
      "house": "174",
      "postcode": "3880-174",
      "city": "OVAR",
      "lon": "-8.634945446425805",
      "lat": "40.85913660647717"
    },
    {
      "id": "pt.ine.add.PTCONT.223920",
      "street": "R MAJOR ANTERO DE MAGALHÃES",
      "house": "123",
      "postcode": "3880-032",
      "city": "OVAR",
      "lon": "-8.643331286264637",
      "lat": "40.860756702781785"
    },
    {
      "id": "pt.ine.add.PTCONT.229328",
      "street": "AV REGUA",
      "house": "205",
      "postcode": "3880-001",
      "city": "OVAR",
      "lon": "-8.63498275938648",
      "lat": "40.860937405068626"
    },
    {
      "id": "pt.ine.add.PTCONT.232408",
      "street": "R CAP BELMIRO DUARTE SILVA",
      "house": "19",
      "postcode": "3880-017",
      "city": "OVAR",
      "lon": "-8.64196569792721",
      "lat": "40.86209544558349"
    },
    {
      "id": "pt.ine.add.PTCONT.243503",
      "street": "AV REGUA",
      "house": "185",
      "postcode": "3880-001",
      "city": "OVAR",
      "lon": "-8.633937765546507",
      "lat": "40.86077085569666"
    },
    {
      "id": "pt.ine.add.PTCONT.245715",
      "street": "AV REGUA",
      "house": "",
      "postcode": "3880-001",
      "city": "OVAR",
      "lon": "-8.63701475743967",
      "lat": "40.86144181995548"
    },
    {
      "id": "pt.ine.add.PTCONT.245741",
      "street": "R COR ROCHA COLMIEIRO",
      "house": "",
      "postcode": "3880-019",
      "city": "OVAR",
      "lon": "-8.642542100704448",
      "lat": "40.86147157015408"
    },
    {
      "id": "pt.ine.add.PTCONT.246222",
      "street": "AV REGUA",
      "house": "979",
      "postcode": "3880-001",
      "city": "OVAR",
      "lon": "-8.644427395030798",
      "lat": "40.86294001559671"
    },
    {
      "id": "pt.ine.add.PTCONT.246786",
      "street": "AV REGUA",
      "house": "1173",
      "postcode": "3880-001",
      "city": "OVAR",
      "lon": "-8.646754581197754",
      "lat": "40.86325384889416"
    },
    {
      "id": "pt.ine.add.PTCONT.246787",
      "street": "AV REGUA",
      "house": "415",
      "postcode": "3880-001",
      "city": "OVAR",
      "lon": "-8.638095008504976",
      "lat": "40.86156316304985"
    },
    {
      "id": "pt.ine.add.PTCONT.249005",
      "street": "R MAJ ANTERO MAGALHÃES",
      "house": "132",
      "postcode": "3880-032",
      "city": "OVAR",
      "lon": "-8.642987822749852",
      "lat": "40.86082125510578"
    },
    {
      "id": "pt.ine.add.PTCONT.249006",
      "street": "R MAJOR ANTERO DE MAGALHÃES",
      "house": "",
      "postcode": "3880-032",
      "city": "OVAR",
      "lon": "-8.642987822749852",
      "lat": "40.86082125510578"
    },
    {
      "id": "pt.ine.add.PTCONT.249007",
      "street": "R MAJOR ANTERO DE MAGALHÃES",
      "house": "",
      "postcode": "3880-032",
      "city": "OVAR",
      "lon": "-8.642987822749852",
      "lat": "40.86082125510578"
    },
    {
      "id": "pt.ine.add.PTCONT.249008",
      "street": "R MAJOR ANTERO DE MAGALHÃES",
      "house": "",
      "postcode": "3880-032",
      "city": "OVAR",
      "lon": "-8.642987822749852",
      "lat": "40.86082125510578"
    },
    {
      "id": "pt.ine.add.PTCONT.249009",
      "street": "R MAJOR ANTERO DE MAGALHÃES",
      "house": "",
      "postcode": "3880-032",
      "city": "OVAR",
      "lon": "-8.642987822749852",
      "lat": "40.86082125510578"
    },
    {
      "id": "pt.ine.add.PTCONT.249010",
      "street": "R MAJOR ANTERO DE MAGALHÃES",
      "house": "",
      "postcode": "3880-032",
      "city": "OVAR",
      "lon": "-8.642987822749852",
      "lat": "40.86082125510578"
    },
    {
      "id": "pt.ine.add.PTCONT.249015",
      "street": "R MAJ ANTERO MAGALHÃES",
      "house": "132",
      "postcode": "3880-032",
      "city": "OVAR",
      "lon": "-8.642987822749852",
      "lat": "40.86082125510578"
    },
    {
      "id": "pt.ine.add.PTCONT.249016",
      "street": "R MAJOR ANTERO DE MAGALHÃES",
      "house": "",
      "postcode": "3880-032",
      "city": "OVAR",
      "lon": "-8.642987822749852",
      "lat": "40.86082125510578"
    },
    {
      "id": "pt.ine.add.PTCONT.253649",
      "street": "R ENFERMEIRO DAVID SANTOS",
      "house": "78",
      "postcode": "3880-174",
      "city": "OVAR",
      "lon": "-8.634191701592453",
      "lat": "40.8598422580255"
    },
    {
      "id": "pt.ine.add.PTCONT.259236",
      "street": "AV REGUA",
      "house": "971",
      "postcode": "3880-001",
      "city": "OVAR",
      "lon": "-8.643238914271814",
      "lat": "40.86263010980949"
    },
    {
      "id": "pt.ine.add.PTCONT.261789",
      "street": "R MAJOR ANTERO DE MAGALHÃES",
      "house": "141",
      "postcode": "3880-032",
      "city": "OVAR",
      "lon": "-8.643273850532228",
      "lat": "40.861000086464166"
    },
    {
      "id": "pt.ine.add.PTCONT.269942",
      "street": "AV REGUA",
      "house": "371",
      "postcode": "3880-001",
      "city": "OVAR",
      "lon": "-8.637584123511697",
      "lat": "40.86144833607928"
    },
    {
      "id": "pt.ine.add.PTCONT.269983",
      "street": "R CAP BELMIRO DUARTE SILVA",
      "house": "",
      "postcode": "3880-017",
      "city": "OVAR",
      "lon": "-8.64244094479841",
      "lat": "40.86220140568304"
    },
    {
      "id": "pt.ine.add.PTCONT.269984",
      "street": "R CAP BELMIRO DUARTE SILVA",
      "house": "177",
      "postcode": "3880-017",
      "city": "OVAR",
      "lon": "-8.642130090084866",
      "lat": "40.86187860505756"
    },
    {
      "id": "pt.ine.add.PTCONT.285862",
      "street": "R IRMÃOS PEREIRA CHAVES",
      "house": "",
      "postcode": "3880-021",
      "city": "OVAR",
      "lon": "-8.642502656302748",
      "lat": "40.86096747547878"
    },
    {
      "id": "pt.ine.add.PTCONT.285863",
      "street": "R IRMÃOS PEREIRA CHAVES",
      "house": "",
      "postcode": "3880-021",
      "city": "OVAR",
      "lon": "-8.642502656302748",
      "lat": "40.86096747547878"
    },
    {
      "id": "pt.ine.add.PTCONT.285864",
      "street": "R IRMÃOS PEREIRA CHAVES",
      "house": "",
      "postcode": "3880-021",
      "city": "OVAR",
      "lon": "-8.642502656302748",
      "lat": "40.86096747547878"
    },
    {
      "id": "pt.ine.add.PTCONT.285865",
      "street": "R IRMÃOS PEREIRA CHAVES",
      "house": "",
      "postcode": "3880-021",
      "city": "OVAR",
      "lon": "-8.642502656302748",
      "lat": "40.86096747547878"
    },
    {
      "id": "pt.ine.add.PTCONT.285866",
      "street": "R IRMÃOS PEREIRA CHAVES",
      "house": "",
      "postcode": "3880-021",
      "city": "OVAR",
      "lon": "-8.642502656302748",
      "lat": "40.86096747547878"
    },
    {
      "id": "pt.ine.add.PTCONT.285867",
      "street": "R IRMÃOS PEREIRA CHAVES",
      "house": "",
      "postcode": "3880-021",
      "city": "OVAR",
      "lon": "-8.642502656302748",
      "lat": "40.86096747547878"
    },
    {
      "id": "pt.ine.add.PTCONT.285868",
      "street": "R IRMÃOS PEREIRA CHAVES",
      "house": "",
      "postcode": "3880-021",
      "city": "OVAR",
      "lon": "-8.642502656302748",
      "lat": "40.86096747547878"
    },
    {
      "id": "pt.ine.add.PTCONT.285869",
      "street": "R IRMÃOS PEREIRA CHAVES",
      "house": "",
      "postcode": "3880-021",
      "city": "OVAR",
      "lon": "-8.642502656302748",
      "lat": "40.86096747547878"
    },
    {
      "id": "pt.ine.add.PTCONT.285878",
      "street": "R ENFERMEIRO DAVID SANTOS",
      "house": "42",
      "postcode": "3880-174",
      "city": "OVAR",
      "lon": "-8.633979305238485",
      "lat": "40.85998725735712"
    },
    {
      "id": "pt.ine.add.PTCONT.285896",
      "street": "R COR ROCHA COLMIEIRO",
      "house": "8",
      "postcode": "3880-019",
      "city": "OVAR",
      "lon": "-8.642152225312682",
      "lat": "40.86167139696478"
    }
  ]
}