{
  "data": {
    "distrito": "Portalegre",
    "concelho": "Crato",
    "freguesia": "União das freguesias de Crato e Mártires, Flor da Rosa e Vale do Peso",
    "OBJECTID": 96,
    "BGRI2021": "12060700210",
    "DT21": "12",
    "DTMN21": "1206",
    "DTMNFR21": "120607",
    "DTMNFRSEC21": "120607002",
    "SECNUM21": "002",
    "SSNUM21": "10",
    "SECSSNUM21": "00210",
    "OBJECTID_1": 121529,
    "DT": "12",
    "CC": "06",
    "fr": "07",
    "SEC": "002",
    "SS": "10"
  },
  "addresses": [
    {
      "id": "pt.ine.add.PTCONT.3539397",
      "street": "R CMDT RUI LOPES BELO",
      "house": "14",
      "postcode": "7430-138",
      "city": "CRATO",
      "lon": "-7.647164572852961",
      "lat": "39.287121452660976"
    },
    {
      "id": "pt.ine.add.PTCONT.3458265",
      "street": "R CMDT RUI LOPES BELO",
      "house": "26",
      "postcode": "7430-138",
      "city": "CRATO",
      "lon": "-7.646978005622419",
      "lat": "39.287282804239304"
    },
    {
      "id": "pt.ine.add.PTCONT.3468126",
      "street": "R CMDT RUI LOPES BELO",
      "house": "36",
      "postcode": "7430-138",
      "city": "CRATO",
      "lon": "-7.6468265203392125",
      "lat": "39.28739926582345"
    },
    {
      "id": "pt.ine.add.PTCONT.3468721",
      "street": "R CMDT RUI LOPES BELO",
      "house": "18",
      "postcode": "7430-138",
      "city": "CRATO",
      "lon": "-7.647117962252157",
      "lat": "39.287157287093095"
    },
    {
      "id": "pt.ine.add.PTCONT.3469502",
      "street": "R CMDT RUI LOPES BELO",
      "house": "30",
      "postcode": "7430-138",
      "city": "CRATO",
      "lon": "-7.646942922973205",
      "lat": "39.28732769397218"
    },
    {
      "id": "pt.ine.add.PTCONT.3471217",
      "street": "R CMDT RUI LOPES BELO",
      "house": "22",
      "postcode": "7430-138",
      "city": "CRATO",
      "lon": "-7.647024678642947",
      "lat": "39.28723796288236"
    },
    {
      "id": "pt.ine.add.PTCONT.3474958",
      "street": "R CMDT RUI LOPES BELO",
      "house": "12",
      "postcode": "7430-138",
      "city": "CRATO",
      "lon": "-7.647118647033093",
      "lat": "39.287058210280975"
    },
    {
      "id": "pt.ine.add.PTCONT.3483446",
      "street": "R CMDT RUI LOPES BELO",
      "house": "6",
      "postcode": "7430-138",
      "city": "CRATO",
      "lon": "-7.647246327998926",
      "lat": "39.2870317214091"
    },
    {
      "id": "pt.ine.add.PTCONT.3484564",
      "street": "R D EFIGENIA SA NOGUEIRA",
      "house": "23",
      "postcode": "7430-156",
      "city": "CRATO",
      "lon": "-7.645721432725599",
      "lat": "39.287971108732926"
    },
    {
      "id": "pt.ine.add.PTCONT.3485883",
      "street": "R CMDT RUI LOPES BELO",
      "house": "34",
      "postcode": "7430-138",
      "city": "CRATO",
      "lon": "-7.646884597119122",
      "lat": "39.28738149387704"
    },
    {
      "id": "pt.ine.add.PTCONT.3488422",
      "street": "R D EFIGENIA SA NOGUEIRA",
      "house": "9",
      "postcode": "7430-156",
      "city": "CRATO",
      "lon": "-7.646250927189592",
      "lat": "39.28682940420769"
    },
    {
      "id": "pt.ine.add.PTCONT.3495669",
      "street": "R CMDT RUI LOPES BELO",
      "house": "8",
      "postcode": "7430-138",
      "city": "CRATO",
      "lon": "-7.647188313842107",
      "lat": "39.287040486556265"
    },
    {
      "id": "pt.ine.add.PTCONT.3502933",
      "street": "R CMDT RUI LOPES BELO",
      "house": "10",
      "postcode": "7430-138",
      "city": "CRATO",
      "lon": "-7.647199593014755",
      "lat": "39.28708556984126"
    },
    {
      "id": "pt.ine.add.PTCONT.3503443",
      "street": "R GEN HUMBERTO DELGADO",
      "house": "5",
      "postcode": "7430-162",
      "city": "CRATO",
      "lon": "-7.645904884156571",
      "lat": "39.28826010820967"
    },
    {
      "id": "pt.ine.add.PTCONT.3505406",
      "street": "R CMDT RUI LOPES BELO",
      "house": "32",
      "postcode": "7430-138",
      "city": "CRATO",
      "lon": "-7.646861727670992",
      "lat": "39.287336362162456"
    },
    {
      "id": "pt.ine.add.PTCONT.3506662",
      "street": "R GEN HUMBERTO DELGADO",
      "house": "13",
      "postcode": "7430-162",
      "city": "CRATO",
      "lon": "-7.646191904267896",
      "lat": "39.288657627428236"
    },
    {
      "id": "pt.ine.add.PTCONT.3516608",
      "street": "R CMDT RUI LOPES BELO",
      "house": "20",
      "postcode": "7430-138",
      "city": "CRATO",
      "lon": "-7.647082942012857",
      "lat": "39.28719316988732"
    },
    {
      "id": "pt.ine.add.PTCONT.3520317",
      "street": "R CMDT RUI LOPES BELO",
      "house": "16",
      "postcode": "7430-138",
      "city": "CRATO",
      "lon": "-7.647083502329511",
      "lat": "39.2871121070421"
    },
    {
      "id": "pt.ine.add.PTCONT.3521793",
      "street": "R CMDT RUI LOPES BELO",
      "house": "4",
      "postcode": "7430-138",
      "city": "CRATO",
      "lon": "-7.647316305886296",
      "lat": "39.2869689626907"
    },
    {
      "id": "pt.ine.add.PTCONT.3528429",
      "street": "R CMDT RUI LOPES BELO",
      "house": "2",
      "postcode": "7430-138",
      "city": "CRATO",
      "lon": "-7.647363040703139",
      "lat": "39.286915114209584"
    },
    {
      "id": "pt.ine.add.PTCONT.3529401",
      "street": "R CMDT RUI LOPES BELO",
      "house": "28",
      "postcode": "7430-138",
      "city": "CRATO",
      "lon": "-7.646908463081193",
      "lat": "39.287282513870885"
    },
    {
      "id": "pt.ine.add.PTCONT.3529725",
      "street": "R D EFIGENIA SA NOGUEIRA",
      "house": "",
      "postcode": "7430-156",
      "city": "CRATO",
      "lon": "-7.64623222707491",
      "lat": "39.28785615162056"
    },
    {
      "id": "pt.ine.add.PTCONT.3530712",
      "street": "R CMDT RUI LOPES BELO",
      "house": "24",
      "postcode": "7430-138",
      "city": "CRATO",
      "lon": "-7.646955136145585",
      "lat": "39.287237672542105"
    }
  ]
}