{
  "data": {
    "distrito": "Faro",
    "concelho": "Tavira",
    "freguesia": "União das freguesias de Tavira (Santa Maria e Santiago)",
    "OBJECTID": 15,
    "BGRI2021": "08141200822",
    "DT21": "08",
    "DTMN21": "0814",
    "DTMNFR21": "081412",
    "DTMNFRSEC21": "081412008",
    "SECNUM21": "008",
    "SSNUM21": "22",
    "SECSSNUM21": "00822",
    "OBJECTID_1": 73544,
    "DT": "08",
    "CC": "14",
    "fr": "12",
    "SEC": "008",
    "SS": "22"
  },
  "addresses": [
    {
      "id": "pt.ine.add.PTCONT.1477413",
      "street": "SIT VAU",
      "house": "407Z",
      "postcode": "8800-208",
      "city": "TAVIRA",
      "lon": "-7.622956956753309",
      "lat": "37.14871689073225"
    },
    {
      "id": "pt.ine.add.PTCONT.1483168",
      "street": "SIT COVAS DE GESSO",
      "house": "402 Z",
      "postcode": "8800-219",
      "city": "TAVIRA",
      "lon": "-7.6220335712730725",
      "lat": "37.15546177300498"
    },
    {
      "id": "pt.ine.add.PTCONT.1486031",
      "street": "URB CASA DA PONTE",
      "house": "",
      "postcode": "8800-219",
      "city": "TAVIRA",
      "lon": "-7.621486697263858",
      "lat": "37.149746760612445"
    },
    {
      "id": "pt.ine.add.PTCONT.1539765",
      "street": "SIT ALMARGEM",
      "house": "401 Z",
      "postcode": "8800-219",
      "city": "TAVIRA",
      "lon": "-7.620546969680772",
      "lat": "37.15222058665859"
    },
    {
      "id": "pt.ine.add.PTCONT.1593677",
      "street": "CASA VALE DEL REI",
      "house": "",
      "postcode": "8800-053",
      "city": "CONCEIÇÃO TVR",
      "lon": "-7.6221314299724465",
      "lat": "37.15095694857267"
    },
    {
      "id": "pt.ine.add.PTCONT.1647128",
      "street": "SIT VALE DEL REI",
      "house": "803 Z",
      "postcode": "8800-202",
      "city": "TAVIRA",
      "lon": "-7.6257446506868325",
      "lat": "37.15266644442626"
    },
    {
      "id": "pt.ine.add.PTCONT.1663527",
      "street": "SIT VAU",
      "house": "",
      "postcode": "8800-219",
      "city": "TAVIRA",
      "lon": "-7.622507080444385",
      "lat": "37.14866089050929"
    },
    {
      "id": "pt.ine.add.PTCONT.1720001",
      "street": "SIT CAPELINHA",
      "house": "803 Z",
      "postcode": "8800-202",
      "city": "TAVIRA",
      "lon": "-7.628476050057226",
      "lat": "37.15157882510767"
    },
    {
      "id": "pt.ine.add.PTCONT.1737222",
      "street": "SIT QUINTA SANTANA",
      "house": "",
      "postcode": "8800-219",
      "city": "TAVIRA",
      "lon": "-7.620501156960504",
      "lat": "37.15400446599792"
    },
    {
      "id": "pt.ine.add.PTCONT.1788674",
      "street": "SIT ALMARGEM",
      "house": "",
      "postcode": "8800-219",
      "city": "TAVIRA",
      "lon": "-7.621974531984632",
      "lat": "37.149181204035834"
    },
    {
      "id": "pt.ine.add.PTCONT.1794606",
      "street": "SIT QUINTA DA RIBEIRA",
      "house": "",
      "postcode": "8800-219",
      "city": "TAVIRA",
      "lon": "-7.620819982813278",
      "lat": "37.151798273824774"
    },
    {
      "id": "pt.ine.add.PTCONT.1795262",
      "street": "URB MATO SANTO ESPÍRITO",
      "house": "135 T",
      "postcode": "8800-208",
      "city": "TAVIRA",
      "lon": "-7.626644097686504",
      "lat": "37.147768579963696"
    },
    {
      "id": "pt.ine.add.PTCONT.1797707",
      "street": "SIT ALMARGEM",
      "house": "401 Z",
      "postcode": "8800-219",
      "city": "TAVIRA",
      "lon": "-7.620172705206827",
      "lat": "37.15263345016979"
    },
    {
      "id": "pt.ine.add.PTCONT.1823516",
      "street": "SIT CAPELINHA",
      "house": "804 Z",
      "postcode": "8800-202",
      "city": "TAVIRA",
      "lon": "-7.628238886315254",
      "lat": "37.151694951546794"
    },
    {
      "id": "pt.ine.add.PTCONT.1829989",
      "street": "URB MATO SANTO ESPÍRITO",
      "house": "135 T",
      "postcode": "8800-208",
      "city": "TAVIRA",
      "lon": "-7.6267019990792315",
      "lat": "37.14752554378763"
    }
  ]
}