{
  "data": {
    "distrito": "Porto",
    "concelho": "Porto",
    "freguesia": "União das freguesias de Lordelo do Ouro e Massarelos",
    "OBJECTID": 1619,
    "BGRI2021": "13121801812",
    "DT21": "13",
    "DTMN21": "1312",
    "DTMNFR21": "131218",
    "DTMNFRSEC21": "131218018",
    "SECNUM21": "018",
    "SSNUM21": "12",
    "SECSSNUM21": "01812",
    "OBJECTID_1": 138478,
    "DT": "13",
    "CC": "12",
    "fr": "18",
    "SEC": "018",
    "SS": "12"
  },
  "addresses": [
    {
      "id": "pt.ine.add.PTCONT.4013595",
      "street": "AV BOAVISTA",
      "house": "46 48",
      "postcode": "4100-136",
      "city": "PORTO",
      "lon": "-8.659165732528644",
      "lat": "41.162707657488674"
    },
    {
      "id": "pt.ine.add.PTCONT.4352108",
      "street": "R CORREIA DE SÁ",
      "house": "158",
      "postcode": "4100-229",
      "city": "PORTO",
      "lon": "-8.66041235007317",
      "lat": "41.16215269321576"
    },
    {
      "id": "pt.ine.add.PTCONT.4352109",
      "street": "R CORREIA DE SÁ",
      "house": "158",
      "postcode": "4100-229",
      "city": "PORTO",
      "lon": "-8.66041235007317",
      "lat": "41.16215269321576"
    },
    {
      "id": "pt.ine.add.PTCONT.4352110",
      "street": "R CORREIA DE SÁ",
      "house": "158",
      "postcode": "4100-229",
      "city": "PORTO",
      "lon": "-8.66041235007317",
      "lat": "41.16215269321576"
    },
    {
      "id": "pt.ine.add.PTCONT.4352111",
      "street": "R CORREIA DE SÁ",
      "house": "158",
      "postcode": "4100-229",
      "city": "PORTO",
      "lon": "-8.66041235007317",
      "lat": "41.16215269321576"
    },
    {
      "id": "pt.ine.add.PTCONT.4352112",
      "street": "R DE TÂNGER",
      "house": "1422",
      "postcode": "4150-721",
      "city": "PORTO",
      "lon": "-8.66041235007317",
      "lat": "41.16215269321576"
    },
    {
      "id": "pt.ine.add.PTCONT.4352113",
      "street": "R DE TÂNGER",
      "house": "1422",
      "postcode": "4150-721",
      "city": "PORTO",
      "lon": "-8.66041235007317",
      "lat": "41.16215269321576"
    },
    {
      "id": "pt.ine.add.PTCONT.4352114",
      "street": "R DE TÂNGER",
      "house": "1422",
      "postcode": "4150-721",
      "city": "PORTO",
      "lon": "-8.66041235007317",
      "lat": "41.16215269321576"
    },
    {
      "id": "pt.ine.add.PTCONT.4352115",
      "street": "R DE TÂNGER",
      "house": "1422",
      "postcode": "4150-721",
      "city": "PORTO",
      "lon": "-8.66041235007317",
      "lat": "41.16215269321576"
    },
    {
      "id": "pt.ine.add.PTCONT.4352116",
      "street": "R CORREIA DE SÁ",
      "house": "158",
      "postcode": "4100-229",
      "city": "PORTO",
      "lon": "-8.66041235007317",
      "lat": "41.16215269321576"
    },
    {
      "id": "pt.ine.add.PTCONT.4361544",
      "street": "AV BOAVISTA",
      "house": "",
      "postcode": "4100-136",
      "city": "PORTO",
      "lon": "-8.660104668074329",
      "lat": "41.16241522690869"
    }
  ]
}