{
  "data": {
    "distrito": "Lisboa",
    "concelho": "Alenquer",
    "freguesia": "Carnota",
    "OBJECTID": 572,
    "BGRI2021": "11010600208",
    "DT21": "11",
    "DTMN21": "1101",
    "DTMNFR21": "110106",
    "DTMNFRSEC21": "110106002",
    "SECNUM21": "002",
    "SSNUM21": "08",
    "SECSSNUM21": "00208",
    "OBJECTID_1": 99315,
    "DT": "11",
    "CC": "01",
    "fr": "06",
    "SEC": "002",
    "SS": "08"
  },
  "addresses": [
    {
      "id": "pt.ine.add.PTCONT.2277676",
      "street": "R AREEIRO",
      "house": "",
      "postcode": "2580-149",
      "city": "CARNOTA",
      "lon": "-9.080455498420505",
      "lat": "39.02688105808686"
    },
    {
      "id": "pt.ine.add.PTCONT.2358609",
      "street": "R FONTE",
      "house": "4",
      "postcode": "2580-149",
      "city": "CARNOTA",
      "lon": "-9.080769421768698",
      "lat": "39.02704064220872"
    },
    {
      "id": "pt.ine.add.PTCONT.2395838",
      "street": "R ARIEIRO",
      "house": "1",
      "postcode": "2580-149",
      "city": "CARNOTA",
      "lon": "-9.080326562297298",
      "lat": "39.02673798594835"
    },
    {
      "id": "pt.ine.add.PTCONT.2414219",
      "street": "R AREEIRO",
      "house": "",
      "postcode": "2580-149",
      "city": "CARNOTA",
      "lon": "-9.080571445516915",
      "lat": "39.02691614614775"
    },
    {
      "id": "pt.ine.add.PTCONT.2423552",
      "street": "CSL FREIRIA",
      "house": "",
      "postcode": "2580-149",
      "city": "CARNOTA",
      "lon": "-9.078761050297878",
      "lat": "39.01844580969161"
    },
    {
      "id": "pt.ine.add.PTCONT.2477098",
      "street": "CSL LOPES",
      "house": "",
      "postcode": "2580-149",
      "city": "CARNOTA",
      "lon": "-9.08174848904661",
      "lat": "39.027717250045995"
    },
    {
      "id": "pt.ine.add.PTCONT.2504992",
      "street": "LG TRABALHADORES",
      "house": "3",
      "postcode": "2580-149",
      "city": "CARNOTA",
      "lon": "-9.079940958665057",
      "lat": "39.02639883340778"
    },
    {
      "id": "pt.ine.add.PTCONT.2504998",
      "street": "CSL FREIRIA",
      "house": "",
      "postcode": "2580-149",
      "city": "CARNOTA",
      "lon": "-9.07553637698418",
      "lat": "39.02081384805293"
    },
    {
      "id": "pt.ine.add.PTCONT.2504999",
      "street": "CSL FREIRIA",
      "house": "",
      "postcode": "2580-147",
      "city": "CARNOTA",
      "lon": "-9.086073143453477",
      "lat": "39.029861800169314"
    },
    {
      "id": "pt.ine.add.PTCONT.2513681",
      "street": "R AREEIRO",
      "house": "1",
      "postcode": "2580-149",
      "city": "CARNOTA",
      "lon": "-9.080508542362109",
      "lat": "39.02652933657793"
    },
    {
      "id": "pt.ine.add.PTCONT.2513684",
      "street": "R AREEIRO",
      "house": "9",
      "postcode": "2580-149",
      "city": "CARNOTA",
      "lon": "-9.080873461788688",
      "lat": "39.02704880434624"
    },
    {
      "id": "pt.ine.add.PTCONT.2547687",
      "street": "ESTR SERRA",
      "house": "",
      "postcode": "2580-585",
      "city": "CARNOTA",
      "lon": "-9.072382359981523",
      "lat": "39.01893871162087"
    },
    {
      "id": "pt.ine.add.PTCONT.2559790",
      "street": "R ARINTO",
      "house": "",
      "postcode": "2580-149",
      "city": "CARNOTA",
      "lon": "-9.080721792073122",
      "lat": "39.02693293972888"
    },
    {
      "id": "pt.ine.add.PTCONT.2571550",
      "street": "",
      "house": "",
      "postcode": "2580-147",
      "city": "CARNOTA",
      "lon": "-9.086276030745568",
      "lat": "39.029490837101065"
    },
    {
      "id": "pt.ine.add.PTCONT.2630732",
      "street": "LG TRABALHADORES",
      "house": "",
      "postcode": "2580-149",
      "city": "CARNOTA",
      "lon": "-9.079767520339196",
      "lat": "39.02638222622393"
    },
    {
      "id": "pt.ine.add.PTCONT.2640019",
      "street": "LG TRABALHADORES",
      "house": "7",
      "postcode": "2580-149",
      "city": "CARNOTA",
      "lon": "-9.080184878210154",
      "lat": "39.02650494262922"
    },
    {
      "id": "pt.ine.add.PTCONT.2666003",
      "street": "CSL VITÃ“RIA",
      "house": "",
      "postcode": "2580-149",
      "city": "CARNOTA",
      "lon": "-9.076251380088765",
      "lat": "39.024221897341626"
    },
    {
      "id": "pt.ine.add.PTCONT.2698365",
      "street": "CSL LOPES",
      "house": "",
      "postcode": "2580-149",
      "city": "CARNOTA",
      "lon": "-9.081551351787938",
      "lat": "39.02765580101562"
    },
    {
      "id": "pt.ine.add.PTCONT.2718968",
      "street": "CSL FONTE DA GATARIA",
      "house": "",
      "postcode": "2580-149",
      "city": "CARNOTA",
      "lon": "-9.083820833099157",
      "lat": "39.02638528960526"
    },
    {
      "id": "pt.ine.add.PTCONT.2737656",
      "street": "QTA MO",
      "house": "",
      "postcode": "2580-149",
      "city": "CARNOTA",
      "lon": "-9.074071885040338",
      "lat": "39.018348617188266"
    },
    {
      "id": "pt.ine.add.PTCONT.2781901",
      "street": "CSL NOVO DE CIMA",
      "house": "",
      "postcode": "2580-141",
      "city": "CARNOTA",
      "lon": "-9.069682251226709",
      "lat": "39.01557361175462"
    },
    {
      "id": "pt.ine.add.PTCONT.2811804",
      "street": "R ARINTO",
      "house": "1",
      "postcode": "2580-149",
      "city": "CARNOTA",
      "lon": "-9.080385016556047",
      "lat": "39.02679155596841"
    },
    {
      "id": "pt.ine.add.PTCONT.2862635",
      "street": "CSL LOPES",
      "house": "",
      "postcode": "2580-149",
      "city": "CARNOTA",
      "lon": "-9.081653707426673",
      "lat": "39.02753787182648"
    },
    {
      "id": "pt.ine.add.PTCONT.2926203",
      "street": "SIT FREIRIA",
      "house": "",
      "postcode": "2580-147",
      "city": "CARNOTA",
      "lon": "-9.076025721699976",
      "lat": "39.01940472882464"
    },
    {
      "id": "pt.ine.add.PTCONT.2940757",
      "street": "",
      "house": "",
      "postcode": "2580-147",
      "city": "CARNOTA",
      "lon": "-9.086347853576903",
      "lat": "39.02967940652121"
    },
    {
      "id": "pt.ine.add.PTCONT.2972200",
      "street": "CSL LOPES",
      "house": "",
      "postcode": "2580-149",
      "city": "CARNOTA",
      "lon": "-9.081334725600222",
      "lat": "39.02700001824061"
    },
    {
      "id": "pt.ine.add.PTCONT.2999494",
      "street": "LG ROSSIO",
      "house": "3",
      "postcode": "2580-149",
      "city": "CARNOTA",
      "lon": "-9.07968621408785",
      "lat": "39.02634685624537"
    },
    {
      "id": "pt.ine.add.PTCONT.2999509",
      "street": "CSL NOVO DE CIMA",
      "house": "",
      "postcode": "2580-149",
      "city": "CARNOTA",
      "lon": "-9.071112373036026",
      "lat": "39.01807520604572"
    },
    {
      "id": "pt.ine.add.PTCONT.3017852",
      "street": "R PRINCIPAL",
      "house": "",
      "postcode": "2580-149",
      "city": "CARNOTA",
      "lon": "-9.07963918712119",
      "lat": "39.02628418568384"
    },
    {
      "id": "pt.ine.add.PTCONT.3036129",
      "street": "CSL LOPES",
      "house": "",
      "postcode": "2580-149",
      "city": "CARNOTA",
      "lon": "-9.082474518894713",
      "lat": "39.026904192536676"
    },
    {
      "id": "pt.ine.add.PTCONT.3024410",
      "street": "CSL MOINHO DE VENTO",
      "house": "",
      "postcode": "2580-147",
      "city": "CARNOTA",
      "lon": "-9.081302097321235",
      "lat": "39.02110039909722"
    },
    {
      "id": "pt.ine.add.PTCONT.3044976",
      "street": "R AREEIRO",
      "house": "11",
      "postcode": "2580-147",
      "city": "CARNOTA",
      "lon": "-9.0809325181614",
      "lat": "39.02714740645706"
    },
    {
      "id": "pt.ine.add.PTCONT.3138240",
      "street": "CSL VITORIA",
      "house": "",
      "postcode": "2580-147",
      "city": "CARNOTA",
      "lon": "-9.076383765325412",
      "lat": "39.022887722705455"
    },
    {
      "id": "pt.ine.add.PTCONT.3157774",
      "street": "",
      "house": "",
      "postcode": "2580-147",
      "city": "CARNOTA",
      "lon": "-9.074423775303638",
      "lat": "39.01963384611403"
    },
    {
      "id": "pt.ine.add.PTCONT.3229450",
      "street": "CSL LOPES",
      "house": "",
      "postcode": "2580-149",
      "city": "CARNOTA",
      "lon": "-9.081233693786066",
      "lat": "39.027217018375296"
    },
    {
      "id": "pt.ine.add.PTCONT.3277609",
      "street": "LG TRABALHADORES",
      "house": "5 A",
      "postcode": "2580-149",
      "city": "CARNOTA",
      "lon": "-9.080112954882507",
      "lat": "39.026307362590565"
    },
    {
      "id": "pt.ine.add.PTCONT.3277619",
      "street": "CSL FREIRIA",
      "house": "",
      "postcode": "2580-149",
      "city": "CARNOTA",
      "lon": "-9.07673987730807",
      "lat": "39.02101129017735"
    },
    {
      "id": "pt.ine.add.PTCONT.3299016",
      "street": "CSL NOVO DE CIMA",
      "house": "",
      "postcode": "2580-149",
      "city": "CARNOTA",
      "lon": "-9.070245305621942",
      "lat": "39.01711837543469"
    },
    {
      "id": "pt.ine.add.PTCONT.3305083",
      "street": "CSL LOPES",
      "house": "",
      "postcode": "2580-149",
      "city": "CARNOTA",
      "lon": "-9.080379366355007",
      "lat": "39.02636825152734"
    },
    {
      "id": "pt.ine.add.PTCONT.3342263",
      "street": "CSL NOVO DE CIMA",
      "house": "",
      "postcode": "2580-149",
      "city": "CARNOTA",
      "lon": "-9.06975639180758",
      "lat": "39.01594232298601"
    },
    {
      "id": "pt.ine.add.PTCONT.3351046",
      "street": "CSL MONTE ALTO",
      "house": "",
      "postcode": "2580-149",
      "city": "CARNOTA",
      "lon": "-9.076791481708856",
      "lat": "39.018813051063624"
    },
    {
      "id": "pt.ine.add.PTCONT.3363432",
      "street": "LG ROSSIO",
      "house": "5",
      "postcode": "2580-149",
      "city": "CARNOTA",
      "lon": "-9.079881183390853",
      "lat": "39.026246191882066"
    },
    {
      "id": "pt.ine.add.PTCONT.3412372",
      "street": "SIT SITIO DA FREIRIA",
      "house": "",
      "postcode": "2580-149",
      "city": "CARNOTA",
      "lon": "-9.076527734923587",
      "lat": "39.01895029645305"
    }
  ]
}