{
  "data": {
    "distrito": "Lisboa",
    "concelho": "Alenquer",
    "freguesia": "Carnota",
    "OBJECTID": 1,
    "BGRI2021": "11010600217",
    "DT21": "11",
    "DTMN21": "1101",
    "DTMNFR21": "110106",
    "DTMNFRSEC21": "110106002",
    "SECNUM21": "002",
    "SSNUM21": "17",
    "SECSSNUM21": "00217",
    "OBJECTID_1": 99316,
    "DT": "11",
    "CC": "01",
    "fr": "06",
    "SEC": "002",
    "SS": "17"
  },
  "addresses": [
    {
      "id": "pt.ine.add.PTCONT.2313554",
      "street": "R BESTEIRA",
      "house": "4",
      "postcode": "2580-154",
      "city": "CARNOTA",
      "lon": "-9.070344603978464",
      "lat": "39.036879941760866"
    },
    {
      "id": "pt.ine.add.PTCONT.2499340",
      "street": "CSL FREIRIA",
      "house": "",
      "postcode": "2580-149",
      "city": "CARNOTA",
      "lon": "-9.083183113954133",
      "lat": "39.03309202656947"
    },
    {
      "id": "pt.ine.add.PTCONT.2513697",
      "street": "CRZT MOINHO DE VENTO",
      "house": "",
      "postcode": "2580-147",
      "city": "CARNOTA",
      "lon": "-9.083355357087612",
      "lat": "39.02956871244174"
    },
    {
      "id": "pt.ine.add.PTCONT.2559788",
      "street": "LG 25 DE ABRIL",
      "house": "6",
      "postcode": "2580-154",
      "city": "CARNOTA",
      "lon": "-9.070144229665551",
      "lat": "39.03744902065633"
    },
    {
      "id": "pt.ine.add.PTCONT.2585988",
      "street": "CSL PARTEIRO VALE REIS",
      "house": "",
      "postcode": "2580-155",
      "city": "CARNOTA",
      "lon": "-9.079544822971394",
      "lat": "39.03739113267223"
    },
    {
      "id": "pt.ine.add.PTCONT.2621435",
      "street": "R LIBERDADE",
      "house": "5",
      "postcode": "2580-154",
      "city": "CARNOTA",
      "lon": "-9.070727123714377",
      "lat": "39.03785867859918"
    },
    {
      "id": "pt.ine.add.PTCONT.2651517",
      "street": "R BESTEIRA",
      "house": "2",
      "postcode": "2580-154",
      "city": "CARNOTA",
      "lon": "-9.070266383561638",
      "lat": "39.03707873404442"
    },
    {
      "id": "pt.ine.add.PTCONT.2781902",
      "street": "TV CARVALHAIS",
      "house": "103",
      "postcode": "2580-147",
      "city": "CARNOTA",
      "lon": "-9.082898281646024",
      "lat": "39.03338258448285"
    },
    {
      "id": "pt.ine.add.PTCONT.2811802",
      "street": "R BESTEIRA",
      "house": "6",
      "postcode": "2580-154",
      "city": "CARNOTA",
      "lon": "-9.07054342803646",
      "lat": "39.03619377816173"
    },
    {
      "id": "pt.ine.add.PTCONT.2817429",
      "street": "CSL ADEGA",
      "house": "",
      "postcode": "2580-154",
      "city": "CARNOTA",
      "lon": "-9.071294172636392",
      "lat": "39.03532302707319"
    },
    {
      "id": "pt.ine.add.PTCONT.2862617",
      "street": "R LIBERDADE",
      "house": "7",
      "postcode": "2580-154",
      "city": "CARNOTA",
      "lon": "-9.07087856297111",
      "lat": "39.03795654294381"
    },
    {
      "id": "pt.ine.add.PTCONT.2926204",
      "street": "CSL FREIRIA",
      "house": "",
      "postcode": "2580-147",
      "city": "CARNOTA",
      "lon": "-9.084074290963526",
      "lat": "39.02978803940528"
    },
    {
      "id": "pt.ine.add.PTCONT.2947798",
      "street": "CSL CARVALHAL",
      "house": "",
      "postcode": "2580-147",
      "city": "CARNOTA",
      "lon": "-9.082532810005453",
      "lat": "39.03196238391851"
    },
    {
      "id": "pt.ine.add.PTCONT.2990235",
      "street": "R LIBERDADE",
      "house": "3",
      "postcode": "2580-154",
      "city": "CARNOTA",
      "lon": "-9.070563779402546",
      "lat": "39.03773388741612"
    },
    {
      "id": "pt.ine.add.PTCONT.3092691",
      "street": "R PRATA TRAVESSA DOS CARVALHAIS",
      "house": "",
      "postcode": "2580-147",
      "city": "CARNOTA",
      "lon": "-9.08355722222605",
      "lat": "39.03343126146033"
    },
    {
      "id": "pt.ine.add.PTCONT.3129478",
      "street": "R BESTEIRA",
      "house": "8",
      "postcode": "2580-154",
      "city": "CARNOTA",
      "lon": "-9.070748080988116",
      "lat": "39.03594893211705"
    },
    {
      "id": "pt.ine.add.PTCONT.3138219",
      "street": "R BESTEIRA",
      "house": "10",
      "postcode": "2580-154",
      "city": "CARNOTA",
      "lon": "-9.070919278846167",
      "lat": "39.03579442916038"
    },
    {
      "id": "pt.ine.add.PTCONT.3167013",
      "street": "R LIBERDADE",
      "house": "1",
      "postcode": "2580-154",
      "city": "CARNOTA",
      "lon": "-9.070320429828204",
      "lat": "39.037672791004994"
    },
    {
      "id": "pt.ine.add.PTCONT.3222158",
      "street": "QTA PORTO CANAS",
      "house": "",
      "postcode": "2580-154",
      "city": "CARNOTA",
      "lon": "-9.076789231071697",
      "lat": "39.03948517125666"
    },
    {
      "id": "pt.ine.add.PTCONT.3299013",
      "street": "LG 25 DE ABRIL",
      "house": "4",
      "postcode": "2580-154",
      "city": "CARNOTA",
      "lon": "-9.070007076618195",
      "lat": "39.03755821177248"
    },
    {
      "id": "pt.ine.add.PTCONT.3441338",
      "street": "R LIBERDADE",
      "house": "9",
      "postcode": "2580-154",
      "city": "CARNOTA",
      "lon": "-9.075633106142964",
      "lat": "39.040269159324964"
    }
  ]
}