{
  "data": {
    "distrito": "Évora",
    "concelho": "Estremoz",
    "freguesia": "São Domingos de Ana Loura",
    "OBJECTID": 70,
    "BGRI2021": "07041100114",
    "DT21": "07",
    "DTMN21": "0704",
    "DTMNFR21": "070411",
    "DTMNFRSEC21": "070411001",
    "SECNUM21": "001",
    "SSNUM21": "14",
    "SECSSNUM21": "00114",
    "OBJECTID_1": 59335,
    "DT": "07",
    "CC": "04",
    "fr": "11",
    "SEC": "001",
    "SS": "14"
  },
  "addresses": [
    {
      "id": "pt.ine.add.PTCONT.1373980",
      "street": "MTE PIEDADE",
      "house": "",
      "postcode": "7100-640",
      "city": "SÃO DOMINGOS DE ANA LOURA",
      "lon": "-7.521324748311288",
      "lat": "38.86686756373235"
    },
    {
      "id": "pt.ine.add.PTCONT.1388132",
      "street": "MTE ATALAIA",
      "house": "",
      "postcode": "7100-640",
      "city": "SÃO DOMINGOS DE ANA LOURA",
      "lon": "-7.5283775059732925",
      "lat": "38.859923207755614"
    },
    {
      "id": "pt.ine.add.PTCONT.1393794",
      "street": "MTE CHOCAS",
      "house": "",
      "postcode": "7100-640",
      "city": "SÃO DOMINGOS DE ANA LOURA",
      "lon": "-7.513863416988742",
      "lat": "38.86230629924351"
    },
    {
      "id": "pt.ine.add.PTCONT.1399290",
      "street": "MTE DEMURFAS",
      "house": "",
      "postcode": "7100-640",
      "city": "SÃO DOMINGOS DE ANA LOURA",
      "lon": "-7.521795929465368",
      "lat": "38.87239183961424"
    },
    {
      "id": "pt.ine.add.PTCONT.1401738",
      "street": "MTE PENSAMENTO",
      "house": "",
      "postcode": "7100-640",
      "city": "SÃO DOMINGOS DE ANA LOURA",
      "lon": "-7.532193670934039",
      "lat": "38.86096980098422"
    },
    {
      "id": "pt.ine.add.PTCONT.1415643",
      "street": "MTE REDONDO",
      "house": "",
      "postcode": "7100-640",
      "city": "SÃO DOMINGOS DE ANA LOURA",
      "lon": "-7.528474628180634",
      "lat": "38.859338199562664"
    },
    {
      "id": "pt.ine.add.PTCONT.1421351",
      "street": "MTE CHOCAS",
      "house": "",
      "postcode": "7100-641",
      "city": "SÃO DOMINGOS DE ANA LOURA",
      "lon": "-7.51409430265197",
      "lat": "38.86225347609277"
    },
    {
      "id": "pt.ine.add.PTCONT.1427917",
      "street": "MTE ROCHA ORADA",
      "house": "",
      "postcode": "7100-640",
      "city": "SÃO DOMINGOS DE ANA LOURA",
      "lon": "-7.52809880542388",
      "lat": "38.85882280517244"
    },
    {
      "id": "pt.ine.add.PTCONT.1427918",
      "street": "MTE MACHADOS",
      "house": "3017",
      "postcode": "7100-640",
      "city": "SÃO DOMINGOS DE ANA LOURA",
      "lon": "-7.530056031421387",
      "lat": "38.86170643531552"
    }
  ]
}