{
  "data": {
    "distrito": "Viana do Castelo",
    "concelho": "Ponte de Lima",
    "freguesia": "Arcozelo",
    "OBJECTID": 1010,
    "BGRI2021": "16070400326",
    "DT21": "16",
    "DTMN21": "1607",
    "DTMNFR21": "160704",
    "DTMNFRSEC21": "160704003",
    "SECNUM21": "003",
    "SSNUM21": "26",
    "SECSSNUM21": "00326",
    "OBJECTID_1": 175986,
    "DT": "16",
    "CC": "07",
    "fr": "04",
    "SEC": "003",
    "SS": "26"
  },
  "addresses": [
    {
      "id": "pt.ine.add.PTCONT.5135478",
      "street": "R DA POCA GRANDE",
      "house": "",
      "postcode": "4990-240",
      "city": "PONTE DE LIMA",
      "lon": "-8.581242490923845",
      "lat": "41.781575371151916"
    },
    {
      "id": "pt.ine.add.PTCONT.5136209",
      "street": "R POCA GRANDE",
      "house": "",
      "postcode": "4990-240",
      "city": "PONTE DE LIMA",
      "lon": "-8.579503770944768",
      "lat": "41.78062778212085"
    },
    {
      "id": "pt.ine.add.PTCONT.5142276",
      "street": "TV TU DO AFRICANO",
      "house": "",
      "postcode": "4990-240",
      "city": "PONTE DE LIMA",
      "lon": "-8.579580837201318",
      "lat": "41.783067397841435"
    },
    {
      "id": "pt.ine.add.PTCONT.5144642",
      "street": "R DA POCA GRANDE",
      "house": "",
      "postcode": "4990-240",
      "city": "PONTE DE LIMA",
      "lon": "-8.580744126198084",
      "lat": "41.78083003367301"
    },
    {
      "id": "pt.ine.add.PTCONT.5145519",
      "street": "R MONTE REDONDO",
      "house": "",
      "postcode": "4990-240",
      "city": "PONTE DE LIMA",
      "lon": "-8.579796449067842",
      "lat": "41.781202860757844"
    },
    {
      "id": "pt.ine.add.PTCONT.5145520",
      "street": "R POCA GRANDE",
      "house": "",
      "postcode": "4990-240",
      "city": "PONTE DE LIMA",
      "lon": "-8.579796449067842",
      "lat": "41.781202860757844"
    },
    {
      "id": "pt.ine.add.PTCONT.5150079",
      "street": "R DA POCA GRANDE",
      "house": "",
      "postcode": "4990-240",
      "city": "PONTE DE LIMA",
      "lon": "-8.580265744706828",
      "lat": "41.781228045262274"
    },
    {
      "id": "pt.ine.add.PTCONT.5151232",
      "street": "BC BC",
      "house": "",
      "postcode": "4990-240",
      "city": "PONTE DE LIMA",
      "lon": "-8.578663534991245",
      "lat": "41.782620790267956"
    },
    {
      "id": "pt.ine.add.PTCONT.5154628",
      "street": "R DA POCA GRANDE",
      "house": "",
      "postcode": "4990-240",
      "city": "PONTE DE LIMA",
      "lon": "-8.581253328342259",
      "lat": "41.781404264707035"
    },
    {
      "id": "pt.ine.add.PTCONT.5156775",
      "street": "VIA 9 DE DEZEMBRO",
      "house": "",
      "postcode": "4990-240",
      "city": "PONTE DE LIMA",
      "lon": "-8.581592069589172",
      "lat": "41.781682047544905"
    },
    {
      "id": "pt.ine.add.PTCONT.5157586",
      "street": "VIA 9 DE DEZEMBRO",
      "house": "",
      "postcode": "4990-240",
      "city": "PONTE DE LIMA",
      "lon": "-8.580276566030767",
      "lat": "41.782785587319594"
    },
    {
      "id": "pt.ine.add.PTCONT.5163020",
      "street": "R COVINHA",
      "house": "",
      "postcode": "4990-240",
      "city": "PONTE DE LIMA",
      "lon": "-8.578606632232866",
      "lat": "41.78308918647163"
    },
    {
      "id": "pt.ine.add.PTCONT.5165015",
      "street": "R R",
      "house": "",
      "postcode": "4990-240",
      "city": "PONTE DE LIMA",
      "lon": "-8.579524791238201",
      "lat": "41.78192418687415"
    },
    {
      "id": "pt.ine.add.PTCONT.5169325",
      "street": "TV TU DO AFRICANO",
      "house": "",
      "postcode": "4990-240",
      "city": "PONTE DE LIMA",
      "lon": "-8.579845219927623",
      "lat": "41.783030356577434"
    },
    {
      "id": "pt.ine.add.PTCONT.5171867",
      "street": "VIA 9 DE DEZEMBRO",
      "house": "",
      "postcode": "4990-240",
      "city": "PONTE DE LIMA",
      "lon": "-8.58084103831184",
      "lat": "41.78265734157497"
    },
    {
      "id": "pt.ine.add.PTCONT.5171868",
      "street": "VIA 9 DE DEZEMBRO",
      "house": "",
      "postcode": "4990-240",
      "city": "PONTE DE LIMA",
      "lon": "-8.58084103831184",
      "lat": "41.78265734157497"
    },
    {
      "id": "pt.ine.add.PTCONT.5171869",
      "street": "BC POCA GRANDE",
      "house": "",
      "postcode": "4990-240",
      "city": "PONTE DE LIMA",
      "lon": "-8.580597272204686",
      "lat": "41.782199119148544"
    },
    {
      "id": "pt.ine.add.PTCONT.5173086",
      "street": "POCA GRANDE",
      "house": "",
      "postcode": "4990-240",
      "city": "PONTE DE LIMA",
      "lon": "-8.581264228395245",
      "lat": "41.78124216138959"
    },
    {
      "id": "pt.ine.add.PTCONT.5173087",
      "street": "FALDEJAES",
      "house": "S N",
      "postcode": "4990-240",
      "city": "PONTE DE LIMA",
      "lon": "-8.579833721574666",
      "lat": "41.78137378001297"
    },
    {
      "id": "pt.ine.add.PTCONT.5178852",
      "street": "R DO MONTE REDONDO",
      "house": "",
      "postcode": "4990-240",
      "city": "PONTE DE LIMA",
      "lon": "-8.579625802800114",
      "lat": "41.78087940250147"
    },
    {
      "id": "pt.ine.add.PTCONT.5180862",
      "street": "VIA 9 DE DEZEMBRO",
      "house": "",
      "postcode": "4990-240",
      "city": "PONTE DE LIMA",
      "lon": "-8.581569769093354",
      "lat": "41.781934229150565"
    },
    {
      "id": "pt.ine.add.PTCONT.5183316",
      "street": "R DA POCA GRANDE",
      "house": "",
      "postcode": "4990-240",
      "city": "PONTE DE LIMA",
      "lon": "-8.581241864065985",
      "lat": "41.78148533982357"
    },
    {
      "id": "pt.ine.add.PTCONT.5187102",
      "street": "R DA POCA GRANDE",
      "house": "",
      "postcode": "4990-240",
      "city": "PONTE DE LIMA",
      "lon": "-8.580036517144043",
      "lat": "41.78112990007225"
    },
    {
      "id": "pt.ine.add.PTCONT.5190954",
      "street": "FALDEJAES ARCOZELO",
      "house": "",
      "postcode": "4990-240",
      "city": "PONTE DE LIMA",
      "lon": "-8.580487137399638",
      "lat": "41.78192944678216"
    },
    {
      "id": "pt.ine.add.PTCONT.5196780",
      "street": "VIA 9 DE DEZEMBRO",
      "house": "",
      "postcode": "4990-240",
      "city": "PONTE DE LIMA",
      "lon": "-8.579162264141619",
      "lat": "41.783420155384704"
    },
    {
      "id": "pt.ine.add.PTCONT.5200772",
      "street": "VIA 9 DE DEZEMBRO",
      "house": "",
      "postcode": "4990-240",
      "city": "PONTE DE LIMA",
      "lon": "-8.581463331007816",
      "lat": "41.78219574250599"
    },
    {
      "id": "pt.ine.add.PTCONT.5200773",
      "street": "VIA 9 DE DEZEMBRO",
      "house": "",
      "postcode": "4990-240",
      "city": "PONTE DE LIMA",
      "lon": "-8.581463331007816",
      "lat": "41.78219574250599"
    },
    {
      "id": "pt.ine.add.PTCONT.5201515",
      "street": "VIA 9 DE DEZEMBRO",
      "house": "",
      "postcode": "4990-240",
      "city": "PONTE DE LIMA",
      "lon": "-8.581463331007816",
      "lat": "41.78219574250599"
    },
    {
      "id": "pt.ine.add.PTCONT.5204807",
      "street": "R DA POCA GRANDE",
      "house": "",
      "postcode": "4990-240",
      "city": "PONTE DE LIMA",
      "lon": "-8.579926636553854",
      "lat": "41.780896239639574"
    },
    {
      "id": "pt.ine.add.PTCONT.5206462",
      "street": "R R",
      "house": "",
      "postcode": "4990-240",
      "city": "PONTE DE LIMA",
      "lon": "-8.578878242818506",
      "lat": "41.78235885946415"
    },
    {
      "id": "pt.ine.add.PTCONT.5217858",
      "street": "R PREGUEIRO",
      "house": "",
      "postcode": "4990-240",
      "city": "PONTE DE LIMA",
      "lon": "-8.578809811910267",
      "lat": "41.78289932752307"
    },
    {
      "id": "pt.ine.add.PTCONT.5221340",
      "street": "VIA 9 DE DEZEMBRO",
      "house": "",
      "postcode": "4990-240",
      "city": "PONTE DE LIMA",
      "lon": "-8.581068705946128",
      "lat": "41.78253040681853"
    },
    {
      "id": "pt.ine.add.PTCONT.5221914",
      "street": "VIA 9 DE DEZEMBRO",
      "house": "",
      "postcode": "4990-240",
      "city": "PONTE DE LIMA",
      "lon": "-8.581068705946128",
      "lat": "41.78253040681853"
    },
    {
      "id": "pt.ine.add.PTCONT.5224817",
      "street": "R DA POCA GRANDE",
      "house": "",
      "postcode": "4990-240",
      "city": "PONTE DE LIMA",
      "lon": "-8.58125288953348",
      "lat": "41.781341242775554"
    },
    {
      "id": "pt.ine.add.PTCONT.5230564",
      "street": "R POCA GRANDE",
      "house": "",
      "postcode": "4990-240",
      "city": "PONTE DE LIMA",
      "lon": "-8.579209912524657",
      "lat": "41.77988164303715"
    },
    {
      "id": "pt.ine.add.PTCONT.5230565",
      "street": "VIA 9 DE DEZEMBRO",
      "house": "",
      "postcode": "4990-240",
      "city": "PONTE DE LIMA",
      "lon": "-8.581569141769808",
      "lat": "41.781844197831894"
    },
    {
      "id": "pt.ine.add.PTCONT.5244751",
      "street": "R DA POCA GRANDE",
      "house": "",
      "postcode": "4990-240",
      "city": "PONTE DE LIMA",
      "lon": "-8.581264604525181",
      "lat": "41.781296180188896"
    },
    {
      "id": "pt.ine.add.PTCONT.5248692",
      "street": "R POCA GRANDE",
      "house": "",
      "postcode": "4990-240",
      "city": "PONTE DE LIMA",
      "lon": "-8.579429041493729",
      "lat": "41.780258933910034"
    },
    {
      "id": "pt.ine.add.PTCONT.5252092",
      "street": "VIA 9 DE DEZEMBRO",
      "house": "",
      "postcode": "4990-240",
      "city": "PONTE DE LIMA",
      "lon": "-8.578802771020614",
      "lat": "41.783619624837506"
    },
    {
      "id": "pt.ine.add.PTCONT.5256490",
      "street": "R R",
      "house": "",
      "postcode": "4990-240",
      "city": "PONTE DE LIMA",
      "lon": "-8.579214045935599",
      "lat": "41.782213501990306"
    },
    {
      "id": "pt.ine.add.PTCONT.5256491",
      "street": "R R",
      "house": "",
      "postcode": "4990-240",
      "city": "PONTE DE LIMA",
      "lon": "-8.579214045935599",
      "lat": "41.782213501990306"
    },
    {
      "id": "pt.ine.add.PTCONT.5261084",
      "street": "TV TU DO AFRICANO",
      "house": "",
      "postcode": "4990-240",
      "city": "PONTE DE LIMA",
      "lon": "-8.58004952114257",
      "lat": "41.78300255183321"
    },
    {
      "id": "pt.ine.add.PTCONT.5263522",
      "street": "R R",
      "house": "",
      "postcode": "4990-240",
      "city": "PONTE DE LIMA",
      "lon": "-8.579273627230753",
      "lat": "41.78213224022805"
    },
    {
      "id": "pt.ine.add.PTCONT.5273059",
      "street": "VIA 9 DE DEZEMBRO",
      "house": "",
      "postcode": "4990-240",
      "city": "PONTE DE LIMA",
      "lon": "-8.581260788305634",
      "lat": "41.78247563743546"
    },
    {
      "id": "pt.ine.add.PTCONT.5276650",
      "street": "TV TU DO AFRICANO",
      "house": "",
      "postcode": "4990-240",
      "city": "PONTE DE LIMA",
      "lon": "-8.579183825722453",
      "lat": "41.78305993666857"
    },
    {
      "id": "pt.ine.add.PTCONT.5276651",
      "street": "TV TU DO AFRICANO",
      "house": "",
      "postcode": "4990-240",
      "city": "PONTE DE LIMA",
      "lon": "-8.579183825722453",
      "lat": "41.78305993666857"
    },
    {
      "id": "pt.ine.add.PTCONT.5276652",
      "street": "TV TU DO AFRICANO",
      "house": "",
      "postcode": "4990-240",
      "city": "PONTE DE LIMA",
      "lon": "-8.579183825722453",
      "lat": "41.78305993666857"
    },
    {
      "id": "pt.ine.add.PTCONT.5277313",
      "street": "VIA 9 DE DEZEMBRO",
      "house": "",
      "postcode": "4990-240",
      "city": "PONTE DE LIMA",
      "lon": "-8.579498009681023",
      "lat": "41.78326579395138"
    },
    {
      "id": "pt.ine.add.PTCONT.5283360",
      "street": "R MONTE REDONDO",
      "house": "",
      "postcode": "4990-240",
      "city": "PONTE DE LIMA",
      "lon": "-8.579978938006366",
      "lat": "41.78149926254436"
    }
  ]
}