{
  "data": {
    "distrito": "Beja",
    "concelho": "Odemira",
    "freguesia": "Vila Nova de Milfontes",
    "OBJECTID": 1126,
    "BGRI2021": "02111100114",
    "DT21": "02",
    "DTMN21": "0211",
    "DTMNFR21": "021111",
    "DTMNFRSEC21": "021111001",
    "SECNUM21": "001",
    "SSNUM21": "14",
    "SECSSNUM21": "00114",
    "OBJECTID_1": 17233,
    "DT": "02",
    "CC": "11",
    "fr": "11",
    "SEC": "001",
    "SS": "14"
  },
  "addresses": [
    {
      "id": "pt.ine.add.PTCONT.457172",
      "street": "R MANUEL GOUVEIA",
      "house": "8",
      "postcode": "7645-277",
      "city": "VILA NOVA DE MILFONTES",
      "lon": "-8.782566921604792",
      "lat": "37.72355807678545"
    },
    {
      "id": "pt.ine.add.PTCONT.363552",
      "street": "R MANUEL GOUVEIA",
      "house": "10",
      "postcode": "7645-277",
      "city": "VILA NOVA DE MILFONTES",
      "lon": "-8.78259298074658",
      "lat": "37.723614894437"
    },
    {
      "id": "pt.ine.add.PTCONT.367684",
      "street": "R MANUEL GOUVEIA",
      "house": "20",
      "postcode": "7645-277",
      "city": "VILA NOVA DE MILFONTES",
      "lon": "-8.782729261755607",
      "lat": "37.72394641474156"
    },
    {
      "id": "pt.ine.add.PTCONT.379700",
      "street": "R MANUEL GOUVEIA",
      "house": "16",
      "postcode": "7645-277",
      "city": "VILA NOVA DE MILFONTES",
      "lon": "-8.782677062055635",
      "lat": "37.723810126281805"
    },
    {
      "id": "pt.ine.add.PTCONT.386946",
      "street": "R DIARIO DE NOTICIAS",
      "house": "2",
      "postcode": "7645-257",
      "city": "VILA NOVA DE MILFONTES",
      "lon": "-8.782116583954119",
      "lat": "37.72356063797796"
    },
    {
      "id": "pt.ine.add.PTCONT.395091",
      "street": "R MANUEL GOUVEIA",
      "house": "14",
      "postcode": "7645-277",
      "city": "VILA NOVA DE MILFONTES",
      "lon": "-8.782647951540365",
      "lat": "37.723731612395696"
    },
    {
      "id": "pt.ine.add.PTCONT.410541",
      "street": "R DIARIO DE NOTICIAS",
      "house": "4",
      "postcode": "7645-257",
      "city": "VILA NOVA DE MILFONTES",
      "lon": "-8.78223045569875",
      "lat": "37.723519342715825"
    },
    {
      "id": "pt.ine.add.PTCONT.412766",
      "street": "R DIÁRIO DE NOTÍCIAS",
      "house": "10",
      "postcode": "7645-257",
      "city": "VILA NOVA DE MILFONTES",
      "lon": "-8.782385108536442",
      "lat": "37.723481141872284"
    },
    {
      "id": "pt.ine.add.PTCONT.412816",
      "street": "R MANUEL GOUVEIA",
      "house": "18",
      "postcode": "7645-073",
      "city": "VILA NOVA DE MILFONTES",
      "lon": "-8.782656746573076",
      "lat": "37.72387343135546"
    },
    {
      "id": "pt.ine.add.PTCONT.412853",
      "street": "R DIARIO DE NOTICIAS",
      "house": "10",
      "postcode": "7645-257",
      "city": "VILA NOVA DE MILFONTES",
      "lon": "-8.782385108536442",
      "lat": "37.723481141872284"
    },
    {
      "id": "pt.ine.add.PTCONT.412854",
      "street": "R MANUEL GOUVEIA",
      "house": "18",
      "postcode": "7645-277",
      "city": "VILA NOVA DE MILFONTES",
      "lon": "-8.78269613296003",
      "lat": "37.72386848430861"
    },
    {
      "id": "pt.ine.add.PTCONT.417671",
      "street": "R MANUEL GOUVEIA",
      "house": "6 A",
      "postcode": "7645-277",
      "city": "VILA NOVA DE MILFONTES",
      "lon": "-8.782543892350983",
      "lat": "37.72348764428867"
    },
    {
      "id": "pt.ine.add.PTCONT.446988",
      "street": "R MANUEL GOUVEIA",
      "house": "12",
      "postcode": "7645-277",
      "city": "VILA NOVA DE MILFONTES",
      "lon": "-8.782611399649982",
      "lat": "37.723648869863524"
    },
    {
      "id": "pt.ine.add.PTCONT.455035",
      "street": "R MANUEL GOUVEIA",
      "house": "8",
      "postcode": "7645-277",
      "city": "VILA NOVA DE MILFONTES",
      "lon": "-8.782566921604792",
      "lat": "37.72355807678545"
    },
    {
      "id": "pt.ine.add.PTCONT.455036",
      "street": "R MANUEL GOUVEIA",
      "house": "8",
      "postcode": "7645-277",
      "city": "VILA NOVA DE MILFONTES",
      "lon": "-8.782566921604792",
      "lat": "37.72355807678545"
    },
    {
      "id": "pt.ine.add.PTCONT.455037",
      "street": "R MANUEL GOUVEIA",
      "house": "8",
      "postcode": "7645-277",
      "city": "VILA NOVA DE MILFONTES",
      "lon": "-8.782566921604792",
      "lat": "37.72355807678545"
    },
    {
      "id": "pt.ine.add.PTCONT.455039",
      "street": "R MANUEL GOUVEIA",
      "house": "8",
      "postcode": "7645-277",
      "city": "VILA NOVA DE MILFONTES",
      "lon": "-8.782566921604792",
      "lat": "37.72355807678545"
    },
    {
      "id": "pt.ine.add.PTCONT.455040",
      "street": "R MANUEL GOUVEIA",
      "house": "8",
      "postcode": "7645-277",
      "city": "VILA NOVA DE MILFONTES",
      "lon": "-8.782566921604792",
      "lat": "37.72355807678545"
    },
    {
      "id": "pt.ine.add.PTCONT.455041",
      "street": "R MANUEL GOUVEIA",
      "house": "8",
      "postcode": "7645-277",
      "city": "VILA NOVA DE MILFONTES",
      "lon": "-8.782566921604792",
      "lat": "37.72355807678545"
    },
    {
      "id": "pt.ine.add.PTCONT.455042",
      "street": "R MANUEL GOUVEIA",
      "house": "8",
      "postcode": "7645-277",
      "city": "VILA NOVA DE MILFONTES",
      "lon": "-8.782566921604792",
      "lat": "37.72355807678545"
    }
  ]
}