{
  "data": {
    "distrito": "Leiria",
    "concelho": "Alcoba√ßa",
    "freguesia": "Benedita",
    "OBJECTID": 1293,
    "BGRI2021": "10010500623",
    "DT21": "10",
    "DTMN21": "1001",
    "DTMNFR21": "100105",
    "DTMNFRSEC21": "100105006",
    "SECNUM21": "006",
    "SSNUM21": "23",
    "SECSSNUM21": "00623",
    "OBJECTID_1": 84888,
    "DT": "10",
    "CC": "01",
    "fr": "05",
    "SEC": "006",
    "SS": "23"
  },
  "addresses": [
    {
      "id": "pt.ine.add.PTCONT.1999743",
      "street": "ESTR CANDEEIRO",
      "house": "93",
      "postcode": "2475-015",
      "city": "BENEDITA",
      "lon": "-8.970285910428586",
      "lat": "39.42823815736727"
    },
    {
      "id": "pt.ine.add.PTCONT.1999744",
      "street": "URB QUINTAS",
      "house": "8",
      "postcode": "2475-015",
      "city": "BENEDITA",
      "lon": "-8.968021395732125",
      "lat": "39.42728168837719"
    },
    {
      "id": "pt.ine.add.PTCONT.2007155",
      "street": "URB QUINTAS",
      "house": "9",
      "postcode": "2475-015",
      "city": "BENEDITA",
      "lon": "-8.967452262833636",
      "lat": "39.42727676522165"
    },
    {
      "id": "pt.ine.add.PTCONT.2023360",
      "street": "URB QUINTAS",
      "house": "2",
      "postcode": "2475-015",
      "city": "BENEDITA",
      "lon": "-8.968021713339017",
      "lat": "39.42828145225029"
    },
    {
      "id": "pt.ine.add.PTCONT.2023361",
      "street": "ESTR CANDEEIROS",
      "house": "79",
      "postcode": "2475-015",
      "city": "BENEDITA",
      "lon": "-8.967464400059747",
      "lat": "39.428294458146354"
    },
    {
      "id": "pt.ine.add.PTCONT.2080269",
      "street": "URB QUINTAS",
      "house": "11",
      "postcode": "2475-015",
      "city": "BENEDITA",
      "lon": "-8.967376035092562",
      "lat": "39.426727890844724"
    },
    {
      "id": "pt.ine.add.PTCONT.2097785",
      "street": "ESTR CANDEEIRO",
      "house": "91",
      "postcode": "2475-015",
      "city": "BENEDITA",
      "lon": "-8.969785047052959",
      "lat": "39.428115664565176"
    },
    {
      "id": "pt.ine.add.PTCONT.2144008",
      "street": "URB QUINTAS",
      "house": "10",
      "postcode": "2475-015",
      "city": "BENEDITA",
      "lon": "-8.967495491544172",
      "lat": "39.427006248032164"
    },
    {
      "id": "pt.ine.add.PTCONT.2161556",
      "street": "TV CARRETO",
      "house": "",
      "postcode": "2475-015",
      "city": "BENEDITA",
      "lon": "-8.967233139602726",
      "lat": "39.42643168779291"
    },
    {
      "id": "pt.ine.add.PTCONT.2198965",
      "street": "R CUVICA",
      "house": "12",
      "postcode": "2475-015",
      "city": "BENEDITA",
      "lon": "-8.966733474742043",
      "lat": "39.42640824910803"
    },
    {
      "id": "pt.ine.add.PTCONT.2221106",
      "street": "ESTR CANDEEIROS",
      "house": "77",
      "postcode": "2475-015",
      "city": "BENEDITA",
      "lon": "-8.967185260133366",
      "lat": "39.42826043250008"
    }
  ]
}