{
  "data": {
    "distrito": "Guarda",
    "concelho": "Seia",
    "freguesia": "União das freguesias de Torrozelo e Folhadosa",
    "OBJECTID": 593,
    "BGRI2021": "09123400122",
    "DT21": "09",
    "DTMN21": "0912",
    "DTMNFR21": "091234",
    "DTMNFRSEC21": "091234001",
    "SECNUM21": "001",
    "SSNUM21": "22",
    "SECSSNUM21": "00122",
    "OBJECTID_1": 81928,
    "DT": "09",
    "CC": "12",
    "fr": "34",
    "SEC": "001",
    "SS": "22"
  },
  "addresses": [
    {
      "id": "pt.ine.add.PTCONT.1909839",
      "street": "R D JOANA MENDES LEAL",
      "house": "8",
      "postcode": "6270-555",
      "city": "TORROZELO",
      "lon": "-7.763482535548061",
      "lat": "40.38678214238932"
    },
    {
      "id": "pt.ine.add.PTCONT.1909840",
      "street": "R JOAO FREIXO",
      "house": "2B",
      "postcode": "6270-555",
      "city": "TORROZELO",
      "lon": "-7.762799967654483",
      "lat": "40.38668990299561"
    },
    {
      "id": "pt.ine.add.PTCONT.1916683",
      "street": "R D JOANA MENDES LEAL",
      "house": "2",
      "postcode": "6270-555",
      "city": "TORROZELO",
      "lon": "-7.763165002261659",
      "lat": "40.38670007691907"
    },
    {
      "id": "pt.ine.add.PTCONT.1916684",
      "street": "R D JOANA MENDES LEAL",
      "house": "2",
      "postcode": "6270-555",
      "city": "TORROZELO",
      "lon": "-7.763165002261659",
      "lat": "40.38670007691907"
    },
    {
      "id": "pt.ine.add.PTCONT.1925460",
      "street": "R D JOANA MENDES LEAL",
      "house": "4",
      "postcode": "6270-555",
      "city": "TORROZELO",
      "lon": "-7.762904973642626",
      "lat": "40.38687035050175"
    },
    {
      "id": "pt.ine.add.PTCONT.1943901",
      "street": "R ESTRELA D ALVA",
      "house": "7",
      "postcode": "6270-555",
      "city": "TORROZELO",
      "lon": "-7.762010717779224",
      "lat": "40.38672339518078"
    },
    {
      "id": "pt.ine.add.PTCONT.1966392",
      "street": "R D JOANA MENDES LEAL",
      "house": "22",
      "postcode": "6270-555",
      "city": "TORROZELO",
      "lon": "-7.762858408347644",
      "lat": "40.38677114020754"
    },
    {
      "id": "pt.ine.add.PTCONT.1973071",
      "street": "R JOÃO DO FREIXO",
      "house": "4",
      "postcode": "6270-555",
      "city": "TORROZELO",
      "lon": "-7.763686679182071",
      "lat": "40.38606234947916"
    },
    {
      "id": "pt.ine.add.PTCONT.1975602",
      "street": "R D JOANA MENDES LEAL",
      "house": "11",
      "postcode": "6270-555",
      "city": "TORROZELO",
      "lon": "-7.7636946184380795",
      "lat": "40.38676480895717"
    },
    {
      "id": "pt.ine.add.PTCONT.1865735",
      "street": "R JOÃO DO FREIXO",
      "house": "6",
      "postcode": "6270-555",
      "city": "TORROZELO",
      "lon": "-7.763863429399407",
      "lat": "40.38604490285402"
    },
    {
      "id": "pt.ine.add.PTCONT.1880928",
      "street": "R DR ALVES DE CAMPOS",
      "house": "1",
      "postcode": "6270-555",
      "city": "TORROZELO",
      "lon": "-7.762250849297149",
      "lat": "40.385886647940374"
    },
    {
      "id": "pt.ine.add.PTCONT.1880929",
      "street": "R D JOANA MENDES LEAL",
      "house": "",
      "postcode": "6270-555",
      "city": "TORROZELO",
      "lon": "-7.76312040774121",
      "lat": "40.38624065041259"
    },
    {
      "id": "pt.ine.add.PTCONT.1885365",
      "street": "AV COMEND FRANCISCO MENDES PÓVOAS",
      "house": "",
      "postcode": "6270-555",
      "city": "TORROZELO",
      "lon": "-7.764167365637768",
      "lat": "40.38646012896988"
    },
    {
      "id": "pt.ine.add.PTCONT.1893194",
      "street": "R JOÃO DO FREIXO",
      "house": "2",
      "postcode": "6270-555",
      "city": "TORROZELO",
      "lon": "-7.76232185551642",
      "lat": "40.385823836671314"
    }
  ]
}