{
  "data": {
    "distrito": "Aveiro",
    "concelho": "Aveiro",
    "freguesia": "Santa Joana",
    "OBJECTID": 602,
    "BGRI2021": "01051300104",
    "DT21": "01",
    "DTMN21": "0105",
    "DTMNFR21": "010513",
    "DTMNFRSEC21": "010513001",
    "SECNUM21": "001",
    "SSNUM21": "04",
    "SECSSNUM21": "00104",
    "OBJECTID_1": 3542,
    "DT": "01",
    "CC": "05",
    "fr": "13",
    "SEC": "001",
    "SS": "04"
  },
  "addresses": [
    {
      "id": "pt.ine.add.PTCONT.316535",
      "street": "R SANTA JOANA",
      "house": "5 7",
      "postcode": "3810-164",
      "city": "AVEIRO",
      "lon": "-8.609721657629292",
      "lat": "40.63901774417449"
    },
    {
      "id": "pt.ine.add.PTCONT.8487",
      "street": "R SANTA JOANA",
      "house": "",
      "postcode": "3810-164",
      "city": "AVEIRO",
      "lon": "-8.609805429272727",
      "lat": "40.63916148085152"
    },
    {
      "id": "pt.ine.add.PTCONT.171642",
      "street": "R SANTA JOANA",
      "house": "3",
      "postcode": "3810-164",
      "city": "AVEIRO",
      "lon": "-8.609901278569906",
      "lat": "40.63934118820937"
    },
    {
      "id": "pt.ine.add.PTCONT.186639",
      "street": "R PR√çNCIPE PERFEITO",
      "house": "16 - 18",
      "postcode": "3810-164",
      "city": "AVEIRO",
      "lon": "-8.609328609674874",
      "lat": "40.639088444218494"
    },
    {
      "id": "pt.ine.add.PTCONT.205487",
      "street": "R SANTA JOANA",
      "house": "9",
      "postcode": "3810-164",
      "city": "AVEIRO",
      "lon": "-8.609720825053504",
      "lat": "40.63890068061823"
    },
    {
      "id": "pt.ine.add.PTCONT.222788",
      "street": "URB MELIAS",
      "house": "",
      "postcode": "3810-164",
      "city": "AVEIRO",
      "lon": "-8.609056230020087",
      "lat": "40.6385342103032"
    },
    {
      "id": "pt.ine.add.PTCONT.274121",
      "street": "URB MELIAS",
      "house": "",
      "postcode": "3810-164",
      "city": "AVEIRO",
      "lon": "-8.608927159386234",
      "lat": "40.6386698194944"
    },
    {
      "id": "pt.ine.add.PTCONT.277468",
      "street": "URB MELIAS",
      "house": "",
      "postcode": "3810-164",
      "city": "AVEIRO",
      "lon": "-8.608985816294465",
      "lat": "40.63860654171804"
    }
  ]
}