{
  "data": {
    "distrito": "Porto",
    "concelho": "Penafiel",
    "freguesia": "Castelões",
    "OBJECTID": 1733,
    "BGRI2021": "13110700116",
    "DT21": "13",
    "DTMN21": "1311",
    "DTMNFR21": "131107",
    "DTMNFRSEC21": "131107001",
    "SECNUM21": "001",
    "SSNUM21": "16",
    "SECSSNUM21": "00116",
    "OBJECTID_1": 137059,
    "DT": "13",
    "CC": "11",
    "fr": "07",
    "SEC": "001",
    "SS": "16"
  },
  "addresses": [
    {
      "id": "pt.ine.add.PTCONT.3561793",
      "street": "AV FOLFORINHO",
      "house": "343",
      "postcode": "4560-056",
      "city": "CASTELÕES PNF",
      "lon": "-8.191074947639455",
      "lat": "41.23052634985539"
    },
    {
      "id": "pt.ine.add.PTCONT.3587102",
      "street": "AV BENTO PEIXOTO",
      "house": "1567",
      "postcode": "4560-054",
      "city": "CASTELÕES PNF",
      "lon": "-8.184132576420973",
      "lat": "41.22963821214154"
    },
    {
      "id": "pt.ine.add.PTCONT.3625958",
      "street": "R INSULAS",
      "house": "58",
      "postcode": "4560-054",
      "city": "CASTELÕES PNF",
      "lon": "-8.185742261125293",
      "lat": "41.22904320543877"
    },
    {
      "id": "pt.ine.add.PTCONT.3662392",
      "street": "R VOLTA DE AGUA",
      "house": "215",
      "postcode": "4560-054",
      "city": "CASTELÕES PNF",
      "lon": "-8.181973606563773",
      "lat": "41.229423045936024"
    },
    {
      "id": "pt.ine.add.PTCONT.3696080",
      "street": "AV BENTO PEIXOTO",
      "house": "1075",
      "postcode": "4560-054",
      "city": "CASTELÕES PNF",
      "lon": "-8.185635242304745",
      "lat": "41.22944844671883"
    },
    {
      "id": "pt.ine.add.PTCONT.3742316",
      "street": "R MAINS",
      "house": "",
      "postcode": "4560-056",
      "city": "CASTELÕES PNF",
      "lon": "-8.18748277688049",
      "lat": "41.22804292199122"
    },
    {
      "id": "pt.ine.add.PTCONT.3768085",
      "street": "R VOLTA DE AGUA",
      "house": "181",
      "postcode": "4560-054",
      "city": "CASTELÕES PNF",
      "lon": "-8.18183032783157",
      "lat": "41.22921600830399"
    },
    {
      "id": "pt.ine.add.PTCONT.3884376",
      "street": "AV FOLFORINHO",
      "house": "141",
      "postcode": "4560-056",
      "city": "CASTELÕES PNF",
      "lon": "-8.188868316429769",
      "lat": "41.23042839250351"
    },
    {
      "id": "pt.ine.add.PTCONT.3936440",
      "street": "R MAINS",
      "house": "440",
      "postcode": "4560-056",
      "city": "CASTELÕES PNF",
      "lon": "-8.187638020182408",
      "lat": "41.228276959797356"
    },
    {
      "id": "pt.ine.add.PTCONT.3939178",
      "street": "LG FONTE",
      "house": "",
      "postcode": "4560-055",
      "city": "CASTELÕES PNF",
      "lon": "-8.187234110468106",
      "lat": "41.23022207393421"
    },
    {
      "id": "pt.ine.add.PTCONT.3956122",
      "street": "R MAINS",
      "house": "480",
      "postcode": "4560-056",
      "city": "CASTELÕES PNF",
      "lon": "-8.187984110296354",
      "lat": "41.22852891514902"
    },
    {
      "id": "pt.ine.add.PTCONT.3961390",
      "street": "AV BENTO PEIXOTO",
      "house": "",
      "postcode": "4560-054",
      "city": "CASTELÕES PNF",
      "lon": "-8.184931494440338",
      "lat": "41.229385735654795"
    },
    {
      "id": "pt.ine.add.PTCONT.4104976",
      "street": "R BARREIRO",
      "house": "",
      "postcode": "4560-056",
      "city": "CASTELÕES PNF",
      "lon": "-8.187580014983341",
      "lat": "41.23023991937496"
    },
    {
      "id": "pt.ine.add.PTCONT.4203751",
      "street": "R MAINS",
      "house": "",
      "postcode": "4560-056",
      "city": "CASTELÕES PNF",
      "lon": "-8.187481143289574",
      "lat": "41.22607098560566"
    },
    {
      "id": "pt.ine.add.PTCONT.4262089",
      "street": "R BARREIRO",
      "house": "",
      "postcode": "4560-056",
      "city": "CASTELÕES PNF",
      "lon": "-8.189630823764132",
      "lat": "41.22945555908376"
    },
    {
      "id": "pt.ine.add.PTCONT.4268743",
      "street": "R MAINS",
      "house": "432",
      "postcode": "4560-056",
      "city": "CASTELÕES PNF",
      "lon": "-8.187447138030528",
      "lat": "41.22821402008804"
    },
    {
      "id": "pt.ine.add.PTCONT.4361204",
      "street": "AV BENTO PEIXOTO",
      "house": "",
      "postcode": "4560-054",
      "city": "CASTELÕES PNF",
      "lon": "-8.183595758996725",
      "lat": "41.22951238890012"
    }
  ]
}