{
  "data": {
    "distrito": "Porto",
    "concelho": "Penafiel",
    "freguesia": "Castelões",
    "OBJECTID": 1593,
    "BGRI2021": "13110700122",
    "DT21": "13",
    "DTMN21": "1311",
    "DTMNFR21": "131107",
    "DTMNFRSEC21": "131107001",
    "SECNUM21": "001",
    "SSNUM21": "22",
    "SECSSNUM21": "00122",
    "OBJECTID_1": 136853,
    "DT": "13",
    "CC": "11",
    "fr": "07",
    "SEC": "001",
    "SS": "22"
  },
  "addresses": [
    {
      "id": "pt.ine.add.PTCONT.3548634",
      "street": "R FRAIOES",
      "house": "150",
      "postcode": "4560-052",
      "city": "CASTELÕES PNF",
      "lon": "-8.183763412506948",
      "lat": "41.230385729926574"
    },
    {
      "id": "pt.ine.add.PTCONT.3617816",
      "street": "TV FRAIOES",
      "house": "36",
      "postcode": "4560-052",
      "city": "CASTELÕES PNF",
      "lon": "-8.182547497039762",
      "lat": "41.231268677182484"
    },
    {
      "id": "pt.ine.add.PTCONT.3671071",
      "street": "AV BENTO PEIXOTO",
      "house": "1514",
      "postcode": "4560-054",
      "city": "CASTELÕES PNF",
      "lon": "-8.183512442193102",
      "lat": "41.229737532282016"
    },
    {
      "id": "pt.ine.add.PTCONT.3754640",
      "street": "R NOVA DOS FRAIOES",
      "house": "43",
      "postcode": "4560-052",
      "city": "CASTELÕES PNF",
      "lon": "-8.183202996382366",
      "lat": "41.23060207766359"
    },
    {
      "id": "pt.ine.add.PTCONT.3761791",
      "street": "R NOVA DOS FRAIOES",
      "house": "86",
      "postcode": "4560-052",
      "city": "CASTELÕES PNF",
      "lon": "-8.18254710360874",
      "lat": "41.23074642950864"
    },
    {
      "id": "pt.ine.add.PTCONT.3842419",
      "street": "",
      "house": "",
      "postcode": "4560-052",
      "city": "CASTELÕES PNF",
      "lon": "-8.183357692728412",
      "lat": "41.23013378800656"
    },
    {
      "id": "pt.ine.add.PTCONT.3837453",
      "street": "AV BENTO PEIXOTO",
      "house": "",
      "postcode": "4560-054",
      "city": "CASTELÕES PNF",
      "lon": "-8.18307114489611",
      "lat": "41.22974672887506"
    },
    {
      "id": "pt.ine.add.PTCONT.3865115",
      "street": "R VOLTA DE AGUA",
      "house": "279",
      "postcode": "4560-054",
      "city": "CASTELÕES PNF",
      "lon": "-8.181950127656192",
      "lat": "41.22992729531109"
    },
    {
      "id": "pt.ine.add.PTCONT.3875974",
      "street": "AV BENTO PEIXOTO",
      "house": "1548",
      "postcode": "4560-054",
      "city": "CASTELÕES PNF",
      "lon": "-8.183727227926244",
      "lat": "41.229863497916575"
    },
    {
      "id": "pt.ine.add.PTCONT.3903804",
      "street": "R VOLTA DE AGUA",
      "house": "267",
      "postcode": "4560-054",
      "city": "CASTELÕES PNF",
      "lon": "-8.181938280876066",
      "lat": "41.23003535163257"
    },
    {
      "id": "pt.ine.add.PTCONT.4036025",
      "street": "VOLTA D'ÁGUA",
      "house": "",
      "postcode": "4560-060",
      "city": "CASTELÕES PNF",
      "lon": "-8.183143641367248",
      "lat": "41.230971278682574"
    },
    {
      "id": "pt.ine.add.PTCONT.4059108",
      "street": "R NOVA DOS FRAIOES",
      "house": "48",
      "postcode": "4560-052",
      "city": "CASTELÕES PNF",
      "lon": "-8.183131233568547",
      "lat": "41.23034098491486"
    },
    {
      "id": "pt.ine.add.PTCONT.4098822",
      "street": "R VOLTA DE AGUA",
      "house": "431",
      "postcode": "4560-054",
      "city": "CASTELÕES PNF",
      "lon": "-8.182022650392842",
      "lat": "41.231214875687606"
    },
    {
      "id": "pt.ine.add.PTCONT.4111390",
      "street": "R VOLTA DE AGUA",
      "house": "391",
      "postcode": "4560-054",
      "city": "CASTELÕES PNF",
      "lon": "-8.181831658107123",
      "lat": "41.23100785838038"
    },
    {
      "id": "pt.ine.add.PTCONT.4118227",
      "street": "R SEIXOSA",
      "house": "13",
      "postcode": "4560-052",
      "city": "CASTELÕES PNF",
      "lon": "-8.182309070198768",
      "lat": "41.23143085620911"
    },
    {
      "id": "pt.ine.add.PTCONT.4118228",
      "street": "R SEIXOSA",
      "house": "37A",
      "postcode": "4560-052",
      "city": "CASTELÕES PNF",
      "lon": "-8.182309070198768",
      "lat": "41.23143085620911"
    },
    {
      "id": "pt.ine.add.PTCONT.4118229",
      "street": "R SEIXOSA",
      "house": "62",
      "postcode": "4560-052",
      "city": "CASTELÕES PNF",
      "lon": "-8.182309070198768",
      "lat": "41.23143085620911"
    },
    {
      "id": "pt.ine.add.PTCONT.4118230",
      "street": "R SEIXOSA",
      "house": "19",
      "postcode": "4560-052",
      "city": "CASTELÕES PNF",
      "lon": "-8.182309070198768",
      "lat": "41.23143085620911"
    },
    {
      "id": "pt.ine.add.PTCONT.4118231",
      "street": "R SEIXOSA",
      "house": "13 37A",
      "postcode": "4560-052",
      "city": "CASTELÕES PNF",
      "lon": "-8.182309070198768",
      "lat": "41.23143085620911"
    },
    {
      "id": "pt.ine.add.PTCONT.4157569",
      "street": "R VOLTA DE AGUA",
      "house": "315",
      "postcode": "4560-054",
      "city": "CASTELÕES PNF",
      "lon": "-8.181950496221495",
      "lat": "41.23042253025051"
    },
    {
      "id": "pt.ine.add.PTCONT.4273518",
      "street": "R VOLTA DE AGUA",
      "house": "",
      "postcode": "4560-054",
      "city": "CASTELÕES PNF",
      "lon": "-8.182225261327192",
      "lat": "41.23100769116489"
    },
    {
      "id": "pt.ine.add.PTCONT.4330996",
      "street": "R VOLTA DE AGUA",
      "house": "407",
      "postcode": "4560-054",
      "city": "CASTELÕES PNF",
      "lon": "-8.181903316058412",
      "lat": "41.23113388786082"
    },
    {
      "id": "pt.ine.add.PTCONT.4353157",
      "street": "R FRAIOES",
      "house": "174",
      "postcode": "4560-052",
      "city": "CASTELÕES PNF",
      "lon": "-8.183536863813785",
      "lat": "41.23047587210246"
    },
    {
      "id": "pt.ine.add.PTCONT.4353158",
      "street": "R FRAIOES",
      "house": "174",
      "postcode": "4560-052",
      "city": "CASTELÕES PNF",
      "lon": "-8.183536863813785",
      "lat": "41.23047587210246"
    }
  ]
}