{
  "data": {
    "distrito": "Porto",
    "concelho": "Marco de Canaveses",
    "freguesia": "Santo Isidoro e Livração",
    "OBJECTID": 532,
    "BGRI2021": "13073500219",
    "DT21": "13",
    "DTMN21": "1307",
    "DTMNFR21": "130735",
    "DTMNFRSEC21": "130735002",
    "SECNUM21": "002",
    "SSNUM21": "19",
    "SECSSNUM21": "00219",
    "OBJECTID_1": 131044,
    "DT": "13",
    "CC": "07",
    "fr": "35",
    "SEC": "002",
    "SS": "19"
  },
  "addresses": [
    {
      "id": "pt.ine.add.PTCONT.3745102",
      "street": "R CORGO",
      "house": "",
      "postcode": "4635-271",
      "city": "SANTO ISIDORO MCN",
      "lon": "-8.137460565423185",
      "lat": "41.212010031124464"
    },
    {
      "id": "pt.ine.add.PTCONT.3750823",
      "street": "R CHOUPANA",
      "house": "67",
      "postcode": "4635-256",
      "city": "SANTO ISIDORO MCN",
      "lon": "-8.137186319655783",
      "lat": "41.21208207558908"
    },
    {
      "id": "pt.ine.add.PTCONT.3809642",
      "street": "CC CORGO",
      "house": "9",
      "postcode": "4635-271",
      "city": "SANTO ISIDORO MCN",
      "lon": "-8.137627528236266",
      "lat": "41.212415218332225"
    },
    {
      "id": "pt.ine.add.PTCONT.3819051",
      "street": "R CORGO",
      "house": "233",
      "postcode": "4635-271",
      "city": "SANTO ISIDORO MCN",
      "lon": "-8.13749634441358",
      "lat": "41.212118081406544"
    },
    {
      "id": "pt.ine.add.PTCONT.3943613",
      "street": "R CORGO",
      "house": "149",
      "postcode": "4635-271",
      "city": "SANTO ISIDORO MCN",
      "lon": "-8.138152204163344",
      "lat": "41.21267632132169"
    },
    {
      "id": "pt.ine.add.PTCONT.3954947",
      "street": "CC CORGO",
      "house": "30",
      "postcode": "4635-271",
      "city": "SANTO ISIDORO MCN",
      "lon": "-8.13724595579123",
      "lat": "41.21234319825129"
    },
    {
      "id": "pt.ine.add.PTCONT.4053247",
      "street": "CC CORGO",
      "house": "4",
      "postcode": "4635-271",
      "city": "SANTO ISIDORO MCN",
      "lon": "-8.13753212412829",
      "lat": "41.21223513597846"
    },
    {
      "id": "pt.ine.add.PTCONT.4084467",
      "street": "R CORGO",
      "house": "",
      "postcode": "4635-271",
      "city": "SANTO ISIDORO MCN",
      "lon": "-8.138879525769962",
      "lat": "41.21216304191235"
    },
    {
      "id": "pt.ine.add.PTCONT.4173484",
      "street": "R AREAL",
      "house": "6",
      "postcode": "4635-268",
      "city": "SANTO ISIDORO MCN",
      "lon": "-8.13942803705918",
      "lat": "41.212262060451856"
    },
    {
      "id": "pt.ine.add.PTCONT.4176107",
      "street": "R AREAL",
      "house": "4",
      "postcode": "4635-268",
      "city": "SANTO ISIDORO MCN",
      "lon": "-8.139141862624964",
      "lat": "41.212271080103676"
    },
    {
      "id": "pt.ine.add.PTCONT.4188967",
      "street": "R ZECA AFONSO",
      "house": "",
      "postcode": "4635-288",
      "city": "SANTO ISIDORO MCN",
      "lon": "-8.139547289111709",
      "lat": "41.21238811408658"
    },
    {
      "id": "pt.ine.add.PTCONT.4228250",
      "street": "R CORGO",
      "house": "161",
      "postcode": "4635-271",
      "city": "SANTO ISIDORO MCN",
      "lon": "-8.138187956794724",
      "lat": "41.212424199278786"
    },
    {
      "id": "pt.ine.add.PTCONT.4250030",
      "street": "R CORGO",
      "house": "169",
      "postcode": "4635-271",
      "city": "SANTO ISIDORO MCN",
      "lon": "-8.137842166025232",
      "lat": "41.21249624843361"
    },
    {
      "id": "pt.ine.add.PTCONT.4267777",
      "street": "R CHOUPANA",
      "house": "71",
      "postcode": "4635-256",
      "city": "SANTO ISIDORO MCN",
      "lon": "-8.136840532147266",
      "lat": "41.21219914325622"
    },
    {
      "id": "pt.ine.add.PTCONT.4273463",
      "street": "R CHOUPANA",
      "house": "67",
      "postcode": "4635-256",
      "city": "SANTO ISIDORO MCN",
      "lon": "-8.13698361698463",
      "lat": "41.212154117014464"
    },
    {
      "id": "pt.ine.add.PTCONT.4314803",
      "street": "CC CORGO",
      "house": "41",
      "postcode": "4635-271",
      "city": "SANTO ISIDORO MCN",
      "lon": "-8.137293675830062",
      "lat": "41.212721377235276"
    },
    {
      "id": "pt.ine.add.PTCONT.4347277",
      "street": "R CORGO",
      "house": "259",
      "postcode": "4635-271",
      "city": "SANTO ISIDORO MCN",
      "lon": "-8.137400941097075",
      "lat": "41.21193799893473"
    }
  ]
}