{
  "data": {
    "distrito": "Leiria",
    "concelho": "Alvaiázere",
    "freguesia": "Maçãs de Dona Maria",
    "OBJECTID": 525,
    "BGRI2021": "10020400158",
    "DT21": "10",
    "DTMN21": "1002",
    "DTMNFR21": "100204",
    "DTMNFRSEC21": "100204001",
    "SECNUM21": "001",
    "SSNUM21": "58",
    "SECSSNUM21": "00158",
    "OBJECTID_1": 85277,
    "DT": "10",
    "CC": "02",
    "fr": "04",
    "SEC": "001",
    "SS": "58"
  },
  "addresses": [
    {
      "id": "pt.ine.add.PTCONT.1986542",
      "street": "R DR FERNANDO PIMENTEL DE ABREU",
      "house": "12",
      "postcode": "3250-299",
      "city": "MAÇÃS DE DONA MARIA",
      "lon": "-8.332528804566135",
      "lat": "39.87217552040887"
    },
    {
      "id": "pt.ine.add.PTCONT.1993630",
      "street": "R ALF CURADO",
      "house": "49",
      "postcode": "3250-258",
      "city": "MAÇÃS DE DONA MARIA",
      "lon": "-8.32709771898651",
      "lat": "39.87779570832646"
    },
    {
      "id": "pt.ine.add.PTCONT.2001945",
      "street": "R ALF CURADO",
      "house": "4",
      "postcode": "3250-258",
      "city": "MAÇÃS DE DONA MARIA",
      "lon": "-8.325941410484377",
      "lat": "39.8781398789368"
    },
    {
      "id": "pt.ine.add.PTCONT.2002054",
      "street": "R DR FERNANDO PIMENTEL DE ABREU",
      "house": "2",
      "postcode": "3250-299",
      "city": "MAÇÃS DE DONA MARIA",
      "lon": "-8.332269831920456",
      "lat": "39.87154551814297"
    },
    {
      "id": "pt.ine.add.PTCONT.2017249",
      "street": "R NSA SRA DE FÁTIMA",
      "house": "2",
      "postcode": "3250-291",
      "city": "MAÇÃS DE DONA MARIA",
      "lon": "-8.329688472590847",
      "lat": "39.87218036893795"
    },
    {
      "id": "pt.ine.add.PTCONT.2020086",
      "street": "R FAISCA",
      "house": "26",
      "postcode": "3250-294",
      "city": "MAÇÃS DE DONA MARIA",
      "lon": "-8.331479903976174",
      "lat": "39.877301951779856"
    },
    {
      "id": "pt.ine.add.PTCONT.2023596",
      "street": "R SIMÕES FAVAS",
      "house": "6",
      "postcode": "3250-294",
      "city": "MAÇÃS DE DONA MARIA",
      "lon": "-8.331922895089457",
      "lat": "39.87283402686738"
    },
    {
      "id": "pt.ine.add.PTCONT.2030304",
      "street": "R VALE DO MENDO",
      "house": "8",
      "postcode": "3250-258",
      "city": "MAÇÃS DE DONA MARIA",
      "lon": "-8.327584686810438",
      "lat": "39.8763808909982"
    },
    {
      "id": "pt.ine.add.PTCONT.2056954",
      "street": "R DR FERNANDO PIMENTEL DE ABREU",
      "house": "16",
      "postcode": "3250-299",
      "city": "MAÇÃS DE DONA MARIA",
      "lon": "-8.332657718519009",
      "lat": "39.872292381746355"
    },
    {
      "id": "pt.ine.add.PTCONT.2063961",
      "street": "R VALE SENHOR",
      "house": "42",
      "postcode": "3250-291",
      "city": "MAÇÃS DE DONA MARIA",
      "lon": "-8.329606215441899",
      "lat": "39.87202739970807"
    },
    {
      "id": "pt.ine.add.PTCONT.2071844",
      "street": "R ALF CURADO",
      "house": "47",
      "postcode": "3250-258",
      "city": "MAÇÃS DE DONA MARIA",
      "lon": "-8.326829137724681",
      "lat": "39.877895227400714"
    },
    {
      "id": "pt.ine.add.PTCONT.2083932",
      "street": "BC ASSENHAS",
      "house": "",
      "postcode": "3250-289",
      "city": "MAÇÃS DE DONA MARIA",
      "lon": "-8.329593554276212",
      "lat": "39.875783084101265"
    },
    {
      "id": "pt.ine.add.PTCONT.2091764",
      "street": "R FAISCA",
      "house": "24",
      "postcode": "3250-294",
      "city": "MAÇÃS DE DONA MARIA",
      "lon": "-8.331327940754544",
      "lat": "39.87730221158061"
    },
    {
      "id": "pt.ine.add.PTCONT.2103622",
      "street": "BC ASSENHAS",
      "house": "21",
      "postcode": "3250-289",
      "city": "MAÇÃS DE DONA MARIA",
      "lon": "-8.328283391247343",
      "lat": "39.87544305355374"
    },
    {
      "id": "pt.ine.add.PTCONT.2107894",
      "street": "R ALF CURADO",
      "house": "61",
      "postcode": "3250-258",
      "city": "MAÇÃS DE DONA MARIA",
      "lon": "-8.327822803136266",
      "lat": "39.877911576291275"
    },
    {
      "id": "pt.ine.add.PTCONT.2113724",
      "street": "R VALE DO MENDO",
      "house": "6",
      "postcode": "3250-258",
      "city": "MAÇÃS DE DONA MARIA",
      "lon": "-8.329387743883865",
      "lat": "39.8773955749052"
    },
    {
      "id": "pt.ine.add.PTCONT.2115836",
      "street": "R PIPA",
      "house": "4",
      "postcode": "3250-258",
      "city": "MAÇÃS DE DONA MARIA",
      "lon": "-8.32537937789936",
      "lat": "39.87780757591639"
    },
    {
      "id": "pt.ine.add.PTCONT.2124342",
      "street": "R VALE SENHOR",
      "house": "46",
      "postcode": "3250-291",
      "city": "MAÇÃS DE DONA MARIA",
      "lon": "-8.329992196212697",
      "lat": "39.872116809073425"
    },
    {
      "id": "pt.ine.add.PTCONT.2124621",
      "street": "R ALF CURADO",
      "house": "55",
      "postcode": "3250-258",
      "city": "MAÇÃS DE DONA MARIA",
      "lon": "-8.327378319377672",
      "lat": "39.877813251441026"
    },
    {
      "id": "pt.ine.add.PTCONT.2124738",
      "street": "R ANTÓNIO CIRILO",
      "house": "24",
      "postcode": "3250-294",
      "city": "MAÇÃS DE DONA MARIA",
      "lon": "-8.332476410829297",
      "lat": "39.87426509220038"
    },
    {
      "id": "pt.ine.add.PTCONT.2124739",
      "street": "R D SANCHO MANUEL",
      "house": "6",
      "postcode": "3250-294",
      "city": "MAÇÃS DE DONA MARIA",
      "lon": "-8.332431662390945",
      "lat": "39.87495866072012"
    },
    {
      "id": "pt.ine.add.PTCONT.2126995",
      "street": "R ALF CURADO",
      "house": "77",
      "postcode": "3250-289",
      "city": "MAÇÃS DE DONA MARIA",
      "lon": "-8.329412304069551",
      "lat": "39.87780982683102"
    },
    {
      "id": "pt.ine.add.PTCONT.2127088",
      "street": "R VALE SENHOR",
      "house": "36",
      "postcode": "3250-291",
      "city": "MAÇÃS DE DONA MARIA",
      "lon": "-8.329302260924617",
      "lat": "39.87200990145352"
    },
    {
      "id": "pt.ine.add.PTCONT.2135519",
      "street": "BC ASSENHAS",
      "house": "8",
      "postcode": "3250-289",
      "city": "MAÇÃS DE DONA MARIA",
      "lon": "-8.329910398872805",
      "lat": "39.87621485330051"
    },
    {
      "id": "pt.ine.add.PTCONT.2140152",
      "street": "R DR FERNANDO PIMENTEL DE ABREU",
      "house": "14",
      "postcode": "3250-299",
      "city": "MAÇÃS DE DONA MARIA",
      "lon": "-8.332622391705335",
      "lat": "39.872202378634306"
    },
    {
      "id": "pt.ine.add.PTCONT.2146569",
      "street": "R FAISCA",
      "house": "14",
      "postcode": "3250-294",
      "city": "MAÇÃS DE DONA MARIA",
      "lon": "-8.330461189698427",
      "lat": "39.876700262066244"
    },
    {
      "id": "pt.ine.add.PTCONT.2150288",
      "street": "R VALE SENHOR",
      "house": "62",
      "postcode": "3250-290",
      "city": "MAÇÃS DE DONA MARIA",
      "lon": "-8.33186156616466",
      "lat": "39.87183442288426"
    },
    {
      "id": "pt.ine.add.PTCONT.2150289",
      "street": "R DR FERNANDO PIMENTEL DE ABREU",
      "house": "28",
      "postcode": "3250-299",
      "city": "MAÇÃS DE DONA MARIA",
      "lon": "-8.333115562973402",
      "lat": "39.87297607863074"
    },
    {
      "id": "pt.ine.add.PTCONT.2155212",
      "street": "R VALE SENHOR",
      "house": "58",
      "postcode": "3250-290",
      "city": "MAÇÃS DE DONA MARIA",
      "lon": "-8.331183966999514",
      "lat": "39.871952665038634"
    },
    {
      "id": "pt.ine.add.PTCONT.2159546",
      "street": "R ALF CURADO",
      "house": "59",
      "postcode": "3250-258",
      "city": "MAÇÃS DE DONA MARIA",
      "lon": "-8.327647433918688",
      "lat": "39.87790286418163"
    },
    {
      "id": "pt.ine.add.PTCONT.2159659",
      "street": "R ANTÓNIO CIRILO",
      "house": "8",
      "postcode": "3250-294",
      "city": "MAÇÃS DE DONA MARIA",
      "lon": "-8.332789427259602",
      "lat": "39.87337292155955"
    },
    {
      "id": "pt.ine.add.PTCONT.2161785",
      "street": "R NSA SRA DE FÁTIMA",
      "house": "6",
      "postcode": "3250-291",
      "city": "MAÇÃS DE DONA MARIA",
      "lon": "-8.329501352083899",
      "lat": "39.87214466036137"
    },
    {
      "id": "pt.ine.add.PTCONT.2163905",
      "street": "R DR FERNANDO PIMENTEL DE ABREU",
      "house": "24",
      "postcode": "3250-299",
      "city": "MAÇÃS DE DONA MARIA",
      "lon": "-8.33283445846467",
      "lat": "39.87277842249059"
    },
    {
      "id": "pt.ine.add.PTCONT.2183432",
      "street": "R ALF CURADO",
      "house": "",
      "postcode": "3250-258",
      "city": "MAÇÃS DE DONA MARIA",
      "lon": "-8.328687320691529",
      "lat": "39.87772999415267"
    },
    {
      "id": "pt.ine.add.PTCONT.2187855",
      "street": "R PIPA",
      "house": "1",
      "postcode": "3250-258",
      "city": "MAÇÃS DE DONA MARIA",
      "lon": "-8.325637278760974",
      "lat": "39.878068333131246"
    },
    {
      "id": "pt.ine.add.PTCONT.2187966",
      "street": "R CALÇADA",
      "house": "20",
      "postcode": "3250-256",
      "city": "MAÇÃS DE DONA MARIA",
      "lon": "-8.327937474161729",
      "lat": "39.872993898222674"
    },
    {
      "id": "pt.ine.add.PTCONT.2190128",
      "street": "R ALF CURADO",
      "house": "63",
      "postcode": "3250-258",
      "city": "MAÇÃS DE DONA MARIA",
      "lon": "-8.327939928354645",
      "lat": "39.87799243702542"
    },
    {
      "id": "pt.ine.add.PTCONT.2190129",
      "street": "R VALE DO MENDO",
      "house": "18",
      "postcode": "3250-289",
      "city": "MAÇÃS DE DONA MARIA",
      "lon": "-8.327279672244186",
      "lat": "39.87599412755925"
    },
    {
      "id": "pt.ine.add.PTCONT.2190195",
      "street": "R DR FERNANDO PIMENTEL DE ABREU",
      "house": "4",
      "postcode": "3250-299",
      "city": "MAÇÃS DE DONA MARIA",
      "lon": "-8.332351781711361",
      "lat": "39.871590409350134"
    },
    {
      "id": "pt.ine.add.PTCONT.2208314",
      "street": "R DR FERNANDO PIMENTEL DE ABREU",
      "house": "8",
      "postcode": "3250-299",
      "city": "MAÇÃS DE DONA MARIA",
      "lon": "-8.3323523289144",
      "lat": "39.871779542582175"
    },
    {
      "id": "pt.ine.add.PTCONT.2208315",
      "street": "R DR FERNANDO PIMENTEL DE ABREU",
      "house": "18",
      "postcode": "3250-299",
      "city": "MAÇÃS DE DONA MARIA",
      "lon": "-8.3325178983437",
      "lat": "39.87244573080375"
    },
    {
      "id": "pt.ine.add.PTCONT.2214981",
      "street": "R ANTÓNIO CIRILO",
      "house": "14",
      "postcode": "3250-294",
      "city": "MAÇÃS DE DONA MARIA",
      "lon": "-8.33247487236963",
      "lat": "39.87373371809845"
    },
    {
      "id": "pt.ine.add.PTCONT.2230263",
      "street": "R VALE DO MENDO",
      "house": "",
      "postcode": "3250-258",
      "city": "MAÇÃS DE DONA MARIA",
      "lon": "-8.327150608153344",
      "lat": "39.87582322226966"
    },
    {
      "id": "pt.ine.add.PTCONT.2230385",
      "street": "R VALE SENHOR",
      "house": "56",
      "postcode": "3250-290",
      "city": "MAÇÃS DE DONA MARIA",
      "lon": "-8.331664211126043",
      "lat": "39.87230309309541"
    },
    {
      "id": "pt.ine.add.PTCONT.2230386",
      "street": "R ANTÓNIO CIRILO",
      "house": "",
      "postcode": "3250-294",
      "city": "MAÇÃS DE DONA MARIA",
      "lon": "-8.33257928955295",
      "lat": "39.87346334699233"
    },
    {
      "id": "pt.ine.add.PTCONT.2241003",
      "street": "R DA FAÍSCA",
      "house": "",
      "postcode": "3250-294",
      "city": "MAÇÃS DE DONA MARIA",
      "lon": "-8.330343418757757",
      "lat": "39.87639424541271"
    },
    {
      "id": "pt.ine.add.PTCONT.2241004",
      "street": "R SIMÕES FAVAS",
      "house": "",
      "postcode": "3250-294",
      "city": "MAÇÃS DE DONA MARIA",
      "lon": "-8.33133801835141",
      "lat": "39.87268191931552"
    },
    {
      "id": "pt.ine.add.PTCONT.2256292",
      "street": "R ALF CURADO",
      "house": "2",
      "postcode": "3250-258",
      "city": "MAÇÃS DE DONA MARIA",
      "lon": "-8.325660330544915",
      "lat": "39.87795121192551"
    }
  ]
}