{
  "data": {
    "distrito": "Coimbra",
    "concelho": "Arganil",
    "freguesia": "Pombeiro da Beira",
    "OBJECTID": 488,
    "BGRI2021": "06011300116",
    "DT21": "06",
    "DTMN21": "0601",
    "DTMNFR21": "060113",
    "DTMNFRSEC21": "060113001",
    "SECNUM21": "001",
    "SSNUM21": "16",
    "SECSSNUM21": "00116",
    "OBJECTID_1": 47379,
    "DT": "06",
    "CC": "01",
    "fr": "13",
    "SEC": "001",
    "SS": "16"
  },
  "addresses": [
    {
      "id": "pt.ine.add.PTCONT.1106061",
      "street": "R ANTINIO RODRIGUES",
      "house": "129",
      "postcode": "3300-330",
      "city": "POMBEIRO DA BEIRA",
      "lon": "-8.174630738278005",
      "lat": "40.22679343310546"
    },
    {
      "id": "pt.ine.add.PTCONT.1110252",
      "street": "R ANTINIO RODRIGUES",
      "house": "",
      "postcode": "3300-330",
      "city": "POMBEIRO DA BEIRA",
      "lon": "-8.174959826905363",
      "lat": "40.2269644256314"
    },
    {
      "id": "pt.ine.add.PTCONT.1118485",
      "street": "R ANTÓNIO RODRIGUES",
      "house": "",
      "postcode": "3300-330",
      "city": "POMBEIRO DA BEIRA",
      "lon": "-8.173314655895",
      "lat": "40.22654173408809"
    },
    {
      "id": "pt.ine.add.PTCONT.1118486",
      "street": "R CASCALHO",
      "house": "",
      "postcode": "3300-330",
      "city": "POMBEIRO DA BEIRA",
      "lon": "-8.173150074692844",
      "lat": "40.226388691768825"
    },
    {
      "id": "pt.ine.add.PTCONT.1177181",
      "street": "R ANTÓNIO RODRIGUES",
      "house": "75",
      "postcode": "3300-330",
      "city": "POMBEIRO DA BEIRA",
      "lon": "-8.17392577401844",
      "lat": "40.22679368385556"
    },
    {
      "id": "pt.ine.add.PTCONT.1201253",
      "street": "R ANTÓNIO RODRIGUES",
      "house": "",
      "postcode": "3300-330",
      "city": "POMBEIRO DA BEIRA",
      "lon": "-8.17601765099357",
      "lat": "40.22755842402105"
    },
    {
      "id": "pt.ine.add.PTCONT.1209149",
      "street": "R ANTÓNIO RODRIGUES",
      "house": "",
      "postcode": "3300-330",
      "city": "POMBEIRO DA BEIRA",
      "lon": "-8.175888349438",
      "lat": "40.227468413446296"
    },
    {
      "id": "pt.ine.add.PTCONT.1215588",
      "street": "R ANTÓNIO RODRIGUES",
      "house": "",
      "postcode": "3300-330",
      "city": "POMBEIRO DA BEIRA",
      "lon": "-8.175359447540158",
      "lat": "40.227189426557075"
    },
    {
      "id": "pt.ine.add.PTCONT.1237391",
      "street": "R LAMEIRO",
      "house": "",
      "postcode": "3300-330",
      "city": "POMBEIRO DA BEIRA",
      "lon": "-8.175606045757654",
      "lat": "40.226964190167145"
    },
    {
      "id": "pt.ine.add.PTCONT.1254323",
      "street": "R LADEIRO",
      "house": "",
      "postcode": "3300-330",
      "city": "POMBEIRO DA BEIRA",
      "lon": "-8.17540637260708",
      "lat": "40.22707233344188"
    },
    {
      "id": "pt.ine.add.PTCONT.1274677",
      "street": "R ANTÓNIO RODRIGUES",
      "house": "",
      "postcode": "3300-330",
      "city": "POMBEIRO DA BEIRA",
      "lon": "-8.175665001458638",
      "lat": "40.22729738474619"
    },
    {
      "id": "pt.ine.add.PTCONT.1276378",
      "street": "R QUELHA",
      "house": "",
      "postcode": "3300-330",
      "city": "POMBEIRO DA BEIRA",
      "lon": "-8.176264442693281",
      "lat": "40.22763938485935"
    },
    {
      "id": "pt.ine.add.PTCONT.1297055",
      "street": "R LAMEIRO",
      "house": "",
      "postcode": "3300-330",
      "city": "POMBEIRO DA BEIRA",
      "lon": "-8.175535644676991",
      "lat": "40.22711731535062"
    },
    {
      "id": "pt.ine.add.PTCONT.1306814",
      "street": "R ANTINIO RODRIGUES",
      "house": "197",
      "postcode": "3300-330",
      "city": "POMBEIRO DA BEIRA",
      "lon": "-8.175230153135699",
      "lat": "40.22710842108285"
    },
    {
      "id": "pt.ine.add.PTCONT.1315128",
      "street": "R ANTINIO RODRIGUES",
      "house": "7",
      "postcode": "3300-330",
      "city": "POMBEIRO DA BEIRA",
      "lon": "-8.174854043301309",
      "lat": "40.22690142291976"
    },
    {
      "id": "pt.ine.add.PTCONT.1329468",
      "street": "R ANTÓNIO RODRIGUES",
      "house": "",
      "postcode": "3300-330",
      "city": "POMBEIRO DA BEIRA",
      "lon": "-8.175817812719442",
      "lat": "40.22740539858848"
    },
    {
      "id": "pt.ine.add.PTCONT.1363620",
      "street": "R ANTÓNIO RODRIGUES",
      "house": "",
      "postcode": "3300-330",
      "city": "POMBEIRO DA BEIRA",
      "lon": "-8.176123436697342",
      "lat": "40.22762142566096"
    }
  ]
}