{
  "data": {
    "distrito": "Coimbra",
    "concelho": "Arganil",
    "freguesia": "Pombeiro da Beira",
    "OBJECTID": 297,
    "BGRI2021": "06011300125",
    "DT21": "06",
    "DTMN21": "0601",
    "DTMNFR21": "060113",
    "DTMNFRSEC21": "060113001",
    "SECNUM21": "001",
    "SSNUM21": "25",
    "SECSSNUM21": "00125",
    "OBJECTID_1": 47374,
    "DT": "06",
    "CC": "01",
    "fr": "13",
    "SEC": "001",
    "SS": "25"
  },
  "addresses": [
    {
      "id": "pt.ine.add.PTCONT.1120456",
      "street": "R AZENHA",
      "house": "",
      "postcode": "3300-306",
      "city": "POMBEIRO DA BEIRA",
      "lon": "-8.135705019011766",
      "lat": "40.228538979668706"
    },
    {
      "id": "pt.ine.add.PTCONT.1169242",
      "street": "R VISC SANCHES DE FRIAS",
      "house": "",
      "postcode": "3300-318",
      "city": "POMBEIRO DA BEIRA",
      "lon": "-8.137866728501024",
      "lat": "40.22515271319218"
    },
    {
      "id": "pt.ine.add.PTCONT.1185525",
      "street": "R VISC SANCHES DE FRIAS",
      "house": "",
      "postcode": "3300-318",
      "city": "POMBEIRO DA BEIRA",
      "lon": "-8.136221889920295",
      "lat": "40.22599931875963"
    },
    {
      "id": "pt.ine.add.PTCONT.1200939",
      "street": "R VISC SANCHES DE FRIAS",
      "house": "",
      "postcode": "3300-318",
      "city": "POMBEIRO DA BEIRA",
      "lon": "-8.13683283568959",
      "lat": "40.22570210777027"
    },
    {
      "id": "pt.ine.add.PTCONT.1215591",
      "street": "R VISC SANCHES DE FRIAS",
      "house": "",
      "postcode": "3300-318",
      "city": "POMBEIRO DA BEIRA",
      "lon": "-8.136280633330136",
      "lat": "40.22593627623858"
    },
    {
      "id": "pt.ine.add.PTCONT.1274641",
      "street": "R VISC SANCHES DE FRIAS",
      "house": "B",
      "postcode": "3300-318",
      "city": "POMBEIRO DA BEIRA",
      "lon": "-8.136421625318452",
      "lat": "40.22595428398171"
    },
    {
      "id": "pt.ine.add.PTCONT.1282803",
      "street": "R VISC SANCHES DE FRIAS",
      "house": "",
      "postcode": "3300-318",
      "city": "POMBEIRO DA BEIRA",
      "lon": "-8.138183954844395",
      "lat": "40.22515269971621"
    },
    {
      "id": "pt.ine.add.PTCONT.1289116",
      "street": "R VISC SANCHES DE FRIAS",
      "house": "",
      "postcode": "3300-318",
      "city": "POMBEIRO DA BEIRA",
      "lon": "-8.136879820577736",
      "lat": "40.22548596591725"
    },
    {
      "id": "pt.ine.add.PTCONT.1298230",
      "street": "R VISC SANCHES DE FRIAS",
      "house": "",
      "postcode": "3300-318",
      "city": "POMBEIRO DA BEIRA",
      "lon": "-8.137032555778784",
      "lat": "40.22541391406075"
    },
    {
      "id": "pt.ine.add.PTCONT.1301555",
      "street": "R AZENHA",
      "house": "",
      "postcode": "3300-306",
      "city": "POMBEIRO DA BEIRA",
      "lon": "-8.13551699368206",
      "lat": "40.22769243447197"
    },
    {
      "id": "pt.ine.add.PTCONT.1309221",
      "street": "TV MATEUS PA CUNHA",
      "house": "15",
      "postcode": "3300-318",
      "city": "POMBEIRO DA BEIRA",
      "lon": "-8.136715344457269",
      "lat": "40.225720123185184"
    },
    {
      "id": "pt.ine.add.PTCONT.1311057",
      "street": "R VISC SANCHES DE FRIAS",
      "house": "",
      "postcode": "3300-318",
      "city": "POMBEIRO DA BEIRA",
      "lon": "-8.136057404044037",
      "lat": "40.226089381531885"
    },
    {
      "id": "pt.ine.add.PTCONT.1313223",
      "street": "R COMEND FRANCISCO FERREIRAMATOS",
      "house": "",
      "postcode": "3300-313",
      "city": "POMBEIRO DA BEIRA",
      "lon": "-8.134717956484948",
      "lat": "40.22486461267149"
    },
    {
      "id": "pt.ine.add.PTCONT.1325181",
      "street": "R VISC SANCHES DE FRIAS",
      "house": "",
      "postcode": "3300-318",
      "city": "POMBEIRO DA BEIRA",
      "lon": "-8.135939915312068",
      "lat": "40.22618844877504"
    },
    {
      "id": "pt.ine.add.PTCONT.1329469",
      "street": "R AZENHA",
      "house": "",
      "postcode": "3300-306",
      "city": "POMBEIRO DA BEIRA",
      "lon": "-8.135622769384083",
      "lat": "40.22849395227176"
    },
    {
      "id": "pt.ine.add.PTCONT.1337403",
      "street": "R AZENHA",
      "house": "",
      "postcode": "3300-306",
      "city": "POMBEIRO DA BEIRA",
      "lon": "-8.135364277751208",
      "lat": "40.22854799265407"
    },
    {
      "id": "pt.ine.add.PTCONT.1364096",
      "street": "R AZENHA",
      "house": "",
      "postcode": "3300-306",
      "city": "POMBEIRO DA BEIRA",
      "lon": "-8.135493521723602",
      "lat": "40.22846693747944"
    }
  ]
}