{
  "data": {
    "ilha": "Ilha das Flores (AÃ§ores)",
    "concelho": "Lajes das Flores",
    "freguesia": "Lomba",
    "OBJECTID": 59,
    "BGRI2021": "48010600108",
    "DT21": "48",
    "DTMN21": "4801",
    "DTMNFR21": "480106",
    "DTMNFRSEC21": "480106001",
    "SECNUM21": "001",
    "SSNUM21": "08",
    "SECSSNUM21": "00108",
    "OBJECTID_1": 210089,
    "DT": "48",
    "CC": "01",
    "fr": "06",
    "SEC": "001",
    "SS": "08",
    "BGRI2021_1": "48010600108"
  },
  "addresses": [
    {
      "id": "pt.ine.add.AC25.426",
      "street": "R TERRA CHA",
      "house": "33",
      "postcode": "9960-580",
      "city": "LOMBA LGF",
      "lon": "-31.156847942429977",
      "lat": "39.40556702522259"
    },
    {
      "id": "pt.ine.add.AC25.427",
      "street": "R TERRA CHA",
      "house": "27",
      "postcode": "9960-580",
      "city": "LOMBA LGF",
      "lon": "-31.15672096686404",
      "lat": "39.405096502565705"
    },
    {
      "id": "pt.ine.add.AC25.428",
      "street": "R TERRA CHA",
      "house": "25",
      "postcode": "9960-580",
      "city": "LOMBA LGF",
      "lon": "-31.156759351064586",
      "lat": "39.404961963695285"
    },
    {
      "id": "pt.ine.add.AC25.429",
      "street": "R TERRA CHA",
      "house": "21",
      "postcode": "9960-580",
      "city": "LOMBA LGF",
      "lon": "-31.156692792858404",
      "lat": "39.40440230033565"
    },
    {
      "id": "pt.ine.add.AC25.430",
      "street": "R TERRA CHA",
      "house": "9",
      "postcode": "9960-580",
      "city": "LOMBA LGF",
      "lon": "-31.156145785676788",
      "lat": "39.403564726556844"
    },
    {
      "id": "pt.ine.add.AC25.431",
      "street": "R TERRA CHA",
      "house": "1",
      "postcode": "9960-580",
      "city": "LOMBA LGF",
      "lon": "-31.15594987808286",
      "lat": "39.40306608068825"
    },
    {
      "id": "pt.ine.add.AC25.474",
      "street": "R RIBEIRINHA",
      "house": "5",
      "postcode": "9960-520",
      "city": "LOMBA LGF",
      "lon": "-31.15620077507541",
      "lat": "39.40279976396637"
    },
    {
      "id": "pt.ine.add.AC25.475",
      "street": "R RIBEIRINHA",
      "house": "3",
      "postcode": "9960-520",
      "city": "LOMBA LGF",
      "lon": "-31.156285355776344",
      "lat": "39.40267496736652"
    },
    {
      "id": "pt.ine.add.AC25.476",
      "street": "R CABECO",
      "house": "5",
      "postcode": "9960-520",
      "city": "LOMBA LGF",
      "lon": "-31.156058182425618",
      "lat": "39.40204067872536"
    },
    {
      "id": "pt.ine.add.AC25.477",
      "street": "R CABECO",
      "house": "3",
      "postcode": "9960-520",
      "city": "LOMBA LGF",
      "lon": "-31.156164793182704",
      "lat": "39.40196128054904"
    },
    {
      "id": "pt.ine.add.AC25.478",
      "street": "R OUTEIRO",
      "house": "",
      "postcode": "9960-520",
      "city": "LOMBA LGF",
      "lon": "-31.15721309071061",
      "lat": "39.40272570970406"
    },
    {
      "id": "pt.ine.add.AC25.479",
      "street": "R OUTEIRO",
      "house": "",
      "postcode": "9960-520",
      "city": "LOMBA LGF",
      "lon": "-31.157867431373234",
      "lat": "39.40301537983339"
    },
    {
      "id": "pt.ine.add.AC25.480",
      "street": "R ALQUEVE NOVO",
      "house": "",
      "postcode": "9960-520",
      "city": "LOMBA LGF",
      "lon": "-31.15857366114209",
      "lat": "39.40354012313223"
    },
    {
      "id": "pt.ine.add.AC25.481",
      "street": "R TERRA PEREIRA",
      "house": "01",
      "postcode": "9960-580",
      "city": "LOMBA LGF",
      "lon": "-31.157307087253567",
      "lat": "39.405772516655404"
    },
    {
      "id": "pt.ine.add.AC25.482",
      "street": "R TERRA CHA",
      "house": "5",
      "postcode": "9960-520",
      "city": "LOMBA LGF",
      "lon": "-31.157528370545865",
      "lat": "39.40574899298989"
    },
    {
      "id": "pt.ine.add.AC25.483",
      "street": "R TERRA DE PEREIRA",
      "house": "02",
      "postcode": "9960-520",
      "city": "LOMBA LGF",
      "lon": "-31.158964336910053",
      "lat": "39.40502391796535"
    },
    {
      "id": "pt.ine.add.AC25.484",
      "street": "R TERRA CHA",
      "house": "9",
      "postcode": "9960-580",
      "city": "LOMBA LGF",
      "lon": "-31.156281057346913",
      "lat": "39.4037200378883"
    },
    {
      "id": "pt.ine.add.AC25.1169",
      "street": "R CANADA DA SENHORA",
      "house": "4",
      "postcode": "9960-520",
      "city": "LOMBA LGF",
      "lon": "-31.1564962196601",
      "lat": "39.402164750272384"
    },
    {
      "id": "pt.ine.add.AC25.1217",
      "street": "R TERRA CHA",
      "house": "37",
      "postcode": "9960-580",
      "city": "LOMBA LGF",
      "lon": "-31.157044337047406",
      "lat": "39.406047657579336"
    },
    {
      "id": "pt.ine.add.AC25.1218",
      "street": "R CANADA DA SENHORA",
      "house": "6",
      "postcode": "9960-520",
      "city": "LOMBA LGF",
      "lon": "-31.156504033435613",
      "lat": "39.402309031205895"
    },
    {
      "id": "pt.ine.add.AC25.1328",
      "street": "R CANADA DA SENHORA",
      "house": "10",
      "postcode": "9960-520",
      "city": "LOMBA LGF",
      "lon": "-31.156788554226114",
      "lat": "39.40252977625452"
    },
    {
      "id": "pt.ine.add.AC25.1456",
      "street": "R TERRA CHA",
      "house": "29",
      "postcode": "9960-580",
      "city": "LOMBA LGF",
      "lon": "-31.15675815339151",
      "lat": "39.40544847465527"
    },
    {
      "id": "pt.ine.add.AC25.1536",
      "street": "R TERRA CHA",
      "house": "23",
      "postcode": "9960-580",
      "city": "LOMBA LGF",
      "lon": "-31.15672997901154",
      "lat": "39.40475427246212"
    },
    {
      "id": "pt.ine.add.AC25.1537",
      "street": "R TERRA CHA",
      "house": "31",
      "postcode": "9960-580",
      "city": "LOMBA LGF",
      "lon": "-31.157120877803212",
      "lat": "39.40534610498674"
    },
    {
      "id": "pt.ine.add.AC25.1549",
      "street": "CAM TERRA DE PEREIRA",
      "house": "9",
      "postcode": "9960-520",
      "city": "LOMBA LGF",
      "lon": "-31.157422948517837",
      "lat": "39.405341881222796"
    },
    {
      "id": "pt.ine.add.AC25.1608",
      "street": "R OUTEIRO",
      "house": "6",
      "postcode": "9960-520",
      "city": "LOMBA LGF",
      "lon": "-31.157452603400213",
      "lat": "39.40289168110275"
    },
    {
      "id": "pt.ine.add.AC25.1736",
      "street": "R OUTEIRO",
      "house": "16",
      "postcode": "9960-520",
      "city": "LOMBA LGF",
      "lon": "-31.161007955641942",
      "lat": "39.4041552676726"
    },
    {
      "id": "pt.ine.add.AC25.1806",
      "street": "R TERRA CHA",
      "house": "19",
      "postcode": "9960-580",
      "city": "LOMBA LGF",
      "lon": "-31.156695401629268",
      "lat": "39.40430323371868"
    },
    {
      "id": "pt.ine.add.AC25.1807",
      "street": "R TERRA CHA",
      "house": "17",
      "postcode": "9960-580",
      "city": "LOMBA LGF",
      "lon": "-31.15648432174101",
      "lat": "39.40393949552598"
    },
    {
      "id": "pt.ine.add.AC25.1808",
      "street": "R CANADA DA SENHORA",
      "house": "2",
      "postcode": "9960-520",
      "city": "LOMBA LGF",
      "lon": "-31.1564170950917",
      "lat": "39.40208240772469"
    },
    {
      "id": "pt.ine.add.AC25.1918",
      "street": "R CABECO",
      "house": "1",
      "postcode": "9960-520",
      "city": "LOMBA LGF",
      "lon": "-31.156213124473076",
      "lat": "39.40188996820738"
    },
    {
      "id": "pt.ine.add.AC25.2079",
      "street": "R TERRA CHA",
      "house": "11",
      "postcode": "9960-580",
      "city": "LOMBA LGF",
      "lon": "-31.1563376776867",
      "lat": "39.40377499433985"
    },
    {
      "id": "pt.ine.add.AC25.2326",
      "street": "TERRA CHA",
      "house": "51",
      "postcode": "9960-520",
      "city": "LOMBA LGF",
      "lon": "-31.15605838841498",
      "lat": "39.402914634223976"
    }
  ]
}