{
  "data": {
    "distrito": "Lisboa",
    "concelho": "Alenquer",
    "freguesia": "Carnota",
    "OBJECTID": 564,
    "BGRI2021": "11010600101",
    "DT21": "11",
    "DTMN21": "1101",
    "DTMNFR21": "110106",
    "DTMNFRSEC21": "110106001",
    "SECNUM21": "001",
    "SSNUM21": "01",
    "SECSSNUM21": "00101",
    "OBJECTID_1": 99312,
    "DT": "11",
    "CC": "01",
    "fr": "06",
    "SEC": "001",
    "SS": "01"
  },
  "addresses": [
    {
      "id": "pt.ine.add.PTCONT.2286574",
      "street": "CSL CRATO",
      "house": "39",
      "postcode": "2580-661",
      "city": "CARNOTA",
      "lon": "-9.046012048722",
      "lat": "39.04692708008269"
    },
    {
      "id": "pt.ine.add.PTCONT.2286619",
      "street": "R PRINCIPAL",
      "house": "8",
      "postcode": "2580-141",
      "city": "CARNOTA",
      "lon": "-9.053272932927912",
      "lat": "39.042996819592936"
    },
    {
      "id": "pt.ine.add.PTCONT.2304526",
      "street": "R BELA VISTA",
      "house": "9",
      "postcode": "2580-141",
      "city": "CARNOTA",
      "lon": "-9.042264311235028",
      "lat": "39.045623253723605"
    },
    {
      "id": "pt.ine.add.PTCONT.2340833",
      "street": "CSL MATO REDONDO",
      "house": "",
      "postcode": "2580-145",
      "city": "CARNOTA",
      "lon": "-9.0461920022272",
      "lat": "39.04475487759401"
    },
    {
      "id": "pt.ine.add.PTCONT.2350033",
      "street": "R ARIEIRA",
      "house": "4",
      "postcode": "2580-141",
      "city": "CARNOTA",
      "lon": "-9.054797246967988",
      "lat": "39.04385850528638"
    },
    {
      "id": "pt.ine.add.PTCONT.2382931",
      "street": "CSL CABEÇO MOURO",
      "house": "",
      "postcode": "2580-141",
      "city": "CARNOTA",
      "lon": "-9.051946166392336",
      "lat": "39.045790579316396"
    },
    {
      "id": "pt.ine.add.PTCONT.2386415",
      "street": "CSL PORTO DA RIBEIRA",
      "house": "",
      "postcode": "2580-145",
      "city": "CARNOTA",
      "lon": "-9.04709473065354",
      "lat": "39.04489192576528"
    },
    {
      "id": "pt.ine.add.PTCONT.2414231",
      "street": "R PRINCIPAL",
      "house": "70",
      "postcode": "2580-661",
      "city": "CARNOTA",
      "lon": "-9.040639387998212",
      "lat": "39.045014395417965"
    },
    {
      "id": "pt.ine.add.PTCONT.2439673",
      "street": "CSL CRATO",
      "house": "59",
      "postcode": "2580-661",
      "city": "CARNOTA",
      "lon": "-9.048466690279254",
      "lat": "39.04737622727406"
    },
    {
      "id": "pt.ine.add.PTCONT.2505003",
      "street": "R CABEÇO MOURO",
      "house": "",
      "postcode": "2580-141",
      "city": "CARNOTA",
      "lon": "-9.051712720861032",
      "lat": "39.045603262009685"
    },
    {
      "id": "pt.ine.add.PTCONT.2522869",
      "street": "R PRINCIPAL",
      "house": "12",
      "postcode": "2580-141",
      "city": "CARNOTA",
      "lon": "-9.054501724188757",
      "lat": "39.043338408711186"
    },
    {
      "id": "pt.ine.add.PTCONT.2559926",
      "street": "R ARIEIRA",
      "house": "2",
      "postcode": "2580-141",
      "city": "CARNOTA",
      "lon": "-9.054922301045508",
      "lat": "39.04370439044669"
    },
    {
      "id": "pt.ine.add.PTCONT.2571551",
      "street": "R PRINCIPAL",
      "house": "",
      "postcode": "2580-141",
      "city": "CARNOTA",
      "lon": "-9.052361119708163",
      "lat": "39.04304904708903"
    },
    {
      "id": "pt.ine.add.PTCONT.2665972",
      "street": "SIT CABECOS",
      "house": "77",
      "postcode": "2580-661",
      "city": "CARNOTA",
      "lon": "-9.050248542938146",
      "lat": "39.04760542939031"
    },
    {
      "id": "pt.ine.add.PTCONT.2733568",
      "street": "SIT CABECOS",
      "house": "73",
      "postcode": "2580-661",
      "city": "CARNOTA",
      "lon": "-9.050049862376666",
      "lat": "39.0474268428621"
    },
    {
      "id": "pt.ine.add.PTCONT.2737657",
      "street": "R PRINCIPAL",
      "house": "4",
      "postcode": "2580-141",
      "city": "CARNOTA",
      "lon": "-9.052983382118326",
      "lat": "39.04293605156721"
    },
    {
      "id": "pt.ine.add.PTCONT.2779501",
      "street": "R PRINCIPAL",
      "house": "16",
      "postcode": "2580-141",
      "city": "CARNOTA",
      "lon": "-9.05476899836091",
      "lat": "39.043462401087034"
    },
    {
      "id": "pt.ine.add.PTCONT.2817256",
      "street": "CSL CRATO",
      "house": "",
      "postcode": "2580-661",
      "city": "CARNOTA",
      "lon": "-9.048134572986243",
      "lat": "39.0467032754576"
    },
    {
      "id": "pt.ine.add.PTCONT.2829236",
      "street": "CSL CRATO",
      "house": "",
      "postcode": "2580-661",
      "city": "CARNOTA",
      "lon": "-9.047571634176503",
      "lat": "39.04514940328914"
    },
    {
      "id": "pt.ine.add.PTCONT.2832683",
      "street": "CSL CABEÇOS",
      "house": "",
      "postcode": "2580-145",
      "city": "CARNOTA",
      "lon": "-9.044415209543978",
      "lat": "39.04491289365159"
    },
    {
      "id": "pt.ine.add.PTCONT.2856417",
      "street": "CSL CRATO",
      "house": "",
      "postcode": "2580-661",
      "city": "CARNOTA",
      "lon": "-9.047708836734198",
      "lat": "39.045040238107035"
    },
    {
      "id": "pt.ine.add.PTCONT.2862644",
      "street": "R PRINCIPAL",
      "house": "10",
      "postcode": "2580-141",
      "city": "CARNOTA",
      "lon": "-9.054270385718393",
      "lat": "39.04331321376429"
    },
    {
      "id": "pt.ine.add.PTCONT.2899057",
      "street": "R BELA VISTA",
      "house": "5",
      "postcode": "2580-141",
      "city": "CARNOTA",
      "lon": "-9.042067849388866",
      "lat": "39.04561577760003"
    },
    {
      "id": "pt.ine.add.PTCONT.2954209",
      "street": "R PRINCIPAL",
      "house": "74",
      "postcode": "2580-141",
      "city": "CARNOTA",
      "lon": "-9.041033461180223",
      "lat": "39.04511941768346"
    },
    {
      "id": "pt.ine.add.PTCONT.3027101",
      "street": "CSL PORTO DA RIBEIRA",
      "house": "",
      "postcode": "2580-661",
      "city": "CARNOTA",
      "lon": "-9.043103516471136",
      "lat": "39.04531045567693"
    },
    {
      "id": "pt.ine.add.PTCONT.3054645",
      "street": "CASALINHOS DA ESTRADA",
      "house": "29",
      "postcode": "2580-661",
      "city": "CARNOTA",
      "lon": "-9.04493627829664",
      "lat": "39.04680939158496"
    },
    {
      "id": "pt.ine.add.PTCONT.3092653",
      "street": "R BELA VISTA",
      "house": "67 69",
      "postcode": "2580-661",
      "city": "CARNOTA",
      "lon": "-9.049484724190743",
      "lat": "39.04749433680042"
    },
    {
      "id": "pt.ine.add.PTCONT.3185609",
      "street": "CSL CABEÇO MOURO",
      "house": "",
      "postcode": "2580-141",
      "city": "CARNOTA",
      "lon": "-9.051595007096394",
      "lat": "39.04543304773556"
    },
    {
      "id": "pt.ine.add.PTCONT.3259152",
      "street": "CSL CRATO",
      "house": "55",
      "postcode": "2580-661",
      "city": "CARNOTA",
      "lon": "-9.048142126626965",
      "lat": "39.04728869980617"
    },
    {
      "id": "pt.ine.add.PTCONT.3314477",
      "street": "R PRINCIPAL",
      "house": "14",
      "postcode": "2580-141",
      "city": "CARNOTA",
      "lon": "-9.05460648769218",
      "lat": "39.04340063311193"
    },
    {
      "id": "pt.ine.add.PTCONT.3330384",
      "street": "CSL MATO REDONDO",
      "house": "",
      "postcode": "2580-145",
      "city": "CARNOTA",
      "lon": "-9.046087707693895",
      "lat": "39.04472867173275"
    },
    {
      "id": "pt.ine.add.PTCONT.3340255",
      "street": "R BELA VISTA",
      "house": "11",
      "postcode": "2580-141",
      "city": "CARNOTA",
      "lon": "-9.042335457445027",
      "lat": "39.045766818215924"
    }
  ]
}