{
  "data": {
    "distrito": "Lisboa",
    "concelho": "Alenquer",
    "freguesia": "Carnota",
    "OBJECTID": 560,
    "BGRI2021": "11010600117",
    "DT21": "11",
    "DTMN21": "1101",
    "DTMNFR21": "110106",
    "DTMNFRSEC21": "110106001",
    "SECNUM21": "001",
    "SSNUM21": "17",
    "SECSSNUM21": "00117",
    "OBJECTID_1": 98854,
    "DT": "11",
    "CC": "01",
    "fr": "06",
    "SEC": "001",
    "SS": "17"
  },
  "addresses": [
    {
      "id": "pt.ine.add.PTCONT.2499231",
      "street": "R ROSAS",
      "house": "",
      "postcode": "2580-156",
      "city": "CARNOTA",
      "lon": "-9.060510483758698",
      "lat": "39.055009450747534"
    },
    {
      "id": "pt.ine.add.PTCONT.2665969",
      "street": "CSL LOURENCA",
      "house": "",
      "postcode": "2580-155",
      "city": "CARNOTA",
      "lon": "-9.061092056828041",
      "lat": "39.0561938039114"
    },
    {
      "id": "pt.ine.add.PTCONT.2733567",
      "street": "CSL CACEIRO",
      "house": "",
      "postcode": "2580-152",
      "city": "CARNOTA",
      "lon": "-9.065081277571116",
      "lat": "39.0555855170506"
    },
    {
      "id": "pt.ine.add.PTCONT.2805214",
      "street": "CSL MOCHOS",
      "house": "",
      "postcode": "2580-152",
      "city": "CARNOTA",
      "lon": "-9.063867314926874",
      "lat": "39.05815331865068"
    },
    {
      "id": "pt.ine.add.PTCONT.2805215",
      "street": "CSL CASTELEIRO",
      "house": "",
      "postcode": "2580-156",
      "city": "CARNOTA",
      "lon": "-9.062067128214107",
      "lat": "39.0583117912904"
    },
    {
      "id": "pt.ine.add.PTCONT.2887212",
      "street": "CSL LOURENCA",
      "house": "",
      "postcode": "2580-155",
      "city": "CARNOTA",
      "lon": "-9.060843583313686",
      "lat": "39.055745409855184"
    },
    {
      "id": "pt.ine.add.PTCONT.2899195",
      "street": "R ROSAS",
      "house": "",
      "postcode": "2580-156",
      "city": "CARNOTA",
      "lon": "-9.0605862716752",
      "lat": "39.05550425619481"
    },
    {
      "id": "pt.ine.add.PTCONT.2963193",
      "street": "CSL CASTELEIRO",
      "house": "",
      "postcode": "2580-156",
      "city": "CARNOTA",
      "lon": "-9.062022337296945",
      "lat": "39.05842023707033"
    },
    {
      "id": "pt.ine.add.PTCONT.3314435",
      "street": "CSL LOURENCA",
      "house": "",
      "postcode": "2580-155",
      "city": "CARNOTA",
      "lon": "-9.061244819753366",
      "lat": "39.056390751437306"
    },
    {
      "id": "pt.ine.add.PTCONT.3333109",
      "street": "CSL CRUZ",
      "house": "",
      "postcode": "2580-152",
      "city": "CARNOTA",
      "lon": "-9.064669288340628",
      "lat": "39.05500332654124"
    },
    {
      "id": "pt.ine.add.PTCONT.3363430",
      "street": "CSL CASTELEIRO",
      "house": "",
      "postcode": "2580-156",
      "city": "CARNOTA",
      "lon": "-9.06181381475332",
      "lat": "39.05837686079553"
    },
    {
      "id": "pt.ine.add.PTCONT.3415237",
      "street": "CSL LOURENCA",
      "house": "",
      "postcode": "2580-155",
      "city": "CARNOTA",
      "lon": "-9.061686017418895",
      "lat": "39.056558380183624"
    },
    {
      "id": "pt.ine.add.PTCONT.3424201",
      "street": "R ROSAS",
      "house": "",
      "postcode": "2580-156",
      "city": "CARNOTA",
      "lon": "-9.060427386676414",
      "lat": "39.05483897052225"
    },
    {
      "id": "pt.ine.add.PTCONT.3438992",
      "street": "CSL MOCHOS",
      "house": "",
      "postcode": "2580-152",
      "city": "CARNOTA",
      "lon": "-9.06400333406876",
      "lat": "39.0579540698248"
    },
    {
      "id": "pt.ine.add.PTCONT.3444282",
      "street": "CSL MOCHOS",
      "house": "",
      "postcode": "2580-152",
      "city": "CARNOTA",
      "lon": "-9.064041182695407",
      "lat": "39.05819696789994"
    }
  ]
}