{
  "data": {
    "distrito": "Faro",
    "concelho": "Loulé",
    "freguesia": "Loulé (São Clemente)",
    "OBJECTID": 380,
    "BGRI2021": "08080800218",
    "DT21": "08",
    "DTMN21": "0808",
    "DTMNFR21": "080808",
    "DTMNFRSEC21": "080808002",
    "SECNUM21": "002",
    "SSNUM21": "18",
    "SECSSNUM21": "00218",
    "OBJECTID_1": 68701,
    "DT": "08",
    "CC": "08",
    "fr": "08",
    "SEC": "002",
    "SS": "18"
  },
  "addresses": [
    {
      "id": "pt.ine.add.PTCONT.1470719",
      "street": "",
      "house": "",
      "postcode": "8100-225",
      "city": "LOULÉ",
      "lon": "-8.021595748313105",
      "lat": "37.1069798866304"
    },
    {
      "id": "pt.ine.add.PTCONT.1476657",
      "street": "CASA JEANNETTE",
      "house": "",
      "postcode": "8100-225",
      "city": "LOULÉ",
      "lon": "-8.026374825497086",
      "lat": "37.108606202777494"
    },
    {
      "id": "pt.ine.add.PTCONT.1484907",
      "street": "",
      "house": "",
      "postcode": "8100-225",
      "city": "LOULÉ",
      "lon": "-8.025070332580162",
      "lat": "37.10820855255831"
    },
    {
      "id": "pt.ine.add.PTCONT.1488237",
      "street": "R IMIGRANTE",
      "house": "6",
      "postcode": "8100-267",
      "city": "LOULÉ",
      "lon": "-8.023063441813806",
      "lat": "37.10341303676403"
    },
    {
      "id": "pt.ine.add.PTCONT.1488250",
      "street": "SIT DOS QUARTOS CASA FORMOSA",
      "house": "50",
      "postcode": "8100-256",
      "city": "LOULÉ",
      "lon": "-8.031058255068652",
      "lat": "37.106204480794865"
    },
    {
      "id": "pt.ine.add.PTCONT.1500492",
      "street": "R IMIGRANTES",
      "house": "",
      "postcode": "8100-267",
      "city": "LOULÉ",
      "lon": "-8.023737725142244",
      "lat": "37.10390023633409"
    },
    {
      "id": "pt.ine.add.PTCONT.1517019",
      "street": "CASA TORTUGA",
      "house": "",
      "postcode": "8100-225",
      "city": "LOULÉ",
      "lon": "-8.025812784338852",
      "lat": "37.108263290649106"
    },
    {
      "id": "pt.ine.add.PTCONT.1525941",
      "street": "QUARTOS",
      "house": "52A",
      "postcode": "8100-256",
      "city": "LOULÉ",
      "lon": "-8.030133621890233",
      "lat": "37.10777153575358"
    },
    {
      "id": "pt.ine.add.PTCONT.1525945",
      "street": "CASA WISBEY",
      "house": "",
      "postcode": "8100-225",
      "city": "LOULÉ",
      "lon": "-8.026793473797118",
      "lat": "37.106903564965094"
    },
    {
      "id": "pt.ine.add.PTCONT.1525946",
      "street": "CASA WISBEY",
      "house": "",
      "postcode": "8100-225",
      "city": "LOULÉ",
      "lon": "-8.026793473797118",
      "lat": "37.106903564965094"
    },
    {
      "id": "pt.ine.add.PTCONT.1525947",
      "street": "CASA WISBEY",
      "house": "",
      "postcode": "8100-225",
      "city": "LOULÉ",
      "lon": "-8.026793473797118",
      "lat": "37.106903564965094"
    },
    {
      "id": "pt.ine.add.PTCONT.1529501",
      "street": "",
      "house": "",
      "postcode": "8100-267",
      "city": "LOULÉ",
      "lon": "-8.023928544755282",
      "lat": "37.10419776399889"
    },
    {
      "id": "pt.ine.add.PTCONT.1531720",
      "street": "",
      "house": "",
      "postcode": "8100-225",
      "city": "LOULÉ",
      "lon": "-8.02813146799693",
      "lat": "37.10747242844031"
    },
    {
      "id": "pt.ine.add.PTCONT.1531795",
      "street": "VALE FORMOSO",
      "house": "403 Z",
      "postcode": "8100-267",
      "city": "LOULÉ",
      "lon": "-8.024637823732565",
      "lat": "37.10381996717241"
    },
    {
      "id": "pt.ine.add.PTCONT.1531796",
      "street": "",
      "house": "",
      "postcode": "8100-267",
      "city": "LOULÉ",
      "lon": "-8.024637823732565",
      "lat": "37.10381996717241"
    },
    {
      "id": "pt.ine.add.PTCONT.1535956",
      "street": "CASA TERRELA",
      "house": "",
      "postcode": "8100-225",
      "city": "LOULÉ",
      "lon": "-8.025968894210166",
      "lat": "37.109254603756575"
    },
    {
      "id": "pt.ine.add.PTCONT.1538022",
      "street": "",
      "house": "",
      "postcode": "8100-225",
      "city": "LOULÉ",
      "lon": "-8.021571543356018",
      "lat": "37.108142238428364"
    },
    {
      "id": "pt.ine.add.PTCONT.1540313",
      "street": "SIT ARREIRO",
      "house": "474 C",
      "postcode": "8100-225",
      "city": "LOULÉ",
      "lon": "-8.02382220873217",
      "lat": "37.10773885469436"
    },
    {
      "id": "pt.ine.add.PTCONT.1546100",
      "street": "VL BELMONT",
      "house": "",
      "postcode": "8100-267",
      "city": "LOULÉ",
      "lon": "-8.023388227975223",
      "lat": "37.104422531789794"
    },
    {
      "id": "pt.ine.add.PTCONT.1546894",
      "street": "",
      "house": "",
      "postcode": "8100-225",
      "city": "LOULÉ",
      "lon": "-8.024193147867496",
      "lat": "37.10796446238169"
    },
    {
      "id": "pt.ine.add.PTCONT.1552054",
      "street": "",
      "house": "",
      "postcode": "8100-267",
      "city": "LOULÉ",
      "lon": "-8.02183461329418",
      "lat": "37.105196000784765"
    },
    {
      "id": "pt.ine.add.PTCONT.1558287",
      "street": "QTA HARTINS",
      "house": "",
      "postcode": "8100-225",
      "city": "LOULÉ",
      "lon": "-8.027026913705715",
      "lat": "37.10892216085909"
    },
    {
      "id": "pt.ine.add.PTCONT.1558288",
      "street": "",
      "house": "",
      "postcode": "8100-256",
      "city": "LOULÉ",
      "lon": "-8.030552181445172",
      "lat": "37.106068884293926"
    },
    {
      "id": "pt.ine.add.PTCONT.1558436",
      "street": "",
      "house": "",
      "postcode": "8100-225",
      "city": "LOULÉ",
      "lon": "-8.021629723537357",
      "lat": "37.10682673741615"
    },
    {
      "id": "pt.ine.add.PTCONT.1560415",
      "street": "SIT VALE FORMOSO",
      "house": "8",
      "postcode": "8100-267",
      "city": "LOULÉ",
      "lon": "-8.023355908391553",
      "lat": "37.10343132914614"
    },
    {
      "id": "pt.ine.add.PTCONT.1561865",
      "street": "",
      "house": "",
      "postcode": "8100-225",
      "city": "LOULÉ",
      "lon": "-8.024800732981102",
      "lat": "37.10791996564458"
    },
    {
      "id": "pt.ine.add.PTCONT.1569863",
      "street": "",
      "house": "",
      "postcode": "8100-267",
      "city": "LOULÉ",
      "lon": "-8.02742542726182",
      "lat": "37.105507477893596"
    },
    {
      "id": "pt.ine.add.PTCONT.1576983",
      "street": "",
      "house": "",
      "postcode": "8100-267",
      "city": "LOULÉ",
      "lon": "-8.022363427840464",
      "lat": "37.105151442555815"
    },
    {
      "id": "pt.ine.add.PTCONT.1578301",
      "street": "",
      "house": "",
      "postcode": "8100-267",
      "city": "LOULÉ",
      "lon": "-8.021856994646143",
      "lat": "37.10527711771749"
    },
    {
      "id": "pt.ine.add.PTCONT.1590344",
      "street": "",
      "house": "",
      "postcode": "8100-225",
      "city": "LOULÉ",
      "lon": "-8.021481751633418",
      "lat": "37.107997983455"
    },
    {
      "id": "pt.ine.add.PTCONT.1601920",
      "street": "CASA FALESIA",
      "house": "",
      "postcode": "8100-267",
      "city": "LOULÉ",
      "lon": "-8.02783087713554",
      "lat": "37.10518345482506"
    },
    {
      "id": "pt.ine.add.PTCONT.1607128",
      "street": "",
      "house": "",
      "postcode": "8100-225",
      "city": "LOULÉ",
      "lon": "-8.026162345935235",
      "lat": "37.10769593516655"
    },
    {
      "id": "pt.ine.add.PTCONT.1618947",
      "street": "AREEIRO C P",
      "house": "C P 476C",
      "postcode": "8100-225",
      "city": "LOULÉ",
      "lon": "-8.023788185706136",
      "lat": "37.10792804709274"
    },
    {
      "id": "pt.ine.add.PTCONT.1621773",
      "street": "",
      "house": "",
      "postcode": "8100-267",
      "city": "LOULÉ",
      "lon": "-8.02236302117576",
      "lat": "37.10543077260677"
    },
    {
      "id": "pt.ine.add.PTCONT.1621774",
      "street": "",
      "house": "",
      "postcode": "8100-267",
      "city": "LOULÉ",
      "lon": "-8.02175588983106",
      "lat": "37.10517790556518"
    },
    {
      "id": "pt.ine.add.PTCONT.1624936",
      "street": "",
      "house": "",
      "postcode": "8100-267",
      "city": "LOULÉ",
      "lon": "-8.022689323861146",
      "lat": "37.10539503427548"
    },
    {
      "id": "pt.ine.add.PTCONT.1627725",
      "street": "",
      "house": "",
      "postcode": "8100-267",
      "city": "LOULÉ",
      "lon": "-8.028280491324814",
      "lat": "37.10546318360405"
    },
    {
      "id": "pt.ine.add.PTCONT.1627817",
      "street": "VALE FORMOSO",
      "house": "580 C",
      "postcode": "8100-267",
      "city": "LOULÉ",
      "lon": "-8.021857534946369",
      "lat": "37.10490768119241"
    },
    {
      "id": "pt.ine.add.PTCONT.1628566",
      "street": "VALE FORMOSO",
      "house": "580 C",
      "postcode": "8100-267",
      "city": "LOULÉ",
      "lon": "-8.021857534946369",
      "lat": "37.10490768119241"
    },
    {
      "id": "pt.ine.add.PTCONT.1632947",
      "street": "",
      "house": "",
      "postcode": "8100-225",
      "city": "LOULÉ",
      "lon": "-8.023957006096891",
      "lat": "37.10788314934256"
    },
    {
      "id": "pt.ine.add.PTCONT.1642950",
      "street": "",
      "house": "",
      "postcode": "8100-225",
      "city": "LOULÉ",
      "lon": "-8.023934815742827",
      "lat": "37.10766687318369"
    },
    {
      "id": "pt.ine.add.PTCONT.1644950",
      "street": "",
      "house": "",
      "postcode": "8100-256",
      "city": "LOULÉ",
      "lon": "-8.029210230670753",
      "lat": "37.10840147611756"
    },
    {
      "id": "pt.ine.add.PTCONT.1648139",
      "street": "LUZ CLARA",
      "house": "",
      "postcode": "8100-267",
      "city": "LOULÉ",
      "lon": "-8.027741264224973",
      "lat": "37.104904044772894"
    },
    {
      "id": "pt.ine.add.PTCONT.1650983",
      "street": "",
      "house": "",
      "postcode": "8100-225",
      "city": "LOULÉ",
      "lon": "-8.021447219999859",
      "lat": "37.10852957955413"
    },
    {
      "id": "pt.ine.add.PTCONT.1654710",
      "street": "VALE FORMOSO",
      "house": "578Z",
      "postcode": "8100-267",
      "city": "LOULÉ",
      "lon": "-8.022498912270908",
      "lat": "37.10481817461174"
    },
    {
      "id": "pt.ine.add.PTCONT.1665630",
      "street": "",
      "house": "",
      "postcode": "8100-225",
      "city": "LOULÉ",
      "lon": "-8.022122116759608",
      "lat": "37.10862031973119"
    },
    {
      "id": "pt.ine.add.PTCONT.1665631",
      "street": "",
      "house": "",
      "postcode": "8100-225",
      "city": "LOULÉ",
      "lon": "-8.022122116759608",
      "lat": "37.10862031973119"
    },
    {
      "id": "pt.ine.add.PTCONT.1665632",
      "street": "",
      "house": "",
      "postcode": "8100-225",
      "city": "LOULÉ",
      "lon": "-8.022122116759608",
      "lat": "37.10862031973119"
    },
    {
      "id": "pt.ine.add.PTCONT.1665633",
      "street": "",
      "house": "",
      "postcode": "8100-225",
      "city": "LOULÉ",
      "lon": "-8.022122116759608",
      "lat": "37.10862031973119"
    },
    {
      "id": "pt.ine.add.PTCONT.1665634",
      "street": "R EMIGRANTE",
      "house": "",
      "postcode": "8100-267",
      "city": "LOULÉ",
      "lon": "-8.023152749263838",
      "lat": "37.1038906846765"
    },
    {
      "id": "pt.ine.add.PTCONT.1674091",
      "street": "",
      "house": "",
      "postcode": "8100-267",
      "city": "LOULÉ",
      "lon": "-8.022003573531475",
      "lat": "37.10505198867036"
    },
    {
      "id": "pt.ine.add.PTCONT.1683222",
      "street": "SIT DOS QUARTOS CASA MIRADOR",
      "house": "50A",
      "postcode": "8100-256",
      "city": "LOULÉ",
      "lon": "-8.031238920847233",
      "lat": "37.105709049912996"
    },
    {
      "id": "pt.ine.add.PTCONT.1688044",
      "street": "",
      "house": "",
      "postcode": "8100-225",
      "city": "LOULÉ",
      "lon": "-8.023709873665423",
      "lat": "37.107621612583"
    },
    {
      "id": "pt.ine.add.PTCONT.1690707",
      "street": "",
      "house": "",
      "postcode": "8100-225",
      "city": "LOULÉ",
      "lon": "-8.025621717985919",
      "lat": "37.10812795777751"
    },
    {
      "id": "pt.ine.add.PTCONT.1696273",
      "street": "CASA TANAH E SENANG",
      "house": "",
      "postcode": "8100-225",
      "city": "LOULÉ",
      "lon": "-8.025941921827584",
      "lat": "37.10444288855515"
    },
    {
      "id": "pt.ine.add.PTCONT.1702436",
      "street": "",
      "house": "",
      "postcode": "8100-225",
      "city": "LOULÉ",
      "lon": "-8.021832517474946",
      "lat": "37.1066286934505"
    },
    {
      "id": "pt.ine.add.PTCONT.1702448",
      "street": "",
      "house": "",
      "postcode": "8100-225",
      "city": "LOULÉ",
      "lon": "-8.025521980950659",
      "lat": "37.107055599282084"
    },
    {
      "id": "pt.ine.add.PTCONT.1704997",
      "street": "",
      "house": "",
      "postcode": "8100-225",
      "city": "LOULÉ",
      "lon": "-8.025909810207958",
      "lat": "37.103280484192666"
    },
    {
      "id": "pt.ine.add.PTCONT.1710848",
      "street": "",
      "house": "",
      "postcode": "8100-225",
      "city": "LOULÉ",
      "lon": "-8.026481321874735",
      "lat": "37.104866875857724"
    },
    {
      "id": "pt.ine.add.PTCONT.1716724",
      "street": "",
      "house": "",
      "postcode": "8100-267",
      "city": "LOULÉ",
      "lon": "-8.023839581526264",
      "lat": "37.10347682914164"
    },
    {
      "id": "pt.ine.add.PTCONT.1719438",
      "street": "",
      "house": "",
      "postcode": "8100-225",
      "city": "LOULÉ",
      "lon": "-8.023360307138148",
      "lat": "37.108179950170936"
    },
    {
      "id": "pt.ine.add.PTCONT.1722012",
      "street": "",
      "house": "",
      "postcode": "8100-225",
      "city": "LOULÉ",
      "lon": "-8.025988570767217",
      "lat": "37.10327154470587"
    },
    {
      "id": "pt.ine.add.PTCONT.1733186",
      "street": "",
      "house": "",
      "postcode": "8100-267",
      "city": "LOULÉ",
      "lon": "-8.021789165052288",
      "lat": "37.10550232053012"
    },
    {
      "id": "pt.ine.add.PTCONT.1749811",
      "street": "CASA DA CORUJA BRANCA",
      "house": "53 A",
      "postcode": "8100-256",
      "city": "LOULÉ",
      "lon": "-8.030122115323005",
      "lat": "37.10796074953115"
    },
    {
      "id": "pt.ine.add.PTCONT.1751739",
      "street": "",
      "house": "",
      "postcode": "8100-225",
      "city": "LOULÉ",
      "lon": "-8.023653349683098",
      "lat": "37.10781078418424"
    },
    {
      "id": "pt.ine.add.PTCONT.1751746",
      "street": "QTA DAS AMENDOEIRAS",
      "house": "",
      "postcode": "8100-267",
      "city": "LOULÉ",
      "lon": "-8.024458354971326",
      "lat": "37.10345036573393"
    },
    {
      "id": "pt.ine.add.PTCONT.1762193",
      "street": "",
      "house": "",
      "postcode": "8100-267",
      "city": "LOULÉ",
      "lon": "-8.021778099655881",
      "lat": "37.105376160918475"
    },
    {
      "id": "pt.ine.add.PTCONT.1763752",
      "street": "",
      "house": "",
      "postcode": "8100-267",
      "city": "LOULÉ",
      "lon": "-8.024199392103924",
      "lat": "37.103603309423406"
    },
    {
      "id": "pt.ine.add.PTCONT.1763753",
      "street": "R AREEIRO",
      "house": "498Z",
      "postcode": "8100-225",
      "city": "LOULÉ",
      "lon": "-8.021889506216604",
      "lat": "37.106124150105146"
    },
    {
      "id": "pt.ine.add.PTCONT.1773254",
      "street": "SIT AREEIRO",
      "house": "S N",
      "postcode": "8100-225",
      "city": "LOULÉ",
      "lon": "-8.021526303765516",
      "lat": "37.1083043876461"
    },
    {
      "id": "pt.ine.add.PTCONT.1773255",
      "street": "",
      "house": "309C",
      "postcode": "8100-225",
      "city": "LOULÉ",
      "lon": "-8.021526303765516",
      "lat": "37.1083043876461"
    },
    {
      "id": "pt.ine.add.PTCONT.1773256",
      "street": "",
      "house": "509C",
      "postcode": "8100-225",
      "city": "LOULÉ",
      "lon": "-8.021526303765516",
      "lat": "37.1083043876461"
    },
    {
      "id": "pt.ine.add.PTCONT.1774319",
      "street": "SIT AREEIRO",
      "house": "S N",
      "postcode": "8100-225",
      "city": "LOULÉ",
      "lon": "-8.021526303765516",
      "lat": "37.1083043876461"
    },
    {
      "id": "pt.ine.add.PTCONT.1779399",
      "street": "CASA DO VALADOS",
      "house": "",
      "postcode": "8100-267",
      "city": "LOULÉ",
      "lon": "-8.027550340395411",
      "lat": "37.10466959779836"
    },
    {
      "id": "pt.ine.add.PTCONT.1779400",
      "street": "CASA DO VALADOS",
      "house": "",
      "postcode": "8100-267",
      "city": "LOULÉ",
      "lon": "-8.027550340395411",
      "lat": "37.10466959779836"
    },
    {
      "id": "pt.ine.add.PTCONT.1782271",
      "street": "CASA BELA VISTA",
      "house": "",
      "postcode": "8100-267",
      "city": "LOULÉ",
      "lon": "-8.028156094637163",
      "lat": "37.1059316278286"
    },
    {
      "id": "pt.ine.add.PTCONT.1788142",
      "street": "CASA DO MONTE",
      "house": "",
      "postcode": "8100-256",
      "city": "LOULÉ",
      "lon": "-8.029231943992052",
      "lat": "37.10897817702557"
    },
    {
      "id": "pt.ine.add.PTCONT.1794103",
      "street": "",
      "house": "",
      "postcode": "8100-225",
      "city": "LOULÉ",
      "lon": "-8.026089818018862",
      "lat": "37.10327163612576"
    },
    {
      "id": "pt.ine.add.PTCONT.1794104",
      "street": "",
      "house": "",
      "postcode": "8100-256",
      "city": "LOULÉ",
      "lon": "-8.027863093647614",
      "lat": "37.10629179445934"
    },
    {
      "id": "pt.ine.add.PTCONT.1794109",
      "street": "",
      "house": "",
      "postcode": "8100-256",
      "city": "LOULÉ",
      "lon": "-8.027863093647614",
      "lat": "37.10629179445934"
    },
    {
      "id": "pt.ine.add.PTCONT.1814294",
      "street": "QTA DA COLINA",
      "house": "",
      "postcode": "8100-225",
      "city": "LOULÉ",
      "lon": "-8.028198124784952",
      "lat": "37.108085212025266"
    },
    {
      "id": "pt.ine.add.PTCONT.1814295",
      "street": "",
      "house": "",
      "postcode": "8100-267",
      "city": "LOULÉ",
      "lon": "-8.027762516237976",
      "lat": "37.105805129595474"
    },
    {
      "id": "pt.ine.add.PTCONT.1819267",
      "street": "CASA FELICITAS",
      "house": "",
      "postcode": "8100-256",
      "city": "LOULÉ",
      "lon": "-8.031363117408455",
      "lat": "37.105375762148476"
    },
    {
      "id": "pt.ine.add.PTCONT.1819380",
      "street": "",
      "house": "",
      "postcode": "8100-225",
      "city": "LOULÉ",
      "lon": "-8.021743347067225",
      "lat": "37.10606093831935"
    },
    {
      "id": "pt.ine.add.PTCONT.1821107",
      "street": "AREEIRO C P",
      "house": "C P 476C",
      "postcode": "8100-225",
      "city": "LOULÉ",
      "lon": "-8.02387836992538",
      "lat": "37.10780198103122"
    },
    {
      "id": "pt.ine.add.PTCONT.1822914",
      "street": "SEM DESIGNACAO",
      "house": "54 A",
      "postcode": "8100-256",
      "city": "LOULÉ",
      "lon": "-8.030020544294663",
      "lat": "37.108194938309865"
    },
    {
      "id": "pt.ine.add.PTCONT.1834395",
      "street": "SITIO DO AREEIRO",
      "house": "488C",
      "postcode": "8100-225",
      "city": "LOULÉ",
      "lon": "-8.021401860808298",
      "lat": "37.1087728244844"
    },
    {
      "id": "pt.ine.add.PTCONT.1834396",
      "street": "",
      "house": "",
      "postcode": "8100-225",
      "city": "LOULÉ",
      "lon": "-8.021536866886779",
      "lat": "37.10877295159615"
    },
    {
      "id": "pt.ine.add.PTCONT.1834416",
      "street": "",
      "house": "",
      "postcode": "8100-225",
      "city": "LOULÉ",
      "lon": "-8.025757791193017",
      "lat": "37.10737118598016"
    },
    {
      "id": "pt.ine.add.PTCONT.1845932",
      "street": "VALE FORMOSO",
      "house": "275Z",
      "postcode": "8100-267",
      "city": "LOULÉ",
      "lon": "-8.022137994635733",
      "lat": "37.10544858354535"
    }
  ]
}