{
  "data": {
    "ilha": "Ilha da Madeira (Madeira)",
    "concelho": "Câmara de Lobos",
    "freguesia": "Quinta Grande",
    "OBJECTID": 100,
    "BGRI2021": "31020400106",
    "DT21": "31",
    "DTMN21": "3102",
    "DTMNFR21": "310204",
    "DTMNFRSEC21": "310204001",
    "SECNUM21": "001",
    "SSNUM21": "06",
    "SECSSNUM21": "00106",
    "OBJECTID_1": 203574,
    "DT": "31",
    "CC": "02",
    "fr": "04",
    "SEC": "001",
    "SS": "06",
    "BGRI2021_1": "31020400106"
  },
  "addresses": [
    {
      "id": "pt.ine.add.MAD.10999",
      "street": "ESTR PADRE ANTÓNIO SILVINO ANDRADE",
      "house": "18",
      "postcode": "9300-262",
      "city": "QUINTA GRANDE",
      "lon": "-17.006897091129485",
      "lat": "32.664249820059005"
    },
    {
      "id": "pt.ine.add.MAD.11000",
      "street": "ESTR PADRE ANTONIO SILVINO ANDRADE CASA G",
      "house": "CASA G",
      "postcode": "9300-262",
      "city": "QUINTA GRANDE",
      "lon": "-17.006795525034583",
      "lat": "32.663998925805295"
    },
    {
      "id": "pt.ine.add.MAD.11001",
      "street": "ESTR PADRE ANTÓNIO SILVINO ANDRADE MORADIAS DA QUINTA",
      "house": "F",
      "postcode": "9300-262",
      "city": "QUINTA GRANDE",
      "lon": "-17.00684841201654",
      "lat": "32.663980042714066"
    },
    {
      "id": "pt.ine.add.MAD.11002",
      "street": "ESTR PADRE ANTONIO SILVINO ANDRADE CASA E",
      "house": "CASA E",
      "postcode": "9300-262",
      "city": "QUINTA GRANDE",
      "lon": "-17.00689064095879",
      "lat": "32.66396133010102"
    },
    {
      "id": "pt.ine.add.MAD.11003",
      "street": "ESTR PADRE ANTÓNIO SILVINO ANDRADE MORADIAS DA QUINTA",
      "house": "A",
      "postcode": "9300-262",
      "city": "QUINTA GRANDE",
      "lon": "-17.007095159127324",
      "lat": "32.664048243554284"
    },
    {
      "id": "pt.ine.add.MAD.11004",
      "street": "ESTR PADRE ANTÓNIO SILVINO ANDRADE MORADIAS DA QUINTA",
      "house": "B",
      "postcode": "9300-262",
      "city": "QUINTA GRANDE",
      "lon": "-17.00707485100466",
      "lat": "32.66409366113772"
    },
    {
      "id": "pt.ine.add.MAD.11005",
      "street": "ESTR PADRE ANTONIO SILVINO ANDRADE",
      "house": "4 A",
      "postcode": "9300-262",
      "city": "QUINTA GRANDE",
      "lon": "-17.007894278817705",
      "lat": "32.66354845512119"
    },
    {
      "id": "pt.ine.add.MAD.11006",
      "street": "ESTR PADRE ANTÓNIO DINIS HENRIQUES",
      "house": "50",
      "postcode": "9300-261",
      "city": "QUINTA GRANDE",
      "lon": "-17.010302847164528",
      "lat": "32.662075936236484"
    },
    {
      "id": "pt.ine.add.MAD.55388",
      "street": "ESTR PADRE ANTÓNIO SILVINO ANDRADE",
      "house": "24",
      "postcode": "9300-262",
      "city": "QUINTA GRANDE",
      "lon": "-17.006455095639417",
      "lat": "32.664509409079315"
    },
    {
      "id": "pt.ine.add.MAD.55389",
      "street": "BC SERRADO",
      "house": "2",
      "postcode": "9300-426",
      "city": "QUINTA GRANDE",
      "lon": "-17.008973046298674",
      "lat": "32.66220546034057"
    },
    {
      "id": "pt.ine.add.MAD.55390",
      "street": "ESTR PADRE ANTÓNIO DINIS HENRIQUES",
      "house": "40",
      "postcode": "9300-261",
      "city": "QUINTA GRANDE",
      "lon": "-17.010761086207456",
      "lat": "32.66159061049782"
    },
    {
      "id": "pt.ine.add.MAD.61687",
      "street": "BC SERRADO",
      "house": "4",
      "postcode": "9300-426",
      "city": "QUINTA GRANDE",
      "lon": "-17.008826459884762",
      "lat": "32.66232504854456"
    },
    {
      "id": "pt.ine.add.MAD.66618",
      "street": "ESTR PADRE ANTONIO SILVINO ANDRADE",
      "house": "42",
      "postcode": "9300-262",
      "city": "QUINTA GRANDE",
      "lon": "-17.006673675139076",
      "lat": "32.66427143100769"
    },
    {
      "id": "pt.ine.add.MAD.66619",
      "street": "ESTR PADRE ANTÓNIO DINIS HENRIQUES",
      "house": "38",
      "postcode": "9300-261",
      "city": "QUINTA GRANDE",
      "lon": "-17.01081756063449",
      "lat": "32.66125601972775"
    },
    {
      "id": "pt.ine.add.MAD.77193",
      "street": "ESTR PADRE ANTONIO SILVINO ANDRADE CASA C",
      "house": "CASA C",
      "postcode": "9300-262",
      "city": "QUINTA GRANDE",
      "lon": "-17.00700064794257",
      "lat": "32.66411288534528"
    },
    {
      "id": "pt.ine.add.MAD.77194",
      "street": "ESTR PADRE ANTÓNIO SILVINO ANDRADE",
      "house": "10",
      "postcode": "9300-262",
      "city": "QUINTA GRANDE",
      "lon": "-17.00707102088855",
      "lat": "32.663922370241316"
    },
    {
      "id": "pt.ine.add.MAD.79008",
      "street": "ESTR PADRE ANTÓNIO SILVINO ANDRADE",
      "house": "8",
      "postcode": "9300-262",
      "city": "QUINTA GRANDE",
      "lon": "-17.007409254535556",
      "lat": "32.663790698996195"
    },
    {
      "id": "pt.ine.add.MAD.79009",
      "street": "ESTR PADRE ANTÓNIO DINIS HENRIQUES",
      "house": "36",
      "postcode": "9300-261",
      "city": "QUINTA GRANDE",
      "lon": "-17.010713810947735",
      "lat": "32.661383942001436"
    },
    {
      "id": "pt.ine.add.MAD.82579",
      "street": "ESTR PADRE ANTONIO SILVINO ANDRADE",
      "house": "MORADIA",
      "postcode": "9300-262",
      "city": "QUINTA GRANDE",
      "lon": "-17.00669116183075",
      "lat": "32.664099799109884"
    },
    {
      "id": "pt.ine.add.MAD.92677",
      "street": "ESTR PADRE ANTÓNIO SILVINO ANDRADE MORAOIAS DA QUINTA",
      "house": "D",
      "postcode": "9300-262",
      "city": "QUINTA GRANDE",
      "lon": "-17.00693206360162",
      "lat": "32.66390655622945"
    },
    {
      "id": "pt.ine.add.MAD.92678",
      "street": "VR IGREJA",
      "house": "",
      "postcode": "9300-281",
      "city": "QUINTA GRANDE",
      "lon": "-17.0094523691604",
      "lat": "32.661232800803724"
    },
    {
      "id": "pt.ine.add.MAD.93829",
      "street": "ESTR PADRE ANTÓNIO SILVINO ANDRADE MORADIAS DA QUINTA",
      "house": "H",
      "postcode": "9300-262",
      "city": "QUINTA GRANDE",
      "lon": "-17.006753900713008",
      "lat": "32.664044684323876"
    },
    {
      "id": "pt.ine.add.MAD.106512",
      "street": "ESTR PADRE ANTÓNIO DINIS HENRIQUES",
      "house": "50 A",
      "postcode": "9300-261",
      "city": "QUINTA GRANDE",
      "lon": "-17.01022763710937",
      "lat": "32.66205008578952"
    },
    {
      "id": "pt.ine.add.MAD.128757",
      "street": "ESTR PADRE ANTÓNIO DINIS HENRIQUES",
      "house": "34",
      "postcode": "9300-261",
      "city": "QUINTA GRANDE",
      "lon": "-17.010617084092104",
      "lat": "32.66134941809486"
    }
  ]
}