{
  "data": {
    "ilha": "Ilha da Madeira (Madeira)",
    "concelho": "Câmara de Lobos",
    "freguesia": "Quinta Grande",
    "OBJECTID": 34,
    "BGRI2021": "31020400112",
    "DT21": "31",
    "DTMN21": "3102",
    "DTMNFR21": "310204",
    "DTMNFRSEC21": "310204001",
    "SECNUM21": "001",
    "SSNUM21": "12",
    "SECSSNUM21": "00112",
    "OBJECTID_1": 203599,
    "DT": "31",
    "CC": "02",
    "fr": "04",
    "SEC": "001",
    "SS": "12",
    "BGRI2021_1": "31020400112"
  },
  "addresses": [
    {
      "id": "pt.ine.add.MAD.7819",
      "street": "VR FONTE DA MOUCA",
      "house": "4",
      "postcode": "9300-282",
      "city": "QUINTA GRANDE",
      "lon": "-17.00391258771941",
      "lat": "32.66189859616867"
    },
    {
      "id": "pt.ine.add.MAD.8619",
      "street": "CAM AVICEIRO",
      "house": "12",
      "postcode": "9300-270",
      "city": "QUINTA GRANDE",
      "lon": "-17.004591062425042",
      "lat": "32.661725423268976"
    },
    {
      "id": "pt.ine.add.MAD.8620",
      "street": "CAM AVICEIRO",
      "house": "14",
      "postcode": "9300-270",
      "city": "QUINTA GRANDE",
      "lon": "-17.004770231076932",
      "lat": "32.661632374881954"
    },
    {
      "id": "pt.ine.add.MAD.8621",
      "street": "ESTR JOÃO GONÇALVES ZARCO",
      "house": "699",
      "postcode": "9300-080",
      "city": "QUINTA GRANDE",
      "lon": "-17.004405581829733",
      "lat": "32.666787788482296"
    },
    {
      "id": "pt.ine.add.MAD.8622",
      "street": "ESTR JOÃO GONÇALVES ZARCO",
      "house": "697",
      "postcode": "9300-080",
      "city": "QUINTA GRANDE",
      "lon": "-17.00440054838952",
      "lat": "32.6665624054507"
    },
    {
      "id": "pt.ine.add.MAD.8623",
      "street": "ESTR JOÃO GONÇALVES ZARCO",
      "house": "695 B",
      "postcode": "9300-080",
      "city": "QUINTA GRANDE",
      "lon": "-17.004232609086575",
      "lat": "32.66572636452773"
    },
    {
      "id": "pt.ine.add.MAD.8634",
      "street": "CAM AVICEIRO",
      "house": "31",
      "postcode": "9300-270",
      "city": "QUINTA GRANDE",
      "lon": "-17.005109683086218",
      "lat": "32.66203278448147"
    },
    {
      "id": "pt.ine.add.MAD.8635",
      "street": "CAM AVICEIRO",
      "house": "35",
      "postcode": "9300-270",
      "city": "QUINTA GRANDE",
      "lon": "-17.005401052393253",
      "lat": "32.66171247833945"
    },
    {
      "id": "pt.ine.add.MAD.8636",
      "street": "CAM AVICEIRO",
      "house": "23",
      "postcode": "9300-270",
      "city": "QUINTA GRANDE",
      "lon": "-17.005239574928602",
      "lat": "32.661642911082886"
    },
    {
      "id": "pt.ine.add.MAD.8637",
      "street": "VR FURNAS",
      "house": "35",
      "postcode": "9300-287",
      "city": "QUINTA GRANDE",
      "lon": "-17.00536605818101",
      "lat": "32.66157775957505"
    },
    {
      "id": "pt.ine.add.MAD.8638",
      "street": "VR FURNAS",
      "house": "27",
      "postcode": "9300-287",
      "city": "QUINTA GRANDE",
      "lon": "-17.00634896675337",
      "lat": "32.661192284255186"
    },
    {
      "id": "pt.ine.add.MAD.8639",
      "street": "VR FURNAS",
      "house": "29",
      "postcode": "9300-287",
      "city": "QUINTA GRANDE",
      "lon": "-17.006288244362054",
      "lat": "32.66133755197983"
    },
    {
      "id": "pt.ine.add.MAD.9427",
      "street": "ESTR JOÃO GONÇALVES ZARCO",
      "house": "685",
      "postcode": "9300-080",
      "city": "QUINTA GRANDE",
      "lon": "-17.00410989188733",
      "lat": "32.6635728936438"
    },
    {
      "id": "pt.ine.add.MAD.9428",
      "street": "ESTR JOÃO GONÇALVES ZARCO",
      "house": "683",
      "postcode": "9300-080",
      "city": "QUINTA GRANDE",
      "lon": "-17.004128591149236",
      "lat": "32.66345535386423"
    },
    {
      "id": "pt.ine.add.MAD.9429",
      "street": "ESTR JOÃO GONÇALVES ZARCO",
      "house": "681",
      "postcode": "9300-080",
      "city": "QUINTA GRANDE",
      "lon": "-17.00398962560476",
      "lat": "32.66296155387988"
    },
    {
      "id": "pt.ine.add.MAD.9430",
      "street": "VR FONTE DO INHAME",
      "house": "18",
      "postcode": "9300-283",
      "city": "QUINTA GRANDE",
      "lon": "-17.004668173906833",
      "lat": "32.66517829260868"
    },
    {
      "id": "pt.ine.add.MAD.9431",
      "street": "VR FURNAS",
      "house": "59",
      "postcode": "9300-287",
      "city": "QUINTA GRANDE",
      "lon": "-17.004907658743104",
      "lat": "32.66444396375108"
    },
    {
      "id": "pt.ine.add.MAD.9432",
      "street": "VR FONTE DO INHAME",
      "house": "24",
      "postcode": "9300-283",
      "city": "QUINTA GRANDE",
      "lon": "-17.005053247015127",
      "lat": "32.66427930322159"
    },
    {
      "id": "pt.ine.add.MAD.9434",
      "street": "TV INHAME",
      "house": "12",
      "postcode": "9300-428",
      "city": "QUINTA GRANDE",
      "lon": "-17.004804459414462",
      "lat": "32.66316498018114"
    },
    {
      "id": "pt.ine.add.MAD.9441",
      "street": "VR FURNAS",
      "house": "25",
      "postcode": "9300-287",
      "city": "QUINTA GRANDE",
      "lon": "-17.006536573497026",
      "lat": "32.66099989451301"
    },
    {
      "id": "pt.ine.add.MAD.9444",
      "street": "VR AVICEIRO",
      "house": "24",
      "postcode": "9300-284",
      "city": "QUINTA GRANDE",
      "lon": "-17.007285783036277",
      "lat": "32.66017624110878"
    },
    {
      "id": "pt.ine.add.MAD.9445",
      "street": "VR FURNAS",
      "house": "",
      "postcode": "9300-287",
      "city": "QUINTA GRANDE",
      "lon": "-17.008038750898773",
      "lat": "32.658567910350726"
    },
    {
      "id": "pt.ine.add.MAD.9446",
      "street": "CAM AVICEIRO",
      "house": "17",
      "postcode": "9300-270",
      "city": "QUINTA GRANDE",
      "lon": "-17.00484080851017",
      "lat": "32.66145087617638"
    },
    {
      "id": "pt.ine.add.MAD.9447",
      "street": "TV FONTE MOUCA",
      "house": "2",
      "postcode": "9300-282",
      "city": "QUINTA GRANDE",
      "lon": "-17.004828338720575",
      "lat": "32.66136990855123"
    },
    {
      "id": "pt.ine.add.MAD.9448",
      "street": "TV FONTE MOUCA",
      "house": "6",
      "postcode": "9300-282",
      "city": "QUINTA GRANDE",
      "lon": "-17.00514223062003",
      "lat": "32.66110335435465"
    },
    {
      "id": "pt.ine.add.MAD.9449",
      "street": "VR FONTE DA MOUCA",
      "house": "24",
      "postcode": "9300-282",
      "city": "QUINTA GRANDE",
      "lon": "-17.00494737197524",
      "lat": "32.660971190389596"
    },
    {
      "id": "pt.ine.add.MAD.9450",
      "street": "TV FONTE DA MOUCA",
      "house": "5",
      "postcode": "9300-282",
      "city": "QUINTA GRANDE",
      "lon": "-17.004746285444483",
      "lat": "32.66103753360738"
    },
    {
      "id": "pt.ine.add.MAD.9451",
      "street": "VR FONTE DA MOUCA",
      "house": "10",
      "postcode": "9300-282",
      "city": "QUINTA GRANDE",
      "lon": "-17.00433165275904",
      "lat": "32.661567234136584"
    },
    {
      "id": "pt.ine.add.MAD.9452",
      "street": "VR FONTE DA MOUCA",
      "house": "8",
      "postcode": "9300-282",
      "city": "QUINTA GRANDE",
      "lon": "-17.004312148864067",
      "lat": "32.661648712638076"
    },
    {
      "id": "pt.ine.add.MAD.9453",
      "street": "VR FONTE DA MOUCA",
      "house": "44",
      "postcode": "9300-282",
      "city": "QUINTA GRANDE",
      "lon": "-17.006059356686954",
      "lat": "32.660159783107815"
    },
    {
      "id": "pt.ine.add.MAD.9454",
      "street": "VR FONTE DA MOUCA",
      "house": "46",
      "postcode": "9300-282",
      "city": "QUINTA GRANDE",
      "lon": "-17.00634227551285",
      "lat": "32.65993881399653"
    },
    {
      "id": "pt.ine.add.MAD.10218",
      "street": "ESTR PROF ALICE DO CARMO PEREIRA",
      "house": "24",
      "postcode": "9300-263",
      "city": "QUINTA GRANDE",
      "lon": "-17.006892783565483",
      "lat": "32.6664413927729"
    },
    {
      "id": "pt.ine.add.MAD.10222",
      "street": "VR MOINHO",
      "house": "1 1",
      "postcode": "9300-293",
      "city": "QUINTA GRANDE",
      "lon": "-17.00664923049381",
      "lat": "32.66603945486836"
    },
    {
      "id": "pt.ine.add.MAD.10223",
      "street": "TV LOMBINHO",
      "house": "22",
      "postcode": "9300-293",
      "city": "QUINTA GRANDE",
      "lon": "-17.006769848365284",
      "lat": "32.66523487588707"
    },
    {
      "id": "pt.ine.add.MAD.10981",
      "street": "ESTR PADRE ANTÓNIO SILVINO DE ANDRADE",
      "house": "19",
      "postcode": "9300-262",
      "city": "QUINTA GRANDE",
      "lon": "-17.006945367426134",
      "lat": "32.6645015667421"
    },
    {
      "id": "pt.ine.add.MAD.10982",
      "street": "CAM LOMBINHO",
      "house": "2",
      "postcode": "9300-268",
      "city": "QUINTA GRANDE",
      "lon": "-17.00717621639204",
      "lat": "32.66433553981763"
    },
    {
      "id": "pt.ine.add.MAD.10983",
      "street": "CAM LOMBINHO",
      "house": "4",
      "postcode": "9300-268",
      "city": "QUINTA GRANDE",
      "lon": "-17.0072630937164",
      "lat": "32.66440629805701"
    },
    {
      "id": "pt.ine.add.MAD.10984",
      "street": "CAM LOMBINHO",
      "house": "6",
      "postcode": "9300-268",
      "city": "QUINTA GRANDE",
      "lon": "-17.00766789854453",
      "lat": "32.6643908018461"
    },
    {
      "id": "pt.ine.add.MAD.10985",
      "street": "TV LOMBINHO",
      "house": "4",
      "postcode": "9300-293",
      "city": "QUINTA GRANDE",
      "lon": "-17.00762929918182",
      "lat": "32.6645717902396"
    },
    {
      "id": "pt.ine.add.MAD.10986",
      "street": "TV LOMBINHO",
      "house": "8",
      "postcode": "9300-293",
      "city": "QUINTA GRANDE",
      "lon": "-17.00747446866925",
      "lat": "32.664799731288625"
    },
    {
      "id": "pt.ine.add.MAD.10987",
      "street": "ESTR PROF ALICE CARMO PEREIRA",
      "house": "22",
      "postcode": "9300-263",
      "city": "QUINTA GRANDE",
      "lon": "-17.00685974990501",
      "lat": "32.6654408640204"
    },
    {
      "id": "pt.ine.add.MAD.11007",
      "street": "ESTR PADRE ANTÓNIO SILVINO DE ANDRADE",
      "house": "11",
      "postcode": "9300-262",
      "city": "QUINTA GRANDE",
      "lon": "-17.00771332445303",
      "lat": "32.66403835204607"
    },
    {
      "id": "pt.ine.add.MAD.11008",
      "street": "ESTR PADRE ANTÓNIO SILVINO DE ANDRADE",
      "house": "7",
      "postcode": "9300-262",
      "city": "QUINTA GRANDE",
      "lon": "-17.00837852636895",
      "lat": "32.66374812997353"
    },
    {
      "id": "pt.ine.add.MAD.11009",
      "street": "TV CABOUCO",
      "house": "1",
      "postcode": "9300-263",
      "city": "QUINTA GRANDE",
      "lon": "-17.00902240795433",
      "lat": "32.66345824588552"
    },
    {
      "id": "pt.ine.add.MAD.55194",
      "street": "CAM AVICEIRO",
      "house": "2",
      "postcode": "9300-270",
      "city": "QUINTA GRANDE",
      "lon": "-17.003793154403475",
      "lat": "32.662757265610054"
    },
    {
      "id": "pt.ine.add.MAD.55195",
      "street": "TV INHAME",
      "house": "683",
      "postcode": "9300-428",
      "city": "QUINTA GRANDE",
      "lon": "-17.004691651598034",
      "lat": "32.66336519076985"
    },
    {
      "id": "pt.ine.add.MAD.55386",
      "street": "TV AVICEIRO",
      "house": "10",
      "postcode": "9300-427",
      "city": "QUINTA GRANDE",
      "lon": "-17.007618329882842",
      "lat": "32.65931415883745"
    },
    {
      "id": "pt.ine.add.MAD.55391",
      "street": "ESTR PADRE ANTÓNIO SILVINO DE ANDRADE",
      "house": "13",
      "postcode": "9300-262",
      "city": "QUINTA GRANDE",
      "lon": "-17.007576584907074",
      "lat": "32.664121707139806"
    },
    {
      "id": "pt.ine.add.MAD.59403",
      "street": "ESTR JOÃO GONÇALVES ZARCO",
      "house": "693",
      "postcode": "9300-080",
      "city": "QUINTA GRANDE",
      "lon": "-17.00419560163513",
      "lat": "32.665501492270565"
    },
    {
      "id": "pt.ine.add.MAD.59406",
      "street": "VR MOINHO",
      "house": "9",
      "postcode": "9300-293",
      "city": "QUINTA GRANDE",
      "lon": "-17.006486736471807",
      "lat": "32.66592481305216"
    },
    {
      "id": "pt.ine.add.MAD.59407",
      "street": "VR RIBEIRA",
      "house": "1",
      "postcode": "9300-278",
      "city": "QUINTA GRANDE",
      "lon": "-17.00712776434444",
      "lat": "32.66455275985853"
    },
    {
      "id": "pt.ine.add.MAD.59804",
      "street": "TV AVICEIRO",
      "house": "12",
      "postcode": "9300-427",
      "city": "QUINTA GRANDE",
      "lon": "-17.00750994094438",
      "lat": "32.65923472635572"
    },
    {
      "id": "pt.ine.add.MAD.61488",
      "street": "VR RIBEIRA",
      "house": "",
      "postcode": "9300-278",
      "city": "QUINTA GRANDE",
      "lon": "-17.006268108294474",
      "lat": "32.6652068268949"
    },
    {
      "id": "pt.ine.add.MAD.64169",
      "street": "CAM LOMBINHO",
      "house": "8",
      "postcode": "9300-268",
      "city": "QUINTA GRANDE",
      "lon": "-17.007868586704596",
      "lat": "32.66430642315635"
    },
    {
      "id": "pt.ine.add.MAD.64170",
      "street": "TV LOMBINHO",
      "house": "8",
      "postcode": "9300-293",
      "city": "QUINTA GRANDE",
      "lon": "-17.007868586704596",
      "lat": "32.66430642315635"
    },
    {
      "id": "pt.ine.add.MAD.66429",
      "street": "VR MOINHO",
      "house": "26",
      "postcode": "9300-293",
      "city": "QUINTA GRANDE",
      "lon": "-17.006539197925512",
      "lat": "32.66540991747207"
    },
    {
      "id": "pt.ine.add.MAD.66615",
      "street": "VR FURNAS",
      "house": "22",
      "postcode": "9300-287",
      "city": "QUINTA GRANDE",
      "lon": "-17.006476434122384",
      "lat": "32.66069422596181"
    },
    {
      "id": "pt.ine.add.MAD.69529",
      "street": "TV FONTE MOUCA",
      "house": "4",
      "postcode": "9300-282",
      "city": "QUINTA GRANDE",
      "lon": "-17.004709291824046",
      "lat": "32.661290643985126"
    },
    {
      "id": "pt.ine.add.MAD.71964",
      "street": "CAM LOMBINHO",
      "house": "5",
      "postcode": "9300-268",
      "city": "QUINTA GRANDE",
      "lon": "-17.008139846883324",
      "lat": "32.66404054384818"
    },
    {
      "id": "pt.ine.add.MAD.71965",
      "street": "ESTR PADRE ANTÓNIO SILVINO DE ANDRADE",
      "house": "15",
      "postcode": "9300-262",
      "city": "QUINTA GRANDE",
      "lon": "-17.007428783816742",
      "lat": "32.664187202023705"
    },
    {
      "id": "pt.ine.add.MAD.77191",
      "street": "CAM AVICEIRO",
      "house": "9",
      "postcode": "9300-270",
      "city": "QUINTA GRANDE",
      "lon": "-17.004072857111566",
      "lat": "32.66191407317419"
    },
    {
      "id": "pt.ine.add.MAD.78828",
      "street": "ESTR JOÃO GONÇALVES ZARCO",
      "house": "701A",
      "postcode": "9300-080",
      "city": "QUINTA GRANDE",
      "lon": "-17.004531884737798",
      "lat": "32.66719160451966"
    },
    {
      "id": "pt.ine.add.MAD.78831",
      "street": "ESTR PROF ALICE DO CARMO PEREIRA",
      "house": "14",
      "postcode": "9300-263",
      "city": "QUINTA GRANDE",
      "lon": "-17.00782215300496",
      "lat": "32.66461379645352"
    },
    {
      "id": "pt.ine.add.MAD.78832",
      "street": "ESTR PROF ALICE DO CARMO PEREIRA",
      "house": "18",
      "postcode": "9300-263",
      "city": "QUINTA GRANDE",
      "lon": "-17.00755230168743",
      "lat": "32.66494278230082"
    },
    {
      "id": "pt.ine.add.MAD.79005",
      "street": "CAM AVICEIRO",
      "house": "11",
      "postcode": "9300-270",
      "city": "QUINTA GRANDE",
      "lon": "-17.004251020283576",
      "lat": "32.661775948848984"
    },
    {
      "id": "pt.ine.add.MAD.79010",
      "street": "ESTR PADRE ANTÓNIO SILVINO DE ANDRADE",
      "house": "9",
      "postcode": "9300-262",
      "city": "QUINTA GRANDE",
      "lon": "-17.008167181960385",
      "lat": "32.66383268002648"
    },
    {
      "id": "pt.ine.add.MAD.82473",
      "street": "VR MOINHO",
      "house": "10",
      "postcode": "9300-293",
      "city": "QUINTA GRANDE",
      "lon": "-17.006262711637522",
      "lat": "32.665919377494845"
    },
    {
      "id": "pt.ine.add.MAD.82474",
      "street": "VR RIBEIRA",
      "house": "13",
      "postcode": "9300-278",
      "city": "QUINTA GRANDE",
      "lon": "-17.006263876530326",
      "lat": "32.6650175053174"
    },
    {
      "id": "pt.ine.add.MAD.82475",
      "street": "TV LOMBINHO",
      "house": "12",
      "postcode": "9300-293",
      "city": "QUINTA GRANDE",
      "lon": "-17.007401878126405",
      "lat": "32.664891078208555"
    },
    {
      "id": "pt.ine.add.MAD.82570",
      "street": "ESTR JOÃO GONÇALVES ZARCO",
      "house": "695",
      "postcode": "9300-080",
      "city": "QUINTA GRANDE",
      "lon": "-17.00420807163469",
      "lat": "32.665582459908414"
    },
    {
      "id": "pt.ine.add.MAD.84926",
      "street": "VR FURNAS",
      "house": "80",
      "postcode": "9300-287",
      "city": "QUINTA GRANDE",
      "lon": "-17.00457991463979",
      "lat": "32.66600039001737"
    },
    {
      "id": "pt.ine.add.MAD.84927",
      "street": "ESTR JOÃO GONÇALVES ZARCO",
      "house": "61",
      "postcode": "9300-078",
      "city": "QUINTA GRANDE",
      "lon": "-17.004836273962177",
      "lat": "32.66458940121216"
    },
    {
      "id": "pt.ine.add.MAD.84928",
      "street": "TV INHAME",
      "house": "14",
      "postcode": "9300-428",
      "city": "QUINTA GRANDE",
      "lon": "-17.004860568086173",
      "lat": "32.66329034310958"
    },
    {
      "id": "pt.ine.add.MAD.84929",
      "street": "VR RIBEIRA",
      "house": "9",
      "postcode": "9300-278",
      "city": "QUINTA GRANDE",
      "lon": "-17.006543003693277",
      "lat": "32.665103226406075"
    },
    {
      "id": "pt.ine.add.MAD.84938",
      "street": "CAM AVICEIRO",
      "house": "29",
      "postcode": "9300-270",
      "city": "QUINTA GRANDE",
      "lon": "-17.005160354174407",
      "lat": "32.66191473356475"
    },
    {
      "id": "pt.ine.add.MAD.87425",
      "street": "VR FURNAS",
      "house": "82",
      "postcode": "9300-287",
      "city": "QUINTA GRANDE",
      "lon": "-17.00453286500286",
      "lat": "32.66628071652946"
    },
    {
      "id": "pt.ine.add.MAD.87620",
      "street": "CAM AVICEIRO",
      "house": "35",
      "postcode": "9300-270",
      "city": "QUINTA GRANDE",
      "lon": "-17.00535118730866",
      "lat": "32.66186659063204"
    },
    {
      "id": "pt.ine.add.MAD.87621",
      "street": "VR CADEIRINHA",
      "house": "15",
      "postcode": "9300-243",
      "city": "QUINTA GRANDE",
      "lon": "-17.00645937220365",
      "lat": "32.66136187084091"
    },
    {
      "id": "pt.ine.add.MAD.87623",
      "street": "TV CABOUCO",
      "house": "3",
      "postcode": "9300-263",
      "city": "QUINTA GRANDE",
      "lon": "-17.009106057216375",
      "lat": "32.663384758033516"
    },
    {
      "id": "pt.ine.add.MAD.92469",
      "street": "VR FONTE DO INHAME",
      "house": "19",
      "postcode": "9300-283",
      "city": "QUINTA GRANDE",
      "lon": "-17.004844127265322",
      "lat": "32.66494099875436"
    },
    {
      "id": "pt.ine.add.MAD.92470",
      "street": "TV LOMBINHO",
      "house": "7",
      "postcode": "9300-293",
      "city": "QUINTA GRANDE",
      "lon": "-17.006699473893136",
      "lat": "32.66542539084978"
    },
    {
      "id": "pt.ine.add.MAD.92481",
      "street": "ESTR JOÃO GONÇALVES ZARCO",
      "house": "679",
      "postcode": "9300-080",
      "city": "QUINTA GRANDE",
      "lon": "-17.00364152911367",
      "lat": "32.66265146477656"
    },
    {
      "id": "pt.ine.add.MAD.92674",
      "street": "VR FONTE DA MOUCA",
      "house": "16",
      "postcode": "9300-282",
      "city": "QUINTA GRANDE",
      "lon": "-17.004066014061934",
      "lat": "32.6616075519483"
    },
    {
      "id": "pt.ine.add.MAD.93680",
      "street": "TV INHAME",
      "house": "10",
      "postcode": "9300-428",
      "city": "QUINTA GRANDE",
      "lon": "-17.004856540956144",
      "lat": "32.66311003663472"
    },
    {
      "id": "pt.ine.add.MAD.96264",
      "street": "VR FONTE DA MOUCA",
      "house": "6",
      "postcode": "9300-282",
      "city": "QUINTA GRANDE",
      "lon": "-17.003952803820606",
      "lat": "32.661789731245754"
    },
    {
      "id": "pt.ine.add.MAD.97957",
      "street": "VR FONTE DO INHAME",
      "house": "27",
      "postcode": "9300-283",
      "city": "QUINTA GRANDE",
      "lon": "-17.004798905449494",
      "lat": "32.66578044557255"
    },
    {
      "id": "pt.ine.add.MAD.102083",
      "street": "VR FURNAS",
      "house": "20",
      "postcode": "9300-287",
      "city": "QUINTA GRANDE",
      "lon": "-17.00629122476484",
      "lat": "32.6605168170734"
    },
    {
      "id": "pt.ine.add.MAD.102655",
      "street": "VR IGREJA",
      "house": "15",
      "postcode": "9300-281",
      "city": "QUINTA GRANDE",
      "lon": "-17.006168557719615",
      "lat": "32.665046085280444"
    },
    {
      "id": "pt.ine.add.MAD.102814",
      "street": "VR FONTE DA MOUCA",
      "house": "2",
      "postcode": "9300-282",
      "city": "QUINTA GRANDE",
      "lon": "-17.003851860903623",
      "lat": "32.66204386287074"
    },
    {
      "id": "pt.ine.add.MAD.102898",
      "street": "CAM AVICEIRO",
      "house": "21",
      "postcode": "9300-270",
      "city": "QUINTA GRANDE",
      "lon": "-17.00521584286362",
      "lat": "32.66153506788883"
    },
    {
      "id": "pt.ine.add.MAD.104467",
      "street": "ESTR PADRE ANTÓNIO SILVINO DE ANDRADE",
      "house": "139",
      "postcode": "9300-262",
      "city": "QUINTA GRANDE",
      "lon": "-17.00702161721458",
      "lat": "32.65742079344806"
    },
    {
      "id": "pt.ine.add.MAD.105608",
      "street": "ESTR PROF ALICE CARMO PEREIRA",
      "house": "20",
      "postcode": "9300-263",
      "city": "QUINTA GRANDE",
      "lon": "-17.007181283164126",
      "lat": "32.66503890442915"
    },
    {
      "id": "pt.ine.add.MAD.106055",
      "street": "ESTR PROF ALICE DO CARMO PEREIRA",
      "house": "26",
      "postcode": "9300-263",
      "city": "QUINTA GRANDE",
      "lon": "-17.007159442921193",
      "lat": "32.66644614502472"
    },
    {
      "id": "pt.ine.add.MAD.106915",
      "street": "TV LOMBINHO",
      "house": "5",
      "postcode": "9300-293",
      "city": "QUINTA GRANDE",
      "lon": "-17.006835006799086",
      "lat": "32.665287944760706"
    },
    {
      "id": "pt.ine.add.MAD.121815",
      "street": "ESTR CABO GIRÃO",
      "house": "37",
      "postcode": "9300-282",
      "city": "QUINTA GRANDE",
      "lon": "-17.00416232668863",
      "lat": "32.661146067578365"
    },
    {
      "id": "pt.ine.add.MAD.121845",
      "street": "ESTR CABO GIRÃO",
      "house": "",
      "postcode": "9300-080",
      "city": "QUINTA GRANDE",
      "lon": "-17.003721157522325",
      "lat": "32.66239767374171"
    },
    {
      "id": "pt.ine.add.MAD.129931",
      "street": "VR AVICEIRO",
      "house": "19",
      "postcode": "9300-284",
      "city": "QUINTA GRANDE",
      "lon": "-17.007137584932067",
      "lat": "32.66022370481217"
    }
  ]
}