{
  "data": {
    "distrito": "Bragança",
    "concelho": "Carrazeda de Ansiães",
    "freguesia": "União das freguesias de Amedo e Zedes",
    "OBJECTID": 110,
    "BGRI2021": "04032000113",
    "DT21": "04",
    "DTMN21": "0403",
    "DTMNFR21": "040320",
    "DTMNFRSEC21": "040320001",
    "SECNUM21": "001",
    "SSNUM21": "13",
    "SECSSNUM21": "00113",
    "OBJECTID_1": 34889,
    "DT": "04",
    "CC": "03",
    "fr": "20",
    "SEC": "001",
    "SS": "13"
  },
  "addresses": [
    {
      "id": "pt.ine.add.PTCONT.863897",
      "street": "R PORTELA",
      "house": "",
      "postcode": "5140-300",
      "city": "ZEDES",
      "lon": "-7.3038133593693475",
      "lat": "41.27632095607236"
    },
    {
      "id": "pt.ine.add.PTCONT.864927",
      "street": "R DA RIBEIRA",
      "house": "",
      "postcode": "5140-300",
      "city": "ZEDES",
      "lon": "-7.3037692366060405",
      "lat": "41.27697793589056"
    },
    {
      "id": "pt.ine.add.PTCONT.868827",
      "street": "R DAS OLIVEIRAS",
      "house": "",
      "postcode": "5140-300",
      "city": "ZEDES",
      "lon": "-7.3029268186821135",
      "lat": "41.27846654050101"
    },
    {
      "id": "pt.ine.add.PTCONT.870226",
      "street": "R DA RIBEIRA",
      "house": "3",
      "postcode": "5140-300",
      "city": "ZEDES",
      "lon": "-7.303348982430462",
      "lat": "41.27811842523546"
    },
    {
      "id": "pt.ine.add.PTCONT.887805",
      "street": "R DA RIBEIRA",
      "house": "1",
      "postcode": "5140-300",
      "city": "ZEDES",
      "lon": "-7.303240885915009",
      "lat": "41.27817167049523"
    },
    {
      "id": "pt.ine.add.PTCONT.907368",
      "street": "R DA RIBEIRA",
      "house": "11",
      "postcode": "5140-300",
      "city": "ZEDES",
      "lon": "-7.303775358644929",
      "lat": "41.27743718791581"
    },
    {
      "id": "pt.ine.add.PTCONT.907731",
      "street": "R DA RIBEIRA",
      "house": "",
      "postcode": "5140-300",
      "city": "ZEDES",
      "lon": "-7.303779917438602",
      "lat": "41.27707705768514"
    },
    {
      "id": "pt.ine.add.PTCONT.924089",
      "street": "R DA RIBEIRA",
      "house": "21",
      "postcode": "5140-300",
      "city": "ZEDES",
      "lon": "-7.303783108544932",
      "lat": "41.27682496650999"
    },
    {
      "id": "pt.ine.add.PTCONT.925543",
      "street": "R DA RIBEIRA",
      "house": "13",
      "postcode": "5140-300",
      "city": "ZEDES",
      "lon": "-7.303766843227196",
      "lat": "41.277167004267284"
    },
    {
      "id": "pt.ine.add.PTCONT.931485",
      "street": "R DA RIBEIRA",
      "house": "26",
      "postcode": "5140-300",
      "city": "ZEDES",
      "lon": "-7.303825635614524",
      "lat": "41.276294032271686"
    },
    {
      "id": "pt.ine.add.PTCONT.940458",
      "street": "R DA RIBEIRA",
      "house": "7",
      "postcode": "5140-300",
      "city": "ZEDES",
      "lon": "-7.303807629385517",
      "lat": "41.277716546759315"
    },
    {
      "id": "pt.ine.add.PTCONT.943106",
      "street": "R DA RIBEIRA",
      "house": "",
      "postcode": "5140-300",
      "city": "ZEDES",
      "lon": "-7.303772883615654",
      "lat": "41.27668983168526"
    },
    {
      "id": "pt.ine.add.PTCONT.946187",
      "street": "R DA RIBEIRA",
      "house": "",
      "postcode": "5140-300",
      "city": "ZEDES",
      "lon": "-7.303445372125224",
      "lat": "41.27804708735198"
    }
  ]
}