{
  "data": {
    "distrito": "Guarda",
    "concelho": "Almeida",
    "freguesia": "Uni√£o das freguesias de Amoreira, Parada e Cabreira",
    "OBJECTID": 617,
    "BGRI2021": "09023000114",
    "DT21": "09",
    "DTMN21": "0902",
    "DTMNFR21": "090230",
    "DTMNFRSEC21": "090230001",
    "SECNUM21": "001",
    "SSNUM21": "14",
    "SECSSNUM21": "00114",
    "OBJECTID_1": 75776,
    "DT": "09",
    "CC": "02",
    "fr": "30",
    "SEC": "001",
    "SS": "14"
  },
  "addresses": [
    {
      "id": "pt.ine.add.PTCONT.1908314",
      "street": "R ESQUINA VIEIRA",
      "house": "",
      "postcode": "6355-142",
      "city": "PARADA ALD",
      "lon": "-7.0366093779857355",
      "lat": "40.539585336582135"
    },
    {
      "id": "pt.ine.add.PTCONT.1916062",
      "street": "R ESQUINA VIEIRA",
      "house": "",
      "postcode": "6355-142",
      "city": "PARADA ALD",
      "lon": "-7.036633568669073",
      "lat": "40.5395495457832"
    },
    {
      "id": "pt.ine.add.PTCONT.1917870",
      "street": "R ESQUINA VIEIRA",
      "house": "",
      "postcode": "6355-142",
      "city": "PARADA ALD",
      "lon": "-7.036301799197861",
      "lat": "40.53962744243707"
    },
    {
      "id": "pt.ine.add.PTCONT.1940250",
      "street": "R ESQUINA VIEIRA",
      "house": "",
      "postcode": "6355-142",
      "city": "PARADA ALD",
      "lon": "-7.036404049819123",
      "lat": "40.53987155074067"
    },
    {
      "id": "pt.ine.add.PTCONT.1942935",
      "street": "R DA QUINTA",
      "house": "",
      "postcode": "6355-142",
      "city": "PARADA ALD",
      "lon": "-7.035945544070351",
      "lat": "40.53975913618403"
    },
    {
      "id": "pt.ine.add.PTCONT.1976172",
      "street": "R DA QUINTA",
      "house": "",
      "postcode": "6355-142",
      "city": "PARADA ALD",
      "lon": "-7.035775764857436",
      "lat": "40.54003668170292"
    },
    {
      "id": "pt.ine.add.PTCONT.1862949",
      "street": "R ESQUINA VIEIRA",
      "house": "",
      "postcode": "6355-142",
      "city": "PARADA ALD",
      "lon": "-7.0361805507472175",
      "lat": "40.539824403417"
    },
    {
      "id": "pt.ine.add.PTCONT.1877686",
      "street": "R DE CAGULO",
      "house": "",
      "postcode": "6355-142",
      "city": "PARADA ALD",
      "lon": "-7.03653298822036",
      "lat": "40.539926805231374"
    },
    {
      "id": "pt.ine.add.PTCONT.1877689",
      "street": "R DE CAGULO",
      "house": "",
      "postcode": "6355-142",
      "city": "PARADA ALD",
      "lon": "-7.036782733794407",
      "lat": "40.539812109198095"
    },
    {
      "id": "pt.ine.add.PTCONT.1896244",
      "street": "R DE CAGULO",
      "house": "",
      "postcode": "6355-142",
      "city": "PARADA ALD",
      "lon": "-7.036642727729287",
      "lat": "40.53971172446033"
    }
  ]
}