{
  "data": {
    "distrito": "Beja",
    "concelho": "Ferreira do Alentejo",
    "freguesia": "União das freguesias de Ferreira do Alentejo e Canhestros",
    "OBJECTID": 245,
    "BGRI2021": "02080800563",
    "DT21": "02",
    "DTMN21": "0208",
    "DTMNFR21": "020808",
    "DTMNFRSEC21": "020808005",
    "SECNUM21": "005",
    "SSNUM21": "63",
    "SECSSNUM21": "00563",
    "OBJECTID_1": 15260,
    "DT": "02",
    "CC": "08",
    "fr": "08",
    "SEC": "005",
    "SS": "63"
  },
  "addresses": [
    {
      "id": "pt.ine.add.PTCONT.456902",
      "street": "MONTE",
      "house": "",
      "postcode": "7900-111",
      "city": "FERREIRA DO ALENTEJO",
      "lon": "-8.165823709791255",
      "lat": "38.037710559797105"
    },
    {
      "id": "pt.ine.add.PTCONT.457561",
      "street": "QTA DO POÇO BRANCO",
      "house": "",
      "postcode": "7900-192",
      "city": "FERREIRA DO ALENTEJO",
      "lon": "-8.124802253345168",
      "lat": "38.054823334313156"
    },
    {
      "id": "pt.ine.add.PTCONT.457674",
      "street": "QTA DO POÇO BRANCO",
      "house": "",
      "postcode": "7900-192",
      "city": "FERREIRA DO ALENTEJO",
      "lon": "-8.124859198074834",
      "lat": "38.055039559376844"
    },
    {
      "id": "pt.ine.add.PTCONT.368260",
      "street": "",
      "house": "",
      "postcode": "7900-113",
      "city": "FERREIRA DO ALENTEJO",
      "lon": "-8.117977708749534",
      "lat": "38.05316495899829"
    },
    {
      "id": "pt.ine.add.PTCONT.371165",
      "street": "EN 2",
      "house": "",
      "postcode": "7900-111",
      "city": "FERREIRA DO ALENTEJO",
      "lon": "-8.117761302929587",
      "lat": "38.05282258083211"
    },
    {
      "id": "pt.ine.add.PTCONT.380403",
      "street": "MTE DAS AMIAS",
      "house": "",
      "postcode": "7900-192",
      "city": "FERREIRA DO ALENTEJO",
      "lon": "-8.143509758182242",
      "lat": "38.04694911211932"
    },
    {
      "id": "pt.ine.add.PTCONT.381707",
      "street": "EN 121",
      "house": "",
      "postcode": "7900-111",
      "city": "FERREIRA DO ALENTEJO",
      "lon": "-8.16633895355213",
      "lat": "38.04355740699208"
    },
    {
      "id": "pt.ine.add.PTCONT.414762",
      "street": "HRD FREIXO",
      "house": "",
      "postcode": "7900-192",
      "city": "FERREIRA DO ALENTEJO",
      "lon": "-8.14117440302071",
      "lat": "38.04807544829667"
    },
    {
      "id": "pt.ine.add.PTCONT.433314",
      "street": "MONTE",
      "house": "",
      "postcode": "7900-111",
      "city": "FERREIRA DO ALENTEJO",
      "lon": "-8.133741311775399",
      "lat": "38.045879269381494"
    },
    {
      "id": "pt.ine.add.PTCONT.453601",
      "street": "",
      "house": "",
      "postcode": "7900-111",
      "city": "FERREIRA DO ALENTEJO",
      "lon": "-8.117897985648131",
      "lat": "38.05301179208288"
    }
  ]
}