{
  "data": {
    "distrito": "Braga",
    "concelho": "Esposende",
    "freguesia": "Antas",
    "OBJECTID": 21,
    "BGRI2021": "03060100221",
    "DT21": "03",
    "DTMN21": "0306",
    "DTMNFR21": "030601",
    "DTMNFRSEC21": "030601002",
    "SECNUM21": "002",
    "SSNUM21": "21",
    "SECSSNUM21": "00221",
    "OBJECTID_1": 24325,
    "DT": "03",
    "CC": "06",
    "fr": "01",
    "SEC": "002",
    "SS": "21"
  },
  "addresses": [
    {
      "id": "pt.ine.add.PTCONT.471531",
      "street": "R MONTE DE GUILHETA",
      "house": "2",
      "postcode": "4740-013",
      "city": "ANTAS EPS",
      "lon": "-8.7833104962699",
      "lat": "41.60828288612479"
    },
    {
      "id": "pt.ine.add.PTCONT.547601",
      "street": "R ALVRE",
      "house": "26",
      "postcode": "4740-013",
      "city": "ANTAS EPS",
      "lon": "-8.783284244726236",
      "lat": "41.6080579443048"
    },
    {
      "id": "pt.ine.add.PTCONT.575109",
      "street": "R CAMPINHO",
      "house": "9",
      "postcode": "4740-013",
      "city": "ANTAS EPS",
      "lon": "-8.782718275129962",
      "lat": "41.60784505712052"
    },
    {
      "id": "pt.ine.add.PTCONT.592641",
      "street": "R ALVRE",
      "house": "6",
      "postcode": "4740-013",
      "city": "ANTAS EPS",
      "lon": "-8.782864734665353",
      "lat": "41.606898850068205"
    },
    {
      "id": "pt.ine.add.PTCONT.601605",
      "street": "R FOZ DO NEIVA",
      "house": "10",
      "postcode": "4740-013",
      "city": "ANTAS EPS",
      "lon": "-8.782803040640104",
      "lat": "41.60672813007839"
    },
    {
      "id": "pt.ine.add.PTCONT.613669",
      "street": "AV 25 DE ABRIL",
      "house": "33",
      "postcode": "4740-013",
      "city": "ANTAS EPS",
      "lon": "-8.781851063544227",
      "lat": "41.6074988132839"
    },
    {
      "id": "pt.ine.add.PTCONT.637103",
      "street": "R MONTE DE GUILHETA",
      "house": "4",
      "postcode": "4740-013",
      "city": "ANTAS EPS",
      "lon": "-8.783118653388128",
      "lat": "41.60829297460833"
    },
    {
      "id": "pt.ine.add.PTCONT.637104",
      "street": "R FOZ DO NEIVA",
      "house": "4",
      "postcode": "4740-013",
      "city": "ANTAS EPS",
      "lon": "-8.782598213479071",
      "lat": "41.60663925131241"
    },
    {
      "id": "pt.ine.add.PTCONT.637105",
      "street": "R ALVRE",
      "house": "20",
      "postcode": "4740-013",
      "city": "ANTAS EPS",
      "lon": "-8.782992460613729",
      "lat": "41.6076724388255"
    },
    {
      "id": "pt.ine.add.PTCONT.689788",
      "street": "R ALVRE",
      "house": "10",
      "postcode": "4740-013",
      "city": "ANTAS EPS",
      "lon": "-8.782890442208314",
      "lat": "41.60706977342627"
    },
    {
      "id": "pt.ine.add.PTCONT.689789",
      "street": "R ALVRE",
      "house": "12",
      "postcode": "4740-013",
      "city": "ANTAS EPS",
      "lon": "-8.782890442208314",
      "lat": "41.60706977342627"
    },
    {
      "id": "pt.ine.add.PTCONT.689790",
      "street": "R CAMPINHO",
      "house": "3",
      "postcode": "4740-013",
      "city": "ANTAS EPS",
      "lon": "-8.78287729134746",
      "lat": "41.60815028127001"
    },
    {
      "id": "pt.ine.add.PTCONT.693796",
      "street": "AV 25 DE ABRIL",
      "house": "37",
      "postcode": "4740-013",
      "city": "ANTAS EPS",
      "lon": "-8.782108747686484",
      "lat": "41.60807359005214"
    },
    {
      "id": "pt.ine.add.PTCONT.704544",
      "street": "AV 25 DE ABRIL",
      "house": "19",
      "postcode": "4740-013",
      "city": "ANTAS EPS",
      "lon": "-8.782478980452694",
      "lat": "41.606711953783105"
    },
    {
      "id": "pt.ine.add.PTCONT.707602",
      "street": "AV 25 DE ABRIL",
      "house": "25",
      "postcode": "4740-013",
      "city": "ANTAS EPS",
      "lon": "-8.78215843955972",
      "lat": "41.607046897647514"
    },
    {
      "id": "pt.ine.add.PTCONT.791357",
      "street": "R MOINHOS",
      "house": "3",
      "postcode": "4740-013",
      "city": "ANTAS EPS",
      "lon": "-8.782051294992836",
      "lat": "41.60832601551251"
    },
    {
      "id": "pt.ine.add.PTCONT.794094",
      "street": "AV 25 DE ABRIL",
      "house": "23",
      "postcode": "4740-013",
      "city": "ANTAS EPS",
      "lon": "-8.782389064014664",
      "lat": "41.60731570376119"
    },
    {
      "id": "pt.ine.add.PTCONT.825665",
      "street": "AV 25 DE ABRIL",
      "house": "35",
      "postcode": "4740-013",
      "city": "ANTAS EPS",
      "lon": "-8.781937198294466",
      "lat": "41.60771441389033"
    },
    {
      "id": "pt.ine.add.PTCONT.833569",
      "street": "AV 25 DE ABRIL",
      "house": "31",
      "postcode": "4740-013",
      "city": "ANTAS EPS",
      "lon": "-8.782101799974326",
      "lat": "41.60738035110423"
    }
  ]
}