{
  "data": {
    "distrito": "Coimbra",
    "concelho": "Montemor-O-Velho",
    "freguesia": "Arazede",
    "OBJECTID": 21,
    "BGRI2021": "06100200405",
    "DT21": "06",
    "DTMN21": "0610",
    "DTMNFR21": "061002",
    "DTMNFRSEC21": "061002004",
    "SECNUM21": "004",
    "SSNUM21": "05",
    "SECSSNUM21": "00405",
    "OBJECTID_1": 53726,
    "DT": "06",
    "CC": "10",
    "fr": "02",
    "SEC": "004",
    "SS": "05"
  },
  "addresses": [
    {
      "id": "pt.ine.add.PTCONT.1103130",
      "street": "AL RAINHA D AMELIA",
      "house": "",
      "postcode": "3140-037",
      "city": "ARAZEDE",
      "lon": "-8.637457390861487",
      "lat": "40.2467215226147"
    },
    {
      "id": "pt.ine.add.PTCONT.1124204",
      "street": "AL RAINHA D AMELIA",
      "house": "",
      "postcode": "3140-037",
      "city": "ARAZEDE",
      "lon": "-8.638175329974471",
      "lat": "40.24527747054353"
    },
    {
      "id": "pt.ine.add.PTCONT.1125287",
      "street": "R CRUZEIRO",
      "house": "",
      "postcode": "3140-037",
      "city": "ARAZEDE",
      "lon": "-8.639455230618486",
      "lat": "40.2467037930516"
    },
    {
      "id": "pt.ine.add.PTCONT.1144470",
      "street": "AL RAINHA D AMELIA",
      "house": "",
      "postcode": "3140-037",
      "city": "ARAZEDE",
      "lon": "-8.637641952285737",
      "lat": "40.24625241883492"
    },
    {
      "id": "pt.ine.add.PTCONT.1150632",
      "street": "R STA APOLONIA",
      "house": "",
      "postcode": "3140-037",
      "city": "ARAZEDE",
      "lon": "-8.638823105254263",
      "lat": "40.24546376264621"
    },
    {
      "id": "pt.ine.add.PTCONT.1151969",
      "street": "AL RAINHA SANTA ISABEL",
      "house": "",
      "postcode": "3140-037",
      "city": "ARAZEDE",
      "lon": "-8.637283376684183",
      "lat": "40.247028476524655"
    },
    {
      "id": "pt.ine.add.PTCONT.1202402",
      "street": "R STA APOLÓNIA",
      "house": "",
      "postcode": "3140-037",
      "city": "ARAZEDE",
      "lon": "-8.63878677652596",
      "lat": "40.24531982926816"
    },
    {
      "id": "pt.ine.add.PTCONT.1202403",
      "street": "R STA APOLÓNIA",
      "house": "",
      "postcode": "3140-037",
      "city": "ARAZEDE",
      "lon": "-8.63878677652596",
      "lat": "40.24531982926816"
    },
    {
      "id": "pt.ine.add.PTCONT.1202404",
      "street": "TV RAINHA STA ISABEL",
      "house": "",
      "postcode": "3140-037",
      "city": "ARAZEDE",
      "lon": "-8.639319312868468",
      "lat": "40.24581281779807"
    },
    {
      "id": "pt.ine.add.PTCONT.1204579",
      "street": "R CRUZEIRO",
      "house": "",
      "postcode": "3140-037",
      "city": "ARAZEDE",
      "lon": "-8.63985555056297",
      "lat": "40.246801104165286"
    },
    {
      "id": "pt.ine.add.PTCONT.1224441",
      "street": "R CRUZEIRO",
      "house": "",
      "postcode": "3140-037",
      "city": "ARAZEDE",
      "lon": "-8.638493276002418",
      "lat": "40.246942147486614"
    },
    {
      "id": "pt.ine.add.PTCONT.1238431",
      "street": "R CRUZEIRO",
      "house": "",
      "postcode": "3140-037",
      "city": "ARAZEDE",
      "lon": "-8.6374957897554",
      "lat": "40.247144625771135"
    },
    {
      "id": "pt.ine.add.PTCONT.1241027",
      "street": "TV RAINHA STA ISABEL",
      "house": "",
      "postcode": "3140-037",
      "city": "ARAZEDE",
      "lon": "-8.639295003428918",
      "lat": "40.245704855044515"
    },
    {
      "id": "pt.ine.add.PTCONT.1246746",
      "street": "TV CRUZEIRO",
      "house": "",
      "postcode": "3140-037",
      "city": "ARAZEDE",
      "lon": "-8.640653436053935",
      "lat": "40.24662649835705"
    },
    {
      "id": "pt.ine.add.PTCONT.1249123",
      "street": "R PRINCIPAL MECO",
      "house": "",
      "postcode": "3140-037",
      "city": "ARAZEDE",
      "lon": "-8.63722575020018",
      "lat": "40.24718182539833"
    },
    {
      "id": "pt.ine.add.PTCONT.1249124",
      "street": "R PRINCIPAL",
      "house": "",
      "postcode": "3140-037",
      "city": "ARAZEDE",
      "lon": "-8.637491645390686",
      "lat": "40.24658628699099"
    },
    {
      "id": "pt.ine.add.PTCONT.1250686",
      "street": "TV RAINHA STA ISABEL",
      "house": "",
      "postcode": "3140-037",
      "city": "ARAZEDE",
      "lon": "-8.63922864860125",
      "lat": "40.24626350215326"
    },
    {
      "id": "pt.ine.add.PTCONT.1263884",
      "street": "AL RAINHA D AMELIA",
      "house": "",
      "postcode": "3140-037",
      "city": "ARAZEDE",
      "lon": "-8.63766485512257",
      "lat": "40.2461712671776"
    },
    {
      "id": "pt.ine.add.PTCONT.1286679",
      "street": "AL RAINHA D AMELIA",
      "house": "",
      "postcode": "3140-037",
      "city": "ARAZEDE",
      "lon": "-8.637584460963817",
      "lat": "40.246423778828266"
    },
    {
      "id": "pt.ine.add.PTCONT.1294382",
      "street": "AL RAINHA D AMELIA",
      "house": "",
      "postcode": "3140-037",
      "city": "ARAZEDE",
      "lon": "-8.638140636093986",
      "lat": "40.24693468115329"
    },
    {
      "id": "pt.ine.add.PTCONT.1298706",
      "street": "R STA APOLONIA",
      "house": "",
      "postcode": "3140-037",
      "city": "ARAZEDE",
      "lon": "-8.638964533579909",
      "lat": "40.24551717909602"
    },
    {
      "id": "pt.ine.add.PTCONT.1304262",
      "street": "R PRINCIPAL",
      "house": "S N",
      "postcode": "3140-022",
      "city": "ARAZEDE",
      "lon": "-8.637734767050429",
      "lat": "40.24608991054726"
    },
    {
      "id": "pt.ine.add.PTCONT.1306170",
      "street": "AL RAINHA D AMELIA",
      "house": "",
      "postcode": "3140-037",
      "city": "ARAZEDE",
      "lon": "-8.637850416994281",
      "lat": "40.24583724502145"
    },
    {
      "id": "pt.ine.add.PTCONT.1322704",
      "street": "R CRUZEIRO",
      "house": "",
      "postcode": "3140-037",
      "city": "ARAZEDE",
      "lon": "-8.64079540647855",
      "lat": "40.24675195621434"
    },
    {
      "id": "pt.ine.add.PTCONT.1332574",
      "street": "R CRUZEIRO",
      "house": "",
      "postcode": "3140-037",
      "city": "ARAZEDE",
      "lon": "-8.639279280181796",
      "lat": "40.246749591522"
    },
    {
      "id": "pt.ine.add.PTCONT.1340844",
      "street": "R CRUZEIRO",
      "house": "",
      "postcode": "3140-037",
      "city": "ARAZEDE",
      "lon": "-8.639667444942141",
      "lat": "40.24679292191794"
    }
  ]
}