{
  "data": {
    "distrito": "Coimbra",
    "concelho": "Montemor-O-Velho",
    "freguesia": "Arazede",
    "OBJECTID": 255,
    "BGRI2021": "06100200416",
    "DT21": "06",
    "DTMN21": "0610",
    "DTMNFR21": "061002",
    "DTMNFRSEC21": "061002004",
    "SECNUM21": "004",
    "SSNUM21": "16",
    "SECSSNUM21": "00416",
    "OBJECTID_1": 53805,
    "DT": "06",
    "CC": "10",
    "fr": "02",
    "SEC": "004",
    "SS": "16"
  },
  "addresses": [
    {
      "id": "pt.ine.add.PTCONT.1111220",
      "street": "R SERRADO",
      "house": "",
      "postcode": "3140-021",
      "city": "ARAZEDE",
      "lon": "-8.670396373387984",
      "lat": "40.25364279513726"
    },
    {
      "id": "pt.ine.add.PTCONT.1111221",
      "street": "BC AZINHAGA DO ROQUE",
      "house": "",
      "postcode": "3140-031",
      "city": "ARAZEDE",
      "lon": "-8.67163701585623",
      "lat": "40.255942496603616"
    },
    {
      "id": "pt.ine.add.PTCONT.1127902",
      "street": "R CANTO VALADO",
      "house": "",
      "postcode": "3140-021",
      "city": "ARAZEDE",
      "lon": "-8.662722223159959",
      "lat": "40.25379524489115"
    },
    {
      "id": "pt.ine.add.PTCONT.1129955",
      "street": "R CAPELA",
      "house": "",
      "postcode": "3140-021",
      "city": "ARAZEDE",
      "lon": "-8.67480085521592",
      "lat": "40.2576568305294"
    },
    {
      "id": "pt.ine.add.PTCONT.1138731",
      "street": "R CANTO VALADO",
      "house": "",
      "postcode": "3140-021",
      "city": "ARAZEDE",
      "lon": "-8.662743483657028",
      "lat": "40.25350696394175"
    },
    {
      "id": "pt.ine.add.PTCONT.1145958",
      "street": "R CAPELA",
      "house": "",
      "postcode": "3140-021",
      "city": "ARAZEDE",
      "lon": "-8.674472167747968",
      "lat": "40.25771240302091"
    },
    {
      "id": "pt.ine.add.PTCONT.1174220",
      "street": "R CANTO VALADO",
      "house": "",
      "postcode": "3140-021",
      "city": "ARAZEDE",
      "lon": "-8.663514224149583",
      "lat": "40.25286402644027"
    },
    {
      "id": "pt.ine.add.PTCONT.1186310",
      "street": "R CANTO VALADO",
      "house": "",
      "postcode": "3140-021",
      "city": "ARAZEDE",
      "lon": "-8.6648821125902",
      "lat": "40.25193015762574"
    },
    {
      "id": "pt.ine.add.PTCONT.1200387",
      "street": "BC CANTO VALADO",
      "house": "",
      "postcode": "3140-021",
      "city": "ARAZEDE",
      "lon": "-8.664334639030955",
      "lat": "40.25256307388932"
    },
    {
      "id": "pt.ine.add.PTCONT.1205315",
      "street": "R CANTO VALADO",
      "house": "",
      "postcode": "3140-021",
      "city": "ARAZEDE",
      "lon": "-8.663175342613291",
      "lat": "40.253117739863214"
    },
    {
      "id": "pt.ine.add.PTCONT.1208793",
      "street": "R CAPELA",
      "house": "",
      "postcode": "3140-021",
      "city": "ARAZEDE",
      "lon": "-8.668028416924752",
      "lat": "40.25594122181293"
    },
    {
      "id": "pt.ine.add.PTCONT.1224418",
      "street": "R CAPELA",
      "house": "",
      "postcode": "3140-021",
      "city": "ARAZEDE",
      "lon": "-8.673989168755526",
      "lat": "40.2575795755982"
    },
    {
      "id": "pt.ine.add.PTCONT.1228605",
      "street": "R CAPELA",
      "house": "",
      "postcode": "3140-021",
      "city": "ARAZEDE",
      "lon": "-8.67464840936483",
      "lat": "40.25770257267405"
    },
    {
      "id": "pt.ine.add.PTCONT.1231588",
      "street": "R CAPELA",
      "house": "",
      "postcode": "3140-021",
      "city": "ARAZEDE",
      "lon": "-8.670535993896042",
      "lat": "40.25643392466389"
    },
    {
      "id": "pt.ine.add.PTCONT.1250688",
      "street": "R MACEDO E SOTTO MAYOR",
      "house": "",
      "postcode": "3140-021",
      "city": "ARAZEDE",
      "lon": "-8.665921679038574",
      "lat": "40.25709466902749"
    },
    {
      "id": "pt.ine.add.PTCONT.1255549",
      "street": "R CANTO VALADO",
      "house": "",
      "postcode": "3140-021",
      "city": "ARAZEDE",
      "lon": "-8.66488056188826",
      "lat": "40.25173203844223"
    },
    {
      "id": "pt.ine.add.PTCONT.1257673",
      "street": "R CAPELA",
      "house": "",
      "postcode": "3140-021",
      "city": "ARAZEDE",
      "lon": "-8.670035847834535",
      "lat": "40.2556167245513"
    },
    {
      "id": "pt.ine.add.PTCONT.1259762",
      "street": "BC CANTO VALADO",
      "house": "N 5",
      "postcode": "3140-021",
      "city": "ARAZEDE",
      "lon": "-8.664521143039945",
      "lat": "40.252364091322114"
    },
    {
      "id": "pt.ine.add.PTCONT.1259763",
      "street": "R CAPELA",
      "house": "",
      "postcode": "3140-021",
      "city": "ARAZEDE",
      "lon": "-8.669432774188419",
      "lat": "40.25516022861821"
    },
    {
      "id": "pt.ine.add.PTCONT.1263859",
      "street": "BC SERRADO",
      "house": "",
      "postcode": "3140-021",
      "city": "ARAZEDE",
      "lon": "-8.672928086988124",
      "lat": "40.25570233222173"
    },
    {
      "id": "pt.ine.add.PTCONT.1284005",
      "street": "R CANTO VALADO",
      "house": "",
      "postcode": "3140-021",
      "city": "ARAZEDE",
      "lon": "-8.664599823333477",
      "lat": "40.251904437208125"
    },
    {
      "id": "pt.ine.add.PTCONT.1292318",
      "street": "R CANTO VALADO",
      "house": "",
      "postcode": "3140-021",
      "city": "ARAZEDE",
      "lon": "-8.66409633423713",
      "lat": "40.252149903485204"
    },
    {
      "id": "pt.ine.add.PTCONT.1292319",
      "street": "R CAVADAS",
      "house": "",
      "postcode": "3140-021",
      "city": "ARAZEDE",
      "lon": "-8.666795415329561",
      "lat": "40.251606149036654"
    },
    {
      "id": "pt.ine.add.PTCONT.1312266",
      "street": "R MACEDO E SOTTO MAYOR",
      "house": "",
      "postcode": "3140-021",
      "city": "ARAZEDE",
      "lon": "-8.662643879077976",
      "lat": "40.25429992475845"
    },
    {
      "id": "pt.ine.add.PTCONT.1350454",
      "street": "R CAPELA",
      "house": "",
      "postcode": "3140-021",
      "city": "ARAZEDE",
      "lon": "-8.667547851770577",
      "lat": "40.25611455113172"
    },
    {
      "id": "pt.ine.add.PTCONT.1354863",
      "street": "R CAVADAS",
      "house": "",
      "postcode": "3140-021",
      "city": "ARAZEDE",
      "lon": "-8.666299025216688",
      "lat": "40.25125721322055"
    },
    {
      "id": "pt.ine.add.PTCONT.1359304",
      "street": "R MACEDO E SOTTO MAYOR",
      "house": "",
      "postcode": "3140-021",
      "city": "ARAZEDE",
      "lon": "-8.663370271565757",
      "lat": "40.25550336737951"
    },
    {
      "id": "pt.ine.add.PTCONT.1359305",
      "street": "R MACEDO E SOTTO MAYOR",
      "house": "",
      "postcode": "3140-021",
      "city": "ARAZEDE",
      "lon": "-8.662417963395944",
      "lat": "40.25396774597067"
    }
  ]
}