{
  "data": {
    "distrito": "Portalegre",
    "concelho": "Campo Maior",
    "freguesia": "São João Baptista",
    "OBJECTID": 30,
    "BGRI2021": "12040300220",
    "DT21": "12",
    "DTMN21": "1204",
    "DTMNFR21": "120403",
    "DTMNFRSEC21": "120403002",
    "SECNUM21": "002",
    "SSNUM21": "20",
    "SECSSNUM21": "00220",
    "OBJECTID_1": 121173,
    "DT": "12",
    "CC": "04",
    "fr": "03",
    "SEC": "002",
    "SS": "20"
  },
  "addresses": [
    {
      "id": "pt.ine.add.PTCONT.3536505",
      "street": "ESTR BAIRRO INDUSTRIAL",
      "house": "",
      "postcode": "7370-112",
      "city": "CAMPO MAIOR",
      "lon": "-7.068860261098988",
      "lat": "39.020873927193286"
    },
    {
      "id": "pt.ine.add.PTCONT.3538338",
      "street": "R DR TELLO DA GAMA",
      "house": "71",
      "postcode": "7370-112",
      "city": "CAMPO MAIOR",
      "lon": "-7.0684017762206235",
      "lat": "39.01833866480086"
    },
    {
      "id": "pt.ine.add.PTCONT.3461290",
      "street": "R DR TELLO DA GAMA",
      "house": "77",
      "postcode": "7370-112",
      "city": "CAMPO MAIOR",
      "lon": "-7.068234474694396",
      "lat": "39.018715448337346"
    },
    {
      "id": "pt.ine.add.PTCONT.3467972",
      "street": "R DR TELLO DA GAMA GNR",
      "house": "1",
      "postcode": "7370-112",
      "city": "CAMPO MAIOR",
      "lon": "-7.067838762343208",
      "lat": "39.019693641432724"
    },
    {
      "id": "pt.ine.add.PTCONT.3476691",
      "street": "",
      "house": "",
      "postcode": "7370-106",
      "city": "CAMPO MAIOR",
      "lon": "-7.069392187800803",
      "lat": "39.016969568450065"
    },
    {
      "id": "pt.ine.add.PTCONT.3477707",
      "street": "R DR TELLO DA GAMA",
      "house": "65",
      "postcode": "7370-112",
      "city": "CAMPO MAIOR",
      "lon": "-7.068821710129469",
      "lat": "39.01805426025478"
    },
    {
      "id": "pt.ine.add.PTCONT.3480407",
      "street": "R DR TELLO DA GAMA",
      "house": "67",
      "postcode": "7370-112",
      "city": "CAMPO MAIOR",
      "lon": "-7.068473881525673",
      "lat": "39.01815016755664"
    },
    {
      "id": "pt.ine.add.PTCONT.3481518",
      "street": "AV HUMBERTO DELGADO VALE MASSANAS",
      "house": "",
      "postcode": "7370-106",
      "city": "CAMPO MAIOR",
      "lon": "-7.071971613405631",
      "lat": "39.016659787726745"
    },
    {
      "id": "pt.ine.add.PTCONT.3483229",
      "street": "R DR TELLO DA GAMA",
      "house": "73",
      "postcode": "7370-112",
      "city": "CAMPO MAIOR",
      "lon": "-7.068342971492987",
      "lat": "39.01841018722803"
    },
    {
      "id": "pt.ine.add.PTCONT.3485817",
      "street": "R DR TELLO DA GAMA",
      "house": "69A",
      "postcode": "7370-112",
      "city": "CAMPO MAIOR",
      "lon": "-7.068437491237273",
      "lat": "39.018266931599555"
    },
    {
      "id": "pt.ine.add.PTCONT.3488343",
      "street": "ESTR BAIRRO INDUSTRIAL",
      "house": "",
      "postcode": "7370-106",
      "city": "CAMPO MAIOR",
      "lon": "-7.073410245936537",
      "lat": "39.01697011016653"
    },
    {
      "id": "pt.ine.add.PTCONT.3503239",
      "street": "R DR TELLO DA GAMA",
      "house": "69",
      "postcode": "7370-112",
      "city": "CAMPO MAIOR",
      "lon": "-7.068449846467701",
      "lat": "39.018212999977614"
    },
    {
      "id": "pt.ine.add.PTCONT.3510965",
      "street": "AV HUMBERTO DELGADO",
      "house": "",
      "postcode": "7370-106",
      "city": "CAMPO MAIOR",
      "lon": "-7.072089481736666",
      "lat": "39.01649872663916"
    },
    {
      "id": "pt.ine.add.PTCONT.3511562",
      "street": "AV HUMBERTO DELGADO",
      "house": "",
      "postcode": "7370-106",
      "city": "CAMPO MAIOR",
      "lon": "-7.072089481736666",
      "lat": "39.01649872663916"
    },
    {
      "id": "pt.ine.add.PTCONT.3534219",
      "street": "AV HUMBERTO DELGADO",
      "house": "",
      "postcode": "7370-106",
      "city": "CAMPO MAIOR",
      "lon": "-7.0718309246608255",
      "lat": "39.01680262626411"
    }
  ]
}