{
  "data": {
    "distrito": "Santarém",
    "concelho": "Ourém",
    "freguesia": "União das freguesias de Freixianda, Ribeira do Fárrio e Formigais",
    "OBJECTID": 349,
    "BGRI2021": "14211900417",
    "DT21": "14",
    "DTMN21": "1421",
    "DTMNFR21": "142119",
    "DTMNFRSEC21": "142119004",
    "SECNUM21": "004",
    "SSNUM21": "17",
    "SECSSNUM21": "00417",
    "OBJECTID_1": 159536,
    "DT": "14",
    "CC": "21",
    "fr": "19",
    "SEC": "004",
    "SS": "17"
  },
  "addresses": [
    {
      "id": "pt.ine.add.PTCONT.4428071",
      "street": "R CARVALHAL",
      "house": "2",
      "postcode": "2435-232",
      "city": "FREIXIANDA",
      "lon": "-8.464545183191763",
      "lat": "39.76374191611002"
    },
    {
      "id": "pt.ine.add.PTCONT.4499107",
      "street": "R DR PINTO",
      "house": "7",
      "postcode": "2435-281",
      "city": "FREIXIANDA",
      "lon": "-8.461422763848468",
      "lat": "39.76484058142469"
    },
    {
      "id": "pt.ine.add.PTCONT.4513030",
      "street": "R DR PINTO",
      "house": "13",
      "postcode": "2435-281",
      "city": "FREIXIANDA",
      "lon": "-8.462454643390052",
      "lat": "39.76586440326827"
    },
    {
      "id": "pt.ine.add.PTCONT.4524385",
      "street": "R DR PINTO",
      "house": "",
      "postcode": "2435-281",
      "city": "FREIXIANDA",
      "lon": "-8.461258609846112",
      "lat": "39.76467892795064"
    },
    {
      "id": "pt.ine.add.PTCONT.4568723",
      "street": "R DR PINTO",
      "house": "23",
      "postcode": "2435-281",
      "city": "FREIXIANDA",
      "lon": "-8.462465927667635",
      "lat": "39.7657833124205"
    },
    {
      "id": "pt.ine.add.PTCONT.4595842",
      "street": "R MANGERICOS",
      "house": "2",
      "postcode": "2435-235",
      "city": "FREIXIANDA",
      "lon": "-8.463036620281933",
      "lat": "39.7655385151141"
    },
    {
      "id": "pt.ine.add.PTCONT.4631269",
      "street": "R DR PINTO",
      "house": "11",
      "postcode": "2435-281",
      "city": "FREIXIANDA",
      "lon": "-8.462276240844849",
      "lat": "39.765162399475365"
    },
    {
      "id": "pt.ine.add.PTCONT.4645514",
      "street": "R DR PINTO",
      "house": "21",
      "postcode": "2435-281",
      "city": "FREIXIANDA",
      "lon": "-8.46219579166264",
      "lat": "39.76542381718127"
    },
    {
      "id": "pt.ine.add.PTCONT.4649604",
      "street": "R DR PINTO",
      "house": "143",
      "postcode": "2435-281",
      "city": "FREIXIANDA",
      "lon": "-8.461738290561675",
      "lat": "39.76492975386789"
    },
    {
      "id": "pt.ine.add.PTCONT.4658281",
      "street": "R DR PINTO",
      "house": "1",
      "postcode": "2435-281",
      "city": "FREIXIANDA",
      "lon": "-8.461373602020421",
      "lat": "39.76431834124081"
    }
  ]
}