{
  "data": {
    "distrito": "Portalegre",
    "concelho": "Portalegre",
    "freguesia": "União das freguesias de Reguengo e São Julião",
    "OBJECTID": 86,
    "BGRI2021": "12141200211",
    "DT21": "12",
    "DTMN21": "1214",
    "DTMNFR21": "121412",
    "DTMNFRSEC21": "121412002",
    "SECNUM21": "002",
    "SSNUM21": "11",
    "SECSSNUM21": "00211",
    "OBJECTID_1": 124847,
    "DT": "12",
    "CC": "14",
    "fr": "12",
    "SEC": "002",
    "SS": "11"
  },
  "addresses": [
    {
      "id": "pt.ine.add.PTCONT.3537102",
      "street": "",
      "house": "",
      "postcode": "7300-405",
      "city": "REGUENGO",
      "lon": "-7.381740018329978",
      "lat": "39.28910685370388"
    },
    {
      "id": "pt.ine.add.PTCONT.3537727",
      "street": "EN 256-2",
      "house": "30",
      "postcode": "7300-405",
      "city": "REGUENGO",
      "lon": "-7.391330766276612",
      "lat": "39.30070839413548"
    },
    {
      "id": "pt.ine.add.PTCONT.3538597",
      "street": "QTA RELVA",
      "house": "",
      "postcode": "7300-405",
      "city": "REGUENGO",
      "lon": "-7.377853390560968",
      "lat": "39.30670866890643"
    },
    {
      "id": "pt.ine.add.PTCONT.3465970",
      "street": "",
      "house": "",
      "postcode": "7300-405",
      "city": "REGUENGO",
      "lon": "-7.384569318588562",
      "lat": "39.29226857260712"
    },
    {
      "id": "pt.ine.add.PTCONT.3490298",
      "street": "",
      "house": "",
      "postcode": "7300-405",
      "city": "REGUENGO",
      "lon": "-7.384899424991008",
      "lat": "39.290658415136214"
    },
    {
      "id": "pt.ine.add.PTCONT.3459306",
      "street": "EN 256-2",
      "house": "20",
      "postcode": "7300-405",
      "city": "REGUENGO",
      "lon": "-7.392162634779621",
      "lat": "39.302082343596446"
    },
    {
      "id": "pt.ine.add.PTCONT.3459307",
      "street": "QTA CARRIL",
      "house": "",
      "postcode": "7300-405",
      "city": "REGUENGO",
      "lon": "-7.391838327691343",
      "lat": "39.305348409506024"
    },
    {
      "id": "pt.ine.add.PTCONT.3459957",
      "street": "",
      "house": "",
      "postcode": "7300-405",
      "city": "REGUENGO",
      "lon": "-7.382634766786675",
      "lat": "39.28889645282888"
    },
    {
      "id": "pt.ine.add.PTCONT.3460559",
      "street": "",
      "house": "",
      "postcode": "7300-405",
      "city": "REGUENGO",
      "lon": "-7.36985092834342",
      "lat": "39.301621496383234"
    },
    {
      "id": "pt.ine.add.PTCONT.3460560",
      "street": "",
      "house": "",
      "postcode": "7300-405",
      "city": "REGUENGO",
      "lon": "-7.373013348502041",
      "lat": "39.29541825871766"
    },
    {
      "id": "pt.ine.add.PTCONT.3462386",
      "street": "SIT MONTE VENTO",
      "house": "",
      "postcode": "7300-405",
      "city": "REGUENGO",
      "lon": "-7.383098056839941",
      "lat": "39.28675573597842"
    },
    {
      "id": "pt.ine.add.PTCONT.3462387",
      "street": "SIT MONTE VENTO",
      "house": "",
      "postcode": "7300-405",
      "city": "REGUENGO",
      "lon": "-7.383098056839941",
      "lat": "39.28675573597842"
    },
    {
      "id": "pt.ine.add.PTCONT.3464269",
      "street": "",
      "house": "",
      "postcode": "7300-405",
      "city": "REGUENGO",
      "lon": "-7.382348234336741",
      "lat": "39.28750750431597"
    },
    {
      "id": "pt.ine.add.PTCONT.3464930",
      "street": "",
      "house": "",
      "postcode": "7300-405",
      "city": "REGUENGO",
      "lon": "-7.3796692520741844",
      "lat": "39.28981404366474"
    },
    {
      "id": "pt.ine.add.PTCONT.3466718",
      "street": "R MONTE DE PRATAS",
      "house": "8",
      "postcode": "7300-405",
      "city": "REGUENGO",
      "lon": "-7.388679581902638",
      "lat": "39.295996862288995"
    },
    {
      "id": "pt.ine.add.PTCONT.3468473",
      "street": "R MONTE DE PRATAS",
      "house": "",
      "postcode": "7300-405",
      "city": "REGUENGO",
      "lon": "-7.389940081639718",
      "lat": "39.296284136612506"
    },
    {
      "id": "pt.ine.add.PTCONT.3469110",
      "street": "",
      "house": "",
      "postcode": "7300-405",
      "city": "REGUENGO",
      "lon": "-7.382783940328879",
      "lat": "39.287951663418866"
    },
    {
      "id": "pt.ine.add.PTCONT.3470933",
      "street": "",
      "house": "",
      "postcode": "7300-405",
      "city": "REGUENGO",
      "lon": "-7.373417878675741",
      "lat": "39.29660083378584"
    },
    {
      "id": "pt.ine.add.PTCONT.3473235",
      "street": "",
      "house": "",
      "postcode": "7300-405",
      "city": "REGUENGO",
      "lon": "-7.376303681345289",
      "lat": "39.29343110160672"
    },
    {
      "id": "pt.ine.add.PTCONT.3483201",
      "street": "",
      "house": "",
      "postcode": "7300-405",
      "city": "REGUENGO",
      "lon": "-7.37748909766895",
      "lat": "39.29098885824329"
    },
    {
      "id": "pt.ine.add.PTCONT.3475920",
      "street": "",
      "house": "",
      "postcode": "7300-405",
      "city": "REGUENGO",
      "lon": "-7.38278297918692",
      "lat": "39.28804172874015"
    },
    {
      "id": "pt.ine.add.PTCONT.3483202",
      "street": "",
      "house": "",
      "postcode": "7300-405",
      "city": "REGUENGO",
      "lon": "-7.382701561018894",
      "lat": "39.28806822547593"
    },
    {
      "id": "pt.ine.add.PTCONT.3476536",
      "street": "",
      "house": "",
      "postcode": "7300-405",
      "city": "REGUENGO",
      "lon": "-7.378287194384183",
      "lat": "39.291147156612325"
    },
    {
      "id": "pt.ine.add.PTCONT.3478434",
      "street": "QTA CARRIL",
      "house": "16",
      "postcode": "7300-405",
      "city": "REGUENGO",
      "lon": "-7.390086024584373",
      "lat": "39.30440950450039"
    },
    {
      "id": "pt.ine.add.PTCONT.3478439",
      "street": "",
      "house": "",
      "postcode": "7300-405",
      "city": "REGUENGO",
      "lon": "-7.378187232250891",
      "lat": "39.29074118696986"
    },
    {
      "id": "pt.ine.add.PTCONT.3478701",
      "street": "R MONTE DE PRATAS",
      "house": "13",
      "postcode": "7300-405",
      "city": "REGUENGO",
      "lon": "-7.38932307169617",
      "lat": "39.29653239639423"
    },
    {
      "id": "pt.ine.add.PTCONT.3478702",
      "street": "",
      "house": "",
      "postcode": "7300-405",
      "city": "REGUENGO",
      "lon": "-7.3917737111721005",
      "lat": "39.30378075744227"
    },
    {
      "id": "pt.ine.add.PTCONT.3478703",
      "street": "SIT CABACO",
      "house": "N 3",
      "postcode": "7300-405",
      "city": "REGUENGO",
      "lon": "-7.3917737111721005",
      "lat": "39.30378075744227"
    },
    {
      "id": "pt.ine.add.PTCONT.3478704",
      "street": "",
      "house": "",
      "postcode": "7300-405",
      "city": "REGUENGO",
      "lon": "-7.382112492564311",
      "lat": "39.28787527721232"
    },
    {
      "id": "pt.ine.add.PTCONT.3479642",
      "street": "",
      "house": "",
      "postcode": "7300-405",
      "city": "REGUENGO",
      "lon": "-7.377274516623842",
      "lat": "39.29113972128769"
    },
    {
      "id": "pt.ine.add.PTCONT.3480232",
      "street": "",
      "house": "",
      "postcode": "7300-405",
      "city": "REGUENGO",
      "lon": "-7.370835059252669",
      "lat": "39.29960134062121"
    },
    {
      "id": "pt.ine.add.PTCONT.3480234",
      "street": "",
      "house": "",
      "postcode": "7300-405",
      "city": "REGUENGO",
      "lon": "-7.383648386948097",
      "lat": "39.28840758860519"
    },
    {
      "id": "pt.ine.add.PTCONT.3480698",
      "street": "R IGREJA",
      "house": "20",
      "postcode": "7300-405",
      "city": "REGUENGO",
      "lon": "-7.389733437293071",
      "lat": "39.294609346034065"
    },
    {
      "id": "pt.ine.add.PTCONT.3480730",
      "street": "",
      "house": "",
      "postcode": "7300-405",
      "city": "REGUENGO",
      "lon": "-7.3903823236860005",
      "lat": "39.308185381313365"
    },
    {
      "id": "pt.ine.add.PTCONT.3482453",
      "street": "R MONTE DE PRATAS",
      "house": "14",
      "postcode": "7300-405",
      "city": "REGUENGO",
      "lon": "-7.3887699044416815",
      "lat": "39.296294675455385"
    },
    {
      "id": "pt.ine.add.PTCONT.3484218",
      "street": "",
      "house": "",
      "postcode": "7300-405",
      "city": "REGUENGO",
      "lon": "-7.391733163483879",
      "lat": "39.3041529323842"
    },
    {
      "id": "pt.ine.add.PTCONT.3485054",
      "street": "QTA PADRE LOURENÇO",
      "house": "",
      "postcode": "7300-405",
      "city": "REGUENGO",
      "lon": "-7.387097519782142",
      "lat": "39.29214969233579"
    },
    {
      "id": "pt.ine.add.PTCONT.3485100",
      "street": "R MONTE DE PRATAS",
      "house": "",
      "postcode": "7300-405",
      "city": "REGUENGO",
      "lon": "-7.389697110196583",
      "lat": "39.29627529502577"
    },
    {
      "id": "pt.ine.add.PTCONT.3486506",
      "street": "QTA RELVA",
      "house": "",
      "postcode": "7300-405",
      "city": "REGUENGO",
      "lon": "-7.383260422532718",
      "lat": "39.30739213464277"
    },
    {
      "id": "pt.ine.add.PTCONT.3486897",
      "street": "SIT SITIO DAS HORTAS DE CIMA",
      "house": "",
      "postcode": "7300-405",
      "city": "REGUENGO",
      "lon": "-7.389454415771126",
      "lat": "39.29836168481195"
    },
    {
      "id": "pt.ine.add.PTCONT.3487327",
      "street": "",
      "house": "",
      "postcode": "7300-405",
      "city": "REGUENGO",
      "lon": "-7.385780824070988",
      "lat": "39.30260754304104"
    },
    {
      "id": "pt.ine.add.PTCONT.3487726",
      "street": "R IGREJA",
      "house": "11",
      "postcode": "7300-405",
      "city": "REGUENGO",
      "lon": "-7.391665370443321",
      "lat": "39.296805635509244"
    },
    {
      "id": "pt.ine.add.PTCONT.3492723",
      "street": "R IGREJA",
      "house": "14",
      "postcode": "7300-405",
      "city": "REGUENGO",
      "lon": "-7.390572845144305",
      "lat": "39.29572744964974"
    },
    {
      "id": "pt.ine.add.PTCONT.3493384",
      "street": "",
      "house": "",
      "postcode": "7300-405",
      "city": "REGUENGO",
      "lon": "-7.387370213873349",
      "lat": "39.29485358280977"
    },
    {
      "id": "pt.ine.add.PTCONT.3493386",
      "street": "",
      "house": "",
      "postcode": "7300-405",
      "city": "REGUENGO",
      "lon": "-7.382163416578317",
      "lat": "39.290703850547565"
    },
    {
      "id": "pt.ine.add.PTCONT.3494539",
      "street": "R MONTE DE PRATAS",
      "house": "4",
      "postcode": "7300-405",
      "city": "REGUENGO",
      "lon": "-7.390542511011833",
      "lat": "39.29623122472011"
    },
    {
      "id": "pt.ine.add.PTCONT.3494630",
      "street": "R IGREJA",
      "house": "9A",
      "postcode": "7300-405",
      "city": "REGUENGO",
      "lon": "-7.3912563962054545",
      "lat": "39.296927406262874"
    },
    {
      "id": "pt.ine.add.PTCONT.3494632",
      "street": "",
      "house": "",
      "postcode": "7300-405",
      "city": "REGUENGO",
      "lon": "-7.372921787968017",
      "lat": "39.29745327332825"
    },
    {
      "id": "pt.ine.add.PTCONT.3495251",
      "street": "QTA CARRIL CASA DO MONTE",
      "house": "",
      "postcode": "7300-405",
      "city": "REGUENGO",
      "lon": "-7.390475511973464",
      "lat": "39.30485333903993"
    },
    {
      "id": "pt.ine.add.PTCONT.3496740",
      "street": "",
      "house": "",
      "postcode": "7300-405",
      "city": "REGUENGO",
      "lon": "-7.385756875520999",
      "lat": "39.303769309021796"
    },
    {
      "id": "pt.ine.add.PTCONT.3497780",
      "street": "",
      "house": "",
      "postcode": "7300-405",
      "city": "REGUENGO",
      "lon": "-7.390233825209782",
      "lat": "39.30687840070516"
    },
    {
      "id": "pt.ine.add.PTCONT.3498555",
      "street": "QTA AZEVEDO PEQUENO",
      "house": "23",
      "postcode": "7300-405",
      "city": "REGUENGO",
      "lon": "-7.386590322452879",
      "lat": "39.29297509880503"
    },
    {
      "id": "pt.ine.add.PTCONT.3500040",
      "street": "QTA CARRIL",
      "house": "",
      "postcode": "7300-405",
      "city": "REGUENGO",
      "lon": "-7.391805354469316",
      "lat": "39.30517706410002"
    },
    {
      "id": "pt.ine.add.PTCONT.3502827",
      "street": "QTA CARRIL",
      "house": "",
      "postcode": "7300-405",
      "city": "REGUENGO",
      "lon": "-7.391723824621267",
      "lat": "39.30521257343455"
    },
    {
      "id": "pt.ine.add.PTCONT.3504050",
      "street": "",
      "house": "",
      "postcode": "7300-405",
      "city": "REGUENGO",
      "lon": "-7.382338760179515",
      "lat": "39.28730928587606"
    },
    {
      "id": "pt.ine.add.PTCONT.3511438",
      "street": "",
      "house": "",
      "postcode": "7300-405",
      "city": "REGUENGO",
      "lon": "-7.3795990348492495",
      "lat": "39.289876639284905"
    },
    {
      "id": "pt.ine.add.PTCONT.3504835",
      "street": "EN 256-2",
      "house": "20A",
      "postcode": "7300-405",
      "city": "REGUENGO",
      "lon": "-7.39235770413754",
      "lat": "39.30227069103067"
    },
    {
      "id": "pt.ine.add.PTCONT.3505824",
      "street": "R IGREJA",
      "house": "1D",
      "postcode": "7300-405",
      "city": "REGUENGO",
      "lon": "-7.391565165732595",
      "lat": "39.296722497300856"
    },
    {
      "id": "pt.ine.add.PTCONT.3505829",
      "street": "",
      "house": "",
      "postcode": "7300-405",
      "city": "REGUENGO",
      "lon": "-7.3851391823286585",
      "lat": "39.291002227277595"
    },
    {
      "id": "pt.ine.add.PTCONT.3517719",
      "street": "",
      "house": "",
      "postcode": "7300-405",
      "city": "REGUENGO",
      "lon": "-7.370574905914876",
      "lat": "39.304346391918074"
    },
    {
      "id": "pt.ine.add.PTCONT.3508479",
      "street": "R MONTE DE PRATAS",
      "house": "4A",
      "postcode": "7300-405",
      "city": "REGUENGO",
      "lon": "-7.390588663706618",
      "lat": "39.296060383373536"
    },
    {
      "id": "pt.ine.add.PTCONT.3509079",
      "street": "QTA AZEVEDO PEQUENO",
      "house": "",
      "postcode": "7300-405",
      "city": "REGUENGO",
      "lon": "-7.385581827764647",
      "lat": "39.292977635215266"
    },
    {
      "id": "pt.ine.add.PTCONT.3509649",
      "street": "",
      "house": "",
      "postcode": "7300-405",
      "city": "REGUENGO",
      "lon": "-7.385890235747133",
      "lat": "39.303220730177465"
    },
    {
      "id": "pt.ine.add.PTCONT.3509648",
      "street": "",
      "house": "",
      "postcode": "7300-405",
      "city": "REGUENGO",
      "lon": "-7.385890235747133",
      "lat": "39.303220730177465"
    },
    {
      "id": "pt.ine.add.PTCONT.3509654",
      "street": "",
      "house": "",
      "postcode": "7300-405",
      "city": "REGUENGO",
      "lon": "-7.378332466139801",
      "lat": "39.29340824303901"
    },
    {
      "id": "pt.ine.add.PTCONT.3512852",
      "street": "R MONTE PRATAS",
      "house": "6A",
      "postcode": "7300-405",
      "city": "REGUENGO",
      "lon": "-7.3887953995110385",
      "lat": "39.296006609921"
    },
    {
      "id": "pt.ine.add.PTCONT.3521868",
      "street": "",
      "house": "",
      "postcode": "7300-405",
      "city": "REGUENGO",
      "lon": "-7.382943316898866",
      "lat": "39.28822290493526"
    },
    {
      "id": "pt.ine.add.PTCONT.3515114",
      "street": "R PRACINHA",
      "house": "2",
      "postcode": "7300-405",
      "city": "REGUENGO",
      "lon": "-7.390027550549926",
      "lat": "39.29787895881085"
    },
    {
      "id": "pt.ine.add.PTCONT.3515121",
      "street": "R MONTE DE PRATAS",
      "house": "2",
      "postcode": "7300-405",
      "city": "REGUENGO",
      "lon": "-7.3908017216598845",
      "lat": "39.29618355188809"
    },
    {
      "id": "pt.ine.add.PTCONT.3515122",
      "street": "R MONTE DE PRATAS",
      "house": "2",
      "postcode": "7300-405",
      "city": "REGUENGO",
      "lon": "-7.3908017216598845",
      "lat": "39.29618355188809"
    },
    {
      "id": "pt.ine.add.PTCONT.3515124",
      "street": "",
      "house": "",
      "postcode": "7300-405",
      "city": "REGUENGO",
      "lon": "-7.378053056932898",
      "lat": "39.29083412091628"
    },
    {
      "id": "pt.ine.add.PTCONT.3515696",
      "street": "",
      "house": "",
      "postcode": "7300-405",
      "city": "REGUENGO",
      "lon": "-7.381995377375817",
      "lat": "39.29124319540251"
    },
    {
      "id": "pt.ine.add.PTCONT.3515850",
      "street": "R PRACINHA",
      "house": "1",
      "postcode": "7300-405",
      "city": "REGUENGO",
      "lon": "-7.390114213903578",
      "lat": "39.29735709780354"
    },
    {
      "id": "pt.ine.add.PTCONT.3517041",
      "street": "",
      "house": "",
      "postcode": "7300-405",
      "city": "REGUENGO",
      "lon": "-7.377426063994298",
      "lat": "39.29105964070922"
    },
    {
      "id": "pt.ine.add.PTCONT.3517042",
      "street": "",
      "house": "",
      "postcode": "7300-405",
      "city": "REGUENGO",
      "lon": "-7.377426063994298",
      "lat": "39.29105964070922"
    },
    {
      "id": "pt.ine.add.PTCONT.3517043",
      "street": "",
      "house": "",
      "postcode": "7300-405",
      "city": "REGUENGO",
      "lon": "-7.379316235632859",
      "lat": "39.2913880092574"
    },
    {
      "id": "pt.ine.add.PTCONT.3519553",
      "street": "R IGREJA",
      "house": "",
      "postcode": "7300-405",
      "city": "REGUENGO",
      "lon": "-7.39052600608292",
      "lat": "39.29559975207747"
    },
    {
      "id": "pt.ine.add.PTCONT.3523200",
      "street": "R MONTE DE PRATAS",
      "house": "11A",
      "postcode": "7300-405",
      "city": "REGUENGO",
      "lon": "-7.389510682925556",
      "lat": "39.296278394573164"
    },
    {
      "id": "pt.ine.add.PTCONT.3525733",
      "street": "",
      "house": "",
      "postcode": "7300-405",
      "city": "REGUENGO",
      "lon": "-7.378221036379991",
      "lat": "39.29083147760417"
    },
    {
      "id": "pt.ine.add.PTCONT.3525730",
      "street": "R IGREJA",
      "house": "9",
      "postcode": "7300-405",
      "city": "REGUENGO",
      "lon": "-7.39128609753986",
      "lat": "39.296998608718766"
    },
    {
      "id": "pt.ine.add.PTCONT.3525735",
      "street": "",
      "house": "",
      "postcode": "7300-405",
      "city": "REGUENGO",
      "lon": "-7.3777813839676165",
      "lat": "39.29507099003791"
    },
    {
      "id": "pt.ine.add.PTCONT.3526236",
      "street": "R MONTE DE PRATAS",
      "house": "10A",
      "postcode": "7300-405",
      "city": "REGUENGO",
      "lon": "-7.389591007419957",
      "lat": "39.29640800783587"
    },
    {
      "id": "pt.ine.add.PTCONT.3526237",
      "street": "R MONTE DE PRATAS",
      "house": "9A",
      "postcode": "7300-405",
      "city": "REGUENGO",
      "lon": "-7.389769666113408",
      "lat": "39.2962523118079"
    },
    {
      "id": "pt.ine.add.PTCONT.3527024",
      "street": "SIT CABACO",
      "house": "17",
      "postcode": "7300-405",
      "city": "REGUENGO",
      "lon": "-7.391657648100711",
      "lat": "39.30419406530504"
    },
    {
      "id": "pt.ine.add.PTCONT.3527027",
      "street": "",
      "house": "",
      "postcode": "7300-405",
      "city": "REGUENGO",
      "lon": "-7.378092057172824",
      "lat": "39.29312746286637"
    },
    {
      "id": "pt.ine.add.PTCONT.3527673",
      "street": "QTA FIGUEIRAS",
      "house": "",
      "postcode": "7300-405",
      "city": "REGUENGO",
      "lon": "-7.3867761822598",
      "lat": "39.293448259375985"
    },
    {
      "id": "pt.ine.add.PTCONT.3527674",
      "street": "R MONTE DE PRATAS",
      "house": "3",
      "postcode": "7300-405",
      "city": "REGUENGO",
      "lon": "-7.390744975079052",
      "lat": "39.29619076777454"
    },
    {
      "id": "pt.ine.add.PTCONT.3528313",
      "street": "QTA CARRIL",
      "house": "",
      "postcode": "7300-405",
      "city": "REGUENGO",
      "lon": "-7.390325567696114",
      "lat": "39.30478032540958"
    },
    {
      "id": "pt.ine.add.PTCONT.3528314",
      "street": "SIT SITIO DO MONTE DE PRATAS",
      "house": "",
      "postcode": "7300-405",
      "city": "REGUENGO",
      "lon": "-7.38923945375631",
      "lat": "39.29676604782954"
    },
    {
      "id": "pt.ine.add.PTCONT.3529480",
      "street": "",
      "house": "",
      "postcode": "7300-405",
      "city": "REGUENGO",
      "lon": "-7.391760599570388",
      "lat": "39.30359367509509"
    },
    {
      "id": "pt.ine.add.PTCONT.3529481",
      "street": "",
      "house": "",
      "postcode": "7300-405",
      "city": "REGUENGO",
      "lon": "-7.381978416523894",
      "lat": "39.28740604043607"
    },
    {
      "id": "pt.ine.add.PTCONT.3529482",
      "street": "",
      "house": "",
      "postcode": "7300-405",
      "city": "REGUENGO",
      "lon": "-7.3817651075481185",
      "lat": "39.29109759529636"
    },
    {
      "id": "pt.ine.add.PTCONT.3530083",
      "street": "QTA RELVA",
      "house": "",
      "postcode": "7300-405",
      "city": "REGUENGO",
      "lon": "-7.383809882784327",
      "lat": "39.30805319239587"
    },
    {
      "id": "pt.ine.add.PTCONT.3530214",
      "street": "QTA RELVA",
      "house": "",
      "postcode": "7300-405",
      "city": "REGUENGO",
      "lon": "-7.383809882784327",
      "lat": "39.30805319239587"
    },
    {
      "id": "pt.ine.add.PTCONT.3532088",
      "street": "",
      "house": "",
      "postcode": "7300-405",
      "city": "REGUENGO",
      "lon": "-7.379938625991367",
      "lat": "39.289554579242875"
    },
    {
      "id": "pt.ine.add.PTCONT.3532089",
      "street": "",
      "house": "",
      "postcode": "7300-405",
      "city": "REGUENGO",
      "lon": "-7.378302169309555",
      "lat": "39.290832003617126"
    },
    {
      "id": "pt.ine.add.PTCONT.3532734",
      "street": "R PRACINHA",
      "house": "6",
      "postcode": "7300-405",
      "city": "REGUENGO",
      "lon": "-7.389556709691571",
      "lat": "39.296362753088545"
    },
    {
      "id": "pt.ine.add.PTCONT.3533086",
      "street": "",
      "house": "",
      "postcode": "7300-405",
      "city": "REGUENGO",
      "lon": "-7.382441914951368",
      "lat": "39.287418036817805"
    },
    {
      "id": "pt.ine.add.PTCONT.3533576",
      "street": "R MONTE DE PRATAS",
      "house": "10",
      "postcode": "7300-405",
      "city": "REGUENGO",
      "lon": "-7.3896714801734245",
      "lat": "39.296471571719536"
    },
    {
      "id": "pt.ine.add.PTCONT.3533578",
      "street": "",
      "house": "",
      "postcode": "7300-405",
      "city": "REGUENGO",
      "lon": "-7.382134229491052",
      "lat": "39.28801052468653"
    }
  ]
}