{
  "data": {
    "distrito": "Lisboa",
    "concelho": "Sintra",
    "freguesia": "Colares",
    "OBJECTID": 374,
    "BGRI2021": "11110500402",
    "DT21": "11",
    "DTMN21": "1111",
    "DTMNFR21": "111105",
    "DTMNFRSEC21": "111105004",
    "SECNUM21": "004",
    "SSNUM21": "02",
    "SECSSNUM21": "00402",
    "OBJECTID_1": 113656,
    "DT": "11",
    "CC": "11",
    "fr": "05",
    "SEC": "004",
    "SS": "02"
  },
  "addresses": [
    {
      "id": "pt.ine.add.PTCONT.2269983",
      "street": "R RIBEIRA VALENTE CHALE DOS TESOS",
      "house": "45",
      "postcode": "2705-272",
      "city": "COLARES",
      "lon": "-9.455201493394107",
      "lat": "38.791970786505594"
    },
    {
      "id": "pt.ine.add.PTCONT.2282016",
      "street": "R RIBEIRA VALENTE",
      "house": "",
      "postcode": "2705-272",
      "city": "COLARES",
      "lon": "-9.455593567723527",
      "lat": "38.79201138699368"
    },
    {
      "id": "pt.ine.add.PTCONT.2290791",
      "street": "LG QUINTA DO ALTO",
      "house": "8",
      "postcode": "2705-177",
      "city": "COLARES",
      "lon": "-9.456852175636131",
      "lat": "38.792231330225135"
    },
    {
      "id": "pt.ine.add.PTCONT.2293286",
      "street": "LG QUINTA DO ALTO",
      "house": "10",
      "postcode": "2705-177",
      "city": "COLARES",
      "lon": "-9.457184383522712",
      "lat": "38.792146497903744"
    },
    {
      "id": "pt.ine.add.PTCONT.2317834",
      "street": "R MIRAVALE",
      "house": "",
      "postcode": "2705-271",
      "city": "COLARES",
      "lon": "-9.454310158837714",
      "lat": "38.79107110621779"
    },
    {
      "id": "pt.ine.add.PTCONT.2317835",
      "street": "R RIBEIRA VALENTE QTALINHO DA RIBEIRA",
      "house": "51",
      "postcode": "2705-272",
      "city": "COLARES",
      "lon": "-9.455406125536047",
      "lat": "38.79183335746081"
    },
    {
      "id": "pt.ine.add.PTCONT.2335823",
      "street": "TV BELA VISTA",
      "house": "3",
      "postcode": "2705-258",
      "city": "COLARES",
      "lon": "-9.453725051111022",
      "lat": "38.79241984683364"
    },
    {
      "id": "pt.ine.add.PTCONT.2518215",
      "street": "",
      "house": "",
      "postcode": "2705-177",
      "city": "COLARES",
      "lon": "-9.456833338684946",
      "lat": "38.79183521136292"
    },
    {
      "id": "pt.ine.add.PTCONT.2526789",
      "street": "R RIBEIRA VALENTE",
      "house": "41",
      "postcode": "2705-272",
      "city": "COLARES",
      "lon": "-9.45516780390037",
      "lat": "38.792016205489055"
    },
    {
      "id": "pt.ine.add.PTCONT.2572357",
      "street": "CAM MAE D AGUA",
      "house": "10",
      "postcode": "2705-258",
      "city": "COLARES",
      "lon": "-9.454792922515853",
      "lat": "38.79166014469804"
    },
    {
      "id": "pt.ine.add.PTCONT.2572494",
      "street": "R RIBEIRA VALENTE CASA DAS QUATROS MARIAS",
      "house": "39",
      "postcode": "2705-272",
      "city": "COLARES",
      "lon": "-9.455111931932839",
      "lat": "38.79210691322523"
    },
    {
      "id": "pt.ine.add.PTCONT.2803345",
      "street": "R SAPATINHO",
      "house": "21",
      "postcode": "2705-258",
      "city": "COLARES",
      "lon": "-9.454308260445911",
      "lat": "38.79221508709621"
    },
    {
      "id": "pt.ine.add.PTCONT.2845488",
      "street": "CAM MOINHOS QTA OA URCA",
      "house": "",
      "postcode": "2705-271",
      "city": "COLARES",
      "lon": "-9.453208460620619",
      "lat": "38.78687702894171"
    },
    {
      "id": "pt.ine.add.PTCONT.2857306",
      "street": "R SAPATINHO CASA DO BECO",
      "house": "12",
      "postcode": "2705-258",
      "city": "COLARES",
      "lon": "-9.453873979885628",
      "lat": "38.79238213315898"
    },
    {
      "id": "pt.ine.add.PTCONT.2857307",
      "street": "R MIRAVALE CASA OS MADEIROS",
      "house": "39",
      "postcode": "2705-271",
      "city": "COLARES",
      "lon": "-9.4541973807383",
      "lat": "38.791820008511735"
    },
    {
      "id": "pt.ine.add.PTCONT.2866924",
      "street": "R QUINTA DO ALTO",
      "house": "24",
      "postcode": "2705-177",
      "city": "COLARES",
      "lon": "-9.458674973361896",
      "lat": "38.791841354294135"
    },
    {
      "id": "pt.ine.add.PTCONT.2866925",
      "street": "R QUINTA ALTO",
      "house": "22",
      "postcode": "2705-177",
      "city": "COLARES",
      "lon": "-9.458674973361896",
      "lat": "38.791841354294135"
    },
    {
      "id": "pt.ine.add.PTCONT.2866926",
      "street": "R QUINTA DO ALTO",
      "house": "24",
      "postcode": "2705-177",
      "city": "COLARES",
      "lon": "-9.458674973361896",
      "lat": "38.791841354294135"
    },
    {
      "id": "pt.ine.add.PTCONT.2923635",
      "street": "R QUINTA DO ALTO CASA GIRASOL",
      "house": "",
      "postcode": "2705-177",
      "city": "COLARES",
      "lon": "-9.45891462002375",
      "lat": "38.79173054453317"
    },
    {
      "id": "pt.ine.add.PTCONT.2958140",
      "street": "",
      "house": "",
      "postcode": "2705-177",
      "city": "COLARES",
      "lon": "-9.456942911902736",
      "lat": "38.79153672065251"
    },
    {
      "id": "pt.ine.add.PTCONT.2961034",
      "street": "R RIBEIRA VALENTE CHALE DOS TESOS",
      "house": "",
      "postcode": "2705-272",
      "city": "COLARES",
      "lon": "-9.455200162356173",
      "lat": "38.791898741140976"
    },
    {
      "id": "pt.ine.add.PTCONT.2969872",
      "street": "R QUINTA DO ALTO",
      "house": "",
      "postcode": "2705-177",
      "city": "COLARES",
      "lon": "-9.458587918364465",
      "lat": "38.79149104745373"
    },
    {
      "id": "pt.ine.add.PTCONT.2982253",
      "street": "CASINHA DA AVO",
      "house": "",
      "postcode": "2705-177",
      "city": "COLARES",
      "lon": "-9.457294455634067",
      "lat": "38.791875023886206"
    },
    {
      "id": "pt.ine.add.PTCONT.3022006",
      "street": "CASA DO MONTE",
      "house": "",
      "postcode": "2705-177",
      "city": "COLARES",
      "lon": "-9.457326310586222",
      "lat": "38.79173054201943"
    },
    {
      "id": "pt.ine.add.PTCONT.3024392",
      "street": "LG QUINTA DO ALTO",
      "house": "",
      "postcode": "2705-177",
      "city": "COLARES",
      "lon": "-9.456999269577125",
      "lat": "38.79209455029774"
    },
    {
      "id": "pt.ine.add.PTCONT.3031543",
      "street": "CAM MOINHOS QTA DA URCA",
      "house": "",
      "postcode": "2705-271",
      "city": "COLARES",
      "lon": "-9.453502849909809",
      "lat": "38.78599096134173"
    },
    {
      "id": "pt.ine.add.PTCONT.3253844",
      "street": "CASA DA TAPADA",
      "house": "",
      "postcode": "2705-177",
      "city": "COLARES",
      "lon": "-9.457164221768217",
      "lat": "38.7910568125705"
    },
    {
      "id": "pt.ine.add.PTCONT.3388570",
      "street": "R MIRAVALE",
      "house": "1",
      "postcode": "2705-271",
      "city": "COLARES",
      "lon": "-9.454730428795926",
      "lat": "38.79076910370819"
    }
  ]
}