{
  "data": {
    "distrito": "Lisboa",
    "concelho": "Sintra",
    "freguesia": "Colares",
    "OBJECTID": 3355,
    "BGRI2021": "11110500417",
    "DT21": "11",
    "DTMN21": "1111",
    "DTMNFR21": "111105",
    "DTMNFRSEC21": "111105004",
    "SECNUM21": "004",
    "SSNUM21": "17",
    "SECSSNUM21": "00417",
    "OBJECTID_1": 113657,
    "DT": "11",
    "CC": "11",
    "fr": "05",
    "SEC": "004",
    "SS": "17"
  },
  "addresses": [
    {
      "id": "pt.ine.add.PTCONT.2281998",
      "street": "R BURJACAS",
      "house": "11",
      "postcode": "2705-021",
      "city": "COLARES",
      "lon": "-9.46974747497809",
      "lat": "38.796173938287204"
    },
    {
      "id": "pt.ine.add.PTCONT.2282025",
      "street": "TV BEIRILAS",
      "house": "4",
      "postcode": "2705-012",
      "city": "COLARES",
      "lon": "-9.469059606801641",
      "lat": "38.7957044065002"
    },
    {
      "id": "pt.ine.add.PTCONT.2299837",
      "street": "BC PAROLAS",
      "house": "15",
      "postcode": "2705-056",
      "city": "COLARES",
      "lon": "-9.469005767574922",
      "lat": "38.795903187932424"
    },
    {
      "id": "pt.ine.add.PTCONT.2317846",
      "street": "R DR JOÃO RAUL BRANCO GUERREIRO",
      "house": "8",
      "postcode": "2705-043",
      "city": "COLARES",
      "lon": "-9.469174274404446",
      "lat": "38.79629759264424"
    },
    {
      "id": "pt.ine.add.PTCONT.2324153",
      "street": "AV DR BRANDÃO DE VASCONCELOS",
      "house": "75",
      "postcode": "2705-020",
      "city": "COLARES",
      "lon": "-9.469241879492337",
      "lat": "38.795603239213904"
    },
    {
      "id": "pt.ine.add.PTCONT.2344363",
      "street": "R COMBATENTES DA GRANDE GUERRA",
      "house": "2",
      "postcode": "2705-030",
      "city": "COLARES",
      "lon": "-9.468765619018997",
      "lat": "38.795987001444374"
    },
    {
      "id": "pt.ine.add.PTCONT.2390889",
      "street": "R BURJACAS",
      "house": "73",
      "postcode": "2705-021",
      "city": "COLARES",
      "lon": "-9.469586534936136",
      "lat": "38.79618478697331"
    },
    {
      "id": "pt.ine.add.PTCONT.2400403",
      "street": "LG RAMISCO",
      "house": "S",
      "postcode": "2705-067",
      "city": "COLARES",
      "lon": "-9.46927498519343",
      "lat": "38.79614331278567"
    },
    {
      "id": "pt.ine.add.PTCONT.2409491",
      "street": "R BURJACAS",
      "house": "1",
      "postcode": "2705-021",
      "city": "COLARES",
      "lon": "-9.469893037407664",
      "lat": "38.79595609201072"
    },
    {
      "id": "pt.ine.add.PTCONT.2427753",
      "street": "R BURJACAS",
      "house": "5",
      "postcode": "2705-021",
      "city": "COLARES",
      "lon": "-9.469733107277978",
      "lat": "38.79602097455569"
    },
    {
      "id": "pt.ine.add.PTCONT.2427754",
      "street": "R BURJACAS",
      "house": "3 A",
      "postcode": "2705-021",
      "city": "COLARES",
      "lon": "-9.469733107277978",
      "lat": "38.79602097455569"
    },
    {
      "id": "pt.ine.add.PTCONT.2463402",
      "street": "R COMBATENTES DA GRANDE GUERRA",
      "house": "4",
      "postcode": "2705-030",
      "city": "COLARES",
      "lon": "-9.468893044422583",
      "lat": "38.79603058229911"
    },
    {
      "id": "pt.ine.add.PTCONT.2469934",
      "street": "TV BEIRILAS",
      "house": "",
      "postcode": "2705-012",
      "city": "COLARES",
      "lon": "-9.46855377394263",
      "lat": "38.795737212081555"
    },
    {
      "id": "pt.ine.add.PTCONT.2502473",
      "street": "BC PAROLAS CASA DO CANTO",
      "house": "2",
      "postcode": "2705-056",
      "city": "COLARES",
      "lon": "-9.469202911818666",
      "lat": "38.79598200138821"
    },
    {
      "id": "pt.ine.add.PTCONT.2545306",
      "street": "R BURJACAS",
      "house": "9",
      "postcode": "2705-021",
      "city": "COLARES",
      "lon": "-9.469769481013218",
      "lat": "38.79611964130789"
    },
    {
      "id": "pt.ine.add.PTCONT.2572352",
      "street": "AV DR BRANDAO VASCONCELOS",
      "house": "63",
      "postcode": "2705-019",
      "city": "COLARES",
      "lon": "-9.470008619169354",
      "lat": "38.79598179208626"
    },
    {
      "id": "pt.ine.add.PTCONT.2572353",
      "street": "AV DR BRANDAO DE VASCONCELOS",
      "house": "61",
      "postcode": "2705-019",
      "city": "COLARES",
      "lon": "-9.470008619169354",
      "lat": "38.79598179208626"
    },
    {
      "id": "pt.ine.add.PTCONT.2572354",
      "street": "R VIUVA GOMES",
      "house": "2",
      "postcode": "2705-067",
      "city": "COLARES",
      "lon": "-9.470138906111844",
      "lat": "38.79617846693359"
    },
    {
      "id": "pt.ine.add.PTCONT.2581643",
      "street": "BC MOLEIRO",
      "house": "77",
      "postcode": "2705-052",
      "city": "COLARES",
      "lon": "-9.469066742650254",
      "lat": "38.79547012894239"
    },
    {
      "id": "pt.ine.add.PTCONT.2604007",
      "street": "TV BEIRILAS",
      "house": "2 A",
      "postcode": "2705-012",
      "city": "COLARES",
      "lon": "-9.46895603785985",
      "lat": "38.79570559073777"
    },
    {
      "id": "pt.ine.add.PTCONT.2625993",
      "street": "LG CABINE",
      "house": "9",
      "postcode": "2705-023",
      "city": "COLARES",
      "lon": "-9.468710265837512",
      "lat": "38.79610473221778"
    },
    {
      "id": "pt.ine.add.PTCONT.2625994",
      "street": "TV BEIRILAS",
      "house": "2",
      "postcode": "2705-012",
      "city": "COLARES",
      "lon": "-9.469013408021308",
      "lat": "38.795695927225076"
    },
    {
      "id": "pt.ine.add.PTCONT.2643538",
      "street": "BC PAROLAS",
      "house": "1",
      "postcode": "2705-056",
      "city": "COLARES",
      "lon": "-9.469238948464263",
      "lat": "38.79606265709376"
    },
    {
      "id": "pt.ine.add.PTCONT.2650232",
      "street": "LG CABINE PERTO DO NUMERO 8",
      "house": "",
      "postcode": "2705-023",
      "city": "COLARES",
      "lon": "-9.468913369778134",
      "lat": "38.795886229325994"
    },
    {
      "id": "pt.ine.add.PTCONT.2661573",
      "street": "LG CABINE",
      "house": "9",
      "postcode": "2705-023",
      "city": "COLARES",
      "lon": "-9.468831302882794",
      "lat": "38.79580609977803"
    },
    {
      "id": "pt.ine.add.PTCONT.2684338",
      "street": "LG RAMISCO",
      "house": "4",
      "postcode": "2705-067",
      "city": "COLARES",
      "lon": "-9.469160076056815",
      "lat": "38.7961536344371"
    },
    {
      "id": "pt.ine.add.PTCONT.2684339",
      "street": "R COMBATENTES DA GRANDE GUERRA",
      "house": "18",
      "postcode": "2705-030",
      "city": "COLARES",
      "lon": "-9.468557807948075",
      "lat": "38.79595334685895"
    },
    {
      "id": "pt.ine.add.PTCONT.2741844",
      "street": "LG CABINE",
      "house": "8",
      "postcode": "2705-023",
      "city": "COLARES",
      "lon": "-9.468650205755873",
      "lat": "38.79597030574639"
    },
    {
      "id": "pt.ine.add.PTCONT.2756483",
      "street": "R COMBATENTES DA GRANDE GUERRA",
      "house": "20",
      "postcode": "2705-030",
      "city": "COLARES",
      "lon": "-9.468545459831656",
      "lat": "38.7959084503186"
    },
    {
      "id": "pt.ine.add.PTCONT.2783188",
      "street": "BC PAROLAS",
      "house": "6",
      "postcode": "2705-056",
      "city": "COLARES",
      "lon": "-9.469133361123308",
      "lat": "38.79595577413929"
    },
    {
      "id": "pt.ine.add.PTCONT.2783189",
      "street": "BC PAROLAS",
      "house": "6",
      "postcode": "2705-056",
      "city": "COLARES",
      "lon": "-9.469133361123308",
      "lat": "38.79595577413929"
    },
    {
      "id": "pt.ine.add.PTCONT.2857529",
      "street": "TV BEIRILAS",
      "house": "6",
      "postcode": "2705-012",
      "city": "COLARES",
      "lon": "-9.46912848460469",
      "lat": "38.79569461134365"
    },
    {
      "id": "pt.ine.add.PTCONT.2866936",
      "street": "R BURJACAS",
      "house": "4",
      "postcode": "2705-021",
      "city": "COLARES",
      "lon": "-9.46963969984764",
      "lat": "38.79594998286149"
    },
    {
      "id": "pt.ine.add.PTCONT.2885450",
      "street": "TV BEIRILAS",
      "house": "S",
      "postcode": "2705-012",
      "city": "COLARES",
      "lon": "-9.46902373868994",
      "lat": "38.795632756342044"
    },
    {
      "id": "pt.ine.add.PTCONT.3049362",
      "street": "TV BEIRILAS",
      "house": "83",
      "postcode": "2705-012",
      "city": "COLARES",
      "lon": "-9.468920169850328",
      "lat": "38.79563394054602"
    },
    {
      "id": "pt.ine.add.PTCONT.3068912",
      "street": "BC PAROLAS",
      "house": "7",
      "postcode": "2705-056",
      "city": "COLARES",
      "lon": "-9.469111690957773",
      "lat": "38.79602808223475"
    },
    {
      "id": "pt.ine.add.PTCONT.3115101",
      "street": "AV DR BRANDÃO DE VASCONCELOS",
      "house": "59",
      "postcode": "2705-019",
      "city": "COLARES",
      "lon": "-9.469999467197278",
      "lat": "38.79610800230858"
    },
    {
      "id": "pt.ine.add.PTCONT.3115102",
      "street": "AV DR BRANDÃO DE VASCONCELOS",
      "house": "59",
      "postcode": "2705-019",
      "city": "COLARES",
      "lon": "-9.469999467197278",
      "lat": "38.79610800230858"
    },
    {
      "id": "pt.ine.add.PTCONT.3115137",
      "street": "BC PAROLAS ENTRADA PELA CASA DO CANTO",
      "house": "",
      "postcode": "2705-056",
      "city": "COLARES",
      "lon": "-9.468766795796546",
      "lat": "38.79605004074717"
    },
    {
      "id": "pt.ine.add.PTCONT.3124396",
      "street": "BC PAROLAS",
      "house": "13",
      "postcode": "2705-056",
      "city": "COLARES",
      "lon": "-9.468960241210578",
      "lat": "38.795930731094984"
    },
    {
      "id": "pt.ine.add.PTCONT.3124397",
      "street": "R DR JOÃO RAUL BRANCO GUERREIRO",
      "house": "10",
      "postcode": "2705-043",
      "city": "COLARES",
      "lon": "-9.468861379380916",
      "lat": "38.79618407245018"
    },
    {
      "id": "pt.ine.add.PTCONT.3136267",
      "street": "R COMBATENTES DA GRANDE GUERRA",
      "house": "14",
      "postcode": "2705-030",
      "city": "COLARES",
      "lon": "-9.469008962258618",
      "lat": "38.79607429459544"
    },
    {
      "id": "pt.ine.add.PTCONT.3154871",
      "street": "R COMBATENTES DA GRANDE GUERRA",
      "house": "16",
      "postcode": "2705-030",
      "city": "COLARES",
      "lon": "-9.469078513027007",
      "lat": "38.79610052191669"
    },
    {
      "id": "pt.ine.add.PTCONT.3162223",
      "street": "AV DR BRANDÃO DE VASCONCELOS",
      "house": "81",
      "postcode": "2705-020",
      "city": "COLARES",
      "lon": "-9.468931004981705",
      "lat": "38.79559778651352"
    },
    {
      "id": "pt.ine.add.PTCONT.3170247",
      "street": "R DR JOÃO RAUL BRANCO GUERREIRO",
      "house": "6",
      "postcode": "2705-043",
      "city": "COLARES",
      "lon": "-9.469242648240796",
      "lat": "38.796260780573576"
    },
    {
      "id": "pt.ine.add.PTCONT.3180438",
      "street": "R COMBATENTES DA GRANDE GUERRA",
      "house": "24",
      "postcode": "2705-030",
      "city": "COLARES",
      "lon": "-9.468521099805791",
      "lat": "38.79583666846384"
    },
    {
      "id": "pt.ine.add.PTCONT.3226756",
      "street": "BC PAROLAS",
      "house": "11",
      "postcode": "2705-056",
      "city": "COLARES",
      "lon": "-9.469007617125332",
      "lat": "38.79600224968533"
    },
    {
      "id": "pt.ine.add.PTCONT.3226757",
      "street": "BC PAROLAS",
      "house": "11",
      "postcode": "2705-056",
      "city": "COLARES",
      "lon": "-9.469007617125332",
      "lat": "38.79600224968533"
    },
    {
      "id": "pt.ine.add.PTCONT.3245220",
      "street": "AV DR BRANDÃO DE VASCONCELOS",
      "house": "87",
      "postcode": "2705-020",
      "city": "COLARES",
      "lon": "-9.469091775681852",
      "lat": "38.795577933137"
    },
    {
      "id": "pt.ine.add.PTCONT.3328430",
      "street": "R BURJACAS CASA BRANCA",
      "house": "7",
      "postcode": "2705-021",
      "city": "COLARES",
      "lon": "-9.469434243245315",
      "lat": "38.796042408408326"
    },
    {
      "id": "pt.ine.add.PTCONT.3337673",
      "street": "R DR JOÃO RAUL BRANCO GUERREIRO",
      "house": "10-12",
      "postcode": "2705-043",
      "city": "COLARES",
      "lon": "-9.469035845049204",
      "lat": "38.79628116053642"
    },
    {
      "id": "pt.ine.add.PTCONT.3337683",
      "street": "BC PAROLAS ENTRADA PELA CASA DO CANTO",
      "house": "",
      "postcode": "2705-056",
      "city": "COLARES",
      "lon": "-9.469086153266998",
      "lat": "38.795893261214765"
    },
    {
      "id": "pt.ine.add.PTCONT.3355439",
      "street": "LG CABINE",
      "house": "4",
      "postcode": "2705-023",
      "city": "COLARES",
      "lon": "-9.468695396064469",
      "lat": "38.7959247514721"
    },
    {
      "id": "pt.ine.add.PTCONT.3355440",
      "street": "BC MOLEIRO",
      "house": "",
      "postcode": "2705-052",
      "city": "COLARES",
      "lon": "-9.469079427303596",
      "lat": "38.795533036655065"
    },
    {
      "id": "pt.ine.add.PTCONT.3419710",
      "street": "BC PAROLAS",
      "house": "3",
      "postcode": "2705-056",
      "city": "COLARES",
      "lon": "-9.46916939767704",
      "lat": "38.79603642986826"
    },
    {
      "id": "pt.ine.add.PTCONT.3449997",
      "street": "R LAGARTO",
      "house": "5A",
      "postcode": "2705-044",
      "city": "COLARES",
      "lon": "-9.468725716529965",
      "lat": "38.795699216432986"
    }
  ]
}