{
  "data": {
    "ilha": "Ilha Terceira (Açores)",
    "concelho": "Angra do Heroísmo",
    "freguesia": "São Bartolomeu de Regatos",
    "OBJECTID": 158,
    "BGRI2021": "43011400210",
    "DT21": "43",
    "DTMN21": "4301",
    "DTMNFR21": "430114",
    "DTMNFRSEC21": "430114002",
    "SECNUM21": "002",
    "SSNUM21": "10",
    "SECSSNUM21": "00210",
    "OBJECTID_1": 208205,
    "DT": "43",
    "CC": "01",
    "fr": "14",
    "SEC": "002",
    "SS": "10",
    "BGRI2021_1": "43011400210"
  },
  "addresses": [
    {
      "id": "pt.ine.add.AC26.625",
      "street": "R MARTIRES DA PATRIA",
      "house": "",
      "postcode": "9700-518",
      "city": "SÃO BARTOLOMEU DE REGATOS",
      "lon": "-27.30171265108697",
      "lat": "38.67760290623524"
    },
    {
      "id": "pt.ine.add.AC26.3232",
      "street": "R MARTIRES DA PATRIA",
      "house": "35",
      "postcode": "9700-518",
      "city": "SÃO BARTOLOMEU DE REGATOS",
      "lon": "-27.301220992162378",
      "lat": "38.67824401329721"
    },
    {
      "id": "pt.ine.add.AC26.3233",
      "street": "R MARTIRES DA PATRIA",
      "house": "37",
      "postcode": "9700-518",
      "city": "SÃO BARTOLOMEU DE REGATOS",
      "lon": "-27.300968562026878",
      "lat": "38.67836181690617"
    },
    {
      "id": "pt.ine.add.AC26.3234",
      "street": "CAN DUAS RIBEIRAS",
      "house": "13",
      "postcode": "9700-512",
      "city": "SÃO BARTOLOMEU DE REGATOS",
      "lon": "-27.299779174831997",
      "lat": "38.67986083469858"
    },
    {
      "id": "pt.ine.add.AC26.48907",
      "street": "R MARTIRES DA PATRIA",
      "house": "",
      "postcode": "9700-518",
      "city": "SÃO BARTOLOMEU DE REGATOS",
      "lon": "-27.303248591462754",
      "lat": "38.67651751448234"
    },
    {
      "id": "pt.ine.add.AC26.56695",
      "street": "CAN DUAS RIBEIRAS",
      "house": "",
      "postcode": "9700-512",
      "city": "SÃO BARTOLOMEU DE REGATOS",
      "lon": "-27.299639373719494",
      "lat": "38.67941961349494"
    },
    {
      "id": "pt.ine.add.AC26.56699",
      "street": "R MARTIRES DA PATRIA",
      "house": "5",
      "postcode": "9700-518",
      "city": "SÃO BARTOLOMEU DE REGATOS",
      "lon": "-27.303030355167596",
      "lat": "38.676563139263386"
    },
    {
      "id": "pt.ine.add.AC26.58211",
      "street": "R MARTIRES DA PATRIA",
      "house": "23",
      "postcode": "9700-518",
      "city": "SÃO BARTOLOMEU DE REGATOS",
      "lon": "-27.301597915047154",
      "lat": "38.6776572731285"
    },
    {
      "id": "pt.ine.add.AC26.66438",
      "street": "CAN DUAS RIBEIRAS",
      "house": "1",
      "postcode": "9700-512",
      "city": "SÃO BARTOLOMEU DE REGATOS",
      "lon": "-27.30001019904768",
      "lat": "38.68012158524076"
    },
    {
      "id": "pt.ine.add.AC26.68414",
      "street": "CAN DUAS RIBEIRAS",
      "house": "55",
      "postcode": "9700-512",
      "city": "SÃO BARTOLOMEU DE REGATOS",
      "lon": "-27.299660826201738",
      "lat": "38.6790500736577"
    },
    {
      "id": "pt.ine.add.AC26.78439",
      "street": "AO SALTO",
      "house": "49",
      "postcode": "9700-526",
      "city": "SÃO BARTOLOMEU DE REGATOS",
      "lon": "-27.299854838321068",
      "lat": "38.67870712699466"
    },
    {
      "id": "pt.ine.add.AC26.80311",
      "street": "CAN DUAS RIBEIRAS",
      "house": "39",
      "postcode": "9700-512",
      "city": "SÃO BARTOLOMEU DE REGATOS",
      "lon": "-27.298022592598983",
      "lat": "38.68321772206471"
    },
    {
      "id": "pt.ine.add.AC26.87649",
      "street": "R MÁRTIRES DA PÁTRIA",
      "house": "",
      "postcode": "9700-505",
      "city": "SÃO BARTOLOMEU DE REGATOS",
      "lon": "-27.302664186878822",
      "lat": "38.676969619722406"
    },
    {
      "id": "pt.ine.add.AC26.100105",
      "street": "DUAS RIBEIRAS",
      "house": "5",
      "postcode": "9700-501",
      "city": "SÃO BARTOLOMEU DE REGATOS",
      "lon": "-27.299626787495445",
      "lat": "38.67915830278177"
    }
  ]
}