{
  "data": {
    "distrito": "Leiria",
    "concelho": "Leiria",
    "freguesia": "Coimbrão",
    "OBJECTID": 1585,
    "BGRI2021": "10090900105",
    "DT21": "10",
    "DTMN21": "1009",
    "DTMNFR21": "100909",
    "DTMNFRSEC21": "100909001",
    "SECNUM21": "001",
    "SSNUM21": "05",
    "SECSSNUM21": "00105",
    "OBJECTID_1": 91984,
    "DT": "10",
    "CC": "09",
    "fr": "09",
    "SEC": "001",
    "SS": "05"
  },
  "addresses": [
    {
      "id": "pt.ine.add.PTCONT.1993838",
      "street": "TV ANTÓNIO SECO",
      "house": "11",
      "postcode": "2425-458",
      "city": "COIMBRÃO",
      "lon": "-8.9505438475507",
      "lat": "39.92081618998951"
    },
    {
      "id": "pt.ine.add.PTCONT.1993839",
      "street": "TV ANTÓNIO SECO",
      "house": "11",
      "postcode": "2425-458",
      "city": "COIMBRÃO",
      "lon": "-8.9505438475507",
      "lat": "39.92081618998951"
    },
    {
      "id": "pt.ine.add.PTCONT.2000460",
      "street": "R PROF CARVALHO DOS SANTOS",
      "house": "16",
      "postcode": "2425-458",
      "city": "COIMBRÃO",
      "lon": "-8.950413288705034",
      "lat": "39.92087797757383"
    },
    {
      "id": "pt.ine.add.PTCONT.2010285",
      "street": "R CESAR FERREIRA DA CRUZ",
      "house": "22",
      "postcode": "2425-458",
      "city": "COIMBRÃO",
      "lon": "-8.950018532709883",
      "lat": "39.92081141745381"
    },
    {
      "id": "pt.ine.add.PTCONT.2027213",
      "street": "TV ANTÓNIO SECO",
      "house": "5",
      "postcode": "2425-458",
      "city": "COIMBRÃO",
      "lon": "-8.95016728826596",
      "lat": "39.92090687570621"
    },
    {
      "id": "pt.ine.add.PTCONT.2027214",
      "street": "TV ANTÓNIO SECO",
      "house": "5",
      "postcode": "2425-458",
      "city": "COIMBRÃO",
      "lon": "-8.95016728826596",
      "lat": "39.92090687570621"
    },
    {
      "id": "pt.ine.add.PTCONT.2109466",
      "street": "R CAP JOSE CURADO",
      "house": "22",
      "postcode": "2425-458",
      "city": "COIMBRÃO",
      "lon": "-8.950242761625118",
      "lat": "39.92102909418093"
    },
    {
      "id": "pt.ine.add.PTCONT.2118691",
      "street": "R PROF CARVALHO DOS SANTOS",
      "house": "",
      "postcode": "2425-458",
      "city": "COIMBRÃO",
      "lon": "-8.950348237844963",
      "lat": "39.92104636311937"
    },
    {
      "id": "pt.ine.add.PTCONT.2157854",
      "street": "R PROF CARVALHO DOS SANTOS",
      "house": "14",
      "postcode": "2425-458",
      "city": "COIMBRÃO",
      "lon": "-8.950446824866034",
      "lat": "39.92078337824962"
    },
    {
      "id": "pt.ine.add.PTCONT.2171047",
      "street": "TV ANTÓNIO SECO",
      "house": "2",
      "postcode": "2425-458",
      "city": "COIMBRÃO",
      "lon": "-8.950510479737313",
      "lat": "39.92091913326062"
    },
    {
      "id": "pt.ine.add.PTCONT.2171048",
      "street": "TV ANTÓNIO SECO",
      "house": "2",
      "postcode": "2425-458",
      "city": "COIMBRÃO",
      "lon": "-8.950510479737313",
      "lat": "39.92091913326062"
    },
    {
      "id": "pt.ine.add.PTCONT.2174144",
      "street": "R JOÃO LAGE LOPES",
      "house": "13",
      "postcode": "2425-458",
      "city": "COIMBRÃO",
      "lon": "-8.950679633510573",
      "lat": "39.920914122946805"
    },
    {
      "id": "pt.ine.add.PTCONT.2174250",
      "street": "R JOÃO LAGE LOPES",
      "house": "13",
      "postcode": "2425-458",
      "city": "COIMBRÃO",
      "lon": "-8.950679633510573",
      "lat": "39.920914122946805"
    },
    {
      "id": "pt.ine.add.PTCONT.2184025",
      "street": "R GASTAO AIRES NEVES",
      "house": "9",
      "postcode": "2425-458",
      "city": "COIMBRÃO",
      "lon": "-8.950684523882114",
      "lat": "39.92080082611339"
    },
    {
      "id": "pt.ine.add.PTCONT.2184026",
      "street": "R GASTAO AIRES NEVES",
      "house": "9A",
      "postcode": "2425-458",
      "city": "COIMBRÃO",
      "lon": "-8.950684523882114",
      "lat": "39.92080082611339"
    },
    {
      "id": "pt.ine.add.PTCONT.2184027",
      "street": "R GASTAO AIRES NEVES",
      "house": "9A",
      "postcode": "2425-458",
      "city": "COIMBRÃO",
      "lon": "-8.950684523882114",
      "lat": "39.92080082611339"
    },
    {
      "id": "pt.ine.add.PTCONT.2202128",
      "street": "R PROF CARVALHO SANTOS",
      "house": "14",
      "postcode": "2425-458",
      "city": "COIMBRÃO",
      "lon": "-8.950294404792771",
      "lat": "39.92084831434872"
    },
    {
      "id": "pt.ine.add.PTCONT.2204412",
      "street": "R PROF CARVALHO SANTOS",
      "house": "10",
      "postcode": "2425-458",
      "city": "COIMBRÃO",
      "lon": "-8.950481935253476",
      "lat": "39.92107516894638"
    },
    {
      "id": "pt.ine.add.PTCONT.2211075",
      "street": "R CESAR FERREIRA DA CRUZ",
      "house": "",
      "postcode": "2425-458",
      "city": "COIMBRÃO",
      "lon": "-8.949990030034922",
      "lat": "39.92091289071872"
    },
    {
      "id": "pt.ine.add.PTCONT.2212283",
      "street": "R CESAR FERREIRA DA CRUZ",
      "house": "",
      "postcode": "2425-458",
      "city": "COIMBRÃO",
      "lon": "-8.949990030034922",
      "lat": "39.92091289071872"
    },
    {
      "id": "pt.ine.add.PTCONT.2239228",
      "street": "R JOÃO LAGE LOPES",
      "house": "",
      "postcode": "2425-458",
      "city": "COIMBRÃO",
      "lon": "-8.950629686516129",
      "lat": "39.92110742215498"
    },
    {
      "id": "pt.ine.add.PTCONT.2239229",
      "street": "R PROF CARVALHO DOS SANTOS",
      "house": "10",
      "postcode": "2425-458",
      "city": "COIMBRÃO",
      "lon": "-8.950565601022403",
      "lat": "39.92108411123734"
    },
    {
      "id": "pt.ine.add.PTCONT.2241501",
      "street": "R CAP JOSE CURADO",
      "house": "23",
      "postcode": "2425-458",
      "city": "COIMBRÃO",
      "lon": "-8.950119939923255",
      "lat": "39.92101110259167"
    },
    {
      "id": "pt.ine.add.PTCONT.2244183",
      "street": "R GASTAO AIRES NEVES",
      "house": "13",
      "postcode": "2425-458",
      "city": "COIMBRÃO",
      "lon": "-8.950083286981323",
      "lat": "39.9207394739269"
    },
    {
      "id": "pt.ine.add.PTCONT.2252536",
      "street": "R PROF CARVALHO DOS SANTOS",
      "house": "",
      "postcode": "2425-458",
      "city": "COIMBRÃO",
      "lon": "-8.950370665834212",
      "lat": "39.920965149612194"
    },
    {
      "id": "pt.ine.add.PTCONT.2260943",
      "street": "TV ANTÓNIO SECO",
      "house": "11",
      "postcode": "2425-458",
      "city": "COIMBRÃO",
      "lon": "-8.9505438475507",
      "lat": "39.92081618998951"
    }
  ]
}