{
  "data": {
    "distrito": "Lisboa",
    "concelho": "Torres Vedras",
    "freguesia": "Uni√£o das freguesias de Dois Portos e Runa",
    "OBJECTID": 1543,
    "BGRI2021": "11132400114",
    "DT21": "11",
    "DTMN21": "1113",
    "DTMNFR21": "111324",
    "DTMNFRSEC21": "111324001",
    "SECNUM21": "001",
    "SSNUM21": "14",
    "SECSSNUM21": "00114",
    "OBJECTID_1": 116560,
    "DT": "11",
    "CC": "13",
    "fr": "24",
    "SEC": "001",
    "SS": "14"
  },
  "addresses": [
    {
      "id": "pt.ine.add.PTCONT.2282729",
      "street": "R IGREJA",
      "house": "14",
      "postcode": "2565-187",
      "city": "DOIS PORTOS",
      "lon": "-9.199024670226706",
      "lat": "39.05198816665804"
    },
    {
      "id": "pt.ine.add.PTCONT.2410331",
      "street": "R POCINHO",
      "house": "16",
      "postcode": "2565-187",
      "city": "DOIS PORTOS",
      "lon": "-9.202821311158237",
      "lat": "39.05249384361977"
    },
    {
      "id": "pt.ine.add.PTCONT.2563830",
      "street": "R POCINHO",
      "house": "26",
      "postcode": "2565-187",
      "city": "DOIS PORTOS",
      "lon": "-9.203776589759041",
      "lat": "39.05225989357749"
    },
    {
      "id": "pt.ine.add.PTCONT.2573638",
      "street": "R POCINHO",
      "house": "24",
      "postcode": "2565-187",
      "city": "DOIS PORTOS",
      "lon": "-9.203580642481162",
      "lat": "39.05228871442354"
    },
    {
      "id": "pt.ine.add.PTCONT.2645456",
      "street": "R QUINTA DA CABRITA",
      "house": "",
      "postcode": "2565-187",
      "city": "DOIS PORTOS",
      "lon": "-9.197443110561782",
      "lat": "39.05359691204363"
    },
    {
      "id": "pt.ine.add.PTCONT.2662435",
      "street": "TV RELOGIO DE SOL",
      "house": "1",
      "postcode": "2565-187",
      "city": "DOIS PORTOS",
      "lon": "-9.198343744886332",
      "lat": "39.052030417825094"
    },
    {
      "id": "pt.ine.add.PTCONT.2679643",
      "street": "R POCINHO",
      "house": "28",
      "postcode": "2565-187",
      "city": "DOIS PORTOS",
      "lon": "-9.203985175377698",
      "lat": "39.052303015098936"
    },
    {
      "id": "pt.ine.add.PTCONT.2683394",
      "street": "R POCINHO",
      "house": "18",
      "postcode": "2565-187",
      "city": "DOIS PORTOS",
      "lon": "-9.20285174983492",
      "lat": "39.05221433673606"
    },
    {
      "id": "pt.ine.add.PTCONT.2705989",
      "street": "R JOGO",
      "house": "22",
      "postcode": "2565-187",
      "city": "DOIS PORTOS",
      "lon": "-9.198273225460435",
      "lat": "39.051949995822085"
    },
    {
      "id": "pt.ine.add.PTCONT.2784693",
      "street": "R IGREJA",
      "house": "22",
      "postcode": "2565-187",
      "city": "DOIS PORTOS",
      "lon": "-9.19939685252776",
      "lat": "39.052155903848885"
    },
    {
      "id": "pt.ine.add.PTCONT.2784842",
      "street": "R IGREJA",
      "house": "",
      "postcode": "2565-187",
      "city": "DOIS PORTOS",
      "lon": "-9.198908355153858",
      "lat": "39.05193518565439"
    },
    {
      "id": "pt.ine.add.PTCONT.2801917",
      "street": "TV RELOGIO SOL",
      "house": "2",
      "postcode": "2565-187",
      "city": "DOIS PORTOS",
      "lon": "-9.198586165593548",
      "lat": "39.05201919587729"
    },
    {
      "id": "pt.ine.add.PTCONT.2814640",
      "street": "R IGREJA",
      "house": "40",
      "postcode": "2565-187",
      "city": "DOIS PORTOS",
      "lon": "-9.200577966370906",
      "lat": "39.05234326012511"
    },
    {
      "id": "pt.ine.add.PTCONT.2814641",
      "street": "R IGREJA",
      "house": "40",
      "postcode": "2565-187",
      "city": "DOIS PORTOS",
      "lon": "-9.200577966370906",
      "lat": "39.05234326012511"
    },
    {
      "id": "pt.ine.add.PTCONT.2822644",
      "street": "R POCINHO",
      "house": "4",
      "postcode": "2565-187",
      "city": "DOIS PORTOS",
      "lon": "-9.201190269505855",
      "lat": "39.05234666114363"
    },
    {
      "id": "pt.ine.add.PTCONT.2931270",
      "street": "R IGREJA",
      "house": "26",
      "postcode": "2565-187",
      "city": "DOIS PORTOS",
      "lon": "-9.19970979460199",
      "lat": "39.05222510085823"
    },
    {
      "id": "pt.ine.add.PTCONT.2931271",
      "street": "R IGREJA",
      "house": "18",
      "postcode": "2565-187",
      "city": "DOIS PORTOS",
      "lon": "-9.19970979460199",
      "lat": "39.05222510085823"
    },
    {
      "id": "pt.ine.add.PTCONT.2932955",
      "street": "R JOGO",
      "house": "12",
      "postcode": "2565-187",
      "city": "DOIS PORTOS",
      "lon": "-9.19816340469577",
      "lat": "39.05232930743549"
    },
    {
      "id": "pt.ine.add.PTCONT.3032355",
      "street": "R POCINHO",
      "house": "22",
      "postcode": "2565-187",
      "city": "DOIS PORTOS",
      "lon": "-9.203181274843901",
      "lat": "39.0526166440186"
    },
    {
      "id": "pt.ine.add.PTCONT.3041021",
      "street": "R IGREJA",
      "house": "20",
      "postcode": "2565-187",
      "city": "DOIS PORTOS",
      "lon": "-9.199257571738174",
      "lat": "39.05211214052613"
    },
    {
      "id": "pt.ine.add.PTCONT.3050235",
      "street": "R POCINHO",
      "house": "30",
      "postcode": "2565-187",
      "city": "DOIS PORTOS",
      "lon": "-9.204158974239574",
      "lat": "39.05233744839648"
    },
    {
      "id": "pt.ine.add.PTCONT.3088703",
      "street": "R JOGO",
      "house": "10",
      "postcode": "2565-187",
      "city": "DOIS PORTOS",
      "lon": "-9.198094914336746",
      "lat": "39.052383977006876"
    },
    {
      "id": "pt.ine.add.PTCONT.3116061",
      "street": "R IGREJA",
      "house": "36",
      "postcode": "2565-187",
      "city": "DOIS PORTOS",
      "lon": "-9.20027847107555",
      "lat": "39.05240004524685"
    },
    {
      "id": "pt.ine.add.PTCONT.3166864",
      "street": "R IGREJA",
      "house": "34",
      "postcode": "2565-187",
      "city": "DOIS PORTOS",
      "lon": "-9.200118121645048",
      "lat": "39.052491585942725"
    },
    {
      "id": "pt.ine.add.PTCONT.3261556",
      "street": "R POCINHO",
      "house": "6",
      "postcode": "2565-187",
      "city": "DOIS PORTOS",
      "lon": "-9.201317458812682",
      "lat": "39.05235450352371"
    },
    {
      "id": "pt.ine.add.PTCONT.3393042",
      "street": "TV RELOGIO DO SOL",
      "house": "2",
      "postcode": "2565-187",
      "city": "DOIS PORTOS",
      "lon": "-9.19821953285841",
      "lat": "39.052220706648164"
    },
    {
      "id": "pt.ine.add.PTCONT.3421828",
      "street": "R IGREJA",
      "house": "18",
      "postcode": "2565-187",
      "city": "DOIS PORTOS",
      "lon": "-9.199129570592532",
      "lat": "39.05205025923445"
    },
    {
      "id": "pt.ine.add.PTCONT.3445239",
      "street": "R POCINHO",
      "house": "2",
      "postcode": "2565-187",
      "city": "DOIS PORTOS",
      "lon": "-9.200912790311465",
      "lat": "39.05233118748662"
    }
  ]
}