{
  "data": {
    "distrito": "Setúbal",
    "concelho": "Palmela",
    "freguesia": "Palmela",
    "OBJECTID": 322,
    "BGRI2021": "15080200903",
    "DT21": "15",
    "DTMN21": "1508",
    "DTMNFR21": "150802",
    "DTMNFRSEC21": "150802009",
    "SECNUM21": "009",
    "SSNUM21": "03",
    "SECSSNUM21": "00903",
    "OBJECTID_1": 165527,
    "DT": "15",
    "CC": "08",
    "fr": "02",
    "SEC": "009",
    "SS": "03"
  },
  "addresses": [
    {
      "id": "pt.ine.add.PTCONT.4679235",
      "street": "ESTR RESTAURADORES DE PALMELA",
      "house": "",
      "postcode": "2950-041",
      "city": "PALMELA",
      "lon": "-8.928162371818853",
      "lat": "38.595073923816045"
    },
    {
      "id": "pt.ine.add.PTCONT.4682811",
      "street": "BC PAZ",
      "house": "",
      "postcode": "2950-041",
      "city": "PALMELA",
      "lon": "-8.928689799659432",
      "lat": "38.59606123956515"
    },
    {
      "id": "pt.ine.add.PTCONT.4711868",
      "street": "R ANTONIO RIBEIRO CONTENTE",
      "house": "FR H",
      "postcode": "2950-047",
      "city": "PALMELA",
      "lon": "-8.928387601720667",
      "lat": "38.595720982664055"
    },
    {
      "id": "pt.ine.add.PTCONT.4711869",
      "street": "ESTR RESTAURADORES PALMELA",
      "house": "37 38",
      "postcode": "2950-041",
      "city": "PALMELA",
      "lon": "-8.929953346059865",
      "lat": "38.59614272456221"
    },
    {
      "id": "pt.ine.add.PTCONT.4712016",
      "street": "ESTR RESTAURADORES PALMELA",
      "house": "40 304",
      "postcode": "2950-041",
      "city": "PALMELA",
      "lon": "-8.926063145795858",
      "lat": "38.59415131529379"
    },
    {
      "id": "pt.ine.add.PTCONT.4712017",
      "street": "EN 379",
      "house": "N 510",
      "postcode": "2950-064",
      "city": "PALMELA",
      "lon": "-8.92766754502728",
      "lat": "38.59496017810723"
    },
    {
      "id": "pt.ine.add.PTCONT.4723254",
      "street": "BC PAZ",
      "house": "4",
      "postcode": "2950-041",
      "city": "PALMELA",
      "lon": "-8.928965961516962",
      "lat": "38.596122419077474"
    },
    {
      "id": "pt.ine.add.PTCONT.4737793",
      "street": "AV MARECHAL COSTA GOMES",
      "house": "4",
      "postcode": "2950-049",
      "city": "PALMELA",
      "lon": "-8.930391891696909",
      "lat": "38.59635593398049"
    },
    {
      "id": "pt.ine.add.PTCONT.4742505",
      "street": "R ANTÓNIO RIBEIRO CONTENTE",
      "house": "3",
      "postcode": "2950-047",
      "city": "PALMELA",
      "lon": "-8.928132509436512",
      "lat": "38.5954885031526"
    },
    {
      "id": "pt.ine.add.PTCONT.4749159",
      "street": "ESTR RESTAURADORES DE PALMELA VILLA ETERNOS",
      "house": "2",
      "postcode": "2950-041",
      "city": "PALMELA",
      "lon": "-8.925475122883922",
      "lat": "38.59391207707487"
    },
    {
      "id": "pt.ine.add.PTCONT.4770720",
      "street": "ESTR RESTAURADORES DE PALMELA",
      "house": "",
      "postcode": "2950-041",
      "city": "PALMELA",
      "lon": "-8.930000153366986",
      "lat": "38.59622347947106"
    },
    {
      "id": "pt.ine.add.PTCONT.4770896",
      "street": "R ISIDORO VITORINO",
      "house": "",
      "postcode": "2950-047",
      "city": "PALMELA",
      "lon": "-8.929374250480041",
      "lat": "38.596714181707135"
    },
    {
      "id": "pt.ine.add.PTCONT.4776223",
      "street": "R ANTONIO RIBEIRO CONTENTE",
      "house": "4 D",
      "postcode": "2950-047",
      "city": "PALMELA",
      "lon": "-8.928267657470117",
      "lat": "38.5952533721642"
    },
    {
      "id": "pt.ine.add.PTCONT.4776224",
      "street": "ESTR RESTAURADORES DE PALMELA",
      "house": "",
      "postcode": "2950-041",
      "city": "PALMELA",
      "lon": "-8.929212800750316",
      "lat": "38.59560727373481"
    },
    {
      "id": "pt.ine.add.PTCONT.4806858",
      "street": "ESTR RESTAURADORES DE PALMELA",
      "house": "",
      "postcode": "2950-041",
      "city": "PALMELA",
      "lon": "-8.929097427274435",
      "lat": "38.595554009439006"
    },
    {
      "id": "pt.ine.add.PTCONT.4813682",
      "street": "ESTR RESTAURADORES DE PALMELA",
      "house": "",
      "postcode": "2950-041",
      "city": "PALMELA",
      "lon": "-8.927182510308059",
      "lat": "38.59469322470651"
    },
    {
      "id": "pt.ine.add.PTCONT.4813683",
      "street": "R ANTÓNIO RIBEIRO CONTENTE",
      "house": "",
      "postcode": "2950-047",
      "city": "PALMELA",
      "lon": "-8.928274216158885",
      "lat": "38.59584786771002"
    },
    {
      "id": "pt.ine.add.PTCONT.4814915",
      "street": "R ANTÓNIO RIBEIRO CONTENTE",
      "house": "4",
      "postcode": "2950-047",
      "city": "PALMELA",
      "lon": "-8.92851763363524",
      "lat": "38.596062409879146"
    },
    {
      "id": "pt.ine.add.PTCONT.4820127",
      "street": "R ANTÓNIO RIBEIRO CONTENTE",
      "house": "",
      "postcode": "2950-047",
      "city": "PALMELA",
      "lon": "-8.92891497828172",
      "lat": "38.59566334847205"
    },
    {
      "id": "pt.ine.add.PTCONT.4820128",
      "street": "BC PAZ",
      "house": "",
      "postcode": "2950-041",
      "city": "PALMELA",
      "lon": "-8.929182247820536",
      "lat": "38.59595880070034"
    },
    {
      "id": "pt.ine.add.PTCONT.4826962",
      "street": "ESTR RESTAURADORES DE PALMELA",
      "house": "",
      "postcode": "2950-041",
      "city": "PALMELA",
      "lon": "-8.929446732910593",
      "lat": "38.59600204214543"
    },
    {
      "id": "pt.ine.add.PTCONT.4828104",
      "street": "AV BOCAGE",
      "house": "2",
      "postcode": "2950-041",
      "city": "PALMELA",
      "lon": "-8.928993631076532",
      "lat": "38.59550967447626"
    },
    {
      "id": "pt.ine.add.PTCONT.4837474",
      "street": "ESTR RESTAURADORES DE PALMELA",
      "house": "3738",
      "postcode": "2950-041",
      "city": "PALMELA",
      "lon": "-8.930066828692096",
      "lat": "38.59602484542596"
    },
    {
      "id": "pt.ine.add.PTCONT.4859059",
      "street": "ESTR RESTAURADORES DE PALMELA",
      "house": "2",
      "postcode": "2950-041",
      "city": "PALMELA",
      "lon": "-8.925167905512327",
      "lat": "38.594157377817"
    },
    {
      "id": "pt.ine.add.PTCONT.4866135",
      "street": "AV MARECHAL COSTA GOMES",
      "house": "8",
      "postcode": "2950-049",
      "city": "PALMELA",
      "lon": "-8.929981679434476",
      "lat": "38.59662897342809"
    },
    {
      "id": "pt.ine.add.PTCONT.4872657",
      "street": "ESTR RESTAURADORES DE PALMELA",
      "house": "",
      "postcode": "2950-041",
      "city": "PALMELA",
      "lon": "-8.929593753409971",
      "lat": "38.5958028615985"
    },
    {
      "id": "pt.ine.add.PTCONT.4875288",
      "street": "ESTR RESTAURADORES DE PALMELA",
      "house": "",
      "postcode": "2950-041",
      "city": "PALMELA",
      "lon": "-8.926721128359063",
      "lat": "38.594489166173645"
    },
    {
      "id": "pt.ine.add.PTCONT.4897064",
      "street": "R ANTÓNIO RIBEIRO CONTENTE",
      "house": "",
      "postcode": "2950-047",
      "city": "PALMELA",
      "lon": "-8.928058722887343",
      "lat": "38.596083544494185"
    },
    {
      "id": "pt.ine.add.PTCONT.4905589",
      "street": "AV MARECHAL COSTA GOMES",
      "house": "10",
      "postcode": "2950-049",
      "city": "PALMELA",
      "lon": "-8.929878976513475",
      "lat": "38.59668372181406"
    },
    {
      "id": "pt.ine.add.PTCONT.4921331",
      "street": "EN 379",
      "house": "540",
      "postcode": "2950-064",
      "city": "PALMELA",
      "lon": "-8.927874538428412",
      "lat": "38.594994805274375"
    },
    {
      "id": "pt.ine.add.PTCONT.4928962",
      "street": "BC PAZ",
      "house": "N 5",
      "postcode": "2950-041",
      "city": "PALMELA",
      "lon": "-8.928576911183",
      "lat": "38.59623316242956"
    },
    {
      "id": "pt.ine.add.PTCONT.4937370",
      "street": "R ANTONIO RIBEIRO CONTENTE",
      "house": "FRACAO E",
      "postcode": "2950-047",
      "city": "PALMELA",
      "lon": "-8.928475148979164",
      "lat": "38.595333035796976"
    },
    {
      "id": "pt.ine.add.PTCONT.4969728",
      "street": "R ANTONIO RIBEIRO CONTENTE A",
      "house": "A",
      "postcode": "2950-047",
      "city": "PALMELA",
      "lon": "-8.927928295770492",
      "lat": "38.595706086712525"
    },
    {
      "id": "pt.ine.add.PTCONT.4984270",
      "street": "R ANTÓNIO RIBEIRO CONTENTE",
      "house": "",
      "postcode": "2950-047",
      "city": "PALMELA",
      "lon": "-8.928709573356175",
      "lat": "38.59577284328844"
    },
    {
      "id": "pt.ine.add.PTCONT.5002594",
      "street": "ESTR RESTAURADORES DE PALMELA",
      "house": "3360 A",
      "postcode": "2950-041",
      "city": "PALMELA",
      "lon": "-8.926421325663423",
      "lat": "38.59436508427144"
    },
    {
      "id": "pt.ine.add.PTCONT.5006034",
      "street": "ESTR RESTAURADORES DE PALMELA",
      "house": "",
      "postcode": "2950-041",
      "city": "PALMELA",
      "lon": "-8.926281910950507",
      "lat": "38.59421289009132"
    },
    {
      "id": "pt.ine.add.PTCONT.5009509",
      "street": "R ANTONIO RIBEIRO CONTENTE B",
      "house": "B",
      "postcode": "2950-047",
      "city": "PALMELA",
      "lon": "-8.928041582382889",
      "lat": "38.59557019448583"
    },
    {
      "id": "pt.ine.add.PTCONT.5014371",
      "street": "R ISIDORO VITORINO",
      "house": "",
      "postcode": "2950-047",
      "city": "PALMELA",
      "lon": "-8.927642247417468",
      "lat": "38.59578910279713"
    },
    {
      "id": "pt.ine.add.PTCONT.5014487",
      "street": "R ISIDORO VITORINO",
      "house": "",
      "postcode": "2950-047",
      "city": "PALMELA",
      "lon": "-8.927642247417468",
      "lat": "38.59578910279713"
    },
    {
      "id": "pt.ine.add.PTCONT.5017368",
      "street": "ESTR RESTAURADORES PALMELA",
      "house": "508 B",
      "postcode": "2950-041",
      "city": "PALMELA",
      "lon": "-8.927402766979128",
      "lat": "38.594889910047385"
    },
    {
      "id": "pt.ine.add.PTCONT.5017369",
      "street": "ESTR RESTAURADORES DE PALMELA",
      "house": "",
      "postcode": "2950-041",
      "city": "PALMELA",
      "lon": "-8.927402766979128",
      "lat": "38.594889910047385"
    },
    {
      "id": "pt.ine.add.PTCONT.5028485",
      "street": "ESTR RESTAURADORES DE PALMELA FLOR AZUL",
      "house": "",
      "postcode": "2950-041",
      "city": "PALMELA",
      "lon": "-8.929744755456255",
      "lat": "38.59596398105631"
    },
    {
      "id": "pt.ine.add.PTCONT.5032105",
      "street": "R ISIDORO VITORINO",
      "house": "8",
      "postcode": "2950-047",
      "city": "PALMELA",
      "lon": "-8.92870495632201",
      "lat": "38.59639443926757"
    },
    {
      "id": "pt.ine.add.PTCONT.5054240",
      "street": "R ANTÓNIO RIBEIRO CONTENTE",
      "house": "7",
      "postcode": "2950-047",
      "city": "PALMELA",
      "lon": "-8.92847842916437",
      "lat": "38.59563028355855"
    },
    {
      "id": "pt.ine.add.PTCONT.5079496",
      "street": "R ISIDORO VITORINO",
      "house": "",
      "postcode": "2950-047",
      "city": "PALMELA",
      "lon": "-8.92651029406911",
      "lat": "38.59514819327727"
    },
    {
      "id": "pt.ine.add.PTCONT.5096062",
      "street": "R ANTONIO RIBEIRO CONTENTE F",
      "house": "F 6",
      "postcode": "2950-047",
      "city": "PALMELA",
      "lon": "-8.928705397348962",
      "lat": "38.595394527983366"
    },
    {
      "id": "pt.ine.add.PTCONT.5101165",
      "street": "ESTR RESTAURADORES DE PALMELA",
      "house": "",
      "postcode": "2950-041",
      "city": "PALMELA",
      "lon": "-8.92652008605175",
      "lat": "38.59499498774446"
    },
    {
      "id": "pt.ine.add.PTCONT.5122678",
      "street": "R AVIARIO",
      "house": "",
      "postcode": "2950-064",
      "city": "PALMELA",
      "lon": "-8.925015828871638",
      "lat": "38.59389716955788"
    },
    {
      "id": "pt.ine.add.PTCONT.5122677",
      "street": "R AVIARIO",
      "house": "",
      "postcode": "2950-064",
      "city": "PALMELA",
      "lon": "-8.925015828871638",
      "lat": "38.59389716955788"
    },
    {
      "id": "pt.ine.add.PTCONT.5122679",
      "street": "R AVIARIO",
      "house": "",
      "postcode": "2950-064",
      "city": "PALMELA",
      "lon": "-8.925015828871638",
      "lat": "38.59389716955788"
    },
    {
      "id": "pt.ine.add.PTCONT.5129208",
      "street": "R AVIARIO",
      "house": "",
      "postcode": "2950-064",
      "city": "PALMELA",
      "lon": "-8.925015828871638",
      "lat": "38.59389716955788"
    }
  ]
}