{
  "data": {
    "distrito": "Castelo Branco",
    "concelho": "Idanha-A-Nova",
    "freguesia": "União das freguesias de Idanha-a-Nova e Alcafozes",
    "OBJECTID": 508,
    "BGRI2021": "05051800208",
    "DT21": "05",
    "DTMN21": "0505",
    "DTMNFR21": "050518",
    "DTMNFRSEC21": "050518002",
    "SECNUM21": "002",
    "SSNUM21": "08",
    "SECSSNUM21": "00208",
    "OBJECTID_1": 44483,
    "DT": "05",
    "CC": "05",
    "fr": "18",
    "SEC": "002",
    "SS": "08"
  },
  "addresses": [
    {
      "id": "pt.ine.add.PTCONT.952342",
      "street": "R DAS FLORES",
      "house": "31",
      "postcode": "6060-125",
      "city": "IDANHA-A-NOVA",
      "lon": "-7.236227544570636",
      "lat": "39.9226641776587"
    },
    {
      "id": "pt.ine.add.PTCONT.954598",
      "street": "R DAS FLORES",
      "house": "14",
      "postcode": "6060-125",
      "city": "IDANHA-A-NOVA",
      "lon": "-7.236311765151526",
      "lat": "39.92248470664884"
    },
    {
      "id": "pt.ine.add.PTCONT.961218",
      "street": "R ALM GAGO COUTINHO",
      "house": "14",
      "postcode": "6060-124",
      "city": "IDANHA-A-NOVA",
      "lon": "-7.2365047710713055",
      "lat": "39.92203589314952"
    },
    {
      "id": "pt.ine.add.PTCONT.969899",
      "street": "R DAS FLORES",
      "house": "27",
      "postcode": "6060-125",
      "city": "IDANHA-A-NOVA",
      "lon": "-7.236275032837558",
      "lat": "39.922610508251125"
    },
    {
      "id": "pt.ine.add.PTCONT.969905",
      "street": "R DAS FLORES",
      "house": "5",
      "postcode": "6060-125",
      "city": "IDANHA-A-NOVA",
      "lon": "-7.236372241315273",
      "lat": "39.92233207030164"
    },
    {
      "id": "pt.ine.add.PTCONT.975926",
      "street": "R ALM GAGO COUTINHO",
      "house": "19",
      "postcode": "6060-124",
      "city": "IDANHA-A-NOVA",
      "lon": "-7.236480792305311",
      "lat": "39.92208073833904"
    },
    {
      "id": "pt.ine.add.PTCONT.981241",
      "street": "R ALM GAGO COUTINHO",
      "house": "24",
      "postcode": "6060-124",
      "city": "IDANHA-A-NOVA",
      "lon": "-7.236385346843665",
      "lat": "39.922224098182085"
    },
    {
      "id": "pt.ine.add.PTCONT.984747",
      "street": "R DOS AÇOUGUES",
      "house": "10",
      "postcode": "6060-140",
      "city": "IDANHA-A-NOVA",
      "lon": "-7.235553944890038",
      "lat": "39.92319032637092"
    },
    {
      "id": "pt.ine.add.PTCONT.991819",
      "street": "R DAS FLORES",
      "house": "1",
      "postcode": "6060-125",
      "city": "IDANHA-A-NOVA",
      "lon": "-7.236502656721345",
      "lat": "39.92219798702159"
    },
    {
      "id": "pt.ine.add.PTCONT.1009489",
      "street": "R DE STO ANDRÉ",
      "house": "44",
      "postcode": "6060-140",
      "city": "IDANHA-A-NOVA",
      "lon": "-7.236054457734246",
      "lat": "39.92248271619395"
    },
    {
      "id": "pt.ine.add.PTCONT.1018815",
      "street": "R DE STO ANDRÉ",
      "house": "38",
      "postcode": "6060-124",
      "city": "IDANHA-A-NOVA",
      "lon": "-7.236114229369894",
      "lat": "39.92238411126994"
    },
    {
      "id": "pt.ine.add.PTCONT.1018816",
      "street": "R ALM GAGO COUTINHO",
      "house": "32",
      "postcode": "6060-124",
      "city": "IDANHA-A-NOVA",
      "lon": "-7.236244057881964",
      "lat": "39.92229505435913"
    },
    {
      "id": "pt.ine.add.PTCONT.1019779",
      "street": "R ALM GAGO COUTINHO",
      "house": "10",
      "postcode": "6060-124",
      "city": "IDANHA-A-NOVA",
      "lon": "-7.236552141223621",
      "lat": "39.92199122883089"
    },
    {
      "id": "pt.ine.add.PTCONT.1020693",
      "street": "R DOS AÇOUGUES",
      "house": "36",
      "postcode": "6060-140",
      "city": "IDANHA-A-NOVA",
      "lon": "-7.2352041263631195",
      "lat": "39.923106562747236"
    },
    {
      "id": "pt.ine.add.PTCONT.1022182",
      "street": "R DAS FLORES",
      "house": "15",
      "postcode": "6060-125",
      "city": "IDANHA-A-NOVA",
      "lon": "-7.236206620527504",
      "lat": "39.92247488722703"
    },
    {
      "id": "pt.ine.add.PTCONT.1023599",
      "street": "R DAS FLORES",
      "house": "25",
      "postcode": "6060-125",
      "city": "IDANHA-A-NOVA",
      "lon": "-7.236322521029896",
      "lat": "39.922556838822835"
    },
    {
      "id": "pt.ine.add.PTCONT.1029238",
      "street": "R VAZ PRETO",
      "house": "122",
      "postcode": "6060-126",
      "city": "IDANHA-A-NOVA",
      "lon": "-7.2368307246836885",
      "lat": "39.92215549286891"
    },
    {
      "id": "pt.ine.add.PTCONT.1032206",
      "street": "R VAZ PRETO",
      "house": "118",
      "postcode": "6060-126",
      "city": "IDANHA-A-NOVA",
      "lon": "-7.23661796987323",
      "lat": "39.92232496439962"
    },
    {
      "id": "pt.ine.add.PTCONT.1034818",
      "street": "R ALM GAGO COUTINHO",
      "house": "36",
      "postcode": "6060-124",
      "city": "IDANHA-A-NOVA",
      "lon": "-7.236185226564526",
      "lat": "39.92232161764289"
    },
    {
      "id": "pt.ine.add.PTCONT.1035875",
      "street": "R DE STO ANDRÉ",
      "house": "40",
      "postcode": "6060-140",
      "city": "IDANHA-A-NOVA",
      "lon": "-7.236090132705493",
      "lat": "39.92243796158545"
    },
    {
      "id": "pt.ine.add.PTCONT.1043128",
      "street": "LG DE NSA SRA DO ROSÁRIO",
      "house": "10",
      "postcode": "6060-145",
      "city": "IDANHA-A-NOVA",
      "lon": "-7.2368800907548305",
      "lat": "39.92195773974167"
    },
    {
      "id": "pt.ine.add.PTCONT.1047213",
      "street": "R DAS FLORES",
      "house": "23",
      "postcode": "6060-125",
      "city": "IDANHA-A-NOVA",
      "lon": "-7.236369774181531",
      "lat": "39.92252117980207"
    },
    {
      "id": "pt.ine.add.PTCONT.1050810",
      "street": "R VAZ PRETO",
      "house": "130",
      "postcode": "6060-126",
      "city": "IDANHA-A-NOVA",
      "lon": "-7.236867455725117",
      "lat": "39.9220296910668"
    },
    {
      "id": "pt.ine.add.PTCONT.1055316",
      "street": "R DOS AÇOUGUES",
      "house": "34",
      "postcode": "6060-140",
      "city": "IDANHA-A-NOVA",
      "lon": "-7.2353574667950245",
      "lat": "39.923008682805296"
    },
    {
      "id": "pt.ine.add.PTCONT.1056670",
      "street": "TV DE NSA SRA DO ROSÁRIO",
      "house": "4",
      "postcode": "6060-145",
      "city": "IDANHA-A-NOVA",
      "lon": "-7.236728633770106",
      "lat": "39.92191153831107"
    },
    {
      "id": "pt.ine.add.PTCONT.1058523",
      "street": "R ALM GAGO COUTINHO",
      "house": "31",
      "postcode": "6060-124",
      "city": "IDANHA-A-NOVA",
      "lon": "-7.236337858934653",
      "lat": "39.922277767642306"
    },
    {
      "id": "pt.ine.add.PTCONT.1068998",
      "street": "R DAS FLORES",
      "house": "7",
      "postcode": "6060-125",
      "city": "IDANHA-A-NOVA",
      "lon": "-7.236278322701953",
      "lat": "39.92235836225963"
    },
    {
      "id": "pt.ine.add.PTCONT.1071231",
      "street": "R DAS FLORES",
      "house": "6",
      "postcode": "6060-125",
      "city": "IDANHA-A-NOVA",
      "lon": "-7.236453759267983",
      "lat": "39.92235971910771"
    },
    {
      "id": "pt.ine.add.PTCONT.1071547",
      "street": "R DAS FLORES",
      "house": "12",
      "postcode": "6060-125",
      "city": "IDANHA-A-NOVA",
      "lon": "-7.236581355663837",
      "lat": "39.922441760894735"
    },
    {
      "id": "pt.ine.add.PTCONT.1073402",
      "street": "R ALM GAGO COUTINHO",
      "house": "20",
      "postcode": "6060-124",
      "city": "IDANHA-A-NOVA",
      "lon": "-7.236444765360927",
      "lat": "39.92215250872018"
    },
    {
      "id": "pt.ine.add.PTCONT.1085910",
      "street": "R DAS FLORES",
      "house": "13",
      "postcode": "6060-125",
      "city": "IDANHA-A-NOVA",
      "lon": "-7.23623071711458",
      "lat": "39.92242103688679"
    },
    {
      "id": "pt.ine.add.PTCONT.1085911",
      "street": "R DAS FLORES",
      "house": "3",
      "postcode": "6060-125",
      "city": "IDANHA-A-NOVA",
      "lon": "-7.236431424993554",
      "lat": "39.92227849127838"
    },
    {
      "id": "pt.ine.add.PTCONT.1090527",
      "street": "R DAS FLORES",
      "house": "9",
      "postcode": "6060-125",
      "city": "IDANHA-A-NOVA",
      "lon": "-7.236277735229205",
      "lat": "39.92240338833038"
    },
    {
      "id": "pt.ine.add.PTCONT.1090866",
      "street": "R DE NSA SRA DO ROSÁRIO",
      "house": "8",
      "postcode": "6060-145",
      "city": "IDANHA-A-NOVA",
      "lon": "-7.236670742495778",
      "lat": "39.921866060121246"
    },
    {
      "id": "pt.ine.add.PTCONT.1090868",
      "street": "R DE NSA SRA DO ROSÁRIO",
      "house": "10",
      "postcode": "6060-145",
      "city": "IDANHA-A-NOVA",
      "lon": "-7.236624194637593",
      "lat": "39.921847687980645"
    },
    {
      "id": "pt.ine.add.PTCONT.1091538",
      "street": "R ALM GAGO COUTINHO",
      "house": "28",
      "postcode": "6060-124",
      "city": "IDANHA-A-NOVA",
      "lon": "-7.236279497643478",
      "lat": "39.92226831011708"
    }
  ]
}