{
  "data": {
    "distrito": "Lisboa",
    "concelho": "Odivelas",
    "freguesia": "União das freguesias de Pontinha e Famões",
    "OBJECTID": 388,
    "BGRI2021": "11160800205",
    "DT21": "11",
    "DTMN21": "1116",
    "DTMNFR21": "111608",
    "DTMNFRSEC21": "111608002",
    "SECNUM21": "002",
    "SSNUM21": "05",
    "SECSSNUM21": "00205",
    "OBJECTID_1": 120114,
    "DT": "11",
    "CC": "16",
    "fr": "08",
    "SEC": "002",
    "SS": "05"
  },
  "addresses": [
    {
      "id": "pt.ine.add.PTCONT.2310730",
      "street": "R FELICIANO ANTÓNIO DE CARVALHO",
      "house": "",
      "postcode": "1685-645",
      "city": "FAMÕES",
      "lon": "-9.210766283942593",
      "lat": "38.788589957017834"
    },
    {
      "id": "pt.ine.add.PTCONT.2310731",
      "street": "R FELICIANO ANTÓNIO DE CARVALHO",
      "house": "",
      "postcode": "1685-645",
      "city": "FAMÕES",
      "lon": "-9.210766283942593",
      "lat": "38.788589957017834"
    },
    {
      "id": "pt.ine.add.PTCONT.2325829",
      "street": "R MOINHOS",
      "house": "",
      "postcode": "1685-651",
      "city": "FAMÕES",
      "lon": "-9.210526251004477",
      "lat": "38.78870026335895"
    },
    {
      "id": "pt.ine.add.PTCONT.2420777",
      "street": "R MARECHAL GOMES DA COSTA",
      "house": "",
      "postcode": "1685-901",
      "city": "FAMÕES",
      "lon": "-9.209451300693532",
      "lat": "38.78839489963127"
    },
    {
      "id": "pt.ine.add.PTCONT.2420778",
      "street": "R MARECHAL GOMES DA COSTA",
      "house": "",
      "postcode": "1685-901",
      "city": "FAMÕES",
      "lon": "-9.209451300693532",
      "lat": "38.78839489963127"
    },
    {
      "id": "pt.ine.add.PTCONT.2420779",
      "street": "R MARECHAL GOMES DA COSTA",
      "house": "",
      "postcode": "1685-901",
      "city": "FAMÕES",
      "lon": "-9.209451300693532",
      "lat": "38.78839489963127"
    },
    {
      "id": "pt.ine.add.PTCONT.2447254",
      "street": "R MOINHOS",
      "house": "19",
      "postcode": "1685-651",
      "city": "FAMÕES",
      "lon": "-9.210416054984142",
      "lat": "38.78902555779057"
    },
    {
      "id": "pt.ine.add.PTCONT.2483478",
      "street": "R MOINHOS",
      "house": "",
      "postcode": "1685-651",
      "city": "FAMÕES",
      "lon": "-9.210599771139954",
      "lat": "38.788996840605996"
    },
    {
      "id": "pt.ine.add.PTCONT.2483479",
      "street": "R MOINHOS",
      "house": "",
      "postcode": "1685-651",
      "city": "FAMÕES",
      "lon": "-9.210599771139954",
      "lat": "38.788996840605996"
    },
    {
      "id": "pt.ine.add.PTCONT.2483480",
      "street": "R MOINHOS",
      "house": "",
      "postcode": "1685-651",
      "city": "FAMÕES",
      "lon": "-9.210599771139954",
      "lat": "38.788996840605996"
    },
    {
      "id": "pt.ine.add.PTCONT.2483481",
      "street": "R MOINHOS",
      "house": "",
      "postcode": "1685-651",
      "city": "FAMÕES",
      "lon": "-9.210599771139954",
      "lat": "38.788996840605996"
    },
    {
      "id": "pt.ine.add.PTCONT.2520412",
      "street": "R MOINHOS",
      "house": "",
      "postcode": "1685-651",
      "city": "FAMÕES",
      "lon": "-9.210227730295873",
      "lat": "38.7887480542461"
    },
    {
      "id": "pt.ine.add.PTCONT.2565363",
      "street": "R MOINHOS",
      "house": "35",
      "postcode": "1685-651",
      "city": "FAMÕES",
      "lon": "-9.210609109401657",
      "lat": "38.78885263076901"
    },
    {
      "id": "pt.ine.add.PTCONT.2591813",
      "street": "R MOINHOS",
      "house": "VIVENDA",
      "postcode": "1685-651",
      "city": "FAMÕES",
      "lon": "-9.210287843889347",
      "lat": "38.78891864701723"
    },
    {
      "id": "pt.ine.add.PTCONT.2591847",
      "street": "R MOINHOS",
      "house": "",
      "postcode": "1685-651",
      "city": "FAMÕES",
      "lon": "-9.210032506969068",
      "lat": "38.78877687690162"
    },
    {
      "id": "pt.ine.add.PTCONT.2671800",
      "street": "R FELICIANO ANTÓNIO DE CARVALHO",
      "house": "",
      "postcode": "1685-645",
      "city": "FAMÕES",
      "lon": "-9.21045395160389",
      "lat": "38.7884847443948"
    },
    {
      "id": "pt.ine.add.PTCONT.2705356",
      "street": "R MARECHAL GOMES DA COSTA",
      "house": "",
      "postcode": "1685-901",
      "city": "FAMÕES",
      "lon": "-9.20982997602281",
      "lat": "38.7890850063007"
    },
    {
      "id": "pt.ine.add.PTCONT.2705357",
      "street": "R MARECHAL GOMES DA COSTA",
      "house": "",
      "postcode": "1685-901",
      "city": "FAMÕES",
      "lon": "-9.20982997602281",
      "lat": "38.7890850063007"
    },
    {
      "id": "pt.ine.add.PTCONT.2741438",
      "street": "R MOINHOS",
      "house": "",
      "postcode": "1685-651",
      "city": "FAMÕES",
      "lon": "-9.210106025151813",
      "lat": "38.78907345448372"
    },
    {
      "id": "pt.ine.add.PTCONT.2741439",
      "street": "R MOINHOS",
      "house": "",
      "postcode": "1685-651",
      "city": "FAMÕES",
      "lon": "-9.210106025151813",
      "lat": "38.78907345448372"
    },
    {
      "id": "pt.ine.add.PTCONT.2741440",
      "street": "R MOINHOS",
      "house": "",
      "postcode": "1685-651",
      "city": "FAMÕES",
      "lon": "-9.210106025151813",
      "lat": "38.78907345448372"
    },
    {
      "id": "pt.ine.add.PTCONT.2746247",
      "street": "R MOINHOS",
      "house": "",
      "postcode": "1685-651",
      "city": "FAMÕES",
      "lon": "-9.210106025151813",
      "lat": "38.78907345448372"
    },
    {
      "id": "pt.ine.add.PTCONT.2920305",
      "street": "R MOINHOS",
      "house": "",
      "postcode": "1685-651",
      "city": "FAMÕES",
      "lon": "-9.210746387618583",
      "lat": "38.78879731837654"
    },
    {
      "id": "pt.ine.add.PTCONT.2926054",
      "street": "R MOINHOS",
      "house": "",
      "postcode": "1685-651",
      "city": "FAMÕES",
      "lon": "-9.210746387618583",
      "lat": "38.78879731837654"
    },
    {
      "id": "pt.ine.add.PTCONT.2949383",
      "street": "R MOINHOS",
      "house": "20",
      "postcode": "1685-651",
      "city": "FAMÕES",
      "lon": "-9.2103013848026",
      "lat": "38.7890536381788"
    },
    {
      "id": "pt.ine.add.PTCONT.2949384",
      "street": "R MOINHOS",
      "house": "20",
      "postcode": "1685-651",
      "city": "FAMÕES",
      "lon": "-9.2103013848026",
      "lat": "38.7890536381788"
    },
    {
      "id": "pt.ine.add.PTCONT.3014848",
      "street": "R MARECHAL GOMES DA COSTA FELISBELA",
      "house": "",
      "postcode": "1685-901",
      "city": "FAMÕES",
      "lon": "-9.20975713636982",
      "lat": "38.78883346095495"
    },
    {
      "id": "pt.ine.add.PTCONT.3098581",
      "street": "R MARECHAL GOMES DA COSTA MA",
      "house": "",
      "postcode": "1685-901",
      "city": "FAMÕES",
      "lon": "-9.209855014574204",
      "lat": "38.78845423422723"
    },
    {
      "id": "pt.ine.add.PTCONT.3126319",
      "street": "R MOINHOS",
      "house": "28",
      "postcode": "1685-651",
      "city": "FAMÕES",
      "lon": "-9.210081247975815",
      "lat": "38.7889565823296"
    },
    {
      "id": "pt.ine.add.PTCONT.3126320",
      "street": "R MOINHOS",
      "house": "28",
      "postcode": "1685-651",
      "city": "FAMÕES",
      "lon": "-9.210081247975815",
      "lat": "38.7889565823296"
    },
    {
      "id": "pt.ine.add.PTCONT.3126321",
      "street": "R MOINHOS",
      "house": "28",
      "postcode": "1685-651",
      "city": "FAMÕES",
      "lon": "-9.210081247975815",
      "lat": "38.7889565823296"
    },
    {
      "id": "pt.ine.add.PTCONT.3127120",
      "street": "R MOINHOS",
      "house": "",
      "postcode": "1685-651",
      "city": "FAMÕES",
      "lon": "-9.210081247975815",
      "lat": "38.7889565823296"
    },
    {
      "id": "pt.ine.add.PTCONT.3198091",
      "street": "R MOINHOS",
      "house": "",
      "postcode": "1685-651",
      "city": "FAMÕES",
      "lon": "-9.210794452366759",
      "lat": "38.788931991070996"
    },
    {
      "id": "pt.ine.add.PTCONT.3198092",
      "street": "R MOINHOS",
      "house": "",
      "postcode": "1685-651",
      "city": "FAMÕES",
      "lon": "-9.210794452366759",
      "lat": "38.788931991070996"
    },
    {
      "id": "pt.ine.add.PTCONT.3198093",
      "street": "R MOINHOS",
      "house": "",
      "postcode": "1685-651",
      "city": "FAMÕES",
      "lon": "-9.210794452366759",
      "lat": "38.788931991070996"
    },
    {
      "id": "pt.ine.add.PTCONT.3202289",
      "street": "R MOINHOS",
      "house": "",
      "postcode": "1685-651",
      "city": "FAMÕES",
      "lon": "-9.210794452366759",
      "lat": "38.788931991070996"
    },
    {
      "id": "pt.ine.add.PTCONT.3202290",
      "street": "R MOINHOS",
      "house": "",
      "postcode": "1685-651",
      "city": "FAMÕES",
      "lon": "-9.210794452366759",
      "lat": "38.788931991070996"
    },
    {
      "id": "pt.ine.add.PTCONT.3209878",
      "street": "R MOINHOS",
      "house": "",
      "postcode": "1685-651",
      "city": "FAMÕES",
      "lon": "-9.211171085173966",
      "lat": "38.78872133888574"
    },
    {
      "id": "pt.ine.add.PTCONT.3209879",
      "street": "R MOINHOS",
      "house": "",
      "postcode": "1685-651",
      "city": "FAMÕES",
      "lon": "-9.211171085173966",
      "lat": "38.78872133888574"
    },
    {
      "id": "pt.ine.add.PTCONT.3211309",
      "street": "R MOINHOS",
      "house": "",
      "postcode": "1685-651",
      "city": "FAMÕES",
      "lon": "-9.211171085173966",
      "lat": "38.78872133888574"
    },
    {
      "id": "pt.ine.add.PTCONT.3255610",
      "street": "R FELICIANO ANTÓNIO DE CARVALHO",
      "house": "",
      "postcode": "1685-645",
      "city": "FAMÕES",
      "lon": "-9.21056956988422",
      "lat": "38.78851970925066"
    },
    {
      "id": "pt.ine.add.PTCONT.3255611",
      "street": "R FELICIANO ANTÓNIO DE CARVALHO",
      "house": "",
      "postcode": "1685-645",
      "city": "FAMÕES",
      "lon": "-9.21056956988422",
      "lat": "38.78851970925066"
    },
    {
      "id": "pt.ine.add.PTCONT.3255965",
      "street": "R FELICIANO ANTÓNIO DE CARVALHO",
      "house": "",
      "postcode": "1685-645",
      "city": "FAMÕES",
      "lon": "-9.21056956988422",
      "lat": "38.78851970925066"
    },
    {
      "id": "pt.ine.add.PTCONT.3267859",
      "street": "R MOINHOS",
      "house": "40",
      "postcode": "1685-651",
      "city": "FAMÕES",
      "lon": "-9.210436901278433",
      "lat": "38.78888124186292"
    },
    {
      "id": "pt.ine.add.PTCONT.3267860",
      "street": "R MOINHOS",
      "house": "40",
      "postcode": "1685-651",
      "city": "FAMÕES",
      "lon": "-9.210436901278433",
      "lat": "38.78888124186292"
    },
    {
      "id": "pt.ine.add.PTCONT.3267861",
      "street": "R MOINHOS",
      "house": "40",
      "postcode": "1685-651",
      "city": "FAMÕES",
      "lon": "-9.210436901278433",
      "lat": "38.78888124186292"
    },
    {
      "id": "pt.ine.add.PTCONT.3267862",
      "street": "R MOINHOS",
      "house": "40",
      "postcode": "1685-651",
      "city": "FAMÕES",
      "lon": "-9.210436901278433",
      "lat": "38.78888124186292"
    },
    {
      "id": "pt.ine.add.PTCONT.3267863",
      "street": "R MOINHOS",
      "house": "40",
      "postcode": "1685-651",
      "city": "FAMÕES",
      "lon": "-9.210436901278433",
      "lat": "38.78888124186292"
    },
    {
      "id": "pt.ine.add.PTCONT.3268213",
      "street": "R MOINHOS",
      "house": "40",
      "postcode": "1685-651",
      "city": "FAMÕES",
      "lon": "-9.210436901278433",
      "lat": "38.78888124186292"
    },
    {
      "id": "pt.ine.add.PTCONT.3320949",
      "street": "R MOINHOS",
      "house": "",
      "postcode": "1685-651",
      "city": "FAMÕES",
      "lon": "-9.211034350006107",
      "lat": "38.788812677696626"
    },
    {
      "id": "pt.ine.add.PTCONT.3320950",
      "street": "R MOINHOS",
      "house": "",
      "postcode": "1685-651",
      "city": "FAMÕES",
      "lon": "-9.211034350006107",
      "lat": "38.788812677696626"
    },
    {
      "id": "pt.ine.add.PTCONT.3320951",
      "street": "R MOINHOS",
      "house": "",
      "postcode": "1685-651",
      "city": "FAMÕES",
      "lon": "-9.211034350006107",
      "lat": "38.788812677696626"
    },
    {
      "id": "pt.ine.add.PTCONT.3320952",
      "street": "R MOINHOS",
      "house": "",
      "postcode": "1685-651",
      "city": "FAMÕES",
      "lon": "-9.211034350006107",
      "lat": "38.788812677696626"
    },
    {
      "id": "pt.ine.add.PTCONT.3321298",
      "street": "R MOINHOS",
      "house": "RC",
      "postcode": "1685-651",
      "city": "FAMÕES",
      "lon": "-9.211034350006107",
      "lat": "38.788812677696626"
    },
    {
      "id": "pt.ine.add.PTCONT.3443681",
      "street": "R MOINHOS",
      "house": "",
      "postcode": "1685-651",
      "city": "FAMÕES",
      "lon": "-9.211171085173966",
      "lat": "38.78872133888574"
    }
  ]
}