{
  "data": {
    "distrito": "Bragança",
    "concelho": "Carrazeda de Ansiães",
    "freguesia": "Vilarinho da Castanheira",
    "OBJECTID": 236,
    "BGRI2021": "04031800101",
    "DT21": "04",
    "DTMN21": "0403",
    "DTMNFR21": "040318",
    "DTMNFRSEC21": "040318001",
    "SECNUM21": "001",
    "SSNUM21": "01",
    "SECSSNUM21": "00101",
    "OBJECTID_1": 34807,
    "DT": "04",
    "CC": "03",
    "fr": "18",
    "SEC": "001",
    "SS": "01"
  },
  "addresses": [
    {
      "id": "pt.ine.add.PTCONT.851027",
      "street": "LG DO EITÃO",
      "house": "",
      "postcode": "5140-270",
      "city": "VILARINHO DA CASTANHEIRA",
      "lon": "-7.223257748904936",
      "lat": "41.167293655185546"
    },
    {
      "id": "pt.ine.add.PTCONT.851818",
      "street": "R LARGA",
      "house": "",
      "postcode": "5140-270",
      "city": "VILARINHO DA CASTANHEIRA",
      "lon": "-7.222889153003744",
      "lat": "41.167236717475596"
    },
    {
      "id": "pt.ine.add.PTCONT.851819",
      "street": "R LARGA",
      "house": "",
      "postcode": "5140-270",
      "city": "VILARINHO DA CASTANHEIRA",
      "lon": "-7.222830079963677",
      "lat": "41.16720023373261"
    },
    {
      "id": "pt.ine.add.PTCONT.852618",
      "street": "R LARGA",
      "house": "",
      "postcode": "5140-270",
      "city": "VILARINHO DA CASTANHEIRA",
      "lon": "-7.2229240237109105",
      "lat": "41.167300022588016"
    },
    {
      "id": "pt.ine.add.PTCONT.854956",
      "street": "R DA ESCOLA",
      "house": "",
      "postcode": "5140-270",
      "city": "VILARINHO DA CASTANHEIRA",
      "lon": "-7.2237680195930505",
      "lat": "41.165721946356264"
    },
    {
      "id": "pt.ine.add.PTCONT.856017",
      "street": "R DA LAMEIRA",
      "house": "",
      "postcode": "5140-270",
      "city": "VILARINHO DA CASTANHEIRA",
      "lon": "-7.222419811807862",
      "lat": "41.166710762600715"
    },
    {
      "id": "pt.ine.add.PTCONT.856232",
      "street": "R DO FUNDO DO POVO",
      "house": "",
      "postcode": "5140-270",
      "city": "VILARINHO DA CASTANHEIRA",
      "lon": "-7.223488891970265",
      "lat": "41.16608891534125"
    },
    {
      "id": "pt.ine.add.PTCONT.857183",
      "street": "R DA CANELHA",
      "house": "",
      "postcode": "5140-270",
      "city": "VILARINHO DA CASTANHEIRA",
      "lon": "-7.222302290655992",
      "lat": "41.166592778439615"
    },
    {
      "id": "pt.ine.add.PTCONT.859378",
      "street": "R LARGA",
      "house": "",
      "postcode": "5140-270",
      "city": "VILARINHO DA CASTANHEIRA",
      "lon": "-7.223294488202912",
      "lat": "41.1672219116513"
    },
    {
      "id": "pt.ine.add.PTCONT.861006",
      "street": "R LARGA",
      "house": "",
      "postcode": "5140-270",
      "city": "VILARINHO DA CASTANHEIRA",
      "lon": "-7.222882845818562",
      "lat": "41.16683147773067"
    },
    {
      "id": "pt.ine.add.PTCONT.861007",
      "street": "R DA CANELHA",
      "house": "",
      "postcode": "5140-270",
      "city": "VILARINHO DA CASTANHEIRA",
      "lon": "-7.222448127958557",
      "lat": "41.16638683455104"
    },
    {
      "id": "pt.ine.add.PTCONT.862526",
      "street": "R DA ESCOLA",
      "house": "",
      "postcode": "5140-270",
      "city": "VILARINHO DA CASTANHEIRA",
      "lon": "-7.223054548505804",
      "lat": "41.16561726468714"
    },
    {
      "id": "pt.ine.add.PTCONT.874394",
      "street": "R LARGA",
      "house": "",
      "postcode": "5140-270",
      "city": "VILARINHO DA CASTANHEIRA",
      "lon": "-7.223066870831167",
      "lat": "41.167310155584474"
    },
    {
      "id": "pt.ine.add.PTCONT.877731",
      "street": "R DA ESCOLA",
      "house": "",
      "postcode": "5140-270",
      "city": "VILARINHO DA CASTANHEIRA",
      "lon": "-7.223484409394022",
      "lat": "41.1664130319094"
    },
    {
      "id": "pt.ine.add.PTCONT.879747",
      "street": "R LARGA",
      "house": "",
      "postcode": "5140-270",
      "city": "VILARINHO DA CASTANHEIRA",
      "lon": "-7.22329834911918",
      "lat": "41.16694281132832"
    },
    {
      "id": "pt.ine.add.PTCONT.888761",
      "street": "LG DO EITÃO",
      "house": "",
      "postcode": "5140-270",
      "city": "VILARINHO DA CASTANHEIRA",
      "lon": "-7.223017718571381",
      "lat": "41.167417817838064"
    },
    {
      "id": "pt.ine.add.PTCONT.889273",
      "street": "R DA LAMEIRA",
      "house": "",
      "postcode": "5140-270",
      "city": "VILARINHO DA CASTANHEIRA",
      "lon": "-7.2222744724197225",
      "lat": "41.16688069349778"
    },
    {
      "id": "pt.ine.add.PTCONT.891570",
      "street": "R LARGA",
      "house": "",
      "postcode": "5140-270",
      "city": "VILARINHO DA CASTANHEIRA",
      "lon": "-7.222833070588245",
      "lat": "41.16698415609147"
    },
    {
      "id": "pt.ine.add.PTCONT.894507",
      "street": "R DA LAMEIRA",
      "house": "",
      "postcode": "5140-270",
      "city": "VILARINHO DA CASTANHEIRA",
      "lon": "-7.222418939158147",
      "lat": "41.166773785242654"
    },
    {
      "id": "pt.ine.add.PTCONT.897101",
      "street": "R LARGA",
      "house": "",
      "postcode": "5140-270",
      "city": "VILARINHO DA CASTANHEIRA",
      "lon": "-7.222928384592764",
      "lat": "41.16698490935585"
    },
    {
      "id": "pt.ine.add.PTCONT.897102",
      "street": "R LARGA",
      "house": "",
      "postcode": "5140-270",
      "city": "VILARINHO DA CASTANHEIRA",
      "lon": "-7.222668514446973",
      "lat": "41.16682077946025"
    },
    {
      "id": "pt.ine.add.PTCONT.898736",
      "street": "R LARGA",
      "house": "",
      "postcode": "5140-270",
      "city": "VILARINHO DA CASTANHEIRA",
      "lon": "-7.223253432257712",
      "lat": "41.16674436365662"
    },
    {
      "id": "pt.ine.add.PTCONT.909272",
      "street": "R LARGA",
      "house": "",
      "postcode": "5140-270",
      "city": "VILARINHO DA CASTANHEIRA",
      "lon": "-7.22323566405622",
      "lat": "41.1671674216421"
    },
    {
      "id": "pt.ine.add.PTCONT.909273",
      "street": "R LARGA",
      "house": "",
      "postcode": "5140-270",
      "city": "VILARINHO DA CASTANHEIRA",
      "lon": "-7.222962881435118",
      "lat": "41.167075224164385"
    },
    {
      "id": "pt.ine.add.PTCONT.912301",
      "street": "R DO CABEÇO ALTO",
      "house": "",
      "postcode": "5140-270",
      "city": "VILARINHO DA CASTANHEIRA",
      "lon": "-7.22447691728145",
      "lat": "41.16529533838457"
    },
    {
      "id": "pt.ine.add.PTCONT.920253",
      "street": "R DA PORTELA",
      "house": "",
      "postcode": "5140-270",
      "city": "VILARINHO DA CASTANHEIRA",
      "lon": "-7.221525438717083",
      "lat": "41.16590231170917"
    },
    {
      "id": "pt.ine.add.PTCONT.922141",
      "street": "R DA CANELHA",
      "house": "",
      "postcode": "5140-270",
      "city": "VILARINHO DA CASTANHEIRA",
      "lon": "-7.222028638735203",
      "lat": "41.16656360141782"
    },
    {
      "id": "pt.ine.add.PTCONT.927917",
      "street": "R DA PORTELA",
      "house": "",
      "postcode": "5140-270",
      "city": "VILARINHO DA CASTANHEIRA",
      "lon": "-7.221698410524919",
      "lat": "41.1663178747665"
    },
    {
      "id": "pt.ine.add.PTCONT.929890",
      "street": "R LARGA",
      "house": "",
      "postcode": "5140-270",
      "city": "VILARINHO DA CASTANHEIRA",
      "lon": "-7.222409518257476",
      "lat": "41.16659362634406"
    },
    {
      "id": "pt.ine.add.PTCONT.931474",
      "street": "R DA ESCOLA",
      "house": "",
      "postcode": "5140-270",
      "city": "VILARINHO DA CASTANHEIRA",
      "lon": "-7.224430629689809",
      "lat": "41.16519592675418"
    },
    {
      "id": "pt.ine.add.PTCONT.933483",
      "street": "R DA ESCOLA",
      "house": "",
      "postcode": "5140-270",
      "city": "VILARINHO DA CASTANHEIRA",
      "lon": "-7.224634534433011",
      "lat": "41.16509848881239"
    },
    {
      "id": "pt.ine.add.PTCONT.933766",
      "street": "R DA CANELHA",
      "house": "",
      "postcode": "5140-270",
      "city": "VILARINHO DA CASTANHEIRA",
      "lon": "-7.222614801300301",
      "lat": "41.16639715648939"
    },
    {
      "id": "pt.ine.add.PTCONT.937180",
      "street": "R LARGA",
      "house": "",
      "postcode": "5140-270",
      "city": "VILARINHO DA CASTANHEIRA",
      "lon": "-7.223185391125919",
      "lat": "41.16735611309459"
    },
    {
      "id": "pt.ine.add.PTCONT.937181",
      "street": "R DA IGREJA",
      "house": "",
      "postcode": "5140-270",
      "city": "VILARINHO DA CASTANHEIRA",
      "lon": "-7.222145161727058",
      "lat": "41.16675361172443"
    },
    {
      "id": "pt.ine.add.PTCONT.938255",
      "street": "R LARGA",
      "house": "",
      "postcode": "5140-270",
      "city": "VILARINHO DA CASTANHEIRA",
      "lon": "-7.222525045207974",
      "lat": "41.16685566215396"
    },
    {
      "id": "pt.ine.add.PTCONT.941893",
      "street": "R LARGA",
      "house": "",
      "postcode": "5140-270",
      "city": "VILARINHO DA CASTANHEIRA",
      "lon": "-7.222690971984571",
      "lat": "41.166920003402666"
    },
    {
      "id": "pt.ine.add.PTCONT.942652",
      "street": "R LARGA",
      "house": "",
      "postcode": "5140-270",
      "city": "VILARINHO DA CASTANHEIRA",
      "lon": "-7.223070234419395",
      "lat": "41.16706706822624"
    },
    {
      "id": "pt.ine.add.PTCONT.944034",
      "street": "R LARGA",
      "house": "",
      "postcode": "5140-270",
      "city": "VILARINHO DA CASTANHEIRA",
      "lon": "-7.222866944276347",
      "lat": "41.16711948710287"
    },
    {
      "id": "pt.ine.add.PTCONT.945322",
      "street": "LG DO EITÃO",
      "house": "",
      "postcode": "5140-270",
      "city": "VILARINHO DA CASTANHEIRA",
      "lon": "-7.223296231849236",
      "lat": "41.16709586634585"
    },
    {
      "id": "pt.ine.add.PTCONT.945323",
      "street": "R DA CANELHA",
      "house": "",
      "postcode": "5140-270",
      "city": "VILARINHO DA CASTANHEIRA",
      "lon": "-7.2222437172685865",
      "lat": "41.166520281463185"
    },
    {
      "id": "pt.ine.add.PTCONT.950124",
      "street": "R DA ESCOLA",
      "house": "",
      "postcode": "5140-270",
      "city": "VILARINHO DA CASTANHEIRA",
      "lon": "-7.223149816739724",
      "lat": "41.16648242267417"
    }
  ]
}