{
  "data": {
    "distrito": "Bragança",
    "concelho": "Carrazeda de Ansiães",
    "freguesia": "Vilarinho da Castanheira",
    "OBJECTID": 182,
    "BGRI2021": "04031800110",
    "DT21": "04",
    "DTMN21": "0403",
    "DTMNFR21": "040318",
    "DTMNFRSEC21": "040318001",
    "SECNUM21": "001",
    "SSNUM21": "10",
    "SECSSNUM21": "00110",
    "OBJECTID_1": 34770,
    "DT": "04",
    "CC": "03",
    "fr": "18",
    "SEC": "001",
    "SS": "10"
  },
  "addresses": [
    {
      "id": "pt.ine.add.PTCONT.850294",
      "street": "R 22 DE JULHO",
      "house": "",
      "postcode": "5140-286",
      "city": "VILARINHO DA CASTANHEIRA",
      "lon": "-7.214108390682928",
      "lat": "41.204669432753796"
    },
    {
      "id": "pt.ine.add.PTCONT.851604",
      "street": "R 22 DE JULHO",
      "house": "",
      "postcode": "5140-286",
      "city": "VILARINHO DA CASTANHEIRA",
      "lon": "-7.213899355625861",
      "lat": "41.20427158132656"
    },
    {
      "id": "pt.ine.add.PTCONT.851617",
      "street": "R DA FRAGA",
      "house": "",
      "postcode": "5140-276",
      "city": "VILARINHO DA CASTANHEIRA",
      "lon": "-7.213487595444622",
      "lat": "41.20302571958984"
    },
    {
      "id": "pt.ine.add.PTCONT.854976",
      "street": "R DA CADEIA",
      "house": "",
      "postcode": "5140-281",
      "city": "VILARINHO DA CASTANHEIRA",
      "lon": "-7.213673487132722",
      "lat": "41.204224757348896"
    },
    {
      "id": "pt.ine.add.PTCONT.855477",
      "street": "R DA CADEIA",
      "house": "",
      "postcode": "5140-281",
      "city": "VILARINHO DA CASTANHEIRA",
      "lon": "-7.213081911544744",
      "lat": "41.203049491625954"
    },
    {
      "id": "pt.ine.add.PTCONT.856492",
      "street": "TV DA CADEIA",
      "house": "",
      "postcode": "5140-281",
      "city": "VILARINHO DA CASTANHEIRA",
      "lon": "-7.213663456589221",
      "lat": "41.204089614859896"
    },
    {
      "id": "pt.ine.add.PTCONT.856493",
      "street": "TV DA CADEIA",
      "house": "",
      "postcode": "5140-281",
      "city": "VILARINHO DA CASTANHEIRA",
      "lon": "-7.213717819442917",
      "lat": "41.20361282838805"
    },
    {
      "id": "pt.ine.add.PTCONT.866133",
      "street": "R DA CADEIA",
      "house": "",
      "postcode": "5140-281",
      "city": "VILARINHO DA CASTANHEIRA",
      "lon": "-7.213631600743945",
      "lat": "41.203810231533446"
    },
    {
      "id": "pt.ine.add.PTCONT.867103",
      "street": "R DA CADEIA",
      "house": "",
      "postcode": "5140-281",
      "city": "VILARINHO DA CASTANHEIRA",
      "lon": "-7.213956188772733",
      "lat": "41.20447012649092"
    },
    {
      "id": "pt.ine.add.PTCONT.870256",
      "street": "R DA FRAGA",
      "house": "",
      "postcode": "5140-276",
      "city": "VILARINHO DA CASTANHEIRA",
      "lon": "-7.213213544211238",
      "lat": "41.20301452656769"
    },
    {
      "id": "pt.ine.add.PTCONT.874479",
      "street": "R DA CADEIA",
      "house": "",
      "postcode": "5140-281",
      "city": "VILARINHO DA CASTANHEIRA",
      "lon": "-7.21414087874079",
      "lat": "41.20490380016327"
    },
    {
      "id": "pt.ine.add.PTCONT.877406",
      "street": "R DA FRAGA",
      "house": "",
      "postcode": "5140-276",
      "city": "VILARINHO DA CASTANHEIRA",
      "lon": "-7.213286581614942",
      "lat": "41.202907060042826"
    },
    {
      "id": "pt.ine.add.PTCONT.879743",
      "street": "R 22 DE JULHO",
      "house": "",
      "postcode": "5140-286",
      "city": "VILARINHO DA CASTANHEIRA",
      "lon": "-7.2138569637831145",
      "lat": "41.20389306820057"
    },
    {
      "id": "pt.ine.add.PTCONT.883952",
      "street": "R 22 DE JULHO",
      "house": "",
      "postcode": "5140-286",
      "city": "VILARINHO DA CASTANHEIRA",
      "lon": "-7.213858097787401",
      "lat": "41.203812039807076"
    },
    {
      "id": "pt.ine.add.PTCONT.884529",
      "street": "R DA FRAGA",
      "house": "",
      "postcode": "5140-276",
      "city": "VILARINHO DA CASTANHEIRA",
      "lon": "-7.2134081840276405",
      "lat": "41.202736952210635"
    },
    {
      "id": "pt.ine.add.PTCONT.886039",
      "street": "R DA CADEIA",
      "house": "",
      "postcode": "5140-281",
      "city": "VILARINHO DA CASTANHEIRA",
      "lon": "-7.213702117950403",
      "lat": "41.20388282785094"
    },
    {
      "id": "pt.ine.add.PTCONT.888759",
      "street": "R DA CADEIA",
      "house": "",
      "postcode": "5140-281",
      "city": "VILARINHO DA CASTANHEIRA",
      "lon": "-7.213662322333772",
      "lat": "41.20417064324504"
    },
    {
      "id": "pt.ine.add.PTCONT.890176",
      "street": "R DA CADEIA",
      "house": "",
      "postcode": "5140-281",
      "city": "VILARINHO DA CASTANHEIRA",
      "lon": "-7.21310222223693",
      "lat": "41.20330177041411"
    },
    {
      "id": "pt.ine.add.PTCONT.905046",
      "street": "R FUNDO",
      "house": "",
      "postcode": "5140-285",
      "city": "VILARINHO DA CASTANHEIRA",
      "lon": "-7.213288346652866",
      "lat": "41.20278101587324"
    },
    {
      "id": "pt.ine.add.PTCONT.906340",
      "street": "R DA FRAGA",
      "house": "",
      "postcode": "5140-276",
      "city": "VILARINHO DA CASTANHEIRA",
      "lon": "-7.21333502094811",
      "lat": "41.20285342197489"
    },
    {
      "id": "pt.ine.add.PTCONT.913830",
      "street": "R DA FRAGA",
      "house": "",
      "postcode": "5140-276",
      "city": "VILARINHO DA CASTANHEIRA",
      "lon": "-7.213541653426881",
      "lat": "41.20342233438274"
    },
    {
      "id": "pt.ine.add.PTCONT.914593",
      "street": "R DA CADEIA",
      "house": "",
      "postcode": "5140-281",
      "city": "VILARINHO DA CASTANHEIRA",
      "lon": "-7.213592182982253",
      "lat": "41.204071037442624"
    },
    {
      "id": "pt.ine.add.PTCONT.932249",
      "street": "R DA FRAGA",
      "house": "",
      "postcode": "5140-276",
      "city": "VILARINHO DA CASTANHEIRA",
      "lon": "-7.21323599880993",
      "lat": "41.20311375171629"
    },
    {
      "id": "pt.ine.add.PTCONT.937597",
      "street": "R DA FRAGA",
      "house": "",
      "postcode": "5140-276",
      "city": "VILARINHO DA CASTANHEIRA",
      "lon": "-7.213457001284908",
      "lat": "41.2026563046206"
    },
    {
      "id": "pt.ine.add.PTCONT.946201",
      "street": "R DA CADEIA",
      "house": "",
      "postcode": "5140-281",
      "city": "VILARINHO DA CASTANHEIRA",
      "lon": "-7.213952157073401",
      "lat": "41.20475822741509"
    },
    {
      "id": "pt.ine.add.PTCONT.947035",
      "street": "R 22 DE JULHO",
      "house": "",
      "postcode": "5140-286",
      "city": "VILARINHO DA CASTANHEIRA",
      "lon": "-7.214142138400901",
      "lat": "41.204813768623595"
    }
  ]
}