{
  "data": {
    "distrito": "Guarda",
    "concelho": "Sabugal",
    "freguesia": "Malcata",
    "OBJECTID": 302,
    "BGRI2021": "09111800109",
    "DT21": "09",
    "DTMN21": "0911",
    "DTMNFR21": "091118",
    "DTMNFRSEC21": "091118001",
    "SECNUM21": "001",
    "SSNUM21": "09",
    "SECSSNUM21": "00109",
    "OBJECTID_1": 81035,
    "DT": "09",
    "CC": "11",
    "fr": "18",
    "SEC": "001",
    "SS": "09"
  },
  "addresses": [
    {
      "id": "pt.ine.add.PTCONT.1901737",
      "street": "R MOITA",
      "house": "35",
      "postcode": "6320-181",
      "city": "MALCATA",
      "lon": "-7.069396274086257",
      "lat": "40.300432121256534"
    },
    {
      "id": "pt.ine.add.PTCONT.1906875",
      "street": "TV CALVÁRIO",
      "house": "3",
      "postcode": "6320-181",
      "city": "MALCATA",
      "lon": "-7.069946556172698",
      "lat": "40.29984281848643"
    },
    {
      "id": "pt.ine.add.PTCONT.1912202",
      "street": "R MOITA",
      "house": "9",
      "postcode": "6320-181",
      "city": "MALCATA",
      "lon": "-7.069858546145284",
      "lat": "40.29945477420563"
    },
    {
      "id": "pt.ine.add.PTCONT.1914329",
      "street": "R BARREIRINHA",
      "house": "26",
      "postcode": "6320-181",
      "city": "MALCATA",
      "lon": "-7.06963119415063",
      "lat": "40.30045229205028"
    },
    {
      "id": "pt.ine.add.PTCONT.1915615",
      "street": "R MOITA",
      "house": "41",
      "postcode": "6320-181",
      "city": "MALCATA",
      "lon": "-7.069244805009438",
      "lat": "40.300340673667904"
    },
    {
      "id": "pt.ine.add.PTCONT.1918357",
      "street": "LG TORRINHA",
      "house": "",
      "postcode": "6320-181",
      "city": "MALCATA",
      "lon": "-7.070249446947092",
      "lat": "40.299278256778585"
    },
    {
      "id": "pt.ine.add.PTCONT.1919384",
      "street": "R MOITA",
      "house": "3",
      "postcode": "6320-181",
      "city": "MALCATA",
      "lon": "-7.0699186163320515",
      "lat": "40.299374277013975"
    },
    {
      "id": "pt.ine.add.PTCONT.1919424",
      "street": "R BARREIRINHA",
      "house": "4",
      "postcode": "6320-181",
      "city": "MALCATA",
      "lon": "-7.069656832351958",
      "lat": "40.30031744563355"
    },
    {
      "id": "pt.ine.add.PTCONT.1919425",
      "street": "R MOITA",
      "house": "27A",
      "postcode": "6320-181",
      "city": "MALCATA",
      "lon": "-7.0696583855041695",
      "lat": "40.30021839969927"
    },
    {
      "id": "pt.ine.add.PTCONT.1920474",
      "street": "R FONTE",
      "house": "24",
      "postcode": "6320-181",
      "city": "MALCATA",
      "lon": "-7.070139137788948",
      "lat": "40.30031287285326"
    },
    {
      "id": "pt.ine.add.PTCONT.1922018",
      "street": "R BARREIRINHA",
      "house": "2",
      "postcode": "6320-181",
      "city": "MALCATA",
      "lon": "-7.069649166950949",
      "lat": "40.30005621642338"
    },
    {
      "id": "pt.ine.add.PTCONT.1922019",
      "street": "LG TORRINHA",
      "house": "10",
      "postcode": "6320-181",
      "city": "MALCATA",
      "lon": "-7.070003053098971",
      "lat": "40.299239970860064"
    },
    {
      "id": "pt.ine.add.PTCONT.1924193",
      "street": "R FONTE",
      "house": "10A",
      "postcode": "6320-181",
      "city": "MALCATA",
      "lon": "-7.0701266259218905",
      "lat": "40.29961033087544"
    },
    {
      "id": "pt.ine.add.PTCONT.1927350",
      "street": "R FONTE",
      "house": "6",
      "postcode": "6320-181",
      "city": "MALCATA",
      "lon": "-7.070105505212023",
      "lat": "40.29945704372594"
    },
    {
      "id": "pt.ine.add.PTCONT.1929028",
      "street": "R MOITA",
      "house": "1",
      "postcode": "6320-181",
      "city": "MALCATA",
      "lon": "-7.069930940892696",
      "lat": "40.29933836837977"
    },
    {
      "id": "pt.ine.add.PTCONT.1931204",
      "street": "R BARREIRINHA",
      "house": "10",
      "postcode": "6320-181",
      "city": "MALCATA",
      "lon": "-7.0695691457183365",
      "lat": "40.30065884751232"
    },
    {
      "id": "pt.ine.add.PTCONT.1934295",
      "street": "R BARREIRINHA",
      "house": "26A",
      "postcode": "6320-181",
      "city": "MALCATA",
      "lon": "-7.069573523177581",
      "lat": "40.300379718081146"
    },
    {
      "id": "pt.ine.add.PTCONT.1935276",
      "street": "LG TORRINHA CASA DC SAL",
      "house": "10A",
      "postcode": "6320-181",
      "city": "MALCATA",
      "lon": "-7.069955307671321",
      "lat": "40.299284559462805"
    },
    {
      "id": "pt.ine.add.PTCONT.1936306",
      "street": "LG TORRINHA",
      "house": "11A",
      "postcode": "6320-181",
      "city": "MALCATA",
      "lon": "-7.069988752538336",
      "lat": "40.29940193799898"
    },
    {
      "id": "pt.ine.add.PTCONT.1940734",
      "street": "R MOITA",
      "house": "19",
      "postcode": "6320-181",
      "city": "MALCATA",
      "lon": "-7.069629882770937",
      "lat": "40.29978587491693"
    },
    {
      "id": "pt.ine.add.PTCONT.1941469",
      "street": "R BARREIRINHA",
      "house": "8",
      "postcode": "6320-181",
      "city": "MALCATA",
      "lon": "-7.069605273433153",
      "lat": "40.30060514680725"
    },
    {
      "id": "pt.ine.add.PTCONT.1941470",
      "street": "TV CALVÁRIO",
      "house": "7",
      "postcode": "6320-181",
      "city": "MALCATA",
      "lon": "-7.069877548844893",
      "lat": "40.29974312405432"
    },
    {
      "id": "pt.ine.add.PTCONT.1945866",
      "street": "R FONTE",
      "house": "20",
      "postcode": "6320-181",
      "city": "MALCATA",
      "lon": "-7.070038519207268",
      "lat": "40.29997874572579"
    },
    {
      "id": "pt.ine.add.PTCONT.1946460",
      "street": "R MOITA",
      "house": "7",
      "postcode": "6320-181",
      "city": "MALCATA",
      "lon": "-7.069870870753157",
      "lat": "40.2994188655789"
    },
    {
      "id": "pt.ine.add.PTCONT.1947167",
      "street": "R MOITA",
      "house": "11",
      "postcode": "6320-181",
      "city": "MALCATA",
      "lon": "-7.069926988535197",
      "lat": "40.299590485360746"
    },
    {
      "id": "pt.ine.add.PTCONT.1956255",
      "street": "R MOITA",
      "house": "5",
      "postcode": "6320-181",
      "city": "MALCATA",
      "lon": "-7.069871435405088",
      "lat": "40.29938284886764"
    },
    {
      "id": "pt.ine.add.PTCONT.1957316",
      "street": "R FONTE",
      "house": "10",
      "postcode": "6320-181",
      "city": "MALCATA",
      "lon": "-7.070102118022054",
      "lat": "40.29967314400382"
    },
    {
      "id": "pt.ine.add.PTCONT.1959231",
      "street": "R MOITA",
      "house": "11A",
      "postcode": "6320-181",
      "city": "MALCATA",
      "lon": "-7.069999524462327",
      "lat": "40.299465075317016"
    },
    {
      "id": "pt.ine.add.PTCONT.1960235",
      "street": "R FONTE",
      "house": "14",
      "postcode": "6320-181",
      "city": "MALCATA",
      "lon": "-7.070135422191195",
      "lat": "40.299799526673475"
    },
    {
      "id": "pt.ine.add.PTCONT.1960917",
      "street": "R MOITA",
      "house": "17",
      "postcode": "6320-181",
      "city": "MALCATA",
      "lon": "-7.069689953528437",
      "lat": "40.2997053778558"
    },
    {
      "id": "pt.ine.add.PTCONT.1965149",
      "street": "R MOITA",
      "house": "39",
      "postcode": "6320-181",
      "city": "MALCATA",
      "lon": "-7.069303323054819",
      "lat": "40.30035922274874"
    },
    {
      "id": "pt.ine.add.PTCONT.1975678",
      "street": "R FONTE",
      "house": "",
      "postcode": "6320-181",
      "city": "MALCATA",
      "lon": "-7.07018768378591",
      "lat": "40.29946680429424"
    },
    {
      "id": "pt.ine.add.PTCONT.1850444",
      "street": "R FONTE",
      "house": "18",
      "postcode": "6320-181",
      "city": "MALCATA",
      "lon": "-7.070145912049429",
      "lat": "40.29988067233189"
    },
    {
      "id": "pt.ine.add.PTCONT.1852466",
      "street": "R MOITA",
      "house": "33",
      "postcode": "6320-181",
      "city": "MALCATA",
      "lon": "-7.069466693601073",
      "lat": "40.30044177421459"
    },
    {
      "id": "pt.ine.add.PTCONT.1853424",
      "street": "R FONTE",
      "house": "6",
      "postcode": "6320-181",
      "city": "MALCATA",
      "lon": "-7.070020503790058",
      "lat": "40.29962736666052"
    },
    {
      "id": "pt.ine.add.PTCONT.1854497",
      "street": "R MOITA",
      "house": "37",
      "postcode": "6320-181",
      "city": "MALCATA",
      "lon": "-7.069337897190765",
      "lat": "40.30040456804714"
    },
    {
      "id": "pt.ine.add.PTCONT.1854498",
      "street": "TV CALVÁRIO",
      "house": "9",
      "postcode": "6320-181",
      "city": "MALCATA",
      "lon": "-7.069726080623914",
      "lat": "40.29965167709657"
    },
    {
      "id": "pt.ine.add.PTCONT.1855561",
      "street": "R FONTE",
      "house": "16",
      "postcode": "6320-181",
      "city": "MALCATA",
      "lon": "-7.070146476564519",
      "lat": "40.299844655620284"
    },
    {
      "id": "pt.ine.add.PTCONT.1858348",
      "street": "LG TORRINHA",
      "house": "12",
      "postcode": "6320-181",
      "city": "MALCATA",
      "lon": "-7.070153674042681",
      "lat": "40.29938544252687"
    },
    {
      "id": "pt.ine.add.PTCONT.1863506",
      "street": "R FONTE",
      "house": "22",
      "postcode": "6320-181",
      "city": "MALCATA",
      "lon": "-7.070011611573815",
      "lat": "40.30019462983979"
    },
    {
      "id": "pt.ine.add.PTCONT.1864474",
      "street": "R BARREIRINHA",
      "house": "6",
      "postcode": "6320-181",
      "city": "MALCATA",
      "lon": "-7.069653161234302",
      "lat": "40.300551554198535"
    },
    {
      "id": "pt.ine.add.PTCONT.1866366",
      "street": "TV CALVÁRIO",
      "house": "6",
      "postcode": "6320-181",
      "city": "MALCATA",
      "lon": "-7.069937478116739",
      "lat": "40.29967163103735"
    },
    {
      "id": "pt.ine.add.PTCONT.1872392",
      "street": "R FONTE",
      "house": "4",
      "postcode": "6320-181",
      "city": "MALCATA",
      "lon": "-7.070186554813545",
      "lat": "40.29953883772293"
    },
    {
      "id": "pt.ine.add.PTCONT.1872919",
      "street": "R FONTE",
      "house": "12",
      "postcode": "6320-181",
      "city": "MALCATA",
      "lon": "-7.070101130084743",
      "lat": "40.29973617324997"
    },
    {
      "id": "pt.ine.add.PTCONT.1877193",
      "street": "LG TORRINHA",
      "house": "11",
      "postcode": "6320-181",
      "city": "MALCATA",
      "lon": "-7.069978121781598",
      "lat": "40.2993297965013"
    },
    {
      "id": "pt.ine.add.PTCONT.1888041",
      "street": "R MOITA",
      "house": "27B",
      "postcode": "6320-181",
      "city": "MALCATA",
      "lon": "-7.069528318493053",
      "lat": "40.3002622313278"
    },
    {
      "id": "pt.ine.add.PTCONT.1888945",
      "street": "R MOITA",
      "house": "31",
      "postcode": "6320-181",
      "city": "MALCATA",
      "lon": "-7.069515711112199",
      "lat": "40.3003161482593"
    }
  ]
}