{
  "data": {
    "distrito": "Guarda",
    "concelho": "Sabugal",
    "freguesia": "União das freguesias de Aldeia da Ribeira, Vilar Maior e Badamalos",
    "OBJECTID": 884,
    "BGRI2021": "09114100103",
    "DT21": "09",
    "DTMN21": "0911",
    "DTMNFR21": "091141",
    "DTMNFRSEC21": "091141001",
    "SECNUM21": "001",
    "SSNUM21": "03",
    "SECSSNUM21": "00103",
    "OBJECTID_1": 81214,
    "DT": "09",
    "CC": "11",
    "fr": "41",
    "SEC": "001",
    "SS": "03"
  },
  "addresses": [
    {
      "id": "pt.ine.add.PTCONT.1910659",
      "street": "R ENCHIDO",
      "house": "",
      "postcode": "6320-043",
      "city": "ALDEIA DA RIBEIRA",
      "lon": "-6.913999849944611",
      "lat": "40.44741401428937"
    },
    {
      "id": "pt.ine.add.PTCONT.1911606",
      "street": "R POÇO",
      "house": "4",
      "postcode": "6320-043",
      "city": "ALDEIA DA RIBEIRA",
      "lon": "-6.915158037517895",
      "lat": "40.44724612072239"
    },
    {
      "id": "pt.ine.add.PTCONT.1926923",
      "street": "R TRONCO",
      "house": "4",
      "postcode": "6320-043",
      "city": "ALDEIA DA RIBEIRA",
      "lon": "-6.915302220970964",
      "lat": "40.44709455195754"
    },
    {
      "id": "pt.ine.add.PTCONT.1937523",
      "street": "R TRONCO",
      "house": "2",
      "postcode": "6320-043",
      "city": "ALDEIA DA RIBEIRA",
      "lon": "-6.915358058161193",
      "lat": "40.447266238565106"
    },
    {
      "id": "pt.ine.add.PTCONT.1939537",
      "street": "R RIBEIRO",
      "house": "4",
      "postcode": "6320-043",
      "city": "ALDEIA DA RIBEIRA",
      "lon": "-6.914587563439606",
      "lat": "40.44685288558224"
    },
    {
      "id": "pt.ine.add.PTCONT.1949924",
      "street": "R TRONCO",
      "house": "",
      "postcode": "6320-043",
      "city": "ALDEIA DA RIBEIRA",
      "lon": "-6.9151118726798515",
      "lat": "40.44719160321533"
    },
    {
      "id": "pt.ine.add.PTCONT.1951534",
      "street": "LG IGREJA",
      "house": "",
      "postcode": "6320-043",
      "city": "ALDEIA DA RIBEIRA",
      "lon": "-6.915228585219206",
      "lat": "40.44725586925386"
    },
    {
      "id": "pt.ine.add.PTCONT.1953765",
      "street": "R RIBEIRO",
      "house": "3",
      "postcode": "6320-043",
      "city": "ALDEIA DA RIBEIRA",
      "lon": "-6.915430881066748",
      "lat": "40.447149938496715"
    },
    {
      "id": "pt.ine.add.PTCONT.1958371",
      "street": "R CASAS NOVAS",
      "house": "",
      "postcode": "6320-043",
      "city": "ALDEIA DA RIBEIRA",
      "lon": "-6.9157622363982885",
      "lat": "40.44642400958647"
    },
    {
      "id": "pt.ine.add.PTCONT.1967847",
      "street": "R POÇO",
      "house": "",
      "postcode": "6320-043",
      "city": "ALDEIA DA RIBEIRA",
      "lon": "-6.914912665238837",
      "lat": "40.44712646764498"
    },
    {
      "id": "pt.ine.add.PTCONT.1850581",
      "street": "R CASAS NOVAS",
      "house": "3",
      "postcode": "6320-043",
      "city": "ALDEIA DA RIBEIRA",
      "lon": "-6.915775483437165",
      "lat": "40.44634310251725"
    },
    {
      "id": "pt.ine.add.PTCONT.1856495",
      "street": "R CAMINHO DO FALEIRO",
      "house": "5",
      "postcode": "6320-043",
      "city": "ALDEIA DA RIBEIRA",
      "lon": "-6.915504028717014",
      "lat": "40.44701563144986"
    },
    {
      "id": "pt.ine.add.PTCONT.1873074",
      "street": "LG IGREJA",
      "house": "5",
      "postcode": "6320-043",
      "city": "ALDEIA DA RIBEIRA",
      "lon": "-6.915452988547633",
      "lat": "40.447231217967676"
    },
    {
      "id": "pt.ine.add.PTCONT.1878272",
      "street": "R CASAS NOVAS",
      "house": "5",
      "postcode": "6320-043",
      "city": "ALDEIA DA RIBEIRA",
      "lon": "-6.915776620653172",
      "lat": "40.44628007826002"
    },
    {
      "id": "pt.ine.add.PTCONT.1893039",
      "street": "R CAMINHO DO FALEIRO",
      "house": "7",
      "postcode": "6320-043",
      "city": "ALDEIA DA RIBEIRA",
      "lon": "-6.915598958674734",
      "lat": "40.446980610724815"
    }
  ]
}