{
  "data": {
    "distrito": "Braga",
    "concelho": "Guimarães",
    "freguesia": "Selho (São Jorge)",
    "OBJECTID": 2094,
    "BGRI2021": "03085400111",
    "DT21": "03",
    "DTMN21": "0308",
    "DTMNFR21": "030854",
    "DTMNFRSEC21": "030854001",
    "SECNUM21": "001",
    "SSNUM21": "11",
    "SECSSNUM21": "00111",
    "OBJECTID_1": 28099,
    "DT": "03",
    "CC": "08",
    "fr": "54",
    "SEC": "001",
    "SS": "11"
  },
  "addresses": [
    {
      "id": "pt.ine.add.PTCONT.537878",
      "street": "R 25 DE ABRIL",
      "house": "830",
      "postcode": "4835-296",
      "city": "GUIMARÃES",
      "lon": "-8.355806635811085",
      "lat": "41.424643365226906"
    },
    {
      "id": "pt.ine.add.PTCONT.538875",
      "street": "R TRABALHADOR TEXTIL",
      "house": "411",
      "postcode": "4835-360",
      "city": "GUIMARÃES",
      "lon": "-8.356212040641955",
      "lat": "41.424255409470405"
    },
    {
      "id": "pt.ine.add.PTCONT.544894",
      "street": "R S JORGE",
      "house": "381",
      "postcode": "4835-351",
      "city": "GUIMARÃES",
      "lon": "-8.355777318350256",
      "lat": "41.42490202112804"
    },
    {
      "id": "pt.ine.add.PTCONT.581338",
      "street": "R 25 ABRIL",
      "house": "922",
      "postcode": "4835-296",
      "city": "GUIMARÃES",
      "lon": "-8.356379917691322",
      "lat": "41.42437213531204"
    },
    {
      "id": "pt.ine.add.PTCONT.581339",
      "street": "R 25 ABRIL",
      "house": "922",
      "postcode": "4835-296",
      "city": "GUIMARÃES",
      "lon": "-8.356379917691322",
      "lat": "41.42437213531204"
    },
    {
      "id": "pt.ine.add.PTCONT.593264",
      "street": "R S JORGE",
      "house": "489",
      "postcode": "4835-351",
      "city": "GUIMARÃES",
      "lon": "-8.356287171391312",
      "lat": "41.424934719768075"
    },
    {
      "id": "pt.ine.add.PTCONT.660502",
      "street": "R S JORGE",
      "house": "",
      "postcode": "4835-351",
      "city": "GUIMARÃES",
      "lon": "-8.356389367357522",
      "lat": "41.42491700067721"
    },
    {
      "id": "pt.ine.add.PTCONT.677891",
      "street": "R S JORGE",
      "house": "",
      "postcode": "4835-351",
      "city": "GUIMARÃES",
      "lon": "-8.356369959798629",
      "lat": "41.4249574120984"
    },
    {
      "id": "pt.ine.add.PTCONT.726293",
      "street": "R S JORGE",
      "house": "535",
      "postcode": "4835-351",
      "city": "GUIMARÃES",
      "lon": "-8.356417378745679",
      "lat": "41.42483126462335"
    },
    {
      "id": "pt.ine.add.PTCONT.754213",
      "street": "TV REIS",
      "house": "103",
      "postcode": "4835-345",
      "city": "GUIMARÃES",
      "lon": "-8.35700277699915",
      "lat": "41.424605027901954"
    },
    {
      "id": "pt.ine.add.PTCONT.756243",
      "street": "R 25 ABRIL",
      "house": "980",
      "postcode": "4835-296",
      "city": "GUIMARÃES",
      "lon": "-8.356548320068525",
      "lat": "41.42464192722459"
    },
    {
      "id": "pt.ine.add.PTCONT.786163",
      "street": "R S JORGE",
      "house": "439",
      "postcode": "4835-351",
      "city": "GUIMARÃES",
      "lon": "-8.356286313341448",
      "lat": "41.424984586266206"
    },
    {
      "id": "pt.ine.add.PTCONT.786164",
      "street": "R 25 DE ABRIL",
      "house": "926",
      "postcode": "4835-296",
      "city": "GUIMARÃES",
      "lon": "-8.356488136527362",
      "lat": "41.4245339965558"
    },
    {
      "id": "pt.ine.add.PTCONT.807521",
      "street": "R 25 DE ABRIL",
      "house": "978",
      "postcode": "4835-296",
      "city": "GUIMARÃES",
      "lon": "-8.356268070767639",
      "lat": "41.4245952084514"
    },
    {
      "id": "pt.ine.add.PTCONT.807522",
      "street": "R 25 DE ABRIL",
      "house": "978",
      "postcode": "4835-296",
      "city": "GUIMARÃES",
      "lon": "-8.356268070767639",
      "lat": "41.4245952084514"
    },
    {
      "id": "pt.ine.add.PTCONT.808534",
      "street": "R 25 DE ABRIL",
      "house": "978",
      "postcode": "4835-296",
      "city": "GUIMARÃES",
      "lon": "-8.356268070767639",
      "lat": "41.4245952084514"
    },
    {
      "id": "pt.ine.add.PTCONT.808686",
      "street": "R 25 DE ABRIL",
      "house": "978",
      "postcode": "4835-296",
      "city": "GUIMARÃES",
      "lon": "-8.356268070767639",
      "lat": "41.4245952084514"
    },
    {
      "id": "pt.ine.add.PTCONT.818994",
      "street": "R 25 ABRIL",
      "house": "922",
      "postcode": "4835-296",
      "city": "GUIMARÃES",
      "lon": "-8.356164775776868",
      "lat": "41.424426576381684"
    },
    {
      "id": "pt.ine.add.PTCONT.818995",
      "street": "TV CRASTO",
      "house": "922",
      "postcode": "4835-296",
      "city": "GUIMARÃES",
      "lon": "-8.356164775776868",
      "lat": "41.424426576381684"
    },
    {
      "id": "pt.ine.add.PTCONT.818996",
      "street": "R 25 ABRIL",
      "house": "922 A",
      "postcode": "4835-296",
      "city": "GUIMARÃES",
      "lon": "-8.356164775776868",
      "lat": "41.424426576381684"
    },
    {
      "id": "pt.ine.add.PTCONT.818997",
      "street": "R 25 ABRIL",
      "house": "922",
      "postcode": "4835-296",
      "city": "GUIMARÃES",
      "lon": "-8.356164775776868",
      "lat": "41.424426576381684"
    },
    {
      "id": "pt.ine.add.PTCONT.819134",
      "street": "R 25-ABR",
      "house": "922",
      "postcode": "4835-296",
      "city": "GUIMARÃES",
      "lon": "-8.356164775776868",
      "lat": "41.424426576381684"
    },
    {
      "id": "pt.ine.add.PTCONT.819135",
      "street": "R 25 ABRIL",
      "house": "922",
      "postcode": "4835-296",
      "city": "GUIMARÃES",
      "lon": "-8.356164775776868",
      "lat": "41.424426576381684"
    },
    {
      "id": "pt.ine.add.PTCONT.819136",
      "street": "R 25 ABRIL",
      "house": "922",
      "postcode": "4835-296",
      "city": "GUIMARÃES",
      "lon": "-8.356164775776868",
      "lat": "41.424426576381684"
    },
    {
      "id": "pt.ine.add.PTCONT.819137",
      "street": "R 25 ABRIL",
      "house": "922",
      "postcode": "4835-296",
      "city": "GUIMARÃES",
      "lon": "-8.356164775776868",
      "lat": "41.424426576381684"
    },
    {
      "id": "pt.ine.add.PTCONT.819138",
      "street": "R 25 ABRIL",
      "house": "922",
      "postcode": "4835-296",
      "city": "GUIMARÃES",
      "lon": "-8.356164775776868",
      "lat": "41.424426576381684"
    },
    {
      "id": "pt.ine.add.PTCONT.820301",
      "street": "R 25 ABRIL",
      "house": "922",
      "postcode": "4835-296",
      "city": "GUIMARÃES",
      "lon": "-8.356164775776868",
      "lat": "41.424426576381684"
    },
    {
      "id": "pt.ine.add.PTCONT.828199",
      "street": "R S JORGE",
      "house": "527",
      "postcode": "4835-351",
      "city": "GUIMARÃES",
      "lon": "-8.356345455721923",
      "lat": "41.42478850752798"
    }
  ]
}