{
  "data": {
    "distrito": "Faro",
    "concelho": "Tavira",
    "freguesia": "Uni√£o das freguesias de Tavira (Santa Maria e Santiago)",
    "OBJECTID": 486,
    "BGRI2021": "08141201010",
    "DT21": "08",
    "DTMN21": "0814",
    "DTMNFR21": "081412",
    "DTMNFRSEC21": "081412010",
    "SECNUM21": "010",
    "SSNUM21": "10",
    "SECSSNUM21": "01010",
    "OBJECTID_1": 73698,
    "DT": "08",
    "CC": "14",
    "fr": "12",
    "SEC": "010",
    "SS": "10"
  },
  "addresses": [
    {
      "id": "pt.ine.add.PTCONT.1477426",
      "street": "CP 148 T",
      "house": "",
      "postcode": "8800-225",
      "city": "TAVIRA",
      "lon": "-7.633322559436641",
      "lat": "37.13525429295233"
    },
    {
      "id": "pt.ine.add.PTCONT.1480316",
      "street": "R FR GIL DE TAVIRA",
      "house": "",
      "postcode": "8800-601",
      "city": "TAVIRA",
      "lon": "-7.628928472231146",
      "lat": "37.135992568928714"
    },
    {
      "id": "pt.ine.add.PTCONT.1499722",
      "street": "R MARIA VELEDA",
      "house": "23 A",
      "postcode": "8800-601",
      "city": "TAVIRA",
      "lon": "-7.630260676285003",
      "lat": "37.13706146921855"
    },
    {
      "id": "pt.ine.add.PTCONT.1499723",
      "street": "R MARIA VELEDA",
      "house": "",
      "postcode": "8800-601",
      "city": "TAVIRA",
      "lon": "-7.630260676285003",
      "lat": "37.13706146921855"
    },
    {
      "id": "pt.ine.add.PTCONT.1507156",
      "street": "R MARIA HELENA VIEIRA DA SILVA",
      "house": "",
      "postcode": "8800-601",
      "city": "TAVIRA",
      "lon": "-7.628054543871881",
      "lat": "37.13540316471332"
    },
    {
      "id": "pt.ine.add.PTCONT.1511913",
      "street": "R MARIA VELEDA",
      "house": "20 A",
      "postcode": "8800-601",
      "city": "TAVIRA",
      "lon": "-7.6300467256419555",
      "lat": "37.1370785824609"
    },
    {
      "id": "pt.ine.add.PTCONT.1511914",
      "street": "R MARIA VELEDA",
      "house": "",
      "postcode": "8800-601",
      "city": "TAVIRA",
      "lon": "-7.6300467256419555",
      "lat": "37.1370785824609"
    },
    {
      "id": "pt.ine.add.PTCONT.1514502",
      "street": "R MARIA VELEDA",
      "house": "1 B",
      "postcode": "8800-601",
      "city": "TAVIRA",
      "lon": "-7.629290119604258",
      "lat": "37.137462821407084"
    },
    {
      "id": "pt.ine.add.PTCONT.1514503",
      "street": "R MARIA VELEDA",
      "house": "1A",
      "postcode": "8800-601",
      "city": "TAVIRA",
      "lon": "-7.629290119604258",
      "lat": "37.137462821407084"
    },
    {
      "id": "pt.ine.add.PTCONT.1528790",
      "street": "R FR GIL DE TAVIRA",
      "house": "",
      "postcode": "8800-601",
      "city": "TAVIRA",
      "lon": "-7.629012049097155",
      "lat": "37.13696606061308"
    },
    {
      "id": "pt.ine.add.PTCONT.1530055",
      "street": "R MARIA VELEDA",
      "house": "",
      "postcode": "8800-601",
      "city": "TAVIRA",
      "lon": "-7.630497075788983",
      "lat": "37.137053461298215"
    },
    {
      "id": "pt.ine.add.PTCONT.1530056",
      "street": "R MARIA VELEDA",
      "house": "",
      "postcode": "8800-601",
      "city": "TAVIRA",
      "lon": "-7.630497075788983",
      "lat": "37.137053461298215"
    },
    {
      "id": "pt.ine.add.PTCONT.1535513",
      "street": "R FR GIL DE TAVIRA",
      "house": "",
      "postcode": "8800-601",
      "city": "TAVIRA",
      "lon": "-7.628969841925843",
      "lat": "37.13654238666081"
    },
    {
      "id": "pt.ine.add.PTCONT.1535526",
      "street": "R MARIA VELEDA",
      "house": "17 B",
      "postcode": "8800-601",
      "city": "TAVIRA",
      "lon": "-7.629697484692486",
      "lat": "37.13713116291279"
    },
    {
      "id": "pt.ine.add.PTCONT.1535527",
      "street": "R MARIA VELEDA",
      "house": "",
      "postcode": "8800-601",
      "city": "TAVIRA",
      "lon": "-7.629697484692486",
      "lat": "37.13713116291279"
    },
    {
      "id": "pt.ine.add.PTCONT.1546654",
      "street": "R MARIA VELEDA",
      "house": "11 A",
      "postcode": "8800-601",
      "city": "TAVIRA",
      "lon": "-7.629596076661039",
      "lat": "37.13714875324176"
    },
    {
      "id": "pt.ine.add.PTCONT.1546655",
      "street": "R MARIA VELEDA",
      "house": "",
      "postcode": "8800-601",
      "city": "TAVIRA",
      "lon": "-7.629596076661039",
      "lat": "37.13714875324176"
    },
    {
      "id": "pt.ine.add.PTCONT.1562192",
      "street": "R MARIA HELENA VIEIRA DA SILVA",
      "house": "",
      "postcode": "8800-601",
      "city": "TAVIRA",
      "lon": "-7.628617963346837",
      "lat": "37.135297437649875"
    },
    {
      "id": "pt.ine.add.PTCONT.1579219",
      "street": "R FR GIL DE TAVIRA",
      "house": "",
      "postcode": "8800-601",
      "city": "TAVIRA",
      "lon": "-7.628615989166321",
      "lat": "37.135594776477404"
    },
    {
      "id": "pt.ine.add.PTCONT.1594066",
      "street": "R CAP JOAQUIM MARIA GALHARDO",
      "house": "",
      "postcode": "8800-601",
      "city": "TAVIRA",
      "lon": "-7.629176082174466",
      "lat": "37.13768759963323"
    },
    {
      "id": "pt.ine.add.PTCONT.1599925",
      "street": "R MARIA HELENA VIEIRA DA SILVA",
      "house": "",
      "postcode": "8800-601",
      "city": "TAVIRA",
      "lon": "-7.62838138960016",
      "lat": "37.13533247266632"
    },
    {
      "id": "pt.ine.add.PTCONT.1608282",
      "street": "R CAP JOAQUIM MARIA GALHARDO",
      "house": "",
      "postcode": "8800-601",
      "city": "TAVIRA",
      "lon": "-7.629063777562472",
      "lat": "37.137651080063875"
    },
    {
      "id": "pt.ine.add.PTCONT.1614077",
      "street": "R CAP JOAQUIM MARIA GALHARDO",
      "house": "",
      "postcode": "8800-601",
      "city": "TAVIRA",
      "lon": "-7.629288625891101",
      "lat": "37.13768807803681"
    },
    {
      "id": "pt.ine.add.PTCONT.1614078",
      "street": "R CAP JOAQUIM MARIA GALHARDO",
      "house": "",
      "postcode": "8800-601",
      "city": "TAVIRA",
      "lon": "-7.629288625891101",
      "lat": "37.13768807803681"
    },
    {
      "id": "pt.ine.add.PTCONT.1630134",
      "street": "R MARIA VELEDA",
      "house": "7A",
      "postcode": "8800-601",
      "city": "TAVIRA",
      "lon": "-7.629370751865598",
      "lat": "37.137183837987074"
    },
    {
      "id": "pt.ine.add.PTCONT.1630135",
      "street": "R MARIA VELEDA",
      "house": "",
      "postcode": "8800-601",
      "city": "TAVIRA",
      "lon": "-7.629370751865598",
      "lat": "37.137183837987074"
    },
    {
      "id": "pt.ine.add.PTCONT.1631658",
      "street": "R CAP JOAQUIM MARIA GALHARDO",
      "house": "",
      "postcode": "8800-601",
      "city": "TAVIRA",
      "lon": "-7.628984877432015",
      "lat": "37.13766876557273"
    },
    {
      "id": "pt.ine.add.PTCONT.1631659",
      "street": "R CAP JOAQUIM MARIA GALHARDO",
      "house": "",
      "postcode": "8800-601",
      "city": "TAVIRA",
      "lon": "-7.628984877432015",
      "lat": "37.13766876557273"
    },
    {
      "id": "pt.ine.add.PTCONT.1632841",
      "street": "R FR GIL DE TAVIRA",
      "house": "",
      "postcode": "8800-601",
      "city": "TAVIRA",
      "lon": "-7.629001213302152",
      "lat": "37.136902940891694"
    },
    {
      "id": "pt.ine.add.PTCONT.1651717",
      "street": "R FR GIL DE TAVIRA",
      "house": "",
      "postcode": "8800-601",
      "city": "TAVIRA",
      "lon": "-7.628991334039407",
      "lat": "37.13669565691269"
    },
    {
      "id": "pt.ine.add.PTCONT.1655245",
      "street": "R CAP JOAQUIM MARIA GALHARDO",
      "house": "",
      "postcode": "8800-601",
      "city": "TAVIRA",
      "lon": "-7.628928306632417",
      "lat": "37.137713577562764"
    },
    {
      "id": "pt.ine.add.PTCONT.1655246",
      "street": "R CAP JOAQUIM MARIA GALHARDO",
      "house": "",
      "postcode": "8800-601",
      "city": "TAVIRA",
      "lon": "-7.628928306632417",
      "lat": "37.137713577562764"
    },
    {
      "id": "pt.ine.add.PTCONT.1674655",
      "street": "R FR GIL DE TAVIRA",
      "house": "28",
      "postcode": "8800-601",
      "city": "TAVIRA",
      "lon": "-7.628999061160173",
      "lat": "37.13722731045205"
    },
    {
      "id": "pt.ine.add.PTCONT.1676005",
      "street": "R FR GIL DE TAVIRA",
      "house": "",
      "postcode": "8800-601",
      "city": "TAVIRA",
      "lon": "-7.629013065354921",
      "lat": "37.13681288609363"
    },
    {
      "id": "pt.ine.add.PTCONT.1683452",
      "street": "R FR GIL DE TAVIRA",
      "house": "",
      "postcode": "8800-601",
      "city": "TAVIRA",
      "lon": "-7.628947871603396",
      "lat": "37.13646119853347"
    },
    {
      "id": "pt.ine.add.PTCONT.1689200",
      "street": "R MARIA HELENA VIEIRA DA SILVA",
      "house": "",
      "postcode": "8800-601",
      "city": "TAVIRA",
      "lon": "-7.628876805734356",
      "lat": "37.1352985389769"
    },
    {
      "id": "pt.ine.add.PTCONT.1691502",
      "street": "R FR GIL DE TAVIRA",
      "house": "",
      "postcode": "8800-601",
      "city": "TAVIRA",
      "lon": "-7.628927097102453",
      "lat": "37.13619980506837"
    },
    {
      "id": "pt.ine.add.PTCONT.1692120",
      "street": "R MARIA VELEDA",
      "house": "",
      "postcode": "8800-601",
      "city": "TAVIRA",
      "lon": "-7.630159328115853",
      "lat": "37.13707004976407"
    },
    {
      "id": "pt.ine.add.PTCONT.1692121",
      "street": "R MARIA VELEDA",
      "house": "",
      "postcode": "8800-601",
      "city": "TAVIRA",
      "lon": "-7.630159328115853",
      "lat": "37.13707004976407"
    },
    {
      "id": "pt.ine.add.PTCONT.1700151",
      "street": "R FR GIL DE TAVIRA",
      "house": "",
      "postcode": "8800-601",
      "city": "TAVIRA",
      "lon": "-7.628950203261045",
      "lat": "37.13610979813282"
    },
    {
      "id": "pt.ine.add.PTCONT.1705612",
      "street": "R FR GIL TAVIRA",
      "house": "45",
      "postcode": "8800-601",
      "city": "TAVIRA",
      "lon": "-7.628896098185518",
      "lat": "37.13747916707031"
    },
    {
      "id": "pt.ine.add.PTCONT.1714354",
      "street": "R FR GIL TAVIRA",
      "house": "43",
      "postcode": "8800-601",
      "city": "TAVIRA",
      "lon": "-7.628975416636821",
      "lat": "37.13739840976385"
    },
    {
      "id": "pt.ine.add.PTCONT.1714355",
      "street": "R FR GIL TAVIRA",
      "house": "39",
      "postcode": "8800-601",
      "city": "TAVIRA",
      "lon": "-7.628999658980849",
      "lat": "37.13713720779821"
    },
    {
      "id": "pt.ine.add.PTCONT.1729047",
      "street": "CP 148 T",
      "house": "",
      "postcode": "8800-225",
      "city": "TAVIRA",
      "lon": "-7.632048181791574",
      "lat": "37.13565438660198"
    },
    {
      "id": "pt.ine.add.PTCONT.1731550",
      "street": "R FR GIL DE TAVIRA",
      "house": "",
      "postcode": "8800-601",
      "city": "TAVIRA",
      "lon": "-7.6289805580806895",
      "lat": "37.136623526920744"
    },
    {
      "id": "pt.ine.add.PTCONT.1746378",
      "street": "URB VALE CARANGUEIJO",
      "house": "",
      "postcode": "8800-225",
      "city": "TAVIRA",
      "lon": "-7.632832526303889",
      "lat": "37.136180309752135"
    },
    {
      "id": "pt.ine.add.PTCONT.1746386",
      "street": "R FR GIL DE TAVIRA",
      "house": "",
      "postcode": "8800-601",
      "city": "TAVIRA",
      "lon": "-7.628929907133038",
      "lat": "37.13577632251434"
    },
    {
      "id": "pt.ine.add.PTCONT.1746699",
      "street": "R FR GIL DE TAVIRA",
      "house": "",
      "postcode": "8800-601",
      "city": "TAVIRA",
      "lon": "-7.628937813167537",
      "lat": "37.136280945336175"
    },
    {
      "id": "pt.ine.add.PTCONT.1750320",
      "street": "R MARIA VELEDA",
      "house": "",
      "postcode": "8800-601",
      "city": "TAVIRA",
      "lon": "-7.629922868860114",
      "lat": "37.13708706727699"
    },
    {
      "id": "pt.ine.add.PTCONT.1750321",
      "street": "R MARIA VELEDA",
      "house": "",
      "postcode": "8800-601",
      "city": "TAVIRA",
      "lon": "-7.629922868860114",
      "lat": "37.13708706727699"
    },
    {
      "id": "pt.ine.add.PTCONT.1753399",
      "street": "R CAP JOAQUIM MARIA GALHARDO",
      "house": "",
      "postcode": "8800-601",
      "city": "TAVIRA",
      "lon": "-7.629085927657257",
      "lat": "37.1377052373629"
    },
    {
      "id": "pt.ine.add.PTCONT.1755474",
      "street": "R FR GIL DE TAVIRA",
      "house": "",
      "postcode": "8800-601",
      "city": "TAVIRA",
      "lon": "-7.629011570855545",
      "lat": "37.1370381427385"
    },
    {
      "id": "pt.ine.add.PTCONT.1756428",
      "street": "R CAP JOAQUIM MARIA GALHARDO",
      "house": "",
      "postcode": "8800-601",
      "city": "TAVIRA",
      "lon": "-7.629412603184886",
      "lat": "37.13766157336172"
    },
    {
      "id": "pt.ine.add.PTCONT.1756429",
      "street": "R CAP JOAQUIM MARIA GALHARDO",
      "house": "",
      "postcode": "8800-601",
      "city": "TAVIRA",
      "lon": "-7.629412603184886",
      "lat": "37.13766157336172"
    },
    {
      "id": "pt.ine.add.PTCONT.1764814",
      "street": "R FR GIL DE TAVIRA",
      "house": "",
      "postcode": "8800-601",
      "city": "TAVIRA",
      "lon": "-7.6283457720078385",
      "lat": "37.13561164718546"
    },
    {
      "id": "pt.ine.add.PTCONT.1764815",
      "street": "R MARIA VELEDA",
      "house": "9 A",
      "postcode": "8800-601",
      "city": "TAVIRA",
      "lon": "-7.629483354564086",
      "lat": "37.13717530593426"
    },
    {
      "id": "pt.ine.add.PTCONT.1764816",
      "street": "R MARIA VELEDA",
      "house": "",
      "postcode": "8800-601",
      "city": "TAVIRA",
      "lon": "-7.629483354564086",
      "lat": "37.13717530593426"
    },
    {
      "id": "pt.ine.add.PTCONT.1783035",
      "street": "R MARIA VELEDA",
      "house": "18 B",
      "postcode": "8800-601",
      "city": "TAVIRA",
      "lon": "-7.629810146965538",
      "lat": "37.13711362028204"
    },
    {
      "id": "pt.ine.add.PTCONT.1783038",
      "street": "R MARIA VELEDA",
      "house": "",
      "postcode": "8800-601",
      "city": "TAVIRA",
      "lon": "-7.629810146965538",
      "lat": "37.13711362028204"
    },
    {
      "id": "pt.ine.add.PTCONT.1792349",
      "street": "R CAP JOAQUIM MARIA GALHARDO",
      "house": "",
      "postcode": "8800-601",
      "city": "TAVIRA",
      "lon": "-7.6295140119428515",
      "lat": "37.13764398319662"
    },
    {
      "id": "pt.ine.add.PTCONT.1792350",
      "street": "R CAP JOAQUIM MARIA GALHARDO",
      "house": "",
      "postcode": "8800-601",
      "city": "TAVIRA",
      "lon": "-7.6295140119428515",
      "lat": "37.13764398319662"
    },
    {
      "id": "pt.ine.add.PTCONT.1792351",
      "street": "R MARIA VELEDA",
      "house": "",
      "postcode": "8800-601",
      "city": "TAVIRA",
      "lon": "-7.630373219092966",
      "lat": "37.137061946585554"
    },
    {
      "id": "pt.ine.add.PTCONT.1792352",
      "street": "R MARIA VELEDA",
      "house": "",
      "postcode": "8800-601",
      "city": "TAVIRA",
      "lon": "-7.630373219092966",
      "lat": "37.137061946585554"
    },
    {
      "id": "pt.ine.add.PTCONT.1801261",
      "street": "R MARIA VELEDA",
      "house": "",
      "postcode": "8800-601",
      "city": "TAVIRA",
      "lon": "-7.629279403010517",
      "lat": "37.137381681183236"
    },
    {
      "id": "pt.ine.add.PTCONT.1801262",
      "street": "R MARIA VELEDA",
      "house": "",
      "postcode": "8800-601",
      "city": "TAVIRA",
      "lon": "-7.629279403010517",
      "lat": "37.137381681183236"
    },
    {
      "id": "pt.ine.add.PTCONT.1814928",
      "street": "R FR GIL DE TAVIRA",
      "house": "",
      "postcode": "8800-601",
      "city": "TAVIRA",
      "lon": "-7.628918055157771",
      "lat": "37.13586637732028"
    },
    {
      "id": "pt.ine.add.PTCONT.1820520",
      "street": "R FR GIL DE TAVIRA",
      "house": "21",
      "postcode": "8800-601",
      "city": "TAVIRA",
      "lon": "-7.628937394654984",
      "lat": "37.13634401720255"
    },
    {
      "id": "pt.ine.add.PTCONT.1834994",
      "street": "R MARIA VELEDA",
      "house": "5A",
      "postcode": "8800-601",
      "city": "TAVIRA",
      "lon": "-7.629268805939389",
      "lat": "37.13728252042631"
    },
    {
      "id": "pt.ine.add.PTCONT.1834995",
      "street": "R MARIA VELEDA",
      "house": "",
      "postcode": "8800-601",
      "city": "TAVIRA",
      "lon": "-7.629268805939389",
      "lat": "37.13728252042631"
    },
    {
      "id": "pt.ine.add.PTCONT.1837979",
      "street": "R FR GIL DE TAVIRA",
      "house": "",
      "postcode": "8800-601",
      "city": "TAVIRA",
      "lon": "-7.628931043086177",
      "lat": "37.13560512743063"
    },
    {
      "id": "pt.ine.add.PTCONT.1841161",
      "street": "R CAP JOAQUIM MARIA GALHARDO",
      "house": "",
      "postcode": "8800-601",
      "city": "TAVIRA",
      "lon": "-7.629176082174466",
      "lat": "37.13768759963323"
    }
  ]
}