{
  "data": {
    "distrito": "Coimbra",
    "concelho": "Arganil",
    "freguesia": "Arganil",
    "OBJECTID": 98,
    "BGRI2021": "06010200417",
    "DT21": "06",
    "DTMN21": "0601",
    "DTMNFR21": "060102",
    "DTMNFRSEC21": "060102004",
    "SECNUM21": "004",
    "SSNUM21": "17",
    "SECSSNUM21": "00417",
    "OBJECTID_1": 47350,
    "DT": "06",
    "CC": "01",
    "fr": "02",
    "SEC": "004",
    "SS": "17"
  },
  "addresses": [
    {
      "id": "pt.ine.add.PTCONT.1120559",
      "street": "R MARMORES",
      "house": "",
      "postcode": "3300-118",
      "city": "ARGANIL",
      "lon": "-8.062502646269214",
      "lat": "40.23016554240501"
    },
    {
      "id": "pt.ine.add.PTCONT.1131041",
      "street": "R MARMORES",
      "house": "",
      "postcode": "3300-118",
      "city": "ARGANIL",
      "lon": "-8.062807261188155",
      "lat": "40.23102128245456"
    },
    {
      "id": "pt.ine.add.PTCONT.1147202",
      "street": "AV S PEDRO",
      "house": "",
      "postcode": "3300-118",
      "city": "ARGANIL",
      "lon": "-8.06234900615865",
      "lat": "40.231021003208525"
    },
    {
      "id": "pt.ine.add.PTCONT.1149579",
      "street": "AV S PEDRO",
      "house": "",
      "postcode": "3300-118",
      "city": "ARGANIL",
      "lon": "-8.061657168144528",
      "lat": "40.22966970240313"
    },
    {
      "id": "pt.ine.add.PTCONT.1211975",
      "street": "AV S PEDRO",
      "house": "",
      "postcode": "3300-118",
      "city": "ARGANIL",
      "lon": "-8.062959938534364",
      "lat": "40.23109342178829"
    },
    {
      "id": "pt.ine.add.PTCONT.1258223",
      "street": "R COMEND SAUL BRANDﾃグ",
      "house": "",
      "postcode": "3300-035",
      "city": "ARGANIL",
      "lon": "-8.06333522220256",
      "lat": "40.23179610390605"
    },
    {
      "id": "pt.ine.add.PTCONT.1282936",
      "street": "R MARMORES",
      "house": "",
      "postcode": "3300-118",
      "city": "ARGANIL",
      "lon": "-8.062572361378745",
      "lat": "40.230922075327"
    },
    {
      "id": "pt.ine.add.PTCONT.1319043",
      "street": "AV S PEDRO",
      "house": "",
      "postcode": "3300-118",
      "city": "ARGANIL",
      "lon": "-8.062032364607433",
      "lat": "40.23043542972891"
    },
    {
      "id": "pt.ine.add.PTCONT.1322431",
      "street": "R COMEND SAUL BRANDﾃグ",
      "house": "",
      "postcode": "3300-035",
      "city": "ARGANIL",
      "lon": "-8.063523088155419",
      "lat": "40.23193130454856"
    },
    {
      "id": "pt.ine.add.PTCONT.1322432",
      "street": "R MARMORES",
      "house": "",
      "postcode": "3300-118",
      "city": "ARGANIL",
      "lon": "-8.063054273709263",
      "lat": "40.23076926876664"
    },
    {
      "id": "pt.ine.add.PTCONT.1323260",
      "street": "R COMEND SAUL BRANDﾃグ",
      "house": "",
      "postcode": "3300-035",
      "city": "ARGANIL",
      "lon": "-8.064098367725226",
      "lat": "40.23240895827796"
    },
    {
      "id": "pt.ine.add.PTCONT.1329957",
      "street": "R MARIANO LOPES MORGADO",
      "house": "",
      "postcode": "3300-118",
      "city": "ARGANIL",
      "lon": "-8.06261907239152",
      "lat": "40.23120128474578"
    },
    {
      "id": "pt.ine.add.PTCONT.1339687",
      "street": "R COMEND SAUL BRANDﾃグ",
      "house": "",
      "postcode": "3300-035",
      "city": "ARGANIL",
      "lon": "-8.063969186930176",
      "lat": "40.23233683449954"
    }
  ]
}