{
  "data": {
    "distrito": "Guarda",
    "concelho": "Sabugal",
    "freguesia": "Rendo",
    "OBJECTID": 747,
    "BGRI2021": "09112700127",
    "DT21": "09",
    "DTMN21": "0911",
    "DTMNFR21": "091127",
    "DTMNFRSEC21": "091127001",
    "SECNUM21": "001",
    "SSNUM21": "27",
    "SECSSNUM21": "00127",
    "OBJECTID_1": 80788,
    "DT": "09",
    "CC": "11",
    "fr": "27",
    "SEC": "001",
    "SS": "27"
  },
  "addresses": [
    {
      "id": "pt.ine.add.PTCONT.1901740",
      "street": "R AMOREIRA",
      "house": "4",
      "postcode": "6320-283",
      "city": "RENDO",
      "lon": "-7.038237573456617",
      "lat": "40.38133408476953"
    },
    {
      "id": "pt.ine.add.PTCONT.1914323",
      "street": "R SO MIGUEL",
      "house": "4",
      "postcode": "6320-283",
      "city": "RENDO",
      "lon": "-7.040466945186561",
      "lat": "40.38110302304017"
    },
    {
      "id": "pt.ine.add.PTCONT.1925201",
      "street": "TV S MIGUEL",
      "house": "3",
      "postcode": "6320-283",
      "city": "RENDO",
      "lon": "-7.039025852765128",
      "lat": "40.381377567398324"
    },
    {
      "id": "pt.ine.add.PTCONT.1965151",
      "street": "TV S MIGUEL",
      "house": "7",
      "postcode": "6320-283",
      "city": "RENDO",
      "lon": "-7.03885606194657",
      "lat": "40.38168214217383"
    },
    {
      "id": "pt.ine.add.PTCONT.1965152",
      "street": "R AMOREIRA",
      "house": "2",
      "postcode": "6320-283",
      "city": "RENDO",
      "lon": "-7.038157050377138",
      "lat": "40.38121625291956"
    },
    {
      "id": "pt.ine.add.PTCONT.1967643",
      "street": "R HORTINHAS",
      "house": "4",
      "postcode": "6320-283",
      "city": "RENDO",
      "lon": "-7.041927360836778",
      "lat": "40.38108979783573"
    },
    {
      "id": "pt.ine.add.PTCONT.1967644",
      "street": "R FONTE NOGUEIRA",
      "house": "10",
      "postcode": "6320-283",
      "city": "RENDO",
      "lon": "-7.043562355804318",
      "lat": "40.38120427405379"
    },
    {
      "id": "pt.ine.add.PTCONT.1972638",
      "street": "TV S MIGUEL",
      "house": "1",
      "postcode": "6320-283",
      "city": "RENDO",
      "lon": "-7.0390626317094664",
      "lat": "40.38128786202177"
    },
    {
      "id": "pt.ine.add.PTCONT.1857083",
      "street": "R AMOREIRA",
      "house": "8",
      "postcode": "6320-283",
      "city": "RENDO",
      "lon": "-7.038655173251855",
      "lat": "40.38172526759883"
    },
    {
      "id": "pt.ine.add.PTCONT.1858396",
      "street": "R AMOREIRA",
      "house": "1",
      "postcode": "6320-283",
      "city": "RENDO",
      "lon": "-7.038193830375347",
      "lat": "40.38112654783087"
    },
    {
      "id": "pt.ine.add.PTCONT.1864469",
      "street": "R HORTINHAS",
      "house": "2",
      "postcode": "6320-283",
      "city": "RENDO",
      "lon": "-7.04177865776948",
      "lat": "40.380818234303916"
    },
    {
      "id": "pt.ine.add.PTCONT.1872454",
      "street": "R FONTE NOGUEIRA",
      "house": "14",
      "postcode": "6320-283",
      "city": "RENDO",
      "lon": "-7.0439369502694085",
      "lat": "40.381342883196815"
    },
    {
      "id": "pt.ine.add.PTCONT.1877250",
      "street": "R HORTINHAS",
      "house": "6",
      "postcode": "6320-283",
      "city": "RENDO",
      "lon": "-7.04209641003905",
      "lat": "40.380830238160904"
    },
    {
      "id": "pt.ine.add.PTCONT.1879147",
      "street": "R HORTINHAS",
      "house": "8",
      "postcode": "6320-283",
      "city": "RENDO",
      "lon": "-7.04316290869533",
      "lat": "40.381146477491825"
    },
    {
      "id": "pt.ine.add.PTCONT.1884119",
      "street": "R FONTE NOGUEIRA",
      "house": "12",
      "postcode": "6320-283",
      "city": "RENDO",
      "lon": "-7.043690564912333",
      "lat": "40.38128653010108"
    },
    {
      "id": "pt.ine.add.PTCONT.1888938",
      "street": "R SO MIGUEL",
      "house": "6",
      "postcode": "6320-283",
      "city": "RENDO",
      "lon": "-7.040844877546243",
      "lat": "40.38103455094754"
    }
  ]
}