{
  "data": {
    "distrito": "Viseu",
    "concelho": "Vila Nova de Paiva",
    "freguesia": "Vila Cova à Coelheira",
    "OBJECTID": 110,
    "BGRI2021": "18220600129",
    "DT21": "18",
    "DTMN21": "1822",
    "DTMNFR21": "182206",
    "DTMNFRSEC21": "182206001",
    "SECNUM21": "001",
    "SSNUM21": "29",
    "SECSSNUM21": "00129",
    "OBJECTID_1": 200557,
    "DT": "18",
    "CC": "22",
    "fr": "06",
    "SEC": "001",
    "SS": "29"
  },
  "addresses": [
    {
      "id": "pt.ine.add.PTCONT.5427408",
      "street": "R ANJO DA GUARDA DE PORTUGAL",
      "house": "359",
      "postcode": "3650-105",
      "city": "VILA COVA À COELHEIRA VNP",
      "lon": "-7.8294417313097675",
      "lat": "40.86271907012991"
    },
    {
      "id": "pt.ine.add.PTCONT.5459169",
      "street": "R NSA SRA DOS NAVEGANTES",
      "house": "69",
      "postcode": "3650-105",
      "city": "VILA COVA À COELHEIRA VNP",
      "lon": "-7.832816285055811",
      "lat": "40.8613861841559"
    },
    {
      "id": "pt.ine.add.PTCONT.5471220",
      "street": "R TORGAL",
      "house": "34",
      "postcode": "3650-105",
      "city": "VILA COVA À COELHEIRA VNP",
      "lon": "-7.833373289427078",
      "lat": "40.86148668602546"
    },
    {
      "id": "pt.ine.add.PTCONT.5496918",
      "street": "R TORGAL",
      "house": "12",
      "postcode": "3650-105",
      "city": "VILA COVA À COELHEIRA VNP",
      "lon": "-7.833112964004273",
      "lat": "40.86135093676826"
    },
    {
      "id": "pt.ine.add.PTCONT.5513786",
      "street": "TV POÇO DO EVO",
      "house": "65",
      "postcode": "3650-105",
      "city": "VILA COVA À COELHEIRA VNP",
      "lon": "-7.830891379787998",
      "lat": "40.862146567957375"
    },
    {
      "id": "pt.ine.add.PTCONT.5520699",
      "street": "TV POÇO DO EVO",
      "house": "59",
      "postcode": "3650-105",
      "city": "VILA COVA À COELHEIRA VNP",
      "lon": "-7.830619441930471",
      "lat": "40.86195675366319"
    },
    {
      "id": "pt.ine.add.PTCONT.5529662",
      "street": "R TORGAL",
      "house": "24",
      "postcode": "3650-105",
      "city": "VILA COVA À COELHEIRA VNP",
      "lon": "-7.833195663620364",
      "lat": "40.86142319049488"
    },
    {
      "id": "pt.ine.add.PTCONT.5560918",
      "street": "R TORGAL",
      "house": "42",
      "postcode": "3650-105",
      "city": "VILA COVA À COELHEIRA VNP",
      "lon": "-7.833444412896803",
      "lat": "40.8614958756483"
    },
    {
      "id": "pt.ine.add.PTCONT.5571708",
      "street": "R ANJO DA GUARDA DE PORTUGAL",
      "house": "301",
      "postcode": "3650-105",
      "city": "VILA COVA À COELHEIRA VNP",
      "lon": "-7.829789558742694",
      "lat": "40.861873530956764"
    },
    {
      "id": "pt.ine.add.PTCONT.5575752",
      "street": "R MINAS DO ARRECAIO",
      "house": "268",
      "postcode": "3650-105",
      "city": "VILA COVA À COELHEIRA VNP",
      "lon": "-7.834748602621167",
      "lat": "40.8616073143462"
    },
    {
      "id": "pt.ine.add.PTCONT.5581310",
      "street": "R NOSSA SENHORA DOS NAVEGANTES",
      "house": "89",
      "postcode": "3650-105",
      "city": "VILA COVA À COELHEIRA VNP",
      "lon": "-7.83255412946131",
      "lat": "40.86165564643883"
    },
    {
      "id": "pt.ine.add.PTCONT.5584912",
      "street": "R ANJO DA GUARDA DE PORTUGAL",
      "house": "407",
      "postcode": "3650-105",
      "city": "VILA COVA À COELHEIRA VNP",
      "lon": "-7.828896542355397",
      "lat": "40.86262758528648"
    },
    {
      "id": "pt.ine.add.PTCONT.5590575",
      "street": "R NSA SRA DOS NAVEGANTES",
      "house": "55",
      "postcode": "3650-105",
      "city": "VILA COVA À COELHEIRA VNP",
      "lon": "-7.832793417857553",
      "lat": "40.8611970230872"
    },
    {
      "id": "pt.ine.add.PTCONT.5614649",
      "street": "R ANJO DA GUARDA DE PORTUGAL",
      "house": "343",
      "postcode": "3650-105",
      "city": "VILA COVA À COELHEIRA VNP",
      "lon": "-7.829752209865684",
      "lat": "40.86226064058276"
    },
    {
      "id": "pt.ine.add.PTCONT.5622072",
      "street": "R NSA SRA DOS NAVEGANTES",
      "house": "167",
      "postcode": "3650-105",
      "city": "VILA COVA À COELHEIRA VNP",
      "lon": "-7.83155738107755",
      "lat": "40.861752098240636"
    },
    {
      "id": "pt.ine.add.PTCONT.5642990",
      "street": "TV MOINHO DE VENTO",
      "house": "50",
      "postcode": "3650-105",
      "city": "VILA COVA À COELHEIRA VNP",
      "lon": "-7.83327779491991",
      "lat": "40.86162151037061"
    },
    {
      "id": "pt.ine.add.PTCONT.5644841",
      "street": "R TORGAL",
      "house": "50",
      "postcode": "3650-105",
      "city": "VILA COVA À COELHEIRA VNP",
      "lon": "-7.833527437638512",
      "lat": "40.86149609130186"
    },
    {
      "id": "pt.ine.add.PTCONT.5659725",
      "street": "R ANJO DA GUARDA DE PORTUGAL",
      "house": "227",
      "postcode": "3650-105",
      "city": "VILA COVA À COELHEIRA VNP",
      "lon": "-7.830169840962482",
      "lat": "40.86171244327427"
    }
  ]
}