{
  "data": {
    "distrito": "Faro",
    "concelho": "Monchique",
    "freguesia": "Monchique",
    "OBJECTID": 238,
    "BGRI2021": "08090300622",
    "DT21": "08",
    "DTMN21": "0809",
    "DTMNFR21": "080903",
    "DTMNFRSEC21": "080903006",
    "SECNUM21": "006",
    "SSNUM21": "22",
    "SECSSNUM21": "00622",
    "OBJECTID_1": 70166,
    "DT": "08",
    "CC": "09",
    "fr": "03",
    "SEC": "006",
    "SS": "22"
  },
  "addresses": [
    {
      "id": "pt.ine.add.PTCONT.1513973",
      "street": "CASA NINHO",
      "house": "",
      "postcode": "8550-218",
      "city": "MONCHIQUE",
      "lon": "-8.585952100367951",
      "lat": "37.30861397594267"
    },
    {
      "id": "pt.ine.add.PTCONT.1586551",
      "street": "",
      "house": "",
      "postcode": "8550-218",
      "city": "MONCHIQUE",
      "lon": "-8.588431479479114",
      "lat": "37.306369913252894"
    },
    {
      "id": "pt.ine.add.PTCONT.1586552",
      "street": "CASA ESMERALDA",
      "house": "",
      "postcode": "8550-218",
      "city": "MONCHIQUE",
      "lon": "-8.589614193020214",
      "lat": "37.307960176356545"
    },
    {
      "id": "pt.ine.add.PTCONT.1598579",
      "street": "",
      "house": "",
      "postcode": "8550-218",
      "city": "MONCHIQUE",
      "lon": "-8.588296124966817",
      "lat": "37.30637043394253"
    },
    {
      "id": "pt.ine.add.PTCONT.1648358",
      "street": "CASA TIGINHA",
      "house": "",
      "postcode": "8550-218",
      "city": "MONCHIQUE",
      "lon": "-8.590766423187581",
      "lat": "37.30823504463905"
    },
    {
      "id": "pt.ine.add.PTCONT.1667462",
      "street": "CASA CINCO PALMEIRAS",
      "house": "",
      "postcode": "8550-218",
      "city": "MONCHIQUE",
      "lon": "-8.588138265657983",
      "lat": "37.306380051290304"
    },
    {
      "id": "pt.ine.add.PTCONT.1699454",
      "street": "",
      "house": "",
      "postcode": "8550-218",
      "city": "MONCHIQUE",
      "lon": "-8.587811484382541",
      "lat": "37.30643536898354"
    },
    {
      "id": "pt.ine.add.PTCONT.1704834",
      "street": "",
      "house": "",
      "postcode": "8550-218",
      "city": "MONCHIQUE",
      "lon": "-8.58676746581193",
      "lat": "37.30726832151862"
    },
    {
      "id": "pt.ine.add.PTCONT.1710749",
      "street": "CASA RIFT",
      "house": "",
      "postcode": "8550-218",
      "city": "MONCHIQUE",
      "lon": "-8.58679457252231",
      "lat": "37.30802508107657"
    },
    {
      "id": "pt.ine.add.PTCONT.1726736",
      "street": "",
      "house": "",
      "postcode": "8550-218",
      "city": "MONCHIQUE",
      "lon": "-8.586969185159273",
      "lat": "37.308925439353935"
    },
    {
      "id": "pt.ine.add.PTCONT.1745621",
      "street": "CASA MONTANHA",
      "house": "",
      "postcode": "8550-218",
      "city": "MONCHIQUE",
      "lon": "-8.58967298901923",
      "lat": "37.308356401755674"
    },
    {
      "id": "pt.ine.add.PTCONT.1843361",
      "street": "",
      "house": "",
      "postcode": "8550-218",
      "city": "MONCHIQUE",
      "lon": "-8.588125194493573",
      "lat": "37.30608276227032"
    }
  ]
}