{
  "data": {
    "distrito": "Lisboa",
    "concelho": "Cascais",
    "freguesia": "União das freguesias de Carcavelos e Parede",
    "OBJECTID": 269,
    "BGRI2021": "11050701209",
    "DT21": "11",
    "DTMN21": "1105",
    "DTMNFR21": "110507",
    "DTMNFRSEC21": "110507012",
    "SECNUM21": "012",
    "SSNUM21": "09",
    "SECSSNUM21": "01209",
    "OBJECTID_1": 101676,
    "DT": "11",
    "CC": "05",
    "fr": "07",
    "SEC": "012",
    "SS": "09"
  },
  "addresses": [
    {
      "id": "pt.ine.add.PTCONT.2926684",
      "street": "AV GONÇALVES ZARCO",
      "house": "446",
      "postcode": "2775-508",
      "city": "CARCAVELOS",
      "lon": "-9.325227856698836",
      "lat": "38.69954483657781"
    },
    {
      "id": "pt.ine.add.PTCONT.2990699",
      "street": "AV GONÇALVES ZARCO",
      "house": "550",
      "postcode": "2775-508",
      "city": "CARCAVELOS",
      "lon": "-9.325024741898137",
      "lat": "38.70046570156715"
    },
    {
      "id": "pt.ine.add.PTCONT.3055195",
      "street": "AV GONÇALVES ZARCO",
      "house": "510",
      "postcode": "2775-508",
      "city": "CARCAVELOS",
      "lon": "-9.325133392087603",
      "lat": "38.700086266899135"
    },
    {
      "id": "pt.ine.add.PTCONT.3065902",
      "street": "R ILHA DE S MIGUEL",
      "house": "",
      "postcode": "2775-798",
      "city": "CARCAVELOS",
      "lon": "-9.324608452316246",
      "lat": "38.70031681216078"
    },
    {
      "id": "pt.ine.add.PTCONT.3102283",
      "street": "R ILHA DE S MIGUEL",
      "house": "141",
      "postcode": "2775-798",
      "city": "CARCAVELOS",
      "lon": "-9.32460680828108",
      "lat": "38.700217743260794"
    },
    {
      "id": "pt.ine.add.PTCONT.3120560",
      "street": "R ILHA DE S MIGUEL",
      "house": "59",
      "postcode": "2775-798",
      "city": "CARCAVELOS",
      "lon": "-9.32482455975841",
      "lat": "38.699485893297215"
    },
    {
      "id": "pt.ine.add.PTCONT.3138746",
      "street": "AV GONÇALVES ZARCO",
      "house": "518",
      "postcode": "2775-508",
      "city": "CARCAVELOS",
      "lon": "-9.325134737794755",
      "lat": "38.70016732325828"
    },
    {
      "id": "pt.ine.add.PTCONT.3250259",
      "street": "AV GONÇALVES ZARCO",
      "house": "492",
      "postcode": "2775-508",
      "city": "CARCAVELOS",
      "lon": "-9.325153836080768",
      "lat": "38.699932926096935"
    },
    {
      "id": "pt.ine.add.PTCONT.3286986",
      "street": "R ILHA DE S MIGUEL",
      "house": "",
      "postcode": "2775-798",
      "city": "CARCAVELOS",
      "lon": "-9.324600845213695",
      "lat": "38.70055109212873"
    },
    {
      "id": "pt.ine.add.PTCONT.3286987",
      "street": "R ILHA DE S MIGUEL",
      "house": "",
      "postcode": "2775-798",
      "city": "CARCAVELOS",
      "lon": "-9.324621888294514",
      "lat": "38.70043377646481"
    },
    {
      "id": "pt.ine.add.PTCONT.3286988",
      "street": "R ILHA DE S MIGUEL",
      "house": "",
      "postcode": "2775-798",
      "city": "CARCAVELOS",
      "lon": "-9.324628598566328",
      "lat": "38.70014545890991"
    },
    {
      "id": "pt.ine.add.PTCONT.3314936",
      "street": "AV GONÇALVES ZARCO",
      "house": "442",
      "postcode": "2775-508",
      "city": "CARCAVELOS",
      "lon": "-9.325238153308387",
      "lat": "38.69947266929649"
    },
    {
      "id": "pt.ine.add.PTCONT.3314939",
      "street": "R ILHA DE S MIGUEL",
      "house": "89",
      "postcode": "2775-798",
      "city": "CARCAVELOS",
      "lon": "-9.324817551303966",
      "lat": "38.69975619835431"
    },
    {
      "id": "pt.ine.add.PTCONT.3363579",
      "street": "AV GONÇALVES ZARCO",
      "house": "472",
      "postcode": "2775-508",
      "city": "CARCAVELOS",
      "lon": "-9.325185772905122",
      "lat": "38.69977946811385"
    },
    {
      "id": "pt.ine.add.PTCONT.3412153",
      "street": "R ILHA DE S MIGUEL",
      "house": "17",
      "postcode": "2775-798",
      "city": "CARCAVELOS",
      "lon": "-9.32491082201382",
      "lat": "38.69914271811259"
    },
    {
      "id": "pt.ine.add.PTCONT.3453684",
      "street": "R ILHA DE S MIGUEL",
      "house": "",
      "postcode": "2775-798",
      "city": "CARCAVELOS",
      "lon": "-9.32465008988547",
      "lat": "38.700055162027176"
    },
    {
      "id": "pt.ine.add.PTCONT.2273603",
      "street": "AV GONÇALVES ZARCO",
      "house": "566",
      "postcode": "2775-508",
      "city": "CARCAVELOS",
      "lon": "-9.325004297506467",
      "lat": "38.70061904233984"
    },
    {
      "id": "pt.ine.add.PTCONT.2296262",
      "street": "AV GONÇALVES ZARCO",
      "house": "424",
      "postcode": "2775-508",
      "city": "CARCAVELOS",
      "lon": "-9.325248300365642",
      "lat": "38.69939149575084"
    },
    {
      "id": "pt.ine.add.PTCONT.2296263",
      "street": "AV GONÇALVES ZARCO",
      "house": "416",
      "postcode": "2775-508",
      "city": "CARCAVELOS",
      "lon": "-9.3253832235328",
      "lat": "38.699209964252276"
    },
    {
      "id": "pt.ine.add.PTCONT.2332189",
      "street": "AV GONÇALVES ZARCO",
      "house": "538",
      "postcode": "2775-508",
      "city": "CARCAVELOS",
      "lon": "-9.32505697823554",
      "lat": "38.70033025614904"
    },
    {
      "id": "pt.ine.add.PTCONT.2359126",
      "street": "R ILHA DE S MIGUEL",
      "house": "75",
      "postcode": "2775-798",
      "city": "CARCAVELOS",
      "lon": "-9.324510395395496",
      "lat": "38.700642091685225"
    },
    {
      "id": "pt.ine.add.PTCONT.2382670",
      "street": "R ILHA DE S MIGUEL",
      "house": "39",
      "postcode": "2775-798",
      "city": "CARCAVELOS",
      "lon": "-9.3248681394402",
      "lat": "38.69934132450639"
    },
    {
      "id": "pt.ine.add.PTCONT.2386295",
      "street": "R ILHA DE S MIGUEL",
      "house": "",
      "postcode": "2775-798",
      "city": "CARCAVELOS",
      "lon": "-9.324814262730605",
      "lat": "38.699558060548604"
    },
    {
      "id": "pt.ine.add.PTCONT.2411514",
      "street": "AV GONÇALVES ZARCO",
      "house": "582",
      "postcode": "2775-508",
      "city": "CARCAVELOS",
      "lon": "-9.32497176194179",
      "lat": "38.70073647521713"
    },
    {
      "id": "pt.ine.add.PTCONT.2446304",
      "street": "R ILHA DE S MIGUEL",
      "house": "171",
      "postcode": "2775-798",
      "city": "CARCAVELOS",
      "lon": "-9.324611292032394",
      "lat": "38.70048793116578"
    },
    {
      "id": "pt.ine.add.PTCONT.2460739",
      "street": "AV GONÇALVES ZARCO",
      "house": "560",
      "postcode": "2775-508",
      "city": "CARCAVELOS",
      "lon": "-9.325025937989198",
      "lat": "38.70053775166238"
    },
    {
      "id": "pt.ine.add.PTCONT.2523268",
      "street": "R ILHA DE S MIGUEL",
      "house": "",
      "postcode": "2775-798",
      "city": "CARCAVELOS",
      "lon": "-9.324889480754793",
      "lat": "38.69924202131181"
    },
    {
      "id": "pt.ine.add.PTCONT.2541429",
      "street": "R ILHA DE S MIGUEL",
      "house": "9",
      "postcode": "2775-798",
      "city": "CARCAVELOS",
      "lon": "-9.324989776682301",
      "lat": "38.69905183541636"
    },
    {
      "id": "pt.ine.add.PTCONT.2622815",
      "street": "AV GONÇALVES ZARCO",
      "house": "458",
      "postcode": "2775-508",
      "city": "CARCAVELOS",
      "lon": "-9.32519457430241",
      "lat": "38.699617238211445"
    },
    {
      "id": "pt.ine.add.PTCONT.2652255",
      "street": "R ILHA DE S MIGUEL",
      "house": "109",
      "postcode": "2775-798",
      "city": "CARCAVELOS",
      "lon": "-9.32475143384869",
      "lat": "38.69992802018102"
    },
    {
      "id": "pt.ine.add.PTCONT.2687985",
      "street": "AV GONÇALVES ZARCO",
      "house": "590",
      "postcode": "2775-508",
      "city": "CARCAVELOS",
      "lon": "-9.324972808484846",
      "lat": "38.7007995190488"
    },
    {
      "id": "pt.ine.add.PTCONT.2698148",
      "street": "AV GONÇALVES ZARCO",
      "house": "530",
      "postcode": "2775-508",
      "city": "CARCAVELOS",
      "lon": "-9.325090261083632",
      "lat": "38.70025785455574"
    },
    {
      "id": "pt.ine.add.PTCONT.2829947",
      "street": "AV GONÇALVES ZARCO",
      "house": "502",
      "postcode": "2775-508",
      "city": "CARCAVELOS",
      "lon": "-9.325132046385862",
      "lat": "38.70000521053882"
    },
    {
      "id": "pt.ine.add.PTCONT.2835908",
      "street": "AV GONÇALVES ZARCO",
      "house": "480",
      "postcode": "2775-508",
      "city": "CARCAVELOS",
      "lon": "-9.325036215559534",
      "lat": "38.69977198503444"
    },
    {
      "id": "pt.ine.add.PTCONT.2872124",
      "street": "R ILHA DE S MIGUEL",
      "house": "49",
      "postcode": "2775-798",
      "city": "CARCAVELOS",
      "lon": "-9.324846349620351",
      "lat": "38.69941360890393"
    },
    {
      "id": "pt.ine.add.PTCONT.2897137",
      "street": "R ILHA DESAO MIGUEL",
      "house": "",
      "postcode": "2775-798",
      "city": "CARCAVELOS",
      "lon": "-9.32461308554976",
      "lat": "38.70059600632413"
    }
  ]
}