{
  "data": {
    "distrito": "Santarém",
    "concelho": "Ourém",
    "freguesia": "União das freguesias de Gondemaria e Olival",
    "OBJECTID": 935,
    "BGRI2021": "14212000243",
    "DT21": "14",
    "DTMN21": "1421",
    "DTMNFR21": "142120",
    "DTMNFRSEC21": "142120002",
    "SECNUM21": "002",
    "SSNUM21": "43",
    "SECSSNUM21": "00243",
    "OBJECTID_1": 158697,
    "DT": "14",
    "CC": "21",
    "fr": "20",
    "SEC": "002",
    "SS": "43"
  },
  "addresses": [
    {
      "id": "pt.ine.add.PTCONT.4399088",
      "street": "R FRANCELINA",
      "house": "12",
      "postcode": "2435-440",
      "city": "OLIVAL VNO",
      "lon": "-8.62065544911299",
      "lat": "39.70372088202182"
    },
    {
      "id": "pt.ine.add.PTCONT.4427863",
      "street": "R OUTEIRINHO",
      "house": "",
      "postcode": "2435-483",
      "city": "OLIVAL VNO",
      "lon": "-8.624122105853035",
      "lat": "39.70422865671805"
    },
    {
      "id": "pt.ine.add.PTCONT.4429072",
      "street": "R OUTEIRINHO",
      "house": "",
      "postcode": "2435-483",
      "city": "OLIVAL VNO",
      "lon": "-8.623828567793344",
      "lat": "39.70394168651446"
    },
    {
      "id": "pt.ine.add.PTCONT.4440117",
      "street": "R NSA SRA DA GUIA",
      "house": "",
      "postcode": "2435-440",
      "city": "OLIVAL VNO",
      "lon": "-8.620818629443665",
      "lat": "39.70536840423367"
    },
    {
      "id": "pt.ine.add.PTCONT.4452494",
      "street": "R OUTEIRINHO",
      "house": "20",
      "postcode": "2435-483",
      "city": "OLIVAL VNO",
      "lon": "-8.623694888697589",
      "lat": "39.70317669046788"
    },
    {
      "id": "pt.ine.add.PTCONT.4459054",
      "street": "R OUTEIRINHO",
      "house": "30",
      "postcode": "2435-483",
      "city": "OLIVAL VNO",
      "lon": "-8.62399276245925",
      "lat": "39.704076091444215"
    },
    {
      "id": "pt.ine.add.PTCONT.4468265",
      "street": "R OUTEIRINHO",
      "house": "14",
      "postcode": "2435-483",
      "city": "OLIVAL VNO",
      "lon": "-8.622891070663583",
      "lat": "39.703279156494204"
    },
    {
      "id": "pt.ine.add.PTCONT.4496671",
      "street": "R NSA SRA DA GUIA QTA VELHA",
      "house": "",
      "postcode": "2435-440",
      "city": "OLIVAL VNO",
      "lon": "-8.61844570533508",
      "lat": "39.70453172693096"
    },
    {
      "id": "pt.ine.add.PTCONT.4502639",
      "street": "R NSA SRA DA GUIA",
      "house": "35",
      "postcode": "2435-440",
      "city": "OLIVAL VNO",
      "lon": "-8.621252971023761",
      "lat": "39.705780882468844"
    },
    {
      "id": "pt.ine.add.PTCONT.4505182",
      "street": "R OUTEIRINHO",
      "house": "26",
      "postcode": "2435-483",
      "city": "OLIVAL VNO",
      "lon": "-8.623779313174637",
      "lat": "39.70357262411277"
    },
    {
      "id": "pt.ine.add.PTCONT.4507283",
      "street": "R OUTEIRINHO",
      "house": "",
      "postcode": "2435-483",
      "city": "OLIVAL VNO",
      "lon": "-8.62395842107872",
      "lat": "39.70416630260658"
    },
    {
      "id": "pt.ine.add.PTCONT.4535487",
      "street": "R NSA SRA DA GUIA",
      "house": "27",
      "postcode": "2435-440",
      "city": "OLIVAL VNO",
      "lon": "-8.620711660301422",
      "lat": "39.70508064237936"
    },
    {
      "id": "pt.ine.add.PTCONT.4543486",
      "street": "R BARREIRO",
      "house": "7",
      "postcode": "2435-440",
      "city": "OLIVAL VNO",
      "lon": "-8.622095869715027",
      "lat": "39.70625468532717"
    },
    {
      "id": "pt.ine.add.PTCONT.4578946",
      "street": "R NSA SRA DA GUIA",
      "house": "25",
      "postcode": "2435-440",
      "city": "OLIVAL VNO",
      "lon": "-8.62055982664854",
      "lat": "39.70504525350794"
    },
    {
      "id": "pt.ine.add.PTCONT.4603599",
      "street": "R NSA SRA DA GUIA",
      "house": "",
      "postcode": "2435-440",
      "city": "OLIVAL VNO",
      "lon": "-8.620783268843665",
      "lat": "39.70531451317322"
    },
    {
      "id": "pt.ine.add.PTCONT.4612139",
      "street": "R NSA SRA DA GUIA",
      "house": "",
      "postcode": "2435-440",
      "city": "OLIVAL VNO",
      "lon": "-8.62087743706871",
      "lat": "39.70544020998074"
    },
    {
      "id": "pt.ine.add.PTCONT.4631551",
      "street": "R NSA SRA DA GUIA",
      "house": "29",
      "postcode": "2435-440",
      "city": "OLIVAL VNO",
      "lon": "-8.620747527909328",
      "lat": "39.705206584114514"
    },
    {
      "id": "pt.ine.add.PTCONT.4656482",
      "street": "TV FREIXIEIRA",
      "house": "1",
      "postcode": "2435-440",
      "city": "OLIVAL VNO",
      "lon": "-8.621005761294295",
      "lat": "39.705448677430546"
    },
    {
      "id": "pt.ine.add.PTCONT.4658507",
      "street": "R OUTEIRINHO",
      "house": "28",
      "postcode": "2435-483",
      "city": "OLIVAL VNO",
      "lon": "-8.623979060523917",
      "lat": "39.70378793821661"
    }
  ]
}