{
  "data": {
    "distrito": "Santarém",
    "concelho": "Ourém",
    "freguesia": "União das freguesias de Gondemaria e Olival",
    "OBJECTID": 952,
    "BGRI2021": "14212000246",
    "DT21": "14",
    "DTMN21": "1421",
    "DTMNFR21": "142120",
    "DTMNFRSEC21": "142120002",
    "SECNUM21": "002",
    "SSNUM21": "46",
    "SECSSNUM21": "00246",
    "OBJECTID_1": 158915,
    "DT": "14",
    "CC": "21",
    "fr": "20",
    "SEC": "002",
    "SS": "46"
  },
  "addresses": [
    {
      "id": "pt.ine.add.PTCONT.4430550",
      "street": "R DR JOSE SIMÕES DE CARVALHO",
      "house": "",
      "postcode": "2435-477",
      "city": "OLIVAL VNO",
      "lon": "-8.584227358202922",
      "lat": "39.70702043868692"
    },
    {
      "id": "pt.ine.add.PTCONT.4450584",
      "street": "R DR JOSE MARIA SIMÕES DE CARVALHO",
      "house": "41",
      "postcode": "2435-477",
      "city": "OLIVAL VNO",
      "lon": "-8.586244489092243",
      "lat": "39.706994570859656"
    },
    {
      "id": "pt.ine.add.PTCONT.4454554",
      "street": "TV MOINHO",
      "house": "4",
      "postcode": "2435-477",
      "city": "OLIVAL VNO",
      "lon": "-8.58525335568364",
      "lat": "39.7069984346695"
    },
    {
      "id": "pt.ine.add.PTCONT.4454567",
      "street": "R DR JOSE SIMÕES DE CARVALHO",
      "house": "",
      "postcode": "2435-477",
      "city": "OLIVAL VNO",
      "lon": "-8.583679143648085",
      "lat": "39.70699554754413"
    },
    {
      "id": "pt.ine.add.PTCONT.4465125",
      "street": "R DR JOSE SIMÕES DE CARVALHO",
      "house": "",
      "postcode": "2435-477",
      "city": "OLIVAL VNO",
      "lon": "-8.583363903148857",
      "lat": "39.70693372419668"
    },
    {
      "id": "pt.ine.add.PTCONT.4481673",
      "street": "R DR JOSE SIMÕES DE CARVALHO",
      "house": "25",
      "postcode": "2435-477",
      "city": "OLIVAL VNO",
      "lon": "-8.58349234307166",
      "lat": "39.70696024586815"
    },
    {
      "id": "pt.ine.add.PTCONT.4486186",
      "street": "R DR JOSE SIMÕES DE CARVALHO",
      "house": "15",
      "postcode": "2435-477",
      "city": "OLIVAL VNO",
      "lon": "-8.582103588853819",
      "lat": "39.70678549237364"
    },
    {
      "id": "pt.ine.add.PTCONT.4490605",
      "street": "R DR JOSÉ MARIA SIMÕES CARVALHO",
      "house": "31",
      "postcode": "2435-477",
      "city": "OLIVAL VNO",
      "lon": "-8.584645899692994",
      "lat": "39.70682967311395"
    },
    {
      "id": "pt.ine.add.PTCONT.4523343",
      "street": "R DR JOSE SIMÕES DE CARVALHO",
      "house": "19",
      "postcode": "2435-477",
      "city": "OLIVAL VNO",
      "lon": "-8.58274496726056",
      "lat": "39.70679201701317"
    },
    {
      "id": "pt.ine.add.PTCONT.4533547",
      "street": "R DR JOSE MARIA SIMÕES DE CARVALHO",
      "house": "35",
      "postcode": "2435-477",
      "city": "OLIVAL VNO",
      "lon": "-8.58546424262806",
      "lat": "39.70715072551248"
    },
    {
      "id": "pt.ine.add.PTCONT.4541562",
      "street": "R DR CARLOS VAZ FARIA DE ALMEIDA",
      "house": "",
      "postcode": "2435-436",
      "city": "OLIVAL VNO",
      "lon": "-8.575970090802613",
      "lat": "39.70496269400626"
    },
    {
      "id": "pt.ine.add.PTCONT.4545227",
      "street": "R DR JOSE SIMÕES DE CARVALHO",
      "house": "",
      "postcode": "2435-477",
      "city": "OLIVAL VNO",
      "lon": "-8.584565685872095",
      "lat": "39.707046143509196"
    },
    {
      "id": "pt.ine.add.PTCONT.4560316",
      "street": "R DR JOSE MARIA SIMÕES DE CARVALHO",
      "house": "39",
      "postcode": "2435-477",
      "city": "OLIVAL VNO",
      "lon": "-8.586082127031448",
      "lat": "39.70713030343033"
    },
    {
      "id": "pt.ine.add.PTCONT.4562562",
      "street": "R DR JOSE MARIA SIMOES CARVALHO",
      "house": "37",
      "postcode": "2435-477",
      "city": "OLIVAL VNO",
      "lon": "-8.585720713001328",
      "lat": "39.70714071943653"
    },
    {
      "id": "pt.ine.add.PTCONT.4576826",
      "street": "R DR JOSE SIMÕES DE CARVALHO",
      "house": "",
      "postcode": "2435-477",
      "city": "OLIVAL VNO",
      "lon": "-8.581368869345365",
      "lat": "39.7067703179808"
    },
    {
      "id": "pt.ine.add.PTCONT.4660387",
      "street": "R DR JOSE SIMÕES DE CARVALHO",
      "house": "33",
      "postcode": "2435-477",
      "city": "OLIVAL VNO",
      "lon": "-8.584938818764275",
      "lat": "39.7070446920998"
    }
  ]
}