{
  "data": {
    "distrito": "Coimbra",
    "concelho": "Penacova",
    "freguesia": "União das freguesias de São Pedro de Alva e São Paio de Mondego",
    "OBJECTID": 296,
    "BGRI2021": "06131400217",
    "DT21": "06",
    "DTMN21": "0613",
    "DTMNFR21": "061314",
    "DTMNFRSEC21": "061314002",
    "SECNUM21": "002",
    "SSNUM21": "17",
    "SECSSNUM21": "00217",
    "OBJECTID_1": 55768,
    "DT": "06",
    "CC": "13",
    "fr": "14",
    "SEC": "002",
    "SS": "17"
  },
  "addresses": [
    {
      "id": "pt.ine.add.PTCONT.1115720",
      "street": "R DR ANTONIO JOSE ALMEIDA",
      "house": "",
      "postcode": "3360-262",
      "city": "SÃO PEDRO DE ALVA",
      "lon": "-8.19146460458833",
      "lat": "40.30534361684327"
    },
    {
      "id": "pt.ine.add.PTCONT.1115989",
      "street": "R ESCOLA",
      "house": "4",
      "postcode": "3360-262",
      "city": "SÃO PEDRO DE ALVA",
      "lon": "-8.189606133092015",
      "lat": "40.30544360227209"
    },
    {
      "id": "pt.ine.add.PTCONT.1119880",
      "street": "R ANTÓNIO JOSE DE ALMEIDA",
      "house": "3",
      "postcode": "3360-262",
      "city": "SÃO PEDRO DE ALVA",
      "lon": "-8.192264268605419",
      "lat": "40.30509105051067"
    },
    {
      "id": "pt.ine.add.PTCONT.1123081",
      "street": "R ANTONIO JOSE ALMEIDA",
      "house": "",
      "postcode": "3360-262",
      "city": "SÃO PEDRO DE ALVA",
      "lon": "-8.192817214754292",
      "lat": "40.30518982940477"
    },
    {
      "id": "pt.ine.add.PTCONT.1124922",
      "street": "R BARREIRAS",
      "house": "4",
      "postcode": "3360-257",
      "city": "SÃO PEDRO DE ALVA",
      "lon": "-8.195364802877307",
      "lat": "40.29976703936729"
    },
    {
      "id": "pt.ine.add.PTCONT.1128207",
      "street": "LG ANTÓNIO JOSE DE ALMEIDA",
      "house": "1",
      "postcode": "3360-262",
      "city": "SÃO PEDRO DE ALVA",
      "lon": "-8.191358784003826",
      "lat": "40.305397704501935"
    },
    {
      "id": "pt.ine.add.PTCONT.1130286",
      "street": "R SANTO AMARO",
      "house": "15",
      "postcode": "3360-262",
      "city": "SÃO PEDRO DE ALVA",
      "lon": "-8.191252955528666",
      "lat": "40.30544278634559"
    },
    {
      "id": "pt.ine.add.PTCONT.1167282",
      "street": "R SANTO AMARO",
      "house": "9",
      "postcode": "3360-262",
      "city": "SÃO PEDRO DE ALVA",
      "lon": "-8.190747260606978",
      "lat": "40.30557812521309"
    },
    {
      "id": "pt.ine.add.PTCONT.1200685",
      "street": "R VALE DOS VAGOS",
      "house": "",
      "postcode": "3360-262",
      "city": "SÃO PEDRO DE ALVA",
      "lon": "-8.191193168509923",
      "lat": "40.30430809532815"
    },
    {
      "id": "pt.ine.add.PTCONT.1202648",
      "street": "R SANTO AMARO",
      "house": "11",
      "postcode": "3360-262",
      "city": "SÃO PEDRO DE ALVA",
      "lon": "-8.191041259687529",
      "lat": "40.30548792115282"
    },
    {
      "id": "pt.ine.add.PTCONT.1210812",
      "street": "R ANTÓNIO JOSE DE ALMEIDA",
      "house": "5",
      "postcode": "3360-262",
      "city": "SÃO PEDRO DE ALVA",
      "lon": "-8.192464254620946",
      "lat": "40.30510895952694"
    },
    {
      "id": "pt.ine.add.PTCONT.1210813",
      "street": "R ANTÓNIO JOSE DE ALMEIDA",
      "house": "5",
      "postcode": "3360-262",
      "city": "SÃO PEDRO DE ALVA",
      "lon": "-8.192464254620946",
      "lat": "40.30510895952694"
    },
    {
      "id": "pt.ine.add.PTCONT.1245103",
      "street": "R SANTO AMARO",
      "house": "7",
      "postcode": "3360-262",
      "city": "SÃO PEDRO DE ALVA",
      "lon": "-8.190441581442153",
      "lat": "40.305767397248275"
    },
    {
      "id": "pt.ine.add.PTCONT.1264137",
      "street": "R ANTÓNIO JOSE DE ALMEIDA",
      "house": "7",
      "postcode": "3360-262",
      "city": "SÃO PEDRO DE ALVA",
      "lon": "-8.192640785971628",
      "lat": "40.30520793176789"
    },
    {
      "id": "pt.ine.add.PTCONT.1266179",
      "street": "R VALE DOS VAGOS",
      "house": "1",
      "postcode": "3360-262",
      "city": "SÃO PEDRO DE ALVA",
      "lon": "-8.190828352445713",
      "lat": "40.304110151989086"
    },
    {
      "id": "pt.ine.add.PTCONT.1290758",
      "street": "R SANTO AMARO",
      "house": "1",
      "postcode": "3360-262",
      "city": "SÃO PEDRO DE ALVA",
      "lon": "-8.189277290758683",
      "lat": "40.306074162880755"
    },
    {
      "id": "pt.ine.add.PTCONT.1321642",
      "street": "R PRINCIPAL",
      "house": "10",
      "postcode": "3360-257",
      "city": "SÃO PEDRO DE ALVA",
      "lon": "-8.193530696041956",
      "lat": "40.3006325618201"
    },
    {
      "id": "pt.ine.add.PTCONT.1346664",
      "street": "R VALE DOS VAGOS",
      "house": "3",
      "postcode": "3360-262",
      "city": "SÃO PEDRO DE ALVA",
      "lon": "-8.19109881181464",
      "lat": "40.30401095377846"
    }
  ]
}