{
  "data": {
    "distrito": "Porto",
    "concelho": "Porto",
    "freguesia": "União das freguesias de Lordelo do Ouro e Massarelos",
    "OBJECTID": 893,
    "BGRI2021": "13121802413",
    "DT21": "13",
    "DTMN21": "1312",
    "DTMNFR21": "131218",
    "DTMNFRSEC21": "131218024",
    "SECNUM21": "024",
    "SSNUM21": "13",
    "SECSSNUM21": "02413",
    "OBJECTID_1": 138712,
    "DT": "13",
    "CC": "12",
    "fr": "18",
    "SEC": "024",
    "SS": "13"
  },
  "addresses": [
    {
      "id": "pt.ine.add.PTCONT.3583937",
      "street": "R ABADE BAÇAL",
      "house": "214",
      "postcode": "4050-077",
      "city": "PORTO",
      "lon": "-8.629299704747577",
      "lat": "41.14910855983118"
    },
    {
      "id": "pt.ine.add.PTCONT.3664646",
      "street": "R CASAL DO PEDRO",
      "house": "202 A",
      "postcode": "4050-171",
      "city": "PORTO",
      "lon": "-8.63066271790992",
      "lat": "41.14819324053301"
    },
    {
      "id": "pt.ine.add.PTCONT.3664647",
      "street": "R CASAL DO PEDRO",
      "house": "202 A",
      "postcode": "4050-171",
      "city": "PORTO",
      "lon": "-8.63066271790992",
      "lat": "41.14819324053301"
    },
    {
      "id": "pt.ine.add.PTCONT.3678308",
      "street": "R MACIEIRINHA",
      "house": "5",
      "postcode": "4050-341",
      "city": "PORTO",
      "lon": "-8.630133630438399",
      "lat": "41.14753820650484"
    },
    {
      "id": "pt.ine.add.PTCONT.3763116",
      "street": "R CASAL DO PEDRO",
      "house": "202",
      "postcode": "4050-171",
      "city": "PORTO",
      "lon": "-8.630697636753542",
      "lat": "41.14808503741302"
    },
    {
      "id": "pt.ine.add.PTCONT.3763117",
      "street": "R CASAL DO PEDRO",
      "house": "202",
      "postcode": "4050-171",
      "city": "PORTO",
      "lon": "-8.630697636753542",
      "lat": "41.14808503741302"
    },
    {
      "id": "pt.ine.add.PTCONT.3797932",
      "street": "R CASAL DO PEDRO",
      "house": "194",
      "postcode": "4050-171",
      "city": "PORTO",
      "lon": "-8.630720643618591",
      "lat": "41.14797688573904"
    },
    {
      "id": "pt.ine.add.PTCONT.3797999",
      "street": "R CASAL DO PEDRO",
      "house": "194",
      "postcode": "4050-171",
      "city": "PORTO",
      "lon": "-8.630720643618591",
      "lat": "41.14797688573904"
    },
    {
      "id": "pt.ine.add.PTCONT.3813841",
      "street": "R MACIEIRINHA",
      "house": "1",
      "postcode": "4050-341",
      "city": "PORTO",
      "lon": "-8.630216332896072",
      "lat": "41.14744780605121"
    },
    {
      "id": "pt.ine.add.PTCONT.3855247",
      "street": "R ABADE BAÇAL",
      "house": "222",
      "postcode": "4050-077",
      "city": "PORTO",
      "lon": "-8.629311209509874",
      "lat": "41.149054484136684"
    },
    {
      "id": "pt.ine.add.PTCONT.3969810",
      "street": "R MOINHOS",
      "house": "252",
      "postcode": "4050-391",
      "city": "PORTO",
      "lon": "-8.630523721902955",
      "lat": "41.148716093520385"
    },
    {
      "id": "pt.ine.add.PTCONT.4049177",
      "street": "R ABADE BAÇAL",
      "house": "21 C",
      "postcode": "4050-077",
      "city": "PORTO",
      "lon": "-8.629288064202656",
      "lat": "41.14914462739687"
    },
    {
      "id": "pt.ine.add.PTCONT.4075744",
      "street": "R ABADE BAÇAL",
      "house": "206",
      "postcode": "4050-077",
      "city": "PORTO",
      "lon": "-8.629276830928925",
      "lat": "41.14923471934263"
    },
    {
      "id": "pt.ine.add.PTCONT.4113600",
      "street": "R ARCEDIAGO VANZELLER",
      "house": "132",
      "postcode": "4050-621",
      "city": "PORTO",
      "lon": "-8.629265393987593",
      "lat": "41.149297799095784"
    },
    {
      "id": "pt.ine.add.PTCONT.4113601",
      "street": "R ARCEDIAGO VANZELLER",
      "house": "132",
      "postcode": "4050-621",
      "city": "PORTO",
      "lon": "-8.629265393987593",
      "lat": "41.149297799095784"
    },
    {
      "id": "pt.ine.add.PTCONT.4113602",
      "street": "R MOINHOS",
      "house": "250",
      "postcode": "4050-391",
      "city": "PORTO",
      "lon": "-8.630547137582678",
      "lat": "41.14866196626647"
    },
    {
      "id": "pt.ine.add.PTCONT.4180095",
      "street": "R ABADE BACAL",
      "house": "232",
      "postcode": "4050-077",
      "city": "PORTO",
      "lon": "-8.629322714253695",
      "lat": "41.14900040844063"
    },
    {
      "id": "pt.ine.add.PTCONT.4202423",
      "street": "R MACIEIRINHA",
      "house": "9",
      "postcode": "4050-341",
      "city": "PORTO",
      "lon": "-8.630003416492075",
      "lat": "41.1476468205704"
    },
    {
      "id": "pt.ine.add.PTCONT.4202424",
      "street": "R MACIEIRINHA",
      "house": "9",
      "postcode": "4050-341",
      "city": "PORTO",
      "lon": "-8.630003416492075",
      "lat": "41.1476468205704"
    },
    {
      "id": "pt.ine.add.PTCONT.4243925",
      "street": "R CAMPO DO ROU",
      "house": "23",
      "postcode": "4050-147",
      "city": "PORTO",
      "lon": "-8.630370505651149",
      "lat": "41.147357097036796"
    },
    {
      "id": "pt.ine.add.PTCONT.4272141",
      "street": "R ABADE BAÇAL",
      "house": "208",
      "postcode": "4050-077",
      "city": "PORTO",
      "lon": "-8.62928847149545",
      "lat": "41.149198651778484"
    },
    {
      "id": "pt.ine.add.PTCONT.4275741",
      "street": "R MACIEIRINHA",
      "house": "3",
      "postcode": "4050-341",
      "city": "PORTO",
      "lon": "-8.630169093804751",
      "lat": "41.14750203605058"
    },
    {
      "id": "pt.ine.add.PTCONT.4275742",
      "street": "R MACIEIRINHA",
      "house": "3",
      "postcode": "4050-341",
      "city": "PORTO",
      "lon": "-8.630169093804751",
      "lat": "41.14750203605058"
    },
    {
      "id": "pt.ine.add.PTCONT.4293530",
      "street": "R ANGOLA",
      "house": "ENT. 345",
      "postcode": "4100-058",
      "city": "PORTO",
      "lon": "-8.628908192663507",
      "lat": "41.15090211221566"
    },
    {
      "id": "pt.ine.add.PTCONT.4293519",
      "street": "AV DR. JAIME BARROS",
      "house": "206",
      "postcode": "4595-204",
      "city": "MEIXOMIL",
      "lon": "-8.628908192663507",
      "lat": "41.15090211221566"
    },
    {
      "id": "pt.ine.add.PTCONT.4293371",
      "street": "ICOR-ALOJAMENTO FICTICIO",
      "house": "",
      "postcode": "4050-626",
      "city": "PORTO",
      "lon": "-8.628908192663507",
      "lat": "41.15090211221566"
    },
    {
      "id": "pt.ine.add.PTCONT.4293372",
      "street": "ICOR-ALOJAMENTO FICTICIO",
      "house": "",
      "postcode": "4050-626",
      "city": "PORTO",
      "lon": "-8.628908192663507",
      "lat": "41.15090211221566"
    },
    {
      "id": "pt.ine.add.PTCONT.4293373",
      "street": "ICOR-ALOJAMENTO FICTICIO",
      "house": "",
      "postcode": "4050-626",
      "city": "PORTO",
      "lon": "-8.628908192663507",
      "lat": "41.15090211221566"
    },
    {
      "id": "pt.ine.add.PTCONT.4293374",
      "street": "ICOR-ALOJAMENTO FICTICIO",
      "house": "",
      "postcode": "4050-626",
      "city": "PORTO",
      "lon": "-8.628908192663507",
      "lat": "41.15090211221566"
    },
    {
      "id": "pt.ine.add.PTCONT.4293375",
      "street": "ICOR-ALOJAMENTO FICTICIO",
      "house": "",
      "postcode": "4050-626",
      "city": "PORTO",
      "lon": "-8.628908192663507",
      "lat": "41.15090211221566"
    },
    {
      "id": "pt.ine.add.PTCONT.4293376",
      "street": "ICOR-ALOJAMENTO FICTICIO",
      "house": "",
      "postcode": "4050-626",
      "city": "PORTO",
      "lon": "-8.628908192663507",
      "lat": "41.15090211221566"
    },
    {
      "id": "pt.ine.add.PTCONT.4293377",
      "street": "ICOR-ALOJAMENTO FICTICIO",
      "house": "",
      "postcode": "4050-626",
      "city": "PORTO",
      "lon": "-8.628908192663507",
      "lat": "41.15090211221566"
    },
    {
      "id": "pt.ine.add.PTCONT.4293378",
      "street": "ICOR-ALOJAMENTO FICTICIO",
      "house": "",
      "postcode": "4050-626",
      "city": "PORTO",
      "lon": "-8.628908192663507",
      "lat": "41.15090211221566"
    },
    {
      "id": "pt.ine.add.PTCONT.4293379",
      "street": "ICOR-ALOJAMENTO FICTICIO",
      "house": "",
      "postcode": "4050-626",
      "city": "PORTO",
      "lon": "-8.628908192663507",
      "lat": "41.15090211221566"
    },
    {
      "id": "pt.ine.add.PTCONT.4293380",
      "street": "ICOR-ALOJAMENTO FICTICIO",
      "house": "",
      "postcode": "4050-626",
      "city": "PORTO",
      "lon": "-8.628908192663507",
      "lat": "41.15090211221566"
    },
    {
      "id": "pt.ine.add.PTCONT.4293381",
      "street": "ICOR-ALOJAMENTO FICTICIO",
      "house": "",
      "postcode": "4050-626",
      "city": "PORTO",
      "lon": "-8.628908192663507",
      "lat": "41.15090211221566"
    },
    {
      "id": "pt.ine.add.PTCONT.4293382",
      "street": "ICOR-ALOJAMENTO FICTICIO",
      "house": "",
      "postcode": "4050-626",
      "city": "PORTO",
      "lon": "-8.628908192663507",
      "lat": "41.15090211221566"
    },
    {
      "id": "pt.ine.add.PTCONT.4293383",
      "street": "ICOR-ALOJAMENTO FICTICIO",
      "house": "",
      "postcode": "4050-626",
      "city": "PORTO",
      "lon": "-8.628908192663507",
      "lat": "41.15090211221566"
    },
    {
      "id": "pt.ine.add.PTCONT.4293384",
      "street": "ICOR-ALOJAMENTO FICTICIO",
      "house": "",
      "postcode": "4050-626",
      "city": "PORTO",
      "lon": "-8.628908192663507",
      "lat": "41.15090211221566"
    },
    {
      "id": "pt.ine.add.PTCONT.4293385",
      "street": "ICOR-ALOJAMENTO FICTICIO",
      "house": "",
      "postcode": "4050-626",
      "city": "PORTO",
      "lon": "-8.628908192663507",
      "lat": "41.15090211221566"
    },
    {
      "id": "pt.ine.add.PTCONT.4293493",
      "street": "R JOSÉ RÉGIO",
      "house": "33",
      "postcode": "4425-111",
      "city": "MAIA",
      "lon": "-8.628908192663507",
      "lat": "41.15090211221566"
    },
    {
      "id": "pt.ine.add.PTCONT.4293494",
      "street": "R DE MURJÃES",
      "house": "275",
      "postcode": "4420-213",
      "city": "GONDOMAR",
      "lon": "-8.628908192663507",
      "lat": "41.15090211221566"
    },
    {
      "id": "pt.ine.add.PTCONT.4293495",
      "street": "R ADOLFO CASAIS MONTEIRO",
      "house": "13",
      "postcode": "4050-014",
      "city": "PORTO",
      "lon": "-8.628908192663507",
      "lat": "41.15090211221566"
    },
    {
      "id": "pt.ine.add.PTCONT.4293496",
      "street": "R SENHOR DA SAÚDE",
      "house": "10",
      "postcode": "4700-744",
      "city": "PALMEIRA BRG",
      "lon": "-8.628908192663507",
      "lat": "41.15090211221566"
    },
    {
      "id": "pt.ine.add.PTCONT.4293497",
      "street": "R NOVE DE JULHO",
      "house": "64",
      "postcode": "4050-053",
      "city": "PORTO",
      "lon": "-8.628908192663507",
      "lat": "41.15090211221566"
    },
    {
      "id": "pt.ine.add.PTCONT.4293498",
      "street": "R SANTA JUSTA",
      "house": "67",
      "postcode": "4705-108",
      "city": "BRAGA",
      "lon": "-8.628908192663507",
      "lat": "41.15090211221566"
    },
    {
      "id": "pt.ine.add.PTCONT.4293499",
      "street": "R JOAQUIM LEITÃO",
      "house": "297C",
      "postcode": "4100-289",
      "city": "PORTO",
      "lon": "-8.628908192663507",
      "lat": "41.15090211221566"
    },
    {
      "id": "pt.ine.add.PTCONT.4293500",
      "street": "R PADRE AMÉRICO",
      "house": "125",
      "postcode": "4900-465",
      "city": "VIANA DO CASTELO",
      "lon": "-8.628908192663507",
      "lat": "41.15090211221566"
    },
    {
      "id": "pt.ine.add.PTCONT.4293501",
      "street": "R DO OUTEIRO",
      "house": "2",
      "postcode": "4580-462",
      "city": "LORDELO PRD",
      "lon": "-8.628908192663507",
      "lat": "41.15090211221566"
    },
    {
      "id": "pt.ine.add.PTCONT.4293502",
      "street": "R DO MONTE PARAMOS",
      "house": "720",
      "postcode": "4500-529",
      "city": "ESPINHO",
      "lon": "-8.628908192663507",
      "lat": "41.15090211221566"
    },
    {
      "id": "pt.ine.add.PTCONT.4293503",
      "street": "R MORGADO MATEUS",
      "house": "",
      "postcode": "5000-455",
      "city": "VILA REAL",
      "lon": "-8.628908192663507",
      "lat": "41.15090211221566"
    },
    {
      "id": "pt.ine.add.PTCONT.4293504",
      "street": "R DE PELÁGIO",
      "house": "210",
      "postcode": "4100-400",
      "city": "PORTO",
      "lon": "-8.628908192663507",
      "lat": "41.15090211221566"
    },
    {
      "id": "pt.ine.add.PTCONT.4293505",
      "street": "R DE QUIRES",
      "house": "1101",
      "postcode": "4470-812",
      "city": "MAIA",
      "lon": "-8.628908192663507",
      "lat": "41.15090211221566"
    },
    {
      "id": "pt.ine.add.PTCONT.4293506",
      "street": "R ANTERO FIGUEIREDO",
      "house": "1",
      "postcode": "4490-466",
      "city": "PÓVOA DE VARZIM",
      "lon": "-8.628908192663507",
      "lat": "41.15090211221566"
    },
    {
      "id": "pt.ine.add.PTCONT.4293507",
      "street": "R ANTERO FIGUEIREDO",
      "house": "2",
      "postcode": "4490-466",
      "city": "PÓVOA DE VARZIM",
      "lon": "-8.628908192663507",
      "lat": "41.15090211221566"
    },
    {
      "id": "pt.ine.add.PTCONT.4293508",
      "street": "R DA BOUÇA",
      "house": "33",
      "postcode": "4595-110",
      "city": "FRAZÃO",
      "lon": "-8.628908192663507",
      "lat": "41.15090211221566"
    },
    {
      "id": "pt.ine.add.PTCONT.4293509",
      "street": "R DA LADEIRA",
      "house": "280",
      "postcode": "4990-590",
      "city": "ESTORÃOS PTL",
      "lon": "-8.628908192663507",
      "lat": "41.15090211221566"
    },
    {
      "id": "pt.ine.add.PTCONT.4293510",
      "street": "AV BOMBEIROS VOLUNTÁRIOS",
      "house": "182",
      "postcode": "4840-100",
      "city": "TERRAS DE BOURO",
      "lon": "-8.628908192663507",
      "lat": "41.15090211221566"
    },
    {
      "id": "pt.ine.add.PTCONT.4293511",
      "street": "R FONTE SERRALHEIRO",
      "house": "45",
      "postcode": "4480-866",
      "city": "VILA DO CONDE",
      "lon": "-8.628908192663507",
      "lat": "41.15090211221566"
    },
    {
      "id": "pt.ine.add.PTCONT.4293512",
      "street": "R PADRE PROFIRIO ALVES",
      "house": "115",
      "postcode": "4480-833",
      "city": "VILA DO CONDE",
      "lon": "-8.628908192663507",
      "lat": "41.15090211221566"
    },
    {
      "id": "pt.ine.add.PTCONT.4293513",
      "street": "R DO SACRAMENTO",
      "house": "11",
      "postcode": "4560-470",
      "city": "PENAFIEL",
      "lon": "-8.628908192663507",
      "lat": "41.15090211221566"
    },
    {
      "id": "pt.ine.add.PTCONT.4293514",
      "street": "R MANUEL SILVA",
      "house": "1",
      "postcode": "4490-657",
      "city": "PÓVOA DE VARZIM",
      "lon": "-8.628908192663507",
      "lat": "41.15090211221566"
    },
    {
      "id": "pt.ine.add.PTCONT.4293515",
      "street": "PCT CAMÉLIAS",
      "house": "18",
      "postcode": "4430-037",
      "city": "VILA NOVA DE GAIA",
      "lon": "-8.628908192663507",
      "lat": "41.15090211221566"
    },
    {
      "id": "pt.ine.add.PTCONT.4293516",
      "street": "R 1 BAIRRO DE S. SEBASTIÃO",
      "house": "26",
      "postcode": "4730-451",
      "city": "VILA DE PRADO",
      "lon": "-8.628908192663507",
      "lat": "41.15090211221566"
    },
    {
      "id": "pt.ine.add.PTCONT.4293517",
      "street": "R DOS SALGUEIRÓS",
      "house": "216",
      "postcode": "4755-184",
      "city": "CRISTELO BCL",
      "lon": "-8.628908192663507",
      "lat": "41.15090211221566"
    },
    {
      "id": "pt.ine.add.PTCONT.4293518",
      "street": "AV AMILCAR NETO",
      "house": "270",
      "postcode": "4620-687",
      "city": "LOUSADA",
      "lon": "-8.628908192663507",
      "lat": "41.15090211221566"
    },
    {
      "id": "pt.ine.add.PTCONT.4293520",
      "street": "R DO RIBEIRO",
      "house": "8",
      "postcode": "4640-167",
      "city": "BAIÃO",
      "lon": "-8.628908192663507",
      "lat": "41.15090211221566"
    },
    {
      "id": "pt.ine.add.PTCONT.4293521",
      "street": "R DO ALMADA",
      "house": "567",
      "postcode": "4050-039",
      "city": "PORTO",
      "lon": "-8.628908192663507",
      "lat": "41.15090211221566"
    },
    {
      "id": "pt.ine.add.PTCONT.4293522",
      "street": "TV MANUEL LUIS LEITE JÚNIOR",
      "house": "35",
      "postcode": "3700-184",
      "city": "SÃO JOÃO DA MADEIRA",
      "lon": "-8.628908192663507",
      "lat": "41.15090211221566"
    },
    {
      "id": "pt.ine.add.PTCONT.4293523",
      "street": "QLHA DA PAPANATA",
      "house": "",
      "postcode": "4900-471",
      "city": "VIANA DO CASTELO",
      "lon": "-8.628908192663507",
      "lat": "41.15090211221566"
    },
    {
      "id": "pt.ine.add.PTCONT.4293524",
      "street": "AV ANTÓNIO COELHO MOREIRA",
      "house": "525",
      "postcode": "4405-528",
      "city": "VILA NOVA DE GAIA",
      "lon": "-8.628908192663507",
      "lat": "41.15090211221566"
    },
    {
      "id": "pt.ine.add.PTCONT.4293525",
      "street": "R ANTÓNIO FONSECA DA CRUZ",
      "house": "31",
      "postcode": "4760-708",
      "city": "RIBEIRÃO",
      "lon": "-8.628908192663507",
      "lat": "41.15090211221566"
    },
    {
      "id": "pt.ine.add.PTCONT.4293526",
      "street": "URB DE GONDARIM",
      "house": "74",
      "postcode": "4780-630",
      "city": "SEQUEIRÓ",
      "lon": "-8.628908192663507",
      "lat": "41.15090211221566"
    },
    {
      "id": "pt.ine.add.PTCONT.4293527",
      "street": "AV CENTRAL",
      "house": "153",
      "postcode": "4710-228",
      "city": "BRAGA",
      "lon": "-8.628908192663507",
      "lat": "41.15090211221566"
    },
    {
      "id": "pt.ine.add.PTCONT.4293528",
      "street": "R ALTO REGUENGO",
      "house": "31",
      "postcode": "4445-024",
      "city": "ALFENA",
      "lon": "-8.628908192663507",
      "lat": "41.15090211221566"
    },
    {
      "id": "pt.ine.add.PTCONT.4293529",
      "street": "R NOVA DE RAMIL",
      "house": "245",
      "postcode": "4505-145",
      "city": "ARGONCILHE",
      "lon": "-8.628908192663507",
      "lat": "41.15090211221566"
    },
    {
      "id": "pt.ine.add.PTCONT.4293531",
      "street": "R PADRE ARCHER LEITE",
      "house": "110",
      "postcode": "4415-707",
      "city": "OLIVAL VNG",
      "lon": "-8.628908192663507",
      "lat": "41.15090211221566"
    },
    {
      "id": "pt.ine.add.PTCONT.4293532",
      "street": "R DO PADRE COSTA",
      "house": "6",
      "postcode": "4465-104",
      "city": "SÃO MAMEDE DE INFESTA",
      "lon": "-8.628908192663507",
      "lat": "41.15090211221566"
    },
    {
      "id": "pt.ine.add.PTCONT.4293533",
      "street": "R SÃO VICENTE",
      "house": "28",
      "postcode": "4250-443",
      "city": "PORTO",
      "lon": "-8.628908192663507",
      "lat": "41.15090211221566"
    },
    {
      "id": "pt.ine.add.PTCONT.4293534",
      "street": "R DO PAIÇO",
      "house": "134",
      "postcode": "4475-715",
      "city": "MAIA",
      "lon": "-8.628908192663507",
      "lat": "41.15090211221566"
    },
    {
      "id": "pt.ine.add.PTCONT.4293535",
      "street": "R DA VISTA ALEGRE",
      "house": "105",
      "postcode": "4445-669",
      "city": "ERMESINDE",
      "lon": "-8.628908192663507",
      "lat": "41.15090211221566"
    },
    {
      "id": "pt.ine.add.PTCONT.4293536",
      "street": "PC TEIXEIRA GOMES",
      "house": "130",
      "postcode": "4400-460",
      "city": "VILA NOVA DE GAIA",
      "lon": "-8.628908192663507",
      "lat": "41.15090211221566"
    },
    {
      "id": "pt.ine.add.PTCONT.4293537",
      "street": "R COSTA JÚNIOR ENT 81",
      "house": "2",
      "postcode": "4150-010",
      "city": "PORTO",
      "lon": "-8.628908192663507",
      "lat": "41.15090211221566"
    },
    {
      "id": "pt.ine.add.PTCONT.4293538",
      "street": "R SÃO TOMÉ",
      "house": "192",
      "postcode": "4410-106",
      "city": "SÃO FELIX DA MARINHA",
      "lon": "-8.628908192663507",
      "lat": "41.15090211221566"
    },
    {
      "id": "pt.ine.add.PTCONT.4293539",
      "street": "AV VASCO DA GAMA",
      "house": "793",
      "postcode": "4460-435",
      "city": "SENHORA DA HORA",
      "lon": "-8.628908192663507",
      "lat": "41.15090211221566"
    },
    {
      "id": "pt.ine.add.PTCONT.4293540",
      "street": "R ROBERTO IVENS",
      "house": "691",
      "postcode": "4450-255",
      "city": "MATOSINHOS",
      "lon": "-8.628908192663507",
      "lat": "41.15090211221566"
    },
    {
      "id": "pt.ine.add.PTCONT.4293541",
      "street": "R JOÃO PAULO II",
      "house": "90",
      "postcode": "4420-168",
      "city": "GONDOMAR",
      "lon": "-8.628908192663507",
      "lat": "41.15090211221566"
    },
    {
      "id": "pt.ine.add.PTCONT.4293542",
      "street": "R D. ANTÓNIO CASTRO MEIRELES",
      "house": "40",
      "postcode": "4435-667",
      "city": "BAGUIM DO MONTE",
      "lon": "-8.628908192663507",
      "lat": "41.15090211221566"
    },
    {
      "id": "pt.ine.add.PTCONT.4293543",
      "street": "PC JOÃO XXIII",
      "house": "401",
      "postcode": "4490-440",
      "city": "PÓVOA DE VARZIM",
      "lon": "-8.628908192663507",
      "lat": "41.15090211221566"
    },
    {
      "id": "pt.ine.add.PTCONT.4293544",
      "street": "R FONTE DO CUCO",
      "house": "552",
      "postcode": "4460-321",
      "city": "SENHORA DA HORA",
      "lon": "-8.628908192663507",
      "lat": "41.15090211221566"
    },
    {
      "id": "pt.ine.add.PTCONT.4293545",
      "street": "R BAIRRO PADRE AMERICO",
      "house": "33",
      "postcode": "4600-025",
      "city": "AMARANTE",
      "lon": "-8.628908192663507",
      "lat": "41.15090211221566"
    },
    {
      "id": "pt.ine.add.PTCONT.4336781",
      "street": "R MOINHOS",
      "house": "250",
      "postcode": "4050-391",
      "city": "PORTO",
      "lon": "-8.630699066279512",
      "lat": "41.148274122740865"
    },
    {
      "id": "pt.ine.add.PTCONT.4336782",
      "street": "R MOINHOS",
      "house": "242",
      "postcode": "4050-391",
      "city": "PORTO",
      "lon": "-8.630699066279512",
      "lat": "41.148274122740865"
    },
    {
      "id": "pt.ine.add.PTCONT.4336785",
      "street": "R MOINHOS",
      "house": "242",
      "postcode": "4050-391",
      "city": "PORTO",
      "lon": "-8.630699066279512",
      "lat": "41.148274122740865"
    },
    {
      "id": "pt.ine.add.PTCONT.4336786",
      "street": "R MOINHOS",
      "house": "242",
      "postcode": "4050-391",
      "city": "PORTO",
      "lon": "-8.630699066279512",
      "lat": "41.148274122740865"
    },
    {
      "id": "pt.ine.add.PTCONT.4370552",
      "street": "TV CAMPO DO ROU",
      "house": "25",
      "postcode": "4050-147",
      "city": "PORTO",
      "lon": "-8.630322790615997",
      "lat": "41.147348298644175"
    },
    {
      "id": "pt.ine.add.PTCONT.4370553",
      "street": "TV CAMPO DO ROU",
      "house": "25",
      "postcode": "4050-147",
      "city": "PORTO",
      "lon": "-8.630322790615997",
      "lat": "41.147348298644175"
    },
    {
      "id": "pt.ine.add.PTCONT.4370554",
      "street": "TV CAMPO DO ROU",
      "house": "25",
      "postcode": "4050-147",
      "city": "PORTO",
      "lon": "-8.630322790615997",
      "lat": "41.147348298644175"
    },
    {
      "id": "pt.ine.add.PTCONT.4381741",
      "street": "ICOR-ALOJAMENTO FICTICIO",
      "house": "",
      "postcode": "4050-626",
      "city": "PORTO",
      "lon": "-8.628908192663507",
      "lat": "41.15090211221566"
    },
    {
      "id": "pt.ine.add.PTCONT.4381745",
      "street": "R ÁLVARO DE CASTELÕES",
      "house": "455",
      "postcode": "4200-046",
      "city": "PORTO",
      "lon": "-8.628908192663507",
      "lat": "41.15090211221566"
    }
  ]
}