{
  "data": {
    "distrito": "Porto",
    "concelho": "Vila Nova de Gaia",
    "freguesia": "Uni√£o das freguesias de Gulpilhares e Valadares",
    "OBJECTID": 712,
    "BGRI2021": "13172601503",
    "DT21": "13",
    "DTMN21": "1317",
    "DTMNFR21": "131726",
    "DTMNFRSEC21": "131726015",
    "SECNUM21": "015",
    "SSNUM21": "03",
    "SECSSNUM21": "01503",
    "OBJECTID_1": 144372,
    "DT": "13",
    "CC": "17",
    "fr": "26",
    "SEC": "015",
    "SS": "03"
  },
  "addresses": [
    {
      "id": "pt.ine.add.PTCONT.3557888",
      "street": "R DR FERREIRA ALVES",
      "house": "261",
      "postcode": "4405-635",
      "city": "VILA NOVA DE GAIA",
      "lon": "-8.646101450545585",
      "lat": "41.07942188838966"
    },
    {
      "id": "pt.ine.add.PTCONT.3564371",
      "street": "R PEDRAS",
      "house": "493",
      "postcode": "4405-685",
      "city": "VILA NOVA DE GAIA",
      "lon": "-8.643515646623227",
      "lat": "41.07896513922546"
    },
    {
      "id": "pt.ine.add.PTCONT.3564372",
      "street": "R PEDRAS",
      "house": "493 C2",
      "postcode": "4405-685",
      "city": "VILA NOVA DE GAIA",
      "lon": "-8.643515646623227",
      "lat": "41.07896513922546"
    },
    {
      "id": "pt.ine.add.PTCONT.3564373",
      "street": "R PEDRAS",
      "house": "493 CASA3",
      "postcode": "4405-685",
      "city": "VILA NOVA DE GAIA",
      "lon": "-8.643515646623227",
      "lat": "41.07896513922546"
    },
    {
      "id": "pt.ine.add.PTCONT.3564374",
      "street": "R PEDRAS",
      "house": "493 CASA4",
      "postcode": "4405-685",
      "city": "VILA NOVA DE GAIA",
      "lon": "-8.643515646623227",
      "lat": "41.07896513922546"
    },
    {
      "id": "pt.ine.add.PTCONT.3577133",
      "street": "R DR FERREIRA ALVES",
      "house": "171",
      "postcode": "4405-635",
      "city": "VILA NOVA DE GAIA",
      "lon": "-8.646285965415537",
      "lat": "41.080195450409974"
    },
    {
      "id": "pt.ine.add.PTCONT.3578637",
      "street": "R DR FERREIRA ALVES",
      "house": "159",
      "postcode": "4405-635",
      "city": "VILA NOVA DE GAIA",
      "lon": "-8.646370453384055",
      "lat": "41.080348149925"
    },
    {
      "id": "pt.ine.add.PTCONT.3589642",
      "street": "R PARTICULAR DOS PEDRAS",
      "house": "326",
      "postcode": "4405-682",
      "city": "VILA NOVA DE GAIA",
      "lon": "-8.643676400538165",
      "lat": "41.07974781523929"
    },
    {
      "id": "pt.ine.add.PTCONT.3602568",
      "street": "R DR FERREIRA ALVES",
      "house": "",
      "postcode": "4405-635",
      "city": "VILA NOVA DE GAIA",
      "lon": "-8.646359394340308",
      "lat": "41.080456252702"
    },
    {
      "id": "pt.ine.add.PTCONT.3602701",
      "street": "R PARTICULAR PEDRAS",
      "house": "",
      "postcode": "4405-682",
      "city": "VILA NOVA DE GAIA",
      "lon": "-8.644032618956139",
      "lat": "41.079647187240454"
    },
    {
      "id": "pt.ine.add.PTCONT.3602702",
      "street": "R PARTICULAR DOS PEDRAS",
      "house": "598",
      "postcode": "4405-682",
      "city": "VILA NOVA DE GAIA",
      "lon": "-8.644032618956139",
      "lat": "41.079647187240454"
    },
    {
      "id": "pt.ine.add.PTCONT.3602703",
      "street": "R PARTICULAR DOS PEDRAS",
      "house": "598",
      "postcode": "4405-682",
      "city": "VILA NOVA DE GAIA",
      "lon": "-8.644032618956139",
      "lat": "41.079647187240454"
    },
    {
      "id": "pt.ine.add.PTCONT.3620864",
      "street": "LG LAVOURAS",
      "house": "12 BLOCO",
      "postcode": "4405-659",
      "city": "VILA NOVA DE GAIA",
      "lon": "-8.645125954773109",
      "lat": "41.0809930032164"
    },
    {
      "id": "pt.ine.add.PTCONT.3620865",
      "street": "LG LAVOURAS",
      "house": "12",
      "postcode": "4405-659",
      "city": "VILA NOVA DE GAIA",
      "lon": "-8.645125954773109",
      "lat": "41.0809930032164"
    },
    {
      "id": "pt.ine.add.PTCONT.3620866",
      "street": "LG LAVOURAS",
      "house": "12 BL 2",
      "postcode": "4405-659",
      "city": "VILA NOVA DE GAIA",
      "lon": "-8.645125954773109",
      "lat": "41.0809930032164"
    },
    {
      "id": "pt.ine.add.PTCONT.3620867",
      "street": "LG LAVOURAS",
      "house": "12 BLOCO2",
      "postcode": "4405-659",
      "city": "VILA NOVA DE GAIA",
      "lon": "-8.645125954773109",
      "lat": "41.0809930032164"
    },
    {
      "id": "pt.ine.add.PTCONT.3620868",
      "street": "LG LAVOURAS",
      "house": "12 BLOCO2",
      "postcode": "4405-659",
      "city": "VILA NOVA DE GAIA",
      "lon": "-8.645125954773109",
      "lat": "41.0809930032164"
    },
    {
      "id": "pt.ine.add.PTCONT.3620869",
      "street": "LG LAVOURAS",
      "house": "12 BLOCO2",
      "postcode": "4405-659",
      "city": "VILA NOVA DE GAIA",
      "lon": "-8.645125954773109",
      "lat": "41.0809930032164"
    },
    {
      "id": "pt.ine.add.PTCONT.3620870",
      "street": "LG LAVOURAS",
      "house": "12 BL 2",
      "postcode": "4405-659",
      "city": "VILA NOVA DE GAIA",
      "lon": "-8.645125954773109",
      "lat": "41.0809930032164"
    },
    {
      "id": "pt.ine.add.PTCONT.3620871",
      "street": "LG LAVOURAS",
      "house": "12 BLOCO2",
      "postcode": "4405-659",
      "city": "VILA NOVA DE GAIA",
      "lon": "-8.645125954773109",
      "lat": "41.0809930032164"
    },
    {
      "id": "pt.ine.add.PTCONT.3620872",
      "street": "LG LAVOURAS",
      "house": "12 BLOCO2",
      "postcode": "4405-659",
      "city": "VILA NOVA DE GAIA",
      "lon": "-8.645125954773109",
      "lat": "41.0809930032164"
    },
    {
      "id": "pt.ine.add.PTCONT.3620873",
      "street": "LG LAVOURAS",
      "house": "12 BL 2",
      "postcode": "4405-659",
      "city": "VILA NOVA DE GAIA",
      "lon": "-8.645125954773109",
      "lat": "41.0809930032164"
    },
    {
      "id": "pt.ine.add.PTCONT.3620874",
      "street": "LG LAVOURAS",
      "house": "12 BLOCO2",
      "postcode": "4405-659",
      "city": "VILA NOVA DE GAIA",
      "lon": "-8.645125954773109",
      "lat": "41.0809930032164"
    },
    {
      "id": "pt.ine.add.PTCONT.3620875",
      "street": "LG LAVOURAS",
      "house": "12",
      "postcode": "4405-659",
      "city": "VILA NOVA DE GAIA",
      "lon": "-8.645125954773109",
      "lat": "41.0809930032164"
    },
    {
      "id": "pt.ine.add.PTCONT.3620876",
      "street": "LG LAVOURAS",
      "house": "12 BLOCO2",
      "postcode": "4405-659",
      "city": "VILA NOVA DE GAIA",
      "lon": "-8.645125954773109",
      "lat": "41.0809930032164"
    },
    {
      "id": "pt.ine.add.PTCONT.3621019",
      "street": "LG LAVOURAS",
      "house": "12 B2",
      "postcode": "4405-659",
      "city": "VILA NOVA DE GAIA",
      "lon": "-8.645125954773109",
      "lat": "41.0809930032164"
    },
    {
      "id": "pt.ine.add.PTCONT.3621020",
      "street": "LG LAVOURAS",
      "house": "12 BLOCO2",
      "postcode": "4405-659",
      "city": "VILA NOVA DE GAIA",
      "lon": "-8.645125954773109",
      "lat": "41.0809930032164"
    },
    {
      "id": "pt.ine.add.PTCONT.3621021",
      "street": "LG LAVOURAS",
      "house": "12 BLOCO2",
      "postcode": "4405-659",
      "city": "VILA NOVA DE GAIA",
      "lon": "-8.645125954773109",
      "lat": "41.0809930032164"
    },
    {
      "id": "pt.ine.add.PTCONT.3621903",
      "street": "LG LAVOURAS",
      "house": "12 BLOCO2",
      "postcode": "4405-659",
      "city": "VILA NOVA DE GAIA",
      "lon": "-8.645125954773109",
      "lat": "41.0809930032164"
    },
    {
      "id": "pt.ine.add.PTCONT.3628239",
      "street": "R PEDRAS",
      "house": "273",
      "postcode": "4405-685",
      "city": "VILA NOVA DE GAIA",
      "lon": "-8.645666564880523",
      "lat": "41.078586408688246"
    },
    {
      "id": "pt.ine.add.PTCONT.3641398",
      "street": "R DR FERREIRA ALVES",
      "house": "191",
      "postcode": "4405-635",
      "city": "VILA NOVA DE GAIA",
      "lon": "-8.646248865998757",
      "lat": "41.0800155264241"
    },
    {
      "id": "pt.ine.add.PTCONT.3641525",
      "street": "LG LAVOURAS",
      "house": "40",
      "postcode": "4405-659",
      "city": "VILA NOVA DE GAIA",
      "lon": "-8.64408086996865",
      "lat": "41.08126777610636"
    },
    {
      "id": "pt.ine.add.PTCONT.3641530",
      "street": "R PEDRAS",
      "house": "365",
      "postcode": "4405-685",
      "city": "VILA NOVA DE GAIA",
      "lon": "-8.644813586044878",
      "lat": "41.07907644069573"
    },
    {
      "id": "pt.ine.add.PTCONT.3692655",
      "street": "LG LAVOURAS",
      "house": "12",
      "postcode": "4405-659",
      "city": "VILA NOVA DE GAIA",
      "lon": "-8.64499184399315",
      "lat": "41.08057939392882"
    },
    {
      "id": "pt.ine.add.PTCONT.3692656",
      "street": "LG LAVOURAS",
      "house": "12 BLOC7",
      "postcode": "4405-659",
      "city": "VILA NOVA DE GAIA",
      "lon": "-8.64499184399315",
      "lat": "41.08057939392882"
    },
    {
      "id": "pt.ine.add.PTCONT.3692657",
      "street": "LG LAVOURAS",
      "house": "12 BLOCO7",
      "postcode": "4405-659",
      "city": "VILA NOVA DE GAIA",
      "lon": "-8.64499184399315",
      "lat": "41.08057939392882"
    },
    {
      "id": "pt.ine.add.PTCONT.3692658",
      "street": "LG LAVOURAS",
      "house": "12",
      "postcode": "4405-659",
      "city": "VILA NOVA DE GAIA",
      "lon": "-8.64499184399315",
      "lat": "41.08057939392882"
    },
    {
      "id": "pt.ine.add.PTCONT.3692659",
      "street": "LG LAVOURAS",
      "house": "12",
      "postcode": "4405-659",
      "city": "VILA NOVA DE GAIA",
      "lon": "-8.64499184399315",
      "lat": "41.08057939392882"
    },
    {
      "id": "pt.ine.add.PTCONT.3692660",
      "street": "LG LAVOURAS",
      "house": "12 BLOCO7",
      "postcode": "4405-659",
      "city": "VILA NOVA DE GAIA",
      "lon": "-8.64499184399315",
      "lat": "41.08057939392882"
    },
    {
      "id": "pt.ine.add.PTCONT.3692661",
      "street": "LG LAVOURAS",
      "house": "12 B7",
      "postcode": "4405-659",
      "city": "VILA NOVA DE GAIA",
      "lon": "-8.64499184399315",
      "lat": "41.08057939392882"
    },
    {
      "id": "pt.ine.add.PTCONT.3692662",
      "street": "LG LAVOURAS",
      "house": "12 BLOCO7",
      "postcode": "4405-659",
      "city": "VILA NOVA DE GAIA",
      "lon": "-8.64499184399315",
      "lat": "41.08057939392882"
    },
    {
      "id": "pt.ine.add.PTCONT.3692663",
      "street": "LG LAVOURAS",
      "house": "12",
      "postcode": "4405-659",
      "city": "VILA NOVA DE GAIA",
      "lon": "-8.64499184399315",
      "lat": "41.08057939392882"
    },
    {
      "id": "pt.ine.add.PTCONT.3692664",
      "street": "LG LAVOURAS",
      "house": "12 BLOCO7",
      "postcode": "4405-659",
      "city": "VILA NOVA DE GAIA",
      "lon": "-8.64499184399315",
      "lat": "41.08057939392882"
    },
    {
      "id": "pt.ine.add.PTCONT.3692665",
      "street": "LG LAVOURAS",
      "house": "12 BLOCO7",
      "postcode": "4405-659",
      "city": "VILA NOVA DE GAIA",
      "lon": "-8.64499184399315",
      "lat": "41.08057939392882"
    },
    {
      "id": "pt.ine.add.PTCONT.3692666",
      "street": "TV DR FERREIRA ALVES",
      "house": "12",
      "postcode": "4405-634",
      "city": "VILA NOVA DE GAIA",
      "lon": "-8.64499184399315",
      "lat": "41.08057939392882"
    },
    {
      "id": "pt.ine.add.PTCONT.3692667",
      "street": "LG LAVOURAS",
      "house": "12",
      "postcode": "4405-659",
      "city": "VILA NOVA DE GAIA",
      "lon": "-8.64499184399315",
      "lat": "41.08057939392882"
    },
    {
      "id": "pt.ine.add.PTCONT.3692671",
      "street": "LG LAVOURAS",
      "house": "12 BLOCO7",
      "postcode": "4405-659",
      "city": "VILA NOVA DE GAIA",
      "lon": "-8.64499184399315",
      "lat": "41.08057939392882"
    },
    {
      "id": "pt.ine.add.PTCONT.3692672",
      "street": "LG LAVOURAS",
      "house": "12 BLOCO7",
      "postcode": "4405-659",
      "city": "VILA NOVA DE GAIA",
      "lon": "-8.64499184399315",
      "lat": "41.08057939392882"
    },
    {
      "id": "pt.ine.add.PTCONT.3692673",
      "street": "LG LAVOURAS",
      "house": "12 BLOCO7",
      "postcode": "4405-659",
      "city": "VILA NOVA DE GAIA",
      "lon": "-8.64499184399315",
      "lat": "41.08057939392882"
    },
    {
      "id": "pt.ine.add.PTCONT.3692674",
      "street": "LG LAVOURAS",
      "house": "12 BLOCO7",
      "postcode": "4405-659",
      "city": "VILA NOVA DE GAIA",
      "lon": "-8.64499184399315",
      "lat": "41.08057939392882"
    },
    {
      "id": "pt.ine.add.PTCONT.3692796",
      "street": "R PEDRAS",
      "house": "597",
      "postcode": "4405-685",
      "city": "VILA NOVA DE GAIA",
      "lon": "-8.643223801237808",
      "lat": "41.079695793011176"
    },
    {
      "id": "pt.ine.add.PTCONT.3693328",
      "street": "LG LAVOURAS",
      "house": "12 BL 7",
      "postcode": "4405-659",
      "city": "VILA NOVA DE GAIA",
      "lon": "-8.64499184399315",
      "lat": "41.08057939392882"
    },
    {
      "id": "pt.ine.add.PTCONT.3712534",
      "street": "R PEDRAS",
      "house": "405",
      "postcode": "4405-685",
      "city": "VILA NOVA DE GAIA",
      "lon": "-8.643681053318033",
      "lat": "41.07881133057226"
    },
    {
      "id": "pt.ine.add.PTCONT.3725701",
      "street": "TV DR FERREIRA ALVES",
      "house": "72",
      "postcode": "4405-634",
      "city": "VILA NOVA DE GAIA",
      "lon": "-8.645733540950129",
      "lat": "41.08108034638081"
    },
    {
      "id": "pt.ine.add.PTCONT.3726054",
      "street": "R PEDRAS",
      "house": "509",
      "postcode": "4405-685",
      "city": "VILA NOVA DE GAIA",
      "lon": "-8.643373341590616",
      "lat": "41.07902880071601"
    },
    {
      "id": "pt.ine.add.PTCONT.3732171",
      "street": "TV DR FERREIRA ALVES",
      "house": "18",
      "postcode": "4405-634",
      "city": "VILA NOVA DE GAIA",
      "lon": "-8.646197351122575",
      "lat": "41.08104226421489"
    },
    {
      "id": "pt.ine.add.PTCONT.3738774",
      "street": "R PEDRAS",
      "house": "269",
      "postcode": "4405-685",
      "city": "VILA NOVA DE GAIA",
      "lon": "-8.645808656817174",
      "lat": "41.078495731924804"
    },
    {
      "id": "pt.ine.add.PTCONT.3738780",
      "street": "TV DR FERREIRA ALVES",
      "house": "94",
      "postcode": "4405-634",
      "city": "VILA NOVA DE GAIA",
      "lon": "-8.645531944538332",
      "lat": "41.08117128765394"
    },
    {
      "id": "pt.ine.add.PTCONT.3783803",
      "street": "R DR FERREIRA ALVES",
      "house": "263",
      "postcode": "4405-635",
      "city": "VILA NOVA DE GAIA",
      "lon": "-8.646040693252655",
      "lat": "41.07926007855588"
    },
    {
      "id": "pt.ine.add.PTCONT.3806680",
      "street": "R PEDRAS",
      "house": "697",
      "postcode": "4405-685",
      "city": "VILA NOVA DE GAIA",
      "lon": "-8.643550800298067",
      "lat": "41.08043271071505"
    },
    {
      "id": "pt.ine.add.PTCONT.3812471",
      "street": "R PEDRAS",
      "house": "719",
      "postcode": "4405-685",
      "city": "VILA NOVA DE GAIA",
      "lon": "-8.643563814601976",
      "lat": "41.08057672442535"
    },
    {
      "id": "pt.ine.add.PTCONT.3828913",
      "street": "R DR FERREIRA ALVES",
      "house": "143",
      "postcode": "4405-635",
      "city": "VILA NOVA DE GAIA",
      "lon": "-8.646492532479117",
      "lat": "41.080743802300724"
    },
    {
      "id": "pt.ine.add.PTCONT.3847641",
      "street": "LG LAVOURAS",
      "house": "12 BLOC",
      "postcode": "4405-659",
      "city": "VILA NOVA DE GAIA",
      "lon": "-8.644731168631207",
      "lat": "41.080724623000044"
    },
    {
      "id": "pt.ine.add.PTCONT.3847642",
      "street": "LG LAVOURAS",
      "house": "NR 12",
      "postcode": "4405-659",
      "city": "VILA NOVA DE GAIA",
      "lon": "-8.644731168631207",
      "lat": "41.080724623000044"
    },
    {
      "id": "pt.ine.add.PTCONT.3847643",
      "street": "LG LAVOURAS",
      "house": "12 BLOC",
      "postcode": "4405-659",
      "city": "VILA NOVA DE GAIA",
      "lon": "-8.644731168631207",
      "lat": "41.080724623000044"
    },
    {
      "id": "pt.ine.add.PTCONT.3847644",
      "street": "LG LAVOURAS",
      "house": "12",
      "postcode": "4405-659",
      "city": "VILA NOVA DE GAIA",
      "lon": "-8.644731168631207",
      "lat": "41.080724623000044"
    },
    {
      "id": "pt.ine.add.PTCONT.3847645",
      "street": "LG LAVOURAS",
      "house": "12",
      "postcode": "4405-659",
      "city": "VILA NOVA DE GAIA",
      "lon": "-8.644731168631207",
      "lat": "41.080724623000044"
    },
    {
      "id": "pt.ine.add.PTCONT.3847646",
      "street": "LG LAVOURAS",
      "house": "12 BLOC",
      "postcode": "4405-659",
      "city": "VILA NOVA DE GAIA",
      "lon": "-8.644731168631207",
      "lat": "41.080724623000044"
    },
    {
      "id": "pt.ine.add.PTCONT.3847647",
      "street": "LG LAVOURAS",
      "house": "12 BLC 6",
      "postcode": "4405-659",
      "city": "VILA NOVA DE GAIA",
      "lon": "-8.644731168631207",
      "lat": "41.080724623000044"
    },
    {
      "id": "pt.ine.add.PTCONT.3847648",
      "street": "LG LAVOURAS",
      "house": "12 BLOC",
      "postcode": "4405-659",
      "city": "VILA NOVA DE GAIA",
      "lon": "-8.644731168631207",
      "lat": "41.080724623000044"
    },
    {
      "id": "pt.ine.add.PTCONT.3847649",
      "street": "LG LAVOURAS",
      "house": "12",
      "postcode": "4405-659",
      "city": "VILA NOVA DE GAIA",
      "lon": "-8.644731168631207",
      "lat": "41.080724623000044"
    },
    {
      "id": "pt.ine.add.PTCONT.3847650",
      "street": "LG LAVOURAS",
      "house": "12 BLOC",
      "postcode": "4405-659",
      "city": "VILA NOVA DE GAIA",
      "lon": "-8.644731168631207",
      "lat": "41.080724623000044"
    },
    {
      "id": "pt.ine.add.PTCONT.3847651",
      "street": "LG LAVOURAS",
      "house": "12 BL6",
      "postcode": "4405-659",
      "city": "VILA NOVA DE GAIA",
      "lon": "-8.644731168631207",
      "lat": "41.080724623000044"
    },
    {
      "id": "pt.ine.add.PTCONT.3847652",
      "street": "LG LAVOURAS",
      "house": "12 BL 6",
      "postcode": "4405-659",
      "city": "VILA NOVA DE GAIA",
      "lon": "-8.644731168631207",
      "lat": "41.080724623000044"
    },
    {
      "id": "pt.ine.add.PTCONT.3847805",
      "street": "LG LAVOURAS",
      "house": "12 BLOC",
      "postcode": "4405-659",
      "city": "VILA NOVA DE GAIA",
      "lon": "-8.644731168631207",
      "lat": "41.080724623000044"
    },
    {
      "id": "pt.ine.add.PTCONT.3847806",
      "street": "LG LAVOURAS",
      "house": "12 BLOC",
      "postcode": "4405-659",
      "city": "VILA NOVA DE GAIA",
      "lon": "-8.644731168631207",
      "lat": "41.080724623000044"
    },
    {
      "id": "pt.ine.add.PTCONT.3847807",
      "street": "LG LAVOURAS",
      "house": "12 BLOC",
      "postcode": "4405-659",
      "city": "VILA NOVA DE GAIA",
      "lon": "-8.644731168631207",
      "lat": "41.080724623000044"
    },
    {
      "id": "pt.ine.add.PTCONT.3848666",
      "street": "LG LAVOURAS",
      "house": "12",
      "postcode": "4405-659",
      "city": "VILA NOVA DE GAIA",
      "lon": "-8.644731168631207",
      "lat": "41.080724623000044"
    },
    {
      "id": "pt.ine.add.PTCONT.3867300",
      "street": "TV DR FERREIRA ALVES",
      "house": "102",
      "postcode": "4405-634",
      "city": "VILA NOVA DE GAIA",
      "lon": "-8.645377177632975",
      "lat": "41.08116297134731"
    },
    {
      "id": "pt.ine.add.PTCONT.3873360",
      "street": "LG LAVOURAS",
      "house": "N 12 BL5",
      "postcode": "4405-659",
      "city": "VILA NOVA DE GAIA",
      "lon": "-8.644745023520468",
      "lat": "41.08097668634483"
    },
    {
      "id": "pt.ine.add.PTCONT.3873361",
      "street": "LG LAVOURAS",
      "house": "12",
      "postcode": "4405-659",
      "city": "VILA NOVA DE GAIA",
      "lon": "-8.644745023520468",
      "lat": "41.08097668634483"
    },
    {
      "id": "pt.ine.add.PTCONT.3873362",
      "street": "LG LAVOURAS",
      "house": "12 B5",
      "postcode": "4405-659",
      "city": "VILA NOVA DE GAIA",
      "lon": "-8.644745023520468",
      "lat": "41.08097668634483"
    },
    {
      "id": "pt.ine.add.PTCONT.3873363",
      "street": "LG LAVOURAS",
      "house": "12 BLOCO5",
      "postcode": "4405-659",
      "city": "VILA NOVA DE GAIA",
      "lon": "-8.644745023520468",
      "lat": "41.08097668634483"
    },
    {
      "id": "pt.ine.add.PTCONT.3873364",
      "street": "LG LAVOURAS",
      "house": "12",
      "postcode": "4405-659",
      "city": "VILA NOVA DE GAIA",
      "lon": "-8.644745023520468",
      "lat": "41.08097668634483"
    },
    {
      "id": "pt.ine.add.PTCONT.3873365",
      "street": "LG LAVOURAS",
      "house": "12 BL5",
      "postcode": "4405-659",
      "city": "VILA NOVA DE GAIA",
      "lon": "-8.644745023520468",
      "lat": "41.08097668634483"
    },
    {
      "id": "pt.ine.add.PTCONT.3873366",
      "street": "LG LAVOURAS",
      "house": "12",
      "postcode": "4405-659",
      "city": "VILA NOVA DE GAIA",
      "lon": "-8.644745023520468",
      "lat": "41.08097668634483"
    },
    {
      "id": "pt.ine.add.PTCONT.3873367",
      "street": "LG LAVOURAS",
      "house": "12 BL5",
      "postcode": "4405-659",
      "city": "VILA NOVA DE GAIA",
      "lon": "-8.644745023520468",
      "lat": "41.08097668634483"
    },
    {
      "id": "pt.ine.add.PTCONT.3873368",
      "street": "LG LAVOURAS",
      "house": "12 BLOCO5",
      "postcode": "4405-659",
      "city": "VILA NOVA DE GAIA",
      "lon": "-8.644745023520468",
      "lat": "41.08097668634483"
    },
    {
      "id": "pt.ine.add.PTCONT.3873408",
      "street": "LG LAVOURAS",
      "house": "N 12",
      "postcode": "4405-659",
      "city": "VILA NOVA DE GAIA",
      "lon": "-8.644745023520468",
      "lat": "41.08097668634483"
    },
    {
      "id": "pt.ine.add.PTCONT.3873409",
      "street": "LG LAVOURAS",
      "house": "12 BLOCO5",
      "postcode": "4405-659",
      "city": "VILA NOVA DE GAIA",
      "lon": "-8.644745023520468",
      "lat": "41.08097668634483"
    },
    {
      "id": "pt.ine.add.PTCONT.3873410",
      "street": "LG LAVOURAS",
      "house": "12 BLOCO5",
      "postcode": "4405-659",
      "city": "VILA NOVA DE GAIA",
      "lon": "-8.644745023520468",
      "lat": "41.08097668634483"
    },
    {
      "id": "pt.ine.add.PTCONT.3873411",
      "street": "LG LAVOURAS",
      "house": "12 BLOCO5",
      "postcode": "4405-659",
      "city": "VILA NOVA DE GAIA",
      "lon": "-8.644745023520468",
      "lat": "41.08097668634483"
    },
    {
      "id": "pt.ine.add.PTCONT.3873412",
      "street": "LG LAVOURAS",
      "house": "12 BL 5",
      "postcode": "4405-659",
      "city": "VILA NOVA DE GAIA",
      "lon": "-8.644745023520468",
      "lat": "41.08097668634483"
    },
    {
      "id": "pt.ine.add.PTCONT.3873413",
      "street": "LG LAVOURAS",
      "house": "12 BL 5",
      "postcode": "4405-659",
      "city": "VILA NOVA DE GAIA",
      "lon": "-8.644745023520468",
      "lat": "41.08097668634483"
    },
    {
      "id": "pt.ine.add.PTCONT.3873414",
      "street": "R PARTICULAR PEDRAS",
      "house": "607",
      "postcode": "4405-682",
      "city": "VILA NOVA DE GAIA",
      "lon": "-8.644745023520468",
      "lat": "41.08097668634483"
    },
    {
      "id": "pt.ine.add.PTCONT.3873415",
      "street": "LG LAVOURAS",
      "house": "12 BLOCO5",
      "postcode": "4405-659",
      "city": "VILA NOVA DE GAIA",
      "lon": "-8.644745023520468",
      "lat": "41.08097668634483"
    },
    {
      "id": "pt.ine.add.PTCONT.3911780",
      "street": "R PEDRAS",
      "house": "375",
      "postcode": "4405-685",
      "city": "VILA NOVA DE GAIA",
      "lon": "-8.644538922880642",
      "lat": "41.07895159761281"
    },
    {
      "id": "pt.ine.add.PTCONT.3918139",
      "street": "R PARTICULAR DOS PEDRAS",
      "house": "581",
      "postcode": "4405-682",
      "city": "VILA NOVA DE GAIA",
      "lon": "-8.643698805906066",
      "lat": "41.07956762673209"
    },
    {
      "id": "pt.ine.add.PTCONT.3918140",
      "street": "LG LAVOURAS",
      "house": "12 BL4",
      "postcode": "4405-659",
      "city": "VILA NOVA DE GAIA",
      "lon": "-8.644722760225848",
      "lat": "41.08117488329518"
    },
    {
      "id": "pt.ine.add.PTCONT.3918141",
      "street": "LG LAVOURAS",
      "house": "12 B4",
      "postcode": "4405-659",
      "city": "VILA NOVA DE GAIA",
      "lon": "-8.644722760225848",
      "lat": "41.08117488329518"
    },
    {
      "id": "pt.ine.add.PTCONT.3918142",
      "street": "LG LAVOURAS",
      "house": "12",
      "postcode": "4405-659",
      "city": "VILA NOVA DE GAIA",
      "lon": "-8.644722760225848",
      "lat": "41.08117488329518"
    },
    {
      "id": "pt.ine.add.PTCONT.3918143",
      "street": "LG LAVOURAS",
      "house": "12 BL4",
      "postcode": "4405-659",
      "city": "VILA NOVA DE GAIA",
      "lon": "-8.644722760225848",
      "lat": "41.08117488329518"
    },
    {
      "id": "pt.ine.add.PTCONT.3918144",
      "street": "LG LAVOURAS",
      "house": "12 BL4",
      "postcode": "4405-659",
      "city": "VILA NOVA DE GAIA",
      "lon": "-8.644722760225848",
      "lat": "41.08117488329518"
    },
    {
      "id": "pt.ine.add.PTCONT.3918145",
      "street": "LG LAVOURAS",
      "house": "12 BL4",
      "postcode": "4405-659",
      "city": "VILA NOVA DE GAIA",
      "lon": "-8.644722760225848",
      "lat": "41.08117488329518"
    },
    {
      "id": "pt.ine.add.PTCONT.3918146",
      "street": "LG LAVOURAS",
      "house": "12",
      "postcode": "4405-659",
      "city": "VILA NOVA DE GAIA",
      "lon": "-8.644722760225848",
      "lat": "41.08117488329518"
    },
    {
      "id": "pt.ine.add.PTCONT.3918224",
      "street": "LG LAVOURAS",
      "house": "12 BL4",
      "postcode": "4405-659",
      "city": "VILA NOVA DE GAIA",
      "lon": "-8.644722760225848",
      "lat": "41.08117488329518"
    },
    {
      "id": "pt.ine.add.PTCONT.3918225",
      "street": "LG LAVOURAS",
      "house": "12 B4",
      "postcode": "4405-659",
      "city": "VILA NOVA DE GAIA",
      "lon": "-8.644722760225848",
      "lat": "41.08117488329518"
    },
    {
      "id": "pt.ine.add.PTCONT.3918226",
      "street": "LG LAVOURAS",
      "house": "12 BL4",
      "postcode": "4405-659",
      "city": "VILA NOVA DE GAIA",
      "lon": "-8.644722760225848",
      "lat": "41.08117488329518"
    },
    {
      "id": "pt.ine.add.PTCONT.3918227",
      "street": "LG LAVOURAS",
      "house": "12 BL4",
      "postcode": "4405-659",
      "city": "VILA NOVA DE GAIA",
      "lon": "-8.644722760225848",
      "lat": "41.08117488329518"
    },
    {
      "id": "pt.ine.add.PTCONT.3918228",
      "street": "LG LAVOURAS",
      "house": "12 BL4",
      "postcode": "4405-659",
      "city": "VILA NOVA DE GAIA",
      "lon": "-8.644722760225848",
      "lat": "41.08117488329518"
    },
    {
      "id": "pt.ine.add.PTCONT.3918229",
      "street": "R PEDRAS",
      "house": "393",
      "postcode": "4405-685",
      "city": "VILA NOVA DE GAIA",
      "lon": "-8.644182220763577",
      "lat": "41.0789891980916"
    },
    {
      "id": "pt.ine.add.PTCONT.3918230",
      "street": "R PEDRAS",
      "house": "393",
      "postcode": "4405-685",
      "city": "VILA NOVA DE GAIA",
      "lon": "-8.644182220763577",
      "lat": "41.0789891980916"
    },
    {
      "id": "pt.ine.add.PTCONT.3919784",
      "street": "LG LAVOURAS",
      "house": "12 BL4",
      "postcode": "4405-659",
      "city": "VILA NOVA DE GAIA",
      "lon": "-8.644722760225848",
      "lat": "41.08117488329518"
    },
    {
      "id": "pt.ine.add.PTCONT.3931232",
      "street": "R DR FERREIRA ALVES",
      "house": "331",
      "postcode": "4405-635",
      "city": "VILA NOVA DE GAIA",
      "lon": "-8.645917080059078",
      "lat": "41.078666334246854"
    },
    {
      "id": "pt.ine.add.PTCONT.3957462",
      "street": "R PEDRAS",
      "house": "591",
      "postcode": "4405-685",
      "city": "VILA NOVA DE GAIA",
      "lon": "-8.643280861865119",
      "lat": "41.07938038423078"
    },
    {
      "id": "pt.ine.add.PTCONT.3963570",
      "street": "LG LAVOURAS",
      "house": "12 BLOCO3",
      "postcode": "4405-659",
      "city": "VILA NOVA DE GAIA",
      "lon": "-8.6451124478179",
      "lat": "41.08078596067141"
    },
    {
      "id": "pt.ine.add.PTCONT.3963571",
      "street": "LG LAVOURAS",
      "house": "12 BLOCO3",
      "postcode": "4405-659",
      "city": "VILA NOVA DE GAIA",
      "lon": "-8.6451124478179",
      "lat": "41.08078596067141"
    },
    {
      "id": "pt.ine.add.PTCONT.3963572",
      "street": "LG LAVOURAS",
      "house": "12 BLOCO3",
      "postcode": "4405-659",
      "city": "VILA NOVA DE GAIA",
      "lon": "-8.6451124478179",
      "lat": "41.08078596067141"
    },
    {
      "id": "pt.ine.add.PTCONT.3963573",
      "street": "LG LAVOURAS",
      "house": "12 B3",
      "postcode": "4405-659",
      "city": "VILA NOVA DE GAIA",
      "lon": "-8.6451124478179",
      "lat": "41.08078596067141"
    },
    {
      "id": "pt.ine.add.PTCONT.3963682",
      "street": "LG LAVOURAS",
      "house": "12 BL 3",
      "postcode": "4405-659",
      "city": "VILA NOVA DE GAIA",
      "lon": "-8.6451124478179",
      "lat": "41.08078596067141"
    },
    {
      "id": "pt.ine.add.PTCONT.3963683",
      "street": "LG LAVOURAS",
      "house": "12 BL3",
      "postcode": "4405-659",
      "city": "VILA NOVA DE GAIA",
      "lon": "-8.6451124478179",
      "lat": "41.08078596067141"
    },
    {
      "id": "pt.ine.add.PTCONT.3963684",
      "street": "LG LAVOURAS",
      "house": "12",
      "postcode": "4405-659",
      "city": "VILA NOVA DE GAIA",
      "lon": "-8.6451124478179",
      "lat": "41.08078596067141"
    },
    {
      "id": "pt.ine.add.PTCONT.3963685",
      "street": "LG LAVOURAS",
      "house": "12",
      "postcode": "4405-659",
      "city": "VILA NOVA DE GAIA",
      "lon": "-8.6451124478179",
      "lat": "41.08078596067141"
    },
    {
      "id": "pt.ine.add.PTCONT.3963686",
      "street": "LG LAVOURAS",
      "house": "12 BLOCO3",
      "postcode": "4405-659",
      "city": "VILA NOVA DE GAIA",
      "lon": "-8.6451124478179",
      "lat": "41.08078596067141"
    },
    {
      "id": "pt.ine.add.PTCONT.3963687",
      "street": "LG LAVOURAS",
      "house": "12 BLOCO3",
      "postcode": "4405-659",
      "city": "VILA NOVA DE GAIA",
      "lon": "-8.6451124478179",
      "lat": "41.08078596067141"
    },
    {
      "id": "pt.ine.add.PTCONT.3963688",
      "street": "LG LAVOURAS",
      "house": "12",
      "postcode": "4405-659",
      "city": "VILA NOVA DE GAIA",
      "lon": "-8.6451124478179",
      "lat": "41.08078596067141"
    },
    {
      "id": "pt.ine.add.PTCONT.3963689",
      "street": "LG LAVOURAS",
      "house": "12",
      "postcode": "4405-659",
      "city": "VILA NOVA DE GAIA",
      "lon": "-8.6451124478179",
      "lat": "41.08078596067141"
    },
    {
      "id": "pt.ine.add.PTCONT.3963690",
      "street": "LG LAVOURAS",
      "house": "12 BLOCO3",
      "postcode": "4405-659",
      "city": "VILA NOVA DE GAIA",
      "lon": "-8.6451124478179",
      "lat": "41.08078596067141"
    },
    {
      "id": "pt.ine.add.PTCONT.3963691",
      "street": "LG LAVOURAS",
      "house": "12 BL 3",
      "postcode": "4405-659",
      "city": "VILA NOVA DE GAIA",
      "lon": "-8.6451124478179",
      "lat": "41.08078596067141"
    },
    {
      "id": "pt.ine.add.PTCONT.3963692",
      "street": "LG LAVOURAS",
      "house": "12 BLOCO3",
      "postcode": "4405-659",
      "city": "VILA NOVA DE GAIA",
      "lon": "-8.6451124478179",
      "lat": "41.08078596067141"
    },
    {
      "id": "pt.ine.add.PTCONT.3964653",
      "street": "LG LAVOURAS",
      "house": "12 BLOCO3",
      "postcode": "4405-659",
      "city": "VILA NOVA DE GAIA",
      "lon": "-8.6451124478179",
      "lat": "41.08078596067141"
    },
    {
      "id": "pt.ine.add.PTCONT.3972745",
      "street": "R PEDRAS",
      "house": "579",
      "postcode": "4405-685",
      "city": "VILA NOVA DE GAIA",
      "lon": "-8.643222617731805",
      "lat": "41.07954272240353"
    },
    {
      "id": "pt.ine.add.PTCONT.3983132",
      "street": "R PEDRAS",
      "house": "691",
      "postcode": "4405-685",
      "city": "VILA NOVA DE GAIA",
      "lon": "-8.643407586760784",
      "lat": "41.08037931827711"
    },
    {
      "id": "pt.ine.add.PTCONT.3996143",
      "street": "TV DR FERREIRA ALVES",
      "house": "52",
      "postcode": "4405-634",
      "city": "VILA NOVA DE GAIA",
      "lon": "-8.64584105858523",
      "lat": "41.08113389475907"
    },
    {
      "id": "pt.ine.add.PTCONT.4002676",
      "street": "R DR FERREIRA ALVES",
      "house": "333",
      "postcode": "4405-635",
      "city": "VILA NOVA DE GAIA",
      "lon": "-8.645904270984353",
      "lat": "41.07854933323656"
    },
    {
      "id": "pt.ine.add.PTCONT.4003325",
      "street": "R PEDRAS",
      "house": "",
      "postcode": "4405-685",
      "city": "VILA NOVA DE GAIA",
      "lon": "-8.643316003172943",
      "lat": "41.07930819294218"
    },
    {
      "id": "pt.ine.add.PTCONT.4015668",
      "street": "R DR FERREIRA ALVES",
      "house": "83",
      "postcode": "4405-635",
      "city": "VILA NOVA DE GAIA",
      "lon": "-8.646541883082035",
      "lat": "41.08096869389008"
    },
    {
      "id": "pt.ine.add.PTCONT.4015798",
      "street": "R PEDRAS",
      "house": "559",
      "postcode": "4405-685",
      "city": "VILA NOVA DE GAIA",
      "lon": "-8.643543694662858",
      "lat": "41.07951428717223"
    },
    {
      "id": "pt.ine.add.PTCONT.4035287",
      "street": "LG LAVOURAS",
      "house": "N 12",
      "postcode": "4405-659",
      "city": "VILA NOVA DE GAIA",
      "lon": "-8.645091653092353",
      "lat": "41.08117324481053"
    },
    {
      "id": "pt.ine.add.PTCONT.4035288",
      "street": "LG LAVOURAS",
      "house": "12 BLOCO1",
      "postcode": "4405-659",
      "city": "VILA NOVA DE GAIA",
      "lon": "-8.645091653092353",
      "lat": "41.08117324481053"
    },
    {
      "id": "pt.ine.add.PTCONT.4035289",
      "street": "LG LAVOURAS",
      "house": "12 BLOCO1",
      "postcode": "4405-659",
      "city": "VILA NOVA DE GAIA",
      "lon": "-8.645091653092353",
      "lat": "41.08117324481053"
    },
    {
      "id": "pt.ine.add.PTCONT.4035290",
      "street": "LG LAVOURAS",
      "house": "12 BLOCO1",
      "postcode": "4405-659",
      "city": "VILA NOVA DE GAIA",
      "lon": "-8.645091653092353",
      "lat": "41.08117324481053"
    },
    {
      "id": "pt.ine.add.PTCONT.4035291",
      "street": "LG LAVOURAS",
      "house": "12 BL 1",
      "postcode": "4405-659",
      "city": "VILA NOVA DE GAIA",
      "lon": "-8.645091653092353",
      "lat": "41.08117324481053"
    },
    {
      "id": "pt.ine.add.PTCONT.4035292",
      "street": "LG LAVOURAS",
      "house": "12 BLOCO1",
      "postcode": "4405-659",
      "city": "VILA NOVA DE GAIA",
      "lon": "-8.645091653092353",
      "lat": "41.08117324481053"
    },
    {
      "id": "pt.ine.add.PTCONT.4035293",
      "street": "LG LAVOURAS",
      "house": "12 BLOCO1",
      "postcode": "4405-659",
      "city": "VILA NOVA DE GAIA",
      "lon": "-8.645091653092353",
      "lat": "41.08117324481053"
    },
    {
      "id": "pt.ine.add.PTCONT.4035294",
      "street": "LG LAVOURAS",
      "house": "12 BLOCO1",
      "postcode": "4405-659",
      "city": "VILA NOVA DE GAIA",
      "lon": "-8.645091653092353",
      "lat": "41.08117324481053"
    },
    {
      "id": "pt.ine.add.PTCONT.4035295",
      "street": "LG LAVOURAS",
      "house": "12 BL 1",
      "postcode": "4405-659",
      "city": "VILA NOVA DE GAIA",
      "lon": "-8.645091653092353",
      "lat": "41.08117324481053"
    },
    {
      "id": "pt.ine.add.PTCONT.4035296",
      "street": "LG LAVOURAS",
      "house": "12 BLOCO1",
      "postcode": "4405-659",
      "city": "VILA NOVA DE GAIA",
      "lon": "-8.645091653092353",
      "lat": "41.08117324481053"
    },
    {
      "id": "pt.ine.add.PTCONT.4035300",
      "street": "LG LAVOURAS",
      "house": "12 BLOCO1",
      "postcode": "4405-659",
      "city": "VILA NOVA DE GAIA",
      "lon": "-8.645091653092353",
      "lat": "41.08117324481053"
    },
    {
      "id": "pt.ine.add.PTCONT.4035301",
      "street": "LG LAVOURAS",
      "house": "12 BLOCO1",
      "postcode": "4405-659",
      "city": "VILA NOVA DE GAIA",
      "lon": "-8.645091653092353",
      "lat": "41.08117324481053"
    },
    {
      "id": "pt.ine.add.PTCONT.4035725",
      "street": "LG LAVOURAS",
      "house": "12 BLOCO1",
      "postcode": "4405-659",
      "city": "VILA NOVA DE GAIA",
      "lon": "-8.645091653092353",
      "lat": "41.08117324481053"
    },
    {
      "id": "pt.ine.add.PTCONT.4042067",
      "street": "R PEDRAS",
      "house": "673",
      "postcode": "4405-685",
      "city": "VILA NOVA DE GAIA",
      "lon": "-8.643287476409407",
      "lat": "41.08023577876665"
    },
    {
      "id": "pt.ine.add.PTCONT.4042518",
      "street": "R PEDRAS",
      "house": "673",
      "postcode": "4405-685",
      "city": "VILA NOVA DE GAIA",
      "lon": "-8.643287476409407",
      "lat": "41.08023577876665"
    },
    {
      "id": "pt.ine.add.PTCONT.4075149",
      "street": "LG LAVOURAS",
      "house": "20",
      "postcode": "4405-659",
      "city": "VILA NOVA DE GAIA",
      "lon": "-8.643830137949278",
      "lat": "41.08116083418619"
    },
    {
      "id": "pt.ine.add.PTCONT.4089197",
      "street": "R PEDRAS",
      "house": "663",
      "postcode": "4405-685",
      "city": "VILA NOVA DE GAIA",
      "lon": "-8.643155954274745",
      "lat": "41.08015532086614"
    },
    {
      "id": "pt.ine.add.PTCONT.4089198",
      "street": "R PEDRAS",
      "house": "663",
      "postcode": "4405-685",
      "city": "VILA NOVA DE GAIA",
      "lon": "-8.643155954274745",
      "lat": "41.08015532086614"
    },
    {
      "id": "pt.ine.add.PTCONT.4112865",
      "street": "R PEDRAS",
      "house": "683",
      "postcode": "4405-685",
      "city": "VILA NOVA DE GAIA",
      "lon": "-8.643347670792894",
      "lat": "41.080325556842595"
    },
    {
      "id": "pt.ine.add.PTCONT.4112866",
      "street": "R DR FERREIRA ALVES",
      "house": "117",
      "postcode": "4405-635",
      "city": "VILA NOVA DE GAIA",
      "lon": "-8.646469713995218",
      "lat": "41.08086996639096"
    },
    {
      "id": "pt.ine.add.PTCONT.4115407",
      "street": "R PEDRAS",
      "house": "395",
      "postcode": "4405-685",
      "city": "VILA NOVA DE GAIA",
      "lon": "-8.644039497963078",
      "lat": "41.078998835482594"
    },
    {
      "id": "pt.ine.add.PTCONT.4115408",
      "street": "R PEDRAS",
      "house": "395",
      "postcode": "4405-685",
      "city": "VILA NOVA DE GAIA",
      "lon": "-8.644039497963078",
      "lat": "41.078998835482594"
    },
    {
      "id": "pt.ine.add.PTCONT.4115409",
      "street": "R PEDRAS",
      "house": "395",
      "postcode": "4405-685",
      "city": "VILA NOVA DE GAIA",
      "lon": "-8.644039497963078",
      "lat": "41.078998835482594"
    },
    {
      "id": "pt.ine.add.PTCONT.4115458",
      "street": "R PEDRAS",
      "house": "395",
      "postcode": "4405-685",
      "city": "VILA NOVA DE GAIA",
      "lon": "-8.644039497963078",
      "lat": "41.078998835482594"
    },
    {
      "id": "pt.ine.add.PTCONT.4120763",
      "street": "TV DR FERREIRA ALVES",
      "house": "24",
      "postcode": "4405-634",
      "city": "VILA NOVA DE GAIA",
      "lon": "-8.646030544693657",
      "lat": "41.08101599347685"
    },
    {
      "id": "pt.ine.add.PTCONT.4120898",
      "street": "R PEDRAS",
      "house": "635",
      "postcode": "4405-685",
      "city": "VILA NOVA DE GAIA",
      "lon": "-8.643095342699182",
      "lat": "41.08001151776744"
    },
    {
      "id": "pt.ine.add.PTCONT.4147200",
      "street": "R PEDRAS",
      "house": "343",
      "postcode": "4405-685",
      "city": "VILA NOVA DE GAIA",
      "lon": "-8.644966950898958",
      "lat": "41.07890467475313"
    },
    {
      "id": "pt.ine.add.PTCONT.4153582",
      "street": "R PEDRAS",
      "house": "297",
      "postcode": "4405-685",
      "city": "VILA NOVA DE GAIA",
      "lon": "-8.645547851592147",
      "lat": "41.07862295453409"
    },
    {
      "id": "pt.ine.add.PTCONT.4153729",
      "street": "R PEDRAS",
      "house": "477",
      "postcode": "4405-685",
      "city": "VILA NOVA DE GAIA",
      "lon": "-8.64350298104954",
      "lat": "41.07886614623807"
    },
    {
      "id": "pt.ine.add.PTCONT.4153730",
      "street": "R PEDRAS",
      "house": "477",
      "postcode": "4405-685",
      "city": "VILA NOVA DE GAIA",
      "lon": "-8.64350298104954",
      "lat": "41.07886614623807"
    },
    {
      "id": "pt.ine.add.PTCONT.4159965",
      "street": "TV DR FERREIRA ALVES",
      "house": "86",
      "postcode": "4405-634",
      "city": "VILA NOVA DE GAIA",
      "lon": "-8.64563827298637",
      "lat": "41.08107176571042"
    },
    {
      "id": "pt.ine.add.PTCONT.4166591",
      "street": "R DR FERREIRA ALVES",
      "house": "301",
      "postcode": "4405-635",
      "city": "VILA NOVA DE GAIA",
      "lon": "-8.64597972628283",
      "lat": "41.07907125623272"
    },
    {
      "id": "pt.ine.add.PTCONT.4174111",
      "street": "R DR FERREIRA ALVES",
      "house": "311",
      "postcode": "4405-635",
      "city": "VILA NOVA DE GAIA",
      "lon": "-8.645990925728421",
      "lat": "41.07898116176494"
    },
    {
      "id": "pt.ine.add.PTCONT.4174112",
      "street": "R DR FERREIRA ALVES",
      "house": "311",
      "postcode": "4405-635",
      "city": "VILA NOVA DE GAIA",
      "lon": "-8.645990925728421",
      "lat": "41.07898116176494"
    },
    {
      "id": "pt.ine.add.PTCONT.4200886",
      "street": "R DR FERREIRA ALVES",
      "house": "",
      "postcode": "4405-635",
      "city": "VILA NOVA DE GAIA",
      "lon": "-8.646431562803814",
      "lat": "41.08055498028093"
    },
    {
      "id": "pt.ine.add.PTCONT.4200887",
      "street": "TV DR FERREIRA ALVES",
      "house": "34",
      "postcode": "4405-634",
      "city": "VILA NOVA DE GAIA",
      "lon": "-8.6458767578678",
      "lat": "41.081133735901325"
    },
    {
      "id": "pt.ine.add.PTCONT.4206162",
      "street": "TV DR FERREIRA ALVES",
      "house": "34",
      "postcode": "4405-634",
      "city": "VILA NOVA DE GAIA",
      "lon": "-8.6458767578678",
      "lat": "41.081133735901325"
    },
    {
      "id": "pt.ine.add.PTCONT.4218923",
      "street": "R DR FERREIRA ALVES",
      "house": "217",
      "postcode": "4405-635",
      "city": "VILA NOVA DE GAIA",
      "lon": "-8.646235986019658",
      "lat": "41.079889521334316"
    },
    {
      "id": "pt.ine.add.PTCONT.4280119",
      "street": "R PEDRAS",
      "house": "",
      "postcode": "4405-685",
      "city": "VILA NOVA DE GAIA",
      "lon": "-8.643362904555543",
      "lat": "41.079217940642515"
    },
    {
      "id": "pt.ine.add.PTCONT.4280120",
      "street": "R PEDRAS",
      "house": "307",
      "postcode": "4405-685",
      "city": "VILA NOVA DE GAIA",
      "lon": "-8.645334712589607",
      "lat": "41.07875896913407"
    },
    {
      "id": "pt.ine.add.PTCONT.4318815",
      "street": "R DR FERREIRA ALVES",
      "house": "309",
      "postcode": "4405-635",
      "city": "VILA NOVA DE GAIA",
      "lon": "-8.645977626511996",
      "lat": "41.07880113171512"
    },
    {
      "id": "pt.ine.add.PTCONT.4343939",
      "street": "LG LAVOURAS",
      "house": "44",
      "postcode": "4405-659",
      "city": "VILA NOVA DE GAIA",
      "lon": "-8.64449792090911",
      "lat": "41.08133796162666"
    },
    {
      "id": "pt.ine.add.PTCONT.4343940",
      "street": "LG LAVOURAS",
      "house": "44",
      "postcode": "4405-659",
      "city": "VILA NOVA DE GAIA",
      "lon": "-8.64449792090911",
      "lat": "41.08133796162666"
    },
    {
      "id": "pt.ine.add.PTCONT.4343941",
      "street": "LG LAVOURAS",
      "house": "44",
      "postcode": "4405-659",
      "city": "VILA NOVA DE GAIA",
      "lon": "-8.64449792090911",
      "lat": "41.08133796162666"
    },
    {
      "id": "pt.ine.add.PTCONT.4343942",
      "street": "LG LAVOURAS",
      "house": "44",
      "postcode": "4405-659",
      "city": "VILA NOVA DE GAIA",
      "lon": "-8.64449792090911",
      "lat": "41.08133796162666"
    },
    {
      "id": "pt.ine.add.PTCONT.4343943",
      "street": "LG LAVOURAS",
      "house": "44 CASA5",
      "postcode": "4405-659",
      "city": "VILA NOVA DE GAIA",
      "lon": "-8.64449792090911",
      "lat": "41.08133796162666"
    },
    {
      "id": "pt.ine.add.PTCONT.4372619",
      "street": "R PEDRAS",
      "house": "369",
      "postcode": "4405-685",
      "city": "VILA NOVA DE GAIA",
      "lon": "-8.644621590203696",
      "lat": "41.078870190512"
    },
    {
      "id": "pt.ine.add.PTCONT.4377294",
      "street": "LG LAVOURAS",
      "house": "12",
      "postcode": "4405-659",
      "city": "VILA NOVA DE GAIA",
      "lon": "-8.644745023520468",
      "lat": "41.08097668634483"
    },
    {
      "id": "pt.ine.add.PTCONT.4383500",
      "street": "LG LAVOURAS",
      "house": "12 BLOCO1",
      "postcode": "4405-659",
      "city": "VILA NOVA DE GAIA",
      "lon": "-8.645091653092353",
      "lat": "41.08117324481053"
    },
    {
      "id": "pt.ine.add.PTCONT.4391142",
      "street": "LG LAVOURAS",
      "house": "12",
      "postcode": "4405-659",
      "city": "VILA NOVA DE GAIA",
      "lon": "-8.645125954773109",
      "lat": "41.0809930032164"
    }
  ]
}