{
  "data": {
    "distrito": "Viana do Castelo",
    "concelho": "Caminha",
    "freguesia": "União das freguesias de Gondar e Orbacém",
    "OBJECTID": 350,
    "BGRI2021": "16022300107",
    "DT21": "16",
    "DTMN21": "1602",
    "DTMNFR21": "160223",
    "DTMNFRSEC21": "160223001",
    "SECNUM21": "001",
    "SSNUM21": "07",
    "SECSSNUM21": "00107",
    "OBJECTID_1": 172614,
    "DT": "16",
    "CC": "02",
    "fr": "23",
    "SEC": "001",
    "SS": "07"
  },
  "addresses": [
    {
      "id": "pt.ine.add.PTCONT.5141841",
      "street": "CAM REGUEIRO CASA CRISTIANA",
      "house": "50",
      "postcode": "4910-303",
      "city": "ORBACÉM",
      "lon": "-8.772100835770878",
      "lat": "41.80919487736891"
    },
    {
      "id": "pt.ine.add.PTCONT.5154292",
      "street": "CAM REGUEIRO CASA DA NOGUEIRA",
      "house": "32",
      "postcode": "4910-303",
      "city": "ORBACÉM",
      "lon": "-8.772869710382965",
      "lat": "41.80906455155775"
    },
    {
      "id": "pt.ine.add.PTCONT.5156945",
      "street": "CAM CABANAS",
      "house": "112",
      "postcode": "4910-303",
      "city": "ORBACÉM",
      "lon": "-8.772970752712794",
      "lat": "41.80833472126739"
    },
    {
      "id": "pt.ine.add.PTCONT.5159754",
      "street": "CAM REGUEIRO",
      "house": "42",
      "postcode": "4910-303",
      "city": "ORBACÉM",
      "lon": "-8.772545618781066",
      "lat": "41.80914738580806"
    },
    {
      "id": "pt.ine.add.PTCONT.5174747",
      "street": "CAM REGUEIRO",
      "house": "171",
      "postcode": "4910-303",
      "city": "ORBACÉM",
      "lon": "-8.772377472228065",
      "lat": "41.81039077721524"
    },
    {
      "id": "pt.ine.add.PTCONT.5226882",
      "street": "CAM CARVALHAIS",
      "house": "251",
      "postcode": "4910-301",
      "city": "ORBACÉM",
      "lon": "-8.770850762593705",
      "lat": "41.80691498514228"
    },
    {
      "id": "pt.ine.add.PTCONT.5232655",
      "street": "BC CARVALHAIS",
      "house": "71",
      "postcode": "4910-301",
      "city": "ORBACÉM",
      "lon": "-8.770759945652719",
      "lat": "41.80746469092253"
    },
    {
      "id": "pt.ine.add.PTCONT.5235359",
      "street": "CAM PERRE",
      "house": "44",
      "postcode": "4910-303",
      "city": "ORBACÉM",
      "lon": "-8.770393603930533",
      "lat": "41.80692652557334"
    },
    {
      "id": "pt.ine.add.PTCONT.5249261",
      "street": "ESTR SENHORA DA CONCEIÇÃO",
      "house": "780",
      "postcode": "4910-309",
      "city": "ORBACÉM",
      "lon": "-8.773273731318984",
      "lat": "41.80854911247052"
    },
    {
      "id": "pt.ine.add.PTCONT.5256158",
      "street": "CAM CABANAS",
      "house": "150",
      "postcode": "4910-303",
      "city": "ORBACÉM",
      "lon": "-8.772397409868054",
      "lat": "41.8075546260681"
    },
    {
      "id": "pt.ine.add.PTCONT.5260823",
      "street": "CAM CARVALHAIS",
      "house": "365",
      "postcode": "4910-301",
      "city": "ORBACÉM",
      "lon": "-8.770414100585846",
      "lat": "41.806566279618885"
    }
  ]
}