{
  "data": {
    "distrito": "Porto",
    "concelho": "Vila do Conde",
    "freguesia": "Macieira da Maia",
    "OBJECTID": 638,
    "BGRI2021": "13161400210",
    "DT21": "13",
    "DTMN21": "1316",
    "DTMNFR21": "131614",
    "DTMNFRSEC21": "131614002",
    "SECNUM21": "002",
    "SSNUM21": "10",
    "SECSSNUM21": "00210",
    "OBJECTID_1": 143285,
    "DT": "13",
    "CC": "16",
    "fr": "14",
    "SEC": "002",
    "SS": "10"
  },
  "addresses": [
    {
      "id": "pt.ine.add.PTCONT.3541836",
      "street": "R MONTE",
      "house": "2",
      "postcode": "4485-397",
      "city": "MACIEIRA DA MAIA",
      "lon": "-8.68401654992179",
      "lat": "41.349716328392404"
    },
    {
      "id": "pt.ine.add.PTCONT.3556884",
      "street": "R PONTE D AVE",
      "house": "959",
      "postcode": "4485-389",
      "city": "MACIEIRA DA MAIA",
      "lon": "-8.679014558902987",
      "lat": "41.34740811815616"
    },
    {
      "id": "pt.ine.add.PTCONT.3577530",
      "street": "R MARIA ROCHA",
      "house": "77",
      "postcode": "4485-409",
      "city": "MACIEIRA DA MAIA",
      "lon": "-8.683462219490972",
      "lat": "41.34916073045139"
    },
    {
      "id": "pt.ine.add.PTCONT.3601639",
      "street": "R CAVADAS",
      "house": "45",
      "postcode": "4485-385",
      "city": "MACIEIRA DA MAIA",
      "lon": "-8.679305224942745",
      "lat": "41.34787494901593"
    },
    {
      "id": "pt.ine.add.PTCONT.3615859",
      "street": "R SENHOR PADRAO",
      "house": "",
      "postcode": "4485-393",
      "city": "MACIEIRA DA MAIA",
      "lon": "-8.690758703326367",
      "lat": "41.350062026449464"
    },
    {
      "id": "pt.ine.add.PTCONT.3633722",
      "street": "R CAMUNHAS",
      "house": "238",
      "postcode": "4485-384",
      "city": "MACIEIRA DA MAIA",
      "lon": "-8.683914891202475",
      "lat": "41.34899649224618"
    },
    {
      "id": "pt.ine.add.PTCONT.3660474",
      "street": "R MONTE",
      "house": "25",
      "postcode": "4485-397",
      "city": "MACIEIRA DA MAIA",
      "lon": "-8.68369318288499",
      "lat": "41.34962783551637"
    },
    {
      "id": "pt.ine.add.PTCONT.3660523",
      "street": "R MONTE",
      "house": "2",
      "postcode": "4485-397",
      "city": "MACIEIRA DA MAIA",
      "lon": "-8.684640149501606",
      "lat": "41.34998346261079"
    },
    {
      "id": "pt.ine.add.PTCONT.3686649",
      "street": "R SABARIZ",
      "house": "106",
      "postcode": "4485-391",
      "city": "MACIEIRA DA MAIA",
      "lon": "-8.679761938934764",
      "lat": "41.346765283912276"
    },
    {
      "id": "pt.ine.add.PTCONT.3705040",
      "street": "R SENHOR PADRAO",
      "house": "1500",
      "postcode": "4485-393",
      "city": "MACIEIRA DA MAIA",
      "lon": "-8.690522037103973",
      "lat": "41.350333293907724"
    },
    {
      "id": "pt.ine.add.PTCONT.3724683",
      "street": "R PONTE D AVE",
      "house": "1005",
      "postcode": "4485-389",
      "city": "MACIEIRA DA MAIA",
      "lon": "-8.678838495859686",
      "lat": "41.347787122739255"
    },
    {
      "id": "pt.ine.add.PTCONT.3724749",
      "street": "R SANTIAGO",
      "house": "9S",
      "postcode": "4485-054",
      "city": "MACIEIRA DA MAIA",
      "lon": "-8.680276114345691",
      "lat": "41.34823950269742"
    },
    {
      "id": "pt.ine.add.PTCONT.3731303",
      "street": "R SENHOR PADRAO",
      "house": "",
      "postcode": "4485-393",
      "city": "MACIEIRA DA MAIA",
      "lon": "-8.690549160009725",
      "lat": "41.350711331838596"
    },
    {
      "id": "pt.ine.add.PTCONT.3745436",
      "street": "R SENHOR PADRAO",
      "house": "",
      "postcode": "4485-393",
      "city": "MACIEIRA DA MAIA",
      "lon": "-8.690514082124139",
      "lat": "41.350801542044636"
    },
    {
      "id": "pt.ine.add.PTCONT.3773634",
      "street": "R MONTE",
      "house": "5",
      "postcode": "4485-397",
      "city": "MACIEIRA DA MAIA",
      "lon": "-8.683838309416906",
      "lat": "41.349834233902904"
    },
    {
      "id": "pt.ine.add.PTCONT.3802368",
      "street": "R SENHOR PADRAO",
      "house": "",
      "postcode": "4485-393",
      "city": "MACIEIRA DA MAIA",
      "lon": "-8.690463139016083",
      "lat": "41.35043262350362"
    },
    {
      "id": "pt.ine.add.PTCONT.3912072",
      "street": "R CAVADAS",
      "house": "95",
      "postcode": "4485-385",
      "city": "MACIEIRA DA MAIA",
      "lon": "-8.679640299736873",
      "lat": "41.347936386560704"
    },
    {
      "id": "pt.ine.add.PTCONT.3925103",
      "street": "R PONTE D AVE CAJA DAS HERAS",
      "house": "953",
      "postcode": "4485-389",
      "city": "MACIEIRA DA MAIA",
      "lon": "-8.679169131252682",
      "lat": "41.34731734447979"
    },
    {
      "id": "pt.ine.add.PTCONT.3931394",
      "street": "R SENHOR PADRAO",
      "house": "",
      "postcode": "4485-393",
      "city": "MACIEIRA DA MAIA",
      "lon": "-8.690428061156814",
      "lat": "41.350522833687634"
    },
    {
      "id": "pt.ine.add.PTCONT.3940919",
      "street": "R SABARIZ",
      "house": "542",
      "postcode": "4485-391",
      "city": "MACIEIRA DA MAIA",
      "lon": "-8.683757173044588",
      "lat": "41.347295484165585"
    },
    {
      "id": "pt.ine.add.PTCONT.3940920",
      "street": "R SABARIZ",
      "house": "542",
      "postcode": "4485-391",
      "city": "MACIEIRA DA MAIA",
      "lon": "-8.683757173044588",
      "lat": "41.347295484165585"
    },
    {
      "id": "pt.ine.add.PTCONT.3940921",
      "street": "R SABARIZ",
      "house": "542",
      "postcode": "4485-391",
      "city": "MACIEIRA DA MAIA",
      "lon": "-8.683757173044588",
      "lat": "41.347295484165585"
    },
    {
      "id": "pt.ine.add.PTCONT.3940922",
      "street": "R SABARIZ",
      "house": "542",
      "postcode": "4485-391",
      "city": "MACIEIRA DA MAIA",
      "lon": "-8.683757173044588",
      "lat": "41.347295484165585"
    },
    {
      "id": "pt.ine.add.PTCONT.3940923",
      "street": "R SABARIZ",
      "house": "542",
      "postcode": "4485-391",
      "city": "MACIEIRA DA MAIA",
      "lon": "-8.683757173044588",
      "lat": "41.347295484165585"
    },
    {
      "id": "pt.ine.add.PTCONT.3940924",
      "street": "R SABARIZ",
      "house": "542",
      "postcode": "4485-391",
      "city": "MACIEIRA DA MAIA",
      "lon": "-8.683757173044588",
      "lat": "41.347295484165585"
    },
    {
      "id": "pt.ine.add.PTCONT.3946120",
      "street": "R SABARIZ",
      "house": "542",
      "postcode": "4485-391",
      "city": "MACIEIRA DA MAIA",
      "lon": "-8.683757173044588",
      "lat": "41.347295484165585"
    },
    {
      "id": "pt.ine.add.PTCONT.3982347",
      "street": "R SENHOR PADRAO",
      "house": "",
      "postcode": "4485-393",
      "city": "MACIEIRA DA MAIA",
      "lon": "-8.69031011063684",
      "lat": "41.350703485431815"
    },
    {
      "id": "pt.ine.add.PTCONT.3988690",
      "street": "R CAMUNHAS",
      "house": "",
      "postcode": "4485-384",
      "city": "MACIEIRA DA MAIA",
      "lon": "-8.684165198748273",
      "lat": "41.348923261732686"
    },
    {
      "id": "pt.ine.add.PTCONT.4040927",
      "street": "R SABARIZ",
      "house": "154",
      "postcode": "4485-391",
      "city": "MACIEIRA DA MAIA",
      "lon": "-8.679991586509235",
      "lat": "41.34707933424794"
    },
    {
      "id": "pt.ine.add.PTCONT.4042377",
      "street": "R CAMUNHAS",
      "house": "253",
      "postcode": "4485-384",
      "city": "MACIEIRA DA MAIA",
      "lon": "-8.684095710284684",
      "lat": "41.34918471143385"
    },
    {
      "id": "pt.ine.add.PTCONT.4060890",
      "street": "R SENHOR PADRAO",
      "house": "",
      "postcode": "4485-389",
      "city": "MACIEIRA DA MAIA",
      "lon": "-8.690442620618143",
      "lat": "41.350828900227185"
    },
    {
      "id": "pt.ine.add.PTCONT.4074032",
      "street": "RAMP MONTE",
      "house": "50",
      "postcode": "4485-420",
      "city": "MACIEIRA DA MAIA",
      "lon": "-8.683396746248496",
      "lat": "41.34989937431067"
    },
    {
      "id": "pt.ine.add.PTCONT.4100227",
      "street": "R SENHOR PADRAO",
      "house": "",
      "postcode": "4485-393",
      "city": "MACIEIRA DA MAIA",
      "lon": "-8.690699729015114",
      "lat": "41.35015235250807"
    },
    {
      "id": "pt.ine.add.PTCONT.4146042",
      "street": "R SENHOR PADRAO",
      "house": "",
      "postcode": "4485-393",
      "city": "MACIEIRA DA MAIA",
      "lon": "-8.690346340408874",
      "lat": "41.350748330170475"
    },
    {
      "id": "pt.ine.add.PTCONT.4152496",
      "street": "R SENHOR PADRAO",
      "house": "",
      "postcode": "4485-393",
      "city": "MACIEIRA DA MAIA",
      "lon": "-8.69083008702078",
      "lat": "41.35002566441378"
    },
    {
      "id": "pt.ine.add.PTCONT.4172660",
      "street": "R CAMUNHAS",
      "house": "85",
      "postcode": "4485-384",
      "city": "MACIEIRA DA MAIA",
      "lon": "-8.685281950047964",
      "lat": "41.348161570202215"
    },
    {
      "id": "pt.ine.add.PTCONT.4178671",
      "street": "R CAMUNHAS",
      "house": "265",
      "postcode": "4485-384",
      "city": "MACIEIRA DA MAIA",
      "lon": "-8.683905295320006",
      "lat": "41.34927566323918"
    },
    {
      "id": "pt.ine.add.PTCONT.4207657",
      "street": "R SABARIZ",
      "house": "510",
      "postcode": "4485-391",
      "city": "MACIEIRA DA MAIA",
      "lon": "-8.683327120142728",
      "lat": "41.34730654501423"
    },
    {
      "id": "pt.ine.add.PTCONT.4207658",
      "street": "R SABARIZ",
      "house": "510",
      "postcode": "4485-391",
      "city": "MACIEIRA DA MAIA",
      "lon": "-8.683327120142728",
      "lat": "41.34730654501423"
    },
    {
      "id": "pt.ine.add.PTCONT.4209997",
      "street": "R SABARIZ",
      "house": "510",
      "postcode": "4485-391",
      "city": "MACIEIRA DA MAIA",
      "lon": "-8.683327120142728",
      "lat": "41.34730654501423"
    },
    {
      "id": "pt.ine.add.PTCONT.4209994",
      "street": "R SABARIZ",
      "house": "510",
      "postcode": "4485-391",
      "city": "MACIEIRA DA MAIA",
      "lon": "-8.683327120142728",
      "lat": "41.34730654501423"
    },
    {
      "id": "pt.ine.add.PTCONT.4209995",
      "street": "R SABARIZ",
      "house": "510",
      "postcode": "4485-391",
      "city": "MACIEIRA DA MAIA",
      "lon": "-8.683327120142728",
      "lat": "41.34730654501423"
    },
    {
      "id": "pt.ine.add.PTCONT.4209996",
      "street": "R SABARIZ",
      "house": "510",
      "postcode": "4485-391",
      "city": "MACIEIRA DA MAIA",
      "lon": "-8.683327120142728",
      "lat": "41.34730654501423"
    },
    {
      "id": "pt.ine.add.PTCONT.4209998",
      "street": "R SABARIZ",
      "house": "510",
      "postcode": "4485-391",
      "city": "MACIEIRA DA MAIA",
      "lon": "-8.683327120142728",
      "lat": "41.34730654501423"
    },
    {
      "id": "pt.ine.add.PTCONT.4209999",
      "street": "R SABARIZ",
      "house": "510",
      "postcode": "4485-391",
      "city": "MACIEIRA DA MAIA",
      "lon": "-8.683327120142728",
      "lat": "41.34730654501423"
    },
    {
      "id": "pt.ine.add.PTCONT.4224353",
      "street": "R SENHOR PADRAO",
      "house": "",
      "postcode": "4485-393",
      "city": "MACIEIRA DA MAIA",
      "lon": "-8.690345265530327",
      "lat": "41.35062227894409"
    },
    {
      "id": "pt.ine.add.PTCONT.4304044",
      "street": "R MONTE",
      "house": "6",
      "postcode": "4485-397",
      "city": "MACIEIRA DA MAIA",
      "lon": "-8.683524008791345",
      "lat": "41.34940354388191"
    },
    {
      "id": "pt.ine.add.PTCONT.4336955",
      "street": "R PONTE D AVE",
      "house": "971",
      "postcode": "4485-389",
      "city": "MACIEIRA DA MAIA",
      "lon": "-8.679099473968034",
      "lat": "41.34756078398778"
    },
    {
      "id": "pt.ine.add.PTCONT.4351425",
      "street": "RAMP MONTE",
      "house": "55",
      "postcode": "4485-420",
      "city": "MACIEIRA DA MAIA",
      "lon": "-8.683227496660807",
      "lat": "41.34966607857761"
    },
    {
      "id": "pt.ine.add.PTCONT.4357224",
      "street": "R SABARIZ",
      "house": "616",
      "postcode": "4485-391",
      "city": "MACIEIRA DA MAIA",
      "lon": "-8.684569790194763",
      "lat": "41.34730960135375"
    }
  ]
}