{
  "data": {
    "distrito": "Porto",
    "concelho": "Gondomar",
    "freguesia": "Lomba",
    "OBJECTID": 1188,
    "BGRI2021": "13040500115",
    "DT21": "13",
    "DTMN21": "1304",
    "DTMNFR21": "130405",
    "DTMNFRSEC21": "130405001",
    "SECNUM21": "001",
    "SSNUM21": "15",
    "SECSSNUM21": "00115",
    "OBJECTID_1": 128630,
    "DT": "13",
    "CC": "04",
    "fr": "05",
    "SEC": "001",
    "SS": "15"
  },
  "addresses": [
    {
      "id": "pt.ine.add.PTCONT.3582786",
      "street": "R CARVOAL",
      "house": "567",
      "postcode": "4515-264",
      "city": "LOMBA GDM",
      "lon": "-8.407928652965108",
      "lat": "41.034529068641504"
    },
    {
      "id": "pt.ine.add.PTCONT.3598300",
      "street": "R CARVOAL",
      "house": "",
      "postcode": "4515-264",
      "city": "LOMBA GDM",
      "lon": "-8.411088401021582",
      "lat": "41.03652950914118"
    },
    {
      "id": "pt.ine.add.PTCONT.3603105",
      "street": "R SARGACA",
      "house": "113",
      "postcode": "4515-312",
      "city": "LOMBA GDM",
      "lon": "-8.412326583159638",
      "lat": "41.03685968498022"
    },
    {
      "id": "pt.ine.add.PTCONT.3614577",
      "street": "R BAIRRO NOVO",
      "house": "623",
      "postcode": "4515-254",
      "city": "LOMBA GDM",
      "lon": "-8.409041961346677",
      "lat": "41.03344586048535"
    },
    {
      "id": "pt.ine.add.PTCONT.3688181",
      "street": "R BAIRRO NOVO",
      "house": "",
      "postcode": "4515-254",
      "city": "LOMBA GDM",
      "lon": "-8.409159559971693",
      "lat": "41.033130418967176"
    },
    {
      "id": "pt.ine.add.PTCONT.3701590",
      "street": "R BAIRRO NOVO",
      "house": "616",
      "postcode": "4515-254",
      "city": "LOMBA GDM",
      "lon": "-8.408663760906826",
      "lat": "41.03400504855299"
    },
    {
      "id": "pt.ine.add.PTCONT.3706575",
      "street": "R BAIRRO NOVO",
      "house": "588",
      "postcode": "4515-254",
      "city": "LOMBA GDM",
      "lon": "-8.408569453769955",
      "lat": "41.03420337447765"
    },
    {
      "id": "pt.ine.add.PTCONT.3727915",
      "street": "R CARVOAL",
      "house": "591",
      "postcode": "4515-264",
      "city": "LOMBA GDM",
      "lon": "-8.408071990354772",
      "lat": "41.034681804412266"
    },
    {
      "id": "pt.ine.add.PTCONT.3776146",
      "street": "AV MIRADOURO",
      "house": "565",
      "postcode": "4515-233",
      "city": "LOMBA GDM",
      "lon": "-8.41026214179885",
      "lat": "41.03233537074611"
    },
    {
      "id": "pt.ine.add.PTCONT.3818072",
      "street": "R OUTEIRO GORDO",
      "house": "33",
      "postcode": "4515-291",
      "city": "LOMBA GDM",
      "lon": "-8.418056380120044",
      "lat": "41.03357700423886"
    },
    {
      "id": "pt.ine.add.PTCONT.3863353",
      "street": "R BAIRRO NOVO",
      "house": "587",
      "postcode": "4515-254",
      "city": "LOMBA GDM",
      "lon": "-8.408957931483037",
      "lat": "41.0332569656823"
    },
    {
      "id": "pt.ine.add.PTCONT.3869097",
      "street": "R BAIRRO NOVO",
      "house": "621",
      "postcode": "4515-254",
      "city": "LOMBA GDM",
      "lon": "-8.40833218337921",
      "lat": "41.03433900982418"
    },
    {
      "id": "pt.ine.add.PTCONT.3889138",
      "street": "R CARVOAL",
      "house": "604",
      "postcode": "4515-264",
      "city": "LOMBA GDM",
      "lon": "-8.40777331228449",
      "lat": "41.034349347591125"
    },
    {
      "id": "pt.ine.add.PTCONT.3913456",
      "street": "R BAIRRO NOVO",
      "house": "618",
      "postcode": "4515-254",
      "city": "LOMBA GDM",
      "lon": "-8.408816961844375",
      "lat": "41.03367151315186"
    },
    {
      "id": "pt.ine.add.PTCONT.3998265",
      "street": "R BAIRRO NOVO",
      "house": "613",
      "postcode": "4515-254",
      "city": "LOMBA GDM",
      "lon": "-8.40905452963891",
      "lat": "41.03360791263092"
    },
    {
      "id": "pt.ine.add.PTCONT.4021087",
      "street": "R OUTEIRO GORDO",
      "house": "99",
      "postcode": "4515-291",
      "city": "LOMBA GDM",
      "lon": "-8.417852517119096",
      "lat": "41.0331813070815"
    },
    {
      "id": "pt.ine.add.PTCONT.4044099",
      "street": "R OUTEIRO GORDO",
      "house": "52",
      "postcode": "4515-291",
      "city": "LOMBA GDM",
      "lon": "-8.417838297950729",
      "lat": "41.03264106808884"
    },
    {
      "id": "pt.ine.add.PTCONT.4051646",
      "street": "R CARVOAL",
      "house": "566",
      "postcode": "4515-264",
      "city": "LOMBA GDM",
      "lon": "-8.40821544086758",
      "lat": "41.03486155343021"
    },
    {
      "id": "pt.ine.add.PTCONT.4051647",
      "street": "AV MIRADOURO",
      "house": "619",
      "postcode": "4515-233",
      "city": "LOMBA GDM",
      "lon": "-8.41049977897879",
      "lat": "41.032289776210256"
    },
    {
      "id": "pt.ine.add.PTCONT.4076883",
      "street": "AV MIRADOURO",
      "house": "594",
      "postcode": "4515-233",
      "city": "LOMBA GDM",
      "lon": "-8.40990570426616",
      "lat": "41.03240826387229"
    },
    {
      "id": "pt.ine.add.PTCONT.4103207",
      "street": "R BAIRRO NOVO",
      "house": "611",
      "postcode": "4515-254",
      "city": "LOMBA GDM",
      "lon": "-8.409376278734195",
      "lat": "41.03376922407905"
    },
    {
      "id": "pt.ine.add.PTCONT.4142806",
      "street": "R BAIRRO NOVO",
      "house": "633",
      "postcode": "4515-254",
      "city": "LOMBA GDM",
      "lon": "-8.408261808156524",
      "lat": "41.034573296604634"
    },
    {
      "id": "pt.ine.add.PTCONT.4142807",
      "street": "R BAIRRO NOVO",
      "house": "577",
      "postcode": "4515-254",
      "city": "LOMBA GDM",
      "lon": "-8.408261808156524",
      "lat": "41.034573296604634"
    },
    {
      "id": "pt.ine.add.PTCONT.4162288",
      "street": "R BAIRRO NOVO",
      "house": "585",
      "postcode": "4515-254",
      "city": "LOMBA GDM",
      "lon": "-8.408674713818629",
      "lat": "41.03377990816274"
    },
    {
      "id": "pt.ine.add.PTCONT.4169834",
      "street": "AV MIRADOURO",
      "house": "607",
      "postcode": "4515-233",
      "city": "LOMBA GDM",
      "lon": "-8.410868295716183",
      "lat": "41.03226187498936"
    },
    {
      "id": "pt.ine.add.PTCONT.4221144",
      "street": "R BAIRRO NOVO",
      "house": "169",
      "postcode": "4515-254",
      "city": "LOMBA GDM",
      "lon": "-8.408521211696183",
      "lat": "41.034041407546106"
    },
    {
      "id": "pt.ine.add.PTCONT.4238942",
      "street": "R BAIRRO NOVO",
      "house": "593",
      "postcode": "4515-254",
      "city": "LOMBA GDM",
      "lon": "-8.408329483295521",
      "lat": "41.0336906873775"
    },
    {
      "id": "pt.ine.add.PTCONT.4253721",
      "street": "AV FEYZIN",
      "house": "19",
      "postcode": "4515-291",
      "city": "LOMBA GDM",
      "lon": "-8.417760759814566",
      "lat": "41.03396493112049"
    },
    {
      "id": "pt.ine.add.PTCONT.4300652",
      "street": "R BAIRRO NOVO",
      "house": "620",
      "postcode": "4515-254",
      "city": "LOMBA GDM",
      "lon": "-8.40856686396962",
      "lat": "41.033582065465396"
    },
    {
      "id": "pt.ine.add.PTCONT.4307375",
      "street": "R BAIRRO NOVO",
      "house": "606",
      "postcode": "4515-254",
      "city": "LOMBA GDM",
      "lon": "-8.40798593911947",
      "lat": "41.03400666710964"
    },
    {
      "id": "pt.ine.add.PTCONT.4313902",
      "street": "R BAIRRO NOVO",
      "house": "569",
      "postcode": "4515-254",
      "city": "LOMBA GDM",
      "lon": "-8.40823517559734",
      "lat": "41.03388901304122"
    },
    {
      "id": "pt.ine.add.PTCONT.4359379",
      "street": "R CARVOAL",
      "house": "163",
      "postcode": "4515-264",
      "city": "LOMBA GDM",
      "lon": "-8.410991522650583",
      "lat": "41.03611553281218"
    }
  ]
}