{
  "data": {
    "distrito": "Porto",
    "concelho": "Gondomar",
    "freguesia": "Lomba",
    "OBJECTID": 1219,
    "BGRI2021": "13040500118",
    "DT21": "13",
    "DTMN21": "1304",
    "DTMNFR21": "130405",
    "DTMNFRSEC21": "130405001",
    "SECNUM21": "001",
    "SSNUM21": "18",
    "SECSSNUM21": "00118",
    "OBJECTID_1": 129277,
    "DT": "13",
    "CC": "04",
    "fr": "05",
    "SEC": "001",
    "SS": "18"
  },
  "addresses": [
    {
      "id": "pt.ine.add.PTCONT.3566215",
      "street": "R RIBEIRINHO CIMA",
      "house": "91",
      "postcode": "4515-307",
      "city": "LOMBA GDM",
      "lon": "-8.417654510905228",
      "lat": "41.034145284817924"
    },
    {
      "id": "pt.ine.add.PTCONT.3591686",
      "street": "R 25 DE ABRIL",
      "house": "",
      "postcode": "4515-249",
      "city": "LOMBA GDM",
      "lon": "-8.41912029367351",
      "lat": "41.03760841383191"
    },
    {
      "id": "pt.ine.add.PTCONT.3676461",
      "street": "R RIBEIRINHO DE CIMA",
      "house": "",
      "postcode": "4515-307",
      "city": "LOMBA GDM",
      "lon": "-8.417419235218537",
      "lat": "41.034740166811176"
    },
    {
      "id": "pt.ine.add.PTCONT.3685474",
      "street": "AV MIRADOURO",
      "house": "",
      "postcode": "4515-233",
      "city": "LOMBA GDM",
      "lon": "-8.422498919181923",
      "lat": "41.032449368851395"
    },
    {
      "id": "pt.ine.add.PTCONT.3742945",
      "street": "R 25 DE ABRIL",
      "house": "",
      "postcode": "4515-249",
      "city": "LOMBA GDM",
      "lon": "-8.417870909069153",
      "lat": "41.03744942541232"
    },
    {
      "id": "pt.ine.add.PTCONT.3742946",
      "street": "R LOUSEIRA",
      "house": "105",
      "postcode": "4515-288",
      "city": "LOMBA GDM",
      "lon": "-8.416705355454013",
      "lat": "41.03742528562057"
    },
    {
      "id": "pt.ine.add.PTCONT.3776147",
      "street": "R PENEDO",
      "house": "18",
      "postcode": "4515-296",
      "city": "LOMBA GDM",
      "lon": "-8.42358435336149",
      "lat": "41.03320302211325"
    },
    {
      "id": "pt.ine.add.PTCONT.3779685",
      "street": "R 25 DE ABRIL",
      "house": "",
      "postcode": "4515-249",
      "city": "LOMBA GDM",
      "lon": "-8.418180378726806",
      "lat": "41.03751169230631"
    },
    {
      "id": "pt.ine.add.PTCONT.3789512",
      "street": "R PARADINHA",
      "house": "",
      "postcode": "4515-292",
      "city": "LOMBA GDM",
      "lon": "-8.42223101279125",
      "lat": "41.033728689854726"
    },
    {
      "id": "pt.ine.add.PTCONT.3790337",
      "street": "AV FEYZIN",
      "house": "23",
      "postcode": "4515-232",
      "city": "LOMBA GDM",
      "lon": "-8.418876583682055",
      "lat": "41.033502936982245"
    },
    {
      "id": "pt.ine.add.PTCONT.3793444",
      "street": "LG ALDEIA",
      "house": "1",
      "postcode": "4515-239",
      "city": "LOMBA GDM",
      "lon": "-8.42105135636922",
      "lat": "41.03318236440897"
    },
    {
      "id": "pt.ine.add.PTCONT.3798956",
      "street": "LG ALDEIA",
      "house": "24",
      "postcode": "4515-239",
      "city": "LOMBA GDM",
      "lon": "-8.421455469187306",
      "lat": "41.03313633126954"
    },
    {
      "id": "pt.ine.add.PTCONT.3824496",
      "street": "AV FEYZIN",
      "house": "145",
      "postcode": "4515-232",
      "city": "LOMBA GDM",
      "lon": "-8.420231550527403",
      "lat": "41.033346491828574"
    },
    {
      "id": "pt.ine.add.PTCONT.3831191",
      "street": "R PENEDO",
      "house": "41",
      "postcode": "4515-296",
      "city": "LOMBA GDM",
      "lon": "-8.42401347611765",
      "lat": "41.03343605856092"
    },
    {
      "id": "pt.ine.add.PTCONT.3841080",
      "street": "LG PRAIA",
      "house": "",
      "postcode": "4515-245",
      "city": "LOMBA GDM",
      "lon": "-8.419429921308856",
      "lat": "41.037706695219555"
    },
    {
      "id": "pt.ine.add.PTCONT.3882534",
      "street": "R LOUSEIRA",
      "house": "128",
      "postcode": "4515-288",
      "city": "LOMBA GDM",
      "lon": "-8.416872503877839",
      "lat": "41.0375779517558"
    },
    {
      "id": "pt.ine.add.PTCONT.3889137",
      "street": "R SANTOS MOREIRA",
      "house": "",
      "postcode": "4515-311",
      "city": "LOMBA GDM",
      "lon": "-8.420815565852266",
      "lat": "41.03365119075429"
    },
    {
      "id": "pt.ine.add.PTCONT.3916254",
      "street": "R BARRAO DE CIMA",
      "house": "44",
      "postcode": "4515-257",
      "city": "LOMBA GDM",
      "lon": "-8.421978928705713",
      "lat": "41.033189047898375"
    },
    {
      "id": "pt.ine.add.PTCONT.3991910",
      "street": "R 25 DE ABRIL",
      "house": "175",
      "postcode": "4515-249",
      "city": "LOMBA GDM",
      "lon": "-8.41714610291031",
      "lat": "41.0375952869299"
    },
    {
      "id": "pt.ine.add.PTCONT.4007365",
      "street": "AV FEYZIN",
      "house": "124",
      "postcode": "4515-232",
      "city": "LOMBA GDM",
      "lon": "-8.417069293259573",
      "lat": "41.03632583289579"
    },
    {
      "id": "pt.ine.add.PTCONT.4083550",
      "street": "LG PRAIA",
      "house": "258",
      "postcode": "4515-245",
      "city": "LOMBA GDM",
      "lon": "-8.419585574828488",
      "lat": "41.037949431569665"
    },
    {
      "id": "pt.ine.add.PTCONT.4101599",
      "street": "LG JOSE SARAMAGO",
      "house": "177",
      "postcode": "4515-248",
      "city": "LOMBA GDM",
      "lon": "-8.417715573297889",
      "lat": "41.03727872243002"
    },
    {
      "id": "pt.ine.add.PTCONT.4193098",
      "street": "R 25 DE ABRIL",
      "house": "144",
      "postcode": "4515-249",
      "city": "LOMBA GDM",
      "lon": "-8.418382002398493",
      "lat": "41.03738512956616"
    },
    {
      "id": "pt.ine.add.PTCONT.4211631",
      "street": "LG ALDEIA",
      "house": "40",
      "postcode": "4515-239",
      "city": "LOMBA GDM",
      "lon": "-8.421680777449371",
      "lat": "41.03299169428549"
    },
    {
      "id": "pt.ine.add.PTCONT.4221148",
      "street": "AV MIRADOURO",
      "house": "58",
      "postcode": "4515-233",
      "city": "LOMBA GDM",
      "lon": "-8.423678693138196",
      "lat": "41.03302269295868"
    },
    {
      "id": "pt.ine.add.PTCONT.4277515",
      "street": "R SANTOS MOREIRA",
      "house": "",
      "postcode": "4515-311",
      "city": "LOMBA GDM",
      "lon": "-8.419651913371643",
      "lat": "41.03405029059691"
    }
  ]
}