{
  "data": {
    "distrito": "Setúbal",
    "concelho": "Montijo",
    "freguesia": "União das freguesias de Montijo e Afonsoeiro",
    "OBJECTID": 533,
    "BGRI2021": "15071001904",
    "DT21": "15",
    "DTMN21": "1507",
    "DTMNFR21": "150710",
    "DTMNFRSEC21": "150710019",
    "SECNUM21": "019",
    "SSNUM21": "04",
    "SECSSNUM21": "01904",
    "OBJECTID_1": 164400,
    "DT": "15",
    "CC": "07",
    "fr": "10",
    "SEC": "019",
    "SS": "04"
  },
  "addresses": [
    {
      "id": "pt.ine.add.PTCONT.4745417",
      "street": "R JOAO GAMA LOBO",
      "house": "16",
      "postcode": "2870-124",
      "city": "MONTIJO",
      "lon": "-8.977134602755038",
      "lat": "38.706151861686784"
    },
    {
      "id": "pt.ine.add.PTCONT.4746653",
      "street": "R JOAO GAMA LOBO",
      "house": "18",
      "postcode": "2870-124",
      "city": "MONTIJO",
      "lon": "-8.977134602755038",
      "lat": "38.706151861686784"
    },
    {
      "id": "pt.ine.add.PTCONT.4757454",
      "street": "R ALEXANDRE HERCULANO",
      "house": "9",
      "postcode": "2870-024",
      "city": "MONTIJO",
      "lon": "-8.977180515810607",
      "lat": "38.70634132863713"
    },
    {
      "id": "pt.ine.add.PTCONT.4770750",
      "street": "R JOSE VITO DA SILVA",
      "house": "1",
      "postcode": "2870-125",
      "city": "MONTIJO",
      "lon": "-8.977332139164231",
      "lat": "38.70633059543274"
    },
    {
      "id": "pt.ine.add.PTCONT.4833191",
      "street": "R ALEXANDRE HERCULANO",
      "house": "15",
      "postcode": "2870-110",
      "city": "MONTIJO",
      "lon": "-8.97723985981102",
      "lat": "38.706304237697864"
    },
    {
      "id": "pt.ine.add.PTCONT.4858954",
      "street": "R ALEXANDRE HERCULANO",
      "house": "",
      "postcode": "2870-117",
      "city": "MONTIJO",
      "lon": "-8.977159181620014",
      "lat": "38.70628680413632"
    },
    {
      "id": "pt.ine.add.PTCONT.4898408",
      "street": "R JOSE VITO DA SILVA",
      "house": "5",
      "postcode": "2870-125",
      "city": "MONTIJO",
      "lon": "-8.97735364660556",
      "lat": "38.70620432826183"
    },
    {
      "id": "pt.ine.add.PTCONT.5032502",
      "street": "R ALEXANDRE HERCULANO",
      "house": "7A",
      "postcode": "2870-117",
      "city": "MONTIJO",
      "lon": "-8.977089998660233",
      "lat": "38.70626928754535"
    },
    {
      "id": "pt.ine.add.PTCONT.5042867",
      "street": "R JOÃO DA GAMA LOBO",
      "house": "20",
      "postcode": "2870-124",
      "city": "MONTIJO",
      "lon": "-8.977203679704905",
      "lat": "38.706160371025696"
    },
    {
      "id": "pt.ine.add.PTCONT.5089936",
      "street": "R JOSE VITO DA SILVA",
      "house": "3",
      "postcode": "2870-125",
      "city": "MONTIJO",
      "lon": "-8.977365989204962",
      "lat": "38.706276303075015"
    }
  ]
}