{
  "data": {
    "distrito": "Porto",
    "concelho": "Porto",
    "freguesia": "Uni√£o das freguesias de Aldoar, Foz do Douro e Nevogilde",
    "OBJECTID": 1483,
    "BGRI2021": "13121601202",
    "DT21": "13",
    "DTMN21": "1312",
    "DTMNFR21": "131216",
    "DTMNFRSEC21": "131216012",
    "SECNUM21": "012",
    "SSNUM21": "02",
    "SECSSNUM21": "01202",
    "OBJECTID_1": 138848,
    "DT": "13",
    "CC": "12",
    "fr": "16",
    "SEC": "012",
    "SS": "02"
  },
  "addresses": [
    {
      "id": "pt.ine.add.PTCONT.3601525",
      "street": "R AFONSO BALDAIA",
      "house": "767",
      "postcode": "4150-018",
      "city": "PORTO",
      "lon": "-8.673481897283336",
      "lat": "41.159129695968126"
    },
    {
      "id": "pt.ine.add.PTCONT.3601526",
      "street": "R AFONSO BALDAIA",
      "house": "767",
      "postcode": "4150-018",
      "city": "PORTO",
      "lon": "-8.673481897283336",
      "lat": "41.159129695968126"
    },
    {
      "id": "pt.ine.add.PTCONT.3601527",
      "street": "R AFONSO BALDAIA",
      "house": "767",
      "postcode": "4150-018",
      "city": "PORTO",
      "lon": "-8.673481897283336",
      "lat": "41.159129695968126"
    },
    {
      "id": "pt.ine.add.PTCONT.3601528",
      "street": "R AFONSO BALDAIA",
      "house": "767",
      "postcode": "4150-018",
      "city": "PORTO",
      "lon": "-8.673481897283336",
      "lat": "41.159129695968126"
    },
    {
      "id": "pt.ine.add.PTCONT.3601529",
      "street": "R AFONSO BALDAIA",
      "house": "767",
      "postcode": "4150-018",
      "city": "PORTO",
      "lon": "-8.673481897283336",
      "lat": "41.159129695968126"
    },
    {
      "id": "pt.ine.add.PTCONT.3601530",
      "street": "R AFONSO BALDAIA",
      "house": "767",
      "postcode": "4150-018",
      "city": "PORTO",
      "lon": "-8.673481897283336",
      "lat": "41.159129695968126"
    },
    {
      "id": "pt.ine.add.PTCONT.3601531",
      "street": "R AFONSO BALDAIA",
      "house": "767",
      "postcode": "4150-018",
      "city": "PORTO",
      "lon": "-8.673481897283336",
      "lat": "41.159129695968126"
    },
    {
      "id": "pt.ine.add.PTCONT.3601532",
      "street": "R AFONSO BALDAIA",
      "house": "767",
      "postcode": "4150-018",
      "city": "PORTO",
      "lon": "-8.673481897283336",
      "lat": "41.159129695968126"
    },
    {
      "id": "pt.ine.add.PTCONT.3601533",
      "street": "R AFONSO BALDAIA",
      "house": "775",
      "postcode": "4150-017",
      "city": "PORTO",
      "lon": "-8.673481897283336",
      "lat": "41.159129695968126"
    },
    {
      "id": "pt.ine.add.PTCONT.3601534",
      "street": "R AFONSO BALDAIA",
      "house": "767",
      "postcode": "4150-018",
      "city": "PORTO",
      "lon": "-8.673481897283336",
      "lat": "41.159129695968126"
    },
    {
      "id": "pt.ine.add.PTCONT.3601535",
      "street": "R AFONSO BALDAIA",
      "house": "767",
      "postcode": "4150-018",
      "city": "PORTO",
      "lon": "-8.673481897283336",
      "lat": "41.159129695968126"
    },
    {
      "id": "pt.ine.add.PTCONT.3601548",
      "street": "R AFONSO BALDAIA",
      "house": "243",
      "postcode": "4150-018",
      "city": "PORTO",
      "lon": "-8.673481897283336",
      "lat": "41.159129695968126"
    },
    {
      "id": "pt.ine.add.PTCONT.3601549",
      "street": "R AFONSO BALDAIA",
      "house": "775",
      "postcode": "4150-018",
      "city": "PORTO",
      "lon": "-8.673481897283336",
      "lat": "41.159129695968126"
    },
    {
      "id": "pt.ine.add.PTCONT.3601550",
      "street": "R AFONSO BALDAIA",
      "house": "767",
      "postcode": "4150-018",
      "city": "PORTO",
      "lon": "-8.673481897283336",
      "lat": "41.159129695968126"
    },
    {
      "id": "pt.ine.add.PTCONT.3601551",
      "street": "R AFONSO BALDAIA",
      "house": "767",
      "postcode": "4150-018",
      "city": "PORTO",
      "lon": "-8.673481897283336",
      "lat": "41.159129695968126"
    },
    {
      "id": "pt.ine.add.PTCONT.3602848",
      "street": "R AFONSO BALDAIA",
      "house": "767",
      "postcode": "4150-018",
      "city": "PORTO",
      "lon": "-8.673481897283336",
      "lat": "41.159129695968126"
    },
    {
      "id": "pt.ine.add.PTCONT.3607886",
      "street": "R AFONSO BALDAIA",
      "house": "781",
      "postcode": "4150-018",
      "city": "PORTO",
      "lon": "-8.673270036193303",
      "lat": "41.15944584129376"
    },
    {
      "id": "pt.ine.add.PTCONT.3607887",
      "street": "R AFONSO BALDAIA",
      "house": "775",
      "postcode": "4150-018",
      "city": "PORTO",
      "lon": "-8.673270036193303",
      "lat": "41.15944584129376"
    },
    {
      "id": "pt.ine.add.PTCONT.3607888",
      "street": "R AFONSO BALDAIA",
      "house": "781",
      "postcode": "4150-018",
      "city": "PORTO",
      "lon": "-8.673270036193303",
      "lat": "41.15944584129376"
    },
    {
      "id": "pt.ine.add.PTCONT.3607889",
      "street": "R AFONSO BALDAIA",
      "house": "781",
      "postcode": "4150-018",
      "city": "PORTO",
      "lon": "-8.673270036193303",
      "lat": "41.15944584129376"
    },
    {
      "id": "pt.ine.add.PTCONT.3607890",
      "street": "R AFONSO BALDAIA",
      "house": "781",
      "postcode": "4150-018",
      "city": "PORTO",
      "lon": "-8.673270036193303",
      "lat": "41.15944584129376"
    },
    {
      "id": "pt.ine.add.PTCONT.3607891",
      "street": "R AFONSO BALDAIA",
      "house": "781",
      "postcode": "4150-018",
      "city": "PORTO",
      "lon": "-8.673270036193303",
      "lat": "41.15944584129376"
    },
    {
      "id": "pt.ine.add.PTCONT.3607892",
      "street": "R AFONSO BALDAIA",
      "house": "781",
      "postcode": "4150-018",
      "city": "PORTO",
      "lon": "-8.673270036193303",
      "lat": "41.15944584129376"
    },
    {
      "id": "pt.ine.add.PTCONT.3607893",
      "street": "R AFONSO BALDAIA",
      "house": "781",
      "postcode": "4150-018",
      "city": "PORTO",
      "lon": "-8.673270036193303",
      "lat": "41.15944584129376"
    },
    {
      "id": "pt.ine.add.PTCONT.3607894",
      "street": "R AFONSO BALDAIA",
      "house": "781",
      "postcode": "4150-018",
      "city": "PORTO",
      "lon": "-8.673270036193303",
      "lat": "41.15944584129376"
    },
    {
      "id": "pt.ine.add.PTCONT.3607895",
      "street": "R AFONSO BALDAIA",
      "house": "781",
      "postcode": "4150-018",
      "city": "PORTO",
      "lon": "-8.673270036193303",
      "lat": "41.15944584129376"
    },
    {
      "id": "pt.ine.add.PTCONT.3607896",
      "street": "R AFONSO BALDAIA",
      "house": "781",
      "postcode": "4150-018",
      "city": "PORTO",
      "lon": "-8.673270036193303",
      "lat": "41.15944584129376"
    },
    {
      "id": "pt.ine.add.PTCONT.3607897",
      "street": "R AFONSO BALDAIA",
      "house": "775",
      "postcode": "4150-018",
      "city": "PORTO",
      "lon": "-8.673270036193303",
      "lat": "41.15944584129376"
    },
    {
      "id": "pt.ine.add.PTCONT.3607902",
      "street": "R AFONSO BALDAIA",
      "house": "753",
      "postcode": "4150-018",
      "city": "PORTO",
      "lon": "-8.673270036193303",
      "lat": "41.15944584129376"
    },
    {
      "id": "pt.ine.add.PTCONT.3607903",
      "street": "R AFONSO BALDAIA",
      "house": "775",
      "postcode": "4150-018",
      "city": "PORTO",
      "lon": "-8.673270036193303",
      "lat": "41.15944584129376"
    },
    {
      "id": "pt.ine.add.PTCONT.3609314",
      "street": "R AFONSO BALDAIA",
      "house": "781",
      "postcode": "4150-018",
      "city": "PORTO",
      "lon": "-8.673270036193303",
      "lat": "41.15944584129376"
    },
    {
      "id": "pt.ine.add.PTCONT.3620758",
      "street": "R AFONSO BALDAIA",
      "house": "753",
      "postcode": "4150-018",
      "city": "PORTO",
      "lon": "-8.673325095591638",
      "lat": "41.158896318832106"
    },
    {
      "id": "pt.ine.add.PTCONT.3620759",
      "street": "R AFONSO BALDAIA",
      "house": "753",
      "postcode": "4150-018",
      "city": "PORTO",
      "lon": "-8.673325095591638",
      "lat": "41.158896318832106"
    },
    {
      "id": "pt.ine.add.PTCONT.3620760",
      "street": "R AFONSO BALDAIA",
      "house": "753",
      "postcode": "4150-018",
      "city": "PORTO",
      "lon": "-8.673325095591638",
      "lat": "41.158896318832106"
    },
    {
      "id": "pt.ine.add.PTCONT.3620761",
      "street": "R AFONSO BALDAIA",
      "house": "753",
      "postcode": "4150-018",
      "city": "PORTO",
      "lon": "-8.673325095591638",
      "lat": "41.158896318832106"
    },
    {
      "id": "pt.ine.add.PTCONT.3620762",
      "street": "R AFONSO BALDAIA",
      "house": "753",
      "postcode": "4150-018",
      "city": "PORTO",
      "lon": "-8.673325095591638",
      "lat": "41.158896318832106"
    },
    {
      "id": "pt.ine.add.PTCONT.3620763",
      "street": "R AFONSO BALDAIA",
      "house": "753",
      "postcode": "4150-018",
      "city": "PORTO",
      "lon": "-8.673325095591638",
      "lat": "41.158896318832106"
    },
    {
      "id": "pt.ine.add.PTCONT.3620764",
      "street": "R AFONSO BALDAIA",
      "house": "775",
      "postcode": "4150-018",
      "city": "PORTO",
      "lon": "-8.673325095591638",
      "lat": "41.158896318832106"
    },
    {
      "id": "pt.ine.add.PTCONT.3620765",
      "street": "R AFONSO BALDAIA",
      "house": "753",
      "postcode": "4150-018",
      "city": "PORTO",
      "lon": "-8.673325095591638",
      "lat": "41.158896318832106"
    },
    {
      "id": "pt.ine.add.PTCONT.3620932",
      "street": "R AFONSO BALDAIA",
      "house": "753",
      "postcode": "4150-018",
      "city": "PORTO",
      "lon": "-8.673325095591638",
      "lat": "41.158896318832106"
    },
    {
      "id": "pt.ine.add.PTCONT.3620933",
      "street": "R AFONSO BALDAIA",
      "house": "753",
      "postcode": "4150-018",
      "city": "PORTO",
      "lon": "-8.673325095591638",
      "lat": "41.158896318832106"
    },
    {
      "id": "pt.ine.add.PTCONT.3620934",
      "street": "R AFONSO BALDAIA",
      "house": "753",
      "postcode": "4150-018",
      "city": "PORTO",
      "lon": "-8.673325095591638",
      "lat": "41.158896318832106"
    },
    {
      "id": "pt.ine.add.PTCONT.3622085",
      "street": "R AFONSO BALDAIA",
      "house": "753",
      "postcode": "4150-018",
      "city": "PORTO",
      "lon": "-8.673325095591638",
      "lat": "41.158896318832106"
    },
    {
      "id": "pt.ine.add.PTCONT.3691318",
      "street": "R CIDADE N DOLA",
      "house": "74",
      "postcode": "4150-207",
      "city": "PORTO",
      "lon": "-8.67467550101122",
      "lat": "41.15939422014865"
    },
    {
      "id": "pt.ine.add.PTCONT.3691340",
      "street": "R D MARIA BORGES",
      "house": "52",
      "postcode": "4150-794",
      "city": "PORTO",
      "lon": "-8.673786846476512",
      "lat": "41.158542983345725"
    },
    {
      "id": "pt.ine.add.PTCONT.3773532",
      "street": "R CRASTO",
      "house": "708",
      "postcode": "4150-243",
      "city": "PORTO",
      "lon": "-8.674157067322207",
      "lat": "41.16009899430513"
    },
    {
      "id": "pt.ine.add.PTCONT.3781571",
      "street": "R CIDADE N DOLA",
      "house": "32",
      "postcode": "4150-207",
      "city": "PORTO",
      "lon": "-8.6752000812952",
      "lat": "41.15943677419517"
    },
    {
      "id": "pt.ine.add.PTCONT.3827668",
      "street": "R CRASTO",
      "house": "744 B",
      "postcode": "4150-243",
      "city": "PORTO",
      "lon": "-8.673466500273815",
      "lat": "41.160156261952984"
    },
    {
      "id": "pt.ine.add.PTCONT.3827669",
      "street": "R AFONSO BALDAIA",
      "house": "517",
      "postcode": "4150-018",
      "city": "PORTO",
      "lon": "-8.673466500273815",
      "lat": "41.160156261952984"
    },
    {
      "id": "pt.ine.add.PTCONT.3827670",
      "street": "R AFONSO BALDAIA",
      "house": "517",
      "postcode": "4150-018",
      "city": "PORTO",
      "lon": "-8.673466500273815",
      "lat": "41.160156261952984"
    },
    {
      "id": "pt.ine.add.PTCONT.3827671",
      "street": "R CRASTO",
      "house": "744 BL B",
      "postcode": "4150-243",
      "city": "PORTO",
      "lon": "-8.673466500273815",
      "lat": "41.160156261952984"
    },
    {
      "id": "pt.ine.add.PTCONT.3827672",
      "street": "R CRASTO",
      "house": "744",
      "postcode": "4150-243",
      "city": "PORTO",
      "lon": "-8.673466500273815",
      "lat": "41.160156261952984"
    },
    {
      "id": "pt.ine.add.PTCONT.3827673",
      "street": "R AFONSO BALDAIA",
      "house": "517",
      "postcode": "4150-018",
      "city": "PORTO",
      "lon": "-8.673466500273815",
      "lat": "41.160156261952984"
    },
    {
      "id": "pt.ine.add.PTCONT.3827674",
      "street": "R AFONSO BALDAIA",
      "house": "517",
      "postcode": "4150-018",
      "city": "PORTO",
      "lon": "-8.673466500273815",
      "lat": "41.160156261952984"
    },
    {
      "id": "pt.ine.add.PTCONT.3827675",
      "street": "R CRASTO",
      "house": "744",
      "postcode": "4150-243",
      "city": "PORTO",
      "lon": "-8.673466500273815",
      "lat": "41.160156261952984"
    },
    {
      "id": "pt.ine.add.PTCONT.3827687",
      "street": "R CRASTO",
      "house": "744",
      "postcode": "4150-243",
      "city": "PORTO",
      "lon": "-8.673466500273815",
      "lat": "41.160156261952984"
    },
    {
      "id": "pt.ine.add.PTCONT.3829288",
      "street": "R AFONSO BALDAIA",
      "house": "517",
      "postcode": "4150-018",
      "city": "PORTO",
      "lon": "-8.673466500273815",
      "lat": "41.160156261952984"
    },
    {
      "id": "pt.ine.add.PTCONT.3859743",
      "street": "R CIDADE N DOLA",
      "house": "72",
      "postcode": "4150-207",
      "city": "PORTO",
      "lon": "-8.674758897955218",
      "lat": "41.15939382801174"
    },
    {
      "id": "pt.ine.add.PTCONT.3868394",
      "street": "R CRASTO",
      "house": "700",
      "postcode": "4150-243",
      "city": "PORTO",
      "lon": "-8.674264441249175",
      "lat": "41.160116498558224"
    },
    {
      "id": "pt.ine.add.PTCONT.3868398",
      "street": "R CRASTO",
      "house": "700",
      "postcode": "4150-243",
      "city": "PORTO",
      "lon": "-8.674264441249175",
      "lat": "41.160116498558224"
    },
    {
      "id": "pt.ine.add.PTCONT.3871937",
      "street": "R CIDADE N DOLA",
      "house": "48",
      "postcode": "4150-207",
      "city": "PORTO",
      "lon": "-8.675033064807778",
      "lat": "41.159410547101366"
    },
    {
      "id": "pt.ine.add.PTCONT.3921234",
      "street": "R CIDADE N DOLA",
      "house": "28",
      "postcode": "4150-207",
      "city": "PORTO",
      "lon": "-8.675271638629889",
      "lat": "41.159445441737546"
    },
    {
      "id": "pt.ine.add.PTCONT.4047357",
      "street": "R CRASTO",
      "house": "726",
      "postcode": "4150-243",
      "city": "PORTO",
      "lon": "-8.674061977605572",
      "lat": "41.160126453912824"
    },
    {
      "id": "pt.ine.add.PTCONT.4100107",
      "street": "R CRASTO",
      "house": "734",
      "postcode": "4150-243",
      "city": "PORTO",
      "lon": "-8.673966961831855",
      "lat": "41.16016291742503"
    },
    {
      "id": "pt.ine.add.PTCONT.4106364",
      "street": "R AFONSO BALDAIA",
      "house": "537",
      "postcode": "4150-018",
      "city": "PORTO",
      "lon": "-8.673610577762123",
      "lat": "41.16029065091855"
    },
    {
      "id": "pt.ine.add.PTCONT.4106365",
      "street": "R AFONSO BALDAIA",
      "house": "537",
      "postcode": "4150-018",
      "city": "PORTO",
      "lon": "-8.673610577762123",
      "lat": "41.16029065091855"
    },
    {
      "id": "pt.ine.add.PTCONT.4106366",
      "street": "R AFONSO BALDAIA",
      "house": "744",
      "postcode": "4150-018",
      "city": "PORTO",
      "lon": "-8.673610577762123",
      "lat": "41.16029065091855"
    },
    {
      "id": "pt.ine.add.PTCONT.4106381",
      "street": "R CRASTO",
      "house": "744",
      "postcode": "4150-243",
      "city": "PORTO",
      "lon": "-8.673610577762123",
      "lat": "41.16029065091855"
    },
    {
      "id": "pt.ine.add.PTCONT.4106382",
      "street": "R AFONSO BALDAIA",
      "house": "537",
      "postcode": "4150-018",
      "city": "PORTO",
      "lon": "-8.673610577762123",
      "lat": "41.16029065091855"
    },
    {
      "id": "pt.ine.add.PTCONT.4106383",
      "street": "R CRASTO",
      "house": "744 A",
      "postcode": "4150-243",
      "city": "PORTO",
      "lon": "-8.673610577762123",
      "lat": "41.16029065091855"
    },
    {
      "id": "pt.ine.add.PTCONT.4106384",
      "street": "R CRASTO",
      "house": "744 A",
      "postcode": "4150-018",
      "city": "PORTO",
      "lon": "-8.673610577762123",
      "lat": "41.16029065091855"
    },
    {
      "id": "pt.ine.add.PTCONT.4106385",
      "street": "R AFONSO BALDAIA",
      "house": "537",
      "postcode": "4150-018",
      "city": "PORTO",
      "lon": "-8.673610577762123",
      "lat": "41.16029065091855"
    },
    {
      "id": "pt.ine.add.PTCONT.4106386",
      "street": "R AFONSO BALDAIA",
      "house": "537",
      "postcode": "4150-018",
      "city": "PORTO",
      "lon": "-8.673610577762123",
      "lat": "41.16029065091855"
    },
    {
      "id": "pt.ine.add.PTCONT.4106387",
      "street": "R CRASTO",
      "house": "744",
      "postcode": "4150-243",
      "city": "PORTO",
      "lon": "-8.673610577762123",
      "lat": "41.16029065091855"
    },
    {
      "id": "pt.ine.add.PTCONT.4111427",
      "street": "R CIDADE N DOLA",
      "house": "10",
      "postcode": "4150-207",
      "city": "PORTO",
      "lon": "-8.675522052329047",
      "lat": "41.159471275794104"
    },
    {
      "id": "pt.ine.add.PTCONT.4152294",
      "street": "R AFONSO BALDAIA",
      "house": "781",
      "postcode": "4150-018",
      "city": "PORTO",
      "lon": "-8.673366604048221",
      "lat": "41.15959846203271"
    },
    {
      "id": "pt.ine.add.PTCONT.4152295",
      "street": "R AFONSO BALDAIA",
      "house": "775",
      "postcode": "4150-018",
      "city": "PORTO",
      "lon": "-8.673366604048221",
      "lat": "41.15959846203271"
    },
    {
      "id": "pt.ine.add.PTCONT.4152296",
      "street": "R AFONSO BALDAIA",
      "house": "775",
      "postcode": "4150-018",
      "city": "PORTO",
      "lon": "-8.673366604048221",
      "lat": "41.15959846203271"
    },
    {
      "id": "pt.ine.add.PTCONT.4152297",
      "street": "R AFONSO BALDAIA",
      "house": "775",
      "postcode": "4150-018",
      "city": "PORTO",
      "lon": "-8.673366604048221",
      "lat": "41.15959846203271"
    },
    {
      "id": "pt.ine.add.PTCONT.4152298",
      "street": "R AFONSO BALDAIA",
      "house": "775",
      "postcode": "4150-018",
      "city": "PORTO",
      "lon": "-8.673366604048221",
      "lat": "41.15959846203271"
    },
    {
      "id": "pt.ine.add.PTCONT.4152299",
      "street": "R AFONSO BALDAIA",
      "house": "781",
      "postcode": "4150-018",
      "city": "PORTO",
      "lon": "-8.673366604048221",
      "lat": "41.15959846203271"
    },
    {
      "id": "pt.ine.add.PTCONT.4152300",
      "street": "R AFONSO BALDAIA",
      "house": "775",
      "postcode": "4150-018",
      "city": "PORTO",
      "lon": "-8.673366604048221",
      "lat": "41.15959846203271"
    },
    {
      "id": "pt.ine.add.PTCONT.4152301",
      "street": "R AFONSO BALDAIA",
      "house": "775",
      "postcode": "4150-018",
      "city": "PORTO",
      "lon": "-8.673366604048221",
      "lat": "41.15959846203271"
    },
    {
      "id": "pt.ine.add.PTCONT.4152311",
      "street": "R AFONSO BALDAIA",
      "house": "775",
      "postcode": "4150-018",
      "city": "PORTO",
      "lon": "-8.673366604048221",
      "lat": "41.15959846203271"
    },
    {
      "id": "pt.ine.add.PTCONT.4152312",
      "street": "R AFONSO BALDAIA",
      "house": "775",
      "postcode": "4150-018",
      "city": "PORTO",
      "lon": "-8.673366604048221",
      "lat": "41.15959846203271"
    },
    {
      "id": "pt.ine.add.PTCONT.4152313",
      "street": "R AFONSO BALDAIA",
      "house": "781",
      "postcode": "4150-018",
      "city": "PORTO",
      "lon": "-8.673366604048221",
      "lat": "41.15959846203271"
    },
    {
      "id": "pt.ine.add.PTCONT.4178397",
      "street": "R CIDADE N DOLA",
      "house": "58",
      "postcode": "4150-207",
      "city": "PORTO",
      "lon": "-8.674949667846368",
      "lat": "41.1594109394369"
    },
    {
      "id": "pt.ine.add.PTCONT.4217767",
      "street": "R CIDADE N DOLA",
      "house": "44",
      "postcode": "4150-207",
      "city": "PORTO",
      "lon": "-8.675104696269825",
      "lat": "41.159428218730014"
    },
    {
      "id": "pt.ine.add.PTCONT.4230538",
      "street": "R CIDADE N DOLA",
      "house": "6",
      "postcode": "4150-207",
      "city": "PORTO",
      "lon": "-8.675617363220326",
      "lat": "41.15947082693155"
    },
    {
      "id": "pt.ine.add.PTCONT.4232024",
      "street": "R CIDADE N DOLA",
      "house": "18",
      "postcode": "4150-207",
      "city": "PORTO",
      "lon": "-8.675450420710693",
      "lat": "41.159453604426126"
    },
    {
      "id": "pt.ine.add.PTCONT.4293083",
      "street": "R CRASTO",
      "house": "628",
      "postcode": "4150-243",
      "city": "PORTO",
      "lon": "-8.674940497713207",
      "lat": "41.15974414281964"
    },
    {
      "id": "pt.ine.add.PTCONT.4293084",
      "street": "R CRASTO",
      "house": "628",
      "postcode": "4150-243",
      "city": "PORTO",
      "lon": "-8.674940497713207",
      "lat": "41.15974414281964"
    },
    {
      "id": "pt.ine.add.PTCONT.4293085",
      "street": "R CRASTO",
      "house": "628",
      "postcode": "4150-243",
      "city": "PORTO",
      "lon": "-8.674940497713207",
      "lat": "41.15974414281964"
    },
    {
      "id": "pt.ine.add.PTCONT.4293086",
      "street": "R CRASTO",
      "house": "628",
      "postcode": "4150-243",
      "city": "PORTO",
      "lon": "-8.674940497713207",
      "lat": "41.15974414281964"
    },
    {
      "id": "pt.ine.add.PTCONT.4293087",
      "street": "R CRASTO",
      "house": "628",
      "postcode": "4150-243",
      "city": "PORTO",
      "lon": "-8.674940497713207",
      "lat": "41.15974414281964"
    },
    {
      "id": "pt.ine.add.PTCONT.4293088",
      "street": "R CRASTO",
      "house": "628",
      "postcode": "4150-243",
      "city": "PORTO",
      "lon": "-8.674940497713207",
      "lat": "41.15974414281964"
    },
    {
      "id": "pt.ine.add.PTCONT.4293089",
      "street": "R CRASTO",
      "house": "628",
      "postcode": "4150-243",
      "city": "PORTO",
      "lon": "-8.674940497713207",
      "lat": "41.15974414281964"
    },
    {
      "id": "pt.ine.add.PTCONT.4293090",
      "street": "R CRASTO",
      "house": "628",
      "postcode": "4150-243",
      "city": "PORTO",
      "lon": "-8.674940497713207",
      "lat": "41.15974414281964"
    },
    {
      "id": "pt.ine.add.PTCONT.4293091",
      "street": "R CRASTO",
      "house": "628",
      "postcode": "4150-243",
      "city": "PORTO",
      "lon": "-8.674940497713207",
      "lat": "41.15974414281964"
    },
    {
      "id": "pt.ine.add.PTCONT.4293092",
      "street": "R CRASTO",
      "house": "628",
      "postcode": "4150-243",
      "city": "PORTO",
      "lon": "-8.674940497713207",
      "lat": "41.15974414281964"
    },
    {
      "id": "pt.ine.add.PTCONT.4293093",
      "street": "R CRASTO",
      "house": "628",
      "postcode": "4150-243",
      "city": "PORTO",
      "lon": "-8.674940497713207",
      "lat": "41.15974414281964"
    },
    {
      "id": "pt.ine.add.PTCONT.4293094",
      "street": "R CRASTO",
      "house": "628",
      "postcode": "4150-243",
      "city": "PORTO",
      "lon": "-8.674940497713207",
      "lat": "41.15974414281964"
    },
    {
      "id": "pt.ine.add.PTCONT.4293104",
      "street": "R CRASTO",
      "house": "628",
      "postcode": "4150-243",
      "city": "PORTO",
      "lon": "-8.674940497713207",
      "lat": "41.15974414281964"
    },
    {
      "id": "pt.ine.add.PTCONT.4330374",
      "street": "R CIDADE N DOLA",
      "house": "20",
      "postcode": "4150-207",
      "city": "PORTO",
      "lon": "-8.67536702370047",
      "lat": "41.15945399706416"
    },
    {
      "id": "pt.ine.add.PTCONT.4336755",
      "street": "R CRASTO",
      "house": "744",
      "postcode": "4150-018",
      "city": "PORTO",
      "lon": "-8.673346177368547",
      "lat": "41.160012757062184"
    },
    {
      "id": "pt.ine.add.PTCONT.4336756",
      "street": "R INF SANTO",
      "house": "495",
      "postcode": "4150-406",
      "city": "PORTO",
      "lon": "-8.673346177368547",
      "lat": "41.160012757062184"
    },
    {
      "id": "pt.ine.add.PTCONT.4336757",
      "street": "R CRASTO",
      "house": "744 746",
      "postcode": "4150-243",
      "city": "PORTO",
      "lon": "-8.673346177368547",
      "lat": "41.160012757062184"
    },
    {
      "id": "pt.ine.add.PTCONT.4336758",
      "street": "R CRASTO",
      "house": "7440746",
      "postcode": "4150-243",
      "city": "PORTO",
      "lon": "-8.673346177368547",
      "lat": "41.160012757062184"
    },
    {
      "id": "pt.ine.add.PTCONT.4336759",
      "street": "R AFONSO BALDAIA",
      "house": "495",
      "postcode": "4150-018",
      "city": "PORTO",
      "lon": "-8.673346177368547",
      "lat": "41.160012757062184"
    },
    {
      "id": "pt.ine.add.PTCONT.4336760",
      "street": "R AFONSO BALDAIA",
      "house": "495",
      "postcode": "4150-018",
      "city": "PORTO",
      "lon": "-8.673346177368547",
      "lat": "41.160012757062184"
    },
    {
      "id": "pt.ine.add.PTCONT.4336761",
      "street": "R AFONSO BALDAIA",
      "house": "495",
      "postcode": "4150-018",
      "city": "PORTO",
      "lon": "-8.673346177368547",
      "lat": "41.160012757062184"
    },
    {
      "id": "pt.ine.add.PTCONT.4336762",
      "street": "R AFONSO BALDAIA",
      "house": "495",
      "postcode": "4150-018",
      "city": "PORTO",
      "lon": "-8.673346177368547",
      "lat": "41.160012757062184"
    },
    {
      "id": "pt.ine.add.PTCONT.4336763",
      "street": "R AFONSO BALDAIA",
      "house": "495",
      "postcode": "4150-018",
      "city": "PORTO",
      "lon": "-8.673346177368547",
      "lat": "41.160012757062184"
    },
    {
      "id": "pt.ine.add.PTCONT.4336764",
      "street": "R AFONSO BALDAIA",
      "house": "495",
      "postcode": "4150-018",
      "city": "PORTO",
      "lon": "-8.673346177368547",
      "lat": "41.160012757062184"
    },
    {
      "id": "pt.ine.add.PTCONT.4349566",
      "street": "R D MARIA BORGES",
      "house": "28",
      "postcode": "4150-794",
      "city": "PORTO",
      "lon": "-8.673572917682046",
      "lat": "41.15860701764948"
    },
    {
      "id": "pt.ine.add.PTCONT.4362441",
      "street": "R CRASTO",
      "house": "652",
      "postcode": "4150-243",
      "city": "PORTO",
      "lon": "-8.67465508262623",
      "lat": "41.159808515373655"
    },
    {
      "id": "pt.ine.add.PTCONT.4362442",
      "street": "R CRASTO",
      "house": "652",
      "postcode": "4150-243",
      "city": "PORTO",
      "lon": "-8.67465508262623",
      "lat": "41.159808515373655"
    },
    {
      "id": "pt.ine.add.PTCONT.4362445",
      "street": "R CRASTO",
      "house": "652",
      "postcode": "4150-243",
      "city": "PORTO",
      "lon": "-8.67465508262623",
      "lat": "41.159808515373655"
    },
    {
      "id": "pt.ine.add.PTCONT.4362446",
      "street": "R CRASTO",
      "house": "652",
      "postcode": "4150-243",
      "city": "PORTO",
      "lon": "-8.67465508262623",
      "lat": "41.159808515373655"
    },
    {
      "id": "pt.ine.add.PTCONT.4362447",
      "street": "R CRASTO",
      "house": "652",
      "postcode": "4150-243",
      "city": "PORTO",
      "lon": "-8.67465508262623",
      "lat": "41.159808515373655"
    },
    {
      "id": "pt.ine.add.PTCONT.4362448",
      "street": "R CRASTO",
      "house": "652",
      "postcode": "4150-243",
      "city": "PORTO",
      "lon": "-8.67465508262623",
      "lat": "41.159808515373655"
    },
    {
      "id": "pt.ine.add.PTCONT.4362449",
      "street": "R CRASTO",
      "house": "652",
      "postcode": "4150-243",
      "city": "PORTO",
      "lon": "-8.67465508262623",
      "lat": "41.159808515373655"
    },
    {
      "id": "pt.ine.add.PTCONT.4362450",
      "street": "R CRASTO",
      "house": "652",
      "postcode": "4150-243",
      "city": "PORTO",
      "lon": "-8.67465508262623",
      "lat": "41.159808515373655"
    },
    {
      "id": "pt.ine.add.PTCONT.4362451",
      "street": "R CRASTO",
      "house": "652",
      "postcode": "4150-243",
      "city": "PORTO",
      "lon": "-8.67465508262623",
      "lat": "41.159808515373655"
    },
    {
      "id": "pt.ine.add.PTCONT.4362452",
      "street": "R CRASTO",
      "house": "652",
      "postcode": "4150-243",
      "city": "PORTO",
      "lon": "-8.67465508262623",
      "lat": "41.159808515373655"
    },
    {
      "id": "pt.ine.add.PTCONT.4362453",
      "street": "R CRASTO",
      "house": "652",
      "postcode": "4150-243",
      "city": "PORTO",
      "lon": "-8.67465508262623",
      "lat": "41.159808515373655"
    },
    {
      "id": "pt.ine.add.PTCONT.4362454",
      "street": "R CRASTO",
      "house": "652",
      "postcode": "4150-243",
      "city": "PORTO",
      "lon": "-8.67465508262623",
      "lat": "41.159808515373655"
    },
    {
      "id": "pt.ine.add.PTCONT.4362455",
      "street": "R CRASTO",
      "house": "652",
      "postcode": "4150-243",
      "city": "PORTO",
      "lon": "-8.67465508262623",
      "lat": "41.159808515373655"
    },
    {
      "id": "pt.ine.add.PTCONT.4362456",
      "street": "R CRASTO",
      "house": "652",
      "postcode": "4150-243",
      "city": "PORTO",
      "lon": "-8.67465508262623",
      "lat": "41.159808515373655"
    },
    {
      "id": "pt.ine.add.PTCONT.4362459",
      "street": "R CRASTO",
      "house": "652",
      "postcode": "4150-243",
      "city": "PORTO",
      "lon": "-8.67465508262623",
      "lat": "41.159808515373655"
    },
    {
      "id": "pt.ine.add.PTCONT.4362460",
      "street": "R CRASTO",
      "house": "652",
      "postcode": "4150-243",
      "city": "PORTO",
      "lon": "-8.67465508262623",
      "lat": "41.159808515373655"
    },
    {
      "id": "pt.ine.add.PTCONT.4362461",
      "street": "R CRASTO",
      "house": "652",
      "postcode": "4150-243",
      "city": "PORTO",
      "lon": "-8.67465508262623",
      "lat": "41.159808515373655"
    },
    {
      "id": "pt.ine.add.PTCONT.4362462",
      "street": "R CRASTO",
      "house": "652",
      "postcode": "4150-243",
      "city": "PORTO",
      "lon": "-8.67465508262623",
      "lat": "41.159808515373655"
    },
    {
      "id": "pt.ine.add.PTCONT.4362463",
      "street": "R CRASTO",
      "house": "652",
      "postcode": "4150-243",
      "city": "PORTO",
      "lon": "-8.67465508262623",
      "lat": "41.159808515373655"
    },
    {
      "id": "pt.ine.add.PTCONT.4364097",
      "street": "R CRASTO",
      "house": "652",
      "postcode": "4150-243",
      "city": "PORTO",
      "lon": "-8.67465508262623",
      "lat": "41.159808515373655"
    },
    {
      "id": "pt.ine.add.PTCONT.4365161",
      "street": "R CRASTO",
      "house": "652",
      "postcode": "4150-243",
      "city": "PORTO",
      "lon": "-8.67465508262623",
      "lat": "41.159808515373655"
    },
    {
      "id": "pt.ine.add.PTCONT.4365193",
      "street": "R CRASTO",
      "house": "652",
      "postcode": "4150-243",
      "city": "PORTO",
      "lon": "-8.67465508262623",
      "lat": "41.159808515373655"
    },
    {
      "id": "pt.ine.add.PTCONT.4371979",
      "street": "R AFONSO BALDAIA",
      "house": "767",
      "postcode": "4150-018",
      "city": "PORTO",
      "lon": "-8.673481897283336",
      "lat": "41.159129695968126"
    },
    {
      "id": "pt.ine.add.PTCONT.4372093",
      "street": "R AFONSO BALDAIA",
      "house": "781",
      "postcode": "4150-018",
      "city": "PORTO",
      "lon": "-8.673270036193303",
      "lat": "41.15944584129376"
    },
    {
      "id": "pt.ine.add.PTCONT.4372190",
      "street": "R AFONSO BALDAIA",
      "house": "767",
      "postcode": "4150-018",
      "city": "PORTO",
      "lon": "-8.673481897283336",
      "lat": "41.159129695968126"
    },
    {
      "id": "pt.ine.add.PTCONT.4375954",
      "street": "R CIDADE N DOLA",
      "house": "62",
      "postcode": "4150-207",
      "city": "PORTO",
      "lon": "-8.674866122595075",
      "lat": "41.159393323747004"
    },
    {
      "id": "pt.ine.add.PTCONT.4378249",
      "street": "R CRASTO",
      "house": "652",
      "postcode": "4150-243",
      "city": "PORTO",
      "lon": "-8.67465508262623",
      "lat": "41.159808515373655"
    }
  ]
}