{
  "data": {
    "distrito": "Santar√©m",
    "concelho": "Salvaterra de Magos",
    "freguesia": "Marinhais",
    "OBJECTID": 99,
    "BGRI2021": "14150200503",
    "DT21": "14",
    "DTMN21": "1415",
    "DTMNFR21": "141502",
    "DTMNFRSEC21": "141502005",
    "SECNUM21": "005",
    "SSNUM21": "03",
    "SECSSNUM21": "00503",
    "OBJECTID_1": 153722,
    "DT": "14",
    "CC": "15",
    "fr": "02",
    "SEC": "005",
    "SS": "03"
  },
  "addresses": [
    {
      "id": "pt.ine.add.PTCONT.4392988",
      "street": "R MACAU",
      "house": "8",
      "postcode": "2125-153",
      "city": "MARINHAIS",
      "lon": "-8.7090407534449",
      "lat": "39.04857347147424"
    },
    {
      "id": "pt.ine.add.PTCONT.4394620",
      "street": "EN 367",
      "house": "287",
      "postcode": "2125-120",
      "city": "MARINHAIS",
      "lon": "-8.71240986007697",
      "lat": "39.04950258196322"
    },
    {
      "id": "pt.ine.add.PTCONT.4394621",
      "street": "EN 367",
      "house": "273",
      "postcode": "2125-120",
      "city": "MARINHAIS",
      "lon": "-8.710963893932881",
      "lat": "39.04925754281705"
    },
    {
      "id": "pt.ine.add.PTCONT.4394668",
      "street": "ESTR MILITAR",
      "house": "172",
      "postcode": "2125-112",
      "city": "MARINHAIS",
      "lon": "-8.71435622918202",
      "lat": "39.04737611662724"
    },
    {
      "id": "pt.ine.add.PTCONT.4398899",
      "street": "EN 367",
      "house": "285",
      "postcode": "2125-120",
      "city": "MARINHAIS",
      "lon": "-8.712040439499997",
      "lat": "39.049531439020704"
    },
    {
      "id": "pt.ine.add.PTCONT.4399042",
      "street": "R MACAU",
      "house": "54",
      "postcode": "2125-153",
      "city": "MARINHAIS",
      "lon": "-8.709179349157669",
      "lat": "39.04572639024513"
    },
    {
      "id": "pt.ine.add.PTCONT.4399432",
      "street": "EN 367",
      "house": "285",
      "postcode": "2125-120",
      "city": "MARINHAIS",
      "lon": "-8.712040439499997",
      "lat": "39.049531439020704"
    },
    {
      "id": "pt.ine.add.PTCONT.4404480",
      "street": "R LIBERDADE",
      "house": "14",
      "postcode": "2125-211",
      "city": "MARINHAIS",
      "lon": "-8.710855224320962",
      "lat": "39.04584420703254"
    },
    {
      "id": "pt.ine.add.PTCONT.4409506",
      "street": "R MACAU",
      "house": "56",
      "postcode": "2125-153",
      "city": "MARINHAIS",
      "lon": "-8.709143087703676",
      "lat": "39.0455284024256"
    },
    {
      "id": "pt.ine.add.PTCONT.4409507",
      "street": "R JOSE PEREIRA MARQUES",
      "house": "7",
      "postcode": "2125-220",
      "city": "MARINHAIS",
      "lon": "-8.713030093864479",
      "lat": "39.04906713578332"
    },
    {
      "id": "pt.ine.add.PTCONT.4411425",
      "street": "R JOSE PEREIRA MARQUES",
      "house": "",
      "postcode": "2125-220",
      "city": "MARINHAIS",
      "lon": "-8.713391256845583",
      "lat": "39.04802946759232"
    },
    {
      "id": "pt.ine.add.PTCONT.4413262",
      "street": "EN 367",
      "house": "277",
      "postcode": "2125-120",
      "city": "MARINHAIS",
      "lon": "-8.71142682533841",
      "lat": "39.04936333924127"
    },
    {
      "id": "pt.ine.add.PTCONT.4414407",
      "street": "R MACAU",
      "house": "22",
      "postcode": "2125-153",
      "city": "MARINHAIS",
      "lon": "-8.70905793044431",
      "lat": "39.04784377242251"
    },
    {
      "id": "pt.ine.add.PTCONT.4414408",
      "street": "R MACAU",
      "house": "22",
      "postcode": "2125-153",
      "city": "MARINHAIS",
      "lon": "-8.70905793044431",
      "lat": "39.04784377242251"
    },
    {
      "id": "pt.ine.add.PTCONT.4414409",
      "street": "R MACAU",
      "house": "22",
      "postcode": "2125-153",
      "city": "MARINHAIS",
      "lon": "-8.70905793044431",
      "lat": "39.04784377242251"
    },
    {
      "id": "pt.ine.add.PTCONT.4415952",
      "street": "R MACAU",
      "house": "22",
      "postcode": "2125-153",
      "city": "MARINHAIS",
      "lon": "-8.70905793044431",
      "lat": "39.04784377242251"
    },
    {
      "id": "pt.ine.add.PTCONT.4416757",
      "street": "R MACAU",
      "house": "10",
      "postcode": "2125-153",
      "city": "MARINHAIS",
      "lon": "-8.709027739338003",
      "lat": "39.04839338408445"
    },
    {
      "id": "pt.ine.add.PTCONT.4419335",
      "street": "EN 367",
      "house": "281",
      "postcode": "2125-120",
      "city": "MARINHAIS",
      "lon": "-8.711785576063122",
      "lat": "39.04944262803298"
    },
    {
      "id": "pt.ine.add.PTCONT.4419524",
      "street": "R MACAU",
      "house": "36",
      "postcode": "2125-153",
      "city": "MARINHAIS",
      "lon": "-8.709108077338628",
      "lat": "39.046906736006115"
    },
    {
      "id": "pt.ine.add.PTCONT.4421572",
      "street": "R 15 DE ABRIL",
      "house": "20",
      "postcode": "2125-125",
      "city": "MARINHAIS",
      "lon": "-8.711058806271307",
      "lat": "39.04531175080845"
    },
    {
      "id": "pt.ine.add.PTCONT.4423484",
      "street": "R JOSE PEREIRA MARQUES",
      "house": "",
      "postcode": "2125-220",
      "city": "MARINHAIS",
      "lon": "-8.713666196088123",
      "lat": "39.04774886430975"
    },
    {
      "id": "pt.ine.add.PTCONT.4433855",
      "street": "ESTR MILITAR",
      "house": "150",
      "postcode": "2125-112",
      "city": "MARINHAIS",
      "lon": "-8.711704464506916",
      "lat": "39.04516442824256"
    },
    {
      "id": "pt.ine.add.PTCONT.4450276",
      "street": "EN 367",
      "house": "289",
      "postcode": "2125-120",
      "city": "MARINHAIS",
      "lon": "-8.712676349409788",
      "lat": "39.04960034139131"
    },
    {
      "id": "pt.ine.add.PTCONT.4452459",
      "street": "R 15 DE ABRIL",
      "house": "4",
      "postcode": "2125-125",
      "city": "MARINHAIS",
      "lon": "-8.710114367722433",
      "lat": "39.045649707618445"
    },
    {
      "id": "pt.ine.add.PTCONT.4454392",
      "street": "R LIBERDADE",
      "house": "",
      "postcode": "2125-211",
      "city": "MARINHAIS",
      "lon": "-8.711093138185507",
      "lat": "39.046689741306984"
    },
    {
      "id": "pt.ine.add.PTCONT.4455314",
      "street": "R JOSE PEREIRA MARQUES",
      "house": "",
      "postcode": "2125-220",
      "city": "MARINHAIS",
      "lon": "-8.713499639164624",
      "lat": "39.04856938319182"
    },
    {
      "id": "pt.ine.add.PTCONT.4457404",
      "street": "R MACAU",
      "house": "261",
      "postcode": "2125-153",
      "city": "MARINHAIS",
      "lon": "-8.709031689373798",
      "lat": "39.04887977403077"
    },
    {
      "id": "pt.ine.add.PTCONT.4457405",
      "street": "R JOSE PEREIRA MARQUES",
      "house": "25",
      "postcode": "2125-220",
      "city": "MARINHAIS",
      "lon": "-8.713922236006598",
      "lat": "39.04798178667504"
    },
    {
      "id": "pt.ine.add.PTCONT.4460595",
      "street": "R MACAU",
      "house": "30",
      "postcode": "2125-153",
      "city": "MARINHAIS",
      "lon": "-8.709041551667816",
      "lat": "39.04724935275191"
    },
    {
      "id": "pt.ine.add.PTCONT.4470496",
      "street": "R MACAU",
      "house": "34",
      "postcode": "2125-153",
      "city": "MARINHAIS",
      "lon": "-8.709097477457448",
      "lat": "39.04702388695855"
    },
    {
      "id": "pt.ine.add.PTCONT.4470497",
      "street": "R 15 DE ABRIL",
      "house": "6",
      "postcode": "2125-125",
      "city": "MARINHAIS",
      "lon": "-8.710333463788917",
      "lat": "39.04560358557786"
    },
    {
      "id": "pt.ine.add.PTCONT.4492045",
      "street": "R MACAU",
      "house": "40",
      "postcode": "2125-153",
      "city": "MARINHAIS",
      "lon": "-8.709244638979452",
      "lat": "39.046653849121164"
    },
    {
      "id": "pt.ine.add.PTCONT.4492046",
      "street": "R JOSE PEREIRA MARQUES",
      "house": "",
      "postcode": "2125-220",
      "city": "MARINHAIS",
      "lon": "-8.713636335675117",
      "lat": "39.04833450575997"
    },
    {
      "id": "pt.ine.add.PTCONT.4494571",
      "street": "R MACAU",
      "house": "42",
      "postcode": "2125-153",
      "city": "MARINHAIS",
      "lon": "-8.709151720234889",
      "lat": "39.0465912549794"
    },
    {
      "id": "pt.ine.add.PTCONT.4494572",
      "street": "R 15 DE ABRIL",
      "house": "76",
      "postcode": "2125-125",
      "city": "MARINHAIS",
      "lon": "-8.710886794564376",
      "lat": "39.04546573201622"
    },
    {
      "id": "pt.ine.add.PTCONT.4500253",
      "street": "R 15 DE ABRIL",
      "house": "74",
      "postcode": "2125-125",
      "city": "MARINHAIS",
      "lon": "-8.710783205692309",
      "lat": "39.04551128305898"
    },
    {
      "id": "pt.ine.add.PTCONT.4504254",
      "street": "R 15 DE ABRIL",
      "house": "12",
      "postcode": "2125-125",
      "city": "MARINHAIS",
      "lon": "-8.710667992690395",
      "lat": "39.04554788398516"
    },
    {
      "id": "pt.ine.add.PTCONT.4506236",
      "street": "R MACAU",
      "house": "52",
      "postcode": "2125-153",
      "city": "MARINHAIS",
      "lon": "-8.709145940777935",
      "lat": "39.045879684223515"
    },
    {
      "id": "pt.ine.add.PTCONT.4510105",
      "street": "R 15 ABRIL",
      "house": "10",
      "postcode": "2125-125",
      "city": "MARINHAIS",
      "lon": "-8.710529604933155",
      "lat": "39.04557559194478"
    },
    {
      "id": "pt.ine.add.PTCONT.4512152",
      "street": "ESTR MILITAR",
      "house": "756",
      "postcode": "2125-112",
      "city": "MARINHAIS",
      "lon": "-8.712424352607476",
      "lat": "39.045620241722666"
    },
    {
      "id": "pt.ine.add.PTCONT.4523111",
      "street": "R JOSE PEREIRA MARQUES",
      "house": "",
      "postcode": "2125-220",
      "city": "MARINHAIS",
      "lon": "-8.714127129077289",
      "lat": "39.047611455287296"
    },
    {
      "id": "pt.ine.add.PTCONT.4530072",
      "street": "R MACAU",
      "house": "32",
      "postcode": "2125-153",
      "city": "MARINHAIS",
      "lon": "-8.709052078522806",
      "lat": "39.0471231945846"
    },
    {
      "id": "pt.ine.add.PTCONT.4534943",
      "street": "EN 367",
      "house": "277",
      "postcode": "2125-120",
      "city": "MARINHAIS",
      "lon": "-8.711366718696352",
      "lat": "39.04907539468237"
    },
    {
      "id": "pt.ine.add.PTCONT.4535941",
      "street": "EN 367",
      "house": "263",
      "postcode": "2125-120",
      "city": "MARINHAIS",
      "lon": "-8.709355488682984",
      "lat": "39.04892321257482"
    },
    {
      "id": "pt.ine.add.PTCONT.4537349",
      "street": "R JOSE PEREIRA MARQUES",
      "house": "",
      "postcode": "2125-220",
      "city": "MARINHAIS",
      "lon": "-8.713196952034705",
      "lat": "39.04828264645228"
    },
    {
      "id": "pt.ine.add.PTCONT.4539411",
      "street": "R JOSE PEREIRA MARQUES",
      "house": "29",
      "postcode": "2125-220",
      "city": "MARINHAIS",
      "lon": "-8.714035606662266",
      "lat": "39.04772000216942"
    },
    {
      "id": "pt.ine.add.PTCONT.4540215",
      "street": "R JOSE PEREIRA MARQUES",
      "house": "",
      "postcode": "2125-220",
      "city": "MARINHAIS",
      "lon": "-8.71383056529088",
      "lat": "39.048072318966604"
    },
    {
      "id": "pt.ine.add.PTCONT.4540216",
      "street": "R JOSE PEREIRA MARQUES",
      "house": "",
      "postcode": "2125-220",
      "city": "MARINHAIS",
      "lon": "-8.713327109125439",
      "lat": "39.04866031743322"
    },
    {
      "id": "pt.ine.add.PTCONT.4543774",
      "street": "ESTR MILITAR",
      "house": "154",
      "postcode": "2125-112",
      "city": "MARINHAIS",
      "lon": "-8.712133821409404",
      "lat": "39.045405502348466"
    },
    {
      "id": "pt.ine.add.PTCONT.4558064",
      "street": "R MACAU",
      "house": "44",
      "postcode": "2125-153",
      "city": "MARINHAIS",
      "lon": "-8.709104639124755",
      "lat": "39.04648339647277"
    },
    {
      "id": "pt.ine.add.PTCONT.4566398",
      "street": "R JOSE PEREIRA MARQUES",
      "house": "11",
      "postcode": "2125-220",
      "city": "MARINHAIS",
      "lon": "-8.712887870952473",
      "lat": "39.0486264714073"
    },
    {
      "id": "pt.ine.add.PTCONT.4566508",
      "street": "R MACAU",
      "house": "",
      "postcode": "2125-153",
      "city": "MARINHAIS",
      "lon": "-8.709026203238768",
      "lat": "39.048204232427594"
    },
    {
      "id": "pt.ine.add.PTCONT.4576575",
      "street": "ESTR MILITAR",
      "house": "160",
      "postcode": "2125-112",
      "city": "MARINHAIS",
      "lon": "-8.713122548068078",
      "lat": "39.04624730269084"
    },
    {
      "id": "pt.ine.add.PTCONT.4576661",
      "street": "R MACAU",
      "house": "24",
      "postcode": "2125-153",
      "city": "MARINHAIS",
      "lon": "-8.709021595027734",
      "lat": "39.04763677741976"
    },
    {
      "id": "pt.ine.add.PTCONT.4576662",
      "street": "R MACAU",
      "house": "24",
      "postcode": "2125-153",
      "city": "MARINHAIS",
      "lon": "-8.709021595027734",
      "lat": "39.04763677741976"
    },
    {
      "id": "pt.ine.add.PTCONT.4576663",
      "street": "R MACAU",
      "house": "24",
      "postcode": "2125-153",
      "city": "MARINHAIS",
      "lon": "-8.709021595027734",
      "lat": "39.04763677741976"
    },
    {
      "id": "pt.ine.add.PTCONT.4576664",
      "street": "R MACAU",
      "house": "24",
      "postcode": "2125-153",
      "city": "MARINHAIS",
      "lon": "-8.709021595027734",
      "lat": "39.04763677741976"
    },
    {
      "id": "pt.ine.add.PTCONT.4577009",
      "street": "ESTR MILITAR",
      "house": "162",
      "postcode": "2125-112",
      "city": "MARINHAIS",
      "lon": "-8.712970915395983",
      "lat": "39.04606790495805"
    },
    {
      "id": "pt.ine.add.PTCONT.4578875",
      "street": "ESTR MILITAR",
      "house": "152",
      "postcode": "2125-112",
      "city": "MARINHAIS",
      "lon": "-8.71202891005684",
      "lat": "39.04528892450515"
    },
    {
      "id": "pt.ine.add.PTCONT.4597841",
      "street": "EN 367",
      "house": "271",
      "postcode": "2125-120",
      "city": "MARINHAIS",
      "lon": "-8.710570931399",
      "lat": "39.049232466370974"
    },
    {
      "id": "pt.ine.add.PTCONT.4601852",
      "street": "R MACAU",
      "house": "34",
      "postcode": "2125-153",
      "city": "MARINHAIS",
      "lon": "-8.709199679475237",
      "lat": "39.04680720015046"
    },
    {
      "id": "pt.ine.add.PTCONT.4618399",
      "street": "R 15 DE ABRIL",
      "house": "24",
      "postcode": "2125-125",
      "city": "MARINHAIS",
      "lon": "-8.711506708992777",
      "lat": "39.04499426494008"
    },
    {
      "id": "pt.ine.add.PTCONT.4622595",
      "street": "ESTR MILITAR",
      "house": "170",
      "postcode": "2125-112",
      "city": "MARINHAIS",
      "lon": "-8.714216584690067",
      "lat": "39.047250706315616"
    },
    {
      "id": "pt.ine.add.PTCONT.4630929",
      "street": "R MACAU",
      "house": "46",
      "postcode": "2125-153",
      "city": "MARINHAIS",
      "lon": "-8.709115312078152",
      "lat": "39.04637525273416"
    },
    {
      "id": "pt.ine.add.PTCONT.4634942",
      "street": "ESTR MILITAR BORREGUS",
      "house": "760",
      "postcode": "2125-112",
      "city": "MARINHAIS",
      "lon": "-8.712912572685662",
      "lat": "39.04599613432248"
    },
    {
      "id": "pt.ine.add.PTCONT.4638899",
      "street": "EN 367",
      "house": "267",
      "postcode": "2125-120",
      "city": "MARINHAIS",
      "lon": "-8.71009689056928",
      "lat": "39.04918076698933"
    },
    {
      "id": "pt.ine.add.PTCONT.4639320",
      "street": "R MACAU",
      "house": "6",
      "postcode": "2125-153",
      "city": "MARINHAIS",
      "lon": "-8.708949368249067",
      "lat": "39.04870002885768"
    },
    {
      "id": "pt.ine.add.PTCONT.4647194",
      "street": "EN 367",
      "house": "269",
      "postcode": "2125-120",
      "city": "MARINHAIS",
      "lon": "-8.71024727658254",
      "lat": "39.049207045656864"
    },
    {
      "id": "pt.ine.add.PTCONT.4653443",
      "street": "R JOSE PEREIRA MARQUES",
      "house": "",
      "postcode": "2125-220",
      "city": "MARINHAIS",
      "lon": "-8.714241826934803",
      "lat": "39.04751180044264"
    },
    {
      "id": "pt.ine.add.PTCONT.4657522",
      "street": "R MACAU",
      "house": "28",
      "postcode": "2125-153",
      "city": "MARINHAIS",
      "lon": "-8.709065897068527",
      "lat": "39.047402361466844"
    },
    {
      "id": "pt.ine.add.PTCONT.4658056",
      "street": "R MACAU",
      "house": "50",
      "postcode": "2125-153",
      "city": "MARINHAIS",
      "lon": "-8.70917057853657",
      "lat": "39.046068721854404"
    },
    {
      "id": "pt.ine.add.PTCONT.4659128",
      "street": "R MACAU",
      "house": "",
      "postcode": "2125-153",
      "city": "MARINHAIS",
      "lon": "-8.709047696106206",
      "lat": "39.048005959464334"
    }
  ]
}