{
  "data": {
    "distrito": "Aveiro",
    "concelho": "Mealhada",
    "freguesia": "Vacariça",
    "OBJECTID": 198,
    "BGRI2021": "01110700126",
    "DT21": "01",
    "DTMN21": "0111",
    "DTMNFR21": "011107",
    "DTMNFRSEC21": "011107001",
    "SECNUM21": "001",
    "SSNUM21": "26",
    "SECSSNUM21": "00126",
    "OBJECTID_1": 7928,
    "DT": "01",
    "CC": "11",
    "fr": "07",
    "SEC": "001",
    "SS": "26"
  },
  "addresses": [
    {
      "id": "pt.ine.add.PTCONT.290927",
      "street": "R PRINCIPAL",
      "house": "",
      "postcode": "3050-510",
      "city": "VACARIÇA",
      "lon": "-8.431082612229753",
      "lat": "40.36284496989528"
    },
    {
      "id": "pt.ine.add.PTCONT.293874",
      "street": "R PRINCIPAL",
      "house": "",
      "postcode": "3050-510",
      "city": "VACARIÇA",
      "lon": "-8.432353321730288",
      "lat": "40.362670582426134"
    },
    {
      "id": "pt.ine.add.PTCONT.347829",
      "street": "R PRINCIPAL",
      "house": "",
      "postcode": "3050-510",
      "city": "VACARIÇA",
      "lon": "-8.42891613469938",
      "lat": "40.36278749200171"
    },
    {
      "id": "pt.ine.add.PTCONT.349868",
      "street": "R SOBRREIRINHO",
      "house": "",
      "postcode": "3050-510",
      "city": "VACARIÇA",
      "lon": "-8.432127330605796",
      "lat": "40.36214884134743"
    },
    {
      "id": "pt.ine.add.PTCONT.9378",
      "street": "R SOBRREIRINHO",
      "house": "",
      "postcode": "3050-510",
      "city": "VACARIÇA",
      "lon": "-8.432387445381647",
      "lat": "40.362400325733056"
    },
    {
      "id": "pt.ine.add.PTCONT.12887",
      "street": "R PRINCIPAL",
      "house": "",
      "postcode": "3050-510",
      "city": "VACARIÇA",
      "lon": "-8.432541248280211",
      "lat": "40.36257103429304"
    },
    {
      "id": "pt.ine.add.PTCONT.19896",
      "street": "R PRINCIPAL",
      "house": "",
      "postcode": "3050-510",
      "city": "VACARIÇA",
      "lon": "-8.432071013140394",
      "lat": "40.36272534619787"
    },
    {
      "id": "pt.ine.add.PTCONT.28024",
      "street": "R MONTE CARVAO",
      "house": "",
      "postcode": "3050-510",
      "city": "VACARIÇA",
      "lon": "-8.430829955033222",
      "lat": "40.361611851454064"
    },
    {
      "id": "pt.ine.add.PTCONT.38903",
      "street": "R PRINCIPAL",
      "house": "",
      "postcode": "3050-510",
      "city": "VACARIÇA",
      "lon": "-8.430730298479746",
      "lat": "40.36304400053852"
    },
    {
      "id": "pt.ine.add.PTCONT.38905",
      "street": "R SOBREIRINHO",
      "house": "",
      "postcode": "3050-510",
      "city": "VACARIÇA",
      "lon": "-8.431323333678868",
      "lat": "40.361367428747"
    },
    {
      "id": "pt.ine.add.PTCONT.49137",
      "street": "R BARREIRAS",
      "house": "",
      "postcode": "3050-511",
      "city": "VACARIÇA",
      "lon": "-8.415798790773357",
      "lat": "40.367881451183436"
    },
    {
      "id": "pt.ine.add.PTCONT.63766",
      "street": "R MONTE CARVAO",
      "house": "",
      "postcode": "3050-510",
      "city": "VACARIÇA",
      "lon": "-8.430606393991996",
      "lat": "40.361639443570766"
    },
    {
      "id": "pt.ine.add.PTCONT.100816",
      "street": "R PRINCIPAL",
      "house": "",
      "postcode": "3050-510",
      "city": "VACARIÇA",
      "lon": "-8.429436150178795",
      "lat": "40.36324544706904"
    },
    {
      "id": "pt.ine.add.PTCONT.100817",
      "street": "R SOBREIRINHO",
      "house": "",
      "postcode": "3050-510",
      "city": "VACARIÇA",
      "lon": "-8.431311045256946",
      "lat": "40.361250387432534"
    },
    {
      "id": "pt.ine.add.PTCONT.103299",
      "street": "R SOBREIRINHO",
      "house": "",
      "postcode": "3050-510",
      "city": "VACARIÇA",
      "lon": "-8.431239854521717",
      "lat": "40.36112449234768"
    },
    {
      "id": "pt.ine.add.PTCONT.112223",
      "street": "R MONTE CARVAO",
      "house": "",
      "postcode": "3050-510",
      "city": "VACARIÇA",
      "lon": "-8.431194588954003",
      "lat": "40.36153886732393"
    },
    {
      "id": "pt.ine.add.PTCONT.145846",
      "street": "R SOBREIRO",
      "house": "",
      "postcode": "3050-510",
      "city": "VACARIÇA",
      "lon": "-8.431843592922258",
      "lat": "40.36187940615458"
    },
    {
      "id": "pt.ine.add.PTCONT.150854",
      "street": "R PRINCIPAL",
      "house": "",
      "postcode": "3050-510",
      "city": "VACARIÇA",
      "lon": "-8.431353308059236",
      "lat": "40.362826260934646"
    },
    {
      "id": "pt.ine.add.PTCONT.157161",
      "street": "R MONTE CARVAO",
      "house": "",
      "postcode": "3050-510",
      "city": "VACARIÇA",
      "lon": "-8.43027679999928",
      "lat": "40.36164929651584"
    },
    {
      "id": "pt.ine.add.PTCONT.177770",
      "street": "R PRINCIPAL",
      "house": "",
      "postcode": "3050-510",
      "city": "VACARIÇA",
      "lon": "-8.43011822777554",
      "lat": "40.36307259082714"
    },
    {
      "id": "pt.ine.add.PTCONT.179500",
      "street": "ESTR PRINCIPAL",
      "house": "",
      "postcode": "3050-510",
      "city": "VACARIÇA",
      "lon": "-8.42962439830746",
      "lat": "40.36321794775651"
    },
    {
      "id": "pt.ine.add.PTCONT.190865",
      "street": "R PRINCIPAL",
      "house": "",
      "postcode": "3050-510",
      "city": "VACARIÇA",
      "lon": "-8.429953565520226",
      "lat": "40.363109036022394"
    },
    {
      "id": "pt.ine.add.PTCONT.196391",
      "street": "R PRINCIPAL",
      "house": "",
      "postcode": "3050-510",
      "city": "VACARIÇA",
      "lon": "-8.432200553886892",
      "lat": "40.36273401688395"
    },
    {
      "id": "pt.ine.add.PTCONT.204258",
      "street": "R PRINCIPAL",
      "house": "",
      "postcode": "3050-510",
      "city": "VACARIÇA",
      "lon": "-8.431000757359287",
      "lat": "40.3629712593363"
    },
    {
      "id": "pt.ine.add.PTCONT.218214",
      "street": "R PRINCIPAL",
      "house": "",
      "postcode": "3050-510",
      "city": "VACARIÇA",
      "lon": "-8.43128282978343",
      "lat": "40.362862465109274"
    },
    {
      "id": "pt.ine.add.PTCONT.231637",
      "street": "R SOBRREIRINHO",
      "house": "",
      "postcode": "3050-510",
      "city": "VACARIÇA",
      "lon": "-8.432253092790393",
      "lat": "40.36230249951906"
    },
    {
      "id": "pt.ine.add.PTCONT.250593",
      "street": "R MONTE CARVAO",
      "house": "",
      "postcode": "3050-510",
      "city": "VACARIÇA",
      "lon": "-8.430982761282655",
      "lat": "40.36155742431167"
    },
    {
      "id": "pt.ine.add.PTCONT.253301",
      "street": "R PRINCIPAL",
      "house": "",
      "postcode": "3050-510",
      "city": "VACARIÇA",
      "lon": "-8.431765237928781",
      "lat": "40.362798181106335"
    },
    {
      "id": "pt.ine.add.PTCONT.256062",
      "street": "R SOLDADO MARIO SILVA",
      "house": "",
      "postcode": "3050-510",
      "city": "VACARIÇA",
      "lon": "-8.430906693386827",
      "lat": "40.362998518415345"
    },
    {
      "id": "pt.ine.add.PTCONT.278403",
      "street": "R SOBREIRINHO",
      "house": "",
      "postcode": "3050-510",
      "city": "VACARIÇA",
      "lon": "-8.431262963183917",
      "lat": "40.36102537100523"
    },
    {
      "id": "pt.ine.add.PTCONT.280389",
      "street": "R SOBREIRINHO",
      "house": "",
      "postcode": "3050-510",
      "city": "VACARIÇA",
      "lon": "-8.431678060453091",
      "lat": "40.361717732538374"
    },
    {
      "id": "pt.ine.add.PTCONT.285484",
      "street": "R PRINCIPAL",
      "house": "",
      "postcode": "3050-510",
      "city": "VACARIÇA",
      "lon": "-8.42978898204686",
      "lat": "40.36316349200634"
    },
    {
      "id": "pt.ine.add.PTCONT.288216",
      "street": "R PRINCIPAL",
      "house": "",
      "postcode": "3050-510",
      "city": "VACARIÇA",
      "lon": "-8.430577409505593",
      "lat": "40.36308041632445"
    },
    {
      "id": "pt.ine.add.PTCONT.288218",
      "street": "R SOBRREIRINHO",
      "house": "",
      "postcode": "3050-510",
      "city": "VACARIÇA",
      "lon": "-8.431950222944701",
      "lat": "40.3620322261263"
    }
  ]
}