{
  "data": {
    "distrito": "Lisboa",
    "concelho": "Azambuja",
    "freguesia": "Aveiras de Baixo",
    "OBJECTID": 143,
    "BGRI2021": "11030200123",
    "DT21": "11",
    "DTMN21": "1103",
    "DTMNFR21": "110302",
    "DTMNFRSEC21": "110302001",
    "SECNUM21": "001",
    "SSNUM21": "23",
    "SECSSNUM21": "00123",
    "OBJECTID_1": 99685,
    "DT": "11",
    "CC": "03",
    "fr": "02",
    "SEC": "001",
    "SS": "23"
  },
  "addresses": [
    {
      "id": "pt.ine.add.PTCONT.2277772",
      "street": "TV VALE DO GACHO",
      "house": "",
      "postcode": "2050-035",
      "city": "AVEIRAS DE BAIXO",
      "lon": "-8.86962415022379",
      "lat": "39.113523584542655"
    },
    {
      "id": "pt.ine.add.PTCONT.2284507",
      "street": "R PAZ",
      "house": "9",
      "postcode": "2050-024",
      "city": "AVEIRAS DE BAIXO",
      "lon": "-8.869228229188098",
      "lat": "39.11103102848626"
    },
    {
      "id": "pt.ine.add.PTCONT.2382769",
      "street": "R LIBERDADE",
      "house": "54",
      "postcode": "2050-023",
      "city": "AVEIRAS DE BAIXO",
      "lon": "-8.867292585538415",
      "lat": "39.11390759639825"
    },
    {
      "id": "pt.ine.add.PTCONT.2383570",
      "street": "R LIBERDADE",
      "house": "54",
      "postcode": "2050-023",
      "city": "AVEIRAS DE BAIXO",
      "lon": "-8.867292585538415",
      "lat": "39.11390759639825"
    },
    {
      "id": "pt.ine.add.PTCONT.2438694",
      "street": "R LOUREIRO",
      "house": "16",
      "postcode": "2050-026",
      "city": "AVEIRAS DE BAIXO",
      "lon": "-8.86940736087747",
      "lat": "39.111579350254885"
    },
    {
      "id": "pt.ine.add.PTCONT.2438695",
      "street": "R LOUREIRO",
      "house": "2",
      "postcode": "2050-026",
      "city": "AVEIRAS DE BAIXO",
      "lon": "-8.869483976323028",
      "lat": "39.1111645247012"
    },
    {
      "id": "pt.ine.add.PTCONT.2513738",
      "street": "R LIBERDADE",
      "house": "40",
      "postcode": "2050-023",
      "city": "AVEIRAS DE BAIXO",
      "lon": "-8.870452907654554",
      "lat": "39.113167056014916"
    },
    {
      "id": "pt.ine.add.PTCONT.2513739",
      "street": "R LIBERDADE",
      "house": "24",
      "postcode": "2050-023",
      "city": "AVEIRAS DE BAIXO",
      "lon": "-8.870143212615531",
      "lat": "39.11229529429959"
    },
    {
      "id": "pt.ine.add.PTCONT.2586105",
      "street": "R LIBERDADE",
      "house": "62",
      "postcode": "2050-023",
      "city": "AVEIRAS DE BAIXO",
      "lon": "-8.866223065094118",
      "lat": "39.11446378017411"
    },
    {
      "id": "pt.ine.add.PTCONT.2612644",
      "street": "R LIBERDADE",
      "house": "42",
      "postcode": "2050-023",
      "city": "AVEIRAS DE BAIXO",
      "lon": "-8.869451479648708",
      "lat": "39.11359673473109"
    },
    {
      "id": "pt.ine.add.PTCONT.2622314",
      "street": "TV LOUREIRO",
      "house": "1",
      "postcode": "2050-033",
      "city": "AVEIRAS DE BAIXO",
      "lon": "-8.869322122588146",
      "lat": "39.111165546966596"
    },
    {
      "id": "pt.ine.add.PTCONT.2710115",
      "street": "R LIBERDADE",
      "house": "56",
      "postcode": "2050-023",
      "city": "AVEIRAS DE BAIXO",
      "lon": "-8.867489223412653",
      "lat": "39.11391536523044"
    },
    {
      "id": "pt.ine.add.PTCONT.2719031",
      "street": "R LIBERDADE",
      "house": "52",
      "postcode": "2050-023",
      "city": "AVEIRAS DE BAIXO",
      "lon": "-8.867913815969292",
      "lat": "39.11360643725445"
    },
    {
      "id": "pt.ine.add.PTCONT.2856125",
      "street": "R VALE DO GACHO",
      "house": "12",
      "postcode": "2050-027",
      "city": "AVEIRAS DE BAIXO",
      "lon": "-8.87005900102939",
      "lat": "39.11198056680637"
    },
    {
      "id": "pt.ine.add.PTCONT.2862701",
      "street": "TV PIRIQUITOS",
      "house": "FRACC A",
      "postcode": "2050-034",
      "city": "AVEIRAS DE BAIXO",
      "lon": "-8.867648652213717",
      "lat": "39.113680167755014"
    },
    {
      "id": "pt.ine.add.PTCONT.2897043",
      "street": "R LIBERDADE",
      "house": "60",
      "postcode": "2050-023",
      "city": "AVEIRAS DE BAIXO",
      "lon": "-8.866832930353583",
      "lat": "39.11418071310875"
    },
    {
      "id": "pt.ine.add.PTCONT.2899331",
      "street": "TV PIRIQUITOS",
      "house": "2",
      "postcode": "2050-034",
      "city": "AVEIRAS DE BAIXO",
      "lon": "-8.867208758386175",
      "lat": "39.11362889417166"
    },
    {
      "id": "pt.ine.add.PTCONT.2908376",
      "street": "TV PIRIQUITOS",
      "house": "1",
      "postcode": "2050-034",
      "city": "AVEIRAS DE BAIXO",
      "lon": "-8.866977997716827",
      "lat": "39.11367538422598"
    },
    {
      "id": "pt.ine.add.PTCONT.2926262",
      "street": "TV VALE DO GACHO",
      "house": "7",
      "postcode": "2050-035",
      "city": "AVEIRAS DE BAIXO",
      "lon": "-8.869764574644305",
      "lat": "39.11368483087348"
    },
    {
      "id": "pt.ine.add.PTCONT.2941612",
      "street": "TV PIRIQUITOS",
      "house": "8",
      "postcode": "2050-034",
      "city": "AVEIRAS DE BAIXO",
      "lon": "-8.867417517755118",
      "lat": "39.113690631338436"
    },
    {
      "id": "pt.ine.add.PTCONT.2941613",
      "street": "R LIBERDADE",
      "house": "38",
      "postcode": "2050-023",
      "city": "AVEIRAS DE BAIXO",
      "lon": "-8.870152428166604",
      "lat": "39.11207005040851"
    },
    {
      "id": "pt.ine.add.PTCONT.2990333",
      "street": "R LOUREIRO",
      "house": "4",
      "postcode": "2050-026",
      "city": "AVEIRAS DE BAIXO",
      "lon": "-8.869334714456238",
      "lat": "39.11126454914026"
    },
    {
      "id": "pt.ine.add.PTCONT.3036201",
      "street": "R JUVENTUDE ESCOLAR",
      "house": "13",
      "postcode": "2050-022",
      "city": "AVEIRAS DE BAIXO",
      "lon": "-8.869044846383506",
      "lat": "39.11118531257017"
    },
    {
      "id": "pt.ine.add.PTCONT.3065740",
      "street": "R LIBERDADE",
      "house": "44",
      "postcode": "2050-023",
      "city": "AVEIRAS DE BAIXO",
      "lon": "-8.869139322420441",
      "lat": "39.11359870605682"
    },
    {
      "id": "pt.ine.add.PTCONT.3092812",
      "street": "R LIBERDADE",
      "house": "1",
      "postcode": "2050-023",
      "city": "AVEIRAS DE BAIXO",
      "lon": "-8.869047487203456",
      "lat": "39.11366233781584"
    },
    {
      "id": "pt.ine.add.PTCONT.3110877",
      "street": "R LIBERDADE",
      "house": "46",
      "postcode": "2050-023",
      "city": "AVEIRAS DE BAIXO",
      "lon": "-8.868793136612698",
      "lat": "39.11366394326512"
    },
    {
      "id": "pt.ine.add.PTCONT.3138329",
      "street": "R PAZ",
      "house": "11",
      "postcode": "2050-024",
      "city": "AVEIRAS DE BAIXO",
      "lon": "-8.869124930068201",
      "lat": "39.11110374013787"
    },
    {
      "id": "pt.ine.add.PTCONT.3185671",
      "street": "TV LOUREIRO",
      "house": "6",
      "postcode": "2050-033",
      "city": "AVEIRAS DE BAIXO",
      "lon": "-8.869218448562705",
      "lat": "39.11120223135977"
    },
    {
      "id": "pt.ine.add.PTCONT.3195321",
      "street": "TV VALE DO GACHO",
      "house": "3",
      "postcode": "2050-035",
      "city": "AVEIRAS DE BAIXO",
      "lon": "-8.869550375694507",
      "lat": "39.113100701717094"
    },
    {
      "id": "pt.ine.add.PTCONT.3241016",
      "street": "TV VALE DO GACHO",
      "house": "",
      "postcode": "2050-035",
      "city": "AVEIRAS DE BAIXO",
      "lon": "-8.870026077441018",
      "lat": "39.113259829204175"
    },
    {
      "id": "pt.ine.add.PTCONT.3314573",
      "street": "R PAZ",
      "house": "17",
      "postcode": "2050-024",
      "city": "AVEIRAS DE BAIXO",
      "lon": "-8.868906770194577",
      "lat": "39.11124923614038"
    },
    {
      "id": "pt.ine.add.PTCONT.3314577",
      "street": "R LIBERDADE",
      "house": "34",
      "postcode": "2050-023",
      "city": "AVEIRAS DE BAIXO",
      "lon": "-8.87038250739593",
      "lat": "39.11306841962202"
    },
    {
      "id": "pt.ine.add.PTCONT.3351115",
      "street": "R LOUREIRO",
      "house": "6",
      "postcode": "2050-026",
      "city": "AVEIRAS DE BAIXO",
      "lon": "-8.869289126446194",
      "lat": "39.11132788902531"
    },
    {
      "id": "pt.ine.add.PTCONT.3363205",
      "street": "R JUVENTUDE ESCOLAR",
      "house": "27",
      "postcode": "2050-022",
      "city": "AVEIRAS DE BAIXO",
      "lon": "-8.868849995424664",
      "lat": "39.111348676169946"
    },
    {
      "id": "pt.ine.add.PTCONT.3369731",
      "street": "R JUVENTUDE ESCOLAR",
      "house": "31",
      "postcode": "2050-022",
      "city": "AVEIRAS DE BAIXO",
      "lon": "-8.868908549793181",
      "lat": "39.11142036601857"
    },
    {
      "id": "pt.ine.add.PTCONT.3394843",
      "street": "TV PIRIQUITOS",
      "house": "",
      "postcode": "2050-034",
      "city": "AVEIRAS DE BAIXO",
      "lon": "-8.867283921526278",
      "lat": "39.11418688108969"
    },
    {
      "id": "pt.ine.add.PTCONT.3397810",
      "street": "TV PIRIQUITOS",
      "house": "3",
      "postcode": "2050-034",
      "city": "AVEIRAS DE BAIXO",
      "lon": "-8.866773535137975",
      "lat": "39.11402796073111"
    }
  ]
}