{
  "data": {
    "distrito": "Lisboa",
    "concelho": "Vila Franca de Xira",
    "freguesia": "União das freguesias de Alverca do Ribatejo e Sobralinho",
    "OBJECTID": 366,
    "BGRI2021": "11141302925",
    "DT21": "11",
    "DTMN21": "1114",
    "DTMNFR21": "111413",
    "DTMNFRSEC21": "111413029",
    "SECNUM21": "029",
    "SSNUM21": "25",
    "SECSSNUM21": "02925",
    "OBJECTID_1": 117197,
    "DT": "11",
    "CC": "14",
    "fr": "13",
    "SEC": "029",
    "SS": "25"
  },
  "addresses": [
    {
      "id": "pt.ine.add.PTCONT.2336859",
      "street": "R ANDORINHAS",
      "house": "",
      "postcode": "2615-256",
      "city": "ALVERCA DO RIBATEJO",
      "lon": "-9.046237757494916",
      "lat": "38.91264987537385"
    },
    {
      "id": "pt.ine.add.PTCONT.2496172",
      "street": "R ANDORINHAS",
      "house": "",
      "postcode": "2615-256",
      "city": "ALVERCA DO RIBATEJO",
      "lon": "-9.045324954638627",
      "lat": "38.912494873954685"
    },
    {
      "id": "pt.ine.add.PTCONT.2512195",
      "street": "R SANTO ANTÓNIO",
      "house": "",
      "postcode": "2615-255",
      "city": "ALVERCA DO RIBATEJO",
      "lon": "-9.046212996234377",
      "lat": "38.91431648293907"
    },
    {
      "id": "pt.ine.add.PTCONT.2582632",
      "street": "R D DINIS",
      "house": "30",
      "postcode": "2615-244",
      "city": "ALVERCA DO RIBATEJO",
      "lon": "-9.046438732989454",
      "lat": "38.91483716025297"
    },
    {
      "id": "pt.ine.add.PTCONT.2598138",
      "street": "ESTR ARRUDA",
      "house": "",
      "postcode": "2615-199",
      "city": "ALVERCA DO RIBATEJO",
      "lon": "-9.042647115915338",
      "lat": "38.911353781312336"
    },
    {
      "id": "pt.ine.add.PTCONT.2648624",
      "street": "R ANDORINHAS",
      "house": "",
      "postcode": "2615-256",
      "city": "ALVERCA DO RIBATEJO",
      "lon": "-9.045249791340563",
      "lat": "38.91292782818125"
    },
    {
      "id": "pt.ine.add.PTCONT.2679727",
      "street": "R ANDORINHAS",
      "house": "",
      "postcode": "2615-256",
      "city": "ALVERCA DO RIBATEJO",
      "lon": "-9.045448996986773",
      "lat": "38.912277721153785"
    },
    {
      "id": "pt.ine.add.PTCONT.2770399",
      "street": "R RAINHA SANTA ISABEL",
      "house": "14",
      "postcode": "2615-255",
      "city": "ALVERCA DO RIBATEJO",
      "lon": "-9.046536006761814",
      "lat": "38.91343120710408"
    },
    {
      "id": "pt.ine.add.PTCONT.2808294",
      "street": "CSL FUJO",
      "house": "",
      "postcode": "2615-167",
      "city": "",
      "lon": "-9.037842403276233",
      "lat": "38.914309593680734"
    },
    {
      "id": "pt.ine.add.PTCONT.2840559",
      "street": "ESTR ARRUDA",
      "house": "",
      "postcode": "2615-042",
      "city": "ALVERCA DO RIBATEJO",
      "lon": "-9.03942830626867",
      "lat": "38.91662126419279"
    },
    {
      "id": "pt.ine.add.PTCONT.2867959",
      "street": "R ANDORINHAS",
      "house": "",
      "postcode": "2615-256",
      "city": "ALVERCA DO RIBATEJO",
      "lon": "-9.04565638808943",
      "lat": "38.91226709256141"
    },
    {
      "id": "pt.ine.add.PTCONT.2891676",
      "street": "CSL BENZA DEUS",
      "house": "",
      "postcode": "2615-373",
      "city": "ALVERCA DO RIBATEJO",
      "lon": "-9.043182234653804",
      "lat": "38.911727932184284"
    },
    {
      "id": "pt.ine.add.PTCONT.2938728",
      "street": "R RAINHA STA ISABEL",
      "house": "",
      "postcode": "2615-255",
      "city": "ALVERCA DO RIBATEJO",
      "lon": "-9.046673769224556",
      "lat": "38.9133850909031"
    },
    {
      "id": "pt.ine.add.PTCONT.2938729",
      "street": "R RAINHA STA ISABEL",
      "house": "",
      "postcode": "2615-255",
      "city": "ALVERCA DO RIBATEJO",
      "lon": "-9.046673769224556",
      "lat": "38.9133850909031"
    },
    {
      "id": "pt.ine.add.PTCONT.3060119",
      "street": "CSL BICA",
      "house": "16",
      "postcode": "2615-244",
      "city": "ALVERCA DO RIBATEJO",
      "lon": "-9.046618667920528",
      "lat": "38.913583690222524"
    },
    {
      "id": "pt.ine.add.PTCONT.3071683",
      "street": "R SANTO ANTÓNIO",
      "house": "",
      "postcode": "2615-255",
      "city": "ALVERCA DO RIBATEJO",
      "lon": "-9.046587084925555",
      "lat": "38.91381813605374"
    },
    {
      "id": "pt.ine.add.PTCONT.3191144",
      "street": "R SANTO ANTONIO",
      "house": "17",
      "postcode": "2615-255",
      "city": "ALVERCA DO RIBATEJO",
      "lon": "-9.046712511369105",
      "lat": "38.913709062839835"
    },
    {
      "id": "pt.ine.add.PTCONT.3191145",
      "street": "R JOAO TARRE RIBEIRO",
      "house": "18",
      "postcode": "2615-263",
      "city": "ALVERCA DO RIBATEJO",
      "lon": "-9.046712511369105",
      "lat": "38.913709062839835"
    }
  ]
}