{
  "data": {
    "distrito": "Porto",
    "concelho": "Lousada",
    "freguesia": "União das freguesias de Figueiras e Covas",
    "OBJECTID": 65,
    "BGRI2021": "13052900124",
    "DT21": "13",
    "DTMN21": "1305",
    "DTMNFR21": "130529",
    "DTMNFRSEC21": "130529001",
    "SECNUM21": "001",
    "SSNUM21": "24",
    "SECSSNUM21": "00124",
    "OBJECTID_1": 129706,
    "DT": "13",
    "CC": "05",
    "fr": "29",
    "SEC": "001",
    "SS": "24"
  },
  "addresses": [
    {
      "id": "pt.ine.add.PTCONT.3543470",
      "street": "TV GRANJA 3",
      "house": "24",
      "postcode": "4620-111",
      "city": "COVAS LSD",
      "lon": "-8.327093285896861",
      "lat": "41.28685203532094"
    },
    {
      "id": "pt.ine.add.PTCONT.3618028",
      "street": "R CASAS NOVAS",
      "house": "153",
      "postcode": "4620-111",
      "city": "COVAS LSD",
      "lon": "-8.321402890725718",
      "lat": "41.288176093251884"
    },
    {
      "id": "pt.ine.add.PTCONT.3643716",
      "street": "R CASAS NOVAS CASA DE SJOÃO",
      "house": "77",
      "postcode": "4620-111",
      "city": "COVAS LSD",
      "lon": "-8.32073262461628",
      "lat": "41.28756490349069"
    },
    {
      "id": "pt.ine.add.PTCONT.3677440",
      "street": "R CASAS NOVAS",
      "house": "161",
      "postcode": "4620-111",
      "city": "COVAS LSD",
      "lon": "-8.321630199760373",
      "lat": "41.28834680060763"
    },
    {
      "id": "pt.ine.add.PTCONT.3677441",
      "street": "R S CRUZ",
      "house": "68",
      "postcode": "4620-111",
      "city": "COVAS LSD",
      "lon": "-8.327988301409277",
      "lat": "41.28675147774022"
    },
    {
      "id": "pt.ine.add.PTCONT.3688516",
      "street": "R CASAS NOVAS",
      "house": "397",
      "postcode": "4620-111",
      "city": "COVAS LSD",
      "lon": "-8.319462218345304",
      "lat": "41.28999809467573"
    },
    {
      "id": "pt.ine.add.PTCONT.3688518",
      "street": "R S CRUZ",
      "house": "12",
      "postcode": "4620-111",
      "city": "COVAS LSD",
      "lon": "-8.327702096849743",
      "lat": "41.28685100784479"
    },
    {
      "id": "pt.ine.add.PTCONT.3688519",
      "street": "R S CRUZ",
      "house": "12",
      "postcode": "4620-111",
      "city": "COVAS LSD",
      "lon": "-8.327702096849743",
      "lat": "41.28685100784479"
    },
    {
      "id": "pt.ine.add.PTCONT.3688520",
      "street": "R S CRUZ",
      "house": "12",
      "postcode": "4620-111",
      "city": "COVAS LSD",
      "lon": "-8.327702096849743",
      "lat": "41.28685100784479"
    },
    {
      "id": "pt.ine.add.PTCONT.3688521",
      "street": "R S CRUZ",
      "house": "12",
      "postcode": "4620-111",
      "city": "COVAS LSD",
      "lon": "-8.327702096849743",
      "lat": "41.28685100784479"
    },
    {
      "id": "pt.ine.add.PTCONT.3688524",
      "street": "TV GRANJA 1",
      "house": "34",
      "postcode": "4620-111",
      "city": "COVAS LSD",
      "lon": "-8.325194911134265",
      "lat": "41.28674716833934"
    },
    {
      "id": "pt.ine.add.PTCONT.3688525",
      "street": "TV GRANJA 1",
      "house": "34",
      "postcode": "4620-111",
      "city": "COVAS LSD",
      "lon": "-8.325194911134265",
      "lat": "41.28674716833934"
    },
    {
      "id": "pt.ine.add.PTCONT.3693129",
      "street": "R S CRUZ",
      "house": "12",
      "postcode": "4620-111",
      "city": "COVAS LSD",
      "lon": "-8.327702096849743",
      "lat": "41.28685100784479"
    },
    {
      "id": "pt.ine.add.PTCONT.3708553",
      "street": "R CASAS NOVAS",
      "house": "57",
      "postcode": "4620-111",
      "city": "COVAS LSD",
      "lon": "-8.32093912745626",
      "lat": "41.28880714324757"
    },
    {
      "id": "pt.ine.add.PTCONT.3721651",
      "street": "R CASAS NOVAS",
      "house": "341",
      "postcode": "4620-111",
      "city": "COVAS LSD",
      "lon": "-8.319842926523345",
      "lat": "41.289538264837205"
    },
    {
      "id": "pt.ine.add.PTCONT.3734787",
      "street": "R GRANJA",
      "house": "156",
      "postcode": "4620-111",
      "city": "COVAS LSD",
      "lon": "-8.32625824714144",
      "lat": "41.28705153129992"
    },
    {
      "id": "pt.ine.add.PTCONT.3754880",
      "street": "TV GRANJA 3",
      "house": "55",
      "postcode": "4620-111",
      "city": "COVAS LSD",
      "lon": "-8.327058913312312",
      "lat": "41.28733831889032"
    },
    {
      "id": "pt.ine.add.PTCONT.3766515",
      "street": "R CASAS NOVAS",
      "house": "61",
      "postcode": "4620-111",
      "city": "COVAS LSD",
      "lon": "-8.320809230650747",
      "lat": "41.289302584801526"
    },
    {
      "id": "pt.ine.add.PTCONT.3766518",
      "street": "R GRANJA",
      "house": "198",
      "postcode": "4620-111",
      "city": "COVAS LSD",
      "lon": "-8.32659145996427",
      "lat": "41.28669980877151"
    },
    {
      "id": "pt.ine.add.PTCONT.3779903",
      "street": "TV GRANJA 1",
      "house": "29",
      "postcode": "4620-111",
      "city": "COVAS LSD",
      "lon": "-8.32544615290015",
      "lat": "41.286935836623506"
    },
    {
      "id": "pt.ine.add.PTCONT.3794573",
      "street": "R GRANJA",
      "house": "",
      "postcode": "4620-111",
      "city": "COVAS LSD",
      "lon": "-8.326448742238965",
      "lat": "41.28688013213132"
    },
    {
      "id": "pt.ine.add.PTCONT.3794574",
      "street": "R GRANJA",
      "house": "184",
      "postcode": "4620-111",
      "city": "COVAS LSD",
      "lon": "-8.326448742238965",
      "lat": "41.28688013213132"
    },
    {
      "id": "pt.ine.add.PTCONT.3799393",
      "street": "TV GRANJA 3",
      "house": "",
      "postcode": "4620-111",
      "city": "COVAS LSD",
      "lon": "-8.327439873256681",
      "lat": "41.28698651347406"
    },
    {
      "id": "pt.ine.add.PTCONT.3852095",
      "street": "TV S CRUZ",
      "house": "90",
      "postcode": "4620-111",
      "city": "COVAS LSD",
      "lon": "-8.327894033594688",
      "lat": "41.287165829511046"
    },
    {
      "id": "pt.ine.add.PTCONT.3852096",
      "street": "TV S CRUZ",
      "house": "90",
      "postcode": "4620-111",
      "city": "COVAS LSD",
      "lon": "-8.327894033594688",
      "lat": "41.287165829511046"
    },
    {
      "id": "pt.ine.add.PTCONT.3870045",
      "street": "R GRANJA",
      "house": "152",
      "postcode": "4620-111",
      "city": "COVAS LSD",
      "lon": "-8.325983737510406",
      "lat": "41.287069999897426"
    },
    {
      "id": "pt.ine.add.PTCONT.3897442",
      "street": "TV GRANJA 1",
      "house": "53",
      "postcode": "4620-111",
      "city": "COVAS LSD",
      "lon": "-8.325231621501601",
      "lat": "41.287053249174875"
    },
    {
      "id": "pt.ine.add.PTCONT.3945880",
      "street": "R CASAS NOVAS",
      "house": "501",
      "postcode": "4620-111",
      "city": "COVAS LSD",
      "lon": "-8.319082195218643",
      "lat": "41.290701034809395"
    },
    {
      "id": "pt.ine.add.PTCONT.3979465",
      "street": "TV S CRUZ",
      "house": "",
      "postcode": "4620-111",
      "city": "COVAS LSD",
      "lon": "-8.327596611455137",
      "lat": "41.287508491141146"
    },
    {
      "id": "pt.ine.add.PTCONT.4011903",
      "street": "TV GRANJA 1",
      "house": "60",
      "postcode": "4620-111",
      "city": "COVAS LSD",
      "lon": "-8.325004228466844",
      "lat": "41.28685553649634"
    },
    {
      "id": "pt.ine.add.PTCONT.4020788",
      "street": "AV SRA AMPARO",
      "house": "1223",
      "postcode": "4620-111",
      "city": "COVAS LSD",
      "lon": "-8.328994521171621",
      "lat": "41.287911309008514"
    },
    {
      "id": "pt.ine.add.PTCONT.4020789",
      "street": "AV SENHORA DO AMPARO",
      "house": "1197",
      "postcode": "4620-111",
      "city": "COVAS LSD",
      "lon": "-8.328994521171621",
      "lat": "41.287911309008514"
    },
    {
      "id": "pt.ine.add.PTCONT.4037851",
      "street": "R CASAS NOVAS",
      "house": "34",
      "postcode": "4620-111",
      "city": "COVAS LSD",
      "lon": "-8.321558003298401",
      "lat": "41.288148826910756"
    },
    {
      "id": "pt.ine.add.PTCONT.4042318",
      "street": "R CASAS NOVAS",
      "house": "34",
      "postcode": "4620-111",
      "city": "COVAS LSD",
      "lon": "-8.321558003298401",
      "lat": "41.288148826910756"
    },
    {
      "id": "pt.ine.add.PTCONT.4044475",
      "street": "R GRANJA",
      "house": "222",
      "postcode": "4620-111",
      "city": "COVAS LSD",
      "lon": "-8.32667456968722",
      "lat": "41.2865465980085"
    },
    {
      "id": "pt.ine.add.PTCONT.4070964",
      "street": "R GRANJA",
      "house": "66",
      "postcode": "4620-111",
      "city": "COVAS LSD",
      "lon": "-8.325587841536663",
      "lat": "41.286404353218494"
    },
    {
      "id": "pt.ine.add.PTCONT.4070965",
      "street": "R GRANJA",
      "house": "N 76",
      "postcode": "4620-111",
      "city": "COVAS LSD",
      "lon": "-8.325587841536663",
      "lat": "41.286404353218494"
    },
    {
      "id": "pt.ine.add.PTCONT.4090528",
      "street": "R GRANJA",
      "house": "26",
      "postcode": "4620-111",
      "city": "COVAS LSD",
      "lon": "-8.325562829101862",
      "lat": "41.286017215282556"
    },
    {
      "id": "pt.ine.add.PTCONT.4090529",
      "street": "R GRANJA",
      "house": "26",
      "postcode": "4620-111",
      "city": "COVAS LSD",
      "lon": "-8.325562829101862",
      "lat": "41.286017215282556"
    },
    {
      "id": "pt.ine.add.PTCONT.4101569",
      "street": "R CASAS NOVAS",
      "house": "30",
      "postcode": "4620-111",
      "city": "COVAS LSD",
      "lon": "-8.320165431590583",
      "lat": "41.28960077048689"
    },
    {
      "id": "pt.ine.add.PTCONT.4140257",
      "street": "R S JOÃO EVANGELISTA",
      "house": "378",
      "postcode": "4620-113",
      "city": "COVAS LSD",
      "lon": "-8.325014846829735",
      "lat": "41.28640530981234"
    },
    {
      "id": "pt.ine.add.PTCONT.4149530",
      "street": "R CASAS NOVAS",
      "house": "",
      "postcode": "4620-111",
      "city": "COVAS LSD",
      "lon": "-8.32096344217898",
      "lat": "41.288960174572566"
    },
    {
      "id": "pt.ine.add.PTCONT.4154289",
      "street": "R DAS CASAS NOVAS",
      "house": "38",
      "postcode": "4620-300",
      "city": "FIGUEIRAS",
      "lon": "-8.321116928357325",
      "lat": "41.28836564834525"
    },
    {
      "id": "pt.ine.add.PTCONT.4181780",
      "street": "R GRANJA",
      "house": "270",
      "postcode": "4620-111",
      "city": "COVAS LSD",
      "lon": "-8.326888910356072",
      "lat": "41.28636615382162"
    },
    {
      "id": "pt.ine.add.PTCONT.4188473",
      "street": "R CASAS NOVAS",
      "house": "2",
      "postcode": "4620-111",
      "city": "COVAS LSD",
      "lon": "-8.32104767899923",
      "lat": "41.289194145662954"
    },
    {
      "id": "pt.ine.add.PTCONT.4203672",
      "street": "R S JOÃO EVANGELISTA QTA FONTEBELLA",
      "house": "681",
      "postcode": "4620-113",
      "city": "COVAS LSD",
      "lon": "-8.321746128001744",
      "lat": "41.28714905501249"
    },
    {
      "id": "pt.ine.add.PTCONT.4203673",
      "street": "R S JOÃO EVANGELISTA QTA FONTEBELLA",
      "house": "681",
      "postcode": "4620-113",
      "city": "COVAS LSD",
      "lon": "-8.321746128001744",
      "lat": "41.28714905501249"
    },
    {
      "id": "pt.ine.add.PTCONT.4211061",
      "street": "R CASAS NOVAS",
      "house": "485",
      "postcode": "4620-111",
      "city": "COVAS LSD",
      "lon": "-8.319344399807093",
      "lat": "41.290547539971925"
    },
    {
      "id": "pt.ine.add.PTCONT.4215040",
      "street": "R CASAS NOVAS",
      "house": "357",
      "postcode": "4620-111",
      "city": "COVAS LSD",
      "lon": "-8.319759745705376",
      "lat": "41.28967346236302"
    },
    {
      "id": "pt.ine.add.PTCONT.4221483",
      "street": "R GRANJA",
      "house": "108",
      "postcode": "4620-111",
      "city": "COVAS LSD",
      "lon": "-8.325660683528815",
      "lat": "41.2868184236716"
    },
    {
      "id": "pt.ine.add.PTCONT.4234230",
      "street": "R CASAS NOVAS",
      "house": "423",
      "postcode": "4620-111",
      "city": "COVAS LSD",
      "lon": "-8.319355236834621",
      "lat": "41.2901603429481"
    },
    {
      "id": "pt.ine.add.PTCONT.4234231",
      "street": "R CASAS NOVAS",
      "house": "417",
      "postcode": "4620-111",
      "city": "COVAS LSD",
      "lon": "-8.319355236834621",
      "lat": "41.2901603429481"
    },
    {
      "id": "pt.ine.add.PTCONT.4234235",
      "street": "TV GRANJA 3",
      "house": "48",
      "postcode": "4620-111",
      "city": "COVAS LSD",
      "lon": "-8.326867033341696",
      "lat": "41.28704150410165"
    },
    {
      "id": "pt.ine.add.PTCONT.4287473",
      "street": "R S CRUZ",
      "house": "230",
      "postcode": "4620-111",
      "city": "COVAS LSD",
      "lon": "-8.329994577945794",
      "lat": "41.28700918520955"
    },
    {
      "id": "pt.ine.add.PTCONT.4287474",
      "street": "R S CRUZ",
      "house": "230",
      "postcode": "4620-111",
      "city": "COVAS LSD",
      "lon": "-8.329994577945794",
      "lat": "41.28700918520955"
    },
    {
      "id": "pt.ine.add.PTCONT.4343158",
      "street": "TV GRANJA 3",
      "house": "51",
      "postcode": "4620-111",
      "city": "COVAS LSD",
      "lon": "-8.327261317976486",
      "lat": "41.28715789414256"
    },
    {
      "id": "pt.ine.add.PTCONT.4359816",
      "street": "R CASAS NOVAS",
      "house": "369",
      "postcode": "4620-111",
      "city": "COVAS LSD",
      "lon": "-8.319652688516692",
      "lat": "41.28980869851796"
    },
    {
      "id": "pt.ine.add.PTCONT.4371722",
      "street": "R CASAS NOVAS",
      "house": "509",
      "postcode": "4620-111",
      "city": "COVAS LSD",
      "lon": "-8.319082527631833",
      "lat": "41.2908180885293"
    },
    {
      "id": "pt.ine.add.PTCONT.4376233",
      "street": "R CASAS NOVAS",
      "house": "577",
      "postcode": "4620-111",
      "city": "COVAS LSD",
      "lon": "-8.319071535482477",
      "lat": "41.29115126069681"
    },
    {
      "id": "pt.ine.add.PTCONT.4380949",
      "street": "TV GRANJA 1",
      "house": "18",
      "postcode": "4620-111",
      "city": "COVAS LSD",
      "lon": "-8.325385487438",
      "lat": "41.28660278332375"
    },
    {
      "id": "pt.ine.add.PTCONT.4390393",
      "street": "R S CRUZ",
      "house": "12",
      "postcode": "4620-111",
      "city": "COVAS LSD",
      "lon": "-8.327702096849743",
      "lat": "41.28685100784479"
    }
  ]
}