{
  "data": {
    "distrito": "Vila Real",
    "concelho": "Sabrosa",
    "freguesia": "União das freguesias de Provesende, Gouvães do Douro e São Cristóvão do Douro",
    "OBJECTID": 6,
    "BGRI2021": "17101600110",
    "DT21": "17",
    "DTMN21": "1710",
    "DTMNFR21": "171016",
    "DTMNFRSEC21": "171016001",
    "SECNUM21": "001",
    "SSNUM21": "10",
    "SECSSNUM21": "00110",
    "OBJECTID_1": 185320,
    "DT": "17",
    "CC": "10",
    "fr": "16",
    "SEC": "001",
    "SS": "10"
  },
  "addresses": [
    {
      "id": "pt.ine.add.PTCONT.5290628",
      "street": "R CIMO DO POVO",
      "house": "",
      "postcode": "5085-255",
      "city": "SÃO CRISTOVÃO DO DOURO",
      "lon": "-7.551919471734977",
      "lat": "41.20597838731056"
    },
    {
      "id": "pt.ine.add.PTCONT.5292842",
      "street": "R CARVALHA",
      "house": "2",
      "postcode": "5085-255",
      "city": "SÃO CRISTOVÃO DO DOURO",
      "lon": "-7.548673666629269",
      "lat": "41.206295117980865"
    },
    {
      "id": "pt.ine.add.PTCONT.5300841",
      "street": "R CARVALHA",
      "house": "1",
      "postcode": "5085-255",
      "city": "SÃO CRISTOVÃO DO DOURO",
      "lon": "-7.548578528903949",
      "lat": "41.20626762237259"
    },
    {
      "id": "pt.ine.add.PTCONT.5303901",
      "street": "R CIMO DO POVO",
      "house": "32",
      "postcode": "5085-255",
      "city": "SÃO CRISTOVÃO DO DOURO",
      "lon": "-7.55116896654733",
      "lat": "41.207253200676256"
    },
    {
      "id": "pt.ine.add.PTCONT.5303914",
      "street": "R CIMO DO POVO",
      "house": "",
      "postcode": "5085-255",
      "city": "SÃO CRISTOVÃO DO DOURO",
      "lon": "-7.551334804796017",
      "lat": "41.206029460650825"
    },
    {
      "id": "pt.ine.add.PTCONT.5310353",
      "street": "R CARVALHA",
      "house": "",
      "postcode": "5085-255",
      "city": "SÃO CRISTOVÃO DO DOURO",
      "lon": "-7.548828335688038",
      "lat": "41.20633191981484"
    },
    {
      "id": "pt.ine.add.PTCONT.5310354",
      "street": "R CARVALHA",
      "house": "18",
      "postcode": "5085-255",
      "city": "SÃO CRISTOVÃO DO DOURO",
      "lon": "-7.549554634360049",
      "lat": "41.20644365348299"
    },
    {
      "id": "pt.ine.add.PTCONT.5314482",
      "street": "R CARVALHA",
      "house": "",
      "postcode": "5085-255",
      "city": "SÃO CRISTOVÃO DO DOURO",
      "lon": "-7.549745550996771",
      "lat": "41.206426612260564"
    },
    {
      "id": "pt.ine.add.PTCONT.5330144",
      "street": "R CARVALHA",
      "house": "",
      "postcode": "5085-255",
      "city": "SÃO CRISTOVÃO DO DOURO",
      "lon": "-7.550507459547089",
      "lat": "41.206556528802224"
    },
    {
      "id": "pt.ine.add.PTCONT.5330861",
      "street": "R CARVALHA",
      "house": "13",
      "postcode": "5085-255",
      "city": "SÃO CRISTOVÃO DO DOURO",
      "lon": "-7.549387962315352",
      "lat": "41.206415796034086"
    },
    {
      "id": "pt.ine.add.PTCONT.5354785",
      "street": "R CARVALHA",
      "house": "16",
      "postcode": "5085-255",
      "city": "SÃO CRISTOVÃO DO DOURO",
      "lon": "-7.549471258315872",
      "lat": "41.20643422671059"
    },
    {
      "id": "pt.ine.add.PTCONT.5370909",
      "street": "R CRUZEIRO",
      "house": "30",
      "postcode": "5085-255",
      "city": "SÃO CRISTOVÃO DO DOURO",
      "lon": "-7.551155687857915",
      "lat": "41.20740620579763"
    },
    {
      "id": "pt.ine.add.PTCONT.5381513",
      "street": "R CARVALHA",
      "house": "",
      "postcode": "5085-255",
      "city": "SÃO CRISTOVÃO DO DOURO",
      "lon": "-7.549996158913487",
      "lat": "41.20640086873288"
    },
    {
      "id": "pt.ine.add.PTCONT.5387986",
      "street": "R CARVALHA",
      "house": "23",
      "postcode": "5085-255",
      "city": "SÃO CRISTOVÃO DO DOURO",
      "lon": "-7.550091377360863",
      "lat": "41.20641935932959"
    },
    {
      "id": "pt.ine.add.PTCONT.5394679",
      "street": "R CARVALHA",
      "house": "20",
      "postcode": "5085-255",
      "city": "SÃO CRISTOVÃO DO DOURO",
      "lon": "-7.549888858337186",
      "lat": "41.20640032536852"
    },
    {
      "id": "pt.ine.add.PTCONT.5394680",
      "street": "R CRUZEIRO",
      "house": "",
      "postcode": "5085-255",
      "city": "SÃO CRISTOVÃO DO DOURO",
      "lon": "-7.551097032950681",
      "lat": "41.20729785839324"
    },
    {
      "id": "pt.ine.add.PTCONT.5398611",
      "street": "R CARVALHA",
      "house": "14",
      "postcode": "5085-255",
      "city": "SÃO CRISTOVÃO DO DOURO",
      "lon": "-7.549221370456477",
      "lat": "41.20637893450108"
    },
    {
      "id": "pt.ine.add.PTCONT.5403017",
      "street": "R CARVALHA",
      "house": "",
      "postcode": "5085-255",
      "city": "SÃO CRISTOVÃO DO DOURO",
      "lon": "-7.550697418204001",
      "lat": "41.206647532149525"
    },
    {
      "id": "pt.ine.add.PTCONT.5412760",
      "street": "R CARVALHA",
      "house": "29",
      "postcode": "5085-255",
      "city": "SÃO CRISTOVÃO DO DOURO",
      "lon": "-7.551037181306973",
      "lat": "41.20732456863635"
    },
    {
      "id": "pt.ine.add.PTCONT.5423613",
      "street": "R CARVALHA",
      "house": "",
      "postcode": "5085-255",
      "city": "SÃO CRISTOVÃO DO DOURO",
      "lon": "-7.550756071881302",
      "lat": "41.20675587976148"
    },
    {
      "id": "pt.ine.add.PTCONT.5425453",
      "street": "R CARVALHA",
      "house": "20",
      "postcode": "5085-255",
      "city": "SÃO CRISTOVÃO DO DOURO",
      "lon": "-7.549888858337186",
      "lat": "41.20640032536852"
    }
  ]
}