{
  "data": {
    "distrito": "Vila Real",
    "concelho": "Sabrosa",
    "freguesia": "União das freguesias de Provesende, Gouvães do Douro e São Cristóvão do Douro",
    "OBJECTID": 16,
    "BGRI2021": "17101600121",
    "DT21": "17",
    "DTMN21": "1710",
    "DTMNFR21": "171016",
    "DTMNFRSEC21": "171016001",
    "SECNUM21": "001",
    "SSNUM21": "21",
    "SECSSNUM21": "00121",
    "OBJECTID_1": 185318,
    "DT": "17",
    "CC": "10",
    "fr": "16",
    "SEC": "001",
    "SS": "21"
  },
  "addresses": [
    {
      "id": "pt.ine.add.PTCONT.5299639",
      "street": "R VALADO",
      "house": "",
      "postcode": "5060-261",
      "city": "PROVESENDE",
      "lon": "-7.5701694266931705",
      "lat": "41.22171841749109"
    },
    {
      "id": "pt.ine.add.PTCONT.5306163",
      "street": "R VALADO",
      "house": "",
      "postcode": "5060-261",
      "city": "PROVESENDE",
      "lon": "-7.568287433957646",
      "lat": "41.220070431700364"
    },
    {
      "id": "pt.ine.add.PTCONT.5324550",
      "street": "R VALADO",
      "house": "",
      "postcode": "5060-261",
      "city": "PROVESENDE",
      "lon": "-7.569209138946107",
      "lat": "41.22105641017306"
    },
    {
      "id": "pt.ine.add.PTCONT.5354265",
      "street": "R VALADO",
      "house": "",
      "postcode": "5060-261",
      "city": "PROVESENDE",
      "lon": "-7.566394576854194",
      "lat": "41.219691958272186"
    },
    {
      "id": "pt.ine.add.PTCONT.5354266",
      "street": "R VALADO",
      "house": "",
      "postcode": "5060-261",
      "city": "PROVESENDE",
      "lon": "-7.569111019226778",
      "lat": "41.2199844260667"
    },
    {
      "id": "pt.ine.add.PTCONT.5355759",
      "street": "R VALADO",
      "house": "",
      "postcode": "5060-261",
      "city": "PROVESENDE",
      "lon": "-7.56659636498081",
      "lat": "41.21980100195854"
    },
    {
      "id": "pt.ine.add.PTCONT.5361081",
      "street": "R VALADO",
      "house": "",
      "postcode": "5060-261",
      "city": "PROVESENDE",
      "lon": "-7.567297985528575",
      "lat": "41.220029557335344"
    },
    {
      "id": "pt.ine.add.PTCONT.5363225",
      "street": "R DO VALADO",
      "house": "",
      "postcode": "5060-255",
      "city": "PROVESENDE",
      "lon": "-7.569635555581158",
      "lat": "41.22000500240406"
    },
    {
      "id": "pt.ine.add.PTCONT.5363323",
      "street": "R VALADO",
      "house": "",
      "postcode": "5060-261",
      "city": "PROVESENDE",
      "lon": "-7.564902113328641",
      "lat": "41.21852305756878"
    },
    {
      "id": "pt.ine.add.PTCONT.5368813",
      "street": "R VALADO",
      "house": "",
      "postcode": "5060-261",
      "city": "PROVESENDE",
      "lon": "-7.568834814244809",
      "lat": "41.22020817875101"
    },
    {
      "id": "pt.ine.add.PTCONT.5370847",
      "street": "R VALADO",
      "house": "8",
      "postcode": "5060-261",
      "city": "PROVESENDE",
      "lon": "-7.569970453973572",
      "lat": "41.2198895856258"
    },
    {
      "id": "pt.ine.add.PTCONT.5385930",
      "street": "R VALADO",
      "house": "",
      "postcode": "5060-261",
      "city": "PROVESENDE",
      "lon": "-7.56485667526854",
      "lat": "41.21826171056395"
    },
    {
      "id": "pt.ine.add.PTCONT.5391613",
      "street": "R VALADO",
      "house": "6",
      "postcode": "5060-261",
      "city": "PROVESENDE",
      "lon": "-7.567798206782939",
      "lat": "41.220104047959516"
    },
    {
      "id": "pt.ine.add.PTCONT.5411440",
      "street": "R VALADO",
      "house": "4",
      "postcode": "5060-261",
      "city": "PROVESENDE",
      "lon": "-7.565716345592167",
      "lat": "41.219517538030644"
    },
    {
      "id": "pt.ine.add.PTCONT.5415439",
      "street": "R VALADO",
      "house": "7",
      "postcode": "5060-261",
      "city": "PROVESENDE",
      "lon": "-7.5680137059338355",
      "lat": "41.22000605912957"
    },
    {
      "id": "pt.ine.add.PTCONT.5417667",
      "street": "R VALADO",
      "house": "",
      "postcode": "5060-261",
      "city": "PROVESENDE",
      "lon": "-7.565335689603611",
      "lat": "41.219407611020415"
    },
    {
      "id": "pt.ine.add.PTCONT.5426898",
      "street": "R VALADO",
      "house": "",
      "postcode": "5060-261",
      "city": "PROVESENDE",
      "lon": "-7.566834005767677",
      "lat": "41.21990121737118"
    }
  ]
}