{
  "data": {
    "distrito": "Beja",
    "concelho": "Ourique",
    "freguesia": "Ourique",
    "OBJECTID": 182,
    "BGRI2021": "02120300230",
    "DT21": "02",
    "DTMN21": "0212",
    "DTMNFR21": "021203",
    "DTMNFRSEC21": "021203002",
    "SECNUM21": "002",
    "SSNUM21": "30",
    "SECSSNUM21": "00230",
    "OBJECTID_1": 18266,
    "DT": "02",
    "CC": "12",
    "fr": "03",
    "SEC": "002",
    "SS": "30"
  },
  "addresses": [
    {
      "id": "pt.ine.add.PTCONT.359004",
      "street": "R NOVA DOS CASTANHEIROS",
      "house": "16",
      "postcode": "7670-297",
      "city": "OURIQUE",
      "lon": "-8.220731590105382",
      "lat": "37.651119952010326"
    },
    {
      "id": "pt.ine.add.PTCONT.369419",
      "street": "MTE NOVO DA PALMEIRA",
      "house": "",
      "postcode": "7670-207",
      "city": "OURIQUE",
      "lon": "-8.213358804696343",
      "lat": "37.64962913196711"
    },
    {
      "id": "pt.ine.add.PTCONT.372870",
      "street": "CERCA DA FONTE",
      "house": "",
      "postcode": "7670-297",
      "city": "OURIQUE",
      "lon": "-8.220635129758302",
      "lat": "37.65084929451785"
    },
    {
      "id": "pt.ine.add.PTCONT.402869",
      "street": "MTE NOVO DO MOINHO",
      "house": "",
      "postcode": "7670-207",
      "city": "OURIQUE",
      "lon": "-8.209672954126658",
      "lat": "37.64663130746641"
    },
    {
      "id": "pt.ine.add.PTCONT.410715",
      "street": "MTE JULGADA",
      "house": "",
      "postcode": "7670-207",
      "city": "OURIQUE",
      "lon": "-8.210582066250943",
      "lat": "37.64915346715747"
    },
    {
      "id": "pt.ine.add.PTCONT.418999",
      "street": "R NOVA DOS CASTANHEIROS",
      "house": "14",
      "postcode": "7670-297",
      "city": "OURIQUE",
      "lon": "-8.220833523543051",
      "lat": "37.65107482711728"
    },
    {
      "id": "pt.ine.add.PTCONT.430657",
      "street": "MTE CALV√ÅRIO",
      "house": "",
      "postcode": "7670-206",
      "city": "OURIQUE",
      "lon": "-8.217440452761833",
      "lat": "37.65163547650385"
    },
    {
      "id": "pt.ine.add.PTCONT.430689",
      "street": "MTE NOVO DOS CASTANHEIROS",
      "house": "",
      "postcode": "7670-202",
      "city": "OURIQUE",
      "lon": "-8.215836063304845",
      "lat": "37.65309003345504"
    },
    {
      "id": "pt.ine.add.PTCONT.446478",
      "street": "MTE LARANJEIRA BRAVA",
      "house": "",
      "postcode": "7670-206",
      "city": "OURIQUE",
      "lon": "-8.217042720642613",
      "lat": "37.65064467913108"
    },
    {
      "id": "pt.ine.add.PTCONT.449134",
      "street": "",
      "house": "",
      "postcode": "7670-206",
      "city": "OURIQUE",
      "lon": "-8.219082727184327",
      "lat": "37.65089548523476"
    }
  ]
}