{
  "data": {
    "distrito": "Setúbal",
    "concelho": "Montijo",
    "freguesia": "União das freguesias de Montijo e Afonsoeiro",
    "OBJECTID": 190,
    "BGRI2021": "15071001107",
    "DT21": "15",
    "DTMN21": "1507",
    "DTMNFR21": "150710",
    "DTMNFRSEC21": "150710011",
    "SECNUM21": "011",
    "SSNUM21": "07",
    "SECSSNUM21": "01107",
    "OBJECTID_1": 164955,
    "DT": "15",
    "CC": "07",
    "fr": "10",
    "SEC": "011",
    "SS": "07"
  },
  "addresses": [
    {
      "id": "pt.ine.add.PTCONT.4723391",
      "street": "R BENTO DE JESUS CARAÇA",
      "house": "362",
      "postcode": "2870-134",
      "city": "MONTIJO",
      "lon": "-8.985328831181103",
      "lat": "38.70787600572646"
    },
    {
      "id": "pt.ine.add.PTCONT.4727291",
      "street": "AV INF D HENRIQUE",
      "house": "619",
      "postcode": "2870-157",
      "city": "MONTIJO",
      "lon": "-8.98575683656068",
      "lat": "38.70809808495703"
    },
    {
      "id": "pt.ine.add.PTCONT.4768349",
      "street": "R BENTO DE JESUS CARAÇA",
      "house": "280",
      "postcode": "2870-134",
      "city": "MONTIJO",
      "lon": "-8.98453756969647",
      "lat": "38.708043914046165"
    },
    {
      "id": "pt.ine.add.PTCONT.4770892",
      "street": "AV INF D HENRIQUE",
      "house": "",
      "postcode": "2870-157",
      "city": "MONTIJO",
      "lon": "-8.984586008840374",
      "lat": "38.70825074495891"
    },
    {
      "id": "pt.ine.add.PTCONT.4795458",
      "street": "R BENTO DE JESUS CARAÇA",
      "house": "390",
      "postcode": "2870-134",
      "city": "MONTIJO",
      "lon": "-8.985696363843088",
      "lat": "38.70784630236117"
    },
    {
      "id": "pt.ine.add.PTCONT.4827981",
      "street": "AV INF D HENRIQUE",
      "house": "581",
      "postcode": "2870-157",
      "city": "MONTIJO",
      "lon": "-8.985251250122836",
      "lat": "38.708119786755404"
    },
    {
      "id": "pt.ine.add.PTCONT.4829716",
      "street": "AV INF D HENRIQUE",
      "house": "563",
      "postcode": "2870-157",
      "city": "MONTIJO",
      "lon": "-8.985079031947283",
      "lat": "38.70813905773165"
    },
    {
      "id": "pt.ine.add.PTCONT.4888785",
      "street": "R BENTO JESUS CARACA",
      "house": "",
      "postcode": "2870-134",
      "city": "MONTIJO",
      "lon": "-8.984870082865822",
      "lat": "38.707969428353884"
    },
    {
      "id": "pt.ine.add.PTCONT.5071426",
      "street": "R CIDADE DO PORTO",
      "house": "275",
      "postcode": "2870-145",
      "city": "MONTIJO",
      "lon": "-8.984434644705109",
      "lat": "38.708089703419645"
    },
    {
      "id": "pt.ine.add.PTCONT.5073300",
      "street": "AV INF D HENRIQUE",
      "house": "607",
      "postcode": "2870-157",
      "city": "MONTIJO",
      "lon": "-8.985572802231",
      "lat": "38.70809041887371"
    },
    {
      "id": "pt.ine.add.PTCONT.5079499",
      "street": "R BENTO DE JESUS CARAÇA",
      "house": "374",
      "postcode": "2870-134",
      "city": "MONTIJO",
      "lon": "-8.985466669336196",
      "lat": "38.70786599300011"
    },
    {
      "id": "pt.ine.add.PTCONT.5100802",
      "street": "R BENTO JESUS CARACA",
      "house": "306",
      "postcode": "2870-134",
      "city": "MONTIJO",
      "lon": "-8.984709574093658",
      "lat": "38.70800662945452"
    }
  ]
}