{
  "data": {
    "distrito": "Setúbal",
    "concelho": "Montijo",
    "freguesia": "União das freguesias de Montijo e Afonsoeiro",
    "OBJECTID": 323,
    "BGRI2021": "15071002908",
    "DT21": "15",
    "DTMN21": "1507",
    "DTMNFR21": "150710",
    "DTMNFRSEC21": "150710029",
    "SECNUM21": "029",
    "SSNUM21": "08",
    "SECSSNUM21": "02908",
    "OBJECTID_1": 164844,
    "DT": "15",
    "CC": "07",
    "fr": "10",
    "SEC": "029",
    "SS": "08"
  },
  "addresses": [
    {
      "id": "pt.ine.add.PTCONT.4747962",
      "street": "R CORTE DAS CHEIRAS",
      "house": "",
      "postcode": "2870-424",
      "city": "MONTIJO",
      "lon": "-8.969727454787758",
      "lat": "38.71866314027443"
    },
    {
      "id": "pt.ine.add.PTCONT.4797031",
      "street": "R CORTE DAS CHEIRAS",
      "house": "",
      "postcode": "2870-424",
      "city": "MONTIJO",
      "lon": "-8.969259380196076",
      "lat": "38.717963866566436"
    },
    {
      "id": "pt.ine.add.PTCONT.4814354",
      "street": "R CORTE DAS CHEIRAS",
      "house": "",
      "postcode": "2870-424",
      "city": "MONTIJO",
      "lon": "-8.969522028454312",
      "lat": "38.71780885224138"
    },
    {
      "id": "pt.ine.add.PTCONT.4815015",
      "street": "CASA LILI",
      "house": "",
      "postcode": "2870-424",
      "city": "MONTIJO",
      "lon": "-8.969053481869485",
      "lat": "38.718055418706626"
    },
    {
      "id": "pt.ine.add.PTCONT.4817838",
      "street": "R CORTE DAS CHEIRAS",
      "house": "",
      "postcode": "2870-424",
      "city": "MONTIJO",
      "lon": "-8.969570746523257",
      "lat": "38.718042711123694"
    },
    {
      "id": "pt.ine.add.PTCONT.4853288",
      "street": "R ALM PINHEIRO DE AZEVEDO",
      "house": "",
      "postcode": "2870-423",
      "city": "MONTIJO",
      "lon": "-8.9688361907951",
      "lat": "38.718156059900686"
    },
    {
      "id": "pt.ine.add.PTCONT.4946627",
      "street": "R CORTE DAS CHEIRAS",
      "house": "",
      "postcode": "2870-424",
      "city": "MONTIJO",
      "lon": "-8.969172650670627",
      "lat": "38.71841488568636"
    },
    {
      "id": "pt.ine.add.PTCONT.4956558",
      "street": "R CORTE DAS CHEIRAS",
      "house": "3",
      "postcode": "2870-424",
      "city": "MONTIJO",
      "lon": "-8.96976436185538",
      "lat": "38.71887005962579"
    },
    {
      "id": "pt.ine.add.PTCONT.4972338",
      "street": "R CORTE DAS CHEIRAS",
      "house": "",
      "postcode": "2870-424",
      "city": "MONTIJO",
      "lon": "-8.969266412228711",
      "lat": "38.71856735076363"
    },
    {
      "id": "pt.ine.add.PTCONT.5049176",
      "street": "R CORTE DAS CHEIRAS",
      "house": "",
      "postcode": "2870-424",
      "city": "MONTIJO",
      "lon": "-8.96962077802027",
      "lat": "38.71937553370125"
    },
    {
      "id": "pt.ine.add.PTCONT.5067595",
      "street": "R CORTE DAS CHEIRAS",
      "house": "",
      "postcode": "2870-424",
      "city": "MONTIJO",
      "lon": "-8.9696891828163",
      "lat": "38.71833912696843"
    },
    {
      "id": "pt.ine.add.PTCONT.5072412",
      "street": "R CORTE DAS CHEIRAS",
      "house": "",
      "postcode": "2870-424",
      "city": "MONTIJO",
      "lon": "-8.969379704542211",
      "lat": "38.71842241282233"
    },
    {
      "id": "pt.ine.add.PTCONT.5116102",
      "street": "R CORTE DAS CHEIRAS",
      "house": "",
      "postcode": "2870-424",
      "city": "MONTIJO",
      "lon": "-8.969652906291357",
      "lat": "38.71818625092571"
    }
  ]
}