{
  "data": {
    "distrito": "Viseu",
    "concelho": "Armamar",
    "freguesia": "Aldeias",
    "OBJECTID": 30,
    "BGRI2021": "18010100106",
    "DT21": "18",
    "DTMN21": "1801",
    "DTMNFR21": "180101",
    "DTMNFRSEC21": "180101001",
    "SECNUM21": "001",
    "SSNUM21": "06",
    "SECSSNUM21": "00106",
    "OBJECTID_1": 188548,
    "DT": "18",
    "CC": "01",
    "fr": "01",
    "SEC": "001",
    "SS": "06"
  },
  "addresses": [
    {
      "id": "pt.ine.add.PTCONT.5439763",
      "street": "R TERREIRO",
      "house": "14",
      "postcode": "5110-012",
      "city": "ALDEIAS AMM",
      "lon": "-7.718892701064805",
      "lat": "41.1121723016051"
    },
    {
      "id": "pt.ine.add.PTCONT.5442624",
      "street": "QLHA SEIXO",
      "house": "9",
      "postcode": "5110-012",
      "city": "ALDEIAS AMM",
      "lon": "-7.721235839883788",
      "lat": "41.11254087903784"
    },
    {
      "id": "pt.ine.add.PTCONT.5447402",
      "street": "R TERREIRO",
      "house": "8",
      "postcode": "5110-012",
      "city": "ALDEIAS AMM",
      "lon": "-7.718558383350389",
      "lat": "41.112324174434185"
    },
    {
      "id": "pt.ine.add.PTCONT.5460486",
      "street": "QLHA SEIXO",
      "house": "8",
      "postcode": "5110-012",
      "city": "ALDEIAS AMM",
      "lon": "-7.721057368491325",
      "lat": "41.1125222320256"
    },
    {
      "id": "pt.ine.add.PTCONT.5483220",
      "street": "QLHA SEIXO",
      "house": "2",
      "postcode": "5110-012",
      "city": "ALDEIAS AMM",
      "lon": "-7.721355177179182",
      "lat": "41.11249628345863"
    },
    {
      "id": "pt.ine.add.PTCONT.5490625",
      "street": "BR SEIXO",
      "house": "6",
      "postcode": "5110-012",
      "city": "ALDEIAS AMM",
      "lon": "-7.72092426683424",
      "lat": "41.11286392414822"
    },
    {
      "id": "pt.ine.add.PTCONT.5495356",
      "street": "R BAIUCA",
      "house": "",
      "postcode": "5110-012",
      "city": "ALDEIAS AMM",
      "lon": "-7.721912160710917",
      "lat": "41.111003537522805"
    },
    {
      "id": "pt.ine.add.PTCONT.5497561",
      "street": "TV EIRA POÇO",
      "house": "5",
      "postcode": "5110-012",
      "city": "ALDEIAS AMM",
      "lon": "-7.719129906656655",
      "lat": "41.11231722501371"
    },
    {
      "id": "pt.ine.add.PTCONT.5507210",
      "street": "QLHA SEIXO",
      "house": "3",
      "postcode": "5110-012",
      "city": "ALDEIAS AMM",
      "lon": "-7.7209869484885765",
      "lat": "41.11235990045368"
    },
    {
      "id": "pt.ine.add.PTCONT.5516561",
      "street": "R EIRA POÇO",
      "house": "11",
      "postcode": "5110-012",
      "city": "ALDEIAS AMM",
      "lon": "-7.719429354270947",
      "lat": "41.11203015890781"
    },
    {
      "id": "pt.ine.add.PTCONT.5544152",
      "street": "R EIRA POÇO",
      "house": "13",
      "postcode": "5110-012",
      "city": "ALDEIAS AMM",
      "lon": "-7.719382297531536",
      "lat": "41.111939945656886"
    },
    {
      "id": "pt.ine.add.PTCONT.5547436",
      "street": "QLHA SEIXO",
      "house": "6",
      "postcode": "5110-012",
      "city": "ALDEIAS AMM",
      "lon": "-7.721056918089767",
      "lat": "41.11259426583386"
    },
    {
      "id": "pt.ine.add.PTCONT.5552152",
      "street": "BR SEIXO",
      "house": "10",
      "postcode": "5110-012",
      "city": "ALDEIAS AMM",
      "lon": "-7.720890633825988",
      "lat": "41.11253064001269"
    },
    {
      "id": "pt.ine.add.PTCONT.5559244",
      "street": "R TERREIRO",
      "house": "10",
      "postcode": "5110-012",
      "city": "ALDEIAS AMM",
      "lon": "-7.718618194298086",
      "lat": "41.112279367490174"
    },
    {
      "id": "pt.ine.add.PTCONT.5561377",
      "street": "ALDEIAS",
      "house": "",
      "postcode": "5110-012",
      "city": "ALDEIAS AMM",
      "lon": "-7.721793107482247",
      "lat": "41.11100311255865"
    },
    {
      "id": "pt.ine.add.PTCONT.5567321",
      "street": "R TERREIRO",
      "house": "18",
      "postcode": "5110-012",
      "city": "ALDEIAS AMM",
      "lon": "-7.7189883979587774",
      "lat": "41.11210061019704"
    },
    {
      "id": "pt.ine.add.PTCONT.5582038",
      "street": "R EIRA POÇO",
      "house": "7",
      "postcode": "5110-012",
      "city": "ALDEIAS AMM",
      "lon": "-7.719357751648976",
      "lat": "41.112056915074284"
    },
    {
      "id": "pt.ine.add.PTCONT.5583865",
      "street": "R TERREIRO",
      "house": "4",
      "postcode": "5110-012",
      "city": "ALDEIAS AMM",
      "lon": "-7.718498402373047",
      "lat": "41.11239599401664"
    },
    {
      "id": "pt.ine.add.PTCONT.5583872",
      "street": "TV EIRA POÇO",
      "house": "4",
      "postcode": "5110-012",
      "city": "ALDEIAS AMM",
      "lon": "-7.7190817753053755",
      "lat": "41.11239809190532"
    },
    {
      "id": "pt.ine.add.PTCONT.5585740",
      "street": "TV EIRA POÇO",
      "house": "3",
      "postcode": "5110-012",
      "city": "ALDEIAS AMM",
      "lon": "-7.719213697962643",
      "lat": "41.11224549064063"
    },
    {
      "id": "pt.ine.add.PTCONT.5585741",
      "street": "R EIRA POÇO",
      "house": "",
      "postcode": "5110-012",
      "city": "ALDEIAS AMM",
      "lon": "-7.719167206943534",
      "lat": "41.11206523505977"
    },
    {
      "id": "pt.ine.add.PTCONT.5589449",
      "street": "R CAPELA",
      "house": "2",
      "postcode": "5110-012",
      "city": "ALDEIAS AMM",
      "lon": "-7.719144357450303",
      "lat": "41.11191207768683"
    },
    {
      "id": "pt.ine.add.PTCONT.5596878",
      "street": "BR SEIXO",
      "house": "9",
      "postcode": "5110-012",
      "city": "ALDEIAS AMM",
      "lon": "-7.720698059344469",
      "lat": "41.11286311464176"
    },
    {
      "id": "pt.ine.add.PTCONT.5598733",
      "street": "R EIRA POÇO",
      "house": "9",
      "postcode": "5110-012",
      "city": "ALDEIAS AMM",
      "lon": "-7.719452487059022",
      "lat": "41.112138295100195"
    },
    {
      "id": "pt.ine.add.PTCONT.5611587",
      "street": "R EIRA POÇO",
      "house": "1",
      "postcode": "5110-012",
      "city": "ALDEIAS AMM",
      "lon": "-7.719298619878041",
      "lat": "41.11199367170925"
    },
    {
      "id": "pt.ine.add.PTCONT.5619168",
      "street": "TV EIRA POÇO",
      "house": "2",
      "postcode": "5110-012",
      "city": "ALDEIAS AMM",
      "lon": "-7.718939417761705",
      "lat": "41.112316540394275"
    },
    {
      "id": "pt.ine.add.PTCONT.5622803",
      "street": "QLHA SEIXO",
      "house": "5",
      "postcode": "5110-012",
      "city": "ALDEIAS AMM",
      "lon": "-7.721344115499171",
      "lat": "41.11236117751048"
    },
    {
      "id": "pt.ine.add.PTCONT.5628559",
      "street": "R EIRA POÇO",
      "house": "6",
      "postcode": "5110-012",
      "city": "ALDEIAS AMM",
      "lon": "-7.719333601421804",
      "lat": "41.11211085491055"
    },
    {
      "id": "pt.ine.add.PTCONT.5630505",
      "street": "R EIRA POÇO",
      "house": "8",
      "postcode": "5110-012",
      "city": "ALDEIAS AMM",
      "lon": "-7.719261093956112",
      "lat": "41.112281678609264"
    },
    {
      "id": "pt.ine.add.PTCONT.5632224",
      "street": "R EIRA POÇO",
      "house": "10",
      "postcode": "5110-012",
      "city": "ALDEIAS AMM",
      "lon": "-7.719380375571442",
      "lat": "41.112246089302246"
    },
    {
      "id": "pt.ine.add.PTCONT.5641447",
      "street": "R TERREIRO",
      "house": "6",
      "postcode": "5110-012",
      "city": "ALDEIAS AMM",
      "lon": "-7.718688381874933",
      "lat": "41.11247771737811"
    },
    {
      "id": "pt.ine.add.PTCONT.5641921",
      "street": "R TERREIRO",
      "house": "12",
      "postcode": "5110-012",
      "city": "ALDEIAS AMM",
      "lon": "-7.71877330610107",
      "lat": "41.11222589885501"
    },
    {
      "id": "pt.ine.add.PTCONT.5641928",
      "street": "QLHA SEIXO",
      "house": "4",
      "postcode": "5110-012",
      "city": "ALDEIAS AMM",
      "lon": "-7.72129559295287",
      "lat": "41.112505074924215"
    },
    {
      "id": "pt.ine.add.PTCONT.5645662",
      "street": "BR SEIXO",
      "house": "7",
      "postcode": "5110-012",
      "city": "ALDEIAS AMM",
      "lon": "-7.720661553404365",
      "lat": "41.11298904593451"
    },
    {
      "id": "pt.ine.add.PTCONT.5647833",
      "street": "QLHA SEIXO",
      "house": "11",
      "postcode": "5110-012",
      "city": "ALDEIAS AMM",
      "lon": "-7.721211522172416",
      "lat": "41.112621831948026"
    },
    {
      "id": "pt.ine.add.PTCONT.5654882",
      "street": "BR SEIXO",
      "house": "8",
      "postcode": "5110-012",
      "city": "ALDEIAS AMM",
      "lon": "-7.720854241099006",
      "lat": "41.11263856292502"
    },
    {
      "id": "pt.ine.add.PTCONT.5658641",
      "street": "TV EIRA POÇO",
      "house": "1",
      "postcode": "5110-012",
      "city": "ALDEIAS AMM",
      "lon": "-7.719190395867331",
      "lat": "41.11216436707765"
    },
    {
      "id": "pt.ine.add.PTCONT.5667483",
      "street": "QLHA SEIXO",
      "house": "13",
      "postcode": "5110-012",
      "city": "ALDEIAS AMM",
      "lon": "-7.721175129918522",
      "lat": "41.11272975496226"
    }
  ]
}