{
  "data": {
    "distrito": "Santarém",
    "concelho": "Abrantes",
    "freguesia": "União das freguesias de Abrantes (São Vicente e São João) e Alferrarede",
    "OBJECTID": 857,
    "BGRI2021": "14012001407",
    "DT21": "14",
    "DTMN21": "1401",
    "DTMNFR21": "140120",
    "DTMNFRSEC21": "140120014",
    "SECNUM21": "014",
    "SSNUM21": "07",
    "SECSSNUM21": "01407",
    "OBJECTID_1": 147162,
    "DT": "14",
    "CC": "01",
    "fr": "20",
    "SEC": "014",
    "SS": "07"
  },
  "addresses": [
    {
      "id": "pt.ine.add.PTCONT.4401919",
      "street": "R AZINHAGA",
      "house": "153",
      "postcode": "2200-008",
      "city": "ABRANTES",
      "lon": "-8.228417569873272",
      "lat": "39.47338276693938"
    },
    {
      "id": "pt.ine.add.PTCONT.4429204",
      "street": "R RODRIGO",
      "house": "9",
      "postcode": "2200-015",
      "city": "ABRANTES",
      "lon": "-8.2283711447114",
      "lat": "39.47342784005964"
    },
    {
      "id": "pt.ine.add.PTCONT.4441677",
      "street": "R S BENTO",
      "house": "",
      "postcode": "2200-013",
      "city": "ABRANTES",
      "lon": "-8.227374757938438",
      "lat": "39.475707426636504"
    },
    {
      "id": "pt.ine.add.PTCONT.4443679",
      "street": "R JOÃO PEDRO ALVES",
      "house": "95",
      "postcode": "2200-018",
      "city": "ABRANTES",
      "lon": "-8.227536382629014",
      "lat": "39.47490567133495"
    },
    {
      "id": "pt.ine.add.PTCONT.4463243",
      "street": "R NSA SRA DE FÁTIMA",
      "house": "31",
      "postcode": "2200-012",
      "city": "ABRANTES",
      "lon": "-8.22812764136509",
      "lat": "39.47383335498645"
    },
    {
      "id": "pt.ine.add.PTCONT.4467014",
      "street": "R NSA SRA DE FÁTIMA",
      "house": "13",
      "postcode": "2200-012",
      "city": "ABRANTES",
      "lon": "-8.228231930196339",
      "lat": "39.47360809433646"
    },
    {
      "id": "pt.ine.add.PTCONT.4474220",
      "street": "R S BENTO",
      "house": "",
      "postcode": "2200-013",
      "city": "ABRANTES",
      "lon": "-8.227804064857693",
      "lat": "39.4751846710865"
    },
    {
      "id": "pt.ine.add.PTCONT.4484907",
      "street": "LG NSA SRA FATIMA",
      "house": "11",
      "postcode": "2200-003",
      "city": "ABRANTES",
      "lon": "-8.227976766964764",
      "lat": "39.47398659742682"
    },
    {
      "id": "pt.ine.add.PTCONT.4484908",
      "street": "LG NSA SRA FATIMA",
      "house": "11",
      "postcode": "2200-003",
      "city": "ABRANTES",
      "lon": "-8.227976766964764",
      "lat": "39.47398659742682"
    },
    {
      "id": "pt.ine.add.PTCONT.4498198",
      "street": "R NSA SRA DE FÁTIMA",
      "house": "43",
      "postcode": "2200-012",
      "city": "ABRANTES",
      "lon": "-8.228057972261283",
      "lat": "39.47387844696844"
    },
    {
      "id": "pt.ine.add.PTCONT.4498199",
      "street": "R NSA SRA DE FÁTIMA",
      "house": "1",
      "postcode": "2200-012",
      "city": "ABRANTES",
      "lon": "-8.228301537543608",
      "lat": "39.47351796721947"
    },
    {
      "id": "pt.ine.add.PTCONT.4501541",
      "street": "R S BENTO",
      "house": "",
      "postcode": "2200-013",
      "city": "ABRANTES",
      "lon": "-8.227734394198478",
      "lat": "39.475229762866"
    },
    {
      "id": "pt.ine.add.PTCONT.4517951",
      "street": "R ASSOCIAÇÃO",
      "house": "12",
      "postcode": "2200-007",
      "city": "ABRANTES",
      "lon": "-8.228581171610747",
      "lat": "39.47404014487809"
    },
    {
      "id": "pt.ine.add.PTCONT.4522089",
      "street": "R NSA SRA DE FÁTIMA",
      "house": "37",
      "postcode": "2200-012",
      "city": "ABRANTES",
      "lon": "-8.228069545008468",
      "lat": "39.47384240945727"
    },
    {
      "id": "pt.ine.add.PTCONT.4528159",
      "street": "LG S BENTO",
      "house": "",
      "postcode": "2200-004",
      "city": "ABRANTES",
      "lon": "-8.227281890978544",
      "lat": "39.475788564992214"
    },
    {
      "id": "pt.ine.add.PTCONT.4538437",
      "street": "R NSA SRA DE FÁTIMA",
      "house": "17",
      "postcode": "2200-012",
      "city": "ABRANTES",
      "lon": "-8.22817393210888",
      "lat": "39.47368920490494"
    },
    {
      "id": "pt.ine.add.PTCONT.4552741",
      "street": "R NSA SRA DE FÁTIMA",
      "house": "51",
      "postcode": "2200-012",
      "city": "ABRANTES",
      "lon": "-8.228046411744394",
      "lat": "39.47392349148355"
    },
    {
      "id": "pt.ine.add.PTCONT.4555802",
      "street": "R S BENTO",
      "house": "N 174",
      "postcode": "2200-013",
      "city": "ABRANTES",
      "lon": "-8.227479100664166",
      "lat": "39.475518194740204"
    },
    {
      "id": "pt.ine.add.PTCONT.4561183",
      "street": "R NSA SRA DE FÁTIMA",
      "house": "25",
      "postcode": "2200-012",
      "city": "ABRANTES",
      "lon": "-8.228127543344103",
      "lat": "39.47376129894266"
    },
    {
      "id": "pt.ine.add.PTCONT.4561184",
      "street": "R ASSOCIAÇÃO",
      "house": "50",
      "postcode": "2200-007",
      "city": "ABRANTES",
      "lon": "-8.228546749392512",
      "lat": "39.47436442566734"
    },
    {
      "id": "pt.ine.add.PTCONT.4579890",
      "street": "R S BENTO",
      "house": "160",
      "postcode": "2200-013",
      "city": "ABRANTES",
      "lon": "-8.227537015833475",
      "lat": "39.475374035519124"
    },
    {
      "id": "pt.ine.add.PTCONT.4593275",
      "street": "R JOÃO PEDRO ALVES",
      "house": "111",
      "postcode": "2200-018",
      "city": "ABRANTES",
      "lon": "-8.227420370391895",
      "lat": "39.475058884712794"
    },
    {
      "id": "pt.ine.add.PTCONT.4619516",
      "street": "R JOÃO PEDRO ALVES",
      "house": "155",
      "postcode": "2200-018",
      "city": "ABRANTES",
      "lon": "-8.227211770371515",
      "lat": "39.47550039735143"
    },
    {
      "id": "pt.ine.add.PTCONT.4634019",
      "street": "LG NSA SRA FATIMA",
      "house": "19",
      "postcode": "2200-003",
      "city": "ABRANTES",
      "lon": "-8.227883964095765",
      "lat": "39.47411277130915"
    },
    {
      "id": "pt.ine.add.PTCONT.4638018",
      "street": "LG NSA SRA FATIMA",
      "house": "15",
      "postcode": "2200-003",
      "city": "ABRANTES",
      "lon": "-8.227907134283628",
      "lat": "39.47405871033296"
    },
    {
      "id": "pt.ine.add.PTCONT.4641606",
      "street": "R ASSOCIAÇÃO",
      "house": "99",
      "postcode": "2200-007",
      "city": "ABRANTES",
      "lon": "-8.228604045695958",
      "lat": "39.47376991563761"
    },
    {
      "id": "pt.ine.add.PTCONT.4646610",
      "street": "R S BENTO",
      "house": "",
      "postcode": "2200-013",
      "city": "ABRANTES",
      "lon": "-8.227862089051223",
      "lat": "39.47512157472837"
    }
  ]
}