{
  "data": {
    "distrito": "Santarém",
    "concelho": "Abrantes",
    "freguesia": "União das freguesias de Abrantes (São Vicente e São João) e Alferrarede",
    "OBJECTID": 98,
    "BGRI2021": "14012001434",
    "DT21": "14",
    "DTMN21": "1401",
    "DTMNFR21": "140120",
    "DTMNFRSEC21": "140120014",
    "SECNUM21": "014",
    "SSNUM21": "34",
    "SECSSNUM21": "01434",
    "OBJECTID_1": 147026,
    "DT": "14",
    "CC": "01",
    "fr": "20",
    "SEC": "014",
    "SS": "34"
  },
  "addresses": [
    {
      "id": "pt.ine.add.PTCONT.4399996",
      "street": "R PRINCIPAL",
      "house": "",
      "postcode": "2200-507",
      "city": "ABRANTES",
      "lon": "-8.192689738946406",
      "lat": "39.524512152770285"
    },
    {
      "id": "pt.ine.add.PTCONT.4428112",
      "street": "R PADRE JOSE RUIVO SANTOS",
      "house": "1",
      "postcode": "2200-506",
      "city": "ABRANTES",
      "lon": "-8.1920037413405",
      "lat": "39.52472866884924"
    },
    {
      "id": "pt.ine.add.PTCONT.4429499",
      "street": "R PRINCIPAL",
      "house": "",
      "postcode": "2200-507",
      "city": "ABRANTES",
      "lon": "-8.19258504434101",
      "lat": "39.524485185567215"
    },
    {
      "id": "pt.ine.add.PTCONT.4441179",
      "street": "R PRINCIPAL",
      "house": "29",
      "postcode": "2200-507",
      "city": "ABRANTES",
      "lon": "-8.192631403540291",
      "lat": "39.52429601613422"
    },
    {
      "id": "pt.ine.add.PTCONT.4456802",
      "street": "R PADRE JOSE RUIVO SANTOS",
      "house": "76",
      "postcode": "2200-506",
      "city": "ABRANTES",
      "lon": "-8.192085282323408",
      "lat": "39.52488174545116"
    },
    {
      "id": "pt.ine.add.PTCONT.4463949",
      "street": "R PRINCIPAL",
      "house": "70",
      "postcode": "2200-507",
      "city": "ABRANTES",
      "lon": "-8.193096849238971",
      "lat": "39.52457499196997"
    },
    {
      "id": "pt.ine.add.PTCONT.4475822",
      "street": "R PRINCIPAL",
      "house": "40",
      "postcode": "2200-507",
      "city": "ABRANTES",
      "lon": "-8.192887467328633",
      "lat": "39.524530065137704"
    },
    {
      "id": "pt.ine.add.PTCONT.4522131",
      "street": "LG MANUEL CONSTANCIO",
      "house": "8",
      "postcode": "2200-498",
      "city": "ABRANTES",
      "lon": "-8.19223605526901",
      "lat": "39.52438628727343"
    },
    {
      "id": "pt.ine.add.PTCONT.4538494",
      "street": "R PRINCIPAL",
      "house": "46",
      "postcode": "2200-507",
      "city": "ABRANTES",
      "lon": "-8.192992154382186",
      "lat": "39.524548025133996"
    },
    {
      "id": "pt.ine.add.PTCONT.4548565",
      "street": "R PRINCIPAL",
      "house": "96",
      "postcode": "2200-507",
      "city": "ABRANTES",
      "lon": "-8.193283180922178",
      "lat": "39.5248631176785"
    },
    {
      "id": "pt.ine.add.PTCONT.4555885",
      "street": "R PADRE JOSE RUIVO SANTOS",
      "house": "79",
      "postcode": "2200-506",
      "city": "ABRANTES",
      "lon": "-8.193097120470425",
      "lat": "39.524890234652965"
    },
    {
      "id": "pt.ine.add.PTCONT.4575635",
      "street": "R PRINCIPAL",
      "house": "76",
      "postcode": "2200-507",
      "city": "ABRANTES",
      "lon": "-8.19323652018185",
      "lat": "39.52470101694325"
    },
    {
      "id": "pt.ine.add.PTCONT.4617820",
      "street": "R PADRE JOSE RUIVO SANTOS",
      "house": "",
      "postcode": "2200-506",
      "city": "ABRANTES",
      "lon": "-8.192980748501773",
      "lat": "39.52480923220761"
    },
    {
      "id": "pt.ine.add.PTCONT.4662926",
      "street": "R PRINCIPAL",
      "house": "2",
      "postcode": "2200-507",
      "city": "ABRANTES",
      "lon": "-8.192375640060462",
      "lat": "39.52441323700879"
    }
  ]
}