{
  "data": {
    "distrito": "Santarém",
    "concelho": "Abrantes",
    "freguesia": "União das freguesias de Abrantes (São Vicente e São João) e Alferrarede",
    "OBJECTID": 105,
    "BGRI2021": "14012001439",
    "DT21": "14",
    "DTMN21": "1401",
    "DTMNFR21": "140120",
    "DTMNFRSEC21": "140120014",
    "SECNUM21": "014",
    "SSNUM21": "39",
    "SECSSNUM21": "01439",
    "OBJECTID_1": 147316,
    "DT": "14",
    "CC": "01",
    "fr": "20",
    "SEC": "014",
    "SS": "39"
  },
  "addresses": [
    {
      "id": "pt.ine.add.PTCONT.4393770",
      "street": "R NOVA",
      "house": "48",
      "postcode": "2200-505",
      "city": "ABRANTES",
      "lon": "-8.191514789673846",
      "lat": "39.524152471484555"
    },
    {
      "id": "pt.ine.add.PTCONT.4417799",
      "street": "R COVÃO",
      "house": "265",
      "postcode": "2200-504",
      "city": "ABRANTES",
      "lon": "-8.191073459388141",
      "lat": "39.52489126130998"
    },
    {
      "id": "pt.ine.add.PTCONT.4418492",
      "street": "R COVÃO",
      "house": "137",
      "postcode": "2200-504",
      "city": "ABRANTES",
      "lon": "-8.190353323911332",
      "lat": "39.526035499122365"
    },
    {
      "id": "pt.ine.add.PTCONT.4430558",
      "street": "R BAIXO",
      "house": "54",
      "postcode": "2200-502",
      "city": "ABRANTES",
      "lon": "-8.19136385406887",
      "lat": "39.524458783128665"
    },
    {
      "id": "pt.ine.add.PTCONT.4432874",
      "street": "R NOVA",
      "house": "60",
      "postcode": "2200-505",
      "city": "ABRANTES",
      "lon": "-8.19159623068708",
      "lat": "39.524188458293594"
    },
    {
      "id": "pt.ine.add.PTCONT.4435190",
      "street": "R BAIXO",
      "house": "29",
      "postcode": "2200-502",
      "city": "ABRANTES",
      "lon": "-8.191619619419479",
      "lat": "39.52434156447966"
    },
    {
      "id": "pt.ine.add.PTCONT.4449427",
      "street": "R COVÃO",
      "house": "205",
      "postcode": "2200-504",
      "city": "ABRANTES",
      "lon": "-8.19082945557788",
      "lat": "39.52517059777935"
    },
    {
      "id": "pt.ine.add.PTCONT.4466391",
      "street": "R COVÃO",
      "house": "117",
      "postcode": "2200-504",
      "city": "ABRANTES",
      "lon": "-8.190411409422499",
      "lat": "39.52595440808143"
    },
    {
      "id": "pt.ine.add.PTCONT.4484972",
      "street": "ESTR SARDOAL",
      "house": "550",
      "postcode": "2200-496",
      "city": "ABRANTES",
      "lon": "-8.190003455575475",
      "lat": "39.52486476910086"
    },
    {
      "id": "pt.ine.add.PTCONT.4491606",
      "street": "R COVAO",
      "house": "296",
      "postcode": "2200-504",
      "city": "ABRANTES",
      "lon": "-8.191212774523994",
      "lat": "39.52459396281205"
    },
    {
      "id": "pt.ine.add.PTCONT.4493459",
      "street": "R NOVA",
      "house": "46",
      "postcode": "2200-505",
      "city": "ABRANTES",
      "lon": "-8.19144495624405",
      "lat": "39.52408945797745"
    },
    {
      "id": "pt.ine.add.PTCONT.4497680",
      "street": "R NOVA",
      "house": "40",
      "postcode": "2200-505",
      "city": "ABRANTES",
      "lon": "-8.191189304067132",
      "lat": "39.52434178026913"
    },
    {
      "id": "pt.ine.add.PTCONT.4518014",
      "street": "ESTR SARDOAL",
      "house": "664",
      "postcode": "2200-496",
      "city": "ABRANTES",
      "lon": "-8.190526281970856",
      "lat": "39.52421601249559"
    },
    {
      "id": "pt.ine.add.PTCONT.4542520",
      "street": "R BAIXO",
      "house": "33",
      "postcode": "2200-502",
      "city": "ABRANTES",
      "lon": "-8.191700977448418",
      "lat": "39.524278474932665"
    },
    {
      "id": "pt.ine.add.PTCONT.4550023",
      "street": "R COVÃO",
      "house": "285",
      "postcode": "2200-504",
      "city": "ABRANTES",
      "lon": "-8.191189566671659",
      "lat": "39.524657022975646"
    },
    {
      "id": "pt.ine.add.PTCONT.4563377",
      "street": "R BAIXO",
      "house": "25",
      "postcode": "2200-502",
      "city": "ABRANTES",
      "lon": "-8.191538223503231",
      "lat": "39.52435961929618"
    },
    {
      "id": "pt.ine.add.PTCONT.4567582",
      "street": "R COVÃO",
      "house": "111",
      "postcode": "2200-504",
      "city": "ABRANTES",
      "lon": "-8.19023709344066",
      "lat": "39.526125625657755"
    },
    {
      "id": "pt.ine.add.PTCONT.4567587",
      "street": "R COVÃO",
      "house": "273",
      "postcode": "2200-504",
      "city": "ABRANTES",
      "lon": "-8.19109663745889",
      "lat": "39.524792173435976"
    },
    {
      "id": "pt.ine.add.PTCONT.4569638",
      "street": "R BAIXO",
      "house": "15",
      "postcode": "2200-502",
      "city": "ABRANTES",
      "lon": "-8.191491755706767",
      "lat": "39.52442269121112"
    },
    {
      "id": "pt.ine.add.PTCONT.4575643",
      "street": "LG JOAQUIM RUIVO",
      "house": "2",
      "postcode": "2200-497",
      "city": "ABRANTES",
      "lon": "-8.191270857836141",
      "lat": "39.524512871323125"
    },
    {
      "id": "pt.ine.add.PTCONT.4592800",
      "street": "R NOVA",
      "house": "36",
      "postcode": "2200-505",
      "city": "ABRANTES",
      "lon": "-8.191189169014978",
      "lat": "39.52417965544196"
    },
    {
      "id": "pt.ine.add.PTCONT.4594593",
      "street": "R COVÃO",
      "house": "109",
      "postcode": "2200-504",
      "city": "ABRANTES",
      "lon": "-8.19012076691962",
      "lat": "39.526098661958926"
    },
    {
      "id": "pt.ine.add.PTCONT.4609110",
      "street": "R COVÃO",
      "house": "281",
      "postcode": "2200-504",
      "city": "ABRANTES",
      "lon": "-8.191131483145035",
      "lat": "39.5247381144221"
    },
    {
      "id": "pt.ine.add.PTCONT.4636126",
      "street": "R NOVA",
      "house": "44",
      "postcode": "2200-505",
      "city": "ABRANTES",
      "lon": "-8.191293719812158",
      "lat": "39.524035492138495"
    },
    {
      "id": "pt.ine.add.PTCONT.4636130",
      "street": "R COVÃO",
      "house": "",
      "postcode": "2200-504",
      "city": "ABRANTES",
      "lon": "-8.191027073120837",
      "lat": "39.52505340930481"
    }
  ]
}