{
  "data": {
    "distrito": "Porto",
    "concelho": "Trofa",
    "freguesia": "União das freguesias de Coronado (São Romão e São Mamede)",
    "OBJECTID": 161,
    "BGRI2021": "13181100513",
    "DT21": "13",
    "DTMN21": "1318",
    "DTMNFR21": "131811",
    "DTMNFRSEC21": "131811005",
    "SECNUM21": "005",
    "SSNUM21": "13",
    "SECSSNUM21": "00513",
    "OBJECTID_1": 146426,
    "DT": "13",
    "CC": "18",
    "fr": "11",
    "SEC": "005",
    "SS": "13"
  },
  "addresses": [
    {
      "id": "pt.ine.add.PTCONT.3578846",
      "street": "R VASCO SANTANA",
      "house": "76",
      "postcode": "4745-559",
      "city": "SÃO ROMÃO CORONADO",
      "lon": "-8.552653220967747",
      "lat": "41.28321658447363"
    },
    {
      "id": "pt.ine.add.PTCONT.3681456",
      "street": "R VASCO SANTANA",
      "house": "",
      "postcode": "4745-559",
      "city": "SÃO ROMÃO CORONADO",
      "lon": "-8.553022042056972",
      "lat": "41.28302615241616"
    },
    {
      "id": "pt.ine.add.PTCONT.3835530",
      "street": "R ANTÓNIO SILVA",
      "house": "42",
      "postcode": "4745-550",
      "city": "SÃO ROMÃO CORONADO",
      "lon": "-8.553556873725245",
      "lat": "41.282664033943334"
    },
    {
      "id": "pt.ine.add.PTCONT.3846927",
      "street": "R VASCO SANTANA",
      "house": "136",
      "postcode": "4745-559",
      "city": "SÃO ROMÃO CORONADO",
      "lon": "-8.553210774315207",
      "lat": "41.282674301598355"
    },
    {
      "id": "pt.ine.add.PTCONT.4081564",
      "street": "R ANTÓNIO SILVA",
      "house": "56",
      "postcode": "4745-550",
      "city": "SÃO ROMÃO CORONADO",
      "lon": "-8.553736845592038",
      "lat": "41.28280744308265"
    },
    {
      "id": "pt.ine.add.PTCONT.4127137",
      "street": "R ANTÓNIO SILVA",
      "house": "32",
      "postcode": "4745-550",
      "city": "SÃO ROMÃO CORONADO",
      "lon": "-8.55341282747286",
      "lat": "41.282538501684115"
    },
    {
      "id": "pt.ine.add.PTCONT.4245302",
      "street": "R RIBEIRINHO",
      "house": "77",
      "postcode": "4745-557",
      "city": "SÃO ROMÃO CORONADO",
      "lon": "-8.55297643136813",
      "lat": "41.28335947269039"
    },
    {
      "id": "pt.ine.add.PTCONT.4355723",
      "street": "R VASCO SANTANA",
      "house": "64",
      "postcode": "4745-559",
      "city": "SÃO ROMÃO CORONADO",
      "lon": "-8.55254682975041",
      "lat": "41.28337904702596"
    }
  ]
}