{
  "data": {
    "ilha": "Ilha de São Miguel (Açores)",
    "concelho": "Povoação",
    "freguesia": "Água Retorta",
    "OBJECTID": 51,
    "BGRI2021": "42040100105",
    "DT21": "42",
    "DTMN21": "4204",
    "DTMNFR21": "420401",
    "DTMNFRSEC21": "420401001",
    "SECNUM21": "001",
    "SSNUM21": "05",
    "SECSSNUM21": "00105",
    "OBJECTID_1": 207204,
    "DT": "42",
    "CC": "04",
    "fr": "01",
    "SEC": "001",
    "SS": "05",
    "BGRI2021_1": "42040100105"
  },
  "addresses": [
    {
      "id": "pt.ine.add.AC26.31352",
      "street": "R PRANCHINHA",
      "house": "14",
      "postcode": "9650-016",
      "city": "ÁGUA RETORTA",
      "lon": "-25.1558023352496",
      "lat": "37.76272781724346"
    },
    {
      "id": "pt.ine.add.AC26.31353",
      "street": "R DIREITA",
      "house": "77",
      "postcode": "9650-018",
      "city": "ÁGUA RETORTA",
      "lon": "-25.156893487388732",
      "lat": "37.76084334226035"
    },
    {
      "id": "pt.ine.add.AC26.31354",
      "street": "R DIREITA",
      "house": "61",
      "postcode": "9650-018",
      "city": "ÁGUA RETORTA",
      "lon": "-25.157587850172217",
      "lat": "37.761223698807775"
    },
    {
      "id": "pt.ine.add.AC26.31355",
      "street": "R NORDESTE",
      "house": "14",
      "postcode": "9650-022",
      "city": "ÁGUA RETORTA",
      "lon": "-25.157394669376416",
      "lat": "37.76168930625725"
    },
    {
      "id": "pt.ine.add.AC26.31356",
      "street": "R NORDESTE",
      "house": "15",
      "postcode": "9650-022",
      "city": "ÁGUA RETORTA",
      "lon": "-25.157240223295805",
      "lat": "37.761966265345634"
    },
    {
      "id": "pt.ine.add.AC26.31357",
      "street": "R MANUEL LUIS PEREIRA",
      "house": "12",
      "postcode": "9650-022",
      "city": "ÁGUA RETORTA",
      "lon": "-25.156824842626662",
      "lat": "37.761779525626324"
    },
    {
      "id": "pt.ine.add.AC26.31358",
      "street": "R MANUEL LUIS PEREIRA",
      "house": "14",
      "postcode": "9650-022",
      "city": "ÁGUA RETORTA",
      "lon": "-25.156757653031878",
      "lat": "37.76174242606501"
    },
    {
      "id": "pt.ine.add.AC26.31359",
      "street": "R MANUEL LUIS PEREIRA",
      "house": "31",
      "postcode": "9650-022",
      "city": "ÁGUA RETORTA",
      "lon": "-25.15616938080256",
      "lat": "37.76166112398414"
    },
    {
      "id": "pt.ine.add.AC26.31360",
      "street": "R MANUEL LUIS PEREIRA",
      "house": "29",
      "postcode": "9650-022",
      "city": "ÁGUA RETORTA",
      "lon": "-25.156236570017498",
      "lat": "37.761698223871896"
    },
    {
      "id": "pt.ine.add.AC26.31361",
      "street": "R MANUEL LUIS PEREIRA",
      "house": "25",
      "postcode": "9650-022",
      "city": "ÁGUA RETORTA",
      "lon": "-25.156347806601328",
      "lat": "37.7617900855622"
    },
    {
      "id": "pt.ine.add.AC26.31362",
      "street": "R MANUEL LUIS PEREIRA",
      "house": "23",
      "postcode": "9650-022",
      "city": "ÁGUA RETORTA",
      "lon": "-25.156403648667727",
      "lat": "37.761827007782195"
    },
    {
      "id": "pt.ine.add.AC26.31363",
      "street": "R MANUEL LUIS PEREIRA",
      "house": "21",
      "postcode": "9650-022",
      "city": "ÁGUA RETORTA",
      "lon": "-25.15645949079003",
      "lat": "37.761863929976975"
    },
    {
      "id": "pt.ine.add.AC26.32144",
      "street": "R MANUEL LUIS PEREIRA",
      "house": "15",
      "postcode": "9650-022",
      "city": "ÁGUA RETORTA",
      "lon": "-25.156627688428095",
      "lat": "37.761947670643245"
    },
    {
      "id": "pt.ine.add.AC26.32145",
      "street": "R MANUEL LUIS PEREIRA",
      "house": "11",
      "postcode": "9650-022",
      "city": "ÁGUA RETORTA",
      "lon": "-25.156751167786098",
      "lat": "37.76200367516447"
    },
    {
      "id": "pt.ine.add.AC26.32146",
      "street": "TV MOAGEM",
      "house": "",
      "postcode": "9650-025",
      "city": "ÁGUA RETORTA",
      "lon": "-25.15654752674707",
      "lat": "37.76243306908245"
    },
    {
      "id": "pt.ine.add.AC26.32152",
      "street": "R NORDESTE",
      "house": "16",
      "postcode": "9650-022",
      "city": "ÁGUA RETORTA",
      "lon": "-25.157298525156243",
      "lat": "37.76190409264161"
    },
    {
      "id": "pt.ine.add.AC26.36198",
      "street": "LUIS CABRAL AGISTINHO",
      "house": "",
      "postcode": "9650-060",
      "city": "ÁGUA RETORTA",
      "lon": "-25.152229237229704",
      "lat": "37.75896786349054"
    },
    {
      "id": "pt.ine.add.AC26.48253",
      "street": "R DIREITA",
      "house": "83",
      "postcode": "9650-018",
      "city": "ÁGUA RETORTA",
      "lon": "-25.15663630340398",
      "lat": "37.76068611296761"
    },
    {
      "id": "pt.ine.add.AC26.48254",
      "street": "R MANUEL LUIS PEREIRA",
      "house": "19",
      "postcode": "9650-022",
      "city": "ÁGUA RETORTA",
      "lon": "-25.156515556626548",
      "lat": "37.761891843558125"
    },
    {
      "id": "pt.ine.add.AC26.48255",
      "street": "R MANUEL LUIS PEREIRA",
      "house": "9",
      "postcode": "9650-022",
      "city": "ÁGUA RETORTA",
      "lon": "-25.156818581231253",
      "lat": "37.76203176614429"
    },
    {
      "id": "pt.ine.add.AC26.48256",
      "street": "TV MOAGEM",
      "house": "6",
      "postcode": "9650-025",
      "city": "ÁGUA RETORTA",
      "lon": "-25.15659761324225",
      "lat": "37.762244598962056"
    },
    {
      "id": "pt.ine.add.AC26.51010",
      "street": "R DIREITA",
      "house": "87",
      "postcode": "9650-018",
      "city": "ÁGUA RETORTA",
      "lon": "-25.156261846414715",
      "lat": "37.76068025341433"
    },
    {
      "id": "pt.ine.add.AC26.51011",
      "street": "R DIREITA",
      "house": "81",
      "postcode": "9650-018",
      "city": "ÁGUA RETORTA",
      "lon": "-25.156703268374926",
      "lat": "37.76073222116901"
    },
    {
      "id": "pt.ine.add.AC26.51012",
      "street": "R DIREITA",
      "house": "73",
      "postcode": "9650-018",
      "city": "ÁGUA RETORTA",
      "lon": "-25.156913722186637",
      "lat": "37.76094279180976"
    },
    {
      "id": "pt.ine.add.AC26.57393",
      "street": "CELESTE BERNADA",
      "house": "",
      "postcode": "9650-060",
      "city": "ÁGUA RETORTA",
      "lon": "-25.153165810913677",
      "lat": "37.75827960585183"
    },
    {
      "id": "pt.ine.add.AC26.60221",
      "street": "R DIREITA",
      "house": "63",
      "postcode": "9650-018",
      "city": "ÁGUA RETORTA",
      "lon": "-25.157499307338277",
      "lat": "37.7611321931903"
    },
    {
      "id": "pt.ine.add.AC26.60222",
      "street": "R MANUEL LUIS PEREIRA",
      "house": "16",
      "postcode": "9650-022",
      "city": "ÁGUA RETORTA",
      "lon": "-25.156701810844304",
      "lat": "37.761705504009385"
    },
    {
      "id": "pt.ine.add.AC26.67452",
      "street": "CAM SANGUINAL",
      "house": "7",
      "postcode": "9650-018",
      "city": "ÁGUA RETORTA",
      "lon": "-25.153949935268297",
      "lat": "37.76052689282173"
    },
    {
      "id": "pt.ine.add.AC26.67453",
      "street": "R DIREITA",
      "house": "",
      "postcode": "9650-018",
      "city": "ÁGUA RETORTA",
      "lon": "-25.157285721503957",
      "lat": "37.761047743856686"
    },
    {
      "id": "pt.ine.add.AC26.75071",
      "street": "R MANUEL LUIS PEREIRA",
      "house": "13",
      "postcode": "9650-022",
      "city": "ÁGUA RETORTA",
      "lon": "-25.15668375439313",
      "lat": "37.76197558414726"
    },
    {
      "id": "pt.ine.add.AC26.78267",
      "street": "R DIREITA",
      "house": "71",
      "postcode": "9650-018",
      "city": "ÁGUA RETORTA",
      "lon": "-25.15704854736631",
      "lat": "37.76099897350839"
    },
    {
      "id": "pt.ine.add.AC26.78268",
      "street": "R DIREITA",
      "house": "67",
      "postcode": "9650-018",
      "city": "ÁGUA RETORTA",
      "lon": "-25.157397629121427",
      "lat": "37.761112578792044"
    },
    {
      "id": "pt.ine.add.AC26.78269",
      "street": "R PRANCHINHA",
      "house": "",
      "postcode": "9650-016",
      "city": "ÁGUA RETORTA",
      "lon": "-25.156857709471986",
      "lat": "37.76228471677623"
    },
    {
      "id": "pt.ine.add.AC26.86360",
      "street": "R DIREITA",
      "house": "85",
      "postcode": "9650-018",
      "city": "ÁGUA RETORTA",
      "lon": "-25.15644541421675",
      "lat": "37.76060201724882"
    },
    {
      "id": "pt.ine.add.AC26.87057",
      "street": "R MANUEL LUIS PEREIRA",
      "house": "20",
      "postcode": "9650-022",
      "city": "ÁGUA RETORTA",
      "lon": "-25.15655630830663",
      "lat": "37.761622118571324"
    },
    {
      "id": "pt.ine.add.AC26.87845",
      "street": "R PRANCHINHA",
      "house": "12",
      "postcode": "9650-016",
      "city": "ÁGUA RETORTA",
      "lon": "-25.156076912211642",
      "lat": "37.762641994262225"
    },
    {
      "id": "pt.ine.add.AC26.91866",
      "street": "R DIREITA",
      "house": "93",
      "postcode": "9650-018",
      "city": "ÁGUA RETORTA",
      "lon": "-25.155994212063224",
      "lat": "37.760486810831566"
    },
    {
      "id": "pt.ine.add.AC26.91867",
      "street": "R DIREITA",
      "house": "83A",
      "postcode": "9650-018",
      "city": "ÁGUA RETORTA",
      "lon": "-25.156512155342224",
      "lat": "37.76065713414456"
    },
    {
      "id": "pt.ine.add.AC26.91927",
      "street": "R PRANCHINHA",
      "house": "6",
      "postcode": "9650-016",
      "city": "ÁGUA RETORTA",
      "lon": "-25.156754017188433",
      "lat": "37.76234617909163"
    },
    {
      "id": "pt.ine.add.AC26.91928",
      "street": "TV MOAGEM",
      "house": "8",
      "postcode": "9650-025",
      "city": "ÁGUA RETORTA",
      "lon": "-25.15646166786536",
      "lat": "37.762233459646424"
    },
    {
      "id": "pt.ine.add.AC26.91929",
      "street": "TV MOAGEM",
      "house": "5",
      "postcode": "9650-025",
      "city": "ÁGUA RETORTA",
      "lon": "-25.156232706257597",
      "lat": "37.762310985362234"
    },
    {
      "id": "pt.ine.add.AC26.91930",
      "street": "R PRANCHINHA",
      "house": "10",
      "postcode": "9650-016",
      "city": "ÁGUA RETORTA",
      "lon": "-25.156228679714097",
      "lat": "37.76247313991354"
    },
    {
      "id": "pt.ine.add.AC26.92960",
      "street": "TV MOAGEM",
      "house": "10",
      "postcode": "9650-025",
      "city": "ÁGUA RETORTA",
      "lon": "-25.156380893874026",
      "lat": "37.762286268172446"
    },
    {
      "id": "pt.ine.add.AC26.92961",
      "street": "R PRANCHINHA",
      "house": "12",
      "postcode": "9650-016",
      "city": "ÁGUA RETORTA",
      "lon": "-25.156076912211642",
      "lat": "37.762641994262225"
    },
    {
      "id": "pt.ine.add.AC26.93759",
      "street": "TV MOAGEM",
      "house": "4",
      "postcode": "9650-025",
      "city": "ÁGUA RETORTA",
      "lon": "-25.156736018642864",
      "lat": "37.76215664364253"
    },
    {
      "id": "pt.ine.add.AC26.93982",
      "street": "R PRANCHINHA",
      "house": "2",
      "postcode": "9650-016",
      "city": "ÁGUA RETORTA",
      "lon": "-25.156972749005583",
      "lat": "37.7622234318829"
    },
    {
      "id": "pt.ine.add.AC26.94051",
      "street": "R NORDESTE",
      "house": "20",
      "postcode": "9650-022",
      "city": "ÁGUA RETORTA",
      "lon": "-25.157170573945105",
      "lat": "37.76202826052007"
    },
    {
      "id": "pt.ine.add.AC26.94326",
      "street": "R DIREITA",
      "house": "91",
      "postcode": "9650-018",
      "city": "ÁGUA RETORTA",
      "lon": "-25.156164419303256",
      "lat": "37.76048947478728"
    },
    {
      "id": "pt.ine.add.AC26.95418",
      "street": "R DIREITA",
      "house": "89",
      "postcode": "9650-018",
      "city": "ÁGUA RETORTA",
      "lon": "-25.15626564894842",
      "lat": "37.76052710739978"
    },
    {
      "id": "pt.ine.add.AC26.95592",
      "street": "R PRANCHINHA",
      "house": "8",
      "postcode": "9650-016",
      "city": "ÁGUA RETORTA",
      "lon": "-25.156433157566745",
      "lat": "37.76246732777946"
    },
    {
      "id": "pt.ine.add.AC26.95636",
      "street": "R PRANCHINHA",
      "house": "14",
      "postcode": "9650-016",
      "city": "ÁGUA RETORTA",
      "lon": "-25.1558023352496",
      "lat": "37.76272781724346"
    },
    {
      "id": "pt.ine.add.AC26.106009",
      "street": "R MANUEL LUIS PEREIRA",
      "house": "18",
      "postcode": "9650-022",
      "city": "ÁGUA RETORTA",
      "lon": "-25.156623497689623",
      "lat": "37.76165921824272"
    },
    {
      "id": "pt.ine.add.AC26.106099",
      "street": "R MANUEL LUIS PEREIRA",
      "house": "17",
      "postcode": "9650-022",
      "city": "ÁGUA RETORTA",
      "lon": "-25.156571622505897",
      "lat": "37.76191975711353"
    },
    {
      "id": "pt.ine.add.AC26.108429",
      "street": "R MANUEL LUIS PEREIRA",
      "house": "27",
      "postcode": "9650-022",
      "city": "ÁGUA RETORTA",
      "lon": "-25.156280840932524",
      "lat": "37.761743977147376"
    }
  ]
}