{
  "data": {
    "distrito": "Porto",
    "concelho": "Vila Nova de Gaia",
    "freguesia": "Uni√£o das freguesias de Gulpilhares e Valadares",
    "OBJECTID": 1875,
    "BGRI2021": "13172601619",
    "DT21": "13",
    "DTMN21": "1317",
    "DTMNFR21": "131726",
    "DTMNFRSEC21": "131726016",
    "SECNUM21": "016",
    "SSNUM21": "19",
    "SECSSNUM21": "01619",
    "OBJECTID_1": 144984,
    "DT": "13",
    "CC": "17",
    "fr": "26",
    "SEC": "016",
    "SS": "19"
  },
  "addresses": [
    {
      "id": "pt.ine.add.PTCONT.3544014",
      "street": "AV VASCO DA GAMA",
      "house": "186",
      "postcode": "4405-610",
      "city": "VILA NOVA DE GAIA",
      "lon": "-8.652348619474283",
      "lat": "41.08694864405781"
    },
    {
      "id": "pt.ine.add.PTCONT.3673050",
      "street": "AV SANATORIOS",
      "house": "253",
      "postcode": "4405-604",
      "city": "VILA NOVA DE GAIA",
      "lon": "-8.652799998444033",
      "lat": "41.08683855572891"
    },
    {
      "id": "pt.ine.add.PTCONT.3681607",
      "street": "AV AFONSO DOMINGUES",
      "house": "248",
      "postcode": "4405-954",
      "city": "VILA NOVA DE GAIA",
      "lon": "-8.652968738303969",
      "lat": "41.08710792799408"
    },
    {
      "id": "pt.ine.add.PTCONT.3840744",
      "street": "AV VASCO DA GAMA",
      "house": "164",
      "postcode": "4405-610",
      "city": "VILA NOVA DE GAIA",
      "lon": "-8.652409612154061",
      "lat": "41.08713746260151"
    },
    {
      "id": "pt.ine.add.PTCONT.3906833",
      "street": "AV VASCO DA GAMA",
      "house": "200",
      "postcode": "4405-610",
      "city": "VILA NOVA DE GAIA",
      "lon": "-8.652418181094683",
      "lat": "41.086714214906074"
    },
    {
      "id": "pt.ine.add.PTCONT.3940998",
      "street": "AV SANATORIOS",
      "house": "241",
      "postcode": "4405-604",
      "city": "VILA NOVA DE GAIA",
      "lon": "-8.652847885349685",
      "lat": "41.086874357530945"
    },
    {
      "id": "pt.ine.add.PTCONT.3988744",
      "street": "AV SANATORIOS",
      "house": "255",
      "postcode": "4405-604",
      "city": "VILA NOVA DE GAIA",
      "lon": "-8.652764154236925",
      "lat": "41.086820708492624"
    },
    {
      "id": "pt.ine.add.PTCONT.4169210",
      "street": "AV SANATORIOS",
      "house": "267",
      "postcode": "4405-604",
      "city": "VILA NOVA DE GAIA",
      "lon": "-8.65272823911607",
      "lat": "41.086793857116284"
    },
    {
      "id": "pt.ine.add.PTCONT.4291367",
      "street": "AV AFONSO DOMINGUES",
      "house": "284",
      "postcode": "4405-954",
      "city": "VILA NOVA DE GAIA",
      "lon": "-8.652695303032836",
      "lat": "41.08714517912479"
    }
  ]
}