{
  "data": {
    "distrito": "Coimbra",
    "concelho": "Coimbra",
    "freguesia": "União das freguesias de Souselas e Botão",
    "OBJECTID": 1004,
    "BGRI2021": "06033900325",
    "DT21": "06",
    "DTMN21": "0603",
    "DTMNFR21": "060339",
    "DTMNFRSEC21": "060339003",
    "SECNUM21": "003",
    "SSNUM21": "25",
    "SECSSNUM21": "00325",
    "OBJECTID_1": 49010,
    "DT": "06",
    "CC": "03",
    "fr": "39",
    "SEC": "003",
    "SS": "25"
  },
  "addresses": [
    {
      "id": "pt.ine.add.PTCONT.1100267",
      "street": "R AZENHA",
      "house": "7",
      "postcode": "3020-841",
      "city": "SOUSELAS",
      "lon": "-8.428800435486682",
      "lat": "40.28505081096488"
    },
    {
      "id": "pt.ine.add.PTCONT.1104671",
      "street": "R BAIRRO DO CALVÁRIO",
      "house": "35",
      "postcode": "3020-842",
      "city": "SOUSELAS",
      "lon": "-8.427385753838339",
      "lat": "40.289656346135644"
    },
    {
      "id": "pt.ine.add.PTCONT.1125166",
      "street": "R AZENHA",
      "house": "",
      "postcode": "3020-841",
      "city": "SOUSELAS",
      "lon": "-8.42859017918257",
      "lat": "40.28537555452234"
    },
    {
      "id": "pt.ine.add.PTCONT.1166149",
      "street": "R BAIRRO DO CALVÁRIO",
      "house": "33",
      "postcode": "3020-842",
      "city": "SOUSELAS",
      "lon": "-8.427044632019706",
      "lat": "40.289639201779096"
    },
    {
      "id": "pt.ine.add.PTCONT.1168353",
      "street": "R BAIRRO DO CALVÁRIO",
      "house": "3",
      "postcode": "3020-842",
      "city": "SOUSELAS",
      "lon": "-8.427150043865762",
      "lat": "40.289539870936615"
    },
    {
      "id": "pt.ine.add.PTCONT.1195999",
      "street": "BC BAIRRO DA AZENHA",
      "house": "16",
      "postcode": "3020-841",
      "city": "SOUSELAS",
      "lon": "-8.428613070502834",
      "lat": "40.28523140431726"
    },
    {
      "id": "pt.ine.add.PTCONT.1219001",
      "street": "R BAIRRO DA AZENHA",
      "house": "6",
      "postcode": "3020-841",
      "city": "SOUSELAS",
      "lon": "-8.428507785066964",
      "lat": "40.285357753436955"
    },
    {
      "id": "pt.ine.add.PTCONT.1238580",
      "street": "R BAIRRO DA AZENHA",
      "house": "18",
      "postcode": "3020-841",
      "city": "SOUSELAS",
      "lon": "-8.428531891913737",
      "lat": "40.28549277789735"
    },
    {
      "id": "pt.ine.add.PTCONT.1253429",
      "street": "R AZENHA",
      "house": "9",
      "postcode": "3020-841",
      "city": "SOUSELAS",
      "lon": "-8.428847198083984",
      "lat": "40.2849876513107"
    },
    {
      "id": "pt.ine.add.PTCONT.1267203",
      "street": "R BAIRRO CALVARIO",
      "house": "5",
      "postcode": "3020-842",
      "city": "SOUSELAS",
      "lon": "-8.42729050140688",
      "lat": "40.28938641652964"
    },
    {
      "id": "pt.ine.add.PTCONT.1267204",
      "street": "BC SERENA",
      "house": "",
      "postcode": "3020-842",
      "city": "SOUSELAS",
      "lon": "-8.42729050140688",
      "lat": "40.28938641652964"
    },
    {
      "id": "pt.ine.add.PTCONT.1278992",
      "street": "R AZENHA",
      "house": "1",
      "postcode": "3020-841",
      "city": "SOUSELAS",
      "lon": "-8.428671475079495",
      "lat": "40.2851411977997"
    },
    {
      "id": "pt.ine.add.PTCONT.1348415",
      "street": "R NOVA DOS SARGACAIS",
      "house": "7",
      "postcode": "3020-870",
      "city": "SOUSELAS",
      "lon": "-8.429031190000039",
      "lat": "40.28942700628657"
    }
  ]
}