{
  "data": {
    "distrito": "Vila Real",
    "concelho": "Ribeira de Pena",
    "freguesia": "União das freguesias de Ribeira de Pena (Salvador) e Santo Aleixo de Além-Tâmega",
    "OBJECTID": 395,
    "BGRI2021": "17090900147",
    "DT21": "17",
    "DTMN21": "1709",
    "DTMNFR21": "170909",
    "DTMNFRSEC21": "170909001",
    "SECNUM21": "001",
    "SSNUM21": "47",
    "SECSSNUM21": "00147",
    "OBJECTID_1": 184722,
    "DT": "17",
    "CC": "09",
    "fr": "09",
    "SEC": "001",
    "SS": "47"
  },
  "addresses": [
    {
      "id": "pt.ine.add.PTCONT.5305722",
      "street": "R OUTEIRO",
      "house": "",
      "postcode": "4870-253",
      "city": "STO ALEIXO DE ALÉM-TAMEGA",
      "lon": "-7.8017679224515035",
      "lat": "41.539163003780786"
    },
    {
      "id": "pt.ine.add.PTCONT.5306151",
      "street": "R VEIGA",
      "house": "",
      "postcode": "4870-253",
      "city": "STO ALEIXO DE ALÉM-TAMEGA",
      "lon": "-7.802595479841839",
      "lat": "41.53903032866119"
    },
    {
      "id": "pt.ine.add.PTCONT.5331528",
      "street": "R OUTEIRO",
      "house": "",
      "postcode": "4870-253",
      "city": "STO ALEIXO DE ALÉM-TAMEGA",
      "lon": "-7.801925822473038",
      "lat": "41.538749285131765"
    },
    {
      "id": "pt.ine.add.PTCONT.5334639",
      "street": "R OUTEIRO",
      "house": "",
      "postcode": "4870-253",
      "city": "STO ALEIXO DE ALÉM-TAMEGA",
      "lon": "-7.801923020479986",
      "lat": "41.539298507126524"
    },
    {
      "id": "pt.ine.add.PTCONT.5335455",
      "street": "R OUTEIRO",
      "house": "",
      "postcode": "4870-253",
      "city": "STO ALEIXO DE ALÉM-TAMEGA",
      "lon": "-7.802283814593448",
      "lat": "41.53904744002821"
    },
    {
      "id": "pt.ine.add.PTCONT.5336221",
      "street": "R PADRE ALBINO AFONSO",
      "house": "",
      "postcode": "4870-253",
      "city": "STO ALEIXO DE ALÉM-TAMEGA",
      "lon": "-7.802076420335925",
      "lat": "41.539767144886426"
    },
    {
      "id": "pt.ine.add.PTCONT.5342120",
      "street": "R PADRE ALBINO AFONSO",
      "house": "",
      "postcode": "4870-253",
      "city": "STO ALEIXO DE ALÉM-TAMEGA",
      "lon": "-7.802425599715116",
      "lat": "41.53944401376336"
    },
    {
      "id": "pt.ine.add.PTCONT.5366277",
      "street": "R OUTEIRO",
      "house": "",
      "postcode": "4870-253",
      "city": "STO ALEIXO DE ALÉM-TAMEGA",
      "lon": "-7.8023302808852035",
      "lat": "41.539335694375545"
    },
    {
      "id": "pt.ine.add.PTCONT.5378561",
      "street": "EM 312",
      "house": "",
      "postcode": "4870-253",
      "city": "STO ALEIXO DE ALÉM-TAMEGA",
      "lon": "-7.799260373500502",
      "lat": "41.54206396878293"
    },
    {
      "id": "pt.ine.add.PTCONT.5378562",
      "street": "EM 312",
      "house": "",
      "postcode": "4870-253",
      "city": "STO ALEIXO DE ALÉM-TAMEGA",
      "lon": "-7.799260373500502",
      "lat": "41.54206396878293"
    },
    {
      "id": "pt.ine.add.PTCONT.5380693",
      "street": "R PONTE DE ARAME",
      "house": "",
      "postcode": "4870-253",
      "city": "STO ALEIXO DE ALÉM-TAMEGA",
      "lon": "-7.799031933175282",
      "lat": "41.54220736562611"
    },
    {
      "id": "pt.ine.add.PTCONT.5381656",
      "street": "R PADRE ALBINO AFONSO",
      "house": "",
      "postcode": "4870-253",
      "city": "STO ALEIXO DE ALÉM-TAMEGA",
      "lon": "-7.802522019314815",
      "lat": "41.53933624573195"
    },
    {
      "id": "pt.ine.add.PTCONT.5400823",
      "street": "R PADRE ALBINO AFONSO",
      "house": "",
      "postcode": "4870-253",
      "city": "STO ALEIXO DE ALÉM-TAMEGA",
      "lon": "-7.802286942414748",
      "lat": "41.54078517667261"
    },
    {
      "id": "pt.ine.add.PTCONT.5408418",
      "street": "R PONTE DE ARAME",
      "house": "",
      "postcode": "4870-253",
      "city": "STO ALEIXO DE ALÉM-TAMEGA",
      "lon": "-7.798091596125449",
      "lat": "41.540962110132085"
    },
    {
      "id": "pt.ine.add.PTCONT.5420011",
      "street": "R OUTEIRO",
      "house": "",
      "postcode": "4870-253",
      "city": "STO ALEIXO DE ALÉM-TAMEGA",
      "lon": "-7.802316645533329",
      "lat": "41.5396597909045"
    }
  ]
}