{
  "data": {
    "distrito": "Vila Real",
    "concelho": "Ribeira de Pena",
    "freguesia": "União das freguesias de Ribeira de Pena (Salvador) e Santo Aleixo de Além-Tâmega",
    "OBJECTID": 399,
    "BGRI2021": "17090900151",
    "DT21": "17",
    "DTMN21": "1709",
    "DTMNFR21": "170909",
    "DTMNFRSEC21": "170909001",
    "SECNUM21": "001",
    "SSNUM21": "51",
    "SECSSNUM21": "00151",
    "OBJECTID_1": 184981,
    "DT": "17",
    "CC": "09",
    "fr": "09",
    "SEC": "001",
    "SS": "51"
  },
  "addresses": [
    {
      "id": "pt.ine.add.PTCONT.5306150",
      "street": "R ALTO DA CRUZ",
      "house": "",
      "postcode": "4870-253",
      "city": "STO ALEIXO DE ALÉM-TAMEGA",
      "lon": "-7.80783936202218",
      "lat": "41.54242169405504"
    },
    {
      "id": "pt.ine.add.PTCONT.5313550",
      "street": "R BAIRRO NOVO",
      "house": "",
      "postcode": "4870-253",
      "city": "STO ALEIXO DE ALÉM-TAMEGA",
      "lon": "-7.808447450246182",
      "lat": "41.54304467232711"
    },
    {
      "id": "pt.ine.add.PTCONT.5315669",
      "street": "R BAIRRO NOVO",
      "house": "",
      "postcode": "4870-253",
      "city": "STO ALEIXO DE ALÉM-TAMEGA",
      "lon": "-7.80783575241121",
      "lat": "41.54314198515012"
    },
    {
      "id": "pt.ine.add.PTCONT.5315670",
      "street": "R ALTO DA CRUZ",
      "house": "",
      "postcode": "4870-253",
      "city": "STO ALEIXO DE ALÉM-TAMEGA",
      "lon": "-7.806359953781057",
      "lat": "41.54347994436613"
    },
    {
      "id": "pt.ine.add.PTCONT.5321543",
      "street": "R BAIRRO NOVO",
      "house": "",
      "postcode": "4870-253",
      "city": "STO ALEIXO DE ALÉM-TAMEGA",
      "lon": "-7.807102942739941",
      "lat": "41.543491056863864"
    },
    {
      "id": "pt.ine.add.PTCONT.5325439",
      "street": "R OUTEIRO SANTO",
      "house": "",
      "postcode": "4870-253",
      "city": "STO ALEIXO DE ALÉM-TAMEGA",
      "lon": "-7.809117674668175",
      "lat": "41.54322663790107"
    },
    {
      "id": "pt.ine.add.PTCONT.5328156",
      "street": "R ALTO DA CRUZ",
      "house": "",
      "postcode": "4870-253",
      "city": "STO ALEIXO DE ALÉM-TAMEGA",
      "lon": "-7.807286098920443",
      "lat": "41.54281629353038"
    },
    {
      "id": "pt.ine.add.PTCONT.5334636",
      "street": "R ALTO DA CRUZ",
      "house": "",
      "postcode": "4870-253",
      "city": "STO ALEIXO DE ALÉM-TAMEGA",
      "lon": "-7.807010686195121",
      "lat": "41.542770494030584"
    },
    {
      "id": "pt.ine.add.PTCONT.5342031",
      "street": "R COSTUREIRAS",
      "house": "",
      "postcode": "4870-253",
      "city": "STO ALEIXO DE ALÉM-TAMEGA",
      "lon": "-7.806400529703857",
      "lat": "41.54256167554196"
    },
    {
      "id": "pt.ine.add.PTCONT.5344895",
      "street": "R ALTO DA CRUZ",
      "house": "",
      "postcode": "4870-253",
      "city": "STO ALEIXO DE ALÉM-TAMEGA",
      "lon": "-7.807260864711662",
      "lat": "41.543068327478366"
    },
    {
      "id": "pt.ine.add.PTCONT.5346525",
      "street": "R BAIRRO NOVO",
      "house": "",
      "postcode": "4870-253",
      "city": "STO ALEIXO DE ALÉM-TAMEGA",
      "lon": "-7.807215639722107",
      "lat": "41.5425279733483"
    },
    {
      "id": "pt.ine.add.PTCONT.5351842",
      "street": "R ALTO DA CRUZ",
      "house": "",
      "postcode": "4870-253",
      "city": "STO ALEIXO DE ALÉM-TAMEGA",
      "lon": "-7.806682899232578",
      "lat": "41.54360691424154"
    },
    {
      "id": "pt.ine.add.PTCONT.5355395",
      "street": "R FIGUIRINHAS",
      "house": "",
      "postcode": "4870-253",
      "city": "STO ALEIXO DE ALÉM-TAMEGA",
      "lon": "-7.808711150813469",
      "lat": "41.54303641275062"
    },
    {
      "id": "pt.ine.add.PTCONT.5355737",
      "street": "R BAIRRO NOVO",
      "house": "",
      "postcode": "4870-253",
      "city": "STO ALEIXO DE ALÉM-TAMEGA",
      "lon": "-7.80925986995486",
      "lat": "41.54355117399574"
    },
    {
      "id": "pt.ine.add.PTCONT.5358231",
      "street": "R BAIRRO NOVO",
      "house": "",
      "postcode": "4870-253",
      "city": "STO ALEIXO DE ALÉM-TAMEGA",
      "lon": "-7.809167409629406",
      "lat": "41.5428666273729"
    },
    {
      "id": "pt.ine.add.PTCONT.5359455",
      "street": "R BAIRRO NOVO",
      "house": "",
      "postcode": "4870-253",
      "city": "STO ALEIXO DE ALÉM-TAMEGA",
      "lon": "-7.808903979637428",
      "lat": "41.54282086616141"
    },
    {
      "id": "pt.ine.add.PTCONT.5360101",
      "street": "R BAIRRO NOVO",
      "house": "",
      "postcode": "4870-253",
      "city": "STO ALEIXO DE ALÉM-TAMEGA",
      "lon": "-7.806289996688482",
      "lat": "41.54309258365819"
    },
    {
      "id": "pt.ine.add.PTCONT.5361231",
      "street": "R BAIRRO NOVO",
      "house": "",
      "postcode": "4870-253",
      "city": "STO ALEIXO DE ALÉM-TAMEGA",
      "lon": "-7.807439861925831",
      "lat": "41.5432218985564"
    },
    {
      "id": "pt.ine.add.PTCONT.5361250",
      "street": "R BAIRRO NOVO",
      "house": "",
      "postcode": "4870-253",
      "city": "STO ALEIXO DE ALÉM-TAMEGA",
      "lon": "-7.808989848006982",
      "lat": "41.5424249424816"
    },
    {
      "id": "pt.ine.add.PTCONT.5366517",
      "street": "R OUTEIRO SANTO",
      "house": "",
      "postcode": "4870-253",
      "city": "STO ALEIXO DE ALÉM-TAMEGA",
      "lon": "-7.809457053412391",
      "lat": "41.542462273429805"
    },
    {
      "id": "pt.ine.add.PTCONT.5367669",
      "street": "R ALTO DA CRUZ",
      "house": "",
      "postcode": "4870-253",
      "city": "STO ALEIXO DE ALÉM-TAMEGA",
      "lon": "-7.806865109747831",
      "lat": "41.54312122799379"
    },
    {
      "id": "pt.ine.add.PTCONT.5368799",
      "street": "R ALTO DA CRUZ",
      "house": "",
      "postcode": "4870-253",
      "city": "STO ALEIXO DE ALÉM-TAMEGA",
      "lon": "-7.807020137397608",
      "lat": "41.54327473171874"
    },
    {
      "id": "pt.ine.add.PTCONT.5380578",
      "street": "R OUTEIRO SANTO",
      "house": "",
      "postcode": "4870-253",
      "city": "STO ALEIXO DE ALÉM-TAMEGA",
      "lon": "-7.807911944028525",
      "lat": "41.5422868428275"
    },
    {
      "id": "pt.ine.add.PTCONT.5392170",
      "street": "R OUTEIRO SANTO",
      "house": "",
      "postcode": "4870-253",
      "city": "STO ALEIXO DE ALÉM-TAMEGA",
      "lon": "-7.807240467063132",
      "lat": "41.54235697213634"
    },
    {
      "id": "pt.ine.add.PTCONT.5392367",
      "street": "R OUTEIRO SANTO",
      "house": "",
      "postcode": "4870-253",
      "city": "STO ALEIXO DE ALÉM-TAMEGA",
      "lon": "-7.809027778686164",
      "lat": "41.54202888362212"
    },
    {
      "id": "pt.ine.add.PTCONT.5393528",
      "street": "R OUTEIRO SANTO",
      "house": "",
      "postcode": "4870-253",
      "city": "STO ALEIXO DE ALÉM-TAMEGA",
      "lon": "-7.80755232762352",
      "lat": "41.54230383284179"
    },
    {
      "id": "pt.ine.add.PTCONT.5393529",
      "street": "R OUTEIRO SANTO",
      "house": "",
      "postcode": "4870-253",
      "city": "STO ALEIXO DE ALÉM-TAMEGA",
      "lon": "-7.8093211845246255",
      "lat": "41.54327222992262"
    },
    {
      "id": "pt.ine.add.PTCONT.5400818",
      "street": "R OUTEIRO SANTO",
      "house": "",
      "postcode": "4870-253",
      "city": "STO ALEIXO DE ALÉM-TAMEGA",
      "lon": "-7.8087391240646795",
      "lat": "41.542235156427516"
    },
    {
      "id": "pt.ine.add.PTCONT.5401823",
      "street": "R BAIRRO NOVO",
      "house": "",
      "postcode": "4870-253",
      "city": "STO ALEIXO DE ALÉM-TAMEGA",
      "lon": "-7.80947374917019",
      "lat": "41.54392093048578"
    },
    {
      "id": "pt.ine.add.PTCONT.5402408",
      "street": "R BAIRRO NOVO",
      "house": "",
      "postcode": "4870-253",
      "city": "STO ALEIXO DE ALÉM-TAMEGA",
      "lon": "-7.808087604341007",
      "lat": "41.54310668219133"
    },
    {
      "id": "pt.ine.add.PTCONT.5406213",
      "street": "R BAIRRO NOVO",
      "house": "",
      "postcode": "4870-253",
      "city": "STO ALEIXO DE ALÉM-TAMEGA",
      "lon": "-7.80918872720125",
      "lat": "41.54339790961096"
    },
    {
      "id": "pt.ine.add.PTCONT.5412815",
      "street": "R ALTO DA CRUZ",
      "house": "",
      "postcode": "4870-253",
      "city": "STO ALEIXO DE ALÉM-TAMEGA",
      "lon": "-7.8076949193356535",
      "lat": "41.54254733813885"
    },
    {
      "id": "pt.ine.add.PTCONT.5414728",
      "street": "R ALTO DA CRUZ",
      "house": "",
      "postcode": "4870-253",
      "city": "STO ALEIXO DE ALÉM-TAMEGA",
      "lon": "-7.806577077549207",
      "lat": "41.543201444373544"
    },
    {
      "id": "pt.ine.add.PTCONT.5418192",
      "street": "R ALTO DA CRUZ",
      "house": "",
      "postcode": "4870-253",
      "city": "STO ALEIXO DE ALÉM-TAMEGA",
      "lon": "-7.806898755009578",
      "lat": "41.54358051547201"
    }
  ]
}