{
  "data": {
    "distrito": "Viseu",
    "concelho": "São Pedro do Sul",
    "freguesia": "Pinho",
    "OBJECTID": 661,
    "BGRI2021": "18160900120",
    "DT21": "18",
    "DTMN21": "1816",
    "DTMNFR21": "181609",
    "DTMNFRSEC21": "181609001",
    "SECNUM21": "001",
    "SSNUM21": "20",
    "SECSSNUM21": "00120",
    "OBJECTID_1": 196750,
    "DT": "18",
    "CC": "16",
    "fr": "09",
    "SEC": "001",
    "SS": "20"
  },
  "addresses": [
    {
      "id": "pt.ine.add.PTCONT.5444308",
      "street": "LG NSA SRA SAUDE",
      "house": "4",
      "postcode": "3660-230",
      "city": "PINHO SPS",
      "lon": "-8.025675755481059",
      "lat": "40.7641766554242"
    },
    {
      "id": "pt.ine.add.PTCONT.5455417",
      "street": "R PRINCIPAL DE PINHOSAO",
      "house": "65",
      "postcode": "3660-230",
      "city": "PINHO SPS",
      "lon": "-8.024336382872551",
      "lat": "40.76482376101971"
    },
    {
      "id": "pt.ine.add.PTCONT.5464088",
      "street": "BR S MARTINHO",
      "house": "49",
      "postcode": "3660-229",
      "city": "PINHO SPS",
      "lon": "-8.027788492295675",
      "lat": "40.76877115247642"
    },
    {
      "id": "pt.ine.add.PTCONT.5468829",
      "street": "R SRA CONCEIÇÃO",
      "house": "80",
      "postcode": "3660-228",
      "city": "PINHO SPS",
      "lon": "-8.021485447822466",
      "lat": "40.76988184754388"
    },
    {
      "id": "pt.ine.add.PTCONT.5487616",
      "street": "R PRINCIPAL DE PINHOSAO",
      "house": "47",
      "postcode": "3660-230",
      "city": "PINHO SPS",
      "lon": "-8.024858217882853",
      "lat": "40.764383006558475"
    },
    {
      "id": "pt.ine.add.PTCONT.5493753",
      "street": "R FONTE",
      "house": "",
      "postcode": "3660-228",
      "city": "PINHO SPS",
      "lon": "-8.02169843848477",
      "lat": "40.77000812326741"
    },
    {
      "id": "pt.ine.add.PTCONT.5499209",
      "street": "BR S MARTINHO",
      "house": "",
      "postcode": "3660-229",
      "city": "PINHO SPS",
      "lon": "-8.027574753226036",
      "lat": "40.769113147049815"
    },
    {
      "id": "pt.ine.add.PTCONT.5506254",
      "street": "R SENHORA DA CONCEIÇÃO",
      "house": "84",
      "postcode": "3660-228",
      "city": "PINHO SPS",
      "lon": "-8.021189637190165",
      "lat": "40.769701461173284"
    },
    {
      "id": "pt.ine.add.PTCONT.5524965",
      "street": "",
      "house": "",
      "postcode": "3660-228",
      "city": "PINHO SPS",
      "lon": "-8.024505432147429",
      "lat": "40.7701098538595"
    },
    {
      "id": "pt.ine.add.PTCONT.5534685",
      "street": "R NOVA DA CRUZ",
      "house": "26",
      "postcode": "3660-230",
      "city": "PINHO SPS",
      "lon": "-8.026017381331664",
      "lat": "40.76532060818582"
    },
    {
      "id": "pt.ine.add.PTCONT.5546148",
      "street": "R FONTE",
      "house": "17",
      "postcode": "3660-228",
      "city": "PINHO SPS",
      "lon": "-8.022894796047389",
      "lat": "40.76997325202449"
    },
    {
      "id": "pt.ine.add.PTCONT.5550518",
      "street": "BR S MARTINHO",
      "house": "",
      "postcode": "3660-229",
      "city": "PINHO SPS",
      "lon": "-8.027694306953277",
      "lat": "40.768410866642405"
    },
    {
      "id": "pt.ine.add.PTCONT.5574335",
      "street": "R DEVEZA",
      "house": "28",
      "postcode": "3660-225",
      "city": "PINHO SPS",
      "lon": "-8.02504049409485",
      "lat": "40.76884065190765"
    },
    {
      "id": "pt.ine.add.PTCONT.5588199",
      "street": "TV VINHAS",
      "house": "8",
      "postcode": "3660-228",
      "city": "PINHO SPS",
      "lon": "-8.022800516333415",
      "lat": "40.769685002143255"
    },
    {
      "id": "pt.ine.add.PTCONT.5594126",
      "street": "R VOLTA ATRAS",
      "house": "82",
      "postcode": "3660-228",
      "city": "PINHO SPS",
      "lon": "-8.021402777514485",
      "lat": "40.76973768765205"
    },
    {
      "id": "pt.ine.add.PTCONT.5631377",
      "street": "R PRINCIPAL DE PINHOSAO",
      "house": "71",
      "postcode": "3660-230",
      "city": "PINHO SPS",
      "lon": "-8.024229672769014",
      "lat": "40.76489570041098"
    },
    {
      "id": "pt.ine.add.PTCONT.5634938",
      "street": "R LADEIRA",
      "house": "",
      "postcode": "3660-228",
      "city": "PINHO SPS",
      "lon": "-8.024422740354288",
      "lat": "40.76997470110798"
    },
    {
      "id": "pt.ine.add.PTCONT.5639053",
      "street": "R PRINCIPAL DE PINHOSAO",
      "house": "",
      "postcode": "3660-230",
      "city": "PINHO SPS",
      "lon": "-8.024182136533309",
      "lat": "40.76499471057242"
    },
    {
      "id": "pt.ine.add.PTCONT.5639150",
      "street": "TV VINHAS",
      "house": "12",
      "postcode": "3660-228",
      "city": "PINHO SPS",
      "lon": "-8.022386333286809",
      "lat": "40.76945948065714"
    },
    {
      "id": "pt.ine.add.PTCONT.5656963",
      "street": "R NOVA DA CRUZ",
      "house": "15",
      "postcode": "3660-230",
      "city": "PINHO SPS",
      "lon": "-8.025805657444428",
      "lat": "40.76441090634478"
    },
    {
      "id": "pt.ine.add.PTCONT.5662586",
      "street": "R FONTE",
      "house": "9",
      "postcode": "3660-228",
      "city": "PINHO SPS",
      "lon": "-8.022243331991788",
      "lat": "40.769981633026326"
    }
  ]
}