{
  "data": {
    "distrito": "Faro",
    "concelho": "Portimão",
    "freguesia": "Portimão",
    "OBJECTID": 798,
    "BGRI2021": "08110302105",
    "DT21": "08",
    "DTMN21": "0811",
    "DTMNFR21": "081103",
    "DTMNFRSEC21": "081103021",
    "SECNUM21": "021",
    "SSNUM21": "05",
    "SECSSNUM21": "02105",
    "OBJECTID_1": 71223,
    "DT": "08",
    "CC": "11",
    "fr": "03",
    "SEC": "021",
    "SS": "05"
  },
  "addresses": [
    {
      "id": "pt.ine.add.PTCONT.1543745",
      "street": "R FERNANDO LOPES GRACA",
      "house": "52",
      "postcode": "8500-500",
      "city": "PORTIMÃO",
      "lon": "-8.546500002493774",
      "lat": "37.13627186736191"
    },
    {
      "id": "pt.ine.add.PTCONT.1543746",
      "street": "R FERNANDO LOPES GRACA",
      "house": "52",
      "postcode": "8500-500",
      "city": "PORTIMÃO",
      "lon": "-8.546500002493774",
      "lat": "37.13627186736191"
    },
    {
      "id": "pt.ine.add.PTCONT.1578997",
      "street": "R FERNANDO LOPES GRAÇA",
      "house": "",
      "postcode": "8500-500",
      "city": "PORTIMÃO",
      "lon": "-8.546432917797434",
      "lat": "37.136353196264075"
    },
    {
      "id": "pt.ine.add.PTCONT.1578998",
      "street": "R FERNANDO LOPES GRAÇA",
      "house": "",
      "postcode": "8500-500",
      "city": "PORTIMÃO",
      "lon": "-8.546432917797434",
      "lat": "37.136353196264075"
    },
    {
      "id": "pt.ine.add.PTCONT.1578999",
      "street": "R FERNANDO LOPES GRAÇA",
      "house": "",
      "postcode": "8500-500",
      "city": "PORTIMÃO",
      "lon": "-8.546432917797434",
      "lat": "37.136353196264075"
    },
    {
      "id": "pt.ine.add.PTCONT.1579000",
      "street": "R FERNANDO LOPES GRAÇA",
      "house": "",
      "postcode": "8500-500",
      "city": "PORTIMÃO",
      "lon": "-8.546432917797434",
      "lat": "37.136353196264075"
    },
    {
      "id": "pt.ine.add.PTCONT.1587138",
      "street": "R FERNANDO LOPES GRAÇA",
      "house": "",
      "postcode": "8500-500",
      "city": "PORTIMÃO",
      "lon": "-8.54648688539947",
      "lat": "37.13592951210936"
    },
    {
      "id": "pt.ine.add.PTCONT.1587139",
      "street": "R FERNANDO LOPES GRAÇA",
      "house": "",
      "postcode": "8500-500",
      "city": "PORTIMÃO",
      "lon": "-8.54648688539947",
      "lat": "37.13592951210936"
    },
    {
      "id": "pt.ine.add.PTCONT.1646384",
      "street": "R FERNANDO LOPES GRAÇA",
      "house": "",
      "postcode": "8500-500",
      "city": "PORTIMÃO",
      "lon": "-8.546488257978305",
      "lat": "37.1361818027957"
    },
    {
      "id": "pt.ine.add.PTCONT.1646385",
      "street": "R FERNANDO LOPES GRAÇA",
      "house": "",
      "postcode": "8500-500",
      "city": "PORTIMÃO",
      "lon": "-8.546488257978305",
      "lat": "37.1361818027957"
    },
    {
      "id": "pt.ine.add.PTCONT.1646386",
      "street": "R FERNANDO LOPES GRAÇA",
      "house": "",
      "postcode": "8500-500",
      "city": "PORTIMÃO",
      "lon": "-8.546488257978305",
      "lat": "37.1361818027957"
    },
    {
      "id": "pt.ine.add.PTCONT.1667483",
      "street": "R FERNANDO LOPES GRAÇA",
      "house": "",
      "postcode": "8500-500",
      "city": "PORTIMÃO",
      "lon": "-8.546499267158271",
      "lat": "37.13613671164069"
    },
    {
      "id": "pt.ine.add.PTCONT.1667580",
      "street": "R FERNANDO LOPES GRAÇA",
      "house": "",
      "postcode": "8500-500",
      "city": "PORTIMÃO",
      "lon": "-8.546499267158271",
      "lat": "37.13613671164069"
    },
    {
      "id": "pt.ine.add.PTCONT.1705295",
      "street": "R FERNANDO LOPES GRACA",
      "house": "",
      "postcode": "8500-500",
      "city": "PORTIMÃO",
      "lon": "-8.546552842025672",
      "lat": "37.135640944386196"
    },
    {
      "id": "pt.ine.add.PTCONT.1705296",
      "street": "URB STO EXPEDITO",
      "house": "44",
      "postcode": "8500-500",
      "city": "PORTIMÃO",
      "lon": "-8.546552842025672",
      "lat": "37.135640944386196"
    },
    {
      "id": "pt.ine.add.PTCONT.1705297",
      "street": "R FERNANDO LOPES GRACA",
      "house": "",
      "postcode": "8500-500",
      "city": "PORTIMÃO",
      "lon": "-8.546552842025672",
      "lat": "37.135640944386196"
    },
    {
      "id": "pt.ine.add.PTCONT.1755085",
      "street": "R FERNANDO LOPES GRAÇA",
      "house": "",
      "postcode": "8500-500",
      "city": "PORTIMÃO",
      "lon": "-8.546476366433502",
      "lat": "37.13606470708185"
    },
    {
      "id": "pt.ine.add.PTCONT.1755086",
      "street": "R FERNANDO LOPES GRAÇA",
      "house": "",
      "postcode": "8500-500",
      "city": "PORTIMÃO",
      "lon": "-8.546476366433502",
      "lat": "37.13606470708185"
    },
    {
      "id": "pt.ine.add.PTCONT.1755087",
      "street": "R FERNANDO LOPES GRAÇA",
      "house": "",
      "postcode": "8500-500",
      "city": "PORTIMÃO",
      "lon": "-8.546498531827671",
      "lat": "37.13600155591636"
    },
    {
      "id": "pt.ine.add.PTCONT.1755088",
      "street": "R FERNANDO LOPES GRAÇA",
      "house": "",
      "postcode": "8500-500",
      "city": "PORTIMÃO",
      "lon": "-8.546498531827671",
      "lat": "37.13600155591636"
    },
    {
      "id": "pt.ine.add.PTCONT.1800154",
      "street": "R FERNANDO LOPES GRAÇA",
      "house": "",
      "postcode": "8500-500",
      "city": "PORTIMÃO",
      "lon": "-8.546519912797963",
      "lat": "37.13579423863577"
    },
    {
      "id": "pt.ine.add.PTCONT.1800155",
      "street": "R FERNANDO LOPES GRAÇA",
      "house": "",
      "postcode": "8500-500",
      "city": "PORTIMÃO",
      "lon": "-8.546519912797963",
      "lat": "37.13579423863577"
    },
    {
      "id": "pt.ine.add.PTCONT.1803210",
      "street": "URB STO EXPEDITO",
      "house": "45",
      "postcode": "8500-500",
      "city": "PORTIMÃO",
      "lon": "-8.546541980026024",
      "lat": "37.135713066695736"
    },
    {
      "id": "pt.ine.add.PTCONT.1803211",
      "street": "URB STO EXPEDITO",
      "house": "45",
      "postcode": "8500-500",
      "city": "PORTIMÃO",
      "lon": "-8.546541980026024",
      "lat": "37.135713066695736"
    },
    {
      "id": "pt.ine.add.PTCONT.1840011",
      "street": "R FERNANDO LOPES GRAÇA",
      "house": "",
      "postcode": "8500-500",
      "city": "PORTIMÃO",
      "lon": "-8.546488257978305",
      "lat": "37.1361818027957"
    },
    {
      "id": "pt.ine.add.PTCONT.1846128",
      "street": "R FERNANDO LOPES GRAÇA",
      "house": "",
      "postcode": "8500-500",
      "city": "PORTIMÃO",
      "lon": "-8.546498531827671",
      "lat": "37.13600155591636"
    }
  ]
}