{
  "data": {
    "distrito": "Santarém",
    "concelho": "Rio Maior",
    "freguesia": "União das freguesias de Azambujeira e Malaqueijo",
    "OBJECTID": 233,
    "BGRI2021": "14141500105",
    "DT21": "14",
    "DTMN21": "1414",
    "DTMNFR21": "141415",
    "DTMNFRSEC21": "141415001",
    "SECNUM21": "001",
    "SSNUM21": "05",
    "SECSSNUM21": "00105",
    "OBJECTID_1": 152760,
    "DT": "14",
    "CC": "14",
    "fr": "15",
    "SEC": "001",
    "SS": "05"
  },
  "addresses": [
    {
      "id": "pt.ine.add.PTCONT.4391735",
      "street": "R FRANCISCO AUGUSTO FERREIRA CAMPOS",
      "house": "",
      "postcode": "2040-052",
      "city": "AZAMBUJEIRA",
      "lon": "-8.792218480403418",
      "lat": "39.26871492875771"
    },
    {
      "id": "pt.ine.add.PTCONT.4397365",
      "street": "ESTR CARVALHAL",
      "house": "1",
      "postcode": "2040-052",
      "city": "AZAMBUJEIRA",
      "lon": "-8.792958076981398",
      "lat": "39.27097155101653"
    },
    {
      "id": "pt.ine.add.PTCONT.4408466",
      "street": "R PADRE FRANCISCO SARAMAGO",
      "house": "7",
      "postcode": "2040-052",
      "city": "AZAMBUJEIRA",
      "lon": "-8.792920020545377",
      "lat": "39.270620485354385"
    },
    {
      "id": "pt.ine.add.PTCONT.4408467",
      "street": "R PADRE FRANCISCO SARAMAGO",
      "house": "9",
      "postcode": "2040-052",
      "city": "AZAMBUJEIRA",
      "lon": "-8.792802796034799",
      "lat": "39.27047703410148"
    },
    {
      "id": "pt.ine.add.PTCONT.4417107",
      "street": "ESTR CARVALHAL",
      "house": "3",
      "postcode": "2040-052",
      "city": "AZAMBUJEIRA",
      "lon": "-8.792841527468545",
      "lat": "39.27090015369116"
    },
    {
      "id": "pt.ine.add.PTCONT.4425773",
      "street": "R PADRE FRANCISCO SARAMAGO",
      "house": "17",
      "postcode": "2040-052",
      "city": "AZAMBUJEIRA",
      "lon": "-8.792343633383469",
      "lat": "39.26970501402422"
    },
    {
      "id": "pt.ine.add.PTCONT.4428151",
      "street": "",
      "house": "",
      "postcode": "2040-052",
      "city": "AZAMBUJEIRA",
      "lon": "-8.792359803121814",
      "lat": "39.26895732360436"
    },
    {
      "id": "pt.ine.add.PTCONT.4437252",
      "street": "R PADRE FRANCISCO SARAMAGO",
      "house": "11",
      "postcode": "2040-052",
      "city": "AZAMBUJEIRA",
      "lon": "-8.792720671609832",
      "lat": "39.27036941276147"
    },
    {
      "id": "pt.ine.add.PTCONT.4446250",
      "street": "LG 1 MAIO",
      "house": "3",
      "postcode": "2040-052",
      "city": "AZAMBUJEIRA",
      "lon": "-8.791954541929972",
      "lat": "39.26775265013946"
    },
    {
      "id": "pt.ine.add.PTCONT.4448358",
      "street": "R FRANCISCO AUGUSTO FERREIRA CAMPOS",
      "house": "1",
      "postcode": "2040-052",
      "city": "AZAMBUJEIRA",
      "lon": "-8.792558049279908",
      "lat": "39.26909130933269"
    },
    {
      "id": "pt.ine.add.PTCONT.4450406",
      "street": "R PADRE FRANCISCO SARAMAGO",
      "house": "13",
      "postcode": "2040-052",
      "city": "AZAMBUJEIRA",
      "lon": "-8.792449606078062",
      "lat": "39.26988455833271"
    },
    {
      "id": "pt.ine.add.PTCONT.4494557",
      "street": "ESTR CARVALHAL",
      "house": "",
      "postcode": "2040-052",
      "city": "AZAMBUJEIRA",
      "lon": "-8.792922723543589",
      "lat": "39.27090870085451"
    },
    {
      "id": "pt.ine.add.PTCONT.4541535",
      "street": "TV LARANJEIRAS",
      "house": "1",
      "postcode": "2040-052",
      "city": "AZAMBUJEIRA",
      "lon": "-8.791740546220959",
      "lat": "39.268411387571334"
    },
    {
      "id": "pt.ine.add.PTCONT.4568506",
      "street": "BC ESCOLAS",
      "house": "1",
      "postcode": "2040-052",
      "city": "AZAMBUJEIRA",
      "lon": "-8.792287553959639",
      "lat": "39.269903490212904"
    },
    {
      "id": "pt.ine.add.PTCONT.4587242",
      "street": "R PADRE SARAMAGO",
      "house": "19",
      "postcode": "2040-052",
      "city": "AZAMBUJEIRA",
      "lon": "-8.792433207895364",
      "lat": "39.26937123993034"
    },
    {
      "id": "pt.ine.add.PTCONT.4617678",
      "street": "R FRANCISCO AUGUSTO FERREIRA CAMPOS",
      "house": "3",
      "postcode": "2040-052",
      "city": "AZAMBUJEIRA",
      "lon": "-8.792358874818902",
      "lat": "39.2688582494833"
    },
    {
      "id": "pt.ine.add.PTCONT.4622663",
      "street": "TV LARANJEIRAS",
      "house": "2",
      "postcode": "2040-052",
      "city": "AZAMBUJEIRA",
      "lon": "-8.792076568192817",
      "lat": "39.26840948654455"
    },
    {
      "id": "pt.ine.add.PTCONT.4624720",
      "street": "LG 1 MAIO",
      "house": "",
      "postcode": "2040-052",
      "city": "AZAMBUJEIRA",
      "lon": "-8.79225706579736",
      "lat": "39.267886046388085"
    },
    {
      "id": "pt.ine.add.PTCONT.4655630",
      "street": "R PADRE FRANCISCO SARAMAGO",
      "house": "",
      "postcode": "2040-052",
      "city": "AZAMBUJEIRA",
      "lon": "-8.79282816649916",
      "lat": "39.270711077915394"
    },
    {
      "id": "pt.ine.add.PTCONT.4662767",
      "street": "R PADRE FRANCISCO SARAMAGO",
      "house": "15",
      "postcode": "2040-052",
      "city": "AZAMBUJEIRA",
      "lon": "-8.792413325244098",
      "lat": "39.2697226338909"
    }
  ]
}