{
  "data": {
    "distrito": "Santarém",
    "concelho": "Rio Maior",
    "freguesia": "União das freguesias de Azambujeira e Malaqueijo",
    "OBJECTID": 63,
    "BGRI2021": "14141500123",
    "DT21": "14",
    "DTMN21": "1414",
    "DTMNFR21": "141415",
    "DTMNFRSEC21": "141415001",
    "SECNUM21": "001",
    "SSNUM21": "23",
    "SECSSNUM21": "00123",
    "OBJECTID_1": 152825,
    "DT": "14",
    "CC": "14",
    "fr": "15",
    "SEC": "001",
    "SS": "23"
  },
  "addresses": [
    {
      "id": "pt.ine.add.PTCONT.4407262",
      "street": "R CARRIL",
      "house": "1",
      "postcode": "2040-535",
      "city": "MALAQUEIJO",
      "lon": "-8.82210131016787",
      "lat": "39.29457272030738"
    },
    {
      "id": "pt.ine.add.PTCONT.4433775",
      "street": "TV POÇO DO LARGO",
      "house": "5",
      "postcode": "2040-535",
      "city": "MALAQUEIJO",
      "lon": "-8.822343577407327",
      "lat": "39.29445419320474"
    },
    {
      "id": "pt.ine.add.PTCONT.4462755",
      "street": "TV POÇO DO LARGO",
      "house": "3",
      "postcode": "2040-535",
      "city": "MALAQUEIJO",
      "lon": "-8.822226959215364",
      "lat": "39.29438282618749"
    },
    {
      "id": "pt.ine.add.PTCONT.4488261",
      "street": "R CARRIL",
      "house": "9",
      "postcode": "2040-535",
      "city": "MALAQUEIJO",
      "lon": "-8.82289004219762",
      "lat": "39.29462209304734"
    },
    {
      "id": "pt.ine.add.PTCONT.4510180",
      "street": "LG CONTRADANCA",
      "house": "4",
      "postcode": "2040-535",
      "city": "MALAQUEIJO",
      "lon": "-8.821889314946938",
      "lat": "39.29423170235459"
    },
    {
      "id": "pt.ine.add.PTCONT.4526646",
      "street": "R CARRIL",
      "house": "5",
      "postcode": "2040-535",
      "city": "MALAQUEIJO",
      "lon": "-8.822611853151638",
      "lat": "39.294623740875295"
    },
    {
      "id": "pt.ine.add.PTCONT.4543324",
      "street": "R CERRADAO",
      "house": "10",
      "postcode": "2040-535",
      "city": "MALAQUEIJO",
      "lon": "-8.823061965498995",
      "lat": "39.29442291670262"
    },
    {
      "id": "pt.ine.add.PTCONT.4583358",
      "street": "R CERRADAO",
      "house": "2",
      "postcode": "2040-535",
      "city": "MALAQUEIJO",
      "lon": "-8.822224928456707",
      "lat": "39.294175673386015"
    },
    {
      "id": "pt.ine.add.PTCONT.4585468",
      "street": "R CARRIL",
      "house": "11",
      "postcode": "2040-535",
      "city": "MALAQUEIJO",
      "lon": "-8.823145314041279",
      "lat": "39.29464760187824"
    },
    {
      "id": "pt.ine.add.PTCONT.4591343",
      "street": "R CERRADAO",
      "house": "3",
      "postcode": "2040-535",
      "city": "MALAQUEIJO",
      "lon": "-8.823001799778494",
      "lat": "39.29419809408858"
    },
    {
      "id": "pt.ine.add.PTCONT.4610027",
      "street": "R CARRIL",
      "house": "3",
      "postcode": "2040-535",
      "city": "MALAQUEIJO",
      "lon": "-8.822205630998283",
      "lat": "39.29457210290788"
    },
    {
      "id": "pt.ine.add.PTCONT.4610028",
      "street": "R CERRADAO",
      "house": "5",
      "postcode": "2040-535",
      "city": "MALAQUEIJO",
      "lon": "-8.823095059323942",
      "lat": "39.294251584432686"
    },
    {
      "id": "pt.ine.add.PTCONT.4628766",
      "street": "TV POÇO DO LARGO",
      "house": "1",
      "postcode": "2040-535",
      "city": "MALAQUEIJO",
      "lon": "-8.82206406489064",
      "lat": "39.29432074006604"
    },
    {
      "id": "pt.ine.add.PTCONT.4653432",
      "street": "R CERRADAO",
      "house": "12",
      "postcode": "2040-535",
      "city": "MALAQUEIJO",
      "lon": "-8.8231668165754",
      "lat": "39.294476338293315"
    },
    {
      "id": "pt.ine.add.PTCONT.4660953",
      "street": "R DR BERNARDO ALMEIDA",
      "house": "3",
      "postcode": "2040-535",
      "city": "MALAQUEIJO",
      "lon": "-8.822281559637249",
      "lat": "39.29404023068366"
    }
  ]
}