{
  "data": {
    "distrito": "Santarém",
    "concelho": "Rio Maior",
    "freguesia": "União das freguesias de Azambujeira e Malaqueijo",
    "OBJECTID": 465,
    "BGRI2021": "14141500131",
    "DT21": "14",
    "DTMN21": "1414",
    "DTMNFR21": "141415",
    "DTMNFRSEC21": "141415001",
    "SECNUM21": "001",
    "SSNUM21": "31",
    "SECSSNUM21": "00131",
    "OBJECTID_1": 152900,
    "DT": "14",
    "CC": "14",
    "fr": "15",
    "SEC": "001",
    "SS": "31"
  },
  "addresses": [
    {
      "id": "pt.ine.add.PTCONT.4396773",
      "street": "R DR SILVINO SEQUEIRA",
      "house": "2",
      "postcode": "2040-535",
      "city": "MALAQUEIJO",
      "lon": "-8.819912947954302",
      "lat": "39.29482884358328"
    },
    {
      "id": "pt.ine.add.PTCONT.4396774",
      "street": "R DR SILVINO SEQUEIRA",
      "house": "10",
      "postcode": "2040-535",
      "city": "MALAQUEIJO",
      "lon": "-8.821221524744049",
      "lat": "39.29469501655984"
    },
    {
      "id": "pt.ine.add.PTCONT.4415523",
      "street": "R CARRIL",
      "house": "12",
      "postcode": "2040-535",
      "city": "MALAQUEIJO",
      "lon": "-8.822834383849038",
      "lat": "39.29485660908319"
    },
    {
      "id": "pt.ine.add.PTCONT.4419333",
      "street": "LG PRIMEIRO MAIO",
      "house": "2",
      "postcode": "2040-535",
      "city": "MALAQUEIJO",
      "lon": "-8.821941681072587",
      "lat": "39.29484387982334"
    },
    {
      "id": "pt.ine.add.PTCONT.4427665",
      "street": "R EIRAS",
      "house": "22",
      "postcode": "2040-535",
      "city": "MALAQUEIJO",
      "lon": "-8.819383091764925",
      "lat": "39.295174240333004"
    },
    {
      "id": "pt.ine.add.PTCONT.4428622",
      "street": "R DR SILVINO SEQUEIRA",
      "house": "8",
      "postcode": "2040-535",
      "city": "MALAQUEIJO",
      "lon": "-8.821001732137242",
      "lat": "39.294741351217006"
    },
    {
      "id": "pt.ine.add.PTCONT.4439904",
      "street": "R ESCOLA VELHA",
      "house": "2",
      "postcode": "2040-535",
      "city": "MALAQUEIJO",
      "lon": "-8.823079302947859",
      "lat": "39.29500827969326"
    },
    {
      "id": "pt.ine.add.PTCONT.4452297",
      "street": "R EIRAS",
      "house": "28",
      "postcode": "2040-535",
      "city": "MALAQUEIJO",
      "lon": "-8.819681738711779",
      "lat": "39.29489325742995"
    },
    {
      "id": "pt.ine.add.PTCONT.4475069",
      "street": "R ESCOLA VELHA",
      "house": "4",
      "postcode": "2040-535",
      "city": "MALAQUEIJO",
      "lon": "-8.823113546307766",
      "lat": "39.29495403376521"
    },
    {
      "id": "pt.ine.add.PTCONT.4488135",
      "street": "R PROF MARIA AMELIA OLIVEIRA",
      "house": "2",
      "postcode": "2040-535",
      "city": "MALAQUEIJO",
      "lon": "-8.823765931289998",
      "lat": "39.29528343063058"
    },
    {
      "id": "pt.ine.add.PTCONT.4494383",
      "street": "R EIRAS",
      "house": "26",
      "postcode": "2040-535",
      "city": "MALAQUEIJO",
      "lon": "-8.819798883121933",
      "lat": "39.29501866688804"
    },
    {
      "id": "pt.ine.add.PTCONT.4497635",
      "street": "R PROF MARIA AMELIA OLIVEIRA",
      "house": "8",
      "postcode": "2040-535",
      "city": "MALAQUEIJO",
      "lon": "-8.824735365832607",
      "lat": "39.29602527029358"
    },
    {
      "id": "pt.ine.add.PTCONT.4499615",
      "street": "R CARRIL",
      "house": "14",
      "postcode": "2040-535",
      "city": "MALAQUEIJO",
      "lon": "-8.822984981684305",
      "lat": "39.29484670965861"
    },
    {
      "id": "pt.ine.add.PTCONT.4499616",
      "street": "R PROF MARIA AMELIA OLIVEIRA",
      "house": "10",
      "postcode": "2040-535",
      "city": "MALAQUEIJO",
      "lon": "-8.825093459016589",
      "lat": "39.2958970422103"
    },
    {
      "id": "pt.ine.add.PTCONT.4518881",
      "street": "R COMBATENTES ULTRAMAR",
      "house": "6",
      "postcode": "2040-535",
      "city": "MALAQUEIJO",
      "lon": "-8.824065800456328",
      "lat": "39.29512852958504"
    },
    {
      "id": "pt.ine.add.PTCONT.4529028",
      "street": "R COMBATENTES ULTRAMAR",
      "house": "10",
      "postcode": "2040-535",
      "city": "MALAQUEIJO",
      "lon": "-8.824542460824812",
      "lat": "39.2952698143823"
    },
    {
      "id": "pt.ine.add.PTCONT.4533603",
      "street": "R EIRAS",
      "house": "24",
      "postcode": "2040-535",
      "city": "MALAQUEIJO",
      "lon": "-8.819440784491846",
      "lat": "39.29514687875118"
    },
    {
      "id": "pt.ine.add.PTCONT.4541619",
      "street": "R PROF MARIA AMELIA OLIVEIRA",
      "house": "7",
      "postcode": "2040-535",
      "city": "MALAQUEIJO",
      "lon": "-8.824358416944342",
      "lat": "39.29541502186081"
    },
    {
      "id": "pt.ine.add.PTCONT.4553702",
      "street": "R COMBATENTES ULTRAMAR",
      "house": "8",
      "postcode": "2040-535",
      "city": "MALAQUEIJO",
      "lon": "-8.824424953283375",
      "lat": "39.295108383229376"
    },
    {
      "id": "pt.ine.add.PTCONT.4562131",
      "street": "R ESCOLA VELHA",
      "house": "6",
      "postcode": "2040-535",
      "city": "MALAQUEIJO",
      "lon": "-8.823183801240923",
      "lat": "39.295025674692965"
    },
    {
      "id": "pt.ine.add.PTCONT.4575002",
      "street": "R ESCOLA VELHA",
      "house": "8",
      "postcode": "2040-535",
      "city": "MALAQUEIJO",
      "lon": "-8.823427483370327",
      "lat": "39.295051251592085"
    },
    {
      "id": "pt.ine.add.PTCONT.4587649",
      "street": "R CARRIL",
      "house": "10",
      "postcode": "2040-535",
      "city": "MALAQUEIJO",
      "lon": "-8.822636890876078",
      "lat": "39.29481274306542"
    },
    {
      "id": "pt.ine.add.PTCONT.4605330",
      "street": "R DR SILVINO SEQUEIRA",
      "house": "12",
      "postcode": "2040-535",
      "city": "MALAQUEIJO",
      "lon": "-8.821453172861217",
      "lat": "39.29467563289344"
    },
    {
      "id": "pt.ine.add.PTCONT.4616226",
      "street": "LG PRIMEIRO MAIO",
      "house": "1",
      "postcode": "2040-535",
      "city": "MALAQUEIJO",
      "lon": "-8.822312865929721",
      "lat": "39.294868704623894"
    },
    {
      "id": "pt.ine.add.PTCONT.4629140",
      "street": "R PROF MARIA AMELIA OLIVEIRA",
      "house": "3",
      "postcode": "2040-535",
      "city": "MALAQUEIJO",
      "lon": "-8.82388042831325",
      "lat": "39.29513863673454"
    },
    {
      "id": "pt.ine.add.PTCONT.4646456",
      "street": "R COMBATENTES DO ULTRAMAR",
      "house": "2",
      "postcode": "2040-535",
      "city": "MALAQUEIJO",
      "lon": "-8.823832381600745",
      "lat": "39.294967785669556"
    },
    {
      "id": "pt.ine.add.PTCONT.4650330",
      "street": "R DR SILVINO SEQUEIRA",
      "house": "6",
      "postcode": "2040-535",
      "city": "MALAQUEIJO",
      "lon": "-8.820666026810876",
      "lat": "39.29478837004089"
    }
  ]
}