{
  "data": {
    "distrito": "Faro",
    "concelho": "Faro",
    "freguesia": "União das freguesias de Faro (Sé e São Pedro)",
    "OBJECTID": 588,
    "BGRI2021": "08050800413",
    "DT21": "08",
    "DTMN21": "0805",
    "DTMNFR21": "080508",
    "DTMNFRSEC21": "080508004",
    "SECNUM21": "004",
    "SSNUM21": "13",
    "SECSSNUM21": "00413",
    "OBJECTID_1": 66756,
    "DT": "08",
    "CC": "05",
    "fr": "08",
    "SEC": "004",
    "SS": "13"
  },
  "addresses": [
    {
      "id": "pt.ine.add.PTCONT.1469708",
      "street": "R D DIOGO DE MENDONÇA CORTE-REAL",
      "house": "4",
      "postcode": "8000-305",
      "city": "FARO",
      "lon": "-7.936436386073157",
      "lat": "37.02227666335917"
    },
    {
      "id": "pt.ine.add.PTCONT.1490192",
      "street": "R MANUEL ASCENSÃO",
      "house": "20",
      "postcode": "8000-389",
      "city": "FARO",
      "lon": "-7.936224055707611",
      "lat": "37.021816761722754"
    },
    {
      "id": "pt.ine.add.PTCONT.1490193",
      "street": "R MANUEL ASCENSÃO",
      "house": "20",
      "postcode": "8000-389",
      "city": "FARO",
      "lon": "-7.936224055707611",
      "lat": "37.021816761722754"
    },
    {
      "id": "pt.ine.add.PTCONT.1492012",
      "street": "R MANUEL ASCENSÃO",
      "house": "20",
      "postcode": "8000-389",
      "city": "FARO",
      "lon": "-7.936224055707611",
      "lat": "37.021816761722754"
    },
    {
      "id": "pt.ine.add.PTCONT.1507749",
      "street": "R MANUEL ASCENSÃO",
      "house": "36",
      "postcode": "8000-389",
      "city": "FARO",
      "lon": "-7.93648154584277",
      "lat": "37.02219564121347"
    },
    {
      "id": "pt.ine.add.PTCONT.1513112",
      "street": "R FREDERICO LECOR",
      "house": "5",
      "postcode": "8000-347",
      "city": "FARO",
      "lon": "-7.93513452032536",
      "lat": "37.02161671206047"
    },
    {
      "id": "pt.ine.add.PTCONT.1513113",
      "street": "R FREDERICO LECOR",
      "house": "5",
      "postcode": "8000-347",
      "city": "FARO",
      "lon": "-7.93513452032536",
      "lat": "37.02161671206047"
    },
    {
      "id": "pt.ine.add.PTCONT.1521536",
      "street": "R ABOIM ASCENSÃO",
      "house": "57",
      "postcode": "8000-199",
      "city": "FARO",
      "lon": "-7.935472138361997",
      "lat": "37.02142804849903"
    },
    {
      "id": "pt.ine.add.PTCONT.1521537",
      "street": "R ABOIM ASCENSÃO",
      "house": "57",
      "postcode": "8000-199",
      "city": "FARO",
      "lon": "-7.935472138361997",
      "lat": "37.02142804849903"
    },
    {
      "id": "pt.ine.add.PTCONT.1521538",
      "street": "R ABOIM ASCENSÃO",
      "house": "57",
      "postcode": "8000-199",
      "city": "FARO",
      "lon": "-7.935472138361997",
      "lat": "37.02142804849903"
    },
    {
      "id": "pt.ine.add.PTCONT.1521539",
      "street": "R ABOIM ASCENSÃO",
      "house": "57",
      "postcode": "8000-199",
      "city": "FARO",
      "lon": "-7.935472138361997",
      "lat": "37.02142804849903"
    },
    {
      "id": "pt.ine.add.PTCONT.1521551",
      "street": "R ABOIM ASCENSÃO",
      "house": "57",
      "postcode": "8000-199",
      "city": "FARO",
      "lon": "-7.935472138361997",
      "lat": "37.02142804849903"
    },
    {
      "id": "pt.ine.add.PTCONT.1524493",
      "street": "R CERCADO",
      "house": "7",
      "postcode": "8000-298",
      "city": "FARO",
      "lon": "-7.93583097175669",
      "lat": "37.02172600116738"
    },
    {
      "id": "pt.ine.add.PTCONT.1524494",
      "street": "R CERCADO",
      "house": "7",
      "postcode": "8000-298",
      "city": "FARO",
      "lon": "-7.93583097175669",
      "lat": "37.02172600116738"
    },
    {
      "id": "pt.ine.add.PTCONT.1524495",
      "street": "R CERCADO",
      "house": "7",
      "postcode": "8000-298",
      "city": "FARO",
      "lon": "-7.93583097175669",
      "lat": "37.02172600116738"
    },
    {
      "id": "pt.ine.add.PTCONT.1542683",
      "street": "R ABOIM ASCENSÃO",
      "house": "53",
      "postcode": "8000-199",
      "city": "FARO",
      "lon": "-7.935573276482802",
      "lat": "37.02142821688885"
    },
    {
      "id": "pt.ine.add.PTCONT.1553090",
      "street": "R CERCADO",
      "house": "15",
      "postcode": "8000-298",
      "city": "FARO",
      "lon": "-7.935965241068054",
      "lat": "37.021951493693464"
    },
    {
      "id": "pt.ine.add.PTCONT.1565972",
      "street": "R MANUEL ASCENSÃO",
      "house": "16",
      "postcode": "8000-389",
      "city": "FARO",
      "lon": "-7.9361794773052425",
      "lat": "37.021672515338864"
    },
    {
      "id": "pt.ine.add.PTCONT.1565973",
      "street": "R MANUEL ASCENSÃO",
      "house": "16",
      "postcode": "8000-389",
      "city": "FARO",
      "lon": "-7.9361794773052425",
      "lat": "37.021672515338864"
    },
    {
      "id": "pt.ine.add.PTCONT.1565974",
      "street": "R MANUEL ASCENSÃO",
      "house": "16",
      "postcode": "8000-389",
      "city": "FARO",
      "lon": "-7.9361794773052425",
      "lat": "37.021672515338864"
    },
    {
      "id": "pt.ine.add.PTCONT.1572781",
      "street": "R FREDERICO LECOR",
      "house": "9",
      "postcode": "8000-347",
      "city": "FARO",
      "lon": "-7.935145477379507",
      "lat": "37.02172485965172"
    },
    {
      "id": "pt.ine.add.PTCONT.1594724",
      "street": "R FREDERICO LECOR",
      "house": "11",
      "postcode": "8000-347",
      "city": "FARO",
      "lon": "-7.935179003219612",
      "lat": "37.02179700178009"
    },
    {
      "id": "pt.ine.add.PTCONT.1603753",
      "street": "R ABOIM ASCENSÃO",
      "house": "69",
      "postcode": "8000-199",
      "city": "FARO",
      "lon": "-7.9352248884790555",
      "lat": "37.021436647254156"
    },
    {
      "id": "pt.ine.add.PTCONT.1607304",
      "street": "R D DIOGO DE MENDONÇA CORTE-REAL",
      "house": "8",
      "postcode": "8000-305",
      "city": "FARO",
      "lon": "-7.936278779407229",
      "lat": "37.02238453136169"
    },
    {
      "id": "pt.ine.add.PTCONT.1614848",
      "street": "R CERCADO",
      "house": "13",
      "postcode": "8000-298",
      "city": "FARO",
      "lon": "-7.935886787164734",
      "lat": "37.02187026635525"
    },
    {
      "id": "pt.ine.add.PTCONT.1614849",
      "street": "R ABOIM ASCENSÃO",
      "house": "67",
      "postcode": "8000-199",
      "city": "FARO",
      "lon": "-7.935281076329334",
      "lat": "37.02143674093177"
    },
    {
      "id": "pt.ine.add.PTCONT.1614850",
      "street": "R ABOIM ASCENSÃO",
      "house": "67",
      "postcode": "8000-199",
      "city": "FARO",
      "lon": "-7.935281076329334",
      "lat": "37.02143674093177"
    },
    {
      "id": "pt.ine.add.PTCONT.1614851",
      "street": "R ABOIM ASCENSÃO",
      "house": "67",
      "postcode": "8000-199",
      "city": "FARO",
      "lon": "-7.935281076329334",
      "lat": "37.02143674093177"
    },
    {
      "id": "pt.ine.add.PTCONT.1654365",
      "street": "R DR RODRIGUES DAVIM",
      "house": "14",
      "postcode": "8000-336",
      "city": "FARO",
      "lon": "-7.935302733874381",
      "lat": "37.02175215420021"
    },
    {
      "id": "pt.ine.add.PTCONT.1662740",
      "street": "R MANUEL ASCENSÃO",
      "house": "26",
      "postcode": "8000-389",
      "city": "FARO",
      "lon": "-7.936291342007772",
      "lat": "37.02187093799063"
    },
    {
      "id": "pt.ine.add.PTCONT.1662741",
      "street": "R MANUEL ASCENSÃO",
      "house": "26",
      "postcode": "8000-389",
      "city": "FARO",
      "lon": "-7.936291342007772",
      "lat": "37.02187093799063"
    },
    {
      "id": "pt.ine.add.PTCONT.1664254",
      "street": "R CERCADO",
      "house": "3",
      "postcode": "8000-298",
      "city": "FARO",
      "lon": "-7.935774970125391",
      "lat": "37.02165382185033"
    },
    {
      "id": "pt.ine.add.PTCONT.1673095",
      "street": "R ABOIM ASCENSÃO",
      "house": "73",
      "postcode": "8000-199",
      "city": "FARO",
      "lon": "-7.935101251825781",
      "lat": "37.021445451807175"
    },
    {
      "id": "pt.ine.add.PTCONT.1673096",
      "street": "R ABOIM ASCENSÃO",
      "house": "73",
      "postcode": "8000-199",
      "city": "FARO",
      "lon": "-7.935101251825781",
      "lat": "37.021445451807175"
    },
    {
      "id": "pt.ine.add.PTCONT.1698527",
      "street": "R DR RODRIGUES DAVIM",
      "house": "8",
      "postcode": "8000-336",
      "city": "FARO",
      "lon": "-7.935505174326806",
      "lat": "37.021689416024465"
    },
    {
      "id": "pt.ine.add.PTCONT.1707049",
      "street": "R CERCADO",
      "house": "27",
      "postcode": "8000-298",
      "city": "FARO",
      "lon": "-7.936166355787057",
      "lat": "37.02240236639361"
    },
    {
      "id": "pt.ine.add.PTCONT.1707050",
      "street": "R CERCADO",
      "house": "27",
      "postcode": "8000-298",
      "city": "FARO",
      "lon": "-7.936166355787057",
      "lat": "37.02240236639361"
    },
    {
      "id": "pt.ine.add.PTCONT.1707051",
      "street": "R DR RODRIGUES DAVIM",
      "house": "12",
      "postcode": "8000-336",
      "city": "FARO",
      "lon": "-7.93540396581607",
      "lat": "37.021716279787135"
    },
    {
      "id": "pt.ine.add.PTCONT.1709902",
      "street": "R MANUEL ASCENSÃO",
      "house": "32",
      "postcode": "8000-389",
      "city": "FARO",
      "lon": "-7.936347135155106",
      "lat": "37.02202421369851"
    },
    {
      "id": "pt.ine.add.PTCONT.1723600",
      "street": "R MANUEL ASCENSÃO",
      "house": "18",
      "postcode": "8000-389",
      "city": "FARO",
      "lon": "-7.936213027354093",
      "lat": "37.02173564644101"
    },
    {
      "id": "pt.ine.add.PTCONT.1723601",
      "street": "R MANUEL ASCENSÃO",
      "house": "18",
      "postcode": "8000-389",
      "city": "FARO",
      "lon": "-7.936213027354093",
      "lat": "37.02173564644101"
    },
    {
      "id": "pt.ine.add.PTCONT.1723602",
      "street": "R MANUEL ASCENSÃO",
      "house": "18",
      "postcode": "8000-389",
      "city": "FARO",
      "lon": "-7.936213027354093",
      "lat": "37.02173564644101"
    },
    {
      "id": "pt.ine.add.PTCONT.1760052",
      "street": "R CERCADO",
      "house": "17",
      "postcode": "8000-298",
      "city": "FARO",
      "lon": "-7.935976245907453",
      "lat": "37.02204161973158"
    },
    {
      "id": "pt.ine.add.PTCONT.1763912",
      "street": "R ABOIM ASCENSÃO",
      "house": "61",
      "postcode": "8000-199",
      "city": "FARO",
      "lon": "-7.935348478395637",
      "lat": "37.02144586404734"
    },
    {
      "id": "pt.ine.add.PTCONT.1764039",
      "street": "R ABOIM ASCENSÃO",
      "house": "61",
      "postcode": "8000-199",
      "city": "FARO",
      "lon": "-7.935348478395637",
      "lat": "37.02144586404734"
    },
    {
      "id": "pt.ine.add.PTCONT.1764040",
      "street": "R ABOIM ASCENSÃO",
      "house": "61",
      "postcode": "8000-199",
      "city": "FARO",
      "lon": "-7.935348478395637",
      "lat": "37.02144586404734"
    },
    {
      "id": "pt.ine.add.PTCONT.1764041",
      "street": "R ABOIM ASCENSÃO",
      "house": "61",
      "postcode": "8000-199",
      "city": "FARO",
      "lon": "-7.935348478395637",
      "lat": "37.02144586404734"
    },
    {
      "id": "pt.ine.add.PTCONT.1764042",
      "street": "R ABOIM ASCENSÃO",
      "house": "61",
      "postcode": "8000-199",
      "city": "FARO",
      "lon": "-7.935348478395637",
      "lat": "37.02144586404734"
    },
    {
      "id": "pt.ine.add.PTCONT.1765318",
      "street": "R ABOIM ASCENSÃO",
      "house": "61",
      "postcode": "8000-199",
      "city": "FARO",
      "lon": "-7.935348478395637",
      "lat": "37.02144586404734"
    },
    {
      "id": "pt.ine.add.PTCONT.1767359",
      "street": "R CERCADO",
      "house": "11",
      "postcode": "8000-298",
      "city": "FARO",
      "lon": "-7.935875735870028",
      "lat": "37.02179816178119"
    },
    {
      "id": "pt.ine.add.PTCONT.1778386",
      "street": "R MANUEL ASCENSÃO",
      "house": "14",
      "postcode": "8000-389",
      "city": "FARO",
      "lon": "-7.936123475382535",
      "lat": "37.02160033618479"
    },
    {
      "id": "pt.ine.add.PTCONT.1778387",
      "street": "R MANUEL ASCENSÃO",
      "house": "14",
      "postcode": "8000-389",
      "city": "FARO",
      "lon": "-7.936123475382535",
      "lat": "37.02160033618479"
    },
    {
      "id": "pt.ine.add.PTCONT.1792653",
      "street": "R FREDERICO LECOR",
      "house": "7",
      "postcode": "8000-347",
      "city": "FARO",
      "lon": "-7.935145617650867",
      "lat": "37.0216707952295"
    },
    {
      "id": "pt.ine.add.PTCONT.1795620",
      "street": "R MANUEL ASCENSÃO",
      "house": "12",
      "postcode": "8000-389",
      "city": "FARO",
      "lon": "-7.936101186317875",
      "lat": "37.021528212974246"
    },
    {
      "id": "pt.ine.add.PTCONT.1822043",
      "street": "R D DIOGO DE MENDONÇA CORTE-REAL",
      "house": "G",
      "postcode": "8000-305",
      "city": "FARO",
      "lon": "-7.936357559559902",
      "lat": "37.02233960812372"
    },
    {
      "id": "pt.ine.add.PTCONT.1831237",
      "street": "R ABOIM ASCENSÃO",
      "house": "45",
      "postcode": "8000-199",
      "city": "FARO",
      "lon": "-7.935944116266267",
      "lat": "37.0214288335807"
    }
  ]
}