{
  "data": {
    "distrito": "Santarém",
    "concelho": "Abrantes",
    "freguesia": "Tramagal",
    "OBJECTID": 450,
    "BGRI2021": "14011500307",
    "DT21": "14",
    "DTMN21": "1401",
    "DTMNFR21": "140115",
    "DTMNFRSEC21": "140115003",
    "SECNUM21": "003",
    "SSNUM21": "07",
    "SECSSNUM21": "00307",
    "OBJECTID_1": 146682,
    "DT": "14",
    "CC": "01",
    "fr": "15",
    "SEC": "003",
    "SS": "07"
  },
  "addresses": [
    {
      "id": "pt.ine.add.PTCONT.4401577",
      "street": "BC CORTICO",
      "house": "39",
      "postcode": "2205-614",
      "city": "TRAMAGAL",
      "lon": "-8.26807627632297",
      "lat": "39.44018858868665"
    },
    {
      "id": "pt.ine.add.PTCONT.4405817",
      "street": "R NSA SRA CONCEIÇÃO",
      "house": "79",
      "postcode": "2205-626",
      "city": "TRAMAGAL",
      "lon": "-8.266437048032353",
      "lat": "39.43947892101575"
    },
    {
      "id": "pt.ine.add.PTCONT.4409976",
      "street": "R NSA SRA CONCEIÇÃO",
      "house": "39",
      "postcode": "2205-626",
      "city": "TRAMAGAL",
      "lon": "-8.266018238899598",
      "lat": "39.439146138855236"
    },
    {
      "id": "pt.ine.add.PTCONT.4422206",
      "street": "R CASALINHO",
      "house": "116",
      "postcode": "2205-631",
      "city": "TRAMAGAL",
      "lon": "-8.266551523720231",
      "lat": "39.43859609716422"
    },
    {
      "id": "pt.ine.add.PTCONT.4423896",
      "street": "R NSA SRA CONCEIÇÃO",
      "house": "43",
      "postcode": "2205-626",
      "city": "TRAMAGAL",
      "lon": "-8.266146185564505",
      "lat": "39.43923606325535"
    },
    {
      "id": "pt.ine.add.PTCONT.4426348",
      "street": "LAD CABEÇO",
      "house": "31",
      "postcode": "2205-615",
      "city": "TRAMAGAL",
      "lon": "-8.268609378340829",
      "lat": "39.43954846721536"
    },
    {
      "id": "pt.ine.add.PTCONT.4426349",
      "street": "LAD CABEÇO",
      "house": "45",
      "postcode": "2205-615",
      "city": "TRAMAGAL",
      "lon": "-8.268900582940903",
      "lat": "39.43996245264537"
    },
    {
      "id": "pt.ine.add.PTCONT.4426359",
      "street": "R NSA SRA CONCEIÇÃO",
      "house": "159",
      "postcode": "2205-626",
      "city": "TRAMAGAL",
      "lon": "-8.267030274365295",
      "lat": "39.43990157161921"
    },
    {
      "id": "pt.ine.add.PTCONT.4432470",
      "street": "R NSA SRA CONCEIÇÃO",
      "house": "165",
      "postcode": "2205-626",
      "city": "TRAMAGAL",
      "lon": "-8.267181490405948",
      "lat": "39.44000948220471"
    },
    {
      "id": "pt.ine.add.PTCONT.4438643",
      "street": "R CASALINHO",
      "house": "110",
      "postcode": "2205-631",
      "city": "TRAMAGAL",
      "lon": "-8.26642366355515",
      "lat": "39.438551208440096"
    },
    {
      "id": "pt.ine.add.PTCONT.4440874",
      "street": "BC CORTICO",
      "house": "19",
      "postcode": "2205-614",
      "city": "TRAMAGAL",
      "lon": "-8.267855275185468",
      "lat": "39.44003572480524"
    },
    {
      "id": "pt.ine.add.PTCONT.4442827",
      "street": "LG FONTE",
      "house": "45",
      "postcode": "2205-617",
      "city": "TRAMAGAL",
      "lon": "-8.268947344651988",
      "lat": "39.44011551815606"
    },
    {
      "id": "pt.ine.add.PTCONT.4444836",
      "street": "R NSA SRA CONCEIÇÃO",
      "house": "145",
      "postcode": "2205-626",
      "city": "TRAMAGAL",
      "lon": "-8.26694885849256",
      "lat": "39.439847622934884"
    },
    {
      "id": "pt.ine.add.PTCONT.4450993",
      "street": "R NSA SRA CONCEIÇÃO",
      "house": "181",
      "postcode": "2205-626",
      "city": "TRAMAGAL",
      "lon": "-8.267321090813793",
      "lat": "39.44011740599476"
    },
    {
      "id": "pt.ine.add.PTCONT.4458243",
      "street": "R NSA SRA CONCEIÇÃO",
      "house": "",
      "postcode": "2205-626",
      "city": "TRAMAGAL",
      "lon": "-8.26725132510975",
      "lat": "39.44008145821209"
    },
    {
      "id": "pt.ine.add.PTCONT.4461369",
      "street": "R NSA SRA CONCEIÇÃO",
      "house": "99",
      "postcode": "2205-626",
      "city": "TRAMAGAL",
      "lon": "-8.266692754734375",
      "lat": "39.43955969122673"
    },
    {
      "id": "pt.ine.add.PTCONT.4461370",
      "street": "R NSA SRA CONCEIÇÃO",
      "house": "99",
      "postcode": "2205-626",
      "city": "TRAMAGAL",
      "lon": "-8.266692754734375",
      "lat": "39.43955969122673"
    },
    {
      "id": "pt.ine.add.PTCONT.4466602",
      "street": "R CASALINHO",
      "house": "140",
      "postcode": "2205-631",
      "city": "TRAMAGAL",
      "lon": "-8.266691051515108",
      "lat": "39.43866799355154"
    },
    {
      "id": "pt.ine.add.PTCONT.4466603",
      "street": "R CASALINHO",
      "house": "",
      "postcode": "2205-631",
      "city": "TRAMAGAL",
      "lon": "-8.266900136974904",
      "lat": "39.43866775324303"
    },
    {
      "id": "pt.ine.add.PTCONT.4473807",
      "street": "BC CORTICO",
      "house": "",
      "postcode": "2205-614",
      "city": "TRAMAGAL",
      "lon": "-8.267738975612273",
      "lat": "39.43996380295035"
    },
    {
      "id": "pt.ine.add.PTCONT.4482197",
      "street": "LAD CABEÇO",
      "house": "43",
      "postcode": "2205-615",
      "city": "TRAMAGAL",
      "lon": "-8.268690550675375",
      "lat": "39.439476316097036"
    },
    {
      "id": "pt.ine.add.PTCONT.4492997",
      "street": "R NSA SRA CONCEIÇÃO",
      "house": "111",
      "postcode": "2205-626",
      "city": "TRAMAGAL",
      "lon": "-8.266751058527458",
      "lat": "39.43967671611341"
    },
    {
      "id": "pt.ine.add.PTCONT.4510486",
      "street": "LAD CABECO",
      "house": "13",
      "postcode": "2205-615",
      "city": "TRAMAGAL",
      "lon": "-8.26819151533998",
      "lat": "39.439711080436"
    },
    {
      "id": "pt.ine.add.PTCONT.4525822",
      "street": "R NSA SRA CONCEIÇÃO",
      "house": "51",
      "postcode": "2205-626",
      "city": "TRAMAGAL",
      "lon": "-8.266227600106344",
      "lat": "39.43929001250946"
    },
    {
      "id": "pt.ine.add.PTCONT.4533355",
      "street": "R NSA SRA CONCEIÇÃO",
      "house": "69",
      "postcode": "2205-626",
      "city": "TRAMAGAL",
      "lon": "-8.266390463897896",
      "lat": "39.43941592493835"
    },
    {
      "id": "pt.ine.add.PTCONT.4548170",
      "street": "R MARIA VIEIRA",
      "house": "97",
      "postcode": "2205-638",
      "city": "TRAMAGAL",
      "lon": "-8.268482770455869",
      "lat": "39.44015208803855"
    },
    {
      "id": "pt.ine.add.PTCONT.4552204",
      "street": "LAD CABEÇO",
      "house": "42",
      "postcode": "2205-615",
      "city": "TRAMAGAL",
      "lon": "-8.268447451506947",
      "lat": "39.439908938372405"
    },
    {
      "id": "pt.ine.add.PTCONT.4560797",
      "street": "BC CORTICO",
      "house": "35",
      "postcode": "2205-614",
      "city": "TRAMAGAL",
      "lon": "-8.268029724993559",
      "lat": "39.44014360736708"
    },
    {
      "id": "pt.ine.add.PTCONT.4569182",
      "street": "R NSA SRA CONCEIÇÃO",
      "house": "5",
      "postcode": "2205-626",
      "city": "TRAMAGAL",
      "lon": "-8.265878591142615",
      "lat": "39.439011192333766"
    },
    {
      "id": "pt.ine.add.PTCONT.4582642",
      "street": "R MARIA VIEIRA",
      "house": "93",
      "postcode": "2205-638",
      "city": "TRAMAGAL",
      "lon": "-8.26838984161886",
      "lat": "39.440152196156475"
    },
    {
      "id": "pt.ine.add.PTCONT.4592125",
      "street": "R NSA SRA CONCEIÇÃO",
      "house": "59",
      "postcode": "2205-626",
      "city": "TRAMAGAL",
      "lon": "-8.266285782830929",
      "lat": "39.43934398830769"
    },
    {
      "id": "pt.ine.add.PTCONT.4642145",
      "street": "BC CORTICO",
      "house": "23",
      "postcode": "2205-614",
      "city": "TRAMAGAL",
      "lon": "-8.267913425061726",
      "lat": "39.44007168568858"
    },
    {
      "id": "pt.ine.add.PTCONT.4652142",
      "street": "BC CORTICO",
      "house": "29",
      "postcode": "2205-614",
      "city": "TRAMAGAL",
      "lon": "-8.267971574997757",
      "lat": "39.44010764654254"
    }
  ]
}