{
  "data": {
    "distrito": "Braga",
    "concelho": "Vila Nova de Famalicão",
    "freguesia": "União das freguesias de Antas e Abade de Vermoim",
    "OBJECTID": 1522,
    "BGRI2021": "03125000401",
    "DT21": "03",
    "DTMN21": "0312",
    "DTMNFR21": "031250",
    "DTMNFRSEC21": "031250004",
    "SECNUM21": "004",
    "SSNUM21": "01",
    "SECSSNUM21": "00401",
    "OBJECTID_1": 31324,
    "DT": "03",
    "CC": "12",
    "fr": "50",
    "SEC": "004",
    "SS": "01"
  },
  "addresses": [
    {
      "id": "pt.ine.add.PTCONT.473625",
      "street": "R D SANCHO I",
      "house": "1556",
      "postcode": "4760-325",
      "city": "VILA NOVA DE FAMALICÃO",
      "lon": "-8.519145117573574",
      "lat": "41.40234063724639"
    },
    {
      "id": "pt.ine.add.PTCONT.473626",
      "street": "R D SANCHO I",
      "house": "1556",
      "postcode": "4760-325",
      "city": "VILA NOVA DE FAMALICÃO",
      "lon": "-8.519145117573574",
      "lat": "41.40234063724639"
    },
    {
      "id": "pt.ine.add.PTCONT.473627",
      "street": "R D SANCHO I",
      "house": "1556",
      "postcode": "4760-325",
      "city": "VILA NOVA DE FAMALICÃO",
      "lon": "-8.519145117573574",
      "lat": "41.40234063724639"
    },
    {
      "id": "pt.ine.add.PTCONT.473628",
      "street": "R D SANCHO I",
      "house": "1556",
      "postcode": "4760-325",
      "city": "VILA NOVA DE FAMALICÃO",
      "lon": "-8.519145117573574",
      "lat": "41.40234063724639"
    },
    {
      "id": "pt.ine.add.PTCONT.473629",
      "street": "R D SANCHO I",
      "house": "1556",
      "postcode": "4760-325",
      "city": "VILA NOVA DE FAMALICÃO",
      "lon": "-8.519145117573574",
      "lat": "41.40234063724639"
    },
    {
      "id": "pt.ine.add.PTCONT.473630",
      "street": "R D SANCHO I",
      "house": "1556",
      "postcode": "4760-325",
      "city": "VILA NOVA DE FAMALICÃO",
      "lon": "-8.519145117573574",
      "lat": "41.40234063724639"
    },
    {
      "id": "pt.ine.add.PTCONT.473631",
      "street": "R D SANCHO I",
      "house": "1556",
      "postcode": "4760-325",
      "city": "VILA NOVA DE FAMALICÃO",
      "lon": "-8.519145117573574",
      "lat": "41.40234063724639"
    },
    {
      "id": "pt.ine.add.PTCONT.473632",
      "street": "R D SANCHO I",
      "house": "1556",
      "postcode": "4760-325",
      "city": "VILA NOVA DE FAMALICÃO",
      "lon": "-8.519145117573574",
      "lat": "41.40234063724639"
    },
    {
      "id": "pt.ine.add.PTCONT.473633",
      "street": "R D SANCHO I",
      "house": "1556",
      "postcode": "4760-325",
      "city": "VILA NOVA DE FAMALICÃO",
      "lon": "-8.519145117573574",
      "lat": "41.40234063724639"
    },
    {
      "id": "pt.ine.add.PTCONT.473634",
      "street": "R D SANCHO I",
      "house": "1556",
      "postcode": "4760-325",
      "city": "VILA NOVA DE FAMALICÃO",
      "lon": "-8.519145117573574",
      "lat": "41.40234063724639"
    },
    {
      "id": "pt.ine.add.PTCONT.473636",
      "street": "R D SANCHO I",
      "house": "1556",
      "postcode": "4760-325",
      "city": "VILA NOVA DE FAMALICÃO",
      "lon": "-8.519145117573574",
      "lat": "41.40234063724639"
    },
    {
      "id": "pt.ine.add.PTCONT.473715",
      "street": "R D SANCHO I",
      "house": "1556",
      "postcode": "4760-325",
      "city": "VILA NOVA DE FAMALICÃO",
      "lon": "-8.519145117573574",
      "lat": "41.40234063724639"
    },
    {
      "id": "pt.ine.add.PTCONT.506167",
      "street": "AV MARECHAL HUMBERTO DELGADO",
      "house": "39",
      "postcode": "4760-012",
      "city": "VILA NOVA DE FAMALICÃO",
      "lon": "-8.516383102120551",
      "lat": "41.40241289851341"
    },
    {
      "id": "pt.ine.add.PTCONT.506168",
      "street": "AV MARECHAL HUMBERTO DELGADO",
      "house": "39",
      "postcode": "4760-012",
      "city": "VILA NOVA DE FAMALICÃO",
      "lon": "-8.516383102120551",
      "lat": "41.40241289851341"
    },
    {
      "id": "pt.ine.add.PTCONT.506169",
      "street": "AV MARECHAL HUMBERTO DELGADO",
      "house": "39",
      "postcode": "4760-012",
      "city": "VILA NOVA DE FAMALICÃO",
      "lon": "-8.516383102120551",
      "lat": "41.40241289851341"
    },
    {
      "id": "pt.ine.add.PTCONT.506170",
      "street": "AV MARECHAL HUMBERTO DELGADO",
      "house": "39",
      "postcode": "4760-012",
      "city": "VILA NOVA DE FAMALICÃO",
      "lon": "-8.516383102120551",
      "lat": "41.40241289851341"
    },
    {
      "id": "pt.ine.add.PTCONT.506171",
      "street": "AV MARECHAL HUMBERTO DELGADO",
      "house": "39",
      "postcode": "4760-012",
      "city": "VILA NOVA DE FAMALICÃO",
      "lon": "-8.516383102120551",
      "lat": "41.40241289851341"
    },
    {
      "id": "pt.ine.add.PTCONT.506172",
      "street": "AV MARECHAL HUMBERTO DELGADO",
      "house": "39",
      "postcode": "4760-012",
      "city": "VILA NOVA DE FAMALICÃO",
      "lon": "-8.516383102120551",
      "lat": "41.40241289851341"
    },
    {
      "id": "pt.ine.add.PTCONT.550455",
      "street": "AV REBELO MESQUITA",
      "house": "136",
      "postcode": "4760-013",
      "city": "VILA NOVA DE FAMALICÃO",
      "lon": "-8.517679506926159",
      "lat": "41.40121104359331"
    },
    {
      "id": "pt.ine.add.PTCONT.562709",
      "street": "AV FRANÇA",
      "house": "1653",
      "postcode": "4760-104",
      "city": "VILA NOVA DE FAMALICÃO",
      "lon": "-8.519698831552926",
      "lat": "41.40295104871311"
    },
    {
      "id": "pt.ine.add.PTCONT.562710",
      "street": "AV FRANÇA",
      "house": "1653",
      "postcode": "4760-104",
      "city": "VILA NOVA DE FAMALICÃO",
      "lon": "-8.519698831552926",
      "lat": "41.40295104871311"
    },
    {
      "id": "pt.ine.add.PTCONT.562711",
      "street": "AV FRANÇA",
      "house": "1653",
      "postcode": "4760-104",
      "city": "VILA NOVA DE FAMALICÃO",
      "lon": "-8.519698831552926",
      "lat": "41.40295104871311"
    },
    {
      "id": "pt.ine.add.PTCONT.562712",
      "street": "AV FRANÇA",
      "house": "1653",
      "postcode": "4760-104",
      "city": "VILA NOVA DE FAMALICÃO",
      "lon": "-8.519698831552926",
      "lat": "41.40295104871311"
    },
    {
      "id": "pt.ine.add.PTCONT.562713",
      "street": "AV FRANÇA",
      "house": "1653",
      "postcode": "4760-104",
      "city": "VILA NOVA DE FAMALICÃO",
      "lon": "-8.519698831552926",
      "lat": "41.40295104871311"
    },
    {
      "id": "pt.ine.add.PTCONT.562714",
      "street": "AV FRANÇA",
      "house": "1653",
      "postcode": "4760-104",
      "city": "VILA NOVA DE FAMALICÃO",
      "lon": "-8.519698831552926",
      "lat": "41.40295104871311"
    },
    {
      "id": "pt.ine.add.PTCONT.562715",
      "street": "AV FRANÇA",
      "house": "1653",
      "postcode": "4760-104",
      "city": "VILA NOVA DE FAMALICÃO",
      "lon": "-8.519698831552926",
      "lat": "41.40295104871311"
    },
    {
      "id": "pt.ine.add.PTCONT.562716",
      "street": "AV FRANÇA",
      "house": "1653",
      "postcode": "4760-104",
      "city": "VILA NOVA DE FAMALICÃO",
      "lon": "-8.519698831552926",
      "lat": "41.40295104871311"
    },
    {
      "id": "pt.ine.add.PTCONT.562790",
      "street": "AV FRANÇA",
      "house": "1653",
      "postcode": "4760-104",
      "city": "VILA NOVA DE FAMALICÃO",
      "lon": "-8.519698831552926",
      "lat": "41.40295104871311"
    },
    {
      "id": "pt.ine.add.PTCONT.562795",
      "street": "AV FRANÇA",
      "house": "1653",
      "postcode": "4760-104",
      "city": "VILA NOVA DE FAMALICÃO",
      "lon": "-8.519698831552926",
      "lat": "41.40295104871311"
    },
    {
      "id": "pt.ine.add.PTCONT.579970",
      "street": "AV MARECHAL HUMBERTO DELGADO",
      "house": "53",
      "postcode": "4760-012",
      "city": "VILA NOVA DE FAMALICÃO",
      "lon": "-8.516431782281302",
      "lat": "41.40255680001014"
    },
    {
      "id": "pt.ine.add.PTCONT.579971",
      "street": "AV MARECHAL HUMBERTO DELGADO",
      "house": "53",
      "postcode": "4760-012",
      "city": "VILA NOVA DE FAMALICÃO",
      "lon": "-8.516431782281302",
      "lat": "41.40255680001014"
    },
    {
      "id": "pt.ine.add.PTCONT.579972",
      "street": "AV MARECHAL HUMBERTO DELGADO",
      "house": "53",
      "postcode": "4760-012",
      "city": "VILA NOVA DE FAMALICÃO",
      "lon": "-8.516431782281302",
      "lat": "41.40255680001014"
    },
    {
      "id": "pt.ine.add.PTCONT.579973",
      "street": "AV MARECHAL HUMBERTO DELGADO",
      "house": "53",
      "postcode": "4760-012",
      "city": "VILA NOVA DE FAMALICÃO",
      "lon": "-8.516431782281302",
      "lat": "41.40255680001014"
    },
    {
      "id": "pt.ine.add.PTCONT.579974",
      "street": "AV MARECHAL HUMBERTO DELGADO",
      "house": "53",
      "postcode": "4760-012",
      "city": "VILA NOVA DE FAMALICÃO",
      "lon": "-8.516431782281302",
      "lat": "41.40255680001014"
    },
    {
      "id": "pt.ine.add.PTCONT.579975",
      "street": "AV MARECHAL HUMBERTO DELGADO",
      "house": "53",
      "postcode": "4760-012",
      "city": "VILA NOVA DE FAMALICÃO",
      "lon": "-8.516431782281302",
      "lat": "41.40255680001014"
    },
    {
      "id": "pt.ine.add.PTCONT.630036",
      "street": "AV MARECHAL HUMBERTO DELGADO",
      "house": "21",
      "postcode": "4760-012",
      "city": "VILA NOVA DE FAMALICÃO",
      "lon": "-8.516345639956494",
      "lat": "41.40214290392022"
    },
    {
      "id": "pt.ine.add.PTCONT.630089",
      "street": "R D SANCHO I",
      "house": "1525",
      "postcode": "4760-325",
      "city": "VILA NOVA DE FAMALICÃO",
      "lon": "-8.519709402559256",
      "lat": "41.40271690977326"
    },
    {
      "id": "pt.ine.add.PTCONT.630090",
      "street": "R D SANCHO I",
      "house": "1569",
      "postcode": "4760-325",
      "city": "VILA NOVA DE FAMALICÃO",
      "lon": "-8.519709402559256",
      "lat": "41.40271690977326"
    },
    {
      "id": "pt.ine.add.PTCONT.630091",
      "street": "R D SANCHO I",
      "house": "1569",
      "postcode": "4760-325",
      "city": "VILA NOVA DE FAMALICÃO",
      "lon": "-8.519709402559256",
      "lat": "41.40271690977326"
    },
    {
      "id": "pt.ine.add.PTCONT.630092",
      "street": "R D SANCHO I",
      "house": "1525",
      "postcode": "4760-325",
      "city": "VILA NOVA DE FAMALICÃO",
      "lon": "-8.519709402559256",
      "lat": "41.40271690977326"
    },
    {
      "id": "pt.ine.add.PTCONT.630093",
      "street": "R D SANCHO I",
      "house": "1569",
      "postcode": "4760-325",
      "city": "VILA NOVA DE FAMALICÃO",
      "lon": "-8.519709402559256",
      "lat": "41.40271690977326"
    },
    {
      "id": "pt.ine.add.PTCONT.630094",
      "street": "R D SANCHO I",
      "house": "1569",
      "postcode": "4760-325",
      "city": "VILA NOVA DE FAMALICÃO",
      "lon": "-8.519709402559256",
      "lat": "41.40271690977326"
    },
    {
      "id": "pt.ine.add.PTCONT.630095",
      "street": "R D SANCHO I",
      "house": "1569",
      "postcode": "4760-325",
      "city": "VILA NOVA DE FAMALICÃO",
      "lon": "-8.519709402559256",
      "lat": "41.40271690977326"
    },
    {
      "id": "pt.ine.add.PTCONT.630096",
      "street": "R D SANCHO I",
      "house": "1569",
      "postcode": "4760-325",
      "city": "VILA NOVA DE FAMALICÃO",
      "lon": "-8.519709402559256",
      "lat": "41.40271690977326"
    },
    {
      "id": "pt.ine.add.PTCONT.630097",
      "street": "R D SANCHO I",
      "house": "1525",
      "postcode": "4760-325",
      "city": "VILA NOVA DE FAMALICÃO",
      "lon": "-8.519709402559256",
      "lat": "41.40271690977326"
    },
    {
      "id": "pt.ine.add.PTCONT.630098",
      "street": "R D SANCHO I",
      "house": "1569",
      "postcode": "4760-325",
      "city": "VILA NOVA DE FAMALICÃO",
      "lon": "-8.519709402559256",
      "lat": "41.40271690977326"
    },
    {
      "id": "pt.ine.add.PTCONT.630099",
      "street": "R D SANCHO I",
      "house": "1569",
      "postcode": "4760-325",
      "city": "VILA NOVA DE FAMALICÃO",
      "lon": "-8.519709402559256",
      "lat": "41.40271690977326"
    },
    {
      "id": "pt.ine.add.PTCONT.630100",
      "street": "R D SANCHO I",
      "house": "1525",
      "postcode": "4760-325",
      "city": "VILA NOVA DE FAMALICÃO",
      "lon": "-8.519709402559256",
      "lat": "41.40271690977326"
    },
    {
      "id": "pt.ine.add.PTCONT.630101",
      "street": "R D SANCHO I",
      "house": "1569",
      "postcode": "4760-325",
      "city": "VILA NOVA DE FAMALICÃO",
      "lon": "-8.519709402559256",
      "lat": "41.40271690977326"
    },
    {
      "id": "pt.ine.add.PTCONT.630102",
      "street": "R D SANCHO I",
      "house": "1525",
      "postcode": "4760-325",
      "city": "VILA NOVA DE FAMALICÃO",
      "lon": "-8.519709402559256",
      "lat": "41.40271690977326"
    },
    {
      "id": "pt.ine.add.PTCONT.630103",
      "street": "R D SANCHO I",
      "house": "1525",
      "postcode": "4760-325",
      "city": "VILA NOVA DE FAMALICÃO",
      "lon": "-8.519709402559256",
      "lat": "41.40271690977326"
    },
    {
      "id": "pt.ine.add.PTCONT.630168",
      "street": "R D SANCHO I",
      "house": "1525",
      "postcode": "4760-325",
      "city": "VILA NOVA DE FAMALICÃO",
      "lon": "-8.519709402559256",
      "lat": "41.40271690977326"
    },
    {
      "id": "pt.ine.add.PTCONT.630169",
      "street": "R D SANCHO I",
      "house": "1569",
      "postcode": "4760-325",
      "city": "VILA NOVA DE FAMALICÃO",
      "lon": "-8.519709402559256",
      "lat": "41.40271690977326"
    },
    {
      "id": "pt.ine.add.PTCONT.630170",
      "street": "R D SANCHO I",
      "house": "1569",
      "postcode": "4760-325",
      "city": "VILA NOVA DE FAMALICÃO",
      "lon": "-8.519709402559256",
      "lat": "41.40271690977326"
    },
    {
      "id": "pt.ine.add.PTCONT.631032",
      "street": "R D SANCHO I",
      "house": "1525",
      "postcode": "4760-325",
      "city": "VILA NOVA DE FAMALICÃO",
      "lon": "-8.519709402559256",
      "lat": "41.40271690977326"
    },
    {
      "id": "pt.ine.add.PTCONT.631033",
      "street": "R D SANCHO I",
      "house": "1569",
      "postcode": "4760-325",
      "city": "VILA NOVA DE FAMALICÃO",
      "lon": "-8.519709402559256",
      "lat": "41.40271690977326"
    },
    {
      "id": "pt.ine.add.PTCONT.631034",
      "street": "R D SANCHO I",
      "house": "1569",
      "postcode": "4760-325",
      "city": "VILA NOVA DE FAMALICÃO",
      "lon": "-8.519709402559256",
      "lat": "41.40271690977326"
    },
    {
      "id": "pt.ine.add.PTCONT.631035",
      "street": "R D SANCHO I",
      "house": "1525",
      "postcode": "4760-325",
      "city": "VILA NOVA DE FAMALICÃO",
      "lon": "-8.519709402559256",
      "lat": "41.40271690977326"
    },
    {
      "id": "pt.ine.add.PTCONT.631036",
      "street": "R D SANCHO I",
      "house": "1525",
      "postcode": "4760-325",
      "city": "VILA NOVA DE FAMALICÃO",
      "lon": "-8.519709402559256",
      "lat": "41.40271690977326"
    },
    {
      "id": "pt.ine.add.PTCONT.632634",
      "street": "R D SANCHO I",
      "house": "1569",
      "postcode": "4760-325",
      "city": "VILA NOVA DE FAMALICÃO",
      "lon": "-8.519709402559256",
      "lat": "41.40271690977326"
    },
    {
      "id": "pt.ine.add.PTCONT.632663",
      "street": "R D SANCHO I",
      "house": "1569",
      "postcode": "4760-325",
      "city": "VILA NOVA DE FAMALICÃO",
      "lon": "-8.519709402559256",
      "lat": "41.40271690977326"
    },
    {
      "id": "pt.ine.add.PTCONT.691687",
      "street": "AV MARECHAL HUMBERTO DELGADO",
      "house": "79",
      "postcode": "4760-012",
      "city": "VILA NOVA DE FAMALICÃO",
      "lon": "-8.5164330521681",
      "lat": "41.40277289126357"
    },
    {
      "id": "pt.ine.add.PTCONT.691688",
      "street": "AV MARECHAL HUMBERTO DELGADO",
      "house": "79",
      "postcode": "4760-012",
      "city": "VILA NOVA DE FAMALICÃO",
      "lon": "-8.5164330521681",
      "lat": "41.40277289126357"
    },
    {
      "id": "pt.ine.add.PTCONT.691689",
      "street": "AV MARECHAL HUMBERTO DELGADO",
      "house": "79",
      "postcode": "4760-012",
      "city": "VILA NOVA DE FAMALICÃO",
      "lon": "-8.5164330521681",
      "lat": "41.40277289126357"
    },
    {
      "id": "pt.ine.add.PTCONT.691690",
      "street": "AV MARECHAL HUMBERTO DELGADO",
      "house": "79",
      "postcode": "4760-012",
      "city": "VILA NOVA DE FAMALICÃO",
      "lon": "-8.5164330521681",
      "lat": "41.40277289126357"
    },
    {
      "id": "pt.ine.add.PTCONT.691691",
      "street": "AV MARECHAL HUMBERTO DELGADO",
      "house": "79",
      "postcode": "4760-012",
      "city": "VILA NOVA DE FAMALICÃO",
      "lon": "-8.5164330521681",
      "lat": "41.40277289126357"
    },
    {
      "id": "pt.ine.add.PTCONT.691692",
      "street": "AV MARECHAL HUMBERTO DELGADO",
      "house": "79",
      "postcode": "4760-012",
      "city": "VILA NOVA DE FAMALICÃO",
      "lon": "-8.5164330521681",
      "lat": "41.40277289126357"
    },
    {
      "id": "pt.ine.add.PTCONT.694727",
      "street": "R D SANCHO I",
      "house": "1588",
      "postcode": "4760-325",
      "city": "VILA NOVA DE FAMALICÃO",
      "lon": "-8.519241903874752",
      "lat": "41.402529396035604"
    },
    {
      "id": "pt.ine.add.PTCONT.694728",
      "street": "R D SANCHO I",
      "house": "1588",
      "postcode": "4760-325",
      "city": "VILA NOVA DE FAMALICÃO",
      "lon": "-8.519241903874752",
      "lat": "41.402529396035604"
    },
    {
      "id": "pt.ine.add.PTCONT.694729",
      "street": "R D SANCHO I",
      "house": "1588",
      "postcode": "4760-325",
      "city": "VILA NOVA DE FAMALICÃO",
      "lon": "-8.519241903874752",
      "lat": "41.402529396035604"
    },
    {
      "id": "pt.ine.add.PTCONT.694730",
      "street": "R D SANCHO I",
      "house": "1588",
      "postcode": "4760-325",
      "city": "VILA NOVA DE FAMALICÃO",
      "lon": "-8.519241903874752",
      "lat": "41.402529396035604"
    },
    {
      "id": "pt.ine.add.PTCONT.694731",
      "street": "R D SANCHO I",
      "house": "1588",
      "postcode": "4760-325",
      "city": "VILA NOVA DE FAMALICÃO",
      "lon": "-8.519241903874752",
      "lat": "41.402529396035604"
    },
    {
      "id": "pt.ine.add.PTCONT.694732",
      "street": "R D SANCHO I",
      "house": "1588",
      "postcode": "4760-325",
      "city": "VILA NOVA DE FAMALICÃO",
      "lon": "-8.519241903874752",
      "lat": "41.402529396035604"
    },
    {
      "id": "pt.ine.add.PTCONT.694733",
      "street": "R D SANCHO I",
      "house": "1588",
      "postcode": "4760-325",
      "city": "VILA NOVA DE FAMALICÃO",
      "lon": "-8.519241903874752",
      "lat": "41.402529396035604"
    },
    {
      "id": "pt.ine.add.PTCONT.694734",
      "street": "R D SANCHO I",
      "house": "1588",
      "postcode": "4760-325",
      "city": "VILA NOVA DE FAMALICÃO",
      "lon": "-8.519241903874752",
      "lat": "41.402529396035604"
    },
    {
      "id": "pt.ine.add.PTCONT.694735",
      "street": "R D SANCHO I",
      "house": "1588",
      "postcode": "4760-325",
      "city": "VILA NOVA DE FAMALICÃO",
      "lon": "-8.519241903874752",
      "lat": "41.402529396035604"
    },
    {
      "id": "pt.ine.add.PTCONT.694736",
      "street": "R D SANCHO I",
      "house": "1588",
      "postcode": "4760-325",
      "city": "VILA NOVA DE FAMALICÃO",
      "lon": "-8.519241903874752",
      "lat": "41.402529396035604"
    },
    {
      "id": "pt.ine.add.PTCONT.694737",
      "street": "R D SANCHO I",
      "house": "1588",
      "postcode": "4760-325",
      "city": "VILA NOVA DE FAMALICÃO",
      "lon": "-8.519241903874752",
      "lat": "41.402529396035604"
    },
    {
      "id": "pt.ine.add.PTCONT.694745",
      "street": "R D SANCHO I",
      "house": "1588",
      "postcode": "4760-325",
      "city": "VILA NOVA DE FAMALICÃO",
      "lon": "-8.519241903874752",
      "lat": "41.402529396035604"
    },
    {
      "id": "pt.ine.add.PTCONT.694746",
      "street": "R D SANCHO I",
      "house": "1588",
      "postcode": "4760-325",
      "city": "VILA NOVA DE FAMALICÃO",
      "lon": "-8.519241903874752",
      "lat": "41.402529396035604"
    },
    {
      "id": "pt.ine.add.PTCONT.694747",
      "street": "R D SANCHO I",
      "house": "1588",
      "postcode": "4760-325",
      "city": "VILA NOVA DE FAMALICÃO",
      "lon": "-8.519241903874752",
      "lat": "41.402529396035604"
    },
    {
      "id": "pt.ine.add.PTCONT.694748",
      "street": "R D SANCHO I",
      "house": "1588",
      "postcode": "4760-325",
      "city": "VILA NOVA DE FAMALICÃO",
      "lon": "-8.519241903874752",
      "lat": "41.402529396035604"
    },
    {
      "id": "pt.ine.add.PTCONT.694749",
      "street": "R D SANCHO I",
      "house": "1588",
      "postcode": "4760-325",
      "city": "VILA NOVA DE FAMALICÃO",
      "lon": "-8.519241903874752",
      "lat": "41.402529396035604"
    },
    {
      "id": "pt.ine.add.PTCONT.694811",
      "street": "AV MARECHAL HUMBERTO DELGADO",
      "house": "89",
      "postcode": "4760-012",
      "city": "VILA NOVA DE FAMALICÃO",
      "lon": "-8.516445751425174",
      "lat": "41.402898904651316"
    },
    {
      "id": "pt.ine.add.PTCONT.694812",
      "street": "AV MARECHAL HUMBERTO DELGADO",
      "house": "89",
      "postcode": "4760-012",
      "city": "VILA NOVA DE FAMALICÃO",
      "lon": "-8.516445751425174",
      "lat": "41.402898904651316"
    },
    {
      "id": "pt.ine.add.PTCONT.694813",
      "street": "AV MARECHAL HUMBERTO DELGADO",
      "house": "89",
      "postcode": "4760-012",
      "city": "VILA NOVA DE FAMALICÃO",
      "lon": "-8.516445751425174",
      "lat": "41.402898904651316"
    },
    {
      "id": "pt.ine.add.PTCONT.694843",
      "street": "R D SANCHO I",
      "house": "1588",
      "postcode": "4760-325",
      "city": "VILA NOVA DE FAMALICÃO",
      "lon": "-8.519241903874752",
      "lat": "41.402529396035604"
    },
    {
      "id": "pt.ine.add.PTCONT.715625",
      "street": "R D SANCHO I",
      "house": "1525",
      "postcode": "4760-325",
      "city": "VILA NOVA DE FAMALICÃO",
      "lon": "-8.519755795333111",
      "lat": "41.40247364647797"
    },
    {
      "id": "pt.ine.add.PTCONT.715626",
      "street": "R D SANCHO I",
      "house": "1525",
      "postcode": "4760-325",
      "city": "VILA NOVA DE FAMALICÃO",
      "lon": "-8.519755795333111",
      "lat": "41.40247364647797"
    },
    {
      "id": "pt.ine.add.PTCONT.715627",
      "street": "R D SANCHO I",
      "house": "1525",
      "postcode": "4760-325",
      "city": "VILA NOVA DE FAMALICÃO",
      "lon": "-8.519755795333111",
      "lat": "41.40247364647797"
    },
    {
      "id": "pt.ine.add.PTCONT.715628",
      "street": "R D SANCHO I",
      "house": "1525",
      "postcode": "4760-325",
      "city": "VILA NOVA DE FAMALICÃO",
      "lon": "-8.519755795333111",
      "lat": "41.40247364647797"
    },
    {
      "id": "pt.ine.add.PTCONT.715629",
      "street": "R D SANCHO I",
      "house": "1525",
      "postcode": "4760-325",
      "city": "VILA NOVA DE FAMALICÃO",
      "lon": "-8.519755795333111",
      "lat": "41.40247364647797"
    },
    {
      "id": "pt.ine.add.PTCONT.715630",
      "street": "R D SANCHO I",
      "house": "1525",
      "postcode": "4760-325",
      "city": "VILA NOVA DE FAMALICÃO",
      "lon": "-8.519755795333111",
      "lat": "41.40247364647797"
    },
    {
      "id": "pt.ine.add.PTCONT.715631",
      "street": "R D SANCHO I",
      "house": "1525",
      "postcode": "4760-325",
      "city": "VILA NOVA DE FAMALICÃO",
      "lon": "-8.519755795333111",
      "lat": "41.40247364647797"
    },
    {
      "id": "pt.ine.add.PTCONT.715632",
      "street": "R D SANCHO I",
      "house": "1525",
      "postcode": "4760-325",
      "city": "VILA NOVA DE FAMALICÃO",
      "lon": "-8.519755795333111",
      "lat": "41.40247364647797"
    },
    {
      "id": "pt.ine.add.PTCONT.715633",
      "street": "R D SANCHO I",
      "house": "1525",
      "postcode": "4760-325",
      "city": "VILA NOVA DE FAMALICÃO",
      "lon": "-8.519755795333111",
      "lat": "41.40247364647797"
    },
    {
      "id": "pt.ine.add.PTCONT.715634",
      "street": "R D SANCHO I",
      "house": "1525",
      "postcode": "4760-325",
      "city": "VILA NOVA DE FAMALICÃO",
      "lon": "-8.519755795333111",
      "lat": "41.40247364647797"
    },
    {
      "id": "pt.ine.add.PTCONT.739340",
      "street": "R D SANCHO I",
      "house": "1482",
      "postcode": "4760-325",
      "city": "VILA NOVA DE FAMALICÃO",
      "lon": "-8.518940014408468",
      "lat": "41.40203518990213"
    },
    {
      "id": "pt.ine.add.PTCONT.739341",
      "street": "R D SANCHO I",
      "house": "1482",
      "postcode": "4760-325",
      "city": "VILA NOVA DE FAMALICÃO",
      "lon": "-8.518940014408468",
      "lat": "41.40203518990213"
    },
    {
      "id": "pt.ine.add.PTCONT.739342",
      "street": "R D SANCHO I",
      "house": "1482",
      "postcode": "4760-325",
      "city": "VILA NOVA DE FAMALICÃO",
      "lon": "-8.518940014408468",
      "lat": "41.40203518990213"
    },
    {
      "id": "pt.ine.add.PTCONT.739343",
      "street": "R D SANCHO I",
      "house": "1482",
      "postcode": "4760-325",
      "city": "VILA NOVA DE FAMALICÃO",
      "lon": "-8.518940014408468",
      "lat": "41.40203518990213"
    },
    {
      "id": "pt.ine.add.PTCONT.739344",
      "street": "R D SANCHO I",
      "house": "1482",
      "postcode": "4760-325",
      "city": "VILA NOVA DE FAMALICÃO",
      "lon": "-8.518940014408468",
      "lat": "41.40203518990213"
    },
    {
      "id": "pt.ine.add.PTCONT.739345",
      "street": "R D SANCHO I",
      "house": "1482",
      "postcode": "4760-325",
      "city": "VILA NOVA DE FAMALICÃO",
      "lon": "-8.518940014408468",
      "lat": "41.40203518990213"
    },
    {
      "id": "pt.ine.add.PTCONT.739346",
      "street": "R D SANCHO I",
      "house": "1482",
      "postcode": "4760-325",
      "city": "VILA NOVA DE FAMALICÃO",
      "lon": "-8.518940014408468",
      "lat": "41.40203518990213"
    },
    {
      "id": "pt.ine.add.PTCONT.739347",
      "street": "R D SANCHO I",
      "house": "1482",
      "postcode": "4760-325",
      "city": "VILA NOVA DE FAMALICÃO",
      "lon": "-8.518940014408468",
      "lat": "41.40203518990213"
    },
    {
      "id": "pt.ine.add.PTCONT.739348",
      "street": "R D SANCHO I",
      "house": "1482",
      "postcode": "4760-325",
      "city": "VILA NOVA DE FAMALICÃO",
      "lon": "-8.518940014408468",
      "lat": "41.40203518990213"
    },
    {
      "id": "pt.ine.add.PTCONT.739349",
      "street": "R D SANCHO I",
      "house": "1482",
      "postcode": "4760-325",
      "city": "VILA NOVA DE FAMALICÃO",
      "lon": "-8.518940014408468",
      "lat": "41.40203518990213"
    },
    {
      "id": "pt.ine.add.PTCONT.739350",
      "street": "R D SANCHO I",
      "house": "1482",
      "postcode": "4760-325",
      "city": "VILA NOVA DE FAMALICÃO",
      "lon": "-8.518940014408468",
      "lat": "41.40203518990213"
    },
    {
      "id": "pt.ine.add.PTCONT.739351",
      "street": "R D SANCHO I",
      "house": "1482",
      "postcode": "4760-325",
      "city": "VILA NOVA DE FAMALICÃO",
      "lon": "-8.518940014408468",
      "lat": "41.40203518990213"
    },
    {
      "id": "pt.ine.add.PTCONT.739352",
      "street": "R D SANCHO I",
      "house": "1482",
      "postcode": "4760-325",
      "city": "VILA NOVA DE FAMALICÃO",
      "lon": "-8.518940014408468",
      "lat": "41.40203518990213"
    },
    {
      "id": "pt.ine.add.PTCONT.739353",
      "street": "R D SANCHO I",
      "house": "1482",
      "postcode": "4760-325",
      "city": "VILA NOVA DE FAMALICÃO",
      "lon": "-8.518940014408468",
      "lat": "41.40203518990213"
    },
    {
      "id": "pt.ine.add.PTCONT.739450",
      "street": "R D SANCHO I",
      "house": "1482",
      "postcode": "4760-325",
      "city": "VILA NOVA DE FAMALICÃO",
      "lon": "-8.518940014408468",
      "lat": "41.40203518990213"
    },
    {
      "id": "pt.ine.add.PTCONT.739456",
      "street": "R D SANCHO I",
      "house": "1482",
      "postcode": "4760-325",
      "city": "VILA NOVA DE FAMALICÃO",
      "lon": "-8.518940014408468",
      "lat": "41.40203518990213"
    },
    {
      "id": "pt.ine.add.PTCONT.739457",
      "street": "R D SANCHO I",
      "house": "1482",
      "postcode": "4760-325",
      "city": "VILA NOVA DE FAMALICÃO",
      "lon": "-8.518940014408468",
      "lat": "41.40203518990213"
    },
    {
      "id": "pt.ine.add.PTCONT.748472",
      "street": "AV REBELO MESQUITA",
      "house": "50",
      "postcode": "4760-013",
      "city": "VILA NOVA DE FAMALICÃO",
      "lon": "-8.51679423140199",
      "lat": "41.40115097113197"
    },
    {
      "id": "pt.ine.add.PTCONT.748475",
      "street": "AV REBELO MESQUITA",
      "house": "50",
      "postcode": "4760-013",
      "city": "VILA NOVA DE FAMALICÃO",
      "lon": "-8.51679423140199",
      "lat": "41.40115097113197"
    },
    {
      "id": "pt.ine.add.PTCONT.748476",
      "street": "AV REBELO MESQUITA",
      "house": "50",
      "postcode": "4760-013",
      "city": "VILA NOVA DE FAMALICÃO",
      "lon": "-8.51679423140199",
      "lat": "41.40115097113197"
    },
    {
      "id": "pt.ine.add.PTCONT.748477",
      "street": "AV REBELO MESQUITA",
      "house": "50",
      "postcode": "4760-013",
      "city": "VILA NOVA DE FAMALICÃO",
      "lon": "-8.51679423140199",
      "lat": "41.40115097113197"
    },
    {
      "id": "pt.ine.add.PTCONT.748478",
      "street": "AV REBELO MESQUITA",
      "house": "50",
      "postcode": "4760-013",
      "city": "VILA NOVA DE FAMALICÃO",
      "lon": "-8.51679423140199",
      "lat": "41.40115097113197"
    },
    {
      "id": "pt.ine.add.PTCONT.748479",
      "street": "AV REBELO MESQUITA",
      "house": "50",
      "postcode": "4760-013",
      "city": "VILA NOVA DE FAMALICÃO",
      "lon": "-8.51679423140199",
      "lat": "41.40115097113197"
    },
    {
      "id": "pt.ine.add.PTCONT.748480",
      "street": "AV REBELO MESQUITA",
      "house": "50",
      "postcode": "4760-013",
      "city": "VILA NOVA DE FAMALICÃO",
      "lon": "-8.51679423140199",
      "lat": "41.40115097113197"
    },
    {
      "id": "pt.ine.add.PTCONT.748481",
      "street": "AV REBELO MESQUITA",
      "house": "50",
      "postcode": "4760-013",
      "city": "VILA NOVA DE FAMALICÃO",
      "lon": "-8.51679423140199",
      "lat": "41.40115097113197"
    },
    {
      "id": "pt.ine.add.PTCONT.748482",
      "street": "AV REBELO MESQUITA",
      "house": "50",
      "postcode": "4760-013",
      "city": "VILA NOVA DE FAMALICÃO",
      "lon": "-8.51679423140199",
      "lat": "41.40115097113197"
    },
    {
      "id": "pt.ine.add.PTCONT.748483",
      "street": "AV REBELO MESQUITA",
      "house": "50",
      "postcode": "4760-013",
      "city": "VILA NOVA DE FAMALICÃO",
      "lon": "-8.51679423140199",
      "lat": "41.40115097113197"
    },
    {
      "id": "pt.ine.add.PTCONT.748484",
      "street": "AV REBELO MESQUITA",
      "house": "50",
      "postcode": "4760-013",
      "city": "VILA NOVA DE FAMALICÃO",
      "lon": "-8.51679423140199",
      "lat": "41.40115097113197"
    },
    {
      "id": "pt.ine.add.PTCONT.748485",
      "street": "AV REBELO MESQUITA",
      "house": "50",
      "postcode": "4760-013",
      "city": "VILA NOVA DE FAMALICÃO",
      "lon": "-8.51679423140199",
      "lat": "41.40115097113197"
    },
    {
      "id": "pt.ine.add.PTCONT.748486",
      "street": "AV REBELO MESQUITA",
      "house": "50",
      "postcode": "4760-013",
      "city": "VILA NOVA DE FAMALICÃO",
      "lon": "-8.51679423140199",
      "lat": "41.40115097113197"
    },
    {
      "id": "pt.ine.add.PTCONT.748487",
      "street": "AV REBELO MESQUITA",
      "house": "50",
      "postcode": "4760-013",
      "city": "VILA NOVA DE FAMALICÃO",
      "lon": "-8.51679423140199",
      "lat": "41.40115097113197"
    },
    {
      "id": "pt.ine.add.PTCONT.748495",
      "street": "AV REBELO MESQUITA",
      "house": "50",
      "postcode": "4760-013",
      "city": "VILA NOVA DE FAMALICÃO",
      "lon": "-8.51679423140199",
      "lat": "41.40115097113197"
    },
    {
      "id": "pt.ine.add.PTCONT.748496",
      "street": "AV REBELO MESQUITA",
      "house": "50",
      "postcode": "4760-013",
      "city": "VILA NOVA DE FAMALICÃO",
      "lon": "-8.51679423140199",
      "lat": "41.40115097113197"
    },
    {
      "id": "pt.ine.add.PTCONT.748497",
      "street": "AV REBELO MESQUITA",
      "house": "50",
      "postcode": "4760-013",
      "city": "VILA NOVA DE FAMALICÃO",
      "lon": "-8.51679423140199",
      "lat": "41.40115097113197"
    },
    {
      "id": "pt.ine.add.PTCONT.748498",
      "street": "AV REBELO MESQUITA",
      "house": "50",
      "postcode": "4760-013",
      "city": "VILA NOVA DE FAMALICÃO",
      "lon": "-8.51679423140199",
      "lat": "41.40115097113197"
    },
    {
      "id": "pt.ine.add.PTCONT.748499",
      "street": "AV REBELO MESQUITA",
      "house": "50",
      "postcode": "4760-013",
      "city": "VILA NOVA DE FAMALICÃO",
      "lon": "-8.51679423140199",
      "lat": "41.40115097113197"
    },
    {
      "id": "pt.ine.add.PTCONT.748500",
      "street": "AV REBELO MESQUITA",
      "house": "50",
      "postcode": "4760-013",
      "city": "VILA NOVA DE FAMALICÃO",
      "lon": "-8.51679423140199",
      "lat": "41.40115097113197"
    },
    {
      "id": "pt.ine.add.PTCONT.748501",
      "street": "AV REBELO MESQUITA",
      "house": "50",
      "postcode": "4760-013",
      "city": "VILA NOVA DE FAMALICÃO",
      "lon": "-8.51679423140199",
      "lat": "41.40115097113197"
    },
    {
      "id": "pt.ine.add.PTCONT.748502",
      "street": "AV REBELO MESQUITA",
      "house": "50",
      "postcode": "4760-013",
      "city": "VILA NOVA DE FAMALICÃO",
      "lon": "-8.51679423140199",
      "lat": "41.40115097113197"
    },
    {
      "id": "pt.ine.add.PTCONT.748503",
      "street": "AV REBELO MESQUITA",
      "house": "50",
      "postcode": "4760-013",
      "city": "VILA NOVA DE FAMALICÃO",
      "lon": "-8.51679423140199",
      "lat": "41.40115097113197"
    },
    {
      "id": "pt.ine.add.PTCONT.748504",
      "street": "AV REBELO MESQUITA",
      "house": "50",
      "postcode": "4760-013",
      "city": "VILA NOVA DE FAMALICÃO",
      "lon": "-8.51679423140199",
      "lat": "41.40115097113197"
    },
    {
      "id": "pt.ine.add.PTCONT.748505",
      "street": "AV REBELO MESQUITA",
      "house": "50",
      "postcode": "4760-013",
      "city": "VILA NOVA DE FAMALICÃO",
      "lon": "-8.51679423140199",
      "lat": "41.40115097113197"
    },
    {
      "id": "pt.ine.add.PTCONT.748506",
      "street": "AV REBELO MESQUITA",
      "house": "50",
      "postcode": "4760-013",
      "city": "VILA NOVA DE FAMALICÃO",
      "lon": "-8.51679423140199",
      "lat": "41.40115097113197"
    },
    {
      "id": "pt.ine.add.PTCONT.748518",
      "street": "AV REBELO MESQUITA",
      "house": "50",
      "postcode": "4760-013",
      "city": "VILA NOVA DE FAMALICÃO",
      "lon": "-8.51679423140199",
      "lat": "41.40115097113197"
    },
    {
      "id": "pt.ine.add.PTCONT.748519",
      "street": "AV REBELO MESQUITA",
      "house": "50",
      "postcode": "4760-013",
      "city": "VILA NOVA DE FAMALICÃO",
      "lon": "-8.51679423140199",
      "lat": "41.40115097113197"
    },
    {
      "id": "pt.ine.add.PTCONT.748520",
      "street": "AV REBELO MESQUITA",
      "house": "50",
      "postcode": "4760-013",
      "city": "VILA NOVA DE FAMALICÃO",
      "lon": "-8.51679423140199",
      "lat": "41.40115097113197"
    },
    {
      "id": "pt.ine.add.PTCONT.748521",
      "street": "AV REBELO MESQUITA",
      "house": "50",
      "postcode": "4760-013",
      "city": "VILA NOVA DE FAMALICÃO",
      "lon": "-8.51679423140199",
      "lat": "41.40115097113197"
    },
    {
      "id": "pt.ine.add.PTCONT.748522",
      "street": "AV REBELO MESQUITA",
      "house": "50",
      "postcode": "4760-013",
      "city": "VILA NOVA DE FAMALICÃO",
      "lon": "-8.51679423140199",
      "lat": "41.40115097113197"
    },
    {
      "id": "pt.ine.add.PTCONT.748589",
      "street": "AV REBELO MESQUITA",
      "house": "50",
      "postcode": "4760-013",
      "city": "VILA NOVA DE FAMALICÃO",
      "lon": "-8.51679423140199",
      "lat": "41.40115097113197"
    },
    {
      "id": "pt.ine.add.PTCONT.748590",
      "street": "AV REBELO MESQUITA",
      "house": "50",
      "postcode": "4760-013",
      "city": "VILA NOVA DE FAMALICÃO",
      "lon": "-8.51679423140199",
      "lat": "41.40115097113197"
    },
    {
      "id": "pt.ine.add.PTCONT.748592",
      "street": "AV REBELO MESQUITA",
      "house": "50",
      "postcode": "4760-013",
      "city": "VILA NOVA DE FAMALICÃO",
      "lon": "-8.51679423140199",
      "lat": "41.40115097113197"
    },
    {
      "id": "pt.ine.add.PTCONT.748598",
      "street": "AV REBELO MESQUITA",
      "house": "50",
      "postcode": "4760-013",
      "city": "VILA NOVA DE FAMALICÃO",
      "lon": "-8.51679423140199",
      "lat": "41.40115097113197"
    },
    {
      "id": "pt.ine.add.PTCONT.802415",
      "street": "R D SANCHO I",
      "house": "1514",
      "postcode": "4760-325",
      "city": "VILA NOVA DE FAMALICÃO",
      "lon": "-8.519036533304698",
      "lat": "41.40217892987742"
    },
    {
      "id": "pt.ine.add.PTCONT.802416",
      "street": "R D SANCHO I",
      "house": "1514",
      "postcode": "4760-325",
      "city": "VILA NOVA DE FAMALICÃO",
      "lon": "-8.519036533304698",
      "lat": "41.40217892987742"
    },
    {
      "id": "pt.ine.add.PTCONT.802417",
      "street": "R D SANCHO I",
      "house": "1514",
      "postcode": "4760-325",
      "city": "VILA NOVA DE FAMALICÃO",
      "lon": "-8.519036533304698",
      "lat": "41.40217892987742"
    },
    {
      "id": "pt.ine.add.PTCONT.802418",
      "street": "R D SANCHO I",
      "house": "1514",
      "postcode": "4760-325",
      "city": "VILA NOVA DE FAMALICÃO",
      "lon": "-8.519036533304698",
      "lat": "41.40217892987742"
    },
    {
      "id": "pt.ine.add.PTCONT.802419",
      "street": "R D SANCHO I",
      "house": "1514",
      "postcode": "4760-325",
      "city": "VILA NOVA DE FAMALICÃO",
      "lon": "-8.519036533304698",
      "lat": "41.40217892987742"
    },
    {
      "id": "pt.ine.add.PTCONT.802420",
      "street": "R D SANCHO I",
      "house": "1514",
      "postcode": "4760-325",
      "city": "VILA NOVA DE FAMALICÃO",
      "lon": "-8.519036533304698",
      "lat": "41.40217892987742"
    },
    {
      "id": "pt.ine.add.PTCONT.802421",
      "street": "R D SANCHO I",
      "house": "1514",
      "postcode": "4760-325",
      "city": "VILA NOVA DE FAMALICÃO",
      "lon": "-8.519036533304698",
      "lat": "41.40217892987742"
    },
    {
      "id": "pt.ine.add.PTCONT.802422",
      "street": "R D SANCHO I",
      "house": "1514",
      "postcode": "4760-325",
      "city": "VILA NOVA DE FAMALICÃO",
      "lon": "-8.519036533304698",
      "lat": "41.40217892987742"
    },
    {
      "id": "pt.ine.add.PTCONT.802423",
      "street": "R D SANCHO I",
      "house": "1514",
      "postcode": "4760-325",
      "city": "VILA NOVA DE FAMALICÃO",
      "lon": "-8.519036533304698",
      "lat": "41.40217892987742"
    },
    {
      "id": "pt.ine.add.PTCONT.802425",
      "street": "R D SANCHO I",
      "house": "1514",
      "postcode": "4760-325",
      "city": "VILA NOVA DE FAMALICÃO",
      "lon": "-8.519036533304698",
      "lat": "41.40217892987742"
    },
    {
      "id": "pt.ine.add.PTCONT.802426",
      "street": "R D SANCHO I",
      "house": "1514",
      "postcode": "4760-325",
      "city": "VILA NOVA DE FAMALICÃO",
      "lon": "-8.519036533304698",
      "lat": "41.40217892987742"
    },
    {
      "id": "pt.ine.add.PTCONT.802427",
      "street": "R D SANCHO I",
      "house": "1514",
      "postcode": "4760-325",
      "city": "VILA NOVA DE FAMALICÃO",
      "lon": "-8.519036533304698",
      "lat": "41.40217892987742"
    },
    {
      "id": "pt.ine.add.PTCONT.820534",
      "street": "AV FRANCA",
      "house": "37",
      "postcode": "4760-104",
      "city": "VILA NOVA DE FAMALICÃO",
      "lon": "-8.51989032753296",
      "lat": "41.40297741709394"
    },
    {
      "id": "pt.ine.add.PTCONT.820537",
      "street": "AV FRANCA",
      "house": "37",
      "postcode": "4760-104",
      "city": "VILA NOVA DE FAMALICÃO",
      "lon": "-8.51989032753296",
      "lat": "41.40297741709394"
    },
    {
      "id": "pt.ine.add.PTCONT.820538",
      "street": "AV FRANCA",
      "house": "37",
      "postcode": "4760-104",
      "city": "VILA NOVA DE FAMALICÃO",
      "lon": "-8.51989032753296",
      "lat": "41.40297741709394"
    },
    {
      "id": "pt.ine.add.PTCONT.820539",
      "street": "AV FRANCA",
      "house": "37",
      "postcode": "4760-104",
      "city": "VILA NOVA DE FAMALICÃO",
      "lon": "-8.51989032753296",
      "lat": "41.40297741709394"
    },
    {
      "id": "pt.ine.add.PTCONT.820540",
      "street": "AV FRANCA",
      "house": "37",
      "postcode": "4760-104",
      "city": "VILA NOVA DE FAMALICÃO",
      "lon": "-8.51989032753296",
      "lat": "41.40297741709394"
    },
    {
      "id": "pt.ine.add.PTCONT.820541",
      "street": "AV FRANCA",
      "house": "37",
      "postcode": "4760-104",
      "city": "VILA NOVA DE FAMALICÃO",
      "lon": "-8.51989032753296",
      "lat": "41.40297741709394"
    },
    {
      "id": "pt.ine.add.PTCONT.820542",
      "street": "AV FRANCA",
      "house": "37",
      "postcode": "4760-104",
      "city": "VILA NOVA DE FAMALICÃO",
      "lon": "-8.51989032753296",
      "lat": "41.40297741709394"
    },
    {
      "id": "pt.ine.add.PTCONT.820543",
      "street": "AV FRANCA",
      "house": "37",
      "postcode": "4760-104",
      "city": "VILA NOVA DE FAMALICÃO",
      "lon": "-8.51989032753296",
      "lat": "41.40297741709394"
    },
    {
      "id": "pt.ine.add.PTCONT.820544",
      "street": "AV FRANCA",
      "house": "37",
      "postcode": "4760-104",
      "city": "VILA NOVA DE FAMALICÃO",
      "lon": "-8.51989032753296",
      "lat": "41.40297741709394"
    },
    {
      "id": "pt.ine.add.PTCONT.832371",
      "street": "AV MARECHAL HUMBERTO DELGADO",
      "house": "67",
      "postcode": "4760-012",
      "city": "VILA NOVA DE FAMALICÃO",
      "lon": "-8.516432364311035",
      "lat": "41.40265584183562"
    },
    {
      "id": "pt.ine.add.PTCONT.832372",
      "street": "AV MARECHAL HUMBERTO DELGADO",
      "house": "67",
      "postcode": "4760-012",
      "city": "VILA NOVA DE FAMALICÃO",
      "lon": "-8.516432364311035",
      "lat": "41.40265584183562"
    },
    {
      "id": "pt.ine.add.PTCONT.832373",
      "street": "AV MARECHAL HUMBERTO DELGADO",
      "house": "67",
      "postcode": "4760-012",
      "city": "VILA NOVA DE FAMALICÃO",
      "lon": "-8.516432364311035",
      "lat": "41.40265584183562"
    },
    {
      "id": "pt.ine.add.PTCONT.832374",
      "street": "AV MARECHAL HUMBERTO DELGADO",
      "house": "67",
      "postcode": "4760-012",
      "city": "VILA NOVA DE FAMALICÃO",
      "lon": "-8.516432364311035",
      "lat": "41.40265584183562"
    },
    {
      "id": "pt.ine.add.PTCONT.832375",
      "street": "AV MARECHAL HUMBERTO DELGADO",
      "house": "67",
      "postcode": "4760-012",
      "city": "VILA NOVA DE FAMALICÃO",
      "lon": "-8.516432364311035",
      "lat": "41.40265584183562"
    },
    {
      "id": "pt.ine.add.PTCONT.832376",
      "street": "AV MARECHAL HUMBERTO DELGADO",
      "house": "67",
      "postcode": "4760-012",
      "city": "VILA NOVA DE FAMALICÃO",
      "lon": "-8.516432364311035",
      "lat": "41.40265584183562"
    },
    {
      "id": "pt.ine.add.PTCONT.843703",
      "street": "AV FRANCA",
      "house": "37",
      "postcode": "4760-104",
      "city": "VILA NOVA DE FAMALICÃO",
      "lon": "-8.51989032753296",
      "lat": "41.40297741709394"
    },
    {
      "id": "pt.ine.add.PTCONT.845362",
      "street": "R D SANCHO I",
      "house": "1588",
      "postcode": "4760-325",
      "city": "VILA NOVA DE FAMALICÃO",
      "lon": "-8.519241903874752",
      "lat": "41.402529396035604"
    }
  ]
}