{
  "data": {
    "distrito": "Viseu",
    "concelho": "Mangualde",
    "freguesia": "União das freguesias de Mangualde, Mesquitela e Cunha Alta",
    "OBJECTID": 185,
    "BGRI2021": "18061900304",
    "DT21": "18",
    "DTMN21": "1806",
    "DTMNFR21": "180619",
    "DTMNFRSEC21": "180619003",
    "SECNUM21": "003",
    "SSNUM21": "04",
    "SECSSNUM21": "00304",
    "OBJECTID_1": 191739,
    "DT": "18",
    "CC": "06",
    "fr": "19",
    "SEC": "003",
    "SS": "04"
  },
  "addresses": [
    {
      "id": "pt.ine.add.PTCONT.5467916",
      "street": "LG FEITAL",
      "house": "8",
      "postcode": "3530-256",
      "city": "MANGUALDE",
      "lon": "-7.777211942881212",
      "lat": "40.59494012392485"
    },
    {
      "id": "pt.ine.add.PTCONT.5469298",
      "street": "R BACORINHO",
      "house": "4",
      "postcode": "3530-256",
      "city": "MANGUALDE",
      "lon": "-7.776940330734273",
      "lat": "40.59492127625415"
    },
    {
      "id": "pt.ine.add.PTCONT.5490986",
      "street": "R DC CHAFARIZ",
      "house": "3",
      "postcode": "3530-256",
      "city": "MANGUALDE",
      "lon": "-7.776962906266198",
      "lat": "40.59511946120641"
    },
    {
      "id": "pt.ine.add.PTCONT.5501719",
      "street": "R PADRE MÁRIO MARCOLINO",
      "house": "",
      "postcode": "3530-256",
      "city": "MANGUALDE",
      "lon": "-7.7769645786557735",
      "lat": "40.59480428285807"
    },
    {
      "id": "pt.ine.add.PTCONT.5505646",
      "street": "TV QUATRO ESQUINAS",
      "house": "8",
      "postcode": "3530-256",
      "city": "MANGUALDE",
      "lon": "-7.776667475364117",
      "lat": "40.595136560422795"
    },
    {
      "id": "pt.ine.add.PTCONT.5515528",
      "street": "R BACORINHO",
      "house": "12",
      "postcode": "3530-256",
      "city": "MANGUALDE",
      "lon": "-7.777045934542923",
      "lat": "40.59505668047491"
    },
    {
      "id": "pt.ine.add.PTCONT.5522890",
      "street": "R BACORINHO",
      "house": "",
      "postcode": "3530-256",
      "city": "MANGUALDE",
      "lon": "-7.777129679068604",
      "lat": "40.59485882324416"
    },
    {
      "id": "pt.ine.add.PTCONT.5533755",
      "street": "LG EIRO",
      "house": "54",
      "postcode": "3530-256",
      "city": "MANGUALDE",
      "lon": "-7.776585451142048",
      "lat": "40.59501023388297"
    },
    {
      "id": "pt.ine.add.PTCONT.5567678",
      "street": "R PADRE MÁRIO MARCOLINO",
      "house": "",
      "postcode": "3530-256",
      "city": "MANGUALDE",
      "lon": "-7.7769772042778875",
      "lat": "40.594651232648154"
    },
    {
      "id": "pt.ine.add.PTCONT.5569466",
      "street": "TV QUATRO ESQUINAS",
      "house": "1",
      "postcode": "3530-256",
      "city": "MANGUALDE",
      "lon": "-7.776845297947151",
      "lat": "40.59502004085827"
    },
    {
      "id": "pt.ine.add.PTCONT.5578717",
      "street": "LG EIRO",
      "house": "",
      "postcode": "3530-256",
      "city": "MANGUALDE",
      "lon": "-7.776525714407553",
      "lat": "40.59513612288688"
    },
    {
      "id": "pt.ine.add.PTCONT.5623178",
      "street": "R EIRO",
      "house": "7",
      "postcode": "3530-256",
      "city": "MANGUALDE",
      "lon": "-7.776360278765004",
      "lat": "40.59514461730323"
    },
    {
      "id": "pt.ine.add.PTCONT.5648689",
      "street": "R PADRE MARIO MARCELINO",
      "house": "58",
      "postcode": "3530-256",
      "city": "MANGUALDE",
      "lon": "-7.776692106393837",
      "lat": "40.594947526327786"
    },
    {
      "id": "pt.ine.add.PTCONT.5648690",
      "street": "TV QUATRO ESQUINAS",
      "house": "2",
      "postcode": "3530-256",
      "city": "MANGUALDE",
      "lon": "-7.776833723554661",
      "lat": "40.59497497894444"
    },
    {
      "id": "pt.ine.add.PTCONT.5648691",
      "street": "TERR CHAFARIZ",
      "house": "",
      "postcode": "3530-256",
      "city": "MANGUALDE",
      "lon": "-7.77716421180747",
      "lat": "40.59503002928044"
    },
    {
      "id": "pt.ine.add.PTCONT.5649587",
      "street": "LG FEITAL",
      "house": "7",
      "postcode": "3530-256",
      "city": "MANGUALDE",
      "lon": "-7.77715411766351",
      "lat": "40.59470580942068"
    },
    {
      "id": "pt.ine.add.PTCONT.5655215",
      "street": "R BACORINHO",
      "house": "",
      "postcode": "3530-256",
      "city": "MANGUALDE",
      "lon": "-7.777093952384388",
      "lat": "40.594912744594396"
    }
  ]
}