{
  "data": {
    "distrito": "Porto",
    "concelho": "Felgueiras",
    "freguesia": "Uni√£o das freguesias de Pedreira, Rande e Sernande",
    "OBJECTID": 192,
    "BGRI2021": "13033600118",
    "DT21": "13",
    "DTMN21": "1303",
    "DTMNFR21": "130336",
    "DTMNFRSEC21": "130336001",
    "SECNUM21": "001",
    "SSNUM21": "18",
    "SECSSNUM21": "00118",
    "OBJECTID_1": 127921,
    "DT": "13",
    "CC": "03",
    "fr": "36",
    "SEC": "001",
    "SS": "18"
  },
  "addresses": [
    {
      "id": "pt.ine.add.PTCONT.3630299",
      "street": "R ZEBROS",
      "house": "",
      "postcode": "4650-285",
      "city": "PEDREIRA FLG",
      "lon": "-8.199330783580203",
      "lat": "41.32712793584145"
    },
    {
      "id": "pt.ine.add.PTCONT.3741701",
      "street": "R ZEBROS",
      "house": "",
      "postcode": "4650-285",
      "city": "PEDREIRA FLG",
      "lon": "-8.199605140453578",
      "lat": "41.32675860865483"
    },
    {
      "id": "pt.ine.add.PTCONT.3751367",
      "street": "R POUSADA",
      "house": "103",
      "postcode": "4650-274",
      "city": "PEDREIRA FLG",
      "lon": "-8.205436000153995",
      "lat": "41.32837583417546"
    },
    {
      "id": "pt.ine.add.PTCONT.3759729",
      "street": "TV SOUTO",
      "house": "",
      "postcode": "4650-300",
      "city": "PEDREIRA FLG",
      "lon": "-8.200240951149526",
      "lat": "41.32942345922891"
    },
    {
      "id": "pt.ine.add.PTCONT.3765988",
      "street": "R POUSADA",
      "house": "",
      "postcode": "4650-274",
      "city": "PEDREIRA FLG",
      "lon": "-8.20537636417433",
      "lat": "41.32845690871231"
    },
    {
      "id": "pt.ine.add.PTCONT.3798776",
      "street": "R VALES",
      "house": "274",
      "postcode": "4650-283",
      "city": "PEDREIRA FLG",
      "lon": "-8.208511235090889",
      "lat": "41.32264723763582"
    },
    {
      "id": "pt.ine.add.PTCONT.3845109",
      "street": "VLA GOLFAREIRA",
      "house": "",
      "postcode": "4650-267",
      "city": "PEDREIRA FLG",
      "lon": "-8.200231436439418",
      "lat": "41.33179154741433"
    },
    {
      "id": "pt.ine.add.PTCONT.3877081",
      "street": "VLA FONTE MIGE",
      "house": "38",
      "postcode": "4650-264",
      "city": "PEDREIRA FLG",
      "lon": "-8.208560122613362",
      "lat": "41.32361064729754"
    },
    {
      "id": "pt.ine.add.PTCONT.3877082",
      "street": "VLA FONTE MIGE",
      "house": "38",
      "postcode": "4650-264",
      "city": "PEDREIRA FLG",
      "lon": "-8.208560122613362",
      "lat": "41.32361064729754"
    },
    {
      "id": "pt.ine.add.PTCONT.3877083",
      "street": "VLA FONTE MIGE",
      "house": "38",
      "postcode": "4650-264",
      "city": "PEDREIRA FLG",
      "lon": "-8.208560122613362",
      "lat": "41.32361064729754"
    },
    {
      "id": "pt.ine.add.PTCONT.3882346",
      "street": "R POUSADA",
      "house": "245",
      "postcode": "4650-274",
      "city": "PEDREIRA FLG",
      "lon": "-8.205685808186274",
      "lat": "41.32743924838853"
    },
    {
      "id": "pt.ine.add.PTCONT.4070333",
      "street": "R POUSADA",
      "house": "",
      "postcode": "4650-274",
      "city": "PEDREIRA FLG",
      "lon": "-8.205303759141422",
      "lat": "41.327610566957674"
    },
    {
      "id": "pt.ine.add.PTCONT.4116189",
      "street": "TV SOUTO",
      "house": "",
      "postcode": "4650-300",
      "city": "PEDREIRA FLG",
      "lon": "-8.203036401040137",
      "lat": "41.32965590191017"
    },
    {
      "id": "pt.ine.add.PTCONT.4214458",
      "street": "R MOGOS",
      "house": "16",
      "postcode": "4650-294",
      "city": "PEDREIRA FLG",
      "lon": "-8.207476299173784",
      "lat": "41.326339602569924"
    },
    {
      "id": "pt.ine.add.PTCONT.4220911",
      "street": "TV SOUTO",
      "house": "113",
      "postcode": "4650-300",
      "city": "PEDREIRA FLG",
      "lon": "-8.203658355200831",
      "lat": "41.33039385999016"
    },
    {
      "id": "pt.ine.add.PTCONT.4220912",
      "street": "TV SOUTO",
      "house": "113",
      "postcode": "4650-300",
      "city": "PEDREIRA FLG",
      "lon": "-8.203658355200831",
      "lat": "41.33039385999016"
    },
    {
      "id": "pt.ine.add.PTCONT.4286882",
      "street": "R STA MARINHA",
      "house": "563",
      "postcode": "4650-293",
      "city": "PEDREIRA FLG",
      "lon": "-8.202129638572494",
      "lat": "41.330682918582326"
    },
    {
      "id": "pt.ine.add.PTCONT.4286883",
      "street": "R STA MARINHA",
      "house": "563",
      "postcode": "4650-293",
      "city": "PEDREIRA FLG",
      "lon": "-8.202129638572494",
      "lat": "41.330682918582326"
    },
    {
      "id": "pt.ine.add.PTCONT.4333597",
      "street": "TV SOUTO",
      "house": "",
      "postcode": "4650-300",
      "city": "PEDREIRA FLG",
      "lon": "-8.20350323849863",
      "lat": "41.33055602906224"
    },
    {
      "id": "pt.ine.add.PTCONT.4333598",
      "street": "TV SOUTO",
      "house": "",
      "postcode": "4650-300",
      "city": "PEDREIRA FLG",
      "lon": "-8.20350323849863",
      "lat": "41.33055602906224"
    }
  ]
}