{
  "data": {
    "distrito": "Porto",
    "concelho": "Felgueiras",
    "freguesia": "Uni√£o das freguesias de Pedreira, Rande e Sernande",
    "OBJECTID": 1017,
    "BGRI2021": "13033600129",
    "DT21": "13",
    "DTMN21": "1303",
    "DTMNFR21": "130336",
    "DTMNFRSEC21": "130336001",
    "SECNUM21": "001",
    "SSNUM21": "29",
    "SECSSNUM21": "00129",
    "OBJECTID_1": 127499,
    "DT": "13",
    "CC": "03",
    "fr": "36",
    "SEC": "001",
    "SS": "29"
  },
  "addresses": [
    {
      "id": "pt.ine.add.PTCONT.3641913",
      "street": "R STA MARINHA",
      "house": "52",
      "postcode": "4650-293",
      "city": "PEDREIRA FLG",
      "lon": "-8.204547317249602",
      "lat": "41.33496740114431"
    },
    {
      "id": "pt.ine.add.PTCONT.3754025",
      "street": "R STA MARINHA",
      "house": "",
      "postcode": "4650-293",
      "city": "PEDREIRA FLG",
      "lon": "-8.203746904777233",
      "lat": "41.33495889104981"
    },
    {
      "id": "pt.ine.add.PTCONT.3824263",
      "street": "R STA MARINHA",
      "house": "41",
      "postcode": "4650-293",
      "city": "PEDREIRA FLG",
      "lon": "-8.204476111133177",
      "lat": "41.33539964255999"
    },
    {
      "id": "pt.ine.add.PTCONT.4107794",
      "street": "R S MARINHA",
      "house": "",
      "postcode": "4650-293",
      "city": "PEDREIRA FLG",
      "lon": "-8.20435622535431",
      "lat": "41.335012540139715"
    },
    {
      "id": "pt.ine.add.PTCONT.4109676",
      "street": "R STA MARINHA",
      "house": "",
      "postcode": "4650-293",
      "city": "PEDREIRA FLG",
      "lon": "-8.20398604566807",
      "lat": "41.335156834442024"
    },
    {
      "id": "pt.ine.add.PTCONT.4116182",
      "street": "R GOLFAREIRA",
      "house": "32",
      "postcode": "4650-267",
      "city": "PEDREIRA FLG",
      "lon": "-8.201843523217137",
      "lat": "41.33123234086882"
    },
    {
      "id": "pt.ine.add.PTCONT.4155484",
      "street": "R GOLFAREIRA",
      "house": "68",
      "postcode": "4650-267",
      "city": "PEDREIRA FLG",
      "lon": "-8.202285768619257",
      "lat": "41.33147518703276"
    },
    {
      "id": "pt.ine.add.PTCONT.4162101",
      "street": "R VINHEIRO",
      "house": "127",
      "postcode": "4650-285",
      "city": "PEDREIRA FLG",
      "lon": "-8.204285341385393",
      "lat": "41.33574191681737"
    },
    {
      "id": "pt.ine.add.PTCONT.4187910",
      "street": "R VINHEIRO",
      "house": "",
      "postcode": "4650-285",
      "city": "PEDREIRA FLG",
      "lon": "-8.204428492544626",
      "lat": "41.33555274192517"
    },
    {
      "id": "pt.ine.add.PTCONT.4212867",
      "street": "R STA MARINHA",
      "house": "",
      "postcode": "4650-293",
      "city": "PEDREIRA FLG",
      "lon": "-8.203937918907876",
      "lat": "41.33484172023587"
    },
    {
      "id": "pt.ine.add.PTCONT.4342737",
      "street": "R OUTEIRINHO",
      "house": "",
      "postcode": "4650-271",
      "city": "PEDREIRA FLG",
      "lon": "-8.203315986893465",
      "lat": "41.33416679300959"
    }
  ]
}