{
  "data": {
    "distrito": "Porto",
    "concelho": "Paredes",
    "freguesia": "Gandra",
    "OBJECTID": 398,
    "BGRI2021": "13101100531",
    "DT21": "13",
    "DTMN21": "1310",
    "DTMNFR21": "131011",
    "DTMNFRSEC21": "131011005",
    "SECNUM21": "005",
    "SSNUM21": "31",
    "SECSSNUM21": "00531",
    "OBJECTID_1": 135149,
    "DT": "13",
    "CC": "10",
    "fr": "11",
    "SEC": "005",
    "SS": "31"
  },
  "addresses": [
    {
      "id": "pt.ine.add.PTCONT.3541735",
      "street": "R LUIS DE CAMÕES",
      "house": "67",
      "postcode": "4585-171",
      "city": "GANDRA PRD",
      "lon": "-8.445247017484984",
      "lat": "41.19327234712703"
    },
    {
      "id": "pt.ine.add.PTCONT.3541734",
      "street": "R LUIS DE CAMÕES",
      "house": "67",
      "postcode": "4585-171",
      "city": "GANDRA PRD",
      "lon": "-8.445247017484984",
      "lat": "41.19327234712703"
    },
    {
      "id": "pt.ine.add.PTCONT.3541736",
      "street": "R LUIS DE CAMÕES",
      "house": "67",
      "postcode": "4585-171",
      "city": "GANDRA PRD",
      "lon": "-8.445247017484984",
      "lat": "41.19327234712703"
    },
    {
      "id": "pt.ine.add.PTCONT.3541737",
      "street": "R S MIGUEL DA GANDRA",
      "house": "9",
      "postcode": "4585-175",
      "city": "GANDRA PRD",
      "lon": "-8.446543371665392",
      "lat": "41.19264752865289"
    },
    {
      "id": "pt.ine.add.PTCONT.3541738",
      "street": "R S MIGUEL GANDRA",
      "house": "N 1OO",
      "postcode": "4585-175",
      "city": "GANDRA PRD",
      "lon": "-8.446664979939394",
      "lat": "41.19315143928578"
    },
    {
      "id": "pt.ine.add.PTCONT.3574310",
      "street": "R GANDRA DO CORRELO",
      "house": "412",
      "postcode": "4585-157",
      "city": "GANDRA PRD",
      "lon": "-8.444697964557268",
      "lat": "41.190608556065854"
    },
    {
      "id": "pt.ine.add.PTCONT.3651201",
      "street": "R LAMEIRA",
      "house": "32",
      "postcode": "4585-170",
      "city": "GANDRA PRD",
      "lon": "-8.444369262182041",
      "lat": "41.194193162758026"
    },
    {
      "id": "pt.ine.add.PTCONT.3772248",
      "street": "R LUIS DE CAMÕES",
      "house": "19",
      "postcode": "4585-171",
      "city": "GANDRA PRD",
      "lon": "-8.446461389863599",
      "lat": "41.192953898460146"
    },
    {
      "id": "pt.ine.add.PTCONT.3826348",
      "street": "R VOLTADAO",
      "house": "",
      "postcode": "4585-235",
      "city": "GANDRA PRD",
      "lon": "-8.440927581943598",
      "lat": "41.197461973614935"
    },
    {
      "id": "pt.ine.add.PTCONT.3960918",
      "street": "R LUIS DE CAMÕES",
      "house": "",
      "postcode": "4585-171",
      "city": "GANDRA PRD",
      "lon": "-8.444852236443824",
      "lat": "41.192976274004536"
    },
    {
      "id": "pt.ine.add.PTCONT.3987841",
      "street": "R LUIS DE CAMÕES",
      "house": "63",
      "postcode": "4585-171",
      "city": "GANDRA PRD",
      "lon": "-8.445496659870306",
      "lat": "41.19312760122703"
    },
    {
      "id": "pt.ine.add.PTCONT.4013097",
      "street": "R VOLTADAO",
      "house": "",
      "postcode": "4585-235",
      "city": "GANDRA PRD",
      "lon": "-8.441340681210196",
      "lat": "41.196578446427125"
    },
    {
      "id": "pt.ine.add.PTCONT.4058912",
      "street": "R CORRELO",
      "house": "386",
      "postcode": "4585-122",
      "city": "GANDRA PRD",
      "lon": "-8.444864500928837",
      "lat": "41.19053607083848"
    },
    {
      "id": "pt.ine.add.PTCONT.4216406",
      "street": "R CORRELO",
      "house": "388",
      "postcode": "4585-122",
      "city": "GANDRA PRD",
      "lon": "-8.444780891171673",
      "lat": "41.19050027985358"
    },
    {
      "id": "pt.ine.add.PTCONT.4248893",
      "street": "TV LUIS DE CAMÕES",
      "house": "48",
      "postcode": "4585-171",
      "city": "GANDRA PRD",
      "lon": "-8.44542364016614",
      "lat": "41.19281264822892"
    },
    {
      "id": "pt.ine.add.PTCONT.4330535",
      "street": "R VOLTADAO",
      "house": "379",
      "postcode": "4585-235",
      "city": "GANDRA PRD",
      "lon": "-8.44095100228807",
      "lat": "41.19737186792678"
    },
    {
      "id": "pt.ine.add.PTCONT.4348066",
      "street": "R S MIGUEL DA GANDRA",
      "house": "80",
      "postcode": "4585-175",
      "city": "GANDRA PRD",
      "lon": "-8.446638905350898",
      "lat": "41.1926832858817"
    },
    {
      "id": "pt.ine.add.PTCONT.4381210",
      "street": "R GANDRA DO CORRELO",
      "house": "416",
      "postcode": "4585-157",
      "city": "GANDRA PRD",
      "lon": "-8.444601880131664",
      "lat": "41.1904557425507"
    },
    {
      "id": "pt.ine.add.PTCONT.4387835",
      "street": "R LAMEIRA",
      "house": "30",
      "postcode": "4585-170",
      "city": "GANDRA PRD",
      "lon": "-8.44445249246401",
      "lat": "41.194147916219734"
    }
  ]
}