{
  "data": {
    "distrito": "Viana do Castelo",
    "concelho": "Viana do Castelo",
    "freguesia": "Outeiro",
    "OBJECTID": 450,
    "BGRI2021": "16092500117",
    "DT21": "16",
    "DTMN21": "1609",
    "DTMNFR21": "160925",
    "DTMNFRSEC21": "160925001",
    "SECNUM21": "001",
    "SSNUM21": "17",
    "SECSSNUM21": "00117",
    "OBJECTID_1": 178603,
    "DT": "16",
    "CC": "09",
    "fr": "25",
    "SEC": "001",
    "SS": "17"
  },
  "addresses": [
    {
      "id": "pt.ine.add.PTCONT.5136679",
      "street": "CAM PRESA DO RIO BARCO",
      "house": "",
      "postcode": "4925-556",
      "city": "OUTEIRO VCT",
      "lon": "-8.790864944536324",
      "lat": "41.7624336864009"
    },
    {
      "id": "pt.ine.add.PTCONT.5139017",
      "street": "ESTR S MARTINHO",
      "house": "3765",
      "postcode": "4925-542",
      "city": "OUTEIRO VCT",
      "lon": "-8.790103728856277",
      "lat": "41.76207790701828"
    },
    {
      "id": "pt.ine.add.PTCONT.5140094",
      "street": "CAM BIRA",
      "house": "51",
      "postcode": "4925-556",
      "city": "OUTEIRO VCT",
      "lon": "-8.791164110620821",
      "lat": "41.763467360807276"
    },
    {
      "id": "pt.ine.add.PTCONT.5141688",
      "street": "ESTR S MARTINHO",
      "house": "3865",
      "postcode": "4925-542",
      "city": "OUTEIRO VCT",
      "lon": "-8.790364142761508",
      "lat": "41.76285070745791"
    },
    {
      "id": "pt.ine.add.PTCONT.5155089",
      "street": "CAM BIRA",
      "house": "76",
      "postcode": "4925-556",
      "city": "OUTEIRO VCT",
      "lon": "-8.791296565997456",
      "lat": "41.763484608809634"
    },
    {
      "id": "pt.ine.add.PTCONT.5157150",
      "street": "ESTR S MARTINHO",
      "house": "3593",
      "postcode": "4925-542",
      "city": "OUTEIRO VCT",
      "lon": "-8.78990224916103",
      "lat": "41.7611877251407"
    },
    {
      "id": "pt.ine.add.PTCONT.5157151",
      "street": "ESTR S MARTINHO",
      "house": "3947",
      "postcode": "4925-542",
      "city": "OUTEIRO VCT",
      "lon": "-8.78949332350373",
      "lat": "41.7635399419427"
    },
    {
      "id": "pt.ine.add.PTCONT.5159550",
      "street": "CAM CARREGALTA",
      "house": "14",
      "postcode": "4925-556",
      "city": "OUTEIRO VCT",
      "lon": "-8.790711843687603",
      "lat": "41.762749680773325"
    },
    {
      "id": "pt.ine.add.PTCONT.5161080",
      "street": "CAM CHÃO NOVO",
      "house": "123",
      "postcode": "4925-556",
      "city": "OUTEIRO VCT",
      "lon": "-8.790369184668558",
      "lat": "41.76216642244234"
    },
    {
      "id": "pt.ine.add.PTCONT.5162359",
      "street": "ESTR S MARTINHO",
      "house": "3889",
      "postcode": "4925-542",
      "city": "OUTEIRO VCT",
      "lon": "-8.790452082121336",
      "lat": "41.763219342515114"
    },
    {
      "id": "pt.ine.add.PTCONT.5164382",
      "street": "ESTR ROMAE",
      "house": "",
      "postcode": "4925-549",
      "city": "OUTEIRO VCT",
      "lon": "-8.788861331878621",
      "lat": "41.76406574624801"
    },
    {
      "id": "pt.ine.add.PTCONT.5177189",
      "street": "CAM PAINHAS",
      "house": "284",
      "postcode": "4925-549",
      "city": "OUTEIRO VCT",
      "lon": "-8.792624365583082",
      "lat": "41.75810198080673"
    },
    {
      "id": "pt.ine.add.PTCONT.5186910",
      "street": "CAM CORGA",
      "house": "47",
      "postcode": "4925-549",
      "city": "OUTEIRO VCT",
      "lon": "-8.791164284337713",
      "lat": "41.758776602648496"
    },
    {
      "id": "pt.ine.add.PTCONT.5191584",
      "street": "CAM COUTADA",
      "house": "50",
      "postcode": "4925-549",
      "city": "OUTEIRO VCT",
      "lon": "-8.7904251600457",
      "lat": "41.76058150866072"
    },
    {
      "id": "pt.ine.add.PTCONT.5196144",
      "street": "CAM LINHARES",
      "house": "57",
      "postcode": "4925-549",
      "city": "OUTEIRO VCT",
      "lon": "-8.792748935397652",
      "lat": "41.758524424382195"
    },
    {
      "id": "pt.ine.add.PTCONT.5205269",
      "street": "CAM S FRANCISCO",
      "house": "145",
      "postcode": "4925-549",
      "city": "OUTEIRO VCT",
      "lon": "-8.793382871452033",
      "lat": "41.75819666143304"
    },
    {
      "id": "pt.ine.add.PTCONT.5212891",
      "street": "CAM CORGA",
      "house": "90",
      "postcode": "4925-549",
      "city": "OUTEIRO VCT",
      "lon": "-8.79162698702625",
      "lat": "41.75934116423472"
    },
    {
      "id": "pt.ine.add.PTCONT.5218576",
      "street": "CAM COUTADA",
      "house": "140",
      "postcode": "4925-549",
      "city": "OUTEIRO VCT",
      "lon": "-8.790968982801523",
      "lat": "41.75966905527384"
    },
    {
      "id": "pt.ine.add.PTCONT.5219571",
      "street": "CAM LUIS",
      "house": "181",
      "postcode": "4925-549",
      "city": "OUTEIRO VCT",
      "lon": "-8.791820621305423",
      "lat": "41.75828665923151"
    },
    {
      "id": "pt.ine.add.PTCONT.5221700",
      "street": "CAM PRESA DO RIO BARCO",
      "house": "226",
      "postcode": "4925-556",
      "city": "OUTEIRO VCT",
      "lon": "-8.78974914647877",
      "lat": "41.763862601393946"
    },
    {
      "id": "pt.ine.add.PTCONT.5228993",
      "street": "CAM CHÃO NOVO",
      "house": "102",
      "postcode": "4925-556",
      "city": "OUTEIRO VCT",
      "lon": "-8.790161371080268",
      "lat": "41.76183448634973"
    },
    {
      "id": "pt.ine.add.PTCONT.5229840",
      "street": "CAM BIRA",
      "house": "51",
      "postcode": "4925-556",
      "city": "OUTEIRO VCT",
      "lon": "-8.791078558256666",
      "lat": "41.7633328002529"
    },
    {
      "id": "pt.ine.add.PTCONT.5230044",
      "street": "CAM PRESA DO RIO BARCO",
      "house": "26",
      "postcode": "4925-556",
      "city": "OUTEIRO VCT",
      "lon": "-8.790349453842662",
      "lat": "41.76258969374704"
    },
    {
      "id": "pt.ine.add.PTCONT.5231012",
      "street": "CAM COUTADA",
      "house": "",
      "postcode": "4925-549",
      "city": "OUTEIRO VCT",
      "lon": "-8.791198357877049",
      "lat": "41.759757775419864"
    },
    {
      "id": "pt.ine.add.PTCONT.5231013",
      "street": "CAM CORGA",
      "house": "5",
      "postcode": "4925-549",
      "city": "OUTEIRO VCT",
      "lon": "-8.790796051020799",
      "lat": "41.75921987656213"
    },
    {
      "id": "pt.ine.add.PTCONT.5252995",
      "street": "ESTR S MARTINHO",
      "house": "3655",
      "postcode": "4925-542",
      "city": "OUTEIRO VCT",
      "lon": "-8.789593472828724",
      "lat": "41.761567631533616"
    },
    {
      "id": "pt.ine.add.PTCONT.5271993",
      "street": "CAM COUTADA",
      "house": "106",
      "postcode": "4925-549",
      "city": "OUTEIRO VCT",
      "lon": "-8.79087683641571",
      "lat": "41.76006573134176"
    }
  ]
}