{
  "data": {
    "distrito": "Portalegre",
    "concelho": "Campo Maior",
    "freguesia": "São João Baptista",
    "OBJECTID": 16,
    "BGRI2021": "12040300329",
    "DT21": "12",
    "DTMN21": "1204",
    "DTMNFR21": "120403",
    "DTMNFRSEC21": "120403003",
    "SECNUM21": "003",
    "SSNUM21": "29",
    "SECSSNUM21": "00329",
    "OBJECTID_1": 121001,
    "DT": "12",
    "CC": "04",
    "fr": "03",
    "SEC": "003",
    "SS": "29"
  },
  "addresses": [
    {
      "id": "pt.ine.add.PTCONT.3536504",
      "street": "R AFONSO MONROYO",
      "house": "11",
      "postcode": "7370-124",
      "city": "CAMPO MAIOR",
      "lon": "-7.061245460216189",
      "lat": "39.020470929322514"
    },
    {
      "id": "pt.ine.add.PTCONT.3539093",
      "street": "R AFONSO MONROYO",
      "house": "13",
      "postcode": "7370-124",
      "city": "CAMPO MAIOR",
      "lon": "-7.061243420252586",
      "lat": "39.02060602143538"
    },
    {
      "id": "pt.ine.add.PTCONT.3459478",
      "street": "R BENTO JESUS CARAÇA",
      "house": "18",
      "postcode": "7370-085",
      "city": "CAMPO MAIOR",
      "lon": "-7.061451640858882",
      "lat": "39.02058091243458"
    },
    {
      "id": "pt.ine.add.PTCONT.3468630",
      "street": "R AFONSO MONROYO",
      "house": "15",
      "postcode": "7370-124",
      "city": "CAMPO MAIOR",
      "lon": "-7.061254013424145",
      "lat": "39.0206691705093"
    },
    {
      "id": "pt.ine.add.PTCONT.3473734",
      "street": "R BENTO JESUS CARAÇA",
      "house": "14",
      "postcode": "7370-085",
      "city": "CAMPO MAIOR",
      "lon": "-7.061442951131902",
      "lat": "39.0203916773934"
    },
    {
      "id": "pt.ine.add.PTCONT.3484182",
      "street": "R BENTO JESUS CARAÇA",
      "house": "20",
      "postcode": "7370-085",
      "city": "CAMPO MAIOR",
      "lon": "-7.061450417112983",
      "lat": "39.02066196770662"
    },
    {
      "id": "pt.ine.add.PTCONT.3488356",
      "street": "R MOÇAMBIQUE",
      "house": "14",
      "postcode": "7370-124",
      "city": "CAMPO MAIOR",
      "lon": "-7.061413334051008",
      "lat": "39.02082376003329"
    },
    {
      "id": "pt.ine.add.PTCONT.3490012",
      "street": "R AFONSO MONROYO",
      "house": "9",
      "postcode": "7370-124",
      "city": "CAMPO MAIOR",
      "lon": "-7.061246548191181",
      "lat": "39.02039888019433"
    },
    {
      "id": "pt.ine.add.PTCONT.3501558",
      "street": "R BENTO JESUS CARAÇA",
      "house": "16",
      "postcode": "7370-085",
      "city": "CAMPO MAIOR",
      "lon": "-7.061453544453817",
      "lat": "39.02045482645351"
    },
    {
      "id": "pt.ine.add.PTCONT.3526558",
      "street": "R MOÇAMBIQUE",
      "house": "16",
      "postcode": "7370-124",
      "city": "CAMPO MAIOR",
      "lon": "-7.06130956337883",
      "lat": "39.02081379918912"
    }
  ]
}