{
  "data": {
    "distrito": "Portalegre",
    "concelho": "Campo Maior",
    "freguesia": "São João Baptista",
    "OBJECTID": 200,
    "BGRI2021": "12040300354",
    "DT21": "12",
    "DTMN21": "1204",
    "DTMNFR21": "120403",
    "DTMNFRSEC21": "120403003",
    "SECNUM21": "003",
    "SSNUM21": "54",
    "SECSSNUM21": "00354",
    "OBJECTID_1": 121059,
    "DT": "12",
    "CC": "04",
    "fr": "03",
    "SEC": "003",
    "SS": "54"
  },
  "addresses": [
    {
      "id": "pt.ine.add.PTCONT.3535306",
      "street": "ESTR OUGUELA",
      "house": "",
      "postcode": "7370-172",
      "city": "CAMPO MAIOR",
      "lon": "-7.035702742354263",
      "lat": "39.04370659251753"
    },
    {
      "id": "pt.ine.add.PTCONT.3536647",
      "street": "ESTR OUGUELA",
      "house": "",
      "postcode": "7370-112",
      "city": "CAMPO MAIOR",
      "lon": "-7.040677750192907",
      "lat": "39.04016837598228"
    },
    {
      "id": "pt.ine.add.PTCONT.3537147",
      "street": "QTA POCO SERRA",
      "house": "",
      "postcode": "7370-112",
      "city": "CAMPO MAIOR",
      "lon": "-7.040677750192907",
      "lat": "39.04016837598228"
    },
    {
      "id": "pt.ine.add.PTCONT.3460718",
      "street": "ESTR OUGUELA",
      "house": "",
      "postcode": "7370-172",
      "city": "CAMPO MAIOR",
      "lon": "-7.037976613991885",
      "lat": "39.04455664210119"
    },
    {
      "id": "pt.ine.add.PTCONT.3462531",
      "street": "ESTR OUGUELA",
      "house": "",
      "postcode": "7370-112",
      "city": "CAMPO MAIOR",
      "lon": "-7.038583818533196",
      "lat": "39.04338238057966"
    },
    {
      "id": "pt.ine.add.PTCONT.3462532",
      "street": "ESTR OUGUELA QUINTQ REAL VIDEIRA",
      "house": "",
      "postcode": "7370-112",
      "city": "CAMPO MAIOR",
      "lon": "-7.038583818533196",
      "lat": "39.04338238057966"
    },
    {
      "id": "pt.ine.add.PTCONT.3462533",
      "street": "ESTR OUGUELA",
      "house": "",
      "postcode": "7370-112",
      "city": "CAMPO MAIOR",
      "lon": "-7.046734207256491",
      "lat": "39.03310012836808"
    },
    {
      "id": "pt.ine.add.PTCONT.3464434",
      "street": "ESTR OUGUELA",
      "house": "",
      "postcode": "7370-172",
      "city": "CAMPO MAIOR",
      "lon": "-7.036066745665118",
      "lat": "39.0433227014584"
    },
    {
      "id": "pt.ine.add.PTCONT.3474882",
      "street": "ESTR OUGUELA",
      "house": "",
      "postcode": "7370-112",
      "city": "CAMPO MAIOR",
      "lon": "-7.045580225286632",
      "lat": "39.03454856655063"
    },
    {
      "id": "pt.ine.add.PTCONT.3493573",
      "street": "ESTR OUGUELA",
      "house": "",
      "postcode": "7370-172",
      "city": "CAMPO MAIOR",
      "lon": "-7.037601621840843",
      "lat": "39.044904406483894"
    },
    {
      "id": "pt.ine.add.PTCONT.3498479",
      "street": "ESTR OUGUELA",
      "house": "",
      "postcode": "7370-112",
      "city": "CAMPO MAIOR",
      "lon": "-7.037499485000057",
      "lat": "39.04254352363522"
    },
    {
      "id": "pt.ine.add.PTCONT.3498911",
      "street": "QTA OLIVEIRA",
      "house": "",
      "postcode": "7370-172",
      "city": "CAMPO MAIOR",
      "lon": "-7.035834729844879",
      "lat": "39.04637400649503"
    },
    {
      "id": "pt.ine.add.PTCONT.3500656",
      "street": "ESTR CALEJAO",
      "house": "",
      "postcode": "7370-200",
      "city": "CAMPO MAIOR",
      "lon": "-7.0357774701794025",
      "lat": "39.049327873266854"
    },
    {
      "id": "pt.ine.add.PTCONT.3506605",
      "street": "ESTR MEIA LEGUA",
      "house": "",
      "postcode": "7370-172",
      "city": "CAMPO MAIOR",
      "lon": "-7.0372678124294135",
      "lat": "39.0455768207831"
    },
    {
      "id": "pt.ine.add.PTCONT.3511596",
      "street": "ESTR OUGUELA",
      "house": "",
      "postcode": "7370-200",
      "city": "CAMPO MAIOR",
      "lon": "-7.03530511636283",
      "lat": "39.05148518689058"
    },
    {
      "id": "pt.ine.add.PTCONT.3512913",
      "street": "ESTR OUGUELA",
      "house": "",
      "postcode": "7370-112",
      "city": "CAMPO MAIOR",
      "lon": "-7.036575237039046",
      "lat": "39.04928133306716"
    },
    {
      "id": "pt.ine.add.PTCONT.3513454",
      "street": "EN 373",
      "house": "",
      "postcode": "7370-112",
      "city": "CAMPO MAIOR",
      "lon": "-7.041458369237984",
      "lat": "39.03897770771955"
    },
    {
      "id": "pt.ine.add.PTCONT.3514051",
      "street": "ESTR OUGUELA",
      "house": "",
      "postcode": "7370-112",
      "city": "CAMPO MAIOR",
      "lon": "-7.040522906293087",
      "lat": "39.04047317532916"
    },
    {
      "id": "pt.ine.add.PTCONT.3520817",
      "street": "ESTR OUGUELA",
      "house": "",
      "postcode": "7370-172",
      "city": "CAMPO MAIOR",
      "lon": "-7.040136816467362",
      "lat": "39.04079382226283"
    },
    {
      "id": "pt.ine.add.PTCONT.3523357",
      "street": "ESTR CALEJAO",
      "house": "",
      "postcode": "7370-200",
      "city": "CAMPO MAIOR",
      "lon": "-7.033655318452302",
      "lat": "39.03719301417798"
    },
    {
      "id": "pt.ine.add.PTCONT.3528592",
      "street": "ESTR OUGUELA",
      "house": "",
      "postcode": "7370-112",
      "city": "CAMPO MAIOR",
      "lon": "-7.044766740576563",
      "lat": "39.03563086889387"
    },
    {
      "id": "pt.ine.add.PTCONT.3530909",
      "street": "ESTR OUGUELA",
      "house": "",
      "postcode": "7370-172",
      "city": "CAMPO MAIOR",
      "lon": "-7.036042352094517",
      "lat": "39.045646365487734"
    }
  ]
}