{
  "data": {
    "distrito": "Braga",
    "concelho": "Barcelos",
    "freguesia": "Alvelos",
    "OBJECTID": 816,
    "BGRI2021": "03020800118",
    "DT21": "03",
    "DTMN21": "0302",
    "DTMNFR21": "030208",
    "DTMNFRSEC21": "030208001",
    "SECNUM21": "001",
    "SSNUM21": "18",
    "SECSSNUM21": "00118",
    "OBJECTID_1": 21000,
    "DT": "03",
    "CC": "02",
    "fr": "08",
    "SEC": "001",
    "SS": "18"
  },
  "addresses": [
    {
      "id": "pt.ine.add.PTCONT.483598",
      "street": "R QUINTÃO",
      "house": "127",
      "postcode": "4755-037",
      "city": "ALVELOS",
      "lon": "-8.621034529765394",
      "lat": "41.51280942169473"
    },
    {
      "id": "pt.ine.add.PTCONT.539322",
      "street": "R PATEIRA",
      "house": "",
      "postcode": "4755-025",
      "city": "ALVELOS",
      "lon": "-8.619571599345964",
      "lat": "41.512608531713894"
    },
    {
      "id": "pt.ine.add.PTCONT.555980",
      "street": "R 1 DE MAIO",
      "house": "49",
      "postcode": "4755-037",
      "city": "ALVELOS",
      "lon": "-8.619863939396053",
      "lat": "41.513255567742476"
    },
    {
      "id": "pt.ine.add.PTCONT.560074",
      "street": "R MANDRÉ",
      "house": "115",
      "postcode": "4755-037",
      "city": "ALVELOS",
      "lon": "-8.620604991720445",
      "lat": "41.51303633798791"
    },
    {
      "id": "pt.ine.add.PTCONT.570370",
      "street": "R 1 DE MAIO",
      "house": "",
      "postcode": "4755-037",
      "city": "ALVELOS",
      "lon": "-8.620319734069913",
      "lat": "41.5133346718656"
    },
    {
      "id": "pt.ine.add.PTCONT.644796",
      "street": "R PATEIRA",
      "house": "",
      "postcode": "4755-025",
      "city": "ALVELOS",
      "lon": "-8.6176519251762",
      "lat": "41.51380513591794"
    },
    {
      "id": "pt.ine.add.PTCONT.682925",
      "street": "R 1 DE MAIO",
      "house": "1",
      "postcode": "4755-037",
      "city": "ALVELOS",
      "lon": "-8.61950451376453",
      "lat": "41.51324808460779"
    },
    {
      "id": "pt.ine.add.PTCONT.682926",
      "street": "R 1 DE MAIO",
      "house": "1",
      "postcode": "4755-037",
      "city": "ALVELOS",
      "lon": "-8.61950451376453",
      "lat": "41.51324808460779"
    },
    {
      "id": "pt.ine.add.PTCONT.697859",
      "street": "R MANDRÉ",
      "house": "164",
      "postcode": "4755-037",
      "city": "ALVELOS",
      "lon": "-8.620798405827147",
      "lat": "41.513269616531296"
    },
    {
      "id": "pt.ine.add.PTCONT.712758",
      "street": "R PATEIRA",
      "house": "601",
      "postcode": "4755-025",
      "city": "ALVELOS",
      "lon": "-8.619180687244874",
      "lat": "41.51319543094595"
    },
    {
      "id": "pt.ine.add.PTCONT.736699",
      "street": "R PATEIRA",
      "house": "",
      "postcode": "4755-025",
      "city": "ALVELOS",
      "lon": "-8.619230016243428",
      "lat": "41.51338430204886"
    },
    {
      "id": "pt.ine.add.PTCONT.766637",
      "street": "R PATEIRA",
      "house": "493",
      "postcode": "4755-025",
      "city": "ALVELOS",
      "lon": "-8.61969050770992",
      "lat": "41.512490979404326"
    },
    {
      "id": "pt.ine.add.PTCONT.784752",
      "street": "R PATEIRA",
      "house": "653",
      "postcode": "4755-025",
      "city": "ALVELOS",
      "lon": "-8.618728192239788",
      "lat": "41.51355749410062"
    },
    {
      "id": "pt.ine.add.PTCONT.784753",
      "street": "R PATEIRA",
      "house": "653",
      "postcode": "4755-025",
      "city": "ALVELOS",
      "lon": "-8.618728192239788",
      "lat": "41.51355749410062"
    },
    {
      "id": "pt.ine.add.PTCONT.818762",
      "street": "R QUINTÃO",
      "house": "33",
      "postcode": "4755-037",
      "city": "ALVELOS",
      "lon": "-8.6217548661559",
      "lat": "41.513022454365384"
    },
    {
      "id": "pt.ine.add.PTCONT.830295",
      "street": "R QUINTÃO",
      "house": "91",
      "postcode": "4755-037",
      "city": "ALVELOS",
      "lon": "-8.621358761748937",
      "lat": "41.51291609116311"
    },
    {
      "id": "pt.ine.add.PTCONT.835718",
      "street": "R QUINTÃO",
      "house": "59",
      "postcode": "4755-037",
      "city": "ALVELOS",
      "lon": "-8.621706207158551",
      "lat": "41.51292361940195"
    },
    {
      "id": "pt.ine.add.PTCONT.842595",
      "street": "R OUTEIRO",
      "house": "339",
      "postcode": "4755-038",
      "city": "ALVELOS",
      "lon": "-8.62115708776475",
      "lat": "41.51317805708575"
    }
  ]
}