{
  "data": {
    "distrito": "Évora",
    "concelho": "Mora",
    "freguesia": "Mora",
    "OBJECTID": 54,
    "BGRI2021": "07070300322",
    "DT21": "07",
    "DTMN21": "0707",
    "DTMNFR21": "070703",
    "DTMNFRSEC21": "070703003",
    "SECNUM21": "003",
    "SSNUM21": "22",
    "SECSSNUM21": "00322",
    "OBJECTID_1": 62289,
    "DT": "07",
    "CC": "07",
    "fr": "03",
    "SEC": "003",
    "SS": "22"
  },
  "addresses": [
    {
      "id": "pt.ine.add.PTCONT.1369491",
      "street": "MTE DO FURADOURO",
      "house": "",
      "postcode": "7490-217",
      "city": "MORA",
      "lon": "-8.21412082179741",
      "lat": "38.967807741919756"
    },
    {
      "id": "pt.ine.add.PTCONT.1369729",
      "street": "MTE DA ÁGUA BOA",
      "house": "",
      "postcode": "7490-217",
      "city": "MORA",
      "lon": "-8.228240798808395",
      "lat": "38.97399444913109"
    },
    {
      "id": "pt.ine.add.PTCONT.1377872",
      "street": "MTE DA ÁGUA BOA",
      "house": "",
      "postcode": "7490-217",
      "city": "MORA",
      "lon": "-8.228009898900234",
      "lat": "38.97391356701769"
    },
    {
      "id": "pt.ine.add.PTCONT.1392391",
      "street": "MTE FRANZINA",
      "house": "",
      "postcode": "7490-217",
      "city": "MORA",
      "lon": "-8.216022643579162",
      "lat": "38.97594945224316"
    },
    {
      "id": "pt.ine.add.PTCONT.1400451",
      "street": "MTE DOS CANTONEIROS",
      "house": "",
      "postcode": "7490-319",
      "city": "MORA",
      "lon": "-8.209577010692476",
      "lat": "38.97003573402523"
    },
    {
      "id": "pt.ine.add.PTCONT.1417724",
      "street": "MTE DA FRANZINA",
      "house": "",
      "postcode": "7490-217",
      "city": "MORA",
      "lon": "-8.21642671974833",
      "lat": "38.97610229683694"
    },
    {
      "id": "pt.ine.add.PTCONT.1430356",
      "street": "MTE DA FRANZJNA",
      "house": "",
      "postcode": "7490-217",
      "city": "MORA",
      "lon": "-8.216807632912024",
      "lat": "38.97618309434253"
    },
    {
      "id": "pt.ine.add.PTCONT.1444065",
      "street": "MTE DA FRANZINA",
      "house": "",
      "postcode": "7490-217",
      "city": "MORA",
      "lon": "-8.215618548239735",
      "lat": "38.975778590682644"
    },
    {
      "id": "pt.ine.add.PTCONT.1461639",
      "street": "MTE DA FRANZINA",
      "house": "",
      "postcode": "7490-217",
      "city": "MORA",
      "lon": "-8.215710909129857",
      "lat": "38.97581455649565"
    }
  ]
}