{
  "data": {
    "distrito": "Santar√©m",
    "concelho": "Rio Maior",
    "freguesia": "Rio Maior",
    "OBJECTID": 47,
    "BGRI2021": "14140801020",
    "DT21": "14",
    "DTMN21": "1414",
    "DTMNFR21": "141408",
    "DTMNFRSEC21": "141408010",
    "SECNUM21": "010",
    "SSNUM21": "20",
    "SECSSNUM21": "01020",
    "OBJECTID_1": 153241,
    "DT": "14",
    "CC": "14",
    "fr": "08",
    "SEC": "010",
    "SS": "20"
  },
  "addresses": [
    {
      "id": "pt.ine.add.PTCONT.4398944",
      "street": "R 8 SETEMBRO",
      "house": "4",
      "postcode": "2040-143",
      "city": "RIO MAIOR",
      "lon": "-8.892781957980896",
      "lat": "39.31005758726654"
    },
    {
      "id": "pt.ine.add.PTCONT.4398955",
      "street": "",
      "house": "",
      "postcode": "2040-143",
      "city": "RIO MAIOR",
      "lon": "-8.8923340049682",
      "lat": "39.30937596888352"
    },
    {
      "id": "pt.ine.add.PTCONT.4423449",
      "street": "",
      "house": "",
      "postcode": "2040-143",
      "city": "RIO MAIOR",
      "lon": "-8.89152518458754",
      "lat": "39.309633440268634"
    },
    {
      "id": "pt.ine.add.PTCONT.4500554",
      "street": "LG MANUEL GERARDO BARREIRA",
      "house": "2",
      "postcode": "2040-143",
      "city": "RIO MAIOR",
      "lon": "-8.892001004890606",
      "lat": "39.30967537496695"
    },
    {
      "id": "pt.ine.add.PTCONT.4508726",
      "street": "R PRINCIPAL",
      "house": "",
      "postcode": "2040-143",
      "city": "RIO MAIOR",
      "lon": "-8.891654074583608",
      "lat": "39.30975870010714"
    },
    {
      "id": "pt.ine.add.PTCONT.4529061",
      "street": "R 8 SETEMBRO",
      "house": "2",
      "postcode": "2040-143",
      "city": "RIO MAIOR",
      "lon": "-8.89295703055106",
      "lat": "39.310164530033845"
    },
    {
      "id": "pt.ine.add.PTCONT.4544281",
      "street": "LG MANUEL GERARDO BARREIRA",
      "house": "6",
      "postcode": "2040-143",
      "city": "RIO MAIOR",
      "lon": "-8.892083327065624",
      "lat": "39.309782923661196"
    },
    {
      "id": "pt.ine.add.PTCONT.4606245",
      "street": "R FONTE DA ABRUNHEIRA",
      "house": "1",
      "postcode": "2040-143",
      "city": "RIO MAIOR",
      "lon": "-8.89297057239994",
      "lat": "39.31034458391559"
    },
    {
      "id": "pt.ine.add.PTCONT.4611930",
      "street": "R 8 SETEMBRO",
      "house": "",
      "postcode": "2040-143",
      "city": "RIO MAIOR",
      "lon": "-8.89282726095573",
      "lat": "39.30995821337027"
    },
    {
      "id": "pt.ine.add.PTCONT.4616265",
      "street": "LG MANUEL GERARDO BARREIRA",
      "house": "4",
      "postcode": "2040-143",
      "city": "RIO MAIOR",
      "lon": "-8.891839084731775",
      "lat": "39.309712458864"
    },
    {
      "id": "pt.ine.add.PTCONT.4624646",
      "street": "R CABECO CENTEIO",
      "house": "",
      "postcode": "2040-145",
      "city": "RIO MAIOR",
      "lon": "-8.89177712955733",
      "lat": "39.30934357091943"
    },
    {
      "id": "pt.ine.add.PTCONT.4649281",
      "street": "",
      "house": "",
      "postcode": "2040-143",
      "city": "RIO MAIOR",
      "lon": "-8.891526545748142",
      "lat": "39.30975953101208"
    },
    {
      "id": "pt.ine.add.PTCONT.4657364",
      "street": "R DR SILVINO SEQUEIRA",
      "house": "2",
      "postcode": "2040-143",
      "city": "RIO MAIOR",
      "lon": "-8.893002625592754",
      "lat": "39.31009217550699"
    },
    {
      "id": "pt.ine.add.PTCONT.4661274",
      "street": "R DR SILVINO SEQUEIRA",
      "house": "1",
      "postcode": "2040-143",
      "city": "RIO MAIOR",
      "lon": "-8.893061567741292",
      "lat": "39.310181861880466"
    }
  ]
}