{
  "data": {
    "distrito": "Porto",
    "concelho": "Porto",
    "freguesia": "Uni√£o das freguesias de Aldoar, Foz do Douro e Nevogilde",
    "OBJECTID": 595,
    "BGRI2021": "13121600504",
    "DT21": "13",
    "DTMN21": "1312",
    "DTMNFR21": "131216",
    "DTMNFRSEC21": "131216005",
    "SECNUM21": "005",
    "SSNUM21": "04",
    "SECSSNUM21": "00504",
    "OBJECTID_1": 138233,
    "DT": "13",
    "CC": "12",
    "fr": "16",
    "SEC": "005",
    "SS": "04"
  },
  "addresses": [
    {
      "id": "pt.ine.add.PTCONT.3542598",
      "street": "R JORNAL DE NOTICIAS",
      "house": "529",
      "postcode": "4100-298",
      "city": "PORTO",
      "lon": "-8.664055129926878",
      "lat": "41.17209473877436"
    },
    {
      "id": "pt.ine.add.PTCONT.3548753",
      "street": "R JORNAL DE NOTICIAS",
      "house": "627",
      "postcode": "4100-298",
      "city": "PORTO",
      "lon": "-8.66309623327234",
      "lat": "41.17288253031232"
    },
    {
      "id": "pt.ine.add.PTCONT.3574552",
      "street": "R MARTIM MONIZ",
      "house": "770",
      "postcode": "4100-330",
      "city": "PORTO",
      "lon": "-8.663171287500926",
      "lat": "41.17332339623241"
    },
    {
      "id": "pt.ine.add.PTCONT.3574553",
      "street": "R MARTIM MONIZ",
      "house": "770",
      "postcode": "4100-330",
      "city": "PORTO",
      "lon": "-8.663171287500926",
      "lat": "41.17332339623241"
    },
    {
      "id": "pt.ine.add.PTCONT.3574554",
      "street": "R MARTIM MONIZ",
      "house": "770",
      "postcode": "4100-330",
      "city": "PORTO",
      "lon": "-8.663171287500926",
      "lat": "41.17332339623241"
    },
    {
      "id": "pt.ine.add.PTCONT.3574563",
      "street": "R MARTIM MONIZ",
      "house": "852",
      "postcode": "4100-330",
      "city": "PORTO",
      "lon": "-8.662603505611147",
      "lat": "41.173848257900026"
    },
    {
      "id": "pt.ine.add.PTCONT.3610579",
      "street": "R MARTIM MONIZ",
      "house": "832",
      "postcode": "4100-330",
      "city": "PORTO",
      "lon": "-8.66272158273851",
      "lat": "41.17371265034717"
    },
    {
      "id": "pt.ine.add.PTCONT.3690079",
      "street": "R MARTIM MONIZ",
      "house": "754",
      "postcode": "4100-330",
      "city": "PORTO",
      "lon": "-8.663301424083517",
      "lat": "41.173205741200555"
    },
    {
      "id": "pt.ine.add.PTCONT.3709988",
      "street": "R VILA NOVA",
      "house": "2",
      "postcode": "4100-501",
      "city": "PORTO",
      "lon": "-8.664102431091544",
      "lat": "41.172049499149416"
    },
    {
      "id": "pt.ine.add.PTCONT.3755295",
      "street": "R MARTIM MONIZ",
      "house": "808",
      "postcode": "4100-330",
      "city": "PORTO",
      "lon": "-8.66287540870489",
      "lat": "41.17357687824807"
    },
    {
      "id": "pt.ine.add.PTCONT.3755296",
      "street": "R MARTIM MONIZ",
      "house": "808",
      "postcode": "4100-330",
      "city": "PORTO",
      "lon": "-8.66287540870489",
      "lat": "41.17357687824807"
    },
    {
      "id": "pt.ine.add.PTCONT.3755297",
      "street": "R MARTIM MONIZ",
      "house": "808",
      "postcode": "4100-330",
      "city": "PORTO",
      "lon": "-8.66287540870489",
      "lat": "41.17357687824807"
    },
    {
      "id": "pt.ine.add.PTCONT.3761859",
      "street": "R JORNAL DE NOTICIAS",
      "house": "611",
      "postcode": "4100-298",
      "city": "PORTO",
      "lon": "-8.663274469851316",
      "lat": "41.17281867984027"
    },
    {
      "id": "pt.ine.add.PTCONT.3771527",
      "street": "R MARTIM MONIZ",
      "house": "634",
      "postcode": "4100-330",
      "city": "PORTO",
      "lon": "-8.664331529362968",
      "lat": "41.17238160233879"
    },
    {
      "id": "pt.ine.add.PTCONT.3771528",
      "street": "R MARTIM MONIZ",
      "house": "634",
      "postcode": "4100-330",
      "city": "PORTO",
      "lon": "-8.664331529362968",
      "lat": "41.17238160233879"
    },
    {
      "id": "pt.ine.add.PTCONT.3771529",
      "street": "R MARTIM MONIZ",
      "house": "634",
      "postcode": "4100-330",
      "city": "PORTO",
      "lon": "-8.664331529362968",
      "lat": "41.17238160233879"
    },
    {
      "id": "pt.ine.add.PTCONT.3771530",
      "street": "R MARTIM MONIZ",
      "house": "634",
      "postcode": "4100-330",
      "city": "PORTO",
      "lon": "-8.664331529362968",
      "lat": "41.17238160233879"
    },
    {
      "id": "pt.ine.add.PTCONT.3771531",
      "street": "R MARTIM MONIZ",
      "house": "634",
      "postcode": "4100-330",
      "city": "PORTO",
      "lon": "-8.664331529362968",
      "lat": "41.17238160233879"
    },
    {
      "id": "pt.ine.add.PTCONT.3771532",
      "street": "R MARTIM MONIZ",
      "house": "634",
      "postcode": "4100-330",
      "city": "PORTO",
      "lon": "-8.664331529362968",
      "lat": "41.17238160233879"
    },
    {
      "id": "pt.ine.add.PTCONT.3771533",
      "street": "R MARTIM MONIZ",
      "house": "634",
      "postcode": "4100-330",
      "city": "PORTO",
      "lon": "-8.664331529362968",
      "lat": "41.17238160233879"
    },
    {
      "id": "pt.ine.add.PTCONT.3771534",
      "street": "R MARTIM MONIZ",
      "house": "634",
      "postcode": "4100-330",
      "city": "PORTO",
      "lon": "-8.664331529362968",
      "lat": "41.17238160233879"
    },
    {
      "id": "pt.ine.add.PTCONT.3771535",
      "street": "R MARTIM MONIZ",
      "house": "634",
      "postcode": "4100-330",
      "city": "PORTO",
      "lon": "-8.664331529362968",
      "lat": "41.17238160233879"
    },
    {
      "id": "pt.ine.add.PTCONT.3771536",
      "street": "R MARTIM MONIZ",
      "house": "634",
      "postcode": "4100-330",
      "city": "PORTO",
      "lon": "-8.664331529362968",
      "lat": "41.17238160233879"
    },
    {
      "id": "pt.ine.add.PTCONT.3771537",
      "street": "R MARTIM MONIZ",
      "house": "634",
      "postcode": "4100-330",
      "city": "PORTO",
      "lon": "-8.664331529362968",
      "lat": "41.17238160233879"
    },
    {
      "id": "pt.ine.add.PTCONT.3771538",
      "street": "R MARTIM MONIZ",
      "house": "634",
      "postcode": "4100-330",
      "city": "PORTO",
      "lon": "-8.664331529362968",
      "lat": "41.17238160233879"
    },
    {
      "id": "pt.ine.add.PTCONT.3771539",
      "street": "R MARTIM MONIZ",
      "house": "634",
      "postcode": "4100-330",
      "city": "PORTO",
      "lon": "-8.664331529362968",
      "lat": "41.17238160233879"
    },
    {
      "id": "pt.ine.add.PTCONT.3771563",
      "street": "R MARTIM MONIZ",
      "house": "634",
      "postcode": "4100-330",
      "city": "PORTO",
      "lon": "-8.664331529362968",
      "lat": "41.17238160233879"
    },
    {
      "id": "pt.ine.add.PTCONT.3794696",
      "street": "R JORNAL DE NOTICIAS",
      "house": "551",
      "postcode": "4100-298",
      "city": "PORTO",
      "lon": "-8.663711595171561",
      "lat": "41.172348442651725"
    },
    {
      "id": "pt.ine.add.PTCONT.3794697",
      "street": "R JORNAL DE NOTICIAS",
      "house": "551",
      "postcode": "4100-298",
      "city": "PORTO",
      "lon": "-8.663711595171561",
      "lat": "41.172348442651725"
    },
    {
      "id": "pt.ine.add.PTCONT.3794698",
      "street": "R JORNAL DE NOTICIAS",
      "house": "551",
      "postcode": "4100-298",
      "city": "PORTO",
      "lon": "-8.663711595171561",
      "lat": "41.172348442651725"
    },
    {
      "id": "pt.ine.add.PTCONT.3833237",
      "street": "R MARTIM MONIZ",
      "house": "752",
      "postcode": "4100-330",
      "city": "PORTO",
      "lon": "-8.663325039030497",
      "lat": "41.17317861955671"
    },
    {
      "id": "pt.ine.add.PTCONT.3865199",
      "street": "R MARTIM MONIZ",
      "house": "826",
      "postcode": "4100-330",
      "city": "PORTO",
      "lon": "-8.662780874963024",
      "lat": "41.17367636044813"
    },
    {
      "id": "pt.ine.add.PTCONT.3875991",
      "street": "R JORNAL DE NOTICIAS",
      "house": "555",
      "postcode": "4100-298",
      "city": "PORTO",
      "lon": "-8.663664366167739",
      "lat": "41.172402686095396"
    },
    {
      "id": "pt.ine.add.PTCONT.3875992",
      "street": "R JORNAL DE NOTICIAS",
      "house": "555",
      "postcode": "4100-298",
      "city": "PORTO",
      "lon": "-8.663664366167739",
      "lat": "41.172402686095396"
    },
    {
      "id": "pt.ine.add.PTCONT.3891810",
      "street": "R MARTIM MONIZ",
      "house": "720",
      "postcode": "4100-330",
      "city": "PORTO",
      "lon": "-8.663609070621515",
      "lat": "41.172934195253625"
    },
    {
      "id": "pt.ine.add.PTCONT.3891811",
      "street": "R MARTIM MONIZ",
      "house": "720",
      "postcode": "4100-330",
      "city": "PORTO",
      "lon": "-8.663609070621515",
      "lat": "41.172934195253625"
    },
    {
      "id": "pt.ine.add.PTCONT.3891812",
      "street": "R MARTIM MONIZ",
      "house": "720",
      "postcode": "4100-330",
      "city": "PORTO",
      "lon": "-8.663609070621515",
      "lat": "41.172934195253625"
    },
    {
      "id": "pt.ine.add.PTCONT.3895569",
      "street": "R MARTIM MONIZ",
      "house": "820",
      "postcode": "4100-330",
      "city": "PORTO",
      "lon": "-8.662828033070266",
      "lat": "41.17361311339086"
    },
    {
      "id": "pt.ine.add.PTCONT.3949127",
      "street": "R MARTIM MONIZ",
      "house": "786",
      "postcode": "4100-330",
      "city": "PORTO",
      "lon": "-8.66308838071066",
      "lat": "41.17338680793167"
    },
    {
      "id": "pt.ine.add.PTCONT.3949129",
      "street": "R MARTIM MONIZ",
      "house": "786",
      "postcode": "4100-330",
      "city": "PORTO",
      "lon": "-8.66308838071066",
      "lat": "41.17338680793167"
    },
    {
      "id": "pt.ine.add.PTCONT.3949130",
      "street": "R MARTIM MONIZ",
      "house": "786",
      "postcode": "4100-330",
      "city": "PORTO",
      "lon": "-8.66308838071066",
      "lat": "41.17338680793167"
    },
    {
      "id": "pt.ine.add.PTCONT.3980727",
      "street": "R JORNAL DE NOTICIAS",
      "house": "563",
      "postcode": "4100-298",
      "city": "PORTO",
      "lon": "-8.663593304612146",
      "lat": "41.172457039288545"
    },
    {
      "id": "pt.ine.add.PTCONT.3980728",
      "street": "R JORNAL DE NOTICIAS",
      "house": "563",
      "postcode": "4100-298",
      "city": "PORTO",
      "lon": "-8.663593304612146",
      "lat": "41.172457039288545"
    },
    {
      "id": "pt.ine.add.PTCONT.3990351",
      "street": "R JORNAL DE NOTICIAS",
      "house": "787",
      "postcode": "4100-298",
      "city": "PORTO",
      "lon": "-8.662306317944358",
      "lat": "41.17393966685574"
    },
    {
      "id": "pt.ine.add.PTCONT.3993897",
      "street": "R MARTIM MONIZ",
      "house": "844",
      "postcode": "4100-330",
      "city": "PORTO",
      "lon": "-8.662626976063718",
      "lat": "41.17380312844327"
    },
    {
      "id": "pt.ine.add.PTCONT.4000378",
      "street": "R MARTIM MONIZ",
      "house": "726",
      "postcode": "4100-330",
      "city": "PORTO",
      "lon": "-8.663549779523441",
      "lat": "41.17297048557687"
    },
    {
      "id": "pt.ine.add.PTCONT.4000379",
      "street": "R MARTIM MONIZ",
      "house": "726",
      "postcode": "4100-330",
      "city": "PORTO",
      "lon": "-8.663549779523441",
      "lat": "41.17297048557687"
    },
    {
      "id": "pt.ine.add.PTCONT.4003195",
      "street": "R MARTIM MONIZ",
      "house": "726",
      "postcode": "4100-330",
      "city": "PORTO",
      "lon": "-8.663549779523441",
      "lat": "41.17297048557687"
    },
    {
      "id": "pt.ine.add.PTCONT.4025772",
      "street": "R MARTIM MONIZ",
      "house": "794",
      "postcode": "4100-330",
      "city": "PORTO",
      "lon": "-8.662993702452605",
      "lat": "41.17346828235034"
    },
    {
      "id": "pt.ine.add.PTCONT.4025907",
      "street": "R MARTIM MONIZ",
      "house": "794",
      "postcode": "4100-330",
      "city": "PORTO",
      "lon": "-8.662993702452605",
      "lat": "41.17346828235034"
    },
    {
      "id": "pt.ine.add.PTCONT.4025908",
      "street": "R MARTIM MONIZ",
      "house": "794",
      "postcode": "4100-330",
      "city": "PORTO",
      "lon": "-8.662993702452605",
      "lat": "41.17346828235034"
    },
    {
      "id": "pt.ine.add.PTCONT.4025909",
      "street": "R MARTIM MONIZ",
      "house": "794",
      "postcode": "4100-330",
      "city": "PORTO",
      "lon": "-8.662993702452605",
      "lat": "41.17346828235034"
    },
    {
      "id": "pt.ine.add.PTCONT.4025910",
      "street": "R MARTIM MONIZ",
      "house": "794",
      "postcode": "4100-330",
      "city": "PORTO",
      "lon": "-8.662993702452605",
      "lat": "41.17346828235034"
    },
    {
      "id": "pt.ine.add.PTCONT.4029050",
      "street": "R MARTIM MONIZ",
      "house": "794",
      "postcode": "4100-330",
      "city": "PORTO",
      "lon": "-8.662993702452605",
      "lat": "41.17346828235034"
    },
    {
      "id": "pt.ine.add.PTCONT.4032978",
      "street": "R JORNAL NOTICIAS",
      "house": "579",
      "postcode": "4100-298",
      "city": "PORTO",
      "lon": "-8.663249621005988",
      "lat": "41.17269273383711"
    },
    {
      "id": "pt.ine.add.PTCONT.4032979",
      "street": "R JORNAL DE NOTICIAS",
      "house": "583",
      "postcode": "4100-298",
      "city": "PORTO",
      "lon": "-8.663249621005988",
      "lat": "41.17269273383711"
    },
    {
      "id": "pt.ine.add.PTCONT.4036911",
      "street": "R MARTIM MONIZ",
      "house": "804",
      "postcode": "4100-330",
      "city": "PORTO",
      "lon": "-8.662910940396602",
      "lat": "41.17354970187824"
    },
    {
      "id": "pt.ine.add.PTCONT.4076019",
      "street": "R MARTIM MONIZ",
      "house": "744",
      "postcode": "4100-330",
      "city": "PORTO",
      "lon": "-8.663395593317977",
      "lat": "41.17306123868405"
    },
    {
      "id": "pt.ine.add.PTCONT.4076020",
      "street": "R MARTIM MONIZ",
      "house": "744",
      "postcode": "4100-330",
      "city": "PORTO",
      "lon": "-8.663395593317977",
      "lat": "41.17306123868405"
    },
    {
      "id": "pt.ine.add.PTCONT.4098906",
      "street": "R MARTIM MONIZ",
      "house": "746",
      "postcode": "4100-330",
      "city": "PORTO",
      "lon": "-8.663384185224652",
      "lat": "41.17312432139273"
    },
    {
      "id": "pt.ine.add.PTCONT.4101871",
      "street": "R MARTIM MONIZ",
      "house": "746",
      "postcode": "4100-330",
      "city": "PORTO",
      "lon": "-8.663384185224652",
      "lat": "41.17312432139273"
    },
    {
      "id": "pt.ine.add.PTCONT.4118295",
      "street": "R JORNAL DE NOTICIAS",
      "house": "655",
      "postcode": "4100-298",
      "city": "PORTO",
      "lon": "-8.663025388403675",
      "lat": "41.17296389509258"
    },
    {
      "id": "pt.ine.add.PTCONT.4118296",
      "street": "R JORNAL DE NOTICIAS",
      "house": "655",
      "postcode": "4100-298",
      "city": "PORTO",
      "lon": "-8.663025388403675",
      "lat": "41.17296389509258"
    },
    {
      "id": "pt.ine.add.PTCONT.4118297",
      "street": "R JORNAL DE NOTICIAS",
      "house": "655",
      "postcode": "4100-298",
      "city": "PORTO",
      "lon": "-8.663025388403675",
      "lat": "41.17296389509258"
    },
    {
      "id": "pt.ine.add.PTCONT.4118298",
      "street": "R JORNAL DE NOTICIAS",
      "house": "655",
      "postcode": "4100-298",
      "city": "PORTO",
      "lon": "-8.663025388403675",
      "lat": "41.17296389509258"
    },
    {
      "id": "pt.ine.add.PTCONT.4118299",
      "street": "R JORNAL DE NOTICIAS",
      "house": "655",
      "postcode": "4100-298",
      "city": "PORTO",
      "lon": "-8.663025388403675",
      "lat": "41.17296389509258"
    },
    {
      "id": "pt.ine.add.PTCONT.4118300",
      "street": "R JORNAL DE NOTICIAS",
      "house": "655",
      "postcode": "4100-298",
      "city": "PORTO",
      "lon": "-8.663025388403675",
      "lat": "41.17296389509258"
    },
    {
      "id": "pt.ine.add.PTCONT.4118301",
      "street": "R JORNAL DE NOTICIAS",
      "house": "655",
      "postcode": "4100-298",
      "city": "PORTO",
      "lon": "-8.663025388403675",
      "lat": "41.17296389509258"
    },
    {
      "id": "pt.ine.add.PTCONT.4118303",
      "street": "R MARTIM MONIZ",
      "house": "682",
      "postcode": "4100-330",
      "city": "PORTO",
      "lon": "-8.663940765217719",
      "lat": "41.17268955058474"
    },
    {
      "id": "pt.ine.add.PTCONT.4118308",
      "street": "R MARTIM MONIZ",
      "house": "854",
      "postcode": "4100-330",
      "city": "PORTO",
      "lon": "-8.662556129631565",
      "lat": "41.17388449293137"
    },
    {
      "id": "pt.ine.add.PTCONT.4118347",
      "street": "R JORNAL DE NOTICIAS",
      "house": "655",
      "postcode": "4100-298",
      "city": "PORTO",
      "lon": "-8.663025388403675",
      "lat": "41.17296389509258"
    },
    {
      "id": "pt.ine.add.PTCONT.4118348",
      "street": "R JORNAL DE NOTICIAS",
      "house": "655",
      "postcode": "4100-298",
      "city": "PORTO",
      "lon": "-8.663025388403675",
      "lat": "41.17296389509258"
    },
    {
      "id": "pt.ine.add.PTCONT.4118349",
      "street": "R JORNAL DE NOTICIAS",
      "house": "655",
      "postcode": "4100-298",
      "city": "PORTO",
      "lon": "-8.663025388403675",
      "lat": "41.17296389509258"
    },
    {
      "id": "pt.ine.add.PTCONT.4118350",
      "street": "R JORNAL DE NOTICIAS",
      "house": "655",
      "postcode": "4100-298",
      "city": "PORTO",
      "lon": "-8.663025388403675",
      "lat": "41.17296389509258"
    },
    {
      "id": "pt.ine.add.PTCONT.4121189",
      "street": "R JORNAL DE NOTICIAS",
      "house": "655",
      "postcode": "4100-298",
      "city": "PORTO",
      "lon": "-8.663025388403675",
      "lat": "41.17296389509258"
    },
    {
      "id": "pt.ine.add.PTCONT.4131110",
      "street": "R JORNAL DE NOT√çCIAS",
      "house": "575",
      "postcode": "4100-298",
      "city": "PORTO",
      "lon": "-8.663534304439722",
      "lat": "41.17252934551887"
    },
    {
      "id": "pt.ine.add.PTCONT.4135351",
      "street": "R JORNAL DE NOT√çCIAS",
      "house": "573",
      "postcode": "4100-298",
      "city": "PORTO",
      "lon": "-8.663534304439722",
      "lat": "41.17252934551887"
    },
    {
      "id": "pt.ine.add.PTCONT.4170977",
      "street": "R MARTIM MONIZ",
      "house": "716",
      "postcode": "4100-330",
      "city": "PORTO",
      "lon": "-8.663644674306054",
      "lat": "41.17291602263628"
    },
    {
      "id": "pt.ine.add.PTCONT.4179897",
      "street": "R JORNAL DE NOTICIAS",
      "house": "621",
      "postcode": "4100-298",
      "city": "PORTO",
      "lon": "-8.663119557906395",
      "lat": "41.172819392794146"
    },
    {
      "id": "pt.ine.add.PTCONT.4190094",
      "street": "R MARTIM MONIZ",
      "house": "680",
      "postcode": "4100-330",
      "city": "PORTO",
      "lon": "-8.663952536127308",
      "lat": "41.172671487709124"
    },
    {
      "id": "pt.ine.add.PTCONT.4262158",
      "street": "R JORNAL DE NOTICIAS",
      "house": "533",
      "postcode": "4100-298",
      "city": "PORTO",
      "lon": "-8.663853790405213",
      "lat": "41.172248740055"
    },
    {
      "id": "pt.ine.add.PTCONT.4284971",
      "street": "R MARTIM MONIZ",
      "house": "666",
      "postcode": "4100-330",
      "city": "PORTO",
      "lon": "-8.66401160865582",
      "lat": "41.17260818524622"
    },
    {
      "id": "pt.ine.add.PTCONT.4315927",
      "street": "R MARTIM MONIZ",
      "house": "686",
      "postcode": "4100-330",
      "city": "PORTO",
      "lon": "-8.663869558238396",
      "lat": "41.172725895990546"
    },
    {
      "id": "pt.ine.add.PTCONT.4315928",
      "street": "R MARTIM MONIZ",
      "house": "686",
      "postcode": "4100-330",
      "city": "PORTO",
      "lon": "-8.663869558238396",
      "lat": "41.172725895990546"
    },
    {
      "id": "pt.ine.add.PTCONT.4315929",
      "street": "R MARTIM MONIZ",
      "house": "686",
      "postcode": "4100-330",
      "city": "PORTO",
      "lon": "-8.663869558238396",
      "lat": "41.172725895990546"
    },
    {
      "id": "pt.ine.add.PTCONT.4315931",
      "street": "R MARTIM MONIZ",
      "house": "686",
      "postcode": "4100-330",
      "city": "PORTO",
      "lon": "-8.663869558238396",
      "lat": "41.172725895990546"
    },
    {
      "id": "pt.ine.add.PTCONT.4315932",
      "street": "R MARTIM MONIZ",
      "house": "680",
      "postcode": "4100-330",
      "city": "PORTO",
      "lon": "-8.663869558238396",
      "lat": "41.172725895990546"
    },
    {
      "id": "pt.ine.add.PTCONT.4315933",
      "street": "R MARTIM MONIZ",
      "house": "686",
      "postcode": "4100-330",
      "city": "PORTO",
      "lon": "-8.663869558238396",
      "lat": "41.172725895990546"
    },
    {
      "id": "pt.ine.add.PTCONT.4315934",
      "street": "R MARTIM MONIZ",
      "house": "686",
      "postcode": "4100-330",
      "city": "PORTO",
      "lon": "-8.663869558238396",
      "lat": "41.172725895990546"
    },
    {
      "id": "pt.ine.add.PTCONT.4322194",
      "street": "R MARTIM MONIZ",
      "house": "702",
      "postcode": "4100-330",
      "city": "PORTO",
      "lon": "-8.663786580212015",
      "lat": "41.17278030421252"
    },
    {
      "id": "pt.ine.add.PTCONT.4322195",
      "street": "R MARTIM MONIZ",
      "house": "702",
      "postcode": "4100-330",
      "city": "PORTO",
      "lon": "-8.663786580212015",
      "lat": "41.17278030421252"
    },
    {
      "id": "pt.ine.add.PTCONT.4322196",
      "street": "R MARTIM MONIZ",
      "house": "702",
      "postcode": "4100-330",
      "city": "PORTO",
      "lon": "-8.663786580212015",
      "lat": "41.17278030421252"
    },
    {
      "id": "pt.ine.add.PTCONT.4322197",
      "street": "R MARTIM MONIZ",
      "house": "702",
      "postcode": "4100-330",
      "city": "PORTO",
      "lon": "-8.663786580212015",
      "lat": "41.17278030421252"
    },
    {
      "id": "pt.ine.add.PTCONT.4322198",
      "street": "R MARTIM MONIZ",
      "house": "702",
      "postcode": "4100-330",
      "city": "PORTO",
      "lon": "-8.663786580212015",
      "lat": "41.17278030421252"
    },
    {
      "id": "pt.ine.add.PTCONT.4322199",
      "street": "R MARTIM MONIZ",
      "house": "702",
      "postcode": "4100-330",
      "city": "PORTO",
      "lon": "-8.663786580212015",
      "lat": "41.17278030421252"
    },
    {
      "id": "pt.ine.add.PTCONT.4322200",
      "street": "R MARTIM MONIZ",
      "house": "702",
      "postcode": "4100-330",
      "city": "PORTO",
      "lon": "-8.663786580212015",
      "lat": "41.17278030421252"
    },
    {
      "id": "pt.ine.add.PTCONT.4332699",
      "street": "R MARTIM MONIZ",
      "house": "650",
      "postcode": "4100-330",
      "city": "PORTO",
      "lon": "-8.664130044205757",
      "lat": "41.17251759614077"
    },
    {
      "id": "pt.ine.add.PTCONT.4332700",
      "street": "R MARTIM MONIZ",
      "house": "650",
      "postcode": "4100-330",
      "city": "PORTO",
      "lon": "-8.664130044205757",
      "lat": "41.17251759614077"
    },
    {
      "id": "pt.ine.add.PTCONT.4332701",
      "street": "R MARTIM MONIZ",
      "house": "650",
      "postcode": "4100-330",
      "city": "PORTO",
      "lon": "-8.664130044205757",
      "lat": "41.17251759614077"
    },
    {
      "id": "pt.ine.add.PTCONT.4332702",
      "street": "R MARTIM MONIZ",
      "house": "650",
      "postcode": "4100-330",
      "city": "PORTO",
      "lon": "-8.664130044205757",
      "lat": "41.17251759614077"
    },
    {
      "id": "pt.ine.add.PTCONT.4332703",
      "street": "R MARTIM MONIZ",
      "house": "650",
      "postcode": "4100-330",
      "city": "PORTO",
      "lon": "-8.664130044205757",
      "lat": "41.17251759614077"
    },
    {
      "id": "pt.ine.add.PTCONT.4332704",
      "street": "R MARTIM MONIZ",
      "house": "650",
      "postcode": "4100-330",
      "city": "PORTO",
      "lon": "-8.664130044205757",
      "lat": "41.17251759614077"
    },
    {
      "id": "pt.ine.add.PTCONT.4332705",
      "street": "R MARTIM MONIZ",
      "house": "650",
      "postcode": "4100-330",
      "city": "PORTO",
      "lon": "-8.664130044205757",
      "lat": "41.17251759614077"
    },
    {
      "id": "pt.ine.add.PTCONT.4332706",
      "street": "R MARTIM MONIZ",
      "house": "650",
      "postcode": "4100-330",
      "city": "PORTO",
      "lon": "-8.664130044205757",
      "lat": "41.17251759614077"
    },
    {
      "id": "pt.ine.add.PTCONT.4332707",
      "street": "R MARTIM MONIZ",
      "house": "650",
      "postcode": "4100-330",
      "city": "PORTO",
      "lon": "-8.664130044205757",
      "lat": "41.17251759614077"
    },
    {
      "id": "pt.ine.add.PTCONT.4332708",
      "street": "R MARTIM MONIZ",
      "house": "650",
      "postcode": "4100-330",
      "city": "PORTO",
      "lon": "-8.664130044205757",
      "lat": "41.17251759614077"
    },
    {
      "id": "pt.ine.add.PTCONT.4332709",
      "street": "R MARTIM MONIZ",
      "house": "650",
      "postcode": "4100-330",
      "city": "PORTO",
      "lon": "-8.664130044205757",
      "lat": "41.17251759614077"
    },
    {
      "id": "pt.ine.add.PTCONT.4332710",
      "street": "R MARTIM MONIZ",
      "house": "650",
      "postcode": "4100-330",
      "city": "PORTO",
      "lon": "-8.664130044205757",
      "lat": "41.17251759614077"
    },
    {
      "id": "pt.ine.add.PTCONT.4332711",
      "street": "R MARTIM MONIZ",
      "house": "650",
      "postcode": "4100-330",
      "city": "PORTO",
      "lon": "-8.664130044205757",
      "lat": "41.17251759614077"
    },
    {
      "id": "pt.ine.add.PTCONT.4332804",
      "street": "R MARTIM MONIZ",
      "house": "650",
      "postcode": "4100-330",
      "city": "PORTO",
      "lon": "-8.664130044205757",
      "lat": "41.17251759614077"
    },
    {
      "id": "pt.ine.add.PTCONT.4372788",
      "street": "R MARTIM MONIZ",
      "house": "842",
      "postcode": "4100-330",
      "city": "PORTO",
      "lon": "-8.66265066401129",
      "lat": "41.17378501091548"
    }
  ]
}