{
  "data": {
    "distrito": "Leiria",
    "concelho": "Óbidos",
    "freguesia": "Amoreira",
    "OBJECTID": 296,
    "BGRI2021": "10120200209",
    "DT21": "10",
    "DTMN21": "1012",
    "DTMNFR21": "101202",
    "DTMNFRSEC21": "101202002",
    "SECNUM21": "002",
    "SSNUM21": "09",
    "SECSSNUM21": "00209",
    "OBJECTID_1": 93646,
    "DT": "10",
    "CC": "12",
    "fr": "02",
    "SEC": "002",
    "SS": "09"
  },
  "addresses": [
    {
      "id": "pt.ine.add.PTCONT.1986063",
      "street": "R PEDRO ÁLVARES CABRAL",
      "house": "",
      "postcode": "2510-472",
      "city": "AMOREIRA OBD",
      "lon": "-9.287959312815849",
      "lat": "39.386761786285845"
    },
    {
      "id": "pt.ine.add.PTCONT.1992276",
      "street": "R PEDRO ÁLVARES CABRAL",
      "house": "",
      "postcode": "2510-472",
      "city": "AMOREIRA OBD",
      "lon": "-9.287515506505336",
      "lat": "39.38659506172053"
    },
    {
      "id": "pt.ine.add.PTCONT.2009773",
      "street": "R PEDRO ÁLVARES CABRAL",
      "house": "",
      "postcode": "2510-453",
      "city": "AMOREIRA OBD",
      "lon": "-9.289043027435541",
      "lat": "39.387021227728404"
    },
    {
      "id": "pt.ine.add.PTCONT.2009779",
      "street": "TV GIL EANES",
      "house": "10",
      "postcode": "2510-472",
      "city": "AMOREIRA OBD",
      "lon": "-9.286279100154465",
      "lat": "39.38481497109107"
    },
    {
      "id": "pt.ine.add.PTCONT.2009780",
      "street": "TV GIL EANES",
      "house": "8",
      "postcode": "2510-472",
      "city": "AMOREIRA OBD",
      "lon": "-9.28656472697425",
      "lat": "39.385244465901664"
    },
    {
      "id": "pt.ine.add.PTCONT.2026956",
      "street": "R PEDRO ÁLVARES CABRAL",
      "house": "",
      "postcode": "2510-472",
      "city": "AMOREIRA OBD",
      "lon": "-9.288431698694946",
      "lat": "39.38654994006204"
    },
    {
      "id": "pt.ine.add.PTCONT.2028044",
      "street": "TV GIL EANES",
      "house": "4",
      "postcode": "2510-453",
      "city": "AMOREIRA OBD",
      "lon": "-9.287053570963243",
      "lat": "39.38603221632781"
    },
    {
      "id": "pt.ine.add.PTCONT.2033311",
      "street": "R PEDRO ÁLVARES CABRAL",
      "house": "",
      "postcode": "2510-453",
      "city": "AMOREIRA OBD",
      "lon": "-9.288390031231838",
      "lat": "39.38683857118464"
    },
    {
      "id": "pt.ine.add.PTCONT.2033312",
      "street": "R PEDRO ÁLVARES CABRAL",
      "house": "3",
      "postcode": "2510-472",
      "city": "AMOREIRA OBD",
      "lon": "-9.288276529141491",
      "lat": "39.38629028384915"
    },
    {
      "id": "pt.ine.add.PTCONT.2040422",
      "street": "R GONÇALVES ZARCO",
      "house": "1",
      "postcode": "2510-472",
      "city": "AMOREIRA OBD",
      "lon": "-9.28629925881482",
      "lat": "39.38603969548929"
    },
    {
      "id": "pt.ine.add.PTCONT.2042588",
      "street": "R MIGUEL CORTE REAL",
      "house": "8",
      "postcode": "2510-472",
      "city": "AMOREIRA OBD",
      "lon": "-9.285392558929413",
      "lat": "39.38454454413482"
    },
    {
      "id": "pt.ine.add.PTCONT.2046902",
      "street": "R MIGUEL CORTE REAL",
      "house": "1",
      "postcode": "2510-453",
      "city": "AMOREIRA OBD",
      "lon": "-9.285191969342241",
      "lat": "39.385050911261715"
    },
    {
      "id": "pt.ine.add.PTCONT.2052411",
      "street": "R PEDRO ÁLVARES CABRAL",
      "house": "",
      "postcode": "2510-453",
      "city": "AMOREIRA OBD",
      "lon": "-9.288962089898247",
      "lat": "39.38704004544813"
    },
    {
      "id": "pt.ine.add.PTCONT.2052412",
      "street": "TV GIL EANES",
      "house": "3",
      "postcode": "2510-451",
      "city": "AMOREIRA OBD",
      "lon": "-9.287419434719245",
      "lat": "39.38569533556231"
    },
    {
      "id": "pt.ine.add.PTCONT.2058179",
      "street": "R PEDRO ÁLVARES CABRAL",
      "house": "",
      "postcode": "2510-453",
      "city": "AMOREIRA OBD",
      "lon": "-9.288520952878542",
      "lat": "39.38703542048379"
    },
    {
      "id": "pt.ine.add.PTCONT.2058183",
      "street": "TV GIL EANES",
      "house": "1",
      "postcode": "2510-453",
      "city": "AMOREIRA OBD",
      "lon": "-9.287701807155823",
      "lat": "39.38592671028997"
    },
    {
      "id": "pt.ine.add.PTCONT.2064933",
      "street": "R PEDRO ÁLVARES CABRAL",
      "house": "",
      "postcode": "2510-472",
      "city": "AMOREIRA OBD",
      "lon": "-9.288359693456481",
      "lat": "39.38640654639119"
    },
    {
      "id": "pt.ine.add.PTCONT.2075123",
      "street": "R BARTOLOMEU DIAS",
      "house": "6",
      "postcode": "2510-472",
      "city": "AMOREIRA OBD",
      "lon": "-9.285610429436318",
      "lat": "39.38367773351547"
    },
    {
      "id": "pt.ine.add.PTCONT.2077392",
      "street": "R BARTOLOMEU DIAS CASA DOS ARCOS",
      "house": "2",
      "postcode": "2510-453",
      "city": "AMOREIRA OBD",
      "lon": "-9.284822307030053",
      "lat": "39.38445111577371"
    },
    {
      "id": "pt.ine.add.PTCONT.2092372",
      "street": "R PEDRO ÁLVARES CABRAL",
      "house": "",
      "postcode": "2510-453",
      "city": "AMOREIRA OBD",
      "lon": "-9.288425885569318",
      "lat": "39.38690126269089"
    },
    {
      "id": "pt.ine.add.PTCONT.2103201",
      "street": "R MIGUEL CORTE REAL",
      "house": "6",
      "postcode": "2510-453",
      "city": "AMOREIRA OBD",
      "lon": "-9.285664796881774",
      "lat": "39.38486609224881"
    },
    {
      "id": "pt.ine.add.PTCONT.2110144",
      "street": "R PEDRO ÁLVARES CABRAL",
      "house": "",
      "postcode": "2510-472",
      "city": "AMOREIRA OBD",
      "lon": "-9.287820053804051",
      "lat": "39.38676316852732"
    },
    {
      "id": "pt.ine.add.PTCONT.2112152",
      "street": "R PEDRO ÁLVARES CABRAL",
      "house": "",
      "postcode": "2510-472",
      "city": "AMOREIRA OBD",
      "lon": "-9.287590033028106",
      "lat": "39.38689154637505"
    },
    {
      "id": "pt.ine.add.PTCONT.2115917",
      "street": "R PEDRO ÁLVARES CABRAL",
      "house": "",
      "postcode": "2510-472",
      "city": "AMOREIRA OBD",
      "lon": "-9.28800484176698",
      "lat": "39.38670729358773"
    },
    {
      "id": "pt.ine.add.PTCONT.2115918",
      "street": "R GONÇALVES ZARCO",
      "house": "5",
      "postcode": "2510-472",
      "city": "AMOREIRA OBD",
      "lon": "-9.286848874358412",
      "lat": "39.385583906684396"
    },
    {
      "id": "pt.ine.add.PTCONT.2125887",
      "street": "R PEDRO ÁLVARES CABRAL",
      "house": "4",
      "postcode": "2510-472",
      "city": "AMOREIRA OBD",
      "lon": "-9.288289321876643",
      "lat": "39.38636221117407"
    },
    {
      "id": "pt.ine.add.PTCONT.2136808",
      "street": "R PEDRO ÁLVARES CABRAL",
      "house": "2",
      "postcode": "2510-472",
      "city": "AMOREIRA OBD",
      "lon": "-9.288182502650765",
      "lat": "39.38621916305262"
    },
    {
      "id": "pt.ine.add.PTCONT.2138761",
      "street": "R PEDRO ÁLVARES CABRAL",
      "house": "",
      "postcode": "2510-453",
      "city": "AMOREIRA OBD",
      "lon": "-9.28885794239071",
      "lat": "39.38705909368262"
    },
    {
      "id": "pt.ine.add.PTCONT.2138762",
      "street": "AV D INÊS DE CASTRO",
      "house": "24",
      "postcode": "2510-472",
      "city": "AMOREIRA OBD",
      "lon": "-9.286852544545525",
      "lat": "39.38651157010831"
    },
    {
      "id": "pt.ine.add.PTCONT.2149758",
      "street": "R BARTOLOMEU DIAS MIRASOL",
      "house": "8",
      "postcode": "2510-472",
      "city": "AMOREIRA OBD",
      "lon": "-9.286163736339043",
      "lat": "39.38344708124326"
    },
    {
      "id": "pt.ine.add.PTCONT.2151963",
      "street": "R GONÇALVES ZARCO",
      "house": "2",
      "postcode": "2510-453",
      "city": "AMOREIRA OBD",
      "lon": "-9.286616295286803",
      "lat": "39.38626172246192"
    },
    {
      "id": "pt.ine.add.PTCONT.2160799",
      "street": "R PEDRO ÁLVARES CABRAL",
      "house": "",
      "postcode": "2510-472",
      "city": "AMOREIRA OBD",
      "lon": "-9.287682130487456",
      "lat": "39.386845598481266"
    },
    {
      "id": "pt.ine.add.PTCONT.2160801",
      "street": "AV D INÊS DE CASTRO",
      "house": "30",
      "postcode": "2510-451",
      "city": "AMOREIRA OBD",
      "lon": "-9.28580726381367",
      "lat": "39.38576536043389"
    },
    {
      "id": "pt.ine.add.PTCONT.2167480",
      "street": "R PEDRO ÁLVARES CABRAL",
      "house": "",
      "postcode": "2510-472",
      "city": "AMOREIRA OBD",
      "lon": "-9.287596147145836",
      "lat": "39.386558234366596"
    },
    {
      "id": "pt.ine.add.PTCONT.2169556",
      "street": "R BARTOLOMEU DIAS",
      "house": "1608",
      "postcode": "2510-472",
      "city": "AMOREIRA OBD",
      "lon": "-9.28527088592375",
      "lat": "39.3842034908108"
    },
    {
      "id": "pt.ine.add.PTCONT.2180336",
      "street": "R PEDRO ÁLVARES CABRAL",
      "house": "A",
      "postcode": "2510-453",
      "city": "AMOREIRA OBD",
      "lon": "-9.288135341010276",
      "lat": "39.38617459730504"
    },
    {
      "id": "pt.ine.add.PTCONT.2184703",
      "street": "TV GIL EANES",
      "house": "2",
      "postcode": "2510-453",
      "city": "AMOREIRA OBD",
      "lon": "-9.287255599860641",
      "lat": "39.3863184297446"
    },
    {
      "id": "pt.ine.add.PTCONT.2186907",
      "street": "TV GIL EANES",
      "house": "9",
      "postcode": "2510-472",
      "city": "AMOREIRA OBD",
      "lon": "-9.286785995422456",
      "lat": "39.38458477587766"
    },
    {
      "id": "pt.ine.add.PTCONT.2186908",
      "street": "R GONÇALVES ZARCO",
      "house": "3",
      "postcode": "2510-472",
      "city": "AMOREIRA OBD",
      "lon": "-9.286563055764782",
      "lat": "39.38584793775517"
    },
    {
      "id": "pt.ine.add.PTCONT.2222688",
      "street": "R PEDRO ÁLVARES CABRAL",
      "house": "",
      "postcode": "2510-453",
      "city": "AMOREIRA OBD",
      "lon": "-9.288742338407387",
      "lat": "39.38708726241391"
    },
    {
      "id": "pt.ine.add.PTCONT.2226806",
      "street": "R PEDRO ÁLVARES CABRAL",
      "house": "",
      "postcode": "2510-472",
      "city": "AMOREIRA OBD",
      "lon": "-9.287446915818883",
      "lat": "39.386658789840524"
    },
    {
      "id": "pt.ine.add.PTCONT.2248954",
      "street": "R PEDRO ÁLVARES CABRAL",
      "house": "9",
      "postcode": "2510-472",
      "city": "AMOREIRA OBD",
      "lon": "-9.288097384100059",
      "lat": "39.38668836132809"
    },
    {
      "id": "pt.ine.add.PTCONT.2250633",
      "street": "R PEDRO ÁLVARES CABRAL",
      "house": "",
      "postcode": "2510-453",
      "city": "AMOREIRA OBD",
      "lon": "-9.288568263880608",
      "lat": "39.38708899137301"
    },
    {
      "id": "pt.ine.add.PTCONT.2250634",
      "street": "TV GIL EANES",
      "house": "12",
      "postcode": "2510-472",
      "city": "AMOREIRA OBD",
      "lon": "-9.286157422353607",
      "lat": "39.38447391878053"
    },
    {
      "id": "pt.ine.add.PTCONT.2254403",
      "street": "R PEDRO ÁLVARES CABRAL",
      "house": "",
      "postcode": "2510-472",
      "city": "AMOREIRA OBD",
      "lon": "-9.2883956960381",
      "lat": "39.38647824323318"
    },
    {
      "id": "pt.ine.add.PTCONT.2254404",
      "street": "R PEDRO ÁLVARES CABRAL",
      "house": "",
      "postcode": "2510-472",
      "city": "AMOREIRA OBD",
      "lon": "-9.288177876056325",
      "lat": "39.38664252825578"
    },
    {
      "id": "pt.ine.add.PTCONT.2260066",
      "street": "R PEDRO ÁLVARES CABRAL",
      "house": "",
      "postcode": "2510-453",
      "city": "AMOREIRA OBD",
      "lon": "-9.288473493435013",
      "lat": "39.386972844256654"
    },
    {
      "id": "pt.ine.add.PTCONT.2260067",
      "street": "R PEDRO ÁLVARES CABRAL",
      "house": "",
      "postcode": "2510-472",
      "city": "AMOREIRA OBD",
      "lon": "-9.287763216589344",
      "lat": "39.3868357869693"
    },
    {
      "id": "pt.ine.add.PTCONT.2260068",
      "street": "TV GIL EANES CASA DA PRAIA",
      "house": "5",
      "postcode": "2510-472",
      "city": "AMOREIRA OBD",
      "lon": "-9.287367822972808",
      "lat": "39.38538060980235"
    },
    {
      "id": "pt.ine.add.PTCONT.2267572",
      "street": "AV D INÊS DE CASTRO",
      "house": "ZZ",
      "postcode": "2510-472",
      "city": "AMOREIRA OBD",
      "lon": "-9.28706558565796",
      "lat": "39.38676164745104"
    }
  ]
}