{
  "data": {
    "distrito": "Lisboa",
    "concelho": "Alenquer",
    "freguesia": "Uni√£o das freguesias de Aldeia Galega da Merceana e Aldeia Gavinha",
    "OBJECTID": 530,
    "BGRI2021": "11011800101",
    "DT21": "11",
    "DTMN21": "1101",
    "DTMNFR21": "110118",
    "DTMNFRSEC21": "110118001",
    "SECNUM21": "001",
    "SSNUM21": "01",
    "SECSSNUM21": "00101",
    "OBJECTID_1": 99106,
    "DT": "11",
    "CC": "01",
    "fr": "18",
    "SEC": "001",
    "SS": "01"
  },
  "addresses": [
    {
      "id": "pt.ine.add.PTCONT.2295734",
      "street": "EN 115 QTA DA BOAVISTA",
      "house": "",
      "postcode": "2580-081",
      "city": "ALDEIA GALEGA DA MERCEANA",
      "lon": "-9.115686300677147",
      "lat": "39.07094204257012"
    },
    {
      "id": "pt.ine.add.PTCONT.2446282",
      "street": "EN 115 QTA DA BUA VISTA",
      "house": "",
      "postcode": "2580-081",
      "city": "ALDEIA GALEGA DA MERCEANA",
      "lon": "-9.115541532635566",
      "lat": "39.07216826424079"
    },
    {
      "id": "pt.ine.add.PTCONT.2450733",
      "street": "EN 115",
      "house": "8",
      "postcode": "2580-085",
      "city": "ALDEIA GALEGA DA MERCEANA",
      "lon": "-9.129562542861457",
      "lat": "39.065095604433814"
    },
    {
      "id": "pt.ine.add.PTCONT.2571369",
      "street": "EN ANS",
      "house": "6",
      "postcode": "2580-081",
      "city": "ALDEIA GALEGA DA MERCEANA",
      "lon": "-9.129670470869739",
      "lat": "39.06455423998808"
    },
    {
      "id": "pt.ine.add.PTCONT.2698132",
      "street": "EN 115",
      "house": "18",
      "postcode": "2580-081",
      "city": "ALDEIA GALEGA DA MERCEANA",
      "lon": "-9.131818511331396",
      "lat": "39.05956379362268"
    },
    {
      "id": "pt.ine.add.PTCONT.2698133",
      "street": "QTA FENO",
      "house": "",
      "postcode": "2580-643",
      "city": "ALDEIA GALEGA DA MERCEANA",
      "lon": "-9.109855314192957",
      "lat": "39.068739188726404"
    },
    {
      "id": "pt.ine.add.PTCONT.2746393",
      "street": "EN 115",
      "house": "26",
      "postcode": "2580-081",
      "city": "ALDEIA GALEGA DA MERCEANA",
      "lon": "-9.13262460963662",
      "lat": "39.06183575268564"
    },
    {
      "id": "pt.ine.add.PTCONT.2849327",
      "street": "EN 115",
      "house": "14",
      "postcode": "2580-085",
      "city": "ALDEIA GALEGA DA MERCEANA",
      "lon": "-9.128321684057278",
      "lat": "39.06559259914358"
    },
    {
      "id": "pt.ine.add.PTCONT.2886859",
      "street": "EN 115",
      "house": "24",
      "postcode": "2580-081",
      "city": "ALDEIA GALEGA DA MERCEANA",
      "lon": "-9.132573702176515",
      "lat": "39.0615029162563"
    },
    {
      "id": "pt.ine.add.PTCONT.2890282",
      "street": "EN ANS",
      "house": "2",
      "postcode": "2580-081",
      "city": "ALDEIA GALEGA DA MERCEANA",
      "lon": "-9.130763781832702",
      "lat": "39.06424764814394"
    },
    {
      "id": "pt.ine.add.PTCONT.2926180",
      "street": "EN 115",
      "house": "22",
      "postcode": "2580-081",
      "city": "ALDEIA GALEGA DA MERCEANA",
      "lon": "-9.13248902807481",
      "lat": "39.06123342077989"
    },
    {
      "id": "pt.ine.add.PTCONT.2963210",
      "street": "EN 115",
      "house": "24",
      "postcode": "2580-081",
      "city": "ALDEIA GALEGA DA MERCEANA",
      "lon": "-9.132248592883567",
      "lat": "39.06056893545999"
    },
    {
      "id": "pt.ine.add.PTCONT.2990232",
      "street": "EN 115 QTA OA BOAVISTA",
      "house": "",
      "postcode": "2580-081",
      "city": "ALDEIA GALEGA DA MERCEANA",
      "lon": "-9.116506039980814",
      "lat": "39.070061417450695"
    },
    {
      "id": "pt.ine.add.PTCONT.2990233",
      "street": "EN 115 QTA OA BOAVISTA",
      "house": "",
      "postcode": "2580-081",
      "city": "ALDEIA GALEGA DA MERCEANA",
      "lon": "-9.116506039980814",
      "lat": "39.070061417450695"
    },
    {
      "id": "pt.ine.add.PTCONT.2999477",
      "street": "QTA FENO",
      "house": "",
      "postcode": "2580-643",
      "city": "ALDEIA GALEGA DA MERCEANA",
      "lon": "-9.108063337513027",
      "lat": "39.06782642555753"
    },
    {
      "id": "pt.ine.add.PTCONT.2999478",
      "street": "QTA FENO",
      "house": "",
      "postcode": "2580-643",
      "city": "ALDEIA GALEGA DA MERCEANA",
      "lon": "-9.108063337513027",
      "lat": "39.06782642555753"
    },
    {
      "id": "pt.ine.add.PTCONT.3103570",
      "street": "EN 115 QTA CORUJEIRA",
      "house": "",
      "postcode": "2580-081",
      "city": "ALDEIA GALEGA DA MERCEANA",
      "lon": "-9.126704867424703",
      "lat": "39.06647109420323"
    },
    {
      "id": "pt.ine.add.PTCONT.3149529",
      "street": "EN 115",
      "house": "",
      "postcode": "2580-081",
      "city": "ALDEIA GALEGA DA MERCEANA",
      "lon": "-9.122647960613639",
      "lat": "39.06885651482041"
    },
    {
      "id": "pt.ine.add.PTCONT.3149530",
      "street": "EN 115",
      "house": "",
      "postcode": "2580-081",
      "city": "ALDEIA GALEGA DA MERCEANA",
      "lon": "-9.122647960613639",
      "lat": "39.06885651482041"
    },
    {
      "id": "pt.ine.add.PTCONT.3175864",
      "street": "EN ANS",
      "house": "4",
      "postcode": "2580-081",
      "city": "ALDEIA GALEGA DA MERCEANA",
      "lon": "-9.130511147246189",
      "lat": "39.06435789770478"
    },
    {
      "id": "pt.ine.add.PTCONT.3286501",
      "street": "EN 115",
      "house": "",
      "postcode": "2580-081",
      "city": "ALDEIA GALEGA DA MERCEANA",
      "lon": "-9.116423017937722",
      "lat": "39.07407039519338"
    },
    {
      "id": "pt.ine.add.PTCONT.3286502",
      "street": "EN 115",
      "house": "",
      "postcode": "2580-081",
      "city": "ALDEIA GALEGA DA MERCEANA",
      "lon": "-9.116423017937722",
      "lat": "39.07407039519338"
    },
    {
      "id": "pt.ine.add.PTCONT.3286503",
      "street": "EN 115",
      "house": "",
      "postcode": "2580-081",
      "city": "ALDEIA GALEGA DA MERCEANA",
      "lon": "-9.116423017937722",
      "lat": "39.07407039519338"
    },
    {
      "id": "pt.ine.add.PTCONT.3286504",
      "street": "EN 115",
      "house": "",
      "postcode": "2580-081",
      "city": "ALDEIA GALEGA DA MERCEANA",
      "lon": "-9.116423017937722",
      "lat": "39.07407039519338"
    },
    {
      "id": "pt.ine.add.PTCONT.3286505",
      "street": "EN 115",
      "house": "",
      "postcode": "2580-081",
      "city": "ALDEIA GALEGA DA MERCEANA",
      "lon": "-9.116423017937722",
      "lat": "39.07407039519338"
    },
    {
      "id": "pt.ine.add.PTCONT.3286506",
      "street": "EN 115",
      "house": "",
      "postcode": "2580-081",
      "city": "ALDEIA GALEGA DA MERCEANA",
      "lon": "-9.116423017937722",
      "lat": "39.07407039519338"
    },
    {
      "id": "pt.ine.add.PTCONT.3286507",
      "street": "EN 115",
      "house": "",
      "postcode": "2580-081",
      "city": "ALDEIA GALEGA DA MERCEANA",
      "lon": "-9.116423017937722",
      "lat": "39.07407039519338"
    },
    {
      "id": "pt.ine.add.PTCONT.3286508",
      "street": "EN 115",
      "house": "",
      "postcode": "2580-081",
      "city": "ALDEIA GALEGA DA MERCEANA",
      "lon": "-9.116423017937722",
      "lat": "39.07407039519338"
    },
    {
      "id": "pt.ine.add.PTCONT.3286512",
      "street": "EN 115",
      "house": "",
      "postcode": "2580-081",
      "city": "ALDEIA GALEGA DA MERCEANA",
      "lon": "-9.116423017937722",
      "lat": "39.07407039519338"
    },
    {
      "id": "pt.ine.add.PTCONT.3286513",
      "street": "EN 115",
      "house": "",
      "postcode": "2580-081",
      "city": "ALDEIA GALEGA DA MERCEANA",
      "lon": "-9.116423017937722",
      "lat": "39.07407039519338"
    },
    {
      "id": "pt.ine.add.PTCONT.3286514",
      "street": "EN 115",
      "house": "",
      "postcode": "2580-081",
      "city": "ALDEIA GALEGA DA MERCEANA",
      "lon": "-9.116423017937722",
      "lat": "39.07407039519338"
    },
    {
      "id": "pt.ine.add.PTCONT.3286515",
      "street": "EN 115",
      "house": "",
      "postcode": "2580-081",
      "city": "ALDEIA GALEGA DA MERCEANA",
      "lon": "-9.116423017937722",
      "lat": "39.07407039519338"
    },
    {
      "id": "pt.ine.add.PTCONT.3293303",
      "street": "EN 115",
      "house": "",
      "postcode": "2580-081",
      "city": "ALDEIA GALEGA DA MERCEANA",
      "lon": "-9.116423017937722",
      "lat": "39.07407039519338"
    },
    {
      "id": "pt.ine.add.PTCONT.3293694",
      "street": "EN 115",
      "house": "",
      "postcode": "2580-081",
      "city": "ALDEIA GALEGA DA MERCEANA",
      "lon": "-9.116423017937722",
      "lat": "39.07407039519338"
    },
    {
      "id": "pt.ine.add.PTCONT.3397705",
      "street": "EN 115",
      "house": "12",
      "postcode": "2580-085",
      "city": "ALDEIA GALEGA DA MERCEANA",
      "lon": "-9.1294845864889",
      "lat": "39.06530344003326"
    },
    {
      "id": "pt.ine.add.PTCONT.3443441",
      "street": "EN 115",
      "house": "",
      "postcode": "2580-081",
      "city": "ALDEIA GALEGA DA MERCEANA",
      "lon": "-9.116423017937722",
      "lat": "39.07407039519338"
    }
  ]
}