{
  "data": {
    "distrito": "Braga",
    "concelho": "Vila Nova de Famalicão",
    "freguesia": "União das freguesias de Gondifelos, Cavalões e Outiz",
    "OBJECTID": 952,
    "BGRI2021": "03125500104",
    "DT21": "03",
    "DTMN21": "0312",
    "DTMNFR21": "031255",
    "DTMNFRSEC21": "031255001",
    "SECNUM21": "001",
    "SSNUM21": "04",
    "SECSSNUM21": "00104",
    "OBJECTID_1": 31145,
    "DT": "03",
    "CC": "12",
    "fr": "55",
    "SEC": "001",
    "SS": "04"
  },
  "addresses": [
    {
      "id": "pt.ine.add.PTCONT.482651",
      "street": "R CASTRO DAS PENICES",
      "house": "359",
      "postcode": "4760-509",
      "city": "GONDIFELOS",
      "lon": "-8.610104281274854",
      "lat": "41.41242609828677"
    },
    {
      "id": "pt.ine.add.PTCONT.511220",
      "street": "R FONTE DA DIOGA",
      "house": "33",
      "postcode": "4760-502",
      "city": "GONDIFELOS",
      "lon": "-8.601018285148342",
      "lat": "41.4146423632398"
    },
    {
      "id": "pt.ine.add.PTCONT.530911",
      "street": "R CASTRO DAS PENICES",
      "house": "335",
      "postcode": "4760-509",
      "city": "GONDIFELOS",
      "lon": "-8.610010115188254",
      "lat": "41.412633579463645"
    },
    {
      "id": "pt.ine.add.PTCONT.538368",
      "street": "R CASTRO DAS PENICES",
      "house": "386",
      "postcode": "4760-509",
      "city": "GONDIFELOS",
      "lon": "-8.610404535558235",
      "lat": "41.41259592815342"
    },
    {
      "id": "pt.ine.add.PTCONT.579167",
      "street": "R CALVÁRIO",
      "house": "118",
      "postcode": "4760-502",
      "city": "GONDIFELOS",
      "lon": "-8.600129524603561",
      "lat": "41.41393004690298"
    },
    {
      "id": "pt.ine.add.PTCONT.580246",
      "street": "R CALVÁRIO",
      "house": "198",
      "postcode": "4760-502",
      "city": "GONDIFELOS",
      "lon": "-8.599324514244147",
      "lat": "41.41362278888402"
    },
    {
      "id": "pt.ine.add.PTCONT.635024",
      "street": "R CASTRO DAS PENICES",
      "house": "171",
      "postcode": "4760-509",
      "city": "GONDIFELOS",
      "lon": "-8.609952050195762",
      "lat": "41.41450664119184"
    },
    {
      "id": "pt.ine.add.PTCONT.642975",
      "street": "R CALVÁRIO",
      "house": "",
      "postcode": "4760-502",
      "city": "GONDIFELOS",
      "lon": "-8.600215254118588",
      "lat": "41.41441152356354"
    },
    {
      "id": "pt.ine.add.PTCONT.696865",
      "street": "R CALVÁRIO",
      "house": "218",
      "postcode": "4760-502",
      "city": "GONDIFELOS",
      "lon": "-8.599135361143443",
      "lat": "41.41346951202188"
    },
    {
      "id": "pt.ine.add.PTCONT.746070",
      "street": "R CALVÁRIO",
      "house": "148",
      "postcode": "4760-502",
      "city": "GONDIFELOS",
      "lon": "-8.5994750678016",
      "lat": "41.4136784525153"
    },
    {
      "id": "pt.ine.add.PTCONT.746071",
      "street": "R CALVÁRIO",
      "house": "148",
      "postcode": "4760-502",
      "city": "GONDIFELOS",
      "lon": "-8.5994750678016",
      "lat": "41.4136784525153"
    },
    {
      "id": "pt.ine.add.PTCONT.771688",
      "street": "R CALVÁRIO",
      "house": "182",
      "postcode": "4760-502",
      "city": "GONDIFELOS",
      "lon": "-8.599851864029954",
      "lat": "41.413773717956325"
    },
    {
      "id": "pt.ine.add.PTCONT.777627",
      "street": "R CALVÁRIO",
      "house": "198",
      "postcode": "4760-502",
      "city": "GONDIFELOS",
      "lon": "-8.599228445481174",
      "lat": "41.41356915442487"
    },
    {
      "id": "pt.ine.add.PTCONT.782052",
      "street": "R CASTRO DAS PENICES",
      "house": "388",
      "postcode": "4760-509",
      "city": "GONDIFELOS",
      "lon": "-8.610522950094694",
      "lat": "41.41243336578655"
    },
    {
      "id": "pt.ine.add.PTCONT.782053",
      "street": "R CASTRO DAS PENICES",
      "house": "391",
      "postcode": "4760-509",
      "city": "GONDIFELOS",
      "lon": "-8.610258312877818",
      "lat": "41.41222737272497"
    },
    {
      "id": "pt.ine.add.PTCONT.786594",
      "street": "R CASTRO DAS PENICES",
      "house": "306",
      "postcode": "4760-509",
      "city": "GONDIFELOS",
      "lon": "-8.610335081257743",
      "lat": "41.412911354455524"
    }
  ]
}