{
  "data": {
    "distrito": "Aveiro",
    "concelho": "Oliveira de Azeméis",
    "freguesia": "União das freguesias de Oliveira de Azeméis, Santiago da Riba-Ul, Ul, Macinhata da Seixa e Madail",
    "OBJECTID": 387,
    "BGRI2021": "01132100217",
    "DT21": "01",
    "DTMN21": "0113",
    "DTMNFR21": "011321",
    "DTMNFRSEC21": "011321002",
    "SECNUM21": "002",
    "SSNUM21": "17",
    "SECSSNUM21": "00217",
    "OBJECTID_1": 9134,
    "DT": "01",
    "CC": "13",
    "fr": "21",
    "SEC": "002",
    "SS": "17"
  },
  "addresses": [
    {
      "id": "pt.ine.add.PTCONT.299336",
      "street": "R CMDT JOÃO PAIS",
      "house": "131",
      "postcode": "3720-514",
      "city": "SANTIAGO DE RIBA-UL",
      "lon": "-8.477492154642459",
      "lat": "40.86010135158201"
    },
    {
      "id": "pt.ine.add.PTCONT.301823",
      "street": "R PRACETA JARDINS DO OUTEIRO",
      "house": "",
      "postcode": "3720-514",
      "city": "SANTIAGO DE RIBA-UL",
      "lon": "-8.474987531290203",
      "lat": "40.85970358448546"
    },
    {
      "id": "pt.ine.add.PTCONT.317651",
      "street": "R CMDT JOÃO PAIS",
      "house": "160",
      "postcode": "3720-514",
      "city": "SANTIAGO DE RIBA-UL",
      "lon": "-8.47441860622653",
      "lat": "40.85977730790463"
    },
    {
      "id": "pt.ine.add.PTCONT.331115",
      "street": "R CMDT JOÃO PAIS",
      "house": "",
      "postcode": "3720-514",
      "city": "SANTIAGO DE RIBA-UL",
      "lon": "-8.474880834796213",
      "lat": "40.85971290549244"
    },
    {
      "id": "pt.ine.add.PTCONT.333818",
      "street": "R CMDT JOÃO PAIS",
      "house": "",
      "postcode": "3720-514",
      "city": "SANTIAGO DE RIBA-UL",
      "lon": "-8.474489721929508",
      "lat": "40.85976809263045"
    },
    {
      "id": "pt.ine.add.PTCONT.7012",
      "street": "R CMDT JOÃO PAIS",
      "house": "",
      "postcode": "3720-514",
      "city": "SANTIAGO DE RIBA-UL",
      "lon": "-8.474347582927688",
      "lat": "40.859804532525935"
    },
    {
      "id": "pt.ine.add.PTCONT.12398",
      "street": "R CMDT JOÃO PAIS",
      "house": "94",
      "postcode": "3720-514",
      "city": "SANTIAGO DE RIBA-UL",
      "lon": "-8.475165435916663",
      "lat": "40.8597030570795"
    },
    {
      "id": "pt.ine.add.PTCONT.12399",
      "street": "R CMDT JOÃO PAIS",
      "house": "134",
      "postcode": "3720-514",
      "city": "SANTIAGO DE RIBA-UL",
      "lon": "-8.474667534227097",
      "lat": "40.85974955660114"
    },
    {
      "id": "pt.ine.add.PTCONT.15635",
      "street": "R CMDT JOÃO PAIS",
      "house": "",
      "postcode": "3720-514",
      "city": "SANTIAGO DE RIBA-UL",
      "lon": "-8.477337690042248",
      "lat": "40.86004778364337"
    },
    {
      "id": "pt.ine.add.PTCONT.17956",
      "street": "R CMDT JOÃO PAIS",
      "house": "143",
      "postcode": "3720-514",
      "city": "SANTIAGO DE RIBA-UL",
      "lon": "-8.474572744173965",
      "lat": "40.8597678468998"
    },
    {
      "id": "pt.ine.add.PTCONT.18181",
      "street": "R COMANDANTE JOÃO PAIS",
      "house": "24",
      "postcode": "3720-514",
      "city": "SANTIAGO DE RIBA-UL",
      "lon": "-8.47778095800482",
      "lat": "40.860901918923645"
    },
    {
      "id": "pt.ine.add.PTCONT.18402",
      "street": "R COMANDANTE JOÃO PAIS",
      "house": "26",
      "postcode": "3720-514",
      "city": "SANTIAGO DE RIBA-UL",
      "lon": "-8.47778095800482",
      "lat": "40.860901918923645"
    },
    {
      "id": "pt.ine.add.PTCONT.31695",
      "street": "OUTEIRO",
      "house": "",
      "postcode": "3720-520",
      "city": "SANTIAGO DE RIBA-UL",
      "lon": "-8.474253300899864",
      "lat": "40.85992187421192"
    },
    {
      "id": "pt.ine.add.PTCONT.34399",
      "street": "R SERRADO",
      "house": "",
      "postcode": "3720-514",
      "city": "SANTIAGO DE RIBA-UL",
      "lon": "-8.476964212046601",
      "lat": "40.86121952551881"
    },
    {
      "id": "pt.ine.add.PTCONT.41902",
      "street": "R CMDT JOÃO PAIS",
      "house": "",
      "postcode": "3720-514",
      "city": "SANTIAGO DE RIBA-UL",
      "lon": "-8.474264791639987",
      "lat": "40.8598498015722"
    },
    {
      "id": "pt.ine.add.PTCONT.59234",
      "street": "R CMDT JOÃO PAIS",
      "house": "38",
      "postcode": "3720-514",
      "city": "SANTIAGO DE RIBA-UL",
      "lon": "-8.476812389469206",
      "lat": "40.859382992458976"
    },
    {
      "id": "pt.ine.add.PTCONT.61332",
      "street": "R CMDT JOÃO PAIS",
      "house": "223",
      "postcode": "3720-514",
      "city": "SANTIAGO DE RIBA-UL",
      "lon": "-8.476964212046601",
      "lat": "40.86121952551881"
    },
    {
      "id": "pt.ine.add.PTCONT.74222",
      "street": "R EMA BRANDAL",
      "house": "",
      "postcode": "3720-514",
      "city": "SANTIAGO DE RIBA-UL",
      "lon": "-8.478007989410496",
      "lat": "40.86122541419758"
    },
    {
      "id": "pt.ine.add.PTCONT.74728",
      "street": "R EMA BRANDAL",
      "house": "",
      "postcode": "3720-514",
      "city": "SANTIAGO DE RIBA-UL",
      "lon": "-8.478007989410496",
      "lat": "40.86122541419758"
    },
    {
      "id": "pt.ine.add.PTCONT.74948",
      "street": "R CMDT JOÃO PAIS",
      "house": "",
      "postcode": "3720-514",
      "city": "SANTIAGO DE RIBA-UL",
      "lon": "-8.477289129916018",
      "lat": "40.85983181258694"
    },
    {
      "id": "pt.ine.add.PTCONT.161177",
      "street": "PCT JARDINS DO OUTEIRO",
      "house": "90",
      "postcode": "3720-514",
      "city": "SANTIAGO DE RIBA-UL",
      "lon": "-8.475272225027421",
      "lat": "40.85971174519897"
    },
    {
      "id": "pt.ine.add.PTCONT.179660",
      "street": "R CMDT JOÃO PAIS",
      "house": "",
      "postcode": "3720-514",
      "city": "SANTIAGO DE RIBA-UL",
      "lon": "-8.476921133794878",
      "lat": "40.85976987617732"
    },
    {
      "id": "pt.ine.add.PTCONT.183752",
      "street": "R PRACETA JARDINS DO OUTEIRO",
      "house": "100",
      "postcode": "3720-514",
      "city": "SANTIAGO DE RIBA-UL",
      "lon": "-8.475058739449592",
      "lat": "40.859712378250926"
    },
    {
      "id": "pt.ine.add.PTCONT.200031",
      "street": "R SERRADO",
      "house": "",
      "postcode": "3720-504",
      "city": "SANTIAGO DE RIBA-UL",
      "lon": "-8.476964212046601",
      "lat": "40.86121952551881"
    },
    {
      "id": "pt.ine.add.PTCONT.213416",
      "street": "R CMDT JOÃO PAIS",
      "house": "",
      "postcode": "3720-514",
      "city": "SANTIAGO DE RIBA-UL",
      "lon": "-8.477123364841942",
      "lat": "40.859886336055716"
    },
    {
      "id": "pt.ine.add.PTCONT.213417",
      "street": "R CMDT JOÃO PAIS",
      "house": "",
      "postcode": "3720-514",
      "city": "SANTIAGO DE RIBA-UL",
      "lon": "-8.475425389179886",
      "lat": "40.85951318446484"
    },
    {
      "id": "pt.ine.add.PTCONT.229943",
      "street": "R CMDT JOÃO PAIS",
      "house": "44",
      "postcode": "3720-514",
      "city": "SANTIAGO DE RIBA-UL",
      "lon": "-8.477134107032871",
      "lat": "40.85967018805533"
    },
    {
      "id": "pt.ine.add.PTCONT.251492",
      "street": "R CMDT JOÃO PAIS",
      "house": "",
      "postcode": "3720-514",
      "city": "SANTIAGO DE RIBA-UL",
      "lon": "-8.476861599442213",
      "lat": "40.85972502944674"
    },
    {
      "id": "pt.ine.add.PTCONT.256322",
      "street": "R CMDT JOÃO PAIS",
      "house": "",
      "postcode": "3720-514",
      "city": "SANTIAGO DE RIBA-UL",
      "lon": "-8.477958678973827",
      "lat": "40.86086536843536"
    },
    {
      "id": "pt.ine.add.PTCONT.269824",
      "street": "R CMDT JOÃO PAIS",
      "house": "",
      "postcode": "3720-514",
      "city": "SANTIAGO DE RIBA-UL",
      "lon": "-8.478042823702772",
      "lat": "40.861081232765805"
    },
    {
      "id": "pt.ine.add.PTCONT.286546",
      "street": "R CMDT JOÃO PAIS",
      "house": "",
      "postcode": "3720-514",
      "city": "SANTIAGO DE RIBA-UL",
      "lon": "-8.477578722712703",
      "lat": "40.860785460235626"
    },
    {
      "id": "pt.ine.add.PTCONT.286547",
      "street": "R CMDT JOÃO PAIS",
      "house": "",
      "postcode": "3720-514",
      "city": "SANTIAGO DE RIBA-UL",
      "lon": "-8.477578722712703",
      "lat": "40.860785460235626"
    }
  ]
}