{
  "data": {
    "distrito": "Viseu",
    "concelho": "Tondela",
    "freguesia": "Guardão",
    "OBJECTID": 424,
    "BGRI2021": "18210800130",
    "DT21": "18",
    "DTMN21": "1821",
    "DTMNFR21": "182108",
    "DTMNFRSEC21": "182108001",
    "SECNUM21": "001",
    "SSNUM21": "30",
    "SECSSNUM21": "00130",
    "OBJECTID_1": 199843,
    "DT": "18",
    "CC": "21",
    "fr": "08",
    "SEC": "001",
    "SS": "30"
  },
  "addresses": [
    {
      "id": "pt.ine.add.PTCONT.5440936",
      "street": "AV DR JERONIMO LACERDA",
      "house": "1010",
      "postcode": "3475-046",
      "city": "CARAMULO",
      "lon": "-8.169658600147843",
      "lat": "40.571339438774395"
    },
    {
      "id": "pt.ine.add.PTCONT.5440937",
      "street": "AV DR JERONIMO LACERDA",
      "house": "1010",
      "postcode": "3475-046",
      "city": "CARAMULO",
      "lon": "-8.169658600147843",
      "lat": "40.571339438774395"
    },
    {
      "id": "pt.ine.add.PTCONT.5440938",
      "street": "AV DR JERONIMO LACERDA",
      "house": "1010",
      "postcode": "3475-046",
      "city": "CARAMULO",
      "lon": "-8.169658600147843",
      "lat": "40.571339438774395"
    },
    {
      "id": "pt.ine.add.PTCONT.5440939",
      "street": "AV DR JERONIMO LACERDA",
      "house": "1010",
      "postcode": "3475-046",
      "city": "CARAMULO",
      "lon": "-8.169658600147843",
      "lat": "40.571339438774395"
    },
    {
      "id": "pt.ine.add.PTCONT.5440940",
      "street": "ESC S MARIA",
      "house": "45",
      "postcode": "3475-031",
      "city": "CARAMULO",
      "lon": "-8.169658600147843",
      "lat": "40.571339438774395"
    },
    {
      "id": "pt.ine.add.PTCONT.5441470",
      "street": "AV DR JERONIMO LACERDA",
      "house": "1010",
      "postcode": "3475-046",
      "city": "CARAMULO",
      "lon": "-8.169658600147843",
      "lat": "40.571339438774395"
    },
    {
      "id": "pt.ine.add.PTCONT.5475513",
      "street": "AV DR JERÓNIMO LACERDA",
      "house": "1568",
      "postcode": "3475-046",
      "city": "CARAMULO",
      "lon": "-8.170509537640754",
      "lat": "40.57251886147124"
    },
    {
      "id": "pt.ine.add.PTCONT.5475514",
      "street": "AV DR JERÓNIMO LACERDA",
      "house": "1568",
      "postcode": "3475-046",
      "city": "CARAMULO",
      "lon": "-8.170509537640754",
      "lat": "40.57251886147124"
    },
    {
      "id": "pt.ine.add.PTCONT.5476037",
      "street": "AV DR JERÓNIMO LACERDA",
      "house": "1568",
      "postcode": "3475-046",
      "city": "CARAMULO",
      "lon": "-8.170509537640754",
      "lat": "40.57251886147124"
    },
    {
      "id": "pt.ine.add.PTCONT.5525804",
      "street": "AV DR JERÓNIMO LACERDA",
      "house": "1636",
      "postcode": "3475-046",
      "city": "CARAMULO",
      "lon": "-8.170651127748704",
      "lat": "40.57229368291953"
    },
    {
      "id": "pt.ine.add.PTCONT.5525805",
      "street": "AV DR JERÓNIMO LACERDA",
      "house": "1636",
      "postcode": "3475-046",
      "city": "CARAMULO",
      "lon": "-8.170651127748704",
      "lat": "40.57229368291953"
    },
    {
      "id": "pt.ine.add.PTCONT.5525806",
      "street": "AV DR JERÓNIMO LACERDA",
      "house": "1636",
      "postcode": "3475-046",
      "city": "CARAMULO",
      "lon": "-8.170651127748704",
      "lat": "40.57229368291953"
    },
    {
      "id": "pt.ine.add.PTCONT.5525807",
      "street": "AV DR JERÓNIMO LACERDA",
      "house": "1636",
      "postcode": "3475-046",
      "city": "CARAMULO",
      "lon": "-8.170651127748704",
      "lat": "40.57229368291953"
    },
    {
      "id": "pt.ine.add.PTCONT.5525808",
      "street": "AV DR JERÓNIMO LACERDA",
      "house": "1636",
      "postcode": "3475-046",
      "city": "CARAMULO",
      "lon": "-8.170651127748704",
      "lat": "40.57229368291953"
    },
    {
      "id": "pt.ine.add.PTCONT.5525809",
      "street": "AV DR JERÓNIMO LACERDA",
      "house": "1636",
      "postcode": "3475-046",
      "city": "CARAMULO",
      "lon": "-8.170651127748704",
      "lat": "40.57229368291953"
    },
    {
      "id": "pt.ine.add.PTCONT.5566606",
      "street": "R AMEIXOEIRAS",
      "house": "1",
      "postcode": "3475-031",
      "city": "CARAMULO",
      "lon": "-8.167686319342378",
      "lat": "40.57114192918405"
    },
    {
      "id": "pt.ine.add.PTCONT.5629742",
      "street": "R SANTA MARIA",
      "house": "",
      "postcode": "3475-031",
      "city": "CARAMULO",
      "lon": "-8.170249177396558",
      "lat": "40.571528361853225"
    }
  ]
}