{
  "data": {
    "distrito": "Viseu",
    "concelho": "Tondela",
    "freguesia": "Guard√£o",
    "OBJECTID": 911,
    "BGRI2021": "18210800142",
    "DT21": "18",
    "DTMN21": "1821",
    "DTMNFR21": "182108",
    "DTMNFRSEC21": "182108001",
    "SECNUM21": "001",
    "SSNUM21": "42",
    "SECSSNUM21": "00142",
    "OBJECTID_1": 199845,
    "DT": "18",
    "CC": "21",
    "fr": "08",
    "SEC": "001",
    "SS": "42"
  },
  "addresses": [
    {
      "id": "pt.ine.add.PTCONT.5447684",
      "street": "R BARREIRO DE BESTEIROS",
      "house": "303",
      "postcode": "3475-049",
      "city": "CARAMULO",
      "lon": "-8.167097857842624",
      "lat": "40.57511344284936"
    },
    {
      "id": "pt.ine.add.PTCONT.5460455",
      "street": "EN 230",
      "house": "200",
      "postcode": "3475-215",
      "city": "CARAMULO",
      "lon": "-8.167629289996713",
      "lat": "40.57506825876322"
    },
    {
      "id": "pt.ine.add.PTCONT.5492335",
      "street": "EN 230",
      "house": "224",
      "postcode": "3475-215",
      "city": "CARAMULO",
      "lon": "-8.167688447179426",
      "lat": "40.57527536298709"
    },
    {
      "id": "pt.ine.add.PTCONT.5499493",
      "street": "R BARREIRO DE BESTEIROS",
      "house": "277",
      "postcode": "3475-049",
      "city": "CARAMULO",
      "lon": "-8.167227636477891",
      "lat": "40.57485225086294"
    },
    {
      "id": "pt.ine.add.PTCONT.5526716",
      "street": "EN 230",
      "house": "250",
      "postcode": "3475-215",
      "city": "CARAMULO",
      "lon": "-8.167759410264077",
      "lat": "40.5754734583324"
    },
    {
      "id": "pt.ine.add.PTCONT.5559310",
      "street": "AV DR JERONIMO LACERDA",
      "house": "1834",
      "postcode": "3475-046",
      "city": "CARAMULO",
      "lon": "-8.168100962510238",
      "lat": "40.57366328974553"
    },
    {
      "id": "pt.ine.add.PTCONT.5559779",
      "street": "AV DR JERONIMO LACERDA",
      "house": "1834",
      "postcode": "3475-046",
      "city": "CARAMULO",
      "lon": "-8.168100962510238",
      "lat": "40.57366328974553"
    },
    {
      "id": "pt.ine.add.PTCONT.5594262",
      "street": "AV DR JERONIMO LACERDA POSTO GNR",
      "house": "26",
      "postcode": "3475-046",
      "city": "CARAMULO",
      "lon": "-8.168053882350875",
      "lat": "40.573969484293066"
    },
    {
      "id": "pt.ine.add.PTCONT.5601558",
      "street": "R BARREIRO DE BESTEIROS",
      "house": "117",
      "postcode": "3475-049",
      "city": "CARAMULO",
      "lon": "-8.167770295649746",
      "lat": "40.57368140003865"
    },
    {
      "id": "pt.ine.add.PTCONT.5639266",
      "street": "EN 230",
      "house": "164",
      "postcode": "3475-215",
      "city": "CARAMULO",
      "lon": "-8.167912480650738",
      "lat": "40.57458188752416"
    },
    {
      "id": "pt.ine.add.PTCONT.5657321",
      "street": "R BARREIRO DE BESTEIROS",
      "house": "239",
      "postcode": "3475-049",
      "city": "CARAMULO",
      "lon": "-8.167357349819481",
      "lat": "40.57446498451409"
    },
    {
      "id": "pt.ine.add.PTCONT.5659684",
      "street": "EN 230",
      "house": "186",
      "postcode": "3475-215",
      "city": "CARAMULO",
      "lon": "-8.16782993151563",
      "lat": "40.57481605020246"
    },
    {
      "id": "pt.ine.add.PTCONT.5660293",
      "street": "EN 230",
      "house": "118",
      "postcode": "3475-215",
      "city": "CARAMULO",
      "lon": "-8.167995019856342",
      "lat": "40.57432971417638"
    },
    {
      "id": "pt.ine.add.PTCONT.5668766",
      "street": "R BARREIRO DE BESTEIROS",
      "house": "229",
      "postcode": "3475-049",
      "city": "CARAMULO",
      "lon": "-8.167404497872559",
      "lat": "40.57428486448716"
    }
  ]
}