{
  "data": {
    "distrito": "Viseu",
    "concelho": "Tondela",
    "freguesia": "Guardão",
    "OBJECTID": 340,
    "BGRI2021": "18210800159",
    "DT21": "18",
    "DTMN21": "1821",
    "DTMNFR21": "182108",
    "DTMNFRSEC21": "182108001",
    "SECNUM21": "001",
    "SSNUM21": "59",
    "SECSSNUM21": "00159",
    "OBJECTID_1": 198991,
    "DT": "18",
    "CC": "21",
    "fr": "08",
    "SEC": "001",
    "SS": "59"
  },
  "addresses": [
    {
      "id": "pt.ine.add.PTCONT.5427790",
      "street": "R PALHEIRINHO",
      "house": "40",
      "postcode": "3475-033",
      "city": "CARAMULO",
      "lon": "-8.146200389237432",
      "lat": "40.60815805590923"
    },
    {
      "id": "pt.ine.add.PTCONT.5452118",
      "street": "R PRINCIPAL",
      "house": "179",
      "postcode": "3475-033",
      "city": "CARAMULO",
      "lon": "-8.146932869555723",
      "lat": "40.60763566607554"
    },
    {
      "id": "pt.ine.add.PTCONT.5479087",
      "street": "R PRINCIPAL",
      "house": "169",
      "postcode": "3475-033",
      "city": "CARAMULO",
      "lon": "-8.146838352029608",
      "lat": "40.607680703600266"
    },
    {
      "id": "pt.ine.add.PTCONT.5484656",
      "street": "R PALHEIRINHO",
      "house": "100",
      "postcode": "3475-033",
      "city": "CARAMULO",
      "lon": "-8.145822287861549",
      "lat": "40.60820312439413"
    },
    {
      "id": "pt.ine.add.PTCONT.5484657",
      "street": "R ESCOLA",
      "house": "230",
      "postcode": "3475-033",
      "city": "CARAMULO",
      "lon": "-8.14537316680184",
      "lat": "40.60757280547363"
    },
    {
      "id": "pt.ine.add.PTCONT.5535973",
      "street": "R PRINCIPAL",
      "house": "",
      "postcode": "3475-033",
      "city": "CARAMULO",
      "lon": "-8.146625808245087",
      "lat": "40.6083831381345"
    },
    {
      "id": "pt.ine.add.PTCONT.5550580",
      "street": "ESTR MUNICIPAL",
      "house": "604",
      "postcode": "3475-033",
      "city": "CARAMULO",
      "lon": "-8.14317562210702",
      "lat": "40.608905794804315"
    },
    {
      "id": "pt.ine.add.PTCONT.5579439",
      "street": "ESTR MUNICIPAL",
      "house": "520",
      "postcode": "3475-033",
      "city": "CARAMULO",
      "lon": "-8.143742807571488",
      "lat": "40.6089957964565"
    },
    {
      "id": "pt.ine.add.PTCONT.5603915",
      "street": "R PRINCIPAL",
      "house": "295",
      "postcode": "3475-033",
      "city": "CARAMULO",
      "lon": "-8.147559016108382",
      "lat": "40.60720333741124"
    },
    {
      "id": "pt.ine.add.PTCONT.5609428",
      "street": "R CHÃO DA SENHORA",
      "house": "",
      "postcode": "3475-033",
      "city": "CARAMULO",
      "lon": "-8.144853396331726",
      "lat": "40.608293279473166"
    },
    {
      "id": "pt.ine.add.PTCONT.5613336",
      "street": "R PRINCIPAL",
      "house": "159",
      "postcode": "3475-033",
      "city": "CARAMULO",
      "lon": "-8.146732025832808",
      "lat": "40.60776176344073"
    },
    {
      "id": "pt.ine.add.PTCONT.5614531",
      "street": "R PALHEIRINHO",
      "house": "",
      "postcode": "3475-033",
      "city": "CARAMULO",
      "lon": "-8.146495801979096",
      "lat": "40.60823006404125"
    },
    {
      "id": "pt.ine.add.PTCONT.5616044",
      "street": "R PRINCIPAL",
      "house": "221",
      "postcode": "3475-033",
      "city": "CARAMULO",
      "lon": "-8.147050998037988",
      "lat": "40.60749156787199"
    },
    {
      "id": "pt.ine.add.PTCONT.5640091",
      "street": "R ESCOLA",
      "house": "181",
      "postcode": "3475-033",
      "city": "CARAMULO",
      "lon": "-8.145278713660872",
      "lat": "40.60797805171248"
    },
    {
      "id": "pt.ine.add.PTCONT.5640092",
      "street": "R PRINCIPAL",
      "house": "133",
      "postcode": "3475-033",
      "city": "CARAMULO",
      "lon": "-8.146637549762225",
      "lat": "40.60801392153918"
    },
    {
      "id": "pt.ine.add.PTCONT.5648725",
      "street": "R PALHEIRINHO",
      "house": "75",
      "postcode": "3475-033",
      "city": "CARAMULO",
      "lon": "-8.146602165428863",
      "lat": "40.608329109404806"
    },
    {
      "id": "pt.ine.add.PTCONT.5648726",
      "street": "R PRINCIPAL",
      "house": "151",
      "postcode": "3475-033",
      "city": "CARAMULO",
      "lon": "-8.146625692121445",
      "lat": "40.6078068021836"
    }
  ]
}