{
  "data": {
    "distrito": "Porto",
    "concelho": "Trofa",
    "freguesia": "Covelas",
    "OBJECTID": 602,
    "BGRI2021": "13180600126",
    "DT21": "13",
    "DTMN21": "1318",
    "DTMNFR21": "131806",
    "DTMNFRSEC21": "131806001",
    "SECNUM21": "001",
    "SSNUM21": "26",
    "SECSSNUM21": "00126",
    "OBJECTID_1": 145783,
    "DT": "13",
    "CC": "18",
    "fr": "06",
    "SEC": "001",
    "SS": "26"
  },
  "addresses": [
    {
      "id": "pt.ine.add.PTCONT.3712603",
      "street": "R CENTRAL",
      "house": "826",
      "postcode": "4785-027",
      "city": "COVELAS TRF",
      "lon": "-8.53550085198302",
      "lat": "41.298900016120044"
    },
    {
      "id": "pt.ine.add.PTCONT.3725853",
      "street": "LG SENHOR DO CAMINHO",
      "house": "32",
      "postcode": "4785-063",
      "city": "COVELAS TRF",
      "lon": "-8.536926142613197",
      "lat": "41.297688470495004"
    },
    {
      "id": "pt.ine.add.PTCONT.3743778",
      "street": "R CENTRAL",
      "house": "801",
      "postcode": "4785-027",
      "city": "COVELAS TRF",
      "lon": "-8.53557176905211",
      "lat": "41.298782714407395"
    },
    {
      "id": "pt.ine.add.PTCONT.3749685",
      "street": "R BECADA",
      "house": "135",
      "postcode": "4785-048",
      "city": "COVELAS TRF",
      "lon": "-8.537941922444524",
      "lat": "41.29783797308846"
    },
    {
      "id": "pt.ine.add.PTCONT.3792648",
      "street": "LG SENHOR DO CAMINHO",
      "house": "47",
      "postcode": "4785-063",
      "city": "COVELAS TRF",
      "lon": "-8.536077626863356",
      "lat": "41.29755638181169"
    },
    {
      "id": "pt.ine.add.PTCONT.3893132",
      "street": "TV REVOLTA",
      "house": "70",
      "postcode": "4785-061",
      "city": "COVELAS TRF",
      "lon": "-8.53620683119447",
      "lat": "41.29914966200567"
    },
    {
      "id": "pt.ine.add.PTCONT.3893133",
      "street": "TV 1 DE MAIO",
      "house": "10",
      "postcode": "4785-048",
      "city": "COVELAS TRF",
      "lon": "-8.537904657289104",
      "lat": "41.2976039965091"
    },
    {
      "id": "pt.ine.add.PTCONT.4021650",
      "street": "R CENTRAL",
      "house": "719",
      "postcode": "4785-027",
      "city": "COVELAS TRF",
      "lon": "-8.535925187231438",
      "lat": "41.298007122318836"
    },
    {
      "id": "pt.ine.add.PTCONT.4088181",
      "street": "AV 1 DE MAIO",
      "house": "802",
      "postcode": "4785-059",
      "city": "COVELAS TRF",
      "lon": "-8.536828963215815",
      "lat": "41.2974186871569"
    },
    {
      "id": "pt.ine.add.PTCONT.4120921",
      "street": "R BECADA",
      "house": "14",
      "postcode": "4785-048",
      "city": "COVELAS TRF",
      "lon": "-8.536449017674114",
      "lat": "41.29776217634916"
    },
    {
      "id": "pt.ine.add.PTCONT.4245283",
      "street": "R CENTRAL",
      "house": "",
      "postcode": "4785-027",
      "city": "COVELAS TRF",
      "lon": "-8.535738644037043",
      "lat": "41.298737110168815"
    },
    {
      "id": "pt.ine.add.PTCONT.4312001",
      "street": "TV REVOLTA",
      "house": "48",
      "postcode": "4785-061",
      "city": "COVELAS TRF",
      "lon": "-8.536030232617327",
      "lat": "41.29955546644149"
    },
    {
      "id": "pt.ine.add.PTCONT.4318398",
      "street": "R BECADA",
      "house": "153",
      "postcode": "4785-048",
      "city": "COVELAS TRF",
      "lon": "-8.538300434064276",
      "lat": "41.297890736563645"
    },
    {
      "id": "pt.ine.add.PTCONT.4338047",
      "street": "R BECADA",
      "house": "18",
      "postcode": "4785-048",
      "city": "COVELAS TRF",
      "lon": "-8.536676473576069",
      "lat": "41.29786042469991"
    },
    {
      "id": "pt.ine.add.PTCONT.4372621",
      "street": "AV 1 DE MAIO",
      "house": "705",
      "postcode": "4785-059",
      "city": "COVELAS TRF",
      "lon": "-8.537569636566314",
      "lat": "41.2974881202843"
    }
  ]
}