{
  "data": {
    "distrito": "Porto",
    "concelho": "Trofa",
    "freguesia": "Covelas",
    "OBJECTID": 454,
    "BGRI2021": "13180600133",
    "DT21": "13",
    "DTMN21": "1318",
    "DTMNFR21": "131806",
    "DTMNFRSEC21": "131806001",
    "SECNUM21": "001",
    "SSNUM21": "33",
    "SECSSNUM21": "00133",
    "OBJECTID_1": 146186,
    "DT": "13",
    "CC": "18",
    "fr": "06",
    "SEC": "001",
    "SS": "33"
  },
  "addresses": [
    {
      "id": "pt.ine.add.PTCONT.3544335",
      "street": "R RINDO",
      "house": "1250",
      "postcode": "4785-067",
      "city": "COVELAS TRF",
      "lon": "-8.557693070306438",
      "lat": "41.294651386389646"
    },
    {
      "id": "pt.ine.add.PTCONT.3686404",
      "street": "R SARDOEIRA",
      "house": "",
      "postcode": "4785-071",
      "city": "COVELAS TRF",
      "lon": "-8.557591311823945",
      "lat": "41.30473639113051"
    },
    {
      "id": "pt.ine.add.PTCONT.3692918",
      "street": "R RINDO",
      "house": "1316",
      "postcode": "4785-067",
      "city": "COVELAS TRF",
      "lon": "-8.558227502704304",
      "lat": "41.29421721520785"
    },
    {
      "id": "pt.ine.add.PTCONT.3719000",
      "street": "R RINDO",
      "house": "1378",
      "postcode": "4785-067",
      "city": "COVELAS TRF",
      "lon": "-8.558642718840495",
      "lat": "41.293810494696146"
    },
    {
      "id": "pt.ine.add.PTCONT.3783497",
      "street": "R CABRITO",
      "house": "S",
      "postcode": "4785-018",
      "city": "COVELAS TRF",
      "lon": "-8.566148777871597",
      "lat": "41.3023184232746"
    },
    {
      "id": "pt.ine.add.PTCONT.3783498",
      "street": "R CABRITO",
      "house": "S",
      "postcode": "4785-018",
      "city": "COVELAS TRF",
      "lon": "-8.566148777871597",
      "lat": "41.3023184232746"
    },
    {
      "id": "pt.ine.add.PTCONT.3783499",
      "street": "R CABRITO",
      "house": "S",
      "postcode": "4785-018",
      "city": "COVELAS TRF",
      "lon": "-8.566148777871597",
      "lat": "41.3023184232746"
    },
    {
      "id": "pt.ine.add.PTCONT.3783500",
      "street": "R CABRITO",
      "house": "S",
      "postcode": "4785-018",
      "city": "COVELAS TRF",
      "lon": "-8.566148777871597",
      "lat": "41.3023184232746"
    },
    {
      "id": "pt.ine.add.PTCONT.3783827",
      "street": "R CABRITO",
      "house": "S",
      "postcode": "4785-018",
      "city": "COVELAS TRF",
      "lon": "-8.566148777871597",
      "lat": "41.3023184232746"
    },
    {
      "id": "pt.ine.add.PTCONT.3982307",
      "street": "R PADRE GUILHERME",
      "house": "300",
      "postcode": "4785-019",
      "city": "COVELAS TRF",
      "lon": "-8.552249202836082",
      "lat": "41.30028991820767"
    },
    {
      "id": "pt.ine.add.PTCONT.4127129",
      "street": "R PADRE GUILHERME",
      "house": "380",
      "postcode": "4785-019",
      "city": "COVELAS TRF",
      "lon": "-8.552639807490076",
      "lat": "41.29975725142769"
    }
  ]
}