{
  "data": {
    "distrito": "Vila Real",
    "concelho": "Boticas",
    "freguesia": "Dornelas",
    "OBJECTID": 91,
    "BGRI2021": "17021000128",
    "DT21": "17",
    "DTMN21": "1702",
    "DTMNFR21": "170210",
    "DTMNFRSEC21": "170210001",
    "SECNUM21": "001",
    "SSNUM21": "28",
    "SECSSNUM21": "00128",
    "OBJECTID_1": 180191,
    "DT": "17",
    "CC": "02",
    "fr": "10",
    "SEC": "001",
    "SS": "28"
  },
  "addresses": [
    {
      "id": "pt.ine.add.PTCONT.5299470",
      "street": "LG DO GUITEIRO",
      "house": "7",
      "postcode": "5460-417",
      "city": "DORNELAS BTC",
      "lon": "-7.849186246034949",
      "lat": "41.64079752704138"
    },
    {
      "id": "pt.ine.add.PTCONT.5302348",
      "street": "R DA CASA DA FLORESTA",
      "house": "7",
      "postcode": "5460-417",
      "city": "DORNELAS BTC",
      "lon": "-7.84914747177778",
      "lat": "41.64142768441187"
    },
    {
      "id": "pt.ine.add.PTCONT.5305688",
      "street": "R DA CASA DA FLORESTA",
      "house": "37",
      "postcode": "5460-417",
      "city": "DORNELAS BTC",
      "lon": "-7.849764659889882",
      "lat": "41.65123413680039"
    },
    {
      "id": "pt.ine.add.PTCONT.5329745",
      "street": "R DA CASA DA FLORESTA",
      "house": "27",
      "postcode": "5460-416",
      "city": "DORNELAS BTC",
      "lon": "-7.849343689120977",
      "lat": "41.64594798237279"
    },
    {
      "id": "pt.ine.add.PTCONT.5333903",
      "street": "R DA CASA DA FLORESTA",
      "house": "1",
      "postcode": "5460-417",
      "city": "DORNELAS BTC",
      "lon": "-7.8488499786864265",
      "lat": "41.64084171406815"
    },
    {
      "id": "pt.ine.add.PTCONT.5350937",
      "street": "TV DA CORGATINHA",
      "house": "6",
      "postcode": "5460-417",
      "city": "DORNELAS BTC",
      "lon": "-7.849762246913529",
      "lat": "41.64082595914577"
    },
    {
      "id": "pt.ine.add.PTCONT.5355284",
      "street": "R CASA FLORESTA",
      "house": "",
      "postcode": "5460-416",
      "city": "DORNELAS BTC",
      "lon": "-7.850298845810262",
      "lat": "41.64712080537937"
    },
    {
      "id": "pt.ine.add.PTCONT.5401400",
      "street": "R DA CASA DA FLORESTA",
      "house": "3",
      "postcode": "5460-417",
      "city": "DORNELAS BTC",
      "lon": "-7.84886146682553",
      "lat": "41.64095878949353"
    },
    {
      "id": "pt.ine.add.PTCONT.5402755",
      "street": "R DA CASA DA FLORESTA",
      "house": "19",
      "postcode": "5460-417",
      "city": "DORNELAS BTC",
      "lon": "-7.849908148162342",
      "lat": "41.643140247772806"
    },
    {
      "id": "pt.ine.add.PTCONT.5404567",
      "street": "R DA CASA DA FLORESTA",
      "house": "",
      "postcode": "5460-417",
      "city": "DORNELAS BTC",
      "lon": "-7.849109882705008",
      "lat": "41.64178773617413"
    },
    {
      "id": "pt.ine.add.PTCONT.5407176",
      "street": "R DA CASA DA FLORESTA",
      "house": "19 B",
      "postcode": "5460-417",
      "city": "DORNELAS BTC",
      "lon": "-7.850087443376545",
      "lat": "41.64331175801259"
    }
  ]
}