{
  "data": {
    "distrito": "Aveiro",
    "concelho": "Águeda",
    "freguesia": "União das freguesias de Recardães e Espinhel",
    "OBJECTID": 41,
    "BGRI2021": "01012400420",
    "DT21": "01",
    "DTMN21": "0101",
    "DTMNFR21": "010124",
    "DTMNFRSEC21": "010124004",
    "SECNUM21": "004",
    "SSNUM21": "20",
    "SECSSNUM21": "00420",
    "OBJECTID_1": 1148,
    "DT": "01",
    "CC": "01",
    "fr": "24",
    "SEC": "004",
    "SS": "20"
  },
  "addresses": [
    {
      "id": "pt.ine.add.PTCONT.5326",
      "street": "R QUINTA DO RENDEIRO",
      "house": "271",
      "postcode": "3750-712",
      "city": "RECARDÃES",
      "lon": "-8.467961288269157",
      "lat": "40.577667919382165"
    },
    {
      "id": "pt.ine.add.PTCONT.5374",
      "street": "TV PICOTO",
      "house": "36",
      "postcode": "3750-712",
      "city": "RECARDÃES",
      "lon": "-8.467881134462147",
      "lat": "40.57580405986142"
    },
    {
      "id": "pt.ine.add.PTCONT.7988",
      "street": "R FONTE",
      "house": "224",
      "postcode": "3750-712",
      "city": "RECARDÃES",
      "lon": "-8.467914454789197",
      "lat": "40.5753807153093"
    },
    {
      "id": "pt.ine.add.PTCONT.10751",
      "street": "R PICOUTO",
      "house": "",
      "postcode": "3750-401",
      "city": "ESPINHEL",
      "lon": "-8.468846586680915",
      "lat": "40.57520690977445"
    },
    {
      "id": "pt.ine.add.PTCONT.68939",
      "street": "TV PICOTO",
      "house": "22",
      "postcode": "3750-712",
      "city": "RECARDÃES",
      "lon": "-8.467939735730884",
      "lat": "40.57571383726343"
    },
    {
      "id": "pt.ine.add.PTCONT.75218",
      "street": "R QUINTA DO RENDEIRO",
      "house": "145",
      "postcode": "3750-712",
      "city": "RECARDÃES",
      "lon": "-8.467046696006111",
      "lat": "40.57662595506196"
    },
    {
      "id": "pt.ine.add.PTCONT.78040",
      "street": "R QUINTA DO RENDEIRO",
      "house": "179",
      "postcode": "3750-712",
      "city": "RECARDÃES",
      "lon": "-8.46734360874579",
      "lat": "40.57695829154627"
    },
    {
      "id": "pt.ine.add.PTCONT.80667",
      "street": "R CILHA",
      "house": "",
      "postcode": "3750-401",
      "city": "ESPINHEL",
      "lon": "-8.468907243190097",
      "lat": "40.577890305331884"
    },
    {
      "id": "pt.ine.add.PTCONT.98656",
      "street": "R FONTE",
      "house": "270",
      "postcode": "3750-712",
      "city": "RECARDÃES",
      "lon": "-8.468140146767956",
      "lat": "40.57564121400137"
    },
    {
      "id": "pt.ine.add.PTCONT.111516",
      "street": "R PICOUTO",
      "house": "",
      "postcode": "3750-401",
      "city": "ESPINHEL",
      "lon": "-8.468295204869122",
      "lat": "40.5759469435847"
    },
    {
      "id": "pt.ine.add.PTCONT.112691",
      "street": "R PICOUTO",
      "house": "6",
      "postcode": "3750-401",
      "city": "ESPINHEL",
      "lon": "-8.468424171455482",
      "lat": "40.575757458520954"
    },
    {
      "id": "pt.ine.add.PTCONT.141132",
      "street": "R FONTE",
      "house": "206",
      "postcode": "3750-712",
      "city": "RECARDÃES",
      "lon": "-8.467547762960054",
      "lat": "40.575264708880326"
    },
    {
      "id": "pt.ine.add.PTCONT.172267",
      "street": "R CILHA",
      "house": "492",
      "postcode": "3750-401",
      "city": "ESPINHEL",
      "lon": "-8.468966970721544",
      "lat": "40.57802521078495"
    },
    {
      "id": "pt.ine.add.PTCONT.176498",
      "street": "R QUINTA DO RENDEIRO",
      "house": "259",
      "postcode": "3750-712",
      "city": "RECARDÃES",
      "lon": "-8.467628983249762",
      "lat": "40.57734469229995"
    },
    {
      "id": "pt.ine.add.PTCONT.187058",
      "street": "R FONTE",
      "house": "174",
      "postcode": "3750-712",
      "city": "RECARDÃES",
      "lon": "-8.46742854293016",
      "lat": "40.5750399220383"
    },
    {
      "id": "pt.ine.add.PTCONT.214029",
      "street": "R FONTE",
      "house": "110",
      "postcode": "3750-712",
      "city": "RECARDÃES",
      "lon": "-8.46696898611879",
      "lat": "40.57524837245731"
    },
    {
      "id": "pt.ine.add.PTCONT.219648",
      "street": "R QUINTA DO RENDEIRO",
      "house": "245",
      "postcode": "3750-712",
      "city": "RECARDÃES",
      "lon": "-8.467415590812141",
      "lat": "40.57718321511069"
    },
    {
      "id": "pt.ine.add.PTCONT.236457",
      "street": "R CILHA",
      "house": "164",
      "postcode": "3750-401",
      "city": "ESPINHEL",
      "lon": "-8.46912222464768",
      "lat": "40.576007577939855"
    },
    {
      "id": "pt.ine.add.PTCONT.251871",
      "street": "QTA RENDEIRO",
      "house": "65",
      "postcode": "3750-712",
      "city": "RECARDÃES",
      "lon": "-8.466866008002201",
      "lat": "40.57591506048132"
    },
    {
      "id": "pt.ine.add.PTCONT.254583",
      "street": "QTA RENDEIRO",
      "house": "49",
      "postcode": "3750-712",
      "city": "RECARDÃES",
      "lon": "-8.466865247272839",
      "lat": "40.57576197298563"
    },
    {
      "id": "pt.ine.add.PTCONT.275952",
      "street": "R CILHA",
      "house": "122",
      "postcode": "3750-401",
      "city": "ESPINHEL",
      "lon": "-8.468932047767398",
      "lat": "40.57576498850232"
    },
    {
      "id": "pt.ine.add.PTCONT.284196",
      "street": "R PICOUTO",
      "house": "56",
      "postcode": "3750-401",
      "city": "ESPINHEL",
      "lon": "-8.468776177122155",
      "lat": "40.575297167150225"
    }
  ]
}