{
  "data": {
    "distrito": "Porto",
    "concelho": "Porto",
    "freguesia": "Campanhã",
    "OBJECTID": 474,
    "BGRI2021": "13120302906",
    "DT21": "13",
    "DTMN21": "1312",
    "DTMNFR21": "131203",
    "DTMNFRSEC21": "131203029",
    "SECNUM21": "029",
    "SSNUM21": "06",
    "SECSSNUM21": "02906",
    "OBJECTID_1": 138980,
    "DT": "13",
    "CC": "12",
    "fr": "03",
    "SEC": "029",
    "SS": "06"
  },
  "addresses": [
    {
      "id": "pt.ine.add.PTCONT.3542825",
      "street": "TV MACEDA",
      "house": "32",
      "postcode": "4300-310",
      "city": "PORTO",
      "lon": "-8.571707519800352",
      "lat": "41.16230851446008"
    },
    {
      "id": "pt.ine.add.PTCONT.3555399",
      "street": "TV MACEDA",
      "house": "105",
      "postcode": "4300-310",
      "city": "PORTO",
      "lon": "-8.571305423608356",
      "lat": "41.162760262112926"
    },
    {
      "id": "pt.ine.add.PTCONT.3562072",
      "street": "TV PINHEIRO GRANDE",
      "house": "111",
      "postcode": "4300-425",
      "city": "PORTO",
      "lon": "-8.572424377699443",
      "lat": "41.16260292598993"
    },
    {
      "id": "pt.ine.add.PTCONT.3568349",
      "street": "TV PINHEIRO GRANDE",
      "house": "75",
      "postcode": "4300-425",
      "city": "PORTO",
      "lon": "-8.572091850075264",
      "lat": "41.16276627197921"
    },
    {
      "id": "pt.ine.add.PTCONT.3579672",
      "street": "R PINHEIRO GRANDE",
      "house": "64",
      "postcode": "4300-421",
      "city": "PORTO",
      "lon": "-8.571236694332251",
      "lat": "41.16317472341073"
    },
    {
      "id": "pt.ine.add.PTCONT.3594710",
      "street": "TV MACEDA",
      "house": "89",
      "postcode": "4300-310",
      "city": "PORTO",
      "lon": "-8.57228007989589",
      "lat": "41.1624053806579"
    },
    {
      "id": "pt.ine.add.PTCONT.3606819",
      "street": "TV MACEDA",
      "house": "153",
      "postcode": "4300-310",
      "city": "PORTO",
      "lon": "-8.571980052946559",
      "lat": "41.162082367751"
    },
    {
      "id": "pt.ine.add.PTCONT.3628624",
      "street": "TV MACEDA",
      "house": "38",
      "postcode": "4300-310",
      "city": "PORTO",
      "lon": "-8.571623397625464",
      "lat": "41.162200782599456"
    },
    {
      "id": "pt.ine.add.PTCONT.3639243",
      "street": "TV MACEDA",
      "house": "60",
      "postcode": "4300-310",
      "city": "PORTO",
      "lon": "-8.571494077761825",
      "lat": "41.16246240087417"
    },
    {
      "id": "pt.ine.add.PTCONT.3645448",
      "street": "TV MACEDA",
      "house": "68",
      "postcode": "4300-310",
      "city": "PORTO",
      "lon": "-8.571397741216215",
      "lat": "41.16230969360983"
    },
    {
      "id": "pt.ine.add.PTCONT.3661066",
      "street": "R PINHEIRO GRANDE",
      "house": "70",
      "postcode": "4300-421",
      "city": "PORTO",
      "lon": "-8.57111688766189",
      "lat": "41.16307613126876"
    },
    {
      "id": "pt.ine.add.PTCONT.3664235",
      "street": "BR MACEDA",
      "house": "72",
      "postcode": "4300-313",
      "city": "PORTO",
      "lon": "-8.571230997322813",
      "lat": "41.16231933230912"
    },
    {
      "id": "pt.ine.add.PTCONT.3671303",
      "street": "TV MACEDA",
      "house": "89",
      "postcode": "4300-310",
      "city": "PORTO",
      "lon": "-8.572256551280454",
      "lat": "41.16245049209054"
    },
    {
      "id": "pt.ine.add.PTCONT.3697370",
      "street": "TV MACEDA",
      "house": "113",
      "postcode": "4300-310",
      "city": "PORTO",
      "lon": "-8.571018872776994",
      "lat": "41.162671308428266"
    },
    {
      "id": "pt.ine.add.PTCONT.3706276",
      "street": "BR MACEDA",
      "house": "101",
      "postcode": "4300-313",
      "city": "PORTO",
      "lon": "-8.571280994572753",
      "lat": "41.16267031159541"
    },
    {
      "id": "pt.ine.add.PTCONT.3706906",
      "street": "TV PINHEIRO GRANDE",
      "house": "63",
      "postcode": "4300-425",
      "city": "PORTO",
      "lon": "-8.571913791107757",
      "lat": "41.162865998237294"
    },
    {
      "id": "pt.ine.add.PTCONT.3710163",
      "street": "TV MACEDA",
      "house": "89",
      "postcode": "4300-310",
      "city": "PORTO",
      "lon": "-8.572233082737744",
      "lat": "41.16250460763423"
    },
    {
      "id": "pt.ine.add.PTCONT.3740491",
      "street": "TV MACEDA",
      "house": "80",
      "postcode": "4300-310",
      "city": "PORTO",
      "lon": "-8.57136331721188",
      "lat": "41.16250792019112"
    },
    {
      "id": "pt.ine.add.PTCONT.3749202",
      "street": "R BAIRRO DO BOM RETIRO",
      "house": "109",
      "postcode": "4300-310",
      "city": "PORTO",
      "lon": "-8.571102754771662",
      "lat": "41.162743024255505"
    },
    {
      "id": "pt.ine.add.PTCONT.3762036",
      "street": "BR MACEDA",
      "house": "76",
      "postcode": "4300-313",
      "city": "PORTO",
      "lon": "-8.571303144450871",
      "lat": "41.16241810566606"
    },
    {
      "id": "pt.ine.add.PTCONT.3768292",
      "street": "TV MACEDA",
      "house": "78",
      "postcode": "4300-310",
      "city": "PORTO",
      "lon": "-8.571363017283534",
      "lat": "41.16246289960554"
    },
    {
      "id": "pt.ine.add.PTCONT.3781550",
      "street": "TV MACEDA",
      "house": "70",
      "postcode": "4300-310",
      "city": "PORTO",
      "lon": "-8.571361697606893",
      "lat": "41.16226480902481"
    },
    {
      "id": "pt.ine.add.PTCONT.3786605",
      "street": "TV PINHEIRO GRANDE",
      "house": "109",
      "postcode": "4300-425",
      "city": "PORTO",
      "lon": "-8.572340855170063",
      "lat": "41.16258523582464"
    },
    {
      "id": "pt.ine.add.PTCONT.3810398",
      "street": "BR MACEDA",
      "house": "74",
      "postcode": "4300-313",
      "city": "PORTO",
      "lon": "-8.571255126302137",
      "lat": "41.16236426225668"
    },
    {
      "id": "pt.ine.add.PTCONT.3811584",
      "street": "R BAIRRO DO BOM RETIRO",
      "house": "106",
      "postcode": "4300-313",
      "city": "PORTO",
      "lon": "-8.571076887298393",
      "lat": "41.16243697487661"
    },
    {
      "id": "pt.ine.add.PTCONT.3811585",
      "street": "TV PINHEIRO GRANDE",
      "house": "91",
      "postcode": "4300-425",
      "city": "PORTO",
      "lon": "-8.572198180352917",
      "lat": "41.16263080151981"
    },
    {
      "id": "pt.ine.add.PTCONT.3826693",
      "street": "TV MACEDA",
      "house": "36",
      "postcode": "4300-310",
      "city": "PORTO",
      "lon": "-8.571647466803814",
      "lat": "41.16223670834749"
    },
    {
      "id": "pt.ine.add.PTCONT.3833360",
      "street": "TV MACEDA",
      "house": "89",
      "postcode": "4300-310",
      "city": "PORTO",
      "lon": "-8.572316605136264",
      "lat": "41.16252229787858"
    },
    {
      "id": "pt.ine.add.PTCONT.3858739",
      "street": "TV MACEDA",
      "house": "102",
      "postcode": "4300-310",
      "city": "PORTO",
      "lon": "-8.57114897437001",
      "lat": "41.16252674421129"
    },
    {
      "id": "pt.ine.add.PTCONT.3858740",
      "street": "TV MACEDA",
      "house": "95",
      "postcode": "4300-310",
      "city": "PORTO",
      "lon": "-8.572220446906696",
      "lat": "41.162396603662486"
    },
    {
      "id": "pt.ine.add.PTCONT.3865308",
      "street": "TV PINHEIRO GRANDE",
      "house": "81",
      "postcode": "4300-425",
      "city": "PORTO",
      "lon": "-8.572151122818843",
      "lat": "41.162721024344506"
    },
    {
      "id": "pt.ine.add.PTCONT.3871929",
      "street": "TV MACEDA",
      "house": "89",
      "postcode": "4300-310",
      "city": "PORTO",
      "lon": "-8.57241174153421",
      "lat": "41.16249492204267"
    },
    {
      "id": "pt.ine.add.PTCONT.3884648",
      "street": "TV MACEDA",
      "house": "89",
      "postcode": "4300-425",
      "city": "PORTO",
      "lon": "-8.572042208895722",
      "lat": "41.16246931777089"
    },
    {
      "id": "pt.ine.add.PTCONT.3887570",
      "street": "R PINHEIRO GRANDE",
      "house": "62",
      "postcode": "4300-421",
      "city": "PORTO",
      "lon": "-8.571380030885578",
      "lat": "41.16322820417768"
    },
    {
      "id": "pt.ine.add.PTCONT.3897326",
      "street": "TV MACEDA",
      "house": "107",
      "postcode": "4300-310",
      "city": "PORTO",
      "lon": "-8.57148192316561",
      "lat": "41.16242642975141"
    },
    {
      "id": "pt.ine.add.PTCONT.3952357",
      "street": "TV PINHEIRO GRANDE",
      "house": "87",
      "postcode": "4300-425",
      "city": "PORTO",
      "lon": "-8.572222370210838",
      "lat": "41.16268473537425"
    },
    {
      "id": "pt.ine.add.PTCONT.3975221",
      "street": "R BAIRRO DO BOM RETIRO",
      "house": "66",
      "postcode": "4300-310",
      "city": "PORTO",
      "lon": "-8.571433784874893",
      "lat": "41.16235457818296"
    },
    {
      "id": "pt.ine.add.PTCONT.3984966",
      "street": "BR MACEDA",
      "house": "103",
      "postcode": "4300-313",
      "city": "PORTO",
      "lon": "-8.571316978372007",
      "lat": "41.16270619208483"
    },
    {
      "id": "pt.ine.add.PTCONT.3990095",
      "street": "TV MACEDA",
      "house": "111",
      "postcode": "4300-310",
      "city": "PORTO",
      "lon": "-8.571090480438276",
      "lat": "41.16268904485819"
    },
    {
      "id": "pt.ine.add.PTCONT.4000526",
      "street": "TV MACEDA",
      "house": "30",
      "postcode": "4300-310",
      "city": "PORTO",
      "lon": "-8.571731589064417",
      "lat": "41.16234444018941"
    },
    {
      "id": "pt.ine.add.PTCONT.4013454",
      "street": "R BITARÃES",
      "house": "107",
      "postcode": "4300-310",
      "city": "PORTO",
      "lon": "-8.571150713118184",
      "lat": "41.162787863607235"
    },
    {
      "id": "pt.ine.add.PTCONT.4025939",
      "street": "TV PINHEIRO GRANDE",
      "house": "113",
      "postcode": "4300-425",
      "city": "PORTO",
      "lon": "-8.572435871383266",
      "lat": "41.16253985173716"
    },
    {
      "id": "pt.ine.add.PTCONT.4066217",
      "street": "TV PINHEIRO GRANDE",
      "house": "91 CSZ",
      "postcode": "4300-425",
      "city": "PORTO",
      "lon": "-8.572126452281745",
      "lat": "41.162595057547506"
    },
    {
      "id": "pt.ine.add.PTCONT.4079030",
      "street": "TV MACEDA",
      "house": "40",
      "postcode": "4300-310",
      "city": "PORTO",
      "lon": "-8.571575439389981",
      "lat": "41.16215594343948"
    },
    {
      "id": "pt.ine.add.PTCONT.4105205",
      "street": "R PINHEIRO GRANDE",
      "house": "90",
      "postcode": "4300-421",
      "city": "PORTO",
      "lon": "-8.571009775233016",
      "lat": "41.163094547219785"
    },
    {
      "id": "pt.ine.add.PTCONT.4124865",
      "street": "TV MACEDA",
      "house": "64",
      "postcode": "4300-310",
      "city": "PORTO",
      "lon": "-8.571457854007042",
      "lat": "41.162390503969874"
    },
    {
      "id": "pt.ine.add.PTCONT.4131293",
      "street": "BR MACEDA",
      "house": "114",
      "postcode": "4300-313",
      "city": "PORTO",
      "lon": "-8.571018513143864",
      "lat": "41.16261728372458"
    },
    {
      "id": "pt.ine.add.PTCONT.4131301",
      "street": "TV MACEDA",
      "house": "153",
      "postcode": "4300-310",
      "city": "PORTO",
      "lon": "-8.571932034493724",
      "lat": "41.162028524622215"
    },
    {
      "id": "pt.ine.add.PTCONT.4133843",
      "street": "R PINHEIRO GRANDE",
      "house": "70",
      "postcode": "4300-421",
      "city": "PORTO",
      "lon": "-8.571129222046943",
      "lat": "41.16313911477553"
    },
    {
      "id": "pt.ine.add.PTCONT.4157788",
      "street": "TV MACEDA",
      "house": "89 CSG",
      "postcode": "4300-310",
      "city": "PORTO",
      "lon": "-8.572090167677993",
      "lat": "41.16251415673137"
    },
    {
      "id": "pt.ine.add.PTCONT.4164540",
      "street": "TV MONTE DA BELA",
      "house": "112",
      "postcode": "4300-340",
      "city": "PORTO",
      "lon": "-8.570958880124941",
      "lat": "41.16260850607648"
    },
    {
      "id": "pt.ine.add.PTCONT.4225898",
      "street": "TV PINHEIRO GRANDE",
      "house": "39",
      "postcode": "4300-425",
      "city": "PORTO",
      "lon": "-8.571712082343478",
      "lat": "41.16299282730927"
    },
    {
      "id": "pt.ine.add.PTCONT.4229556",
      "street": "TV PINHEIRO GRANDE",
      "house": "107",
      "postcode": "4300-425",
      "city": "PORTO",
      "lon": "-8.572317386649758",
      "lat": "41.16263935138416"
    },
    {
      "id": "pt.ine.add.PTCONT.4242776",
      "street": "BR MACEDA",
      "house": "99",
      "postcode": "4300-313",
      "city": "PORTO",
      "lon": "-8.57124495084303",
      "lat": "41.162625426977286"
    },
    {
      "id": "pt.ine.add.PTCONT.4255753",
      "street": "TV PINHEIRO GRANDE",
      "house": "91",
      "postcode": "4300-425",
      "city": "PORTO",
      "lon": "-8.57209112904525",
      "lat": "41.16265822258864"
    },
    {
      "id": "pt.ine.add.PTCONT.4258383",
      "street": "TV MACEDA",
      "house": "108",
      "postcode": "4300-310",
      "city": "PORTO",
      "lon": "-8.570970435148173",
      "lat": "41.162554436080505"
    },
    {
      "id": "pt.ine.add.PTCONT.4322421",
      "street": "TV PINHEIRO GRANDE",
      "house": "91",
      "postcode": "4300-425",
      "city": "PORTO",
      "lon": "-8.572019401001633",
      "lat": "41.162622478549714"
    },
    {
      "id": "pt.ine.add.PTCONT.4325418",
      "street": "R BAIRRO DO BOM RETIRO",
      "house": "104",
      "postcode": "4300-310",
      "city": "PORTO",
      "lon": "-8.571112930809523",
      "lat": "41.16248185954991"
    },
    {
      "id": "pt.ine.add.PTCONT.4332388",
      "street": "TV PINHEIRO GRANDE",
      "house": "65",
      "postcode": "4300-425",
      "city": "PORTO",
      "lon": "-8.571937079845341",
      "lat": "41.16278487041228"
    },
    {
      "id": "pt.ine.add.PTCONT.4353142",
      "street": "TV MACEDA",
      "house": "100",
      "postcode": "4300-310",
      "city": "PORTO",
      "lon": "-8.571185077941331",
      "lat": "41.162580632978006"
    },
    {
      "id": "pt.ine.add.PTCONT.4353143",
      "street": "TV MACEDA",
      "house": "34",
      "postcode": "4300-310",
      "city": "PORTO",
      "lon": "-8.571671536008578",
      "lat": "41.162272634090144"
    },
    {
      "id": "pt.ine.add.PTCONT.4376781",
      "street": "TV PINHEIRO GRANDE",
      "house": "73",
      "postcode": "4300-425",
      "city": "PORTO",
      "lon": "-8.572020722675349",
      "lat": "41.162820569100646"
    },
    {
      "id": "pt.ine.add.PTCONT.4388105",
      "street": "TV MACEDA",
      "house": "89",
      "postcode": "4300-310",
      "city": "PORTO",
      "lon": "-8.572328159027807",
      "lat": "41.162468227751226"
    }
  ]
}