{
  "data": {
    "distrito": "Setúbal",
    "concelho": "Sesimbra",
    "freguesia": "Sesimbra (Castelo)",
    "OBJECTID": 384,
    "BGRI2021": "15110101104",
    "DT21": "15",
    "DTMN21": "1511",
    "DTMNFR21": "151101",
    "DTMNFRSEC21": "151101011",
    "SECNUM21": "011",
    "SSNUM21": "04",
    "SECSSNUM21": "01104",
    "OBJECTID_1": 169432,
    "DT": "15",
    "CC": "11",
    "fr": "01",
    "SEC": "011",
    "SS": "04"
  },
  "addresses": [
    {
      "id": "pt.ine.add.PTCONT.4703983",
      "street": "R BERNARDIM RIBEIRO",
      "house": "4",
      "postcode": "2970-300",
      "city": "SESIMBRA",
      "lon": "-9.104739087119533",
      "lat": "38.47009475481662"
    },
    {
      "id": "pt.ine.add.PTCONT.4703984",
      "street": "R NATALIA CORREIA",
      "house": "4",
      "postcode": "2970-312",
      "city": "SESIMBRA",
      "lon": "-9.104739087119533",
      "lat": "38.47009475481662"
    },
    {
      "id": "pt.ine.add.PTCONT.4703985",
      "street": "R BERNARDIM RIBEIRO",
      "house": "4",
      "postcode": "2970-300",
      "city": "SESIMBRA",
      "lon": "-9.104739087119533",
      "lat": "38.47009475481662"
    },
    {
      "id": "pt.ine.add.PTCONT.4703986",
      "street": "R BERNARDIM RIBEIRO",
      "house": "4",
      "postcode": "2970-300",
      "city": "SESIMBRA",
      "lon": "-9.104739087119533",
      "lat": "38.47009475481662"
    },
    {
      "id": "pt.ine.add.PTCONT.4703987",
      "street": "R NATALIA CORREIA",
      "house": "3",
      "postcode": "2970-312",
      "city": "SESIMBRA",
      "lon": "-9.104739087119533",
      "lat": "38.47009475481662"
    },
    {
      "id": "pt.ine.add.PTCONT.4703988",
      "street": "R NATALIA CORREIA",
      "house": "3",
      "postcode": "2970-312",
      "city": "SESIMBRA",
      "lon": "-9.104739087119533",
      "lat": "38.47009475481662"
    },
    {
      "id": "pt.ine.add.PTCONT.4703989",
      "street": "R NATALIA CORREIA",
      "house": "3",
      "postcode": "2970-312",
      "city": "SESIMBRA",
      "lon": "-9.104739087119533",
      "lat": "38.47009475481662"
    },
    {
      "id": "pt.ine.add.PTCONT.4703990",
      "street": "R BERNARDIM RIBEIRO",
      "house": "4",
      "postcode": "2970-300",
      "city": "SESIMBRA",
      "lon": "-9.104739087119533",
      "lat": "38.47009475481662"
    },
    {
      "id": "pt.ine.add.PTCONT.4891472",
      "street": "PCT FLORBELA ESPANCA",
      "house": "",
      "postcode": "2970-293",
      "city": "SESIMBRA",
      "lon": "-9.104869226821036",
      "lat": "38.47039995663635"
    },
    {
      "id": "pt.ine.add.PTCONT.4891473",
      "street": "PCT FLORBELA ESPANCA",
      "house": "4 3 M",
      "postcode": "2970-293",
      "city": "SESIMBRA",
      "lon": "-9.104869226821036",
      "lat": "38.47039995663635"
    },
    {
      "id": "pt.ine.add.PTCONT.4891485",
      "street": "PCT FLORBELA ESPANCA",
      "house": "",
      "postcode": "2970-293",
      "city": "SESIMBRA",
      "lon": "-9.104869226821036",
      "lat": "38.47039995663635"
    },
    {
      "id": "pt.ine.add.PTCONT.4891486",
      "street": "PCT FLORBELA ESPANCA",
      "house": "",
      "postcode": "2970-293",
      "city": "SESIMBRA",
      "lon": "-9.104869226821036",
      "lat": "38.47039995663635"
    },
    {
      "id": "pt.ine.add.PTCONT.4891487",
      "street": "R NATALIA CORREIA M",
      "house": "M3",
      "postcode": "2970-312",
      "city": "SESIMBRA",
      "lon": "-9.104869226821036",
      "lat": "38.47039995663635"
    },
    {
      "id": "pt.ine.add.PTCONT.4891488",
      "street": "PCT FLORBELA ESPANCA",
      "house": "3",
      "postcode": "2970-293",
      "city": "SESIMBRA",
      "lon": "-9.104869226821036",
      "lat": "38.47039995663635"
    },
    {
      "id": "pt.ine.add.PTCONT.4891489",
      "street": "R NATALIA CORREIA LTM",
      "house": "LTM3",
      "postcode": "2970-312",
      "city": "SESIMBRA",
      "lon": "-9.104869226821036",
      "lat": "38.47039995663635"
    },
    {
      "id": "pt.ine.add.PTCONT.4892229",
      "street": "PCT FLORBELA ESPANCA M",
      "house": "M 3",
      "postcode": "2970-293",
      "city": "SESIMBRA",
      "lon": "-9.104869226821036",
      "lat": "38.47039995663635"
    },
    {
      "id": "pt.ine.add.PTCONT.4942296",
      "street": "R BERNARDIM RIBEIRO",
      "house": "1",
      "postcode": "2970-300",
      "city": "SESIMBRA",
      "lon": "-9.104964028470155",
      "lat": "38.47063338528646"
    },
    {
      "id": "pt.ine.add.PTCONT.4942297",
      "street": "R BERNARDIM RIBEIRO",
      "house": "1",
      "postcode": "2970-300",
      "city": "SESIMBRA",
      "lon": "-9.104964028470155",
      "lat": "38.47063338528646"
    },
    {
      "id": "pt.ine.add.PTCONT.4942298",
      "street": "R BERNARDIM RIBEIRO",
      "house": "1",
      "postcode": "2970-300",
      "city": "SESIMBRA",
      "lon": "-9.104964028470155",
      "lat": "38.47063338528646"
    },
    {
      "id": "pt.ine.add.PTCONT.4942299",
      "street": "R BERNARDIM RIBEIRO",
      "house": "1",
      "postcode": "2970-300",
      "city": "SESIMBRA",
      "lon": "-9.104964028470155",
      "lat": "38.47063338528646"
    },
    {
      "id": "pt.ine.add.PTCONT.4942300",
      "street": "R BERNARDIM RIBEIRO",
      "house": "1",
      "postcode": "2970-300",
      "city": "SESIMBRA",
      "lon": "-9.104964028470155",
      "lat": "38.47063338528646"
    },
    {
      "id": "pt.ine.add.PTCONT.4942301",
      "street": "R BERNARDIM RIBEIRO",
      "house": "1",
      "postcode": "2970-300",
      "city": "SESIMBRA",
      "lon": "-9.104964028470155",
      "lat": "38.47063338528646"
    },
    {
      "id": "pt.ine.add.PTCONT.4942304",
      "street": "R BERNARDIM RIBEIRO",
      "house": "1",
      "postcode": "2970-300",
      "city": "SESIMBRA",
      "lon": "-9.104964028470155",
      "lat": "38.47063338528646"
    },
    {
      "id": "pt.ine.add.PTCONT.4985853",
      "street": "R BERNARDIM RIBEIRO",
      "house": "3",
      "postcode": "2970-300",
      "city": "SESIMBRA",
      "lon": "-9.105034465045428",
      "lat": "38.47075891672146"
    },
    {
      "id": "pt.ine.add.PTCONT.4985854",
      "street": "R BERNARDIM RIBEIRO",
      "house": "3",
      "postcode": "2970-300",
      "city": "SESIMBRA",
      "lon": "-9.105034465045428",
      "lat": "38.47075891672146"
    },
    {
      "id": "pt.ine.add.PTCONT.4985855",
      "street": "R BERNARDIM RIBEIRO",
      "house": "3",
      "postcode": "2970-300",
      "city": "SESIMBRA",
      "lon": "-9.105034465045428",
      "lat": "38.47075891672146"
    },
    {
      "id": "pt.ine.add.PTCONT.4985856",
      "street": "R BERNARDIM RIBEIRO",
      "house": "3",
      "postcode": "2970-300",
      "city": "SESIMBRA",
      "lon": "-9.105034465045428",
      "lat": "38.47075891672146"
    },
    {
      "id": "pt.ine.add.PTCONT.4985857",
      "street": "R BERNARDIM RIBEIRO",
      "house": "3",
      "postcode": "2970-300",
      "city": "SESIMBRA",
      "lon": "-9.105034465045428",
      "lat": "38.47075891672146"
    },
    {
      "id": "pt.ine.add.PTCONT.4985858",
      "street": "R BERNARDIM RIBEIRO",
      "house": "3",
      "postcode": "2970-300",
      "city": "SESIMBRA",
      "lon": "-9.105034465045428",
      "lat": "38.47075891672146"
    },
    {
      "id": "pt.ine.add.PTCONT.4985859",
      "street": "R BERNARDIM RIBEIRO",
      "house": "3",
      "postcode": "2970-300",
      "city": "SESIMBRA",
      "lon": "-9.105034465045428",
      "lat": "38.47075891672146"
    },
    {
      "id": "pt.ine.add.PTCONT.4985865",
      "street": "R BERNARDIM RIBEIRO",
      "house": "3",
      "postcode": "2970-300",
      "city": "SESIMBRA",
      "lon": "-9.105034465045428",
      "lat": "38.47075891672146"
    },
    {
      "id": "pt.ine.add.PTCONT.5050892",
      "street": "R NATALIA CORREIA",
      "house": "5",
      "postcode": "2970-312",
      "city": "SESIMBRA",
      "lon": "-9.104832437191314",
      "lat": "38.470220096326116"
    },
    {
      "id": "pt.ine.add.PTCONT.5050893",
      "street": "R NATALIA CORREIA",
      "house": "5",
      "postcode": "2970-312",
      "city": "SESIMBRA",
      "lon": "-9.104832437191314",
      "lat": "38.470220096326116"
    },
    {
      "id": "pt.ine.add.PTCONT.5050894",
      "street": "R NATALIA CORREIA",
      "house": "5",
      "postcode": "2970-312",
      "city": "SESIMBRA",
      "lon": "-9.104832437191314",
      "lat": "38.470220096326116"
    },
    {
      "id": "pt.ine.add.PTCONT.5050895",
      "street": "R NATALIA CORREIA",
      "house": "5",
      "postcode": "2970-312",
      "city": "SESIMBRA",
      "lon": "-9.104832437191314",
      "lat": "38.470220096326116"
    },
    {
      "id": "pt.ine.add.PTCONT.5050896",
      "street": "R NATALIA CORREIA",
      "house": "5",
      "postcode": "2970-312",
      "city": "SESIMBRA",
      "lon": "-9.104832437191314",
      "lat": "38.470220096326116"
    },
    {
      "id": "pt.ine.add.PTCONT.5050897",
      "street": "R NATALIA CORREIA",
      "house": "5",
      "postcode": "2970-312",
      "city": "SESIMBRA",
      "lon": "-9.104832437191314",
      "lat": "38.470220096326116"
    },
    {
      "id": "pt.ine.add.PTCONT.5050898",
      "street": "R NATALIA CORREIA",
      "house": "5",
      "postcode": "2970-312",
      "city": "SESIMBRA",
      "lon": "-9.104832437191314",
      "lat": "38.470220096326116"
    },
    {
      "id": "pt.ine.add.PTCONT.5050899",
      "street": "R NATÁLIA CORREIA",
      "house": "1",
      "postcode": "2970-312",
      "city": "SESIMBRA",
      "lon": "-9.104668530850331",
      "lat": "38.46996021590133"
    },
    {
      "id": "pt.ine.add.PTCONT.5050900",
      "street": "R NATÁLIA CORREIA",
      "house": "1",
      "postcode": "2970-312",
      "city": "SESIMBRA",
      "lon": "-9.104668530850331",
      "lat": "38.46996021590133"
    },
    {
      "id": "pt.ine.add.PTCONT.5050903",
      "street": "R NATÁLIA CORREIA",
      "house": "1",
      "postcode": "2970-312",
      "city": "SESIMBRA",
      "lon": "-9.104668530850331",
      "lat": "38.46996021590133"
    },
    {
      "id": "pt.ine.add.PTCONT.5050904",
      "street": "R NATÁLIA CORREIA",
      "house": "1",
      "postcode": "2970-312",
      "city": "SESIMBRA",
      "lon": "-9.104668530850331",
      "lat": "38.46996021590133"
    },
    {
      "id": "pt.ine.add.PTCONT.5050905",
      "street": "R NATÁLIA CORREIA",
      "house": "1",
      "postcode": "2970-312",
      "city": "SESIMBRA",
      "lon": "-9.104668530850331",
      "lat": "38.46996021590133"
    },
    {
      "id": "pt.ine.add.PTCONT.5050906",
      "street": "R NATÁLIA CORREIA",
      "house": "1",
      "postcode": "2970-312",
      "city": "SESIMBRA",
      "lon": "-9.104668530850331",
      "lat": "38.46996021590133"
    },
    {
      "id": "pt.ine.add.PTCONT.5050907",
      "street": "R NATÁLIA CORREIA",
      "house": "1",
      "postcode": "2970-312",
      "city": "SESIMBRA",
      "lon": "-9.104668530850331",
      "lat": "38.46996021590133"
    },
    {
      "id": "pt.ine.add.PTCONT.5050908",
      "street": "R NATÁLIA CORREIA",
      "house": "1",
      "postcode": "2970-312",
      "city": "SESIMBRA",
      "lon": "-9.104668530850331",
      "lat": "38.46996021590133"
    },
    {
      "id": "pt.ine.add.PTCONT.5051703",
      "street": "R NATALIA CORREIA",
      "house": "5",
      "postcode": "2970-312",
      "city": "SESIMBRA",
      "lon": "-9.104832437191314",
      "lat": "38.470220096326116"
    },
    {
      "id": "pt.ine.add.PTCONT.5130062",
      "street": "R BERNARDIM RIBEIRO",
      "house": "1",
      "postcode": "2970-300",
      "city": "SESIMBRA",
      "lon": "-9.104964028470155",
      "lat": "38.47063338528646"
    }
  ]
}