{
  "data": {
    "distrito": "Setúbal",
    "concelho": "Sesimbra",
    "freguesia": "Sesimbra (Castelo)",
    "OBJECTID": 579,
    "BGRI2021": "15110101112",
    "DT21": "15",
    "DTMN21": "1511",
    "DTMNFR21": "151101",
    "DTMNFRSEC21": "151101011",
    "SECNUM21": "011",
    "SSNUM21": "12",
    "SECSSNUM21": "01112",
    "OBJECTID_1": 168927,
    "DT": "15",
    "CC": "11",
    "fr": "01",
    "SEC": "011",
    "SS": "12"
  },
  "addresses": [
    {
      "id": "pt.ine.add.PTCONT.4672604",
      "street": "AV LUIS VAZ DE CAMÕES",
      "house": "",
      "postcode": "2970-292",
      "city": "SESIMBRA",
      "lon": "-9.102105606385672",
      "lat": "38.47281004338424"
    },
    {
      "id": "pt.ine.add.PTCONT.4676103",
      "street": "R AREAL",
      "house": "11",
      "postcode": "2970-318",
      "city": "SESIMBRA",
      "lon": "-9.103180200900836",
      "lat": "38.47176519757186"
    },
    {
      "id": "pt.ine.add.PTCONT.4683998",
      "street": "R AREAL",
      "house": "31",
      "postcode": "2970-318",
      "city": "SESIMBRA",
      "lon": "-9.102218012266018",
      "lat": "38.47264696454844"
    },
    {
      "id": "pt.ine.add.PTCONT.4708624",
      "street": "AV LUIS VAZ DE CAMÕES",
      "house": "5",
      "postcode": "2970-292",
      "city": "SESIMBRA",
      "lon": "-9.102716718049043",
      "lat": "38.472237465229384"
    },
    {
      "id": "pt.ine.add.PTCONT.4738348",
      "street": "AV LUIS VAZ DE CAMÕES",
      "house": "9",
      "postcode": "2970-292",
      "city": "SESIMBRA",
      "lon": "-9.102861925675036",
      "lat": "38.47195700668797"
    },
    {
      "id": "pt.ine.add.PTCONT.4841605",
      "street": "EN 378",
      "house": "378",
      "postcode": "2970-578",
      "city": "SESIMBRA",
      "lon": "-9.102649905544748",
      "lat": "38.47323793654904"
    },
    {
      "id": "pt.ine.add.PTCONT.5043374",
      "street": "R AREAL",
      "house": "13",
      "postcode": "2970-318",
      "city": "SESIMBRA",
      "lon": "-9.103360623086822",
      "lat": "38.47154750469012"
    },
    {
      "id": "pt.ine.add.PTCONT.5061699",
      "street": "EN 378 CONDOMINIO PARTICULAR",
      "house": "",
      "postcode": "2970-292",
      "city": "SESIMBRA",
      "lon": "-9.102249609573153",
      "lat": "38.47329529877184"
    },
    {
      "id": "pt.ine.add.PTCONT.5065395",
      "street": "AV LUIS VAZ DE CAMÕES",
      "house": "",
      "postcode": "2970-292",
      "city": "SESIMBRA",
      "lon": "-9.102431967995091",
      "lat": "38.472365937751185"
    }
  ]
}