{
  "data": {
    "distrito": "Santarém",
    "concelho": "Ourém",
    "freguesia": "União das freguesias de Freixianda, Ribeira do Fárrio e Formigais",
    "OBJECTID": 927,
    "BGRI2021": "14211900514",
    "DT21": "14",
    "DTMN21": "1421",
    "DTMNFR21": "142119",
    "DTMNFRSEC21": "142119005",
    "SECNUM21": "005",
    "SSNUM21": "14",
    "SECSSNUM21": "00514",
    "OBJECTID_1": 159528,
    "DT": "14",
    "CC": "21",
    "fr": "19",
    "SEC": "005",
    "SS": "14"
  },
  "addresses": [
    {
      "id": "pt.ine.add.PTCONT.4448501",
      "street": "R S FRANCISCO",
      "house": "4",
      "postcode": "2435-508",
      "city": "RIBEIRA DO FÁRRIO",
      "lon": "-8.499974162323083",
      "lat": "39.78315246569287"
    },
    {
      "id": "pt.ine.add.PTCONT.4456681",
      "street": "R CÓNEGO BENTO",
      "house": "26",
      "postcode": "2435-508",
      "city": "RIBEIRA DO FÁRRIO",
      "lon": "-8.499567283105073",
      "lat": "39.7812713917476"
    },
    {
      "id": "pt.ine.add.PTCONT.4456682",
      "street": "R CÓNEGO BENTO",
      "house": "26",
      "postcode": "2435-508",
      "city": "RIBEIRA DO FÁRRIO",
      "lon": "-8.499567283105073",
      "lat": "39.7812713917476"
    },
    {
      "id": "pt.ine.add.PTCONT.4498707",
      "street": "R S FRANCISCO",
      "house": "2",
      "postcode": "2435-508",
      "city": "RIBEIRA DO FÁRRIO",
      "lon": "-8.500449417834421",
      "lat": "39.78252050713262"
    },
    {
      "id": "pt.ine.add.PTCONT.4505466",
      "street": "R CÓNEGO BENTO",
      "house": "24",
      "postcode": "2435-508",
      "city": "RIBEIRA DO FÁRRIO",
      "lon": "-8.499322435602581",
      "lat": "39.78132620365623"
    },
    {
      "id": "pt.ine.add.PTCONT.4529320",
      "street": "R CÓNEGO BENTO",
      "house": "28",
      "postcode": "2435-508",
      "city": "RIBEIRA DO FÁRRIO",
      "lon": "-8.499777397907849",
      "lat": "39.78127072809824"
    },
    {
      "id": "pt.ine.add.PTCONT.4551952",
      "street": "R CÓNEGO BENTO",
      "house": "30",
      "postcode": "2435-508",
      "city": "RIBEIRA DO FÁRRIO",
      "lon": "-8.500395446787696",
      "lat": "39.78115168920398"
    },
    {
      "id": "pt.ine.add.PTCONT.4612181",
      "street": "R CÓNEGO BENTO",
      "house": "",
      "postcode": "2435-508",
      "city": "RIBEIRA DO FÁRRIO",
      "lon": "-8.49935788447245",
      "lat": "39.7814071503446"
    },
    {
      "id": "pt.ine.add.PTCONT.4661741",
      "street": "R CÓNEGO BENTO",
      "house": "22",
      "postcode": "2435-508",
      "city": "RIBEIRA DO FÁRRIO",
      "lon": "-8.499008264820064",
      "lat": "39.781516331217176"
    }
  ]
}