{
  "data": {
    "distrito": "Setúbal",
    "concelho": "Setúbal",
    "freguesia": "União das freguesias de Azeitão (São Lourenço e São Simão)",
    "OBJECTID": 833,
    "BGRI2021": "15120901601",
    "DT21": "15",
    "DTMN21": "1512",
    "DTMNFR21": "151209",
    "DTMNFRSEC21": "151209016",
    "SECNUM21": "016",
    "SSNUM21": "01",
    "SECSSNUM21": "01601",
    "OBJECTID_1": 170193,
    "DT": "15",
    "CC": "12",
    "fr": "09",
    "SEC": "016",
    "SS": "01"
  },
  "addresses": [
    {
      "id": "pt.ine.add.PTCONT.4664519",
      "street": "R TRAVESSA DA HARMONIA",
      "house": "",
      "postcode": "2925-043",
      "city": "AZEITÃO",
      "lon": "-9.025528473448633",
      "lat": "38.528783344267836"
    },
    {
      "id": "pt.ine.add.PTCONT.4672540",
      "street": "R JOSE VIANA",
      "house": "47",
      "postcode": "2925-044",
      "city": "AZEITÃO",
      "lon": "-9.023120157328032",
      "lat": "38.5306393551074"
    },
    {
      "id": "pt.ine.add.PTCONT.4680691",
      "street": "URB GUARDA DO PINHEIRO",
      "house": "",
      "postcode": "2925-999",
      "city": "AZEITÃO",
      "lon": "-9.022084626035987",
      "lat": "38.52943111054037"
    },
    {
      "id": "pt.ine.add.PTCONT.4683345",
      "street": "R JUVENTUDE AZEITONENSE",
      "house": "",
      "postcode": "2925-588",
      "city": "AZEITÃO",
      "lon": "-9.023475890832808",
      "lat": "38.52972681898388"
    },
    {
      "id": "pt.ine.add.PTCONT.4698052",
      "street": "R JUVENTUDE AZEITONENSE",
      "house": "",
      "postcode": "2925-588",
      "city": "AZEITÃO",
      "lon": "-9.021846370356561",
      "lat": "38.52964010865533"
    },
    {
      "id": "pt.ine.add.PTCONT.4698053",
      "street": "R JUVENTUDE AZEITONENSE",
      "house": "",
      "postcode": "2925-588",
      "city": "AZEITÃO",
      "lon": "-9.022867297964376",
      "lat": "38.528731531396225"
    },
    {
      "id": "pt.ine.add.PTCONT.4704934",
      "street": "R JUVENTUDE AZEITONENSE",
      "house": "139",
      "postcode": "2925-588",
      "city": "AZEITÃO",
      "lon": "-9.021738681338729",
      "lat": "38.5302084447584"
    },
    {
      "id": "pt.ine.add.PTCONT.4704935",
      "street": "R JUVENTUDE AZEITONENSE",
      "house": "139",
      "postcode": "2925-588",
      "city": "AZEITÃO",
      "lon": "-9.021738681338729",
      "lat": "38.5302084447584"
    },
    {
      "id": "pt.ine.add.PTCONT.4706077",
      "street": "R JUVENTUDE AZEITONENSE",
      "house": "",
      "postcode": "2925-588",
      "city": "AZEITÃO",
      "lon": "-9.023725719929567",
      "lat": "38.52952673777508"
    },
    {
      "id": "pt.ine.add.PTCONT.4706176",
      "street": "R JUVENTUDE AZEITONENSE",
      "house": "139",
      "postcode": "2925-588",
      "city": "AZEITÃO",
      "lon": "-9.021738681338729",
      "lat": "38.5302084447584"
    },
    {
      "id": "pt.ine.add.PTCONT.4709397",
      "street": "R FERNANDO LOPES GRAÇA",
      "house": "",
      "postcode": "2925-788",
      "city": "AZEITÃO",
      "lon": "-9.025896188675029",
      "lat": "38.52884359862918"
    },
    {
      "id": "pt.ine.add.PTCONT.4731864",
      "street": "R FERNANDO LOPES GRAÇA",
      "house": "",
      "postcode": "2925-788",
      "city": "AZEITÃO",
      "lon": "-9.026085334404025",
      "lat": "38.528373728086464"
    },
    {
      "id": "pt.ine.add.PTCONT.4731877",
      "street": "R JUVENTUDE AZEITONENSE",
      "house": "",
      "postcode": "2925-588",
      "city": "AZEITÃO",
      "lon": "-9.024235618663113",
      "lat": "38.52902740524495"
    },
    {
      "id": "pt.ine.add.PTCONT.4738312",
      "street": "R JUVENTUDE AZEITONENSE",
      "house": "",
      "postcode": "2925-588",
      "city": "AZEITÃO",
      "lon": "-9.022969278373228",
      "lat": "38.52863166579796"
    },
    {
      "id": "pt.ine.add.PTCONT.4740581",
      "street": "R FERNANDO LOPES GRAÇA",
      "house": "",
      "postcode": "2925-788",
      "city": "AZEITÃO",
      "lon": "-9.025980241847229",
      "lat": "38.52822138956464"
    },
    {
      "id": "pt.ine.add.PTCONT.4740671",
      "street": "R JUVENTUDE AZEITONENSE",
      "house": "",
      "postcode": "2925-588",
      "city": "AZEITÃO",
      "lon": "-9.021936664933708",
      "lat": "38.52952231619186"
    },
    {
      "id": "pt.ine.add.PTCONT.4743481",
      "street": "R FERNANDO LOPES GRACA",
      "house": "36",
      "postcode": "2925-043",
      "city": "AZEITÃO",
      "lon": "-9.026219371564187",
      "lat": "38.528084442267456"
    },
    {
      "id": "pt.ine.add.PTCONT.4756473",
      "street": "R JUVENTUDE AZEITONENSE",
      "house": "",
      "postcode": "2925-588",
      "city": "AZEITÃO",
      "lon": "-9.022681747259343",
      "lat": "38.53042648926103"
    },
    {
      "id": "pt.ine.add.PTCONT.4760207",
      "street": "R JUVENTUDE AZEITONENSE",
      "house": "",
      "postcode": "2925-588",
      "city": "AZEITÃO",
      "lon": "-9.022004860345817",
      "lat": "38.53040460538676"
    },
    {
      "id": "pt.ine.add.PTCONT.4760208",
      "street": "R JUVENTUDE AZEITONENSE",
      "house": "",
      "postcode": "2925-588",
      "city": "AZEITÃO",
      "lon": "-9.022004860345817",
      "lat": "38.53040460538676"
    },
    {
      "id": "pt.ine.add.PTCONT.4774482",
      "street": "R FERNANDO LOPES GRAÇA",
      "house": "",
      "postcode": "2925-788",
      "city": "AZEITÃO",
      "lon": "-9.026038465745108",
      "lat": "38.52829301142232"
    },
    {
      "id": "pt.ine.add.PTCONT.4776521",
      "street": "R JUVENTUDE AZEITONENSE",
      "house": "",
      "postcode": "2925-588",
      "city": "AZEITÃO",
      "lon": "-9.023907079762967",
      "lat": "38.52935420167424"
    },
    {
      "id": "pt.ine.add.PTCONT.4780490",
      "street": "R JUVENTUDE AZEITONENSE",
      "house": "",
      "postcode": "2925-588",
      "city": "AZEITÃO",
      "lon": "-9.023838944991207",
      "lat": "38.52940876943205"
    },
    {
      "id": "pt.ine.add.PTCONT.4783948",
      "street": "R JOSE VIANA",
      "house": "FRAC R",
      "postcode": "2925-044",
      "city": "AZEITÃO",
      "lon": "-9.025613753704478",
      "lat": "38.528260216671754"
    },
    {
      "id": "pt.ine.add.PTCONT.4788310",
      "street": "R JUVENTUDE AZEITONENSE",
      "house": "135B",
      "postcode": "2925-588",
      "city": "AZEITÃO",
      "lon": "-9.022293974900302",
      "lat": "38.53060059121766"
    },
    {
      "id": "pt.ine.add.PTCONT.4788311",
      "street": "R JUVENTUDE AZEITONENSE",
      "house": "135B",
      "postcode": "2925-588",
      "city": "AZEITÃO",
      "lon": "-9.022293974900302",
      "lat": "38.53060059121766"
    },
    {
      "id": "pt.ine.add.PTCONT.4788312",
      "street": "R JUVENTUDE AZEITONENSE",
      "house": "135B",
      "postcode": "2925-588",
      "city": "AZEITÃO",
      "lon": "-9.022293974900302",
      "lat": "38.53060059121766"
    },
    {
      "id": "pt.ine.add.PTCONT.4788313",
      "street": "R JUVENTUDE AZEITONENSE",
      "house": "135B",
      "postcode": "2925-588",
      "city": "AZEITÃO",
      "lon": "-9.022293974900302",
      "lat": "38.53060059121766"
    },
    {
      "id": "pt.ine.add.PTCONT.4792547",
      "street": "R JUVENTUDE AZEITONENSE",
      "house": "",
      "postcode": "2925-588",
      "city": "AZEITÃO",
      "lon": "-9.023321084667307",
      "lat": "38.52833171976301"
    },
    {
      "id": "pt.ine.add.PTCONT.4797728",
      "street": "R JOSE VIANA P",
      "house": "P",
      "postcode": "2925-044",
      "city": "AZEITÃO",
      "lon": "-9.025523800494673",
      "lat": "38.52840503406334"
    },
    {
      "id": "pt.ine.add.PTCONT.4797951",
      "street": "R JOSE VIANA",
      "house": "4",
      "postcode": "2925-044",
      "city": "AZEITÃO",
      "lon": "-9.02283133232597",
      "lat": "38.53139824170224"
    },
    {
      "id": "pt.ine.add.PTCONT.4812310",
      "street": "R FERNANDO LOPES GRAÇA",
      "house": "",
      "postcode": "2925-788",
      "city": "AZEITÃO",
      "lon": "-9.026143335856535",
      "lat": "38.52842733511821"
    },
    {
      "id": "pt.ine.add.PTCONT.4817459",
      "street": "R JOSE VIANA",
      "house": "95",
      "postcode": "2925-044",
      "city": "AZEITÃO",
      "lon": "-9.026188755780975",
      "lat": "38.5274631075991"
    },
    {
      "id": "pt.ine.add.PTCONT.4823906",
      "street": "R JOSE VIANA",
      "house": "103",
      "postcode": "2925-044",
      "city": "AZEITÃO",
      "lon": "-9.025445536146032",
      "lat": "38.528567778769336"
    },
    {
      "id": "pt.ine.add.PTCONT.4823940",
      "street": "R JUVENTUDE AZEITONENSE",
      "house": "",
      "postcode": "2925-588",
      "city": "AZEITÃO",
      "lon": "-9.022908646990158",
      "lat": "38.53022658400679"
    },
    {
      "id": "pt.ine.add.PTCONT.4823998",
      "street": "R JUVENTUDE AZEITONENSE",
      "house": "",
      "postcode": "2925-588",
      "city": "AZEITÃO",
      "lon": "-9.02150590777146",
      "lat": "38.529930955942746"
    },
    {
      "id": "pt.ine.add.PTCONT.4823999",
      "street": "R JUVENTUDE AZEITONENSE",
      "house": "",
      "postcode": "2925-588",
      "city": "AZEITÃO",
      "lon": "-9.02150590777146",
      "lat": "38.529930955942746"
    },
    {
      "id": "pt.ine.add.PTCONT.4824000",
      "street": "R JUVENTUDE AZEITONENSE",
      "house": "",
      "postcode": "2925-588",
      "city": "AZEITÃO",
      "lon": "-9.02150590777146",
      "lat": "38.529930955942746"
    },
    {
      "id": "pt.ine.add.PTCONT.4824001",
      "street": "R JUVENTUDE AZEITONENSE",
      "house": "",
      "postcode": "2925-588",
      "city": "AZEITÃO",
      "lon": "-9.02150590777146",
      "lat": "38.529930955942746"
    },
    {
      "id": "pt.ine.add.PTCONT.4824002",
      "street": "R JUVENTUDE AZEITONENSE",
      "house": "",
      "postcode": "2925-588",
      "city": "AZEITÃO",
      "lon": "-9.02150590777146",
      "lat": "38.529930955942746"
    },
    {
      "id": "pt.ine.add.PTCONT.4824003",
      "street": "R JUVENTUDE AZEITONENSE",
      "house": "",
      "postcode": "2925-588",
      "city": "AZEITÃO",
      "lon": "-9.02150590777146",
      "lat": "38.529930955942746"
    },
    {
      "id": "pt.ine.add.PTCONT.4841507",
      "street": "R JUVENTUDE AZEITONENSE",
      "house": "",
      "postcode": "2925-588",
      "city": "AZEITÃO",
      "lon": "-9.023184594084313",
      "lat": "38.528422839780376"
    },
    {
      "id": "pt.ine.add.PTCONT.4847972",
      "street": "R JUVENTUDE AZEITONENSE",
      "house": "",
      "postcode": "2925-588",
      "city": "AZEITÃO",
      "lon": "-9.023033452403373",
      "lat": "38.53011753667203"
    },
    {
      "id": "pt.ine.add.PTCONT.4862994",
      "street": "R FERNANDO LOPES GRAÇA",
      "house": "",
      "postcode": "2925-788",
      "city": "AZEITÃO",
      "lon": "-9.026124632449234",
      "lat": "38.52784194254748"
    },
    {
      "id": "pt.ine.add.PTCONT.4866854",
      "street": "R JUVENTUDE AZEITONENSE",
      "house": "130",
      "postcode": "2925-588",
      "city": "AZEITÃO",
      "lon": "-9.023124078509522",
      "lat": "38.53002676548725"
    },
    {
      "id": "pt.ine.add.PTCONT.4873341",
      "street": "R JOSE VIANA",
      "house": "",
      "postcode": "2925-044",
      "city": "AZEITÃO",
      "lon": "-9.025490512972631",
      "lat": "38.52849537011195"
    },
    {
      "id": "pt.ine.add.PTCONT.4874453",
      "street": "R JOSE VIANA",
      "house": "45",
      "postcode": "2925-044",
      "city": "AZEITÃO",
      "lon": "-9.022756650182961",
      "lat": "38.53092137292057"
    },
    {
      "id": "pt.ine.add.PTCONT.4881679",
      "street": "R JOSE VIANA",
      "house": "",
      "postcode": "2925-044",
      "city": "AZEITÃO",
      "lon": "-9.025568777144116",
      "lat": "38.52833262537611"
    },
    {
      "id": "pt.ine.add.PTCONT.4884296",
      "street": "R FERNANDO LOPES GRAÇA",
      "house": "",
      "postcode": "2925-788",
      "city": "AZEITÃO",
      "lon": "-9.026271028438586",
      "lat": "38.52855247638876"
    },
    {
      "id": "pt.ine.add.PTCONT.4884985",
      "street": "EN 10",
      "house": "",
      "postcode": "2925-483",
      "city": "AZEITÃO",
      "lon": "-9.02130238194033",
      "lat": "38.53016671412667"
    },
    {
      "id": "pt.ine.add.PTCONT.4885263",
      "street": "URB STO AMARO",
      "house": "",
      "postcode": "2929-501",
      "city": "AZEITÃO",
      "lon": "-9.025145832783233",
      "lat": "38.52937179526302"
    },
    {
      "id": "pt.ine.add.PTCONT.4885264",
      "street": "URB STO AMARO",
      "house": "",
      "postcode": "2929-501",
      "city": "AZEITÃO",
      "lon": "-9.025145832783233",
      "lat": "38.52937179526302"
    },
    {
      "id": "pt.ine.add.PTCONT.4885265",
      "street": "URB STO AMARO",
      "house": "",
      "postcode": "2929-501",
      "city": "AZEITÃO",
      "lon": "-9.025145832783233",
      "lat": "38.52937179526302"
    },
    {
      "id": "pt.ine.add.PTCONT.4885266",
      "street": "URB STO AMARO",
      "house": "",
      "postcode": "2929-501",
      "city": "AZEITÃO",
      "lon": "-9.025145832783233",
      "lat": "38.52937179526302"
    },
    {
      "id": "pt.ine.add.PTCONT.4885267",
      "street": "URB STO AMARO",
      "house": "",
      "postcode": "2929-501",
      "city": "AZEITÃO",
      "lon": "-9.025145832783233",
      "lat": "38.52937179526302"
    },
    {
      "id": "pt.ine.add.PTCONT.4885268",
      "street": "URB STO AMARO",
      "house": "",
      "postcode": "2929-501",
      "city": "AZEITÃO",
      "lon": "-9.025145832783233",
      "lat": "38.52937179526302"
    },
    {
      "id": "pt.ine.add.PTCONT.4885269",
      "street": "URB STO AMARO",
      "house": "",
      "postcode": "2929-501",
      "city": "AZEITÃO",
      "lon": "-9.025145832783233",
      "lat": "38.52937179526302"
    },
    {
      "id": "pt.ine.add.PTCONT.4902038",
      "street": "R JUVENTUDE AZEITONENSE",
      "house": "136",
      "postcode": "2925-588",
      "city": "AZEITÃO",
      "lon": "-9.022143683909174",
      "lat": "38.53050264192998"
    },
    {
      "id": "pt.ine.add.PTCONT.4902039",
      "street": "R JUVENTUDE AZEITONENSE",
      "house": "136",
      "postcode": "2925-588",
      "city": "AZEITÃO",
      "lon": "-9.022143683909174",
      "lat": "38.53050264192998"
    },
    {
      "id": "pt.ine.add.PTCONT.4906861",
      "street": "R FERNANDO LOPES GRAÇA",
      "house": "",
      "postcode": "2925-788",
      "city": "AZEITÃO",
      "lon": "-9.02573665560304",
      "lat": "38.528925889069285"
    },
    {
      "id": "pt.ine.add.PTCONT.4926941",
      "street": "R JUVENTUDE AZEITONENSE",
      "house": "",
      "postcode": "2925-588",
      "city": "AZEITÃO",
      "lon": "-9.021721342355471",
      "lat": "38.529731139958315"
    },
    {
      "id": "pt.ine.add.PTCONT.4945641",
      "street": "R JOSE VIANA",
      "house": "",
      "postcode": "2925-011",
      "city": "AZEITÃO",
      "lon": "-9.02435695366463",
      "lat": "38.52956697572087"
    },
    {
      "id": "pt.ine.add.PTCONT.4948096",
      "street": "R FERNANDO LOPES GRAÇA",
      "house": "",
      "postcode": "2925-788",
      "city": "AZEITÃO",
      "lon": "-9.026157586029568",
      "lat": "38.528652432268444"
    },
    {
      "id": "pt.ine.add.PTCONT.4951960",
      "street": "R JUVENTUDE AZEITONENSE",
      "house": "",
      "postcode": "2925-588",
      "city": "AZEITÃO",
      "lon": "-9.023350753776647",
      "lat": "38.529808844613534"
    },
    {
      "id": "pt.ine.add.PTCONT.4951962",
      "street": "R JUVENTUDE AZEITONENSE",
      "house": "",
      "postcode": "2925-588",
      "city": "AZEITÃO",
      "lon": "-9.021587948809573",
      "lat": "38.53007446515987"
    },
    {
      "id": "pt.ine.add.PTCONT.4951963",
      "street": "R JUVENTUDE AZEITONENSE",
      "house": "",
      "postcode": "2925-588",
      "city": "AZEITÃO",
      "lon": "-9.021587948809573",
      "lat": "38.53007446515987"
    },
    {
      "id": "pt.ine.add.PTCONT.4951992",
      "street": "R JUVENTUDE AZEITONENSE",
      "house": "",
      "postcode": "2925-588",
      "city": "AZEITÃO",
      "lon": "-9.021587948809573",
      "lat": "38.53007446515987"
    },
    {
      "id": "pt.ine.add.PTCONT.4951993",
      "street": "R JUVENTUDE AZEITONENSE",
      "house": "",
      "postcode": "2925-588",
      "city": "AZEITÃO",
      "lon": "-9.021587948809573",
      "lat": "38.53007446515987"
    },
    {
      "id": "pt.ine.add.PTCONT.4951994",
      "street": "R JUVENTUDE AZEITONENSE",
      "house": "",
      "postcode": "2925-588",
      "city": "AZEITÃO",
      "lon": "-9.023422841893261",
      "lat": "38.52821383899398"
    },
    {
      "id": "pt.ine.add.PTCONT.4963075",
      "street": "R JOSE VIANA",
      "house": "44",
      "postcode": "2925-044",
      "city": "AZEITÃO",
      "lon": "-9.022528971601094",
      "lat": "38.53105822616284"
    },
    {
      "id": "pt.ine.add.PTCONT.4963076",
      "street": "R JUVENTUDE AZEITONENSE",
      "house": "",
      "postcode": "2925-588",
      "city": "AZEITÃO",
      "lon": "-9.02324888325372",
      "lat": "38.52991771792722"
    },
    {
      "id": "pt.ine.add.PTCONT.4973882",
      "street": "R JUVENTUDE AZEITONENSE",
      "house": "",
      "postcode": "2925-588",
      "city": "AZEITÃO",
      "lon": "-9.02413397274661",
      "lat": "38.52915429409038"
    },
    {
      "id": "pt.ine.add.PTCONT.4980923",
      "street": "R FERNANDO LOPES GRAÇA",
      "house": "",
      "postcode": "2925-788",
      "city": "AZEITÃO",
      "lon": "-9.026010410998653",
      "lat": "38.5288066946885"
    },
    {
      "id": "pt.ine.add.PTCONT.4991913",
      "street": "R JUVENTUDE AZEITONENSE A",
      "house": "A",
      "postcode": "2925-588",
      "city": "AZEITÃO",
      "lon": "-9.022409865097707",
      "lat": "38.530698801601545"
    },
    {
      "id": "pt.ine.add.PTCONT.4991914",
      "street": "R JUVENTUDE AZEITONENSE",
      "house": "135A",
      "postcode": "2925-588",
      "city": "AZEITÃO",
      "lon": "-9.022409865097707",
      "lat": "38.530698801601545"
    },
    {
      "id": "pt.ine.add.PTCONT.4991915",
      "street": "R JUVENTUDE AZEITONENSE",
      "house": "135A",
      "postcode": "2925-588",
      "city": "AZEITÃO",
      "lon": "-9.022409865097707",
      "lat": "38.530698801601545"
    },
    {
      "id": "pt.ine.add.PTCONT.4991916",
      "street": "R JUVENTUDE AZEITONENSE",
      "house": "135A",
      "postcode": "2925-588",
      "city": "AZEITÃO",
      "lon": "-9.022409865097707",
      "lat": "38.530698801601545"
    },
    {
      "id": "pt.ine.add.PTCONT.4991917",
      "street": "R JUVENTUDE AZEITONENSE",
      "house": "135A",
      "postcode": "2925-588",
      "city": "AZEITÃO",
      "lon": "-9.022409865097707",
      "lat": "38.530698801601545"
    },
    {
      "id": "pt.ine.add.PTCONT.4991918",
      "street": "R JUVENTUDE AZEITONENSE",
      "house": "135A",
      "postcode": "2925-588",
      "city": "AZEITÃO",
      "lon": "-9.022409865097707",
      "lat": "38.530698801601545"
    },
    {
      "id": "pt.ine.add.PTCONT.4991919",
      "street": "R JUVENTUDE AZEITONENSE",
      "house": "135A",
      "postcode": "2925-588",
      "city": "AZEITÃO",
      "lon": "-9.022409865097707",
      "lat": "38.530698801601545"
    },
    {
      "id": "pt.ine.add.PTCONT.4991934",
      "street": "R JUVENTUDE AZEITONENSE",
      "house": "135A",
      "postcode": "2925-588",
      "city": "AZEITÃO",
      "lon": "-9.022409865097707",
      "lat": "38.530698801601545"
    },
    {
      "id": "pt.ine.add.PTCONT.4991935",
      "street": "R JUVENTUDE AZEITONENSE",
      "house": "135A",
      "postcode": "2925-588",
      "city": "AZEITÃO",
      "lon": "-9.022409865097707",
      "lat": "38.530698801601545"
    },
    {
      "id": "pt.ine.add.PTCONT.4991936",
      "street": "R JUVENTUDE AZEITONENSE",
      "house": "135A",
      "postcode": "2925-588",
      "city": "AZEITÃO",
      "lon": "-9.022409865097707",
      "lat": "38.530698801601545"
    },
    {
      "id": "pt.ine.add.PTCONT.4991937",
      "street": "R JUVENTUDE AZEITONENSE",
      "house": "135A",
      "postcode": "2925-588",
      "city": "AZEITÃO",
      "lon": "-9.022409865097707",
      "lat": "38.530698801601545"
    },
    {
      "id": "pt.ine.add.PTCONT.4992642",
      "street": "R JUVENTUDE AZEITONENSE",
      "house": "135A",
      "postcode": "2925-588",
      "city": "AZEITÃO",
      "lon": "-9.022409865097707",
      "lat": "38.530698801601545"
    },
    {
      "id": "pt.ine.add.PTCONT.4993472",
      "street": "R JOSE VIANA",
      "house": "51",
      "postcode": "2925-044",
      "city": "AZEITÃO",
      "lon": "-9.023733270768695",
      "lat": "38.53013924018062"
    },
    {
      "id": "pt.ine.add.PTCONT.4994312",
      "street": "R TRAVESSA HARMONIA",
      "house": "103 M",
      "postcode": "2925-043",
      "city": "AZEITÃO",
      "lon": "-9.02544731616288",
      "lat": "38.528711896944465"
    },
    {
      "id": "pt.ine.add.PTCONT.5002852",
      "street": "R JUVENTUDE AZEITONENSE",
      "house": "",
      "postcode": "2925-588",
      "city": "AZEITÃO",
      "lon": "-9.022515376957777",
      "lat": "38.52902246870089"
    },
    {
      "id": "pt.ine.add.PTCONT.5020465",
      "street": "R JUVENTUDE AZEITONENSE",
      "house": "",
      "postcode": "2925-588",
      "city": "AZEITÃO",
      "lon": "-9.022730695139954",
      "lat": "38.528813643502055"
    },
    {
      "id": "pt.ine.add.PTCONT.5039779",
      "street": "R JUVENTUDE AZEITONENSE",
      "house": "",
      "postcode": "2925-588",
      "city": "AZEITÃO",
      "lon": "-9.024077527324893",
      "lat": "38.52922678949783"
    },
    {
      "id": "pt.ine.add.PTCONT.5039780",
      "street": "R JUVENTUDE AZEITONENSE",
      "house": "153",
      "postcode": "2925-588",
      "city": "AZEITÃO",
      "lon": "-9.024077527324893",
      "lat": "38.52922678949783"
    },
    {
      "id": "pt.ine.add.PTCONT.5039783",
      "street": "R JUVENTUDE AZEITONENSE",
      "house": "",
      "postcode": "2925-588",
      "city": "AZEITÃO",
      "lon": "-9.021877504164838",
      "lat": "38.53030648162935"
    },
    {
      "id": "pt.ine.add.PTCONT.5040527",
      "street": "R JUVENTUDE AZEITONENSE",
      "house": "",
      "postcode": "2925-588",
      "city": "AZEITÃO",
      "lon": "-9.021877504164838",
      "lat": "38.53030648162935"
    },
    {
      "id": "pt.ine.add.PTCONT.5054682",
      "street": "R JOSE VIANA",
      "house": "96",
      "postcode": "2925-044",
      "city": "AZEITÃO",
      "lon": "-9.026030339263711",
      "lat": "38.52763547227756"
    },
    {
      "id": "pt.ine.add.PTCONT.5099815",
      "street": "R FERNANDO LOPES GRAÇA",
      "house": "",
      "postcode": "2925-788",
      "city": "AZEITÃO",
      "lon": "-9.025609519622963",
      "lat": "38.52884578414694"
    },
    {
      "id": "pt.ine.add.PTCONT.5100054",
      "street": "R JUVENTUDE AZEITONENSE",
      "house": "",
      "postcode": "2925-588",
      "city": "AZEITÃO",
      "lon": "-9.022818131294338",
      "lat": "38.530326362417824"
    },
    {
      "id": "pt.ine.add.PTCONT.5101676",
      "street": "R JOSE VIANA",
      "house": "FRAC R",
      "postcode": "2925-044",
      "city": "AZEITÃO",
      "lon": "-9.025669974279667",
      "lat": "38.52816970576732"
    },
    {
      "id": "pt.ine.add.PTCONT.5122878",
      "street": "R JUVENTUDE AZEITONENSE",
      "house": "",
      "postcode": "2925-588",
      "city": "AZEITÃO",
      "lon": "-9.023489976828348",
      "lat": "38.52807820495316"
    },
    {
      "id": "pt.ine.add.PTCONT.5125066",
      "street": "R JUVENTUDE AZEITONENSE",
      "house": "139",
      "postcode": "2925-588",
      "city": "AZEITÃO",
      "lon": "-9.021738681338729",
      "lat": "38.5302084447584"
    },
    {
      "id": "pt.ine.add.PTCONT.5125728",
      "street": "R JUVENTUDE AZEITONENSE",
      "house": "",
      "postcode": "2925-588",
      "city": "AZEITÃO",
      "lon": "-9.023600583504443",
      "lat": "38.52960876366694"
    },
    {
      "id": "pt.ine.add.PTCONT.5132205",
      "street": "R FERNANDO LOPES GRAÇA",
      "house": "",
      "postcode": "2925-788",
      "city": "AZEITÃO",
      "lon": "-9.026101143039917",
      "lat": "38.5287249286284"
    }
  ]
}