{
  "data": {
    "distrito": "Setúbal",
    "concelho": "Setúbal",
    "freguesia": "União das freguesias de Azeitão (São Lourenço e São Simão)",
    "OBJECTID": 669,
    "BGRI2021": "15120901604",
    "DT21": "15",
    "DTMN21": "1512",
    "DTMNFR21": "151209",
    "DTMNFRSEC21": "151209016",
    "SECNUM21": "016",
    "SSNUM21": "04",
    "SECSSNUM21": "01604",
    "OBJECTID_1": 170034,
    "DT": "15",
    "CC": "12",
    "fr": "09",
    "SEC": "016",
    "SS": "04"
  },
  "addresses": [
    {
      "id": "pt.ine.add.PTCONT.4679677",
      "street": "R CATARINA EUFEMIA",
      "house": "",
      "postcode": "2925-117",
      "city": "AZEITÃO",
      "lon": "-9.01766768559135",
      "lat": "38.533031823735236"
    },
    {
      "id": "pt.ine.add.PTCONT.4731847",
      "street": "R NATALIA CORREIA",
      "house": "",
      "postcode": "2925-632",
      "city": "AZEITÃO",
      "lon": "-9.018011709123897",
      "lat": "38.53302922412462"
    },
    {
      "id": "pt.ine.add.PTCONT.4738207",
      "street": "R NATALIA CORREIA",
      "house": "",
      "postcode": "2925-632",
      "city": "AZEITÃO",
      "lon": "-9.018569875514695",
      "lat": "38.533655580332"
    },
    {
      "id": "pt.ine.add.PTCONT.4739298",
      "street": "URB PINHEIROS ARRABIDA",
      "house": "",
      "postcode": "2925-999",
      "city": "AZEITÃO",
      "lon": "-9.018500076582361",
      "lat": "38.533575034112744"
    },
    {
      "id": "pt.ine.add.PTCONT.4756285",
      "street": "R NATALIA CORREIA",
      "house": "",
      "postcode": "2925-632",
      "city": "AZEITÃO",
      "lon": "-9.019570123002088",
      "lat": "38.53479205646118"
    },
    {
      "id": "pt.ine.add.PTCONT.4775431",
      "street": "R CATARINA EUFEMIA",
      "house": "",
      "postcode": "2925-117",
      "city": "AZEITÃO",
      "lon": "-9.019504853769742",
      "lat": "38.535080813904685"
    },
    {
      "id": "pt.ine.add.PTCONT.4814264",
      "street": "R CATARINA EUFEMIA",
      "house": "",
      "postcode": "2925-117",
      "city": "AZEITÃO",
      "lon": "-9.017865721327107",
      "lat": "38.53328255787699"
    },
    {
      "id": "pt.ine.add.PTCONT.4835616",
      "street": "R CATARINA EUFEMIA",
      "house": "24",
      "postcode": "2925-117",
      "city": "AZEITÃO",
      "lon": "-9.019190804075205",
      "lat": "38.5347228619892"
    },
    {
      "id": "pt.ine.add.PTCONT.4847778",
      "street": "R CATARINA EUFEMIA",
      "house": "",
      "postcode": "2925-117",
      "city": "AZEITÃO",
      "lon": "-9.019038409491646",
      "lat": "38.53445376838075"
    },
    {
      "id": "pt.ine.add.PTCONT.4884271",
      "street": "R CATARINA EUFEMIA",
      "house": "29",
      "postcode": "2925-117",
      "city": "AZEITÃO",
      "lon": "-9.018365225854126",
      "lat": "38.53380125955146"
    },
    {
      "id": "pt.ine.add.PTCONT.4891316",
      "street": "R NATALIA CORREIA",
      "house": "",
      "postcode": "2925-632",
      "city": "AZEITÃO",
      "lon": "-9.017895600368071",
      "lat": "38.532912994603414"
    },
    {
      "id": "pt.ine.add.PTCONT.4924001",
      "street": "R NATALIA CORREIA",
      "house": "",
      "postcode": "2925-632",
      "city": "AZEITÃO",
      "lon": "-9.01865114216422",
      "lat": "38.53373603977275"
    },
    {
      "id": "pt.ine.add.PTCONT.4948094",
      "street": "R CATARINA EUFEMIA",
      "house": "",
      "postcode": "2925-117",
      "city": "AZEITÃO",
      "lon": "-9.0177723267096",
      "lat": "38.53314814013011"
    },
    {
      "id": "pt.ine.add.PTCONT.4948095",
      "street": "R NATALIA CORREIA",
      "house": "",
      "postcode": "2925-632",
      "city": "AZEITÃO",
      "lon": "-9.019209540614213",
      "lat": "38.53438040750952"
    },
    {
      "id": "pt.ine.add.PTCONT.4955662",
      "street": "R NATALIA CORREIA",
      "house": "30",
      "postcode": "2925-632",
      "city": "AZEITÃO",
      "lon": "-9.019721635790033",
      "lat": "38.53498909020899"
    },
    {
      "id": "pt.ine.add.PTCONT.4988286",
      "street": "R NATALIA CORREIA",
      "house": "",
      "postcode": "2925-632",
      "city": "AZEITÃO",
      "lon": "-9.018500076582361",
      "lat": "38.533575034112744"
    },
    {
      "id": "pt.ine.add.PTCONT.4994310",
      "street": "R CATARINA EUFEMIA",
      "house": "",
      "postcode": "2925-117",
      "city": "AZEITÃO",
      "lon": "-9.019260825912506",
      "lat": "38.534821422541626"
    },
    {
      "id": "pt.ine.add.PTCONT.4994311",
      "street": "R CATARINA EUFEMIA",
      "house": "",
      "postcode": "2925-117",
      "city": "AZEITÃO",
      "lon": "-9.019260825912506",
      "lat": "38.534821422541626"
    },
    {
      "id": "pt.ine.add.PTCONT.5010034",
      "street": "R CATARINA EUFEMIA",
      "house": "",
      "postcode": "2925-117",
      "city": "AZEITÃO",
      "lon": "-9.01828351793203",
      "lat": "38.5336847703276"
    },
    {
      "id": "pt.ine.add.PTCONT.5059109",
      "street": "R CATARINA EUFEMIA",
      "house": "",
      "postcode": "2925-117",
      "city": "AZEITÃO",
      "lon": "-9.01816718694377",
      "lat": "38.53355052631438"
    },
    {
      "id": "pt.ine.add.PTCONT.5062720",
      "street": "R CATARINA EUFEMIA",
      "house": "20",
      "postcode": "2925-117",
      "city": "AZEITÃO",
      "lon": "-9.019644235876665",
      "lat": "38.5352238902178"
    },
    {
      "id": "pt.ine.add.PTCONT.5104363",
      "street": "R CATARINA EUFEMIA",
      "house": "",
      "postcode": "2925-117",
      "city": "AZEITÃO",
      "lon": "-9.017458294099733",
      "lat": "38.53279018324689"
    },
    {
      "id": "pt.ine.add.PTCONT.5118821",
      "street": "R CATARINA EUFEMIA",
      "house": "",
      "postcode": "2925-117",
      "city": "AZEITÃO",
      "lon": "-9.018899251001145",
      "lat": "38.53432870608195"
    },
    {
      "id": "pt.ine.add.PTCONT.5128848",
      "street": "R CATARINA EUFEMIA",
      "house": "",
      "postcode": "2925-117",
      "city": "AZEITÃO",
      "lon": "-9.01940031755344",
      "lat": "38.5349735065543"
    }
  ]
}