{
  "data": {
    "distrito": "Porto",
    "concelho": "Valongo",
    "freguesia": "Uni√£o das freguesias de Campo e Sobrado",
    "OBJECTID": 742,
    "BGRI2021": "13150600827",
    "DT21": "13",
    "DTMN21": "1315",
    "DTMNFR21": "131506",
    "DTMNFRSEC21": "131506008",
    "SECNUM21": "008",
    "SSNUM21": "27",
    "SECSSNUM21": "00827",
    "OBJECTID_1": 141753,
    "DT": "13",
    "CC": "15",
    "fr": "06",
    "SEC": "008",
    "SS": "27"
  },
  "addresses": [
    {
      "id": "pt.ine.add.PTCONT.3853120",
      "street": "R ALDEIA",
      "house": "115",
      "postcode": "4440-040",
      "city": "CAMPO VLG",
      "lon": "-8.470453073043002",
      "lat": "41.17588595648803"
    },
    {
      "id": "pt.ine.add.PTCONT.3891065",
      "street": "R CENTRAL VINHAS",
      "house": "90",
      "postcode": "4440-032",
      "city": "CAMPO VLG",
      "lon": "-8.468674490536138",
      "lat": "41.17298274970954"
    },
    {
      "id": "pt.ine.add.PTCONT.3925513",
      "street": "R CENTRAL CAPELA",
      "house": "480",
      "postcode": "4440-027",
      "city": "CAMPO VLG",
      "lon": "-8.469562787359683",
      "lat": "41.17657289031018"
    },
    {
      "id": "pt.ine.add.PTCONT.3954051",
      "street": "R CORREDOURA",
      "house": "15",
      "postcode": "4440-048",
      "city": "CAMPO VLG",
      "lon": "-8.47118929824667",
      "lat": "41.175370550485724"
    },
    {
      "id": "pt.ine.add.PTCONT.4152680",
      "street": "R CORREDOURA",
      "house": "",
      "postcode": "4440-048",
      "city": "CAMPO VLG",
      "lon": "-8.469692843115338",
      "lat": "41.174042290794"
    },
    {
      "id": "pt.ine.add.PTCONT.4159213",
      "street": "R ALDEIA",
      "house": "61",
      "postcode": "4440-040",
      "city": "CAMPO VLG",
      "lon": "-8.469882478824175",
      "lat": "41.176166760776226"
    },
    {
      "id": "pt.ine.add.PTCONT.4304126",
      "street": "R CORREDOURA",
      "house": "19",
      "postcode": "4440-048",
      "city": "CAMPO VLG",
      "lon": "-8.47110499936665",
      "lat": "41.17519971543726"
    },
    {
      "id": "pt.ine.add.PTCONT.4304127",
      "street": "R CORREDOURA",
      "house": "19",
      "postcode": "4440-048",
      "city": "CAMPO VLG",
      "lon": "-8.47110499936665",
      "lat": "41.17519971543726"
    }
  ]
}