{
  "data": {
    "distrito": "Viseu",
    "concelho": "Sernancelhe",
    "freguesia": "Faia",
    "OBJECTID": 7,
    "BGRI2021": "18180600104",
    "DT21": "18",
    "DTMN21": "1818",
    "DTMNFR21": "181806",
    "DTMNFRSEC21": "181806001",
    "SECNUM21": "001",
    "SSNUM21": "04",
    "SECSSNUM21": "00104",
    "OBJECTID_1": 198104,
    "DT": "18",
    "CC": "18",
    "fr": "06",
    "SEC": "001",
    "SS": "04"
  },
  "addresses": [
    {
      "id": "pt.ine.add.PTCONT.5429549",
      "street": "BR BLOCO",
      "house": "",
      "postcode": "3620-800",
      "city": "FAIA SRN",
      "lon": "-7.5458616649224455",
      "lat": "40.94900524428519"
    },
    {
      "id": "pt.ine.add.PTCONT.5438495",
      "street": "PCT AQUILINO RIBEIRO",
      "house": "",
      "postcode": "3620-800",
      "city": "FAIA SRN",
      "lon": "-7.545424041640809",
      "lat": "40.9491925767836"
    },
    {
      "id": "pt.ine.add.PTCONT.5482527",
      "street": "R AQUILINO RIBEIRO",
      "house": "6",
      "postcode": "3620-800",
      "city": "FAIA SRN",
      "lon": "-7.545916696646722",
      "lat": "40.94854675213002"
    },
    {
      "id": "pt.ine.add.PTCONT.5486494",
      "street": "BR BLOCO",
      "house": "",
      "postcode": "3620-800",
      "city": "FAIA SRN",
      "lon": "-7.545434394330063",
      "lat": "40.94931527285139"
    },
    {
      "id": "pt.ine.add.PTCONT.5519329",
      "street": "R AQUILINO RIBEIRO",
      "house": "",
      "postcode": "3620-800",
      "city": "FAIA SRN",
      "lon": "-7.545796932396781",
      "lat": "40.94867421075553"
    },
    {
      "id": "pt.ine.add.PTCONT.5534398",
      "street": "R AQUILINO RIBEIRO",
      "house": "",
      "postcode": "3620-800",
      "city": "FAIA SRN",
      "lon": "-7.545831970611158",
      "lat": "40.94872641358419"
    },
    {
      "id": "pt.ine.add.PTCONT.5555190",
      "street": "BR BLOCO",
      "house": "",
      "postcode": "3620-800",
      "city": "FAIA SRN",
      "lon": "-7.545926418720138",
      "lat": "40.9487899271544"
    },
    {
      "id": "pt.ine.add.PTCONT.5579040",
      "street": "PCT AQUILINO RIBEIRO",
      "house": "",
      "postcode": "3620-800",
      "city": "FAIA SRN",
      "lon": "-7.545399810815882",
      "lat": "40.949246481161715"
    },
    {
      "id": "pt.ine.add.PTCONT.5583703",
      "street": "R AQUILINO RIBEIRO",
      "house": "N 7",
      "postcode": "3620-800",
      "city": "FAIA SRN",
      "lon": "-7.545925301974175",
      "lat": "40.948915986543874"
    },
    {
      "id": "pt.ine.add.PTCONT.5592041",
      "street": "BR BLOCO",
      "house": "",
      "postcode": "3620-800",
      "city": "FAIA SRN",
      "lon": "-7.5454670930735865",
      "lat": "40.94936236903165"
    },
    {
      "id": "pt.ine.add.PTCONT.5597625",
      "street": "R AQUILINO RIBEIRO",
      "house": "",
      "postcode": "3620-800",
      "city": "FAIA SRN",
      "lon": "-7.545818332615766",
      "lat": "40.948705145374994"
    },
    {
      "id": "pt.ine.add.PTCONT.5616523",
      "street": "",
      "house": "1",
      "postcode": "3620-800",
      "city": "FAIA SRN",
      "lon": "-7.545662916166535",
      "lat": "40.949040715072876"
    },
    {
      "id": "pt.ine.add.PTCONT.5636767",
      "street": "BR BLOCO",
      "house": "",
      "postcode": "3620-800",
      "city": "FAIA SRN",
      "lon": "-7.545937815946638",
      "lat": "40.9488440130864"
    },
    {
      "id": "pt.ine.add.PTCONT.5646473",
      "street": "BR BLOCO",
      "house": "",
      "postcode": "3620-800",
      "city": "FAIA SRN",
      "lon": "-7.545662517147005",
      "lat": "40.949085736279635"
    },
    {
      "id": "pt.ine.add.PTCONT.5648060",
      "street": "BR BLOCO",
      "house": "",
      "postcode": "3620-800",
      "city": "FAIA SRN",
      "lon": "-7.545860321714148",
      "lat": "40.948760339825725"
    },
    {
      "id": "pt.ine.add.PTCONT.5663940",
      "street": "",
      "house": "3",
      "postcode": "3620-800",
      "city": "FAIA SRN",
      "lon": "-7.54565000282721",
      "lat": "40.94915770970185"
    },
    {
      "id": "pt.ine.add.PTCONT.5667453",
      "street": "R AQUILI NO RIBEIRO",
      "house": "9",
      "postcode": "3620-800",
      "city": "FAIA SRN",
      "lon": "-7.5458608715413575",
      "lat": "40.94904573054475"
    }
  ]
}