{
  "data": {
    "distrito": "Porto",
    "concelho": "Baião",
    "freguesia": "União das freguesias de Campelo e Ovil",
    "OBJECTID": 68,
    "BGRI2021": "13022300208",
    "DT21": "13",
    "DTMN21": "1302",
    "DTMNFR21": "130223",
    "DTMNFRSEC21": "130223002",
    "SECNUM21": "002",
    "SSNUM21": "08",
    "SECSSNUM21": "00208",
    "OBJECTID_1": 127039,
    "DT": "13",
    "CC": "02",
    "fr": "23",
    "SEC": "002",
    "SS": "08"
  },
  "addresses": [
    {
      "id": "pt.ine.add.PTCONT.3553182",
      "street": "TV CAMÕES",
      "house": "26",
      "postcode": "4640-147",
      "city": "BAIÃO",
      "lon": "-8.03384148492289",
      "lat": "41.164784595757745"
    },
    {
      "id": "pt.ine.add.PTCONT.3618520",
      "street": "R CAMOES",
      "house": "502B",
      "postcode": "4640-147",
      "city": "BAIÃO",
      "lon": "-8.033447664772915",
      "lat": "41.16518945258156"
    },
    {
      "id": "pt.ine.add.PTCONT.3618664",
      "street": "R CAMOES",
      "house": "504",
      "postcode": "4640-147",
      "city": "BAIÃO",
      "lon": "-8.033447664772915",
      "lat": "41.16518945258156"
    },
    {
      "id": "pt.ine.add.PTCONT.3649350",
      "street": "R CAMOES",
      "house": "508C",
      "postcode": "4640-147",
      "city": "BAIÃO",
      "lon": "-8.033376104027013",
      "lat": "41.16523441251865"
    },
    {
      "id": "pt.ine.add.PTCONT.3655527",
      "street": "R CAMOES",
      "house": "506",
      "postcode": "4640-147",
      "city": "BAIÃO",
      "lon": "-8.033376104027013",
      "lat": "41.16523441251865"
    },
    {
      "id": "pt.ine.add.PTCONT.3666126",
      "street": "TV CAMÕES",
      "house": "18",
      "postcode": "4640-147",
      "city": "BAIÃO",
      "lon": "-8.033626858991674",
      "lat": "41.16488345872539"
    },
    {
      "id": "pt.ine.add.PTCONT.3685922",
      "street": "R CIDADE DO PORTO",
      "house": "10",
      "postcode": "4640-151",
      "city": "BAIÃO",
      "lon": "-8.03422418355658",
      "lat": "41.163848469784234"
    },
    {
      "id": "pt.ine.add.PTCONT.3688036",
      "street": "R CAMÕES",
      "house": "586",
      "postcode": "4640-147",
      "city": "BAIÃO",
      "lon": "-8.032123712934794",
      "lat": "41.16606172377266"
    },
    {
      "id": "pt.ine.add.PTCONT.3688037",
      "street": "R CAMÕES",
      "house": "586",
      "postcode": "4640-147",
      "city": "BAIÃO",
      "lon": "-8.032123712934794",
      "lat": "41.16606172377266"
    },
    {
      "id": "pt.ine.add.PTCONT.3688038",
      "street": "R CAMÕES",
      "house": "586",
      "postcode": "4640-147",
      "city": "BAIÃO",
      "lon": "-8.032123712934794",
      "lat": "41.16606172377266"
    },
    {
      "id": "pt.ine.add.PTCONT.3688039",
      "street": "R CAMÕES",
      "house": "586",
      "postcode": "4640-147",
      "city": "BAIÃO",
      "lon": "-8.032123712934794",
      "lat": "41.16606172377266"
    },
    {
      "id": "pt.ine.add.PTCONT.3688045",
      "street": "R EÇA DE QUEIRÓS",
      "house": "1",
      "postcode": "4640-152",
      "city": "BAIÃO",
      "lon": "-8.0335926386064",
      "lat": "41.16387493902221"
    },
    {
      "id": "pt.ine.add.PTCONT.3693480",
      "street": "R CAMÕES",
      "house": "586",
      "postcode": "4640-147",
      "city": "BAIÃO",
      "lon": "-8.032123712934794",
      "lat": "41.16606172377266"
    },
    {
      "id": "pt.ine.add.PTCONT.3746617",
      "street": "R CAMÕES",
      "house": "476",
      "postcode": "4640-147",
      "city": "BAIÃO",
      "lon": "-8.03410341913982",
      "lat": "41.16491988682701"
    },
    {
      "id": "pt.ine.add.PTCONT.3751229",
      "street": "R CAMÕES",
      "house": "553",
      "postcode": "4640-147",
      "city": "BAIÃO",
      "lon": "-8.033410458237611",
      "lat": "41.16615288842829"
    },
    {
      "id": "pt.ine.add.PTCONT.3759808",
      "street": "R FONTE ANTIGA",
      "house": "",
      "postcode": "4640-110",
      "city": "BAIÃO",
      "lon": "-8.031053965849477",
      "lat": "41.164349949714364"
    },
    {
      "id": "pt.ine.add.PTCONT.3777111",
      "street": "TV CAMÕES",
      "house": "24",
      "postcode": "4640-147",
      "city": "BAIÃO",
      "lon": "-8.033734192442331",
      "lat": "41.1648205207461"
    },
    {
      "id": "pt.ine.add.PTCONT.3793145",
      "street": "R CAMÕES",
      "house": "514",
      "postcode": "4640-147",
      "city": "BAIÃO",
      "lon": "-8.033328100868065",
      "lat": "41.165459480314524"
    },
    {
      "id": "pt.ine.add.PTCONT.3829277",
      "street": "R CAMÕES",
      "house": "604",
      "postcode": "4640-147",
      "city": "BAIÃO",
      "lon": "-8.031908526113888",
      "lat": "41.16652075794859"
    },
    {
      "id": "pt.ine.add.PTCONT.3844924",
      "street": "R CAMÕES",
      "house": "",
      "postcode": "4640-147",
      "city": "BAIÃO",
      "lon": "-8.032874243031026",
      "lat": "41.166161427436386"
    },
    {
      "id": "pt.ine.add.PTCONT.3856303",
      "street": "R CAMÕES",
      "house": "588",
      "postcode": "4640-147",
      "city": "BAIÃO",
      "lon": "-8.031944799328777",
      "lat": "41.166178623633044"
    },
    {
      "id": "pt.ine.add.PTCONT.3856304",
      "street": "R CAMÕES",
      "house": "588",
      "postcode": "4640-147",
      "city": "BAIÃO",
      "lon": "-8.031944799328777",
      "lat": "41.166178623633044"
    },
    {
      "id": "pt.ine.add.PTCONT.3856305",
      "street": "R CAMÕES",
      "house": "588",
      "postcode": "4640-147",
      "city": "BAIÃO",
      "lon": "-8.031944799328777",
      "lat": "41.166178623633044"
    },
    {
      "id": "pt.ine.add.PTCONT.3856307",
      "street": "TV CAMÕES",
      "house": "14",
      "postcode": "4640-147",
      "city": "BAIÃO",
      "lon": "-8.033531481598233",
      "lat": "41.16491939381419"
    },
    {
      "id": "pt.ine.add.PTCONT.3861423",
      "street": "R CAMÕES",
      "house": "588",
      "postcode": "4640-147",
      "city": "BAIÃO",
      "lon": "-8.031944799328777",
      "lat": "41.166178623633044"
    },
    {
      "id": "pt.ine.add.PTCONT.3862561",
      "street": "R CAMÕES",
      "house": "588",
      "postcode": "4640-147",
      "city": "BAIÃO",
      "lon": "-8.031944799328777",
      "lat": "41.166178623633044"
    },
    {
      "id": "pt.ine.add.PTCONT.3862878",
      "street": "R CAMÕES",
      "house": "588",
      "postcode": "4640-147",
      "city": "BAIÃO",
      "lon": "-8.031944799328777",
      "lat": "41.166178623633044"
    },
    {
      "id": "pt.ine.add.PTCONT.3896699",
      "street": "R CAMÕES",
      "house": "13",
      "postcode": "4640-147",
      "city": "BAIÃO",
      "lon": "-8.033531222612517",
      "lat": "41.165090476720906"
    },
    {
      "id": "pt.ine.add.PTCONT.3901834",
      "street": "R EÇA DE QUEIRÓS",
      "house": "",
      "postcode": "4640-152",
      "city": "BAIÃO",
      "lon": "-8.031888034152113",
      "lat": "41.16435068567404"
    },
    {
      "id": "pt.ine.add.PTCONT.3910963",
      "street": "R CAMÕES",
      "house": "",
      "postcode": "4640-147",
      "city": "BAIÃO",
      "lon": "-8.034414731736929",
      "lat": "41.163911663846065"
    },
    {
      "id": "pt.ine.add.PTCONT.3956644",
      "street": "R CAMÕES",
      "house": "590",
      "postcode": "4640-147",
      "city": "BAIÃO",
      "lon": "-8.031873097895755",
      "lat": "41.16631362623705"
    },
    {
      "id": "pt.ine.add.PTCONT.3956645",
      "street": "R CAMÕES",
      "house": "590",
      "postcode": "4640-147",
      "city": "BAIÃO",
      "lon": "-8.031873097895755",
      "lat": "41.16631362623705"
    },
    {
      "id": "pt.ine.add.PTCONT.3956646",
      "street": "R CAMÕES",
      "house": "590",
      "postcode": "4640-147",
      "city": "BAIÃO",
      "lon": "-8.031873097895755",
      "lat": "41.16631362623705"
    },
    {
      "id": "pt.ine.add.PTCONT.3956647",
      "street": "R CAMÕES",
      "house": "590",
      "postcode": "4640-147",
      "city": "BAIÃO",
      "lon": "-8.031873097895755",
      "lat": "41.16631362623705"
    },
    {
      "id": "pt.ine.add.PTCONT.3956648",
      "street": "R CAMÕES",
      "house": "590",
      "postcode": "4640-147",
      "city": "BAIÃO",
      "lon": "-8.031873097895755",
      "lat": "41.16631362623705"
    },
    {
      "id": "pt.ine.add.PTCONT.3956649",
      "street": "R CAMÕES",
      "house": "590",
      "postcode": "4640-147",
      "city": "BAIÃO",
      "lon": "-8.031873097895755",
      "lat": "41.16631362623705"
    },
    {
      "id": "pt.ine.add.PTCONT.3960240",
      "street": "R CAMÕES",
      "house": "494",
      "postcode": "4640-147",
      "city": "BAIÃO",
      "lon": "-8.033614575908786",
      "lat": "41.165126566249434"
    },
    {
      "id": "pt.ine.add.PTCONT.3998129",
      "street": "R EÇA DE QUEIRÓS",
      "house": "33",
      "postcode": "4640-152",
      "city": "BAIÃO",
      "lon": "-8.033247125839448",
      "lat": "41.16385663124333"
    },
    {
      "id": "pt.ine.add.PTCONT.4005902",
      "street": "R EÇA DE QUEIRÓS",
      "house": "",
      "postcode": "4640-152",
      "city": "BAIÃO",
      "lon": "-8.033173610248177",
      "lat": "41.16518921513917"
    },
    {
      "id": "pt.ine.add.PTCONT.4005903",
      "street": "R CAMÕES",
      "house": "",
      "postcode": "4640-147",
      "city": "BAIÃO",
      "lon": "-8.03394841079792",
      "lat": "41.16499178849275"
    },
    {
      "id": "pt.ine.add.PTCONT.4030719",
      "street": "R CAMÕES",
      "house": "",
      "postcode": "4640-147",
      "city": "BAIÃO",
      "lon": "-8.033125866473464",
      "lat": "41.16524319995669"
    },
    {
      "id": "pt.ine.add.PTCONT.4037353",
      "street": "R CAMÕES",
      "house": "32",
      "postcode": "4640-147",
      "city": "BAIÃO",
      "lon": "-8.0343898473657",
      "lat": "41.1646139838884"
    },
    {
      "id": "pt.ine.add.PTCONT.4052762",
      "street": "R FRIEIRA",
      "house": "40",
      "postcode": "4640-147",
      "city": "BAIÃO",
      "lon": "-8.031824464862527",
      "lat": "41.16694388957171"
    },
    {
      "id": "pt.ine.add.PTCONT.4052763",
      "street": "SIT FRIEIRA",
      "house": "40",
      "postcode": "4640-147",
      "city": "BAIÃO",
      "lon": "-8.031824464862527",
      "lat": "41.16694388957171"
    },
    {
      "id": "pt.ine.add.PTCONT.4052764",
      "street": "R FERVENCA",
      "house": "40",
      "postcode": "4640-147",
      "city": "BAIÃO",
      "lon": "-8.031824464862527",
      "lat": "41.16694388957171"
    },
    {
      "id": "pt.ine.add.PTCONT.4052765",
      "street": "LUGAR DA OVEIRA",
      "house": "40",
      "postcode": "4640-147",
      "city": "BAIÃO",
      "lon": "-8.031824464862527",
      "lat": "41.16694388957171"
    },
    {
      "id": "pt.ine.add.PTCONT.4052766",
      "street": "LUGAR DA OVEIRA",
      "house": "40",
      "postcode": "4640-147",
      "city": "BAIÃO",
      "lon": "-8.031824464862527",
      "lat": "41.16694388957171"
    },
    {
      "id": "pt.ine.add.PTCONT.4052767",
      "street": "R OVEIRA",
      "house": "40",
      "postcode": "4640-147",
      "city": "BAIÃO",
      "lon": "-8.031824464862527",
      "lat": "41.16694388957171"
    },
    {
      "id": "pt.ine.add.PTCONT.4052768",
      "street": "LUGAR DA OVEIRA",
      "house": "40",
      "postcode": "4640-147",
      "city": "BAIÃO",
      "lon": "-8.031824464862527",
      "lat": "41.16694388957171"
    },
    {
      "id": "pt.ine.add.PTCONT.4055463",
      "street": "R FERVENCA",
      "house": "40",
      "postcode": "4640-147",
      "city": "BAIÃO",
      "lon": "-8.031824464862527",
      "lat": "41.16694388957171"
    },
    {
      "id": "pt.ine.add.PTCONT.4056525",
      "street": "R FRIEIRA",
      "house": "40",
      "postcode": "4640-147",
      "city": "BAIÃO",
      "lon": "-8.031824464862527",
      "lat": "41.16694388957171"
    },
    {
      "id": "pt.ine.add.PTCONT.4090033",
      "street": "R CAMÕES",
      "house": "",
      "postcode": "4640-147",
      "city": "BAIÃO",
      "lon": "-8.034546136035404",
      "lat": "41.16368666692973"
    },
    {
      "id": "pt.ine.add.PTCONT.4116270",
      "street": "R CAMOES",
      "house": "496D",
      "postcode": "4640-147",
      "city": "BAIÃO",
      "lon": "-8.033543042603876",
      "lat": "41.16515351756437"
    },
    {
      "id": "pt.ine.add.PTCONT.4121300",
      "street": "R CAMOES",
      "house": "498A",
      "postcode": "4640-147",
      "city": "BAIÃO",
      "lon": "-8.033543042603876",
      "lat": "41.16515351756437"
    },
    {
      "id": "pt.ine.add.PTCONT.4128937",
      "street": "R ECA QUEIROS",
      "house": "75",
      "postcode": "4640-152",
      "city": "BAIÃO",
      "lon": "-8.031066118565759",
      "lat": "41.16419688608297"
    },
    {
      "id": "pt.ine.add.PTCONT.4134454",
      "street": "R EÇA DE QUEIRÓS",
      "house": "",
      "postcode": "4640-152",
      "city": "BAIÃO",
      "lon": "-8.031066118565759",
      "lat": "41.16419688608297"
    },
    {
      "id": "pt.ine.add.PTCONT.4140455",
      "street": "R CAMÕES",
      "house": "582",
      "postcode": "4640-147",
      "city": "BAIÃO",
      "lon": "-8.032505080092008",
      "lat": "41.166017035622964"
    },
    {
      "id": "pt.ine.add.PTCONT.4140456",
      "street": "R CAMÕES",
      "house": "582",
      "postcode": "4640-147",
      "city": "BAIÃO",
      "lon": "-8.032505080092008",
      "lat": "41.166017035622964"
    },
    {
      "id": "pt.ine.add.PTCONT.4140457",
      "street": "R CAMÕES",
      "house": "582",
      "postcode": "4640-147",
      "city": "BAIÃO",
      "lon": "-8.032505080092008",
      "lat": "41.166017035622964"
    },
    {
      "id": "pt.ine.add.PTCONT.4140458",
      "street": "R CAMÕES",
      "house": "582",
      "postcode": "4640-147",
      "city": "BAIÃO",
      "lon": "-8.032505080092008",
      "lat": "41.166017035622964"
    },
    {
      "id": "pt.ine.add.PTCONT.4140555",
      "street": "R CAMÕES",
      "house": "582",
      "postcode": "4640-147",
      "city": "BAIÃO",
      "lon": "-8.032505080092008",
      "lat": "41.166017035622964"
    },
    {
      "id": "pt.ine.add.PTCONT.4140556",
      "street": "R CAMÕES",
      "house": "582",
      "postcode": "4640-147",
      "city": "BAIÃO",
      "lon": "-8.032505080092008",
      "lat": "41.166017035622964"
    },
    {
      "id": "pt.ine.add.PTCONT.4142651",
      "street": "R CAMÕES",
      "house": "488",
      "postcode": "4640-147",
      "city": "BAIÃO",
      "lon": "-8.033781500322489",
      "lat": "41.165054675310856"
    },
    {
      "id": "pt.ine.add.PTCONT.4175054",
      "street": "R CAMÕES",
      "house": "584",
      "postcode": "4640-147",
      "city": "BAIÃO",
      "lon": "-8.032314389678906",
      "lat": "41.16604388203656"
    },
    {
      "id": "pt.ine.add.PTCONT.4175055",
      "street": "R CAMÕES",
      "house": "584",
      "postcode": "4640-147",
      "city": "BAIÃO",
      "lon": "-8.032314389678906",
      "lat": "41.16604388203656"
    },
    {
      "id": "pt.ine.add.PTCONT.4175056",
      "street": "R CAMÕES",
      "house": "584",
      "postcode": "4640-147",
      "city": "BAIÃO",
      "lon": "-8.032314389678906",
      "lat": "41.16604388203656"
    },
    {
      "id": "pt.ine.add.PTCONT.4175057",
      "street": "R CAMÕES",
      "house": "584",
      "postcode": "4640-147",
      "city": "BAIÃO",
      "lon": "-8.032314389678906",
      "lat": "41.16604388203656"
    },
    {
      "id": "pt.ine.add.PTCONT.4175058",
      "street": "R CAMÕES",
      "house": "584",
      "postcode": "4640-147",
      "city": "BAIÃO",
      "lon": "-8.032314389678906",
      "lat": "41.16604388203656"
    },
    {
      "id": "pt.ine.add.PTCONT.4175064",
      "street": "R CAMÕES",
      "house": "584",
      "postcode": "4640-147",
      "city": "BAIÃO",
      "lon": "-8.032314389678906",
      "lat": "41.16604388203656"
    },
    {
      "id": "pt.ine.add.PTCONT.4175065",
      "street": "TV CAMÕES",
      "house": "",
      "postcode": "4640-147",
      "city": "BAIÃO",
      "lon": "-8.033424175083455",
      "lat": "41.16496432287602"
    },
    {
      "id": "pt.ine.add.PTCONT.4266609",
      "street": "R CAMOES",
      "house": "490",
      "postcode": "4640-147",
      "city": "BAIÃO",
      "lon": "-8.03368612276483",
      "lat": "41.16509061052644"
    },
    {
      "id": "pt.ine.add.PTCONT.4277282",
      "street": "R CAMÕES",
      "house": "554",
      "postcode": "4640-147",
      "city": "BAIÃO",
      "lon": "-8.03326743017112",
      "lat": "41.16617977766297"
    },
    {
      "id": "pt.ine.add.PTCONT.4313772",
      "street": "R CAMÕES",
      "house": "480",
      "postcode": "4640-147",
      "city": "BAIÃO",
      "lon": "-8.034031859134943",
      "lat": "41.16496484717444"
    },
    {
      "id": "pt.ine.add.PTCONT.4327381",
      "street": "R EÇA DE QUEIRÓS",
      "house": "1",
      "postcode": "4640-152",
      "city": "BAIÃO",
      "lon": "-8.033723610316423",
      "lat": "41.16393808274024"
    },
    {
      "id": "pt.ine.add.PTCONT.4354093",
      "street": "R EÇA DE QUEIRÓS",
      "house": "",
      "postcode": "4640-152",
      "city": "BAIÃO",
      "lon": "-8.0333662775667",
      "lat": "41.163856734480525"
    },
    {
      "id": "pt.ine.add.PTCONT.4388449",
      "street": "R CAMÕES",
      "house": "468",
      "postcode": "4640-147",
      "city": "BAIÃO",
      "lon": "-8.034222789373997",
      "lat": "41.16477591935741"
    },
    {
      "id": "pt.ine.add.PTCONT.4390167",
      "street": "R CAMÕES",
      "house": "586",
      "postcode": "4640-147",
      "city": "BAIÃO",
      "lon": "-8.032123712934794",
      "lat": "41.16606172377266"
    }
  ]
}