{
  "data": {
    "distrito": "Porto",
    "concelho": "Baião",
    "freguesia": "União das freguesias de Campelo e Ovil",
    "OBJECTID": 113,
    "BGRI2021": "13022300211",
    "DT21": "13",
    "DTMN21": "1302",
    "DTMNFR21": "130223",
    "DTMNFRSEC21": "130223002",
    "SECNUM21": "002",
    "SSNUM21": "11",
    "SECSSNUM21": "00211",
    "OBJECTID_1": 126794,
    "DT": "13",
    "CC": "02",
    "fr": "23",
    "SEC": "002",
    "SS": "11"
  },
  "addresses": [
    {
      "id": "pt.ine.add.PTCONT.3558261",
      "street": "R PENAVENTOSA",
      "house": "44",
      "postcode": "4640-177",
      "city": "BAIÃO",
      "lon": "-8.038620610670124",
      "lat": "41.16404125200089"
    },
    {
      "id": "pt.ine.add.PTCONT.3559440",
      "street": "R GRANDAL",
      "house": "23",
      "postcode": "4640-154",
      "city": "BAIÃO",
      "lon": "-8.035117083710949",
      "lat": "41.16434447357372"
    },
    {
      "id": "pt.ine.add.PTCONT.3559806",
      "street": "ESC PENAVENTOSA",
      "house": "23",
      "postcode": "4640-177",
      "city": "BAIÃO",
      "lon": "-8.037948734757517",
      "lat": "41.16723725183419"
    },
    {
      "id": "pt.ine.add.PTCONT.3564917",
      "street": "R DR FRANCISCO SÁ CARNEIRO",
      "house": "10",
      "postcode": "4640-154",
      "city": "BAIÃO",
      "lon": "-8.035081700218813",
      "lat": "41.1641013252992"
    },
    {
      "id": "pt.ine.add.PTCONT.3581735",
      "street": "R PAPAINHA",
      "house": "7",
      "postcode": "4640-166",
      "city": "BAIÃO",
      "lon": "-8.034484548838225",
      "lat": "41.16502826629038"
    },
    {
      "id": "pt.ine.add.PTCONT.3581736",
      "street": "BLOCO DA FONTE NOVA",
      "house": "13",
      "postcode": "4640-124",
      "city": "BAIÃO",
      "lon": "-8.035178107756023",
      "lat": "41.16337205273916"
    },
    {
      "id": "pt.ine.add.PTCONT.3583924",
      "street": "R GRANDAL",
      "house": "1",
      "postcode": "4640-154",
      "city": "BAIÃO",
      "lon": "-8.035760880961433",
      "lat": "41.16409289692034"
    },
    {
      "id": "pt.ine.add.PTCONT.3604624",
      "street": "R SOUTO",
      "house": "",
      "postcode": "4640-382",
      "city": "OVIL",
      "lon": "-8.026267603994016",
      "lat": "41.17681665687168"
    },
    {
      "id": "pt.ine.add.PTCONT.3604625",
      "street": "CC ESTRUMADOURO",
      "house": "26",
      "postcode": "4640-384",
      "city": "OVIL",
      "lon": "-8.026242188394782",
      "lat": "41.17778910371253"
    },
    {
      "id": "pt.ine.add.PTCONT.3604626",
      "street": "CC ESTRUMADOURO",
      "house": "",
      "postcode": "4640-384",
      "city": "OVIL",
      "lon": "-8.026385171498617",
      "lat": "41.17780724499698"
    },
    {
      "id": "pt.ine.add.PTCONT.3604632",
      "street": "CAM CIMO DE VILA DE ERVINS",
      "house": "",
      "postcode": "4640-384",
      "city": "OVIL",
      "lon": "-8.025732050901825",
      "lat": "41.176365941006026"
    },
    {
      "id": "pt.ine.add.PTCONT.3604635",
      "street": "R PAPAINHA",
      "house": "21",
      "postcode": "4640-166",
      "city": "BAIÃO",
      "lon": "-8.034960882119002",
      "lat": "41.165217765026945"
    },
    {
      "id": "pt.ine.add.PTCONT.3604636",
      "street": "R PAPAINHA",
      "house": "21C",
      "postcode": "4640-166",
      "city": "BAIÃO",
      "lon": "-8.034960882119002",
      "lat": "41.165217765026945"
    },
    {
      "id": "pt.ine.add.PTCONT.3604658",
      "street": "R CAMÕES",
      "house": "5",
      "postcode": "4640-147",
      "city": "BAIÃO",
      "lon": "-8.034714106294059",
      "lat": "41.162912434025785"
    },
    {
      "id": "pt.ine.add.PTCONT.3614358",
      "street": "BLOCO DA FONTE NOVA",
      "house": "8",
      "postcode": "4640-124",
      "city": "BAIÃO",
      "lon": "-8.035308959510248",
      "lat": "41.16351623395811"
    },
    {
      "id": "pt.ine.add.PTCONT.3614498",
      "street": "R CARVALHA",
      "house": "",
      "postcode": "4640-376",
      "city": "OVIL",
      "lon": "-8.02220013095715",
      "lat": "41.17894684411886"
    },
    {
      "id": "pt.ine.add.PTCONT.3614499",
      "street": "CAM CIMO DE VILA DE ERVINS",
      "house": "",
      "postcode": "4640-384",
      "city": "OVIL",
      "lon": "-8.026197855757607",
      "lat": "41.17573606927121"
    },
    {
      "id": "pt.ine.add.PTCONT.3617515",
      "street": "R RAMALHAL",
      "house": "",
      "postcode": "4640-384",
      "city": "OVIL",
      "lon": "-8.025432905871227",
      "lat": "41.17710401898071"
    },
    {
      "id": "pt.ine.add.PTCONT.3617516",
      "street": "CAM CIMO DE VILA DE ERVINS",
      "house": "",
      "postcode": "4640-384",
      "city": "OVIL",
      "lon": "-8.02597045831784",
      "lat": "41.17633014558524"
    },
    {
      "id": "pt.ine.add.PTCONT.3622323",
      "street": "R GRANDAL",
      "house": "29",
      "postcode": "4640-154",
      "city": "BAIÃO",
      "lon": "-8.034938233844187",
      "lat": "41.164425360670684"
    },
    {
      "id": "pt.ine.add.PTCONT.3623817",
      "street": "BLOCO DA FONTE NOVA",
      "house": "11",
      "postcode": "4640-124",
      "city": "BAIÃO",
      "lon": "-8.035451726975685",
      "lat": "41.16366042512784"
    },
    {
      "id": "pt.ine.add.PTCONT.3630344",
      "street": "R PENAVENTOSA",
      "house": "",
      "postcode": "4640-177",
      "city": "BAIÃO",
      "lon": "-8.03826250529118",
      "lat": "41.16449117652092"
    },
    {
      "id": "pt.ine.add.PTCONT.3636851",
      "street": "R SOUTO DE ERVINS",
      "house": "",
      "postcode": "4640-384",
      "city": "OVIL",
      "lon": "-8.027219729396093",
      "lat": "41.17760991944821"
    },
    {
      "id": "pt.ine.add.PTCONT.3643200",
      "street": "CAM CIMO DE VILA DE ERVINS",
      "house": "",
      "postcode": "4640-384",
      "city": "OVIL",
      "lon": "-8.025803820020851",
      "lat": "41.17620392945868"
    },
    {
      "id": "pt.ine.add.PTCONT.3643205",
      "street": "R PENAVENTOSA",
      "house": "",
      "postcode": "4640-177",
      "city": "BAIÃO",
      "lon": "-8.038131476110724",
      "lat": "41.16446405542643"
    },
    {
      "id": "pt.ine.add.PTCONT.3643206",
      "street": "R PENAVENTOSA",
      "house": "",
      "postcode": "4640-177",
      "city": "BAIÃO",
      "lon": "-8.038131476110724",
      "lat": "41.16446405542643"
    },
    {
      "id": "pt.ine.add.PTCONT.3649357",
      "street": "BLOCO DA FONTE NOVA",
      "house": "1",
      "postcode": "4640-124",
      "city": "BAIÃO",
      "lon": "-8.034928267245846",
      "lat": "41.16311971747036"
    },
    {
      "id": "pt.ine.add.PTCONT.3661926",
      "street": "R PAPAINHA",
      "house": "15",
      "postcode": "4640-166",
      "city": "BAIÃO",
      "lon": "-8.033816852329862",
      "lat": "41.1653158326658"
    },
    {
      "id": "pt.ine.add.PTCONT.3661927",
      "street": "R GRANDAL",
      "house": "7",
      "postcode": "4640-154",
      "city": "BAIÃO",
      "lon": "-8.03559394779995",
      "lat": "41.164173795109924"
    },
    {
      "id": "pt.ine.add.PTCONT.3680107",
      "street": "R CARVALHA",
      "house": "19",
      "postcode": "4640-376",
      "city": "OVIL",
      "lon": "-8.022271790169533",
      "lat": "41.17885686956826"
    },
    {
      "id": "pt.ine.add.PTCONT.3693490",
      "street": "R GRANDAL",
      "house": "19",
      "postcode": "4640-154",
      "city": "BAIÃO",
      "lon": "-8.035212486207296",
      "lat": "41.16429052843636"
    },
    {
      "id": "pt.ine.add.PTCONT.3701469",
      "street": "R OVEIRA",
      "house": "",
      "postcode": "4640-166",
      "city": "BAIÃO",
      "lon": "-8.032405151093483",
      "lat": "41.16902440831877"
    },
    {
      "id": "pt.ine.add.PTCONT.3702317",
      "street": "R CARVALHA",
      "house": "68",
      "postcode": "4640-376",
      "city": "OVIL",
      "lon": "-8.022855706219291",
      "lat": "41.17889344740376"
    },
    {
      "id": "pt.ine.add.PTCONT.3706844",
      "street": "R GRANDAL",
      "house": "6",
      "postcode": "4640-154",
      "city": "BAIÃO",
      "lon": "-8.034962467435316",
      "lat": "41.16415525002766"
    },
    {
      "id": "pt.ine.add.PTCONT.3706845",
      "street": "R GRANDAL",
      "house": "13",
      "postcode": "4640-154",
      "city": "BAIÃO",
      "lon": "-8.035427027599132",
      "lat": "41.16424568869076"
    },
    {
      "id": "pt.ine.add.PTCONT.3714549",
      "street": "R CARVALHA",
      "house": "",
      "postcode": "4640-376",
      "city": "OVIL",
      "lon": "-8.022391014524649",
      "lat": "41.17882997117681"
    },
    {
      "id": "pt.ine.add.PTCONT.3734334",
      "street": "BLOCO DA FONTE NOVA",
      "house": "9",
      "postcode": "4640-124",
      "city": "BAIÃO",
      "lon": "-8.03535656643628",
      "lat": "41.16355229187963"
    },
    {
      "id": "pt.ine.add.PTCONT.3739530",
      "street": "R ANTÓNIO FERREIRA CABRAL PAIS DO AMARAL",
      "house": "",
      "postcode": "4640-144",
      "city": "BAIÃO",
      "lon": "-8.035107636721035",
      "lat": "41.16268766004184"
    },
    {
      "id": "pt.ine.add.PTCONT.3741689",
      "street": "R PAPAINHA",
      "house": "",
      "postcode": "4640-166",
      "city": "BAIÃO",
      "lon": "-8.0337453189016",
      "lat": "41.16534278410533"
    },
    {
      "id": "pt.ine.add.PTCONT.3743267",
      "street": "CAM CIMO DE VILA DE ERVINS",
      "house": "",
      "postcode": "4640-384",
      "city": "OVIL",
      "lon": "-8.026900745088348",
      "lat": "41.17588078927879"
    },
    {
      "id": "pt.ine.add.PTCONT.3764863",
      "street": "R GRANDAL",
      "house": "5",
      "postcode": "4640-154",
      "city": "BAIÃO",
      "lon": "-8.035653577314658",
      "lat": "41.16413782806874"
    },
    {
      "id": "pt.ine.add.PTCONT.3776980",
      "street": "TV PENAVENTOSA",
      "house": "",
      "postcode": "4640-177",
      "city": "BAIÃO",
      "lon": "-8.037697392994762",
      "lat": "41.16800241547918"
    },
    {
      "id": "pt.ine.add.PTCONT.3776981",
      "street": "R PENAVENTOSA",
      "house": "",
      "postcode": "4640-177",
      "city": "BAIÃO",
      "lon": "-8.038000368925639",
      "lat": "41.16449096037621"
    },
    {
      "id": "pt.ine.add.PTCONT.3789821",
      "street": "R AGUA LEVADA",
      "house": "77",
      "postcode": "4640-376",
      "city": "OVIL",
      "lon": "-8.023676901852596",
      "lat": "41.17957856134825"
    },
    {
      "id": "pt.ine.add.PTCONT.3793144",
      "street": "R PAPAINHA",
      "house": "60",
      "postcode": "4640-166",
      "city": "BAIÃO",
      "lon": "-8.033697398575988",
      "lat": "41.16551382587586"
    },
    {
      "id": "pt.ine.add.PTCONT.3805572",
      "street": "R PAPAINHA",
      "house": "21P",
      "postcode": "4640-166",
      "city": "BAIÃO",
      "lon": "-8.034853764389544",
      "lat": "41.165136634328725"
    },
    {
      "id": "pt.ine.add.PTCONT.3810538",
      "street": "R GRANDAL",
      "house": "15",
      "postcode": "4640-154",
      "city": "BAIÃO",
      "lon": "-8.035367411242044",
      "lat": "41.16427265124857"
    },
    {
      "id": "pt.ine.add.PTCONT.3810539",
      "street": "R GRANDAL",
      "house": "18",
      "postcode": "4640-154",
      "city": "BAIÃO",
      "lon": "-8.035308223227348",
      "lat": "41.16401147408489"
    },
    {
      "id": "pt.ine.add.PTCONT.3815103",
      "street": "CAM CIMO DE VILA DE ERVINS",
      "house": "",
      "postcode": "4640-384",
      "city": "OVIL",
      "lon": "-8.02586312801625",
      "lat": "41.17637506748499"
    },
    {
      "id": "pt.ine.add.PTCONT.3815956",
      "street": "TV PENAVENTOSA",
      "house": "24",
      "postcode": "4640-177",
      "city": "BAIÃO",
      "lon": "-8.03784144050958",
      "lat": "41.16727318063107"
    },
    {
      "id": "pt.ine.add.PTCONT.3824307",
      "street": "TV EIRA",
      "house": "",
      "postcode": "4640-376",
      "city": "OVIL",
      "lon": "-8.023248650652056",
      "lat": "41.17910092299032"
    },
    {
      "id": "pt.ine.add.PTCONT.3824315",
      "street": "CAM QUINTEIRO DE ERVINS",
      "house": "",
      "postcode": "4640-384",
      "city": "OVIL",
      "lon": "-8.027101133468834",
      "lat": "41.17724963613482"
    },
    {
      "id": "pt.ine.add.PTCONT.3824316",
      "street": "CC ESTRUMADOURO",
      "house": "3",
      "postcode": "4640-384",
      "city": "OVIL",
      "lon": "-8.026516382957018",
      "lat": "41.177735331660585"
    },
    {
      "id": "pt.ine.add.PTCONT.3824360",
      "street": "R OUTEIROS CHAVAES",
      "house": "9",
      "postcode": "4640-376",
      "city": "OVIL",
      "lon": "-8.022092763403597",
      "lat": "41.17900977115258"
    },
    {
      "id": "pt.ine.add.PTCONT.3840964",
      "street": "R SOUTO DE ERVINS",
      "house": "263",
      "postcode": "4640-384",
      "city": "OVIL",
      "lon": "-8.027231777554693",
      "lat": "41.177528891325714"
    },
    {
      "id": "pt.ine.add.PTCONT.3843751",
      "street": "R CARVALHA",
      "house": "",
      "postcode": "4640-376",
      "city": "OVIL",
      "lon": "-8.022820088478973",
      "lat": "41.178812374125364"
    },
    {
      "id": "pt.ine.add.PTCONT.3844923",
      "street": "R CAMÕES",
      "house": "363",
      "postcode": "4640-147",
      "city": "BAIÃO",
      "lon": "-8.034822283027005",
      "lat": "41.16228221984257"
    },
    {
      "id": "pt.ine.add.PTCONT.3848885",
      "street": "R GRANDAL",
      "house": "16",
      "postcode": "4640-154",
      "city": "BAIÃO",
      "lon": "-8.035200986414257",
      "lat": "41.16401138298462"
    },
    {
      "id": "pt.ine.add.PTCONT.3861775",
      "street": "R GRANDAL",
      "house": "17",
      "postcode": "4640-154",
      "city": "BAIÃO",
      "lon": "-8.035272089251752",
      "lat": "41.16427257032404"
    },
    {
      "id": "pt.ine.add.PTCONT.3863230",
      "street": "R SOUTO DE ERVINS",
      "house": "",
      "postcode": "4640-384",
      "city": "OVIL",
      "lon": "-8.026969298595125",
      "lat": "41.177708736852885"
    },
    {
      "id": "pt.ine.add.PTCONT.3863231",
      "street": "R RAMALHAL",
      "house": "29",
      "postcode": "4640-384",
      "city": "OVIL",
      "lon": "-8.025277874092643",
      "lat": "41.17716690443686"
    },
    {
      "id": "pt.ine.add.PTCONT.3868053",
      "street": "R GRANDAL",
      "house": "27",
      "postcode": "4640-154",
      "city": "BAIÃO",
      "lon": "-8.034997863945067",
      "lat": "41.16438939397119"
    },
    {
      "id": "pt.ine.add.PTCONT.3869423",
      "street": "R GRANDAL",
      "house": "23",
      "postcode": "4640-154",
      "city": "BAIÃO",
      "lon": "-8.03549932072346",
      "lat": "41.163705487355756"
    },
    {
      "id": "pt.ine.add.PTCONT.3870099",
      "street": "R CARVALHA",
      "house": "",
      "postcode": "4640-376",
      "city": "OVIL",
      "lon": "-8.022653026396046",
      "lat": "41.17893827497918"
    },
    {
      "id": "pt.ine.add.PTCONT.3876019",
      "street": "R CENTRAL DE OVIL",
      "house": "",
      "postcode": "4640-380",
      "city": "OVIL",
      "lon": "-8.022176553425355",
      "lat": "41.17879374741018"
    },
    {
      "id": "pt.ine.add.PTCONT.3876021",
      "street": "CAM ESTRUMADOURO",
      "house": "",
      "postcode": "4640-384",
      "city": "OVIL",
      "lon": "-8.02748128149082",
      "lat": "41.17800635122531"
    },
    {
      "id": "pt.ine.add.PTCONT.3888362",
      "street": "R DA FONTE NOVA",
      "house": "17",
      "postcode": "4640-154",
      "city": "BAIÃO",
      "lon": "-8.035261366029694",
      "lat": "41.16347117165037"
    },
    {
      "id": "pt.ine.add.PTCONT.3888788",
      "street": "R PENAVENTOSA",
      "house": "",
      "postcode": "4640-177",
      "city": "BAIÃO",
      "lon": "-8.03836980773741",
      "lat": "41.16444624294358"
    },
    {
      "id": "pt.ine.add.PTCONT.3893987",
      "street": "R GRANDAL",
      "house": "31",
      "postcode": "4640-154",
      "city": "BAIÃO",
      "lon": "-8.034878630570404",
      "lat": "41.16444331860949"
    },
    {
      "id": "pt.ine.add.PTCONT.3906710",
      "street": "R AGUA LEVADA",
      "house": "49",
      "postcode": "4640-376",
      "city": "OVIL",
      "lon": "-8.023355025182255",
      "lat": "41.17963228119395"
    },
    {
      "id": "pt.ine.add.PTCONT.3913680",
      "street": "R GRANDAL",
      "house": "11",
      "postcode": "4640-154",
      "city": "BAIÃO",
      "lon": "-8.035474728668303",
      "lat": "41.164218716002985"
    },
    {
      "id": "pt.ine.add.PTCONT.3924550",
      "street": "R SOUTO",
      "house": "",
      "postcode": "4640-382",
      "city": "OVIL",
      "lon": "-8.026719027311028",
      "lat": "41.177708505953035"
    },
    {
      "id": "pt.ine.add.PTCONT.3924551",
      "street": "CAM QUINTEIRO DE ERVINS",
      "house": "",
      "postcode": "4640-384",
      "city": "OVIL",
      "lon": "-8.027255989751245",
      "lat": "41.17729480033416"
    },
    {
      "id": "pt.ine.add.PTCONT.3924552",
      "street": "R CENTRAL DE OVIL",
      "house": "",
      "postcode": "4640-380",
      "city": "OVIL",
      "lon": "-8.024490733618569",
      "lat": "41.17751733469901"
    },
    {
      "id": "pt.ine.add.PTCONT.3926931",
      "street": "R GRANDAL",
      "house": "25",
      "postcode": "4640-154",
      "city": "BAIÃO",
      "lon": "-8.035045551870937",
      "lat": "41.16437142582708"
    },
    {
      "id": "pt.ine.add.PTCONT.3928093",
      "street": "R CAMOES",
      "house": "823",
      "postcode": "4640-147",
      "city": "BAIÃO",
      "lon": "-8.02971048278142",
      "lat": "41.17005752322276"
    },
    {
      "id": "pt.ine.add.PTCONT.3928094",
      "street": "R CAMOES",
      "house": "823 B",
      "postcode": "4640-147",
      "city": "BAIÃO",
      "lon": "-8.02971048278142",
      "lat": "41.17005752322276"
    },
    {
      "id": "pt.ine.add.PTCONT.3928095",
      "street": "R CAMOES",
      "house": "823 B",
      "postcode": "4640-147",
      "city": "BAIÃO",
      "lon": "-8.02971048278142",
      "lat": "41.17005752322276"
    },
    {
      "id": "pt.ine.add.PTCONT.3928096",
      "street": "R CAMOES",
      "house": "823 B",
      "postcode": "4640-147",
      "city": "BAIÃO",
      "lon": "-8.02971048278142",
      "lat": "41.17005752322276"
    },
    {
      "id": "pt.ine.add.PTCONT.3928149",
      "street": "R OVEIRA",
      "house": "",
      "postcode": "4640-147",
      "city": "BAIÃO",
      "lon": "-8.032548075559685",
      "lat": "41.16906955503101"
    },
    {
      "id": "pt.ine.add.PTCONT.3928150",
      "street": "R PAPAINHA",
      "house": "10",
      "postcode": "4640-166",
      "city": "BAIÃO",
      "lon": "-8.034234149796434",
      "lat": "41.165145108500695"
    },
    {
      "id": "pt.ine.add.PTCONT.3928151",
      "street": "R PENAVENTOSA",
      "house": "",
      "postcode": "4640-177",
      "city": "BAIÃO",
      "lon": "-8.038727937975917",
      "lat": "41.16397830935241"
    },
    {
      "id": "pt.ine.add.PTCONT.3929063",
      "street": "R CENTRAL DE OVIL",
      "house": "",
      "postcode": "4640-380",
      "city": "OVIL",
      "lon": "-8.02210493975887",
      "lat": "41.17885670888706"
    },
    {
      "id": "pt.ine.add.PTCONT.3929064",
      "street": "R CARVALHA",
      "house": "",
      "postcode": "4640-376",
      "city": "OVIL",
      "lon": "-8.023046859787854",
      "lat": "41.178614495270196"
    },
    {
      "id": "pt.ine.add.PTCONT.3929158",
      "street": "LAD RAMALHAL",
      "house": "52",
      "postcode": "4640-384",
      "city": "OVIL",
      "lon": "-8.025432168579231",
      "lat": "41.17755423607444"
    },
    {
      "id": "pt.ine.add.PTCONT.3934320",
      "street": "R ANTONIO FERREIRA CABRAL PAIS AMARAL",
      "house": "106",
      "postcode": "4640-144",
      "city": "BAIÃO",
      "lon": "-8.036107272013055",
      "lat": "41.16351690899933"
    },
    {
      "id": "pt.ine.add.PTCONT.3956589",
      "street": "R OVEIRA",
      "house": "",
      "postcode": "4640-147",
      "city": "BAIÃO",
      "lon": "-8.032129877846643",
      "lat": "41.16980754736781"
    },
    {
      "id": "pt.ine.add.PTCONT.3958349",
      "street": "TV PENAVENTOSA",
      "house": "140",
      "postcode": "4640-177",
      "city": "BAIÃO",
      "lon": "-8.037840149335315",
      "lat": "41.168164612311635"
    },
    {
      "id": "pt.ine.add.PTCONT.3966222",
      "street": "CAM CIMO DE VILA DE ERVINS",
      "house": "67",
      "postcode": "4640-384",
      "city": "OVIL",
      "lon": "-8.026054759930128",
      "lat": "41.175789962509434"
    },
    {
      "id": "pt.ine.add.PTCONT.3966227",
      "street": "TV PENAVENTOSA",
      "house": "61",
      "postcode": "4640-177",
      "city": "BAIÃO",
      "lon": "-8.03768620861942",
      "lat": "41.16749816143031"
    },
    {
      "id": "pt.ine.add.PTCONT.3980231",
      "street": "R CAMOES",
      "house": "827",
      "postcode": "4640-147",
      "city": "BAIÃO",
      "lon": "-8.02961486903402",
      "lat": "41.17023752469412"
    },
    {
      "id": "pt.ine.add.PTCONT.3980232",
      "street": "R CAMOES",
      "house": "827",
      "postcode": "4640-147",
      "city": "BAIÃO",
      "lon": "-8.02961486903402",
      "lat": "41.17023752469412"
    },
    {
      "id": "pt.ine.add.PTCONT.3980233",
      "street": "R CAMOES",
      "house": "93",
      "postcode": "4640-147",
      "city": "BAIÃO",
      "lon": "-8.02961486903402",
      "lat": "41.17023752469412"
    },
    {
      "id": "pt.ine.add.PTCONT.3980234",
      "street": "R CAMOES",
      "house": "827C",
      "postcode": "4640-147",
      "city": "BAIÃO",
      "lon": "-8.02961486903402",
      "lat": "41.17023752469412"
    },
    {
      "id": "pt.ine.add.PTCONT.3980235",
      "street": "R CAMOES",
      "house": "827 C",
      "postcode": "4640-147",
      "city": "BAIÃO",
      "lon": "-8.02961486903402",
      "lat": "41.17023752469412"
    },
    {
      "id": "pt.ine.add.PTCONT.3980236",
      "street": "R PAPAINHA",
      "house": "2",
      "postcode": "4640-166",
      "city": "BAIÃO",
      "lon": "-8.034747158570639",
      "lat": "41.16471333769677"
    },
    {
      "id": "pt.ine.add.PTCONT.3980237",
      "street": "BLOCO DA FONTE NOVA",
      "house": "2",
      "postcode": "4640-124",
      "city": "BAIÃO",
      "lon": "-8.035023413030416",
      "lat": "41.16323685544574"
    },
    {
      "id": "pt.ine.add.PTCONT.3983707",
      "street": "R CAMOES",
      "house": "827C",
      "postcode": "4640-147",
      "city": "BAIÃO",
      "lon": "-8.02961486903402",
      "lat": "41.17023752469412"
    },
    {
      "id": "pt.ine.add.PTCONT.3986478",
      "street": "CAM CIMO DE VILA DE ERVINS",
      "house": "",
      "postcode": "4640-384",
      "city": "OVIL",
      "lon": "-8.025672243031886",
      "lat": "41.17650095059083"
    },
    {
      "id": "pt.ine.add.PTCONT.3987576",
      "street": "R PAPAINHA",
      "house": "8",
      "postcode": "4640-166",
      "city": "BAIÃO",
      "lon": "-8.03440108709366",
      "lat": "41.165064212300116"
    },
    {
      "id": "pt.ine.add.PTCONT.3989973",
      "street": "R CENTRAL DE OVIL",
      "house": "",
      "postcode": "4640-380",
      "city": "OVIL",
      "lon": "-8.022045335116296",
      "lat": "41.178865655780776"
    },
    {
      "id": "pt.ine.add.PTCONT.3991782",
      "street": "R CAMOES",
      "house": "355",
      "postcode": "4640-147",
      "city": "BAIÃO",
      "lon": "-8.035036885248184",
      "lat": "41.162192358959544"
    },
    {
      "id": "pt.ine.add.PTCONT.3991783",
      "street": "R CAMOES",
      "house": "355",
      "postcode": "4640-147",
      "city": "BAIÃO",
      "lon": "-8.035036885248184",
      "lat": "41.162192358959544"
    },
    {
      "id": "pt.ine.add.PTCONT.3997721",
      "street": "R CAMOES",
      "house": "355",
      "postcode": "4640-147",
      "city": "BAIÃO",
      "lon": "-8.035036885248184",
      "lat": "41.162192358959544"
    },
    {
      "id": "pt.ine.add.PTCONT.4020564",
      "street": "R PENAVENTOSA",
      "house": "180",
      "postcode": "4640-177",
      "city": "BAIÃO",
      "lon": "-8.037365123354691",
      "lat": "41.16705668076521"
    },
    {
      "id": "pt.ine.add.PTCONT.4022119",
      "street": "TV PENAVENTOSA",
      "house": "",
      "postcode": "4640-177",
      "city": "BAIÃO",
      "lon": "-8.037625139273779",
      "lat": "41.168524609085864"
    },
    {
      "id": "pt.ine.add.PTCONT.4029007",
      "street": "R PAPAINHA",
      "house": "30",
      "postcode": "4640-166",
      "city": "BAIÃO",
      "lon": "-8.034735135514897",
      "lat": "41.164785362435204"
    },
    {
      "id": "pt.ine.add.PTCONT.4030698",
      "street": "R CENTRAL DE OVIL",
      "house": "",
      "postcode": "4640-380",
      "city": "OVIL",
      "lon": "-8.024312460626684",
      "lat": "41.17722002271099"
    },
    {
      "id": "pt.ine.add.PTCONT.4030704",
      "street": "R PENAVENTOSA",
      "house": "60",
      "postcode": "4640-177",
      "city": "BAIÃO",
      "lon": "-8.038525030069215",
      "lat": "41.164221261093196"
    },
    {
      "id": "pt.ine.add.PTCONT.4035925",
      "street": "R EIRA",
      "house": "83",
      "postcode": "4640-376",
      "city": "OVIL",
      "lon": "-8.023391290167627",
      "lat": "41.179326167770135"
    },
    {
      "id": "pt.ine.add.PTCONT.4037319",
      "street": "R OVEIRA",
      "house": "",
      "postcode": "4640-147",
      "city": "BAIÃO",
      "lon": "-8.032046906856815",
      "lat": "41.169519334825374"
    },
    {
      "id": "pt.ine.add.PTCONT.4043630",
      "street": "R GRANDAL",
      "house": "24",
      "postcode": "4640-154",
      "city": "BAIÃO",
      "lon": "-8.03549895997892",
      "lat": "41.163948605234864"
    },
    {
      "id": "pt.ine.add.PTCONT.4043978",
      "street": "CAM BUGA",
      "house": "",
      "postcode": "4640-177",
      "city": "BAIÃO",
      "lon": "-8.037149943552215",
      "lat": "41.16753373341127"
    },
    {
      "id": "pt.ine.add.PTCONT.4050042",
      "street": "R GRANDAL",
      "house": "21",
      "postcode": "4640-154",
      "city": "BAIÃO",
      "lon": "-8.035164784978676",
      "lat": "41.16431750101498"
    },
    {
      "id": "pt.ine.add.PTCONT.4051835",
      "street": "R CARVALHA",
      "house": "",
      "postcode": "4640-376",
      "city": "OVIL",
      "lon": "-8.022307270685006",
      "lat": "41.179018982059915"
    },
    {
      "id": "pt.ine.add.PTCONT.4057019",
      "street": "BLOCO DA FONTE NOVA",
      "house": "10",
      "postcode": "4640-124",
      "city": "BAIÃO",
      "lon": "-8.035404146666897",
      "lat": "41.163606358513775"
    },
    {
      "id": "pt.ine.add.PTCONT.4062389",
      "street": "R RAMALHAL",
      "house": "73",
      "postcode": "4640-384",
      "city": "OVIL",
      "lon": "-8.02496783926569",
      "lat": "41.17727466603641"
    },
    {
      "id": "pt.ine.add.PTCONT.4063965",
      "street": "R CAMÕES",
      "house": "347",
      "postcode": "4640-147",
      "city": "BAIÃO",
      "lon": "-8.035239478258397",
      "lat": "41.16216551813118"
    },
    {
      "id": "pt.ine.add.PTCONT.4063966",
      "street": "R CAMÕES",
      "house": "347",
      "postcode": "4640-147",
      "city": "BAIÃO",
      "lon": "-8.035239478258397",
      "lat": "41.16216551813118"
    },
    {
      "id": "pt.ine.add.PTCONT.4076752",
      "street": "R PENAVENTOSA",
      "house": "172",
      "postcode": "4640-177",
      "city": "BAIÃO",
      "lon": "-8.038441416051286",
      "lat": "41.16436526243008"
    },
    {
      "id": "pt.ine.add.PTCONT.4076771",
      "street": "R PAPAINHA",
      "house": "5",
      "postcode": "4640-166",
      "city": "BAIÃO",
      "lon": "-8.034663400902192",
      "lat": "41.164947379908824"
    },
    {
      "id": "pt.ine.add.PTCONT.4083399",
      "street": "R SOUTO",
      "house": "288",
      "postcode": "4640-382",
      "city": "OVIL",
      "lon": "-8.027255308426954",
      "lat": "41.177718004414324"
    },
    {
      "id": "pt.ine.add.PTCONT.4083404",
      "street": "R PAPAINHA",
      "house": "21Q",
      "postcode": "4640-166",
      "city": "BAIÃO",
      "lon": "-8.034782245039557",
      "lat": "41.16515458205012"
    },
    {
      "id": "pt.ine.add.PTCONT.4090009",
      "street": "R RAMALHAL",
      "house": "97",
      "postcode": "4640-384",
      "city": "OVIL",
      "lon": "-8.024717346993626",
      "lat": "41.17740949591428"
    },
    {
      "id": "pt.ine.add.PTCONT.4090011",
      "street": "R PAPAINHA",
      "house": "",
      "postcode": "4640-166",
      "city": "BAIÃO",
      "lon": "-8.034067239204024",
      "lat": "41.16520799573104"
    },
    {
      "id": "pt.ine.add.PTCONT.4095428",
      "street": "R GRANDAL",
      "house": "2",
      "postcode": "4640-154",
      "city": "BAIÃO",
      "lon": "-8.034855163142856",
      "lat": "41.16420018043109"
    },
    {
      "id": "pt.ine.add.PTCONT.4096896",
      "street": "TV PENAVENTOSA",
      "house": "",
      "postcode": "4640-177",
      "city": "BAIÃO",
      "lon": "-8.037792942227249",
      "lat": "41.16784942028126"
    },
    {
      "id": "pt.ine.add.PTCONT.4103065",
      "street": "CAM CIMO DE VILA DE ERVINS",
      "house": "",
      "postcode": "4640-384",
      "city": "OVIL",
      "lon": "-8.02560101799088",
      "lat": "41.1763298013475"
    },
    {
      "id": "pt.ine.add.PTCONT.4110403",
      "street": "CAM CIMO DE VILA DE ERVINS",
      "house": "",
      "postcode": "4640-384",
      "city": "OVIL",
      "lon": "-8.02655537543325",
      "lat": "41.17573640056649"
    },
    {
      "id": "pt.ine.add.PTCONT.4122553",
      "street": "CAM ESTRUMADOURO",
      "house": "",
      "postcode": "4640-384",
      "city": "OVIL",
      "lon": "-8.026718837902374",
      "lat": "41.1778255623934"
    },
    {
      "id": "pt.ine.add.PTCONT.4122554",
      "street": "R RAMALHAL",
      "house": "",
      "postcode": "4640-384",
      "city": "OVIL",
      "lon": "-8.024872350234052",
      "lat": "41.177364619899954"
    },
    {
      "id": "pt.ine.add.PTCONT.4122560",
      "street": "R CAMÕES",
      "house": "349",
      "postcode": "4640-147",
      "city": "BAIÃO",
      "lon": "-8.035156221666334",
      "lat": "41.162066399183516"
    },
    {
      "id": "pt.ine.add.PTCONT.4128901",
      "street": "TV EIRA",
      "house": "36",
      "postcode": "4640-376",
      "city": "OVIL",
      "lon": "-8.023380063479546",
      "lat": "41.17891195684779"
    },
    {
      "id": "pt.ine.add.PTCONT.4141368",
      "street": "R GRANDAL",
      "house": "4",
      "postcode": "4640-154",
      "city": "BAIÃO",
      "lon": "-8.03486717251143",
      "lat": "41.164137160037775"
    },
    {
      "id": "pt.ine.add.PTCONT.4142262",
      "street": "R PAPAÍNHA",
      "house": "21",
      "postcode": "4640-166",
      "city": "BAIÃO",
      "lon": "-8.034924907376233",
      "lat": "41.1653708087412"
    },
    {
      "id": "pt.ine.add.PTCONT.4142263",
      "street": "R PAPAÍNHA",
      "house": "21",
      "postcode": "4640-166",
      "city": "BAIÃO",
      "lon": "-8.034924907376233",
      "lat": "41.1653708087412"
    },
    {
      "id": "pt.ine.add.PTCONT.4142264",
      "street": "R PAPAÍNHA",
      "house": "21",
      "postcode": "4640-166",
      "city": "BAIÃO",
      "lon": "-8.034924907376233",
      "lat": "41.1653708087412"
    },
    {
      "id": "pt.ine.add.PTCONT.4142265",
      "street": "R PAPAÍNHA",
      "house": "21",
      "postcode": "4640-166",
      "city": "BAIÃO",
      "lon": "-8.034924907376233",
      "lat": "41.1653708087412"
    },
    {
      "id": "pt.ine.add.PTCONT.4142282",
      "street": "R PAPAÍNHA",
      "house": "21",
      "postcode": "4640-166",
      "city": "BAIÃO",
      "lon": "-8.034924907376233",
      "lat": "41.1653708087412"
    },
    {
      "id": "pt.ine.add.PTCONT.4142627",
      "street": "R PAPAINHA",
      "house": "21R",
      "postcode": "4640-166",
      "city": "BAIÃO",
      "lon": "-8.034710698711681",
      "lat": "41.165190538454134"
    },
    {
      "id": "pt.ine.add.PTCONT.4147771",
      "street": "R PAPAINHA",
      "house": "6",
      "postcode": "4640-166",
      "city": "BAIÃO",
      "lon": "-8.034568010491654",
      "lat": "41.164992320219845"
    },
    {
      "id": "pt.ine.add.PTCONT.4148639",
      "street": "R PAPAINHA",
      "house": "13",
      "postcode": "4640-166",
      "city": "BAIÃO",
      "lon": "-8.033983777003773",
      "lat": "41.16524394143677"
    },
    {
      "id": "pt.ine.add.PTCONT.4155547",
      "street": "R PENAVENTOSA",
      "house": "40",
      "postcode": "4640-177",
      "city": "BAIÃO",
      "lon": "-8.038644751415859",
      "lat": "41.16382516674919"
    },
    {
      "id": "pt.ine.add.PTCONT.4162186",
      "street": "R CAMOES",
      "house": "13",
      "postcode": "4640-147",
      "city": "BAIÃO",
      "lon": "-8.03463079563407",
      "lat": "41.16284933217998"
    },
    {
      "id": "pt.ine.add.PTCONT.4167198",
      "street": "R CAMOES",
      "house": "393",
      "postcode": "4640-147",
      "city": "BAIÃO",
      "lon": "-8.03463079563407",
      "lat": "41.16284933217998"
    },
    {
      "id": "pt.ine.add.PTCONT.4181758",
      "street": "R CAMÕES",
      "house": "",
      "postcode": "4640-147",
      "city": "BAIÃO",
      "lon": "-8.034797376744168",
      "lat": "41.16300254891187"
    },
    {
      "id": "pt.ine.add.PTCONT.4187986",
      "street": "BLOCO DA FONTE NOVA",
      "house": "4",
      "postcode": "4640-124",
      "city": "BAIÃO",
      "lon": "-8.035118585979133",
      "lat": "41.16333598460745"
    },
    {
      "id": "pt.ine.add.PTCONT.4193246",
      "street": "R GRANDAL",
      "house": "14",
      "postcode": "4640-154",
      "city": "BAIÃO",
      "lon": "-8.03517707558089",
      "lat": "41.1640653889194"
    },
    {
      "id": "pt.ine.add.PTCONT.4214528",
      "street": "R PAPAINHA",
      "house": "9",
      "postcode": "4640-166",
      "city": "BAIÃO",
      "lon": "-8.034305682809876",
      "lat": "41.16511815675617"
    },
    {
      "id": "pt.ine.add.PTCONT.4214531",
      "street": "CAM BUGA",
      "house": "90",
      "postcode": "4640-177",
      "city": "BAIÃO",
      "lon": "-8.036504967305724",
      "lat": "41.16856869690887"
    },
    {
      "id": "pt.ine.add.PTCONT.4220962",
      "street": "R SOUTO DE ERVINS",
      "house": "212",
      "postcode": "4640-384",
      "city": "OVIL",
      "lon": "-8.026456999012824",
      "lat": "41.17760921571648"
    },
    {
      "id": "pt.ine.add.PTCONT.4220966",
      "street": "CAM BUGA",
      "house": "96",
      "postcode": "4640-177",
      "city": "BAIÃO",
      "lon": "-8.037530818650835",
      "lat": "41.167831194333225"
    },
    {
      "id": "pt.ine.add.PTCONT.4225730",
      "street": "ESC PENAVENTOSA",
      "house": "23",
      "postcode": "4640-177",
      "city": "BAIÃO",
      "lon": "-8.038055950813517",
      "lat": "41.167255349104394"
    },
    {
      "id": "pt.ine.add.PTCONT.4225881",
      "street": "R GRANDAL",
      "house": "20",
      "postcode": "4640-154",
      "city": "BAIÃO",
      "lon": "-8.03536782599277",
      "lat": "41.16399351592185"
    },
    {
      "id": "pt.ine.add.PTCONT.4239103",
      "street": "R GRANDAL",
      "house": "22",
      "postcode": "4640-154",
      "city": "BAIÃO",
      "lon": "-8.035427428725699",
      "lat": "41.163975557727895"
    },
    {
      "id": "pt.ine.add.PTCONT.4239104",
      "street": "R GRANDAL",
      "house": "12",
      "postcode": "4640-154",
      "city": "BAIÃO",
      "lon": "-8.035093695935664",
      "lat": "41.164047309246364"
    },
    {
      "id": "pt.ine.add.PTCONT.4240555",
      "street": "R CAMOES",
      "house": "817 A",
      "postcode": "4640-147",
      "city": "BAIÃO",
      "lon": "-8.02979416559762",
      "lat": "41.169886515332855"
    },
    {
      "id": "pt.ine.add.PTCONT.4240556",
      "street": "R CAMOES",
      "house": "817",
      "postcode": "4640-147",
      "city": "BAIÃO",
      "lon": "-8.02979416559762",
      "lat": "41.169886515332855"
    },
    {
      "id": "pt.ine.add.PTCONT.4240557",
      "street": "R CAMOES BLOCOA",
      "house": "BLOCOA",
      "postcode": "4640-147",
      "city": "BAIÃO",
      "lon": "-8.02979416559762",
      "lat": "41.169886515332855"
    },
    {
      "id": "pt.ine.add.PTCONT.4240558",
      "street": "R CAMOES",
      "house": "817 A",
      "postcode": "4640-147",
      "city": "BAIÃO",
      "lon": "-8.02979416559762",
      "lat": "41.169886515332855"
    },
    {
      "id": "pt.ine.add.PTCONT.4240559",
      "street": "R CAMOES",
      "house": "817 A",
      "postcode": "4640-147",
      "city": "BAIÃO",
      "lon": "-8.02979416559762",
      "lat": "41.169886515332855"
    },
    {
      "id": "pt.ine.add.PTCONT.4240560",
      "street": "R CAMOES",
      "house": "817",
      "postcode": "4640-147",
      "city": "BAIÃO",
      "lon": "-8.02979416559762",
      "lat": "41.169886515332855"
    },
    {
      "id": "pt.ine.add.PTCONT.4247920",
      "street": "VLA CIMO DE VILA DE ERVINS",
      "house": "87",
      "postcode": "4640-384",
      "city": "OVIL",
      "lon": "-8.025552862218435",
      "lat": "41.17662690017049"
    },
    {
      "id": "pt.ine.add.PTCONT.4258677",
      "street": "R GRANDAL",
      "house": "9",
      "postcode": "4640-154",
      "city": "BAIÃO",
      "lon": "-8.035522416340479",
      "lat": "41.164200747660644"
    },
    {
      "id": "pt.ine.add.PTCONT.4260079",
      "street": "R EIRA",
      "house": "119",
      "postcode": "4640-376",
      "city": "OVIL",
      "lon": "-8.023271764462274",
      "lat": "41.179533153952306"
    },
    {
      "id": "pt.ine.add.PTCONT.4284636",
      "street": "R SOUTO",
      "house": "343",
      "postcode": "4640-382",
      "city": "OVIL",
      "lon": "-8.027410701497214",
      "lat": "41.17743000774887"
    },
    {
      "id": "pt.ine.add.PTCONT.4307205",
      "street": "R CAMÕES",
      "house": "",
      "postcode": "4640-147",
      "city": "BAIÃO",
      "lon": "-8.030449180625393",
      "lat": "41.170130218906614"
    },
    {
      "id": "pt.ine.add.PTCONT.4300498",
      "street": "R PAPAINHA",
      "house": "1",
      "postcode": "4640-166",
      "city": "BAIÃO",
      "lon": "-8.034759168137315",
      "lat": "41.16465031732055"
    },
    {
      "id": "pt.ine.add.PTCONT.4307212",
      "street": "TV PENAVENTOSA",
      "house": "67",
      "postcode": "4640-177",
      "city": "BAIÃO",
      "lon": "-8.037745618072712",
      "lat": "41.1676152674602"
    },
    {
      "id": "pt.ine.add.PTCONT.4307213",
      "street": "TV PENAVENTOSA",
      "house": "84",
      "postcode": "4640-177",
      "city": "BAIÃO",
      "lon": "-8.037578665320895",
      "lat": "41.167705172829834"
    },
    {
      "id": "pt.ine.add.PTCONT.4312512",
      "street": "CAM CIMO DE VILA DE ERVINS",
      "house": "",
      "postcode": "4640-384",
      "city": "OVIL",
      "lon": "-8.025565000611808",
      "lat": "41.176491846151656"
    },
    {
      "id": "pt.ine.add.PTCONT.4320625",
      "street": "R PAPAINHA",
      "house": "4",
      "postcode": "4640-166",
      "city": "BAIÃO",
      "lon": "-8.034699281723686",
      "lat": "41.164857366814154"
    },
    {
      "id": "pt.ine.add.PTCONT.4320626",
      "street": "BLOCO DA FONTE NOVA",
      "house": "6",
      "postcode": "4640-124",
      "city": "BAIÃO",
      "lon": "-8.035213772614325",
      "lat": "41.16342610932267"
    },
    {
      "id": "pt.ine.add.PTCONT.4322056",
      "street": "CAM ESTRUMADOURO",
      "house": "5",
      "postcode": "4640-384",
      "city": "OVIL",
      "lon": "-8.026790460591512",
      "lat": "41.17775359368816"
    },
    {
      "id": "pt.ine.add.PTCONT.4332324",
      "street": "R GRANDAL",
      "house": "8",
      "postcode": "4640-154",
      "city": "BAIÃO",
      "lon": "-8.034986391908816",
      "lat": "41.164092239773176"
    },
    {
      "id": "pt.ine.add.PTCONT.4333655",
      "street": "R PAPAINHA",
      "house": "11",
      "postcode": "4640-166",
      "city": "BAIÃO",
      "lon": "-8.03415068776701",
      "lat": "41.16518105432793"
    },
    {
      "id": "pt.ine.add.PTCONT.4342966",
      "street": "CAM BUGA",
      "house": "70",
      "postcode": "4640-177",
      "city": "BAIÃO",
      "lon": "-8.03743574035265",
      "lat": "41.16766003234845"
    },
    {
      "id": "pt.ine.add.PTCONT.4345039",
      "street": "R GRANDAL",
      "house": "3",
      "postcode": "4640-154",
      "city": "BAIÃO",
      "lon": "-8.035713193432446",
      "lat": "41.16411086536194"
    },
    {
      "id": "pt.ine.add.PTCONT.4346217",
      "street": "R SOUTO DE ERVINS",
      "house": "65",
      "postcode": "4640-384",
      "city": "OVIL",
      "lon": "-8.025827081875125",
      "lat": "41.17655512105703"
    },
    {
      "id": "pt.ine.add.PTCONT.4346246",
      "street": "R AGUA LEVADA",
      "house": "75",
      "postcode": "4640-376",
      "city": "OVIL",
      "lon": "-8.023736267252083",
      "lat": "41.1797136830157"
    },
    {
      "id": "pt.ine.add.PTCONT.4352758",
      "street": "R CENTRAL DE OVIL",
      "house": "",
      "postcode": "4640-380",
      "city": "OVIL",
      "lon": "-8.022605718001245",
      "lat": "41.17872212512451"
    },
    {
      "id": "pt.ine.add.PTCONT.4374242",
      "street": "R CAMOES",
      "house": "823",
      "postcode": "4640-147",
      "city": "BAIÃO",
      "lon": "-8.02971048278142",
      "lat": "41.17005752322276"
    },
    {
      "id": "pt.ine.add.PTCONT.4374527",
      "street": "R CAMOES",
      "house": "823 B",
      "postcode": "4640-147",
      "city": "BAIÃO",
      "lon": "-8.02971048278142",
      "lat": "41.17005752322276"
    },
    {
      "id": "pt.ine.add.PTCONT.4379227",
      "street": "BLOCO DA FONTE NOVA",
      "house": "3",
      "postcode": "4640-124",
      "city": "BAIÃO",
      "lon": "-8.03507099275931",
      "lat": "41.1632909222199"
    },
    {
      "id": "pt.ine.add.PTCONT.4383352",
      "street": "R PAPAÍNHA",
      "house": "21",
      "postcode": "4640-166",
      "city": "BAIÃO",
      "lon": "-8.034924907376233",
      "lat": "41.1653708087412"
    },
    {
      "id": "pt.ine.add.PTCONT.4383364",
      "street": "TV PENAVENTOSA",
      "house": "87",
      "postcode": "4640-177",
      "city": "BAIÃO",
      "lon": "-8.037840749282077",
      "lat": "41.16775041175"
    },
    {
      "id": "pt.ine.add.PTCONT.4384454",
      "street": "R PAPAINHA",
      "house": "46",
      "postcode": "4640-166",
      "city": "BAIÃO",
      "lon": "-8.033900314712382",
      "lat": "41.16527988708167"
    },
    {
      "id": "pt.ine.add.PTCONT.4385302",
      "street": "R CARVALHA",
      "house": "90",
      "postcode": "4640-376",
      "city": "OVIL",
      "lon": "-8.022963268956078",
      "lat": "41.178713463251036"
    },
    {
      "id": "pt.ine.add.PTCONT.4386228",
      "street": "CAM QUINTEIRO DE ERVINS",
      "house": "",
      "postcode": "4640-384",
      "city": "OVIL",
      "lon": "-8.027565370517687",
      "lat": "41.17759222797968"
    }
  ]
}