{
  "data": {
    "distrito": "Lisboa",
    "concelho": "Loures",
    "freguesia": "União das freguesias de Santa Iria de Azoia, São João da Talha e Bobadela",
    "OBJECTID": 278,
    "BGRI2021": "11072803128",
    "DT21": "11",
    "DTMN21": "1107",
    "DTMNFR21": "110728",
    "DTMNFRSEC21": "110728031",
    "SECNUM21": "031",
    "SSNUM21": "28",
    "SECSSNUM21": "03128",
    "OBJECTID_1": 106887,
    "DT": "11",
    "CC": "07",
    "fr": "28",
    "SEC": "031",
    "SS": "28"
  },
  "addresses": [
    {
      "id": "pt.ine.add.PTCONT.3183213",
      "street": "R ALTO DE S LOURENÇO",
      "house": "2",
      "postcode": "2690-143",
      "city": "SANTA IRIA DE AZÓIA",
      "lon": "-9.104084911053473",
      "lat": "38.840157769433866"
    },
    {
      "id": "pt.ine.add.PTCONT.3183214",
      "street": "R ALTO DE S LOURENÇO",
      "house": "2",
      "postcode": "2690-143",
      "city": "SANTA IRIA DE AZÓIA",
      "lon": "-9.104084911053473",
      "lat": "38.840157769433866"
    },
    {
      "id": "pt.ine.add.PTCONT.3221849",
      "street": "R CÂNDIDO DE OLIVEIRA",
      "house": "",
      "postcode": "2690-149",
      "city": "SANTA IRIA DE AZÓIA",
      "lon": "-9.103158715491501",
      "lat": "38.839805156260304"
    },
    {
      "id": "pt.ine.add.PTCONT.3221850",
      "street": "R CÂNDIDO DE OLIVEIRA",
      "house": "",
      "postcode": "2690-149",
      "city": "SANTA IRIA DE AZÓIA",
      "lon": "-9.103158715491501",
      "lat": "38.839805156260304"
    },
    {
      "id": "pt.ine.add.PTCONT.3221851",
      "street": "R CÂNDIDO DE OLIVEIRA",
      "house": "",
      "postcode": "2690-149",
      "city": "SANTA IRIA DE AZÓIA",
      "lon": "-9.103158715491501",
      "lat": "38.839805156260304"
    },
    {
      "id": "pt.ine.add.PTCONT.3221852",
      "street": "R CÂNDIDO DE OLIVEIRA",
      "house": "",
      "postcode": "2690-149",
      "city": "SANTA IRIA DE AZÓIA",
      "lon": "-9.103158715491501",
      "lat": "38.839805156260304"
    },
    {
      "id": "pt.ine.add.PTCONT.3221853",
      "street": "R CÂNDIDO DE OLIVEIRA",
      "house": "",
      "postcode": "2690-149",
      "city": "SANTA IRIA DE AZÓIA",
      "lon": "-9.103158715491501",
      "lat": "38.839805156260304"
    },
    {
      "id": "pt.ine.add.PTCONT.3221854",
      "street": "R CÂNDIDO DE OLIVEIRA",
      "house": "",
      "postcode": "2690-149",
      "city": "SANTA IRIA DE AZÓIA",
      "lon": "-9.103158715491501",
      "lat": "38.839805156260304"
    },
    {
      "id": "pt.ine.add.PTCONT.3221855",
      "street": "R CÂNDIDO DE OLIVEIRA",
      "house": "",
      "postcode": "2690-149",
      "city": "SANTA IRIA DE AZÓIA",
      "lon": "-9.103158715491501",
      "lat": "38.839805156260304"
    },
    {
      "id": "pt.ine.add.PTCONT.3221858",
      "street": "R CÂNDIDO DE OLIVEIRA",
      "house": "",
      "postcode": "2690-149",
      "city": "SANTA IRIA DE AZÓIA",
      "lon": "-9.103158715491501",
      "lat": "38.839805156260304"
    },
    {
      "id": "pt.ine.add.PTCONT.2375031",
      "street": "R ALTO DE S LOURENÇO",
      "house": "6",
      "postcode": "2690-143",
      "city": "SANTA IRIA DE AZÓIA",
      "lon": "-9.103439142067788",
      "lat": "38.84010008180988"
    },
    {
      "id": "pt.ine.add.PTCONT.2403246",
      "street": "R CÂNDIDO DE OLIVEIRA",
      "house": "",
      "postcode": "2690-149",
      "city": "SANTA IRIA DE AZÓIA",
      "lon": "-9.103632349607956",
      "lat": "38.83990931445505"
    },
    {
      "id": "pt.ine.add.PTCONT.2601569",
      "street": "R CÂNDIDO DE OLIVEIRA",
      "house": "",
      "postcode": "2690-149",
      "city": "SANTA IRIA DE AZÓIA",
      "lon": "-9.104128405547412",
      "lat": "38.83996824571857"
    }
  ]
}