{
  "data": {
    "distrito": "Bragan√ßa",
    "concelho": "Mirandela",
    "freguesia": "Aguieiras",
    "OBJECTID": 24,
    "BGRI2021": "04070300105",
    "DT21": "04",
    "DTMN21": "0407",
    "DTMNFR21": "040703",
    "DTMNFRSEC21": "040703001",
    "SECNUM21": "001",
    "SSNUM21": "05",
    "SECSSNUM21": "00105",
    "OBJECTID_1": 36689,
    "DT": "04",
    "CC": "07",
    "fr": "03",
    "SEC": "001",
    "SS": "05"
  },
  "addresses": [
    {
      "id": "pt.ine.add.PTCONT.852028",
      "street": "R PRINCIPAL",
      "house": "4",
      "postcode": "5385-012",
      "city": "AGUIEIRAS",
      "lon": "-7.193230297044702",
      "lat": "41.693154032709046"
    },
    {
      "id": "pt.ine.add.PTCONT.856658",
      "street": "R PRINCIPAL",
      "house": "",
      "postcode": "5385-012",
      "city": "AGUIEIRAS",
      "lon": "-7.193829524303885",
      "lat": "41.69324896613892"
    },
    {
      "id": "pt.ine.add.PTCONT.861194",
      "street": "R FONTE",
      "house": "",
      "postcode": "5385-017",
      "city": "AGUIEIRAS",
      "lon": "-7.195046366229711",
      "lat": "41.68969355568608"
    },
    {
      "id": "pt.ine.add.PTCONT.875612",
      "street": "R PRINCIPAL",
      "house": "",
      "postcode": "5385-012",
      "city": "AGUIEIRAS",
      "lon": "-7.193698060938402",
      "lat": "41.6932028745131"
    },
    {
      "id": "pt.ine.add.PTCONT.880847",
      "street": "R EIRO",
      "house": "",
      "postcode": "5385-017",
      "city": "AGUIEIRAS",
      "lon": "-7.196543058992744",
      "lat": "41.69002088261347"
    },
    {
      "id": "pt.ine.add.PTCONT.885461",
      "street": "R EIRO",
      "house": "",
      "postcode": "5385-017",
      "city": "AGUIEIRAS",
      "lon": "-7.19662765245739",
      "lat": "41.68998555835759"
    },
    {
      "id": "pt.ine.add.PTCONT.891621",
      "street": "R TRABESSA OLIVEIRA",
      "house": "2",
      "postcode": "5385-012",
      "city": "AGUIEIRAS",
      "lon": "-7.194515184706789",
      "lat": "41.69318254111998"
    },
    {
      "id": "pt.ine.add.PTCONT.905139",
      "street": "R FONTE",
      "house": "",
      "postcode": "5385-017",
      "city": "AGUIEIRAS",
      "lon": "-7.195250145677683",
      "lat": "41.689722229159145"
    },
    {
      "id": "pt.ine.add.PTCONT.913978",
      "street": "R EIRO",
      "house": "",
      "postcode": "5385-017",
      "city": "AGUIEIRAS",
      "lon": "-7.196412383776682",
      "lat": "41.689920780031585"
    },
    {
      "id": "pt.ine.add.PTCONT.915470",
      "street": "R TRAVESSA DO MONTE",
      "house": "",
      "postcode": "5385-012",
      "city": "AGUIEIRAS",
      "lon": "-7.193964523736031",
      "lat": "41.693051994551375"
    },
    {
      "id": "pt.ine.add.PTCONT.925299",
      "street": "R FONTE",
      "house": "2",
      "postcode": "5385-012",
      "city": "AGUIEIRAS",
      "lon": "-7.194104200502482",
      "lat": "41.69335925175826"
    },
    {
      "id": "pt.ine.add.PTCONT.926195",
      "street": "R TRAVESSA DO MONTE",
      "house": "",
      "postcode": "5385-012",
      "city": "AGUIEIRAS",
      "lon": "-7.194105902711343",
      "lat": "41.69324222139167"
    },
    {
      "id": "pt.ine.add.PTCONT.942387",
      "street": "R TRAVESSA OLIVEIRA",
      "house": "",
      "postcode": "5385-012",
      "city": "AGUIEIRAS",
      "lon": "-7.194504613668364",
      "lat": "41.69308341731165"
    }
  ]
}