{
  "data": {
    "distrito": "Guarda",
    "concelho": "Seia",
    "freguesia": "União das freguesias de Carragozela e Várzea de Meruge",
    "OBJECTID": 707,
    "BGRI2021": "09123000105",
    "DT21": "09",
    "DTMN21": "0912",
    "DTMNFR21": "091230",
    "DTMNFRSEC21": "091230001",
    "SECNUM21": "001",
    "SSNUM21": "05",
    "SECSSNUM21": "00105",
    "OBJECTID_1": 81671,
    "DT": "09",
    "CC": "12",
    "fr": "30",
    "SEC": "001",
    "SS": "05"
  },
  "addresses": [
    {
      "id": "pt.ine.add.PTCONT.1909828",
      "street": "R DO CHÃO DO POÇO",
      "house": "",
      "postcode": "6270-631",
      "city": "VÁRZEA DE MERUGE",
      "lon": "-7.780759940175504",
      "lat": "40.39575158154169"
    },
    {
      "id": "pt.ine.add.PTCONT.1911755",
      "street": "R FRANCISCO AMARAL",
      "house": "1",
      "postcode": "6270-631",
      "city": "VÁRZEA DE MERUGE",
      "lon": "-7.783590738993955",
      "lat": "40.39499470044808"
    },
    {
      "id": "pt.ine.add.PTCONT.1920351",
      "street": "TV MOINHO ALMAS",
      "house": "1",
      "postcode": "6270-631",
      "city": "VÁRZEA DE MERUGE",
      "lon": "-7.7833667635441675",
      "lat": "40.39503004546385"
    },
    {
      "id": "pt.ine.add.PTCONT.1947113",
      "street": "R DO CHÃO DO POÇO",
      "house": "",
      "postcode": "6270-631",
      "city": "VÁRZEA DE MERUGE",
      "lon": "-7.780124183318544",
      "lat": "40.395695609259036"
    },
    {
      "id": "pt.ine.add.PTCONT.1952715",
      "street": "R DO MOINHO DAS ALMAS",
      "house": "",
      "postcode": "6270-631",
      "city": "VÁRZEA DE MERUGE",
      "lon": "-7.783460990572564",
      "lat": "40.39503033041888"
    },
    {
      "id": "pt.ine.add.PTCONT.1959497",
      "street": "R DE PASSAL",
      "house": "4",
      "postcode": "6270-631",
      "city": "VÁRZEA DE MERUGE",
      "lon": "-7.783544277481998",
      "lat": "40.39486848222691"
    },
    {
      "id": "pt.ine.add.PTCONT.1960520",
      "street": "R CHAO POCO",
      "house": "9",
      "postcode": "6270-631",
      "city": "VÁRZEA DE MERUGE",
      "lon": "-7.780007386302299",
      "lat": "40.39550613603399"
    },
    {
      "id": "pt.ine.add.PTCONT.1851764",
      "street": "R RASTEIRO DE CAMPOS",
      "house": "",
      "postcode": "6270-631",
      "city": "VÁRZEA DE MERUGE",
      "lon": "-7.782846788378457",
      "lat": "40.39536167714371"
    },
    {
      "id": "pt.ine.add.PTCONT.1870310",
      "street": "TV MOINHO ALMAS",
      "house": "2",
      "postcode": "6270-631",
      "city": "VÁRZEA DE MERUGE",
      "lon": "-7.783319417030624",
      "lat": "40.39507493002916"
    },
    {
      "id": "pt.ine.add.PTCONT.1881078",
      "street": "R DA RIBEIRA",
      "house": "7",
      "postcode": "6270-631",
      "city": "VÁRZEA DE MERUGE",
      "lon": "-7.781441594016901",
      "lat": "40.39604183431519"
    },
    {
      "id": "pt.ine.add.PTCONT.1885883",
      "street": "TV DO MOINHO DAS ALMAS",
      "house": "4",
      "postcode": "6270-631",
      "city": "VÁRZEA DE MERUGE",
      "lon": "-7.7832250501036615",
      "lat": "40.39510166120105"
    },
    {
      "id": "pt.ine.add.PTCONT.1898009",
      "street": "TV DO MOINHO DAS ALMAS",
      "house": "",
      "postcode": "6270-631",
      "city": "VÁRZEA DE MERUGE",
      "lon": "-7.782988875918514",
      "lat": "40.39521801856776"
    }
  ]
}