{
  "data": {
    "distrito": "Guarda",
    "concelho": "Celorico da Beira",
    "freguesia": "Linhares",
    "OBJECTID": 45,
    "BGRI2021": "09030800118",
    "DT21": "09",
    "DTMN21": "0903",
    "DTMNFR21": "090308",
    "DTMNFRSEC21": "090308001",
    "SECNUM21": "001",
    "SSNUM21": "18",
    "SECSSNUM21": "00118",
    "OBJECTID_1": 76293,
    "DT": "09",
    "CC": "03",
    "fr": "08",
    "SEC": "001",
    "SS": "18"
  },
  "addresses": [
    {
      "id": "pt.ine.add.PTCONT.1916961",
      "street": "CAM DA FRAGA",
      "house": "",
      "postcode": "6360-080",
      "city": "LINHARES CLB",
      "lon": "-7.439965052962229",
      "lat": "40.5554787890366"
    },
    {
      "id": "pt.ine.add.PTCONT.1924892",
      "street": "EM 555",
      "house": "",
      "postcode": "6360-081",
      "city": "LINHARES CLB",
      "lon": "-7.439808056846748",
      "lat": "40.55696370950289"
    },
    {
      "id": "pt.ine.add.PTCONT.1932887",
      "street": "",
      "house": "",
      "postcode": "6360-080",
      "city": "LINHARES CLB",
      "lon": "-7.457880096525619",
      "lat": "40.54327471768796"
    },
    {
      "id": "pt.ine.add.PTCONT.1943108",
      "street": "R DA ESCOLA",
      "house": "",
      "postcode": "6360-081",
      "city": "LINHARES CLB",
      "lon": "-7.439926210360783",
      "lat": "40.556955413269414"
    },
    {
      "id": "pt.ine.add.PTCONT.1943111",
      "street": "R DA ESCOLA",
      "house": "",
      "postcode": "6360-081",
      "city": "LINHARES CLB",
      "lon": "-7.439855838410301",
      "lat": "40.55690996487853"
    },
    {
      "id": "pt.ine.add.PTCONT.1950447",
      "street": "QTA CÃ‰SAR BALSA",
      "house": "",
      "postcode": "6360-080",
      "city": "LINHARES CLB",
      "lon": "-7.4517813680185645",
      "lat": "40.54752541207626"
    },
    {
      "id": "pt.ine.add.PTCONT.1969861",
      "street": "EM 555",
      "house": "",
      "postcode": "6360-081",
      "city": "LINHARES CLB",
      "lon": "-7.438261928359484",
      "lat": "40.55690939452817"
    },
    {
      "id": "pt.ine.add.PTCONT.1973299",
      "street": "R DA ESCOLA",
      "house": "",
      "postcode": "6360-081",
      "city": "LINHARES CLB",
      "lon": "-7.439880007807159",
      "lat": "40.55685607855154"
    },
    {
      "id": "pt.ine.add.PTCONT.1977574",
      "street": "R DA ESCOLA",
      "house": "",
      "postcode": "6360-081",
      "city": "LINHARES CLB",
      "lon": "-7.439869223470586",
      "lat": "40.55675695634917"
    },
    {
      "id": "pt.ine.add.PTCONT.1978397",
      "street": "R DA ESCOLA",
      "house": "",
      "postcode": "6360-081",
      "city": "LINHARES CLB",
      "lon": "-7.439690925280515",
      "lat": "40.55687295426125"
    },
    {
      "id": "pt.ine.add.PTCONT.1852093",
      "street": "QTA DA BALSA",
      "house": "",
      "postcode": "6360-080",
      "city": "LINHARES CLB",
      "lon": "-7.454404226408824",
      "lat": "40.54731571861707"
    },
    {
      "id": "pt.ine.add.PTCONT.1859049",
      "street": "EM 555",
      "house": "",
      "postcode": "6360-081",
      "city": "LINHARES CLB",
      "lon": "-7.4393356284250345",
      "lat": "40.556978883890224"
    },
    {
      "id": "pt.ine.add.PTCONT.1868782",
      "street": "EM 555",
      "house": "",
      "postcode": "6360-081",
      "city": "LINHARES CLB",
      "lon": "-7.435558967979901",
      "lat": "40.5556954109026"
    },
    {
      "id": "pt.ine.add.PTCONT.1876891",
      "street": "EM 555",
      "house": "",
      "postcode": "6360-081",
      "city": "LINHARES CLB",
      "lon": "-7.43945350320096",
      "lat": "40.55699760214467"
    },
    {
      "id": "pt.ine.add.PTCONT.1876892",
      "street": "EM 555",
      "house": "",
      "postcode": "6360-081",
      "city": "LINHARES CLB",
      "lon": "-7.4441251290561015",
      "lat": "40.55507142234529"
    },
    {
      "id": "pt.ine.add.PTCONT.1878771",
      "street": "R DA ESCOLA",
      "house": "",
      "postcode": "6360-081",
      "city": "LINHARES CLB",
      "lon": "-7.439869687881787",
      "lat": "40.55671193300329"
    },
    {
      "id": "pt.ine.add.PTCONT.1882750",
      "street": "R DA ESCOLA",
      "house": "",
      "postcode": "6360-081",
      "city": "LINHARES CLB",
      "lon": "-7.4396105129619166",
      "lat": "40.556656346154526"
    },
    {
      "id": "pt.ine.add.PTCONT.1886926",
      "street": "EM 555",
      "house": "",
      "postcode": "6360-081",
      "city": "LINHARES CLB",
      "lon": "-7.440883614524396",
      "lat": "40.556853091098965"
    },
    {
      "id": "pt.ine.add.PTCONT.1894335",
      "street": "EM 555",
      "house": "",
      "postcode": "6360-081",
      "city": "LINHARES CLB",
      "lon": "-7.439536331538489",
      "lat": "40.556980088979834"
    }
  ]
}