{
  "data": {
    "distrito": "Portalegre",
    "concelho": "Arronches",
    "freguesia": "Assunção",
    "OBJECTID": 119,
    "BGRI2021": "12020100227",
    "DT21": "12",
    "DTMN21": "1202",
    "DTMNFR21": "120201",
    "DTMNFRSEC21": "120201002",
    "SECNUM21": "002",
    "SSNUM21": "27",
    "SECSSNUM21": "00227",
    "OBJECTID_1": 120583,
    "DT": "12",
    "CC": "02",
    "fr": "01",
    "SEC": "002",
    "SS": "27"
  },
  "addresses": [
    {
      "id": "pt.ine.add.PTCONT.3464548",
      "street": "MTE RABASCA",
      "house": "",
      "postcode": "7340-056",
      "city": "ARRONCHES",
      "lon": "-7.241078988277008",
      "lat": "39.09637718034494"
    },
    {
      "id": "pt.ine.add.PTCONT.3464549",
      "street": "MTE RABASCA",
      "house": "",
      "postcode": "7340-056",
      "city": "ARRONCHES",
      "lon": "-7.241078988277008",
      "lat": "39.09637718034494"
    },
    {
      "id": "pt.ine.add.PTCONT.3477628",
      "street": "MTE TINOCA",
      "house": "",
      "postcode": "7340-056",
      "city": "ARRONCHES",
      "lon": "-7.261899252536596",
      "lat": "39.11123466101582"
    },
    {
      "id": "pt.ine.add.PTCONT.3477629",
      "street": "MTE TINOCA",
      "house": "",
      "postcode": "7340-056",
      "city": "ARRONCHES",
      "lon": "-7.261899252536596",
      "lat": "39.11123466101582"
    },
    {
      "id": "pt.ine.add.PTCONT.3481597",
      "street": "MTE RABASCA",
      "house": "",
      "postcode": "7340-056",
      "city": "ARRONCHES",
      "lon": "-7.2409019841481035",
      "lat": "39.09666406197261"
    },
    {
      "id": "pt.ine.add.PTCONT.3494114",
      "street": "MTE SOEIRA",
      "house": "",
      "postcode": "7340-056",
      "city": "ARRONCHES",
      "lon": "-7.2539233576179",
      "lat": "39.105518154908914"
    },
    {
      "id": "pt.ine.add.PTCONT.3494508",
      "street": "MTE SOEIRA",
      "house": "",
      "postcode": "7340-056",
      "city": "ARRONCHES",
      "lon": "-7.2539233576179",
      "lat": "39.105518154908914"
    },
    {
      "id": "pt.ine.add.PTCONT.3494549",
      "street": "MTE SOEIRA",
      "house": "",
      "postcode": "7340-056",
      "city": "ARRONCHES",
      "lon": "-7.2539233576179",
      "lat": "39.105518154908914"
    },
    {
      "id": "pt.ine.add.PTCONT.3497240",
      "street": "MTE FIGUEIRA DE BAIXO",
      "house": "",
      "postcode": "7340-056",
      "city": "ARRONCHES",
      "lon": "-7.253555861341934",
      "lat": "39.09479139492623"
    },
    {
      "id": "pt.ine.add.PTCONT.3497241",
      "street": "MTE FIGUEIRA DE BAIXO",
      "house": "",
      "postcode": "7340-056",
      "city": "ARRONCHES",
      "lon": "-7.253555861341934",
      "lat": "39.09479139492623"
    },
    {
      "id": "pt.ine.add.PTCONT.3497242",
      "street": "MTE FIGUEIRA DE BAIXO",
      "house": "",
      "postcode": "7340-056",
      "city": "ARRONCHES",
      "lon": "-7.253555861341934",
      "lat": "39.09479139492623"
    },
    {
      "id": "pt.ine.add.PTCONT.3508075",
      "street": "MTE FIALHA",
      "house": "",
      "postcode": "7340-056",
      "city": "ARRONCHES",
      "lon": "-7.248685196943152",
      "lat": "39.107460153744874"
    },
    {
      "id": "pt.ine.add.PTCONT.3508076",
      "street": "MTE FIALHA",
      "house": "",
      "postcode": "7340-056",
      "city": "ARRONCHES",
      "lon": "-7.248685196943152",
      "lat": "39.107460153744874"
    },
    {
      "id": "pt.ine.add.PTCONT.3508077",
      "street": "MTE FIALHA",
      "house": "",
      "postcode": "7340-056",
      "city": "ARRONCHES",
      "lon": "-7.248685196943152",
      "lat": "39.107460153744874"
    },
    {
      "id": "pt.ine.add.PTCONT.3508078",
      "street": "MTE RABASCA",
      "house": "",
      "postcode": "7340-056",
      "city": "ARRONCHES",
      "lon": "-7.240985388328073",
      "lat": "39.09646653792215"
    },
    {
      "id": "pt.ine.add.PTCONT.3508550",
      "street": "MTE FIALHA",
      "house": "",
      "postcode": "7340-056",
      "city": "ARRONCHES",
      "lon": "-7.248685196943152",
      "lat": "39.107460153744874"
    },
    {
      "id": "pt.ine.add.PTCONT.3520344",
      "street": "MTE SOEIRA",
      "house": "",
      "postcode": "7340-056",
      "city": "ARRONCHES",
      "lon": "-7.25409552183171",
      "lat": "39.105618534242474"
    }
  ]
}