{
  "data": {
    "distrito": "Viana do Castelo",
    "concelho": "Viana do Castelo",
    "freguesia": "União das freguesias de Geraz do Lima (Santa Maria, Santa Leocádia e Moreira) e Deão",
    "OBJECTID": 556,
    "BGRI2021": "16094300213",
    "DT21": "16",
    "DTMN21": "1609",
    "DTMNFR21": "160943",
    "DTMNFRSEC21": "160943002",
    "SECNUM21": "002",
    "SSNUM21": "13",
    "SECSSNUM21": "00213",
    "OBJECTID_1": 178032,
    "DT": "16",
    "CC": "09",
    "fr": "43",
    "SEC": "002",
    "SS": "13"
  },
  "addresses": [
    {
      "id": "pt.ine.add.PTCONT.5146985",
      "street": "CAM CALVÁRIO",
      "house": "",
      "postcode": "4905-565",
      "city": "GERAZ LIMA (STA LEOCÁDIA)",
      "lon": "-8.66907696890362",
      "lat": "41.700645515104476"
    },
    {
      "id": "pt.ine.add.PTCONT.5159896",
      "street": "CAM ALDEIA",
      "house": "20",
      "postcode": "4905-565",
      "city": "GERAZ LIMA (STA LEOCÁDIA)",
      "lon": "-8.667184038469365",
      "lat": "41.69982600663582"
    },
    {
      "id": "pt.ine.add.PTCONT.5185808",
      "street": "CAM QUINTINHA",
      "house": "132",
      "postcode": "4905-565",
      "city": "GERAZ LIMA (STA LEOCÁDIA)",
      "lon": "-8.668090391821552",
      "lat": "41.70047004227998"
    },
    {
      "id": "pt.ine.add.PTCONT.5198666",
      "street": "ESTR AGROS",
      "house": "",
      "postcode": "4905-555",
      "city": "GERAZ LIMA (STA LEOCÁDIA)",
      "lon": "-8.669334977088726",
      "lat": "41.69988801831492"
    },
    {
      "id": "pt.ine.add.PTCONT.5200933",
      "street": "CAM CALVÁRIO",
      "house": "234",
      "postcode": "4905-555",
      "city": "GERAZ LIMA (STA LEOCÁDIA)",
      "lon": "-8.669280445861894",
      "lat": "41.700554531045796"
    },
    {
      "id": "pt.ine.add.PTCONT.5222941",
      "street": "CAM QUINTINHA",
      "house": "",
      "postcode": "4905-565",
      "city": "GERAZ LIMA (STA LEOCÁDIA)",
      "lon": "-8.668237610496059",
      "lat": "41.70083849994023"
    },
    {
      "id": "pt.ine.add.PTCONT.5226481",
      "street": "CAM ALDEIA",
      "house": "89",
      "postcode": "4905-565",
      "city": "GERAZ LIMA (STA LEOCÁDIA)",
      "lon": "-8.667760666135166",
      "lat": "41.69982332541064"
    },
    {
      "id": "pt.ine.add.PTCONT.5231007",
      "street": "CAM ENXERTOS",
      "house": "",
      "postcode": "4905-565",
      "city": "GERAZ LIMA (STA LEOCÁDIA)",
      "lon": "-8.666768344640085",
      "lat": "41.70040416118133"
    },
    {
      "id": "pt.ine.add.PTCONT.5233424",
      "street": "CAM CALVÁRIO",
      "house": "",
      "postcode": "4905-565",
      "city": "GERAZ LIMA (STA LEOCÁDIA)",
      "lon": "-8.66906642814521",
      "lat": "41.69937607204932"
    },
    {
      "id": "pt.ine.add.PTCONT.5238326",
      "street": "CAM ALDEIA",
      "house": "",
      "postcode": "4905-565",
      "city": "GERAZ LIMA (STA LEOCÁDIA)",
      "lon": "-8.667171578442533",
      "lat": "41.69977204359174"
    },
    {
      "id": "pt.ine.add.PTCONT.5269745",
      "street": "ESTR AGROS",
      "house": "",
      "postcode": "4905-555",
      "city": "GERAZ LIMA (STA LEOCÁDIA)",
      "lon": "-8.668463911850854",
      "lat": "41.69915379312224"
    },
    {
      "id": "pt.ine.add.PTCONT.5275380",
      "street": "CAM ALDEIA",
      "house": "4",
      "postcode": "4905-565",
      "city": "GERAZ LIMA (STA LEOCÁDIA)",
      "lon": "-8.666773286312779",
      "lat": "41.699548806556905"
    },
    {
      "id": "pt.ine.add.PTCONT.5281210",
      "street": "ESTR AGROS",
      "house": "",
      "postcode": "4905-555",
      "city": "GERAZ LIMA (STA LEOCÁDIA)",
      "lon": "-8.668705366098143",
      "lat": "41.69929672393977"
    },
    {
      "id": "pt.ine.add.PTCONT.5281832",
      "street": "CAM OUTEIRO",
      "house": "",
      "postcode": "4905-565",
      "city": "GERAZ LIMA (STA LEOCÁDIA)",
      "lon": "-8.667118216724994",
      "lat": "41.70058260574936"
    }
  ]
}