{
  "data": {
    "distrito": "Faro",
    "concelho": "Silves",
    "freguesia": "São Marcos da Serra",
    "OBJECTID": 639,
    "BGRI2021": "08130600232",
    "DT21": "08",
    "DTMN21": "0813",
    "DTMNFR21": "081306",
    "DTMNFRSEC21": "081306002",
    "SECNUM21": "002",
    "SSNUM21": "32",
    "SECSSNUM21": "00232",
    "OBJECTID_1": 72195,
    "DT": "08",
    "CC": "13",
    "fr": "06",
    "SEC": "002",
    "SS": "32"
  },
  "addresses": [
    {
      "id": "pt.ine.add.PTCONT.1471269",
      "street": "SIT VALE TABUAS",
      "house": "",
      "postcode": "8375-262",
      "city": "SÃO MARCOS DA SERRA",
      "lon": "-8.334345545801229",
      "lat": "37.3501440000468"
    },
    {
      "id": "pt.ine.add.PTCONT.1477401",
      "street": "SIT CORTE MOURAO",
      "house": "",
      "postcode": "8375-206",
      "city": "SÃO MARCOS DA SERRA",
      "lon": "-8.344372741607094",
      "lat": "37.355902100517206"
    },
    {
      "id": "pt.ine.add.PTCONT.1491139",
      "street": "SIT AGUA VELHA DA ALDEIA",
      "house": "I",
      "postcode": "8375-206",
      "city": "SÃO MARCOS DA SERRA",
      "lon": "-8.32135914547225",
      "lat": "37.360896608965554"
    },
    {
      "id": "pt.ine.add.PTCONT.1546619",
      "street": "SIT POMBAL",
      "house": "",
      "postcode": "8375-206",
      "city": "SÃO MARCOS DA SERRA",
      "lon": "-8.337310727002071",
      "lat": "37.35314834987647"
    },
    {
      "id": "pt.ine.add.PTCONT.1664981",
      "street": "SIT PERNA SECA",
      "house": "",
      "postcode": "8375-262",
      "city": "SÃO MARCOS DA SERRA",
      "lon": "-8.321537044968865",
      "lat": "37.341749490348676"
    },
    {
      "id": "pt.ine.add.PTCONT.1708422",
      "street": "SIT CORTE MOURAO",
      "house": "",
      "postcode": "8375-206",
      "city": "SÃO MARCOS DA SERRA",
      "lon": "-8.344281636016651",
      "lat": "37.35561393470179"
    },
    {
      "id": "pt.ine.add.PTCONT.1800214",
      "street": "SIT AGUA VELHA DA ALDEIA",
      "house": "",
      "postcode": "8375-206",
      "city": "SÃO MARCOS DA SERRA",
      "lon": "-8.326641463015015",
      "lat": "37.3607078790508"
    },
    {
      "id": "pt.ine.add.PTCONT.1823499",
      "street": "SIT CORTE MOURAO",
      "house": "",
      "postcode": "8375-206",
      "city": "SÃO MARCOS DA SERRA",
      "lon": "-8.344551921936299",
      "lat": "37.35539720550324"
    },
    {
      "id": "pt.ine.add.PTCONT.1834945",
      "street": "SIT CORTE MOURAO",
      "house": "",
      "postcode": "8375-206",
      "city": "SÃO MARCOS DA SERRA",
      "lon": "-8.344315901515083",
      "lat": "37.35575803777398"
    }
  ]
}