{
  "data": {
    "ilha": "Ilha da Madeira (Madeira)",
    "concelho": "Porto Moniz",
    "freguesia": "Porto Moniz",
    "OBJECTID": 60,
    "BGRI2021": "31060200214",
    "DT21": "31",
    "DTMN21": "3106",
    "DTMNFR21": "310602",
    "DTMNFRSEC21": "310602002",
    "SECNUM21": "002",
    "SSNUM21": "14",
    "SECSSNUM21": "00214",
    "OBJECTID_1": 204704,
    "DT": "31",
    "CC": "06",
    "fr": "02",
    "SEC": "002",
    "SS": "14",
    "BGRI2021_1": "31060200214"
  },
  "addresses": [
    {
      "id": "pt.ine.add.MAD.31549",
      "street": "R FIGUEIRAL",
      "house": "6",
      "postcode": "9270-150",
      "city": "PORTO MONIZ",
      "lon": "-17.167231914265855",
      "lat": "32.8670039891312"
    },
    {
      "id": "pt.ine.add.MAD.31550",
      "street": "R FIGUEIRAL",
      "house": "12",
      "postcode": "9270-150",
      "city": "PORTO MONIZ",
      "lon": "-17.166242514139704",
      "lat": "32.8671834557251"
    },
    {
      "id": "pt.ine.add.MAD.31551",
      "street": "BC FIGUEIRAL",
      "house": "8",
      "postcode": "9270-150",
      "city": "PORTO MONIZ",
      "lon": "-17.16640097748641",
      "lat": "32.86710856717989"
    },
    {
      "id": "pt.ine.add.MAD.31552",
      "street": "SIT FIGUEIRAL",
      "house": "6",
      "postcode": "9270-150",
      "city": "PORTO MONIZ",
      "lon": "-17.16648533034819",
      "lat": "32.867062016203775"
    },
    {
      "id": "pt.ine.add.MAD.31553",
      "street": "BC FIGUEIRAL",
      "house": "N 6",
      "postcode": "9270-150",
      "city": "PORTO MONIZ",
      "lon": "-17.16648533034819",
      "lat": "32.867062016203775"
    },
    {
      "id": "pt.ine.add.MAD.31554",
      "street": "BC FIGUEIRAL",
      "house": "",
      "postcode": "9270-150",
      "city": "PORTO MONIZ",
      "lon": "-17.166559440558398",
      "lat": "32.86703367844404"
    },
    {
      "id": "pt.ine.add.MAD.31555",
      "street": "BC FIGUEIRAL",
      "house": "",
      "postcode": "9270-150",
      "city": "PORTO MONIZ",
      "lon": "-17.16670744152197",
      "lat": "32.86696798869844"
    },
    {
      "id": "pt.ine.add.MAD.31556",
      "street": "BC PASSAL",
      "house": "8",
      "postcode": "9270-095",
      "city": "PORTO MONIZ",
      "lon": "-17.166703055359527",
      "lat": "32.86678770669985"
    },
    {
      "id": "pt.ine.add.MAD.31557",
      "street": "BC PASSAL",
      "house": "5",
      "postcode": "9270-095",
      "city": "PORTO MONIZ",
      "lon": "-17.16685932437892",
      "lat": "32.866622676618704"
    },
    {
      "id": "pt.ine.add.MAD.31558",
      "street": "BC FIGUEIRAL",
      "house": "",
      "postcode": "9270-150",
      "city": "PORTO MONIZ",
      "lon": "-17.16685581524632",
      "lat": "32.86647845102685"
    },
    {
      "id": "pt.ine.add.MAD.31559",
      "street": "BC ILHEU MOLE ALOJAMENTOS RODRIGUES",
      "house": "2",
      "postcode": "9270-150",
      "city": "PORTO MONIZ",
      "lon": "-17.16680576500595",
      "lat": "32.867056463926225"
    },
    {
      "id": "pt.ine.add.MAD.60076",
      "street": "BC PASSAL",
      "house": "2",
      "postcode": "9270-095",
      "city": "PORTO MONIZ",
      "lon": "-17.166618857708983",
      "lat": "32.866401395898414"
    },
    {
      "id": "pt.ine.add.MAD.67449",
      "street": "R FIGUEIRAL",
      "house": "",
      "postcode": "9270-150",
      "city": "PORTO MONIZ",
      "lon": "-17.16714310773814",
      "lat": "32.866428382748566"
    },
    {
      "id": "pt.ine.add.MAD.67450",
      "street": "BC FIGUEIRAL",
      "house": "",
      "postcode": "9270-150",
      "city": "PORTO MONIZ",
      "lon": "-17.16652608135266",
      "lat": "32.866980149040394"
    },
    {
      "id": "pt.ine.add.MAD.71079",
      "street": "BC PASSAL",
      "house": "9",
      "postcode": "9270-095",
      "city": "PORTO MONIZ",
      "lon": "-17.166873514655194",
      "lat": "32.86676671711345"
    },
    {
      "id": "pt.ine.add.MAD.79670",
      "street": "BC PASSAL",
      "house": "4",
      "postcode": "9270-095",
      "city": "PORTO MONIZ",
      "lon": "-17.166621927853992",
      "lat": "32.866527593312874"
    },
    {
      "id": "pt.ine.add.MAD.81204",
      "street": "BC FIGUEIRAL",
      "house": "4",
      "postcode": "9270-150",
      "city": "PORTO MONIZ",
      "lon": "-17.166622869570443",
      "lat": "32.86700552571636"
    },
    {
      "id": "pt.ine.add.MAD.81205",
      "street": "BC FIGUEIRAL",
      "house": "1",
      "postcode": "9270-150",
      "city": "PORTO MONIZ",
      "lon": "-17.16688880162643",
      "lat": "32.866955828095335"
    },
    {
      "id": "pt.ine.add.MAD.85043",
      "street": "BC FIGUEIRAL",
      "house": "10",
      "postcode": "9270-150",
      "city": "PORTO MONIZ",
      "lon": "-17.16634801021863",
      "lat": "32.86712752064836"
    },
    {
      "id": "pt.ine.add.MAD.85044",
      "street": "BC PASSAL",
      "house": "6",
      "postcode": "9270-095",
      "city": "PORTO MONIZ",
      "lon": "-17.166647018132842",
      "lat": "32.86668046288014"
    },
    {
      "id": "pt.ine.add.MAD.91362",
      "street": "R FIGUEIRAL",
      "house": "",
      "postcode": "9270-150",
      "city": "PORTO MONIZ",
      "lon": "-17.167246476298374",
      "lat": "32.866724181880386"
    },
    {
      "id": "pt.ine.add.MAD.96569",
      "street": "R FORTE DE S JO√ÉO BAPTISTA",
      "house": "7",
      "postcode": "9270-150",
      "city": "PORTO MONIZ",
      "lon": "-17.16612715160905",
      "lat": "32.866833756077334"
    },
    {
      "id": "pt.ine.add.MAD.96570",
      "street": "BC ILHEU MOLE ALOJAMENTOS RODRIGUES",
      "house": "2",
      "postcode": "9270-150",
      "city": "PORTO MONIZ",
      "lon": "-17.16680576500595",
      "lat": "32.867056463926225"
    },
    {
      "id": "pt.ine.add.MAD.102052",
      "street": "BC FIGUEIRAL",
      "house": "14",
      "postcode": "9270-150",
      "city": "PORTO MONIZ",
      "lon": "-17.166770651121986",
      "lat": "32.866930821799826"
    }
  ]
}