{
  "data": {
    "distrito": "Faro",
    "concelho": "Loulé",
    "freguesia": "Loulé (São Clemente)",
    "OBJECTID": 228,
    "BGRI2021": "08080801114",
    "DT21": "08",
    "DTMN21": "0808",
    "DTMNFR21": "080808",
    "DTMNFRSEC21": "080808011",
    "SECNUM21": "011",
    "SSNUM21": "14",
    "SECSSNUM21": "01114",
    "OBJECTID_1": 68923,
    "DT": "08",
    "CC": "08",
    "fr": "08",
    "SEC": "011",
    "SS": "14"
  },
  "addresses": [
    {
      "id": "pt.ine.add.PTCONT.1473561",
      "street": "EN 396",
      "house": "",
      "postcode": "8100-302",
      "city": "LOULÉ",
      "lon": "-8.046011254094577",
      "lat": "37.114668399529066"
    },
    {
      "id": "pt.ine.add.PTCONT.1473562",
      "street": "EN 396",
      "house": "",
      "postcode": "8100-302",
      "city": "LOULÉ",
      "lon": "-8.046011254094577",
      "lat": "37.114668399529066"
    },
    {
      "id": "pt.ine.add.PTCONT.1476646",
      "street": "",
      "house": "",
      "postcode": "8100-302",
      "city": "LOULÉ",
      "lon": "-8.046188480082767",
      "lat": "37.10727078414176"
    },
    {
      "id": "pt.ine.add.PTCONT.1500487",
      "street": "EN 396",
      "house": "",
      "postcode": "8100-302",
      "city": "LOULÉ",
      "lon": "-8.045775057754456",
      "lat": "37.11459614061373"
    },
    {
      "id": "pt.ine.add.PTCONT.1524212",
      "street": "EN 396",
      "house": "",
      "postcode": "8100-302",
      "city": "LOULÉ",
      "lon": "-8.047127769929055",
      "lat": "37.11234446717077"
    },
    {
      "id": "pt.ine.add.PTCONT.1529498",
      "street": "EN 396",
      "house": "",
      "postcode": "8100-302",
      "city": "LOULÉ",
      "lon": "-8.047104534148383",
      "lat": "37.11299321709417"
    },
    {
      "id": "pt.ine.add.PTCONT.1576051",
      "street": "EN 396 CASA ALEIXO",
      "house": "",
      "postcode": "8100-302",
      "city": "LOULÉ",
      "lon": "-8.047014361815114",
      "lat": "37.11313732203747"
    },
    {
      "id": "pt.ine.add.PTCONT.1582084",
      "street": "R CARCAVAI CASINHA DA CALDEIRA",
      "house": "",
      "postcode": "8100-302",
      "city": "LOULÉ",
      "lon": "-8.045871115598128",
      "lat": "37.10932498069659"
    },
    {
      "id": "pt.ine.add.PTCONT.1590260",
      "street": "EN 396 CASA RIBEIRO",
      "house": "",
      "postcode": "8100-302",
      "city": "LOULÉ",
      "lon": "-8.047059213521775",
      "lat": "37.1132725143292"
    },
    {
      "id": "pt.ine.add.PTCONT.1616718",
      "street": "EN 396",
      "house": "",
      "postcode": "8100-302",
      "city": "LOULÉ",
      "lon": "-8.046709976477581",
      "lat": "37.11366872888916"
    },
    {
      "id": "pt.ine.add.PTCONT.1637680",
      "street": "R CARCAVAI",
      "house": "24",
      "postcode": "8100-302",
      "city": "LOULÉ",
      "lon": "-8.047538180732948",
      "lat": "37.10756911755091"
    },
    {
      "id": "pt.ine.add.PTCONT.1671241",
      "street": "R CARCAVAI CASA DA CALDEIRA",
      "house": "",
      "postcode": "8100-302",
      "city": "LOULÉ",
      "lon": "-8.046557319965151",
      "lat": "37.10939756881169"
    },
    {
      "id": "pt.ine.add.PTCONT.1676953",
      "street": "EN 396",
      "house": "",
      "postcode": "8100-302",
      "city": "LOULÉ",
      "lon": "-8.04585474789331",
      "lat": "37.11378524103216"
    },
    {
      "id": "pt.ine.add.PTCONT.1782255",
      "street": "CASA OA OLIVEIRA",
      "house": "",
      "postcode": "8100-302",
      "city": "LOULÉ",
      "lon": "-8.046514584703564",
      "lat": "37.1074061826078"
    },
    {
      "id": "pt.ine.add.PTCONT.1837271",
      "street": "R CARCAVAI CASA TAPIOLA",
      "house": "",
      "postcode": "8100-302",
      "city": "LOULÉ",
      "lon": "-8.047299677082503",
      "lat": "37.10956030015037"
    }
  ]
}