{
  "data": {
    "distrito": "Lisboa",
    "concelho": "Sintra",
    "freguesia": "Algueirão-Mem Martins",
    "OBJECTID": 557,
    "BGRI2021": "11110201010",
    "DT21": "11",
    "DTMN21": "1111",
    "DTMNFR21": "111102",
    "DTMNFRSEC21": "111102010",
    "SECNUM21": "010",
    "SSNUM21": "10",
    "SECSSNUM21": "01010",
    "OBJECTID_1": 111784,
    "DT": "11",
    "CC": "11",
    "fr": "02",
    "SEC": "010",
    "SS": "10"
  },
  "addresses": [
    {
      "id": "pt.ine.add.PTCONT.2281831",
      "street": "R SENHORA DE FÁTIMA",
      "house": "22",
      "postcode": "2725-500",
      "city": "MEM MARTINS",
      "lon": "-9.339308403360432",
      "lat": "38.7904233369153"
    },
    {
      "id": "pt.ine.add.PTCONT.2290595",
      "street": "R SENHORA DE FÁTIMA",
      "house": "10",
      "postcode": "2725-500",
      "city": "MEM MARTINS",
      "lon": "-9.338527114185046",
      "lat": "38.79050346101203"
    },
    {
      "id": "pt.ine.add.PTCONT.2545106",
      "street": "R PADRE CRUZ",
      "house": "10",
      "postcode": "2725-681",
      "city": "MEM MARTINS",
      "lon": "-9.3394922179735",
      "lat": "38.79040342389295"
    },
    {
      "id": "pt.ine.add.PTCONT.2574048",
      "street": "R SENHORA DE FÁTIMA",
      "house": "4",
      "postcode": "2725-500",
      "city": "MEM MARTINS",
      "lon": "-9.338274406202462",
      "lat": "38.790533090786575"
    },
    {
      "id": "pt.ine.add.PTCONT.2723053",
      "street": "R SENHORA DE FÁTIMA",
      "house": "20",
      "postcode": "2725-500",
      "city": "MEM MARTINS",
      "lon": "-9.339101573848735",
      "lat": "38.790443487202445"
    },
    {
      "id": "pt.ine.add.PTCONT.2741964",
      "street": "R PADRE CRUZ",
      "house": "12",
      "postcode": "2725-681",
      "city": "MEM MARTINS",
      "lon": "-9.339391687490956",
      "lat": "38.79058461467855"
    },
    {
      "id": "pt.ine.add.PTCONT.2755661",
      "street": "R SENHORA DE FÁTIMA",
      "house": "16",
      "postcode": "2725-500",
      "city": "MEM MARTINS",
      "lon": "-9.338860373748004",
      "lat": "38.79047299946184"
    },
    {
      "id": "pt.ine.add.PTCONT.2821442",
      "street": "R SENHORA DE FÁTIMA",
      "house": "6",
      "postcode": "2725-500",
      "city": "MEM MARTINS",
      "lon": "-9.338343299007427",
      "lat": "38.79052337252397"
    },
    {
      "id": "pt.ine.add.PTCONT.2903549",
      "street": "R PADRE CRUZ",
      "house": "20",
      "postcode": "2725-681",
      "city": "MEM MARTINS",
      "lon": "-9.33915534373857",
      "lat": "38.790902321970414"
    },
    {
      "id": "pt.ine.add.PTCONT.3049141",
      "street": "R PADRE CRUZ",
      "house": "14",
      "postcode": "2725-681",
      "city": "MEM MARTINS",
      "lon": "-9.33933490937779",
      "lat": "38.79063023906217"
    },
    {
      "id": "pt.ine.add.PTCONT.3145117",
      "street": "R PADRE CRUZ",
      "house": "24",
      "postcode": "2725-681",
      "city": "MEM MARTINS",
      "lon": "-9.339043759508604",
      "lat": "38.79111064947461"
    },
    {
      "id": "pt.ine.add.PTCONT.3189871",
      "street": "R PADRE CRUZ",
      "house": "18",
      "postcode": "2725-681",
      "city": "MEM MARTINS",
      "lon": "-9.339211059725317",
      "lat": "38.79079365514169"
    },
    {
      "id": "pt.ine.add.PTCONT.3189872",
      "street": "R PADRE CRUZ",
      "house": "22",
      "postcode": "2725-681",
      "city": "MEM MARTINS",
      "lon": "-9.339110376234874",
      "lat": "38.79096583961799"
    },
    {
      "id": "pt.ine.add.PTCONT.3216732",
      "street": "R SENHORA DE FÁTIMA",
      "house": "18",
      "postcode": "2725-500",
      "city": "MEM MARTINS",
      "lon": "-9.33900981819404",
      "lat": "38.79046244952071"
    },
    {
      "id": "pt.ine.add.PTCONT.3281339",
      "street": "R SENHORA DE FÁTIMA",
      "house": "14",
      "postcode": "2725-500",
      "city": "MEM MARTINS",
      "lon": "-9.338745603179223",
      "lat": "38.79049219907482"
    },
    {
      "id": "pt.ine.add.PTCONT.3357797",
      "street": "R PADRE CRUZ",
      "house": "16",
      "postcode": "2725-681",
      "city": "MEM MARTINS",
      "lon": "-9.339256178818761",
      "lat": "38.79073914353232"
    },
    {
      "id": "pt.ine.add.PTCONT.3401371",
      "street": "R SENHORA DE FÁTIMA O NOSSO SONHO",
      "house": "12",
      "postcode": "2725-500",
      "city": "MEM MARTINS",
      "lon": "-9.338607514328073",
      "lat": "38.79049362387536"
    }
  ]
}