{
  "data": {
    "distrito": "Lisboa",
    "concelho": "Cascais",
    "freguesia": "União das freguesias de Cascais e Estoril",
    "OBJECTID": 1303,
    "BGRI2021": "11050804502",
    "DT21": "11",
    "DTMN21": "1105",
    "DTMNFR21": "110508",
    "DTMNFRSEC21": "110508045",
    "SECNUM21": "045",
    "SSNUM21": "02",
    "SECSSNUM21": "04502",
    "OBJECTID_1": 101457,
    "DT": "11",
    "CC": "05",
    "fr": "08",
    "SEC": "045",
    "SS": "02"
  },
  "addresses": [
    {
      "id": "pt.ine.add.PTCONT.2981745",
      "street": "R ALVES REDOL",
      "house": "1Z",
      "postcode": "2750-014",
      "city": "CASCAIS",
      "lon": "-9.448490810120644",
      "lat": "38.72865100751397"
    },
    {
      "id": "pt.ine.add.PTCONT.3018221",
      "street": "R CHESOL",
      "house": "630",
      "postcode": "2750-024",
      "city": "CASCAIS",
      "lon": "-9.448165261679344",
      "lat": "38.72845650208151"
    },
    {
      "id": "pt.ine.add.PTCONT.3084010",
      "street": "R BENTO DE JESUS CARAÇA",
      "house": "",
      "postcode": "2750-022",
      "city": "CASCAIS",
      "lon": "-9.448329687093851",
      "lat": "38.72864381284917"
    },
    {
      "id": "pt.ine.add.PTCONT.3222589",
      "street": "R BENTO DE JESUS CARAÇA",
      "house": "27",
      "postcode": "2750-022",
      "city": "CASCAIS",
      "lon": "-9.447916785914797",
      "lat": "38.7287025037863"
    },
    {
      "id": "pt.ine.add.PTCONT.3241364",
      "street": "R BENTO DE JESUS CARAÇA",
      "house": "9",
      "postcode": "2750-022",
      "city": "CASCAIS",
      "lon": "-9.44749123174693",
      "lat": "38.72869828197971"
    },
    {
      "id": "pt.ine.add.PTCONT.3250187",
      "street": "R CHESOL",
      "house": "564",
      "postcode": "2750-024",
      "city": "CASCAIS",
      "lon": "-9.447810448330605",
      "lat": "38.72792003407327"
    },
    {
      "id": "pt.ine.add.PTCONT.3256303",
      "street": "R CHESOL",
      "house": "564",
      "postcode": "2750-024",
      "city": "CASCAIS",
      "lon": "-9.447810448330605",
      "lat": "38.72792003407327"
    },
    {
      "id": "pt.ine.add.PTCONT.3438502",
      "street": "R BENTO DE JESUS CARAÇA",
      "house": "21",
      "postcode": "2750-022",
      "city": "CASCAIS",
      "lon": "-9.447789328441694",
      "lat": "38.728649891444064"
    },
    {
      "id": "pt.ine.add.PTCONT.2274573",
      "street": "R BENTO DE JESUS CARAÇA",
      "house": "491",
      "postcode": "2750-022",
      "city": "CASCAIS",
      "lon": "-9.448123071477935",
      "lat": "38.728664152704674"
    },
    {
      "id": "pt.ine.add.PTCONT.2332095",
      "street": "R CHESOL",
      "house": "494",
      "postcode": "2750-024",
      "city": "CASCAIS",
      "lon": "-9.447295180279315",
      "lat": "38.72741239189728"
    },
    {
      "id": "pt.ine.add.PTCONT.2359015",
      "street": "R CHESOL",
      "house": "504",
      "postcode": "2750-024",
      "city": "CASCAIS",
      "lon": "-9.447320483987308",
      "lat": "38.72753821457083"
    },
    {
      "id": "pt.ine.add.PTCONT.2595082",
      "street": "R BENTO DE JESUS CARAÇA",
      "house": "49",
      "postcode": "2750-022",
      "city": "CASCAIS",
      "lon": "-9.447533918924455",
      "lat": "38.72851764894243"
    },
    {
      "id": "pt.ine.add.PTCONT.2608234",
      "street": "R CHESOL",
      "house": "522",
      "postcode": "2750-024",
      "city": "CASCAIS",
      "lon": "-9.447598718216845",
      "lat": "38.72766119326589"
    },
    {
      "id": "pt.ine.add.PTCONT.2687561",
      "street": "R GONZALO TORRENTE BALLESTER",
      "house": "",
      "postcode": "2750-812",
      "city": "CASCAIS",
      "lon": "-9.446997088335074",
      "lat": "38.7274607810982"
    },
    {
      "id": "pt.ine.add.PTCONT.2760520",
      "street": "R BENTO DE JESUS CARAÇA",
      "house": "61",
      "postcode": "2750-022",
      "city": "CASCAIS",
      "lon": "-9.448237215774448",
      "lat": "38.728617830299086"
    },
    {
      "id": "pt.ine.add.PTCONT.2810121",
      "street": "R CHESOL CHALET MISTO",
      "house": "518",
      "postcode": "2750-024",
      "city": "CASCAIS",
      "lon": "-9.447198143819616",
      "lat": "38.72776478129139"
    },
    {
      "id": "pt.ine.add.PTCONT.2850287",
      "street": "R CHESOL",
      "house": "532",
      "postcode": "2750-024",
      "city": "CASCAIS",
      "lon": "-9.447635024264377",
      "lat": "38.72775986917909"
    },
    {
      "id": "pt.ine.add.PTCONT.2863002",
      "street": "R CHESOL",
      "house": "614",
      "postcode": "2750-024",
      "city": "CASCAIS",
      "lon": "-9.44811646690199",
      "lat": "38.72830392093364"
    },
    {
      "id": "pt.ine.add.PTCONT.2871969",
      "street": "R BENTO DE JESUS CARAÇA",
      "house": "43",
      "postcode": "2750-022",
      "city": "CASCAIS",
      "lon": "-9.448053429077849",
      "lat": "38.728628905535935"
    }
  ]
}