{
  "data": {
    "distrito": "Leiria",
    "concelho": "Caldas da Rainha",
    "freguesia": "Vidais",
    "OBJECTID": 80,
    "BGRI2021": "10061500107",
    "DT21": "10",
    "DTMN21": "1006",
    "DTMNFR21": "100615",
    "DTMNFRSEC21": "100615001",
    "SECNUM21": "001",
    "SSNUM21": "07",
    "SECSSNUM21": "00107",
    "OBJECTID_1": 88302,
    "DT": "10",
    "CC": "06",
    "fr": "15",
    "SEC": "001",
    "SS": "07"
  },
  "addresses": [
    {
      "id": "pt.ine.add.PTCONT.1979645",
      "street": "R BOAVISTA",
      "house": "20",
      "postcode": "2500-735",
      "city": "VIDAIS",
      "lon": "-9.011524708339632",
      "lat": "39.34474589112191"
    },
    {
      "id": "pt.ine.add.PTCONT.1995770",
      "street": "R PRINCIPAL",
      "house": "35",
      "postcode": "2500-747",
      "city": "VIDAIS",
      "lon": "-9.015079700379935",
      "lat": "39.34425064064425"
    },
    {
      "id": "pt.ine.add.PTCONT.2000248",
      "street": "R PRINCIPAL",
      "house": "55",
      "postcode": "2500-747",
      "city": "VIDAIS",
      "lon": "-9.013641172450395",
      "lat": "39.343315797258626"
    },
    {
      "id": "pt.ine.add.PTCONT.2007708",
      "street": "R PRINCIPAL",
      "house": "49",
      "postcode": "2500-747",
      "city": "VIDAIS",
      "lon": "-9.014014931837782",
      "lat": "39.34352013009163"
    },
    {
      "id": "pt.ine.add.PTCONT.2017498",
      "street": "R PRINCIPAL",
      "house": "7",
      "postcode": "2500-747",
      "city": "VIDAIS",
      "lon": "-9.016978796673177",
      "lat": "39.345830473379195"
    },
    {
      "id": "pt.ine.add.PTCONT.2023921",
      "street": "R HORTAS",
      "house": "9",
      "postcode": "2500-736",
      "city": "VIDAIS",
      "lon": "-9.012074259403029",
      "lat": "39.34509301530596"
    },
    {
      "id": "pt.ine.add.PTCONT.2023924",
      "street": "R HORTAS",
      "house": "9",
      "postcode": "2500-736",
      "city": "VIDAIS",
      "lon": "-9.012074259403029",
      "lat": "39.34509301530596"
    },
    {
      "id": "pt.ine.add.PTCONT.2026646",
      "street": "R PRINCIPAL",
      "house": "",
      "postcode": "2500-747",
      "city": "VIDAIS",
      "lon": "-9.01685985607164",
      "lat": "39.345597194513715"
    },
    {
      "id": "pt.ine.add.PTCONT.2028361",
      "street": "R HORTAS",
      "house": "",
      "postcode": "2500-736",
      "city": "VIDAIS",
      "lon": "-9.011748584689116",
      "lat": "39.34502341841074"
    },
    {
      "id": "pt.ine.add.PTCONT.2032962",
      "street": "R FONTE DO ADRIAO",
      "house": "9",
      "postcode": "2500-747",
      "city": "VIDAIS",
      "lon": "-9.0142543710747",
      "lat": "39.34411278008011"
    },
    {
      "id": "pt.ine.add.PTCONT.2037318",
      "street": "BC SALVADOR",
      "house": "2",
      "postcode": "2500-739",
      "city": "VIDAIS",
      "lon": "-9.009995321651067",
      "lat": "39.346747972970725"
    },
    {
      "id": "pt.ine.add.PTCONT.2037321",
      "street": "R BOAVISTA",
      "house": "",
      "postcode": "2500-735",
      "city": "VIDAIS",
      "lon": "-9.010911760117589",
      "lat": "39.34396690603605"
    },
    {
      "id": "pt.ine.add.PTCONT.2041601",
      "street": "R PRINCIPAL",
      "house": "19",
      "postcode": "2500-747",
      "city": "VIDAIS",
      "lon": "-9.01669486032865",
      "lat": "39.345391286193454"
    },
    {
      "id": "pt.ine.add.PTCONT.2046038",
      "street": "R FONTE VELHA",
      "house": "",
      "postcode": "2500-747",
      "city": "VIDAIS",
      "lon": "-9.0166359578154",
      "lat": "39.345319677334544"
    },
    {
      "id": "pt.ine.add.PTCONT.2046041",
      "street": "R CASTELO",
      "house": "18",
      "postcode": "2500-747",
      "city": "VIDAIS",
      "lon": "-9.017522800453323",
      "lat": "39.346654984909875"
    },
    {
      "id": "pt.ine.add.PTCONT.2048642",
      "street": "R CASTELO",
      "house": "14 16",
      "postcode": "2500-747",
      "city": "VIDAIS",
      "lon": "-9.017428757738417",
      "lat": "39.3465566225021"
    },
    {
      "id": "pt.ine.add.PTCONT.2055072",
      "street": "R HORTAS",
      "house": "19",
      "postcode": "2500-736",
      "city": "VIDAIS",
      "lon": "-9.012716412814507",
      "lat": "39.3463491446014"
    },
    {
      "id": "pt.ine.add.PTCONT.2057216",
      "street": "R PERNOITA DO REI",
      "house": "57",
      "postcode": "2500-747",
      "city": "VIDAIS",
      "lon": "-9.0101252952419",
      "lat": "39.34322525328413"
    },
    {
      "id": "pt.ine.add.PTCONT.2084537",
      "street": "R GRILOS",
      "house": "13",
      "postcode": "2500-739",
      "city": "VIDAIS",
      "lon": "-9.010480803625011",
      "lat": "39.34753693048621"
    },
    {
      "id": "pt.ine.add.PTCONT.2084538",
      "street": "R CASTELO",
      "house": "",
      "postcode": "2500-747",
      "city": "VIDAIS",
      "lon": "-9.017241127057437",
      "lat": "39.346395922007865"
    },
    {
      "id": "pt.ine.add.PTCONT.2087652",
      "street": "R TAPADAO",
      "house": "",
      "postcode": "2500-747",
      "city": "VIDAIS",
      "lon": "-9.017149581575849",
      "lat": "39.34649569446166"
    },
    {
      "id": "pt.ine.add.PTCONT.2092090",
      "street": "LG LUIS LEAL DE OLIVEIRA",
      "house": "7",
      "postcode": "2500-747",
      "city": "VIDAIS",
      "lon": "-9.017051681820863",
      "lat": "39.34609112293151"
    },
    {
      "id": "pt.ine.add.PTCONT.2093924",
      "street": "R BOAVISTA",
      "house": "15",
      "postcode": "2500-735",
      "city": "VIDAIS",
      "lon": "-9.01154384724697",
      "lat": "39.34442149436396"
    },
    {
      "id": "pt.ine.add.PTCONT.2096260",
      "street": "R BOAVISTA",
      "house": "2",
      "postcode": "2500-735",
      "city": "VIDAIS",
      "lon": "-9.010571114253326",
      "lat": "39.3436272084212"
    },
    {
      "id": "pt.ine.add.PTCONT.2110099",
      "street": "R TAPADAO",
      "house": "7",
      "postcode": "2500-747",
      "city": "VIDAIS",
      "lon": "-9.016962405502182",
      "lat": "39.346371018072595"
    },
    {
      "id": "pt.ine.add.PTCONT.2118452",
      "street": "R HORTAS",
      "house": "14",
      "postcode": "2500-736",
      "city": "VIDAIS",
      "lon": "-9.011891720652253",
      "lat": "39.34533758296261"
    },
    {
      "id": "pt.ine.add.PTCONT.2118454",
      "street": "R BOAVISTA",
      "house": "16",
      "postcode": "2500-735",
      "city": "VIDAIS",
      "lon": "-9.01145331074859",
      "lat": "39.34460231785069"
    },
    {
      "id": "pt.ine.add.PTCONT.2122877",
      "street": "R FONTE DO ADRIAO",
      "house": "7",
      "postcode": "2500-747",
      "city": "VIDAIS",
      "lon": "-9.014169560421637",
      "lat": "39.34382519789801"
    },
    {
      "id": "pt.ine.add.PTCONT.2126771",
      "street": "R PRINCIPAL",
      "house": "",
      "postcode": "2500-747",
      "city": "VIDAIS",
      "lon": "-9.016765815721888",
      "lat": "39.34549883152588"
    },
    {
      "id": "pt.ine.add.PTCONT.2133695",
      "street": "R PRINCIPAL",
      "house": "37",
      "postcode": "2500-747",
      "city": "VIDAIS",
      "lon": "-9.015232297218304",
      "lat": "39.344393596251976"
    },
    {
      "id": "pt.ine.add.PTCONT.2135820",
      "street": "R PRINCIPAL",
      "house": "11",
      "postcode": "2500-747",
      "city": "VIDAIS",
      "lon": "-9.016792076407961",
      "lat": "39.34574182124939"
    },
    {
      "id": "pt.ine.add.PTCONT.2140431",
      "street": "TV FLORES",
      "house": "6",
      "postcode": "2500-747",
      "city": "VIDAIS",
      "lon": "-9.017055653061123",
      "lat": "39.34640633788247"
    },
    {
      "id": "pt.ine.add.PTCONT.2159912",
      "street": "R TAPADAO",
      "house": "",
      "postcode": "2500-747",
      "city": "VIDAIS",
      "lon": "-9.016971281826871",
      "lat": "39.3461547825831"
    },
    {
      "id": "pt.ine.add.PTCONT.2163489",
      "street": "R HORTAS",
      "house": "12",
      "postcode": "2500-736",
      "city": "VIDAIS",
      "lon": "-9.011785411803327",
      "lat": "39.34518526651061"
    },
    {
      "id": "pt.ine.add.PTCONT.2166496",
      "street": "R PRINCIPAL",
      "house": "",
      "postcode": "2500-747",
      "city": "VIDAIS",
      "lon": "-9.01552430817069",
      "lat": "39.34455350871182"
    },
    {
      "id": "pt.ine.add.PTCONT.2166497",
      "street": "R PRINCIPAL",
      "house": "9",
      "postcode": "2500-747",
      "city": "VIDAIS",
      "lon": "-9.01695480427965",
      "lat": "39.34576760656092"
    },
    {
      "id": "pt.ine.add.PTCONT.2173981",
      "street": "TV FLORES",
      "house": "",
      "postcode": "2500-747",
      "city": "VIDAIS",
      "lon": "-9.01705485880808",
      "lat": "39.346343294893664"
    },
    {
      "id": "pt.ine.add.PTCONT.2175035",
      "street": "R FONTE VELHA",
      "house": "8",
      "postcode": "2500-747",
      "city": "VIDAIS",
      "lon": "-9.015722692327616",
      "lat": "39.34556979603472"
    },
    {
      "id": "pt.ine.add.PTCONT.2179359",
      "street": "BC SALVADOR",
      "house": "",
      "postcode": "2500-739",
      "city": "VIDAIS",
      "lon": "-9.009704664081294",
      "lat": "39.346696120561745"
    },
    {
      "id": "pt.ine.add.PTCONT.2181251",
      "street": "R PRINCIPAL",
      "house": "5",
      "postcode": "2500-747",
      "city": "VIDAIS",
      "lon": "-9.01702598737774",
      "lat": "39.34589316400327"
    },
    {
      "id": "pt.ine.add.PTCONT.2183845",
      "street": "R TAPADAO",
      "house": "1",
      "postcode": "2500-747",
      "city": "VIDAIS",
      "lon": "-9.016938526378787",
      "lat": "39.34631715740027"
    },
    {
      "id": "pt.ine.add.PTCONT.2188232",
      "street": "LG LUIS LEAL",
      "house": "4",
      "postcode": "2500-747",
      "city": "VIDAIS",
      "lon": "-9.017169716091832",
      "lat": "39.34625235243569"
    },
    {
      "id": "pt.ine.add.PTCONT.2199658",
      "street": "R PRINCIPAL",
      "house": "",
      "postcode": "2500-747",
      "city": "VIDAIS",
      "lon": "-9.015664741237206",
      "lat": "39.34465152093305"
    },
    {
      "id": "pt.ine.add.PTCONT.2199662",
      "street": "R CASTELO",
      "house": "",
      "postcode": "2500-747",
      "city": "VIDAIS",
      "lon": "-9.017312084326795",
      "lat": "39.34650346696779"
    },
    {
      "id": "pt.ine.add.PTCONT.2213062",
      "street": "R BOAVISTA",
      "house": "",
      "postcode": "2500-735",
      "city": "VIDAIS",
      "lon": "-9.011307360341506",
      "lat": "39.34406299871639"
    },
    {
      "id": "pt.ine.add.PTCONT.2215256",
      "street": "R GRILOS",
      "house": "19",
      "postcode": "2500-739",
      "city": "VIDAIS",
      "lon": "-9.010622249606891",
      "lat": "39.34771600414934"
    },
    {
      "id": "pt.ine.add.PTCONT.2217452",
      "street": "TV JOGO",
      "house": "2",
      "postcode": "2500-747",
      "city": "VIDAIS",
      "lon": "-9.017593531350022",
      "lat": "39.34674451740672"
    },
    {
      "id": "pt.ine.add.PTCONT.2217453",
      "street": "TV JOGO",
      "house": "2",
      "postcode": "2500-747",
      "city": "VIDAIS",
      "lon": "-9.017593531350022",
      "lat": "39.34674451740672"
    },
    {
      "id": "pt.ine.add.PTCONT.2246314",
      "street": "R PRINCIPAL",
      "house": "31",
      "postcode": "2500-747",
      "city": "VIDAIS",
      "lon": "-9.015969259750296",
      "lat": "39.34488339346036"
    },
    {
      "id": "pt.ine.add.PTCONT.2252311",
      "street": "R HORTAS",
      "house": "16",
      "postcode": "2500-736",
      "city": "VIDAIS",
      "lon": "-9.011974380566022",
      "lat": "39.34545404987291"
    },
    {
      "id": "pt.ine.add.PTCONT.2252318",
      "street": "R CASTELO",
      "house": "",
      "postcode": "2500-747",
      "city": "VIDAIS",
      "lon": "-9.017263077084227",
      "lat": "39.34629667822166"
    },
    {
      "id": "pt.ine.add.PTCONT.2255675",
      "street": "R PRINCIPAL",
      "house": "",
      "postcode": "2500-747",
      "city": "VIDAIS",
      "lon": "-9.013338701961523",
      "lat": "39.34324602920832"
    },
    {
      "id": "pt.ine.add.PTCONT.2262586",
      "street": "R BOAVISTA",
      "house": "10",
      "postcode": "2500-735",
      "city": "VIDAIS",
      "lon": "-9.011136307700697",
      "lat": "39.34429847154938"
    },
    {
      "id": "pt.ine.add.PTCONT.2267307",
      "street": "R PRINCIPAL",
      "house": "",
      "postcode": "2500-747",
      "city": "VIDAIS",
      "lon": "-9.013849497203266",
      "lat": "39.34327819290015"
    }
  ]
}