{
  "data": {
    "distrito": "Leiria",
    "concelho": "Caldas da Rainha",
    "freguesia": "Vidais",
    "OBJECTID": 171,
    "BGRI2021": "10061500118",
    "DT21": "10",
    "DTMN21": "1006",
    "DTMNFR21": "100615",
    "DTMNFRSEC21": "100615001",
    "SECNUM21": "001",
    "SSNUM21": "18",
    "SECSSNUM21": "00118",
    "OBJECTID_1": 88157,
    "DT": "10",
    "CC": "06",
    "fr": "15",
    "SEC": "001",
    "SS": "18"
  },
  "addresses": [
    {
      "id": "pt.ine.add.PTCONT.1995756",
      "street": "R COUTOS DE ALCOBACA",
      "house": "4",
      "postcode": "2500-739",
      "city": "VIDAIS",
      "lon": "-8.998651947986858",
      "lat": "39.361937626390066"
    },
    {
      "id": "pt.ine.add.PTCONT.2007706",
      "street": "R D AFONSO HENRIQUES",
      "house": "138",
      "postcode": "2500-739",
      "city": "VIDAIS",
      "lon": "-9.001136636607747",
      "lat": "39.36207223777848"
    },
    {
      "id": "pt.ine.add.PTCONT.2008790",
      "street": "R REI CONQUISTADOR",
      "house": "20",
      "postcode": "2500-739",
      "city": "VIDAIS",
      "lon": "-8.998934803341438",
      "lat": "39.360413341017"
    },
    {
      "id": "pt.ine.add.PTCONT.2048528",
      "street": "R REI CONQUISTADOR",
      "house": "12",
      "postcode": "2500-739",
      "city": "VIDAIS",
      "lon": "-8.998573222369021",
      "lat": "39.36119963883476"
    },
    {
      "id": "pt.ine.add.PTCONT.2059111",
      "street": "R D AFONSO HENRIQUES",
      "house": "144",
      "postcode": "2500-739",
      "city": "VIDAIS",
      "lon": "-9.000614998599874",
      "lat": "39.36211215559086"
    },
    {
      "id": "pt.ine.add.PTCONT.2059112",
      "street": "R REI CONQUISTADOR",
      "house": "50",
      "postcode": "2500-739",
      "city": "VIDAIS",
      "lon": "-8.99784803736996",
      "lat": "39.36261012013522"
    },
    {
      "id": "pt.ine.add.PTCONT.2061192",
      "street": "R COUTOS DE ALCOBACA",
      "house": "3",
      "postcode": "2500-739",
      "city": "VIDAIS",
      "lon": "-8.99891589923807",
      "lat": "39.361701481153375"
    },
    {
      "id": "pt.ine.add.PTCONT.2111034",
      "street": "R REI CONQUISTADOR",
      "house": "14",
      "postcode": "2500-739",
      "city": "VIDAIS",
      "lon": "-8.998801699033905",
      "lat": "39.360909715724254"
    },
    {
      "id": "pt.ine.add.PTCONT.2181165",
      "street": "R D AFONSO HENRIQUES",
      "house": "140",
      "postcode": "2500-739",
      "city": "VIDAIS",
      "lon": "-9.000777424726357",
      "lat": "39.36211094462668"
    },
    {
      "id": "pt.ine.add.PTCONT.2188209",
      "street": "R REI CONQUISTADOR",
      "house": "8",
      "postcode": "2500-739",
      "city": "VIDAIS",
      "lon": "-8.998447826129379",
      "lat": "39.36138071114777"
    },
    {
      "id": "pt.ine.add.PTCONT.2213045",
      "street": "R REI CONQUISTADOR",
      "house": "",
      "postcode": "2500-739",
      "city": "VIDAIS",
      "lon": "-8.998310494109527",
      "lat": "39.36153485109804"
    },
    {
      "id": "pt.ine.add.PTCONT.2256740",
      "street": "R D AFONSO HENRIQUES",
      "house": "138A",
      "postcode": "2500-739",
      "city": "VIDAIS",
      "lon": "-9.000925016742993",
      "lat": "39.3618486414361"
    }
  ]
}