{
  "data": {
    "distrito": "Faro",
    "concelho": "Loulé",
    "freguesia": "União de freguesias de Querença, Tôr e Benafim",
    "OBJECTID": 1731,
    "BGRI2021": "08081200205",
    "DT21": "08",
    "DTMN21": "0808",
    "DTMNFR21": "080812",
    "DTMNFRSEC21": "080812002",
    "SECNUM21": "002",
    "SSNUM21": "05",
    "SECSSNUM21": "00205",
    "OBJECTID_1": 69259,
    "DT": "08",
    "CC": "08",
    "fr": "12",
    "SEC": "002",
    "SS": "05"
  },
  "addresses": [
    {
      "id": "pt.ine.add.PTCONT.1478383",
      "street": "SIT PONTÃO DO VALE",
      "house": "",
      "postcode": "8100-125",
      "city": "QUERENÇA",
      "lon": "-7.993154013194776",
      "lat": "37.180881679999125"
    },
    {
      "id": "pt.ine.add.PTCONT.1491223",
      "street": "SIT PONTÃO DO VALE",
      "house": "",
      "postcode": "8100-125",
      "city": "QUERENÇA",
      "lon": "-7.991443155325854",
      "lat": "37.180429119791334"
    },
    {
      "id": "pt.ine.add.PTCONT.1536325",
      "street": "SIT PONTÃO DO VALE",
      "house": "",
      "postcode": "8100-125",
      "city": "QUERENÇA",
      "lon": "-7.990346910441542",
      "lat": "37.182509238797174"
    },
    {
      "id": "pt.ine.add.PTCONT.1548594",
      "street": "SIT BARRANCO DAS QUINTANILHAS",
      "house": "",
      "postcode": "8100-125",
      "city": "QUERENÇA",
      "lon": "-7.996692875654277",
      "lat": "37.17929995157743"
    },
    {
      "id": "pt.ine.add.PTCONT.1595337",
      "street": "SIT CERRO GUERREIRO CASA REVEZ",
      "house": "",
      "postcode": "8100-125",
      "city": "QUERENÇA",
      "lon": "-7.992034982970802",
      "lat": "37.17706889287116"
    },
    {
      "id": "pt.ine.add.PTCONT.1640103",
      "street": "SIT PONTÃO DO VALE QTA DO CHEFE",
      "house": "",
      "postcode": "8100-125",
      "city": "QUERENÇA",
      "lon": "-7.990798161743046",
      "lat": "37.18208628631298"
    },
    {
      "id": "pt.ine.add.PTCONT.1653830",
      "street": "SIT CHARNECA DE QUERENCA",
      "house": "",
      "postcode": "8100-118",
      "city": "QUERENÇA",
      "lon": "-7.9951066065317455",
      "lat": "37.18465037532101"
    },
    {
      "id": "pt.ine.add.PTCONT.1679432",
      "street": "SIT CHARNECA DE QUERENCA",
      "house": "",
      "postcode": "8100-118",
      "city": "QUERENÇA",
      "lon": "-7.99481322628612",
      "lat": "37.18496540199"
    },
    {
      "id": "pt.ine.add.PTCONT.1690428",
      "street": "SIT PONTÃO DO VALE",
      "house": "",
      "postcode": "8100-125",
      "city": "QUERENÇA",
      "lon": "-7.992262422659123",
      "lat": "37.181934856749905"
    },
    {
      "id": "pt.ine.add.PTCONT.1730689",
      "street": "SIT PONTÃO DO VALE",
      "house": "",
      "postcode": "8100-125",
      "city": "QUERENÇA",
      "lon": "-7.99026867435688",
      "lat": "37.18219377565542"
    },
    {
      "id": "pt.ine.add.PTCONT.1733074",
      "street": "SIT CERRO GUERREIRO",
      "house": "",
      "postcode": "8100-125",
      "city": "QUERENÇA",
      "lon": "-7.991941394039918",
      "lat": "37.1789519854039"
    },
    {
      "id": "pt.ine.add.PTCONT.1828469",
      "street": "SIT CERRO GUERREIRO",
      "house": "",
      "postcode": "8100-125",
      "city": "QUERENÇA",
      "lon": "-7.992292772966086",
      "lat": "37.17771795884465"
    },
    {
      "id": "pt.ine.add.PTCONT.1847395",
      "street": "SIT CERRO GUERREIRO",
      "house": "",
      "postcode": "8100-125",
      "city": "QUERENÇA",
      "lon": "-7.992247194785812",
      "lat": "37.17800624213298"
    }
  ]
}