{
  "data": {
    "distrito": "Faro",
    "concelho": "Loulé",
    "freguesia": "União de freguesias de Querença, Tôr e Benafim",
    "OBJECTID": 1047,
    "BGRI2021": "08081200229",
    "DT21": "08",
    "DTMN21": "0808",
    "DTMNFR21": "080812",
    "DTMNFRSEC21": "080812002",
    "SECNUM21": "002",
    "SSNUM21": "29",
    "SECSSNUM21": "00229",
    "OBJECTID_1": 69731,
    "DT": "08",
    "CC": "08",
    "fr": "12",
    "SEC": "002",
    "SS": "29"
  },
  "addresses": [
    {
      "id": "pt.ine.add.PTCONT.1484335",
      "street": "SIT CHARNECA DE QUERENCA",
      "house": "",
      "postcode": "8100-118",
      "city": "QUERENÇA",
      "lon": "-8.000915325407794",
      "lat": "37.18599956820183"
    },
    {
      "id": "pt.ine.add.PTCONT.1486363",
      "street": "CERÂMICA NERGAL MORGADO DA TOR",
      "house": "3",
      "postcode": "8100-394",
      "city": "TÔR",
      "lon": "-8.019884320671691",
      "lat": "37.18342417871253"
    },
    {
      "id": "pt.ine.add.PTCONT.1495199",
      "street": "CERÂMICA NERGAL MORGADO DA TOR",
      "house": "12",
      "postcode": "8100-394",
      "city": "TÔR",
      "lon": "-8.020841994116397",
      "lat": "37.18312774215714"
    },
    {
      "id": "pt.ine.add.PTCONT.1505689",
      "street": "CAM MORGADO MONTE DO FREIXO",
      "house": "",
      "postcode": "8100-393",
      "city": "TÔR",
      "lon": "-8.023459221343142",
      "lat": "37.187770619649264"
    },
    {
      "id": "pt.ine.add.PTCONT.1505690",
      "street": "CAM MORGADO MONTE DO FREIXO",
      "house": "",
      "postcode": "8100-393",
      "city": "TÔR",
      "lon": "-8.023459221343142",
      "lat": "37.187770619649264"
    },
    {
      "id": "pt.ine.add.PTCONT.1509898",
      "street": "CERÂMICA NERGAL MORGADO DA TOR",
      "house": "9",
      "postcode": "8100-394",
      "city": "TÔR",
      "lon": "-8.020526524311142",
      "lat": "37.18322655877219"
    },
    {
      "id": "pt.ine.add.PTCONT.1511277",
      "street": "CAM MORGADO",
      "house": "",
      "postcode": "8100-393",
      "city": "TÔR",
      "lon": "-8.01869155280654",
      "lat": "37.190253018084796"
    },
    {
      "id": "pt.ine.add.PTCONT.1547251",
      "street": "CERÂMICA NERGAL MORGADO DA TOR",
      "house": "2",
      "postcode": "8100-394",
      "city": "TÔR",
      "lon": "-8.019794160819998",
      "lat": "37.18346914522167"
    },
    {
      "id": "pt.ine.add.PTCONT.1548593",
      "street": "SIT VALE MULHER",
      "house": "",
      "postcode": "8100-131",
      "city": "QUERENÇA",
      "lon": "-8.00250607586564",
      "lat": "37.197444699846"
    },
    {
      "id": "pt.ine.add.PTCONT.1551807",
      "street": "SIT PASSAGEM",
      "house": "",
      "postcode": "8100-129",
      "city": "QUERENÇA",
      "lon": "-8.005976064129277",
      "lat": "37.19697992744366"
    },
    {
      "id": "pt.ine.add.PTCONT.1557676",
      "street": "CERAMICA NERGAL MORGADO DA TOR",
      "house": "15",
      "postcode": "8100-394",
      "city": "TÔR",
      "lon": "-8.021236360120014",
      "lat": "37.18298394651483"
    },
    {
      "id": "pt.ine.add.PTCONT.1557677",
      "street": "CERAMICA NERGAL",
      "house": "16",
      "postcode": "8100-394",
      "city": "TÔR",
      "lon": "-8.021236360120014",
      "lat": "37.18298394651483"
    },
    {
      "id": "pt.ine.add.PTCONT.1557678",
      "street": "CERAMICA NERGAL",
      "house": "17",
      "postcode": "8100-394",
      "city": "TÔR",
      "lon": "-8.021236360120014",
      "lat": "37.18298394651483"
    },
    {
      "id": "pt.ine.add.PTCONT.1557679",
      "street": "CERAMICA NERGAL",
      "house": "20",
      "postcode": "8100-394",
      "city": "TÔR",
      "lon": "-8.021236360120014",
      "lat": "37.18298394651483"
    },
    {
      "id": "pt.ine.add.PTCONT.1557680",
      "street": "CERAMICA NERGAL",
      "house": "19",
      "postcode": "8100-394",
      "city": "TÔR",
      "lon": "-8.021236360120014",
      "lat": "37.18298394651483"
    },
    {
      "id": "pt.ine.add.PTCONT.1557681",
      "street": "CERAMICA NERGAL",
      "house": "21",
      "postcode": "8100-394",
      "city": "TÔR",
      "lon": "-8.021236360120014",
      "lat": "37.18298394651483"
    },
    {
      "id": "pt.ine.add.PTCONT.1557682",
      "street": "CERAMICA NERGAL",
      "house": "22",
      "postcode": "8100-394",
      "city": "TÔR",
      "lon": "-8.021236360120014",
      "lat": "37.18298394651483"
    },
    {
      "id": "pt.ine.add.PTCONT.1557683",
      "street": "CERAMICA NERGAL",
      "house": "23",
      "postcode": "8100-394",
      "city": "TÔR",
      "lon": "-8.021236360120014",
      "lat": "37.18298394651483"
    },
    {
      "id": "pt.ine.add.PTCONT.1559063",
      "street": "CERAMICA NERGAL",
      "house": "18",
      "postcode": "8100-394",
      "city": "TÔR",
      "lon": "-8.021236360120014",
      "lat": "37.18298394651483"
    },
    {
      "id": "pt.ine.add.PTCONT.1562800",
      "street": "ESTR OLIVAL",
      "house": "6",
      "postcode": "8100-397",
      "city": "TÔR",
      "lon": "-8.023262908688205",
      "lat": "37.19112235531443"
    },
    {
      "id": "pt.ine.add.PTCONT.1566803",
      "street": "CAM MORGADO",
      "house": "",
      "postcode": "8100-393",
      "city": "TÔR",
      "lon": "-8.018083332375701",
      "lat": "37.190279460743"
    },
    {
      "id": "pt.ine.add.PTCONT.1577234",
      "street": "CERÂMICA NERGAL MORGADO DA TOR",
      "house": "14",
      "postcode": "8100-394",
      "city": "TÔR",
      "lon": "-8.021056056265888",
      "lat": "37.18306487100481"
    },
    {
      "id": "pt.ine.add.PTCONT.1632040",
      "street": "PTE TOR",
      "house": "",
      "postcode": "8100-397",
      "city": "TÔR",
      "lon": "-8.027374239064237",
      "lat": "37.190810727246436"
    },
    {
      "id": "pt.ine.add.PTCONT.1644830",
      "street": "CAM MORGADO",
      "house": "16",
      "postcode": "8100-393",
      "city": "TÔR",
      "lon": "-8.018174102222574",
      "lat": "37.18983803288323"
    },
    {
      "id": "pt.ine.add.PTCONT.1648345",
      "street": "CAM NERGAL MORGADO DA TOR",
      "house": "",
      "postcode": "8100-393",
      "city": "TÔR",
      "lon": "-8.023825545513159",
      "lat": "37.183653142841926"
    },
    {
      "id": "pt.ine.add.PTCONT.1655204",
      "street": "CERÂMICA NERGAL MORGADO DA TOR",
      "house": "10",
      "postcode": "8100-394",
      "city": "TÔR",
      "lon": "-8.020627918251517",
      "lat": "37.183199623449035"
    },
    {
      "id": "pt.ine.add.PTCONT.1664936",
      "street": "CAM MORGADO",
      "house": "21",
      "postcode": "8100-393",
      "city": "TÔR",
      "lon": "-8.017723148989967",
      "lat": "37.190134942042576"
    },
    {
      "id": "pt.ine.add.PTCONT.1706381",
      "street": "CERÂMICA NERGAL DA TOR",
      "house": "6",
      "postcode": "8100-394",
      "city": "TÔR",
      "lon": "-8.020211067096763",
      "lat": "37.183316364017024"
    },
    {
      "id": "pt.ine.add.PTCONT.1720672",
      "street": "CERÂMICA NERGAL MORGADO DA TOR",
      "house": "T",
      "postcode": "8100-394",
      "city": "TÔR",
      "lon": "-8.020323696022201",
      "lat": "37.183307460739364"
    },
    {
      "id": "pt.ine.add.PTCONT.1744182",
      "street": "CERÂMICA NERGAL MORGADO DA TOR",
      "house": "8",
      "postcode": "8100-394",
      "city": "TÔR",
      "lon": "-8.020425116913433",
      "lat": "37.18326250453571"
    },
    {
      "id": "pt.ine.add.PTCONT.1759267",
      "street": "CERÂMICA NERGAL MORGADO DA TOR",
      "house": "5",
      "postcode": "8100-394",
      "city": "TÔR",
      "lon": "-8.020098384447666",
      "lat": "37.18336130929625"
    },
    {
      "id": "pt.ine.add.PTCONT.1763873",
      "street": "MORGADO",
      "house": "4",
      "postcode": "8100-394",
      "city": "TÔR",
      "lon": "-8.02380366178861",
      "lat": "37.19102373962084"
    },
    {
      "id": "pt.ine.add.PTCONT.1779288",
      "street": "ESTR OLIVAL",
      "house": "",
      "postcode": "8100-393",
      "city": "TÔR",
      "lon": "-8.020005296958132",
      "lat": "37.19292139561418"
    },
    {
      "id": "pt.ine.add.PTCONT.1788021",
      "street": "CAM MORGADO",
      "house": "14",
      "postcode": "8100-393",
      "city": "TÔR",
      "lon": "-8.018929328719292",
      "lat": "37.1894152681824"
    },
    {
      "id": "pt.ine.add.PTCONT.1795178",
      "street": "CERÂMICA NERGAL MORGADO DA TOR",
      "house": "11",
      "postcode": "8100-394",
      "city": "TÔR",
      "lon": "-8.020763096714981",
      "lat": "37.18317272007712"
    },
    {
      "id": "pt.ine.add.PTCONT.1801202",
      "street": "CERÂMICA NERGAL MORGADO DA TOR",
      "house": "1",
      "postcode": "8100-394",
      "city": "TÔR",
      "lon": "-8.019681477697704",
      "lat": "37.18351409010243"
    },
    {
      "id": "pt.ine.add.PTCONT.1811514",
      "street": "CERAMICA NERGAL DA TOR",
      "house": "4",
      "postcode": "8100-394",
      "city": "TÔR",
      "lon": "-8.020008251667498",
      "lat": "37.18338825491497"
    },
    {
      "id": "pt.ine.add.PTCONT.1812699",
      "street": "CERÂMICA NERGAL MORGADO DA TOR",
      "house": "13",
      "postcode": "8100-394",
      "city": "TÔR",
      "lon": "-8.02094340113715",
      "lat": "37.183091796035384"
    },
    {
      "id": "pt.ine.add.PTCONT.1837155",
      "street": "PTE TOR",
      "house": "",
      "postcode": "8100-397",
      "city": "TÔR",
      "lon": "-8.027419076248547",
      "lat": "37.19096394624644"
    }
  ]
}