{
  "data": {
    "distrito": "Viana do Castelo",
    "concelho": "Viana do Castelo",
    "freguesia": "Uni√£o das freguesias de Barroselas e Carvoeiro",
    "OBJECTID": 1200,
    "BGRI2021": "16094100108",
    "DT21": "16",
    "DTMN21": "1609",
    "DTMNFR21": "160941",
    "DTMNFRSEC21": "160941001",
    "SECNUM21": "001",
    "SSNUM21": "08",
    "SECSSNUM21": "00108",
    "OBJECTID_1": 178318,
    "DT": "16",
    "CC": "09",
    "fr": "41",
    "SEC": "001",
    "SS": "08"
  },
  "addresses": [
    {
      "id": "pt.ine.add.PTCONT.5142077",
      "street": "R MIRANTE",
      "house": "",
      "postcode": "4905-393",
      "city": "BARROSELAS",
      "lon": "-8.684913552435354",
      "lat": "41.64610821403812"
    },
    {
      "id": "pt.ine.add.PTCONT.5143435",
      "street": "R NOTARIO",
      "house": "31",
      "postcode": "4905-044",
      "city": "BARROSELAS",
      "lon": "-8.688698782347208",
      "lat": "41.64518962314659"
    },
    {
      "id": "pt.ine.add.PTCONT.5143898",
      "street": "R PADRE FAUSTINO",
      "house": "",
      "postcode": "4905-341",
      "city": "BARROSELAS",
      "lon": "-8.687656693270046",
      "lat": "41.645446755407896"
    },
    {
      "id": "pt.ine.add.PTCONT.5143899",
      "street": "R PADRE FAUSTINO",
      "house": "",
      "postcode": "4905-341",
      "city": "BARROSELAS",
      "lon": "-8.687656693270046",
      "lat": "41.645446755407896"
    },
    {
      "id": "pt.ine.add.PTCONT.5143900",
      "street": "R PADRE FAUSTINO",
      "house": "",
      "postcode": "4905-341",
      "city": "BARROSELAS",
      "lon": "-8.687656693270046",
      "lat": "41.645446755407896"
    },
    {
      "id": "pt.ine.add.PTCONT.5143901",
      "street": "R PADRE FAUSTINO",
      "house": "",
      "postcode": "4905-341",
      "city": "BARROSELAS",
      "lon": "-8.687656693270046",
      "lat": "41.645446755407896"
    },
    {
      "id": "pt.ine.add.PTCONT.5143902",
      "street": "R PADRE FAUSTINO",
      "house": "",
      "postcode": "4905-341",
      "city": "BARROSELAS",
      "lon": "-8.687656693270046",
      "lat": "41.645446755407896"
    },
    {
      "id": "pt.ine.add.PTCONT.5143903",
      "street": "R PADRE FAUSTINO",
      "house": "",
      "postcode": "4905-341",
      "city": "BARROSELAS",
      "lon": "-8.687656693270046",
      "lat": "41.645446755407896"
    },
    {
      "id": "pt.ine.add.PTCONT.5147194",
      "street": "PC REPUBLICA",
      "house": "91",
      "postcode": "4905-331",
      "city": "BARROSELAS",
      "lon": "-8.690117835979093",
      "lat": "41.64549788040961"
    },
    {
      "id": "pt.ine.add.PTCONT.5151418",
      "street": "R PASSIONISTAS",
      "house": "132",
      "postcode": "4905-394",
      "city": "BARROSELAS",
      "lon": "-8.68157954118515",
      "lat": "41.64504374209965"
    },
    {
      "id": "pt.ine.add.PTCONT.5166650",
      "street": "R MIRANTE",
      "house": "390",
      "postcode": "4905-393",
      "city": "BARROSELAS",
      "lon": "-8.682944438031098",
      "lat": "41.64604562150975"
    },
    {
      "id": "pt.ine.add.PTCONT.5168429",
      "street": "R MIRANTE",
      "house": "246",
      "postcode": "4905-393",
      "city": "BARROSELAS",
      "lon": "-8.684683574593475",
      "lat": "41.64588422853115"
    },
    {
      "id": "pt.ine.add.PTCONT.5192309",
      "street": "R NOTARIO",
      "house": "",
      "postcode": "4905-044",
      "city": "BARROSELAS",
      "lon": "-8.689672875077434",
      "lat": "41.6454009964725"
    },
    {
      "id": "pt.ine.add.PTCONT.5192310",
      "street": "R NOTARIO",
      "house": "",
      "postcode": "4905-044",
      "city": "BARROSELAS",
      "lon": "-8.689672875077434",
      "lat": "41.6454009964725"
    },
    {
      "id": "pt.ine.add.PTCONT.5192311",
      "street": "R NOTARIO",
      "house": "",
      "postcode": "4905-044",
      "city": "BARROSELAS",
      "lon": "-8.689672875077434",
      "lat": "41.6454009964725"
    },
    {
      "id": "pt.ine.add.PTCONT.5192312",
      "street": "R NOTARIO",
      "house": "",
      "postcode": "4905-044",
      "city": "BARROSELAS",
      "lon": "-8.689672875077434",
      "lat": "41.6454009964725"
    },
    {
      "id": "pt.ine.add.PTCONT.5195061",
      "street": "R PADRE FAUSTINO",
      "house": "",
      "postcode": "4905-341",
      "city": "BARROSELAS",
      "lon": "-8.687406329400858",
      "lat": "41.64564604159743"
    },
    {
      "id": "pt.ine.add.PTCONT.5195062",
      "street": "R PADRE FAUSTINO",
      "house": "",
      "postcode": "4905-341",
      "city": "BARROSELAS",
      "lon": "-8.687406329400858",
      "lat": "41.64564604159743"
    },
    {
      "id": "pt.ine.add.PTCONT.5195063",
      "street": "R PADRE FAUSTINO",
      "house": "",
      "postcode": "4905-341",
      "city": "BARROSELAS",
      "lon": "-8.687406329400858",
      "lat": "41.64564604159743"
    },
    {
      "id": "pt.ine.add.PTCONT.5195064",
      "street": "R PADRE FAUSTINO",
      "house": "",
      "postcode": "4905-341",
      "city": "BARROSELAS",
      "lon": "-8.687406329400858",
      "lat": "41.64564604159743"
    },
    {
      "id": "pt.ine.add.PTCONT.5195065",
      "street": "R PADRE FAUSTINO",
      "house": "",
      "postcode": "4905-341",
      "city": "BARROSELAS",
      "lon": "-8.687406329400858",
      "lat": "41.64564604159743"
    },
    {
      "id": "pt.ine.add.PTCONT.5196684",
      "street": "R NOTARIO",
      "house": "",
      "postcode": "4905-044",
      "city": "BARROSELAS",
      "lon": "-8.689058481755623",
      "lat": "41.64514286610948"
    },
    {
      "id": "pt.ine.add.PTCONT.5196685",
      "street": "R NOTARIO",
      "house": "",
      "postcode": "4905-044",
      "city": "BARROSELAS",
      "lon": "-8.689058481755623",
      "lat": "41.64514286610948"
    },
    {
      "id": "pt.ine.add.PTCONT.5197406",
      "street": "R MIRANTE",
      "house": "266",
      "postcode": "4905-393",
      "city": "BARROSELAS",
      "lon": "-8.684397037150237",
      "lat": "41.64606567459669"
    },
    {
      "id": "pt.ine.add.PTCONT.5199469",
      "street": "R FEIRA",
      "house": "215",
      "postcode": "4905-328",
      "city": "BARROSELAS",
      "lon": "-8.690047679201369",
      "lat": "41.64571430608438"
    },
    {
      "id": "pt.ine.add.PTCONT.5202598",
      "street": "R NOTARIO",
      "house": "",
      "postcode": "4905-044",
      "city": "BARROSELAS",
      "lon": "-8.689805217167828",
      "lat": "41.645436369886546"
    },
    {
      "id": "pt.ine.add.PTCONT.5202599",
      "street": "R NOTARIO",
      "house": "",
      "postcode": "4905-044",
      "city": "BARROSELAS",
      "lon": "-8.689805217167828",
      "lat": "41.645436369886546"
    },
    {
      "id": "pt.ine.add.PTCONT.5202600",
      "street": "R NOTARIO",
      "house": "",
      "postcode": "4905-044",
      "city": "BARROSELAS",
      "lon": "-8.689805217167828",
      "lat": "41.645436369886546"
    },
    {
      "id": "pt.ine.add.PTCONT.5202601",
      "street": "R NOTARIO",
      "house": "",
      "postcode": "4905-044",
      "city": "BARROSELAS",
      "lon": "-8.689805217167828",
      "lat": "41.645436369886546"
    },
    {
      "id": "pt.ine.add.PTCONT.5206646",
      "street": "R NEIVA",
      "house": "193",
      "postcode": "4905-309",
      "city": "BARROSELAS",
      "lon": "-8.683538536813735",
      "lat": "41.64533149586133"
    },
    {
      "id": "pt.ine.add.PTCONT.5209915",
      "street": "R NEIVA",
      "house": "",
      "postcode": "4905-309",
      "city": "BARROSELAS",
      "lon": "-8.683477449559904",
      "lat": "41.64520573833758"
    },
    {
      "id": "pt.ine.add.PTCONT.5210672",
      "street": "R NEIVA",
      "house": "23",
      "postcode": "4905-309",
      "city": "BARROSELAS",
      "lon": "-8.685284955368543",
      "lat": "41.64602539833479"
    },
    {
      "id": "pt.ine.add.PTCONT.5210673",
      "street": "R MIRANTE",
      "house": "130",
      "postcode": "4905-393",
      "city": "BARROSELAS",
      "lon": "-8.682462327504819",
      "lat": "41.64581383376296"
    },
    {
      "id": "pt.ine.add.PTCONT.5212401",
      "street": "R MIRANTE",
      "house": "398",
      "postcode": "4905-393",
      "city": "BARROSELAS",
      "lon": "-8.682692756520204",
      "lat": "41.64609184300544"
    },
    {
      "id": "pt.ine.add.PTCONT.5212403",
      "street": "R NOTARIO",
      "house": "49",
      "postcode": "4905-044",
      "city": "BARROSELAS",
      "lon": "-8.688520130920201",
      "lat": "41.645352550830005"
    },
    {
      "id": "pt.ine.add.PTCONT.5212404",
      "street": "R NOTARIO",
      "house": "89",
      "postcode": "4905-044",
      "city": "BARROSELAS",
      "lon": "-8.688365020676072",
      "lat": "41.64546134308194"
    },
    {
      "id": "pt.ine.add.PTCONT.5219951",
      "street": "R ENTREVINHAS",
      "house": "144",
      "postcode": "4905-310",
      "city": "BARROSELAS",
      "lon": "-8.682388089471104",
      "lat": "41.644139523724995"
    },
    {
      "id": "pt.ine.add.PTCONT.5221515",
      "street": "TV NOTARIO",
      "house": "34",
      "postcode": "4905-332",
      "city": "BARROSELAS",
      "lon": "-8.689710898502446",
      "lat": "41.64563490523242"
    },
    {
      "id": "pt.ine.add.PTCONT.5227406",
      "street": "R MIRANTE",
      "house": "",
      "postcode": "4905-393",
      "city": "BARROSELAS",
      "lon": "-8.681840310012136",
      "lat": "41.64606890490489"
    },
    {
      "id": "pt.ine.add.PTCONT.5228475",
      "street": "R MIRANTE",
      "house": "292",
      "postcode": "4905-393",
      "city": "BARROSELAS",
      "lon": "-8.684037329088053",
      "lat": "41.64611241709066"
    },
    {
      "id": "pt.ine.add.PTCONT.5231994",
      "street": "R NOTARIO",
      "house": "",
      "postcode": "4905-044",
      "city": "BARROSELAS",
      "lon": "-8.688975777193455",
      "lat": "41.645296326827946"
    },
    {
      "id": "pt.ine.add.PTCONT.5231995",
      "street": "R NOTARIO",
      "house": "",
      "postcode": "4905-044",
      "city": "BARROSELAS",
      "lon": "-8.688975777193455",
      "lat": "41.645296326827946"
    },
    {
      "id": "pt.ine.add.PTCONT.5231996",
      "street": "R NOTARIO",
      "house": "",
      "postcode": "4905-044",
      "city": "BARROSELAS",
      "lon": "-8.688975777193455",
      "lat": "41.645296326827946"
    },
    {
      "id": "pt.ine.add.PTCONT.5231997",
      "street": "R NOTARIO",
      "house": "",
      "postcode": "4905-044",
      "city": "BARROSELAS",
      "lon": "-8.688975777193455",
      "lat": "41.645296326827946"
    },
    {
      "id": "pt.ine.add.PTCONT.5233164",
      "street": "PC REPUBLICA",
      "house": "",
      "postcode": "4905-331",
      "city": "BARROSELAS",
      "lon": "-8.690190163802063",
      "lat": "41.64553354418444"
    },
    {
      "id": "pt.ine.add.PTCONT.5235034",
      "street": "R NOTARIO",
      "house": "",
      "postcode": "4905-044",
      "city": "BARROSELAS",
      "lon": "-8.689312477813857",
      "lat": "41.645366726657095"
    },
    {
      "id": "pt.ine.add.PTCONT.5235035",
      "street": "R NOTARIO",
      "house": "",
      "postcode": "4905-044",
      "city": "BARROSELAS",
      "lon": "-8.689312477813857",
      "lat": "41.645366726657095"
    },
    {
      "id": "pt.ine.add.PTCONT.5235036",
      "street": "R NOTARIO",
      "house": "",
      "postcode": "4905-044",
      "city": "BARROSELAS",
      "lon": "-8.689312477813857",
      "lat": "41.645366726657095"
    },
    {
      "id": "pt.ine.add.PTCONT.5235037",
      "street": "R NOTARIO",
      "house": "",
      "postcode": "4905-044",
      "city": "BARROSELAS",
      "lon": "-8.689312477813857",
      "lat": "41.645366726657095"
    },
    {
      "id": "pt.ine.add.PTCONT.5236799",
      "street": "R PADRE FAUSTINO BLO",
      "house": "BLO 1",
      "postcode": "4905-341",
      "city": "BARROSELAS",
      "lon": "-8.68812666191919",
      "lat": "41.645660572844584"
    },
    {
      "id": "pt.ine.add.PTCONT.5236800",
      "street": "R PADRE FAUSTINO",
      "house": "BL 1",
      "postcode": "4905-341",
      "city": "BARROSELAS",
      "lon": "-8.68812666191919",
      "lat": "41.645660572844584"
    },
    {
      "id": "pt.ine.add.PTCONT.5236801",
      "street": "R PADRE FAUSTINO",
      "house": "1 DRT",
      "postcode": "4905-341",
      "city": "BARROSELAS",
      "lon": "-8.68812666191919",
      "lat": "41.645660572844584"
    },
    {
      "id": "pt.ine.add.PTCONT.5236802",
      "street": "R PADRE FAUSTINO",
      "house": "BL 1",
      "postcode": "4905-341",
      "city": "BARROSELAS",
      "lon": "-8.68812666191919",
      "lat": "41.645660572844584"
    },
    {
      "id": "pt.ine.add.PTCONT.5240968",
      "street": "R PADRE FAUSTINO",
      "house": "",
      "postcode": "4905-341",
      "city": "BARROSELAS",
      "lon": "-8.687992157310546",
      "lat": "41.64537310790892"
    },
    {
      "id": "pt.ine.add.PTCONT.5240969",
      "street": "R PADRE FAUSTINO",
      "house": "",
      "postcode": "4905-341",
      "city": "BARROSELAS",
      "lon": "-8.687992157310546",
      "lat": "41.64537310790892"
    },
    {
      "id": "pt.ine.add.PTCONT.5240970",
      "street": "R PADRE FAUSTINO",
      "house": "",
      "postcode": "4905-341",
      "city": "BARROSELAS",
      "lon": "-8.687992157310546",
      "lat": "41.64537310790892"
    },
    {
      "id": "pt.ine.add.PTCONT.5240971",
      "street": "R PADRE FAUSTINO",
      "house": "",
      "postcode": "4905-341",
      "city": "BARROSELAS",
      "lon": "-8.687992157310546",
      "lat": "41.64537310790892"
    },
    {
      "id": "pt.ine.add.PTCONT.5240972",
      "street": "R PADRE FAUSTINO",
      "house": "",
      "postcode": "4905-341",
      "city": "BARROSELAS",
      "lon": "-8.687992157310546",
      "lat": "41.64537310790892"
    },
    {
      "id": "pt.ine.add.PTCONT.5240973",
      "street": "R PADRE FAUSTINO",
      "house": "",
      "postcode": "4905-341",
      "city": "BARROSELAS",
      "lon": "-8.687992157310546",
      "lat": "41.64537310790892"
    },
    {
      "id": "pt.ine.add.PTCONT.5244909",
      "street": "R PASSIONISTAS",
      "house": "100",
      "postcode": "4905-394",
      "city": "BARROSELAS",
      "lon": "-8.681329312633007",
      "lat": "41.64526102159028"
    },
    {
      "id": "pt.ine.add.PTCONT.5244910",
      "street": "R NEIVA",
      "house": "",
      "postcode": "4905-309",
      "city": "BARROSELAS",
      "lon": "-8.683040905012069",
      "lat": "41.64468562041526"
    },
    {
      "id": "pt.ine.add.PTCONT.5246738",
      "street": "R NOTARIO",
      "house": "",
      "postcode": "4905-044",
      "city": "BARROSELAS",
      "lon": "-8.689371330775343",
      "lat": "41.64523138827337"
    },
    {
      "id": "pt.ine.add.PTCONT.5246739",
      "street": "R NOTARIO",
      "house": "",
      "postcode": "4905-044",
      "city": "BARROSELAS",
      "lon": "-8.689371330775343",
      "lat": "41.64523138827337"
    },
    {
      "id": "pt.ine.add.PTCONT.5246740",
      "street": "R NOTARIO",
      "house": "",
      "postcode": "4905-044",
      "city": "BARROSELAS",
      "lon": "-8.689371330775343",
      "lat": "41.64523138827337"
    },
    {
      "id": "pt.ine.add.PTCONT.5247358",
      "street": "R MIRANTE",
      "house": "368",
      "postcode": "4905-393",
      "city": "BARROSELAS",
      "lon": "-8.683161105554728",
      "lat": "41.646116613464336"
    },
    {
      "id": "pt.ine.add.PTCONT.5247359",
      "street": "R MIRANTE",
      "house": "368",
      "postcode": "4905-393",
      "city": "BARROSELAS",
      "lon": "-8.683161105554728",
      "lat": "41.646116613464336"
    },
    {
      "id": "pt.ine.add.PTCONT.5248562",
      "street": "R NEIVA",
      "house": "285",
      "postcode": "4905-309",
      "city": "BARROSELAS",
      "lon": "-8.683098775191288",
      "lat": "41.644433243439266"
    },
    {
      "id": "pt.ine.add.PTCONT.5250880",
      "street": "R NEIVA",
      "house": "396",
      "postcode": "4905-309",
      "city": "BARROSELAS",
      "lon": "-8.68253013325933",
      "lat": "41.64390475189964"
    },
    {
      "id": "pt.ine.add.PTCONT.5251908",
      "street": "R NEIVA",
      "house": "",
      "postcode": "4905-309",
      "city": "BARROSELAS",
      "lon": "-8.684249317567101",
      "lat": "41.64563421149521"
    },
    {
      "id": "pt.ine.add.PTCONT.5251909",
      "street": "BC CORRELHAO",
      "house": "50",
      "postcode": "4905-397",
      "city": "BARROSELAS",
      "lon": "-8.682641378076164",
      "lat": "41.64569593144457"
    },
    {
      "id": "pt.ine.add.PTCONT.5253290",
      "street": "TV ROCHA",
      "house": "55",
      "postcode": "4905-341",
      "city": "BARROSELAS",
      "lon": "-8.686817104764106",
      "lat": "41.6455228314736"
    },
    {
      "id": "pt.ine.add.PTCONT.5253291",
      "street": "TV ROCHA",
      "house": "55",
      "postcode": "4905-341",
      "city": "BARROSELAS",
      "lon": "-8.686817104764106",
      "lat": "41.6455228314736"
    },
    {
      "id": "pt.ine.add.PTCONT.5253292",
      "street": "TV ROCHA",
      "house": "55",
      "postcode": "4905-341",
      "city": "BARROSELAS",
      "lon": "-8.686817104764106",
      "lat": "41.6455228314736"
    },
    {
      "id": "pt.ine.add.PTCONT.5253293",
      "street": "TV ROCHA",
      "house": "55",
      "postcode": "4905-341",
      "city": "BARROSELAS",
      "lon": "-8.686817104764106",
      "lat": "41.6455228314736"
    },
    {
      "id": "pt.ine.add.PTCONT.5253294",
      "street": "TV ROCHA",
      "house": "55",
      "postcode": "4905-341",
      "city": "BARROSELAS",
      "lon": "-8.686817104764106",
      "lat": "41.6455228314736"
    },
    {
      "id": "pt.ine.add.PTCONT.5253662",
      "street": "TV ROCHA",
      "house": "55",
      "postcode": "4905-341",
      "city": "BARROSELAS",
      "lon": "-8.686817104764106",
      "lat": "41.6455228314736"
    },
    {
      "id": "pt.ine.add.PTCONT.5254396",
      "street": "R MIRANTE",
      "house": "326",
      "postcode": "4905-393",
      "city": "BARROSELAS",
      "lon": "-8.683544130736479",
      "lat": "41.645988729904026"
    },
    {
      "id": "pt.ine.add.PTCONT.5254397",
      "street": "R MIRANTE",
      "house": "",
      "postcode": "4905-393",
      "city": "BARROSELAS",
      "lon": "-8.683544130736479",
      "lat": "41.645988729904026"
    },
    {
      "id": "pt.ine.add.PTCONT.5254398",
      "street": "R MIRANTE",
      "house": "326",
      "postcode": "4905-393",
      "city": "BARROSELAS",
      "lon": "-8.683544130736479",
      "lat": "41.645988729904026"
    },
    {
      "id": "pt.ine.add.PTCONT.5254399",
      "street": "R MIRANTE",
      "house": "",
      "postcode": "4905-393",
      "city": "BARROSELAS",
      "lon": "-8.683544130736479",
      "lat": "41.645988729904026"
    },
    {
      "id": "pt.ine.add.PTCONT.5254400",
      "street": "R PASSIONISTAS",
      "house": "",
      "postcode": "4905-394",
      "city": "BARROSELAS",
      "lon": "-8.681415775624306",
      "lat": "41.64554872354308"
    },
    {
      "id": "pt.ine.add.PTCONT.5259024",
      "street": "TV ROCHA",
      "house": "87",
      "postcode": "4905-341",
      "city": "BARROSELAS",
      "lon": "-8.686432394232297",
      "lat": "41.6454526554538"
    },
    {
      "id": "pt.ine.add.PTCONT.5259491",
      "street": "TV ROCHA",
      "house": "87",
      "postcode": "4905-341",
      "city": "BARROSELAS",
      "lon": "-8.686432394232297",
      "lat": "41.6454526554538"
    },
    {
      "id": "pt.ine.add.PTCONT.5263016",
      "street": "R PADRE FAUSTINO",
      "house": "",
      "postcode": "4905-341",
      "city": "BARROSELAS",
      "lon": "-8.68781520251451",
      "lat": "41.64573410489441"
    },
    {
      "id": "pt.ine.add.PTCONT.5263017",
      "street": "R PADRE FAUSTINO",
      "house": "",
      "postcode": "4905-341",
      "city": "BARROSELAS",
      "lon": "-8.68781520251451",
      "lat": "41.64573410489441"
    },
    {
      "id": "pt.ine.add.PTCONT.5263018",
      "street": "R PADRE FAUSTINO",
      "house": "",
      "postcode": "4905-341",
      "city": "BARROSELAS",
      "lon": "-8.68781520251451",
      "lat": "41.64573410489441"
    },
    {
      "id": "pt.ine.add.PTCONT.5263019",
      "street": "R PADRE FAUSTINO",
      "house": "",
      "postcode": "4905-341",
      "city": "BARROSELAS",
      "lon": "-8.68781520251451",
      "lat": "41.64573410489441"
    },
    {
      "id": "pt.ine.add.PTCONT.5264625",
      "street": "TV ROCHA",
      "house": "68",
      "postcode": "4905-341",
      "city": "BARROSELAS",
      "lon": "-8.687259285080966",
      "lat": "41.64529561125831"
    },
    {
      "id": "pt.ine.add.PTCONT.5276261",
      "street": "R MIRANTE",
      "house": "",
      "postcode": "4905-393",
      "city": "BARROSELAS",
      "lon": "-8.685873258301516",
      "lat": "41.64604057786973"
    },
    {
      "id": "pt.ine.add.PTCONT.5277482",
      "street": "TV ROCHA",
      "house": "75",
      "postcode": "4905-341",
      "city": "BARROSELAS",
      "lon": "-8.686433857827385",
      "lat": "41.64562371628933"
    },
    {
      "id": "pt.ine.add.PTCONT.5277483",
      "street": "TV ROCHA",
      "house": "75",
      "postcode": "4905-341",
      "city": "BARROSELAS",
      "lon": "-8.686433857827385",
      "lat": "41.64562371628933"
    },
    {
      "id": "pt.ine.add.PTCONT.5277484",
      "street": "TV ROCHA",
      "house": "75",
      "postcode": "4905-341",
      "city": "BARROSELAS",
      "lon": "-8.686433857827385",
      "lat": "41.64562371628933"
    },
    {
      "id": "pt.ine.add.PTCONT.5277485",
      "street": "TV ROCHA",
      "house": "75",
      "postcode": "4905-341",
      "city": "BARROSELAS",
      "lon": "-8.686433857827385",
      "lat": "41.64562371628933"
    },
    {
      "id": "pt.ine.add.PTCONT.5277486",
      "street": "TV ROCHA",
      "house": "75",
      "postcode": "4905-341",
      "city": "BARROSELAS",
      "lon": "-8.686433857827385",
      "lat": "41.64562371628933"
    },
    {
      "id": "pt.ine.add.PTCONT.5277487",
      "street": "TV ROCHA",
      "house": "75",
      "postcode": "4905-341",
      "city": "BARROSELAS",
      "lon": "-8.686433857827385",
      "lat": "41.64562371628933"
    },
    {
      "id": "pt.ine.add.PTCONT.5280938",
      "street": "R ENTREVINHAS",
      "house": "50",
      "postcode": "4905-310",
      "city": "BARROSELAS",
      "lon": "-8.681852780619055",
      "lat": "41.644709305736804"
    },
    {
      "id": "pt.ine.add.PTCONT.5282428",
      "street": "R PADRE FAUSTINO",
      "house": "",
      "postcode": "4905-341",
      "city": "BARROSELAS",
      "lon": "-8.687406329400858",
      "lat": "41.64564604159743"
    },
    {
      "id": "pt.ine.add.PTCONT.5282554",
      "street": "R MIRANTE",
      "house": "398",
      "postcode": "4905-393",
      "city": "BARROSELAS",
      "lon": "-8.682692756520204",
      "lat": "41.64609184300544"
    },
    {
      "id": "pt.ine.add.PTCONT.5282620",
      "street": "R NOTARIO",
      "house": "",
      "postcode": "4905-044",
      "city": "BARROSELAS",
      "lon": "-8.689058481755623",
      "lat": "41.64514286610948"
    },
    {
      "id": "pt.ine.add.PTCONT.5283724",
      "street": "TV ROCHA",
      "house": "87",
      "postcode": "4905-341",
      "city": "BARROSELAS",
      "lon": "-8.686432394232297",
      "lat": "41.6454526554538"
    }
  ]
}