{
  "data": {
    "distrito": "Setúbal",
    "concelho": "Santiago do Cacém",
    "freguesia": "União das freguesias de Santiago do Cacém, Santa Cruz e São Bartolomeu da Serra",
    "OBJECTID": 806,
    "BGRI2021": "15091200441",
    "DT21": "15",
    "DTMN21": "1509",
    "DTMNFR21": "150912",
    "DTMNFRSEC21": "150912004",
    "SECNUM21": "004",
    "SSNUM21": "41",
    "SECSSNUM21": "00441",
    "OBJECTID_1": 166254,
    "DT": "15",
    "CC": "09",
    "fr": "12",
    "SEC": "004",
    "SS": "41"
  },
  "addresses": [
    {
      "id": "pt.ine.add.PTCONT.4682663",
      "street": "MEDRONHEIRA",
      "house": "",
      "postcode": "7540-237",
      "city": "SANTIAGO DO CACÉM",
      "lon": "-8.716622828176572",
      "lat": "37.99242849372334"
    },
    {
      "id": "pt.ine.add.PTCONT.4726889",
      "street": "MTE MEDRENA DE CIMA",
      "house": "",
      "postcode": "7540-219",
      "city": "SANTIAGO DO CACÉM",
      "lon": "-8.706933218946366",
      "lat": "38.002422312518476"
    },
    {
      "id": "pt.ine.add.PTCONT.4742098",
      "street": "EN 120 SANTIAGU DO CACÉM",
      "house": "7",
      "postcode": "7540-237",
      "city": "SANTIAGO DO CACÉM",
      "lon": "-8.701492591079944",
      "lat": "38.002637926610966"
    },
    {
      "id": "pt.ine.add.PTCONT.4763271",
      "street": "APARTADO 91",
      "house": "",
      "postcode": "7540-240",
      "city": "SANTIAGO DO CACÉM",
      "lon": "-8.705522989741937",
      "lat": "38.0084833519497"
    },
    {
      "id": "pt.ine.add.PTCONT.4791348",
      "street": "",
      "house": "",
      "postcode": "7540-237",
      "city": "SANTIAGO DO CACÉM",
      "lon": "-8.719345415156145",
      "lat": "37.99122574102232"
    },
    {
      "id": "pt.ine.add.PTCONT.4816222",
      "street": "",
      "house": "",
      "postcode": "7540-237",
      "city": "SANTIAGO DO CACÉM",
      "lon": "-8.7176768761048",
      "lat": "37.996144054523256"
    },
    {
      "id": "pt.ine.add.PTCONT.4826779",
      "street": "MTE FONTE SANTA",
      "house": "",
      "postcode": "7540-240",
      "city": "SANTIAGO DO CACÉM",
      "lon": "-8.701486064654882",
      "lat": "38.00769210743346"
    },
    {
      "id": "pt.ine.add.PTCONT.4840818",
      "street": "BARRANCO ALTO DE CIMA",
      "house": "",
      "postcode": "7540-237",
      "city": "SANTIAGO DO CACÉM",
      "lon": "-8.712047963599359",
      "lat": "37.99696470693229"
    },
    {
      "id": "pt.ine.add.PTCONT.4853371",
      "street": "EN 120",
      "house": "2",
      "postcode": "7540-237",
      "city": "SANTIAGO DO CACÉM",
      "lon": "-8.703496936780896",
      "lat": "38.00270029565439"
    },
    {
      "id": "pt.ine.add.PTCONT.4855750",
      "street": "",
      "house": "",
      "postcode": "7540-237",
      "city": "SANTIAGO DO CACÉM",
      "lon": "-8.698746340376228",
      "lat": "37.97861461696444"
    },
    {
      "id": "pt.ine.add.PTCONT.4873977",
      "street": "",
      "house": "",
      "postcode": "7540-240",
      "city": "SANTIAGO DO CACÉM",
      "lon": "-8.700944254803549",
      "lat": "38.0068298440504"
    },
    {
      "id": "pt.ine.add.PTCONT.4873978",
      "street": "",
      "house": "",
      "postcode": "7540-240",
      "city": "SANTIAGO DO CACÉM",
      "lon": "-8.699535968048426",
      "lat": "38.005818598691924"
    },
    {
      "id": "pt.ine.add.PTCONT.4877671",
      "street": "MTE PEDREGUEIRA",
      "house": "",
      "postcode": "7540-159",
      "city": "SANTIAGO DO CACÉM",
      "lon": "-8.698264345947255",
      "lat": "38.00480667947079"
    },
    {
      "id": "pt.ine.add.PTCONT.4883549",
      "street": "VARGEM DAS COLMEIAS",
      "house": "",
      "postcode": "7540-237",
      "city": "SANTIAGO DO CACÉM",
      "lon": "-8.712631850967316",
      "lat": "37.99882673259092"
    },
    {
      "id": "pt.ine.add.PTCONT.4913029",
      "street": "LOUREIRO BARRANCO ALTO DE CIMA",
      "house": "",
      "postcode": "7540-237",
      "city": "SANTIAGO DO CACÉM",
      "lon": "-8.707775905127736",
      "lat": "37.99368829532595"
    },
    {
      "id": "pt.ine.add.PTCONT.4919116",
      "street": "EN 120",
      "house": "",
      "postcode": "7540-237",
      "city": "SANTIAGO DO CACÉM",
      "lon": "-8.703372746541424",
      "lat": "38.00283603566272"
    },
    {
      "id": "pt.ine.add.PTCONT.4923845",
      "street": "EN 120",
      "house": "",
      "postcode": "7540-237",
      "city": "SANTIAGO DO CACÉM",
      "lon": "-8.704943113565337",
      "lat": "38.00126081251814"
    },
    {
      "id": "pt.ine.add.PTCONT.4940622",
      "street": "",
      "house": "",
      "postcode": "7540-237",
      "city": "SANTIAGO DO CACÉM",
      "lon": "-8.715425195735348",
      "lat": "37.99933546716225"
    },
    {
      "id": "pt.ine.add.PTCONT.4952612",
      "street": "APARTADO 91",
      "house": "",
      "postcode": "7540-240",
      "city": "SANTIAGO DO CACÉM",
      "lon": "-8.70535191881121",
      "lat": "38.008448147855034"
    },
    {
      "id": "pt.ine.add.PTCONT.4966012",
      "street": "",
      "house": "",
      "postcode": "7540-237",
      "city": "SANTIAGO DO CACÉM",
      "lon": "-8.71751699799881",
      "lat": "37.99608178478702"
    },
    {
      "id": "pt.ine.add.PTCONT.4987771",
      "street": "VARGEM DAS COLMEIAS",
      "house": "",
      "postcode": "7540-237",
      "city": "SANTIAGO DO CACÉM",
      "lon": "-8.71302789805808",
      "lat": "37.99851846804916"
    },
    {
      "id": "pt.ine.add.PTCONT.4998917",
      "street": "VARGEM DAS COLMEIAS",
      "house": "",
      "postcode": "7540-237",
      "city": "SANTIAGO DO CACÉM",
      "lon": "-8.711616432298074",
      "lat": "37.998552447189496"
    },
    {
      "id": "pt.ine.add.PTCONT.5028293",
      "street": "",
      "house": "",
      "postcode": "7540-240",
      "city": "SANTIAGO DO CACÉM",
      "lon": "-8.703076870561803",
      "lat": "38.008738481104274"
    },
    {
      "id": "pt.ine.add.PTCONT.5071448",
      "street": "",
      "house": "",
      "postcode": "7540-159",
      "city": "SANTIAGO DO CACÉM",
      "lon": "-8.699534859101133",
      "lat": "38.00567445717561"
    },
    {
      "id": "pt.ine.add.PTCONT.5079081",
      "street": "",
      "house": "",
      "postcode": "7540-237",
      "city": "SANTIAGO DO CACÉM",
      "lon": "-8.716573937289443",
      "lat": "37.99487923607506"
    },
    {
      "id": "pt.ine.add.PTCONT.5079082",
      "street": "",
      "house": "",
      "postcode": "7540-237",
      "city": "SANTIAGO DO CACÉM",
      "lon": "-8.717360643169503",
      "lat": "37.995028486729026"
    },
    {
      "id": "pt.ine.add.PTCONT.5086055",
      "street": "",
      "house": "",
      "postcode": "7540-237",
      "city": "SANTIAGO DO CACÉM",
      "lon": "-8.71714722688796",
      "lat": "37.99826384438828"
    },
    {
      "id": "pt.ine.add.PTCONT.5093436",
      "street": "MTE VENTOSA",
      "house": "",
      "postcode": "7540-230",
      "city": "SANTIAGO DO CACÉM",
      "lon": "-8.712821622811898",
      "lat": "38.00413220430898"
    },
    {
      "id": "pt.ine.add.PTCONT.5118263",
      "street": "MTE VENTOSA",
      "house": "",
      "postcode": "7540-230",
      "city": "SANTIAGO DO CACÉM",
      "lon": "-8.711118619786149",
      "lat": "38.00513610367986"
    },
    {
      "id": "pt.ine.add.PTCONT.5118264",
      "street": "MTE VENTOSA",
      "house": "7",
      "postcode": "7540-230",
      "city": "SANTIAGO DO CACÉM",
      "lon": "-8.711118619786149",
      "lat": "38.00513610367986"
    },
    {
      "id": "pt.ine.add.PTCONT.5122318",
      "street": "",
      "house": "",
      "postcode": "7540-240",
      "city": "SANTIAGO DO CACÉM",
      "lon": "-8.70276846991407",
      "lat": "38.00861384706278"
    }
  ]
}