{
  "data": {
    "ilha": "Ilha de São Miguel (Açores)",
    "concelho": "Ponta Delgada",
    "freguesia": "Ponta Delgada (São Sebastião)",
    "OBJECTID": 289,
    "BGRI2021": "42031200203",
    "DT21": "42",
    "DTMN21": "4203",
    "DTMNFR21": "420312",
    "DTMNFRSEC21": "420312002",
    "SECNUM21": "002",
    "SSNUM21": "03",
    "SECSSNUM21": "00203",
    "OBJECTID_1": 207117,
    "DT": "42",
    "CC": "03",
    "fr": "12",
    "SEC": "002",
    "SS": "03",
    "BGRI2021_1": "42031200203"
  },
  "addresses": [
    {
      "id": "pt.ine.add.AC26.20240",
      "street": "R PASSAL",
      "house": "65",
      "postcode": "9500-096",
      "city": "PONTA DELGADA",
      "lon": "-25.66630324448742",
      "lat": "37.74563005769943"
    },
    {
      "id": "pt.ine.add.AC26.20241",
      "street": "R PASSAL",
      "house": "63",
      "postcode": "9500-096",
      "city": "PONTA DELGADA",
      "lon": "-25.66622542802364",
      "lat": "37.745539050292294"
    },
    {
      "id": "pt.ine.add.AC26.20242",
      "street": "R PASSAL",
      "house": "61",
      "postcode": "9500-096",
      "city": "PONTA DELGADA",
      "lon": "-25.666204188320723",
      "lat": "37.74545769585035"
    },
    {
      "id": "pt.ine.add.AC26.20243",
      "street": "R PASSAL",
      "house": "59",
      "postcode": "9500-096",
      "city": "PONTA DELGADA",
      "lon": "-25.666205320488338",
      "lat": "37.74539461995402"
    },
    {
      "id": "pt.ine.add.AC26.20244",
      "street": "R PASSAL",
      "house": "55 B",
      "postcode": "9500-096",
      "city": "PONTA DELGADA",
      "lon": "-25.66616203253196",
      "lat": "37.74527696526953"
    },
    {
      "id": "pt.ine.add.AC26.20245",
      "street": "R PASSAL",
      "house": "55A",
      "postcode": "9500-096",
      "city": "PONTA DELGADA",
      "lon": "-25.666219902860064",
      "lat": "37.745214531533556"
    },
    {
      "id": "pt.ine.add.AC26.20246",
      "street": "R PASSAL",
      "house": "51",
      "postcode": "9500-096",
      "city": "PONTA DELGADA",
      "lon": "-25.66619850150801",
      "lat": "37.74514218793085"
    },
    {
      "id": "pt.ine.add.AC26.20247",
      "street": "R PASSAL",
      "house": "49",
      "postcode": "9500-096",
      "city": "PONTA DELGADA",
      "lon": "-25.666131062798378",
      "lat": "37.74510537395293"
    },
    {
      "id": "pt.ine.add.AC26.20248",
      "street": "R PASSAL",
      "house": "45",
      "postcode": "9500-096",
      "city": "PONTA DELGADA",
      "lon": "-25.666188933014066",
      "lat": "37.74504294022836"
    },
    {
      "id": "pt.ine.add.AC26.20249",
      "street": "R PASSAL",
      "house": "41",
      "postcode": "9500-096",
      "city": "PONTA DELGADA",
      "lon": "-25.666121332652015",
      "lat": "37.74501513708879"
    },
    {
      "id": "pt.ine.add.AC26.20250",
      "street": "R PASSAL",
      "house": "39",
      "postcode": "9500-096",
      "city": "PONTA DELGADA",
      "lon": "-25.66609960795168",
      "lat": "37.74496081515408"
    },
    {
      "id": "pt.ine.add.AC26.20251",
      "street": "R PASSAL",
      "house": "31 D",
      "postcode": "9500-096",
      "city": "PONTA DELGADA",
      "lon": "-25.666059555438196",
      "lat": "37.744662943573765"
    },
    {
      "id": "pt.ine.add.AC26.20252",
      "street": "R PASSAL",
      "house": "31 D 31",
      "postcode": "9500-096",
      "city": "PONTA DELGADA",
      "lon": "-25.666059555438196",
      "lat": "37.744662943573765"
    },
    {
      "id": "pt.ine.add.AC26.20253",
      "street": "R PASSAL",
      "house": "31 B",
      "postcode": "9500-096",
      "city": "PONTA DELGADA",
      "lon": "-25.66603783087861",
      "lat": "37.74460862162729"
    },
    {
      "id": "pt.ine.add.AC26.20254",
      "street": "R PASSAL",
      "house": "31",
      "postcode": "9500-096",
      "city": "PONTA DELGADA",
      "lon": "-25.666028586155395",
      "lat": "37.74449135222216"
    },
    {
      "id": "pt.ine.add.AC26.21056",
      "street": "R PASSAL",
      "house": "29",
      "postcode": "9500-096",
      "city": "PONTA DELGADA",
      "lon": "-25.66600669990852",
      "lat": "37.74444604111291"
    },
    {
      "id": "pt.ine.add.AC26.21057",
      "street": "R PASSAL",
      "house": "25",
      "postcode": "9500-096",
      "city": "PONTA DELGADA",
      "lon": "-25.66600831747028",
      "lat": "37.74435593268113"
    },
    {
      "id": "pt.ine.add.AC26.21058",
      "street": "R PASSAL",
      "house": "23",
      "postcode": "9500-096",
      "city": "PONTA DELGADA",
      "lon": "-25.665986754789547",
      "lat": "37.74429259988158"
    },
    {
      "id": "pt.ine.add.AC26.21059",
      "street": "R PASSAL",
      "house": "19",
      "postcode": "9500-096",
      "city": "PONTA DELGADA",
      "lon": "-25.665965353904355",
      "lat": "37.744220256234854"
    },
    {
      "id": "pt.ine.add.AC26.21060",
      "street": "R PASSAL",
      "house": "5",
      "postcode": "9500-096",
      "city": "PONTA DELGADA",
      "lon": "-25.665969559646058",
      "lat": "37.74398597430417"
    },
    {
      "id": "pt.ine.add.AC26.21061",
      "street": "R PASSAL",
      "house": "3",
      "postcode": "9500-096",
      "city": "PONTA DELGADA",
      "lon": "-25.6659136312829",
      "lat": "37.743940277822595"
    },
    {
      "id": "pt.ine.add.AC26.21062",
      "street": "R PASSAL",
      "house": "1",
      "postcode": "9500-096",
      "city": "PONTA DELGADA",
      "lon": "-25.66591460187084",
      "lat": "37.7438862127611"
    },
    {
      "id": "pt.ine.add.AC26.21063",
      "street": "R MARGARIDA DE CHAVES",
      "house": "111",
      "postcode": "9500-088",
      "city": "PONTA DELGADA",
      "lon": "-25.666133922871342",
      "lat": "37.743681403785224"
    },
    {
      "id": "pt.ine.add.AC26.21064",
      "street": "R MARGARIDA DE CHAVES",
      "house": "109",
      "postcode": "9500-088",
      "city": "PONTA DELGADA",
      "lon": "-25.666270576742228",
      "lat": "37.74365591237136"
    },
    {
      "id": "pt.ine.add.AC26.21065",
      "street": "R CONTADOR",
      "house": "6",
      "postcode": "9500-050",
      "city": "PONTA DELGADA",
      "lon": "-25.667226378385223",
      "lat": "37.744153409953974"
    },
    {
      "id": "pt.ine.add.AC26.21066",
      "street": "R CONTADOR",
      "house": "26",
      "postcode": "9500-050",
      "city": "PONTA DELGADA",
      "lon": "-25.667499923001238",
      "lat": "37.74535518895765"
    },
    {
      "id": "pt.ine.add.AC26.21067",
      "street": "R FRANCISCO ARRUDA FURTADO",
      "house": "3",
      "postcode": "9500-060",
      "city": "PONTA DELGADA",
      "lon": "-25.66666054996605",
      "lat": "37.74595855703016"
    },
    {
      "id": "pt.ine.add.AC26.21068",
      "street": "R PASSAL",
      "house": "87",
      "postcode": "9500-096",
      "city": "PONTA DELGADA",
      "lon": "-25.66635319061159",
      "lat": "37.74600915517519"
    },
    {
      "id": "pt.ine.add.AC26.21069",
      "street": "R CONTADOR",
      "house": "20",
      "postcode": "9500-050",
      "city": "PONTA DELGADA",
      "lon": "-25.6671356327646",
      "lat": "37.744783270926874"
    },
    {
      "id": "pt.ine.add.AC26.45454",
      "street": "R PASSAL",
      "house": "57",
      "postcode": "9500-096",
      "city": "PONTA DELGADA",
      "lon": "-25.66617240971956",
      "lat": "37.74533115875865"
    },
    {
      "id": "pt.ine.add.AC26.45455",
      "street": "R PASSAL",
      "house": "35",
      "postcode": "9500-096",
      "city": "PONTA DELGADA",
      "lon": "-25.666090363103702",
      "lat": "37.74484354575791"
    },
    {
      "id": "pt.ine.add.AC26.45456",
      "street": "R PASSAL",
      "house": "21",
      "postcode": "9500-096",
      "city": "PONTA DELGADA",
      "lon": "-25.666033276995318",
      "lat": "37.74423003776568"
    },
    {
      "id": "pt.ine.add.AC26.45457",
      "street": "R PASSAL",
      "house": "9",
      "postcode": "9500-096",
      "city": "PONTA DELGADA",
      "lon": "-25.66592352283915",
      "lat": "37.74402150386903"
    },
    {
      "id": "pt.ine.add.AC26.45458",
      "street": "R PASSAL",
      "house": "7",
      "postcode": "9500-096",
      "city": "PONTA DELGADA",
      "lon": "-25.66592352283915",
      "lat": "37.74402150386903"
    },
    {
      "id": "pt.ine.add.AC26.49139",
      "street": "R PASSAL",
      "house": "83",
      "postcode": "9500-096",
      "city": "PONTA DELGADA",
      "lon": "-25.666309740362376",
      "lat": "37.74590051138777"
    },
    {
      "id": "pt.ine.add.AC26.49140",
      "street": "R PASSAL",
      "house": "37",
      "postcode": "9500-096",
      "city": "PONTA DELGADA",
      "lon": "-25.6661007401878",
      "lat": "37.744897739255116"
    },
    {
      "id": "pt.ine.add.AC26.58150",
      "street": "R PASSAL",
      "house": "31A",
      "postcode": "9500-096",
      "city": "PONTA DELGADA",
      "lon": "-25.6660389631528",
      "lat": "37.74454554572614"
    },
    {
      "id": "pt.ine.add.AC26.64311",
      "street": "R MARGARIDA DE CHAVES",
      "house": "97A",
      "postcode": "9500-088",
      "city": "PONTA DELGADA",
      "lon": "-25.66653205176991",
      "lat": "37.74363183320723"
    },
    {
      "id": "pt.ine.add.AC26.66914",
      "street": "R PASSAL",
      "house": "63 A",
      "postcode": "9500-096",
      "city": "PONTA DELGADA",
      "lon": "-25.666235805288515",
      "lat": "37.74559324377506"
    },
    {
      "id": "pt.ine.add.AC26.67911",
      "street": "R PASSAL",
      "house": "15",
      "postcode": "9500-096",
      "city": "PONTA DELGADA",
      "lon": "-25.66593292912381",
      "lat": "37.744129762444"
    },
    {
      "id": "pt.ine.add.AC26.67912",
      "street": "R CONTADOR",
      "house": "16",
      "postcode": "9500-050",
      "city": "PONTA DELGADA",
      "lon": "-25.667276813274047",
      "lat": "37.74450547465852"
    },
    {
      "id": "pt.ine.add.AC26.70395",
      "street": "R PASSAL",
      "house": "13",
      "postcode": "9500-096",
      "city": "PONTA DELGADA",
      "lon": "-25.665967780299752",
      "lat": "37.74408509358373"
    },
    {
      "id": "pt.ine.add.AC26.70396",
      "street": "R PASSAL",
      "house": "11",
      "postcode": "9500-096",
      "city": "PONTA DELGADA",
      "lon": "-25.665967780299752",
      "lat": "37.74408509358373"
    },
    {
      "id": "pt.ine.add.AC26.74307",
      "street": "R PASSAL",
      "house": "75",
      "postcode": "9500-096",
      "city": "PONTA DELGADA",
      "lon": "-25.66625607465919",
      "lat": "37.745728663263485"
    },
    {
      "id": "pt.ine.add.AC26.74308",
      "street": "R MARGARIDA DE CHAVES",
      "house": "117",
      "postcode": "9500-088",
      "city": "PONTA DELGADA",
      "lon": "-25.665997430664536",
      "lat": "37.743697884194496"
    },
    {
      "id": "pt.ine.add.AC26.74309",
      "street": "R FRANCISCO ARRUDA FURTADO",
      "house": "5",
      "postcode": "9500-060",
      "city": "PONTA DELGADA",
      "lon": "-25.666809202296733",
      "lat": "37.74589715009133"
    },
    {
      "id": "pt.ine.add.AC26.79668",
      "street": "R CONTADOR",
      "house": "",
      "postcode": "9500-050",
      "city": "PONTA DELGADA",
      "lon": "-25.66736274567276",
      "lat": "37.744776826663106"
    },
    {
      "id": "pt.ine.add.AC26.79669",
      "street": "R CONTADOR HOTEL CANADIANO",
      "house": "24A",
      "postcode": "9500-050",
      "city": "PONTA DELGADA",
      "lon": "-25.667355797061653",
      "lat": "37.745164293095584"
    },
    {
      "id": "pt.ine.add.AC26.80259",
      "street": "R PASSAL",
      "house": "79",
      "postcode": "9500-096",
      "city": "PONTA DELGADA",
      "lon": "-25.666288177014366",
      "lat": "37.745837178646205"
    },
    {
      "id": "pt.ine.add.AC26.80655",
      "street": "R CONTADOR HOTEL CANADIANO",
      "house": "24A",
      "postcode": "9500-050",
      "city": "PONTA DELGADA",
      "lon": "-25.667355797061653",
      "lat": "37.745164293095584"
    },
    {
      "id": "pt.ine.add.AC26.82857",
      "street": "R PASSAL",
      "house": "61 A",
      "postcode": "9500-096",
      "city": "PONTA DELGADA",
      "lon": "-25.666271950843306",
      "lat": "37.74547648810603"
    },
    {
      "id": "pt.ine.add.AC26.84153",
      "street": "R PASSAL",
      "house": "69",
      "postcode": "9500-096",
      "city": "PONTA DELGADA",
      "lon": "-25.666234349666635",
      "lat": "37.745674341354174"
    },
    {
      "id": "pt.ine.add.AC26.85131",
      "street": "R PASSAL",
      "house": "27",
      "postcode": "9500-096",
      "city": "PONTA DELGADA",
      "lon": "-25.666087102948403",
      "lat": "37.744392875160294"
    },
    {
      "id": "pt.ine.add.AC26.88388",
      "street": "R PASSAL",
      "house": "55 53",
      "postcode": "9500-096",
      "city": "PONTA DELGADA",
      "lon": "-25.6661409547097",
      "lat": "37.7451865999729"
    },
    {
      "id": "pt.ine.add.AC26.89198",
      "street": "R FRANCISCO ARRUDA FURTADO",
      "house": "7",
      "postcode": "9500-060",
      "city": "PONTA DELGADA",
      "lon": "-25.66689949919699",
      "lat": "37.74592520958669"
    },
    {
      "id": "pt.ine.add.AC26.89550",
      "street": "R PASSAL",
      "house": "71",
      "postcode": "9500-096",
      "city": "PONTA DELGADA",
      "lon": "-25.666324646068286",
      "lat": "37.74570240128187"
    },
    {
      "id": "pt.ine.add.AC26.89717",
      "street": "R PASSAL",
      "house": "77",
      "postcode": "9500-096",
      "city": "PONTA DELGADA",
      "lon": "-25.666277799682433",
      "lat": "37.74578298516887"
    },
    {
      "id": "pt.ine.add.AC26.91121",
      "street": "R PASSAL",
      "house": "33 C",
      "postcode": "9500-096",
      "city": "PONTA DELGADA",
      "lon": "-25.6660692854761",
      "lat": "37.74475318044595"
    },
    {
      "id": "pt.ine.add.AC26.101089",
      "street": "R MARGARIDA DE CHAVES",
      "house": "89",
      "postcode": "9500-088",
      "city": "PONTA DELGADA",
      "lon": "-25.66685042521522",
      "lat": "37.74359938444675"
    },
    {
      "id": "pt.ine.add.AC26.101329",
      "street": "R CONTADOR",
      "house": "26 B",
      "postcode": "9500-050",
      "city": "PONTA DELGADA",
      "lon": "-25.667338308641373",
      "lat": "37.74550657694746"
    },
    {
      "id": "pt.ine.add.AC26.106187",
      "street": "R PASSAL",
      "house": "85",
      "postcode": "9500-096",
      "city": "PONTA DELGADA",
      "lon": "-25.66630893172016",
      "lat": "37.745945565597545"
    },
    {
      "id": "pt.ine.add.AC26.106369",
      "street": "R PASSAL",
      "house": "17",
      "postcode": "9500-096",
      "city": "PONTA DELGADA",
      "lon": "-25.665988857638247",
      "lat": "37.74417545891788"
    }
  ]
}