{
  "data": {
    "distrito": "Guarda",
    "concelho": "Sabugal",
    "freguesia": "Alfaiates",
    "OBJECTID": 963,
    "BGRI2021": "09110700128",
    "DT21": "09",
    "DTMN21": "0911",
    "DTMNFR21": "091107",
    "DTMNFRSEC21": "091107001",
    "SECNUM21": "001",
    "SSNUM21": "28",
    "SECSSNUM21": "00128",
    "OBJECTID_1": 80886,
    "DT": "09",
    "CC": "11",
    "fr": "07",
    "SEC": "001",
    "SS": "28"
  },
  "addresses": [
    {
      "id": "pt.ine.add.PTCONT.1907679",
      "street": "R S TIAGO",
      "house": "90",
      "postcode": "6320-081",
      "city": "ALFAIATES",
      "lon": "-6.914782746116185",
      "lat": "40.39228333600908"
    },
    {
      "id": "pt.ine.add.PTCONT.1927035",
      "street": "R MISERICÓRDIA",
      "house": "33",
      "postcode": "6320-081",
      "city": "ALFAIATES",
      "lon": "-6.914348764787523",
      "lat": "40.39283708805987"
    },
    {
      "id": "pt.ine.add.PTCONT.1928174",
      "street": "R MISERICÓRDIA",
      "house": "11",
      "postcode": "6320-081",
      "city": "ALFAIATES",
      "lon": "-6.913978443035912",
      "lat": "40.392472973656815"
    },
    {
      "id": "pt.ine.add.PTCONT.1933312",
      "street": "R MURALHA",
      "house": "",
      "postcode": "6320-081",
      "city": "ALFAIATES",
      "lon": "-6.914585087274517",
      "lat": "40.39279455263655"
    },
    {
      "id": "pt.ine.add.PTCONT.1941537",
      "street": "TV MISERICÓRDIA",
      "house": "93",
      "postcode": "6320-081",
      "city": "ALFAIATES",
      "lon": "-6.914518654356716",
      "lat": "40.39255971583102"
    },
    {
      "id": "pt.ine.add.PTCONT.1955444",
      "street": "R MURALHA",
      "house": "",
      "postcode": "6320-081",
      "city": "ALFAIATES",
      "lon": "-6.914443293816647",
      "lat": "40.39282007394906"
    },
    {
      "id": "pt.ine.add.PTCONT.1955449",
      "street": "R DIREITA",
      "house": "97",
      "postcode": "6320-081",
      "city": "ALFAIATES",
      "lon": "-6.91473012646271",
      "lat": "40.392588960236836"
    },
    {
      "id": "pt.ine.add.PTCONT.1956365",
      "street": "R S TIAGO",
      "house": "98",
      "postcode": "6320-081",
      "city": "ALFAIATES",
      "lon": "-6.914837079662791",
      "lat": "40.39253605569977"
    },
    {
      "id": "pt.ine.add.PTCONT.1963774",
      "street": "R MISERICÓRDIA",
      "house": "9",
      "postcode": "6320-081",
      "city": "ALFAIATES",
      "lon": "-6.913932315492405",
      "lat": "40.392418455732226"
    },
    {
      "id": "pt.ine.add.PTCONT.1963775",
      "street": "R DIREITA",
      "house": "83",
      "postcode": "6320-081",
      "city": "ALFAIATES",
      "lon": "-6.91444012176808",
      "lat": "40.392342761959185"
    },
    {
      "id": "pt.ine.add.PTCONT.1968779",
      "street": "R DIREITA",
      "house": "126",
      "postcode": "6320-081",
      "city": "ALFAIATES",
      "lon": "-6.9144376868376565",
      "lat": "40.39247781513466"
    },
    {
      "id": "pt.ine.add.PTCONT.1970950",
      "street": "TV MISERICÓRDIA",
      "house": "15B",
      "postcode": "6320-081",
      "city": "ALFAIATES",
      "lon": "-6.914378160072038",
      "lat": "40.39251320871304"
    },
    {
      "id": "pt.ine.add.PTCONT.1975966",
      "street": "R MISERICÓRDIA",
      "house": "15",
      "postcode": "6320-081",
      "city": "ALFAIATES",
      "lon": "-6.914082149089914",
      "lat": "40.39260014069374"
    },
    {
      "id": "pt.ine.add.PTCONT.1978869",
      "street": "R MISERICÓRDIA",
      "house": "13",
      "postcode": "6320-081",
      "city": "ALFAIATES",
      "lon": "-6.914024570653194",
      "lat": "40.39252749156358"
    },
    {
      "id": "pt.ine.add.PTCONT.1849191",
      "street": "R DIREITA",
      "house": "134",
      "postcode": "6320-081",
      "city": "ALFAIATES",
      "lon": "-6.914610910662272",
      "lat": "40.39266875120848"
    },
    {
      "id": "pt.ine.add.PTCONT.1852533",
      "street": "R S TIAGO",
      "house": "96",
      "postcode": "6320-081",
      "city": "ALFAIATES",
      "lon": "-6.914756111779921",
      "lat": "40.392454155220875"
    },
    {
      "id": "pt.ine.add.PTCONT.1853621",
      "street": "R MISERICÓRDIA",
      "house": "31",
      "postcode": "6320-081",
      "city": "ALFAIATES",
      "lon": "-6.914220857389323",
      "lat": "40.39274568715283"
    },
    {
      "id": "pt.ine.add.PTCONT.1856469",
      "street": "TV MISERICÓRDIA",
      "house": "",
      "postcode": "6320-081",
      "city": "ALFAIATES",
      "lon": "-6.914247168498229",
      "lat": "40.39259287518248"
    },
    {
      "id": "pt.ine.add.PTCONT.1857001",
      "street": "R DIREITA",
      "house": "8I",
      "postcode": "6320-081",
      "city": "ALFAIATES",
      "lon": "-6.914382056147946",
      "lat": "40.39229712363685"
    },
    {
      "id": "pt.ine.add.PTCONT.1861146",
      "street": "R DIREITA",
      "house": "124",
      "postcode": "6320-081",
      "city": "ALFAIATES",
      "lon": "-6.91433300623338",
      "lat": "40.392404669675386"
    },
    {
      "id": "pt.ine.add.PTCONT.1862509",
      "street": "TV MISERICÓRDIA",
      "house": "27",
      "postcode": "6320-081",
      "city": "ALFAIATES",
      "lon": "-6.914340073778185",
      "lat": "40.39266589659316"
    },
    {
      "id": "pt.ine.add.PTCONT.1863559",
      "street": "R DIREITA",
      "house": "86",
      "postcode": "6320-081",
      "city": "ALFAIATES",
      "lon": "-6.914509962934844",
      "lat": "40.39238852436327"
    },
    {
      "id": "pt.ine.add.PTCONT.1864532",
      "street": "R MISERICÓRDIA",
      "house": "29",
      "postcode": "6320-081",
      "city": "ALFAIATES",
      "lon": "-6.914162791580631",
      "lat": "40.39270004872059"
    },
    {
      "id": "pt.ine.add.PTCONT.1864533",
      "street": "R GARCIAS",
      "house": "6",
      "postcode": "6320-081",
      "city": "ALFAIATES",
      "lon": "-6.914110408916489",
      "lat": "40.3923392862275"
    },
    {
      "id": "pt.ine.add.PTCONT.1864534",
      "street": "TV MISERICÓRDIA",
      "house": "15A",
      "postcode": "6320-081",
      "city": "ALFAIATES",
      "lon": "-6.914164577614621",
      "lat": "40.392601009739515"
    },
    {
      "id": "pt.ine.add.PTCONT.1868251",
      "street": "R DIREITA",
      "house": "140",
      "postcode": "6320-081",
      "city": "ALFAIATES",
      "lon": "-6.914703654149439",
      "lat": "40.39275077587856"
    },
    {
      "id": "pt.ine.add.PTCONT.1869545",
      "street": "TV MISERICÓRDIA",
      "house": "",
      "postcode": "6320-081",
      "city": "ALFAIATES",
      "lon": "-6.914307020096118",
      "lat": "40.3925394745853"
    },
    {
      "id": "pt.ine.add.PTCONT.1870137",
      "street": "R DIREITA",
      "house": "120",
      "postcode": "6320-081",
      "city": "ALFAIATES",
      "lon": "-6.914206073815021",
      "lat": "40.39225924748983"
    },
    {
      "id": "pt.ine.add.PTCONT.1872538",
      "street": "R DIREITA",
      "house": "95",
      "postcode": "6320-081",
      "city": "ALFAIATES",
      "lon": "-6.914602381306835",
      "lat": "40.392488556201776"
    },
    {
      "id": "pt.ine.add.PTCONT.1872539",
      "street": "R S TIAGO",
      "house": "94",
      "postcode": "6320-081",
      "city": "ALFAIATES",
      "lon": "-6.914686594967399",
      "lat": "40.39239038587085"
    },
    {
      "id": "pt.ine.add.PTCONT.1883190",
      "street": "R MISERICÓRDIA",
      "house": "15",
      "postcode": "6320-081",
      "city": "ALFAIATES",
      "lon": "-6.914116501363185",
      "lat": "40.392654534410795"
    },
    {
      "id": "pt.ine.add.PTCONT.1883194",
      "street": "R DIREITA",
      "house": "89",
      "postcode": "6320-081",
      "city": "ALFAIATES",
      "lon": "-6.914556090930247",
      "lat": "40.39244304206416"
    },
    {
      "id": "pt.ine.add.PTCONT.1884992",
      "street": "TV MISERICÓRDIA",
      "house": "",
      "postcode": "6320-081",
      "city": "ALFAIATES",
      "lon": "-6.91443525189076",
      "lat": "40.39261286830681"
    }
  ]
}