{
  "data": {
    "ilha": "Ilha da Madeira (Madeira)",
    "concelho": "Funchal",
    "freguesia": "Imaculado Coração de Maria",
    "OBJECTID": 519,
    "BGRI2021": "31030100414",
    "DT21": "31",
    "DTMN21": "3103",
    "DTMNFR21": "310301",
    "DTMNFRSEC21": "310301004",
    "SECNUM21": "004",
    "SSNUM21": "14",
    "SECSSNUM21": "00414",
    "OBJECTID_1": 203803,
    "DT": "31",
    "CC": "03",
    "fr": "01",
    "SEC": "004",
    "SS": "14",
    "BGRI2021_1": "31030100414"
  },
  "addresses": [
    {
      "id": "pt.ine.add.MAD.1541",
      "street": "ESTR MARMELEIROS",
      "house": "140",
      "postcode": "9050-209",
      "city": "FUNCHAL",
      "lon": "-16.91570711495341",
      "lat": "32.667839967445616"
    },
    {
      "id": "pt.ine.add.MAD.1542",
      "street": "ESTR LIVRAMENTO",
      "house": "145",
      "postcode": "9050-403",
      "city": "FUNCHAL",
      "lon": "-16.91529726065703",
      "lat": "32.667620757122386"
    },
    {
      "id": "pt.ine.add.MAD.1543",
      "street": "ESTR LIVRAMENTO",
      "house": "145 A",
      "postcode": "9050-403",
      "city": "FUNCHAL",
      "lon": "-16.91529726065703",
      "lat": "32.667620757122386"
    },
    {
      "id": "pt.ine.add.MAD.1544",
      "street": "ESTR LIVRAMENTO",
      "house": "145D",
      "postcode": "9050-403",
      "city": "FUNCHAL",
      "lon": "-16.91529726065703",
      "lat": "32.667620757122386"
    },
    {
      "id": "pt.ine.add.MAD.1545",
      "street": "ESTR LIVRAMENTO",
      "house": "143",
      "postcode": "9050-403",
      "city": "FUNCHAL",
      "lon": "-16.91522091589438",
      "lat": "32.66754075404198"
    },
    {
      "id": "pt.ine.add.MAD.1546",
      "street": "ESTR LIVRAMENTO",
      "house": "143 B",
      "postcode": "9050-403",
      "city": "FUNCHAL",
      "lon": "-16.915304841327238",
      "lat": "32.667476341563216"
    },
    {
      "id": "pt.ine.add.MAD.1547",
      "street": "ESTR LIVRAMENTO",
      "house": "141",
      "postcode": "9050-403",
      "city": "FUNCHAL",
      "lon": "-16.91507542307623",
      "lat": "32.667218300554005"
    },
    {
      "id": "pt.ine.add.MAD.2306",
      "street": "ESTR LIVRAMENTO",
      "house": "141",
      "postcode": "9050-403",
      "city": "FUNCHAL",
      "lon": "-16.91507542307623",
      "lat": "32.667218300554005"
    },
    {
      "id": "pt.ine.add.MAD.2307",
      "street": "ESTR LIVRAMENTO",
      "house": "141",
      "postcode": "9050-403",
      "city": "FUNCHAL",
      "lon": "-16.91507542307623",
      "lat": "32.667218300554005"
    },
    {
      "id": "pt.ine.add.MAD.2308",
      "street": "ESTR LIVRAMENTO",
      "house": "141",
      "postcode": "9050-403",
      "city": "FUNCHAL",
      "lon": "-16.91507542307623",
      "lat": "32.667218300554005"
    },
    {
      "id": "pt.ine.add.MAD.2309",
      "street": "ESTR LIVRAMENTO",
      "house": "141",
      "postcode": "9050-403",
      "city": "FUNCHAL",
      "lon": "-16.91507542307623",
      "lat": "32.667218300554005"
    },
    {
      "id": "pt.ine.add.MAD.2310",
      "street": "TV LAJES",
      "house": "ENT3O C 5",
      "postcode": "9050-409",
      "city": "FUNCHAL",
      "lon": "-16.915379916093368",
      "lat": "32.66699720216534"
    },
    {
      "id": "pt.ine.add.MAD.2311",
      "street": "TV LAJES",
      "house": "32",
      "postcode": "9050-409",
      "city": "FUNCHAL",
      "lon": "-16.915597019495916",
      "lat": "32.666678231373616"
    },
    {
      "id": "pt.ine.add.MAD.2312",
      "street": "ESTR MARMELEIROS CASA 12",
      "house": "138",
      "postcode": "9050-209",
      "city": "FUNCHAL",
      "lon": "-16.915414586648197",
      "lat": "32.66712293515911"
    },
    {
      "id": "pt.ine.add.MAD.2313",
      "street": "ESTR MARMELEIROS",
      "house": "10",
      "postcode": "9050-209",
      "city": "FUNCHAL",
      "lon": "-16.915447910440907",
      "lat": "32.66718555752964"
    },
    {
      "id": "pt.ine.add.MAD.2314",
      "street": "ESTR MARMELEIROS CASA 4",
      "house": "138",
      "postcode": "9050-209",
      "city": "FUNCHAL",
      "lon": "-16.915580628821587",
      "lat": "32.66740899949962"
    },
    {
      "id": "pt.ine.add.MAD.2315",
      "street": "ESTR MARMELEIROS",
      "house": "140",
      "postcode": "9050-209",
      "city": "FUNCHAL",
      "lon": "-16.91570519055501",
      "lat": "32.66774980945655"
    },
    {
      "id": "pt.ine.add.MAD.2316",
      "street": "ESTR MARMELEIROS",
      "house": "134",
      "postcode": "9050-209",
      "city": "FUNCHAL",
      "lon": "-16.915872271125444",
      "lat": "32.66758492062066"
    },
    {
      "id": "pt.ine.add.MAD.2317",
      "street": "ESTR MARMELEIROS",
      "house": "126",
      "postcode": "9050-209",
      "city": "FUNCHAL",
      "lon": "-16.915943035090457",
      "lat": "32.667403465138555"
    },
    {
      "id": "pt.ine.add.MAD.2318",
      "street": "BC CASQUILHO",
      "house": "1",
      "postcode": "9050-481",
      "city": "FUNCHAL",
      "lon": "-16.915876194245058",
      "lat": "32.66726920488664"
    },
    {
      "id": "pt.ine.add.MAD.2319",
      "street": "BC CASQUILHO",
      "house": "7",
      "postcode": "9050-481",
      "city": "FUNCHAL",
      "lon": "-16.915850257466275",
      "lat": "32.6670531512767"
    },
    {
      "id": "pt.ine.add.MAD.2320",
      "street": "TV LAJES",
      "house": "42",
      "postcode": "9050-409",
      "city": "FUNCHAL",
      "lon": "-16.91601464203622",
      "lat": "32.66676204110727"
    },
    {
      "id": "pt.ine.add.MAD.3118",
      "street": "ESTR MARMELEIROS",
      "house": "120",
      "postcode": "9050-209",
      "city": "FUNCHAL",
      "lon": "-16.916113074555255",
      "lat": "32.66687778130112"
    },
    {
      "id": "pt.ine.add.MAD.3119",
      "street": "ESTR LIVRAMENTO",
      "house": "133",
      "postcode": "9050-403",
      "city": "FUNCHAL",
      "lon": "-16.915037097974572",
      "lat": "32.666921267184286"
    },
    {
      "id": "pt.ine.add.MAD.3120",
      "street": "TV LAJES",
      "house": "ENT 22 P4",
      "postcode": "9050-409",
      "city": "FUNCHAL",
      "lon": "-16.914826884049592",
      "lat": "32.666563726340605"
    },
    {
      "id": "pt.ine.add.MAD.3121",
      "street": "TV LAJES",
      "house": "ENT22 P4A",
      "postcode": "9050-409",
      "city": "FUNCHAL",
      "lon": "-16.9148685579712",
      "lat": "32.666517996538886"
    },
    {
      "id": "pt.ine.add.MAD.3122",
      "street": "TV LAJES",
      "house": "2",
      "postcode": "9050-409",
      "city": "FUNCHAL",
      "lon": "-16.915341012935947",
      "lat": "32.666673121505575"
    },
    {
      "id": "pt.ine.add.MAD.3123",
      "street": "TV LAJES",
      "house": "ENT 30 84",
      "postcode": "9050-409",
      "city": "FUNCHAL",
      "lon": "-16.91525689586477",
      "lat": "32.66672851818456"
    },
    {
      "id": "pt.ine.add.MAD.3124",
      "street": "TV LAJES",
      "house": "26",
      "postcode": "9050-409",
      "city": "FUNCHAL",
      "lon": "-16.914977840053695",
      "lat": "32.666642590801274"
    },
    {
      "id": "pt.ine.add.MAD.3125",
      "street": "ESTR MARMELEIROS",
      "house": "116",
      "postcode": "9050-209",
      "city": "FUNCHAL",
      "lon": "-16.916308857210485",
      "lat": "32.66655913498021"
    },
    {
      "id": "pt.ine.add.MAD.3126",
      "street": "TV LAJES",
      "house": "29",
      "postcode": "9050-409",
      "city": "FUNCHAL",
      "lon": "-16.91610633802032",
      "lat": "32.66656222835998"
    },
    {
      "id": "pt.ine.add.MAD.3127",
      "street": "ESTR MARMELEIROS",
      "house": "114 A",
      "postcode": "9050-209",
      "city": "FUNCHAL",
      "lon": "-16.916314703833574",
      "lat": "32.66633357722131"
    },
    {
      "id": "pt.ine.add.MAD.3128",
      "street": "ESTR MARMELEIROS",
      "house": "116",
      "postcode": "9050-209",
      "city": "FUNCHAL",
      "lon": "-16.916317013721656",
      "lat": "32.66644176679378"
    },
    {
      "id": "pt.ine.add.MAD.3129",
      "street": "R CIDADE SANTOS",
      "house": "57",
      "postcode": "9050-217",
      "city": "FUNCHAL",
      "lon": "-16.91522076463455",
      "lat": "32.66603462677527"
    },
    {
      "id": "pt.ine.add.MAD.3936",
      "street": "R CIDADE SANTOS",
      "house": "54",
      "postcode": "9050-217",
      "city": "FUNCHAL",
      "lon": "-16.915323120582045",
      "lat": "32.665834651817704"
    },
    {
      "id": "pt.ine.add.MAD.8690",
      "street": "R LAJES",
      "house": "51 B",
      "postcode": "9050-442",
      "city": "FUNCHAL",
      "lon": "-16.914287291414535",
      "lat": "32.665760274390614"
    },
    {
      "id": "pt.ine.add.MAD.8691",
      "street": "R LAJES",
      "house": "51",
      "postcode": "9050-442",
      "city": "FUNCHAL",
      "lon": "-16.914287291414535",
      "lat": "32.665760274390614"
    },
    {
      "id": "pt.ine.add.MAD.8692",
      "street": "R LAJES",
      "house": "51A",
      "postcode": "9050-442",
      "city": "FUNCHAL",
      "lon": "-16.914203751305767",
      "lat": "32.665842717791726"
    },
    {
      "id": "pt.ine.add.MAD.8693",
      "street": "R LAJES",
      "house": "49",
      "postcode": "9050-442",
      "city": "FUNCHAL",
      "lon": "-16.914093894507605",
      "lat": "32.66569107533213"
    },
    {
      "id": "pt.ine.add.MAD.8694",
      "street": "TV LAJES",
      "house": "3",
      "postcode": "9050-409",
      "city": "FUNCHAL",
      "lon": "-16.914547141598174",
      "lat": "32.66594570266632"
    },
    {
      "id": "pt.ine.add.MAD.8695",
      "street": "TV LAJES",
      "house": "8",
      "postcode": "9050-409",
      "city": "FUNCHAL",
      "lon": "-16.914547141598174",
      "lat": "32.66594570266632"
    },
    {
      "id": "pt.ine.add.MAD.8696",
      "street": "TV LAJES",
      "house": "14",
      "postcode": "9050-409",
      "city": "FUNCHAL",
      "lon": "-16.914712217049335",
      "lat": "32.66618668935826"
    },
    {
      "id": "pt.ine.add.MAD.8697",
      "street": "TV LAJES",
      "house": "14",
      "postcode": "9050-409",
      "city": "FUNCHAL",
      "lon": "-16.91487306180702",
      "lat": "32.66622932807233"
    },
    {
      "id": "pt.ine.add.MAD.8698",
      "street": "TV LAJES",
      "house": "18",
      "postcode": "9050-409",
      "city": "FUNCHAL",
      "lon": "-16.915064344429226",
      "lat": "32.66619935200828"
    },
    {
      "id": "pt.ine.add.MAD.55978",
      "street": "TV LAJES",
      "house": "1 ESQUER",
      "postcode": "9050-409",
      "city": "FUNCHAL",
      "lon": "-16.91540804490736",
      "lat": "32.6668163979031"
    },
    {
      "id": "pt.ine.add.MAD.55979",
      "street": "TV LAJES",
      "house": "34",
      "postcode": "9050-409",
      "city": "FUNCHAL",
      "lon": "-16.91571542223429",
      "lat": "32.666730535782115"
    },
    {
      "id": "pt.ine.add.MAD.56161",
      "street": "TV LAJES",
      "house": "31",
      "postcode": "9050-409",
      "city": "FUNCHAL",
      "lon": "-16.916223201011103",
      "lat": "32.66654240589978"
    },
    {
      "id": "pt.ine.add.MAD.56360",
      "street": "CAM LIVRAMENTO",
      "house": "13",
      "postcode": "9050-403",
      "city": "FUNCHAL",
      "lon": "-16.91476955041937",
      "lat": "32.666375207869706"
    },
    {
      "id": "pt.ine.add.MAD.59420",
      "street": "BC CASQUILHO",
      "house": "9",
      "postcode": "9050-481",
      "city": "FUNCHAL",
      "lon": "-16.915890391444172",
      "lat": "32.66693529475634"
    },
    {
      "id": "pt.ine.add.MAD.59437",
      "street": "ESTR LIVRAMENTO",
      "house": "127",
      "postcode": "9050-403",
      "city": "FUNCHAL",
      "lon": "-16.91432561334956",
      "lat": "32.6660573081524"
    },
    {
      "id": "pt.ine.add.MAD.59438",
      "street": "CAM LIVRAMENTO",
      "house": "179",
      "postcode": "9050-403",
      "city": "FUNCHAL",
      "lon": "-16.91432561334956",
      "lat": "32.6660573081524"
    },
    {
      "id": "pt.ine.add.MAD.59439",
      "street": "ESTR LIVRAMENTO",
      "house": "127",
      "postcode": "9050-403",
      "city": "FUNCHAL",
      "lon": "-16.91432561334956",
      "lat": "32.6660573081524"
    },
    {
      "id": "pt.ine.add.MAD.59440",
      "street": "CAM LIVRAMENTO",
      "house": "179",
      "postcode": "9050-403",
      "city": "FUNCHAL",
      "lon": "-16.91432561334956",
      "lat": "32.6660573081524"
    },
    {
      "id": "pt.ine.add.MAD.59441",
      "street": "ESTR LIVRAMENTO",
      "house": "127",
      "postcode": "9050-403",
      "city": "FUNCHAL",
      "lon": "-16.91432561334956",
      "lat": "32.6660573081524"
    },
    {
      "id": "pt.ine.add.MAD.59442",
      "street": "CAM LIVRAMENTO",
      "house": "179",
      "postcode": "9050-403",
      "city": "FUNCHAL",
      "lon": "-16.91432561334956",
      "lat": "32.6660573081524"
    },
    {
      "id": "pt.ine.add.MAD.59443",
      "street": "TV LAJES",
      "house": "16",
      "postcode": "9050-409",
      "city": "FUNCHAL",
      "lon": "-16.91495679397148",
      "lat": "32.666155900044835"
    },
    {
      "id": "pt.ine.add.MAD.62065",
      "street": "ESTR LIVRAMENTO",
      "house": "139",
      "postcode": "9050-403",
      "city": "FUNCHAL",
      "lon": "-16.914965563039047",
      "lat": "32.66706665900713"
    },
    {
      "id": "pt.ine.add.MAD.62254",
      "street": "TV LAJES",
      "house": "40",
      "postcode": "9050-409",
      "city": "FUNCHAL",
      "lon": "-16.915950495998807",
      "lat": "32.666754002055626"
    },
    {
      "id": "pt.ine.add.MAD.62255",
      "street": "TV LAJES",
      "house": "30 A",
      "postcode": "9050-409",
      "city": "FUNCHAL",
      "lon": "-16.91542455269369",
      "lat": "32.66659067736724"
    },
    {
      "id": "pt.ine.add.MAD.64851",
      "street": "ESTR MARMELEIROS",
      "house": "130",
      "postcode": "9050-209",
      "city": "FUNCHAL",
      "lon": "-16.915806584919792",
      "lat": "32.6675047551288"
    },
    {
      "id": "pt.ine.add.MAD.65039",
      "street": "TV LAJES",
      "house": "10",
      "postcode": "9050-409",
      "city": "FUNCHAL",
      "lon": "-16.914633950881957",
      "lat": "32.666016527768974"
    },
    {
      "id": "pt.ine.add.MAD.67183",
      "street": "TV LAJES",
      "house": "26 CASA3",
      "postcode": "9050-409",
      "city": "FUNCHAL",
      "lon": "-16.915148575172402",
      "lat": "32.666649003202984"
    },
    {
      "id": "pt.ine.add.MAD.74801",
      "street": "TV LAJES",
      "house": "27",
      "postcode": "9050-409",
      "city": "FUNCHAL",
      "lon": "-16.91618891455781",
      "lat": "32.66643470474912"
    },
    {
      "id": "pt.ine.add.MAD.79579",
      "street": "ESTR MARMELEIROS",
      "house": "CASA 3",
      "postcode": "9050-481",
      "city": "FUNCHAL",
      "lon": "-16.9157998493",
      "lat": "32.66718920216257"
    },
    {
      "id": "pt.ine.add.MAD.82584",
      "street": "ESTR LIVRAMENTO",
      "house": "143 D",
      "postcode": "9050-403",
      "city": "FUNCHAL",
      "lon": "-16.915260473717467",
      "lat": "32.667395850287356"
    },
    {
      "id": "pt.ine.add.MAD.82585",
      "street": "ESTR LIVRAMENTO",
      "house": "131",
      "postcode": "9050-403",
      "city": "FUNCHAL",
      "lon": "-16.914819494951917",
      "lat": "32.66671715772166"
    },
    {
      "id": "pt.ine.add.MAD.85558",
      "street": "ESTR LIVRAMENTO",
      "house": "143C",
      "postcode": "9050-403",
      "city": "FUNCHAL",
      "lon": "-16.915165889305477",
      "lat": "32.66746042546098"
    },
    {
      "id": "pt.ine.add.MAD.85559",
      "street": "TV LAJES",
      "house": "1",
      "postcode": "9050-409",
      "city": "FUNCHAL",
      "lon": "-16.9152109896502",
      "lat": "32.66657590044156"
    },
    {
      "id": "pt.ine.add.MAD.85996",
      "street": "TV LAJES",
      "house": "12",
      "postcode": "9050-409",
      "city": "FUNCHAL",
      "lon": "-16.914667273689407",
      "lat": "32.66607915039299"
    },
    {
      "id": "pt.ine.add.MAD.86605",
      "street": "CAM LIVRAMENTO",
      "house": "12",
      "postcode": "9050-403",
      "city": "FUNCHAL",
      "lon": "-16.91469609214385",
      "lat": "32.66643044149054"
    },
    {
      "id": "pt.ine.add.MAD.86606",
      "street": "TV LAJES",
      "house": "22",
      "postcode": "9050-409",
      "city": "FUNCHAL",
      "lon": "-16.91504668157468",
      "lat": "32.66637097771477"
    },
    {
      "id": "pt.ine.add.MAD.88421",
      "street": "TV LAJES",
      "house": "ENT 26 C 2",
      "postcode": "9050-409",
      "city": "FUNCHAL",
      "lon": "-16.91511294335045",
      "lat": "32.6664781910865"
    },
    {
      "id": "pt.ine.add.MAD.88422",
      "street": "R DOS MARMELEIROS",
      "house": "112",
      "postcode": "9050-209",
      "city": "FUNCHAL",
      "lon": "-16.91630019519182",
      "lat": "32.66615342407865"
    },
    {
      "id": "pt.ine.add.MAD.89880",
      "street": "IMACULADO CORACAO MARIA",
      "house": "5",
      "postcode": "9050-481",
      "city": "FUNCHAL",
      "lon": "-16.91576652526502",
      "lat": "32.66712657989481"
    },
    {
      "id": "pt.ine.add.MAD.90061",
      "street": "TV LAJES",
      "house": "ENT30 C6",
      "postcode": "9050-409",
      "city": "FUNCHAL",
      "lon": "-16.915205140265503",
      "lat": "32.666801458244805"
    },
    {
      "id": "pt.ine.add.MAD.90062",
      "street": "R CIDADE SANTOS",
      "house": "50",
      "postcode": "9050-217",
      "city": "FUNCHAL",
      "lon": "-16.915199909923547",
      "lat": "32.665556951863636"
    },
    {
      "id": "pt.ine.add.MAD.90271",
      "street": "R LAJES",
      "house": "47",
      "postcode": "9050-442",
      "city": "FUNCHAL",
      "lon": "-16.91402744229691",
      "lat": "32.66557484553125"
    },
    {
      "id": "pt.ine.add.MAD.94250",
      "street": "ESTR MARMELEIROS",
      "house": "136",
      "postcode": "9050-209",
      "city": "FUNCHAL",
      "lon": "-16.915874388135315",
      "lat": "32.66768409440144"
    },
    {
      "id": "pt.ine.add.MAD.94251",
      "street": "ESTR MARMELEIROS",
      "house": "CASA 2",
      "postcode": "9050-209",
      "city": "FUNCHAL",
      "lon": "-16.91619764865854",
      "lat": "32.666344383958105"
    },
    {
      "id": "pt.ine.add.MAD.97802",
      "street": "R CIDADE SANTOS",
      "house": "54 A",
      "postcode": "9050-217",
      "city": "FUNCHAL",
      "lon": "-16.91510159363712",
      "lat": "32.66594625863031"
    },
    {
      "id": "pt.ine.add.MAD.101939",
      "street": "TV LAJES",
      "house": "30 CASA7",
      "postcode": "9050-409",
      "city": "FUNCHAL",
      "lon": "-16.915240772422077",
      "lat": "32.66697227031545"
    },
    {
      "id": "pt.ine.add.MAD.101940",
      "street": "ESTR MARMELEIROS",
      "house": "132",
      "postcode": "9050-209",
      "city": "FUNCHAL",
      "lon": "-16.915935070527727",
      "lat": "32.667529849103225"
    },
    {
      "id": "pt.ine.add.MAD.102789",
      "street": "ESTR LIVRAMENTO",
      "house": "145",
      "postcode": "9050-403",
      "city": "FUNCHAL",
      "lon": "-16.91529726065703",
      "lat": "32.667620757122386"
    },
    {
      "id": "pt.ine.add.MAD.102861",
      "street": "R LAJES",
      "house": "53",
      "postcode": "9050-442",
      "city": "FUNCHAL",
      "lon": "-16.914287291414535",
      "lat": "32.665760274390614"
    },
    {
      "id": "pt.ine.add.MAD.102869",
      "street": "TV LAJES",
      "house": "24",
      "postcode": "9050-409",
      "city": "FUNCHAL",
      "lon": "-16.915196867910353",
      "lat": "32.66641377870383"
    },
    {
      "id": "pt.ine.add.MAD.105450",
      "street": "ESTR LIVRAMENTO",
      "house": "127",
      "postcode": "9050-403",
      "city": "FUNCHAL",
      "lon": "-16.91432561334956",
      "lat": "32.6660573081524"
    },
    {
      "id": "pt.ine.add.MAD.106007",
      "street": "BC DO CASQUILHO",
      "house": "5",
      "postcode": "9050-481",
      "city": "FUNCHAL",
      "lon": "-16.915799271966062",
      "lat": "32.66716215476467"
    },
    {
      "id": "pt.ine.add.MAD.106008",
      "street": "BC DO CASQUILHO",
      "house": "5",
      "postcode": "9050-481",
      "city": "FUNCHAL",
      "lon": "-16.915799271966062",
      "lat": "32.66716215476467"
    },
    {
      "id": "pt.ine.add.MAD.107151",
      "street": "ESTR MARMELEIROS",
      "house": "124",
      "postcode": "9050-209",
      "city": "FUNCHAL",
      "lon": "-16.916022725566005",
      "lat": "32.66714070464283"
    },
    {
      "id": "pt.ine.add.MAD.107511",
      "street": "TV LAJES",
      "house": "22",
      "postcode": "9050-409",
      "city": "FUNCHAL",
      "lon": "-16.914919159595552",
      "lat": "32.66639096178014"
    },
    {
      "id": "pt.ine.add.MAD.116978",
      "street": "ESTR MARMELEIROS",
      "house": "112",
      "postcode": "9050-209",
      "city": "FUNCHAL",
      "lon": "-16.916312971425633",
      "lat": "32.66625243504061"
    },
    {
      "id": "pt.ine.add.MAD.117202",
      "street": "R CIDADE SANTOS",
      "house": "",
      "postcode": "9050-217",
      "city": "FUNCHAL",
      "lon": "-16.916269373530497",
      "lat": "32.666208007310715"
    },
    {
      "id": "pt.ine.add.MAD.119561",
      "street": "ESTR MARMELEIROS",
      "house": "122",
      "postcode": "9050-209",
      "city": "FUNCHAL",
      "lon": "-16.91607217101301",
      "lat": "32.666959574689315"
    },
    {
      "id": "pt.ine.add.MAD.119710",
      "street": "TV LAJES",
      "house": "20",
      "postcode": "9050-409",
      "city": "FUNCHAL",
      "lon": "-16.91513972599514",
      "lat": "32.666234276227385"
    },
    {
      "id": "pt.ine.add.MAD.120167",
      "street": "TV LAJES",
      "house": "28",
      "postcode": "9050-409",
      "city": "FUNCHAL",
      "lon": "-16.915305573128588",
      "lat": "32.66651132526125"
    },
    {
      "id": "pt.ine.add.MAD.120168",
      "street": "TV LAJES",
      "house": "5",
      "postcode": "9050-409",
      "city": "FUNCHAL",
      "lon": "-16.91504352487006",
      "lat": "32.666722756788815"
    },
    {
      "id": "pt.ine.add.MAD.123307",
      "street": "TV LAJES ENTRADA 26",
      "house": "4",
      "postcode": "9050-409",
      "city": "FUNCHAL",
      "lon": "-16.915039677579443",
      "lat": "32.66654244070713"
    },
    {
      "id": "pt.ine.add.MAD.123795",
      "street": "TV LAJES ENTRADA 30",
      "house": "3",
      "postcode": "9050-409",
      "city": "FUNCHAL",
      "lon": "-16.91535628938726",
      "lat": "32.66688933802207"
    },
    {
      "id": "pt.ine.add.MAD.124372",
      "street": "ESTR LIVRAMENTO",
      "house": "145 C",
      "postcode": "9050-403",
      "city": "FUNCHAL",
      "lon": "-16.91529726065703",
      "lat": "32.667620757122386"
    },
    {
      "id": "pt.ine.add.MAD.125155",
      "street": "ESTR MARMELEIROS ENTRADA 138",
      "house": "6",
      "postcode": "9050-209",
      "city": "FUNCHAL",
      "lon": "-16.9155364534253",
      "lat": "32.66733752412896"
    },
    {
      "id": "pt.ine.add.MAD.127057",
      "street": "R LAJES",
      "house": "57",
      "postcode": "9050-442",
      "city": "FUNCHAL",
      "lon": "-16.914142297805405",
      "lat": "32.66596089912063"
    },
    {
      "id": "pt.ine.add.MAD.127145",
      "street": "R CIDADE SANTOS",
      "house": "52",
      "postcode": "9050-217",
      "city": "FUNCHAL",
      "lon": "-16.915075466902547",
      "lat": "32.665721188928124"
    },
    {
      "id": "pt.ine.add.MAD.127146",
      "street": "R CIDADE SANTOS",
      "house": "48",
      "postcode": "9050-217",
      "city": "FUNCHAL",
      "lon": "-16.915412316169288",
      "lat": "32.6655176340788"
    }
  ]
}