{
  "data": {
    "distrito": "Viana do Castelo",
    "concelho": "Viana do Castelo",
    "freguesia": "Vila de Punhe",
    "OBJECTID": 790,
    "BGRI2021": "16093800205",
    "DT21": "16",
    "DTMN21": "1609",
    "DTMNFR21": "160938",
    "DTMNFRSEC21": "160938002",
    "SECNUM21": "002",
    "SSNUM21": "05",
    "SECSSNUM21": "00205",
    "OBJECTID_1": 178006,
    "DT": "16",
    "CC": "09",
    "fr": "38",
    "SEC": "002",
    "SS": "05"
  },
  "addresses": [
    {
      "id": "pt.ine.add.PTCONT.5140437",
      "street": "R SANTO ANTÓNIO",
      "house": "44",
      "postcode": "4905-642",
      "city": "VILA DE PUNHE",
      "lon": "-8.735753282860214",
      "lat": "41.65563077047132"
    },
    {
      "id": "pt.ine.add.PTCONT.5144013",
      "street": "AV IGREJA",
      "house": "185",
      "postcode": "4905-642",
      "city": "VILA DE PUNHE",
      "lon": "-8.735492702462736",
      "lat": "41.65601028542321"
    },
    {
      "id": "pt.ine.add.PTCONT.5148699",
      "street": "R AREIAS",
      "house": "82",
      "postcode": "4905-642",
      "city": "VILA DE PUNHE",
      "lon": "-8.737320964197963",
      "lat": "41.65637883817177"
    },
    {
      "id": "pt.ine.add.PTCONT.5148700",
      "street": "AV PADRE JULIO CÂNDIDO COSTA",
      "house": "181",
      "postcode": "4905-642",
      "city": "VILA DE PUNHE",
      "lon": "-8.736031157218743",
      "lat": "41.657105894833"
    },
    {
      "id": "pt.ine.add.PTCONT.5162264",
      "street": "R STA EULÁLIA",
      "house": "181",
      "postcode": "4905-644",
      "city": "VILA DE PUNHE",
      "lon": "-8.738804536132085",
      "lat": "41.65839682727697"
    },
    {
      "id": "pt.ine.add.PTCONT.5174472",
      "street": "AV IGREJA",
      "house": "171",
      "postcode": "4905-642",
      "city": "VILA DE PUNHE",
      "lon": "-8.735467602337437",
      "lat": "41.65589337085239"
    },
    {
      "id": "pt.ine.add.PTCONT.5174616",
      "street": "R MANUEL ARAÚJO COUTINHO",
      "house": "104",
      "postcode": "4905-642",
      "city": "VILA DE PUNHE",
      "lon": "-8.736046347575178",
      "lat": "41.65487293547275"
    },
    {
      "id": "pt.ine.add.PTCONT.5183756",
      "street": "R SANTO ANTÓNIO",
      "house": "55",
      "postcode": "4905-642",
      "city": "VILA DE PUNHE",
      "lon": "-8.735967017006589",
      "lat": "41.65537755029893"
    },
    {
      "id": "pt.ine.add.PTCONT.5183759",
      "street": "R MANUEL ARAÚJO COUTINHO",
      "house": "189",
      "postcode": "4905-644",
      "city": "VILA DE PUNHE",
      "lon": "-8.737812068374758",
      "lat": "41.65625920939725"
    },
    {
      "id": "pt.ine.add.PTCONT.5187026",
      "street": "AV IGREJA",
      "house": "207",
      "postcode": "4905-642",
      "city": "VILA DE PUNHE",
      "lon": "-8.735530310876735",
      "lat": "41.65618115571005"
    },
    {
      "id": "pt.ine.add.PTCONT.5194308",
      "street": "R AREIAS",
      "house": "82 A",
      "postcode": "4905-642",
      "city": "VILA DE PUNHE",
      "lon": "-8.737165153470189",
      "lat": "41.65640666776687"
    },
    {
      "id": "pt.ine.add.PTCONT.5195953",
      "street": "R AREIAS",
      "house": "106",
      "postcode": "4905-642",
      "city": "VILA DE PUNHE",
      "lon": "-8.737162966211667",
      "lat": "41.65617258705543"
    },
    {
      "id": "pt.ine.add.PTCONT.5198277",
      "street": "R SANTO ANTÓNIO",
      "house": "35",
      "postcode": "4905-642",
      "city": "VILA DE PUNHE",
      "lon": "-8.735751016847315",
      "lat": "41.65538768655926"
    },
    {
      "id": "pt.ine.add.PTCONT.5201472",
      "street": "AV IGREJA",
      "house": "131",
      "postcode": "4905-642",
      "city": "VILA DE PUNHE",
      "lon": "-8.735391883139403",
      "lat": "41.655497611546956"
    },
    {
      "id": "pt.ine.add.PTCONT.5202793",
      "street": "R MANUEL ARAÚJO COUTINHO",
      "house": "280",
      "postcode": "4905-642",
      "city": "VILA DE PUNHE",
      "lon": "-8.737716366536787",
      "lat": "41.65629572703441"
    },
    {
      "id": "pt.ine.add.PTCONT.5209298",
      "street": "R MANUEL ARAÚJO COUTINHO",
      "house": "92",
      "postcode": "4905-642",
      "city": "VILA DE PUNHE",
      "lon": "-8.735949723292569",
      "lat": "41.654810417447436"
    },
    {
      "id": "pt.ine.add.PTCONT.5213805",
      "street": "R MANUEL ARAÚJO COUTINHO",
      "house": "80",
      "postcode": "4905-642",
      "city": "VILA DE PUNHE",
      "lon": "-8.735828586479172",
      "lat": "41.65469400658572"
    },
    {
      "id": "pt.ine.add.PTCONT.5218408",
      "street": "AV IGREJA",
      "house": "263",
      "postcode": "4905-642",
      "city": "VILA DE PUNHE",
      "lon": "-8.736085555715855",
      "lat": "41.65650237189974"
    },
    {
      "id": "pt.ine.add.PTCONT.5220261",
      "street": "R AREIAS",
      "house": "84",
      "postcode": "4905-642",
      "city": "VILA DE PUNHE",
      "lon": "-8.737549140596034",
      "lat": "41.65638664201939"
    },
    {
      "id": "pt.ine.add.PTCONT.5223077",
      "street": "AV IGREJA",
      "house": "217",
      "postcode": "4905-642",
      "city": "VILA DE PUNHE",
      "lon": "-8.735841848630299",
      "lat": "41.656116497630784"
    },
    {
      "id": "pt.ine.add.PTCONT.5225636",
      "street": "R STA EULÁLIA",
      "house": "151",
      "postcode": "4905-644",
      "city": "VILA DE PUNHE",
      "lon": "-8.738406508973958",
      "lat": "41.65820084613512"
    },
    {
      "id": "pt.ine.add.PTCONT.5226603",
      "street": "R CRUZEIRINHO",
      "house": "44",
      "postcode": "4905-644",
      "city": "VILA DE PUNHE",
      "lon": "-8.738775913056811",
      "lat": "41.65662327990459"
    },
    {
      "id": "pt.ine.add.PTCONT.5233571",
      "street": "R AREIAS",
      "house": "157",
      "postcode": "4905-642",
      "city": "VILA DE PUNHE",
      "lon": "-8.736884080602888",
      "lat": "41.655876935324926"
    },
    {
      "id": "pt.ine.add.PTCONT.5233592",
      "street": "AV IGREJA",
      "house": "263",
      "postcode": "4905-642",
      "city": "VILA DE PUNHE",
      "lon": "-8.735920425752749",
      "lat": "41.65681836217"
    },
    {
      "id": "pt.ine.add.PTCONT.5239877",
      "street": "R MANUEL ARAÚJO COUTINHO",
      "house": "126",
      "postcode": "4905-642",
      "city": "VILA DE PUNHE",
      "lon": "-8.736204170815501",
      "lat": "41.65506118199987"
    },
    {
      "id": "pt.ine.add.PTCONT.5240327",
      "street": "R AREIAS",
      "house": "146",
      "postcode": "4905-642",
      "city": "VILA DE PUNHE",
      "lon": "-8.737077923143678",
      "lat": "41.656064991398814"
    },
    {
      "id": "pt.ine.add.PTCONT.5240328",
      "street": "R AREIAS",
      "house": "146",
      "postcode": "4905-642",
      "city": "VILA DE PUNHE",
      "lon": "-8.737077923143678",
      "lat": "41.656064991398814"
    },
    {
      "id": "pt.ine.add.PTCONT.5252563",
      "street": "R SANTO ANTÓNIO",
      "house": "74",
      "postcode": "4905-642",
      "city": "VILA DE PUNHE",
      "lon": "-8.73629215112668",
      "lat": "41.65548388709396"
    },
    {
      "id": "pt.ine.add.PTCONT.5252568",
      "street": "R MANUEL ARAÚJO COUTINHO",
      "house": "166",
      "postcode": "4905-642",
      "city": "VILA DE PUNHE",
      "lon": "-8.736131219388398",
      "lat": "41.654962525720634"
    },
    {
      "id": "pt.ine.add.PTCONT.5258223",
      "street": "R AREIAS",
      "house": "146",
      "postcode": "4905-642",
      "city": "VILA DE PUNHE",
      "lon": "-8.737136517072507",
      "lat": "41.6559116231962"
    },
    {
      "id": "pt.ine.add.PTCONT.5261772",
      "street": "R SANTO ANTÓNIO",
      "house": "2",
      "postcode": "4905-642",
      "city": "VILA DE PUNHE",
      "lon": "-8.735442250653326",
      "lat": "41.65574944694918"
    },
    {
      "id": "pt.ine.add.PTCONT.5261773",
      "street": "R SANTO ANTÓNIO",
      "house": "105",
      "postcode": "4905-642",
      "city": "VILA DE PUNHE",
      "lon": "-8.736434274918482",
      "lat": "41.6552760595651"
    },
    {
      "id": "pt.ine.add.PTCONT.5261783",
      "street": "R MANUEL ARAÚJO COUTINHO",
      "house": "30",
      "postcode": "4905-642",
      "city": "VILA DE PUNHE",
      "lon": "-8.735659348099608",
      "lat": "41.654568844215945"
    },
    {
      "id": "pt.ine.add.PTCONT.5262793",
      "street": "AV PADRE JULIO CÂNDIDO COSTA",
      "house": "",
      "postcode": "4905-642",
      "city": "VILA DE PUNHE",
      "lon": "-8.736836416491064",
      "lat": "41.65720070696609"
    },
    {
      "id": "pt.ine.add.PTCONT.5264069",
      "street": "R AREIAS",
      "house": "260",
      "postcode": "4905-642",
      "city": "VILA DE PUNHE",
      "lon": "-8.737149387938242",
      "lat": "41.65728909808268"
    },
    {
      "id": "pt.ine.add.PTCONT.5267532",
      "street": "AV IGREJA",
      "house": "111",
      "postcode": "4905-642",
      "city": "VILA DE PUNHE",
      "lon": "-8.735354527121315",
      "lat": "41.655353750515836"
    },
    {
      "id": "pt.ine.add.PTCONT.5271033",
      "street": "AV IGREJA",
      "house": "31",
      "postcode": "4905-642",
      "city": "VILA DE PUNHE",
      "lon": "-8.735227688402238",
      "lat": "41.65462512758285"
    },
    {
      "id": "pt.ine.add.PTCONT.5274596",
      "street": "R STA EULÁLIA",
      "house": "155",
      "postcode": "4905-644",
      "city": "VILA DE PUNHE",
      "lon": "-8.73857508759445",
      "lat": "41.65825397949152"
    },
    {
      "id": "pt.ine.add.PTCONT.5276912",
      "street": "R SANTO ANTÓNIO",
      "house": "118",
      "postcode": "4905-642",
      "city": "VILA DE PUNHE",
      "lon": "-8.736785856655139",
      "lat": "41.65564335902005"
    },
    {
      "id": "pt.ine.add.PTCONT.5277983",
      "street": "R SANTO ANTÓNIO",
      "house": "50",
      "postcode": "4905-642",
      "city": "VILA DE PUNHE",
      "lon": "-8.73602880362001",
      "lat": "41.65556630071892"
    },
    {
      "id": "pt.ine.add.PTCONT.5277984",
      "street": "R SANTO ANTÓNIO",
      "house": "104",
      "postcode": "4905-642",
      "city": "VILA DE PUNHE",
      "lon": "-8.736615941558558",
      "lat": "41.6554461732576"
    },
    {
      "id": "pt.ine.add.PTCONT.5283821",
      "street": "R PADRE JULIO CANDIDO DACOSTA",
      "house": "258",
      "postcode": "4905-642",
      "city": "VILA DE PUNHE",
      "lon": "-8.737560168405448",
      "lat": "41.65756604845456"
    }
  ]
}