{
  "data": {
    "distrito": "Bragança",
    "concelho": "Mogadouro",
    "freguesia": "Tó",
    "OBJECTID": 45,
    "BGRI2021": "04081900103",
    "DT21": "04",
    "DTMN21": "0408",
    "DTMNFR21": "040819",
    "DTMNFRSEC21": "040819001",
    "SECNUM21": "001",
    "SSNUM21": "03",
    "SECSSNUM21": "00103",
    "OBJECTID_1": 37718,
    "DT": "04",
    "CC": "08",
    "fr": "19",
    "SEC": "001",
    "SS": "03"
  },
  "addresses": [
    {
      "id": "pt.ine.add.PTCONT.852959",
      "street": "R LAVADOURO",
      "house": "",
      "postcode": "5200-422",
      "city": "TÓ",
      "lon": "-6.566018355926075",
      "lat": "41.31989953264158"
    },
    {
      "id": "pt.ine.add.PTCONT.853684",
      "street": "R CAPELA",
      "house": "",
      "postcode": "5200-422",
      "city": "TÓ",
      "lon": "-6.563420087989811",
      "lat": "41.322664269165195"
    },
    {
      "id": "pt.ine.add.PTCONT.857525",
      "street": "R CAPELA",
      "house": "",
      "postcode": "5200-422",
      "city": "TÓ",
      "lon": "-6.56376741579994",
      "lat": "41.32262398790874"
    },
    {
      "id": "pt.ine.add.PTCONT.873665",
      "street": "",
      "house": "",
      "postcode": "5200-422",
      "city": "TÓ",
      "lon": "-6.563659959632418",
      "lat": "41.32262252242845"
    },
    {
      "id": "pt.ine.add.PTCONT.880319",
      "street": "R LAVADOURO",
      "house": "",
      "postcode": "5200-422",
      "city": "TÓ",
      "lon": "-6.565928743476037",
      "lat": "41.32015041577001"
    },
    {
      "id": "pt.ine.add.PTCONT.880320",
      "street": "R LAVADOURO",
      "house": "",
      "postcode": "5200-422",
      "city": "TÓ",
      "lon": "-6.565928743476037",
      "lat": "41.32015041577001"
    },
    {
      "id": "pt.ine.add.PTCONT.896820",
      "street": "R DO LAVADOURO TÓ",
      "house": "",
      "postcode": "5200-422",
      "city": "TÓ",
      "lon": "-6.5633284602536195",
      "lat": "41.32250095285031"
    },
    {
      "id": "pt.ine.add.PTCONT.909631",
      "street": "R LAVADOURO",
      "house": "",
      "postcode": "5200-422",
      "city": "TÓ",
      "lon": "-6.565192112518528",
      "lat": "41.320986728872484"
    },
    {
      "id": "pt.ine.add.PTCONT.909944",
      "street": "LG ESCOLAS - RUA DO RAVADOURO",
      "house": "",
      "postcode": "5200-422",
      "city": "TÓ",
      "lon": "-6.564738919318297",
      "lat": "41.32145774897909"
    },
    {
      "id": "pt.ine.add.PTCONT.915613",
      "street": "R LAVADOURO",
      "house": "",
      "postcode": "5200-422",
      "city": "TÓ",
      "lon": "-6.565828700953379",
      "lat": "41.32033813089808"
    },
    {
      "id": "pt.ine.add.PTCONT.916317",
      "street": "R RAVADOURO",
      "house": "",
      "postcode": "5200-422",
      "city": "TÓ",
      "lon": "-6.564348072314993",
      "lat": "41.32231677593112"
    },
    {
      "id": "pt.ine.add.PTCONT.924991",
      "street": "R LAVADOURO",
      "house": "",
      "postcode": "5200-422",
      "city": "TÓ",
      "lon": "-6.5659675802340525",
      "lat": "41.32002489292299"
    },
    {
      "id": "pt.ine.add.PTCONT.925226",
      "street": "R CAPELA",
      "house": "",
      "postcode": "5200-422",
      "city": "TÓ",
      "lon": "-6.563504097104411",
      "lat": "41.322647407678836"
    },
    {
      "id": "pt.ine.add.PTCONT.929430",
      "street": "LG ESCOLAS",
      "house": "9",
      "postcode": "5200-422",
      "city": "TÓ",
      "lon": "-6.564144020779532",
      "lat": "41.32235901249478"
    },
    {
      "id": "pt.ine.add.PTCONT.930220",
      "street": "LG ESCOLAS",
      "house": "",
      "postcode": "5200-422",
      "city": "TÓ",
      "lon": "-6.565481675737212",
      "lat": "41.32086462208308"
    },
    {
      "id": "pt.ine.add.PTCONT.940236",
      "street": "R LAVADOURO",
      "house": "",
      "postcode": "5200-422",
      "city": "TÓ",
      "lon": "-6.565058406603113",
      "lat": "41.32108394768598"
    }
  ]
}