{
  "data": {
    "distrito": "Lisboa",
    "concelho": "Lourinh√£",
    "freguesia": "Ribamar",
    "OBJECTID": 393,
    "BGRI2021": "11081000218",
    "DT21": "11",
    "DTMN21": "1108",
    "DTMNFR21": "110810",
    "DTMNFRSEC21": "110810002",
    "SECNUM21": "002",
    "SSNUM21": "18",
    "SECSSNUM21": "00218",
    "OBJECTID_1": 107133,
    "DT": "11",
    "CC": "08",
    "fr": "10",
    "SEC": "002",
    "SS": "18"
  },
  "addresses": [
    {
      "id": "pt.ine.add.PTCONT.2280946",
      "street": "R STA CRUZ",
      "house": "2A",
      "postcode": "2530-651",
      "city": "RIBAMAR",
      "lon": "-9.328773363281401",
      "lat": "39.20236546862233"
    },
    {
      "id": "pt.ine.add.PTCONT.2334718",
      "street": "R PESCADORES",
      "house": "2",
      "postcode": "2530-672",
      "city": "RIBAMAR",
      "lon": "-9.328262413094526",
      "lat": "39.20227163448198"
    },
    {
      "id": "pt.ine.add.PTCONT.2352810",
      "street": "R STA CRUZ",
      "house": "5A",
      "postcode": "2530-651",
      "city": "RIBAMAR",
      "lon": "-9.32838484635113",
      "lat": "39.201982152980676"
    },
    {
      "id": "pt.ine.add.PTCONT.2389730",
      "street": "R MESTRES",
      "house": "8",
      "postcode": "2530-669",
      "city": "RIBAMAR",
      "lon": "-9.32846192442941",
      "lat": "39.20243171412"
    },
    {
      "id": "pt.ine.add.PTCONT.2389731",
      "street": "R MESTRES",
      "house": "8",
      "postcode": "2530-669",
      "city": "RIBAMAR",
      "lon": "-9.32846192442941",
      "lat": "39.20243171412"
    },
    {
      "id": "pt.ine.add.PTCONT.2435368",
      "street": "AV LIBERDADE",
      "house": "76",
      "postcode": "2530-628",
      "city": "RIBAMAR",
      "lon": "-9.328684280083307",
      "lat": "39.20257354487073"
    },
    {
      "id": "pt.ine.add.PTCONT.2614356",
      "street": "BC ANACLETOS",
      "house": "1",
      "postcode": "2530-865",
      "city": "RIBAMAR",
      "lon": "-9.328700100230755",
      "lat": "39.202141044561934"
    },
    {
      "id": "pt.ine.add.PTCONT.2633785",
      "street": "R PESCADORES",
      "house": "6",
      "postcode": "2530-672",
      "city": "RIBAMAR",
      "lon": "-9.328077528944123",
      "lat": "39.202291545268714"
    },
    {
      "id": "pt.ine.add.PTCONT.2633786",
      "street": "R STA CRUZ",
      "house": "9A",
      "postcode": "2530-651",
      "city": "RIBAMAR",
      "lon": "-9.328152139767766",
      "lat": "39.20191248415106"
    },
    {
      "id": "pt.ine.add.PTCONT.2713365",
      "street": "R PESCADORES",
      "house": "2",
      "postcode": "2530-672",
      "city": "RIBAMAR",
      "lon": "-9.328310236718151",
      "lat": "39.202361214224716"
    },
    {
      "id": "pt.ine.add.PTCONT.2766957",
      "street": "R PESCADORES",
      "house": "10",
      "postcode": "2530-672",
      "city": "RIBAMAR",
      "lon": "-9.327827907468189",
      "lat": "39.20190680286119"
    },
    {
      "id": "pt.ine.add.PTCONT.2844726",
      "street": "AV LIBERDADE",
      "house": "76",
      "postcode": "2530-628",
      "city": "RIBAMAR",
      "lon": "-9.32875235219052",
      "lat": "39.20249178284377"
    },
    {
      "id": "pt.ine.add.PTCONT.2935502",
      "street": "R MESTRES",
      "house": "2",
      "postcode": "2530-669",
      "city": "RIBAMAR",
      "lon": "-9.328545387500336",
      "lat": "39.20257497028707"
    },
    {
      "id": "pt.ine.add.PTCONT.3002384",
      "street": "R STA CRUZ",
      "house": "1",
      "postcode": "2530-651",
      "city": "RIBAMAR",
      "lon": "-9.328583746470974",
      "lat": "39.20210621052858"
    },
    {
      "id": "pt.ine.add.PTCONT.3011891",
      "street": "R STA CRUZ",
      "house": "1",
      "postcode": "2530-651",
      "city": "RIBAMAR",
      "lon": "-9.328948047454132",
      "lat": "39.20242672480205"
    },
    {
      "id": "pt.ine.add.PTCONT.3039046",
      "street": "R STA CRUZ",
      "house": "7A",
      "postcode": "2530-651",
      "city": "RIBAMAR",
      "lon": "-9.328326517033956",
      "lat": "39.201955730342334"
    },
    {
      "id": "pt.ine.add.PTCONT.3039047",
      "street": "R S CRUZ",
      "house": "7B",
      "postcode": "2530-651",
      "city": "RIBAMAR",
      "lon": "-9.328326517033956",
      "lat": "39.201955730342334"
    },
    {
      "id": "pt.ine.add.PTCONT.3039048",
      "street": "R STA CRUZ",
      "house": "7A",
      "postcode": "2530-651",
      "city": "RIBAMAR",
      "lon": "-9.328326517033956",
      "lat": "39.201955730342334"
    },
    {
      "id": "pt.ine.add.PTCONT.3039049",
      "street": "R STA CRUZ",
      "house": "7A",
      "postcode": "2530-651",
      "city": "RIBAMAR",
      "lon": "-9.328326517033956",
      "lat": "39.201955730342334"
    },
    {
      "id": "pt.ine.add.PTCONT.3113873",
      "street": "AV LIBERDADE",
      "house": "74",
      "postcode": "2530-628",
      "city": "RIBAMAR",
      "lon": "-9.328902666260523",
      "lat": "39.202481232898144"
    },
    {
      "id": "pt.ine.add.PTCONT.3113875",
      "street": "R STA CRUZ",
      "house": "5",
      "postcode": "2530-651",
      "city": "RIBAMAR",
      "lon": "-9.328512926755655",
      "lat": "39.202025873920114"
    },
    {
      "id": "pt.ine.add.PTCONT.3113876",
      "street": "R STA CRUZ",
      "house": "5",
      "postcode": "2530-651",
      "city": "RIBAMAR",
      "lon": "-9.328512926755655",
      "lat": "39.202025873920114"
    },
    {
      "id": "pt.ine.add.PTCONT.3113877",
      "street": "R STA CRUZ",
      "house": "5",
      "postcode": "2530-651",
      "city": "RIBAMAR",
      "lon": "-9.328512926755655",
      "lat": "39.202025873920114"
    },
    {
      "id": "pt.ine.add.PTCONT.3161042",
      "street": "BC ANACLETOS",
      "house": "1",
      "postcode": "2530-865",
      "city": "RIBAMAR",
      "lon": "-9.328527706813833",
      "lat": "39.20221487010778"
    },
    {
      "id": "pt.ine.add.PTCONT.3244083",
      "street": "R MESTRES",
      "house": "4",
      "postcode": "2530-669",
      "city": "RIBAMAR",
      "lon": "-9.328463450922968",
      "lat": "39.20252176886011"
    },
    {
      "id": "pt.ine.add.PTCONT.3271264",
      "street": "R PESCADORES",
      "house": "2A",
      "postcode": "2530-672",
      "city": "RIBAMAR",
      "lon": "-9.328230437232367",
      "lat": "39.202434089273"
    },
    {
      "id": "pt.ine.add.PTCONT.3345403",
      "street": "R PESCADORES",
      "house": "4",
      "postcode": "2530-672",
      "city": "RIBAMAR",
      "lon": "-9.328090018887002",
      "lat": "39.202345459390436"
    },
    {
      "id": "pt.ine.add.PTCONT.3345404",
      "street": "R STA CRUZ",
      "house": "9",
      "postcode": "2530-651",
      "city": "RIBAMAR",
      "lon": "-9.328047208321703",
      "lat": "39.20186852535665"
    },
    {
      "id": "pt.ine.add.PTCONT.3345406",
      "street": "R STA CRUZ",
      "house": "3A",
      "postcode": "2530-651",
      "city": "RIBAMAR",
      "lon": "-9.328446381257372",
      "lat": "39.202197690556595"
    },
    {
      "id": "pt.ine.add.PTCONT.3362312",
      "street": "R EIRA",
      "house": "8",
      "postcode": "2530-646",
      "city": "RIBAMAR",
      "lon": "-9.327876798289383",
      "lat": "39.202059421136624"
    }
  ]
}