{
  "data": {
    "distrito": "Leiria",
    "concelho": "Alcoba√ßa",
    "freguesia": "Cela",
    "OBJECTID": 435,
    "BGRI2021": "10010600229",
    "DT21": "10",
    "DTMN21": "1001",
    "DTMNFR21": "100106",
    "DTMNFRSEC21": "100106002",
    "SECNUM21": "002",
    "SSNUM21": "29",
    "SECSSNUM21": "00229",
    "OBJECTID_1": 84414,
    "DT": "10",
    "CC": "01",
    "fr": "06",
    "SEC": "002",
    "SS": "29"
  },
  "addresses": [
    {
      "id": "pt.ine.add.PTCONT.2014937",
      "street": "R PERALVA QTA DO ALVAO 2003",
      "house": "",
      "postcode": "2460-357",
      "city": "CELA ACB",
      "lon": "-9.029577518673102",
      "lat": "39.53707569511683"
    },
    {
      "id": "pt.ine.add.PTCONT.2017043",
      "street": "R CASAL DO ROSSIO",
      "house": "1",
      "postcode": "2460-352",
      "city": "CELA ACB",
      "lon": "-9.033379074456795",
      "lat": "39.540513893263764"
    },
    {
      "id": "pt.ine.add.PTCONT.2020355",
      "street": "R CASAL DO ROSSIO",
      "house": "6",
      "postcode": "2460-352",
      "city": "CELA ACB",
      "lon": "-9.033024316481523",
      "lat": "39.540066305485354"
    },
    {
      "id": "pt.ine.add.PTCONT.2023355",
      "street": "R JAIME HORACIO PACHECO JUNQUEIRA",
      "house": "16",
      "postcode": "2460-352",
      "city": "CELA ACB",
      "lon": "-9.033162265604064",
      "lat": "39.54083981362389"
    },
    {
      "id": "pt.ine.add.PTCONT.2023357",
      "street": "R PROF RAUL KARMA",
      "house": "3",
      "postcode": "2460-352",
      "city": "CELA ACB",
      "lon": "-9.034238750417257",
      "lat": "39.540426171008235"
    },
    {
      "id": "pt.ine.add.PTCONT.2053398",
      "street": "R CASAL DO ROSSIO",
      "house": "4",
      "postcode": "2460-352",
      "city": "CELA ACB",
      "lon": "-9.033235774634967",
      "lat": "39.54022678868717"
    },
    {
      "id": "pt.ine.add.PTCONT.2089309",
      "street": "R CENTRO CENICO DE CELA",
      "house": "8",
      "postcode": "2460-352",
      "city": "CELA ACB",
      "lon": "-9.029390076991687",
      "lat": "39.5405897557919"
    },
    {
      "id": "pt.ine.add.PTCONT.2091610",
      "street": "R PROF RAUL KARMA",
      "house": "13",
      "postcode": "2460-352",
      "city": "CELA ACB",
      "lon": "-9.033906667937813",
      "lat": "39.539933376621086"
    },
    {
      "id": "pt.ine.add.PTCONT.2095701",
      "street": "R JAIME HORACIO PACHECO JUNQUEIRO",
      "house": "10",
      "postcode": "2460-352",
      "city": "CELA ACB",
      "lon": "-9.033904001408693",
      "lat": "39.54062691327427"
    },
    {
      "id": "pt.ine.add.PTCONT.2098072",
      "street": "R JAIME HORACIO PACHECO JUNQUEIRA",
      "house": "20",
      "postcode": "2460-352",
      "city": "CELA ACB",
      "lon": "-9.032616865575276",
      "lat": "39.5409431095354"
    },
    {
      "id": "pt.ine.add.PTCONT.2123488",
      "street": "R CASAL DO ROSSIO",
      "house": "2",
      "postcode": "2460-352",
      "city": "CELA ACB",
      "lon": "-9.033458981520091",
      "lat": "39.540396187188236"
    },
    {
      "id": "pt.ine.add.PTCONT.2192406",
      "street": "R JAIME HORACIO PACHECO JUNQUEIRA",
      "house": "26",
      "postcode": "2460-352",
      "city": "CELA ACB",
      "lon": "-9.031852091619003",
      "lat": "39.54117419323242"
    },
    {
      "id": "pt.ine.add.PTCONT.2199134",
      "street": "R CASAL DO ROSSIO",
      "house": "8",
      "postcode": "2460-352",
      "city": "CELA ACB",
      "lon": "-9.032800879145068",
      "lat": "39.53987889451161"
    },
    {
      "id": "pt.ine.add.PTCONT.2201339",
      "street": "R PROF RAUL KARMA",
      "house": "9",
      "postcode": "2460-352",
      "city": "CELA ACB",
      "lon": "-9.03407218457013",
      "lat": "39.54013924785156"
    },
    {
      "id": "pt.ine.add.PTCONT.2208066",
      "street": "R CENTRO CENICO DE CELA",
      "house": "10",
      "postcode": "2460-352",
      "city": "CELA ACB",
      "lon": "-9.028690222965457",
      "lat": "39.54044203655038"
    },
    {
      "id": "pt.ine.add.PTCONT.2210259",
      "street": "R PROF RAUL KARMA",
      "house": "15",
      "postcode": "2460-352",
      "city": "CELA ACB",
      "lon": "-9.033671481018494",
      "lat": "39.539737051682906"
    },
    {
      "id": "pt.ine.add.PTCONT.2214778",
      "street": "R CASAL DO ROSSIO",
      "house": "3",
      "postcode": "2460-352",
      "city": "CELA ACB",
      "lon": "-9.033226121030063",
      "lat": "39.5403799773725"
    },
    {
      "id": "pt.ine.add.PTCONT.2240753",
      "street": "R CENTRO CENICO DA CELA",
      "house": "6",
      "postcode": "2460-352",
      "city": "CELA ACB",
      "lon": "-9.030146931774476",
      "lat": "39.54064696387058"
    },
    {
      "id": "pt.ine.add.PTCONT.2242798",
      "street": "R VALE VERDE",
      "house": "3",
      "postcode": "2460-352",
      "city": "CELA ACB",
      "lon": "-9.029766960794428",
      "lat": "39.54004644671523"
    },
    {
      "id": "pt.ine.add.PTCONT.2249558",
      "street": "R PROF RAUL KARMA",
      "house": "7",
      "postcode": "2460-352",
      "city": "CELA ACB",
      "lon": "-9.034166749308062",
      "lat": "39.540255601897975"
    },
    {
      "id": "pt.ine.add.PTCONT.2258305",
      "street": "R JAIME HORACIO PACHECO JUNQUEIRA",
      "house": "18",
      "postcode": "2460-352",
      "city": "CELA ACB",
      "lon": "-9.03284740198433",
      "lat": "39.540779204540335"
    },
    {
      "id": "pt.ine.add.PTCONT.2265612",
      "street": "R JAIME HORACIO PACHECO JUNQUEIRO",
      "house": "12",
      "postcode": "2460-352",
      "city": "CELA ACB",
      "lon": "-9.033765006328387",
      "lat": "39.540673023933564"
    }
  ]
}