{
  "data": {
    "distrito": "Braga",
    "concelho": "Celorico de Basto",
    "freguesia": "União das freguesias de Canedo de Basto e Corgo",
    "OBJECTID": 110,
    "BGRI2021": "03052500101",
    "DT21": "03",
    "DTMN21": "0305",
    "DTMNFR21": "030525",
    "DTMNFRSEC21": "030525001",
    "SECNUM21": "001",
    "SSNUM21": "01",
    "SECSSNUM21": "00101",
    "OBJECTID_1": 23867,
    "DT": "03",
    "CC": "05",
    "fr": "25",
    "SEC": "001",
    "SS": "01"
  },
  "addresses": [
    {
      "id": "pt.ine.add.PTCONT.545960",
      "street": "",
      "house": "",
      "postcode": "4890-143",
      "city": "CANEDO DE BASTO",
      "lon": "-7.968303212511776",
      "lat": "41.42718993615623"
    },
    {
      "id": "pt.ine.add.PTCONT.558168",
      "street": "",
      "house": "",
      "postcode": "4890-143",
      "city": "CANEDO DE BASTO",
      "lon": "-7.970308929714103",
      "lat": "41.428831512413126"
    },
    {
      "id": "pt.ine.add.PTCONT.566704",
      "street": "",
      "house": "",
      "postcode": "4890-143",
      "city": "CANEDO DE BASTO",
      "lon": "-7.9703211405760515",
      "lat": "41.42873248614687"
    },
    {
      "id": "pt.ine.add.PTCONT.601464",
      "street": "FERNANDO BARROS",
      "house": "",
      "postcode": "4890-143",
      "city": "CANEDO DE BASTO",
      "lon": "-7.971675596861372",
      "lat": "41.427689935298226"
    },
    {
      "id": "pt.ine.add.PTCONT.607617",
      "street": "",
      "house": "",
      "postcode": "4890-143",
      "city": "CANEDO DE BASTO",
      "lon": "-7.969428360300369",
      "lat": "41.431711529000054"
    },
    {
      "id": "pt.ine.add.PTCONT.607621",
      "street": "",
      "house": "",
      "postcode": "4890-143",
      "city": "CANEDO DE BASTO",
      "lon": "-7.968314697563094",
      "lat": "41.42737903578391"
    },
    {
      "id": "pt.ine.add.PTCONT.622135",
      "street": "ANTÓNIO BARROS",
      "house": "",
      "postcode": "4890-143",
      "city": "CANEDO DE BASTO",
      "lon": "-7.969811343332246",
      "lat": "41.431658049502836"
    },
    {
      "id": "pt.ine.add.PTCONT.633121",
      "street": "",
      "house": "",
      "postcode": "4890-143",
      "city": "CANEDO DE BASTO",
      "lon": "-7.969178040467734",
      "lat": "41.426587920548"
    },
    {
      "id": "pt.ine.add.PTCONT.637869",
      "street": "",
      "house": "",
      "postcode": "4890-143",
      "city": "CANEDO DE BASTO",
      "lon": "-7.97128930751749",
      "lat": "41.42908500631713"
    },
    {
      "id": "pt.ine.add.PTCONT.659294",
      "street": "",
      "house": "",
      "postcode": "4890-143",
      "city": "CANEDO DE BASTO",
      "lon": "-7.970529968360416",
      "lat": "41.43134392884225"
    },
    {
      "id": "pt.ine.add.PTCONT.698680",
      "street": "",
      "house": "",
      "postcode": "4890-141",
      "city": "CANEDO DE BASTO",
      "lon": "-7.959033716095107",
      "lat": "41.42644696393677"
    },
    {
      "id": "pt.ine.add.PTCONT.713717",
      "street": "",
      "house": "",
      "postcode": "4890-143",
      "city": "CANEDO DE BASTO",
      "lon": "-7.970963223626355",
      "lat": "41.430318089349676"
    },
    {
      "id": "pt.ine.add.PTCONT.716721",
      "street": "",
      "house": "",
      "postcode": "4890-143",
      "city": "CANEDO DE BASTO",
      "lon": "-7.970057539350005",
      "lat": "41.428894184126634"
    },
    {
      "id": "pt.ine.add.PTCONT.722947",
      "street": "",
      "house": "",
      "postcode": "4890-143",
      "city": "CANEDO DE BASTO",
      "lon": "-7.968952330031298",
      "lat": "41.425957321358595"
    },
    {
      "id": "pt.ine.add.PTCONT.731638",
      "street": "",
      "house": "",
      "postcode": "4890-143",
      "city": "CANEDO DE BASTO",
      "lon": "-7.968614436430746",
      "lat": "41.427118349855746"
    },
    {
      "id": "pt.ine.add.PTCONT.802187",
      "street": "FERNANDA MANUELA CAMPOS VELASC",
      "house": "",
      "postcode": "4890-143",
      "city": "CANEDO DE BASTO",
      "lon": "-7.969907370872828",
      "lat": "41.431532130402296"
    },
    {
      "id": "pt.ine.add.PTCONT.812827",
      "street": "",
      "house": "",
      "postcode": "4890-143",
      "city": "CANEDO DE BASTO",
      "lon": "-7.969467798637035",
      "lat": "41.42553486939417"
    },
    {
      "id": "pt.ine.add.PTCONT.821646",
      "street": "",
      "house": "",
      "postcode": "4890-143",
      "city": "CANEDO DE BASTO",
      "lon": "-7.971000973872583",
      "lat": "41.42957081413428"
    },
    {
      "id": "pt.ine.add.PTCONT.843283",
      "street": "",
      "house": "",
      "postcode": "4890-143",
      "city": "CANEDO DE BASTO",
      "lon": "-7.971072195755765",
      "lat": "41.429796013393656"
    }
  ]
}