{
  "data": {
    "distrito": "Lisboa",
    "concelho": "Cascais",
    "freguesia": "União das freguesias de Carcavelos e Parede",
    "OBJECTID": 420,
    "BGRI2021": "11050703106",
    "DT21": "11",
    "DTMN21": "1105",
    "DTMNFR21": "110507",
    "DTMNFRSEC21": "110507031",
    "SECNUM21": "031",
    "SSNUM21": "06",
    "SECSSNUM21": "03106",
    "OBJECTID_1": 101915,
    "DT": "11",
    "CC": "05",
    "fr": "07",
    "SEC": "031",
    "SS": "06"
  },
  "addresses": [
    {
      "id": "pt.ine.add.PTCONT.3043892",
      "street": "PCT STA TERESINHA",
      "house": "",
      "postcode": "2775-282",
      "city": "PAREDE",
      "lon": "-9.36012602147471",
      "lat": "38.694833062557834"
    },
    {
      "id": "pt.ine.add.PTCONT.3043893",
      "street": "PCT STA TERESINHA",
      "house": "",
      "postcode": "2775-282",
      "city": "PAREDE",
      "lon": "-9.36012602147471",
      "lat": "38.694833062557834"
    },
    {
      "id": "pt.ine.add.PTCONT.3043894",
      "street": "PCT STA TERESINHA",
      "house": "",
      "postcode": "2775-282",
      "city": "PAREDE",
      "lon": "-9.36012602147471",
      "lat": "38.694833062557834"
    },
    {
      "id": "pt.ine.add.PTCONT.3043895",
      "street": "PCT STA TERESINHA",
      "house": "",
      "postcode": "2775-282",
      "city": "PAREDE",
      "lon": "-9.36012602147471",
      "lat": "38.694833062557834"
    },
    {
      "id": "pt.ine.add.PTCONT.3043896",
      "street": "PCT STA TERESINHA",
      "house": "",
      "postcode": "2775-282",
      "city": "PAREDE",
      "lon": "-9.36012602147471",
      "lat": "38.694833062557834"
    },
    {
      "id": "pt.ine.add.PTCONT.3043897",
      "street": "PCT STA TERESINHA",
      "house": "",
      "postcode": "2775-282",
      "city": "PAREDE",
      "lon": "-9.36012602147471",
      "lat": "38.694833062557834"
    },
    {
      "id": "pt.ine.add.PTCONT.3043898",
      "street": "PCT STA TERESINHA",
      "house": "",
      "postcode": "2775-282",
      "city": "PAREDE",
      "lon": "-9.36012602147471",
      "lat": "38.694833062557834"
    },
    {
      "id": "pt.ine.add.PTCONT.3043899",
      "street": "PCT STA TERESINHA",
      "house": "",
      "postcode": "2775-282",
      "city": "PAREDE",
      "lon": "-9.36012602147471",
      "lat": "38.694833062557834"
    },
    {
      "id": "pt.ine.add.PTCONT.3043900",
      "street": "PCT STA TERESINHA",
      "house": "",
      "postcode": "2775-282",
      "city": "PAREDE",
      "lon": "-9.36012602147471",
      "lat": "38.694833062557834"
    },
    {
      "id": "pt.ine.add.PTCONT.3043901",
      "street": "PCT STA TERESINHA",
      "house": "",
      "postcode": "2775-282",
      "city": "PAREDE",
      "lon": "-9.36012602147471",
      "lat": "38.694833062557834"
    },
    {
      "id": "pt.ine.add.PTCONT.3043902",
      "street": "PCT STA TERESINHA",
      "house": "",
      "postcode": "2775-282",
      "city": "PAREDE",
      "lon": "-9.36012602147471",
      "lat": "38.694833062557834"
    },
    {
      "id": "pt.ine.add.PTCONT.3043903",
      "street": "PCT STA TERESINHA",
      "house": "",
      "postcode": "2775-282",
      "city": "PAREDE",
      "lon": "-9.36012602147471",
      "lat": "38.694833062557834"
    },
    {
      "id": "pt.ine.add.PTCONT.3072506",
      "street": "PCT STA TERESINHA",
      "house": "",
      "postcode": "2775-282",
      "city": "PAREDE",
      "lon": "-9.360388643703095",
      "lat": "38.69473122085936"
    },
    {
      "id": "pt.ine.add.PTCONT.3072507",
      "street": "PCT STA TERESINHA",
      "house": "",
      "postcode": "2775-282",
      "city": "PAREDE",
      "lon": "-9.360388643703095",
      "lat": "38.69473122085936"
    },
    {
      "id": "pt.ine.add.PTCONT.3072508",
      "street": "PCT STA TERESINHA",
      "house": "",
      "postcode": "2775-282",
      "city": "PAREDE",
      "lon": "-9.360388643703095",
      "lat": "38.69473122085936"
    },
    {
      "id": "pt.ine.add.PTCONT.3072509",
      "street": "PCT STA TERESINHA",
      "house": "",
      "postcode": "2775-282",
      "city": "PAREDE",
      "lon": "-9.360388643703095",
      "lat": "38.69473122085936"
    },
    {
      "id": "pt.ine.add.PTCONT.3072510",
      "street": "PCT STA TERESINHA",
      "house": "",
      "postcode": "2775-282",
      "city": "PAREDE",
      "lon": "-9.360388643703095",
      "lat": "38.69473122085936"
    },
    {
      "id": "pt.ine.add.PTCONT.3072511",
      "street": "PCT STA TERESINHA",
      "house": "",
      "postcode": "2775-282",
      "city": "PAREDE",
      "lon": "-9.360388643703095",
      "lat": "38.69473122085936"
    },
    {
      "id": "pt.ine.add.PTCONT.3072512",
      "street": "PCT STA TERESINHA",
      "house": "",
      "postcode": "2775-282",
      "city": "PAREDE",
      "lon": "-9.360388643703095",
      "lat": "38.69473122085936"
    },
    {
      "id": "pt.ine.add.PTCONT.3072513",
      "street": "PCT STA TERESINHA",
      "house": "",
      "postcode": "2775-282",
      "city": "PAREDE",
      "lon": "-9.360388643703095",
      "lat": "38.69473122085936"
    },
    {
      "id": "pt.ine.add.PTCONT.3072581",
      "street": "PCT STA TERESINHA",
      "house": "",
      "postcode": "2775-282",
      "city": "PAREDE",
      "lon": "-9.360388643703095",
      "lat": "38.69473122085936"
    },
    {
      "id": "pt.ine.add.PTCONT.3072582",
      "street": "PCT STA TERESINHA",
      "house": "",
      "postcode": "2775-282",
      "city": "PAREDE",
      "lon": "-9.360388643703095",
      "lat": "38.69473122085936"
    },
    {
      "id": "pt.ine.add.PTCONT.3072583",
      "street": "PCT STA TERESINHA",
      "house": "",
      "postcode": "2775-282",
      "city": "PAREDE",
      "lon": "-9.360388643703095",
      "lat": "38.69473122085936"
    },
    {
      "id": "pt.ine.add.PTCONT.3072584",
      "street": "PCT STA TERESINHA",
      "house": "",
      "postcode": "2775-282",
      "city": "PAREDE",
      "lon": "-9.360388643703095",
      "lat": "38.69473122085936"
    },
    {
      "id": "pt.ine.add.PTCONT.3072585",
      "street": "PCT STA TERESINHA",
      "house": "",
      "postcode": "2775-282",
      "city": "PAREDE",
      "lon": "-9.360388643703095",
      "lat": "38.69473122085936"
    },
    {
      "id": "pt.ine.add.PTCONT.3072737",
      "street": "PCT STA TERESINHA",
      "house": "",
      "postcode": "2775-282",
      "city": "PAREDE",
      "lon": "-9.360388643703095",
      "lat": "38.69473122085936"
    },
    {
      "id": "pt.ine.add.PTCONT.3072740",
      "street": "PCT STA TERESINHA",
      "house": "",
      "postcode": "2775-282",
      "city": "PAREDE",
      "lon": "-9.360388643703095",
      "lat": "38.69473122085936"
    },
    {
      "id": "pt.ine.add.PTCONT.3146432",
      "street": "PCT STA TERESINHA",
      "house": "",
      "postcode": "2775-282",
      "city": "PAREDE",
      "lon": "-9.359732063958882",
      "lat": "38.69464803291892"
    },
    {
      "id": "pt.ine.add.PTCONT.3146433",
      "street": "PCT STA TERESINHA",
      "house": "",
      "postcode": "2775-282",
      "city": "PAREDE",
      "lon": "-9.359732063958882",
      "lat": "38.69464803291892"
    },
    {
      "id": "pt.ine.add.PTCONT.3146434",
      "street": "PCT STA TERESINHA",
      "house": "",
      "postcode": "2775-282",
      "city": "PAREDE",
      "lon": "-9.359732063958882",
      "lat": "38.69464803291892"
    },
    {
      "id": "pt.ine.add.PTCONT.3146435",
      "street": "PCT STA TERESINHA",
      "house": "",
      "postcode": "2775-282",
      "city": "PAREDE",
      "lon": "-9.359732063958882",
      "lat": "38.69464803291892"
    },
    {
      "id": "pt.ine.add.PTCONT.3146436",
      "street": "PCT STA TERESINHA",
      "house": "",
      "postcode": "2775-282",
      "city": "PAREDE",
      "lon": "-9.359732063958882",
      "lat": "38.69464803291892"
    },
    {
      "id": "pt.ine.add.PTCONT.3146437",
      "street": "PCT STA TERESINHA",
      "house": "",
      "postcode": "2775-282",
      "city": "PAREDE",
      "lon": "-9.359732063958882",
      "lat": "38.69464803291892"
    },
    {
      "id": "pt.ine.add.PTCONT.3146438",
      "street": "PCT STA TERESINHA",
      "house": "",
      "postcode": "2775-282",
      "city": "PAREDE",
      "lon": "-9.359732063958882",
      "lat": "38.69464803291892"
    },
    {
      "id": "pt.ine.add.PTCONT.3146439",
      "street": "PCT STA TERESINHA",
      "house": "",
      "postcode": "2775-282",
      "city": "PAREDE",
      "lon": "-9.359732063958882",
      "lat": "38.69464803291892"
    },
    {
      "id": "pt.ine.add.PTCONT.3146440",
      "street": "PCT STA TERESINHA",
      "house": "",
      "postcode": "2775-282",
      "city": "PAREDE",
      "lon": "-9.359732063958882",
      "lat": "38.69464803291892"
    },
    {
      "id": "pt.ine.add.PTCONT.3146441",
      "street": "PCT STA TERESINHA",
      "house": "",
      "postcode": "2775-282",
      "city": "PAREDE",
      "lon": "-9.359732063958882",
      "lat": "38.69464803291892"
    },
    {
      "id": "pt.ine.add.PTCONT.3146806",
      "street": "PCT STA TERESINHA",
      "house": "",
      "postcode": "2775-282",
      "city": "PAREDE",
      "lon": "-9.359732063958882",
      "lat": "38.69464803291892"
    },
    {
      "id": "pt.ine.add.PTCONT.3231220",
      "street": "R ELÍSIO DE MOURA",
      "house": "89",
      "postcode": "2775-191",
      "city": "PAREDE",
      "lon": "-9.359085286317692",
      "lat": "38.6944656530353"
    },
    {
      "id": "pt.ine.add.PTCONT.3231221",
      "street": "R ELÍSIO DE MOURA",
      "house": "89",
      "postcode": "2775-191",
      "city": "PAREDE",
      "lon": "-9.359085286317692",
      "lat": "38.6944656530353"
    },
    {
      "id": "pt.ine.add.PTCONT.3231222",
      "street": "R ELÍSIO DE MOURA",
      "house": "89",
      "postcode": "2775-191",
      "city": "PAREDE",
      "lon": "-9.359085286317692",
      "lat": "38.6944656530353"
    },
    {
      "id": "pt.ine.add.PTCONT.3231223",
      "street": "R ELÍSIO DE MOURA",
      "house": "89",
      "postcode": "2775-191",
      "city": "PAREDE",
      "lon": "-9.359085286317692",
      "lat": "38.6944656530353"
    },
    {
      "id": "pt.ine.add.PTCONT.3231238",
      "street": "R ELÍSIO DE MOURA",
      "house": "89",
      "postcode": "2775-191",
      "city": "PAREDE",
      "lon": "-9.359085286317692",
      "lat": "38.6944656530353"
    },
    {
      "id": "pt.ine.add.PTCONT.3268914",
      "street": "R CIDADE DE ÉVORA",
      "house": "60",
      "postcode": "2775-309",
      "city": "PAREDE",
      "lon": "-9.36001120758125",
      "lat": "38.69416769242684"
    },
    {
      "id": "pt.ine.add.PTCONT.3278278",
      "street": "R DR FLAVIO RESENDE",
      "house": "470",
      "postcode": "2775-195",
      "city": "PAREDE",
      "lon": "-9.35906937492607",
      "lat": "38.69488017727372"
    },
    {
      "id": "pt.ine.add.PTCONT.3332803",
      "street": "R ELÍSIO DE MOURA",
      "house": "89",
      "postcode": "2775-191",
      "city": "PAREDE",
      "lon": "-9.359198052778233",
      "lat": "38.694338361840174"
    },
    {
      "id": "pt.ine.add.PTCONT.3332804",
      "street": "R ELÍSIO DE MOURA",
      "house": "89",
      "postcode": "2775-191",
      "city": "PAREDE",
      "lon": "-9.359198052778233",
      "lat": "38.694338361840174"
    },
    {
      "id": "pt.ine.add.PTCONT.3332805",
      "street": "R ELÍSIO DE MOURA",
      "house": "89",
      "postcode": "2775-191",
      "city": "PAREDE",
      "lon": "-9.359198052778233",
      "lat": "38.694338361840174"
    },
    {
      "id": "pt.ine.add.PTCONT.3342888",
      "street": "R ELÍSIO DE MOURA",
      "house": "81",
      "postcode": "2775-191",
      "city": "PAREDE",
      "lon": "-9.359258587679218",
      "lat": "38.69451788245549"
    },
    {
      "id": "pt.ine.add.PTCONT.2332345",
      "street": "PCT STA TERESINHA",
      "house": "",
      "postcode": "2775-282",
      "city": "PAREDE",
      "lon": "-9.359896028203323",
      "lat": "38.694826468104374"
    },
    {
      "id": "pt.ine.add.PTCONT.2332346",
      "street": "PCT STA TERESINHA",
      "house": "",
      "postcode": "2775-282",
      "city": "PAREDE",
      "lon": "-9.359896028203323",
      "lat": "38.694826468104374"
    },
    {
      "id": "pt.ine.add.PTCONT.2332347",
      "street": "PCT STA TERESINHA",
      "house": "",
      "postcode": "2775-282",
      "city": "PAREDE",
      "lon": "-9.359896028203323",
      "lat": "38.694826468104374"
    },
    {
      "id": "pt.ine.add.PTCONT.2332357",
      "street": "PCT STA TERESINHA",
      "house": "",
      "postcode": "2775-282",
      "city": "PAREDE",
      "lon": "-9.359896028203323",
      "lat": "38.694826468104374"
    },
    {
      "id": "pt.ine.add.PTCONT.2332358",
      "street": "PCT STA TERESINHA",
      "house": "",
      "postcode": "2775-282",
      "city": "PAREDE",
      "lon": "-9.359896028203323",
      "lat": "38.694826468104374"
    },
    {
      "id": "pt.ine.add.PTCONT.2332359",
      "street": "PCT STA TERESINHA",
      "house": "",
      "postcode": "2775-282",
      "city": "PAREDE",
      "lon": "-9.359896028203323",
      "lat": "38.694826468104374"
    },
    {
      "id": "pt.ine.add.PTCONT.2332360",
      "street": "PCT STA TERESINHA",
      "house": "",
      "postcode": "2775-282",
      "city": "PAREDE",
      "lon": "-9.359896028203323",
      "lat": "38.694826468104374"
    },
    {
      "id": "pt.ine.add.PTCONT.2332361",
      "street": "PCT STA TERESINHA",
      "house": "",
      "postcode": "2775-282",
      "city": "PAREDE",
      "lon": "-9.359896028203323",
      "lat": "38.694826468104374"
    },
    {
      "id": "pt.ine.add.PTCONT.2338216",
      "street": "PCT STA TERESINHA",
      "house": "",
      "postcode": "2775-282",
      "city": "PAREDE",
      "lon": "-9.359896028203323",
      "lat": "38.694826468104374"
    },
    {
      "id": "pt.ine.add.PTCONT.2338551",
      "street": "PCT STA TERESINHA",
      "house": "",
      "postcode": "2775-282",
      "city": "PAREDE",
      "lon": "-9.359896028203323",
      "lat": "38.694826468104374"
    },
    {
      "id": "pt.ine.add.PTCONT.2460852",
      "street": "R ELÍSIO DE MOURA",
      "house": "33",
      "postcode": "2775-191",
      "city": "PAREDE",
      "lon": "-9.359319388940495",
      "lat": "38.694039833028825"
    },
    {
      "id": "pt.ine.add.PTCONT.2505661",
      "street": "AV ENG ADELINO AMARO DA COSTA",
      "house": "268",
      "postcode": "2775-195",
      "city": "PAREDE",
      "lon": "-9.361599648289651",
      "lat": "38.696988460696815"
    },
    {
      "id": "pt.ine.add.PTCONT.2556092",
      "street": "PCT STA TERESINHA",
      "house": "",
      "postcode": "2775-282",
      "city": "PAREDE",
      "lon": "-9.360385719332577",
      "lat": "38.69456010394687"
    },
    {
      "id": "pt.ine.add.PTCONT.2556093",
      "street": "PCT STA TERESINHA",
      "house": "",
      "postcode": "2775-282",
      "city": "PAREDE",
      "lon": "-9.360385719332577",
      "lat": "38.69456010394687"
    },
    {
      "id": "pt.ine.add.PTCONT.2556094",
      "street": "PCT S TERESINHA",
      "house": "5",
      "postcode": "2775-282",
      "city": "PAREDE",
      "lon": "-9.360385719332577",
      "lat": "38.69456010394687"
    },
    {
      "id": "pt.ine.add.PTCONT.2556095",
      "street": "PCT STA TERESINHA",
      "house": "",
      "postcode": "2775-282",
      "city": "PAREDE",
      "lon": "-9.360385719332577",
      "lat": "38.69456010394687"
    },
    {
      "id": "pt.ine.add.PTCONT.2556096",
      "street": "PCT STA TERESINHA",
      "house": "",
      "postcode": "2775-282",
      "city": "PAREDE",
      "lon": "-9.360385719332577",
      "lat": "38.69456010394687"
    },
    {
      "id": "pt.ine.add.PTCONT.2556097",
      "street": "PCT STA TERESINHA",
      "house": "",
      "postcode": "2775-282",
      "city": "PAREDE",
      "lon": "-9.360385719332577",
      "lat": "38.69456010394687"
    },
    {
      "id": "pt.ine.add.PTCONT.2556098",
      "street": "PCT STA TERESINHA",
      "house": "",
      "postcode": "2775-282",
      "city": "PAREDE",
      "lon": "-9.360385719332577",
      "lat": "38.69456010394687"
    },
    {
      "id": "pt.ine.add.PTCONT.2556099",
      "street": "PCT STA TERESINHA",
      "house": "",
      "postcode": "2775-282",
      "city": "PAREDE",
      "lon": "-9.360385719332577",
      "lat": "38.69456010394687"
    },
    {
      "id": "pt.ine.add.PTCONT.2556100",
      "street": "PCT STA TERESINHA",
      "house": "",
      "postcode": "2775-282",
      "city": "PAREDE",
      "lon": "-9.360385719332577",
      "lat": "38.69456010394687"
    },
    {
      "id": "pt.ine.add.PTCONT.2557288",
      "street": "PCT S TERESINHA",
      "house": "47",
      "postcode": "2775-282",
      "city": "PAREDE",
      "lon": "-9.360385719332577",
      "lat": "38.69456010394687"
    },
    {
      "id": "pt.ine.add.PTCONT.2586704",
      "street": "R ELISIO MOURA",
      "house": "1",
      "postcode": "2775-191",
      "city": "PAREDE",
      "lon": "-9.359103811344635",
      "lat": "38.69420423346211"
    },
    {
      "id": "pt.ine.add.PTCONT.2586705",
      "street": "R ELISIO DE MOURA",
      "house": "",
      "postcode": "2775-191",
      "city": "PAREDE",
      "lon": "-9.359103811344635",
      "lat": "38.69420423346211"
    },
    {
      "id": "pt.ine.add.PTCONT.2586706",
      "street": "R ELISIO MOURA",
      "house": "3",
      "postcode": "2775-191",
      "city": "PAREDE",
      "lon": "-9.359103811344635",
      "lat": "38.69420423346211"
    },
    {
      "id": "pt.ine.add.PTCONT.2586707",
      "street": "R ELISIO MOURA",
      "house": "73",
      "postcode": "2775-191",
      "city": "PAREDE",
      "lon": "-9.359103811344635",
      "lat": "38.69420423346211"
    },
    {
      "id": "pt.ine.add.PTCONT.2602123",
      "street": "PCT STA TERESINHA",
      "house": "",
      "postcode": "2775-282",
      "city": "PAREDE",
      "lon": "-9.360440100556792",
      "lat": "38.69437937775942"
    },
    {
      "id": "pt.ine.add.PTCONT.2602124",
      "street": "PCT STA TERESINHA",
      "house": "",
      "postcode": "2775-282",
      "city": "PAREDE",
      "lon": "-9.360440100556792",
      "lat": "38.69437937775942"
    },
    {
      "id": "pt.ine.add.PTCONT.2602125",
      "street": "PCT STA TERESINHA",
      "house": "",
      "postcode": "2775-282",
      "city": "PAREDE",
      "lon": "-9.360440100556792",
      "lat": "38.69437937775942"
    },
    {
      "id": "pt.ine.add.PTCONT.2602126",
      "street": "PCT STA TERESINHA",
      "house": "",
      "postcode": "2775-282",
      "city": "PAREDE",
      "lon": "-9.360440100556792",
      "lat": "38.69437937775942"
    },
    {
      "id": "pt.ine.add.PTCONT.2602127",
      "street": "PCT STA TERESINHA",
      "house": "",
      "postcode": "2775-282",
      "city": "PAREDE",
      "lon": "-9.360440100556792",
      "lat": "38.69437937775942"
    },
    {
      "id": "pt.ine.add.PTCONT.2602128",
      "street": "PCT STA TERESINHA",
      "house": "",
      "postcode": "2775-282",
      "city": "PAREDE",
      "lon": "-9.360440100556792",
      "lat": "38.69437937775942"
    },
    {
      "id": "pt.ine.add.PTCONT.2602129",
      "street": "PCT STA TERESINHA",
      "house": "",
      "postcode": "2775-282",
      "city": "PAREDE",
      "lon": "-9.360440100556792",
      "lat": "38.69437937775942"
    },
    {
      "id": "pt.ine.add.PTCONT.2602130",
      "street": "PCT STA TERESINHA",
      "house": "",
      "postcode": "2775-282",
      "city": "PAREDE",
      "lon": "-9.360440100556792",
      "lat": "38.69437937775942"
    },
    {
      "id": "pt.ine.add.PTCONT.2602131",
      "street": "PCT STA TERESINHA",
      "house": "",
      "postcode": "2775-282",
      "city": "PAREDE",
      "lon": "-9.360440100556792",
      "lat": "38.69437937775942"
    },
    {
      "id": "pt.ine.add.PTCONT.2602346",
      "street": "PCT STA TERESINHA",
      "house": "",
      "postcode": "2775-282",
      "city": "PAREDE",
      "lon": "-9.360440100556792",
      "lat": "38.69437937775942"
    },
    {
      "id": "pt.ine.add.PTCONT.2602350",
      "street": "PCT STA TERESINHA",
      "house": "",
      "postcode": "2775-282",
      "city": "PAREDE",
      "lon": "-9.360440100556792",
      "lat": "38.69437937775942"
    },
    {
      "id": "pt.ine.add.PTCONT.2628962",
      "street": "R CIDADE DE ÉVORA",
      "house": "6",
      "postcode": "2775-309",
      "city": "PAREDE",
      "lon": "-9.35931646718956",
      "lat": "38.693868716027495"
    },
    {
      "id": "pt.ine.add.PTCONT.2628963",
      "street": "R CIDADE DE ÉVORA",
      "house": "6",
      "postcode": "2775-309",
      "city": "PAREDE",
      "lon": "-9.35931646718956",
      "lat": "38.693868716027495"
    },
    {
      "id": "pt.ine.add.PTCONT.2735231",
      "street": "R CIDADE DE ÉVORA",
      "house": "6",
      "postcode": "2775-309",
      "city": "PAREDE",
      "lon": "-9.35906180222301",
      "lat": "38.69376329316006"
    },
    {
      "id": "pt.ine.add.PTCONT.2735232",
      "street": "R CIDADE DE ÉVORA",
      "house": "6",
      "postcode": "2775-309",
      "city": "PAREDE",
      "lon": "-9.35906180222301",
      "lat": "38.69376329316006"
    },
    {
      "id": "pt.ine.add.PTCONT.2737480",
      "street": "R DR FLAVIO RESENDE",
      "house": "467",
      "postcode": "2775-195",
      "city": "PAREDE",
      "lon": "-9.359122529654007",
      "lat": "38.694627402389706"
    },
    {
      "id": "pt.ine.add.PTCONT.2737481",
      "street": "R DR FLAVIO RESENDE",
      "house": "467",
      "postcode": "2775-195",
      "city": "PAREDE",
      "lon": "-9.359122529654007",
      "lat": "38.694627402389706"
    },
    {
      "id": "pt.ine.add.PTCONT.2737482",
      "street": "R DR FLAVIO RESENDE",
      "house": "467",
      "postcode": "2775-195",
      "city": "PAREDE",
      "lon": "-9.359122529654007",
      "lat": "38.694627402389706"
    },
    {
      "id": "pt.ine.add.PTCONT.2762754",
      "street": "R CIDADE DE ÉVORA",
      "house": "",
      "postcode": "2775-309",
      "city": "PAREDE",
      "lon": "-9.359780293434891",
      "lat": "38.694107060774854"
    },
    {
      "id": "pt.ine.add.PTCONT.2762755",
      "street": "R CIDADE DE ÉVORA",
      "house": "7",
      "postcode": "2775-309",
      "city": "PAREDE",
      "lon": "-9.359780293434891",
      "lat": "38.694107060774854"
    },
    {
      "id": "pt.ine.add.PTCONT.2818178",
      "street": "R CIDADE DE ÉVORA",
      "house": "22",
      "postcode": "2775-309",
      "city": "PAREDE",
      "lon": "-9.359516288343844",
      "lat": "38.694127845681415"
    },
    {
      "id": "pt.ine.add.PTCONT.2843324",
      "street": "R DR FLAVIO RESENDE",
      "house": "497",
      "postcode": "2775-195",
      "city": "PAREDE",
      "lon": "-9.359420551148492",
      "lat": "38.69457923829777"
    },
    {
      "id": "pt.ine.add.PTCONT.2843325",
      "street": "R DR FLAVIO RESENDE",
      "house": "497",
      "postcode": "2775-195",
      "city": "PAREDE",
      "lon": "-9.359420551148492",
      "lat": "38.69457923829777"
    },
    {
      "id": "pt.ine.add.PTCONT.2843326",
      "street": "R DR FLAVIO RESENDE",
      "house": "497",
      "postcode": "2775-195",
      "city": "PAREDE",
      "lon": "-9.359420551148492",
      "lat": "38.69457923829777"
    },
    {
      "id": "pt.ine.add.PTCONT.2843327",
      "street": "R DR FLAVIO RESENDE",
      "house": "497",
      "postcode": "2775-195",
      "city": "PAREDE",
      "lon": "-9.359420551148492",
      "lat": "38.69457923829777"
    },
    {
      "id": "pt.ine.add.PTCONT.2843328",
      "street": "R DR FLAVIO RESENDE",
      "house": "497",
      "postcode": "2775-195",
      "city": "PAREDE",
      "lon": "-9.359420551148492",
      "lat": "38.69457923829777"
    },
    {
      "id": "pt.ine.add.PTCONT.2843329",
      "street": "R DR FLAVIO RESENDE",
      "house": "497",
      "postcode": "2775-195",
      "city": "PAREDE",
      "lon": "-9.359420551148492",
      "lat": "38.69457923829777"
    },
    {
      "id": "pt.ine.add.PTCONT.2843330",
      "street": "R DR FLAVIO RESENDE",
      "house": "497",
      "postcode": "2775-195",
      "city": "PAREDE",
      "lon": "-9.359420551148492",
      "lat": "38.69457923829777"
    },
    {
      "id": "pt.ine.add.PTCONT.2843331",
      "street": "R DR FLAVIO RESENDE",
      "house": "497",
      "postcode": "2775-195",
      "city": "PAREDE",
      "lon": "-9.359420551148492",
      "lat": "38.69457923829777"
    },
    {
      "id": "pt.ine.add.PTCONT.2843332",
      "street": "R DR FLAVIO RESENDE",
      "house": "497",
      "postcode": "2775-195",
      "city": "PAREDE",
      "lon": "-9.359420551148492",
      "lat": "38.69457923829777"
    },
    {
      "id": "pt.ine.add.PTCONT.2843333",
      "street": "R DR FLAVIO RESENDE",
      "house": "497",
      "postcode": "2775-195",
      "city": "PAREDE",
      "lon": "-9.359420551148492",
      "lat": "38.69457923829777"
    },
    {
      "id": "pt.ine.add.PTCONT.2843334",
      "street": "R DR FLAVIO RESENDE",
      "house": "497",
      "postcode": "2775-195",
      "city": "PAREDE",
      "lon": "-9.359420551148492",
      "lat": "38.69457923829777"
    },
    {
      "id": "pt.ine.add.PTCONT.2843335",
      "street": "R DR FLAVIO RESENDE",
      "house": "497",
      "postcode": "2775-195",
      "city": "PAREDE",
      "lon": "-9.359420551148492",
      "lat": "38.69457923829777"
    },
    {
      "id": "pt.ine.add.PTCONT.2843336",
      "street": "R DR FLAVIO RESENDE",
      "house": "497",
      "postcode": "2775-195",
      "city": "PAREDE",
      "lon": "-9.359420551148492",
      "lat": "38.69457923829777"
    },
    {
      "id": "pt.ine.add.PTCONT.2843337",
      "street": "R DR FLAVIO RESENDE",
      "house": "497",
      "postcode": "2775-195",
      "city": "PAREDE",
      "lon": "-9.359420551148492",
      "lat": "38.69457923829777"
    },
    {
      "id": "pt.ine.add.PTCONT.2843427",
      "street": "R DR FLAVIO RESENDE",
      "house": "497",
      "postcode": "2775-195",
      "city": "PAREDE",
      "lon": "-9.359420551148492",
      "lat": "38.69457923829777"
    },
    {
      "id": "pt.ine.add.PTCONT.2863272",
      "street": "AV ENG ADELINO AMARO DA COSTA",
      "house": "318",
      "postcode": "2775-122",
      "city": "PAREDE",
      "lon": "-9.361525364945049",
      "lat": "38.697349551719"
    },
    {
      "id": "pt.ine.add.PTCONT.2886494",
      "street": "R DR FLAVIO RESENDE",
      "house": "464",
      "postcode": "2775-195",
      "city": "PAREDE",
      "lon": "-9.358885503200714",
      "lat": "38.69488210501139"
    }
  ]
}