{
  "data": {
    "distrito": "Ã‰vora",
    "concelho": "Borba",
    "freguesia": "Orada",
    "OBJECTID": 117,
    "BGRI2021": "07030200101",
    "DT21": "07",
    "DTMN21": "0703",
    "DTMNFR21": "070302",
    "DTMNFRSEC21": "070302001",
    "SECNUM21": "001",
    "SSNUM21": "01",
    "SECSSNUM21": "00101",
    "OBJECTID_1": 59235,
    "DT": "07",
    "CC": "03",
    "fr": "02",
    "SEC": "001",
    "SS": "01"
  },
  "addresses": [
    {
      "id": "pt.ine.add.PTCONT.1371480",
      "street": "MTE BORRACHEIRO",
      "house": "",
      "postcode": "7150-308",
      "city": "ORADA",
      "lon": "-7.469225003055457",
      "lat": "38.83429887168869"
    },
    {
      "id": "pt.ine.add.PTCONT.1375372",
      "street": "MTE JANELAS",
      "house": "",
      "postcode": "7150-308",
      "city": "ORADA",
      "lon": "-7.469871223077511",
      "lat": "38.82925532951257"
    },
    {
      "id": "pt.ine.add.PTCONT.1376166",
      "street": "MTE FORTE",
      "house": "",
      "postcode": "7150-308",
      "city": "ORADA",
      "lon": "-7.467946221068004",
      "lat": "38.83186847742132"
    },
    {
      "id": "pt.ine.add.PTCONT.1378273",
      "street": "ALCARAVICA",
      "house": "",
      "postcode": "7150-308",
      "city": "ORADA",
      "lon": "-7.466887567542961",
      "lat": "38.82974292757798"
    },
    {
      "id": "pt.ine.add.PTCONT.1379735",
      "street": "MTE DO BORRAZEIRO",
      "house": "",
      "postcode": "7150-308",
      "city": "ORADA",
      "lon": "-7.469668255923898",
      "lat": "38.83545992283423"
    },
    {
      "id": "pt.ine.add.PTCONT.1379736",
      "street": "MTE DO BORRAZEIRO",
      "house": "",
      "postcode": "7150-308",
      "city": "ORADA",
      "lon": "-7.469668255923898",
      "lat": "38.83545992283423"
    },
    {
      "id": "pt.ine.add.PTCONT.1387261",
      "street": "MTE FORTE",
      "house": "",
      "postcode": "7150-287",
      "city": "ORADA",
      "lon": "-7.468392825580525",
      "lat": "38.832141256008875"
    },
    {
      "id": "pt.ine.add.PTCONT.1390206",
      "street": "MTE JANELAS",
      "house": "",
      "postcode": "7150-308",
      "city": "ORADA",
      "lon": "-7.469786262734988",
      "lat": "38.829319572388854"
    },
    {
      "id": "pt.ine.add.PTCONT.1390207",
      "street": "MTE JANELAS",
      "house": "",
      "postcode": "7150-308",
      "city": "ORADA",
      "lon": "-7.469786262734988",
      "lat": "38.829319572388854"
    },
    {
      "id": "pt.ine.add.PTCONT.1398558",
      "street": "MTE SERRADO",
      "house": "",
      "postcode": "7150-308",
      "city": "ORADA",
      "lon": "-7.468026245194524",
      "lat": "38.83193198822756"
    },
    {
      "id": "pt.ine.add.PTCONT.1399103",
      "street": "ALCAVARICA",
      "house": "",
      "postcode": "7150-308",
      "city": "ORADA",
      "lon": "-7.468026245194524",
      "lat": "38.83193198822756"
    },
    {
      "id": "pt.ine.add.PTCONT.1402384",
      "street": "MTE PICARILHO",
      "house": "",
      "postcode": "7150-308",
      "city": "ORADA",
      "lon": "-7.469180444431602",
      "lat": "38.834136476629425"
    },
    {
      "id": "pt.ine.add.PTCONT.1402385",
      "street": "MTE PICARILHO",
      "house": "",
      "postcode": "7150-308",
      "city": "ORADA",
      "lon": "-7.469180444431602",
      "lat": "38.834136476629425"
    },
    {
      "id": "pt.ine.add.PTCONT.1427352",
      "street": "MTE BURRAZEIRO",
      "house": "",
      "postcode": "7150-308",
      "city": "ORADA",
      "lon": "-7.470805664854961",
      "lat": "38.827777128279536"
    },
    {
      "id": "pt.ine.add.PTCONT.1439242",
      "street": "MTE FORTE ALCARAVICA",
      "house": "",
      "postcode": "7150-287",
      "city": "ORADA",
      "lon": "-7.468231854578058",
      "lat": "38.83211331628921"
    },
    {
      "id": "pt.ine.add.PTCONT.1446079",
      "street": "MTE BURRAZEIRO",
      "house": "",
      "postcode": "7150-308",
      "city": "ORADA",
      "lon": "-7.46926989097351",
      "lat": "38.835068414874854"
    },
    {
      "id": "pt.ine.add.PTCONT.1446152",
      "street": "MTE BURRAZEIRO",
      "house": "",
      "postcode": "7150-308",
      "city": "ORADA",
      "lon": "-7.46926989097351",
      "lat": "38.835068414874854"
    },
    {
      "id": "pt.ine.add.PTCONT.1451471",
      "street": "MTE FORTE ALCARAVICA",
      "house": "",
      "postcode": "7150-293",
      "city": "ORADA",
      "lon": "-7.46816426779884",
      "lat": "38.8319507897238"
    },
    {
      "id": "pt.ine.add.PTCONT.1455539",
      "street": "MTE BURRAZEIRO",
      "house": "",
      "postcode": "7150-308",
      "city": "ORADA",
      "lon": "-7.469032205496036",
      "lat": "38.83521657934611"
    },
    {
      "id": "pt.ine.add.PTCONT.1456827",
      "street": "ALCAVARICA ALCARAVICA",
      "house": "",
      "postcode": "7150-308",
      "city": "ORADA",
      "lon": "-7.468074236380155",
      "lat": "38.83172508016816"
    },
    {
      "id": "pt.ine.add.PTCONT.1456828",
      "street": "ALCAVARICA ALCARAVICA",
      "house": "",
      "postcode": "7150-308",
      "city": "ORADA",
      "lon": "-7.468074236380155",
      "lat": "38.83172508016816"
    },
    {
      "id": "pt.ine.add.PTCONT.1458493",
      "street": "MTE BURRAZEIRO",
      "house": "",
      "postcode": "7150-308",
      "city": "ORADA",
      "lon": "-7.466865040326953",
      "lat": "38.82968875179518"
    },
    {
      "id": "pt.ine.add.PTCONT.1462883",
      "street": "MTE BORRAZEIRO",
      "house": "",
      "postcode": "7150-287",
      "city": "ORADA",
      "lon": "-7.468084662603845",
      "lat": "38.83184224198805"
    }
  ]
}