{
  "data": {
    "distrito": "Ã‰vora",
    "concelho": "Borba",
    "freguesia": "Orada",
    "OBJECTID": 133,
    "BGRI2021": "07030200113",
    "DT21": "07",
    "DTMN21": "0703",
    "DTMNFR21": "070302",
    "DTMNFRSEC21": "070302001",
    "SECNUM21": "001",
    "SSNUM21": "13",
    "SECSSNUM21": "00113",
    "OBJECTID_1": 59106,
    "DT": "07",
    "CC": "03",
    "fr": "02",
    "SEC": "001",
    "SS": "13"
  },
  "addresses": [
    {
      "id": "pt.ine.add.PTCONT.1379857",
      "street": "MONTINHO DO BRAZAO NOVO",
      "house": "",
      "postcode": "7150-287",
      "city": "ORADA",
      "lon": "-7.467638504956669",
      "lat": "38.850809808210094"
    },
    {
      "id": "pt.ine.add.PTCONT.1381775",
      "street": "MTE FREIXO",
      "house": "",
      "postcode": "7150-308",
      "city": "ORADA",
      "lon": "-7.464227869499048",
      "lat": "38.846476025136546"
    },
    {
      "id": "pt.ine.add.PTCONT.1385050",
      "street": "QTA MOCHO",
      "house": "",
      "postcode": "7150-308",
      "city": "ORADA",
      "lon": "-7.4656009780661226",
      "lat": "38.85977946432217"
    },
    {
      "id": "pt.ine.add.PTCONT.1388665",
      "street": "MTE AZENHA DO JARDIM",
      "house": "",
      "postcode": "7150-287",
      "city": "ORADA",
      "lon": "-7.4750513282493865",
      "lat": "38.85318530285676"
    },
    {
      "id": "pt.ine.add.PTCONT.1392600",
      "street": "MTE PISAO",
      "house": "",
      "postcode": "7150-308",
      "city": "ORADA",
      "lon": "-7.464544515901588",
      "lat": "38.85817903401052"
    },
    {
      "id": "pt.ine.add.PTCONT.1395018",
      "street": "MONTINHO DO ZURRAQUE",
      "house": "",
      "postcode": "7150-287",
      "city": "ORADA",
      "lon": "-7.478571324094147",
      "lat": "38.85499764445868"
    },
    {
      "id": "pt.ine.add.PTCONT.1395306",
      "street": "MONTINHO DO ZURRAQUE",
      "house": "",
      "postcode": "7150-287",
      "city": "ORADA",
      "lon": "-7.478571324094147",
      "lat": "38.85499764445868"
    },
    {
      "id": "pt.ine.add.PTCONT.1395595",
      "street": "MTE ALBORRA",
      "house": "",
      "postcode": "7150-308",
      "city": "ORADA",
      "lon": "-7.467854831521005",
      "lat": "38.868890234521615"
    },
    {
      "id": "pt.ine.add.PTCONT.1395596",
      "street": "MTE ALBORRA",
      "house": "",
      "postcode": "7150-308",
      "city": "ORADA",
      "lon": "-7.467854831521005",
      "lat": "38.868890234521615"
    },
    {
      "id": "pt.ine.add.PTCONT.1400172",
      "street": "MTE PISAO",
      "house": "",
      "postcode": "7150-297",
      "city": "ORADA",
      "lon": "-7.4644524396572915",
      "lat": "38.858169499061106"
    },
    {
      "id": "pt.ine.add.PTCONT.1400173",
      "street": "MTE PISAO",
      "house": "",
      "postcode": "7150-297",
      "city": "ORADA",
      "lon": "-7.4644524396572915",
      "lat": "38.858169499061106"
    },
    {
      "id": "pt.ine.add.PTCONT.1400787",
      "street": "MTE PISAO",
      "house": "",
      "postcode": "7150-297",
      "city": "ORADA",
      "lon": "-7.4644524396572915",
      "lat": "38.858169499061106"
    },
    {
      "id": "pt.ine.add.PTCONT.1403024",
      "street": "MTE DOS ESTANQUES",
      "house": "10",
      "postcode": "7150-308",
      "city": "ORADA",
      "lon": "-7.468424611800133",
      "lat": "38.86876898979069"
    },
    {
      "id": "pt.ine.add.PTCONT.1403545",
      "street": "MTE DO FREIXO",
      "house": "",
      "postcode": "7150-308",
      "city": "ORADA",
      "lon": "-7.464157157649092",
      "lat": "38.84664676948013"
    },
    {
      "id": "pt.ine.add.PTCONT.1404151",
      "street": "HORTA DE MATA CAES",
      "house": "",
      "postcode": "7150-308",
      "city": "ORADA",
      "lon": "-7.4679970895935295",
      "lat": "38.86227929738293"
    },
    {
      "id": "pt.ine.add.PTCONT.1405405",
      "street": "MTE DA VIDEIRA",
      "house": "",
      "postcode": "7150-308",
      "city": "ORADA",
      "lon": "-7.478381247309675",
      "lat": "38.85495172631098"
    },
    {
      "id": "pt.ine.add.PTCONT.1407145",
      "street": "MTE PISAO",
      "house": "",
      "postcode": "7150-308",
      "city": "ORADA",
      "lon": "-7.464325043911109",
      "lat": "38.85824083235914"
    },
    {
      "id": "pt.ine.add.PTCONT.1409438",
      "street": "MTE PISAO",
      "house": "",
      "postcode": "7150-308",
      "city": "ORADA",
      "lon": "-7.46454105790809",
      "lat": "38.85854833565269"
    },
    {
      "id": "pt.ine.add.PTCONT.1410916",
      "street": "MTE ESPADANAL",
      "house": "",
      "postcode": "7150-287",
      "city": "ORADA",
      "lon": "-7.467019316140664",
      "lat": "38.851545755818556"
    },
    {
      "id": "pt.ine.add.PTCONT.1411691",
      "street": "MTE PERDIGOA",
      "house": "",
      "postcode": "7150-308",
      "city": "ORADA",
      "lon": "-7.465959938602007",
      "lat": "38.86205149016914"
    },
    {
      "id": "pt.ine.add.PTCONT.1411692",
      "street": "MTE PERDIGOA",
      "house": "",
      "postcode": "7150-308",
      "city": "ORADA",
      "lon": "-7.465959938602007",
      "lat": "38.86205149016914"
    },
    {
      "id": "pt.ine.add.PTCONT.1417413",
      "street": "MTE AZENHAS",
      "house": "",
      "postcode": "7150-308",
      "city": "ORADA",
      "lon": "-7.4683431612276605",
      "lat": "38.863470301879175"
    },
    {
      "id": "pt.ine.add.PTCONT.1421764",
      "street": "MTE PERDIGOA",
      "house": "",
      "postcode": "7150-308",
      "city": "ORADA",
      "lon": "-7.466371142205913",
      "lat": "38.862232497981665"
    },
    {
      "id": "pt.ine.add.PTCONT.1422075",
      "street": "MTE DO FREIXO",
      "house": "",
      "postcode": "7150-308",
      "city": "ORADA",
      "lon": "-7.464026522351134",
      "lat": "38.84757351522594"
    },
    {
      "id": "pt.ine.add.PTCONT.1422675",
      "street": "MTE COUREAL",
      "house": "",
      "postcode": "7150-308",
      "city": "ORADA",
      "lon": "-7.481127928505959",
      "lat": "38.85383191519255"
    },
    {
      "id": "pt.ine.add.PTCONT.1428294",
      "street": "MTE AZENHAS",
      "house": "",
      "postcode": "7150-308",
      "city": "ORADA",
      "lon": "-7.468410693345334",
      "lat": "38.86364183508994"
    },
    {
      "id": "pt.ine.add.PTCONT.1430056",
      "street": "MTE AZENHAS RONDAS DAS ALENADOS",
      "house": "",
      "postcode": "7150-308",
      "city": "ORADA",
      "lon": "-7.468341064286567",
      "lat": "38.863695485779736"
    },
    {
      "id": "pt.ine.add.PTCONT.1430058",
      "street": "MTE HORTA DO LEGO",
      "house": "",
      "postcode": "7150-308",
      "city": "ORADA",
      "lon": "-7.467784189302097",
      "lat": "38.86905197294273"
    },
    {
      "id": "pt.ine.add.PTCONT.1431683",
      "street": "MTE ALDEIA DAS GORDURAS",
      "house": "",
      "postcode": "7150-308",
      "city": "ORADA",
      "lon": "-7.468243051791805",
      "lat": "38.8655595490352"
    },
    {
      "id": "pt.ine.add.PTCONT.1437252",
      "street": "MTE ESTANQUES",
      "house": "8",
      "postcode": "7150-308",
      "city": "ORADA",
      "lon": "-7.468638734038756",
      "lat": "38.86884965820131"
    },
    {
      "id": "pt.ine.add.PTCONT.1437253",
      "street": "MTE ESTANQUES",
      "house": "8",
      "postcode": "7150-308",
      "city": "ORADA",
      "lon": "-7.468638734038756",
      "lat": "38.86884965820131"
    },
    {
      "id": "pt.ine.add.PTCONT.1439249",
      "street": "MTE ESTANQUES",
      "house": "",
      "postcode": "7150-308",
      "city": "ORADA",
      "lon": "-7.467637499461875",
      "lat": "38.86823656400179"
    },
    {
      "id": "pt.ine.add.PTCONT.1439827",
      "street": "LG DOS TANQUES",
      "house": "9",
      "postcode": "7150-308",
      "city": "ORADA",
      "lon": "-7.468429412231954",
      "lat": "38.86905564701604"
    },
    {
      "id": "pt.ine.add.PTCONT.1439876",
      "street": "LG DOS TANQUES",
      "house": "9",
      "postcode": "7150-308",
      "city": "ORADA",
      "lon": "-7.468429412231954",
      "lat": "38.86905564701604"
    },
    {
      "id": "pt.ine.add.PTCONT.1439991",
      "street": "HORTA DE MATA CAES",
      "house": "",
      "postcode": "7150-308",
      "city": "ORADA",
      "lon": "-7.467085014633035",
      "lat": "38.862629975754835"
    },
    {
      "id": "pt.ine.add.PTCONT.1442228",
      "street": "MTE AZENHAS",
      "house": "",
      "postcode": "7150-308",
      "city": "ORADA",
      "lon": "-7.468234143849639",
      "lat": "38.86376353844357"
    },
    {
      "id": "pt.ine.add.PTCONT.1443795",
      "street": "MTE SERRADO",
      "house": "",
      "postcode": "7150-308",
      "city": "ORADA",
      "lon": "-7.470805443880034",
      "lat": "38.86631275063076"
    },
    {
      "id": "pt.ine.add.PTCONT.1446139",
      "street": "MTE ALDEIA DAS GORDURAS",
      "house": "",
      "postcode": "7150-308",
      "city": "ORADA",
      "lon": "-7.468160808647138",
      "lat": "38.865730229574304"
    },
    {
      "id": "pt.ine.add.PTCONT.1446140",
      "street": "MTE ALDEIA DAS GORDURAS",
      "house": "",
      "postcode": "7150-308",
      "city": "ORADA",
      "lon": "-7.468160808647138",
      "lat": "38.865730229574304"
    },
    {
      "id": "pt.ine.add.PTCONT.1446141",
      "street": "MTE ALDEIA DAS GORDURAS",
      "house": "",
      "postcode": "7150-308",
      "city": "ORADA",
      "lon": "-7.468160808647138",
      "lat": "38.865730229574304"
    },
    {
      "id": "pt.ine.add.PTCONT.1446142",
      "street": "MTE ALDEIA DAS GORDURAS",
      "house": "",
      "postcode": "7150-308",
      "city": "ORADA",
      "lon": "-7.468160808647138",
      "lat": "38.865730229574304"
    },
    {
      "id": "pt.ine.add.PTCONT.1446151",
      "street": "MTE ALDEIA DAS GORDURAS",
      "house": "",
      "postcode": "7150-308",
      "city": "ORADA",
      "lon": "-7.468160808647138",
      "lat": "38.865730229574304"
    },
    {
      "id": "pt.ine.add.PTCONT.1448442",
      "street": "ESTR VIVENDA BOAVISTA",
      "house": "",
      "postcode": "7150-308",
      "city": "ORADA",
      "lon": "-7.472391316710801",
      "lat": "38.874230603610386"
    },
    {
      "id": "pt.ine.add.PTCONT.1454509",
      "street": "MTE AZENHAS",
      "house": "",
      "postcode": "7150-308",
      "city": "ORADA",
      "lon": "-7.468126832120428",
      "lat": "38.86566698130738"
    },
    {
      "id": "pt.ine.add.PTCONT.1455538",
      "street": "MTE ESTANQUES",
      "house": "",
      "postcode": "7150-308",
      "city": "ORADA",
      "lon": "-7.4678554192051845",
      "lat": "38.86882718309282"
    },
    {
      "id": "pt.ine.add.PTCONT.1465680",
      "street": "QTA LOUREIROS",
      "house": "",
      "postcode": "7150-308",
      "city": "ORADA",
      "lon": "-7.465017655271276",
      "lat": "38.85932573706697"
    }
  ]
}