{
  "data": {
    "distrito": "Santarém",
    "concelho": "Santarém",
    "freguesia": "Alcanede",
    "OBJECTID": 820,
    "BGRI2021": "14160400105",
    "DT21": "14",
    "DTMN21": "1416",
    "DTMNFR21": "141604",
    "DTMNFRSEC21": "141604001",
    "SECNUM21": "001",
    "SSNUM21": "05",
    "SECSSNUM21": "00105",
    "OBJECTID_1": 155152,
    "DT": "14",
    "CC": "16",
    "fr": "04",
    "SEC": "001",
    "SS": "05"
  },
  "addresses": [
    {
      "id": "pt.ine.add.PTCONT.4396486",
      "street": "R VALE MINHOTO",
      "house": "1 A",
      "postcode": "2025-140",
      "city": "ALCANEDE",
      "lon": "-8.795138460460246",
      "lat": "39.42975417764501"
    },
    {
      "id": "pt.ine.add.PTCONT.4427364",
      "street": "R AZINHEIRA",
      "house": "1",
      "postcode": "2025-140",
      "city": "ALCANEDE",
      "lon": "-8.793678374080708",
      "lat": "39.43010474335922"
    },
    {
      "id": "pt.ine.add.PTCONT.4433456",
      "street": "R AZINHEIRA",
      "house": "21",
      "postcode": "2025-140",
      "city": "ALCANEDE",
      "lon": "-8.79296166330941",
      "lat": "39.43169403762942"
    },
    {
      "id": "pt.ine.add.PTCONT.4475978",
      "street": "R AZINHEIRA",
      "house": "15",
      "postcode": "2025-140",
      "city": "ALCANEDE",
      "lon": "-8.793003531131697",
      "lat": "39.431207423901924"
    },
    {
      "id": "pt.ine.add.PTCONT.4483300",
      "street": "R FONTE",
      "house": "13",
      "postcode": "2025-140",
      "city": "ALCANEDE",
      "lon": "-8.796430135493964",
      "lat": "39.430017027966"
    },
    {
      "id": "pt.ine.add.PTCONT.4547596",
      "street": "R JOGO",
      "house": "7",
      "postcode": "2025-140",
      "city": "ALCANEDE",
      "lon": "-8.795112505860942",
      "lat": "39.42946610235651"
    },
    {
      "id": "pt.ine.add.PTCONT.4547888",
      "street": "R JOGO",
      "house": "7A",
      "postcode": "2025-140",
      "city": "ALCANEDE",
      "lon": "-8.795112505860942",
      "lat": "39.42946610235651"
    },
    {
      "id": "pt.ine.add.PTCONT.4553379",
      "street": "R AZINHEIRA CASAL PITEIRA BRAVA",
      "house": "5",
      "postcode": "2025-140",
      "city": "ALCANEDE",
      "lon": "-8.793436866899226",
      "lat": "39.43035830973434"
    },
    {
      "id": "pt.ine.add.PTCONT.4572338",
      "street": "R AZINHEIRA",
      "house": "25",
      "postcode": "2025-140",
      "city": "ALCANEDE",
      "lon": "-8.793162839953997",
      "lat": "39.4320892027215"
    },
    {
      "id": "pt.ine.add.PTCONT.4582184",
      "street": "R JOGO",
      "house": "9",
      "postcode": "2025-170",
      "city": "ALCANEDE",
      "lon": "-8.794974165362133",
      "lat": "39.42957497323399"
    },
    {
      "id": "pt.ine.add.PTCONT.4596425",
      "street": "R AZINHEIRA",
      "house": "19",
      "postcode": "2025-140",
      "city": "ALCANEDE",
      "lon": "-8.792972682551717",
      "lat": "39.431630926352646"
    },
    {
      "id": "pt.ine.add.PTCONT.4608388",
      "street": "R AZINHEIRA",
      "house": "23",
      "postcode": "2025-140",
      "city": "ALCANEDE",
      "lon": "-8.792998459346064",
      "lat": "39.43190098911101"
    },
    {
      "id": "pt.ine.add.PTCONT.4615944",
      "street": "TV MARCELINO",
      "house": "3",
      "postcode": "2025-140",
      "city": "ALCANEDE",
      "lon": "-8.794035250219023",
      "lat": "39.42976945828593"
    },
    {
      "id": "pt.ine.add.PTCONT.4624330",
      "street": "R FONTE",
      "house": "15",
      "postcode": "2025-140",
      "city": "ALCANEDE",
      "lon": "-8.796361392751965",
      "lat": "39.43011649660373"
    },
    {
      "id": "pt.ine.add.PTCONT.4656914",
      "street": "R AZINHEIRA",
      "house": "13",
      "postcode": "2025-140",
      "city": "ALCANEDE",
      "lon": "-8.79313077393239",
      "lat": "39.431152660157075"
    }
  ]
}