{
  "data": {
    "distrito": "Viseu",
    "concelho": "Mangualde",
    "freguesia": "União das freguesias de Mangualde, Mesquitela e Cunha Alta",
    "OBJECTID": 326,
    "BGRI2021": "18061900833",
    "DT21": "18",
    "DTMN21": "1806",
    "DTMNFR21": "180619",
    "DTMNFRSEC21": "180619008",
    "SECNUM21": "008",
    "SSNUM21": "33",
    "SECSSNUM21": "00833",
    "OBJECTID_1": 191842,
    "DT": "18",
    "CC": "06",
    "fr": "19",
    "SEC": "008",
    "SS": "33"
  },
  "addresses": [
    {
      "id": "pt.ine.add.PTCONT.5443254",
      "street": "QTA DA BIZARRA",
      "house": "",
      "postcode": "3530-258",
      "city": "MANGUALDE",
      "lon": "-7.751935042954808",
      "lat": "40.598371519666536"
    },
    {
      "id": "pt.ine.add.PTCONT.5485661",
      "street": "R JOÃO FERREIRA DE ALMEIDA",
      "house": "1",
      "postcode": "3530-510",
      "city": "MANGUALDE",
      "lon": "-7.749347560457204",
      "lat": "40.596336774135494"
    },
    {
      "id": "pt.ine.add.PTCONT.5525714",
      "street": "R MIGUEL TORGA",
      "house": "15",
      "postcode": "3530-501",
      "city": "MESQUITELA MGL",
      "lon": "-7.74953961425033",
      "lat": "40.595806103069336"
    },
    {
      "id": "pt.ine.add.PTCONT.5567705",
      "street": "R MIGUEL TORGA",
      "house": "6",
      "postcode": "3530-501",
      "city": "MESQUITELA MGL",
      "lon": "-7.749785126110331",
      "lat": "40.59625717993029"
    },
    {
      "id": "pt.ine.add.PTCONT.5573185",
      "street": "R JOÃO FERREIRA DE ALMEIDA",
      "house": "3",
      "postcode": "3530-510",
      "city": "MANGUALDE",
      "lon": "-7.749229630602628",
      "lat": "40.59630036132312"
    },
    {
      "id": "pt.ine.add.PTCONT.5576876",
      "street": "R JOÃO FERREIRA DE ALMEIDA",
      "house": "36",
      "postcode": "3530-510",
      "city": "MANGUALDE",
      "lon": "-7.750150010988326",
      "lat": "40.59649252640305"
    },
    {
      "id": "pt.ine.add.PTCONT.5591098",
      "street": "R JOAQUIM AGOSTINHO",
      "house": "20",
      "postcode": "3530-500",
      "city": "MANGUALDE",
      "lon": "-7.74982665725917",
      "lat": "40.599328102646055"
    },
    {
      "id": "pt.ine.add.PTCONT.5593617",
      "street": "R MIGUEL TORGA",
      "house": "15",
      "postcode": "3530-101",
      "city": "MANGUALDE",
      "lon": "-7.749563395620691",
      "lat": "40.5957791663254"
    },
    {
      "id": "pt.ine.add.PTCONT.5595474",
      "street": "R SANTIAGO",
      "house": "8",
      "postcode": "3530-501",
      "city": "MESQUITELA MGL",
      "lon": "-7.751007461227682",
      "lat": "40.59528866420968"
    },
    {
      "id": "pt.ine.add.PTCONT.5630905",
      "street": "R MIGUEL TORGA",
      "house": "9",
      "postcode": "3530-101",
      "city": "MANGUALDE",
      "lon": "-7.7494440767656885",
      "lat": "40.59598589052305"
    },
    {
      "id": "pt.ine.add.PTCONT.5632837",
      "street": "R PONTE",
      "house": "",
      "postcode": "3530-142",
      "city": "MANGUALDE",
      "lon": "-7.750830311433013",
      "lat": "40.595279072828056"
    },
    {
      "id": "pt.ine.add.PTCONT.5638479",
      "street": "R SANTIAGO",
      "house": "",
      "postcode": "3530-501",
      "city": "MESQUITELA MGL",
      "lon": "-7.750471904983212",
      "lat": "40.59598029466914"
    }
  ]
}