{
  "data": {
    "distrito": "Lisboa",
    "concelho": "Cadaval",
    "freguesia": "Uni√£o das freguesias de Lamas e Cercal",
    "OBJECTID": 233,
    "BGRI2021": "11041200219",
    "DT21": "11",
    "DTMN21": "1104",
    "DTMNFR21": "110412",
    "DTMNFRSEC21": "110412002",
    "SECNUM21": "002",
    "SSNUM21": "19",
    "SECSSNUM21": "00219",
    "OBJECTID_1": 100158,
    "DT": "11",
    "CC": "04",
    "fr": "12",
    "SEC": "002",
    "SS": "19"
  },
  "addresses": [
    {
      "id": "pt.ine.add.PTCONT.2274564",
      "street": "R PRINCIPAL",
      "house": "7",
      "postcode": "2550-353",
      "city": "LAMAS CDV",
      "lon": "-9.077267232934128",
      "lat": "39.2363806098499"
    },
    {
      "id": "pt.ine.add.PTCONT.2460082",
      "street": "R CATINANAS",
      "house": "2",
      "postcode": "2550-353",
      "city": "LAMAS CDV",
      "lon": "-9.075611985596403",
      "lat": "39.23818643698706"
    },
    {
      "id": "pt.ine.add.PTCONT.2674991",
      "street": "R PRINCIPAL",
      "house": "25",
      "postcode": "2550-353",
      "city": "LAMAS CDV",
      "lon": "-9.07585953889735",
      "lat": "39.237644005165706"
    },
    {
      "id": "pt.ine.add.PTCONT.2726055",
      "street": "CSL CASAIS DA OLARIA",
      "house": "",
      "postcode": "2550-353",
      "city": "LAMAS CDV",
      "lon": "-9.07647176890307",
      "lat": "39.237521955061055"
    },
    {
      "id": "pt.ine.add.PTCONT.2761235",
      "street": "R PRINCIPAL",
      "house": "13",
      "postcode": "2550-353",
      "city": "LAMAS CDV",
      "lon": "-9.076742716595245",
      "lat": "39.236997346124575"
    },
    {
      "id": "pt.ine.add.PTCONT.2811294",
      "street": "R PRINCIPAL",
      "house": "29",
      "postcode": "2550-353",
      "city": "LAMAS CDV",
      "lon": "-9.075297004468672",
      "lat": "39.23801784990687"
    },
    {
      "id": "pt.ine.add.PTCONT.2908624",
      "street": "TV COELHOS",
      "house": "3",
      "postcode": "2550-353",
      "city": "LAMAS CDV",
      "lon": "-9.077485217039177",
      "lat": "39.2362257211856"
    },
    {
      "id": "pt.ine.add.PTCONT.2947959",
      "street": "R PRINCIPAL",
      "house": "1",
      "postcode": "2550-353",
      "city": "LAMAS CDV",
      "lon": "-9.077391725017664",
      "lat": "39.236163429242886"
    },
    {
      "id": "pt.ine.add.PTCONT.3074264",
      "street": "R PRINCIPAL",
      "house": "23",
      "postcode": "2550-353",
      "city": "LAMAS CDV",
      "lon": "-9.07592673496263",
      "lat": "39.23747232560376"
    },
    {
      "id": "pt.ine.add.PTCONT.3092536",
      "street": "R PRINCIPAL",
      "house": "1",
      "postcode": "2550-353",
      "city": "LAMAS CDV",
      "lon": "-9.077921423972168",
      "lat": "39.235933954974826"
    },
    {
      "id": "pt.ine.add.PTCONT.3111091",
      "street": "TV COELHOS",
      "house": "3",
      "postcode": "2550-353",
      "city": "LAMAS CDV",
      "lon": "-9.077544328882778",
      "lat": "39.2363153132599"
    },
    {
      "id": "pt.ine.add.PTCONT.3275111",
      "street": "R PRINCIPAL",
      "house": "15",
      "postcode": "2550-353",
      "city": "LAMAS CDV",
      "lon": "-9.076213849887349",
      "lat": "39.23728985826754"
    }
  ]
}