{
  "data": {
    "distrito": "Santarém",
    "concelho": "Benavente",
    "freguesia": "Samora Correia",
    "OBJECTID": 309,
    "BGRI2021": "14050200306",
    "DT21": "14",
    "DTMN21": "1405",
    "DTMNFR21": "140502",
    "DTMNFRSEC21": "140502003",
    "SECNUM21": "003",
    "SSNUM21": "06",
    "SECSSNUM21": "00306",
    "OBJECTID_1": 149021,
    "DT": "14",
    "CC": "05",
    "fr": "02",
    "SEC": "003",
    "SS": "06"
  },
  "addresses": [
    {
      "id": "pt.ine.add.PTCONT.4395135",
      "street": "AV O SECULO",
      "house": "121",
      "postcode": "2135-231",
      "city": "SAMORA CORREIA",
      "lon": "-8.872616564069512",
      "lat": "38.934875756369784"
    },
    {
      "id": "pt.ine.add.PTCONT.4415594",
      "street": "AV PROF EGAS MONIZ",
      "house": "",
      "postcode": "2135-232",
      "city": "SAMORA CORREIA",
      "lon": "-8.872288236564174",
      "lat": "38.93435538971581"
    },
    {
      "id": "pt.ine.add.PTCONT.4416020",
      "street": "BR LOPES E LIMA",
      "house": "",
      "postcode": "2135-240",
      "city": "SAMORA CORREIA",
      "lon": "-8.87297642572198",
      "lat": "38.93399072187409"
    },
    {
      "id": "pt.ine.add.PTCONT.4416021",
      "street": "BR LOPES E LIMA",
      "house": "",
      "postcode": "2135-240",
      "city": "SAMORA CORREIA",
      "lon": "-8.87297642572198",
      "lat": "38.93399072187409"
    },
    {
      "id": "pt.ine.add.PTCONT.4424090",
      "street": "PTO CUSTÓDIO",
      "house": "1A",
      "postcode": "2135-232",
      "city": "SAMORA CORREIA",
      "lon": "-8.872197287727928",
      "lat": "38.93448207335014"
    },
    {
      "id": "pt.ine.add.PTCONT.4424091",
      "street": "PTO CUSTÓDIO",
      "house": "1A",
      "postcode": "2135-232",
      "city": "SAMORA CORREIA",
      "lon": "-8.872197287727928",
      "lat": "38.93448207335014"
    },
    {
      "id": "pt.ine.add.PTCONT.4449216",
      "street": "AV O SECULO",
      "house": "",
      "postcode": "2135-231",
      "city": "SAMORA CORREIA",
      "lon": "-8.874214304674558",
      "lat": "38.933253245745014"
    },
    {
      "id": "pt.ine.add.PTCONT.4449217",
      "street": "AV O SECULO",
      "house": "",
      "postcode": "2135-231",
      "city": "SAMORA CORREIA",
      "lon": "-8.874214304674558",
      "lat": "38.933253245745014"
    },
    {
      "id": "pt.ine.add.PTCONT.4449218",
      "street": "AV O SECULO",
      "house": "",
      "postcode": "2135-231",
      "city": "SAMORA CORREIA",
      "lon": "-8.874214304674558",
      "lat": "38.933253245745014"
    },
    {
      "id": "pt.ine.add.PTCONT.4449219",
      "street": "AV O SECULO",
      "house": "",
      "postcode": "2135-231",
      "city": "SAMORA CORREIA",
      "lon": "-8.874214304674558",
      "lat": "38.933253245745014"
    },
    {
      "id": "pt.ine.add.PTCONT.4449220",
      "street": "AV O SECULO",
      "house": "",
      "postcode": "2135-231",
      "city": "SAMORA CORREIA",
      "lon": "-8.874214304674558",
      "lat": "38.933253245745014"
    },
    {
      "id": "pt.ine.add.PTCONT.4450776",
      "street": "AV O SECULO",
      "house": "",
      "postcode": "2135-231",
      "city": "SAMORA CORREIA",
      "lon": "-8.874214304674558",
      "lat": "38.933253245745014"
    },
    {
      "id": "pt.ine.add.PTCONT.4451251",
      "street": "BR LOPES E LIMA",
      "house": "",
      "postcode": "2135-240",
      "city": "SAMORA CORREIA",
      "lon": "-8.873080963899142",
      "lat": "38.93406212077697"
    },
    {
      "id": "pt.ine.add.PTCONT.4452871",
      "street": "BR LOPES E LIMA",
      "house": "1",
      "postcode": "2135-240",
      "city": "SAMORA CORREIA",
      "lon": "-8.873080963899142",
      "lat": "38.93406212077697"
    },
    {
      "id": "pt.ine.add.PTCONT.4471538",
      "street": "AV O SECULO",
      "house": "141",
      "postcode": "2135-231",
      "city": "SAMORA CORREIA",
      "lon": "-8.873335701455314",
      "lat": "38.93415959026935"
    },
    {
      "id": "pt.ine.add.PTCONT.4472387",
      "street": "AV PROF EGAS MONIZ",
      "house": "2",
      "postcode": "2135-232",
      "city": "SAMORA CORREIA",
      "lon": "-8.872420515023956",
      "lat": "38.93487699825827"
    },
    {
      "id": "pt.ine.add.PTCONT.4474042",
      "street": "AV PROF EGAS MONIZ",
      "house": "4",
      "postcode": "2135-232",
      "city": "SAMORA CORREIA",
      "lon": "-8.87237317014778",
      "lat": "38.934760198093926"
    },
    {
      "id": "pt.ine.add.PTCONT.4474043",
      "street": "AV PROF EGAS MONIZ",
      "house": "4",
      "postcode": "2135-232",
      "city": "SAMORA CORREIA",
      "lon": "-8.87237317014778",
      "lat": "38.934760198093926"
    },
    {
      "id": "pt.ine.add.PTCONT.4474044",
      "street": "AV PROF EGAS MONIZ",
      "house": "4",
      "postcode": "2135-232",
      "city": "SAMORA CORREIA",
      "lon": "-8.87237317014778",
      "lat": "38.934760198093926"
    },
    {
      "id": "pt.ine.add.PTCONT.4474062",
      "street": "AV O SECULO",
      "house": "143",
      "postcode": "2135-231",
      "city": "SAMORA CORREIA",
      "lon": "-8.87340414538641",
      "lat": "38.93408709465005"
    },
    {
      "id": "pt.ine.add.PTCONT.4475578",
      "street": "AV PROF EGAS MONIZ",
      "house": "4",
      "postcode": "2135-232",
      "city": "SAMORA CORREIA",
      "lon": "-8.87237317014778",
      "lat": "38.934760198093926"
    },
    {
      "id": "pt.ine.add.PTCONT.4476365",
      "street": "AV O SÉCULO",
      "house": "147",
      "postcode": "2135-231",
      "city": "SAMORA CORREIA",
      "lon": "-8.873778991826104",
      "lat": "38.93353524731847"
    },
    {
      "id": "pt.ine.add.PTCONT.4476366",
      "street": "AV O SÉCULO",
      "house": "147",
      "postcode": "2135-231",
      "city": "SAMORA CORREIA",
      "lon": "-8.873778991826104",
      "lat": "38.93353524731847"
    },
    {
      "id": "pt.ine.add.PTCONT.4476367",
      "street": "AV O SÉCULO",
      "house": "147",
      "postcode": "2135-231",
      "city": "SAMORA CORREIA",
      "lon": "-8.873778991826104",
      "lat": "38.93353524731847"
    },
    {
      "id": "pt.ine.add.PTCONT.4476368",
      "street": "AV O SECULO",
      "house": "135",
      "postcode": "2135-231",
      "city": "SAMORA CORREIA",
      "lon": "-8.873061924342583",
      "lat": "38.934449572349735"
    },
    {
      "id": "pt.ine.add.PTCONT.4476369",
      "street": "AV O SECULO",
      "house": "135",
      "postcode": "2135-231",
      "city": "SAMORA CORREIA",
      "lon": "-8.873061924342583",
      "lat": "38.934449572349735"
    },
    {
      "id": "pt.ine.add.PTCONT.4476370",
      "street": "AV O SECULO",
      "house": "135",
      "postcode": "2135-231",
      "city": "SAMORA CORREIA",
      "lon": "-8.873061924342583",
      "lat": "38.934449572349735"
    },
    {
      "id": "pt.ine.add.PTCONT.4476371",
      "street": "AV O SECULO",
      "house": "135",
      "postcode": "2135-231",
      "city": "SAMORA CORREIA",
      "lon": "-8.873061924342583",
      "lat": "38.934449572349735"
    },
    {
      "id": "pt.ine.add.PTCONT.4476372",
      "street": "AV O SECULO",
      "house": "135",
      "postcode": "2135-231",
      "city": "SAMORA CORREIA",
      "lon": "-8.873061924342583",
      "lat": "38.934449572349735"
    },
    {
      "id": "pt.ine.add.PTCONT.4476373",
      "street": "AV O SECULO",
      "house": "135",
      "postcode": "2135-231",
      "city": "SAMORA CORREIA",
      "lon": "-8.873061924342583",
      "lat": "38.934449572349735"
    },
    {
      "id": "pt.ine.add.PTCONT.4482413",
      "street": "AV PROF EGAS MONIZ",
      "house": "",
      "postcode": "2135-232",
      "city": "SAMORA CORREIA",
      "lon": "-8.872596706536784",
      "lat": "38.93407419735001"
    },
    {
      "id": "pt.ine.add.PTCONT.4484749",
      "street": "PTO CUSTÓDIO",
      "house": "5",
      "postcode": "2135-232",
      "city": "SAMORA CORREIA",
      "lon": "-8.872474154852481",
      "lat": "38.934489327646524"
    },
    {
      "id": "pt.ine.add.PTCONT.4484770",
      "street": "AV O SECULO",
      "house": "144",
      "postcode": "2135-231",
      "city": "SAMORA CORREIA",
      "lon": "-8.873598880878625",
      "lat": "38.93395975172085"
    },
    {
      "id": "pt.ine.add.PTCONT.4488213",
      "street": "AV O SECULO",
      "house": "147",
      "postcode": "2135-231",
      "city": "SAMORA CORREIA",
      "lon": "-8.873581728906245",
      "lat": "38.93341939880293"
    },
    {
      "id": "pt.ine.add.PTCONT.4488214",
      "street": "AV O SECULO",
      "house": "147",
      "postcode": "2135-231",
      "city": "SAMORA CORREIA",
      "lon": "-8.873581728906245",
      "lat": "38.93341939880293"
    },
    {
      "id": "pt.ine.add.PTCONT.4488215",
      "street": "AV O SECULO",
      "house": "147",
      "postcode": "2135-231",
      "city": "SAMORA CORREIA",
      "lon": "-8.873581728906245",
      "lat": "38.93341939880293"
    },
    {
      "id": "pt.ine.add.PTCONT.4488216",
      "street": "AV O SECULO",
      "house": "147",
      "postcode": "2135-231",
      "city": "SAMORA CORREIA",
      "lon": "-8.873581728906245",
      "lat": "38.93341939880293"
    },
    {
      "id": "pt.ine.add.PTCONT.4488481",
      "street": "AV O SECULO",
      "house": "147",
      "postcode": "2135-231",
      "city": "SAMORA CORREIA",
      "lon": "-8.873581728906245",
      "lat": "38.93341939880293"
    },
    {
      "id": "pt.ine.add.PTCONT.4495399",
      "street": "ESTR SAMORENA",
      "house": "",
      "postcode": "2135-316",
      "city": "SAMORA CORREIA",
      "lon": "-8.87455876155601",
      "lat": "38.931998988438394"
    },
    {
      "id": "pt.ine.add.PTCONT.4501399",
      "street": "AV O SECULO",
      "house": "137",
      "postcode": "2135-231",
      "city": "SAMORA CORREIA",
      "lon": "-8.873199187645131",
      "lat": "38.93434060979311"
    },
    {
      "id": "pt.ine.add.PTCONT.4501400",
      "street": "AV O SECULO",
      "house": "137",
      "postcode": "2135-231",
      "city": "SAMORA CORREIA",
      "lon": "-8.873199187645131",
      "lat": "38.93434060979311"
    },
    {
      "id": "pt.ine.add.PTCONT.4501401",
      "street": "AV O SECULO",
      "house": "137",
      "postcode": "2135-231",
      "city": "SAMORA CORREIA",
      "lon": "-8.873199187645131",
      "lat": "38.93434060979311"
    },
    {
      "id": "pt.ine.add.PTCONT.4501402",
      "street": "AV O SECULO",
      "house": "137",
      "postcode": "2135-231",
      "city": "SAMORA CORREIA",
      "lon": "-8.873199187645131",
      "lat": "38.93434060979311"
    },
    {
      "id": "pt.ine.add.PTCONT.4501403",
      "street": "AV O SECULO",
      "house": "137",
      "postcode": "2135-231",
      "city": "SAMORA CORREIA",
      "lon": "-8.873199187645131",
      "lat": "38.93434060979311"
    },
    {
      "id": "pt.ine.add.PTCONT.4501404",
      "street": "AV O SECULO",
      "house": "137",
      "postcode": "2135-231",
      "city": "SAMORA CORREIA",
      "lon": "-8.873199187645131",
      "lat": "38.93434060979311"
    },
    {
      "id": "pt.ine.add.PTCONT.4511868",
      "street": "AV O SECULO",
      "house": "",
      "postcode": "2135-231",
      "city": "SAMORA CORREIA",
      "lon": "-8.874294185112182",
      "lat": "38.933171669291504"
    },
    {
      "id": "pt.ine.add.PTCONT.4511869",
      "street": "AV O SECULO",
      "house": "",
      "postcode": "2135-231",
      "city": "SAMORA CORREIA",
      "lon": "-8.874294185112182",
      "lat": "38.933171669291504"
    },
    {
      "id": "pt.ine.add.PTCONT.4511870",
      "street": "AV O SECULO",
      "house": "",
      "postcode": "2135-231",
      "city": "SAMORA CORREIA",
      "lon": "-8.874294185112182",
      "lat": "38.933171669291504"
    },
    {
      "id": "pt.ine.add.PTCONT.4511871",
      "street": "AV O SECULO",
      "house": "",
      "postcode": "2135-231",
      "city": "SAMORA CORREIA",
      "lon": "-8.874294185112182",
      "lat": "38.933171669291504"
    },
    {
      "id": "pt.ine.add.PTCONT.4511872",
      "street": "AV O SECULO",
      "house": "",
      "postcode": "2135-231",
      "city": "SAMORA CORREIA",
      "lon": "-8.874294185112182",
      "lat": "38.933171669291504"
    },
    {
      "id": "pt.ine.add.PTCONT.4513143",
      "street": "AV O SECULO",
      "house": "",
      "postcode": "2135-231",
      "city": "SAMORA CORREIA",
      "lon": "-8.874294185112182",
      "lat": "38.933171669291504"
    },
    {
      "id": "pt.ine.add.PTCONT.4517822",
      "street": "AV O SECULO",
      "house": "139",
      "postcode": "2135-231",
      "city": "SAMORA CORREIA",
      "lon": "-8.873267163759948",
      "lat": "38.9342230787479"
    },
    {
      "id": "pt.ine.add.PTCONT.4521921",
      "street": "AV O SECULO",
      "house": "147 BSUL",
      "postcode": "2135-231",
      "city": "SAMORA CORREIA",
      "lon": "-8.873661329241987",
      "lat": "38.933310801470796"
    },
    {
      "id": "pt.ine.add.PTCONT.4521922",
      "street": "AV O SECULO",
      "house": "147",
      "postcode": "2135-231",
      "city": "SAMORA CORREIA",
      "lon": "-8.873661329241987",
      "lat": "38.933310801470796"
    },
    {
      "id": "pt.ine.add.PTCONT.4521923",
      "street": "AV O SECULO",
      "house": "147",
      "postcode": "2135-231",
      "city": "SAMORA CORREIA",
      "lon": "-8.873661329241987",
      "lat": "38.933310801470796"
    },
    {
      "id": "pt.ine.add.PTCONT.4521924",
      "street": "AV O SECULO",
      "house": "147",
      "postcode": "2135-231",
      "city": "SAMORA CORREIA",
      "lon": "-8.873661329241987",
      "lat": "38.933310801470796"
    },
    {
      "id": "pt.ine.add.PTCONT.4521929",
      "street": "AV O SECULO",
      "house": "147",
      "postcode": "2135-231",
      "city": "SAMORA CORREIA",
      "lon": "-8.873661329241987",
      "lat": "38.933310801470796"
    },
    {
      "id": "pt.ine.add.PTCONT.4521930",
      "street": "AV O SECULO",
      "house": "147",
      "postcode": "2135-231",
      "city": "SAMORA CORREIA",
      "lon": "-8.873661329241987",
      "lat": "38.933310801470796"
    },
    {
      "id": "pt.ine.add.PTCONT.4527992",
      "street": "AV PROF EGAS MONIZ",
      "house": "",
      "postcode": "2135-232",
      "city": "SAMORA CORREIA",
      "lon": "-8.872643677118436",
      "lat": "38.93415496902856"
    },
    {
      "id": "pt.ine.add.PTCONT.4530812",
      "street": "R JOSE PERNES",
      "house": "39",
      "postcode": "2135-239",
      "city": "SAMORA CORREIA",
      "lon": "-8.873086224769862",
      "lat": "38.93345857182597"
    },
    {
      "id": "pt.ine.add.PTCONT.4543714",
      "street": "R EDMUNDO SOEIRO",
      "house": "",
      "postcode": "2135-233",
      "city": "SAMORA CORREIA",
      "lon": "-8.874511324049887",
      "lat": "38.932981128704284"
    },
    {
      "id": "pt.ine.add.PTCONT.4558886",
      "street": "PTO CUSTÓDIO",
      "house": "6",
      "postcode": "2135-232",
      "city": "SAMORA CORREIA",
      "lon": "-8.87242868055742",
      "lat": "38.934552669542704"
    },
    {
      "id": "pt.ine.add.PTCONT.4558887",
      "street": "PTO CUSTÓDIO",
      "house": "1",
      "postcode": "2135-232",
      "city": "SAMORA CORREIA",
      "lon": "-8.872254200911641",
      "lat": "38.93440965141408"
    },
    {
      "id": "pt.ine.add.PTCONT.4569386",
      "street": "AV O SECULO",
      "house": "115",
      "postcode": "2135-231",
      "city": "SAMORA CORREIA",
      "lon": "-8.872513708723691",
      "lat": "38.93496648489639"
    },
    {
      "id": "pt.ine.add.PTCONT.4569387",
      "street": "AV O SECULO",
      "house": "115",
      "postcode": "2135-231",
      "city": "SAMORA CORREIA",
      "lon": "-8.872513708723691",
      "lat": "38.93496648489639"
    },
    {
      "id": "pt.ine.add.PTCONT.4569388",
      "street": "AV O SECULO",
      "house": "115",
      "postcode": "2135-231",
      "city": "SAMORA CORREIA",
      "lon": "-8.872513708723691",
      "lat": "38.93496648489639"
    },
    {
      "id": "pt.ine.add.PTCONT.4570935",
      "street": "AV O SECULO",
      "house": "115",
      "postcode": "2135-231",
      "city": "SAMORA CORREIA",
      "lon": "-8.872513708723691",
      "lat": "38.93496648489639"
    },
    {
      "id": "pt.ine.add.PTCONT.4571525",
      "street": "ESTR SAMORENA",
      "house": "177",
      "postcode": "2135-316",
      "city": "SAMORA CORREIA",
      "lon": "-8.87479155571087",
      "lat": "38.93220468655319"
    },
    {
      "id": "pt.ine.add.PTCONT.4588122",
      "street": "PTO CUSTÓDIO",
      "house": "4",
      "postcode": "2135-232",
      "city": "SAMORA CORREIA",
      "lon": "-8.872439277584917",
      "lat": "38.93446252547615"
    },
    {
      "id": "pt.ine.add.PTCONT.4605035",
      "street": "PTO CUSTÓDIO",
      "house": "3",
      "postcode": "2135-232",
      "city": "SAMORA CORREIA",
      "lon": "-8.872392681086854",
      "lat": "38.934417782129586"
    },
    {
      "id": "pt.ine.add.PTCONT.4605036",
      "street": "PTO CUSTÓDIO",
      "house": "2",
      "postcode": "2135-232",
      "city": "SAMORA CORREIA",
      "lon": "-8.872334832955811",
      "lat": "38.934400133105555"
    },
    {
      "id": "pt.ine.add.PTCONT.4651972",
      "street": "AV O SÉCULO",
      "house": "149F",
      "postcode": "2135-231",
      "city": "SAMORA CORREIA",
      "lon": "-8.873904626515914",
      "lat": "38.933417350016015"
    },
    {
      "id": "pt.ine.add.PTCONT.4651973",
      "street": "AV O SÉCULO",
      "house": "149F",
      "postcode": "2135-231",
      "city": "SAMORA CORREIA",
      "lon": "-8.873904626515914",
      "lat": "38.933417350016015"
    },
    {
      "id": "pt.ine.add.PTCONT.4651974",
      "street": "AV O SÉCULO",
      "house": "149F",
      "postcode": "2135-231",
      "city": "SAMORA CORREIA",
      "lon": "-8.873904626515914",
      "lat": "38.933417350016015"
    },
    {
      "id": "pt.ine.add.PTCONT.4651975",
      "street": "AV O SÉCULO",
      "house": "149F",
      "postcode": "2135-231",
      "city": "SAMORA CORREIA",
      "lon": "-8.873904626515914",
      "lat": "38.933417350016015"
    },
    {
      "id": "pt.ine.add.PTCONT.4652082",
      "street": "AV O SÉCULO",
      "house": "149F",
      "postcode": "2135-231",
      "city": "SAMORA CORREIA",
      "lon": "-8.873904626515914",
      "lat": "38.933417350016015"
    },
    {
      "id": "pt.ine.add.PTCONT.4652083",
      "street": "AV O SÉCULO",
      "house": "149F",
      "postcode": "2135-231",
      "city": "SAMORA CORREIA",
      "lon": "-8.873904626515914",
      "lat": "38.933417350016015"
    },
    {
      "id": "pt.ine.add.PTCONT.4656930",
      "street": "AV O SECULO",
      "house": "147",
      "postcode": "2135-231",
      "city": "SAMORA CORREIA",
      "lon": "-8.873581728906245",
      "lat": "38.93341939880293"
    },
    {
      "id": "pt.ine.add.PTCONT.4657439",
      "street": "BR LOPES E LIMA",
      "house": "",
      "postcode": "2135-240",
      "city": "SAMORA CORREIA",
      "lon": "-8.872871887754114",
      "lat": "38.933919322874644"
    },
    {
      "id": "pt.ine.add.PTCONT.4657560",
      "street": "BR LOPES E LIMA",
      "house": "",
      "postcode": "2135-240",
      "city": "SAMORA CORREIA",
      "lon": "-8.872871887754114",
      "lat": "38.933919322874644"
    },
    {
      "id": "pt.ine.add.PTCONT.4661894",
      "street": "AV O SÉCULO",
      "house": "147",
      "postcode": "2135-231",
      "city": "SAMORA CORREIA",
      "lon": "-8.873778991826104",
      "lat": "38.93353524731847"
    }
  ]
}