{
  "data": {
    "distrito": "Santarém",
    "concelho": "Abrantes",
    "freguesia": "União das freguesias de São Miguel do Rio Torto e Rossio ao Sul do Tejo",
    "OBJECTID": 437,
    "BGRI2021": "14012400303",
    "DT21": "14",
    "DTMN21": "1401",
    "DTMNFR21": "140124",
    "DTMNFRSEC21": "140124003",
    "SECNUM21": "003",
    "SSNUM21": "03",
    "SECSSNUM21": "00303",
    "OBJECTID_1": 147375,
    "DT": "14",
    "CC": "01",
    "fr": "24",
    "SEC": "003",
    "SS": "03"
  },
  "addresses": [
    {
      "id": "pt.ine.add.PTCONT.4391383",
      "street": "R CANAVIAIS QTA DO CAARITO",
      "house": "",
      "postcode": "2205-044",
      "city": "SÃO MIGUEL DO RIO TORTO",
      "lon": "-8.183762447337035",
      "lat": "39.4348245990009"
    },
    {
      "id": "pt.ine.add.PTCONT.4393750",
      "street": "R LINHA DO LESTE",
      "house": "358",
      "postcode": "2205-044",
      "city": "SÃO MIGUEL DO RIO TORTO",
      "lon": "-8.185213051654074",
      "lat": "39.433076584924926"
    },
    {
      "id": "pt.ine.add.PTCONT.4395847",
      "street": "R LINHA DO LESTE",
      "house": "",
      "postcode": "2205-044",
      "city": "SÃO MIGUEL DO RIO TORTO",
      "lon": "-8.184085632813336",
      "lat": "39.43202325596458"
    },
    {
      "id": "pt.ine.add.PTCONT.4409448",
      "street": "R MARIA LANCA",
      "house": "",
      "postcode": "2205-065",
      "city": "SÃO MIGUEL DO RIO TORTO",
      "lon": "-8.183155477177378",
      "lat": "39.430663590320016"
    },
    {
      "id": "pt.ine.add.PTCONT.4415683",
      "street": "R MARIA LANCA",
      "house": "56",
      "postcode": "2205-065",
      "city": "SÃO MIGUEL DO RIO TORTO",
      "lon": "-8.18115782901572",
      "lat": "39.43074549639226"
    },
    {
      "id": "pt.ine.add.PTCONT.4417069",
      "street": "R LINHA DO LESTE",
      "house": "158",
      "postcode": "2205-044",
      "city": "SÃO MIGUEL DO RIO TORTO",
      "lon": "-8.183771785798767",
      "lat": "39.43168112395209"
    },
    {
      "id": "pt.ine.add.PTCONT.4420552",
      "street": "R LINHA DO LESTE",
      "house": "300",
      "postcode": "2205-044",
      "city": "SÃO MIGUEL DO RIO TORTO",
      "lon": "-8.18444625293828",
      "lat": "39.43278869929276"
    },
    {
      "id": "pt.ine.add.PTCONT.4439083",
      "street": "R LINHA DO LESTE",
      "house": "",
      "postcode": "2205-044",
      "city": "SÃO MIGUEL DO RIO TORTO",
      "lon": "-8.185050408811627",
      "lat": "39.43303162226245"
    },
    {
      "id": "pt.ine.add.PTCONT.4440459",
      "street": "R DOS MUROS BRANCOS",
      "house": "",
      "postcode": "2205-064",
      "city": "ABRANTES",
      "lon": "-8.184181845861968",
      "lat": "39.43653576012478"
    },
    {
      "id": "pt.ine.add.PTCONT.4453482",
      "street": "R CANAVIAIS",
      "house": "",
      "postcode": "2205-044",
      "city": "SÃO MIGUEL DO RIO TORTO",
      "lon": "-8.185552357033034",
      "lat": "39.436373022933466"
    },
    {
      "id": "pt.ine.add.PTCONT.4461839",
      "street": "R MUROS BRANCOS",
      "house": "",
      "postcode": "2205-065",
      "city": "SÃO MIGUEL DO RIO TORTO",
      "lon": "-8.182100041145961",
      "lat": "39.43278971111394"
    },
    {
      "id": "pt.ine.add.PTCONT.4467934",
      "street": "R VINHAS",
      "house": "",
      "postcode": "2205-458",
      "city": "SÃO MIGUEL DO RIO TORTO",
      "lon": "-8.183205644418912",
      "lat": "39.43584263983569"
    },
    {
      "id": "pt.ine.add.PTCONT.4472287",
      "street": "R CANAVIAIS",
      "house": "",
      "postcode": "2205-044",
      "city": "SÃO MIGUEL DO RIO TORTO",
      "lon": "-8.184576561847733",
      "lat": "39.43624735973404"
    },
    {
      "id": "pt.ine.add.PTCONT.4484940",
      "street": "R MUROS BRANCOS",
      "house": "",
      "postcode": "2205-065",
      "city": "SÃO MIGUEL DO RIO TORTO",
      "lon": "-8.182565522736988",
      "lat": "39.43404149824857"
    },
    {
      "id": "pt.ine.add.PTCONT.4488494",
      "street": "R LINHA DO LESTE",
      "house": "336",
      "postcode": "2205-044",
      "city": "SÃO MIGUEL DO RIO TORTO",
      "lon": "-8.184980672358424",
      "lat": "39.43296860381768"
    },
    {
      "id": "pt.ine.add.PTCONT.4489743",
      "street": "R CANAVIAIS QTA DO CABRITO",
      "house": "",
      "postcode": "2205-044",
      "city": "SÃO MIGUEL DO RIO TORTO",
      "lon": "-8.183646301367158",
      "lat": "39.43483365659871"
    },
    {
      "id": "pt.ine.add.PTCONT.4495568",
      "street": "R MARIA LANCA",
      "house": "",
      "postcode": "2205-065",
      "city": "SÃO MIGUEL DO RIO TORTO",
      "lon": "-8.182609599370334",
      "lat": "39.43067283098167"
    },
    {
      "id": "pt.ine.add.PTCONT.4497496",
      "street": "R LINHA DO LESTE",
      "house": "",
      "postcode": "2205-044",
      "city": "SÃO MIGUEL DO RIO TORTO",
      "lon": "-8.18422513525581",
      "lat": "39.43219432930227"
    },
    {
      "id": "pt.ine.add.PTCONT.4505694",
      "street": "R CANAVIAIS",
      "house": "780",
      "postcode": "2205-044",
      "city": "SÃO MIGUEL DO RIO TORTO",
      "lon": "-8.185412613991964",
      "lat": "39.43589571084456"
    },
    {
      "id": "pt.ine.add.PTCONT.4507670",
      "street": "R CANAVIAIS",
      "house": "834",
      "postcode": "2205-044",
      "city": "SÃO MIGUEL DO RIO TORTO",
      "lon": "-8.185505834286177",
      "lat": "39.436291980221384"
    },
    {
      "id": "pt.ine.add.PTCONT.4507671",
      "street": "R CANAVIAIS",
      "house": "834",
      "postcode": "2205-044",
      "city": "SÃO MIGUEL DO RIO TORTO",
      "lon": "-8.185505834286177",
      "lat": "39.436291980221384"
    },
    {
      "id": "pt.ine.add.PTCONT.4519745",
      "street": "R LINHA DO LESTE QTA LUISA MARIA",
      "house": "284",
      "postcode": "2205-044",
      "city": "SÃO MIGUEL DO RIO TORTO",
      "lon": "-8.184631965440547",
      "lat": "39.43261748264258"
    },
    {
      "id": "pt.ine.add.PTCONT.4530558",
      "street": "R CANAVIAIS",
      "house": "",
      "postcode": "2205-044",
      "city": "SÃO MIGUEL DO RIO TORTO",
      "lon": "-8.184472075408541",
      "lat": "39.43631946252313"
    },
    {
      "id": "pt.ine.add.PTCONT.4532004",
      "street": "R CANAVIAIS",
      "house": "",
      "postcode": "2205-044",
      "city": "SÃO MIGUEL DO RIO TORTO",
      "lon": "-8.184692663543363",
      "lat": "39.43617525169977"
    },
    {
      "id": "pt.ine.add.PTCONT.4546115",
      "street": "R MUROS BRANCOS",
      "house": "456",
      "postcode": "2205-065",
      "city": "SÃO MIGUEL DO RIO TORTO",
      "lon": "-8.183471579748128",
      "lat": "39.43414919443112"
    },
    {
      "id": "pt.ine.add.PTCONT.4550640",
      "street": "R CANAVIAIS",
      "house": "",
      "postcode": "2205-044",
      "city": "SÃO MIGUEL DO RIO TORTO",
      "lon": "-8.185597163040411",
      "lat": "39.43416626885979"
    },
    {
      "id": "pt.ine.add.PTCONT.4555711",
      "street": "R CANAVIAIS",
      "house": "",
      "postcode": "2205-044",
      "city": "SÃO MIGUEL DO RIO TORTO",
      "lon": "-8.185529018014291",
      "lat": "39.43622892024749"
    },
    {
      "id": "pt.ine.add.PTCONT.4567551",
      "street": "R LINHA DO LESTE",
      "house": "326",
      "postcode": "2205-044",
      "city": "SÃO MIGUEL DO RIO TORTO",
      "lon": "-8.184934165888665",
      "lat": "39.43290557498291"
    },
    {
      "id": "pt.ine.add.PTCONT.4567558",
      "street": "R CANAVIAIS QTA DO CABRITO",
      "house": "",
      "postcode": "2205-044",
      "city": "SÃO MIGUEL DO RIO TORTO",
      "lon": "-8.183971593842768",
      "lat": "39.43492358559009"
    },
    {
      "id": "pt.ine.add.PTCONT.4579210",
      "street": "R LINHA DO LESTE",
      "house": "336 A",
      "postcode": "2205-044",
      "city": "SÃO MIGUEL DO RIO TORTO",
      "lon": "-8.183947073667458",
      "lat": "39.43314920175515"
    },
    {
      "id": "pt.ine.add.PTCONT.4586164",
      "street": "R LINHA DO LESTE",
      "house": "326",
      "postcode": "2205-044",
      "city": "SÃO MIGUEL DO RIO TORTO",
      "lon": "-8.184620609237388",
      "lat": "39.43296876382596"
    },
    {
      "id": "pt.ine.add.PTCONT.4600086",
      "street": "R LINHA DO LESTE",
      "house": "",
      "postcode": "2205-044",
      "city": "SÃO MIGUEL DO RIO TORTO",
      "lon": "-8.185317640049874",
      "lat": "39.433148594671906"
    },
    {
      "id": "pt.ine.add.PTCONT.4600778",
      "street": "R LINHA DO LESTE",
      "house": "",
      "postcode": "2205-044",
      "city": "SÃO MIGUEL DO RIO TORTO",
      "lon": "-8.182853979060832",
      "lat": "39.43133925092308"
    },
    {
      "id": "pt.ine.add.PTCONT.4602576",
      "street": "R LINHA DO LESTE",
      "house": "242",
      "postcode": "2205-044",
      "city": "SÃO MIGUEL DO RIO TORTO",
      "lon": "-8.18424845706393",
      "lat": "39.43232041819536"
    },
    {
      "id": "pt.ine.add.PTCONT.4611066",
      "street": "R MUROS BRANCOS QTA DA BACELADA",
      "house": "",
      "postcode": "2205-065",
      "city": "SÃO MIGUEL DO RIO TORTO",
      "lon": "-8.181937011161123",
      "lat": "39.432186305208646"
    },
    {
      "id": "pt.ine.add.PTCONT.4611067",
      "street": "R MUROS BRANCOS",
      "house": "836",
      "postcode": "2205-065",
      "city": "SÃO MIGUEL DO RIO TORTO",
      "lon": "-8.181041985713762",
      "lat": "39.431186891291816"
    },
    {
      "id": "pt.ine.add.PTCONT.4613203",
      "street": "R LINHA DO LESTE",
      "house": "",
      "postcode": "2205-044",
      "city": "SÃO MIGUEL DO RIO TORTO",
      "lon": "-8.18389973089453",
      "lat": "39.431933266464135"
    },
    {
      "id": "pt.ine.add.PTCONT.4615302",
      "street": "R CANAVIAIS",
      "house": "880",
      "postcode": "2205-044",
      "city": "SÃO MIGUEL DO RIO TORTO",
      "lon": "-8.185413132634908",
      "lat": "39.43658925542402"
    },
    {
      "id": "pt.ine.add.PTCONT.4619553",
      "street": "R CANAVIAIS",
      "house": "552",
      "postcode": "2205-044",
      "city": "SÃO MIGUEL DO RIO TORTO",
      "lon": "-8.185643265060571",
      "lat": "39.433688872856436"
    },
    {
      "id": "pt.ine.add.PTCONT.4627566",
      "street": "R CANAVIAIS",
      "house": "802",
      "postcode": "2205-044",
      "city": "SÃO MIGUEL DO RIO TORTO",
      "lon": "-8.18554056597436",
      "lat": "39.436138844286944"
    },
    {
      "id": "pt.ine.add.PTCONT.4636089",
      "street": "R LINHA DO LESTE",
      "house": "148",
      "postcode": "2205-044",
      "city": "SÃO MIGUEL DO RIO TORTO",
      "lon": "-8.183527831113786",
      "lat": "39.431618180369796"
    },
    {
      "id": "pt.ine.add.PTCONT.4643348",
      "street": "R PARALELA A LINHA DO LESTE",
      "house": "",
      "postcode": "2205-044",
      "city": "SÃO MIGUEL DO RIO TORTO",
      "lon": "-8.183550885186087",
      "lat": "39.43137497913628"
    },
    {
      "id": "pt.ine.add.PTCONT.4643349",
      "street": "R CANAVIAIS",
      "house": "748",
      "postcode": "2205-044",
      "city": "SÃO MIGUEL DO RIO TORTO",
      "lon": "-8.185412283955785",
      "lat": "39.43545436425083"
    },
    {
      "id": "pt.ine.add.PTCONT.4648351",
      "street": "R LINHA DO LESTE",
      "house": "",
      "postcode": "2205-044",
      "city": "SÃO MIGUEL DO RIO TORTO",
      "lon": "-8.185457087085469",
      "lat": "39.433238602801886"
    },
    {
      "id": "pt.ine.add.PTCONT.4661339",
      "street": "R LINHA DO LESTE",
      "house": "",
      "postcode": "2205-044",
      "city": "SÃO MIGUEL DO RIO TORTO",
      "lon": "-8.184178623406279",
      "lat": "39.4321222930772"
    }
  ]
}