{
  "data": {
    "distrito": "Santarém",
    "concelho": "Abrantes",
    "freguesia": "União das freguesias de São Miguel do Rio Torto e Rossio ao Sul do Tejo",
    "OBJECTID": 412,
    "BGRI2021": "14012400312",
    "DT21": "14",
    "DTMN21": "1401",
    "DTMNFR21": "140124",
    "DTMNFRSEC21": "140124003",
    "SECNUM21": "003",
    "SSNUM21": "12",
    "SECSSNUM21": "00312",
    "OBJECTID_1": 146496,
    "DT": "14",
    "CC": "01",
    "fr": "24",
    "SEC": "003",
    "SS": "12"
  },
  "addresses": [
    {
      "id": "pt.ine.add.PTCONT.4392551",
      "street": "R SRA ROSARIO",
      "house": "426",
      "postcode": "2205-063",
      "city": "ABRANTES",
      "lon": "-8.18441609910778",
      "lat": "39.43918373649646"
    },
    {
      "id": "pt.ine.add.PTCONT.4395838",
      "street": "ESTR CABRITO",
      "house": "758",
      "postcode": "2205-009",
      "city": "ABRANTES",
      "lon": "-8.18843848181625",
      "lat": "39.44329812257721"
    },
    {
      "id": "pt.ine.add.PTCONT.4397952",
      "street": "AV EGAS MONIZ",
      "house": "",
      "postcode": "2205-076",
      "city": "ABRANTES",
      "lon": "-8.187661676804058",
      "lat": "39.44523500804379"
    },
    {
      "id": "pt.ine.add.PTCONT.4397953",
      "street": "AV EGAS MONIZ",
      "house": "",
      "postcode": "2205-076",
      "city": "ABRANTES",
      "lon": "-8.187661676804058",
      "lat": "39.44523500804379"
    },
    {
      "id": "pt.ine.add.PTCONT.4397954",
      "street": "AV EGAS MONIZ",
      "house": "",
      "postcode": "2205-076",
      "city": "ABRANTES",
      "lon": "-8.187661676804058",
      "lat": "39.44523500804379"
    },
    {
      "id": "pt.ine.add.PTCONT.4397955",
      "street": "AV EGAS MONIZ",
      "house": "",
      "postcode": "2205-076",
      "city": "ABRANTES",
      "lon": "-8.187661676804058",
      "lat": "39.44523500804379"
    },
    {
      "id": "pt.ine.add.PTCONT.4397966",
      "street": "ESTR CABRITO",
      "house": "",
      "postcode": "2205-009",
      "city": "ABRANTES",
      "lon": "-8.18710034112681",
      "lat": "39.440416490078086"
    },
    {
      "id": "pt.ine.add.PTCONT.4401916",
      "street": "AV EGAS MONIZ",
      "house": "",
      "postcode": "2205-076",
      "city": "ABRANTES",
      "lon": "-8.187870965790765",
      "lat": "39.44546909328696"
    },
    {
      "id": "pt.ine.add.PTCONT.4401917",
      "street": "AV EGAS MONIZ",
      "house": "",
      "postcode": "2205-076",
      "city": "ABRANTES",
      "lon": "-8.187870965790765",
      "lat": "39.44546909328696"
    },
    {
      "id": "pt.ine.add.PTCONT.4401918",
      "street": "AV EGAS MONIZ",
      "house": "",
      "postcode": "2205-076",
      "city": "ABRANTES",
      "lon": "-8.187870965790765",
      "lat": "39.44546909328696"
    },
    {
      "id": "pt.ine.add.PTCONT.4401927",
      "street": "R SRA ROSARIO",
      "house": "924",
      "postcode": "2205-063",
      "city": "ABRANTES",
      "lon": "-8.184323204314957",
      "lat": "39.43922881279005"
    },
    {
      "id": "pt.ine.add.PTCONT.4403416",
      "street": "AV EGAS MONIZ",
      "house": "",
      "postcode": "2205-076",
      "city": "ABRANTES",
      "lon": "-8.187870965790765",
      "lat": "39.44546909328696"
    },
    {
      "id": "pt.ine.add.PTCONT.4403686",
      "street": "ESTR CABRITO",
      "house": "49",
      "postcode": "2205-009",
      "city": "ABRANTES",
      "lon": "-8.188031262207716",
      "lat": "39.442487679719605"
    },
    {
      "id": "pt.ine.add.PTCONT.4403687",
      "street": "ESTR CABRITO",
      "house": "49",
      "postcode": "2205-009",
      "city": "ABRANTES",
      "lon": "-8.188031262207716",
      "lat": "39.442487679719605"
    },
    {
      "id": "pt.ine.add.PTCONT.4403688",
      "street": "ESTR CABRITO",
      "house": "49",
      "postcode": "2205-009",
      "city": "ABRANTES",
      "lon": "-8.188031262207716",
      "lat": "39.442487679719605"
    },
    {
      "id": "pt.ine.add.PTCONT.4410396",
      "street": "ESTR CABRITO",
      "house": "632",
      "postcode": "2205-009",
      "city": "ABRANTES",
      "lon": "-8.188135910115198",
      "lat": "39.44261372917714"
    },
    {
      "id": "pt.ine.add.PTCONT.4410397",
      "street": "ESTR CABRITO",
      "house": "",
      "postcode": "2205-009",
      "city": "ABRANTES",
      "lon": "-8.188753142121179",
      "lat": "39.444567968415136"
    },
    {
      "id": "pt.ine.add.PTCONT.4410398",
      "street": "ESTR CABRITO",
      "house": "",
      "postcode": "2205-009",
      "city": "ABRANTES",
      "lon": "-8.188753142121179",
      "lat": "39.444567968415136"
    },
    {
      "id": "pt.ine.add.PTCONT.4410399",
      "street": "ESTR CABRITO",
      "house": "914",
      "postcode": "2205-009",
      "city": "ABRANTES",
      "lon": "-8.188857772902775",
      "lat": "39.444666995998304"
    },
    {
      "id": "pt.ine.add.PTCONT.4410400",
      "street": "ESTR CABRITO",
      "house": "914",
      "postcode": "2205-009",
      "city": "ABRANTES",
      "lon": "-8.188857772902775",
      "lat": "39.444666995998304"
    },
    {
      "id": "pt.ine.add.PTCONT.4410405",
      "street": "ESTR CABRITO",
      "house": "",
      "postcode": "2205-009",
      "city": "ABRANTES",
      "lon": "-8.188857772902775",
      "lat": "39.444666995998304"
    },
    {
      "id": "pt.ine.add.PTCONT.4410406",
      "street": "ESTR CABRITO",
      "house": "",
      "postcode": "2205-009",
      "city": "ABRANTES",
      "lon": "-8.188857772902775",
      "lat": "39.444666995998304"
    },
    {
      "id": "pt.ine.add.PTCONT.4410407",
      "street": "ESTR CABRITO",
      "house": "914",
      "postcode": "2205-009",
      "city": "ABRANTES",
      "lon": "-8.188857772902775",
      "lat": "39.444666995998304"
    },
    {
      "id": "pt.ine.add.PTCONT.4410408",
      "street": "ESTR CABRITO",
      "house": "914",
      "postcode": "2205-009",
      "city": "ABRANTES",
      "lon": "-8.188857772902775",
      "lat": "39.444666995998304"
    },
    {
      "id": "pt.ine.add.PTCONT.4410409",
      "street": "ESTR CABRITO",
      "house": "914",
      "postcode": "2205-009",
      "city": "ABRANTES",
      "lon": "-8.188857772902775",
      "lat": "39.444666995998304"
    },
    {
      "id": "pt.ine.add.PTCONT.4410410",
      "street": "ESTR CABRITO",
      "house": "914",
      "postcode": "2205-009",
      "city": "ABRANTES",
      "lon": "-8.188857772902775",
      "lat": "39.444666995998304"
    },
    {
      "id": "pt.ine.add.PTCONT.4411818",
      "street": "ESTR CABRITO",
      "house": "",
      "postcode": "2205-009",
      "city": "ABRANTES",
      "lon": "-8.188753142121179",
      "lat": "39.444567968415136"
    },
    {
      "id": "pt.ine.add.PTCONT.4411910",
      "street": "ESTR CABRITO",
      "house": "906",
      "postcode": "2205-009",
      "city": "ABRANTES",
      "lon": "-8.188753142121179",
      "lat": "39.444567968415136"
    },
    {
      "id": "pt.ine.add.PTCONT.4415140",
      "street": "ESTR CABRITO",
      "house": "650",
      "postcode": "2205-009",
      "city": "ABRANTES",
      "lon": "-8.187984725445036",
      "lat": "39.442397631026786"
    },
    {
      "id": "pt.ine.add.PTCONT.4415141",
      "street": "ESTR CABRITO",
      "house": "650",
      "postcode": "2205-009",
      "city": "ABRANTES",
      "lon": "-8.187984725445036",
      "lat": "39.442397631026786"
    },
    {
      "id": "pt.ine.add.PTCONT.4417246",
      "street": "URB TRAJOS SERRADO",
      "house": "45",
      "postcode": "2205-076",
      "city": "ABRANTES",
      "lon": "-8.188905692345854",
      "lat": "39.446486399320534"
    },
    {
      "id": "pt.ine.add.PTCONT.4417247",
      "street": "AV EGAS MONIZ",
      "house": "45",
      "postcode": "2205-076",
      "city": "ABRANTES",
      "lon": "-8.188905692345854",
      "lat": "39.446486399320534"
    },
    {
      "id": "pt.ine.add.PTCONT.4417248",
      "street": "R ESTALAGEM NOVA",
      "house": "",
      "postcode": "2205-076",
      "city": "ABRANTES",
      "lon": "-8.188905692345854",
      "lat": "39.446486399320534"
    },
    {
      "id": "pt.ine.add.PTCONT.4417249",
      "street": "URB QUINTA TRAJES SERRADOS",
      "house": "45",
      "postcode": "2205-005",
      "city": "ABRANTES",
      "lon": "-8.188905692345854",
      "lat": "39.446486399320534"
    },
    {
      "id": "pt.ine.add.PTCONT.4417250",
      "street": "R SRA ROSARIO",
      "house": "768",
      "postcode": "2205-063",
      "city": "ABRANTES",
      "lon": "-8.18313909611186",
      "lat": "39.440238119984656"
    },
    {
      "id": "pt.ine.add.PTCONT.4420536",
      "street": "ESTR CABRITO",
      "house": "184",
      "postcode": "2205-009",
      "city": "ABRANTES",
      "lon": "-8.186123100678879",
      "lat": "39.43846240529193"
    },
    {
      "id": "pt.ine.add.PTCONT.4420537",
      "street": "ESTR CABRITO",
      "house": "",
      "postcode": "2205-009",
      "city": "ABRANTES",
      "lon": "-8.186123100678879",
      "lat": "39.43846240529193"
    },
    {
      "id": "pt.ine.add.PTCONT.4420538",
      "street": "ESTR CABRITO",
      "house": "",
      "postcode": "2205-009",
      "city": "ABRANTES",
      "lon": "-8.186123100678879",
      "lat": "39.43846240529193"
    },
    {
      "id": "pt.ine.add.PTCONT.4420546",
      "street": "ESTR CABRITO",
      "house": "772",
      "postcode": "2205-009",
      "city": "ABRANTES",
      "lon": "-8.18849662929837",
      "lat": "39.44337915848155"
    },
    {
      "id": "pt.ine.add.PTCONT.4426762",
      "street": "R SRA ROSARIO",
      "house": "1056",
      "postcode": "2205-063",
      "city": "ABRANTES",
      "lon": "-8.185333128610141",
      "lat": "39.43833666364921"
    },
    {
      "id": "pt.ine.add.PTCONT.4426772",
      "street": "ESTR CABRITO",
      "house": "274",
      "postcode": "2205-009",
      "city": "ABRANTES",
      "lon": "-8.18647216726786",
      "lat": "39.4392368538135"
    },
    {
      "id": "pt.ine.add.PTCONT.4436561",
      "street": "AV EGAZ MONIZ",
      "house": "37",
      "postcode": "2205-076",
      "city": "ABRANTES",
      "lon": "-8.18821988801033",
      "lat": "39.44599133800166"
    },
    {
      "id": "pt.ine.add.PTCONT.4436562",
      "street": "AV EGAS MONIZ",
      "house": "37",
      "postcode": "2205-076",
      "city": "ABRANTES",
      "lon": "-8.18821988801033",
      "lat": "39.44599133800166"
    },
    {
      "id": "pt.ine.add.PTCONT.4436563",
      "street": "AV EGAS MONIZ",
      "house": "37",
      "postcode": "2205-076",
      "city": "ABRANTES",
      "lon": "-8.18821988801033",
      "lat": "39.44599133800166"
    },
    {
      "id": "pt.ine.add.PTCONT.4436564",
      "street": "AV EGAS MONIZ",
      "house": "37",
      "postcode": "2205-076",
      "city": "ABRANTES",
      "lon": "-8.18821988801033",
      "lat": "39.44599133800166"
    },
    {
      "id": "pt.ine.add.PTCONT.4439058",
      "street": "ESTR CABRITO",
      "house": "11",
      "postcode": "2205-009",
      "city": "ABRANTES",
      "lon": "-8.188775730484958",
      "lat": "39.44375732192825"
    },
    {
      "id": "pt.ine.add.PTCONT.4445221",
      "street": "AV EGAS MONIZ",
      "house": "",
      "postcode": "2205-076",
      "city": "ABRANTES",
      "lon": "-8.186301668303207",
      "lat": "39.44415479048909"
    },
    {
      "id": "pt.ine.add.PTCONT.4445235",
      "street": "ESTR CABRITO",
      "house": "748",
      "postcode": "2205-009",
      "city": "ABRANTES",
      "lon": "-8.18842680103224",
      "lat": "39.44321706455258"
    },
    {
      "id": "pt.ine.add.PTCONT.4453423",
      "street": "LG ESTRADA CABRITO",
      "house": "958",
      "postcode": "2205-009",
      "city": "ABRANTES",
      "lon": "-8.186335003484281",
      "lat": "39.44216421393586"
    },
    {
      "id": "pt.ine.add.PTCONT.4453424",
      "street": "ESTR CABRITO",
      "house": "958",
      "postcode": "2205-009",
      "city": "ABRANTES",
      "lon": "-8.186335003484281",
      "lat": "39.44216421393586"
    },
    {
      "id": "pt.ine.add.PTCONT.4453425",
      "street": "ESTR CABRITO",
      "house": "1 958",
      "postcode": "2205-009",
      "city": "ABRANTES",
      "lon": "-8.186335003484281",
      "lat": "39.44216421393586"
    },
    {
      "id": "pt.ine.add.PTCONT.4453426",
      "street": "ESTR CABRITO",
      "house": "958",
      "postcode": "2205-009",
      "city": "ABRANTES",
      "lon": "-8.186335003484281",
      "lat": "39.44216421393586"
    },
    {
      "id": "pt.ine.add.PTCONT.4453427",
      "street": "ESTR CABRITO",
      "house": "958 L1",
      "postcode": "2205-009",
      "city": "ABRANTES",
      "lon": "-8.186335003484281",
      "lat": "39.44216421393586"
    },
    {
      "id": "pt.ine.add.PTCONT.4453428",
      "street": "ESTR CABRITO",
      "house": "958",
      "postcode": "2205-009",
      "city": "ABRANTES",
      "lon": "-8.186335003484281",
      "lat": "39.44216421393586"
    },
    {
      "id": "pt.ine.add.PTCONT.4453429",
      "street": "ESTR CABRITO",
      "house": "1 958",
      "postcode": "2205-009",
      "city": "ABRANTES",
      "lon": "-8.186335003484281",
      "lat": "39.44216421393586"
    },
    {
      "id": "pt.ine.add.PTCONT.4453458",
      "street": "LG CABRITO",
      "house": "144",
      "postcode": "2205-062",
      "city": "ABRANTES",
      "lon": "-8.185820912033961",
      "lat": "39.43822835875201"
    },
    {
      "id": "pt.ine.add.PTCONT.4453472",
      "street": "ESTR CABRITO",
      "house": "732",
      "postcode": "2205-009",
      "city": "ABRANTES",
      "lon": "-8.188287259191817",
      "lat": "39.4430369895401"
    },
    {
      "id": "pt.ine.add.PTCONT.4453473",
      "street": "ESTR CABRITO",
      "house": "732",
      "postcode": "2205-009",
      "city": "ABRANTES",
      "lon": "-8.188287259191817",
      "lat": "39.4430369895401"
    },
    {
      "id": "pt.ine.add.PTCONT.4456246",
      "street": "ESTR CABRITO",
      "house": "",
      "postcode": "2205-009",
      "city": "ABRANTES",
      "lon": "-8.189089793239166",
      "lat": "39.444270573803486"
    },
    {
      "id": "pt.ine.add.PTCONT.4461816",
      "street": "AV EGAS MONIZ",
      "house": "",
      "postcode": "2205-076",
      "city": "ABRANTES",
      "lon": "-8.186731897330523",
      "lat": "39.44468600963995"
    },
    {
      "id": "pt.ine.add.PTCONT.4465707",
      "street": "R SRA ROSARIO",
      "house": "900",
      "postcode": "2205-063",
      "city": "ABRANTES",
      "lon": "-8.184114195519918",
      "lat": "39.43933698947924"
    },
    {
      "id": "pt.ine.add.PTCONT.4469275",
      "street": "R SENHORA DO ROSÁRIO",
      "house": "",
      "postcode": "2205-063",
      "city": "ABRANTES",
      "lon": "-8.183592262384801",
      "lat": "39.44042707263594"
    },
    {
      "id": "pt.ine.add.PTCONT.4469276",
      "street": "R SENHORA DO ROSÁRIO",
      "house": "1048",
      "postcode": "2205-063",
      "city": "ABRANTES",
      "lon": "-8.1852866988866",
      "lat": "39.43838171984714"
    },
    {
      "id": "pt.ine.add.PTCONT.4473284",
      "street": "R SRA ROSARIO",
      "house": "1060",
      "postcode": "2205-063",
      "city": "ABRANTES",
      "lon": "-8.185402783185518",
      "lat": "39.438282589920924"
    },
    {
      "id": "pt.ine.add.PTCONT.4477955",
      "street": "AV EGAS MONIZ",
      "house": "",
      "postcode": "2205-076",
      "city": "ABRANTES",
      "lon": "-8.187591757375301",
      "lat": "39.44495582190468"
    },
    {
      "id": "pt.ine.add.PTCONT.4477956",
      "street": "AV EGAS MONIZ",
      "house": "",
      "postcode": "2205-076",
      "city": "ABRANTES",
      "lon": "-8.187591757375301",
      "lat": "39.44495582190468"
    },
    {
      "id": "pt.ine.add.PTCONT.4477957",
      "street": "AV EGAS MONIZ",
      "house": "",
      "postcode": "2205-076",
      "city": "ABRANTES",
      "lon": "-8.187591757375301",
      "lat": "39.44495582190468"
    },
    {
      "id": "pt.ine.add.PTCONT.4477958",
      "street": "ESTR CABRITO",
      "house": "250",
      "postcode": "2205-009",
      "city": "ABRANTES",
      "lon": "-8.186472071049435",
      "lat": "39.43911075486495"
    },
    {
      "id": "pt.ine.add.PTCONT.4479722",
      "street": "AV EGAS MONIZ",
      "house": "",
      "postcode": "2205-076",
      "city": "ABRANTES",
      "lon": "-8.187591757375301",
      "lat": "39.44495582190468"
    },
    {
      "id": "pt.ine.add.PTCONT.4484930",
      "street": "ESTR CABRITO",
      "house": "692",
      "postcode": "2205-009",
      "city": "ABRANTES",
      "lon": "-8.188147590460447",
      "lat": "39.44269478723974"
    },
    {
      "id": "pt.ine.add.PTCONT.4489966",
      "street": "ESTR CABRITO",
      "house": "",
      "postcode": "2205-009",
      "city": "ABRANTES",
      "lon": "-8.18700733535824",
      "lat": "39.440317455453176"
    },
    {
      "id": "pt.ine.add.PTCONT.4492457",
      "street": "R SENHORA DO ROSÁRIO",
      "house": "",
      "postcode": "2205-063",
      "city": "ABRANTES",
      "lon": "-8.183800720287216",
      "lat": "39.43955329621139"
    },
    {
      "id": "pt.ine.add.PTCONT.4509293",
      "street": "R EGAS MONIZ",
      "house": "32",
      "postcode": "2205-076",
      "city": "ABRANTES",
      "lon": "-8.187766328163159",
      "lat": "39.44536105777172"
    },
    {
      "id": "pt.ine.add.PTCONT.4509294",
      "street": "AV EGAS MONIZ",
      "house": "",
      "postcode": "2205-076",
      "city": "ABRANTES",
      "lon": "-8.187766328163159",
      "lat": "39.44536105777172"
    },
    {
      "id": "pt.ine.add.PTCONT.4509295",
      "street": "AV EGAS MONIZ",
      "house": "",
      "postcode": "2205-076",
      "city": "ABRANTES",
      "lon": "-8.187766328163159",
      "lat": "39.44536105777172"
    },
    {
      "id": "pt.ine.add.PTCONT.4511152",
      "street": "AV EGAS MONIZ",
      "house": "",
      "postcode": "2205-076",
      "city": "ABRANTES",
      "lon": "-8.187766328163159",
      "lat": "39.44536105777172"
    },
    {
      "id": "pt.ine.add.PTCONT.4526009",
      "street": "R SENHORA DO ROSÁRIO",
      "house": "",
      "postcode": "2205-063",
      "city": "ABRANTES",
      "lon": "-8.18484559687191",
      "lat": "39.43878723511631"
    },
    {
      "id": "pt.ine.add.PTCONT.4533118",
      "street": "ESTR CABRITO",
      "house": "720",
      "postcode": "2205-009",
      "city": "ABRANTES",
      "lon": "-8.188240721733198",
      "lat": "39.44294694095869"
    },
    {
      "id": "pt.ine.add.PTCONT.4533119",
      "street": "ESTR CABRITO",
      "house": "720",
      "postcode": "2205-009",
      "city": "ABRANTES",
      "lon": "-8.188240721733198",
      "lat": "39.44294694095869"
    },
    {
      "id": "pt.ine.add.PTCONT.4533953",
      "street": "AV EGAS MONIZ",
      "house": "",
      "postcode": "2205-076",
      "city": "ABRANTES",
      "lon": "-8.188057043307001",
      "lat": "39.445730210293895"
    },
    {
      "id": "pt.ine.add.PTCONT.4533954",
      "street": "AV EGAS MONIZ",
      "house": "",
      "postcode": "2205-076",
      "city": "ABRANTES",
      "lon": "-8.188057043307001",
      "lat": "39.445730210293895"
    },
    {
      "id": "pt.ine.add.PTCONT.4533955",
      "street": "AV EGAS MONIZ",
      "house": "",
      "postcode": "2205-076",
      "city": "ABRANTES",
      "lon": "-8.188057043307001",
      "lat": "39.445730210293895"
    },
    {
      "id": "pt.ine.add.PTCONT.4535744",
      "street": "AV EGAS MONIZ",
      "house": "",
      "postcode": "2205-076",
      "city": "ABRANTES",
      "lon": "-8.188057043307001",
      "lat": "39.445730210293895"
    },
    {
      "id": "pt.ine.add.PTCONT.4536407",
      "street": "AV EGAS MONIZ",
      "house": "",
      "postcode": "2205-076",
      "city": "ABRANTES",
      "lon": "-8.18758025973301",
      "lat": "39.44510894734004"
    },
    {
      "id": "pt.ine.add.PTCONT.4536408",
      "street": "AV EGAS MONIZ",
      "house": "",
      "postcode": "2205-076",
      "city": "ABRANTES",
      "lon": "-8.18758025973301",
      "lat": "39.44510894734004"
    },
    {
      "id": "pt.ine.add.PTCONT.4536409",
      "street": "AV EGAS MONIZ",
      "house": "",
      "postcode": "2205-076",
      "city": "ABRANTES",
      "lon": "-8.18758025973301",
      "lat": "39.44510894734004"
    },
    {
      "id": "pt.ine.add.PTCONT.4536410",
      "street": "AV EGAS MONIZ",
      "house": "",
      "postcode": "2205-076",
      "city": "ABRANTES",
      "lon": "-8.18758025973301",
      "lat": "39.44510894734004"
    },
    {
      "id": "pt.ine.add.PTCONT.4536418",
      "street": "AV EGAS MONIZ",
      "house": "",
      "postcode": "2205-076",
      "city": "ABRANTES",
      "lon": "-8.186754571356769",
      "lat": "39.44395642708906"
    },
    {
      "id": "pt.ine.add.PTCONT.4538444",
      "street": "R SENHORA DO ROSÁRIO",
      "house": "",
      "postcode": "2205-063",
      "city": "ABRANTES",
      "lon": "-8.183452505135893",
      "lat": "39.43992273732145"
    },
    {
      "id": "pt.ine.add.PTCONT.4538450",
      "street": "ESTR CABRITO",
      "house": "",
      "postcode": "2205-009",
      "city": "ABRANTES",
      "lon": "-8.185658189141387",
      "lat": "39.43809332629287"
    },
    {
      "id": "pt.ine.add.PTCONT.4545361",
      "street": "ESTR CABRITO",
      "house": "",
      "postcode": "2205-009",
      "city": "ABRANTES",
      "lon": "-8.186763133411663",
      "lat": "39.43997529971913"
    },
    {
      "id": "pt.ine.add.PTCONT.4550611",
      "street": "R SENHORA DO ROSÁRIO",
      "house": "826",
      "postcode": "2205-063",
      "city": "ABRANTES",
      "lon": "-8.183708137417721",
      "lat": "39.440030711234584"
    },
    {
      "id": "pt.ine.add.PTCONT.4552746",
      "street": "R SENHORA DO ROSÁRIO",
      "house": "906",
      "postcode": "2205-063",
      "city": "ABRANTES",
      "lon": "-8.184218699998288",
      "lat": "39.439282901181784"
    },
    {
      "id": "pt.ine.add.PTCONT.4552768",
      "street": "ESTR CABRITO",
      "house": "938",
      "postcode": "2205-009",
      "city": "ABRANTES",
      "lon": "-8.188904355427683",
      "lat": "39.44481108665679"
    },
    {
      "id": "pt.ine.add.PTCONT.4552769",
      "street": "ESTR CABRITO",
      "house": "938",
      "postcode": "2205-009",
      "city": "ABRANTES",
      "lon": "-8.188904355427683",
      "lat": "39.44481108665679"
    },
    {
      "id": "pt.ine.add.PTCONT.4552770",
      "street": "ESTR CABRITO",
      "house": "938",
      "postcode": "2205-009",
      "city": "ABRANTES",
      "lon": "-8.188904355427683",
      "lat": "39.44481108665679"
    },
    {
      "id": "pt.ine.add.PTCONT.4552771",
      "street": "ESTR CABRITO",
      "house": "2",
      "postcode": "2205-009",
      "city": "ABRANTES",
      "lon": "-8.188904355427683",
      "lat": "39.44481108665679"
    },
    {
      "id": "pt.ine.add.PTCONT.4552772",
      "street": "ESTR CABRITO",
      "house": "938",
      "postcode": "2205-009",
      "city": "ABRANTES",
      "lon": "-8.188904355427683",
      "lat": "39.44481108665679"
    },
    {
      "id": "pt.ine.add.PTCONT.4552773",
      "street": "ESTR CABRITO",
      "house": "",
      "postcode": "2205-009",
      "city": "ABRANTES",
      "lon": "-8.188904355427683",
      "lat": "39.44481108665679"
    },
    {
      "id": "pt.ine.add.PTCONT.4554078",
      "street": "ESTR CABRITO",
      "house": "938",
      "postcode": "2205-009",
      "city": "ABRANTES",
      "lon": "-8.188904355427683",
      "lat": "39.44481108665679"
    },
    {
      "id": "pt.ine.add.PTCONT.4554148",
      "street": "ESTR CABRITO",
      "house": "2",
      "postcode": "2205-009",
      "city": "ABRANTES",
      "lon": "-8.188904355427683",
      "lat": "39.44481108665679"
    },
    {
      "id": "pt.ine.add.PTCONT.4561201",
      "street": "ESTR CABRITO",
      "house": "160",
      "postcode": "2205-009",
      "city": "ABRANTES",
      "lon": "-8.18598359469716",
      "lat": "39.43830934856521"
    },
    {
      "id": "pt.ine.add.PTCONT.4561202",
      "street": "ESTR CABRITO",
      "house": "310",
      "postcode": "2205-009",
      "city": "ABRANTES",
      "lon": "-8.186542097128987",
      "lat": "39.43954306210949"
    },
    {
      "id": "pt.ine.add.PTCONT.4567509",
      "street": "AV EGAS MONIZ",
      "house": "",
      "postcode": "2205-076",
      "city": "ABRANTES",
      "lon": "-8.188138461961994",
      "lat": "39.44585627064927"
    },
    {
      "id": "pt.ine.add.PTCONT.4567510",
      "street": "AV EGAS MONIZ",
      "house": "",
      "postcode": "2205-076",
      "city": "ABRANTES",
      "lon": "-8.188138461961994",
      "lat": "39.44585627064927"
    },
    {
      "id": "pt.ine.add.PTCONT.4567511",
      "street": "AV EGAS MONIZ",
      "house": "",
      "postcode": "2205-076",
      "city": "ABRANTES",
      "lon": "-8.188138461961994",
      "lat": "39.44585627064927"
    },
    {
      "id": "pt.ine.add.PTCONT.4567519",
      "street": "AV EGAS MONIZ",
      "house": "",
      "postcode": "2205-076",
      "city": "ABRANTES",
      "lon": "-8.188138461961994",
      "lat": "39.44585627064927"
    },
    {
      "id": "pt.ine.add.PTCONT.4602416",
      "street": "ESTR CABRITO",
      "house": "",
      "postcode": "2205-009",
      "city": "ABRANTES",
      "lon": "-8.18593710417835",
      "lat": "39.438273341400205"
    },
    {
      "id": "pt.ine.add.PTCONT.4602417",
      "street": "ESTR CABRITO",
      "house": "704",
      "postcode": "2205-009",
      "city": "ABRANTES",
      "lon": "-8.188182518155873",
      "lat": "39.442793848425374"
    },
    {
      "id": "pt.ine.add.PTCONT.4604303",
      "street": "ESTR CABRITO",
      "house": "",
      "postcode": "2205-009",
      "city": "ABRANTES",
      "lon": "-8.189043225103923",
      "lat": "39.44414449732516"
    },
    {
      "id": "pt.ine.add.PTCONT.4611048",
      "street": "R SRA ROSARIO",
      "house": "",
      "postcode": "2205-063",
      "city": "ABRANTES",
      "lon": "-8.184717988078424",
      "lat": "39.43901246859042"
    },
    {
      "id": "pt.ine.add.PTCONT.4613175",
      "street": "ESTR CABRITO",
      "house": "",
      "postcode": "2205-009",
      "city": "ABRANTES",
      "lon": "-8.186335003484281",
      "lat": "39.44216421393586"
    },
    {
      "id": "pt.ine.add.PTCONT.4613184",
      "street": "AV EGAS MONIZ",
      "house": "",
      "postcode": "2205-076",
      "city": "ABRANTES",
      "lon": "-8.187742721160358",
      "lat": "39.444883694596335"
    },
    {
      "id": "pt.ine.add.PTCONT.4613185",
      "street": "AV EGAS MONIZ",
      "house": "",
      "postcode": "2205-076",
      "city": "ABRANTES",
      "lon": "-8.187742721160358",
      "lat": "39.444883694596335"
    },
    {
      "id": "pt.ine.add.PTCONT.4613187",
      "street": "AV EGAS MONIZ",
      "house": "",
      "postcode": "2205-076",
      "city": "ABRANTES",
      "lon": "-8.187742721160358",
      "lat": "39.444883694596335"
    },
    {
      "id": "pt.ine.add.PTCONT.4613188",
      "street": "AV EGAS MONIZ",
      "house": "",
      "postcode": "2205-076",
      "city": "ABRANTES",
      "lon": "-8.187742721160358",
      "lat": "39.444883694596335"
    },
    {
      "id": "pt.ine.add.PTCONT.4615287",
      "street": "ESTR CABRITO",
      "house": "198",
      "postcode": "2205-009",
      "city": "ABRANTES",
      "lon": "-8.186181248287324",
      "lat": "39.438552449494644"
    },
    {
      "id": "pt.ine.add.PTCONT.4615288",
      "street": "ESTR CABRITO",
      "house": "198",
      "postcode": "2205-009",
      "city": "ABRANTES",
      "lon": "-8.186181248287324",
      "lat": "39.438552449494644"
    },
    {
      "id": "pt.ine.add.PTCONT.4618549",
      "street": "ESTR CABRITO",
      "house": "",
      "postcode": "2205-009",
      "city": "ABRANTES",
      "lon": "-8.18691432292321",
      "lat": "39.440209413685956"
    },
    {
      "id": "pt.ine.add.PTCONT.4619524",
      "street": "ESTR CABRITO",
      "house": "",
      "postcode": "2205-009",
      "city": "ABRANTES",
      "lon": "-8.186670032130214",
      "lat": "39.43975016588209"
    },
    {
      "id": "pt.ine.add.PTCONT.4621684",
      "street": "ESTR CABRITO",
      "house": "",
      "postcode": "2205-009",
      "city": "ABRANTES",
      "lon": "-8.185797639694783",
      "lat": "39.43817432686155"
    },
    {
      "id": "pt.ine.add.PTCONT.4623691",
      "street": "ESTR CABRITO",
      "house": "",
      "postcode": "2205-009",
      "city": "ABRANTES",
      "lon": "-8.187146861509827",
      "lat": "39.440488525026026"
    },
    {
      "id": "pt.ine.add.PTCONT.4626418",
      "street": "AV EGAS MONIZ",
      "house": "",
      "postcode": "2205-076",
      "city": "ABRANTES",
      "lon": "-8.187964014974808",
      "lat": "39.44561316241553"
    },
    {
      "id": "pt.ine.add.PTCONT.4626419",
      "street": "AV EGAS MONIZ",
      "house": "",
      "postcode": "2205-076",
      "city": "ABRANTES",
      "lon": "-8.187964014974808",
      "lat": "39.44561316241553"
    },
    {
      "id": "pt.ine.add.PTCONT.4626420",
      "street": "AV EGAS MONIZ",
      "house": "",
      "postcode": "2205-076",
      "city": "ABRANTES",
      "lon": "-8.187964014974808",
      "lat": "39.44561316241553"
    },
    {
      "id": "pt.ine.add.PTCONT.4627120",
      "street": "AV EGAS MONIZ",
      "house": "",
      "postcode": "2205-076",
      "city": "ABRANTES",
      "lon": "-8.187964014974808",
      "lat": "39.44561316241553"
    },
    {
      "id": "pt.ine.add.PTCONT.4637333",
      "street": "AV EGAS MONIZ",
      "house": "",
      "postcode": "2205-076",
      "city": "ABRANTES",
      "lon": "-8.186952278288773",
      "lat": "39.44424456175812"
    },
    {
      "id": "pt.ine.add.PTCONT.4638034",
      "street": "ESTR CABRITO",
      "house": "168",
      "postcode": "2205-009",
      "city": "ABRANTES",
      "lon": "-8.186030105710694",
      "lat": "39.4383723769186"
    },
    {
      "id": "pt.ine.add.PTCONT.4639963",
      "street": "R SRA ROSARIO",
      "house": "942",
      "postcode": "2205-063",
      "city": "ABRANTES",
      "lon": "-8.184590305529307",
      "lat": "39.43913862416828"
    },
    {
      "id": "pt.ine.add.PTCONT.4644305",
      "street": "R SRA ROSARIO",
      "house": "1082",
      "postcode": "2205-063",
      "city": "ABRANTES",
      "lon": "-8.185565323620631",
      "lat": "39.43817443186327"
    },
    {
      "id": "pt.ine.add.PTCONT.4644314",
      "street": "ESTR CABRITO",
      "house": "",
      "postcode": "2205-009",
      "city": "ABRANTES",
      "lon": "-8.186239662911008",
      "lat": "39.43899376933205"
    },
    {
      "id": "pt.ine.add.PTCONT.4644320",
      "street": "ESTR CABRITO",
      "house": "744",
      "postcode": "2205-009",
      "city": "ABRANTES",
      "lon": "-8.188368653766013",
      "lat": "39.44313602861093"
    },
    {
      "id": "pt.ine.add.PTCONT.4644321",
      "street": "ESTR CABRITO",
      "house": "744",
      "postcode": "2205-009",
      "city": "ABRANTES",
      "lon": "-8.188368653766013",
      "lat": "39.44313602861093"
    },
    {
      "id": "pt.ine.add.PTCONT.4648325",
      "street": "R SENHORA DO ROSÁRIO",
      "house": "760",
      "postcode": "2205-063",
      "city": "ABRANTES",
      "lon": "-8.18339510471599",
      "lat": "39.44086850440631"
    },
    {
      "id": "pt.ine.add.PTCONT.4649792",
      "street": "ESTR CABRITO",
      "house": "130",
      "postcode": "2205-009",
      "city": "ABRANTES",
      "lon": "-8.18572790421275",
      "lat": "39.438120315994034"
    },
    {
      "id": "pt.ine.add.PTCONT.4652506",
      "street": "ESTR CABRITO",
      "house": "",
      "postcode": "2205-009",
      "city": "ABRANTES",
      "lon": "-8.186335003484281",
      "lat": "39.44216421393586"
    },
    {
      "id": "pt.ine.add.PTCONT.4652524",
      "street": "R SENHORA DO ROSÁRIO",
      "house": "1028",
      "postcode": "2205-063",
      "city": "ABRANTES",
      "lon": "-8.18511256177502",
      "lat": "39.43851690391303"
    },
    {
      "id": "pt.ine.add.PTCONT.4654494",
      "street": "R SENHORA DO ROSÁRIO",
      "house": "",
      "postcode": "2205-063",
      "city": "ABRANTES",
      "lon": "-8.183476139525238",
      "lat": "39.440481165392"
    },
    {
      "id": "pt.ine.add.PTCONT.4657215",
      "street": "R SENHORA DO ROSÁRIO",
      "house": "",
      "postcode": "2205-063",
      "city": "ABRANTES",
      "lon": "-8.184706239230028",
      "lat": "39.438832332375824"
    },
    {
      "id": "pt.ine.add.PTCONT.4658445",
      "street": "R SENHORA DO ROSÁRIO",
      "house": "1034",
      "postcode": "2205-063",
      "city": "ABRANTES",
      "lon": "-8.185182209993986",
      "lat": "39.43845382324923"
    },
    {
      "id": "pt.ine.add.PTCONT.4658698",
      "street": "R SENHORA DO ROSÁRIO",
      "house": "1028",
      "postcode": "2205-063",
      "city": "ABRANTES",
      "lon": "-8.18511256177502",
      "lat": "39.43851690391303"
    },
    {
      "id": "pt.ine.add.PTCONT.4661477",
      "street": "ESTR CABRITO",
      "house": "958",
      "postcode": "2205-009",
      "city": "ABRANTES",
      "lon": "-8.186335003484281",
      "lat": "39.44216421393586"
    },
    {
      "id": "pt.ine.add.PTCONT.4662562",
      "street": "R SRA ROSARIO",
      "house": "900",
      "postcode": "2205-063",
      "city": "ABRANTES",
      "lon": "-8.184114195519918",
      "lat": "39.43933698947924"
    },
    {
      "id": "pt.ine.add.PTCONT.4662663",
      "street": "ESTR CABRITO",
      "house": "15",
      "postcode": "2205-009",
      "city": "ABRANTES",
      "lon": "-8.188589605519226",
      "lat": "39.443433156555066"
    }
  ]
}