{
  "data": {
    "distrito": "Évora",
    "concelho": "Estremoz",
    "freguesia": "Évora Monte (Santa Maria)",
    "OBJECTID": 130,
    "BGRI2021": "07040400116",
    "DT21": "07",
    "DTMN21": "0704",
    "DTMNFR21": "070404",
    "DTMNFRSEC21": "070404001",
    "SECNUM21": "001",
    "SSNUM21": "16",
    "SECSSNUM21": "00116",
    "OBJECTID_1": 59586,
    "DT": "07",
    "CC": "04",
    "fr": "04",
    "SEC": "001",
    "SS": "16"
  },
  "addresses": [
    {
      "id": "pt.ine.add.PTCONT.1369347",
      "street": "BR 1 MAIO",
      "house": "",
      "postcode": "7100-200",
      "city": "",
      "lon": "-7.715618495146885",
      "lat": "38.76377338795033"
    },
    {
      "id": "pt.ine.add.PTCONT.1369349",
      "street": "BR 1 DE MAIO",
      "house": "",
      "postcode": "7100-200",
      "city": "",
      "lon": "-7.716041653655621",
      "lat": "38.76354077904284"
    },
    {
      "id": "pt.ine.add.PTCONT.1380699",
      "street": "BR CORREIAS",
      "house": "3",
      "postcode": "7100-200",
      "city": "",
      "lon": "-7.716155387601447",
      "lat": "38.76345650179518"
    },
    {
      "id": "pt.ine.add.PTCONT.1381703",
      "street": "MTE DO PADEIRO",
      "house": "",
      "postcode": "7100-241",
      "city": "ÉVORA MONTE",
      "lon": "-7.717147661124174",
      "lat": "38.76312861796517"
    },
    {
      "id": "pt.ine.add.PTCONT.1383431",
      "street": "MTE PADEIRINHA",
      "house": "",
      "postcode": "7100-247",
      "city": "ÉVORA MONTE",
      "lon": "-7.716277955139862",
      "lat": "38.76247677116802"
    },
    {
      "id": "pt.ine.add.PTCONT.1383432",
      "street": "MTE PADEIRINHO",
      "house": "",
      "postcode": "7100-247",
      "city": "ÉVORA MONTE",
      "lon": "-7.716277955139862",
      "lat": "38.76247677116802"
    },
    {
      "id": "pt.ine.add.PTCONT.1392235",
      "street": "BR 1 DE MAIO",
      "house": "L 2",
      "postcode": "7100-200",
      "city": "",
      "lon": "-7.716224002732165",
      "lat": "38.76339983808806"
    },
    {
      "id": "pt.ine.add.PTCONT.1393370",
      "street": "MONTE DO PADEIRO",
      "house": "48",
      "postcode": "7100-241",
      "city": "ÉVORA MONTE",
      "lon": "-7.717324796434491",
      "lat": "38.76312581435245"
    },
    {
      "id": "pt.ine.add.PTCONT.1414678",
      "street": "",
      "house": "",
      "postcode": "7100-200",
      "city": "",
      "lon": "-7.71576085677713",
      "lat": "38.76370593862084"
    },
    {
      "id": "pt.ine.add.PTCONT.1417550",
      "street": "BR CORREIAS",
      "house": "",
      "postcode": "7100-200",
      "city": "",
      "lon": "-7.715978730901122",
      "lat": "38.763591368098794"
    },
    {
      "id": "pt.ine.add.PTCONT.1419700",
      "street": "",
      "house": "",
      "postcode": "7100-241",
      "city": "ÉVORA MONTE",
      "lon": "-7.717600775535952",
      "lat": "38.763188065045476"
    },
    {
      "id": "pt.ine.add.PTCONT.1420606",
      "street": "",
      "house": "",
      "postcode": "7100-241",
      "city": "ÉVORA MONTE",
      "lon": "-7.7169769813805065",
      "lat": "38.76312114717169"
    },
    {
      "id": "pt.ine.add.PTCONT.1420607",
      "street": "",
      "house": "",
      "postcode": "7100-241",
      "city": "ÉVORA MONTE",
      "lon": "-7.7169769813805065",
      "lat": "38.76312114717169"
    },
    {
      "id": "pt.ine.add.PTCONT.1433371",
      "street": "R CORREIAS",
      "house": "",
      "postcode": "7100-312",
      "city": "ÉVORA MONTE",
      "lon": "-7.716291670700125",
      "lat": "38.763280309969744"
    },
    {
      "id": "pt.ine.add.PTCONT.1447054",
      "street": "MTE DO DADEIRO",
      "house": "",
      "postcode": "7100-241",
      "city": "ÉVORA MONTE",
      "lon": "-7.716715075515989",
      "lat": "38.76302582248047"
    },
    {
      "id": "pt.ine.add.PTCONT.1448621",
      "street": "BR CORREIAS",
      "house": "6",
      "postcode": "7100-200",
      "city": "",
      "lon": "-7.715849875137603",
      "lat": "38.7636791340608"
    },
    {
      "id": "pt.ine.add.PTCONT.1449952",
      "street": "",
      "house": "",
      "postcode": "7100-241",
      "city": "ÉVORA MONTE",
      "lon": "-7.716812116958958",
      "lat": "38.76305519124645"
    }
  ]
}