{
  "data": {
    "distrito": "Évora",
    "concelho": "Estremoz",
    "freguesia": "Évora Monte (Santa Maria)",
    "OBJECTID": 114,
    "BGRI2021": "07040400136",
    "DT21": "07",
    "DTMN21": "0704",
    "DTMNFR21": "070404",
    "DTMNFRSEC21": "070404001",
    "SECNUM21": "001",
    "SSNUM21": "36",
    "SECSSNUM21": "00136",
    "OBJECTID_1": 59641,
    "DT": "07",
    "CC": "04",
    "fr": "04",
    "SEC": "001",
    "SS": "36"
  },
  "addresses": [
    {
      "id": "pt.ine.add.PTCONT.1372197",
      "street": "MTE DOS PICHÉIS",
      "house": "",
      "postcode": "7100-212",
      "city": "ÉVORA MONTE",
      "lon": "-7.7266824067432625",
      "lat": "38.78009714047443"
    },
    {
      "id": "pt.ine.add.PTCONT.1372200",
      "street": "MTE DOS PICHÉIS",
      "house": "",
      "postcode": "7100-212",
      "city": "ÉVORA MONTE",
      "lon": "-7.7266824067432625",
      "lat": "38.78009714047443"
    },
    {
      "id": "pt.ine.add.PTCONT.1373760",
      "street": "MTE COUTADA DOS PIXEIS",
      "house": "",
      "postcode": "7100-220",
      "city": "ÉVORA MONTE",
      "lon": "-7.724553525261446",
      "lat": "38.78208950265585"
    },
    {
      "id": "pt.ine.add.PTCONT.1376713",
      "street": "MTE QUARTOS BAIXO",
      "house": "",
      "postcode": "7100-220",
      "city": "ÉVORA MONTE",
      "lon": "-7.720714439647609",
      "lat": "38.78725563836984"
    },
    {
      "id": "pt.ine.add.PTCONT.1379165",
      "street": "COURELA DE BAIXO",
      "house": "",
      "postcode": "7100-220",
      "city": "ÉVORA MONTE",
      "lon": "-7.740593665717065",
      "lat": "38.78049600565053"
    },
    {
      "id": "pt.ine.add.PTCONT.1379191",
      "street": "MTE DE S MARCOS",
      "house": "",
      "postcode": "7100-234",
      "city": "ÉVORA MONTE",
      "lon": "-7.731244363369677",
      "lat": "38.7751584899758"
    },
    {
      "id": "pt.ine.add.PTCONT.1384880",
      "street": "MTE S MARCOS",
      "house": "",
      "postcode": "7100-234",
      "city": "ÉVORA MONTE",
      "lon": "-7.730771606270681",
      "lat": "38.77532801641024"
    },
    {
      "id": "pt.ine.add.PTCONT.1387390",
      "street": "",
      "house": "",
      "postcode": "7100-234",
      "city": "ÉVORA MONTE",
      "lon": "-7.731093707764969",
      "lat": "38.77534714093538"
    },
    {
      "id": "pt.ine.add.PTCONT.1397633",
      "street": "MTE FAZENDA",
      "house": "",
      "postcode": "7100-219",
      "city": "ÉVORA MONTE",
      "lon": "-7.718961229312024",
      "lat": "38.77796215124237"
    },
    {
      "id": "pt.ine.add.PTCONT.1398425",
      "street": "MTE QUARTOS LIMA",
      "house": "",
      "postcode": "7100-220",
      "city": "ÉVORA MONTE",
      "lon": "-7.718920151446672",
      "lat": "38.78904189042153"
    },
    {
      "id": "pt.ine.add.PTCONT.1398426",
      "street": "MTE QUARTOS CIMA",
      "house": "",
      "postcode": "7100-220",
      "city": "ÉVORA MONTE",
      "lon": "-7.718920151446672",
      "lat": "38.78904189042153"
    },
    {
      "id": "pt.ine.add.PTCONT.1400045",
      "street": "MTE DA LANTERNA",
      "house": "",
      "postcode": "7100-220",
      "city": "ÉVORA MONTE",
      "lon": "-7.723577946341335",
      "lat": "38.78162667793426"
    },
    {
      "id": "pt.ine.add.PTCONT.1400046",
      "street": "MTE DA LANTERNA",
      "house": "",
      "postcode": "7100-220",
      "city": "ÉVORA MONTE",
      "lon": "-7.723577946341335",
      "lat": "38.78162667793426"
    },
    {
      "id": "pt.ine.add.PTCONT.1400047",
      "street": "MTE DA LANTERNA",
      "house": "",
      "postcode": "7100-220",
      "city": "ÉVORA MONTE",
      "lon": "-7.723577946341335",
      "lat": "38.78162667793426"
    },
    {
      "id": "pt.ine.add.PTCONT.1404753",
      "street": "",
      "house": "",
      "postcode": "7100-234",
      "city": "ÉVORA MONTE",
      "lon": "-7.731641611527476",
      "lat": "38.77614173287705"
    },
    {
      "id": "pt.ine.add.PTCONT.1413553",
      "street": "MTE BALBINA",
      "house": "",
      "postcode": "7100-212",
      "city": "ÉVORA MONTE",
      "lon": "-7.723878626202291",
      "lat": "38.77935770458228"
    },
    {
      "id": "pt.ine.add.PTCONT.1415815",
      "street": "",
      "house": "",
      "postcode": "7100-265",
      "city": "",
      "lon": "-7.726360042834772",
      "lat": "38.77404261061492"
    },
    {
      "id": "pt.ine.add.PTCONT.1418874",
      "street": "MTE CERRADO NORA",
      "house": "",
      "postcode": "7100-265",
      "city": "",
      "lon": "-7.726142023627626",
      "lat": "38.773933755003554"
    },
    {
      "id": "pt.ine.add.PTCONT.1418875",
      "street": "MTE CERRADO NORA",
      "house": "",
      "postcode": "7100-265",
      "city": "",
      "lon": "-7.726142023627626",
      "lat": "38.773933755003554"
    },
    {
      "id": "pt.ine.add.PTCONT.1424764",
      "street": "MTE FAZENDA",
      "house": "",
      "postcode": "7100-219",
      "city": "ÉVORA MONTE",
      "lon": "-7.718687026877062",
      "lat": "38.77761887350827"
    },
    {
      "id": "pt.ine.add.PTCONT.1428648",
      "street": "MTE S MARCOS",
      "house": "",
      "postcode": "7100-234",
      "city": "ÉVORA MONTE",
      "lon": "-7.731163408446943",
      "lat": "38.77523027599772"
    },
    {
      "id": "pt.ine.add.PTCONT.1436922",
      "street": "MTE FAZENDA",
      "house": "",
      "postcode": "7100-219",
      "city": "ÉVORA MONTE",
      "lon": "-7.71868598425903",
      "lat": "38.777799030715805"
    },
    {
      "id": "pt.ine.add.PTCONT.1448607",
      "street": "MTE DA AMEUDOEIRA",
      "house": "",
      "postcode": "7100-210",
      "city": "",
      "lon": "-7.7210104705024065",
      "lat": "38.779816044241905"
    },
    {
      "id": "pt.ine.add.PTCONT.1464599",
      "street": "MTE SERRADO NORA",
      "house": "",
      "postcode": "7100-265",
      "city": "",
      "lon": "-7.726360042834772",
      "lat": "38.77404261061492"
    },
    {
      "id": "pt.ine.add.PTCONT.1466239",
      "street": "MTE DE S MARCOS",
      "house": "",
      "postcode": "7100-234",
      "city": "ÉVORA MONTE",
      "lon": "-7.731244363369677",
      "lat": "38.7751584899758"
    },
    {
      "id": "pt.ine.add.PTCONT.1466501",
      "street": "MTE S MARCOS",
      "house": "",
      "postcode": "7100-234",
      "city": "ÉVORA MONTE",
      "lon": "-7.730771606270681",
      "lat": "38.77532801641024"
    }
  ]
}