{
  "data": {
    "distrito": "Aveiro",
    "concelho": "Aveiro",
    "freguesia": "Esgueira",
    "OBJECTID": 366,
    "BGRI2021": "01050500403",
    "DT21": "01",
    "DTMN21": "0105",
    "DTMNFR21": "010505",
    "DTMNFRSEC21": "010505004",
    "SECNUM21": "004",
    "SSNUM21": "03",
    "SECSSNUM21": "00403",
    "OBJECTID_1": 3368,
    "DT": "01",
    "CC": "05",
    "fr": "05",
    "SEC": "004",
    "SS": "03"
  },
  "addresses": [
    {
      "id": "pt.ine.add.PTCONT.313761",
      "street": "R ELÍSIO FILINTO FEIO QTA DE STO ANTGNIO",
      "house": "26",
      "postcode": "3800-263",
      "city": "AVEIRO",
      "lon": "-8.620695528060837",
      "lat": "40.654145591123154"
    },
    {
      "id": "pt.ine.add.PTCONT.313762",
      "street": "R ELÍSIO FILINTO FEIO QTA DE STO ANTGNIO",
      "house": "26",
      "postcode": "3800-263",
      "city": "AVEIRO",
      "lon": "-8.620695528060837",
      "lat": "40.654145591123154"
    },
    {
      "id": "pt.ine.add.PTCONT.22435",
      "street": "R MARCOS VIDAL",
      "house": "1",
      "postcode": "3800-381",
      "city": "AVEIRO",
      "lon": "-8.620954991690382",
      "lat": "40.65405444395789"
    },
    {
      "id": "pt.ine.add.PTCONT.22557",
      "street": "R MARCOS VIDAL",
      "house": "1",
      "postcode": "3800-381",
      "city": "AVEIRO",
      "lon": "-8.620954991690382",
      "lat": "40.65405444395789"
    },
    {
      "id": "pt.ine.add.PTCONT.22558",
      "street": "R MARCOS VIDAL",
      "house": "1",
      "postcode": "3800-381",
      "city": "AVEIRO",
      "lon": "-8.620954991690382",
      "lat": "40.65405444395789"
    },
    {
      "id": "pt.ine.add.PTCONT.22559",
      "street": "R MARCOS VIDAL",
      "house": "1",
      "postcode": "3800-381",
      "city": "AVEIRO",
      "lon": "-8.620954991690382",
      "lat": "40.65405444395789"
    },
    {
      "id": "pt.ine.add.PTCONT.22560",
      "street": "R MARCOS VIDAL",
      "house": "1",
      "postcode": "3800-381",
      "city": "AVEIRO",
      "lon": "-8.620954991690382",
      "lat": "40.65405444395789"
    },
    {
      "id": "pt.ine.add.PTCONT.22561",
      "street": "R MARCOS VIDAL",
      "house": "1",
      "postcode": "3800-381",
      "city": "AVEIRO",
      "lon": "-8.620954991690382",
      "lat": "40.65405444395789"
    },
    {
      "id": "pt.ine.add.PTCONT.22562",
      "street": "R MARCOS VIDAL",
      "house": "1",
      "postcode": "3800-381",
      "city": "AVEIRO",
      "lon": "-8.620954991690382",
      "lat": "40.65405444395789"
    },
    {
      "id": "pt.ine.add.PTCONT.22563",
      "street": "R MARCOS VIDAL",
      "house": "1",
      "postcode": "3800-381",
      "city": "AVEIRO",
      "lon": "-8.620954991690382",
      "lat": "40.65405444395789"
    },
    {
      "id": "pt.ine.add.PTCONT.126054",
      "street": "R MARCOS VIDAL",
      "house": "3",
      "postcode": "3800-381",
      "city": "AVEIRO",
      "lon": "-8.62098921621487",
      "lat": "40.65388320193558"
    },
    {
      "id": "pt.ine.add.PTCONT.126055",
      "street": "R MARCOS VIDAL",
      "house": "3",
      "postcode": "3800-381",
      "city": "AVEIRO",
      "lon": "-8.62098921621487",
      "lat": "40.65388320193558"
    },
    {
      "id": "pt.ine.add.PTCONT.126056",
      "street": "R MARCOS VIDAL",
      "house": "3",
      "postcode": "3800-381",
      "city": "AVEIRO",
      "lon": "-8.62098921621487",
      "lat": "40.65388320193558"
    },
    {
      "id": "pt.ine.add.PTCONT.126057",
      "street": "R MARCOS VIDAL",
      "house": "3",
      "postcode": "3800-381",
      "city": "AVEIRO",
      "lon": "-8.62098921621487",
      "lat": "40.65388320193558"
    },
    {
      "id": "pt.ine.add.PTCONT.126058",
      "street": "R MARCOS VIDAL",
      "house": "3",
      "postcode": "3800-381",
      "city": "AVEIRO",
      "lon": "-8.62098921621487",
      "lat": "40.65388320193558"
    },
    {
      "id": "pt.ine.add.PTCONT.126059",
      "street": "R MARCOS VIDAL",
      "house": "3",
      "postcode": "3800-381",
      "city": "AVEIRO",
      "lon": "-8.62098921621487",
      "lat": "40.65388320193558"
    },
    {
      "id": "pt.ine.add.PTCONT.126060",
      "street": "R MARCOS VIDAL",
      "house": "3",
      "postcode": "3800-381",
      "city": "AVEIRO",
      "lon": "-8.62098921621487",
      "lat": "40.65388320193558"
    },
    {
      "id": "pt.ine.add.PTCONT.126079",
      "street": "R MARCOS VIDAL",
      "house": "3",
      "postcode": "3800-381",
      "city": "AVEIRO",
      "lon": "-8.62098921621487",
      "lat": "40.65388320193558"
    },
    {
      "id": "pt.ine.add.PTCONT.126081",
      "street": "R MARCOS VIDAL",
      "house": "3",
      "postcode": "3800-381",
      "city": "AVEIRO",
      "lon": "-8.62098921621487",
      "lat": "40.65388320193558"
    },
    {
      "id": "pt.ine.add.PTCONT.126082",
      "street": "R MARCOS VIDAL",
      "house": "3",
      "postcode": "3800-381",
      "city": "AVEIRO",
      "lon": "-8.62098921621487",
      "lat": "40.65388320193558"
    },
    {
      "id": "pt.ine.add.PTCONT.126083",
      "street": "R MARCOS VIDAL",
      "house": "3",
      "postcode": "3800-381",
      "city": "AVEIRO",
      "lon": "-8.62098921621487",
      "lat": "40.65388320193558"
    }
  ]
}