{
  "data": {
    "distrito": "Setúbal",
    "concelho": "Setúbal",
    "freguesia": "Gâmbia-Pontes-Alto da Guerra",
    "OBJECTID": 1131,
    "BGRI2021": "15120700412",
    "DT21": "15",
    "DTMN21": "1512",
    "DTMNFR21": "151207",
    "DTMNFRSEC21": "151207004",
    "SECNUM21": "004",
    "SSNUM21": "12",
    "SECSSNUM21": "00412",
    "OBJECTID_1": 170959,
    "DT": "15",
    "CC": "12",
    "fr": "07",
    "SEC": "004",
    "SS": "12"
  },
  "addresses": [
    {
      "id": "pt.ine.add.PTCONT.4669395",
      "street": "R BERNARDINO DE MATOS",
      "house": "",
      "postcode": "2910-309",
      "city": "SETÚBAL",
      "lon": "-8.813251647145602",
      "lat": "38.55007220076431"
    },
    {
      "id": "pt.ine.add.PTCONT.4669399",
      "street": "EN 10",
      "house": "7",
      "postcode": "2910-828",
      "city": "SETÚBAL",
      "lon": "-8.811875584150085",
      "lat": "38.55012522871006"
    },
    {
      "id": "pt.ine.add.PTCONT.4673141",
      "street": "R BERNARDINO DE MATOS",
      "house": "",
      "postcode": "2910-309",
      "city": "SETÚBAL",
      "lon": "-8.812919966539656",
      "lat": "38.550101152172594"
    },
    {
      "id": "pt.ine.add.PTCONT.4676621",
      "street": "R BERNARDINO DE MATOS",
      "house": "",
      "postcode": "2910-309",
      "city": "SETÚBAL",
      "lon": "-8.812396089521819",
      "lat": "38.55058163323787"
    },
    {
      "id": "pt.ine.add.PTCONT.4680380",
      "street": "R BAIRRO NOVO DAS PONTES",
      "house": "",
      "postcode": "2910-308",
      "city": "SETÚBAL",
      "lon": "-8.813149428877674",
      "lat": "38.550180894234636"
    },
    {
      "id": "pt.ine.add.PTCONT.4685235",
      "street": "R BERNARDINO DE MATOS",
      "house": "",
      "postcode": "2910-309",
      "city": "SETÚBAL",
      "lon": "-8.812293869244693",
      "lat": "38.55069032597016"
    },
    {
      "id": "pt.ine.add.PTCONT.4691445",
      "street": "R BAIRRO NOVO PONTES",
      "house": "8",
      "postcode": "2910-308",
      "city": "SETÚBAL",
      "lon": "-8.813004975093282",
      "lat": "38.550677189996286"
    },
    {
      "id": "pt.ine.add.PTCONT.4691774",
      "street": "R BAIRRO NOVO DAS PONTES",
      "house": "13",
      "postcode": "2910-308",
      "city": "SETÚBAL",
      "lon": "-8.813004975093282",
      "lat": "38.550677189996286"
    },
    {
      "id": "pt.ine.add.PTCONT.4720511",
      "street": "AZ MONTE DOS RATINHOS",
      "house": "",
      "postcode": "2910-748",
      "city": "SETÚBAL",
      "lon": "-8.819520477438367",
      "lat": "38.55064817744369"
    },
    {
      "id": "pt.ine.add.PTCONT.4728335",
      "street": "R BAIRRO NOVO DAS PONTES",
      "house": "",
      "postcode": "2910-308",
      "city": "SETÚBAL",
      "lon": "-8.813474599334407",
      "lat": "38.5506023952259"
    },
    {
      "id": "pt.ine.add.PTCONT.4731743",
      "street": "R BERNARDINO DE MATOS",
      "house": "",
      "postcode": "2910-309",
      "city": "SETÚBAL",
      "lon": "-8.811959775538567",
      "lat": "38.55053912257389"
    },
    {
      "id": "pt.ine.add.PTCONT.4742468",
      "street": "ESTR PADEIRAS QTA CA",
      "house": "",
      "postcode": "2910-285",
      "city": "SETÚBAL",
      "lon": "-8.827390213178282",
      "lat": "38.550682845176254"
    },
    {
      "id": "pt.ine.add.PTCONT.4756660",
      "street": "R BAIRRO NOVO DAS PONTES",
      "house": "",
      "postcode": "2910-308",
      "city": "SETÚBAL",
      "lon": "-8.813482504653383",
      "lat": "38.55022400050418"
    },
    {
      "id": "pt.ine.add.PTCONT.4760856",
      "street": "R BAIRRO NOVO PONTES",
      "house": "40",
      "postcode": "2910-308",
      "city": "SETÚBAL",
      "lon": "-8.81385007799387",
      "lat": "38.550275913536666"
    },
    {
      "id": "pt.ine.add.PTCONT.4760867",
      "street": "EN 10",
      "house": "12",
      "postcode": "2910-828",
      "city": "SETÚBAL",
      "lon": "-8.811716772024424",
      "lat": "38.55031532379696"
    },
    {
      "id": "pt.ine.add.PTCONT.4764525",
      "street": "R BERNARDINO MATOS",
      "house": "",
      "postcode": "2910-309",
      "city": "SETÚBAL",
      "lon": "-8.813063247485056",
      "lat": "38.54995929325542"
    },
    {
      "id": "pt.ine.add.PTCONT.4771751",
      "street": "R BERNARDINO DE MATOS",
      "house": "",
      "postcode": "2910-309",
      "city": "SETÚBAL",
      "lon": "-8.812475452691725",
      "lat": "38.55048208136385"
    },
    {
      "id": "pt.ine.add.PTCONT.4775137",
      "street": "R BERNARDINO MATOS",
      "house": "",
      "postcode": "2910-309",
      "city": "SETÚBAL",
      "lon": "-8.81313507331377",
      "lat": "38.54987469525316"
    },
    {
      "id": "pt.ine.add.PTCONT.4775138",
      "street": "EN 10",
      "house": "",
      "postcode": "2910-828",
      "city": "SETÚBAL",
      "lon": "-8.811905846322185",
      "lat": "38.54968364626884"
    },
    {
      "id": "pt.ine.add.PTCONT.4806795",
      "street": "EN 10",
      "house": "",
      "postcode": "2910-828",
      "city": "SETÚBAL",
      "lon": "-8.811705809285833",
      "lat": "38.55036943717367"
    },
    {
      "id": "pt.ine.add.PTCONT.4817035",
      "street": "R BERNARDINO DE MATOS",
      "house": "",
      "postcode": "2910-309",
      "city": "SETÚBAL",
      "lon": "-8.812864780841187",
      "lat": "38.5504077549771"
    },
    {
      "id": "pt.ine.add.PTCONT.4830301",
      "street": "EN 10",
      "house": "",
      "postcode": "2910-828",
      "city": "SETÚBAL",
      "lon": "-8.81222626217761",
      "lat": "38.5496007132477"
    },
    {
      "id": "pt.ine.add.PTCONT.4837181",
      "street": "R BERNARDINO DE MATOS",
      "house": "",
      "postcode": "2910-309",
      "city": "SETÚBAL",
      "lon": "-8.812052219614305",
      "lat": "38.550610652920604"
    },
    {
      "id": "pt.ine.add.PTCONT.4837182",
      "street": "R BERNARDINO DE MATOS",
      "house": "",
      "postcode": "2910-309",
      "city": "SETÚBAL",
      "lon": "-8.812671727904076",
      "lat": "38.550616066763816"
    },
    {
      "id": "pt.ine.add.PTCONT.4847783",
      "street": "R BAIRRO NOVO DAS PONTES",
      "house": "",
      "postcode": "2910-308",
      "city": "SETÚBAL",
      "lon": "-8.813288944788926",
      "lat": "38.55037826642761"
    },
    {
      "id": "pt.ine.add.PTCONT.4857003",
      "street": "R BAIRRO NOVO DAS PONTES",
      "house": "",
      "postcode": "2910-308",
      "city": "SETÚBAL",
      "lon": "-8.81365634895851",
      "lat": "38.5504121644395"
    },
    {
      "id": "pt.ine.add.PTCONT.4862488",
      "street": "R BAIRRO NOVO DAS PONTES",
      "house": "",
      "postcode": "2910-308",
      "city": "SETÚBAL",
      "lon": "-8.813189865832324",
      "lat": "38.550820248937825"
    },
    {
      "id": "pt.ine.add.PTCONT.4864325",
      "street": "R MONTE DA JOANINHA",
      "house": "1",
      "postcode": "2910-791",
      "city": "SETÚBAL",
      "lon": "-8.820490971264638",
      "lat": "38.55137215548026"
    },
    {
      "id": "pt.ine.add.PTCONT.4869861",
      "street": "R MONTE DA JOANINHA",
      "house": "",
      "postcode": "2910-791",
      "city": "SETÚBAL",
      "lon": "-8.813804445020553",
      "lat": "38.55151932474194"
    },
    {
      "id": "pt.ine.add.PTCONT.4873191",
      "street": "R BERNARDINO MATOS",
      "house": "",
      "postcode": "2910-309",
      "city": "SETÚBAL",
      "lon": "-8.812751090728245",
      "lat": "38.550516514706636"
    },
    {
      "id": "pt.ine.add.PTCONT.4880913",
      "street": "EN 10",
      "house": "104",
      "postcode": "2910-828",
      "city": "SETÚBAL",
      "lon": "-8.81214512042877",
      "lat": "38.549511100854694"
    },
    {
      "id": "pt.ine.add.PTCONT.4892038",
      "street": "R BAIRRO NOVO DAS PONTES",
      "house": "",
      "postcode": "2910-308",
      "city": "SETÚBAL",
      "lon": "-8.81284607995756",
      "lat": "38.550858278769944"
    },
    {
      "id": "pt.ine.add.PTCONT.4902571",
      "street": "EN 10",
      "house": "",
      "postcode": "2910-828",
      "city": "SETÚBAL",
      "lon": "-8.811739205498945",
      "lat": "38.55026114392598"
    },
    {
      "id": "pt.ine.add.PTCONT.4903740",
      "street": "R BAIRRO NOVO DAS PONTES",
      "house": "",
      "postcode": "2910-308",
      "city": "SETÚBAL",
      "lon": "-8.813713023446638",
      "lat": "38.55033976853374"
    },
    {
      "id": "pt.ine.add.PTCONT.4908973",
      "street": "R BERNARDINO DE MATOS",
      "house": "",
      "postcode": "2910-309",
      "city": "SETÚBAL",
      "lon": "-8.812236599888717",
      "lat": "38.550699666511036"
    },
    {
      "id": "pt.ine.add.PTCONT.4912292",
      "street": "EN 10",
      "house": "16",
      "postcode": "2910-828",
      "city": "SETÚBAL",
      "lon": "-8.812242986432446",
      "lat": "38.55015913117701"
    },
    {
      "id": "pt.ine.add.PTCONT.4912478",
      "street": "R MONTE DA JOANINHA",
      "house": "LI",
      "postcode": "2910-791",
      "city": "SETÚBAL",
      "lon": "-8.813896977119654",
      "lat": "38.551599861400014"
    },
    {
      "id": "pt.ine.add.PTCONT.4923275",
      "street": "R BAIRRO NOVO DAS PONTES",
      "house": "",
      "postcode": "2910-308",
      "city": "SETÚBAL",
      "lon": "-8.813130051018062",
      "lat": "38.55055935558336"
    },
    {
      "id": "pt.ine.add.PTCONT.4927571",
      "street": "EN 10",
      "house": "",
      "postcode": "2910-828",
      "city": "SETÚBAL",
      "lon": "-8.812057845120524",
      "lat": "38.549989047248594"
    },
    {
      "id": "pt.ine.add.PTCONT.4934871",
      "street": "R BAIRRO NOVO DAS PONTES",
      "house": "",
      "postcode": "2910-308",
      "city": "SETÚBAL",
      "lon": "-8.813368730887493",
      "lat": "38.55032375301459"
    },
    {
      "id": "pt.ine.add.PTCONT.4941856",
      "street": "R BEIJA FLOR QTA REPORTA",
      "house": "",
      "postcode": "2910-280",
      "city": "SETÚBAL",
      "lon": "-8.823091316062502",
      "lat": "38.55218562184451"
    },
    {
      "id": "pt.ine.add.PTCONT.4947960",
      "street": "EN 10",
      "house": "",
      "postcode": "2910-828",
      "city": "SETÚBAL",
      "lon": "-8.811818738603355",
      "lat": "38.55017960811554"
    },
    {
      "id": "pt.ine.add.PTCONT.4960074",
      "street": "R BERNARDINO DE MATOS",
      "house": "",
      "postcode": "2910-309",
      "city": "SETÚBAL",
      "lon": "-8.813377230896853",
      "lat": "38.55000841295957"
    },
    {
      "id": "pt.ine.add.PTCONT.4963736",
      "street": "R BAIRRO NOVO PONTES",
      "house": "1",
      "postcode": "2910-308",
      "city": "SETÚBAL",
      "lon": "-8.81273213471598",
      "lat": "38.55094001504542"
    },
    {
      "id": "pt.ine.add.PTCONT.4963877",
      "street": "R MONTE DA JOANINHA",
      "house": "",
      "postcode": "2910-791",
      "city": "SETÚBAL",
      "lon": "-8.81415035796659",
      "lat": "38.5517064872708"
    },
    {
      "id": "pt.ine.add.PTCONT.4970862",
      "street": "R BAIRRO NOVO DAS PONTES",
      "house": "",
      "postcode": "2910-308",
      "city": "SETÚBAL",
      "lon": "-8.813186980717942",
      "lat": "38.55051398336222"
    },
    {
      "id": "pt.ine.add.PTCONT.4978507",
      "street": "R BERNARDINO DE MATOS",
      "house": "",
      "postcode": "2910-309",
      "city": "SETÚBAL",
      "lon": "-8.81256645596879",
      "lat": "38.55040047848751"
    },
    {
      "id": "pt.ine.add.PTCONT.5006987",
      "street": "R BAIRRO NOVO DAS PONTES",
      "house": "",
      "postcode": "2910-308",
      "city": "SETÚBAL",
      "lon": "-8.813360909846853",
      "lat": "38.55071115553846"
    },
    {
      "id": "pt.ine.add.PTCONT.5018292",
      "street": "ESTR PADEIRAS",
      "house": "",
      "postcode": "2910-285",
      "city": "SETÚBAL",
      "lon": "-8.822853107703",
      "lat": "38.55606960055211"
    },
    {
      "id": "pt.ine.add.PTCONT.5020358",
      "street": "EN 10",
      "house": "",
      "postcode": "2910-828",
      "city": "SETÚBAL",
      "lon": "-8.811683291085943",
      "lat": "38.55041460922353"
    },
    {
      "id": "pt.ine.add.PTCONT.5020359",
      "street": "EN 10",
      "house": "",
      "postcode": "2910-828",
      "city": "SETÚBAL",
      "lon": "-8.812012470534635",
      "lat": "38.55004336022228"
    },
    {
      "id": "pt.ine.add.PTCONT.5055359",
      "street": "R BERNARDINO DE MATOS",
      "house": "",
      "postcode": "2910-309",
      "city": "SETÚBAL",
      "lon": "-8.813554130831442",
      "lat": "38.550520858255716"
    },
    {
      "id": "pt.ine.add.PTCONT.5069880",
      "street": "EN 10",
      "house": "100",
      "postcode": "2910-828",
      "city": "SETÚBAL",
      "lon": "-8.81200823519722",
      "lat": "38.54959296949434"
    },
    {
      "id": "pt.ine.add.PTCONT.5069881",
      "street": "EN 10",
      "house": "100",
      "postcode": "2910-828",
      "city": "SETÚBAL",
      "lon": "-8.81200823519722",
      "lat": "38.54959296949434"
    },
    {
      "id": "pt.ine.add.PTCONT.5071955",
      "street": "R BAIRRO NOVO DAS PONTES",
      "house": "",
      "postcode": "2910-308",
      "city": "SETÚBAL",
      "lon": "-8.81293699845403",
      "lat": "38.550767667798866"
    },
    {
      "id": "pt.ine.add.PTCONT.5074449",
      "street": "R BERNARDINO DE MATOS",
      "house": "",
      "postcode": "2910-309",
      "city": "SETÚBAL",
      "lon": "-8.813058426539452",
      "lat": "38.550262497558606"
    },
    {
      "id": "pt.ine.add.PTCONT.5104979",
      "street": "R BAIRRO NOVO DAS PONTES",
      "house": "",
      "postcode": "2910-308",
      "city": "SETÚBAL",
      "lon": "-8.813550565002325",
      "lat": "38.55014253019861"
    },
    {
      "id": "pt.ine.add.PTCONT.5106311",
      "street": "EN 10",
      "house": "12",
      "postcode": "2910-828",
      "city": "SETÚBAL",
      "lon": "-8.81167224364171",
      "lat": "38.550459714782356"
    },
    {
      "id": "pt.ine.add.PTCONT.5115843",
      "street": "ESTR CASA DO GAIATO",
      "house": "",
      "postcode": "2910-281",
      "city": "SETÚBAL",
      "lon": "-8.824352697032257",
      "lat": "38.549736931680016"
    },
    {
      "id": "pt.ine.add.PTCONT.5125245",
      "street": "EN 10",
      "house": "",
      "postcode": "2910-828",
      "city": "SETÚBAL",
      "lon": "-8.81178483446589",
      "lat": "38.5502338545002"
    }
  ]
}