{
  "data": {
    "distrito": "Setúbal",
    "concelho": "Setúbal",
    "freguesia": "Gâmbia-Pontes-Alto da Guerra",
    "OBJECTID": 1186,
    "BGRI2021": "15120700416",
    "DT21": "15",
    "DTMN21": "1512",
    "DTMNFR21": "151207",
    "DTMNFRSEC21": "151207004",
    "SECNUM21": "004",
    "SSNUM21": "16",
    "SECSSNUM21": "00416",
    "OBJECTID_1": 170307,
    "DT": "15",
    "CC": "12",
    "fr": "07",
    "SEC": "004",
    "SS": "16"
  },
  "addresses": [
    {
      "id": "pt.ine.add.PTCONT.4688474",
      "street": "R ESPERANÇA",
      "house": "15 B",
      "postcode": "2910-211",
      "city": "SETÚBAL",
      "lon": "-8.771613354233036",
      "lat": "38.56075634511152"
    },
    {
      "id": "pt.ine.add.PTCONT.4720510",
      "street": "R SALGUEIROS",
      "house": "14",
      "postcode": "2910-224",
      "city": "SETÚBAL",
      "lon": "-8.76700345869859",
      "lat": "38.558403205178365"
    },
    {
      "id": "pt.ine.add.PTCONT.4768189",
      "street": "R ESCOLA",
      "house": "13",
      "postcode": "2910-210",
      "city": "SETÚBAL",
      "lon": "-8.7665195729967",
      "lat": "38.55817160830983"
    },
    {
      "id": "pt.ine.add.PTCONT.4777920",
      "street": "R ESPERANÇA",
      "house": "156",
      "postcode": "2910-211",
      "city": "SETÚBAL",
      "lon": "-8.771545555121314",
      "lat": "38.56087382287095"
    },
    {
      "id": "pt.ine.add.PTCONT.4793788",
      "street": "R 1 DE MAIO",
      "house": "14",
      "postcode": "2910-223",
      "city": "SETÚBAL",
      "lon": "-8.770049936528293",
      "lat": "38.559107333688736"
    },
    {
      "id": "pt.ine.add.PTCONT.4797624",
      "street": "CAM SALGUEIROS",
      "house": "17",
      "postcode": "2910-224",
      "city": "SETÚBAL",
      "lon": "-8.766809381268558",
      "lat": "38.55851235567289"
    },
    {
      "id": "pt.ine.add.PTCONT.4806681",
      "street": "R ESCOLA",
      "house": "",
      "postcode": "2910-210",
      "city": "SETÚBAL",
      "lon": "-8.766541252305677",
      "lat": "38.55802735801861"
    },
    {
      "id": "pt.ine.add.PTCONT.4806682",
      "street": "R JOSE MURILHAS",
      "house": "",
      "postcode": "2910-206",
      "city": "SETÚBAL",
      "lon": "-8.773736488056333",
      "lat": "38.56082582006253"
    },
    {
      "id": "pt.ine.add.PTCONT.4814044",
      "street": "R ESCOLA",
      "house": "N 15",
      "postcode": "2910-210",
      "city": "SETÚBAL",
      "lon": "-8.766428981746197",
      "lat": "38.558307223120366"
    },
    {
      "id": "pt.ine.add.PTCONT.4835151",
      "street": "R ANTIGA ESTRADA NACIONAL",
      "house": "",
      "postcode": "2910-206",
      "city": "SETÚBAL",
      "lon": "-8.773840540482212",
      "lat": "38.560915333624806"
    },
    {
      "id": "pt.ine.add.PTCONT.4845879",
      "street": "CAM SALGUEIROS",
      "house": "25A",
      "postcode": "2910-224",
      "city": "SETÚBAL",
      "lon": "-8.766913342707436",
      "lat": "38.5585928676477"
    },
    {
      "id": "pt.ine.add.PTCONT.4861154",
      "street": "R ESPERANÇA",
      "house": "15 A",
      "postcode": "2910-211",
      "city": "SETÚBAL",
      "lon": "-8.771555593218633",
      "lat": "38.56071161862382"
    },
    {
      "id": "pt.ine.add.PTCONT.4869728",
      "street": "CAM SALGUEIROS",
      "house": "26",
      "postcode": "2910-224",
      "city": "SETÚBAL",
      "lon": "-8.766867928588283",
      "lat": "38.55864716338472"
    },
    {
      "id": "pt.ine.add.PTCONT.4888127",
      "street": "R 1 DE MAIO",
      "house": "16",
      "postcode": "2910-223",
      "city": "SETÚBAL",
      "lon": "-8.769890994018025",
      "lat": "38.5592973728728"
    },
    {
      "id": "pt.ine.add.PTCONT.4891929",
      "street": "R 1 MAIO",
      "house": "10",
      "postcode": "2910-223",
      "city": "SETÚBAL",
      "lon": "-8.770175256667462",
      "lat": "38.559007560355106"
    },
    {
      "id": "pt.ine.add.PTCONT.4892216",
      "street": "R 1 MAIO",
      "house": "6",
      "postcode": "2910-223",
      "city": "SETÚBAL",
      "lon": "-8.770175256667462",
      "lat": "38.559007560355106"
    },
    {
      "id": "pt.ine.add.PTCONT.4899789",
      "street": "R ESPERANÇA",
      "house": "15 D",
      "postcode": "2910-211",
      "city": "SETÚBAL",
      "lon": "-8.771453615515158",
      "lat": "38.56085630765146"
    },
    {
      "id": "pt.ine.add.PTCONT.4920220",
      "street": "CAM SALGUEIROS",
      "house": "25",
      "postcode": "2910-224",
      "city": "SETÚBAL",
      "lon": "-8.766947284588456",
      "lat": "38.55853863400972"
    },
    {
      "id": "pt.ine.add.PTCONT.4929139",
      "street": "CAM SALGUEIROS",
      "house": "33",
      "postcode": "2910-224",
      "city": "SETÚBAL",
      "lon": "-8.769119969431337",
      "lat": "38.559031315188555"
    },
    {
      "id": "pt.ine.add.PTCONT.4941847",
      "street": "R ESPERANÇA",
      "house": "7",
      "postcode": "2910-211",
      "city": "SETÚBAL",
      "lon": "-8.771071916477789",
      "lat": "38.56050706453901"
    },
    {
      "id": "pt.ine.add.PTCONT.5003389",
      "street": "CAM SALGUEIROS",
      "house": "21",
      "postcode": "2910-224",
      "city": "SETÚBAL",
      "lon": "-8.767003854277752",
      "lat": "38.55844824459111"
    },
    {
      "id": "pt.ine.add.PTCONT.5003762",
      "street": "R 1 DE MAIO",
      "house": "20",
      "postcode": "2910-223",
      "city": "SETÚBAL",
      "lon": "-8.76978869705072",
      "lat": "38.559406028992036"
    },
    {
      "id": "pt.ine.add.PTCONT.5006879",
      "street": "R 1 DE MAIO",
      "house": "18",
      "postcode": "2910-223",
      "city": "SETÚBAL",
      "lon": "-8.769845581719213",
      "lat": "38.559351669743094"
    },
    {
      "id": "pt.ine.add.PTCONT.5030730",
      "street": "CAM SALGUEIROS",
      "house": "35",
      "postcode": "2910-224",
      "city": "SETÚBAL",
      "lon": "-8.769690721273747",
      "lat": "38.55870391372481"
    },
    {
      "id": "pt.ine.add.PTCONT.5051686",
      "street": "R 1 DE MAIO",
      "house": "22",
      "postcode": "2910-223",
      "city": "SETÚBAL",
      "lon": "-8.76968520797428",
      "lat": "38.55937956687824"
    },
    {
      "id": "pt.ine.add.PTCONT.5058605",
      "street": "CAM SALGUEIROS",
      "house": "27",
      "postcode": "2910-224",
      "city": "SETÚBAL",
      "lon": "-8.767086058399208",
      "lat": "38.55866399888639"
    },
    {
      "id": "pt.ine.add.PTCONT.5058606",
      "street": "CAM SALGUEIROS",
      "house": "27",
      "postcode": "2910-224",
      "city": "SETÚBAL",
      "lon": "-8.767086058399208",
      "lat": "38.55866399888639"
    },
    {
      "id": "pt.ine.add.PTCONT.5058607",
      "street": "R 1 MAIO",
      "house": "4",
      "postcode": "2910-223",
      "city": "SETÚBAL",
      "lon": "-8.770470989231237",
      "lat": "38.55871768469145"
    },
    {
      "id": "pt.ine.add.PTCONT.5065922",
      "street": "R ESCOLA",
      "house": "",
      "postcode": "2910-210",
      "city": "SETÚBAL",
      "lon": "-8.766597663986822",
      "lat": "38.55791895301935"
    },
    {
      "id": "pt.ine.add.PTCONT.5097889",
      "street": "R ESPERANÇA",
      "house": "5",
      "postcode": "2910-211",
      "city": "SETÚBAL",
      "lon": "-8.77092126171453",
      "lat": "38.560336727662"
    },
    {
      "id": "pt.ine.add.PTCONT.5099821",
      "street": "R 1 DE MAIO",
      "house": "9",
      "postcode": "2910-223",
      "city": "SETÚBAL",
      "lon": "-8.769722803195847",
      "lat": "38.55973969475878"
    },
    {
      "id": "pt.ine.add.PTCONT.5106217",
      "street": "CAM SALGUEIROS",
      "house": "23",
      "postcode": "2910-224",
      "city": "SETÚBAL",
      "lon": "-8.76694688904332",
      "lat": "38.55849359459719"
    },
    {
      "id": "pt.ine.add.PTCONT.5123503",
      "street": "CAM SALGUEIROS",
      "house": "15",
      "postcode": "2910-224",
      "city": "SETÚBAL",
      "lon": "-8.766752653115272",
      "lat": "38.55858472923362"
    },
    {
      "id": "pt.ine.add.PTCONT.5129601",
      "street": "CAM SALGUEIROS",
      "house": "31",
      "postcode": "2910-224",
      "city": "SETÚBAL",
      "lon": "-8.769199401829294",
      "lat": "38.55893179219735"
    }
  ]
}