{
  "data": {
    "distrito": "Aveiro",
    "concelho": "Mealhada",
    "freguesia": "Barcouço",
    "OBJECTID": 349,
    "BGRI2021": "01110200223",
    "DT21": "01",
    "DTMN21": "0111",
    "DTMNFR21": "011102",
    "DTMNFRSEC21": "011102002",
    "SECNUM21": "002",
    "SSNUM21": "23",
    "SECSSNUM21": "00223",
    "OBJECTID_1": 7845,
    "DT": "01",
    "CC": "11",
    "fr": "02",
    "SEC": "002",
    "SS": "23"
  },
  "addresses": [
    {
      "id": "pt.ine.add.PTCONT.291724",
      "street": "R OUTEIRAIS",
      "house": "68",
      "postcode": "3050-107",
      "city": "BARCOUÇO",
      "lon": "-8.47688088106872",
      "lat": "40.30515378439717"
    },
    {
      "id": "pt.ine.add.PTCONT.294452",
      "street": "R OUTEIRAIS",
      "house": "89",
      "postcode": "3050-107",
      "city": "BARCOUÇO",
      "lon": "-8.477137103325767",
      "lat": "40.30464870376568"
    },
    {
      "id": "pt.ine.add.PTCONT.302353",
      "street": "R OUTEIRAIS",
      "house": "101",
      "postcode": "3050-107",
      "city": "BARCOUÇO",
      "lon": "-8.477058281695882",
      "lat": "40.30534237674393"
    },
    {
      "id": "pt.ine.add.PTCONT.303838",
      "street": "R OUTEIRAIS",
      "house": "18",
      "postcode": "3050-107",
      "city": "BARCOUÇO",
      "lon": "-8.477240088285935",
      "lat": "40.304081038550756"
    },
    {
      "id": "pt.ine.add.PTCONT.324859",
      "street": "R IGREJA VELHA",
      "house": "",
      "postcode": "3050-108",
      "city": "BARCOUÇO",
      "lon": "-8.478860522587034",
      "lat": "40.30352685963114"
    },
    {
      "id": "pt.ine.add.PTCONT.328143",
      "street": "R OUTEIRAIS",
      "house": "28",
      "postcode": "3050-107",
      "city": "BARCOUÇO",
      "lon": "-8.476934580956428",
      "lat": "40.304144986766154"
    },
    {
      "id": "pt.ine.add.PTCONT.329417",
      "street": "R OUTEIRAIS",
      "house": "49",
      "postcode": "3050-107",
      "city": "BARCOUÇO",
      "lon": "-8.477303929062359",
      "lat": "40.30507147530397"
    },
    {
      "id": "pt.ine.add.PTCONT.348975",
      "street": "R IGREJA VELHA",
      "house": "",
      "postcode": "3050-108",
      "city": "BARCOUÇO",
      "lon": "-8.477871970904474",
      "lat": "40.303430747017124"
    },
    {
      "id": "pt.ine.add.PTCONT.2643",
      "street": "R IGREJA VELHA",
      "house": "",
      "postcode": "3050-108",
      "city": "BARCOUÇO",
      "lon": "-8.478307915381595",
      "lat": "40.30357353827395"
    },
    {
      "id": "pt.ine.add.PTCONT.9335",
      "street": "R OUTEIRAIS",
      "house": "91",
      "postcode": "3050-107",
      "city": "BARCOUÇO",
      "lon": "-8.477090509437518",
      "lat": "40.30473889927736"
    },
    {
      "id": "pt.ine.add.PTCONT.38835",
      "street": "R IGREJA VELHA",
      "house": "B",
      "postcode": "3050-108",
      "city": "BARCOUÇO",
      "lon": "-8.47946977962303",
      "lat": "40.303056740929506"
    },
    {
      "id": "pt.ine.add.PTCONT.44374",
      "street": "R OUTEIRAIS",
      "house": "62",
      "postcode": "3050-107",
      "city": "BARCOUÇO",
      "lon": "-8.476903539121903",
      "lat": "40.304982608839374"
    },
    {
      "id": "pt.ine.add.PTCONT.49588",
      "street": "R IGREJA VELHA",
      "house": "4",
      "postcode": "3050-108",
      "city": "BARCOUÇO",
      "lon": "-8.478037195003271",
      "lat": "40.30353832292036"
    },
    {
      "id": "pt.ine.add.PTCONT.57483",
      "street": "R OUTEIRAIS",
      "house": "48",
      "postcode": "3050-107",
      "city": "BARCOUÇO",
      "lon": "-8.476960480576771",
      "lat": "40.30461320605371"
    },
    {
      "id": "pt.ine.add.PTCONT.82069",
      "street": "R OUTEIRAIS",
      "house": "69",
      "postcode": "3050-107",
      "city": "BARCOUÇO",
      "lon": "-8.477146718681498",
      "lat": "40.304225407404225"
    },
    {
      "id": "pt.ine.add.PTCONT.99439",
      "street": "R OUTEIRAIS",
      "house": "19",
      "postcode": "3050-107",
      "city": "BARCOUÇO",
      "lon": "-8.477487559665134",
      "lat": "40.304170359156345"
    },
    {
      "id": "pt.ine.add.PTCONT.104334",
      "street": "R IGREJA VELHA",
      "house": "5",
      "postcode": "3050-108",
      "city": "BARCOUÇO",
      "lon": "-8.47840022701937",
      "lat": "40.30322204055765"
    },
    {
      "id": "pt.ine.add.PTCONT.132644",
      "street": "R OUTEIRAIS",
      "house": "35",
      "postcode": "3050-107",
      "city": "BARCOUÇO",
      "lon": "-8.477360456959865",
      "lat": "40.304621022288565"
    },
    {
      "id": "pt.ine.add.PTCONT.132649",
      "street": "R OUTEIRAIS",
      "house": "42",
      "postcode": "3050-107",
      "city": "BARCOUÇO",
      "lon": "-8.47699503789725",
      "lat": "40.304469012187624"
    },
    {
      "id": "pt.ine.add.PTCONT.209771",
      "street": "R OUTEIRAIS",
      "house": "24",
      "postcode": "3050-107",
      "city": "BARCOUÇO",
      "lon": "-8.47706383237157",
      "lat": "40.30411758548244"
    },
    {
      "id": "pt.ine.add.PTCONT.213293",
      "street": "R OUTEIRAIS",
      "house": "14",
      "postcode": "3050-107",
      "city": "BARCOUÇO",
      "lon": "-8.47742810657637",
      "lat": "40.304044456344734"
    },
    {
      "id": "pt.ine.add.PTCONT.213594",
      "street": "EM 617 RUA DO QUARTEIRÃO",
      "house": "",
      "postcode": "3050-094",
      "city": "BARCOUÇO",
      "lon": "-8.47825582984387",
      "lat": "40.30951745154595"
    },
    {
      "id": "pt.ine.add.PTCONT.215378",
      "street": "",
      "house": "",
      "postcode": "3050-107",
      "city": "BARCOUÇO",
      "lon": "-8.476904303926418",
      "lat": "40.30977363506446"
    },
    {
      "id": "pt.ine.add.PTCONT.219233",
      "street": "R OUTEIRAIS",
      "house": "40",
      "postcode": "3050-107",
      "city": "BARCOUÇO",
      "lon": "-8.476924142439586",
      "lat": "40.304406183014784"
    },
    {
      "id": "pt.ine.add.PTCONT.224811",
      "street": "R IGREJA VELHA",
      "house": "",
      "postcode": "3050-108",
      "city": "BARCOUÇO",
      "lon": "-8.479154262818952",
      "lat": "40.30346294152496"
    },
    {
      "id": "pt.ine.add.PTCONT.235598",
      "street": "R OUTEIRAIS",
      "house": "34",
      "postcode": "3050-107",
      "city": "BARCOUÇO",
      "lon": "-8.476900114976472",
      "lat": "40.3043071917457"
    },
    {
      "id": "pt.ine.add.PTCONT.264127",
      "street": "R IGREJA VELHA",
      "house": "",
      "postcode": "3050-108",
      "city": "BARCOUÇO",
      "lon": "-8.479316868499897",
      "lat": "40.30305719860849"
    },
    {
      "id": "pt.ine.add.PTCONT.276593",
      "street": "R ATEIRAIS",
      "house": "81",
      "postcode": "3050-091",
      "city": "BARCOUÇO",
      "lon": "-8.477159303680564",
      "lat": "40.304387472532724"
    },
    {
      "id": "pt.ine.add.PTCONT.276594",
      "street": "R OUTEIRAIS",
      "house": "41",
      "postcode": "3050-107",
      "city": "BARCOUÇO",
      "lon": "-8.477159303680564",
      "lat": "40.304387472532724"
    }
  ]
}