{
  "data": {
    "distrito": "Setúbal",
    "concelho": "Setúbal",
    "freguesia": "União das freguesias de Azeitão (São Lourenço e São Simão)",
    "OBJECTID": 408,
    "BGRI2021": "15120900834",
    "DT21": "15",
    "DTMN21": "1512",
    "DTMNFR21": "151209",
    "DTMNFRSEC21": "151209008",
    "SECNUM21": "008",
    "SSNUM21": "34",
    "SECSSNUM21": "00834",
    "OBJECTID_1": 170346,
    "DT": "15",
    "CC": "12",
    "fr": "09",
    "SEC": "008",
    "SS": "34"
  },
  "addresses": [
    {
      "id": "pt.ine.add.PTCONT.4698555",
      "street": "R HISTORIA PORTUGUESA",
      "house": "24",
      "postcode": "2925-169",
      "city": "AZEITÃO",
      "lon": "-9.020298270139005",
      "lat": "38.55391998552465"
    },
    {
      "id": "pt.ine.add.PTCONT.4746226",
      "street": "R HISTORIA PORTUGUESA",
      "house": "22",
      "postcode": "2925-169",
      "city": "AZEITÃO",
      "lon": "-9.020101938977202",
      "lat": "38.5538133749178"
    },
    {
      "id": "pt.ine.add.PTCONT.4825272",
      "street": "R TRADICAO",
      "house": "19",
      "postcode": "2925-300",
      "city": "AZEITÃO",
      "lon": "-9.019875290481274",
      "lat": "38.5540402969974"
    },
    {
      "id": "pt.ine.add.PTCONT.4876037",
      "street": "R HISTORIA PORTUGUESA",
      "house": "28",
      "postcode": "2925-169",
      "city": "AZEITÃO",
      "lon": "-9.02042444850807",
      "lat": "38.55391902918339"
    },
    {
      "id": "pt.ine.add.PTCONT.4970770",
      "street": "R BAIRRO",
      "house": "13",
      "postcode": "2925-099",
      "city": "AZEITÃO",
      "lon": "-9.019565689980372",
      "lat": "38.5540516500523"
    },
    {
      "id": "pt.ine.add.PTCONT.5000821",
      "street": "R TRADICAO",
      "house": "19",
      "postcode": "2925-300",
      "city": "AZEITÃO",
      "lon": "-9.019932976380948",
      "lat": "38.55406688460045"
    },
    {
      "id": "pt.ine.add.PTCONT.5065918",
      "street": "R HISTORIA PORTUGUESA",
      "house": "20",
      "postcode": "2925-169",
      "city": "AZEITÃO",
      "lon": "-9.019849914539284",
      "lat": "38.553842308847145"
    },
    {
      "id": "pt.ine.add.PTCONT.5107369",
      "street": "R TRADICAO",
      "house": "27",
      "postcode": "2925-300",
      "city": "AZEITÃO",
      "lon": "-9.020496262896183",
      "lat": "38.55416170617536"
    }
  ]
}