{
  "data": {
    "distrito": "Lisboa",
    "concelho": "Mafra",
    "freguesia": "Ericeira",
    "OBJECTID": 1519,
    "BGRI2021": "11090600505",
    "DT21": "11",
    "DTMN21": "1109",
    "DTMNFR21": "110906",
    "DTMNFRSEC21": "110906005",
    "SECNUM21": "005",
    "SSNUM21": "05",
    "SECSSNUM21": "00505",
    "OBJECTID_1": 108469,
    "DT": "11",
    "CC": "09",
    "fr": "06",
    "SEC": "005",
    "SS": "05"
  },
  "addresses": [
    {
      "id": "pt.ine.add.PTCONT.2316844",
      "street": "ESTR OUTEIRINHO",
      "house": "",
      "postcode": "2655-415",
      "city": "ERICEIRA",
      "lon": "-9.392130797761004",
      "lat": "38.96770965346548"
    },
    {
      "id": "pt.ine.add.PTCONT.2347832",
      "street": "ESTR OUTEIRINHO",
      "house": "18",
      "postcode": "2655-415",
      "city": "ERICEIRA",
      "lon": "-9.390577605910309",
      "lat": "38.967960592840726"
    },
    {
      "id": "pt.ine.add.PTCONT.2426794",
      "street": "R ARADO",
      "house": "1",
      "postcode": "2655-415",
      "city": "ERICEIRA",
      "lon": "-9.39008060976893",
      "lat": "38.967911903643795"
    },
    {
      "id": "pt.ine.add.PTCONT.2465438",
      "street": "R MURTAS",
      "house": "",
      "postcode": "2655-437",
      "city": "ERICEIRA",
      "lon": "-9.391723000602592",
      "lat": "38.968137397960874"
    },
    {
      "id": "pt.ine.add.PTCONT.2484946",
      "street": "ESTR OUTEIRINHO",
      "house": "19",
      "postcode": "2655-415",
      "city": "ERICEIRA",
      "lon": "-9.390415467290083",
      "lat": "38.967926310654796"
    },
    {
      "id": "pt.ine.add.PTCONT.2619454",
      "street": "ESTR OUTEIRINHO",
      "house": "24",
      "postcode": "2655-415",
      "city": "ERICEIRA",
      "lon": "-9.390889710616829",
      "lat": "38.96799325837092"
    },
    {
      "id": "pt.ine.add.PTCONT.2655724",
      "street": "R MURTAS",
      "house": "",
      "postcode": "2655-437",
      "city": "ERICEIRA",
      "lon": "-9.391101179222979",
      "lat": "38.96820715493782"
    },
    {
      "id": "pt.ine.add.PTCONT.2693063",
      "street": "R ARADO",
      "house": "3",
      "postcode": "2655-415",
      "city": "ERICEIRA",
      "lon": "-9.389991347362912",
      "lat": "38.96808400471285"
    },
    {
      "id": "pt.ine.add.PTCONT.2851791",
      "street": "ESTR OUTEIRINHO",
      "house": "17",
      "postcode": "2655-415",
      "city": "ERICEIRA",
      "lon": "-9.390762975633093",
      "lat": "38.968003631756844"
    },
    {
      "id": "pt.ine.add.PTCONT.2860944",
      "street": "R MURTAS",
      "house": "17",
      "postcode": "2655-437",
      "city": "ERICEIRA",
      "lon": "-9.391309302969587",
      "lat": "38.96823193297693"
    },
    {
      "id": "pt.ine.add.PTCONT.2929544",
      "street": "R ARADO",
      "house": "13",
      "postcode": "2655-415",
      "city": "ERICEIRA",
      "lon": "-9.390546342468507",
      "lat": "38.96815008396701"
    },
    {
      "id": "pt.ine.add.PTCONT.2979043",
      "street": "ESTR OUTEIRINHO",
      "house": "20",
      "postcode": "2655-415",
      "city": "ERICEIRA",
      "lon": "-9.390219517335622",
      "lat": "38.96793742923499"
    },
    {
      "id": "pt.ine.add.PTCONT.2993555",
      "street": "ESTR OUTEIRINHO CASA DO BAMBI",
      "house": "5",
      "postcode": "2655-415",
      "city": "ERICEIRA",
      "lon": "-9.391315102629605",
      "lat": "38.96790760608864"
    },
    {
      "id": "pt.ine.add.PTCONT.3039224",
      "street": "R MURTAS",
      "house": "11",
      "postcode": "2655-437",
      "city": "ERICEIRA",
      "lon": "-9.391515673833105",
      "lat": "38.968157648777904"
    },
    {
      "id": "pt.ine.add.PTCONT.3087066",
      "street": "R ARADO",
      "house": "14",
      "postcode": "2655-415",
      "city": "ERICEIRA",
      "lon": "-9.390372986004744",
      "lat": "38.96813393729964"
    },
    {
      "id": "pt.ine.add.PTCONT.3161237",
      "street": "R ARADO",
      "house": "12",
      "postcode": "2655-415",
      "city": "ERICEIRA",
      "lon": "-9.390732986799891",
      "lat": "38.96826516793731"
    },
    {
      "id": "pt.ine.add.PTCONT.3197920",
      "street": "R MURTAS",
      "house": "8",
      "postcode": "2655-437",
      "city": "ERICEIRA",
      "lon": "-9.392147276277504",
      "lat": "38.96798870328978"
    },
    {
      "id": "pt.ine.add.PTCONT.3225514",
      "street": "R MURTAS",
      "house": "13",
      "postcode": "2655-437",
      "city": "ERICEIRA",
      "lon": "-9.39089464847728",
      "lat": "38.968272432786506"
    },
    {
      "id": "pt.ine.add.PTCONT.3238688",
      "street": "ESTR OUTEIRINHO",
      "house": "",
      "postcode": "2655-415",
      "city": "ERICEIRA",
      "lon": "-9.391511052280746",
      "lat": "38.96789648567251"
    },
    {
      "id": "pt.ine.add.PTCONT.3252774",
      "street": "R CHARRUA",
      "house": "7",
      "postcode": "2655-437",
      "city": "ERICEIRA",
      "lon": "-9.39229564749353",
      "lat": "38.96789702883625"
    },
    {
      "id": "pt.ine.add.PTCONT.3298681",
      "street": "ESTR OUTEIRINHO",
      "house": "",
      "postcode": "2655-415",
      "city": "ERICEIRA",
      "lon": "-9.391947341044073",
      "lat": "38.967774684201075"
    },
    {
      "id": "pt.ine.add.PTCONT.3307700",
      "street": "R MURTAS",
      "house": "15",
      "postcode": "2655-437",
      "city": "ERICEIRA",
      "lon": "-9.390199629612827",
      "lat": "38.96811779037338"
    },
    {
      "id": "pt.ine.add.PTCONT.3354412",
      "street": "R MURTAS",
      "house": "9",
      "postcode": "2655-437",
      "city": "ERICEIRA",
      "lon": "-9.391941225426317",
      "lat": "38.96808099983461"
    },
    {
      "id": "pt.ine.add.PTCONT.3354413",
      "street": "ESTR OUTEIRINHO",
      "house": "6",
      "postcode": "2655-415",
      "city": "ERICEIRA",
      "lon": "-9.391073806135603",
      "lat": "38.967964251779314"
    },
    {
      "id": "pt.ine.add.PTCONT.3439993",
      "street": "ESTR OUTEIRINHO",
      "house": "3",
      "postcode": "2655-415",
      "city": "ERICEIRA",
      "lon": "-9.391729276549148",
      "lat": "38.96784008794988"
    }
  ]
}