{
  "data": {
    "distrito": "Lisboa",
    "concelho": "Torres Vedras",
    "freguesia": "Turcifal",
    "OBJECTID": 1651,
    "BGRI2021": "11131700316",
    "DT21": "11",
    "DTMN21": "1113",
    "DTMNFR21": "111317",
    "DTMNFRSEC21": "111317003",
    "SECNUM21": "003",
    "SSNUM21": "16",
    "SECSSNUM21": "00316",
    "OBJECTID_1": 116237,
    "DT": "11",
    "CC": "13",
    "fr": "17",
    "SEC": "003",
    "SS": "16"
  },
  "addresses": [
    {
      "id": "pt.ine.add.PTCONT.2272391",
      "street": "TV MOINHOS",
      "house": "30",
      "postcode": "2565-818",
      "city": "TURCIFAL",
      "lon": "-9.267951829906231",
      "lat": "39.04243856482175"
    },
    {
      "id": "pt.ine.add.PTCONT.2300859",
      "street": "TV MOINHOS",
      "house": "12",
      "postcode": "2565-818",
      "city": "TURCIFAL",
      "lon": "-9.267008917792683",
      "lat": "39.04197935560035"
    },
    {
      "id": "pt.ine.add.PTCONT.2311130",
      "street": "TV MOINHOS",
      "house": "16",
      "postcode": "2565-818",
      "city": "TURCIFAL",
      "lon": "-9.267158470812225",
      "lat": "39.041941872189014"
    },
    {
      "id": "pt.ine.add.PTCONT.2320684",
      "street": "LG POÇO NOVO",
      "house": "1",
      "postcode": "2565-762",
      "city": "TURCIFAL",
      "lon": "-9.267568137892626",
      "lat": "39.04228016604424"
    },
    {
      "id": "pt.ine.add.PTCONT.2354987",
      "street": "R ROGERIO FIGUEIROA REGO",
      "house": "97",
      "postcode": "2565-814",
      "city": "TURCIFAL",
      "lon": "-9.266435024412576",
      "lat": "39.04075993830184"
    },
    {
      "id": "pt.ine.add.PTCONT.2391899",
      "street": "TV DA CERCA",
      "house": "3",
      "postcode": "2565-814",
      "city": "TURCIFAL",
      "lon": "-9.266312848988093",
      "lat": "39.0417879600568"
    },
    {
      "id": "pt.ine.add.PTCONT.2391902",
      "street": "TV DA CERCA",
      "house": "3",
      "postcode": "2565-814",
      "city": "TURCIFAL",
      "lon": "-9.266312848988093",
      "lat": "39.0417879600568"
    },
    {
      "id": "pt.ine.add.PTCONT.2391903",
      "street": "R ROGERI O FIGUEIROA REGO",
      "house": "71",
      "postcode": "2565-814",
      "city": "TURCIFAL",
      "lon": "-9.266693436215231",
      "lat": "39.040307060801396"
    },
    {
      "id": "pt.ine.add.PTCONT.2391905",
      "street": "R PAULO CANTARINHO",
      "house": "4",
      "postcode": "2565-802",
      "city": "TURCIFAL",
      "lon": "-9.267034318261688",
      "lat": "39.04212322574698"
    },
    {
      "id": "pt.ine.add.PTCONT.2395475",
      "street": "TV DA CERCA",
      "house": "3",
      "postcode": "2565-814",
      "city": "TURCIFAL",
      "lon": "-9.266312848988093",
      "lat": "39.0417879600568"
    },
    {
      "id": "pt.ine.add.PTCONT.2401324",
      "street": "TV MOINHOS",
      "house": "2",
      "postcode": "2565-818",
      "city": "TURCIFAL",
      "lon": "-9.266650773879176",
      "lat": "39.04197382980706"
    },
    {
      "id": "pt.ine.add.PTCONT.2428680",
      "street": "R MOINHOS",
      "house": "",
      "postcode": "2565-766",
      "city": "TURCIFAL",
      "lon": "-9.26857445146775",
      "lat": "39.04164886794387"
    },
    {
      "id": "pt.ine.add.PTCONT.2437223",
      "street": "R PAULO CANTARINHO",
      "house": "5",
      "postcode": "2565-802",
      "city": "TURCIFAL",
      "lon": "-9.26717073918153",
      "lat": "39.04198678948883"
    },
    {
      "id": "pt.ine.add.PTCONT.2519303",
      "street": "TV MOINHOS",
      "house": "24",
      "postcode": "2565-818",
      "city": "TURCIFAL",
      "lon": "-9.267635987897853",
      "lat": "39.04218943283653"
    },
    {
      "id": "pt.ine.add.PTCONT.2520846",
      "street": "TV MOINHOS",
      "house": "18",
      "postcode": "2565-818",
      "city": "TURCIFAL",
      "lon": "-9.267308455715597",
      "lat": "39.04193140634392"
    },
    {
      "id": "pt.ine.add.PTCONT.2537268",
      "street": "R ROGERIO FIGUEIROA REGO",
      "house": "89",
      "postcode": "2565-814",
      "city": "TURCIFAL",
      "lon": "-9.2664900311576",
      "lat": "39.04058826464763"
    },
    {
      "id": "pt.ine.add.PTCONT.2546392",
      "street": "TV MOINHOS",
      "house": "8",
      "postcode": "2565-818",
      "city": "TURCIFAL",
      "lon": "-9.266858356900205",
      "lat": "39.041953797382426"
    },
    {
      "id": "pt.ine.add.PTCONT.2554225",
      "street": "LG POÇO NOVO",
      "house": "2",
      "postcode": "2565-762",
      "city": "TURCIFAL",
      "lon": "-9.267650417524758",
      "lat": "39.042369438833866"
    },
    {
      "id": "pt.ine.add.PTCONT.2582716",
      "street": "TV MOINHOS",
      "house": "6",
      "postcode": "2565-818",
      "city": "TURCIFAL",
      "lon": "-9.267484562117668",
      "lat": "39.0421098399326"
    },
    {
      "id": "pt.ine.add.PTCONT.2644829",
      "street": "R ROGERIO FIGUEIROA REGO",
      "house": "49A",
      "postcode": "2565-814",
      "city": "TURCIFAL",
      "lon": "-9.266681676707519",
      "lat": "39.04173933913087"
    },
    {
      "id": "pt.ine.add.PTCONT.2689431",
      "street": "R POÇO NOVO",
      "house": "19",
      "postcode": "2565-810",
      "city": "TURCIFAL",
      "lon": "-9.267289535353221",
      "lat": "39.042192802596496"
    },
    {
      "id": "pt.ine.add.PTCONT.2689432",
      "street": "TV MOINHOS",
      "house": "14",
      "postcode": "2565-818",
      "city": "TURCIFAL",
      "lon": "-9.267042987021064",
      "lat": "39.041942995077925"
    },
    {
      "id": "pt.ine.add.PTCONT.2696872",
      "street": "R RVA ROGERIO FIGUEIROA REGO",
      "house": "97",
      "postcode": "2565-814",
      "city": "TURCIFAL",
      "lon": "-9.267157261728203",
      "lat": "39.0396990610317"
    },
    {
      "id": "pt.ine.add.PTCONT.2696873",
      "street": "R ROGERIO FIGUEIROA REGO",
      "house": "",
      "postcode": "2565-814",
      "city": "TURCIFAL",
      "lon": "-9.266609939885319",
      "lat": "39.0415869119312"
    },
    {
      "id": "pt.ine.add.PTCONT.2704786",
      "street": "R POÇO NOVO",
      "house": "13",
      "postcode": "2565-810",
      "city": "TURCIFAL",
      "lon": "-9.267393759178034",
      "lat": "39.042209803612394"
    },
    {
      "id": "pt.ine.add.PTCONT.2759594",
      "street": "R ROGERIO FIGUEIROA REGO",
      "house": "81",
      "postcode": "2565-814",
      "city": "TURCIFAL",
      "lon": "-9.266546476756872",
      "lat": "39.040506650199184"
    },
    {
      "id": "pt.ine.add.PTCONT.2759595",
      "street": "R ROGERIO FIGUEIROA REGO",
      "house": "81",
      "postcode": "2565-814",
      "city": "TURCIFAL",
      "lon": "-9.266546476756872",
      "lat": "39.040506650199184"
    },
    {
      "id": "pt.ine.add.PTCONT.2785280",
      "street": "TV CERCA",
      "house": "",
      "postcode": "2565-818",
      "city": "TURCIFAL",
      "lon": "-9.26649733487029",
      "lat": "39.04176815269946"
    },
    {
      "id": "pt.ine.add.PTCONT.2785281",
      "street": "TV CERCA",
      "house": "",
      "postcode": "2565-818",
      "city": "TURCIFAL",
      "lon": "-9.26649733487029",
      "lat": "39.04176815269946"
    },
    {
      "id": "pt.ine.add.PTCONT.2785282",
      "street": "TV CERCA",
      "house": "",
      "postcode": "2565-818",
      "city": "TURCIFAL",
      "lon": "-9.26649733487029",
      "lat": "39.04176815269946"
    },
    {
      "id": "pt.ine.add.PTCONT.2785283",
      "street": "TV CERCA",
      "house": "",
      "postcode": "2565-818",
      "city": "TURCIFAL",
      "lon": "-9.26649733487029",
      "lat": "39.04176815269946"
    },
    {
      "id": "pt.ine.add.PTCONT.2788307",
      "street": "TV CERCA",
      "house": "",
      "postcode": "2565-818",
      "city": "TURCIFAL",
      "lon": "-9.26649733487029",
      "lat": "39.04176815269946"
    },
    {
      "id": "pt.ine.add.PTCONT.2808507",
      "street": "R ALTO DA CERCA",
      "house": "4",
      "postcode": "2565-819",
      "city": "TURCIFAL",
      "lon": "-9.267462211098318",
      "lat": "39.04143450838155"
    },
    {
      "id": "pt.ine.add.PTCONT.2822786",
      "street": "TV MOINHOS",
      "house": "1",
      "postcode": "2565-818",
      "city": "TURCIFAL",
      "lon": "-9.267665879112704",
      "lat": "39.04189190053209"
    },
    {
      "id": "pt.ine.add.PTCONT.2827203",
      "street": "R POÇO NOVO",
      "house": "5",
      "postcode": "2565-810",
      "city": "TURCIFAL",
      "lon": "-9.266731900464809",
      "lat": "39.041991055908824"
    },
    {
      "id": "pt.ine.add.PTCONT.2904668",
      "street": "TV MOINHOS",
      "house": "10",
      "postcode": "2565-818",
      "city": "TURCIFAL",
      "lon": "-9.266939771447488",
      "lat": "39.04198903517881"
    },
    {
      "id": "pt.ine.add.PTCONT.2968408",
      "street": "CSL OURESSAS",
      "house": "",
      "postcode": "2565-805",
      "city": "TURCIFAL",
      "lon": "-9.268405855576747",
      "lat": "39.0412181579434"
    },
    {
      "id": "pt.ine.add.PTCONT.3004391",
      "street": "TV MOINHOS",
      "house": "20",
      "postcode": "2565-818",
      "city": "TURCIFAL",
      "lon": "-9.267435343821525",
      "lat": "39.04192116495276"
    },
    {
      "id": "pt.ine.add.PTCONT.3041244",
      "street": "R ALTO DA CERCA",
      "house": "2",
      "postcode": "2565-819",
      "city": "TURCIFAL",
      "lon": "-9.267569314770034",
      "lat": "39.04163162762952"
    },
    {
      "id": "pt.ine.add.PTCONT.3042783",
      "street": "R ALTO DA CERCA",
      "house": "2",
      "postcode": "2565-819",
      "city": "TURCIFAL",
      "lon": "-9.267569314770034",
      "lat": "39.04163162762952"
    },
    {
      "id": "pt.ine.add.PTCONT.3050412",
      "street": "R POÇO NOVO",
      "house": "9",
      "postcode": "2565-810",
      "city": "TURCIFAL",
      "lon": "-9.267161638750427",
      "lat": "39.0421400024051"
    },
    {
      "id": "pt.ine.add.PTCONT.3079285",
      "street": "R ROGERIO FIGUEIROA REGO",
      "house": "47",
      "postcode": "2565-814",
      "city": "TURCIFAL",
      "lon": "-9.267542692504426",
      "lat": "39.03924494645681"
    },
    {
      "id": "pt.ine.add.PTCONT.3079286",
      "street": "R ROGERIO FIGUEIROA REGO",
      "house": "47",
      "postcode": "2565-814",
      "city": "TURCIFAL",
      "lon": "-9.267542692504426",
      "lat": "39.03924494645681"
    },
    {
      "id": "pt.ine.add.PTCONT.3079287",
      "street": "R ROGERIO FIGUEIROA REGO",
      "house": "47",
      "postcode": "2565-814",
      "city": "TURCIFAL",
      "lon": "-9.267542692504426",
      "lat": "39.03924494645681"
    },
    {
      "id": "pt.ine.add.PTCONT.3079288",
      "street": "R MIRANTE",
      "house": "2",
      "postcode": "2565-766",
      "city": "TURCIFAL",
      "lon": "-9.267542692504426",
      "lat": "39.03924494645681"
    },
    {
      "id": "pt.ine.add.PTCONT.3079289",
      "street": "R MIRANTE",
      "house": "6",
      "postcode": "2565-814",
      "city": "TURCIFAL",
      "lon": "-9.267542692504426",
      "lat": "39.03924494645681"
    },
    {
      "id": "pt.ine.add.PTCONT.3079290",
      "street": "R ROGERIO FIGUEIROA REGO",
      "house": "43 A",
      "postcode": "2565-814",
      "city": "TURCIFAL",
      "lon": "-9.267542692504426",
      "lat": "39.03924494645681"
    },
    {
      "id": "pt.ine.add.PTCONT.3079291",
      "street": "R MIRANTE",
      "house": "2",
      "postcode": "2565-814",
      "city": "TURCIFAL",
      "lon": "-9.267542692504426",
      "lat": "39.03924494645681"
    },
    {
      "id": "pt.ine.add.PTCONT.3079292",
      "street": "R MIRANTE",
      "house": "2",
      "postcode": "2565-814",
      "city": "TURCIFAL",
      "lon": "-9.267542692504426",
      "lat": "39.03924494645681"
    },
    {
      "id": "pt.ine.add.PTCONT.3079293",
      "street": "R MIRANTE",
      "house": "4",
      "postcode": "2565-766",
      "city": "TURCIFAL",
      "lon": "-9.267542692504426",
      "lat": "39.03924494645681"
    },
    {
      "id": "pt.ine.add.PTCONT.3079294",
      "street": "R MIRANTE",
      "house": "",
      "postcode": "2565-766",
      "city": "TURCIFAL",
      "lon": "-9.267542692504426",
      "lat": "39.03924494645681"
    },
    {
      "id": "pt.ine.add.PTCONT.3083238",
      "street": "R MIRANTE",
      "house": "2",
      "postcode": "2565-766",
      "city": "TURCIFAL",
      "lon": "-9.267542692504426",
      "lat": "39.03924494645681"
    },
    {
      "id": "pt.ine.add.PTCONT.3106663",
      "street": "R ROGERIO FIGUEIROA REGO",
      "house": "109",
      "postcode": "2565-814",
      "city": "TURCIFAL",
      "lon": "-9.266402106579257",
      "lat": "39.04086834603528"
    },
    {
      "id": "pt.ine.add.PTCONT.3171695",
      "street": "R ROGERIO FIGUEIROA REGO",
      "house": "95",
      "postcode": "2565-814",
      "city": "TURCIFAL",
      "lon": "-9.266456825680043",
      "lat": "39.040678660550896"
    },
    {
      "id": "pt.ine.add.PTCONT.3227815",
      "street": "R POÇO NOVO",
      "house": "7",
      "postcode": "2565-810",
      "city": "TURCIFAL",
      "lon": "-9.266847816218641",
      "lat": "39.042016951086595"
    },
    {
      "id": "pt.ine.add.PTCONT.3292052",
      "street": "TV MOINHOS",
      "house": "26",
      "postcode": "2565-818",
      "city": "TURCIFAL",
      "lon": "-9.267775721509226",
      "lat": "39.04226013197818"
    },
    {
      "id": "pt.ine.add.PTCONT.3301993",
      "street": "R MIRANTE",
      "house": "",
      "postcode": "2565-766",
      "city": "TURCIFAL",
      "lon": "-9.267713727145692",
      "lat": "39.039828758648405"
    },
    {
      "id": "pt.ine.add.PTCONT.3395142",
      "street": "R ROGERI O FIGUEIROA REGO",
      "house": "75",
      "postcode": "2565-814",
      "city": "TURCIFAL",
      "lon": "-9.266614182522762",
      "lat": "39.04040691164141"
    },
    {
      "id": "pt.ine.add.PTCONT.3397247",
      "street": "R ROGERIO FIGUEIROA REGO",
      "house": "151",
      "postcode": "2565-814",
      "city": "TURCIFAL",
      "lon": "-9.266535290015684",
      "lat": "39.04197495219409"
    },
    {
      "id": "pt.ine.add.PTCONT.3420598",
      "street": "R ALTO DA CERCA",
      "house": "2D",
      "postcode": "2565-819",
      "city": "TURCIFAL",
      "lon": "-9.267407782217283",
      "lat": "39.04164220611982"
    },
    {
      "id": "pt.ine.add.PTCONT.3438241",
      "street": "TV CERCA",
      "house": "",
      "postcode": "2565-818",
      "city": "TURCIFAL",
      "lon": "-9.26649733487029",
      "lat": "39.04176815269946"
    },
    {
      "id": "pt.ine.add.PTCONT.3456028",
      "street": "R POÇO NOVO",
      "house": "3",
      "postcode": "2565-810",
      "city": "TURCIFAL",
      "lon": "-9.267755362061898",
      "lat": "39.04243146910403"
    }
  ]
}