{
  "data": {
    "distrito": "Set√∫bal",
    "concelho": "Alcochete",
    "freguesia": "Alcochete",
    "OBJECTID": 185,
    "BGRI2021": "15020100133",
    "DT21": "15",
    "DTMN21": "1502",
    "DTMNFR21": "150201",
    "DTMNFRSEC21": "150201001",
    "SECNUM21": "001",
    "SSNUM21": "33",
    "SECSSNUM21": "00133",
    "OBJECTID_1": 160751,
    "DT": "15",
    "CC": "02",
    "fr": "01",
    "SEC": "001",
    "SS": "33"
  },
  "addresses": [
    {
      "id": "pt.ine.add.PTCONT.4710507",
      "street": "QTA FLORES",
      "house": "",
      "postcode": "2890-164",
      "city": "ALCOCHETE",
      "lon": "-8.927965982168317",
      "lat": "38.720729094333294"
    },
    {
      "id": "pt.ine.add.PTCONT.4784858",
      "street": "QTA FLORES",
      "house": "",
      "postcode": "2890-524",
      "city": "ALCOCHETE",
      "lon": "-8.921035468036287",
      "lat": "38.72519893238668"
    },
    {
      "id": "pt.ine.add.PTCONT.4794564",
      "street": "",
      "house": "",
      "postcode": "2890-524",
      "city": "ALCOCHETE",
      "lon": "-8.926353892484597",
      "lat": "38.72572146236386"
    },
    {
      "id": "pt.ine.add.PTCONT.4799902",
      "street": "SIT PINHEIRO COZINHA",
      "house": "",
      "postcode": "2890-163",
      "city": "ALCOCHETE",
      "lon": "-8.925631704503123",
      "lat": "38.731131150392706"
    },
    {
      "id": "pt.ine.add.PTCONT.4807929",
      "street": "",
      "house": "",
      "postcode": "2890-524",
      "city": "ALCOCHETE",
      "lon": "-8.929296404178752",
      "lat": "38.72249461606397"
    },
    {
      "id": "pt.ine.add.PTCONT.4831706",
      "street": "ESTR ATALAIA",
      "house": "",
      "postcode": "2890-524",
      "city": "ALCOCHETE",
      "lon": "-8.929422079417865",
      "lat": "38.72449353371865"
    },
    {
      "id": "pt.ine.add.PTCONT.4900090",
      "street": "SIT PINHEIRO COZINHA",
      "house": "",
      "postcode": "2890-163",
      "city": "ALCOCHETE",
      "lon": "-8.926311758312238",
      "lat": "38.73127066581027"
    },
    {
      "id": "pt.ine.add.PTCONT.4925082",
      "street": "",
      "house": "",
      "postcode": "2890-163",
      "city": "ALCOCHETE",
      "lon": "-8.92527349407802",
      "lat": "38.729935516846325"
    },
    {
      "id": "pt.ine.add.PTCONT.4934066",
      "street": "ESTR ATALAIA",
      "house": "",
      "postcode": "2890-524",
      "city": "ALCOCHETE",
      "lon": "-8.933890281911491",
      "lat": "38.7209589064284"
    },
    {
      "id": "pt.ine.add.PTCONT.4952615",
      "street": "CAM MUNICIPAL",
      "house": "",
      "postcode": "2890-163",
      "city": "ALCOCHETE",
      "lon": "-8.925753770169232",
      "lat": "38.729689045944326"
    },
    {
      "id": "pt.ine.add.PTCONT.5069710",
      "street": "QTA FLORES",
      "house": "",
      "postcode": "2890-164",
      "city": "ALCOCHETE",
      "lon": "-8.927849908231353",
      "lat": "38.72063079549138"
    },
    {
      "id": "pt.ine.add.PTCONT.5070560",
      "street": "QTA FLORES",
      "house": "",
      "postcode": "2890-164",
      "city": "ALCOCHETE",
      "lon": "-8.928508084206388",
      "lat": "38.71984262403181"
    },
    {
      "id": "pt.ine.add.PTCONT.5114359",
      "street": "EM 1006",
      "house": "",
      "postcode": "2890-182",
      "city": "ALCOCHETE",
      "lon": "-8.923247395933533",
      "lat": "38.72243656641211"
    },
    {
      "id": "pt.ine.add.PTCONT.5116970",
      "street": "QTA FLORES",
      "house": "",
      "postcode": "2890-115",
      "city": "ALCOCHETE",
      "lon": "-8.928245718795894",
      "lat": "38.72106949591256"
    }
  ]
}