{
  "data": {
    "distrito": "Vila Real",
    "concelho": "Vila Real",
    "freguesia": "União das freguesias de São Tomé do Castelo e Justes",
    "OBJECTID": 458,
    "BGRI2021": "17143700110",
    "DT21": "17",
    "DTMN21": "1714",
    "DTMNFR21": "171437",
    "DTMNFRSEC21": "171437001",
    "SECNUM21": "001",
    "SSNUM21": "10",
    "SECSSNUM21": "00110",
    "OBJECTID_1": 188228,
    "DT": "17",
    "CC": "14",
    "fr": "37",
    "SEC": "001",
    "SS": "10"
  },
  "addresses": [
    {
      "id": "pt.ine.add.PTCONT.5296467",
      "street": "R ALCIDES BOAL",
      "house": "23",
      "postcode": "5000-121",
      "city": "JUSTES",
      "lon": "-7.619130137966805",
      "lat": "41.350247343612736"
    },
    {
      "id": "pt.ine.add.PTCONT.5301688",
      "street": "R SENHOR DA AGONIA",
      "house": "",
      "postcode": "5000-121",
      "city": "JUSTES",
      "lon": "-7.617760061240672",
      "lat": "41.35276234722094"
    },
    {
      "id": "pt.ine.add.PTCONT.5305256",
      "street": "R ALCIDES BOAL",
      "house": "",
      "postcode": "5000-121",
      "city": "JUSTES",
      "lon": "-7.618936126183789",
      "lat": "41.35060663857185"
    },
    {
      "id": "pt.ine.add.PTCONT.5309918",
      "street": "R ALCIDES BOAL",
      "house": "",
      "postcode": "5000-121",
      "city": "JUSTES",
      "lon": "-7.618371592514958",
      "lat": "41.35249496291382"
    },
    {
      "id": "pt.ine.add.PTCONT.5317364",
      "street": "R ALCIDES BOAL",
      "house": "",
      "postcode": "5000-121",
      "city": "JUSTES",
      "lon": "-7.618380420856178",
      "lat": "41.35289117997068"
    },
    {
      "id": "pt.ine.add.PTCONT.5332181",
      "street": "R ALCIDES BOAL",
      "house": "",
      "postcode": "5000-121",
      "city": "JUSTES",
      "lon": "-7.618545472894331",
      "lat": "41.35165836506755"
    },
    {
      "id": "pt.ine.add.PTCONT.5338388",
      "street": "R ALCIDES BOAL",
      "house": "",
      "postcode": "5000-121",
      "city": "JUSTES",
      "lon": "-7.618657195036929",
      "lat": "41.35112762630232"
    },
    {
      "id": "pt.ine.add.PTCONT.5345826",
      "street": "R PEREIRA",
      "house": "",
      "postcode": "5000-121",
      "city": "JUSTES",
      "lon": "-7.618415702227498",
      "lat": "41.349929009352664"
    },
    {
      "id": "pt.ine.add.PTCONT.5345934",
      "street": "TV TRAS CELEIROS",
      "house": "",
      "postcode": "5000-121",
      "city": "JUSTES",
      "lon": "-7.618003631259693",
      "lat": "41.35066549699095"
    },
    {
      "id": "pt.ine.add.PTCONT.5350192",
      "street": "R ALCIDES BOAL",
      "house": "2",
      "postcode": "5000-121",
      "city": "JUSTES",
      "lon": "-7.618153387737733",
      "lat": "41.35289016433243"
    },
    {
      "id": "pt.ine.add.PTCONT.5351282",
      "street": "R ALCIDES BOAL",
      "house": "",
      "postcode": "5000-121",
      "city": "JUSTES",
      "lon": "-7.619009022520439",
      "lat": "41.35045389555881"
    },
    {
      "id": "pt.ine.add.PTCONT.5359794",
      "street": "R PEREIRA",
      "house": "2",
      "postcode": "5000-121",
      "city": "JUSTES",
      "lon": "-7.6187495535317735",
      "lat": "41.350020542309714"
    },
    {
      "id": "pt.ine.add.PTCONT.5365230",
      "street": "R DR CESAR TORRES",
      "house": "2",
      "postcode": "5000-121",
      "city": "JUSTES",
      "lon": "-7.618827595910801",
      "lat": "41.35073221018905"
    },
    {
      "id": "pt.ine.add.PTCONT.5365463",
      "street": "R ALCIDES BOAL",
      "house": "1",
      "postcode": "5000-121",
      "city": "JUSTES",
      "lon": "-7.6182363930067565",
      "lat": "41.352971572028366"
    },
    {
      "id": "pt.ine.add.PTCONT.5382373",
      "street": "R DR OTILIO FIGUEIREDO",
      "house": "",
      "postcode": "5000-121",
      "city": "JUSTES",
      "lon": "-7.618271893787343",
      "lat": "41.34998239036621"
    },
    {
      "id": "pt.ine.add.PTCONT.5383412",
      "street": "R ALCIDES BOAL",
      "house": "",
      "postcode": "5000-121",
      "city": "JUSTES",
      "lon": "-7.618766009771437",
      "lat": "41.35096603997323"
    },
    {
      "id": "pt.ine.add.PTCONT.5386797",
      "street": "R ALCIDES BOAL",
      "house": "4",
      "postcode": "5000-121",
      "city": "JUSTES",
      "lon": "-7.6184573632077255",
      "lat": "41.352225225413044"
    },
    {
      "id": "pt.ine.add.PTCONT.5397342",
      "street": "R DR CESAR TORRES",
      "house": "",
      "postcode": "5000-121",
      "city": "JUSTES",
      "lon": "-7.618648932212337",
      "lat": "41.350659379360884"
    },
    {
      "id": "pt.ine.add.PTCONT.5397343",
      "street": "R PEREIRA",
      "house": "4",
      "postcode": "5000-121",
      "city": "JUSTES",
      "lon": "-7.61859457634059",
      "lat": "41.349974829369934"
    },
    {
      "id": "pt.ine.add.PTCONT.5404900",
      "street": "R PEREIRA",
      "house": "5",
      "postcode": "5000-121",
      "city": "JUSTES",
      "lon": "-7.618988029446243",
      "lat": "41.35008463615658"
    },
    {
      "id": "pt.ine.add.PTCONT.5407407",
      "street": "R DR OTILIO FIGUEIREDO",
      "house": "",
      "postcode": "5000-121",
      "city": "JUSTES",
      "lon": "-7.617969417609308",
      "lat": "41.35045825095738"
    },
    {
      "id": "pt.ine.add.PTCONT.5414857",
      "street": "R DR OTILIO FIGUEIREDO",
      "house": "6",
      "postcode": "5000-121",
      "city": "JUSTES",
      "lon": "-7.617896944763771",
      "lat": "41.35055697097094"
    },
    {
      "id": "pt.ine.add.PTCONT.5422290",
      "street": "R SENHOR DA AGONIA",
      "house": "",
      "postcode": "5000-121",
      "city": "JUSTES",
      "lon": "-7.617985958224166",
      "lat": "41.35290742311607"
    },
    {
      "id": "pt.ine.add.PTCONT.5422291",
      "street": "EM 578",
      "house": "6",
      "postcode": "5000-121",
      "city": "JUSTES",
      "lon": "-7.618487075709103",
      "lat": "41.3514870272421"
    },
    {
      "id": "pt.ine.add.PTCONT.5426220",
      "street": "R DR OTILIO FIGUEIREDO",
      "house": "",
      "postcode": "5000-121",
      "city": "JUSTES",
      "lon": "-7.61822275160374",
      "lat": "41.350153247277575"
    }
  ]
}