{
  "data": {
    "distrito": "Braga",
    "concelho": "Guimarães",
    "freguesia": "São Torcato",
    "OBJECTID": 966,
    "BGRI2021": "03086500311",
    "DT21": "03",
    "DTMN21": "0308",
    "DTMNFR21": "030865",
    "DTMNFRSEC21": "030865003",
    "SECNUM21": "003",
    "SSNUM21": "11",
    "SECSSNUM21": "00311",
    "OBJECTID_1": 28378,
    "DT": "03",
    "CC": "08",
    "fr": "65",
    "SEC": "003",
    "SS": "11"
  },
  "addresses": [
    {
      "id": "pt.ine.add.PTCONT.475583",
      "street": "R D MARIA FARIA RAMOS",
      "house": "251",
      "postcode": "4800-881",
      "city": "SÃO TORCATO",
      "lon": "-8.264476729123652",
      "lat": "41.48078829288797"
    },
    {
      "id": "pt.ine.add.PTCONT.478122",
      "street": "R ARQ MARQUES DA SILVA CASA DO PARQUE",
      "house": "566",
      "postcode": "4800-882",
      "city": "SÃO TORCATO",
      "lon": "-8.260859707220682",
      "lat": "41.48019811089572"
    },
    {
      "id": "pt.ine.add.PTCONT.519956",
      "street": "R CHORIO",
      "house": "",
      "postcode": "4800-874",
      "city": "SÃO TORCATO",
      "lon": "-8.260856754389346",
      "lat": "41.478694466083134"
    },
    {
      "id": "pt.ine.add.PTCONT.530738",
      "street": "R ARQ MARQUES DA SILVA",
      "house": "246",
      "postcode": "4800-882",
      "city": "SÃO TORCATO",
      "lon": "-8.262046257794664",
      "lat": "41.48081805461999"
    },
    {
      "id": "pt.ine.add.PTCONT.530739",
      "street": "R ARQ MARQUES DA SILVA",
      "house": "246",
      "postcode": "4800-882",
      "city": "SÃO TORCATO",
      "lon": "-8.262046257794664",
      "lat": "41.48081805461999"
    },
    {
      "id": "pt.ine.add.PTCONT.530740",
      "street": "R ARQ MARQUES DA SILVA",
      "house": "246",
      "postcode": "4800-882",
      "city": "SÃO TORCATO",
      "lon": "-8.262046257794664",
      "lat": "41.48081805461999"
    },
    {
      "id": "pt.ine.add.PTCONT.532782",
      "street": "R ARQ MARQUES DA SILVA",
      "house": "246",
      "postcode": "4800-882",
      "city": "SÃO TORCATO",
      "lon": "-8.262046257794664",
      "lat": "41.48081805461999"
    },
    {
      "id": "pt.ine.add.PTCONT.553641",
      "street": "R D MARIA FARIA RAMOS",
      "house": "313",
      "postcode": "4800-881",
      "city": "SÃO TORCATO",
      "lon": "-8.264631886959958",
      "lat": "41.48054501085676"
    },
    {
      "id": "pt.ine.add.PTCONT.571072",
      "street": "R ARQ MARQUES DA SILVA",
      "house": "116",
      "postcode": "4800-882",
      "city": "SÃO TORCATO",
      "lon": "-8.262968576885116",
      "lat": "41.481015102380034"
    },
    {
      "id": "pt.ine.add.PTCONT.571073",
      "street": "R ARQ MARQUES DA SILVA",
      "house": "116",
      "postcode": "4800-882",
      "city": "SÃO TORCATO",
      "lon": "-8.262968576885116",
      "lat": "41.481015102380034"
    },
    {
      "id": "pt.ine.add.PTCONT.571074",
      "street": "R ARQ MARQUES DA SILVA",
      "house": "116",
      "postcode": "4800-882",
      "city": "SÃO TORCATO",
      "lon": "-8.262968576885116",
      "lat": "41.481015102380034"
    },
    {
      "id": "pt.ine.add.PTCONT.571075",
      "street": "R ARQ MARQUES DA SILVA",
      "house": "116",
      "postcode": "4800-882",
      "city": "SÃO TORCATO",
      "lon": "-8.262968576885116",
      "lat": "41.481015102380034"
    },
    {
      "id": "pt.ine.add.PTCONT.571076",
      "street": "R ARQ MARQUES DA SILVA",
      "house": "116",
      "postcode": "4800-882",
      "city": "SÃO TORCATO",
      "lon": "-8.262968576885116",
      "lat": "41.481015102380034"
    },
    {
      "id": "pt.ine.add.PTCONT.571077",
      "street": "R ARQ MARQUES DA SILVA",
      "house": "116",
      "postcode": "4800-882",
      "city": "SÃO TORCATO",
      "lon": "-8.262968576885116",
      "lat": "41.481015102380034"
    },
    {
      "id": "pt.ine.add.PTCONT.571078",
      "street": "R ARQ MARQUES DA SILVA",
      "house": "116",
      "postcode": "4800-882",
      "city": "SÃO TORCATO",
      "lon": "-8.262968576885116",
      "lat": "41.481015102380034"
    },
    {
      "id": "pt.ine.add.PTCONT.571079",
      "street": "R ARQ MARQUES DA SILVA",
      "house": "116",
      "postcode": "4800-882",
      "city": "SÃO TORCATO",
      "lon": "-8.262968576885116",
      "lat": "41.481015102380034"
    },
    {
      "id": "pt.ine.add.PTCONT.571215",
      "street": "R ARQ MARQUES DA SILVA",
      "house": "116",
      "postcode": "4800-882",
      "city": "SÃO TORCATO",
      "lon": "-8.262968576885116",
      "lat": "41.481015102380034"
    },
    {
      "id": "pt.ine.add.PTCONT.608445",
      "street": "R D MARIA FARIA RAMOS",
      "house": "1481",
      "postcode": "4800-881",
      "city": "SÃO TORCATO",
      "lon": "-8.26795156688183",
      "lat": "41.476291334819116"
    },
    {
      "id": "pt.ine.add.PTCONT.609153",
      "street": "R D MARIA FARIA RAMOS",
      "house": "1481",
      "postcode": "4800-881",
      "city": "SÃO TORCATO",
      "lon": "-8.26795156688183",
      "lat": "41.476291334819116"
    },
    {
      "id": "pt.ine.add.PTCONT.623238",
      "street": "R CORRONDELA",
      "house": "341",
      "postcode": "4800-648",
      "city": "SÃO TORCATO",
      "lon": "-8.264542563968542",
      "lat": "41.47781693699957"
    },
    {
      "id": "pt.ine.add.PTCONT.628006",
      "street": "R D MARIA FARIA RAMOS",
      "house": "401",
      "postcode": "4800-881",
      "city": "SÃO TORCATO",
      "lon": "-8.264787007185648",
      "lat": "41.4802837208908"
    },
    {
      "id": "pt.ine.add.PTCONT.655033",
      "street": "R CORRONDELA",
      "house": "",
      "postcode": "4800-648",
      "city": "SÃO TORCATO",
      "lon": "-8.264638653283233",
      "lat": "41.47796989317689"
    },
    {
      "id": "pt.ine.add.PTCONT.684614",
      "street": "TV ARQ MARQUES SILVA",
      "house": "84BLOCOB",
      "postcode": "4800-882",
      "city": "SÃO TORCATO",
      "lon": "-8.261878261011619",
      "lat": "41.48062916135851"
    },
    {
      "id": "pt.ine.add.PTCONT.684615",
      "street": "R ARQ MARQUES DA SILVA",
      "house": "84",
      "postcode": "4800-882",
      "city": "SÃO TORCATO",
      "lon": "-8.261878261011619",
      "lat": "41.48062916135851"
    },
    {
      "id": "pt.ine.add.PTCONT.684616",
      "street": "R ARQ MARQUES DA SILVA",
      "house": "84",
      "postcode": "4800-882",
      "city": "SÃO TORCATO",
      "lon": "-8.261878261011619",
      "lat": "41.48062916135851"
    },
    {
      "id": "pt.ine.add.PTCONT.684617",
      "street": "TV ARQ MARQUES SILVA",
      "house": "84",
      "postcode": "4800-882",
      "city": "SÃO TORCATO",
      "lon": "-8.261878261011619",
      "lat": "41.48062916135851"
    },
    {
      "id": "pt.ine.add.PTCONT.685565",
      "street": "TV ARQ MARQUES SILVA",
      "house": "84",
      "postcode": "4800-882",
      "city": "SÃO TORCATO",
      "lon": "-8.261878261011619",
      "lat": "41.48062916135851"
    },
    {
      "id": "pt.ine.add.PTCONT.708371",
      "street": "R CHORIO",
      "house": "72",
      "postcode": "4800-874",
      "city": "SÃO TORCATO",
      "lon": "-8.260832367161996",
      "lat": "41.478469396111066"
    },
    {
      "id": "pt.ine.add.PTCONT.708372",
      "street": "R CHORIO",
      "house": "72",
      "postcode": "4800-874",
      "city": "SÃO TORCATO",
      "lon": "-8.260832367161996",
      "lat": "41.478469396111066"
    },
    {
      "id": "pt.ine.add.PTCONT.736353",
      "street": "R CORRONDELA",
      "house": "141",
      "postcode": "4800-648",
      "city": "SÃO TORCATO",
      "lon": "-8.264951215832495",
      "lat": "41.47859980711771"
    },
    {
      "id": "pt.ine.add.PTCONT.738262",
      "street": "R D MARIA FARIA RAMOS CASA DE PORTUZELO",
      "house": "342",
      "postcode": "4800-881",
      "city": "SÃO TORCATO",
      "lon": "-8.26440529077109",
      "lat": "41.480986459777704"
    },
    {
      "id": "pt.ine.add.PTCONT.744499",
      "street": "R ARQ MARQUES DA SILVA",
      "house": "46",
      "postcode": "4800-882",
      "city": "SÃO TORCATO",
      "lon": "-8.26174678948062",
      "lat": "41.480746358887714"
    },
    {
      "id": "pt.ine.add.PTCONT.744500",
      "street": "R ARQ MARQUES DA SILVA",
      "house": "46",
      "postcode": "4800-882",
      "city": "SÃO TORCATO",
      "lon": "-8.26174678948062",
      "lat": "41.480746358887714"
    },
    {
      "id": "pt.ine.add.PTCONT.744501",
      "street": "R ARQ MARQUES DA SILVA",
      "house": "46",
      "postcode": "4800-882",
      "city": "SÃO TORCATO",
      "lon": "-8.26174678948062",
      "lat": "41.480746358887714"
    },
    {
      "id": "pt.ine.add.PTCONT.745591",
      "street": "R ARQ MARQUES DA SILVA",
      "house": "46",
      "postcode": "4800-882",
      "city": "SÃO TORCATO",
      "lon": "-8.26174678948062",
      "lat": "41.480746358887714"
    },
    {
      "id": "pt.ine.add.PTCONT.752437",
      "street": "R D MARIA FARIA RAMOS",
      "house": "1253",
      "postcode": "4800-881",
      "city": "SÃO TORCATO",
      "lon": "-8.267473180993465",
      "lat": "41.47653499951855"
    },
    {
      "id": "pt.ine.add.PTCONT.756349",
      "street": "R CORRONDELA",
      "house": "93",
      "postcode": "4800-648",
      "city": "SÃO TORCATO",
      "lon": "-8.264867115682147",
      "lat": "41.47845584136857"
    },
    {
      "id": "pt.ine.add.PTCONT.759063",
      "street": "R ARQ MARQUES DA SILVA",
      "house": "160",
      "postcode": "4800-882",
      "city": "SÃO TORCATO",
      "lon": "-8.262693052767933",
      "lat": "41.48094338207988"
    },
    {
      "id": "pt.ine.add.PTCONT.759064",
      "street": "R ARQ MARQUES DA SILVA",
      "house": "160",
      "postcode": "4800-882",
      "city": "SÃO TORCATO",
      "lon": "-8.262693052767933",
      "lat": "41.48094338207988"
    },
    {
      "id": "pt.ine.add.PTCONT.759065",
      "street": "R ARQ MARQUES DA SILVA",
      "house": "160",
      "postcode": "4800-882",
      "city": "SÃO TORCATO",
      "lon": "-8.262693052767933",
      "lat": "41.48094338207988"
    },
    {
      "id": "pt.ine.add.PTCONT.759068",
      "street": "R ARQ MARQUES DA SILVA",
      "house": "160",
      "postcode": "4800-882",
      "city": "SÃO TORCATO",
      "lon": "-8.262693052767933",
      "lat": "41.48094338207988"
    },
    {
      "id": "pt.ine.add.PTCONT.759069",
      "street": "R ARQ MARQUES DA SILVA",
      "house": "160",
      "postcode": "4800-882",
      "city": "SÃO TORCATO",
      "lon": "-8.262693052767933",
      "lat": "41.48094338207988"
    },
    {
      "id": "pt.ine.add.PTCONT.759070",
      "street": "R ARQ MARQUES DA SILVA",
      "house": "160",
      "postcode": "4800-882",
      "city": "SÃO TORCATO",
      "lon": "-8.262693052767933",
      "lat": "41.48094338207988"
    },
    {
      "id": "pt.ine.add.PTCONT.759071",
      "street": "R ARQ MARQUES DA SILVA",
      "house": "160",
      "postcode": "4800-882",
      "city": "SÃO TORCATO",
      "lon": "-8.262693052767933",
      "lat": "41.48094338207988"
    },
    {
      "id": "pt.ine.add.PTCONT.760070",
      "street": "R ARQ MARQUES DA SILVA",
      "house": "160",
      "postcode": "4800-882",
      "city": "SÃO TORCATO",
      "lon": "-8.262693052767933",
      "lat": "41.48094338207988"
    },
    {
      "id": "pt.ine.add.PTCONT.765664",
      "street": "TV ARQ MARQUES SILVA",
      "house": "116",
      "postcode": "4800-882",
      "city": "SÃO TORCATO",
      "lon": "-8.262033678025812",
      "lat": "41.480511936840436"
    },
    {
      "id": "pt.ine.add.PTCONT.765665",
      "street": "TV ARQ MARQUES SILVA",
      "house": "116",
      "postcode": "4800-882",
      "city": "SÃO TORCATO",
      "lon": "-8.262033678025812",
      "lat": "41.480511936840436"
    },
    {
      "id": "pt.ine.add.PTCONT.765666",
      "street": "TV ARQ MARQUES SILVA",
      "house": "116",
      "postcode": "4800-882",
      "city": "SÃO TORCATO",
      "lon": "-8.262033678025812",
      "lat": "41.480511936840436"
    },
    {
      "id": "pt.ine.add.PTCONT.765667",
      "street": "TV ARQ MARQUES SILVA",
      "house": "116",
      "postcode": "4800-882",
      "city": "SÃO TORCATO",
      "lon": "-8.262033678025812",
      "lat": "41.480511936840436"
    },
    {
      "id": "pt.ine.add.PTCONT.765761",
      "street": "R ARQ MARQUES DA SILVA",
      "house": "116",
      "postcode": "4800-882",
      "city": "SÃO TORCATO",
      "lon": "-8.262033678025812",
      "lat": "41.480511936840436"
    },
    {
      "id": "pt.ine.add.PTCONT.766004",
      "street": "R ARQ MARQUES DA SILVA",
      "house": "116",
      "postcode": "4800-882",
      "city": "SÃO TORCATO",
      "lon": "-8.262033678025812",
      "lat": "41.480511936840436"
    },
    {
      "id": "pt.ine.add.PTCONT.766254",
      "street": "TV ARQ MARQUES SILVA",
      "house": "116",
      "postcode": "4800-882",
      "city": "SÃO TORCATO",
      "lon": "-8.262033678025812",
      "lat": "41.480511936840436"
    },
    {
      "id": "pt.ine.add.PTCONT.766457",
      "street": "TV ARQ MARQUES SILVA",
      "house": "116",
      "postcode": "4800-882",
      "city": "SÃO TORCATO",
      "lon": "-8.262033678025812",
      "lat": "41.480511936840436"
    },
    {
      "id": "pt.ine.add.PTCONT.814581",
      "street": "R D MARIA FARIA RAMOS",
      "house": "281",
      "postcode": "4800-881",
      "city": "SÃO TORCATO",
      "lon": "-8.26415298576255",
      "lat": "41.480554561323935"
    },
    {
      "id": "pt.ine.add.PTCONT.822538",
      "street": "R D MARIA FARIA RAMOS",
      "house": "281",
      "postcode": "4800-881",
      "city": "SÃO TORCATO",
      "lon": "-8.264560303786872",
      "lat": "41.48067114698733"
    },
    {
      "id": "pt.ine.add.PTCONT.830473",
      "street": "R ARQ MARQUES DA SILVA",
      "house": "184",
      "postcode": "4800-882",
      "city": "SÃO TORCATO",
      "lon": "-8.262453484196644",
      "lat": "41.4808896284498"
    },
    {
      "id": "pt.ine.add.PTCONT.830474",
      "street": "R ARQ MARQUES DA SILVA",
      "house": "184",
      "postcode": "4800-882",
      "city": "SÃO TORCATO",
      "lon": "-8.262453484196644",
      "lat": "41.4808896284498"
    },
    {
      "id": "pt.ine.add.PTCONT.831839",
      "street": "R ARQ MARQUES DA SILVA",
      "house": "184",
      "postcode": "4800-882",
      "city": "SÃO TORCATO",
      "lon": "-8.262453484196644",
      "lat": "41.4808896284498"
    },
    {
      "id": "pt.ine.add.PTCONT.831840",
      "street": "R ARQ MARQUES DA SILVA",
      "house": "184",
      "postcode": "4800-882",
      "city": "SÃO TORCATO",
      "lon": "-8.262453484196644",
      "lat": "41.4808896284498"
    },
    {
      "id": "pt.ine.add.PTCONT.831841",
      "street": "R ARQ MARQUES DA SILVA",
      "house": "184",
      "postcode": "4800-882",
      "city": "SÃO TORCATO",
      "lon": "-8.262453484196644",
      "lat": "41.4808896284498"
    },
    {
      "id": "pt.ine.add.PTCONT.831842",
      "street": "R ARQ MARQUES DA SILVA",
      "house": "184",
      "postcode": "4800-882",
      "city": "SÃO TORCATO",
      "lon": "-8.262453484196644",
      "lat": "41.4808896284498"
    },
    {
      "id": "pt.ine.add.PTCONT.831843",
      "street": "R ARQ MARQUES DA SILVA",
      "house": "184",
      "postcode": "4800-882",
      "city": "SÃO TORCATO",
      "lon": "-8.262453484196644",
      "lat": "41.4808896284498"
    },
    {
      "id": "pt.ine.add.PTCONT.831844",
      "street": "R ARQ MARQUES DA SILVA",
      "house": "184",
      "postcode": "4800-882",
      "city": "SÃO TORCATO",
      "lon": "-8.262453484196644",
      "lat": "41.4808896284498"
    },
    {
      "id": "pt.ine.add.PTCONT.831845",
      "street": "R ARQ MARQUES DA SILVA",
      "house": "184",
      "postcode": "4800-882",
      "city": "SÃO TORCATO",
      "lon": "-8.262453484196644",
      "lat": "41.4808896284498"
    },
    {
      "id": "pt.ine.add.PTCONT.831846",
      "street": "R ARQ MARQUES DA SILVA",
      "house": "184",
      "postcode": "4800-882",
      "city": "SÃO TORCATO",
      "lon": "-8.262453484196644",
      "lat": "41.4808896284498"
    },
    {
      "id": "pt.ine.add.PTCONT.831847",
      "street": "R ARQ MARQUES DA SILVA",
      "house": "184",
      "postcode": "4800-882",
      "city": "SÃO TORCATO",
      "lon": "-8.262453484196644",
      "lat": "41.4808896284498"
    },
    {
      "id": "pt.ine.add.PTCONT.831983",
      "street": "R SEGADE",
      "house": "2976",
      "postcode": "4800-888",
      "city": "SÃO TORCATO",
      "lon": "-8.262453484196644",
      "lat": "41.4808896284498"
    },
    {
      "id": "pt.ine.add.PTCONT.838181",
      "street": "R D MARIA FARIA RAMOS",
      "house": "343",
      "postcode": "4800-881",
      "city": "SÃO TORCATO",
      "lon": "-8.264727415775889",
      "lat": "41.48041884728165"
    },
    {
      "id": "pt.ine.add.PTCONT.845113",
      "street": "R ARQ MARQUES DA SILVA",
      "house": "84",
      "postcode": "4800-882",
      "city": "SÃO TORCATO",
      "lon": "-8.261878261011619",
      "lat": "41.48062916135851"
    }
  ]
}