{
  "data": {
    "distrito": "Braga",
    "concelho": "Póvoa de Lanhoso",
    "freguesia": "União das freguesias de Esperança e Brunhais",
    "OBJECTID": 355,
    "BGRI2021": "03093300110",
    "DT21": "03",
    "DTMN21": "0309",
    "DTMNFR21": "030933",
    "DTMNFRSEC21": "030933001",
    "SECNUM21": "001",
    "SSNUM21": "10",
    "SECSSNUM21": "00110",
    "OBJECTID_1": 28625,
    "DT": "03",
    "CC": "09",
    "fr": "33",
    "SEC": "001",
    "SS": "10"
  },
  "addresses": [
    {
      "id": "pt.ine.add.PTCONT.481544",
      "street": "R ALTO DE SEQUEIROS",
      "house": "121",
      "postcode": "4830-049",
      "city": "BRUNHAIS",
      "lon": "-8.178399720490535",
      "lat": "41.57999526874546"
    },
    {
      "id": "pt.ine.add.PTCONT.483701",
      "street": "AV ESCOLAS",
      "house": "900",
      "postcode": "4830-158",
      "city": "ESPERANÇA PVL",
      "lon": "-8.175172933973553",
      "lat": "41.578285786460924"
    },
    {
      "id": "pt.ine.add.PTCONT.487554",
      "street": "R LEIRADELA",
      "house": "609",
      "postcode": "4830-046",
      "city": "BRUNHAIS",
      "lon": "-8.185466064773143",
      "lat": "41.58424202481139"
    },
    {
      "id": "pt.ine.add.PTCONT.496559",
      "street": "R LEIRAS",
      "house": "118",
      "postcode": "4830-046",
      "city": "BRUNHAIS",
      "lon": "-8.184626192281765",
      "lat": "41.58371118478404"
    },
    {
      "id": "pt.ine.add.PTCONT.511080",
      "street": "R LEIRADELA",
      "house": "131",
      "postcode": "4830-046",
      "city": "BRUNHAIS",
      "lon": "-8.180536778490595",
      "lat": "41.58354187372631"
    },
    {
      "id": "pt.ine.add.PTCONT.511081",
      "street": "LG CAPELA",
      "house": "168",
      "postcode": "4830-043",
      "city": "BRUNHAIS",
      "lon": "-8.184360088989157",
      "lat": "41.580830112796065"
    },
    {
      "id": "pt.ine.add.PTCONT.514346",
      "street": "TV CAPELA",
      "house": "19",
      "postcode": "4830-043",
      "city": "BRUNHAIS",
      "lon": "-8.183784735584238",
      "lat": "41.58113649442324"
    },
    {
      "id": "pt.ine.add.PTCONT.514595",
      "street": "R FORNO",
      "house": "23",
      "postcode": "4830-158",
      "city": "ESPERANÇA PVL",
      "lon": "-8.173997805763458",
      "lat": "41.578277206639285"
    },
    {
      "id": "pt.ine.add.PTCONT.534681",
      "street": "R SEQUEIROS",
      "house": "377",
      "postcode": "4830-049",
      "city": "BRUNHAIS",
      "lon": "-8.177727076309088",
      "lat": "41.578356853502704"
    },
    {
      "id": "pt.ine.add.PTCONT.561855",
      "street": "R FORNO",
      "house": "145",
      "postcode": "4830-158",
      "city": "ESPERANÇA PVL",
      "lon": "-8.174442014055675",
      "lat": "41.5791233981833"
    },
    {
      "id": "pt.ine.add.PTCONT.580718",
      "street": "R MARIA PAZ",
      "house": "90",
      "postcode": "4830-043",
      "city": "BRUNHAIS",
      "lon": "-8.183245066092857",
      "lat": "41.58107370494946"
    },
    {
      "id": "pt.ine.add.PTCONT.618807",
      "street": "AV ROUPEIROS",
      "house": "1145",
      "postcode": "4830-160",
      "city": "ESPERANÇA PVL",
      "lon": "-8.177131314460741",
      "lat": "41.58393939170577"
    },
    {
      "id": "pt.ine.add.PTCONT.640759",
      "street": "R FORNO",
      "house": "98",
      "postcode": "4830-158",
      "city": "ESPERANÇA PVL",
      "lon": "-8.173770337356876",
      "lat": "41.5788535258725"
    },
    {
      "id": "pt.ine.add.PTCONT.647647",
      "street": "AV ESCOLAS",
      "house": "748",
      "postcode": "4830-158",
      "city": "ESPERANÇA PVL",
      "lon": "-8.173602061918066",
      "lat": "41.57821432059679"
    },
    {
      "id": "pt.ine.add.PTCONT.651730",
      "street": "R FORNO",
      "house": "173",
      "postcode": "4830-158",
      "city": "ESPERANÇA PVL",
      "lon": "-8.174705624042977",
      "lat": "41.578817176401046"
    },
    {
      "id": "pt.ine.add.PTCONT.652753",
      "street": "TV CAPELA",
      "house": "2",
      "postcode": "4830-043",
      "city": "BRUNHAIS",
      "lon": "-8.18404847233386",
      "lat": "41.581037336921845"
    },
    {
      "id": "pt.ine.add.PTCONT.702686",
      "street": "TV CAPELA",
      "house": "45",
      "postcode": "4830-043",
      "city": "BRUNHAIS",
      "lon": "-8.183532499333442",
      "lat": "41.58060538561345"
    },
    {
      "id": "pt.ine.add.PTCONT.720646",
      "street": "R ERMIDA",
      "house": "303",
      "postcode": "4830-160",
      "city": "ESPERANÇA PVL",
      "lon": "-8.173219658074",
      "lat": "41.580330330359146"
    },
    {
      "id": "pt.ine.add.PTCONT.735507",
      "street": "R SEQUEIROS",
      "house": "311",
      "postcode": "4830-049",
      "city": "BRUNHAIS",
      "lon": "-8.178806360451576",
      "lat": "41.578482481802894"
    },
    {
      "id": "pt.ine.add.PTCONT.736136",
      "street": "R MARIA PAZ",
      "house": "70",
      "postcode": "4830-043",
      "city": "BRUNHAIS",
      "lon": "-8.182645164668985",
      "lat": "41.58065078995186"
    },
    {
      "id": "pt.ine.add.PTCONT.738421",
      "street": "R ALTO DE SEQUEIROS",
      "house": "204",
      "postcode": "4830-049",
      "city": "BRUNHAIS",
      "lon": "-8.17747629934651",
      "lat": "41.57986957662568"
    },
    {
      "id": "pt.ine.add.PTCONT.750623",
      "street": "R LEIRAS",
      "house": "128",
      "postcode": "4830-046",
      "city": "BRUNHAIS",
      "lon": "-8.184434426460905",
      "lat": "41.58384632633682"
    },
    {
      "id": "pt.ine.add.PTCONT.756515",
      "street": "LG CAPELA",
      "house": "80",
      "postcode": "4830-043",
      "city": "BRUNHAIS",
      "lon": "-8.18409592862464",
      "lat": "41.58038904775522"
    },
    {
      "id": "pt.ine.add.PTCONT.761567",
      "street": "R LEIRADELA",
      "house": "277",
      "postcode": "4830-046",
      "city": "BRUNHAIS",
      "lon": "-8.182276345012808",
      "lat": "41.58449553719599"
    },
    {
      "id": "pt.ine.add.PTCONT.774535",
      "street": "R LEIRAS",
      "house": "248",
      "postcode": "4830-046",
      "city": "BRUNHAIS",
      "lon": "-8.183523351049086",
      "lat": "41.58426090049752"
    },
    {
      "id": "pt.ine.add.PTCONT.807800",
      "street": "R MARIA PAZ",
      "house": "40",
      "postcode": "4830-043",
      "city": "BRUNHAIS",
      "lon": "-8.183124733644846",
      "lat": "41.58053353392197"
    },
    {
      "id": "pt.ine.add.PTCONT.807801",
      "street": "R MARIA PAZ",
      "house": "144",
      "postcode": "4830-043",
      "city": "BRUNHAIS",
      "lon": "-8.183305274905992",
      "lat": "41.58139781271638"
    },
    {
      "id": "pt.ine.add.PTCONT.818549",
      "street": "R SEQUEIROS",
      "house": "313",
      "postcode": "4830-049",
      "city": "BRUNHAIS",
      "lon": "-8.178794267844495",
      "lat": "41.57833842696424"
    },
    {
      "id": "pt.ine.add.PTCONT.828534",
      "street": "R LEIRAS",
      "house": "",
      "postcode": "4830-046",
      "city": "BRUNHAIS",
      "lon": "-8.184362303141524",
      "lat": "41.58363026924701"
    },
    {
      "id": "pt.ine.add.PTCONT.828538",
      "street": "R ALTO DE SEQUEIROS",
      "house": "141",
      "postcode": "4830-049",
      "city": "BRUNHAIS",
      "lon": "-8.178087870112014",
      "lat": "41.579887346458804"
    }
  ]
}