{
  "data": {
    "distrito": "Lisboa",
    "concelho": "Sintra",
    "freguesia": "União das freguesias de São João das Lampas e Terrugem",
    "OBJECTID": 3116,
    "BGRI2021": "11112700305",
    "DT21": "11",
    "DTMN21": "1111",
    "DTMNFR21": "111127",
    "DTMNFRSEC21": "111127003",
    "SECNUM21": "003",
    "SSNUM21": "05",
    "SECSSNUM21": "00305",
    "OBJECTID_1": 111675,
    "DT": "11",
    "CC": "11",
    "fr": "27",
    "SEC": "003",
    "SS": "05"
  },
  "addresses": [
    {
      "id": "pt.ine.add.PTCONT.2363064",
      "street": "R CASAIS",
      "house": "187",
      "postcode": "2705-838",
      "city": "TERRUGEM SNT",
      "lon": "-9.35517489772596",
      "lat": "38.86085086399927"
    },
    {
      "id": "pt.ine.add.PTCONT.2391291",
      "street": "R GEN HUMBERTO DELGADO",
      "house": "5",
      "postcode": "2705-836",
      "city": "TERRUGEM SNT",
      "lon": "-9.355801117737947",
      "lat": "38.865798446894566"
    },
    {
      "id": "pt.ine.add.PTCONT.2400710",
      "street": "R CASAIS",
      "house": "209",
      "postcode": "2705-838",
      "city": "TERRUGEM SNT",
      "lon": "-9.355360476053331",
      "lat": "38.86159654653455"
    },
    {
      "id": "pt.ine.add.PTCONT.2455184",
      "street": "R CASAIS",
      "house": "221",
      "postcode": "2705-838",
      "city": "TERRUGEM SNT",
      "lon": "-9.355724345186493",
      "lat": "38.86198906868406"
    },
    {
      "id": "pt.ine.add.PTCONT.2455185",
      "street": "R CASAIS",
      "house": "181",
      "postcode": "2705-838",
      "city": "TERRUGEM SNT",
      "lon": "-9.355252444740493",
      "lat": "38.860669901910484"
    },
    {
      "id": "pt.ine.add.PTCONT.2455216",
      "street": "R GEN HUMBERTO DELGADO",
      "house": "33",
      "postcode": "2705-836",
      "city": "TERRUGEM SNT",
      "lon": "-9.354705463845006",
      "lat": "38.86707997408842"
    },
    {
      "id": "pt.ine.add.PTCONT.2463798",
      "street": "R CASAIS",
      "house": "173",
      "postcode": "2705-838",
      "city": "TERRUGEM SNT",
      "lon": "-9.355538560000046",
      "lat": "38.86055881690898"
    },
    {
      "id": "pt.ine.add.PTCONT.2484257",
      "street": "TV FONTE VELHA",
      "house": "3C",
      "postcode": "2705-836",
      "city": "TERRUGEM SNT",
      "lon": "-9.35475477976754",
      "lat": "38.867268616058055"
    },
    {
      "id": "pt.ine.add.PTCONT.2509454",
      "street": "R CASAIS",
      "house": "",
      "postcode": "2705-838",
      "city": "TERRUGEM SNT",
      "lon": "-9.355479981927887",
      "lat": "38.86184750639905"
    },
    {
      "id": "pt.ine.add.PTCONT.2509455",
      "street": "R PARREIRINHA",
      "house": "7",
      "postcode": "2705-838",
      "city": "TERRUGEM SNT",
      "lon": "-9.355521750786483",
      "lat": "38.85957717227589"
    },
    {
      "id": "pt.ine.add.PTCONT.2536428",
      "street": "LG CASAIS",
      "house": "3",
      "postcode": "2705-838",
      "city": "TERRUGEM SNT",
      "lon": "-9.355223350056276",
      "lat": "38.85964334815544"
    },
    {
      "id": "pt.ine.add.PTCONT.2536458",
      "street": "R GEN HUMBERTO DELGADO",
      "house": "11",
      "postcode": "2705-836",
      "city": "TERRUGEM SNT",
      "lon": "-9.355539872031862",
      "lat": "38.86601736245778"
    },
    {
      "id": "pt.ine.add.PTCONT.2554836",
      "street": "EM N547",
      "house": "4",
      "postcode": "2705-836",
      "city": "TERRUGEM SNT",
      "lon": "-9.355558536414355",
      "lat": "38.86710707683697"
    },
    {
      "id": "pt.ine.add.PTCONT.2590347",
      "street": "R GEN HUMBERTO DELGADO",
      "house": "21",
      "postcode": "2705-836",
      "city": "TERRUGEM SNT",
      "lon": "-9.35537201480768",
      "lat": "38.866307360141796"
    },
    {
      "id": "pt.ine.add.PTCONT.2590348",
      "street": "R GEN HUMBERTO DELGADO",
      "house": "21",
      "postcode": "2705-836",
      "city": "TERRUGEM SNT",
      "lon": "-9.35537201480768",
      "lat": "38.866307360141796"
    },
    {
      "id": "pt.ine.add.PTCONT.2614101",
      "street": "R FONTE VELHA",
      "house": "7",
      "postcode": "2705-836",
      "city": "TERRUGEM SNT",
      "lon": "-9.355471314861516",
      "lat": "38.86739623045707"
    },
    {
      "id": "pt.ine.add.PTCONT.2744303",
      "street": "TV FONTE VELHA",
      "house": "",
      "postcode": "2705-836",
      "city": "TERRUGEM SNT",
      "lon": "-9.354835571847342",
      "lat": "38.86727677832673"
    },
    {
      "id": "pt.ine.add.PTCONT.2826634",
      "street": "R CASAIS CASA DOS CASAIS",
      "house": "213",
      "postcode": "2705-838",
      "city": "TERRUGEM SNT",
      "lon": "-9.355432672946662",
      "lat": "38.8617759413885"
    },
    {
      "id": "pt.ine.add.PTCONT.2846863",
      "street": "LG CASAIS",
      "house": "4",
      "postcode": "2705-838",
      "city": "TERRUGEM SNT",
      "lon": "-9.355563708490868",
      "lat": "38.86000909444771"
    },
    {
      "id": "pt.ine.add.PTCONT.2850825",
      "street": "TV FONTE VELHA",
      "house": "3B",
      "postcode": "2705-836",
      "city": "TERRUGEM SNT",
      "lon": "-9.354928192001937",
      "lat": "38.867302831816936"
    },
    {
      "id": "pt.ine.add.PTCONT.2921593",
      "street": "EM 547",
      "house": "7",
      "postcode": "2705-836",
      "city": "TERRUGEM SNT",
      "lon": "-9.355609501552536",
      "lat": "38.86671922001302"
    },
    {
      "id": "pt.ine.add.PTCONT.2937320",
      "street": "TV OA",
      "house": "5",
      "postcode": "2705-836",
      "city": "TERRUGEM SNT",
      "lon": "-9.354862619642441",
      "lat": "38.86751069080713"
    },
    {
      "id": "pt.ine.add.PTCONT.2937321",
      "street": "TV OA",
      "house": "5",
      "postcode": "2705-836",
      "city": "TERRUGEM SNT",
      "lon": "-9.354862619642441",
      "lat": "38.86751069080713"
    },
    {
      "id": "pt.ine.add.PTCONT.2950875",
      "street": "R MUNICIPAL N547",
      "house": "2",
      "postcode": "2705-836",
      "city": "TERRUGEM SNT",
      "lon": "-9.355208319878605",
      "lat": "38.866840517023974"
    },
    {
      "id": "pt.ine.add.PTCONT.2950876",
      "street": "TV OLIVEIRA",
      "house": "2",
      "postcode": "2705-838",
      "city": "TERRUGEM SNT",
      "lon": "-9.35566768369585",
      "lat": "38.860026021040426"
    },
    {
      "id": "pt.ine.add.PTCONT.2976668",
      "street": "EM N547",
      "house": "6",
      "postcode": "2705-836",
      "city": "TERRUGEM SNT",
      "lon": "-9.355818243096035",
      "lat": "38.866798102182244"
    },
    {
      "id": "pt.ine.add.PTCONT.2982685",
      "street": "R PARREIRINHA",
      "house": "",
      "postcode": "2705-838",
      "city": "TERRUGEM SNT",
      "lon": "-9.355848895111395",
      "lat": "38.859843973242114"
    },
    {
      "id": "pt.ine.add.PTCONT.2994869",
      "street": "EM N547",
      "house": "",
      "postcode": "2705-836",
      "city": "TERRUGEM SNT",
      "lon": "-9.355406004417905",
      "lat": "38.86694653820126"
    },
    {
      "id": "pt.ine.add.PTCONT.3003683",
      "street": "TV OLIVEIRA",
      "house": "9",
      "postcode": "2705-838",
      "city": "TERRUGEM SNT",
      "lon": "-9.356152696217887",
      "lat": "38.860093002688465"
    },
    {
      "id": "pt.ine.add.PTCONT.3059475",
      "street": "R CASAIS",
      "house": "223",
      "postcode": "2705-838",
      "city": "TERRUGEM SNT",
      "lon": "-9.355990512886198",
      "lat": "38.862058341917354"
    },
    {
      "id": "pt.ine.add.PTCONT.3069916",
      "street": "R GEN HUMBERTO DELGADO",
      "house": "17",
      "postcode": "2705-836",
      "city": "TERRUGEM SNT",
      "lon": "-9.355497958578175",
      "lat": "38.866261004237046"
    },
    {
      "id": "pt.ine.add.PTCONT.3115514",
      "street": "TV FONTE VELHA",
      "house": "1",
      "postcode": "2705-836",
      "city": "TERRUGEM SNT",
      "lon": "-9.354629296149755",
      "lat": "38.867341988907505"
    },
    {
      "id": "pt.ine.add.PTCONT.3133996",
      "street": "EM N547",
      "house": "5",
      "postcode": "2705-836",
      "city": "TERRUGEM SNT",
      "lon": "-9.355789238426077",
      "lat": "38.86712267652646"
    },
    {
      "id": "pt.ine.add.PTCONT.3153076",
      "street": "R FONTE VELHA",
      "house": "1",
      "postcode": "2705-836",
      "city": "TERRUGEM SNT",
      "lon": "-9.355082882486753",
      "lat": "38.86758945372892"
    },
    {
      "id": "pt.ine.add.PTCONT.3162601",
      "street": "R CASAIS",
      "house": "203",
      "postcode": "2705-838",
      "city": "TERRUGEM SNT",
      "lon": "-9.355136068974309",
      "lat": "38.86127462410319"
    },
    {
      "id": "pt.ine.add.PTCONT.3170300",
      "street": "R GEN HUMBERTO DELGADO",
      "house": "29",
      "postcode": "2705-836",
      "city": "TERRUGEM SNT",
      "lon": "-9.354875329715288",
      "lat": "38.86690705410227"
    },
    {
      "id": "pt.ine.add.PTCONT.3180843",
      "street": "AV 19 DE MAIO",
      "house": "1",
      "postcode": "2705-836",
      "city": "TERRUGEM SNT",
      "lon": "-9.354511941258506",
      "lat": "38.86721711119555"
    },
    {
      "id": "pt.ine.add.PTCONT.3245533",
      "street": "TV OLIVEIRA BALELINHO",
      "house": "6",
      "postcode": "2705-838",
      "city": "TERRUGEM SNT",
      "lon": "-9.355820046819916",
      "lat": "38.860177553837616"
    },
    {
      "id": "pt.ine.add.PTCONT.3254150",
      "street": "R GEN HUMBERTO DELGADO",
      "house": "37",
      "postcode": "2705-836",
      "city": "TERRUGEM SNT",
      "lon": "-9.354534055889387",
      "lat": "38.86716283477197"
    },
    {
      "id": "pt.ine.add.PTCONT.3306440",
      "street": "R GEN HUMBERTO DELGADO",
      "house": "3",
      "postcode": "2705-836",
      "city": "TERRUGEM SNT",
      "lon": "-9.354958588256428",
      "lat": "38.8670593107791"
    },
    {
      "id": "pt.ine.add.PTCONT.3328761",
      "street": "R PARREIRINHA",
      "house": "3",
      "postcode": "2705-838",
      "city": "TERRUGEM SNT",
      "lon": "-9.355465392113265",
      "lat": "38.85964982243787"
    },
    {
      "id": "pt.ine.add.PTCONT.3402016",
      "street": "R GEN HUMBERTO DELGADO",
      "house": "19",
      "postcode": "2705-836",
      "city": "TERRUGEM SNT",
      "lon": "-9.355382763209134",
      "lat": "38.86626221004256"
    },
    {
      "id": "pt.ine.add.PTCONT.3435142",
      "street": "TV FONTE VELHA",
      "house": "3",
      "postcode": "2705-836",
      "city": "TERRUGEM SNT",
      "lon": "-9.35486107794901",
      "lat": "38.867420631758414"
    },
    {
      "id": "pt.ine.add.PTCONT.3454737",
      "street": "R CASAIS",
      "house": "179",
      "postcode": "2705-838",
      "city": "TERRUGEM SNT",
      "lon": "-9.355332612613179",
      "lat": "38.86064204030847"
    }
  ]
}