{
  "data": {
    "distrito": "Lisboa",
    "concelho": "Sintra",
    "freguesia": "União das freguesias de São João das Lampas e Terrugem",
    "OBJECTID": 3115,
    "BGRI2021": "11112700323",
    "DT21": "11",
    "DTMN21": "1111",
    "DTMNFR21": "111127",
    "DTMNFRSEC21": "111127003",
    "SECNUM21": "003",
    "SSNUM21": "23",
    "SECSSNUM21": "00323",
    "OBJECTID_1": 114338,
    "DT": "11",
    "CC": "11",
    "fr": "27",
    "SEC": "003",
    "SS": "23"
  },
  "addresses": [
    {
      "id": "pt.ine.add.PTCONT.2291199",
      "street": "R LAMINHOS",
      "house": "17",
      "postcode": "2705-713",
      "city": "SÃO JOÃO DAS LAMPAS",
      "lon": "-9.366548272809831",
      "lat": "38.884321937778374"
    },
    {
      "id": "pt.ine.add.PTCONT.2309335",
      "street": "R LUSIADAS",
      "house": "7",
      "postcode": "2705-911",
      "city": "TERRUGEM SNT",
      "lon": "-9.366911351703642",
      "lat": "38.87999450762629"
    },
    {
      "id": "pt.ine.add.PTCONT.2318202",
      "street": "R LUSIADAS",
      "house": "3",
      "postcode": "2705-911",
      "city": "TERRUGEM SNT",
      "lon": "-9.367346683392908",
      "lat": "38.87984578689137"
    },
    {
      "id": "pt.ine.add.PTCONT.2463622",
      "street": "AV DR JOÃO RAUL BRANCO GUERREIRO",
      "house": "30",
      "postcode": "2705-910",
      "city": "TERRUGEM SNT",
      "lon": "-9.368288809939942",
      "lat": "38.87968269696651"
    },
    {
      "id": "pt.ine.add.PTCONT.2468397",
      "street": "R LUSIADAS",
      "house": "1",
      "postcode": "2705-911",
      "city": "TERRUGEM SNT",
      "lon": "-9.367610746897125",
      "lat": "38.87978895035449"
    },
    {
      "id": "pt.ine.add.PTCONT.2518611",
      "street": "R LUSIADAS",
      "house": "5",
      "postcode": "2705-911",
      "city": "TERRUGEM SNT",
      "lon": "-9.367128238849238",
      "lat": "38.87987511823739"
    },
    {
      "id": "pt.ine.add.PTCONT.2613905",
      "street": "AV DR JOÃO RAUL BRANCO GUERREIRO",
      "house": "",
      "postcode": "2705-910",
      "city": "TERRUGEM SNT",
      "lon": "-9.367804290002834",
      "lat": "38.880318345808114"
    },
    {
      "id": "pt.ine.add.PTCONT.2860331",
      "street": "R FORMIGA",
      "house": "5",
      "postcode": "2705-911",
      "city": "TERRUGEM SNT",
      "lon": "-9.367897541516665",
      "lat": "38.87971385785612"
    },
    {
      "id": "pt.ine.add.PTCONT.2942511",
      "street": "AV DR JOÃO RAUL BRANCO GUERREIRO",
      "house": "32",
      "postcode": "2705-910",
      "city": "TERRUGEM SNT",
      "lon": "-9.368089059702339",
      "lat": "38.88012617688287"
    },
    {
      "id": "pt.ine.add.PTCONT.3104661",
      "street": "R PITEUS",
      "house": "2",
      "postcode": "2705-920",
      "city": "TERRUGEM SNT",
      "lon": "-9.364537260095286",
      "lat": "38.88599153462746"
    },
    {
      "id": "pt.ine.add.PTCONT.3104662",
      "street": "R PITEUS",
      "house": "2",
      "postcode": "2705-920",
      "city": "TERRUGEM SNT",
      "lon": "-9.364537260095286",
      "lat": "38.88599153462746"
    },
    {
      "id": "pt.ine.add.PTCONT.3124723",
      "street": "BR VELHO",
      "house": "6",
      "postcode": "2705-839",
      "city": "TERRUGEM SNT",
      "lon": "-9.36457377682248",
      "lat": "38.876758471874545"
    },
    {
      "id": "pt.ine.add.PTCONT.3180831",
      "street": "AV DR JOÃO RAUL BRANCO GUERREIRO",
      "house": "18",
      "postcode": "2705-910",
      "city": "TERRUGEM SNT",
      "lon": "-9.368737133784247",
      "lat": "38.87695769092964"
    },
    {
      "id": "pt.ine.add.PTCONT.3217362",
      "street": "AV DR JOÃO RAUL BRANCO GUERREIRO",
      "house": "22",
      "postcode": "2705-910",
      "city": "TERRUGEM SNT",
      "lon": "-9.368414869709172",
      "lat": "38.87764567026884"
    },
    {
      "id": "pt.ine.add.PTCONT.3272749",
      "street": "AV DR JOÃO RAUL BRANCO GUERREIRO",
      "house": "20",
      "postcode": "2705-910",
      "city": "TERRUGEM SNT",
      "lon": "-9.368571021642259",
      "lat": "38.877346770876564"
    },
    {
      "id": "pt.ine.add.PTCONT.3413114",
      "street": "R FORMIGA",
      "house": "40",
      "postcode": "2705-911",
      "city": "TERRUGEM SNT",
      "lon": "-9.365401249626668",
      "lat": "38.87863230845386"
    },
    {
      "id": "pt.ine.add.PTCONT.3451894",
      "street": "AV DR JOÃO RAUL BRANCO GUERREIRO",
      "house": "32",
      "postcode": "2705-910",
      "city": "TERRUGEM SNT",
      "lon": "-9.368089059702339",
      "lat": "38.88012617688287"
    }
  ]
}