{
  "data": {
    "distrito": "Porto",
    "concelho": "Valongo",
    "freguesia": "Valongo",
    "OBJECTID": 341,
    "BGRI2021": "13150500705",
    "DT21": "13",
    "DTMN21": "1315",
    "DTMNFR21": "131505",
    "DTMNFRSEC21": "131505007",
    "SECNUM21": "007",
    "SSNUM21": "05",
    "SECSSNUM21": "00705",
    "OBJECTID_1": 142097,
    "DT": "13",
    "CC": "15",
    "fr": "05",
    "SEC": "007",
    "SS": "05"
  },
  "addresses": [
    {
      "id": "pt.ine.add.PTCONT.3610551",
      "street": "R OCEANO PACIFICO",
      "house": "33",
      "postcode": "4440-816",
      "city": "VALONGO",
      "lon": "-8.514000274323461",
      "lat": "41.200782172291234"
    },
    {
      "id": "pt.ine.add.PTCONT.3659821",
      "street": "R OCEANO ATLANTICO",
      "house": "21",
      "postcode": "4440-527",
      "city": "VALONGO",
      "lon": "-8.51415457646683",
      "lat": "41.20066460603129"
    },
    {
      "id": "pt.ine.add.PTCONT.3659822",
      "street": "R OCEANO ATLANTICO",
      "house": "35",
      "postcode": "4440-527",
      "city": "VALONGO",
      "lon": "-8.513952013660722",
      "lat": "41.2006832846576"
    },
    {
      "id": "pt.ine.add.PTCONT.3686385",
      "street": "R OCEANO PACÍFICO",
      "house": "53-57",
      "postcode": "4440-999",
      "city": "VALONGO",
      "lon": "-8.514204456632086",
      "lat": "41.20104262133694"
    },
    {
      "id": "pt.ine.add.PTCONT.3809769",
      "street": "R OCEANO ATLANTICO",
      "house": "23",
      "postcode": "4440-527",
      "city": "VALONGO",
      "lon": "-8.514059203666939",
      "lat": "41.20066492154991"
    },
    {
      "id": "pt.ine.add.PTCONT.3937086",
      "street": "R OCEANO PACIFICO",
      "house": "81",
      "postcode": "4440-816",
      "city": "VALONGO",
      "lon": "-8.514169213909073",
      "lat": "41.201132780891726"
    },
    {
      "id": "pt.ine.add.PTCONT.4118948",
      "street": "R OCEANO PACIFICO",
      "house": "69",
      "postcode": "4440-816",
      "city": "VALONGO",
      "lon": "-8.514145057189278",
      "lat": "41.20107883505675"
    },
    {
      "id": "pt.ine.add.PTCONT.4158319",
      "street": "R OCEANO PACIFICO",
      "house": "37",
      "postcode": "4440-816",
      "city": "VALONGO",
      "lon": "-8.51402443081366",
      "lat": "41.20083611816033"
    },
    {
      "id": "pt.ine.add.PTCONT.4208034",
      "street": "R OCEANO PACIFICO",
      "house": "53",
      "postcode": "4440-816",
      "city": "VALONGO",
      "lon": "-8.514096743869601",
      "lat": "41.20097094336956"
    },
    {
      "id": "pt.ine.add.PTCONT.4230024",
      "street": "R OCEANO ATLANTICO",
      "house": "9",
      "postcode": "4440-527",
      "city": "VALONGO",
      "lon": "-8.514249897026655",
      "lat": "41.200655286312184"
    },
    {
      "id": "pt.ine.add.PTCONT.4297122",
      "street": "R OCEANO PACIFICO",
      "house": "65",
      "postcode": "4440-816",
      "city": "VALONGO",
      "lon": "-8.514120900509454",
      "lat": "41.201024889216036"
    },
    {
      "id": "pt.ine.add.PTCONT.4312432",
      "street": "R DO OCEANO PACÍFICO",
      "house": "49",
      "postcode": "4440-816",
      "city": "VALONGO",
      "lon": "-8.514072535055016",
      "lat": "41.20090799339602"
    }
  ]
}