{
  "data": {
    "distrito": "Leiria",
    "concelho": "Nazaré",
    "freguesia": "Nazaré",
    "OBJECTID": 282,
    "BGRI2021": "10110201324",
    "DT21": "10",
    "DTMN21": "1011",
    "DTMNFR21": "101102",
    "DTMNFRSEC21": "101102013",
    "SECNUM21": "013",
    "SSNUM21": "24",
    "SECSSNUM21": "01324",
    "OBJECTID_1": 93062,
    "DT": "10",
    "CC": "11",
    "fr": "02",
    "SEC": "013",
    "SS": "24"
  },
  "addresses": [
    {
      "id": "pt.ine.add.PTCONT.1996630",
      "street": "R PASSAGEM DE NIVEL",
      "house": "1",
      "postcode": "2450-051",
      "city": "NAZARÉ",
      "lon": "-8.999073861888762",
      "lat": "39.62555416394128"
    },
    {
      "id": "pt.ine.add.PTCONT.1997934",
      "street": "CSL CASAL ZE PADEIRO",
      "house": "1",
      "postcode": "2450-051",
      "city": "NAZARÉ",
      "lon": "-8.998924150902477",
      "lat": "39.62569037870173"
    },
    {
      "id": "pt.ine.add.PTCONT.2016173",
      "street": "R LIGA DOS AMIGOS DE FANHAIS",
      "house": "6 8",
      "postcode": "2450-051",
      "city": "NAZARÉ",
      "lon": "-8.998485516578556",
      "lat": "39.625072192578095"
    },
    {
      "id": "pt.ine.add.PTCONT.2016174",
      "street": "R LIGA DOS AMIGOS DE FANHAIS",
      "house": "6 8",
      "postcode": "2450-051",
      "city": "NAZARÉ",
      "lon": "-8.998485516578556",
      "lat": "39.625072192578095"
    },
    {
      "id": "pt.ine.add.PTCONT.2031527",
      "street": "R LIGA DOS AMIGOS DE FANHAIS",
      "house": "2",
      "postcode": "2450-051",
      "city": "NAZARÉ",
      "lon": "-8.998466039498686",
      "lat": "39.62537856168228"
    },
    {
      "id": "pt.ine.add.PTCONT.2040246",
      "street": "LG FONTE",
      "house": "1",
      "postcode": "2450-051",
      "city": "NAZARÉ",
      "lon": "-8.999030983461202",
      "lat": "39.625851700966"
    },
    {
      "id": "pt.ine.add.PTCONT.2071493",
      "street": "LG FONTE",
      "house": "4",
      "postcode": "2450-051",
      "city": "NAZARÉ",
      "lon": "-8.998692245510288",
      "lat": "39.62577316623219"
    },
    {
      "id": "pt.ine.add.PTCONT.2097036",
      "street": "BC FAGOTES",
      "house": "1",
      "postcode": "2450-051",
      "city": "NAZARÉ",
      "lon": "-8.998507686019035",
      "lat": "39.62498196153544"
    },
    {
      "id": "pt.ine.add.PTCONT.2109657",
      "street": "BC FAGOTES",
      "house": "3A",
      "postcode": "2450-051",
      "city": "NAZARÉ",
      "lon": "-8.998951343086409",
      "lat": "39.625068721447384"
    },
    {
      "id": "pt.ine.add.PTCONT.2119179",
      "street": "BC FAGOTES",
      "house": "3",
      "postcode": "2450-051",
      "city": "NAZARÉ",
      "lon": "-8.999067238394504",
      "lat": "39.62502282461446"
    },
    {
      "id": "pt.ine.add.PTCONT.2129344",
      "street": "LG FONTE",
      "house": "4",
      "postcode": "2450-051",
      "city": "NAZARÉ",
      "lon": "-8.999064573671612",
      "lat": "39.62574337152141"
    },
    {
      "id": "pt.ine.add.PTCONT.2134357",
      "street": "LG POVO",
      "house": "3",
      "postcode": "2450-051",
      "city": "NAZARÉ",
      "lon": "-8.9989140765536",
      "lat": "39.62581654601451"
    },
    {
      "id": "pt.ine.add.PTCONT.2144885",
      "street": "R LIGA DOS AMIGOS DE FANHAIS",
      "house": "1",
      "postcode": "2450-051",
      "city": "NAZARÉ",
      "lon": "-8.998504117959449",
      "lat": "39.62563046248138"
    },
    {
      "id": "pt.ine.add.PTCONT.2164995",
      "street": "LG FONTE",
      "house": "6",
      "postcode": "2450-051",
      "city": "NAZARÉ",
      "lon": "-8.998633567775373",
      "lat": "39.625737577095734"
    },
    {
      "id": "pt.ine.add.PTCONT.2184534",
      "street": "CSL CASAL ZE PADEIRO",
      "house": "3",
      "postcode": "2450-051",
      "city": "NAZARÉ",
      "lon": "-8.998946432202077",
      "lat": "39.62560915334004"
    },
    {
      "id": "pt.ine.add.PTCONT.2189047",
      "street": "R LIGA DOS AMIGOS DE FANHAIS",
      "house": "",
      "postcode": "2450-051",
      "city": "NAZARÉ",
      "lon": "-8.998398408728233",
      "lat": "39.62555919723491"
    },
    {
      "id": "pt.ine.add.PTCONT.2209435",
      "street": "LG FONTE",
      "house": "8",
      "postcode": "2450-051",
      "city": "NAZARÉ",
      "lon": "-8.998563468728443",
      "lat": "39.625720086196885"
    },
    {
      "id": "pt.ine.add.PTCONT.2243761",
      "street": "CSL CASAL ZE PADEIRO",
      "house": "5",
      "postcode": "2450-051",
      "city": "NAZARÉ",
      "lon": "-8.998934000726944",
      "lat": "39.62554619988334"
    }
  ]
}