{
  "data": {
    "distrito": "Bragança",
    "concelho": "Vinhais",
    "freguesia": "União das freguesias de Travanca e Santa Cruz",
    "OBJECTID": 327,
    "BGRI2021": "04124200104",
    "DT21": "04",
    "DTMN21": "0412",
    "DTMNFR21": "041242",
    "DTMNFRSEC21": "041242001",
    "SECNUM21": "001",
    "SSNUM21": "04",
    "SECSSNUM21": "00104",
    "OBJECTID_1": 40083,
    "DT": "04",
    "CC": "12",
    "fr": "42",
    "SEC": "001",
    "SS": "04"
  },
  "addresses": [
    {
      "id": "pt.ine.add.PTCONT.850067",
      "street": "R DAS CORTINHAS",
      "house": "",
      "postcode": "5320-140",
      "city": "SANTA CRUZ VNH",
      "lon": "-6.950668380692913",
      "lat": "41.8974198674781"
    },
    {
      "id": "pt.ine.add.PTCONT.850686",
      "street": "R DO COTO",
      "house": "",
      "postcode": "5320-140",
      "city": "SANTA CRUZ VNH",
      "lon": "-6.951818620480686",
      "lat": "41.898431041628214"
    },
    {
      "id": "pt.ine.add.PTCONT.850687",
      "street": "R DA ABLIQUEIRA",
      "house": "",
      "postcode": "5320-140",
      "city": "SANTA CRUZ VNH",
      "lon": "-6.951615525946008",
      "lat": "41.89768170176265"
    },
    {
      "id": "pt.ine.add.PTCONT.851524",
      "street": "R DO COTO",
      "house": "",
      "postcode": "5320-140",
      "city": "SANTA CRUZ VNH",
      "lon": "-6.952261642569346",
      "lat": "41.89793142978209"
    },
    {
      "id": "pt.ine.add.PTCONT.851525",
      "street": "R DAS CORTINHAS",
      "house": "",
      "postcode": "5320-140",
      "city": "SANTA CRUZ VNH",
      "lon": "-6.950505279380666",
      "lat": "41.8977693053276"
    },
    {
      "id": "pt.ine.add.PTCONT.854502",
      "street": "R DO EIRÓ",
      "house": "",
      "postcode": "5320-140",
      "city": "SANTA CRUZ VNH",
      "lon": "-6.950422105717068",
      "lat": "41.8977054275467"
    },
    {
      "id": "pt.ine.add.PTCONT.854754",
      "street": "R DA ABLIQUEIRA",
      "house": "",
      "postcode": "5320-140",
      "city": "SANTA CRUZ VNH",
      "lon": "-6.9517714868552645",
      "lat": "41.897719318527315"
    },
    {
      "id": "pt.ine.add.PTCONT.863622",
      "street": "EM 505 1",
      "house": "",
      "postcode": "5320-140",
      "city": "SANTA CRUZ VNH",
      "lon": "-6.950889893453885",
      "lat": "41.89717006397386"
    },
    {
      "id": "pt.ine.add.PTCONT.869907",
      "street": "R DA ABLIQUEIRA",
      "house": "",
      "postcode": "5320-140",
      "city": "SANTA CRUZ VNH",
      "lon": "-6.951467962256953",
      "lat": "41.897842237539585"
    },
    {
      "id": "pt.ine.add.PTCONT.874878",
      "street": "R DA ABLIQUEIRA",
      "house": "",
      "postcode": "5320-140",
      "city": "SANTA CRUZ VNH",
      "lon": "-6.95158993642364",
      "lat": "41.89776246558665"
    },
    {
      "id": "pt.ine.add.PTCONT.878098",
      "street": "R DAS CORTINHAS",
      "house": "5",
      "postcode": "5320-140",
      "city": "SANTA CRUZ VNH",
      "lon": "-6.9509433261112825",
      "lat": "41.8975397377535"
    },
    {
      "id": "pt.ine.add.PTCONT.889137",
      "street": "R DA CRUZ",
      "house": "",
      "postcode": "5320-140",
      "city": "SANTA CRUZ VNH",
      "lon": "-6.951373999524691",
      "lat": "41.89836344537424"
    },
    {
      "id": "pt.ine.add.PTCONT.889138",
      "street": "R DA CRUZ",
      "house": "",
      "postcode": "5320-140",
      "city": "SANTA CRUZ VNH",
      "lon": "-6.95152156467651",
      "lat": "41.898202909750765"
    },
    {
      "id": "pt.ine.add.PTCONT.894765",
      "street": "R DO POMARINHO",
      "house": "",
      "postcode": "5320-140",
      "city": "SANTA CRUZ VNH",
      "lon": "-6.95083124104406",
      "lat": "41.897736650043385"
    },
    {
      "id": "pt.ine.add.PTCONT.906385",
      "street": "R DO EIRÓ",
      "house": "",
      "postcode": "5320-140",
      "city": "SANTA CRUZ VNH",
      "lon": "-6.950424597231534",
      "lat": "41.89757040798362"
    },
    {
      "id": "pt.ine.add.PTCONT.908189",
      "street": "R DAS CORTINHAS",
      "house": "",
      "postcode": "5320-140",
      "city": "SANTA CRUZ VNH",
      "lon": "-6.950628084943472",
      "lat": "41.8976445278859"
    },
    {
      "id": "pt.ine.add.PTCONT.908972",
      "street": "R DAS CORTINHAS",
      "house": "",
      "postcode": "5320-140",
      "city": "SANTA CRUZ VNH",
      "lon": "-6.950725797661962",
      "lat": "41.89757351000863"
    },
    {
      "id": "pt.ine.add.PTCONT.916445",
      "street": "R DA ABLIQUEIRA",
      "house": "",
      "postcode": "5320-140",
      "city": "SANTA CRUZ VNH",
      "lon": "-6.951262315123589",
      "lat": "41.89788513609419"
    },
    {
      "id": "pt.ine.add.PTCONT.946642",
      "street": "R DA ABLIQUEIRA",
      "house": "",
      "postcode": "5320-140",
      "city": "SANTA CRUZ VNH",
      "lon": "-6.951067553722934",
      "lat": "41.897991167447806"
    },
    {
      "id": "pt.ine.add.PTCONT.949810",
      "street": "R DAS CORTINHAS",
      "house": "",
      "postcode": "5320-140",
      "city": "SANTA CRUZ VNH",
      "lon": "-6.950740170462733",
      "lat": "41.897447615797184"
    }
  ]
}