{
  "data": {
    "ilha": "Ilha da Madeira (Madeira)",
    "concelho": "Machico",
    "freguesia": "Machico",
    "OBJECTID": 140,
    "BGRI2021": "31040300505",
    "DT21": "31",
    "DTMN21": "3104",
    "DTMNFR21": "310403",
    "DTMNFRSEC21": "310403005",
    "SECNUM21": "005",
    "SSNUM21": "05",
    "SECSSNUM21": "00505",
    "OBJECTID_1": 204398,
    "DT": "31",
    "CC": "04",
    "fr": "03",
    "SEC": "005",
    "SS": "05",
    "BGRI2021_1": "31040300505"
  },
  "addresses": [
    {
      "id": "pt.ine.add.MAD.27937",
      "street": "ESTR RIBEIRA SECA",
      "house": "180",
      "postcode": "9200-124",
      "city": "MACHICO",
      "lon": "-16.77615549778281",
      "lat": "32.74168452056017"
    },
    {
      "id": "pt.ine.add.MAD.27938",
      "street": "ESTR RIBEIRA SECA",
      "house": "",
      "postcode": "9200-124",
      "city": "MACHICO",
      "lon": "-16.776169387277346",
      "lat": "32.741846664584685"
    },
    {
      "id": "pt.ine.add.MAD.28753",
      "street": "ESTR RIBEIRA SECA",
      "house": "",
      "postcode": "9200-124",
      "city": "MACHICO",
      "lon": "-16.776076231766044",
      "lat": "32.74199228799423"
    },
    {
      "id": "pt.ine.add.MAD.28754",
      "street": "ESTR RIBEIRA SECA",
      "house": "19",
      "postcode": "9200-124",
      "city": "MACHICO",
      "lon": "-16.7763895616956",
      "lat": "32.74218626319614"
    },
    {
      "id": "pt.ine.add.MAD.28755",
      "street": "ESTR RIBEIRA SECA",
      "house": "AP 27",
      "postcode": "9200-124",
      "city": "MACHICO",
      "lon": "-16.776232035778413",
      "lat": "32.742314761354045"
    },
    {
      "id": "pt.ine.add.MAD.28756",
      "street": "ESTR RIBEIRA SECA",
      "house": "",
      "postcode": "9200-124",
      "city": "MACHICO",
      "lon": "-16.776364355856384",
      "lat": "32.74252934014766"
    },
    {
      "id": "pt.ine.add.MAD.28757",
      "street": "ESTR RIBEIRA SECA",
      "house": "29",
      "postcode": "9200-124",
      "city": "MACHICO",
      "lon": "-16.77667400021239",
      "lat": "32.74307510533472"
    },
    {
      "id": "pt.ine.add.MAD.28758",
      "street": "ESTR RIBEIRA SECA",
      "house": "376",
      "postcode": "9200-124",
      "city": "MACHICO",
      "lon": "-16.776174711709917",
      "lat": "32.743190410848236"
    },
    {
      "id": "pt.ine.add.MAD.28759",
      "street": "ESTR RIBEIRA SECA",
      "house": "",
      "postcode": "9200-124",
      "city": "MACHICO",
      "lon": "-16.776138478157822",
      "lat": "32.74351560616914"
    },
    {
      "id": "pt.ine.add.MAD.28760",
      "street": "ESTR RIBEIRA SECA",
      "house": "",
      "postcode": "9200-124",
      "city": "MACHICO",
      "lon": "-16.776572899042936",
      "lat": "32.74228287233989"
    },
    {
      "id": "pt.ine.add.MAD.28761",
      "street": "ESTR LOUREIROS",
      "house": "",
      "postcode": "9200-118",
      "city": "MACHICO",
      "lon": "-16.77617822281499",
      "lat": "32.74282960359252"
    },
    {
      "id": "pt.ine.add.MAD.28762",
      "street": "VR LOUREIROS",
      "house": "",
      "postcode": "9200-124",
      "city": "MACHICO",
      "lon": "-16.776021411203224",
      "lat": "32.742994167127506"
    },
    {
      "id": "pt.ine.add.MAD.28763",
      "street": "ESTR RIBEIRA SECA",
      "house": "",
      "postcode": "9200-124",
      "city": "MACHICO",
      "lon": "-16.775679178643347",
      "lat": "32.743495058868014"
    },
    {
      "id": "pt.ine.add.MAD.28764",
      "street": "ESTR RIBEIRA SECA",
      "house": "",
      "postcode": "9200-124",
      "city": "MACHICO",
      "lon": "-16.775885645030424",
      "lat": "32.74368153056995"
    },
    {
      "id": "pt.ine.add.MAD.28765",
      "street": "VR LAGINHAS PASTEL RIBEIRA SECA",
      "house": "",
      "postcode": "9200-118",
      "city": "MACHICO",
      "lon": "-16.775976052002154",
      "lat": "32.742859525951516"
    },
    {
      "id": "pt.ine.add.MAD.28766",
      "street": "SIT PASTEL RIBEIRA SECA MACHICO",
      "house": "",
      "postcode": "9200-118",
      "city": "MACHICO",
      "lon": "-16.775976052002154",
      "lat": "32.742859525951516"
    },
    {
      "id": "pt.ine.add.MAD.28767",
      "street": "VR LOUREIROS",
      "house": "",
      "postcode": "9200-124",
      "city": "MACHICO",
      "lon": "-16.775873233965715",
      "lat": "32.742518263506085"
    },
    {
      "id": "pt.ine.add.MAD.28768",
      "street": "ESTR RIBEIRA SECA",
      "house": "",
      "postcode": "9200-124",
      "city": "MACHICO",
      "lon": "-16.775788485754795",
      "lat": "32.743087657653305"
    },
    {
      "id": "pt.ine.add.MAD.29581",
      "street": "ESTR RIBEIRA SECA",
      "house": "",
      "postcode": "9200-124",
      "city": "MACHICO",
      "lon": "-16.775462759733497",
      "lat": "32.7433448035745"
    },
    {
      "id": "pt.ine.add.MAD.29582",
      "street": "ESTR RIBEIRA SECA",
      "house": "158",
      "postcode": "9200-124",
      "city": "MACHICO",
      "lon": "-16.77510013516841",
      "lat": "32.74281782369394"
    },
    {
      "id": "pt.ine.add.MAD.29583",
      "street": "ESTR RIBEIRA SECA",
      "house": "",
      "postcode": "9200-124",
      "city": "MACHICO",
      "lon": "-16.774771189593096",
      "lat": "32.74291267253331"
    },
    {
      "id": "pt.ine.add.MAD.29584",
      "street": "VR BOCA RISCO",
      "house": "",
      "postcode": "9200-118",
      "city": "MACHICO",
      "lon": "-16.774183565462632",
      "lat": "32.743417035710316"
    },
    {
      "id": "pt.ine.add.MAD.29585",
      "street": "VR BOCA RISCO",
      "house": "",
      "postcode": "9200-124",
      "city": "MACHICO",
      "lon": "-16.774037844513114",
      "lat": "32.74252622365671"
    },
    {
      "id": "pt.ine.add.MAD.29586",
      "street": "ESTR RIBEIRA SECA",
      "house": "",
      "postcode": "9200-124",
      "city": "MACHICO",
      "lon": "-16.77426987677766",
      "lat": "32.74238765431123"
    },
    {
      "id": "pt.ine.add.MAD.29587",
      "street": "ESTR RIBEIRA SECA",
      "house": "",
      "postcode": "9200-124",
      "city": "MACHICO",
      "lon": "-16.77444200732542",
      "lat": "32.74245736846764"
    },
    {
      "id": "pt.ine.add.MAD.29588",
      "street": "SIT PASTEL",
      "house": "",
      "postcode": "9200-118",
      "city": "MACHICO",
      "lon": "-16.774615210830508",
      "lat": "32.742581180831536"
    },
    {
      "id": "pt.ine.add.MAD.29589",
      "street": "VR BOCA RISCO RIBEIRA SECA MACHICO",
      "house": "",
      "postcode": "9200-124",
      "city": "MACHICO",
      "lon": "-16.774713196741434",
      "lat": "32.742679001448856"
    },
    {
      "id": "pt.ine.add.MAD.29590",
      "street": "ESTR RIBEIRA SECA",
      "house": "",
      "postcode": "9200-124",
      "city": "MACHICO",
      "lon": "-16.77500959867974",
      "lat": "32.74255755694917"
    },
    {
      "id": "pt.ine.add.MAD.29591",
      "street": "ESTR RIBEIRA SECA",
      "house": "",
      "postcode": "9200-124",
      "city": "MACHICO",
      "lon": "-16.774890275030234",
      "lat": "32.742460038802484"
    },
    {
      "id": "pt.ine.add.MAD.29592",
      "street": "SIT PASTEL RIBEIRA SECA",
      "house": "",
      "postcode": "9200-118",
      "city": "MACHICO",
      "lon": "-16.77471367437572",
      "lat": "32.74216491505175"
    },
    {
      "id": "pt.ine.add.MAD.29593",
      "street": "ESTR RIBEIRA SECA",
      "house": "",
      "postcode": "9200-124",
      "city": "MACHICO",
      "lon": "-16.774667423677524",
      "lat": "32.741985191255466"
    },
    {
      "id": "pt.ine.add.MAD.29594",
      "street": "SIT PASTEL RIBEIRA SECA",
      "house": "",
      "postcode": "9200-124",
      "city": "MACHICO",
      "lon": "-16.77484289158671",
      "lat": "32.74168508101243"
    },
    {
      "id": "pt.ine.add.MAD.29595",
      "street": "ESTR RIBEIRA SECA",
      "house": "",
      "postcode": "9200-124",
      "city": "MACHICO",
      "lon": "-16.77491542673401",
      "lat": "32.741575826321736"
    },
    {
      "id": "pt.ine.add.MAD.29596",
      "street": "ESTR RIBEIRA SECA",
      "house": "138",
      "postcode": "9200-124",
      "city": "MACHICO",
      "lon": "-16.77490028794463",
      "lat": "32.74135056720688"
    },
    {
      "id": "pt.ine.add.MAD.29597",
      "street": "ESTR RIBEIRA SECA",
      "house": "",
      "postcode": "9200-124",
      "city": "MACHICO",
      "lon": "-16.774352131737842",
      "lat": "32.74169203106135"
    },
    {
      "id": "pt.ine.add.MAD.30404",
      "street": "SIT PASTEL",
      "house": "",
      "postcode": "9200-118",
      "city": "MACHICO",
      "lon": "-16.773891627453498",
      "lat": "32.74376388865004"
    },
    {
      "id": "pt.ine.add.MAD.30405",
      "street": "VR BOCA DO RISCO",
      "house": "",
      "postcode": "9200-118",
      "city": "MACHICO",
      "lon": "-16.773837443069745",
      "lat": "32.74426069744189"
    },
    {
      "id": "pt.ine.add.MAD.30407",
      "street": "ESTR RIBEIRA SECA",
      "house": "137",
      "postcode": "9200-124",
      "city": "MACHICO",
      "lon": "-16.774176015531427",
      "lat": "32.740882819803055"
    },
    {
      "id": "pt.ine.add.MAD.30408",
      "street": "ESTR RIBEIRA SECA",
      "house": "",
      "postcode": "9200-124",
      "city": "MACHICO",
      "lon": "-16.774753907607067",
      "lat": "32.740964825948296"
    },
    {
      "id": "pt.ine.add.MAD.30409",
      "street": "ESTR RIBEIRA SECA",
      "house": "126",
      "postcode": "9200-124",
      "city": "MACHICO",
      "lon": "-16.774449287723268",
      "lat": "32.740671514741685"
    },
    {
      "id": "pt.ine.add.MAD.30410",
      "street": "ESTR RIBEIRA SECA",
      "house": "",
      "postcode": "9200-124",
      "city": "MACHICO",
      "lon": "-16.77425635974425",
      "lat": "32.74062915180991"
    },
    {
      "id": "pt.ine.add.MAD.30411",
      "street": "ESTR RIBEIRA SECA",
      "house": "120",
      "postcode": "9200-124",
      "city": "MACHICO",
      "lon": "-16.774550253027424",
      "lat": "32.740381478792685"
    },
    {
      "id": "pt.ine.add.MAD.30412",
      "street": "ESTR RIBEIRA SECA",
      "house": "118",
      "postcode": "9200-124",
      "city": "MACHICO",
      "lon": "-16.774589709401113",
      "lat": "32.7402185790483"
    },
    {
      "id": "pt.ine.add.MAD.30413",
      "street": "ESTR RIBEIRA SECA",
      "house": "112",
      "postcode": "9200-124",
      "city": "MACHICO",
      "lon": "-16.775050362405903",
      "lat": "32.73977012647373"
    },
    {
      "id": "pt.ine.add.MAD.30414",
      "street": "ESTR RIBEIRA SECA",
      "house": "",
      "postcode": "9200-124",
      "city": "MACHICO",
      "lon": "-16.775188158286404",
      "lat": "32.73972307980227"
    },
    {
      "id": "pt.ine.add.MAD.30415",
      "street": "ESTR RIBEIRA SECA",
      "house": "",
      "postcode": "9200-124",
      "city": "MACHICO",
      "lon": "-16.775569360856124",
      "lat": "32.73957337598826"
    },
    {
      "id": "pt.ine.add.MAD.31229",
      "street": "SIT PASTEL",
      "house": "",
      "postcode": "9200-118",
      "city": "MACHICO",
      "lon": "-16.773415940407176",
      "lat": "32.74345495890684"
    },
    {
      "id": "pt.ine.add.MAD.31231",
      "street": "SIT ROCHINHA",
      "house": "",
      "postcode": "9200-129",
      "city": "MACHICO",
      "lon": "-16.773597536952128",
      "lat": "32.740232625691135"
    },
    {
      "id": "pt.ine.add.MAD.31236",
      "street": "CAM CABEÇO",
      "house": "",
      "postcode": "9200-124",
      "city": "MACHICO",
      "lon": "-16.77546046084391",
      "lat": "32.737311163866416"
    },
    {
      "id": "pt.ine.add.MAD.33842",
      "street": "ESTR RIBEIRA SECA",
      "house": "104",
      "postcode": "9200-124",
      "city": "MACHICO",
      "lon": "-16.775449146529613",
      "lat": "32.73943077616772"
    },
    {
      "id": "pt.ine.add.MAD.33843",
      "street": "ESTR RIBEIRA SECA",
      "house": "",
      "postcode": "9200-124",
      "city": "MACHICO",
      "lon": "-16.774543760714742",
      "lat": "32.73951575206027"
    },
    {
      "id": "pt.ine.add.MAD.33844",
      "street": "ESTR RIBEIRA SECA",
      "house": "119",
      "postcode": "9200-124",
      "city": "MACHICO",
      "lon": "-16.77467708731369",
      "lat": "32.7392432956164"
    },
    {
      "id": "pt.ine.add.MAD.34672",
      "street": "ESTR RIBEIRA SECA",
      "house": "102",
      "postcode": "9200-124",
      "city": "MACHICO",
      "lon": "-16.77530795344821",
      "lat": "32.73930651131531"
    },
    {
      "id": "pt.ine.add.MAD.34673",
      "street": "SIT PASTEL",
      "house": "",
      "postcode": "9200-124",
      "city": "MACHICO",
      "lon": "-16.774494416863526",
      "lat": "32.73864161306877"
    },
    {
      "id": "pt.ine.add.MAD.34674",
      "street": "ESTR RIBEIRA SECA",
      "house": "CCI 501",
      "postcode": "9200-124",
      "city": "MACHICO",
      "lon": "-16.774494416863526",
      "lat": "32.73864161306877"
    },
    {
      "id": "pt.ine.add.MAD.34675",
      "street": "ESTR RIBEIRA SECA",
      "house": "",
      "postcode": "9200-124",
      "city": "MACHICO",
      "lon": "-16.775614054493712",
      "lat": "32.73859869682132"
    },
    {
      "id": "pt.ine.add.MAD.34676",
      "street": "SIT ROCHINHA",
      "house": "",
      "postcode": "9200-124",
      "city": "MACHICO",
      "lon": "-16.775404024217412",
      "lat": "32.73823189588025"
    },
    {
      "id": "pt.ine.add.MAD.34677",
      "street": "ESTR RIBEIRA SECA",
      "house": "",
      "postcode": "9200-124",
      "city": "MACHICO",
      "lon": "-16.775287746106283",
      "lat": "32.73828765686492"
    },
    {
      "id": "pt.ine.add.MAD.34678",
      "street": "SIT ROCHINHA CCI",
      "house": "CCI 110",
      "postcode": "9200-124",
      "city": "MACHICO",
      "lon": "-16.775251807273055",
      "lat": "32.73808974919207"
    },
    {
      "id": "pt.ine.add.MAD.34679",
      "street": "ESTR RIBEIRA SECA",
      "house": "",
      "postcode": "9200-124",
      "city": "MACHICO",
      "lon": "-16.775109722654346",
      "lat": "32.7379204019436"
    },
    {
      "id": "pt.ine.add.MAD.34680",
      "street": "ESTR RIBEIRA SECA",
      "house": "",
      "postcode": "9200-124",
      "city": "MACHICO",
      "lon": "-16.77590042439188",
      "lat": "32.73797233172251"
    },
    {
      "id": "pt.ine.add.MAD.34681",
      "street": "SIT IGREJA",
      "house": "72",
      "postcode": "9200-124",
      "city": "MACHICO",
      "lon": "-16.775995544114235",
      "lat": "32.73792588898764"
    },
    {
      "id": "pt.ine.add.MAD.34682",
      "street": "ESTR RIBEIRA SECA",
      "house": "5",
      "postcode": "9200-124",
      "city": "MACHICO",
      "lon": "-16.776109787630066",
      "lat": "32.73722981114375"
    },
    {
      "id": "pt.ine.add.MAD.34683",
      "street": "ESTR RIBEIRA SECA",
      "house": "9",
      "postcode": "9200-124",
      "city": "MACHICO",
      "lon": "-16.77591031251399",
      "lat": "32.73739497913604"
    },
    {
      "id": "pt.ine.add.MAD.34684",
      "street": "ESTR RIBEIRA SECA",
      "house": "7",
      "postcode": "9200-124",
      "city": "MACHICO",
      "lon": "-16.776029272426467",
      "lat": "32.7374744637616"
    },
    {
      "id": "pt.ine.add.MAD.34685",
      "street": "CAM CABEÇO",
      "house": "",
      "postcode": "9200-124",
      "city": "MACHICO",
      "lon": "-16.775692656498222",
      "lat": "32.73718160872833"
    },
    {
      "id": "pt.ine.add.MAD.34686",
      "street": "CAM IGREJA",
      "house": "",
      "postcode": "9200-124",
      "city": "MACHICO",
      "lon": "-16.775823651149604",
      "lat": "32.73679193785819"
    },
    {
      "id": "pt.ine.add.MAD.34687",
      "street": "ESTR RIBEIRA SECA",
      "house": "",
      "postcode": "9200-125",
      "city": "MACHICO",
      "lon": "-16.775638716482923",
      "lat": "32.73661417940992"
    },
    {
      "id": "pt.ine.add.MAD.35542",
      "street": "ESTR RIBEIRA SECA",
      "house": "",
      "postcode": "9200-125",
      "city": "MACHICO",
      "lon": "-16.77576345075198",
      "lat": "32.73590893413851"
    },
    {
      "id": "pt.ine.add.MAD.54872",
      "street": "LEV BOCA DO RISCO",
      "house": "",
      "postcode": "9200-118",
      "city": "MACHICO",
      "lon": "-16.773728376658884",
      "lat": "32.743603858683365"
    },
    {
      "id": "pt.ine.add.MAD.54878",
      "street": "ESTR RIBEIRA SECA",
      "house": "",
      "postcode": "9200-124",
      "city": "MACHICO",
      "lon": "-16.775281209826016",
      "lat": "32.74333835690188"
    },
    {
      "id": "pt.ine.add.MAD.54882",
      "street": "ESTR RIBEIRA SECA",
      "house": "",
      "postcode": "9200-124",
      "city": "MACHICO",
      "lon": "-16.775473041402385",
      "lat": "32.73848344851242"
    },
    {
      "id": "pt.ine.add.MAD.54883",
      "street": "ESTR RIBEIRA SECA",
      "house": "",
      "postcode": "9200-124",
      "city": "MACHICO",
      "lon": "-16.775764956859764",
      "lat": "32.738136592412"
    },
    {
      "id": "pt.ine.add.MAD.54884",
      "street": "ESTR RIBEIRA SECA",
      "house": "",
      "postcode": "9200-124",
      "city": "MACHICO",
      "lon": "-16.77566643847856",
      "lat": "32.73801172318718"
    },
    {
      "id": "pt.ine.add.MAD.54885",
      "street": "CAM CABECO",
      "house": "",
      "postcode": "9200-124",
      "city": "MACHICO",
      "lon": "-16.775801126642907",
      "lat": "32.73727026116321"
    },
    {
      "id": "pt.ine.add.MAD.57965",
      "street": "ESTR RIBEIRA SECA",
      "house": "",
      "postcode": "9200-124",
      "city": "MACHICO",
      "lon": "-16.77495208375523",
      "lat": "32.74342418986238"
    },
    {
      "id": "pt.ine.add.MAD.58096",
      "street": "ESTR RIBEIRA SECA",
      "house": "38",
      "postcode": "9200-124",
      "city": "MACHICO",
      "lon": "-16.77564818643503",
      "lat": "32.73547765786764"
    },
    {
      "id": "pt.ine.add.MAD.61763",
      "street": "LEV BOCA DO RISCO",
      "house": "",
      "postcode": "9200-075",
      "city": "MACHICO",
      "lon": "-16.773549894775005",
      "lat": "32.74590621478433"
    },
    {
      "id": "pt.ine.add.MAD.61944",
      "street": "ESTR RIBEIRA SECA",
      "house": "",
      "postcode": "9200-124",
      "city": "MACHICO",
      "lon": "-16.77400165795716",
      "lat": "32.743392554364036"
    },
    {
      "id": "pt.ine.add.MAD.61945",
      "street": "ESTR RIBEIRA SECA",
      "house": "128",
      "postcode": "9200-124",
      "city": "MACHICO",
      "lon": "-16.774376752673746",
      "lat": "32.740780769171856"
    },
    {
      "id": "pt.ine.add.MAD.62132",
      "street": "SIT ROCHINHA",
      "house": "",
      "postcode": "9200-124",
      "city": "MACHICO",
      "lon": "-16.77540652788519",
      "lat": "32.73835812563794"
    },
    {
      "id": "pt.ine.add.MAD.62133",
      "street": "ESTR RIBEIRA SECA",
      "house": "48",
      "postcode": "9200-125",
      "city": "MACHICO",
      "lon": "-16.775904281116755",
      "lat": "32.73601516588028"
    },
    {
      "id": "pt.ine.add.MAD.64252",
      "street": "SIT PASTEL RIBEIRA SECA",
      "house": "",
      "postcode": "9200-124",
      "city": "MACHICO",
      "lon": "-16.776313159393304",
      "lat": "32.74263829315325"
    },
    {
      "id": "pt.ine.add.MAD.64253",
      "street": "ESTR RIBEIRA SECA",
      "house": "",
      "postcode": "9200-124",
      "city": "MACHICO",
      "lon": "-16.774446248926605",
      "lat": "32.74051823572687"
    },
    {
      "id": "pt.ine.add.MAD.64254",
      "street": "ESTR RIBEIRA SECA",
      "house": "",
      "postcode": "9200-124",
      "city": "MACHICO",
      "lon": "-16.77528292256087",
      "lat": "32.73965860472411"
    },
    {
      "id": "pt.ine.add.MAD.64260",
      "street": "ESTR RIBEIRA SECA",
      "house": "",
      "postcode": "9200-124",
      "city": "MACHICO",
      "lon": "-16.774617009651465",
      "lat": "32.73944256320864"
    },
    {
      "id": "pt.ine.add.MAD.64411",
      "street": "ESTR RIBEIRA SECA",
      "house": "",
      "postcode": "9200-124",
      "city": "MACHICO",
      "lon": "-16.774553121030888",
      "lat": "32.73891135016587"
    },
    {
      "id": "pt.ine.add.MAD.66896",
      "street": "ESTR RIBEIRA SECA",
      "house": "",
      "postcode": "9200-124",
      "city": "MACHICO",
      "lon": "-16.776215282999985",
      "lat": "32.742008354924984"
    },
    {
      "id": "pt.ine.add.MAD.66897",
      "street": "SIT PASTEL RIBEIRA SECA",
      "house": "34",
      "postcode": "9200-118",
      "city": "MACHICO",
      "lon": "-16.77645460772121",
      "lat": "32.74331270818942"
    },
    {
      "id": "pt.ine.add.MAD.66898",
      "street": "VR LOREIROS",
      "house": "7",
      "postcode": "9200-118",
      "city": "MACHICO",
      "lon": "-16.77606724028379",
      "lat": "32.74261472218"
    },
    {
      "id": "pt.ine.add.MAD.66899",
      "street": "VR PIARES VILA SOFI",
      "house": "25",
      "postcode": "9200-124",
      "city": "MACHICO",
      "lon": "-16.776559794528232",
      "lat": "32.74269792923635"
    },
    {
      "id": "pt.ine.add.MAD.69590",
      "street": "SIT PASTEL",
      "house": "137",
      "postcode": "9200-118",
      "city": "MACHICO",
      "lon": "-16.773662187932256",
      "lat": "32.74134104089541"
    },
    {
      "id": "pt.ine.add.MAD.69602",
      "street": "ESTR RIBEIRA SECA",
      "house": "176",
      "postcode": "9200-124",
      "city": "MACHICO",
      "lon": "-16.775960307159885",
      "lat": "32.742066082531"
    },
    {
      "id": "pt.ine.add.MAD.69603",
      "street": "VR BOCA DO RISCO",
      "house": "",
      "postcode": "9200-124",
      "city": "MACHICO",
      "lon": "-16.774621825863953",
      "lat": "32.74291478795346"
    },
    {
      "id": "pt.ine.add.MAD.69804",
      "street": "ESTR RIBEIRA SECA",
      "house": "",
      "postcode": "9200-124",
      "city": "MACHICO",
      "lon": "-16.774271776741077",
      "lat": "32.74356008975202"
    },
    {
      "id": "pt.ine.add.MAD.70013",
      "street": "ESTR RIBEIRA SECA",
      "house": "88",
      "postcode": "9200-124",
      "city": "MACHICO",
      "lon": "-16.775615306491286",
      "lat": "32.73866181168961"
    },
    {
      "id": "pt.ine.add.MAD.70014",
      "street": "ESTR RIBEIRA SECA",
      "house": "64",
      "postcode": "9200-124",
      "city": "MACHICO",
      "lon": "-16.7762913251237",
      "lat": "32.737236257045936"
    },
    {
      "id": "pt.ine.add.MAD.72036",
      "street": "ESTR LEVADA NOVA",
      "house": "",
      "postcode": "9200-118",
      "city": "MACHICO",
      "lon": "-16.77370216115019",
      "lat": "32.742819581819326"
    },
    {
      "id": "pt.ine.add.MAD.72284",
      "street": "ESTR RIBEIRA SECA",
      "house": "",
      "postcode": "9200-124",
      "city": "MACHICO",
      "lon": "-16.7746597409755",
      "lat": "32.739983094736736"
    },
    {
      "id": "pt.ine.add.MAD.72290",
      "street": "ESTR RIBEIRA SECA",
      "house": "94",
      "postcode": "9200-124",
      "city": "MACHICO",
      "lon": "-16.774969187076593",
      "lat": "32.738905457631994"
    },
    {
      "id": "pt.ine.add.MAD.76897",
      "street": "LEV BOCA DO RISCO",
      "house": "",
      "postcode": "9200-075",
      "city": "MACHICO",
      "lon": "-16.773918326994245",
      "lat": "32.74403407888987"
    },
    {
      "id": "pt.ine.add.MAD.77082",
      "street": "VR PIARES",
      "house": "",
      "postcode": "9200-118",
      "city": "MACHICO",
      "lon": "-16.776480887132838",
      "lat": "32.743023729660294"
    },
    {
      "id": "pt.ine.add.MAD.77083",
      "street": "ESTR RIBEIRA SECA",
      "house": "",
      "postcode": "9200-124",
      "city": "MACHICO",
      "lon": "-16.774319401025085",
      "lat": "32.74327080930701"
    },
    {
      "id": "pt.ine.add.MAD.77084",
      "street": "ESTR RIBEIRA SECA",
      "house": "",
      "postcode": "9200-124",
      "city": "MACHICO",
      "lon": "-16.774879546568744",
      "lat": "32.7419190543104"
    },
    {
      "id": "pt.ine.add.MAD.78556",
      "street": "VR LOUREIROS",
      "house": "8",
      "postcode": "9200-114",
      "city": "MACHICO",
      "lon": "-16.776116893945744",
      "lat": "32.74296575695681"
    },
    {
      "id": "pt.ine.add.MAD.80668",
      "street": "VR BOCA DO RISCO",
      "house": "",
      "postcode": "9200-124",
      "city": "MACHICO",
      "lon": "-16.774614017597216",
      "lat": "32.74305920158226"
    },
    {
      "id": "pt.ine.add.MAD.80669",
      "street": "VR PIARES",
      "house": "180",
      "postcode": "9200-124",
      "city": "MACHICO",
      "lon": "-16.774614017597216",
      "lat": "32.74305920158226"
    },
    {
      "id": "pt.ine.add.MAD.80670",
      "street": "VR PIARES",
      "house": "",
      "postcode": "9200-124",
      "city": "MACHICO",
      "lon": "-16.774614017597216",
      "lat": "32.74305920158226"
    },
    {
      "id": "pt.ine.add.MAD.80750",
      "street": "ESTR RIBEIRA SECA",
      "house": "",
      "postcode": "9200-124",
      "city": "MACHICO",
      "lon": "-16.774797121399533",
      "lat": "32.7393768798202"
    },
    {
      "id": "pt.ine.add.MAD.84409",
      "street": "ESTR RIBEIRA SECA",
      "house": "",
      "postcode": "9200-124",
      "city": "MACHICO",
      "lon": "-16.776768516530495",
      "lat": "32.74246047751312"
    },
    {
      "id": "pt.ine.add.MAD.84410",
      "street": "ESTR RIBEIRA SECA",
      "house": "172",
      "postcode": "9200-124",
      "city": "MACHICO",
      "lon": "-16.775702891198613",
      "lat": "32.74253871539709"
    },
    {
      "id": "pt.ine.add.MAD.84411",
      "street": "ESTR RIBEIRA SECA",
      "house": "100",
      "postcode": "9200-124",
      "city": "MACHICO",
      "lon": "-16.775209791960393",
      "lat": "32.7391996745975"
    },
    {
      "id": "pt.ine.add.MAD.84412",
      "street": "CAM CABEÇO",
      "house": "11",
      "postcode": "9200-124",
      "city": "MACHICO",
      "lon": "-16.775608742075175",
      "lat": "32.737254949296606"
    },
    {
      "id": "pt.ine.add.MAD.88807",
      "street": "ESTR RIBEIRA SECA",
      "house": "",
      "postcode": "9200-124",
      "city": "MACHICO",
      "lon": "-16.776213382403295",
      "lat": "32.742450309833025"
    },
    {
      "id": "pt.ine.add.MAD.88808",
      "street": "ESTR RIBEIRA SECA",
      "house": "150",
      "postcode": "9200-124",
      "city": "MACHICO",
      "lon": "-16.774780726420786",
      "lat": "32.74231728738328"
    },
    {
      "id": "pt.ine.add.MAD.88809",
      "street": "ESTR RIBEIRA SECA",
      "house": "",
      "postcode": "9200-124",
      "city": "MACHICO",
      "lon": "-16.775431386577914",
      "lat": "32.739611406656074"
    },
    {
      "id": "pt.ine.add.MAD.88813",
      "street": "SIT PASTEL RIBEIRA SECA",
      "house": "",
      "postcode": "9200-118",
      "city": "MACHICO",
      "lon": "-16.774682807885124",
      "lat": "32.739531820840035"
    },
    {
      "id": "pt.ine.add.MAD.88814",
      "street": "ESTR RIBEIRA SECA",
      "house": "",
      "postcode": "9200-124",
      "city": "MACHICO",
      "lon": "-16.775450810595533",
      "lat": "32.73843866875554"
    },
    {
      "id": "pt.ine.add.MAD.88939",
      "street": "LEV BOCA DO RISCO",
      "house": "",
      "postcode": "9200-075",
      "city": "MACHICO",
      "lon": "-16.774222543423846",
      "lat": "32.74376822249484"
    },
    {
      "id": "pt.ine.add.MAD.90149",
      "street": "VR BOCA RISCO",
      "house": "",
      "postcode": "9200-124",
      "city": "MACHICO",
      "lon": "-16.774585886143093",
      "lat": "32.742716880242085"
    },
    {
      "id": "pt.ine.add.MAD.90155",
      "street": "ESTR RIBEIRA SECA",
      "house": "68",
      "postcode": "9200-124",
      "city": "MACHICO",
      "lon": "-16.776151452817793",
      "lat": "32.737716243620184"
    },
    {
      "id": "pt.ine.add.MAD.90156",
      "street": "ESTR RIBEIRA SECA",
      "house": "70",
      "postcode": "9200-124",
      "city": "MACHICO",
      "lon": "-16.776057585668887",
      "lat": "32.73782580132601"
    },
    {
      "id": "pt.ine.add.MAD.94779",
      "street": "ESTR RIBEIRA SECA",
      "house": "164",
      "postcode": "9200-124",
      "city": "MACHICO",
      "lon": "-16.775489042363393",
      "lat": "32.74305582514434"
    },
    {
      "id": "pt.ine.add.MAD.94785",
      "street": "ESTR RIBEIRA SECA",
      "house": "",
      "postcode": "9200-124",
      "city": "MACHICO",
      "lon": "-16.775565479139914",
      "lat": "32.738301759923885"
    },
    {
      "id": "pt.ine.add.MAD.97861",
      "street": "VR LOUROS",
      "house": "14",
      "postcode": "9200-124",
      "city": "MACHICO",
      "lon": "-16.776210834113733",
      "lat": "32.743397334362015"
    },
    {
      "id": "pt.ine.add.MAD.98157",
      "street": "VR BOCA RISCO",
      "house": "1",
      "postcode": "9200-118",
      "city": "MACHICO",
      "lon": "-16.774222431409644",
      "lat": "32.74268595117635"
    },
    {
      "id": "pt.ine.add.MAD.101509",
      "street": "ESTR RIBEIRA SECA",
      "house": "114",
      "postcode": "9200-124",
      "city": "MACHICO",
      "lon": "-16.774828112560613",
      "lat": "32.739863463886174"
    },
    {
      "id": "pt.ine.add.MAD.101894",
      "street": "VR LAJINHAS",
      "house": "",
      "postcode": "9200-124",
      "city": "MACHICO",
      "lon": "-16.77589266946247",
      "lat": "32.74295991602812"
    },
    {
      "id": "pt.ine.add.MAD.102087",
      "street": "ESTR RIBEIRA SECA",
      "house": "",
      "postcode": "9200-118",
      "city": "MACHICO",
      "lon": "-16.774617009651465",
      "lat": "32.73944256320864"
    },
    {
      "id": "pt.ine.add.MAD.102674",
      "street": "ESTR RIBEIRA SECA",
      "house": "66",
      "postcode": "9200-124",
      "city": "MACHICO",
      "lon": "-16.776198532067784",
      "lat": "32.73739991329359"
    },
    {
      "id": "pt.ine.add.MAD.103314",
      "street": "SIT ROCHINHA",
      "house": "",
      "postcode": "9200-124",
      "city": "MACHICO",
      "lon": "-16.7755786513402",
      "lat": "32.73842783851131"
    },
    {
      "id": "pt.ine.add.MAD.103393",
      "street": "SIT PASTEL",
      "house": "",
      "postcode": "9200-118",
      "city": "MACHICO",
      "lon": "-16.773417191088008",
      "lat": "32.74351807380145"
    },
    {
      "id": "pt.ine.add.MAD.104515",
      "street": "SIT PASTEL",
      "house": "",
      "postcode": "9200-118",
      "city": "MACHICO",
      "lon": "-16.77467708731369",
      "lat": "32.7392432956164"
    },
    {
      "id": "pt.ine.add.MAD.104575",
      "street": "VR BOCA DO RISCO",
      "house": "",
      "postcode": "9200-124",
      "city": "MACHICO",
      "lon": "-16.774886579859707",
      "lat": "32.74281182981324"
    },
    {
      "id": "pt.ine.add.MAD.105045",
      "street": "SIT PASTEL RIBEIRA SECA",
      "house": "",
      "postcode": "9200-124",
      "city": "MACHICO",
      "lon": "-16.7758784223742",
      "lat": "32.74277973918409"
    },
    {
      "id": "pt.ine.add.MAD.105405",
      "street": "ESTR RIBEIRA SECA",
      "house": "",
      "postcode": "9200-124",
      "city": "MACHICO",
      "lon": "-16.774392125199167",
      "lat": "32.74155618061418"
    },
    {
      "id": "pt.ine.add.MAD.128160",
      "street": "SIT RIBEIRA SECA",
      "house": "",
      "postcode": "9200-124",
      "city": "MACHICO",
      "lon": "-16.775554678527833",
      "lat": "32.7356052480029"
    },
    {
      "id": "pt.ine.add.MAD.128514",
      "street": "ESTR RIBEIRA SECA",
      "house": "",
      "postcode": "9200-118",
      "city": "MACHICO",
      "lon": "-16.775139941176896",
      "lat": "32.73944417558467"
    }
  ]
}