{
  "data": {
    "distrito": "Faro",
    "concelho": "Loulé",
    "freguesia": "Quarteira",
    "OBJECTID": 1919,
    "BGRI2021": "08080502302",
    "DT21": "08",
    "DTMN21": "0808",
    "DTMNFR21": "080805",
    "DTMNFRSEC21": "080805023",
    "SECNUM21": "023",
    "SSNUM21": "02",
    "SECSSNUM21": "02302",
    "OBJECTID_1": 69574,
    "DT": "08",
    "CC": "08",
    "fr": "05",
    "SEC": "023",
    "SS": "02"
  },
  "addresses": [
    {
      "id": "pt.ine.add.PTCONT.1467770",
      "street": "AV TIVOLI ALGAMAR",
      "house": "ALGAMAR",
      "postcode": "8125-410",
      "city": "QUARTEIRA",
      "lon": "-8.115149080340759",
      "lat": "37.075556639927854"
    },
    {
      "id": "pt.ine.add.PTCONT.1467771",
      "street": "AV TIVOLI ALGAMAR",
      "house": "ALGAMAR",
      "postcode": "8125-410",
      "city": "QUARTEIRA",
      "lon": "-8.115149080340759",
      "lat": "37.075556639927854"
    },
    {
      "id": "pt.ine.add.PTCONT.1467772",
      "street": "AV TIVOLI ALGAMAR",
      "house": "ALGAMAR",
      "postcode": "8125-410",
      "city": "QUARTEIRA",
      "lon": "-8.115149080340759",
      "lat": "37.075556639927854"
    },
    {
      "id": "pt.ine.add.PTCONT.1467773",
      "street": "AV TIVOLI ALGAMAR",
      "house": "ALGAMAR",
      "postcode": "8125-410",
      "city": "QUARTEIRA",
      "lon": "-8.115149080340759",
      "lat": "37.075556639927854"
    },
    {
      "id": "pt.ine.add.PTCONT.1467774",
      "street": "AV TIVOLI ALGAMAR",
      "house": "ALGAMAR",
      "postcode": "8125-410",
      "city": "QUARTEIRA",
      "lon": "-8.115149080340759",
      "lat": "37.075556639927854"
    },
    {
      "id": "pt.ine.add.PTCONT.1467775",
      "street": "AV TIVOLI ALGAMAR",
      "house": "ALGAMAR",
      "postcode": "8125-410",
      "city": "QUARTEIRA",
      "lon": "-8.115149080340759",
      "lat": "37.075556639927854"
    },
    {
      "id": "pt.ine.add.PTCONT.1467776",
      "street": "AV TIVOLI ALAMAR",
      "house": "ALAMAR",
      "postcode": "8125-410",
      "city": "QUARTEIRA",
      "lon": "-8.115149080340759",
      "lat": "37.075556639927854"
    },
    {
      "id": "pt.ine.add.PTCONT.1467777",
      "street": "AV TIVOLI ALGAMAR",
      "house": "ALGAMAR",
      "postcode": "8125-410",
      "city": "QUARTEIRA",
      "lon": "-8.115149080340759",
      "lat": "37.075556639927854"
    },
    {
      "id": "pt.ine.add.PTCONT.1467778",
      "street": "AV TIVOLI ALGAMAR",
      "house": "ALGAMAR",
      "postcode": "8125-410",
      "city": "QUARTEIRA",
      "lon": "-8.115149080340759",
      "lat": "37.075556639927854"
    },
    {
      "id": "pt.ine.add.PTCONT.1467779",
      "street": "AV TIVOLI ALGAMAR",
      "house": "ALGAMAR",
      "postcode": "8125-410",
      "city": "QUARTEIRA",
      "lon": "-8.115149080340759",
      "lat": "37.075556639927854"
    },
    {
      "id": "pt.ine.add.PTCONT.1467780",
      "street": "AV TIVOLI ALGAMAR",
      "house": "ALGAMAR",
      "postcode": "8125-410",
      "city": "QUARTEIRA",
      "lon": "-8.115149080340759",
      "lat": "37.075556639927854"
    },
    {
      "id": "pt.ine.add.PTCONT.1467781",
      "street": "AV TIVOLI ALGAMAR",
      "house": "ALGAMAR",
      "postcode": "8125-410",
      "city": "QUARTEIRA",
      "lon": "-8.115149080340759",
      "lat": "37.075556639927854"
    },
    {
      "id": "pt.ine.add.PTCONT.1467782",
      "street": "AV TIVOLI ALGAMAR",
      "house": "ALGAMAR",
      "postcode": "8125-410",
      "city": "QUARTEIRA",
      "lon": "-8.115149080340759",
      "lat": "37.075556639927854"
    },
    {
      "id": "pt.ine.add.PTCONT.1467783",
      "street": "AV TIVOLI ALGAMAR",
      "house": "ALGAMAR",
      "postcode": "8125-410",
      "city": "QUARTEIRA",
      "lon": "-8.115149080340759",
      "lat": "37.075556639927854"
    },
    {
      "id": "pt.ine.add.PTCONT.1467784",
      "street": "AV TIVOLI ALGAMAR",
      "house": "ALGAMAR",
      "postcode": "8125-410",
      "city": "QUARTEIRA",
      "lon": "-8.115149080340759",
      "lat": "37.075556639927854"
    },
    {
      "id": "pt.ine.add.PTCONT.1467785",
      "street": "AV TIVOLI ALGAMAR",
      "house": "ALGAMAR",
      "postcode": "8125-410",
      "city": "QUARTEIRA",
      "lon": "-8.115149080340759",
      "lat": "37.075556639927854"
    },
    {
      "id": "pt.ine.add.PTCONT.1467786",
      "street": "AV TIVOLI ALGAMAR",
      "house": "ALGAMAR",
      "postcode": "8125-410",
      "city": "QUARTEIRA",
      "lon": "-8.115149080340759",
      "lat": "37.075556639927854"
    },
    {
      "id": "pt.ine.add.PTCONT.1467907",
      "street": "AV TIVOLI ALGAMAR",
      "house": "ALGAMAR",
      "postcode": "8125-410",
      "city": "QUARTEIRA",
      "lon": "-8.115149080340759",
      "lat": "37.075556639927854"
    },
    {
      "id": "pt.ine.add.PTCONT.1467908",
      "street": "AV TIVOLI ALGAMAR",
      "house": "ALGAMAR",
      "postcode": "8125-410",
      "city": "QUARTEIRA",
      "lon": "-8.115149080340759",
      "lat": "37.075556639927854"
    },
    {
      "id": "pt.ine.add.PTCONT.1467909",
      "street": "AV TIVOLI ACGAMAR",
      "house": "AÇGAMAR",
      "postcode": "8125-410",
      "city": "QUARTEIRA",
      "lon": "-8.115149080340759",
      "lat": "37.075556639927854"
    },
    {
      "id": "pt.ine.add.PTCONT.1467910",
      "street": "AV TIVOLI ALGAMAR",
      "house": "ALGAMAR",
      "postcode": "8125-410",
      "city": "QUARTEIRA",
      "lon": "-8.115149080340759",
      "lat": "37.075556639927854"
    },
    {
      "id": "pt.ine.add.PTCONT.1467911",
      "street": "AV TIVOLI ALGAMAR",
      "house": "ALGAMAR",
      "postcode": "8125-410",
      "city": "QUARTEIRA",
      "lon": "-8.115149080340759",
      "lat": "37.075556639927854"
    },
    {
      "id": "pt.ine.add.PTCONT.1467912",
      "street": "AV TIVOLI ALGAMAR",
      "house": "ALGAMAR",
      "postcode": "8125-410",
      "city": "QUARTEIRA",
      "lon": "-8.115149080340759",
      "lat": "37.075556639927854"
    },
    {
      "id": "pt.ine.add.PTCONT.1467913",
      "street": "AV TIVOLI ALGAMAR",
      "house": "ALGAMAR",
      "postcode": "8125-410",
      "city": "QUARTEIRA",
      "lon": "-8.115149080340759",
      "lat": "37.075556639927854"
    },
    {
      "id": "pt.ine.add.PTCONT.1467914",
      "street": "AV TIVOLI ALGAMAR",
      "house": "ALGAMAR",
      "postcode": "8125-410",
      "city": "QUARTEIRA",
      "lon": "-8.115149080340759",
      "lat": "37.075556639927854"
    },
    {
      "id": "pt.ine.add.PTCONT.1467915",
      "street": "AV TIVOLI ALGAMAR",
      "house": "ALGAMAR",
      "postcode": "8125-410",
      "city": "QUARTEIRA",
      "lon": "-8.115149080340759",
      "lat": "37.075556639927854"
    },
    {
      "id": "pt.ine.add.PTCONT.1467916",
      "street": "AV TIVOLI ALGAMAR",
      "house": "ALGAMAR",
      "postcode": "8125-410",
      "city": "QUARTEIRA",
      "lon": "-8.115149080340759",
      "lat": "37.075556639927854"
    },
    {
      "id": "pt.ine.add.PTCONT.1467917",
      "street": "AV TIVOLI ALGAMAR",
      "house": "ALGAMAR",
      "postcode": "8125-410",
      "city": "QUARTEIRA",
      "lon": "-8.115149080340759",
      "lat": "37.075556639927854"
    },
    {
      "id": "pt.ine.add.PTCONT.1467918",
      "street": "AV TIVOLI ALGAMAR",
      "house": "ALGAMAR",
      "postcode": "8125-410",
      "city": "QUARTEIRA",
      "lon": "-8.115149080340759",
      "lat": "37.075556639927854"
    },
    {
      "id": "pt.ine.add.PTCONT.1467919",
      "street": "AV TIVOLI ALGAMAR",
      "house": "ALGAMAR",
      "postcode": "8125-410",
      "city": "QUARTEIRA",
      "lon": "-8.115149080340759",
      "lat": "37.075556639927854"
    },
    {
      "id": "pt.ine.add.PTCONT.1467920",
      "street": "AV TIVOLI ALGAMAR",
      "house": "ALGAMAR",
      "postcode": "8125-410",
      "city": "QUARTEIRA",
      "lon": "-8.115149080340759",
      "lat": "37.075556639927854"
    },
    {
      "id": "pt.ine.add.PTCONT.1467921",
      "street": "AV TIVOLI ALGAMAR",
      "house": "ALGAMAR",
      "postcode": "8125-410",
      "city": "QUARTEIRA",
      "lon": "-8.115149080340759",
      "lat": "37.075556639927854"
    },
    {
      "id": "pt.ine.add.PTCONT.1467922",
      "street": "AV TIVOLI ALGAMAR",
      "house": "ALGAMAR",
      "postcode": "8125-410",
      "city": "QUARTEIRA",
      "lon": "-8.115149080340759",
      "lat": "37.075556639927854"
    },
    {
      "id": "pt.ine.add.PTCONT.1467923",
      "street": "AV TIVOLI ALGAMAR",
      "house": "ALGAMAR",
      "postcode": "8125-410",
      "city": "QUARTEIRA",
      "lon": "-8.115149080340759",
      "lat": "37.075556639927854"
    },
    {
      "id": "pt.ine.add.PTCONT.1468077",
      "street": "AV TIVOLI ALGAMAR",
      "house": "ALGAMAR",
      "postcode": "8125-410",
      "city": "QUARTEIRA",
      "lon": "-8.115149080340759",
      "lat": "37.075556639927854"
    },
    {
      "id": "pt.ine.add.PTCONT.1468078",
      "street": "AV TIVOLI ALGAMAR",
      "house": "ALGAMAR",
      "postcode": "8125-410",
      "city": "QUARTEIRA",
      "lon": "-8.115149080340759",
      "lat": "37.075556639927854"
    },
    {
      "id": "pt.ine.add.PTCONT.1468079",
      "street": "AV TIVOLI ALGAMAR",
      "house": "ALGAMAR",
      "postcode": "8125-410",
      "city": "QUARTEIRA",
      "lon": "-8.115149080340759",
      "lat": "37.075556639927854"
    },
    {
      "id": "pt.ine.add.PTCONT.1468080",
      "street": "AV TIVOLI TIVOLI",
      "house": "TIVOLI",
      "postcode": "8125-410",
      "city": "QUARTEIRA",
      "lon": "-8.115149080340759",
      "lat": "37.075556639927854"
    },
    {
      "id": "pt.ine.add.PTCONT.1468081",
      "street": "AV TIVOLI ALGAMAR",
      "house": "ALGAMAR",
      "postcode": "8125-410",
      "city": "QUARTEIRA",
      "lon": "-8.115149080340759",
      "lat": "37.075556639927854"
    },
    {
      "id": "pt.ine.add.PTCONT.1468082",
      "street": "AV TIVOLI ALGAMAR",
      "house": "ALGAMAR",
      "postcode": "8125-410",
      "city": "QUARTEIRA",
      "lon": "-8.115149080340759",
      "lat": "37.075556639927854"
    },
    {
      "id": "pt.ine.add.PTCONT.1468083",
      "street": "AV TIVOLI ALGAMAR",
      "house": "ALGAMAR",
      "postcode": "8125-410",
      "city": "QUARTEIRA",
      "lon": "-8.115149080340759",
      "lat": "37.075556639927854"
    },
    {
      "id": "pt.ine.add.PTCONT.1468084",
      "street": "AV TIVOLI ALGAMAR",
      "house": "ALGAMAR",
      "postcode": "8125-410",
      "city": "QUARTEIRA",
      "lon": "-8.115149080340759",
      "lat": "37.075556639927854"
    },
    {
      "id": "pt.ine.add.PTCONT.1468085",
      "street": "AV TIVOLI ALGAMAR",
      "house": "ALGAMAR",
      "postcode": "8125-410",
      "city": "QUARTEIRA",
      "lon": "-8.115149080340759",
      "lat": "37.075556639927854"
    },
    {
      "id": "pt.ine.add.PTCONT.1468888",
      "street": "AV TIVOLI ALGAMAR",
      "house": "ALGAMAR",
      "postcode": "8125-410",
      "city": "QUARTEIRA",
      "lon": "-8.115149080340759",
      "lat": "37.075556639927854"
    },
    {
      "id": "pt.ine.add.PTCONT.1730636",
      "street": "AV TIVOLI",
      "house": "",
      "postcode": "8125-410",
      "city": "QUARTEIRA",
      "lon": "-8.115666376712904",
      "lat": "37.075565727834075"
    },
    {
      "id": "pt.ine.add.PTCONT.1730638",
      "street": "AV TIVOLI",
      "house": "",
      "postcode": "8125-410",
      "city": "QUARTEIRA",
      "lon": "-8.115666376712904",
      "lat": "37.075565727834075"
    },
    {
      "id": "pt.ine.add.PTCONT.1730639",
      "street": "AV TIVOLI",
      "house": "",
      "postcode": "8125-410",
      "city": "QUARTEIRA",
      "lon": "-8.115666376712904",
      "lat": "37.075565727834075"
    },
    {
      "id": "pt.ine.add.PTCONT.1730640",
      "street": "AV TIVOLI",
      "house": "",
      "postcode": "8125-410",
      "city": "QUARTEIRA",
      "lon": "-8.115666376712904",
      "lat": "37.075565727834075"
    },
    {
      "id": "pt.ine.add.PTCONT.1730641",
      "street": "AV TIVOLI",
      "house": "",
      "postcode": "8125-410",
      "city": "QUARTEIRA",
      "lon": "-8.115666376712904",
      "lat": "37.075565727834075"
    },
    {
      "id": "pt.ine.add.PTCONT.1730642",
      "street": "AV TIVOLI",
      "house": "",
      "postcode": "8125-410",
      "city": "QUARTEIRA",
      "lon": "-8.115666376712904",
      "lat": "37.075565727834075"
    },
    {
      "id": "pt.ine.add.PTCONT.1730643",
      "street": "AV TIVOLI",
      "house": "",
      "postcode": "8125-410",
      "city": "QUARTEIRA",
      "lon": "-8.115666376712904",
      "lat": "37.075565727834075"
    },
    {
      "id": "pt.ine.add.PTCONT.1730644",
      "street": "AV TIVOLI",
      "house": "",
      "postcode": "8125-410",
      "city": "QUARTEIRA",
      "lon": "-8.115666376712904",
      "lat": "37.075565727834075"
    },
    {
      "id": "pt.ine.add.PTCONT.1730645",
      "street": "AV TIVOLI",
      "house": "",
      "postcode": "8125-410",
      "city": "QUARTEIRA",
      "lon": "-8.115666376712904",
      "lat": "37.075565727834075"
    },
    {
      "id": "pt.ine.add.PTCONT.1730646",
      "street": "AV TIVOLI",
      "house": "",
      "postcode": "8125-410",
      "city": "QUARTEIRA",
      "lon": "-8.115666376712904",
      "lat": "37.075565727834075"
    },
    {
      "id": "pt.ine.add.PTCONT.1730647",
      "street": "AV TIVOLI",
      "house": "",
      "postcode": "8125-410",
      "city": "QUARTEIRA",
      "lon": "-8.115666376712904",
      "lat": "37.075565727834075"
    },
    {
      "id": "pt.ine.add.PTCONT.1730648",
      "street": "AV TIVOLI",
      "house": "",
      "postcode": "8125-410",
      "city": "QUARTEIRA",
      "lon": "-8.115666376712904",
      "lat": "37.075565727834075"
    },
    {
      "id": "pt.ine.add.PTCONT.1730649",
      "street": "AV TIVOLI",
      "house": "",
      "postcode": "8125-410",
      "city": "QUARTEIRA",
      "lon": "-8.115666376712904",
      "lat": "37.075565727834075"
    },
    {
      "id": "pt.ine.add.PTCONT.1730650",
      "street": "AV TIVOLI",
      "house": "",
      "postcode": "8125-410",
      "city": "QUARTEIRA",
      "lon": "-8.115666376712904",
      "lat": "37.075565727834075"
    },
    {
      "id": "pt.ine.add.PTCONT.1730651",
      "street": "AV TIVOLI",
      "house": "",
      "postcode": "8125-410",
      "city": "QUARTEIRA",
      "lon": "-8.115666376712904",
      "lat": "37.075565727834075"
    },
    {
      "id": "pt.ine.add.PTCONT.1730652",
      "street": "AV TIVOLI",
      "house": "",
      "postcode": "8125-410",
      "city": "QUARTEIRA",
      "lon": "-8.115666376712904",
      "lat": "37.075565727834075"
    },
    {
      "id": "pt.ine.add.PTCONT.1730653",
      "street": "AV TIVOLI",
      "house": "",
      "postcode": "8125-410",
      "city": "QUARTEIRA",
      "lon": "-8.115666376712904",
      "lat": "37.075565727834075"
    },
    {
      "id": "pt.ine.add.PTCONT.1730655",
      "street": "AV TIVOLI",
      "house": "",
      "postcode": "8125-410",
      "city": "QUARTEIRA",
      "lon": "-8.115666376712904",
      "lat": "37.075565727834075"
    },
    {
      "id": "pt.ine.add.PTCONT.1730656",
      "street": "AV TIVOLI",
      "house": "",
      "postcode": "8125-410",
      "city": "QUARTEIRA",
      "lon": "-8.115666376712904",
      "lat": "37.075565727834075"
    },
    {
      "id": "pt.ine.add.PTCONT.1730657",
      "street": "AV TIVOLI",
      "house": "",
      "postcode": "8125-410",
      "city": "QUARTEIRA",
      "lon": "-8.115666376712904",
      "lat": "37.075565727834075"
    },
    {
      "id": "pt.ine.add.PTCONT.1730658",
      "street": "AV TIVOLI",
      "house": "",
      "postcode": "8125-410",
      "city": "QUARTEIRA",
      "lon": "-8.115666376712904",
      "lat": "37.075565727834075"
    },
    {
      "id": "pt.ine.add.PTCONT.1730659",
      "street": "AV TIVOLI",
      "house": "",
      "postcode": "8125-410",
      "city": "QUARTEIRA",
      "lon": "-8.115666376712904",
      "lat": "37.075565727834075"
    },
    {
      "id": "pt.ine.add.PTCONT.1730660",
      "street": "AV TIVOLI",
      "house": "",
      "postcode": "8125-410",
      "city": "QUARTEIRA",
      "lon": "-8.115666376712904",
      "lat": "37.075565727834075"
    },
    {
      "id": "pt.ine.add.PTCONT.1730661",
      "street": "AV TIVOLI",
      "house": "",
      "postcode": "8125-410",
      "city": "QUARTEIRA",
      "lon": "-8.115666376712904",
      "lat": "37.075565727834075"
    },
    {
      "id": "pt.ine.add.PTCONT.1730662",
      "street": "AV TIVOLI",
      "house": "",
      "postcode": "8125-410",
      "city": "QUARTEIRA",
      "lon": "-8.115666376712904",
      "lat": "37.075565727834075"
    },
    {
      "id": "pt.ine.add.PTCONT.1730663",
      "street": "AV TIVOLI",
      "house": "",
      "postcode": "8125-410",
      "city": "QUARTEIRA",
      "lon": "-8.115666376712904",
      "lat": "37.075565727834075"
    },
    {
      "id": "pt.ine.add.PTCONT.1730664",
      "street": "AV TIVOLI",
      "house": "",
      "postcode": "8125-410",
      "city": "QUARTEIRA",
      "lon": "-8.115666376712904",
      "lat": "37.075565727834075"
    },
    {
      "id": "pt.ine.add.PTCONT.1730749",
      "street": "AV TIVOLI",
      "house": "",
      "postcode": "8125-410",
      "city": "QUARTEIRA",
      "lon": "-8.115666376712904",
      "lat": "37.075565727834075"
    },
    {
      "id": "pt.ine.add.PTCONT.1730750",
      "street": "AV TIVOLI",
      "house": "",
      "postcode": "8125-410",
      "city": "QUARTEIRA",
      "lon": "-8.115666376712904",
      "lat": "37.075565727834075"
    },
    {
      "id": "pt.ine.add.PTCONT.1730731",
      "street": "AV TIVOLI",
      "house": "",
      "postcode": "8125-410",
      "city": "QUARTEIRA",
      "lon": "-8.115666376712904",
      "lat": "37.075565727834075"
    },
    {
      "id": "pt.ine.add.PTCONT.1730732",
      "street": "AV TIVOLI",
      "house": "",
      "postcode": "8125-410",
      "city": "QUARTEIRA",
      "lon": "-8.115666376712904",
      "lat": "37.075565727834075"
    },
    {
      "id": "pt.ine.add.PTCONT.1730733",
      "street": "AV TIVOLI",
      "house": "",
      "postcode": "8125-410",
      "city": "QUARTEIRA",
      "lon": "-8.115666376712904",
      "lat": "37.075565727834075"
    },
    {
      "id": "pt.ine.add.PTCONT.1730734",
      "street": "AV TIVOLI",
      "house": "",
      "postcode": "8125-410",
      "city": "QUARTEIRA",
      "lon": "-8.115666376712904",
      "lat": "37.075565727834075"
    },
    {
      "id": "pt.ine.add.PTCONT.1730735",
      "street": "AV TIVOLI",
      "house": "",
      "postcode": "8125-410",
      "city": "QUARTEIRA",
      "lon": "-8.115666376712904",
      "lat": "37.075565727834075"
    },
    {
      "id": "pt.ine.add.PTCONT.1730736",
      "street": "AV TIVOLI",
      "house": "",
      "postcode": "8125-410",
      "city": "QUARTEIRA",
      "lon": "-8.115666376712904",
      "lat": "37.075565727834075"
    },
    {
      "id": "pt.ine.add.PTCONT.1730737",
      "street": "AV TIVOLI",
      "house": "",
      "postcode": "8125-410",
      "city": "QUARTEIRA",
      "lon": "-8.115666376712904",
      "lat": "37.075565727834075"
    },
    {
      "id": "pt.ine.add.PTCONT.1730738",
      "street": "AV TIVOLI",
      "house": "",
      "postcode": "8125-410",
      "city": "QUARTEIRA",
      "lon": "-8.115666376712904",
      "lat": "37.075565727834075"
    },
    {
      "id": "pt.ine.add.PTCONT.1730739",
      "street": "AV TIVOLI",
      "house": "",
      "postcode": "8125-410",
      "city": "QUARTEIRA",
      "lon": "-8.115666376712904",
      "lat": "37.075565727834075"
    },
    {
      "id": "pt.ine.add.PTCONT.1730740",
      "street": "AV TIVOLI",
      "house": "",
      "postcode": "8125-410",
      "city": "QUARTEIRA",
      "lon": "-8.115666376712904",
      "lat": "37.075565727834075"
    },
    {
      "id": "pt.ine.add.PTCONT.1730741",
      "street": "AV TIVOLI",
      "house": "",
      "postcode": "8125-410",
      "city": "QUARTEIRA",
      "lon": "-8.115666376712904",
      "lat": "37.075565727834075"
    },
    {
      "id": "pt.ine.add.PTCONT.1730742",
      "street": "AV TIVOLI",
      "house": "",
      "postcode": "8125-410",
      "city": "QUARTEIRA",
      "lon": "-8.115666376712904",
      "lat": "37.075565727834075"
    },
    {
      "id": "pt.ine.add.PTCONT.1730743",
      "street": "AV TIVOLI",
      "house": "",
      "postcode": "8125-410",
      "city": "QUARTEIRA",
      "lon": "-8.115666376712904",
      "lat": "37.075565727834075"
    },
    {
      "id": "pt.ine.add.PTCONT.1730744",
      "street": "AV TIVOLI",
      "house": "",
      "postcode": "8125-410",
      "city": "QUARTEIRA",
      "lon": "-8.115666376712904",
      "lat": "37.075565727834075"
    },
    {
      "id": "pt.ine.add.PTCONT.1730745",
      "street": "AV TIVOLI",
      "house": "",
      "postcode": "8125-410",
      "city": "QUARTEIRA",
      "lon": "-8.115666376712904",
      "lat": "37.075565727834075"
    },
    {
      "id": "pt.ine.add.PTCONT.1730746",
      "street": "AV TIVOLI",
      "house": "",
      "postcode": "8125-410",
      "city": "QUARTEIRA",
      "lon": "-8.115666376712904",
      "lat": "37.075565727834075"
    },
    {
      "id": "pt.ine.add.PTCONT.1730748",
      "street": "AV TIVOLI",
      "house": "",
      "postcode": "8125-410",
      "city": "QUARTEIRA",
      "lon": "-8.115666376712904",
      "lat": "37.075565727834075"
    },
    {
      "id": "pt.ine.add.PTCONT.1730751",
      "street": "AV TIVOLI",
      "house": "",
      "postcode": "8125-410",
      "city": "QUARTEIRA",
      "lon": "-8.115666376712904",
      "lat": "37.075565727834075"
    },
    {
      "id": "pt.ine.add.PTCONT.1730752",
      "street": "AV TIVOLI",
      "house": "",
      "postcode": "8125-410",
      "city": "QUARTEIRA",
      "lon": "-8.115666376712904",
      "lat": "37.075565727834075"
    },
    {
      "id": "pt.ine.add.PTCONT.1730753",
      "street": "AV TIVOLI",
      "house": "",
      "postcode": "8125-410",
      "city": "QUARTEIRA",
      "lon": "-8.115666376712904",
      "lat": "37.075565727834075"
    },
    {
      "id": "pt.ine.add.PTCONT.1730754",
      "street": "AV TIVOLI",
      "house": "",
      "postcode": "8125-410",
      "city": "QUARTEIRA",
      "lon": "-8.115666376712904",
      "lat": "37.075565727834075"
    },
    {
      "id": "pt.ine.add.PTCONT.1730755",
      "street": "AV TIVOLI",
      "house": "",
      "postcode": "8125-410",
      "city": "QUARTEIRA",
      "lon": "-8.115666376712904",
      "lat": "37.075565727834075"
    },
    {
      "id": "pt.ine.add.PTCONT.1730756",
      "street": "AV TIVOLI",
      "house": "",
      "postcode": "8125-410",
      "city": "QUARTEIRA",
      "lon": "-8.115666376712904",
      "lat": "37.075565727834075"
    },
    {
      "id": "pt.ine.add.PTCONT.1730757",
      "street": "AV TIVOLI",
      "house": "",
      "postcode": "8125-410",
      "city": "QUARTEIRA",
      "lon": "-8.115666376712904",
      "lat": "37.075565727834075"
    },
    {
      "id": "pt.ine.add.PTCONT.1730758",
      "street": "AV TIVOLI",
      "house": "",
      "postcode": "8125-410",
      "city": "QUARTEIRA",
      "lon": "-8.115666376712904",
      "lat": "37.075565727834075"
    },
    {
      "id": "pt.ine.add.PTCONT.1730759",
      "street": "AV TIVOLI",
      "house": "",
      "postcode": "8125-410",
      "city": "QUARTEIRA",
      "lon": "-8.115666376712904",
      "lat": "37.075565727834075"
    },
    {
      "id": "pt.ine.add.PTCONT.1730760",
      "street": "AV TIVOLI",
      "house": "",
      "postcode": "8125-410",
      "city": "QUARTEIRA",
      "lon": "-8.115666376712904",
      "lat": "37.075565727834075"
    },
    {
      "id": "pt.ine.add.PTCONT.1730761",
      "street": "AV TIVOLI",
      "house": "",
      "postcode": "8125-410",
      "city": "QUARTEIRA",
      "lon": "-8.115666376712904",
      "lat": "37.075565727834075"
    },
    {
      "id": "pt.ine.add.PTCONT.1730762",
      "street": "AV TIVOLI",
      "house": "",
      "postcode": "8125-410",
      "city": "QUARTEIRA",
      "lon": "-8.115666376712904",
      "lat": "37.075565727834075"
    },
    {
      "id": "pt.ine.add.PTCONT.1730763",
      "street": "AV TIVOLI",
      "house": "",
      "postcode": "8125-410",
      "city": "QUARTEIRA",
      "lon": "-8.115666376712904",
      "lat": "37.075565727834075"
    },
    {
      "id": "pt.ine.add.PTCONT.1730764",
      "street": "AV TIVOLI",
      "house": "",
      "postcode": "8125-410",
      "city": "QUARTEIRA",
      "lon": "-8.115666376712904",
      "lat": "37.075565727834075"
    },
    {
      "id": "pt.ine.add.PTCONT.1730788",
      "street": "AV TIVOLI",
      "house": "",
      "postcode": "8125-410",
      "city": "QUARTEIRA",
      "lon": "-8.115666376712904",
      "lat": "37.075565727834075"
    },
    {
      "id": "pt.ine.add.PTCONT.1730789",
      "street": "AV TIVOLI",
      "house": "",
      "postcode": "8125-410",
      "city": "QUARTEIRA",
      "lon": "-8.115666376712904",
      "lat": "37.075565727834075"
    },
    {
      "id": "pt.ine.add.PTCONT.1730790",
      "street": "AV TIVOLI",
      "house": "",
      "postcode": "8125-410",
      "city": "QUARTEIRA",
      "lon": "-8.115666376712904",
      "lat": "37.075565727834075"
    },
    {
      "id": "pt.ine.add.PTCONT.1730791",
      "street": "AV TIVOLI",
      "house": "",
      "postcode": "8125-410",
      "city": "QUARTEIRA",
      "lon": "-8.115666376712904",
      "lat": "37.075565727834075"
    },
    {
      "id": "pt.ine.add.PTCONT.1730792",
      "street": "AV TIVOLI",
      "house": "",
      "postcode": "8125-410",
      "city": "QUARTEIRA",
      "lon": "-8.115666376712904",
      "lat": "37.075565727834075"
    },
    {
      "id": "pt.ine.add.PTCONT.1730793",
      "street": "AV TIVOLI",
      "house": "",
      "postcode": "8125-410",
      "city": "QUARTEIRA",
      "lon": "-8.115666376712904",
      "lat": "37.075565727834075"
    },
    {
      "id": "pt.ine.add.PTCONT.1730794",
      "street": "AV TIVOLI",
      "house": "",
      "postcode": "8125-410",
      "city": "QUARTEIRA",
      "lon": "-8.115666376712904",
      "lat": "37.075565727834075"
    },
    {
      "id": "pt.ine.add.PTCONT.1730795",
      "street": "AV TIVOLI",
      "house": "",
      "postcode": "8125-410",
      "city": "QUARTEIRA",
      "lon": "-8.115666376712904",
      "lat": "37.075565727834075"
    },
    {
      "id": "pt.ine.add.PTCONT.1730796",
      "street": "AV TIVOLI",
      "house": "",
      "postcode": "8125-410",
      "city": "QUARTEIRA",
      "lon": "-8.115666376712904",
      "lat": "37.075565727834075"
    },
    {
      "id": "pt.ine.add.PTCONT.1730797",
      "street": "AV TIVOLI",
      "house": "",
      "postcode": "8125-410",
      "city": "QUARTEIRA",
      "lon": "-8.115666376712904",
      "lat": "37.075565727834075"
    },
    {
      "id": "pt.ine.add.PTCONT.1730798",
      "street": "AV TIVOLI",
      "house": "",
      "postcode": "8125-410",
      "city": "QUARTEIRA",
      "lon": "-8.115666376712904",
      "lat": "37.075565727834075"
    },
    {
      "id": "pt.ine.add.PTCONT.1730799",
      "street": "AV TIVOLI",
      "house": "",
      "postcode": "8125-410",
      "city": "QUARTEIRA",
      "lon": "-8.115666376712904",
      "lat": "37.075565727834075"
    },
    {
      "id": "pt.ine.add.PTCONT.1730800",
      "street": "AV TIVOLI",
      "house": "",
      "postcode": "8125-410",
      "city": "QUARTEIRA",
      "lon": "-8.115666376712904",
      "lat": "37.075565727834075"
    },
    {
      "id": "pt.ine.add.PTCONT.1730801",
      "street": "AV TIVOLI",
      "house": "",
      "postcode": "8125-410",
      "city": "QUARTEIRA",
      "lon": "-8.115666376712904",
      "lat": "37.075565727834075"
    },
    {
      "id": "pt.ine.add.PTCONT.1730807",
      "street": "AV TIVOLI",
      "house": "",
      "postcode": "8125-410",
      "city": "QUARTEIRA",
      "lon": "-8.115666376712904",
      "lat": "37.075565727834075"
    },
    {
      "id": "pt.ine.add.PTCONT.1730808",
      "street": "AV TIVOLI",
      "house": "",
      "postcode": "8125-410",
      "city": "QUARTEIRA",
      "lon": "-8.115666376712904",
      "lat": "37.075565727834075"
    },
    {
      "id": "pt.ine.add.PTCONT.1730809",
      "street": "AV TIVOLI",
      "house": "",
      "postcode": "8125-410",
      "city": "QUARTEIRA",
      "lon": "-8.115666376712904",
      "lat": "37.075565727834075"
    },
    {
      "id": "pt.ine.add.PTCONT.1730810",
      "street": "AV TIVOLI",
      "house": "",
      "postcode": "8125-410",
      "city": "QUARTEIRA",
      "lon": "-8.115666376712904",
      "lat": "37.075565727834075"
    },
    {
      "id": "pt.ine.add.PTCONT.1730811",
      "street": "AV TIVOLI",
      "house": "",
      "postcode": "8125-410",
      "city": "QUARTEIRA",
      "lon": "-8.115666376712904",
      "lat": "37.075565727834075"
    },
    {
      "id": "pt.ine.add.PTCONT.1730812",
      "street": "AV TIVOLI",
      "house": "",
      "postcode": "8125-410",
      "city": "QUARTEIRA",
      "lon": "-8.115666376712904",
      "lat": "37.075565727834075"
    },
    {
      "id": "pt.ine.add.PTCONT.1730813",
      "street": "AV TIVOLI",
      "house": "",
      "postcode": "8125-410",
      "city": "QUARTEIRA",
      "lon": "-8.115666376712904",
      "lat": "37.075565727834075"
    },
    {
      "id": "pt.ine.add.PTCONT.1730814",
      "street": "AV TIVOLI",
      "house": "",
      "postcode": "8125-410",
      "city": "QUARTEIRA",
      "lon": "-8.115666376712904",
      "lat": "37.075565727834075"
    },
    {
      "id": "pt.ine.add.PTCONT.1730815",
      "street": "AV TIVOLI",
      "house": "",
      "postcode": "8125-410",
      "city": "QUARTEIRA",
      "lon": "-8.115666376712904",
      "lat": "37.075565727834075"
    },
    {
      "id": "pt.ine.add.PTCONT.1730816",
      "street": "AV TIVOLI",
      "house": "",
      "postcode": "8125-410",
      "city": "QUARTEIRA",
      "lon": "-8.115666376712904",
      "lat": "37.075565727834075"
    },
    {
      "id": "pt.ine.add.PTCONT.1730817",
      "street": "AV TIVOLI",
      "house": "",
      "postcode": "8125-410",
      "city": "QUARTEIRA",
      "lon": "-8.115666376712904",
      "lat": "37.075565727834075"
    },
    {
      "id": "pt.ine.add.PTCONT.1730818",
      "street": "AV TIVOLI",
      "house": "",
      "postcode": "8125-410",
      "city": "QUARTEIRA",
      "lon": "-8.115666376712904",
      "lat": "37.075565727834075"
    },
    {
      "id": "pt.ine.add.PTCONT.1730819",
      "street": "AV TIVOLI",
      "house": "",
      "postcode": "8125-410",
      "city": "QUARTEIRA",
      "lon": "-8.115666376712904",
      "lat": "37.075565727834075"
    },
    {
      "id": "pt.ine.add.PTCONT.1730820",
      "street": "AV TIVOLI",
      "house": "",
      "postcode": "8125-410",
      "city": "QUARTEIRA",
      "lon": "-8.115666376712904",
      "lat": "37.075565727834075"
    },
    {
      "id": "pt.ine.add.PTCONT.1730821",
      "street": "AV TIVOLI",
      "house": "",
      "postcode": "8125-410",
      "city": "QUARTEIRA",
      "lon": "-8.115666376712904",
      "lat": "37.075565727834075"
    },
    {
      "id": "pt.ine.add.PTCONT.1730822",
      "street": "AV TIVOLI",
      "house": "",
      "postcode": "8125-410",
      "city": "QUARTEIRA",
      "lon": "-8.115666376712904",
      "lat": "37.075565727834075"
    },
    {
      "id": "pt.ine.add.PTCONT.1730827",
      "street": "AV TIVOLI",
      "house": "",
      "postcode": "8125-410",
      "city": "QUARTEIRA",
      "lon": "-8.115666376712904",
      "lat": "37.075565727834075"
    },
    {
      "id": "pt.ine.add.PTCONT.1730828",
      "street": "AV TIVOLI",
      "house": "",
      "postcode": "8125-410",
      "city": "QUARTEIRA",
      "lon": "-8.115666376712904",
      "lat": "37.075565727834075"
    },
    {
      "id": "pt.ine.add.PTCONT.1730829",
      "street": "AV TIVOLI",
      "house": "",
      "postcode": "8125-410",
      "city": "QUARTEIRA",
      "lon": "-8.115666376712904",
      "lat": "37.075565727834075"
    },
    {
      "id": "pt.ine.add.PTCONT.1730830",
      "street": "AV TIVOLI",
      "house": "",
      "postcode": "8125-410",
      "city": "QUARTEIRA",
      "lon": "-8.115666376712904",
      "lat": "37.075565727834075"
    },
    {
      "id": "pt.ine.add.PTCONT.1730831",
      "street": "AV TIVOLI",
      "house": "",
      "postcode": "8125-410",
      "city": "QUARTEIRA",
      "lon": "-8.115666376712904",
      "lat": "37.075565727834075"
    },
    {
      "id": "pt.ine.add.PTCONT.1730832",
      "street": "AV TIVOLI",
      "house": "",
      "postcode": "8125-410",
      "city": "QUARTEIRA",
      "lon": "-8.115666376712904",
      "lat": "37.075565727834075"
    },
    {
      "id": "pt.ine.add.PTCONT.1730833",
      "street": "AV TIVOLI",
      "house": "",
      "postcode": "8125-410",
      "city": "QUARTEIRA",
      "lon": "-8.115666376712904",
      "lat": "37.075565727834075"
    },
    {
      "id": "pt.ine.add.PTCONT.1730834",
      "street": "AV TIVOLI",
      "house": "",
      "postcode": "8125-410",
      "city": "QUARTEIRA",
      "lon": "-8.115666376712904",
      "lat": "37.075565727834075"
    },
    {
      "id": "pt.ine.add.PTCONT.1730835",
      "street": "AV TIVOLI",
      "house": "",
      "postcode": "8125-410",
      "city": "QUARTEIRA",
      "lon": "-8.115666376712904",
      "lat": "37.075565727834075"
    },
    {
      "id": "pt.ine.add.PTCONT.1730836",
      "street": "AV TIVOLI",
      "house": "",
      "postcode": "8125-410",
      "city": "QUARTEIRA",
      "lon": "-8.115666376712904",
      "lat": "37.075565727834075"
    },
    {
      "id": "pt.ine.add.PTCONT.1730837",
      "street": "AV TIVOLI",
      "house": "",
      "postcode": "8125-410",
      "city": "QUARTEIRA",
      "lon": "-8.115666376712904",
      "lat": "37.075565727834075"
    },
    {
      "id": "pt.ine.add.PTCONT.1730838",
      "street": "AV TIVOLI",
      "house": "",
      "postcode": "8125-410",
      "city": "QUARTEIRA",
      "lon": "-8.115666376712904",
      "lat": "37.075565727834075"
    },
    {
      "id": "pt.ine.add.PTCONT.1730839",
      "street": "AV TIVOLI",
      "house": "",
      "postcode": "8125-410",
      "city": "QUARTEIRA",
      "lon": "-8.115666376712904",
      "lat": "37.075565727834075"
    },
    {
      "id": "pt.ine.add.PTCONT.1730840",
      "street": "AV TIVOLI",
      "house": "",
      "postcode": "8125-410",
      "city": "QUARTEIRA",
      "lon": "-8.115666376712904",
      "lat": "37.075565727834075"
    },
    {
      "id": "pt.ine.add.PTCONT.1730841",
      "street": "AV TIVOLI",
      "house": "",
      "postcode": "8125-410",
      "city": "QUARTEIRA",
      "lon": "-8.115666376712904",
      "lat": "37.075565727834075"
    },
    {
      "id": "pt.ine.add.PTCONT.1730842",
      "street": "AV TIVOLI",
      "house": "",
      "postcode": "8125-410",
      "city": "QUARTEIRA",
      "lon": "-8.115666376712904",
      "lat": "37.075565727834075"
    },
    {
      "id": "pt.ine.add.PTCONT.1730843",
      "street": "AV TIVOLI",
      "house": "",
      "postcode": "8125-410",
      "city": "QUARTEIRA",
      "lon": "-8.115666376712904",
      "lat": "37.075565727834075"
    },
    {
      "id": "pt.ine.add.PTCONT.1730845",
      "street": "AV TIVOLI",
      "house": "",
      "postcode": "8125-410",
      "city": "QUARTEIRA",
      "lon": "-8.115666376712904",
      "lat": "37.075565727834075"
    },
    {
      "id": "pt.ine.add.PTCONT.1730846",
      "street": "AV TIVOLI",
      "house": "",
      "postcode": "8125-410",
      "city": "QUARTEIRA",
      "lon": "-8.115666376712904",
      "lat": "37.075565727834075"
    },
    {
      "id": "pt.ine.add.PTCONT.1730847",
      "street": "AV TIVOLI",
      "house": "",
      "postcode": "8125-410",
      "city": "QUARTEIRA",
      "lon": "-8.115666376712904",
      "lat": "37.075565727834075"
    },
    {
      "id": "pt.ine.add.PTCONT.1730848",
      "street": "AV TIVOLI",
      "house": "",
      "postcode": "8125-410",
      "city": "QUARTEIRA",
      "lon": "-8.115666376712904",
      "lat": "37.075565727834075"
    },
    {
      "id": "pt.ine.add.PTCONT.1730849",
      "street": "AV TIVOLI",
      "house": "",
      "postcode": "8125-410",
      "city": "QUARTEIRA",
      "lon": "-8.115666376712904",
      "lat": "37.075565727834075"
    },
    {
      "id": "pt.ine.add.PTCONT.1730850",
      "street": "AV TIVOLI",
      "house": "",
      "postcode": "8125-410",
      "city": "QUARTEIRA",
      "lon": "-8.115666376712904",
      "lat": "37.075565727834075"
    },
    {
      "id": "pt.ine.add.PTCONT.1730851",
      "street": "AV TIVOLI",
      "house": "",
      "postcode": "8125-410",
      "city": "QUARTEIRA",
      "lon": "-8.115666376712904",
      "lat": "37.075565727834075"
    },
    {
      "id": "pt.ine.add.PTCONT.1730852",
      "street": "AV TIVOLI",
      "house": "",
      "postcode": "8125-410",
      "city": "QUARTEIRA",
      "lon": "-8.115666376712904",
      "lat": "37.075565727834075"
    },
    {
      "id": "pt.ine.add.PTCONT.1730853",
      "street": "AV TIVOLI",
      "house": "",
      "postcode": "8125-410",
      "city": "QUARTEIRA",
      "lon": "-8.115666376712904",
      "lat": "37.075565727834075"
    },
    {
      "id": "pt.ine.add.PTCONT.1730854",
      "street": "AV TIVOLI",
      "house": "",
      "postcode": "8125-410",
      "city": "QUARTEIRA",
      "lon": "-8.115666376712904",
      "lat": "37.075565727834075"
    },
    {
      "id": "pt.ine.add.PTCONT.1730855",
      "street": "AV TIVOLI",
      "house": "",
      "postcode": "8125-410",
      "city": "QUARTEIRA",
      "lon": "-8.115666376712904",
      "lat": "37.075565727834075"
    },
    {
      "id": "pt.ine.add.PTCONT.1730856",
      "street": "AV TIVOLI",
      "house": "",
      "postcode": "8125-410",
      "city": "QUARTEIRA",
      "lon": "-8.115666376712904",
      "lat": "37.075565727834075"
    },
    {
      "id": "pt.ine.add.PTCONT.1730857",
      "street": "AV TIVOLI",
      "house": "",
      "postcode": "8125-410",
      "city": "QUARTEIRA",
      "lon": "-8.115666376712904",
      "lat": "37.075565727834075"
    },
    {
      "id": "pt.ine.add.PTCONT.1730858",
      "street": "AV TIVOLI",
      "house": "",
      "postcode": "8125-410",
      "city": "QUARTEIRA",
      "lon": "-8.115666376712904",
      "lat": "37.075565727834075"
    },
    {
      "id": "pt.ine.add.PTCONT.1730859",
      "street": "AV TIVOLI",
      "house": "",
      "postcode": "8125-410",
      "city": "QUARTEIRA",
      "lon": "-8.115666376712904",
      "lat": "37.075565727834075"
    },
    {
      "id": "pt.ine.add.PTCONT.1731844",
      "street": "AV TIVOLI",
      "house": "",
      "postcode": "8125-410",
      "city": "QUARTEIRA",
      "lon": "-8.115666376712904",
      "lat": "37.075565727834075"
    },
    {
      "id": "pt.ine.add.PTCONT.1731870",
      "street": "AV TIVOLI",
      "house": "",
      "postcode": "8125-410",
      "city": "QUARTEIRA",
      "lon": "-8.115666376712904",
      "lat": "37.075565727834075"
    },
    {
      "id": "pt.ine.add.PTCONT.1748589",
      "street": "AV TIVOLI",
      "house": "",
      "postcode": "8125-410",
      "city": "QUARTEIRA",
      "lon": "-8.115643997064105",
      "lat": "37.07507914624355"
    },
    {
      "id": "pt.ine.add.PTCONT.1748590",
      "street": "AV TIVOLI",
      "house": "",
      "postcode": "8125-410",
      "city": "QUARTEIRA",
      "lon": "-8.115643997064105",
      "lat": "37.07507914624355"
    },
    {
      "id": "pt.ine.add.PTCONT.1748591",
      "street": "AV TIVOLI",
      "house": "",
      "postcode": "8125-410",
      "city": "QUARTEIRA",
      "lon": "-8.115643997064105",
      "lat": "37.07507914624355"
    },
    {
      "id": "pt.ine.add.PTCONT.1748592",
      "street": "AV TIVOLI",
      "house": "",
      "postcode": "8125-410",
      "city": "QUARTEIRA",
      "lon": "-8.115643997064105",
      "lat": "37.07507914624355"
    },
    {
      "id": "pt.ine.add.PTCONT.1748593",
      "street": "AV TIVOLI",
      "house": "",
      "postcode": "8125-410",
      "city": "QUARTEIRA",
      "lon": "-8.115643997064105",
      "lat": "37.07507914624355"
    },
    {
      "id": "pt.ine.add.PTCONT.1748594",
      "street": "AV TIVOLI",
      "house": "",
      "postcode": "8125-410",
      "city": "QUARTEIRA",
      "lon": "-8.115643997064105",
      "lat": "37.07507914624355"
    },
    {
      "id": "pt.ine.add.PTCONT.1748595",
      "street": "AV TIVOLI",
      "house": "",
      "postcode": "8125-410",
      "city": "QUARTEIRA",
      "lon": "-8.115643997064105",
      "lat": "37.07507914624355"
    },
    {
      "id": "pt.ine.add.PTCONT.1748596",
      "street": "AV TIVOLI",
      "house": "",
      "postcode": "8125-410",
      "city": "QUARTEIRA",
      "lon": "-8.115643997064105",
      "lat": "37.07507914624355"
    },
    {
      "id": "pt.ine.add.PTCONT.1748750",
      "street": "AV TIVOLI",
      "house": "",
      "postcode": "8125-410",
      "city": "QUARTEIRA",
      "lon": "-8.115643997064105",
      "lat": "37.07507914624355"
    },
    {
      "id": "pt.ine.add.PTCONT.1748751",
      "street": "AV TIVOLI",
      "house": "",
      "postcode": "8125-410",
      "city": "QUARTEIRA",
      "lon": "-8.115643997064105",
      "lat": "37.07507914624355"
    },
    {
      "id": "pt.ine.add.PTCONT.1748752",
      "street": "AV TIVOLI",
      "house": "",
      "postcode": "8125-410",
      "city": "QUARTEIRA",
      "lon": "-8.115643997064105",
      "lat": "37.07507914624355"
    },
    {
      "id": "pt.ine.add.PTCONT.1748753",
      "street": "AV TIVOLI",
      "house": "",
      "postcode": "8125-410",
      "city": "QUARTEIRA",
      "lon": "-8.115643997064105",
      "lat": "37.07507914624355"
    },
    {
      "id": "pt.ine.add.PTCONT.1748754",
      "street": "AV TIVOLI",
      "house": "",
      "postcode": "8125-410",
      "city": "QUARTEIRA",
      "lon": "-8.115643997064105",
      "lat": "37.07507914624355"
    },
    {
      "id": "pt.ine.add.PTCONT.1748755",
      "street": "AV TIVOLI",
      "house": "",
      "postcode": "8125-410",
      "city": "QUARTEIRA",
      "lon": "-8.115643997064105",
      "lat": "37.07507914624355"
    },
    {
      "id": "pt.ine.add.PTCONT.1748756",
      "street": "AV TIVOLI",
      "house": "",
      "postcode": "8125-410",
      "city": "QUARTEIRA",
      "lon": "-8.115643997064105",
      "lat": "37.07507914624355"
    },
    {
      "id": "pt.ine.add.PTCONT.1748757",
      "street": "AV TIVOLI",
      "house": "",
      "postcode": "8125-410",
      "city": "QUARTEIRA",
      "lon": "-8.115643997064105",
      "lat": "37.07507914624355"
    },
    {
      "id": "pt.ine.add.PTCONT.1748758",
      "street": "AV TIVOLI",
      "house": "",
      "postcode": "8125-410",
      "city": "QUARTEIRA",
      "lon": "-8.115643997064105",
      "lat": "37.07507914624355"
    },
    {
      "id": "pt.ine.add.PTCONT.1748759",
      "street": "AV TIVOLI",
      "house": "",
      "postcode": "8125-410",
      "city": "QUARTEIRA",
      "lon": "-8.115643997064105",
      "lat": "37.07507914624355"
    },
    {
      "id": "pt.ine.add.PTCONT.1748760",
      "street": "AV TIVOLI",
      "house": "",
      "postcode": "8125-410",
      "city": "QUARTEIRA",
      "lon": "-8.115643997064105",
      "lat": "37.07507914624355"
    },
    {
      "id": "pt.ine.add.PTCONT.1748761",
      "street": "AV TIVOLI",
      "house": "",
      "postcode": "8125-410",
      "city": "QUARTEIRA",
      "lon": "-8.115643997064105",
      "lat": "37.07507914624355"
    },
    {
      "id": "pt.ine.add.PTCONT.1748762",
      "street": "AV TIVOLI",
      "house": "",
      "postcode": "8125-410",
      "city": "QUARTEIRA",
      "lon": "-8.115643997064105",
      "lat": "37.07507914624355"
    },
    {
      "id": "pt.ine.add.PTCONT.1748763",
      "street": "AV TIVOLI",
      "house": "",
      "postcode": "8125-410",
      "city": "QUARTEIRA",
      "lon": "-8.115643997064105",
      "lat": "37.07507914624355"
    },
    {
      "id": "pt.ine.add.PTCONT.1748764",
      "street": "AV TIVOLI",
      "house": "",
      "postcode": "8125-410",
      "city": "QUARTEIRA",
      "lon": "-8.115643997064105",
      "lat": "37.07507914624355"
    },
    {
      "id": "pt.ine.add.PTCONT.1748765",
      "street": "AV TIVOLI",
      "house": "",
      "postcode": "8125-410",
      "city": "QUARTEIRA",
      "lon": "-8.115643997064105",
      "lat": "37.07507914624355"
    },
    {
      "id": "pt.ine.add.PTCONT.1748766",
      "street": "AV TIVOLI",
      "house": "",
      "postcode": "8125-410",
      "city": "QUARTEIRA",
      "lon": "-8.115643997064105",
      "lat": "37.07507914624355"
    },
    {
      "id": "pt.ine.add.PTCONT.1748923",
      "street": "AV TIVOLI",
      "house": "",
      "postcode": "8125-410",
      "city": "QUARTEIRA",
      "lon": "-8.115643997064105",
      "lat": "37.07507914624355"
    },
    {
      "id": "pt.ine.add.PTCONT.1748924",
      "street": "AV TIVOLI",
      "house": "",
      "postcode": "8125-410",
      "city": "QUARTEIRA",
      "lon": "-8.115643997064105",
      "lat": "37.07507914624355"
    },
    {
      "id": "pt.ine.add.PTCONT.1748925",
      "street": "AV TIVOLI",
      "house": "",
      "postcode": "8125-410",
      "city": "QUARTEIRA",
      "lon": "-8.115643997064105",
      "lat": "37.07507914624355"
    },
    {
      "id": "pt.ine.add.PTCONT.1748926",
      "street": "AV TIVOLI",
      "house": "",
      "postcode": "8125-410",
      "city": "QUARTEIRA",
      "lon": "-8.115643997064105",
      "lat": "37.07507914624355"
    },
    {
      "id": "pt.ine.add.PTCONT.1748927",
      "street": "AV TIVOLI",
      "house": "",
      "postcode": "8125-410",
      "city": "QUARTEIRA",
      "lon": "-8.115643997064105",
      "lat": "37.07507914624355"
    },
    {
      "id": "pt.ine.add.PTCONT.1748928",
      "street": "AV TIVOLI",
      "house": "",
      "postcode": "8125-410",
      "city": "QUARTEIRA",
      "lon": "-8.115643997064105",
      "lat": "37.07507914624355"
    },
    {
      "id": "pt.ine.add.PTCONT.1748929",
      "street": "AV TIVOLI",
      "house": "",
      "postcode": "8125-410",
      "city": "QUARTEIRA",
      "lon": "-8.115643997064105",
      "lat": "37.07507914624355"
    },
    {
      "id": "pt.ine.add.PTCONT.1748930",
      "street": "AV TIVOLI",
      "house": "",
      "postcode": "8125-410",
      "city": "QUARTEIRA",
      "lon": "-8.115643997064105",
      "lat": "37.07507914624355"
    },
    {
      "id": "pt.ine.add.PTCONT.1748931",
      "street": "AV TIVOLI",
      "house": "",
      "postcode": "8125-410",
      "city": "QUARTEIRA",
      "lon": "-8.115643997064105",
      "lat": "37.07507914624355"
    },
    {
      "id": "pt.ine.add.PTCONT.1748932",
      "street": "AV TIVOLI",
      "house": "",
      "postcode": "8125-410",
      "city": "QUARTEIRA",
      "lon": "-8.115643997064105",
      "lat": "37.07507914624355"
    },
    {
      "id": "pt.ine.add.PTCONT.1748933",
      "street": "AV TIVOLI",
      "house": "",
      "postcode": "8125-410",
      "city": "QUARTEIRA",
      "lon": "-8.115643997064105",
      "lat": "37.07507914624355"
    },
    {
      "id": "pt.ine.add.PTCONT.1748934",
      "street": "AV TIVOLI",
      "house": "",
      "postcode": "8125-410",
      "city": "QUARTEIRA",
      "lon": "-8.115643997064105",
      "lat": "37.07507914624355"
    },
    {
      "id": "pt.ine.add.PTCONT.1748935",
      "street": "AV TIVOLI",
      "house": "",
      "postcode": "8125-410",
      "city": "QUARTEIRA",
      "lon": "-8.115643997064105",
      "lat": "37.07507914624355"
    },
    {
      "id": "pt.ine.add.PTCONT.1748936",
      "street": "AV TIVOLI",
      "house": "",
      "postcode": "8125-410",
      "city": "QUARTEIRA",
      "lon": "-8.115643997064105",
      "lat": "37.07507914624355"
    },
    {
      "id": "pt.ine.add.PTCONT.1748937",
      "street": "AV TIVOLI",
      "house": "",
      "postcode": "8125-410",
      "city": "QUARTEIRA",
      "lon": "-8.115643997064105",
      "lat": "37.07507914624355"
    },
    {
      "id": "pt.ine.add.PTCONT.1748938",
      "street": "AV TIVOLI",
      "house": "",
      "postcode": "8125-410",
      "city": "QUARTEIRA",
      "lon": "-8.115643997064105",
      "lat": "37.07507914624355"
    },
    {
      "id": "pt.ine.add.PTCONT.1748939",
      "street": "AV TIVOLI",
      "house": "",
      "postcode": "8125-410",
      "city": "QUARTEIRA",
      "lon": "-8.115643997064105",
      "lat": "37.07507914624355"
    },
    {
      "id": "pt.ine.add.PTCONT.1749062",
      "street": "AV TIVOLI",
      "house": "",
      "postcode": "8125-410",
      "city": "QUARTEIRA",
      "lon": "-8.115643997064105",
      "lat": "37.07507914624355"
    },
    {
      "id": "pt.ine.add.PTCONT.1749063",
      "street": "AV TIVOLI",
      "house": "",
      "postcode": "8125-410",
      "city": "QUARTEIRA",
      "lon": "-8.115643997064105",
      "lat": "37.07507914624355"
    },
    {
      "id": "pt.ine.add.PTCONT.1749064",
      "street": "AV TIVOLI",
      "house": "",
      "postcode": "8125-410",
      "city": "QUARTEIRA",
      "lon": "-8.115643997064105",
      "lat": "37.07507914624355"
    },
    {
      "id": "pt.ine.add.PTCONT.1749065",
      "street": "AV TIVOLI",
      "house": "",
      "postcode": "8125-410",
      "city": "QUARTEIRA",
      "lon": "-8.115643997064105",
      "lat": "37.07507914624355"
    },
    {
      "id": "pt.ine.add.PTCONT.1749066",
      "street": "AV TIVOLI",
      "house": "",
      "postcode": "8125-410",
      "city": "QUARTEIRA",
      "lon": "-8.115643997064105",
      "lat": "37.07507914624355"
    },
    {
      "id": "pt.ine.add.PTCONT.1749067",
      "street": "AV TIVOLI",
      "house": "",
      "postcode": "8125-410",
      "city": "QUARTEIRA",
      "lon": "-8.115643997064105",
      "lat": "37.07507914624355"
    },
    {
      "id": "pt.ine.add.PTCONT.1749068",
      "street": "AV TIVOLI",
      "house": "",
      "postcode": "8125-410",
      "city": "QUARTEIRA",
      "lon": "-8.115643997064105",
      "lat": "37.07507914624355"
    },
    {
      "id": "pt.ine.add.PTCONT.1749069",
      "street": "AV TIVOLI",
      "house": "",
      "postcode": "8125-410",
      "city": "QUARTEIRA",
      "lon": "-8.115643997064105",
      "lat": "37.07507914624355"
    },
    {
      "id": "pt.ine.add.PTCONT.1749070",
      "street": "AV TIVOLI",
      "house": "",
      "postcode": "8125-410",
      "city": "QUARTEIRA",
      "lon": "-8.115643997064105",
      "lat": "37.07507914624355"
    },
    {
      "id": "pt.ine.add.PTCONT.1749071",
      "street": "AV TIVOLI",
      "house": "",
      "postcode": "8125-410",
      "city": "QUARTEIRA",
      "lon": "-8.115643997064105",
      "lat": "37.07507914624355"
    },
    {
      "id": "pt.ine.add.PTCONT.1749072",
      "street": "AV TIVOLI",
      "house": "",
      "postcode": "8125-410",
      "city": "QUARTEIRA",
      "lon": "-8.115643997064105",
      "lat": "37.07507914624355"
    },
    {
      "id": "pt.ine.add.PTCONT.1749073",
      "street": "AV TIVOLI",
      "house": "",
      "postcode": "8125-410",
      "city": "QUARTEIRA",
      "lon": "-8.115643997064105",
      "lat": "37.07507914624355"
    },
    {
      "id": "pt.ine.add.PTCONT.1749074",
      "street": "AV TIVOLI",
      "house": "",
      "postcode": "8125-410",
      "city": "QUARTEIRA",
      "lon": "-8.115643997064105",
      "lat": "37.07507914624355"
    },
    {
      "id": "pt.ine.add.PTCONT.1749075",
      "street": "AV TIVOLI",
      "house": "",
      "postcode": "8125-410",
      "city": "QUARTEIRA",
      "lon": "-8.115643997064105",
      "lat": "37.07507914624355"
    },
    {
      "id": "pt.ine.add.PTCONT.1749076",
      "street": "AV TIVOLI",
      "house": "",
      "postcode": "8125-410",
      "city": "QUARTEIRA",
      "lon": "-8.115643997064105",
      "lat": "37.07507914624355"
    },
    {
      "id": "pt.ine.add.PTCONT.1749077",
      "street": "AV TIVOLI",
      "house": "",
      "postcode": "8125-410",
      "city": "QUARTEIRA",
      "lon": "-8.115643997064105",
      "lat": "37.07507914624355"
    },
    {
      "id": "pt.ine.add.PTCONT.1749205",
      "street": "AV TIVOLI",
      "house": "",
      "postcode": "8125-410",
      "city": "QUARTEIRA",
      "lon": "-8.115643997064105",
      "lat": "37.07507914624355"
    },
    {
      "id": "pt.ine.add.PTCONT.1749206",
      "street": "AV TIVOLI",
      "house": "",
      "postcode": "8125-410",
      "city": "QUARTEIRA",
      "lon": "-8.115643997064105",
      "lat": "37.07507914624355"
    },
    {
      "id": "pt.ine.add.PTCONT.1749207",
      "street": "AV TIVOLI",
      "house": "",
      "postcode": "8125-410",
      "city": "QUARTEIRA",
      "lon": "-8.115643997064105",
      "lat": "37.07507914624355"
    },
    {
      "id": "pt.ine.add.PTCONT.1749208",
      "street": "AV TIVOLI",
      "house": "",
      "postcode": "8125-410",
      "city": "QUARTEIRA",
      "lon": "-8.115643997064105",
      "lat": "37.07507914624355"
    },
    {
      "id": "pt.ine.add.PTCONT.1749209",
      "street": "AV TIVOLI",
      "house": "",
      "postcode": "8125-410",
      "city": "QUARTEIRA",
      "lon": "-8.115643997064105",
      "lat": "37.07507914624355"
    },
    {
      "id": "pt.ine.add.PTCONT.1749210",
      "street": "AV TIVOLI",
      "house": "",
      "postcode": "8125-410",
      "city": "QUARTEIRA",
      "lon": "-8.115643997064105",
      "lat": "37.07507914624355"
    },
    {
      "id": "pt.ine.add.PTCONT.1749211",
      "street": "AV TIVOLI",
      "house": "",
      "postcode": "8125-410",
      "city": "QUARTEIRA",
      "lon": "-8.115643997064105",
      "lat": "37.07507914624355"
    },
    {
      "id": "pt.ine.add.PTCONT.1749212",
      "street": "AV TIVOLI",
      "house": "",
      "postcode": "8125-410",
      "city": "QUARTEIRA",
      "lon": "-8.115643997064105",
      "lat": "37.07507914624355"
    },
    {
      "id": "pt.ine.add.PTCONT.1749213",
      "street": "AV TIVOLI",
      "house": "",
      "postcode": "8125-410",
      "city": "QUARTEIRA",
      "lon": "-8.115643997064105",
      "lat": "37.07507914624355"
    },
    {
      "id": "pt.ine.add.PTCONT.1749214",
      "street": "AV TIVOLI",
      "house": "",
      "postcode": "8125-410",
      "city": "QUARTEIRA",
      "lon": "-8.115643997064105",
      "lat": "37.07507914624355"
    },
    {
      "id": "pt.ine.add.PTCONT.1749215",
      "street": "AV TIVOLI",
      "house": "",
      "postcode": "8125-410",
      "city": "QUARTEIRA",
      "lon": "-8.115643997064105",
      "lat": "37.07507914624355"
    },
    {
      "id": "pt.ine.add.PTCONT.1749216",
      "street": "AV TIVOLI",
      "house": "",
      "postcode": "8125-410",
      "city": "QUARTEIRA",
      "lon": "-8.115643997064105",
      "lat": "37.07507914624355"
    },
    {
      "id": "pt.ine.add.PTCONT.1749217",
      "street": "AV TIVOLI",
      "house": "",
      "postcode": "8125-410",
      "city": "QUARTEIRA",
      "lon": "-8.115643997064105",
      "lat": "37.07507914624355"
    },
    {
      "id": "pt.ine.add.PTCONT.1749218",
      "street": "AV TIVOLI",
      "house": "",
      "postcode": "8125-410",
      "city": "QUARTEIRA",
      "lon": "-8.115643997064105",
      "lat": "37.07507914624355"
    },
    {
      "id": "pt.ine.add.PTCONT.1749219",
      "street": "AV TIVOLI",
      "house": "",
      "postcode": "8125-410",
      "city": "QUARTEIRA",
      "lon": "-8.115643997064105",
      "lat": "37.07507914624355"
    },
    {
      "id": "pt.ine.add.PTCONT.1749220",
      "street": "AV TIVOLI",
      "house": "",
      "postcode": "8125-410",
      "city": "QUARTEIRA",
      "lon": "-8.115643997064105",
      "lat": "37.07507914624355"
    },
    {
      "id": "pt.ine.add.PTCONT.1749330",
      "street": "AV TIVOLI",
      "house": "",
      "postcode": "8125-410",
      "city": "QUARTEIRA",
      "lon": "-8.115643997064105",
      "lat": "37.07507914624355"
    },
    {
      "id": "pt.ine.add.PTCONT.1749331",
      "street": "AV TIVOLI",
      "house": "",
      "postcode": "8125-410",
      "city": "QUARTEIRA",
      "lon": "-8.115643997064105",
      "lat": "37.07507914624355"
    },
    {
      "id": "pt.ine.add.PTCONT.1749332",
      "street": "AV TIVOLI",
      "house": "",
      "postcode": "8125-410",
      "city": "QUARTEIRA",
      "lon": "-8.115643997064105",
      "lat": "37.07507914624355"
    },
    {
      "id": "pt.ine.add.PTCONT.1749333",
      "street": "AV TIVOLI",
      "house": "",
      "postcode": "8125-410",
      "city": "QUARTEIRA",
      "lon": "-8.115643997064105",
      "lat": "37.07507914624355"
    },
    {
      "id": "pt.ine.add.PTCONT.1749334",
      "street": "AV TIVOLI",
      "house": "",
      "postcode": "8125-410",
      "city": "QUARTEIRA",
      "lon": "-8.115643997064105",
      "lat": "37.07507914624355"
    },
    {
      "id": "pt.ine.add.PTCONT.1749335",
      "street": "AV TIVOLI",
      "house": "",
      "postcode": "8125-410",
      "city": "QUARTEIRA",
      "lon": "-8.115643997064105",
      "lat": "37.07507914624355"
    },
    {
      "id": "pt.ine.add.PTCONT.1749336",
      "street": "AV TIVOLI",
      "house": "",
      "postcode": "8125-410",
      "city": "QUARTEIRA",
      "lon": "-8.115643997064105",
      "lat": "37.07507914624355"
    },
    {
      "id": "pt.ine.add.PTCONT.1749337",
      "street": "AV TIVOLI",
      "house": "",
      "postcode": "8125-410",
      "city": "QUARTEIRA",
      "lon": "-8.115643997064105",
      "lat": "37.07507914624355"
    },
    {
      "id": "pt.ine.add.PTCONT.1749338",
      "street": "AV TIVOLI",
      "house": "",
      "postcode": "8125-410",
      "city": "QUARTEIRA",
      "lon": "-8.115643997064105",
      "lat": "37.07507914624355"
    },
    {
      "id": "pt.ine.add.PTCONT.1749339",
      "street": "AV TIVOLI",
      "house": "",
      "postcode": "8125-410",
      "city": "QUARTEIRA",
      "lon": "-8.115643997064105",
      "lat": "37.07507914624355"
    },
    {
      "id": "pt.ine.add.PTCONT.1749340",
      "street": "AV TIVOLI",
      "house": "",
      "postcode": "8125-410",
      "city": "QUARTEIRA",
      "lon": "-8.115643997064105",
      "lat": "37.07507914624355"
    },
    {
      "id": "pt.ine.add.PTCONT.1749341",
      "street": "AV TIVOLI",
      "house": "",
      "postcode": "8125-410",
      "city": "QUARTEIRA",
      "lon": "-8.115643997064105",
      "lat": "37.07507914624355"
    },
    {
      "id": "pt.ine.add.PTCONT.1749901",
      "street": "AV TIVOLI",
      "house": "",
      "postcode": "8125-410",
      "city": "QUARTEIRA",
      "lon": "-8.115643997064105",
      "lat": "37.07507914624355"
    },
    {
      "id": "pt.ine.add.PTCONT.1749925",
      "street": "AV TIVOLI",
      "house": "",
      "postcode": "8125-410",
      "city": "QUARTEIRA",
      "lon": "-8.115643997064105",
      "lat": "37.07507914624355"
    },
    {
      "id": "pt.ine.add.PTCONT.1749998",
      "street": "AV TIVOLI",
      "house": "",
      "postcode": "8125-410",
      "city": "QUARTEIRA",
      "lon": "-8.115643997064105",
      "lat": "37.07507914624355"
    },
    {
      "id": "pt.ine.add.PTCONT.1750008",
      "street": "AV TIVOLI",
      "house": "",
      "postcode": "8125-410",
      "city": "QUARTEIRA",
      "lon": "-8.115643997064105",
      "lat": "37.07507914624355"
    },
    {
      "id": "pt.ine.add.PTCONT.1750014",
      "street": "AV TIVOLI",
      "house": "",
      "postcode": "8125-410",
      "city": "QUARTEIRA",
      "lon": "-8.115643997064105",
      "lat": "37.07507914624355"
    },
    {
      "id": "pt.ine.add.PTCONT.1795541",
      "street": "AV TIVOLI",
      "house": "1",
      "postcode": "8125-410",
      "city": "QUARTEIRA",
      "lon": "-8.11522766637409",
      "lat": "37.07612432643107"
    },
    {
      "id": "pt.ine.add.PTCONT.1795542",
      "street": "AV TIVOLI",
      "house": "1",
      "postcode": "8125-410",
      "city": "QUARTEIRA",
      "lon": "-8.11522766637409",
      "lat": "37.07612432643107"
    },
    {
      "id": "pt.ine.add.PTCONT.1795543",
      "street": "AV TIVOLI",
      "house": "1",
      "postcode": "8125-410",
      "city": "QUARTEIRA",
      "lon": "-8.11522766637409",
      "lat": "37.07612432643107"
    },
    {
      "id": "pt.ine.add.PTCONT.1795544",
      "street": "AV TIVOLI",
      "house": "1",
      "postcode": "8125-410",
      "city": "QUARTEIRA",
      "lon": "-8.11522766637409",
      "lat": "37.07612432643107"
    },
    {
      "id": "pt.ine.add.PTCONT.1795545",
      "street": "AV TIVOLI",
      "house": "1",
      "postcode": "8125-410",
      "city": "QUARTEIRA",
      "lon": "-8.11522766637409",
      "lat": "37.07612432643107"
    },
    {
      "id": "pt.ine.add.PTCONT.1795546",
      "street": "AV TIVOLI",
      "house": "1",
      "postcode": "8125-410",
      "city": "QUARTEIRA",
      "lon": "-8.11522766637409",
      "lat": "37.07612432643107"
    },
    {
      "id": "pt.ine.add.PTCONT.1795547",
      "street": "AV TIVOLI",
      "house": "1",
      "postcode": "8125-410",
      "city": "QUARTEIRA",
      "lon": "-8.11522766637409",
      "lat": "37.07612432643107"
    },
    {
      "id": "pt.ine.add.PTCONT.1795548",
      "street": "AV TIVOLI",
      "house": "1",
      "postcode": "8125-410",
      "city": "QUARTEIRA",
      "lon": "-8.11522766637409",
      "lat": "37.07612432643107"
    },
    {
      "id": "pt.ine.add.PTCONT.1795549",
      "street": "AV TIVOLI",
      "house": "1",
      "postcode": "8125-410",
      "city": "QUARTEIRA",
      "lon": "-8.11522766637409",
      "lat": "37.07612432643107"
    },
    {
      "id": "pt.ine.add.PTCONT.1795550",
      "street": "AV TIVOLI",
      "house": "1",
      "postcode": "8125-410",
      "city": "QUARTEIRA",
      "lon": "-8.11522766637409",
      "lat": "37.07612432643107"
    },
    {
      "id": "pt.ine.add.PTCONT.1795551",
      "street": "AV TIVOLI",
      "house": "1",
      "postcode": "8125-410",
      "city": "QUARTEIRA",
      "lon": "-8.11522766637409",
      "lat": "37.07612432643107"
    },
    {
      "id": "pt.ine.add.PTCONT.1795552",
      "street": "AV TIVOLI",
      "house": "1",
      "postcode": "8125-410",
      "city": "QUARTEIRA",
      "lon": "-8.11522766637409",
      "lat": "37.07612432643107"
    },
    {
      "id": "pt.ine.add.PTCONT.1795553",
      "street": "AV TIVOLI",
      "house": "1",
      "postcode": "8125-410",
      "city": "QUARTEIRA",
      "lon": "-8.11522766637409",
      "lat": "37.07612432643107"
    },
    {
      "id": "pt.ine.add.PTCONT.1795554",
      "street": "AV TIVOLI",
      "house": "1",
      "postcode": "8125-410",
      "city": "QUARTEIRA",
      "lon": "-8.11522766637409",
      "lat": "37.07612432643107"
    },
    {
      "id": "pt.ine.add.PTCONT.1795555",
      "street": "AV TIVOLI",
      "house": "1",
      "postcode": "8125-410",
      "city": "QUARTEIRA",
      "lon": "-8.11522766637409",
      "lat": "37.07612432643107"
    },
    {
      "id": "pt.ine.add.PTCONT.1795556",
      "street": "AV TIVOLI",
      "house": "1",
      "postcode": "8125-410",
      "city": "QUARTEIRA",
      "lon": "-8.11522766637409",
      "lat": "37.07612432643107"
    },
    {
      "id": "pt.ine.add.PTCONT.1795655",
      "street": "AV TIVOLI",
      "house": "1",
      "postcode": "8125-410",
      "city": "QUARTEIRA",
      "lon": "-8.11522766637409",
      "lat": "37.07612432643107"
    },
    {
      "id": "pt.ine.add.PTCONT.1795656",
      "street": "AV TIVOLI",
      "house": "1",
      "postcode": "8125-410",
      "city": "QUARTEIRA",
      "lon": "-8.11522766637409",
      "lat": "37.07612432643107"
    },
    {
      "id": "pt.ine.add.PTCONT.1795657",
      "street": "AV TIVOLI",
      "house": "1",
      "postcode": "8125-410",
      "city": "QUARTEIRA",
      "lon": "-8.11522766637409",
      "lat": "37.07612432643107"
    },
    {
      "id": "pt.ine.add.PTCONT.1795658",
      "street": "AV TIVOLI",
      "house": "1",
      "postcode": "8125-410",
      "city": "QUARTEIRA",
      "lon": "-8.11522766637409",
      "lat": "37.07612432643107"
    },
    {
      "id": "pt.ine.add.PTCONT.1795659",
      "street": "AV TIVOLI",
      "house": "1",
      "postcode": "8125-410",
      "city": "QUARTEIRA",
      "lon": "-8.11522766637409",
      "lat": "37.07612432643107"
    },
    {
      "id": "pt.ine.add.PTCONT.1795660",
      "street": "AV TIVOLI",
      "house": "1",
      "postcode": "8125-410",
      "city": "QUARTEIRA",
      "lon": "-8.11522766637409",
      "lat": "37.07612432643107"
    },
    {
      "id": "pt.ine.add.PTCONT.1795661",
      "street": "AV TIVOLI",
      "house": "1",
      "postcode": "8125-410",
      "city": "QUARTEIRA",
      "lon": "-8.11522766637409",
      "lat": "37.07612432643107"
    },
    {
      "id": "pt.ine.add.PTCONT.1796824",
      "street": "AV TIVOLI",
      "house": "1",
      "postcode": "8125-410",
      "city": "QUARTEIRA",
      "lon": "-8.11522766637409",
      "lat": "37.07612432643107"
    },
    {
      "id": "pt.ine.add.PTCONT.1796825",
      "street": "AV TIVOLI",
      "house": "1",
      "postcode": "8125-410",
      "city": "QUARTEIRA",
      "lon": "-8.11522766637409",
      "lat": "37.07612432643107"
    },
    {
      "id": "pt.ine.add.PTCONT.1796826",
      "street": "AV TIVOLI",
      "house": "1",
      "postcode": "8125-410",
      "city": "QUARTEIRA",
      "lon": "-8.11522766637409",
      "lat": "37.07612432643107"
    },
    {
      "id": "pt.ine.add.PTCONT.1796827",
      "street": "AV TIVOLI",
      "house": "1",
      "postcode": "8125-410",
      "city": "QUARTEIRA",
      "lon": "-8.11522766637409",
      "lat": "37.07612432643107"
    },
    {
      "id": "pt.ine.add.PTCONT.1796828",
      "street": "AV TIVOLI",
      "house": "1",
      "postcode": "8125-410",
      "city": "QUARTEIRA",
      "lon": "-8.11522766637409",
      "lat": "37.07612432643107"
    },
    {
      "id": "pt.ine.add.PTCONT.1796829",
      "street": "AV TIVOLI",
      "house": "1",
      "postcode": "8125-410",
      "city": "QUARTEIRA",
      "lon": "-8.11522766637409",
      "lat": "37.07612432643107"
    },
    {
      "id": "pt.ine.add.PTCONT.1796830",
      "street": "AV TIVOLI",
      "house": "1",
      "postcode": "8125-410",
      "city": "QUARTEIRA",
      "lon": "-8.11522766637409",
      "lat": "37.07612432643107"
    },
    {
      "id": "pt.ine.add.PTCONT.1796831",
      "street": "AV TIVOLI",
      "house": "1",
      "postcode": "8125-410",
      "city": "QUARTEIRA",
      "lon": "-8.11522766637409",
      "lat": "37.07612432643107"
    },
    {
      "id": "pt.ine.add.PTCONT.1796832",
      "street": "AV TIVOLI",
      "house": "1",
      "postcode": "8125-410",
      "city": "QUARTEIRA",
      "lon": "-8.11522766637409",
      "lat": "37.07612432643107"
    },
    {
      "id": "pt.ine.add.PTCONT.1796833",
      "street": "AV TIVOLI",
      "house": "1",
      "postcode": "8125-410",
      "city": "QUARTEIRA",
      "lon": "-8.11522766637409",
      "lat": "37.07612432643107"
    },
    {
      "id": "pt.ine.add.PTCONT.1796834",
      "street": "AV TIVOLI",
      "house": "1",
      "postcode": "8125-410",
      "city": "QUARTEIRA",
      "lon": "-8.11522766637409",
      "lat": "37.07612432643107"
    },
    {
      "id": "pt.ine.add.PTCONT.1796835",
      "street": "AV TIVOLI",
      "house": "1",
      "postcode": "8125-410",
      "city": "QUARTEIRA",
      "lon": "-8.11522766637409",
      "lat": "37.07612432643107"
    },
    {
      "id": "pt.ine.add.PTCONT.1796836",
      "street": "AV TIVOLI",
      "house": "1",
      "postcode": "8125-410",
      "city": "QUARTEIRA",
      "lon": "-8.11522766637409",
      "lat": "37.07612432643107"
    },
    {
      "id": "pt.ine.add.PTCONT.1796837",
      "street": "AV TIVOLI",
      "house": "1",
      "postcode": "8125-410",
      "city": "QUARTEIRA",
      "lon": "-8.11522766637409",
      "lat": "37.07612432643107"
    },
    {
      "id": "pt.ine.add.PTCONT.1796838",
      "street": "AV TIVOLI",
      "house": "1",
      "postcode": "8125-410",
      "city": "QUARTEIRA",
      "lon": "-8.11522766637409",
      "lat": "37.07612432643107"
    },
    {
      "id": "pt.ine.add.PTCONT.1796989",
      "street": "AV TIVOLI",
      "house": "1",
      "postcode": "8125-410",
      "city": "QUARTEIRA",
      "lon": "-8.11522766637409",
      "lat": "37.07612432643107"
    },
    {
      "id": "pt.ine.add.PTCONT.1796990",
      "street": "AV TIVOLI",
      "house": "1",
      "postcode": "8125-410",
      "city": "QUARTEIRA",
      "lon": "-8.11522766637409",
      "lat": "37.07612432643107"
    },
    {
      "id": "pt.ine.add.PTCONT.1796991",
      "street": "AV TIVOLI",
      "house": "1",
      "postcode": "8125-410",
      "city": "QUARTEIRA",
      "lon": "-8.11522766637409",
      "lat": "37.07612432643107"
    },
    {
      "id": "pt.ine.add.PTCONT.1796992",
      "street": "AV TIVOLI",
      "house": "1",
      "postcode": "8125-410",
      "city": "QUARTEIRA",
      "lon": "-8.11522766637409",
      "lat": "37.07612432643107"
    },
    {
      "id": "pt.ine.add.PTCONT.1796993",
      "street": "AV TIVOLI",
      "house": "1",
      "postcode": "8125-410",
      "city": "QUARTEIRA",
      "lon": "-8.11522766637409",
      "lat": "37.07612432643107"
    },
    {
      "id": "pt.ine.add.PTCONT.1796994",
      "street": "AV TIVOLI",
      "house": "1",
      "postcode": "8125-410",
      "city": "QUARTEIRA",
      "lon": "-8.11522766637409",
      "lat": "37.07612432643107"
    },
    {
      "id": "pt.ine.add.PTCONT.1796995",
      "street": "AV TIVOLI",
      "house": "1",
      "postcode": "8125-410",
      "city": "QUARTEIRA",
      "lon": "-8.11522766637409",
      "lat": "37.07612432643107"
    },
    {
      "id": "pt.ine.add.PTCONT.1796996",
      "street": "AV TIVOLI",
      "house": "1",
      "postcode": "8125-410",
      "city": "QUARTEIRA",
      "lon": "-8.11522766637409",
      "lat": "37.07612432643107"
    },
    {
      "id": "pt.ine.add.PTCONT.1796997",
      "street": "AV TIVOLI",
      "house": "1",
      "postcode": "8125-410",
      "city": "QUARTEIRA",
      "lon": "-8.11522766637409",
      "lat": "37.07612432643107"
    },
    {
      "id": "pt.ine.add.PTCONT.1796998",
      "street": "AV TIVOLI",
      "house": "1",
      "postcode": "8125-410",
      "city": "QUARTEIRA",
      "lon": "-8.11522766637409",
      "lat": "37.07612432643107"
    },
    {
      "id": "pt.ine.add.PTCONT.1796999",
      "street": "AV TIVOLI",
      "house": "1",
      "postcode": "8125-410",
      "city": "QUARTEIRA",
      "lon": "-8.11522766637409",
      "lat": "37.07612432643107"
    },
    {
      "id": "pt.ine.add.PTCONT.1797000",
      "street": "AV TIVOLI",
      "house": "1",
      "postcode": "8125-410",
      "city": "QUARTEIRA",
      "lon": "-8.11522766637409",
      "lat": "37.07612432643107"
    },
    {
      "id": "pt.ine.add.PTCONT.1797001",
      "street": "AV TIVOLI",
      "house": "1",
      "postcode": "8125-410",
      "city": "QUARTEIRA",
      "lon": "-8.11522766637409",
      "lat": "37.07612432643107"
    },
    {
      "id": "pt.ine.add.PTCONT.1797002",
      "street": "AV TIVOLI",
      "house": "1",
      "postcode": "8125-410",
      "city": "QUARTEIRA",
      "lon": "-8.11522766637409",
      "lat": "37.07612432643107"
    },
    {
      "id": "pt.ine.add.PTCONT.1797003",
      "street": "AV TIVOLI",
      "house": "1",
      "postcode": "8125-410",
      "city": "QUARTEIRA",
      "lon": "-8.11522766637409",
      "lat": "37.07612432643107"
    },
    {
      "id": "pt.ine.add.PTCONT.1797127",
      "street": "AV TIVOLI",
      "house": "1",
      "postcode": "8125-410",
      "city": "QUARTEIRA",
      "lon": "-8.11522766637409",
      "lat": "37.07612432643107"
    },
    {
      "id": "pt.ine.add.PTCONT.1797128",
      "street": "AV TIVOLI",
      "house": "1",
      "postcode": "8125-410",
      "city": "QUARTEIRA",
      "lon": "-8.11522766637409",
      "lat": "37.07612432643107"
    },
    {
      "id": "pt.ine.add.PTCONT.1797129",
      "street": "AV TIVOLI",
      "house": "1",
      "postcode": "8125-410",
      "city": "QUARTEIRA",
      "lon": "-8.11522766637409",
      "lat": "37.07612432643107"
    },
    {
      "id": "pt.ine.add.PTCONT.1797130",
      "street": "AV TIVOLI",
      "house": "1",
      "postcode": "8125-410",
      "city": "QUARTEIRA",
      "lon": "-8.11522766637409",
      "lat": "37.07612432643107"
    },
    {
      "id": "pt.ine.add.PTCONT.1797131",
      "street": "AV TIVOLI",
      "house": "1",
      "postcode": "8125-410",
      "city": "QUARTEIRA",
      "lon": "-8.11522766637409",
      "lat": "37.07612432643107"
    },
    {
      "id": "pt.ine.add.PTCONT.1797132",
      "street": "AV TIVOLI",
      "house": "1",
      "postcode": "8125-410",
      "city": "QUARTEIRA",
      "lon": "-8.11522766637409",
      "lat": "37.07612432643107"
    },
    {
      "id": "pt.ine.add.PTCONT.1797133",
      "street": "AV TIVOLI",
      "house": "1",
      "postcode": "8125-410",
      "city": "QUARTEIRA",
      "lon": "-8.11522766637409",
      "lat": "37.07612432643107"
    },
    {
      "id": "pt.ine.add.PTCONT.1797134",
      "street": "AV TIVOLI",
      "house": "1",
      "postcode": "8125-410",
      "city": "QUARTEIRA",
      "lon": "-8.11522766637409",
      "lat": "37.07612432643107"
    },
    {
      "id": "pt.ine.add.PTCONT.1797135",
      "street": "AV TIVOLI",
      "house": "1",
      "postcode": "8125-410",
      "city": "QUARTEIRA",
      "lon": "-8.11522766637409",
      "lat": "37.07612432643107"
    },
    {
      "id": "pt.ine.add.PTCONT.1797136",
      "street": "AV TIVOLI",
      "house": "1",
      "postcode": "8125-410",
      "city": "QUARTEIRA",
      "lon": "-8.11522766637409",
      "lat": "37.07612432643107"
    },
    {
      "id": "pt.ine.add.PTCONT.1797137",
      "street": "AV TIVOLI",
      "house": "1",
      "postcode": "8125-410",
      "city": "QUARTEIRA",
      "lon": "-8.11522766637409",
      "lat": "37.07612432643107"
    },
    {
      "id": "pt.ine.add.PTCONT.1797138",
      "street": "AV TIVOLI",
      "house": "1",
      "postcode": "8125-410",
      "city": "QUARTEIRA",
      "lon": "-8.11522766637409",
      "lat": "37.07612432643107"
    },
    {
      "id": "pt.ine.add.PTCONT.1797139",
      "street": "AV TIVOLI",
      "house": "1",
      "postcode": "8125-410",
      "city": "QUARTEIRA",
      "lon": "-8.11522766637409",
      "lat": "37.07612432643107"
    },
    {
      "id": "pt.ine.add.PTCONT.1797140",
      "street": "AV TIVOLI",
      "house": "1",
      "postcode": "8125-410",
      "city": "QUARTEIRA",
      "lon": "-8.11522766637409",
      "lat": "37.07612432643107"
    },
    {
      "id": "pt.ine.add.PTCONT.1797141",
      "street": "AV TIVOLI",
      "house": "1",
      "postcode": "8125-410",
      "city": "QUARTEIRA",
      "lon": "-8.11522766637409",
      "lat": "37.07612432643107"
    },
    {
      "id": "pt.ine.add.PTCONT.1797142",
      "street": "AV TIVOLI",
      "house": "1",
      "postcode": "8125-410",
      "city": "QUARTEIRA",
      "lon": "-8.11522766637409",
      "lat": "37.07612432643107"
    },
    {
      "id": "pt.ine.add.PTCONT.1797236",
      "street": "AV TIVOLI",
      "house": "1",
      "postcode": "8125-410",
      "city": "QUARTEIRA",
      "lon": "-8.11522766637409",
      "lat": "37.07612432643107"
    },
    {
      "id": "pt.ine.add.PTCONT.1797237",
      "street": "AV TIVOLI",
      "house": "1",
      "postcode": "8125-410",
      "city": "QUARTEIRA",
      "lon": "-8.11522766637409",
      "lat": "37.07612432643107"
    },
    {
      "id": "pt.ine.add.PTCONT.1797238",
      "street": "AV TIVOLI",
      "house": "1",
      "postcode": "8125-410",
      "city": "QUARTEIRA",
      "lon": "-8.11522766637409",
      "lat": "37.07612432643107"
    },
    {
      "id": "pt.ine.add.PTCONT.1797239",
      "street": "AV TIVOLI",
      "house": "1",
      "postcode": "8125-410",
      "city": "QUARTEIRA",
      "lon": "-8.11522766637409",
      "lat": "37.07612432643107"
    },
    {
      "id": "pt.ine.add.PTCONT.1797240",
      "street": "AV TIVOLI",
      "house": "1",
      "postcode": "8125-410",
      "city": "QUARTEIRA",
      "lon": "-8.11522766637409",
      "lat": "37.07612432643107"
    },
    {
      "id": "pt.ine.add.PTCONT.1797241",
      "street": "AV TIVOLI",
      "house": "1",
      "postcode": "8125-410",
      "city": "QUARTEIRA",
      "lon": "-8.11522766637409",
      "lat": "37.07612432643107"
    },
    {
      "id": "pt.ine.add.PTCONT.1797242",
      "street": "AV TIVOLI",
      "house": "1",
      "postcode": "8125-410",
      "city": "QUARTEIRA",
      "lon": "-8.11522766637409",
      "lat": "37.07612432643107"
    },
    {
      "id": "pt.ine.add.PTCONT.1797243",
      "street": "AV TIVOLI",
      "house": "1",
      "postcode": "8125-410",
      "city": "QUARTEIRA",
      "lon": "-8.11522766637409",
      "lat": "37.07612432643107"
    },
    {
      "id": "pt.ine.add.PTCONT.1797244",
      "street": "AV TIVOLI",
      "house": "1",
      "postcode": "8125-410",
      "city": "QUARTEIRA",
      "lon": "-8.11522766637409",
      "lat": "37.07612432643107"
    },
    {
      "id": "pt.ine.add.PTCONT.1797245",
      "street": "AV TIVOLI",
      "house": "1",
      "postcode": "8125-410",
      "city": "QUARTEIRA",
      "lon": "-8.11522766637409",
      "lat": "37.07612432643107"
    },
    {
      "id": "pt.ine.add.PTCONT.1797246",
      "street": "AV TIVOLI",
      "house": "1",
      "postcode": "8125-410",
      "city": "QUARTEIRA",
      "lon": "-8.11522766637409",
      "lat": "37.07612432643107"
    },
    {
      "id": "pt.ine.add.PTCONT.1797247",
      "street": "AV TIVOLI",
      "house": "1",
      "postcode": "8125-410",
      "city": "QUARTEIRA",
      "lon": "-8.11522766637409",
      "lat": "37.07612432643107"
    },
    {
      "id": "pt.ine.add.PTCONT.1797248",
      "street": "AV TIVOLI",
      "house": "1",
      "postcode": "8125-410",
      "city": "QUARTEIRA",
      "lon": "-8.11522766637409",
      "lat": "37.07612432643107"
    },
    {
      "id": "pt.ine.add.PTCONT.1797249",
      "street": "AV TIVOLI",
      "house": "1",
      "postcode": "8125-410",
      "city": "QUARTEIRA",
      "lon": "-8.11522766637409",
      "lat": "37.07612432643107"
    },
    {
      "id": "pt.ine.add.PTCONT.1797250",
      "street": "AV TIVOLI",
      "house": "1",
      "postcode": "8125-410",
      "city": "QUARTEIRA",
      "lon": "-8.11522766637409",
      "lat": "37.07612432643107"
    },
    {
      "id": "pt.ine.add.PTCONT.1797380",
      "street": "AV TIVOLI",
      "house": "1",
      "postcode": "8125-410",
      "city": "QUARTEIRA",
      "lon": "-8.11522766637409",
      "lat": "37.07612432643107"
    },
    {
      "id": "pt.ine.add.PTCONT.1797381",
      "street": "AV TIVOLI",
      "house": "1",
      "postcode": "8125-410",
      "city": "QUARTEIRA",
      "lon": "-8.11522766637409",
      "lat": "37.07612432643107"
    },
    {
      "id": "pt.ine.add.PTCONT.1797382",
      "street": "AV TIVOLI",
      "house": "1",
      "postcode": "8125-410",
      "city": "QUARTEIRA",
      "lon": "-8.11522766637409",
      "lat": "37.07612432643107"
    },
    {
      "id": "pt.ine.add.PTCONT.1797383",
      "street": "AV TIVOLI",
      "house": "1",
      "postcode": "8125-410",
      "city": "QUARTEIRA",
      "lon": "-8.11522766637409",
      "lat": "37.07612432643107"
    },
    {
      "id": "pt.ine.add.PTCONT.1797384",
      "street": "AV TIVOLI",
      "house": "1",
      "postcode": "8125-410",
      "city": "QUARTEIRA",
      "lon": "-8.11522766637409",
      "lat": "37.07612432643107"
    },
    {
      "id": "pt.ine.add.PTCONT.1797385",
      "street": "AV TIVOLI",
      "house": "1",
      "postcode": "8125-410",
      "city": "QUARTEIRA",
      "lon": "-8.11522766637409",
      "lat": "37.07612432643107"
    },
    {
      "id": "pt.ine.add.PTCONT.1797386",
      "street": "AV TIVOLI",
      "house": "1",
      "postcode": "8125-410",
      "city": "QUARTEIRA",
      "lon": "-8.11522766637409",
      "lat": "37.07612432643107"
    },
    {
      "id": "pt.ine.add.PTCONT.1797387",
      "street": "AV TIVOLI",
      "house": "1",
      "postcode": "8125-410",
      "city": "QUARTEIRA",
      "lon": "-8.11522766637409",
      "lat": "37.07612432643107"
    },
    {
      "id": "pt.ine.add.PTCONT.1797388",
      "street": "AV TIVOLI",
      "house": "1",
      "postcode": "8125-410",
      "city": "QUARTEIRA",
      "lon": "-8.11522766637409",
      "lat": "37.07612432643107"
    },
    {
      "id": "pt.ine.add.PTCONT.1797389",
      "street": "AV TIVOLI",
      "house": "1",
      "postcode": "8125-410",
      "city": "QUARTEIRA",
      "lon": "-8.11522766637409",
      "lat": "37.07612432643107"
    },
    {
      "id": "pt.ine.add.PTCONT.1797390",
      "street": "AV TIVOLI",
      "house": "1",
      "postcode": "8125-410",
      "city": "QUARTEIRA",
      "lon": "-8.11522766637409",
      "lat": "37.07612432643107"
    },
    {
      "id": "pt.ine.add.PTCONT.1797391",
      "street": "AV TIVOLI",
      "house": "1",
      "postcode": "8125-410",
      "city": "QUARTEIRA",
      "lon": "-8.11522766637409",
      "lat": "37.07612432643107"
    },
    {
      "id": "pt.ine.add.PTCONT.1797392",
      "street": "AV TIVOLI",
      "house": "1",
      "postcode": "8125-410",
      "city": "QUARTEIRA",
      "lon": "-8.11522766637409",
      "lat": "37.07612432643107"
    },
    {
      "id": "pt.ine.add.PTCONT.1797393",
      "street": "AV TIVOLI",
      "house": "1",
      "postcode": "8125-410",
      "city": "QUARTEIRA",
      "lon": "-8.11522766637409",
      "lat": "37.07612432643107"
    },
    {
      "id": "pt.ine.add.PTCONT.1797394",
      "street": "AV TIVOLI",
      "house": "1",
      "postcode": "8125-410",
      "city": "QUARTEIRA",
      "lon": "-8.11522766637409",
      "lat": "37.07612432643107"
    },
    {
      "id": "pt.ine.add.PTCONT.1797567",
      "street": "AV TIVOLI",
      "house": "1",
      "postcode": "8125-410",
      "city": "QUARTEIRA",
      "lon": "-8.11522766637409",
      "lat": "37.07612432643107"
    },
    {
      "id": "pt.ine.add.PTCONT.1797568",
      "street": "AV TIVOLI",
      "house": "1",
      "postcode": "8125-410",
      "city": "QUARTEIRA",
      "lon": "-8.11522766637409",
      "lat": "37.07612432643107"
    },
    {
      "id": "pt.ine.add.PTCONT.1797569",
      "street": "AV TIVOLI",
      "house": "1",
      "postcode": "8125-410",
      "city": "QUARTEIRA",
      "lon": "-8.11522766637409",
      "lat": "37.07612432643107"
    },
    {
      "id": "pt.ine.add.PTCONT.1797570",
      "street": "AV TIVOLI",
      "house": "1",
      "postcode": "8125-410",
      "city": "QUARTEIRA",
      "lon": "-8.11522766637409",
      "lat": "37.07612432643107"
    },
    {
      "id": "pt.ine.add.PTCONT.1797571",
      "street": "AV TIVOLI",
      "house": "1",
      "postcode": "8125-410",
      "city": "QUARTEIRA",
      "lon": "-8.11522766637409",
      "lat": "37.07612432643107"
    },
    {
      "id": "pt.ine.add.PTCONT.1797572",
      "street": "AV TIVOLI",
      "house": "1",
      "postcode": "8125-410",
      "city": "QUARTEIRA",
      "lon": "-8.11522766637409",
      "lat": "37.07612432643107"
    },
    {
      "id": "pt.ine.add.PTCONT.1797573",
      "street": "AV TIVOLI",
      "house": "1",
      "postcode": "8125-410",
      "city": "QUARTEIRA",
      "lon": "-8.11522766637409",
      "lat": "37.07612432643107"
    },
    {
      "id": "pt.ine.add.PTCONT.1797574",
      "street": "AV TIVOLI",
      "house": "1",
      "postcode": "8125-410",
      "city": "QUARTEIRA",
      "lon": "-8.11522766637409",
      "lat": "37.07612432643107"
    },
    {
      "id": "pt.ine.add.PTCONT.1797575",
      "street": "AV TIVOLI",
      "house": "1",
      "postcode": "8125-410",
      "city": "QUARTEIRA",
      "lon": "-8.11522766637409",
      "lat": "37.07612432643107"
    },
    {
      "id": "pt.ine.add.PTCONT.1797576",
      "street": "AV TIVOLI",
      "house": "1",
      "postcode": "8125-410",
      "city": "QUARTEIRA",
      "lon": "-8.11522766637409",
      "lat": "37.07612432643107"
    },
    {
      "id": "pt.ine.add.PTCONT.1797577",
      "street": "AV TIVOLI",
      "house": "1",
      "postcode": "8125-410",
      "city": "QUARTEIRA",
      "lon": "-8.11522766637409",
      "lat": "37.07612432643107"
    },
    {
      "id": "pt.ine.add.PTCONT.1797578",
      "street": "AV TIVOLI",
      "house": "1",
      "postcode": "8125-410",
      "city": "QUARTEIRA",
      "lon": "-8.11522766637409",
      "lat": "37.07612432643107"
    },
    {
      "id": "pt.ine.add.PTCONT.1797579",
      "street": "AV TIVOLI",
      "house": "1",
      "postcode": "8125-410",
      "city": "QUARTEIRA",
      "lon": "-8.11522766637409",
      "lat": "37.07612432643107"
    },
    {
      "id": "pt.ine.add.PTCONT.1797580",
      "street": "AV TIVOLI",
      "house": "1",
      "postcode": "8125-410",
      "city": "QUARTEIRA",
      "lon": "-8.11522766637409",
      "lat": "37.07612432643107"
    },
    {
      "id": "pt.ine.add.PTCONT.1797581",
      "street": "AV TIVOLI",
      "house": "1",
      "postcode": "8125-410",
      "city": "QUARTEIRA",
      "lon": "-8.11522766637409",
      "lat": "37.07612432643107"
    },
    {
      "id": "pt.ine.add.PTCONT.1797582",
      "street": "AV TIVOLI",
      "house": "1",
      "postcode": "8125-410",
      "city": "QUARTEIRA",
      "lon": "-8.11522766637409",
      "lat": "37.07612432643107"
    },
    {
      "id": "pt.ine.add.PTCONT.1797744",
      "street": "AV TIVOLI",
      "house": "1",
      "postcode": "8125-410",
      "city": "QUARTEIRA",
      "lon": "-8.11522766637409",
      "lat": "37.07612432643107"
    },
    {
      "id": "pt.ine.add.PTCONT.1797747",
      "street": "AV TIVOLI",
      "house": "1",
      "postcode": "8125-410",
      "city": "QUARTEIRA",
      "lon": "-8.11522766637409",
      "lat": "37.07612432643107"
    },
    {
      "id": "pt.ine.add.PTCONT.1797755",
      "street": "AV TIVOLI",
      "house": "1",
      "postcode": "8125-410",
      "city": "QUARTEIRA",
      "lon": "-8.11522766637409",
      "lat": "37.07612432643107"
    },
    {
      "id": "pt.ine.add.PTCONT.1797773",
      "street": "AV TIVOLI",
      "house": "1",
      "postcode": "8125-410",
      "city": "QUARTEIRA",
      "lon": "-8.11522766637409",
      "lat": "37.07612432643107"
    },
    {
      "id": "pt.ine.add.PTCONT.1797779",
      "street": "AV TIVOLI",
      "house": "1",
      "postcode": "8125-410",
      "city": "QUARTEIRA",
      "lon": "-8.11522766637409",
      "lat": "37.07612432643107"
    },
    {
      "id": "pt.ine.add.PTCONT.1797800",
      "street": "AV TIVOLI",
      "house": "1",
      "postcode": "8125-410",
      "city": "QUARTEIRA",
      "lon": "-8.11522766637409",
      "lat": "37.07612432643107"
    },
    {
      "id": "pt.ine.add.PTCONT.1842989",
      "street": "AV TIVOLI",
      "house": "1",
      "postcode": "8125-410",
      "city": "QUARTEIRA",
      "lon": "-8.11522766637409",
      "lat": "37.07612432643107"
    },
    {
      "id": "pt.ine.add.PTCONT.1842994",
      "street": "AV TIVOLI",
      "house": "1",
      "postcode": "8125-410",
      "city": "QUARTEIRA",
      "lon": "-8.11522766637409",
      "lat": "37.07612432643107"
    },
    {
      "id": "pt.ine.add.PTCONT.1843163",
      "street": "AV TIVOLI",
      "house": "1",
      "postcode": "8125-410",
      "city": "QUARTEIRA",
      "lon": "-8.11522766637409",
      "lat": "37.07612432643107"
    },
    {
      "id": "pt.ine.add.PTCONT.1843167",
      "street": "AV TIVOLI",
      "house": "1",
      "postcode": "8125-410",
      "city": "QUARTEIRA",
      "lon": "-8.11522766637409",
      "lat": "37.07612432643107"
    },
    {
      "id": "pt.ine.add.PTCONT.1845072",
      "street": "AV TIVOLI",
      "house": "",
      "postcode": "8125-410",
      "city": "QUARTEIRA",
      "lon": "-8.115666376712904",
      "lat": "37.075565727834075"
    },
    {
      "id": "pt.ine.add.PTCONT.1845074",
      "street": "AV TIVOLI",
      "house": "",
      "postcode": "8125-410",
      "city": "QUARTEIRA",
      "lon": "-8.115666376712904",
      "lat": "37.075565727834075"
    },
    {
      "id": "pt.ine.add.PTCONT.1845075",
      "street": "AV TIVOLI",
      "house": "",
      "postcode": "8125-410",
      "city": "QUARTEIRA",
      "lon": "-8.115666376712904",
      "lat": "37.075565727834075"
    },
    {
      "id": "pt.ine.add.PTCONT.1845078",
      "street": "AV TIVOLI",
      "house": "",
      "postcode": "8125-410",
      "city": "QUARTEIRA",
      "lon": "-8.115666376712904",
      "lat": "37.075565727834075"
    },
    {
      "id": "pt.ine.add.PTCONT.1845242",
      "street": "AV TIVOLI",
      "house": "",
      "postcode": "8125-410",
      "city": "QUARTEIRA",
      "lon": "-8.115666376712904",
      "lat": "37.075565727834075"
    },
    {
      "id": "pt.ine.add.PTCONT.1845602",
      "street": "AV TIVOLI",
      "house": "",
      "postcode": "8125-410",
      "city": "QUARTEIRA",
      "lon": "-8.115666376712904",
      "lat": "37.075565727834075"
    },
    {
      "id": "pt.ine.add.PTCONT.1845649",
      "street": "AV TIVOLI",
      "house": "",
      "postcode": "8125-410",
      "city": "QUARTEIRA",
      "lon": "-8.115643997064105",
      "lat": "37.07507914624355"
    },
    {
      "id": "pt.ine.add.PTCONT.1845653",
      "street": "AV TIVOLI",
      "house": "",
      "postcode": "8125-410",
      "city": "QUARTEIRA",
      "lon": "-8.115643997064105",
      "lat": "37.07507914624355"
    },
    {
      "id": "pt.ine.add.PTCONT.1845656",
      "street": "AV TIVOLI",
      "house": "",
      "postcode": "8125-410",
      "city": "QUARTEIRA",
      "lon": "-8.115643997064105",
      "lat": "37.07507914624355"
    }
  ]
}