{
  "data": {
    "distrito": "Faro",
    "concelho": "Monchique",
    "freguesia": "Marmelete",
    "OBJECTID": 4,
    "BGRI2021": "08090200115",
    "DT21": "08",
    "DTMN21": "0809",
    "DTMNFR21": "080902",
    "DTMNFRSEC21": "080902001",
    "SECNUM21": "001",
    "SSNUM21": "15",
    "SECSSNUM21": "00115",
    "OBJECTID_1": 70022,
    "DT": "08",
    "CC": "09",
    "fr": "02",
    "SEC": "001",
    "SS": "15"
  },
  "addresses": [
    {
      "id": "pt.ine.add.PTCONT.1470586",
      "street": "FRANK DIETER FISCHER",
      "house": "",
      "postcode": "8550-157",
      "city": "MARMELETE",
      "lon": "-8.69615973426975",
      "lat": "37.26938778334038"
    },
    {
      "id": "pt.ine.add.PTCONT.1485084",
      "street": "",
      "house": "",
      "postcode": "8550-110",
      "city": "MARMELETE",
      "lon": "-8.695063289740641",
      "lat": "37.28265613521052"
    },
    {
      "id": "pt.ine.add.PTCONT.1496856",
      "street": "",
      "house": "",
      "postcode": "8550-145",
      "city": "MARMELETE",
      "lon": "-8.70547803924353",
      "lat": "37.28802140493342"
    },
    {
      "id": "pt.ine.add.PTCONT.1553200",
      "street": "",
      "house": "",
      "postcode": "8550-157",
      "city": "MARMELETE",
      "lon": "-8.696100748792448",
      "lat": "37.269036662297324"
    },
    {
      "id": "pt.ine.add.PTCONT.1566782",
      "street": "",
      "house": "",
      "postcode": "8550-145",
      "city": "MARMELETE",
      "lon": "-8.69780806593017",
      "lat": "37.29082439739726"
    },
    {
      "id": "pt.ine.add.PTCONT.1659660",
      "street": "",
      "house": "",
      "postcode": "8550-145",
      "city": "MARMELETE",
      "lon": "-8.705026517926987",
      "lat": "37.2909429124624"
    },
    {
      "id": "pt.ine.add.PTCONT.1682951",
      "street": "",
      "house": "",
      "postcode": "8550-157",
      "city": "MARMELETE",
      "lon": "-8.696461920549718",
      "lat": "37.27211646486014"
    },
    {
      "id": "pt.ine.add.PTCONT.1742826",
      "street": "",
      "house": "",
      "postcode": "8550-157",
      "city": "MARMELETE",
      "lon": "-8.695915324363336",
      "lat": "37.271389231004434"
    }
  ]
}