{
  "data": {
    "distrito": "Faro",
    "concelho": "Monchique",
    "freguesia": "Marmelete",
    "OBJECTID": 155,
    "BGRI2021": "08090200136",
    "DT21": "08",
    "DTMN21": "0809",
    "DTMNFR21": "080902",
    "DTMNFRSEC21": "080902001",
    "SECNUM21": "001",
    "SSNUM21": "36",
    "SECSSNUM21": "00136",
    "OBJECTID_1": 70116,
    "DT": "08",
    "CC": "09",
    "fr": "02",
    "SEC": "001",
    "SS": "36"
  },
  "addresses": [
    {
      "id": "pt.ine.add.PTCONT.1474587",
      "street": "TV VIMEIRAO",
      "house": "",
      "postcode": "8550-145",
      "city": "MARMELETE",
      "lon": "-8.669341036800224",
      "lat": "37.31108570965668"
    },
    {
      "id": "pt.ine.add.PTCONT.1476546",
      "street": "R ALJEZUR",
      "house": "",
      "postcode": "8550-145",
      "city": "MARMELETE",
      "lon": "-8.669502607032584",
      "lat": "37.31159856130785"
    },
    {
      "id": "pt.ine.add.PTCONT.1478011",
      "street": "R ALJEZUR",
      "house": "1",
      "postcode": "8550-145",
      "city": "MARMELETE",
      "lon": "-8.669423197709495",
      "lat": "37.31153584951866"
    },
    {
      "id": "pt.ine.add.PTCONT.1482412",
      "street": "TV VIMEIRAO",
      "house": "",
      "postcode": "8550-145",
      "city": "MARMELETE",
      "lon": "-8.66927476381836",
      "lat": "37.31128423531312"
    },
    {
      "id": "pt.ine.add.PTCONT.1525823",
      "street": "R LIMOEIRO",
      "house": "",
      "postcode": "8550-145",
      "city": "MARMELETE",
      "lon": "-8.66931777269273",
      "lat": "37.31098670238528"
    },
    {
      "id": "pt.ine.add.PTCONT.1549908",
      "street": "R ALJEZUR",
      "house": "",
      "postcode": "8550-145",
      "city": "MARMELETE",
      "lon": "-8.669515743654394",
      "lat": "37.31185979881311"
    },
    {
      "id": "pt.ine.add.PTCONT.1560346",
      "street": "TV VIMEIRAO",
      "house": "",
      "postcode": "8550-145",
      "city": "MARMELETE",
      "lon": "-8.669443069818856",
      "lat": "37.311157329218304"
    },
    {
      "id": "pt.ine.add.PTCONT.1606994",
      "street": "LG 25 DE ABRIL",
      "house": "2",
      "postcode": "8550-145",
      "city": "MARMELETE",
      "lon": "-8.669286683825648",
      "lat": "37.311374283743696"
    },
    {
      "id": "pt.ine.add.PTCONT.1757821",
      "street": "R LIMOEIRO",
      "house": "",
      "postcode": "8550-145",
      "city": "MARMELETE",
      "lon": "-8.669250220091397",
      "lat": "37.31100502894543"
    },
    {
      "id": "pt.ine.add.PTCONT.1789164",
      "street": "LG 25 DE ABRIL",
      "house": "1",
      "postcode": "8550-145",
      "city": "MARMELETE",
      "lon": "-8.669355004689603",
      "lat": "37.3114640766056"
    },
    {
      "id": "pt.ine.add.PTCONT.1814187",
      "street": "R LIMOEIRO",
      "house": "",
      "postcode": "8550-145",
      "city": "MARMELETE",
      "lon": "-8.669205483562521",
      "lat": "37.311059293085066"
    },
    {
      "id": "pt.ine.add.PTCONT.1841625",
      "street": "TV VIMEIRAO",
      "house": "6",
      "postcode": "8550-145",
      "city": "MARMELETE",
      "lon": "-8.669364364966128",
      "lat": "37.311193726875366"
    }
  ]
}