{
  "data": {
    "distrito": "Santar√©m",
    "concelho": "Tomar",
    "freguesia": "Paialvo",
    "OBJECTID": 313,
    "BGRI2021": "14180900329",
    "DT21": "14",
    "DTMN21": "1418",
    "DTMNFR21": "141809",
    "DTMNFRSEC21": "141809003",
    "SECNUM21": "003",
    "SSNUM21": "29",
    "SECSSNUM21": "00329",
    "OBJECTID_1": 155964,
    "DT": "14",
    "CC": "18",
    "fr": "09",
    "SEC": "003",
    "SS": "29"
  },
  "addresses": [
    {
      "id": "pt.ine.add.PTCONT.4413214",
      "street": "R S CATARINA",
      "house": "32",
      "postcode": "2305-512",
      "city": "PAIALVO",
      "lon": "-8.451753081752686",
      "lat": "39.54517586017346"
    },
    {
      "id": "pt.ine.add.PTCONT.4413716",
      "street": "R S CATARINA",
      "house": "32",
      "postcode": "2305-512",
      "city": "PAIALVO",
      "lon": "-8.451753081752686",
      "lat": "39.54517586017346"
    },
    {
      "id": "pt.ine.add.PTCONT.4415218",
      "street": "R S CATARINA",
      "house": "34",
      "postcode": "2305-512",
      "city": "PAIALVO",
      "lon": "-8.452487507055665",
      "lat": "39.542967158429704"
    },
    {
      "id": "pt.ine.add.PTCONT.4415219",
      "street": "R S CATARINA",
      "house": "34",
      "postcode": "2305-512",
      "city": "PAIALVO",
      "lon": "-8.452487507055665",
      "lat": "39.542967158429704"
    },
    {
      "id": "pt.ine.add.PTCONT.4415318",
      "street": "R S CATARINA",
      "house": "34",
      "postcode": "2305-512",
      "city": "PAIALVO",
      "lon": "-8.452487507055665",
      "lat": "39.542967158429704"
    },
    {
      "id": "pt.ine.add.PTCONT.4444227",
      "street": "R S CATARINA",
      "house": "",
      "postcode": "2305-512",
      "city": "PAIALVO",
      "lon": "-8.451716163200262",
      "lat": "39.544734624225676"
    },
    {
      "id": "pt.ine.add.PTCONT.4473345",
      "street": "R APEADEIRO",
      "house": "2",
      "postcode": "2305-512",
      "city": "PAIALVO",
      "lon": "-8.452879848890738",
      "lat": "39.54227254966016"
    },
    {
      "id": "pt.ine.add.PTCONT.4500685",
      "street": "R APEADEIRO",
      "house": "6",
      "postcode": "2305-512",
      "city": "PAIALVO",
      "lon": "-8.45272783541398",
      "lat": "39.5421018369481"
    },
    {
      "id": "pt.ine.add.PTCONT.4566116",
      "street": "CSL FIDALGOS",
      "house": "13",
      "postcode": "2305-511",
      "city": "PAIALVO",
      "lon": "-8.446237586854004",
      "lat": "39.54232666065057"
    },
    {
      "id": "pt.ine.add.PTCONT.4591809",
      "street": "R S CATARINA",
      "house": "3",
      "postcode": "2305-512",
      "city": "PAIALVO",
      "lon": "-8.45244678750921",
      "lat": "39.54169729958247"
    },
    {
      "id": "pt.ine.add.PTCONT.4636868",
      "street": "R S CATARINA",
      "house": "32A",
      "postcode": "2305-512",
      "city": "PAIALVO",
      "lon": "-8.451823541670223",
      "lat": "39.54531977707483"
    },
    {
      "id": "pt.ine.add.PTCONT.4646989",
      "street": "R CASAL DOS ENXEMEIOS",
      "house": "",
      "postcode": "2305-512",
      "city": "PAIALVO",
      "lon": "-8.44974090440819",
      "lat": "39.545271427774416"
    },
    {
      "id": "pt.ine.add.PTCONT.4655455",
      "street": "R S CATARINA",
      "house": "30",
      "postcode": "2305-512",
      "city": "PAIALVO",
      "lon": "-8.451870982141651",
      "lat": "39.5455177983398"
    }
  ]
}