{
  "data": {
    "distrito": "Leiria",
    "concelho": "Alcobaça",
    "freguesia": "Évora de Alcobaça",
    "OBJECTID": 1182,
    "BGRI2021": "10010800312",
    "DT21": "10",
    "DTMN21": "1001",
    "DTMNFR21": "100108",
    "DTMNFRSEC21": "100108003",
    "SECNUM21": "003",
    "SSNUM21": "12",
    "SECSSNUM21": "00312",
    "OBJECTID_1": 84418,
    "DT": "10",
    "CC": "01",
    "fr": "08",
    "SEC": "003",
    "SS": "12"
  },
  "addresses": [
    {
      "id": "pt.ine.add.PTCONT.1979936",
      "street": "R ESCOLA",
      "house": "13",
      "postcode": "2460-476",
      "city": "ALCOBAÇA",
      "lon": "-8.99103325069786",
      "lat": "39.501501698133666"
    },
    {
      "id": "pt.ine.add.PTCONT.1982105",
      "street": "R PRINCIPAL",
      "house": "27",
      "postcode": "2460-473",
      "city": "ALCOBAÇA",
      "lon": "-8.993598569876939",
      "lat": "39.50023079700377"
    },
    {
      "id": "pt.ine.add.PTCONT.1984313",
      "street": "R ESCOLA",
      "house": "3",
      "postcode": "2460-476",
      "city": "ALCOBAÇA",
      "lon": "-8.992993108793506",
      "lat": "39.50109992757805"
    },
    {
      "id": "pt.ine.add.PTCONT.1990977",
      "street": "R PRINCIPAL",
      "house": "37",
      "postcode": "2460-473",
      "city": "ALCOBAÇA",
      "lon": "-8.99472568052104",
      "lat": "39.49924071025026"
    },
    {
      "id": "pt.ine.add.PTCONT.1995448",
      "street": "R PRINCIPAL",
      "house": "83",
      "postcode": "2460-486",
      "city": "ALCOBAÇA",
      "lon": "-8.995352617234934",
      "lat": "39.49540817900788"
    },
    {
      "id": "pt.ine.add.PTCONT.1999957",
      "street": "R ESCOLA",
      "house": "7",
      "postcode": "2460-476",
      "city": "ALCOBAÇA",
      "lon": "-8.9924658814772",
      "lat": "39.500770575005504"
    },
    {
      "id": "pt.ine.add.PTCONT.2004434",
      "street": "R RIO DAS ANTAS",
      "house": "20",
      "postcode": "2460-473",
      "city": "ALCOBAÇA",
      "lon": "-8.99296636859951",
      "lat": "39.506477170336375"
    },
    {
      "id": "pt.ine.add.PTCONT.2005961",
      "street": "R ESCOLA",
      "house": "2",
      "postcode": "2460-473",
      "city": "ALCOBAÇA",
      "lon": "-8.9932691103704",
      "lat": "39.5008547028331"
    },
    {
      "id": "pt.ine.add.PTCONT.2006430",
      "street": "R PRINCIPAL",
      "house": "57",
      "postcode": "2460-473",
      "city": "ALCOBAÇA",
      "lon": "-8.995498571290785",
      "lat": "39.49781190815381"
    },
    {
      "id": "pt.ine.add.PTCONT.2008464",
      "street": "R AZENHA",
      "house": "7",
      "postcode": "2460-486",
      "city": "ALCOBAÇA",
      "lon": "-8.993880438607174",
      "lat": "39.494806626098935"
    },
    {
      "id": "pt.ine.add.PTCONT.2008496",
      "street": "R MOINHOS",
      "house": "",
      "postcode": "2460-476",
      "city": "ALCOBAÇA",
      "lon": "-8.9907312233691",
      "lat": "39.500576228100535"
    },
    {
      "id": "pt.ine.add.PTCONT.2015112",
      "street": "TV FLORES",
      "house": "",
      "postcode": "2460-476",
      "city": "ALCOBAÇA",
      "lon": "-8.990307172136351",
      "lat": "39.50296615208293"
    },
    {
      "id": "pt.ine.add.PTCONT.2017228",
      "street": "R PRINCIPAL",
      "house": "29",
      "postcode": "2460-473",
      "city": "ALCOBAÇA",
      "lon": "-8.993931467680614",
      "lat": "39.49988607495575"
    },
    {
      "id": "pt.ine.add.PTCONT.2025850",
      "street": "R PRINCIPAL",
      "house": "43",
      "postcode": "2460-473",
      "city": "ALCOBAÇA",
      "lon": "-8.994987152024228",
      "lat": "39.49876141274477"
    },
    {
      "id": "pt.ine.add.PTCONT.2030383",
      "street": "R PRINCIPAL",
      "house": "51",
      "postcode": "2460-473",
      "city": "ALCOBAÇA",
      "lon": "-8.99537415245226",
      "lat": "39.49809204125884"
    },
    {
      "id": "pt.ine.add.PTCONT.2034601",
      "street": "R LAGAR",
      "house": "8",
      "postcode": "2460-476",
      "city": "ALCOBAÇA",
      "lon": "-8.98931699209421",
      "lat": "39.50470274986412"
    },
    {
      "id": "pt.ine.add.PTCONT.2048375",
      "street": "R ESCOLA",
      "house": "6",
      "postcode": "2460-473",
      "city": "ALCOBAÇA",
      "lon": "-8.992731590163856",
      "lat": "39.50063350896829"
    },
    {
      "id": "pt.ine.add.PTCONT.2052152",
      "street": "TV ALTO",
      "house": "6",
      "postcode": "2460-473",
      "city": "ALCOBAÇA",
      "lon": "-8.99356047233672",
      "lat": "39.50279801090223"
    },
    {
      "id": "pt.ine.add.PTCONT.2056940",
      "street": "R ESCOLA",
      "house": "",
      "postcode": "2460-476",
      "city": "ALCOBAÇA",
      "lon": "-8.991047090439189",
      "lat": "39.5016817315988"
    },
    {
      "id": "pt.ine.add.PTCONT.2061608",
      "street": "R PRINCIPAL",
      "house": "31",
      "postcode": "2460-473",
      "city": "ALCOBAÇA",
      "lon": "-8.994056784335335",
      "lat": "39.49967799104986"
    },
    {
      "id": "pt.ine.add.PTCONT.2064621",
      "street": "R MOINHOS",
      "house": "8",
      "postcode": "2460-476",
      "city": "ALCOBAÇA",
      "lon": "-8.990960399430298",
      "lat": "39.500304333859184"
    },
    {
      "id": "pt.ine.add.PTCONT.2065656",
      "street": "R RIO DAS ANTAS",
      "house": "24",
      "postcode": "2460-473",
      "city": "ALCOBAÇA",
      "lon": "-8.99281911684852",
      "lat": "39.50679349634785"
    },
    {
      "id": "pt.ine.add.PTCONT.2067666",
      "street": "R LAGAR",
      "house": "12",
      "postcode": "2460-476",
      "city": "ALCOBAÇA",
      "lon": "-8.98978632788689",
      "lat": "39.50505055660554"
    },
    {
      "id": "pt.ine.add.PTCONT.2078406",
      "street": "R ESCOLA",
      "house": "10",
      "postcode": "2460-473",
      "city": "ALCOBAÇA",
      "lon": "-8.9918236296917",
      "lat": "39.500541144238774"
    },
    {
      "id": "pt.ine.add.PTCONT.2095650",
      "street": "R LAGAR",
      "house": "10",
      "postcode": "2460-476",
      "city": "ALCOBAÇA",
      "lon": "-8.989469008919176",
      "lat": "39.504773684401684"
    },
    {
      "id": "pt.ine.add.PTCONT.2095958",
      "street": "TV FLORES",
      "house": "4",
      "postcode": "2460-476",
      "city": "ALCOBAÇA",
      "lon": "-8.99060920810427",
      "lat": "39.50294591116347"
    },
    {
      "id": "pt.ine.add.PTCONT.2104752",
      "street": "R PRINCIPAL",
      "house": "65",
      "postcode": "2460-473",
      "city": "ALCOBAÇA",
      "lon": "-8.995445396409263",
      "lat": "39.49727189553938"
    },
    {
      "id": "pt.ine.add.PTCONT.2106966",
      "street": "R LAGAR",
      "house": "4",
      "postcode": "2460-476",
      "city": "ALCOBAÇA",
      "lon": "-8.990122143631691",
      "lat": "39.504940000254656"
    },
    {
      "id": "pt.ine.add.PTCONT.2113813",
      "street": "TV ESCOLA",
      "house": "1",
      "postcode": "2460-473",
      "city": "ALCOBAÇA",
      "lon": "-8.99144709161146",
      "lat": "39.50017464674825"
    },
    {
      "id": "pt.ine.add.PTCONT.2116851",
      "street": "R ESCOLA",
      "house": "14",
      "postcode": "2460-476",
      "city": "ALCOBAÇA",
      "lon": "-8.991189799046277",
      "lat": "39.50099616310909"
    },
    {
      "id": "pt.ine.add.PTCONT.2118110",
      "street": "R CONCELHO",
      "house": "3",
      "postcode": "2460-473",
      "city": "ALCOBAÇA",
      "lon": "-8.991769372533652",
      "lat": "39.49991107027301"
    },
    {
      "id": "pt.ine.add.PTCONT.2120519",
      "street": "R CARPINTARIA",
      "house": "1",
      "postcode": "2460-476",
      "city": "ALCOBAÇA",
      "lon": "-8.990647410797331",
      "lat": "39.50132440914645"
    },
    {
      "id": "pt.ine.add.PTCONT.2127860",
      "street": "R CABECO DOS MOINHOS",
      "house": "10",
      "postcode": "2460-476",
      "city": "ALCOBAÇA",
      "lon": "-8.990625714001366",
      "lat": "39.50050495211458"
    },
    {
      "id": "pt.ine.add.PTCONT.2131180",
      "street": "R PRINCIPAL",
      "house": "33",
      "postcode": "2460-473",
      "city": "ALCOBAÇA",
      "lon": "-8.994357804427077",
      "lat": "39.49957668692455"
    },
    {
      "id": "pt.ine.add.PTCONT.2131181",
      "street": "R MOINHOS",
      "house": "3",
      "postcode": "2460-476",
      "city": "ALCOBAÇA",
      "lon": "-8.991158353892665",
      "lat": "39.50032989339134"
    },
    {
      "id": "pt.ine.add.PTCONT.2135495",
      "street": "R CONCELHO",
      "house": "20",
      "postcode": "2460-473",
      "city": "ALCOBAÇA",
      "lon": "-8.991505864791131",
      "lat": "39.49833682907258"
    },
    {
      "id": "pt.ine.add.PTCONT.2138491",
      "street": "R CONCELHO",
      "house": "7",
      "postcode": "2460-473",
      "city": "ALCOBAÇA",
      "lon": "-8.991694969814773",
      "lat": "39.499533334904456"
    },
    {
      "id": "pt.ine.add.PTCONT.2142379",
      "street": "R CABECO DOS MOINHOS",
      "house": "",
      "postcode": "2460-476",
      "city": "ALCOBAÇA",
      "lon": "-8.990717274025089",
      "lat": "39.50038718858737"
    },
    {
      "id": "pt.ine.add.PTCONT.2150788",
      "street": "R PRINCIPAL",
      "house": "",
      "postcode": "2460-473",
      "city": "ALCOBAÇA",
      "lon": "-8.994285127967476",
      "lat": "39.50310788250464"
    },
    {
      "id": "pt.ine.add.PTCONT.2152992",
      "street": "R PRINCIPAL",
      "house": "67",
      "postcode": "2460-473",
      "city": "ALCOBAÇA",
      "lon": "-8.995396228429819",
      "lat": "39.49705609738647"
    },
    {
      "id": "pt.ine.add.PTCONT.2152993",
      "street": "TV ALTO",
      "house": "8",
      "postcode": "2460-473",
      "city": "ALCOBAÇA",
      "lon": "-8.993721670567819",
      "lat": "39.502670722858696"
    },
    {
      "id": "pt.ine.add.PTCONT.2161302",
      "street": "TV FLORES",
      "house": "2",
      "postcode": "2460-476",
      "city": "ALCOBAÇA",
      "lon": "-8.990223139934963",
      "lat": "39.50275060896241"
    },
    {
      "id": "pt.ine.add.PTCONT.2161439",
      "street": "R PRINCIPAL",
      "house": "59",
      "postcode": "2460-473",
      "city": "ALCOBAÇA",
      "lon": "-8.995438223509193",
      "lat": "39.49763222010205"
    },
    {
      "id": "pt.ine.add.PTCONT.2161441",
      "street": "R PRINCIPAL",
      "house": "59",
      "postcode": "2460-473",
      "city": "ALCOBAÇA",
      "lon": "-8.995438223509193",
      "lat": "39.49763222010205"
    },
    {
      "id": "pt.ine.add.PTCONT.2161765",
      "street": "R PRINCIPAL",
      "house": "15",
      "postcode": "2460-473",
      "city": "ALCOBAÇA",
      "lon": "-8.993957286256085",
      "lat": "39.50292116820507"
    },
    {
      "id": "pt.ine.add.PTCONT.2163618",
      "street": "R PRINCIPAL",
      "house": "87",
      "postcode": "2460-486",
      "city": "ALCOBAÇA",
      "lon": "-8.995341379560097",
      "lat": "39.49449857677523"
    },
    {
      "id": "pt.ine.add.PTCONT.2182363",
      "street": "R PRINCIPAL",
      "house": "47",
      "postcode": "2460-473",
      "city": "ALCOBAÇA",
      "lon": "-8.995178761803691",
      "lat": "39.4982736258793"
    },
    {
      "id": "pt.ine.add.PTCONT.2187904",
      "street": "TV CABECINHO",
      "house": "3",
      "postcode": "2460-486",
      "city": "ALCOBAÇA",
      "lon": "-8.994886989618166",
      "lat": "39.495357590552544"
    },
    {
      "id": "pt.ine.add.PTCONT.2190161",
      "street": "BC CABECINHO",
      "house": "1",
      "postcode": "2460-486",
      "city": "ALCOBAÇA",
      "lon": "-8.995216632012259",
      "lat": "39.494751691922644"
    },
    {
      "id": "pt.ine.add.PTCONT.2194477",
      "street": "R ESCOLA",
      "house": "32",
      "postcode": "2460-476",
      "city": "ALCOBAÇA",
      "lon": "-8.989663580156794",
      "lat": "39.502628638049345"
    },
    {
      "id": "pt.ine.add.PTCONT.2194768",
      "street": "R ESCOLA",
      "house": "36",
      "postcode": "2460-476",
      "city": "ALCOBAÇA",
      "lon": "-8.98919401780727",
      "lat": "39.50320853049749"
    },
    {
      "id": "pt.ine.add.PTCONT.2199326",
      "street": "R MOINHOS",
      "house": "12",
      "postcode": "2460-476",
      "city": "ALCOBAÇA",
      "lon": "-8.990663244980304",
      "lat": "39.500720838040245"
    },
    {
      "id": "pt.ine.add.PTCONT.2208295",
      "street": "TV ALTO",
      "house": "2",
      "postcode": "2460-473",
      "city": "ALCOBAÇA",
      "lon": "-8.993613600370185",
      "lat": "39.50239231271333"
    },
    {
      "id": "pt.ine.add.PTCONT.2212818",
      "street": "R ESCOLA",
      "house": "1",
      "postcode": "2460-476",
      "city": "ALCOBAÇA",
      "lon": "-8.990420215834657",
      "lat": "39.50270412196861"
    },
    {
      "id": "pt.ine.add.PTCONT.2216759",
      "street": "R PRINCIPAL",
      "house": "49",
      "postcode": "2460-473",
      "city": "ALCOBAÇA",
      "lon": "-8.995259131814025",
      "lat": "39.49819196887161"
    },
    {
      "id": "pt.ine.add.PTCONT.2225449",
      "street": "R ESCOLA",
      "house": "4",
      "postcode": "2460-473",
      "city": "ALCOBAÇA",
      "lon": "-8.992942835694683",
      "lat": "39.50079406888301"
    },
    {
      "id": "pt.ine.add.PTCONT.2228106",
      "street": "R RIO DAS ANTAS",
      "house": "6",
      "postcode": "2460-473",
      "city": "ALCOBAÇA",
      "lon": "-8.993907201428785",
      "lat": "39.50451573826225"
    },
    {
      "id": "pt.ine.add.PTCONT.2231028",
      "street": "R CONCELHO",
      "house": "2 1",
      "postcode": "2460-473",
      "city": "ALCOBAÇA",
      "lon": "-8.991383090456297",
      "lat": "39.498752047558874"
    },
    {
      "id": "pt.ine.add.PTCONT.2234866",
      "street": "R RIO DAS ANTAS",
      "house": "4",
      "postcode": "2460-473",
      "city": "ALCOBAÇA",
      "lon": "-8.994175588962966",
      "lat": "39.50459481170931"
    },
    {
      "id": "pt.ine.add.PTCONT.2234867",
      "street": "R ESCOLA",
      "house": "8",
      "postcode": "2460-473",
      "city": "ALCOBAÇA",
      "lon": "-8.992556551297858",
      "lat": "39.50058076238036"
    },
    {
      "id": "pt.ine.add.PTCONT.2238552",
      "street": "R AZENHA",
      "house": "",
      "postcode": "2460-486",
      "city": "ALCOBAÇA",
      "lon": "-8.994031993844462",
      "lat": "39.494841531110076"
    },
    {
      "id": "pt.ine.add.PTCONT.2243062",
      "street": "R PRINCIPAL",
      "house": "45",
      "postcode": "2460-473",
      "city": "ALCOBAÇA",
      "lon": "-8.995122975591219",
      "lat": "39.498463181951905"
    },
    {
      "id": "pt.ine.add.PTCONT.2243063",
      "street": "R CONCELHO",
      "house": "18A",
      "postcode": "2460-473",
      "city": "ALCOBAÇA",
      "lon": "-8.992005275203473",
      "lat": "39.498297113574175"
    },
    {
      "id": "pt.ine.add.PTCONT.2254318",
      "street": "R PRINCIPAL",
      "house": "69",
      "postcode": "2460-473",
      "city": "ALCOBAÇA",
      "lon": "-8.995486774305693",
      "lat": "39.49685727653638"
    },
    {
      "id": "pt.ine.add.PTCONT.2264409",
      "street": "R CONCELHO",
      "house": "14",
      "postcode": "2460-473",
      "city": "ALCOBAÇA",
      "lon": "-8.991755741805619",
      "lat": "39.498803336659144"
    }
  ]
}