{
  "data": {
    "distrito": "Viseu",
    "concelho": "Penalva do Castelo",
    "freguesia": "Pindo",
    "OBJECTID": 231,
    "BGRI2021": "18110900214",
    "DT21": "18",
    "DTMN21": "1811",
    "DTMNFR21": "181109",
    "DTMNFRSEC21": "181109002",
    "SECNUM21": "002",
    "SSNUM21": "14",
    "SECSSNUM21": "00214",
    "OBJECTID_1": 194770,
    "DT": "18",
    "CC": "11",
    "fr": "09",
    "SEC": "002",
    "SS": "14"
  },
  "addresses": [
    {
      "id": "pt.ine.add.PTCONT.5446611",
      "street": "R 8 DE OUTUBRO",
      "house": "10",
      "postcode": "3550-245",
      "city": "PINDO",
      "lon": "-7.74188005807831",
      "lat": "40.653251545511054"
    },
    {
      "id": "pt.ine.add.PTCONT.5446659",
      "street": "QTA PICOTO",
      "house": "",
      "postcode": "3550-245",
      "city": "PINDO",
      "lon": "-7.744051838812103",
      "lat": "40.655942416327704"
    },
    {
      "id": "pt.ine.add.PTCONT.5467669",
      "street": "QTA VALE",
      "house": "",
      "postcode": "3550-242",
      "city": "PINDO",
      "lon": "-7.74603069675296",
      "lat": "40.65930798408709"
    },
    {
      "id": "pt.ine.add.PTCONT.5482947",
      "street": "R PRINCIPAL",
      "house": "4",
      "postcode": "3550-245",
      "city": "PINDO",
      "lon": "-7.74083441212906",
      "lat": "40.6541305023836"
    },
    {
      "id": "pt.ine.add.PTCONT.5500898",
      "street": "R PRINCIPAL",
      "house": "48",
      "postcode": "3550-242",
      "city": "PINDO",
      "lon": "-7.74505023945458",
      "lat": "40.659133595624766"
    },
    {
      "id": "pt.ine.add.PTCONT.5511828",
      "street": "R 8 DE OUTUBRO",
      "house": "6",
      "postcode": "3550-245",
      "city": "PINDO",
      "lon": "-7.741560767982162",
      "lat": "40.65325946845155"
    },
    {
      "id": "pt.ine.add.PTCONT.5512783",
      "street": "EM 1417",
      "house": "2",
      "postcode": "3550-245",
      "city": "PINDO",
      "lon": "-7.74105163135806",
      "lat": "40.655400965420306"
    },
    {
      "id": "pt.ine.add.PTCONT.5534819",
      "street": "R VALE",
      "house": "44",
      "postcode": "3550-242",
      "city": "PINDO",
      "lon": "-7.745463320413731",
      "lat": "40.65927006018794"
    },
    {
      "id": "pt.ine.add.PTCONT.5561200",
      "street": "QTA PRAZO",
      "house": "",
      "postcode": "3550-245",
      "city": "PINDO",
      "lon": "-7.7484429214942585",
      "lat": "40.65520069547409"
    },
    {
      "id": "pt.ine.add.PTCONT.5568692",
      "street": "R VALE",
      "house": "54",
      "postcode": "3550-242",
      "city": "PINDO",
      "lon": "-7.744825884331069",
      "lat": "40.6590788105931"
    },
    {
      "id": "pt.ine.add.PTCONT.5579701",
      "street": "QTA SARGAÇAL",
      "house": "",
      "postcode": "3550-245",
      "city": "PINDO",
      "lon": "-7.746300685705208",
      "lat": "40.65350957708777"
    },
    {
      "id": "pt.ine.add.PTCONT.5607776",
      "street": "ESTR PRINCIPAL",
      "house": "60",
      "postcode": "3550-242",
      "city": "PINDO",
      "lon": "-7.742817584764871",
      "lat": "40.65874785500968"
    },
    {
      "id": "pt.ine.add.PTCONT.5627003",
      "street": "QTA PRAZO",
      "house": "",
      "postcode": "3550-245",
      "city": "PINDO",
      "lon": "-7.745503966758919",
      "lat": "40.654290353250836"
    },
    {
      "id": "pt.ine.add.PTCONT.5640666",
      "street": "R SANTO ANTÓNIO",
      "house": "10",
      "postcode": "3550-242",
      "city": "PINDO",
      "lon": "-7.74676071009518",
      "lat": "40.659850737178786"
    },
    {
      "id": "pt.ine.add.PTCONT.5640667",
      "street": "R SEM NOME",
      "house": "",
      "postcode": "3550-245",
      "city": "PINDO",
      "lon": "-7.748907775298611",
      "lat": "40.65455387261408"
    },
    {
      "id": "pt.ine.add.PTCONT.5643250",
      "street": "ESTR PRINCIPAL",
      "house": "36",
      "postcode": "3550-242",
      "city": "PINDO",
      "lon": "-7.74582900010199",
      "lat": "40.65942437457623"
    },
    {
      "id": "pt.ine.add.PTCONT.5652526",
      "street": "R 8 DE OUTUBRO",
      "house": "8",
      "postcode": "3550-245",
      "city": "PINDO",
      "lon": "-7.741797871504092",
      "lat": "40.65315221041735"
    },
    {
      "id": "pt.ine.add.PTCONT.5663578",
      "street": "ESTR PRINCIPAL",
      "house": "64",
      "postcode": "3550-242",
      "city": "PINDO",
      "lon": "-7.7430343086946545",
      "lat": "40.65808220706429"
    },
    {
      "id": "pt.ine.add.PTCONT.5668750",
      "street": "R PRINCIPAL",
      "house": "42",
      "postcode": "3550-242",
      "city": "PINDO",
      "lon": "-7.745817852429044",
      "lat": "40.659307270396084"
    }
  ]
}