{
  "data": {
    "distrito": "Viseu",
    "concelho": "Penalva do Castelo",
    "freguesia": "Pindo",
    "OBJECTID": 243,
    "BGRI2021": "18110900231",
    "DT21": "18",
    "DTMN21": "1811",
    "DTMNFR21": "181109",
    "DTMNFRSEC21": "181109002",
    "SECNUM21": "002",
    "SSNUM21": "31",
    "SECSSNUM21": "00231",
    "OBJECTID_1": 194773,
    "DT": "18",
    "CC": "11",
    "fr": "09",
    "SEC": "002",
    "SS": "31"
  },
  "addresses": [
    {
      "id": "pt.ine.add.PTCONT.5427954",
      "street": "QTA CASTANHEIRA",
      "house": "",
      "postcode": "3550-248",
      "city": "PINDO",
      "lon": "-7.753820601694459",
      "lat": "40.66396247421437"
    },
    {
      "id": "pt.ine.add.PTCONT.5449330",
      "street": "R OLIVAL",
      "house": "9",
      "postcode": "3550-248",
      "city": "PINDO",
      "lon": "-7.753981055294285",
      "lat": "40.66695270418621"
    },
    {
      "id": "pt.ine.add.PTCONT.5494261",
      "street": "R OUTEIRO",
      "house": "6",
      "postcode": "3550-248",
      "city": "PINDO",
      "lon": "-7.75259776633987",
      "lat": "40.66688511802587"
    },
    {
      "id": "pt.ine.add.PTCONT.5510408",
      "street": "R OLIVAL",
      "house": "3",
      "postcode": "3550-248",
      "city": "PINDO",
      "lon": "-7.754107114483871",
      "lat": "40.66766452304019"
    },
    {
      "id": "pt.ine.add.PTCONT.5528289",
      "street": "R ESCOLA",
      "house": "",
      "postcode": "3550-248",
      "city": "PINDO",
      "lon": "-7.750673775622106",
      "lat": "40.66623939754489"
    },
    {
      "id": "pt.ine.add.PTCONT.5543219",
      "street": "R OLIVAL",
      "house": "5",
      "postcode": "3550-248",
      "city": "PINDO",
      "lon": "-7.754037993047655",
      "lat": "40.66734011158513"
    },
    {
      "id": "pt.ine.add.PTCONT.5639598",
      "street": "R ESCOLA",
      "house": "",
      "postcode": "3550-248",
      "city": "PINDO",
      "lon": "-7.751170053114451",
      "lat": "40.66631308122156"
    },
    {
      "id": "pt.ine.add.PTCONT.5647102",
      "street": "R ESCOLA",
      "house": "",
      "postcode": "3550-248",
      "city": "PINDO",
      "lon": "-7.751740159916059",
      "lat": "40.66588271945935"
    },
    {
      "id": "pt.ine.add.PTCONT.5647114",
      "street": "LG SOALHEIRO",
      "house": "2",
      "postcode": "3550-248",
      "city": "PINDO",
      "lon": "-7.75339677808243",
      "lat": "40.66779726614486"
    },
    {
      "id": "pt.ine.add.PTCONT.5668132",
      "street": "QTA CASTANHEIRA",
      "house": "",
      "postcode": "3550-248",
      "city": "PINDO",
      "lon": "-7.753480398872056",
      "lat": "40.66556426945867"
    }
  ]
}