{
  "data": {
    "distrito": "Castelo Branco",
    "concelho": "Oleiros",
    "freguesia": "Estreito-Vilar Barroco",
    "OBJECTID": 305,
    "BGRI2021": "05061300130",
    "DT21": "05",
    "DTMN21": "0506",
    "DTMNFR21": "050613",
    "DTMNFRSEC21": "050613001",
    "SECNUM21": "001",
    "SSNUM21": "30",
    "SECSSNUM21": "00130",
    "OBJECTID_1": 44767,
    "DT": "05",
    "CC": "06",
    "fr": "13",
    "SEC": "001",
    "SS": "30"
  },
  "addresses": [
    {
      "id": "pt.ine.add.PTCONT.969072",
      "street": "R PRIORADO DO CRATO",
      "house": "",
      "postcode": "6160-115",
      "city": "ESTREITO",
      "lon": "-7.8079656445411905",
      "lat": "39.95359646980372"
    },
    {
      "id": "pt.ine.add.PTCONT.982595",
      "street": "SENHORA DA PENHA",
      "house": "",
      "postcode": "6160-115",
      "city": "ESTREITO",
      "lon": "-7.806063697173846",
      "lat": "39.95242931425738"
    },
    {
      "id": "pt.ine.add.PTCONT.997546",
      "street": "R JOÃO ÁLVARES",
      "house": "34",
      "postcode": "6160-115",
      "city": "ESTREITO",
      "lon": "-7.807455226498149",
      "lat": "39.95264938130911"
    },
    {
      "id": "pt.ine.add.PTCONT.1005048",
      "street": "EN 238",
      "house": "",
      "postcode": "6160-115",
      "city": "ESTREITO",
      "lon": "-7.806913632168115",
      "lat": "39.95334133968892"
    },
    {
      "id": "pt.ine.add.PTCONT.1009082",
      "street": "R JOÃO ÁLVARES",
      "house": "20",
      "postcode": "6160-115",
      "city": "ESTREITO",
      "lon": "-7.807304209222813",
      "lat": "39.952414794580676"
    },
    {
      "id": "pt.ine.add.PTCONT.1054153",
      "street": "R PEDRO VASQUES",
      "house": "18",
      "postcode": "6160-115",
      "city": "ESTREITO",
      "lon": "-7.808471527572718",
      "lat": "39.95303049398871"
    },
    {
      "id": "pt.ine.add.PTCONT.1057582",
      "street": "R PRIORADO DO CRATO",
      "house": "",
      "postcode": "6160-115",
      "city": "ESTREITO",
      "lon": "-7.807438953933513",
      "lat": "39.95361300394699"
    },
    {
      "id": "pt.ine.add.PTCONT.1058725",
      "street": "R PRIORADO DO CRATO",
      "house": "19",
      "postcode": "6160-115",
      "city": "ESTREITO",
      "lon": "-7.808470590838136",
      "lat": "39.953228628786704"
    },
    {
      "id": "pt.ine.add.PTCONT.1075840",
      "street": "EN 238",
      "house": "",
      "postcode": "6160-115",
      "city": "ESTREITO",
      "lon": "-7.80569990035672",
      "lat": "39.95264443734982"
    },
    {
      "id": "pt.ine.add.PTCONT.1089572",
      "street": "SENHORA DA PENHA",
      "house": "",
      "postcode": "6160-115",
      "city": "ESTREITO",
      "lon": "-7.806673878023185",
      "lat": "39.95207979030535"
    },
    {
      "id": "pt.ine.add.PTCONT.1095163",
      "street": "R PEDRO VASQUES",
      "house": "",
      "postcode": "6160-115",
      "city": "ESTREITO",
      "lon": "-7.807700161285712",
      "lat": "39.95282118775763"
    },
    {
      "id": "pt.ine.add.PTCONT.1098027",
      "street": "SENHORA DA PENHA",
      "house": "",
      "postcode": "6160-115",
      "city": "ESTREITO",
      "lon": "-7.806637444436097",
      "lat": "39.9523588813869"
    }
  ]
}