{
  "data": {
    "distrito": "Braga",
    "concelho": "Braga",
    "freguesia": "União das freguesias de Cabreiros e Passos (São Julião)",
    "OBJECTID": 1290,
    "BGRI2021": "03036600112",
    "DT21": "03",
    "DTMN21": "0303",
    "DTMNFR21": "030366",
    "DTMNFRSEC21": "030366001",
    "SECNUM21": "001",
    "SSNUM21": "12",
    "SECSSNUM21": "00112",
    "OBJECTID_1": 23190,
    "DT": "03",
    "CC": "03",
    "fr": "66",
    "SEC": "001",
    "SS": "12"
  },
  "addresses": [
    {
      "id": "pt.ine.add.PTCONT.462293",
      "street": "R BELIDO",
      "house": "12",
      "postcode": "4705-807",
      "city": "PASSOS (SÃO JULIÃO)",
      "lon": "-8.48810700624066",
      "lat": "41.530808930727964"
    },
    {
      "id": "pt.ine.add.PTCONT.486169",
      "street": "AV LABRIOSQUE",
      "house": "32",
      "postcode": "4705-768",
      "city": "CABREIROS BRG",
      "lon": "-8.490580264213412",
      "lat": "41.53170164746156"
    },
    {
      "id": "pt.ine.add.PTCONT.489204",
      "street": "R JERONIMO FERNANDES SILVA",
      "house": "10",
      "postcode": "4705-807",
      "city": "PASSOS (SÃO JULIÃO)",
      "lon": "-8.488732242324454",
      "lat": "41.531203165353695"
    },
    {
      "id": "pt.ine.add.PTCONT.542587",
      "street": "AV LABRIOSQUE",
      "house": "42",
      "postcode": "4705-768",
      "city": "CABREIROS BRG",
      "lon": "-8.491433932489079",
      "lat": "41.53223021370945"
    },
    {
      "id": "pt.ine.add.PTCONT.581403",
      "street": "AV LABRIOSQUE",
      "house": "48",
      "postcode": "4705-768",
      "city": "CABREIROS BRG",
      "lon": "-8.491686654784447",
      "lat": "41.53242750911821"
    },
    {
      "id": "pt.ine.add.PTCONT.613381",
      "street": "AV LABRIOSQUE",
      "house": "30",
      "postcode": "4705-768",
      "city": "CABREIROS BRG",
      "lon": "-8.490435338112418",
      "lat": "41.53149501092016"
    },
    {
      "id": "pt.ine.add.PTCONT.622006",
      "street": "R ESTRADA VELHA",
      "house": "15",
      "postcode": "4705-807",
      "city": "PASSOS (SÃO JULIÃO)",
      "lon": "-8.488012429322366",
      "lat": "41.531043320958524"
    },
    {
      "id": "pt.ine.add.PTCONT.637255",
      "street": "R JERONIMO FERNANDES SILVA",
      "house": "14",
      "postcode": "4705-807",
      "city": "PASSOS (SÃO JULIÃO)",
      "lon": "-8.488636336070444",
      "lat": "41.531194458109084"
    },
    {
      "id": "pt.ine.add.PTCONT.665816",
      "street": "AV LABRIOSQUE",
      "house": "4",
      "postcode": "4705-807",
      "city": "PASSOS (SÃO JULIÃO)",
      "lon": "-8.48913603064537",
      "lat": "41.53054463994279"
    },
    {
      "id": "pt.ine.add.PTCONT.674510",
      "street": "AV LABRIOSQUE",
      "house": "36",
      "postcode": "4705-768",
      "city": "CABREIROS BRG",
      "lon": "-8.490989098417389",
      "lat": "41.53196148551255"
    },
    {
      "id": "pt.ine.add.PTCONT.722666",
      "street": "AV LABRIOSQUE",
      "house": "12",
      "postcode": "4705-807",
      "city": "PASSOS (SÃO JULIÃO)",
      "lon": "-8.489749535567496",
      "lat": "41.53098392427603"
    },
    {
      "id": "pt.ine.add.PTCONT.731481",
      "street": "AV LABRIOSQUE",
      "house": "8",
      "postcode": "4705-807",
      "city": "PASSOS (SÃO JULIÃO)",
      "lon": "-8.48935388000866",
      "lat": "41.53094013169619"
    },
    {
      "id": "pt.ine.add.PTCONT.749134",
      "street": "R SACOTA",
      "house": "2",
      "postcode": "4705-385",
      "city": "CABREIROS BRG",
      "lon": "-8.492131694068306",
      "lat": "41.532732249061844"
    },
    {
      "id": "pt.ine.add.PTCONT.770013",
      "street": "AV LABRIOSQUE",
      "house": "46",
      "postcode": "4705-768",
      "city": "CABREIROS BRG",
      "lon": "-8.491530238234986",
      "lat": "41.532310947604174"
    },
    {
      "id": "pt.ine.add.PTCONT.787985",
      "street": "R JERONIMO SILVA",
      "house": "7",
      "postcode": "4705-807",
      "city": "PASSOS (SÃO JULIÃO)",
      "lon": "-8.488985199162723",
      "lat": "41.53144548492274"
    },
    {
      "id": "pt.ine.add.PTCONT.844112",
      "street": "R ESTRADA VELHA",
      "house": "53",
      "postcode": "4705-807",
      "city": "PASSOS (SÃO JULIÃO)",
      "lon": "-8.487497494224941",
      "lat": "41.53109893163242"
    }
  ]
}