{
  "data": {
    "distrito": "Coimbra",
    "concelho": "Figueira da Foz",
    "freguesia": "Buarcos e São Julião",
    "OBJECTID": 170,
    "BGRI2021": "06052000507",
    "DT21": "06",
    "DTMN21": "0605",
    "DTMNFR21": "060520",
    "DTMNFRSEC21": "060520005",
    "SECNUM21": "005",
    "SSNUM21": "07",
    "SECSSNUM21": "00507",
    "OBJECTID_1": 51077,
    "DT": "06",
    "CC": "05",
    "fr": "20",
    "SEC": "005",
    "SS": "07"
  },
  "addresses": [
    {
      "id": "pt.ine.add.PTCONT.1108935",
      "street": "1 TRAVESSA DA RUA DA FONTE NOVA",
      "house": "13",
      "postcode": "3080-213",
      "city": "FIGUEIRA DA FOZ",
      "lon": "-8.883595867979842",
      "lat": "40.17013508772279"
    },
    {
      "id": "pt.ine.add.PTCONT.1108938",
      "street": "R FONTE NOVA",
      "house": "11",
      "postcode": "3080-213",
      "city": "FIGUEIRA DA FOZ",
      "lon": "-8.883356297945634",
      "lat": "40.17076704654105"
    },
    {
      "id": "pt.ine.add.PTCONT.1110990",
      "street": "R JORGE DE SEIA",
      "house": "9",
      "postcode": "3080-377",
      "city": "FIGUEIRA DA FOZ",
      "lon": "-8.885351086352026",
      "lat": "40.17068205648706"
    },
    {
      "id": "pt.ine.add.PTCONT.1112868",
      "street": "R SERRADINHO",
      "house": "",
      "postcode": "3080-377",
      "city": "FIGUEIRA DA FOZ",
      "lon": "-8.885987563916167",
      "lat": "40.17091207013541"
    },
    {
      "id": "pt.ine.add.PTCONT.1121410",
      "street": "1 TRAVESSA DA RUA DA FONTE NOVA",
      "house": "9",
      "postcode": "3080-213",
      "city": "FIGUEIRA DA FOZ",
      "lon": "-8.88391013155713",
      "lat": "40.16988989352395"
    },
    {
      "id": "pt.ine.add.PTCONT.1124067",
      "street": "R D MARIA",
      "house": "18",
      "postcode": "3080-232",
      "city": "FIGUEIRA DA FOZ",
      "lon": "-8.883868168632585",
      "lat": "40.16927777103155"
    },
    {
      "id": "pt.ine.add.PTCONT.1125607",
      "street": "1 TRAVESSA DA RUA DA FONTE NOVA",
      "house": "5",
      "postcode": "3080-213",
      "city": "FIGUEIRA DA FOZ",
      "lon": "-8.88363409347955",
      "lat": "40.169342329276006"
    },
    {
      "id": "pt.ine.add.PTCONT.1128489",
      "street": "R D MARIA",
      "house": "50",
      "postcode": "3080-232",
      "city": "FIGUEIRA DA FOZ",
      "lon": "-8.88525220619551",
      "lat": "40.17023240884101"
    },
    {
      "id": "pt.ine.add.PTCONT.1129665",
      "street": "R SERRADINHO",
      "house": "2",
      "postcode": "3080-377",
      "city": "FIGUEIRA DA FOZ",
      "lon": "-8.886057598347145",
      "lat": "40.17087559148952"
    },
    {
      "id": "pt.ine.add.PTCONT.1136001",
      "street": "R SERRADINHO",
      "house": "2C",
      "postcode": "3080-377",
      "city": "FIGUEIRA DA FOZ",
      "lon": "-8.885871071846216",
      "lat": "40.17099387980986"
    },
    {
      "id": "pt.ine.add.PTCONT.1137171",
      "street": "R FONTE NOVA",
      "house": "3",
      "postcode": "3080-213",
      "city": "FIGUEIRA DA FOZ",
      "lon": "-8.883740533491714",
      "lat": "40.169413685661155"
    },
    {
      "id": "pt.ine.add.PTCONT.1140452",
      "street": "R SERRADINHO",
      "house": "24",
      "postcode": "3080-377",
      "city": "FIGUEIRA DA FOZ",
      "lon": "-8.885109135009225",
      "lat": "40.17216057944555"
    },
    {
      "id": "pt.ine.add.PTCONT.1142867",
      "street": "R D MARIA",
      "house": "6A",
      "postcode": "3080-232",
      "city": "FIGUEIRA DA FOZ",
      "lon": "-8.88509323223277",
      "lat": "40.170719754770744"
    },
    {
      "id": "pt.ine.add.PTCONT.1142868",
      "street": "R D MARIA",
      "house": "6A",
      "postcode": "3080-232",
      "city": "FIGUEIRA DA FOZ",
      "lon": "-8.88509323223277",
      "lat": "40.170719754770744"
    },
    {
      "id": "pt.ine.add.PTCONT.1142869",
      "street": "R D MARIA",
      "house": "6A",
      "postcode": "3080-232",
      "city": "FIGUEIRA DA FOZ",
      "lon": "-8.88509323223277",
      "lat": "40.170719754770744"
    },
    {
      "id": "pt.ine.add.PTCONT.1142870",
      "street": "R D MARIA",
      "house": "6A",
      "postcode": "3080-232",
      "city": "FIGUEIRA DA FOZ",
      "lon": "-8.88509323223277",
      "lat": "40.170719754770744"
    },
    {
      "id": "pt.ine.add.PTCONT.1142871",
      "street": "R D MARIA",
      "house": "6A",
      "postcode": "3080-232",
      "city": "FIGUEIRA DA FOZ",
      "lon": "-8.88509323223277",
      "lat": "40.170719754770744"
    },
    {
      "id": "pt.ine.add.PTCONT.1142872",
      "street": "R D MARIA",
      "house": "6A",
      "postcode": "3080-232",
      "city": "FIGUEIRA DA FOZ",
      "lon": "-8.88509323223277",
      "lat": "40.170719754770744"
    },
    {
      "id": "pt.ine.add.PTCONT.1142873",
      "street": "R D MARIA",
      "house": "6A",
      "postcode": "3080-232",
      "city": "FIGUEIRA DA FOZ",
      "lon": "-8.88509323223277",
      "lat": "40.170719754770744"
    },
    {
      "id": "pt.ine.add.PTCONT.1142999",
      "street": "R SERRADINHO",
      "house": "1C",
      "postcode": "3080-377",
      "city": "FIGUEIRA DA FOZ",
      "lon": "-8.885405597926875",
      "lat": "40.17136614311834"
    },
    {
      "id": "pt.ine.add.PTCONT.1145755",
      "street": "3 TRAVESSA DO SERRADINHO",
      "house": "",
      "postcode": "3080-377",
      "city": "FIGUEIRA DA FOZ",
      "lon": "-8.884567851248445",
      "lat": "40.17204701859989"
    },
    {
      "id": "pt.ine.add.PTCONT.1145757",
      "street": "1 TRAVESSA DA RUA DA FONTE NOVA",
      "house": "21",
      "postcode": "3080-213",
      "city": "FIGUEIRA DA FOZ",
      "lon": "-8.883353224026271",
      "lat": "40.17048788660919"
    },
    {
      "id": "pt.ine.add.PTCONT.1145758",
      "street": "1 TRAVESSA DA RUA DA FONTE NOVA",
      "house": "21",
      "postcode": "3080-213",
      "city": "FIGUEIRA DA FOZ",
      "lon": "-8.883353224026271",
      "lat": "40.17048788660919"
    },
    {
      "id": "pt.ine.add.PTCONT.1148880",
      "street": "R D MARIA",
      "house": "6",
      "postcode": "3080-232",
      "city": "FIGUEIRA DA FOZ",
      "lon": "-8.885271500090663",
      "lat": "40.170916724377676"
    },
    {
      "id": "pt.ine.add.PTCONT.1148881",
      "street": "R D MARIA",
      "house": "6",
      "postcode": "3080-232",
      "city": "FIGUEIRA DA FOZ",
      "lon": "-8.885271500090663",
      "lat": "40.170916724377676"
    },
    {
      "id": "pt.ine.add.PTCONT.1148882",
      "street": "R D MARIA",
      "house": "6",
      "postcode": "3080-232",
      "city": "FIGUEIRA DA FOZ",
      "lon": "-8.885271500090663",
      "lat": "40.170916724377676"
    },
    {
      "id": "pt.ine.add.PTCONT.1148883",
      "street": "R D MARIA",
      "house": "6",
      "postcode": "3080-232",
      "city": "FIGUEIRA DA FOZ",
      "lon": "-8.885271500090663",
      "lat": "40.170916724377676"
    },
    {
      "id": "pt.ine.add.PTCONT.1156140",
      "street": "R D MARIA",
      "house": "6E BL 5",
      "postcode": "3080-232",
      "city": "FIGUEIRA DA FOZ",
      "lon": "-8.884606382570366",
      "lat": "40.170218591012166"
    },
    {
      "id": "pt.ine.add.PTCONT.1156141",
      "street": "R D MARIA",
      "house": "6E BL 5",
      "postcode": "3080-232",
      "city": "FIGUEIRA DA FOZ",
      "lon": "-8.884606382570366",
      "lat": "40.170218591012166"
    },
    {
      "id": "pt.ine.add.PTCONT.1156142",
      "street": "R D MARIA",
      "house": "6E BL 5",
      "postcode": "3080-232",
      "city": "FIGUEIRA DA FOZ",
      "lon": "-8.884606382570366",
      "lat": "40.170218591012166"
    },
    {
      "id": "pt.ine.add.PTCONT.1156143",
      "street": "R D MARIA",
      "house": "6E",
      "postcode": "3080-232",
      "city": "FIGUEIRA DA FOZ",
      "lon": "-8.884606382570366",
      "lat": "40.170218591012166"
    },
    {
      "id": "pt.ine.add.PTCONT.1156144",
      "street": "R D MARIA",
      "house": "6E BL 5",
      "postcode": "3080-232",
      "city": "FIGUEIRA DA FOZ",
      "lon": "-8.884606382570366",
      "lat": "40.170218591012166"
    },
    {
      "id": "pt.ine.add.PTCONT.1162152",
      "street": "1 TRAVESSA DA RUA DA FONTE NOVA",
      "house": "3",
      "postcode": "3080-213",
      "city": "FIGUEIRA DA FOZ",
      "lon": "-8.883742021577985",
      "lat": "40.169548763062394"
    },
    {
      "id": "pt.ine.add.PTCONT.1166065",
      "street": "R SERRADINHO",
      "house": "20",
      "postcode": "3080-377",
      "city": "FIGUEIRA DA FOZ",
      "lon": "-8.885860228502581",
      "lat": "40.171075002512445"
    },
    {
      "id": "pt.ine.add.PTCONT.1168188",
      "street": "R FONTE NOVA",
      "house": "11",
      "postcode": "3080-213",
      "city": "FIGUEIRA DA FOZ",
      "lon": "-8.883202802175052",
      "lat": "40.17068698889581"
    },
    {
      "id": "pt.ine.add.PTCONT.1172125",
      "street": "1 TRAVESSA DO SERRADINHO",
      "house": "11",
      "postcode": "3080-377",
      "city": "FIGUEIRA DA FOZ",
      "lon": "-8.884304629916944",
      "lat": "40.17159843679892"
    },
    {
      "id": "pt.ine.add.PTCONT.1181220",
      "street": "R DA FONTE NOVA",
      "house": "1",
      "postcode": "3080-213",
      "city": "FIGUEIRA DA FOZ",
      "lon": "-8.883714973257298",
      "lat": "40.16922472950103"
    },
    {
      "id": "pt.ine.add.PTCONT.1182194",
      "street": "1 TRAVESSA DA RUA DA FONTE NOVA",
      "house": "21",
      "postcode": "3080-213",
      "city": "FIGUEIRA DA FOZ",
      "lon": "-8.883224792488422",
      "lat": "40.17055175939754"
    },
    {
      "id": "pt.ine.add.PTCONT.1182230",
      "street": "3 TRAVESSA DO SERRADINHO",
      "house": "",
      "postcode": "3080-377",
      "city": "FIGUEIRA DA FOZ",
      "lon": "-8.884531641209355",
      "lat": "40.17195719562892"
    },
    {
      "id": "pt.ine.add.PTCONT.1186108",
      "street": "R D MARIA",
      "house": "42",
      "postcode": "3080-232",
      "city": "FIGUEIRA DA FOZ",
      "lon": "-8.884813803338435",
      "lat": "40.16986601820055"
    },
    {
      "id": "pt.ine.add.PTCONT.1187156",
      "street": "3 TRAVESSA DO SERRADINHO",
      "house": "",
      "postcode": "3080-377",
      "city": "FIGUEIRA DA FOZ",
      "lon": "-8.884661166823253",
      "lat": "40.171992378091005"
    },
    {
      "id": "pt.ine.add.PTCONT.1188321",
      "street": "R D MARIA",
      "house": "44",
      "postcode": "3080-232",
      "city": "FIGUEIRA DA FOZ",
      "lon": "-8.884873390413201",
      "lat": "40.169946683525865"
    },
    {
      "id": "pt.ine.add.PTCONT.1190270",
      "street": "R D MARIA",
      "house": "30",
      "postcode": "3080-232",
      "city": "FIGUEIRA DA FOZ",
      "lon": "-8.884578833237416",
      "lat": "40.16984953194129"
    },
    {
      "id": "pt.ine.add.PTCONT.1194942",
      "street": "1 TRAVESSA DA RUA DA FONTE NOVA",
      "house": "1",
      "postcode": "3080-213",
      "city": "FIGUEIRA DA FOZ",
      "lon": "-8.883576591253407",
      "lat": "40.169450771659264"
    },
    {
      "id": "pt.ine.add.PTCONT.1194943",
      "street": "1 TRAVESSA DA RUA DA FONTE NOVA",
      "house": "1",
      "postcode": "3080-213",
      "city": "FIGUEIRA DA FOZ",
      "lon": "-8.883576591253407",
      "lat": "40.169450771659264"
    },
    {
      "id": "pt.ine.add.PTCONT.1196365",
      "street": "R SERRADINHO",
      "house": "14",
      "postcode": "3080-377",
      "city": "FIGUEIRA DA FOZ",
      "lon": "-8.88534879285287",
      "lat": "40.17153762240882"
    },
    {
      "id": "pt.ine.add.PTCONT.1196366",
      "street": "1 TRAVESSA DA RUA DA FONTE NOVA",
      "house": "17",
      "postcode": "3080-213",
      "city": "FIGUEIRA DA FOZ",
      "lon": "-8.883516077905686",
      "lat": "40.170351744159866"
    },
    {
      "id": "pt.ine.add.PTCONT.1198349",
      "street": "3 TRAVESSA DO SERRADINHO",
      "house": "",
      "postcode": "3080-377",
      "city": "FIGUEIRA DA FOZ",
      "lon": "-8.884425891497928",
      "lat": "40.17194887613026"
    },
    {
      "id": "pt.ine.add.PTCONT.1206018",
      "street": "R D MARIA",
      "house": "26",
      "postcode": "3080-232",
      "city": "FIGUEIRA DA FOZ",
      "lon": "-8.88428189422193",
      "lat": "40.169536255788934"
    },
    {
      "id": "pt.ine.add.PTCONT.1210765",
      "street": "R JORGE DE SEIA",
      "house": "7",
      "postcode": "3080-377",
      "city": "FIGUEIRA DA FOZ",
      "lon": "-8.885469567292613",
      "lat": "40.17078035042316"
    },
    {
      "id": "pt.ine.add.PTCONT.1212381",
      "street": "R SERRADINHO",
      "house": "18",
      "postcode": "3080-377",
      "city": "FIGUEIRA DA FOZ",
      "lon": "-8.885221951801196",
      "lat": "40.171745579858126"
    },
    {
      "id": "pt.ine.add.PTCONT.1212382",
      "street": "R FONTE NOVA",
      "house": "13",
      "postcode": "3080-213",
      "city": "FIGUEIRA DA FOZ",
      "lon": "-8.883203991844043",
      "lat": "40.17079505080653"
    },
    {
      "id": "pt.ine.add.PTCONT.1217121",
      "street": "R D MARIA",
      "house": "6D",
      "postcode": "3080-232",
      "city": "FIGUEIRA DA FOZ",
      "lon": "-8.884666665032938",
      "lat": "40.17036229253668"
    },
    {
      "id": "pt.ine.add.PTCONT.1217122",
      "street": "R D MARIA",
      "house": "6D",
      "postcode": "3080-232",
      "city": "FIGUEIRA DA FOZ",
      "lon": "-8.884666665032938",
      "lat": "40.17036229253668"
    },
    {
      "id": "pt.ine.add.PTCONT.1217123",
      "street": "R D MARIA",
      "house": "6D",
      "postcode": "3080-232",
      "city": "FIGUEIRA DA FOZ",
      "lon": "-8.884666665032938",
      "lat": "40.17036229253668"
    },
    {
      "id": "pt.ine.add.PTCONT.1217124",
      "street": "R D MARIA",
      "house": "6D",
      "postcode": "3080-232",
      "city": "FIGUEIRA DA FOZ",
      "lon": "-8.884666665032938",
      "lat": "40.17036229253668"
    },
    {
      "id": "pt.ine.add.PTCONT.1217125",
      "street": "R D MARIA",
      "house": "6D",
      "postcode": "3080-232",
      "city": "FIGUEIRA DA FOZ",
      "lon": "-8.884666665032938",
      "lat": "40.17036229253668"
    },
    {
      "id": "pt.ine.add.PTCONT.1217126",
      "street": "R D MARIA",
      "house": "6D",
      "postcode": "3080-232",
      "city": "FIGUEIRA DA FOZ",
      "lon": "-8.884666665032938",
      "lat": "40.17036229253668"
    },
    {
      "id": "pt.ine.add.PTCONT.1217127",
      "street": "R D MARIA",
      "house": "6D",
      "postcode": "3080-232",
      "city": "FIGUEIRA DA FOZ",
      "lon": "-8.884666665032938",
      "lat": "40.17036229253668"
    },
    {
      "id": "pt.ine.add.PTCONT.1219052",
      "street": "R D MARIA",
      "house": "22",
      "postcode": "3080-232",
      "city": "FIGUEIRA DA FOZ",
      "lon": "-8.884116661673978",
      "lat": "40.169456275482574"
    },
    {
      "id": "pt.ine.add.PTCONT.1219517",
      "street": "R SERRADINHO",
      "house": "2B",
      "postcode": "3080-377",
      "city": "FIGUEIRA DA FOZ",
      "lon": "-8.885941106424077",
      "lat": "40.17095740123362"
    },
    {
      "id": "pt.ine.add.PTCONT.1228364",
      "street": "R SERRADINHO",
      "house": "16",
      "postcode": "3080-377",
      "city": "FIGUEIRA DA FOZ",
      "lon": "-8.885326408782259",
      "lat": "40.17163683163834"
    },
    {
      "id": "pt.ine.add.PTCONT.1233156",
      "street": "R D MARIA",
      "house": "20",
      "postcode": "3080-232",
      "city": "FIGUEIRA DA FOZ",
      "lon": "-8.883986644983898",
      "lat": "40.16937606655082"
    },
    {
      "id": "pt.ine.add.PTCONT.1237291",
      "street": "R D MARIA",
      "house": "6B",
      "postcode": "3080-232",
      "city": "FIGUEIRA DA FOZ",
      "lon": "-8.884833986856396",
      "lat": "40.17063138029945"
    },
    {
      "id": "pt.ine.add.PTCONT.1237292",
      "street": "R D MARIA",
      "house": "6B",
      "postcode": "3080-232",
      "city": "FIGUEIRA DA FOZ",
      "lon": "-8.884833986856396",
      "lat": "40.17063138029945"
    },
    {
      "id": "pt.ine.add.PTCONT.1237293",
      "street": "R D MARIA",
      "house": "6B",
      "postcode": "3080-232",
      "city": "FIGUEIRA DA FOZ",
      "lon": "-8.884833986856396",
      "lat": "40.17063138029945"
    },
    {
      "id": "pt.ine.add.PTCONT.1237294",
      "street": "R D MARIA",
      "house": "6B",
      "postcode": "3080-232",
      "city": "FIGUEIRA DA FOZ",
      "lon": "-8.884833986856396",
      "lat": "40.17063138029945"
    },
    {
      "id": "pt.ine.add.PTCONT.1237295",
      "street": "R D MARIA",
      "house": "6B",
      "postcode": "3080-232",
      "city": "FIGUEIRA DA FOZ",
      "lon": "-8.884833986856396",
      "lat": "40.17063138029945"
    },
    {
      "id": "pt.ine.add.PTCONT.1237296",
      "street": "R D MARIA",
      "house": "6B",
      "postcode": "3080-232",
      "city": "FIGUEIRA DA FOZ",
      "lon": "-8.884833986856396",
      "lat": "40.17063138029945"
    },
    {
      "id": "pt.ine.add.PTCONT.1237297",
      "street": "R D MARIA",
      "house": "6B",
      "postcode": "3080-232",
      "city": "FIGUEIRA DA FOZ",
      "lon": "-8.884833986856396",
      "lat": "40.17063138029945"
    },
    {
      "id": "pt.ine.add.PTCONT.1237298",
      "street": "R D MARIA",
      "house": "6B",
      "postcode": "3080-232",
      "city": "FIGUEIRA DA FOZ",
      "lon": "-8.884833986856396",
      "lat": "40.17063138029945"
    },
    {
      "id": "pt.ine.add.PTCONT.1244487",
      "street": "R FONTE NOVA",
      "house": "25",
      "postcode": "3080-213",
      "city": "FIGUEIRA DA FOZ",
      "lon": "-8.883022812816883",
      "lat": "40.17139961315781"
    },
    {
      "id": "pt.ine.add.PTCONT.1245797",
      "street": "3 TRAVESSA DO SERRADINHO",
      "house": "",
      "postcode": "3080-377",
      "city": "FIGUEIRA DA FOZ",
      "lon": "-8.884673700465742",
      "lat": "40.172064343121335"
    },
    {
      "id": "pt.ine.add.PTCONT.1253825",
      "street": "R FONTE NOVA",
      "house": "11",
      "postcode": "3080-213",
      "city": "FIGUEIRA DA FOZ",
      "lon": "-8.88346254157245",
      "lat": "40.17082039282936"
    },
    {
      "id": "pt.ine.add.PTCONT.1255246",
      "street": "3 TRAVESSA DO SERRADINHO",
      "house": "",
      "postcode": "3080-377",
      "city": "FIGUEIRA DA FOZ",
      "lon": "-8.884435942227592",
      "lat": "40.17179571231743"
    },
    {
      "id": "pt.ine.add.PTCONT.1257396",
      "street": "R D MARIA",
      "house": "46",
      "postcode": "3080-232",
      "city": "FIGUEIRA DA FOZ",
      "lon": "-8.88497983265956",
      "lat": "40.17001803874369"
    },
    {
      "id": "pt.ine.add.PTCONT.1263547",
      "street": "3 TRAVESSA DO SERRADINHO",
      "house": "",
      "postcode": "3080-377",
      "city": "FIGUEIRA DA FOZ",
      "lon": "-8.884921013412892",
      "lat": "40.172134783804616"
    },
    {
      "id": "pt.ine.add.PTCONT.1263550",
      "street": "R SERRADINHO",
      "house": "8",
      "postcode": "3080-377",
      "city": "FIGUEIRA DA FOZ",
      "lon": "-8.885439521738743",
      "lat": "40.171248847283394"
    },
    {
      "id": "pt.ine.add.PTCONT.1281598",
      "street": "3 TRAVESSA DO SERRADINHO",
      "house": "",
      "postcode": "3080-377",
      "city": "FIGUEIRA DA FOZ",
      "lon": "-8.884272590376987",
      "lat": "40.1718868302657"
    },
    {
      "id": "pt.ine.add.PTCONT.1285875",
      "street": "R FONTE NOVA",
      "house": "21",
      "postcode": "3080-213",
      "city": "FIGUEIRA DA FOZ",
      "lon": "-8.883020037543712",
      "lat": "40.17114746871219"
    },
    {
      "id": "pt.ine.add.PTCONT.1290911",
      "street": "R D MARIA",
      "house": "6C",
      "postcode": "3080-232",
      "city": "FIGUEIRA DA FOZ",
      "lon": "-8.884668552332677",
      "lat": "40.17053339051324"
    },
    {
      "id": "pt.ine.add.PTCONT.1290912",
      "street": "R D MARIA",
      "house": "6C",
      "postcode": "3080-232",
      "city": "FIGUEIRA DA FOZ",
      "lon": "-8.884668552332677",
      "lat": "40.17053339051324"
    },
    {
      "id": "pt.ine.add.PTCONT.1290913",
      "street": "R D MARIA",
      "house": "6C",
      "postcode": "3080-232",
      "city": "FIGUEIRA DA FOZ",
      "lon": "-8.884668552332677",
      "lat": "40.17053339051324"
    },
    {
      "id": "pt.ine.add.PTCONT.1290914",
      "street": "R D MARIA",
      "house": "6C",
      "postcode": "3080-232",
      "city": "FIGUEIRA DA FOZ",
      "lon": "-8.884668552332677",
      "lat": "40.17053339051324"
    },
    {
      "id": "pt.ine.add.PTCONT.1290915",
      "street": "R D MARIA",
      "house": "6C",
      "postcode": "3080-232",
      "city": "FIGUEIRA DA FOZ",
      "lon": "-8.884668552332677",
      "lat": "40.17053339051324"
    },
    {
      "id": "pt.ine.add.PTCONT.1290916",
      "street": "R D MARIA",
      "house": "6C",
      "postcode": "3080-232",
      "city": "FIGUEIRA DA FOZ",
      "lon": "-8.884668552332677",
      "lat": "40.17053339051324"
    },
    {
      "id": "pt.ine.add.PTCONT.1290917",
      "street": "R D MARIA",
      "house": "6C",
      "postcode": "3080-232",
      "city": "FIGUEIRA DA FOZ",
      "lon": "-8.884668552332677",
      "lat": "40.17053339051324"
    },
    {
      "id": "pt.ine.add.PTCONT.1290918",
      "street": "R D MARIA",
      "house": "6C",
      "postcode": "3080-232",
      "city": "FIGUEIRA DA FOZ",
      "lon": "-8.884668552332677",
      "lat": "40.17053339051324"
    },
    {
      "id": "pt.ine.add.PTCONT.1297303",
      "street": "R D MARIA",
      "house": "",
      "postcode": "3080-232",
      "city": "FIGUEIRA DA FOZ",
      "lon": "-8.885949561600214",
      "lat": "40.17066015483867"
    },
    {
      "id": "pt.ine.add.PTCONT.1297304",
      "street": "R D MARIA",
      "house": "",
      "postcode": "3080-232",
      "city": "FIGUEIRA DA FOZ",
      "lon": "-8.885949561600214",
      "lat": "40.17066015483867"
    },
    {
      "id": "pt.ine.add.PTCONT.1297305",
      "street": "R D MARIA",
      "house": "",
      "postcode": "3080-232",
      "city": "FIGUEIRA DA FOZ",
      "lon": "-8.885949561600214",
      "lat": "40.17066015483867"
    },
    {
      "id": "pt.ine.add.PTCONT.1297306",
      "street": "R D MARIA",
      "house": "",
      "postcode": "3080-232",
      "city": "FIGUEIRA DA FOZ",
      "lon": "-8.885949561600214",
      "lat": "40.17066015483867"
    },
    {
      "id": "pt.ine.add.PTCONT.1297307",
      "street": "R D MARIA",
      "house": "",
      "postcode": "3080-232",
      "city": "FIGUEIRA DA FOZ",
      "lon": "-8.885949561600214",
      "lat": "40.17066015483867"
    },
    {
      "id": "pt.ine.add.PTCONT.1297438",
      "street": "R D MARIA",
      "house": "",
      "postcode": "3080-232",
      "city": "FIGUEIRA DA FOZ",
      "lon": "-8.885949561600214",
      "lat": "40.17066015483867"
    },
    {
      "id": "pt.ine.add.PTCONT.1297439",
      "street": "R D MARIA",
      "house": "",
      "postcode": "3080-232",
      "city": "FIGUEIRA DA FOZ",
      "lon": "-8.885949561600214",
      "lat": "40.17066015483867"
    },
    {
      "id": "pt.ine.add.PTCONT.1298950",
      "street": "R D MARIA",
      "house": "",
      "postcode": "3080-232",
      "city": "FIGUEIRA DA FOZ",
      "lon": "-8.885949561600214",
      "lat": "40.17066015483867"
    },
    {
      "id": "pt.ine.add.PTCONT.1298951",
      "street": "R D MARIA",
      "house": "",
      "postcode": "3080-232",
      "city": "FIGUEIRA DA FOZ",
      "lon": "-8.885949561600214",
      "lat": "40.17066015483867"
    },
    {
      "id": "pt.ine.add.PTCONT.1300030",
      "street": "R FONTE NOVA",
      "house": "27",
      "postcode": "3080-213",
      "city": "FIGUEIRA DA FOZ",
      "lon": "-8.88305991267167",
      "lat": "40.171570483054786"
    },
    {
      "id": "pt.ine.add.PTCONT.1300059",
      "street": "1 TRAVESSA DO SERRADINHO",
      "house": "9",
      "postcode": "3080-377",
      "city": "FIGUEIRA DA FOZ",
      "lon": "-8.884528760980219",
      "lat": "40.17169604613984"
    },
    {
      "id": "pt.ine.add.PTCONT.1302043",
      "street": "R D MARIA",
      "house": "28",
      "postcode": "3080-232",
      "city": "FIGUEIRA DA FOZ",
      "lon": "-8.884436679502002",
      "lat": "40.16973337908987"
    },
    {
      "id": "pt.ine.add.PTCONT.1303957",
      "street": "1 TRAVESSA DO SERRADINHO",
      "house": "5",
      "postcode": "3080-377",
      "city": "FIGUEIRA DA FOZ",
      "lon": "-8.88478801004402",
      "lat": "40.171784421245086"
    },
    {
      "id": "pt.ine.add.PTCONT.1307668",
      "street": "R FONTE NOVA",
      "house": "15",
      "postcode": "3080-213",
      "city": "FIGUEIRA DA FOZ",
      "lon": "-8.883157829961451",
      "lat": "40.17086739628228"
    },
    {
      "id": "pt.ine.add.PTCONT.1315821",
      "street": "TV D MARIA",
      "house": "4",
      "postcode": "3080-378",
      "city": "FIGUEIRA DA FOZ",
      "lon": "-8.884417472145008",
      "lat": "40.17012075323386"
    },
    {
      "id": "pt.ine.add.PTCONT.1315855",
      "street": "1 TRAVESSA DO SERRADINHO",
      "house": "3",
      "postcode": "3080-377",
      "city": "FIGUEIRA DA FOZ",
      "lon": "-8.884976329378173",
      "lat": "40.17182822742076"
    },
    {
      "id": "pt.ine.add.PTCONT.1317890",
      "street": "R D MARIA",
      "house": "48",
      "postcode": "3080-232",
      "city": "FIGUEIRA DA FOZ",
      "lon": "-8.88512188852155",
      "lat": "40.170125185752376"
    },
    {
      "id": "pt.ine.add.PTCONT.1317891",
      "street": "R D MARIA",
      "house": "48",
      "postcode": "3080-232",
      "city": "FIGUEIRA DA FOZ",
      "lon": "-8.88512188852155",
      "lat": "40.170125185752376"
    },
    {
      "id": "pt.ine.add.PTCONT.1319899",
      "street": "R FONTE NOVA",
      "house": "17",
      "postcode": "3080-213",
      "city": "FIGUEIRA DA FOZ",
      "lon": "-8.88308858695544",
      "lat": "40.17097591446137"
    },
    {
      "id": "pt.ine.add.PTCONT.1334308",
      "street": "R JORGE DE SEIA",
      "house": "1",
      "postcode": "3080-377",
      "city": "FIGUEIRA DA FOZ",
      "lon": "-8.88562555238831",
      "lat": "40.17108553388204"
    },
    {
      "id": "pt.ine.add.PTCONT.1340490",
      "street": "TV D MARIA",
      "house": "5",
      "postcode": "3080-378",
      "city": "FIGUEIRA DA FOZ",
      "lon": "-8.884229257165037",
      "lat": "40.170085951248005"
    },
    {
      "id": "pt.ine.add.PTCONT.1341349",
      "street": "R SERRADINHO",
      "house": "20",
      "postcode": "3080-377",
      "city": "FIGUEIRA DA FOZ",
      "lon": "-8.885141668111475",
      "lat": "40.17191721155913"
    },
    {
      "id": "pt.ine.add.PTCONT.1350542",
      "street": "R SERRADINHO",
      "house": "22",
      "postcode": "3080-377",
      "city": "FIGUEIRA DA FOZ",
      "lon": "-8.885154798654195",
      "lat": "40.172043207453115"
    },
    {
      "id": "pt.ine.add.PTCONT.1350543",
      "street": "R SERRADINHO",
      "house": "22",
      "postcode": "3080-377",
      "city": "FIGUEIRA DA FOZ",
      "lon": "-8.885154798654195",
      "lat": "40.172043207453115"
    },
    {
      "id": "pt.ine.add.PTCONT.1352757",
      "street": "R FONTE NOVA",
      "house": "19",
      "postcode": "3080-213",
      "city": "FIGUEIRA DA FOZ",
      "lon": "-8.88306610063653",
      "lat": "40.171066118132806"
    },
    {
      "id": "pt.ine.add.PTCONT.1352762",
      "street": "R FONTE NOVA",
      "house": "19",
      "postcode": "3080-213",
      "city": "FIGUEIRA DA FOZ",
      "lon": "-8.88306610063653",
      "lat": "40.171066118132806"
    },
    {
      "id": "pt.ine.add.PTCONT.1352763",
      "street": "R FONTE NOVA",
      "house": "23",
      "postcode": "3080-213",
      "city": "FIGUEIRA DA FOZ",
      "lon": "-8.883032866640884",
      "lat": "40.17124644942429"
    },
    {
      "id": "pt.ine.add.PTCONT.1352788",
      "street": "R JORGE DE SEIA",
      "house": "3",
      "postcode": "3080-377",
      "city": "FIGUEIRA DA FOZ",
      "lon": "-8.885565764507618",
      "lat": "40.17098685866901"
    },
    {
      "id": "pt.ine.add.PTCONT.1353677",
      "street": "R FONTE NOVA",
      "house": "23",
      "postcode": "3080-213",
      "city": "FIGUEIRA DA FOZ",
      "lon": "-8.883032866640884",
      "lat": "40.17124644942429"
    },
    {
      "id": "pt.ine.add.PTCONT.1360875",
      "street": "R JORGE DE SEIA",
      "house": "11",
      "postcode": "3080-377",
      "city": "FIGUEIRA DA FOZ",
      "lon": "-8.885775470574881",
      "lat": "40.170841402749296"
    },
    {
      "id": "pt.ine.add.PTCONT.1362558",
      "street": "R D MARIA",
      "house": "6D",
      "postcode": "3080-232",
      "city": "FIGUEIRA DA FOZ",
      "lon": "-8.884666665032938",
      "lat": "40.17036229253668"
    },
    {
      "id": "pt.ine.add.PTCONT.1366214",
      "street": "R D MARIA",
      "house": "6A",
      "postcode": "3080-232",
      "city": "FIGUEIRA DA FOZ",
      "lon": "-8.88509323223277",
      "lat": "40.170719754770744"
    },
    {
      "id": "pt.ine.add.PTCONT.1366491",
      "street": "R D MARIA",
      "house": "6E BL 5",
      "postcode": "3080-232",
      "city": "FIGUEIRA DA FOZ",
      "lon": "-8.884606382570366",
      "lat": "40.170218591012166"
    }
  ]
}