{
  "data": {
    "distrito": "Setúbal",
    "concelho": "Alcácer do Sal",
    "freguesia": "União das freguesias de Alcácer do Sal (Santa Maria do Castelo e Santiago) e Santa Susana",
    "OBJECTID": 510,
    "BGRI2021": "15010700625",
    "DT21": "15",
    "DTMN21": "1501",
    "DTMNFR21": "150107",
    "DTMNFRSEC21": "150107006",
    "SECNUM21": "006",
    "SSNUM21": "25",
    "SECSSNUM21": "00625",
    "OBJECTID_1": 160496,
    "DT": "15",
    "CC": "01",
    "fr": "07",
    "SEC": "006",
    "SS": "25"
  },
  "addresses": [
    {
      "id": "pt.ine.add.PTCONT.4665013",
      "street": "R MANUEL MARIA BARBOSA DU BOCAGE",
      "house": "2",
      "postcode": "7580-048",
      "city": "ALCÁCER DO SAL",
      "lon": "-8.516116480712228",
      "lat": "38.37408832661707"
    },
    {
      "id": "pt.ine.add.PTCONT.4681551",
      "street": "R PROF EGAS MONIZ",
      "house": "",
      "postcode": "7580-049",
      "city": "ALCÁCER DO SAL",
      "lon": "-8.516721270278222",
      "lat": "38.37376203704336"
    },
    {
      "id": "pt.ine.add.PTCONT.4725766",
      "street": "R BOM JESUS DOS MARTIRES",
      "house": "",
      "postcode": "7580-131",
      "city": "ALCÁCER DO SAL",
      "lon": "-8.516570461912524",
      "lat": "38.37337515743711"
    },
    {
      "id": "pt.ine.add.PTCONT.4733274",
      "street": "R BOM JESUS DOS MARTIRES",
      "house": "",
      "postcode": "7580-131",
      "city": "ALCÁCER DO SAL",
      "lon": "-8.51701618015005",
      "lat": "38.37326559466932"
    },
    {
      "id": "pt.ine.add.PTCONT.4744948",
      "street": "R BOM JESUS DOS MARTIRES",
      "house": "",
      "postcode": "7580-131",
      "city": "ALCÁCER DO SAL",
      "lon": "-8.516844768518618",
      "lat": "38.373311199209994"
    },
    {
      "id": "pt.ine.add.PTCONT.4755627",
      "street": "R ANTÓNIO SÉRGIO",
      "house": "",
      "postcode": "7580-056",
      "city": "ALCÁCER DO SAL",
      "lon": "-8.515943974808426",
      "lat": "38.37392673393565"
    },
    {
      "id": "pt.ine.add.PTCONT.4769405",
      "street": "R PROF EGAS MONIZ",
      "house": "25",
      "postcode": "7580-049",
      "city": "ALCÁCER DO SAL",
      "lon": "-8.516344399002072",
      "lat": "38.37390740835047"
    },
    {
      "id": "pt.ine.add.PTCONT.4781525",
      "street": "R PROF EGAS MONIZ",
      "house": "",
      "postcode": "7580-049",
      "city": "ALCÁCER DO SAL",
      "lon": "-8.516904126422421",
      "lat": "38.37371639522017"
    },
    {
      "id": "pt.ine.add.PTCONT.4790345",
      "street": "R BOM JESUS DOS MARTIRES",
      "house": "",
      "postcode": "7580-131",
      "city": "ALCÁCER DO SAL",
      "lon": "-8.516490453746576",
      "lat": "38.37339343644455"
    },
    {
      "id": "pt.ine.add.PTCONT.4795353",
      "street": "R BOM JESUS DOS MARTIRES",
      "house": "",
      "postcode": "7580-131",
      "city": "ALCÁCER DO SAL",
      "lon": "-8.517107774170707",
      "lat": "38.3732743033779"
    },
    {
      "id": "pt.ine.add.PTCONT.4804349",
      "street": "R PROF EGAS MONIZ",
      "house": "",
      "postcode": "7580-049",
      "city": "ALCÁCER DO SAL",
      "lon": "-8.517075634184582",
      "lat": "38.37368880762566"
    },
    {
      "id": "pt.ine.add.PTCONT.4804350",
      "street": "R PROF EGAS MONIZ",
      "house": "",
      "postcode": "7580-049",
      "city": "ALCÁCER DO SAL",
      "lon": "-8.517178529254346",
      "lat": "38.373670453245346"
    },
    {
      "id": "pt.ine.add.PTCONT.4810264",
      "street": "R MANUEL MARIA BARBOSA DU BOCAGE",
      "house": "",
      "postcode": "7580-048",
      "city": "ALCÁCER DO SAL",
      "lon": "-8.516025265600426",
      "lat": "38.374151685282065"
    },
    {
      "id": "pt.ine.add.PTCONT.4816237",
      "street": "R MANUEL MARIA BARBOSA DU BOCAGE",
      "house": "5",
      "postcode": "7580-048",
      "city": "ALCÁCER DO SAL",
      "lon": "-8.516172462975",
      "lat": "38.373853918216874"
    },
    {
      "id": "pt.ine.add.PTCONT.4879654",
      "street": "R BOM JESUS DOS MARTIRES",
      "house": "",
      "postcode": "7580-131",
      "city": "ALCÁCER DO SAL",
      "lon": "-8.516661960909603",
      "lat": "38.37336584945684"
    },
    {
      "id": "pt.ine.add.PTCONT.4882547",
      "street": "R PROF EGAS MONIZ",
      "house": "",
      "postcode": "7580-049",
      "city": "ALCÁCER DO SAL",
      "lon": "-8.516995578206341",
      "lat": "38.37369807846064"
    },
    {
      "id": "pt.ine.add.PTCONT.4950157",
      "street": "R ANTÓNIO SÉRGIO",
      "house": "",
      "postcode": "7580-056",
      "city": "ALCÁCER DO SAL",
      "lon": "-8.516058123986038",
      "lat": "38.37387230909559"
    },
    {
      "id": "pt.ine.add.PTCONT.4957906",
      "street": "R PROF EGAS MONIZ",
      "house": "29",
      "postcode": "7580-049",
      "city": "ALCÁCER DO SAL",
      "lon": "-8.516629961000158",
      "lat": "38.37380737914231"
    },
    {
      "id": "pt.ine.add.PTCONT.4990149",
      "street": "R PROF EGAS MONIZ",
      "house": "",
      "postcode": "7580-049",
      "city": "ALCÁCER DO SAL",
      "lon": "-8.5165156697422",
      "lat": "38.37383477898403"
    },
    {
      "id": "pt.ine.add.PTCONT.5048934",
      "street": "R ANTÓNIO SÉRGIO",
      "house": "",
      "postcode": "7580-056",
      "city": "ALCÁCER DO SAL",
      "lon": "-8.515886805234217",
      "lat": "38.373935929277806"
    },
    {
      "id": "pt.ine.add.PTCONT.5048941",
      "street": "R BOM JESUS DOS MARTIRES",
      "house": "",
      "postcode": "7580-131",
      "city": "ALCÁCER DO SAL",
      "lon": "-8.516741873870075",
      "lat": "38.3733295532963"
    },
    {
      "id": "pt.ine.add.PTCONT.5056294",
      "street": "R MANUEL MARIA BARBOSA DU BOCAGE",
      "house": "2",
      "postcode": "7580-048",
      "city": "ALCÁCER DO SAL",
      "lon": "-8.51593376552878",
      "lat": "38.37416099276976"
    },
    {
      "id": "pt.ine.add.PTCONT.5059956",
      "street": "R BOM JESUS DOS MARTIRES",
      "house": "",
      "postcode": "7580-131",
      "city": "ALCÁCER DO SAL",
      "lon": "-8.516936314987824",
      "lat": "38.37331089953419"
    },
    {
      "id": "pt.ine.add.PTCONT.5109595",
      "street": "R PROF EGAS MONIZ",
      "house": "",
      "postcode": "7580-049",
      "city": "ALCÁCER DO SAL",
      "lon": "-8.516812722166797",
      "lat": "38.37374372042605"
    },
    {
      "id": "pt.ine.add.PTCONT.5112266",
      "street": "R PROF EGAS MONIZ",
      "house": "",
      "postcode": "7580-049",
      "city": "ALCÁCER DO SAL",
      "lon": "-8.5164472470412",
      "lat": "38.373880046092374"
    }
  ]
}