{
  "data": {
    "distrito": "Setúbal",
    "concelho": "Alcácer do Sal",
    "freguesia": "União das freguesias de Alcácer do Sal (Santa Maria do Castelo e Santiago) e Santa Susana",
    "OBJECTID": 631,
    "BGRI2021": "15010700635",
    "DT21": "15",
    "DTMN21": "1501",
    "DTMNFR21": "150107",
    "DTMNFRSEC21": "150107006",
    "SECNUM21": "006",
    "SSNUM21": "35",
    "SECSSNUM21": "00635",
    "OBJECTID_1": 160013,
    "DT": "15",
    "CC": "01",
    "fr": "07",
    "SEC": "006",
    "SS": "35"
  },
  "addresses": [
    {
      "id": "pt.ine.add.PTCONT.4688762",
      "street": "R SALINEIRO",
      "house": "",
      "postcode": "7580-019",
      "city": "ALCÁCER DO SAL",
      "lon": "-8.51428865065738",
      "lat": "38.37468885611432"
    },
    {
      "id": "pt.ine.add.PTCONT.4696193",
      "street": "R D AFONSO HENRIQUES",
      "house": "",
      "postcode": "7580-057",
      "city": "ALCÁCER DO SAL",
      "lon": "-8.51465541128872",
      "lat": "38.374795767148804"
    },
    {
      "id": "pt.ine.add.PTCONT.4721586",
      "street": "R D AFONSO HENRIQUES",
      "house": "",
      "postcode": "7580-057",
      "city": "ALCÁCER DO SAL",
      "lon": "-8.514540928537736",
      "lat": "38.374787130999934"
    },
    {
      "id": "pt.ine.add.PTCONT.4825524",
      "street": "R MANUEL MARIA BARBOSA DU BOCAGE",
      "house": "",
      "postcode": "7580-048",
      "city": "ALCÁCER DO SAL",
      "lon": "-8.514792165918829",
      "lat": "38.37468721794099"
    },
    {
      "id": "pt.ine.add.PTCONT.4861382",
      "street": "R D AFONSO HENRIQUES",
      "house": "",
      "postcode": "7580-057",
      "city": "ALCÁCER DO SAL",
      "lon": "-8.513981044906153",
      "lat": "38.374951107332244"
    },
    {
      "id": "pt.ine.add.PTCONT.4864265",
      "street": "R SALINEIRO",
      "house": "",
      "postcode": "7580-019",
      "city": "ALCÁCER DO SAL",
      "lon": "-8.514208687714103",
      "lat": "38.37471614208974"
    },
    {
      "id": "pt.ine.add.PTCONT.4871577",
      "street": "R SALINEIRO",
      "house": "",
      "postcode": "7580-019",
      "city": "ALCÁCER DO SAL",
      "lon": "-8.51447117968641",
      "lat": "38.374580158442015"
    },
    {
      "id": "pt.ine.add.PTCONT.4882308",
      "street": "R SALINEIRO",
      "house": "",
      "postcode": "7580-019",
      "city": "ALCÁCER DO SAL",
      "lon": "-8.514379820690637",
      "lat": "38.374616490276175"
    },
    {
      "id": "pt.ine.add.PTCONT.4975626",
      "street": "R SALINEIRO",
      "house": "",
      "postcode": "7580-019",
      "city": "ALCÁCER DO SAL",
      "lon": "-8.513797664550872",
      "lat": "38.37489765090541"
    },
    {
      "id": "pt.ine.add.PTCONT.4981985",
      "street": "R SALINEIRO",
      "house": "41",
      "postcode": "7580-019",
      "city": "ALCÁCER DO SAL",
      "lon": "-8.513888976979592",
      "lat": "38.37485231100443"
    },
    {
      "id": "pt.ine.add.PTCONT.5019438",
      "street": "R SALINEIRO",
      "house": "",
      "postcode": "7580-019",
      "city": "ALCÁCER DO SAL",
      "lon": "-8.514117375657422",
      "lat": "38.37476148223884"
    },
    {
      "id": "pt.ine.add.PTCONT.5019439",
      "street": "R SALINEIRO",
      "house": "",
      "postcode": "7580-019",
      "city": "ALCÁCER DO SAL",
      "lon": "-8.514117375657422",
      "lat": "38.37476148223884"
    },
    {
      "id": "pt.ine.add.PTCONT.5023173",
      "street": "R SALINEIRO",
      "house": "72",
      "postcode": "7580-019",
      "city": "ALCÁCER DO SAL",
      "lon": "-8.514014478248887",
      "lat": "38.37477983394116"
    },
    {
      "id": "pt.ine.add.PTCONT.5041429",
      "street": "R D AFONSO HENRIQUES",
      "house": "",
      "postcode": "7580-057",
      "city": "ALCÁCER DO SAL",
      "lon": "-8.514380860741515",
      "lat": "38.374814677684554"
    },
    {
      "id": "pt.ine.add.PTCONT.5041430",
      "street": "R SALINEIRO",
      "house": "",
      "postcode": "7580-019",
      "city": "ALCÁCER DO SAL",
      "lon": "-8.514003459761197",
      "lat": "38.37486094778972"
    },
    {
      "id": "pt.ine.add.PTCONT.5052657",
      "street": "R SALINEIRO",
      "house": "",
      "postcode": "7580-019",
      "city": "ALCÁCER DO SAL",
      "lon": "-8.514642737745913",
      "lat": "38.37456158291385"
    },
    {
      "id": "pt.ine.add.PTCONT.5098848",
      "street": "R SALINEIRO",
      "house": "6",
      "postcode": "7580-019",
      "city": "ALCÁCER DO SAL",
      "lon": "-8.513729191952965",
      "lat": "38.37493390791437"
    },
    {
      "id": "pt.ine.add.PTCONT.5120940",
      "street": "R MANUEL MARIA BARBOSA DU BOCAGE",
      "house": "",
      "postcode": "7580-048",
      "city": "ALCÁCER DO SAL",
      "lon": "-8.514791550681904",
      "lat": "38.37457010720357"
    },
    {
      "id": "pt.ine.add.PTCONT.5124930",
      "street": "R SALINEIRO",
      "house": "",
      "postcode": "7580-019",
      "city": "ALCÁCER DO SAL",
      "lon": "-8.51428865065738",
      "lat": "38.37468885611432"
    }
  ]
}