{
  "data": {
    "distrito": "Lisboa",
    "concelho": "Cascais",
    "freguesia": "Alcabideche",
    "OBJECTID": 1829,
    "BGRI2021": "11050101603",
    "DT21": "11",
    "DTMN21": "1105",
    "DTMNFR21": "110501",
    "DTMNFRSEC21": "110501016",
    "SECNUM21": "016",
    "SSNUM21": "03",
    "SECSSNUM21": "01603",
    "OBJECTID_1": 100825,
    "DT": "11",
    "CC": "05",
    "fr": "01",
    "SEC": "016",
    "SS": "03"
  },
  "addresses": [
    {
      "id": "pt.ine.add.PTCONT.2923373",
      "street": "R CAPELA DAS NEVES",
      "house": "93",
      "postcode": "2645-520",
      "city": "ALCABIDECHE",
      "lon": "-9.372843177005523",
      "lat": "38.73237825903931"
    },
    {
      "id": "pt.ine.add.PTCONT.2923374",
      "street": "TV NEVES",
      "house": "167",
      "postcode": "2645-484",
      "city": "ALCABIDECHE",
      "lon": "-9.372939963374783",
      "lat": "38.73198990122249"
    },
    {
      "id": "pt.ine.add.PTCONT.2926402",
      "street": "ESTR NEVES",
      "house": "455",
      "postcode": "2645-353",
      "city": "ALCABIDECHE",
      "lon": "-9.372684406785758",
      "lat": "38.733172620724034"
    },
    {
      "id": "pt.ine.add.PTCONT.2942647",
      "street": "ESTR NEVES",
      "house": "74",
      "postcode": "2645-353",
      "city": "ALCABIDECHE",
      "lon": "-9.37327810051273",
      "lat": "38.732923115406585"
    },
    {
      "id": "pt.ine.add.PTCONT.2963445",
      "street": "R CAPELA DAS NEVES",
      "house": "",
      "postcode": "2645-520",
      "city": "ALCABIDECHE",
      "lon": "-9.372597673482971",
      "lat": "38.732146662235515"
    },
    {
      "id": "pt.ine.add.PTCONT.2963448",
      "street": "R NSA SRA DO ROSÁRIO",
      "house": "526",
      "postcode": "2645-417",
      "city": "ALCABIDECHE",
      "lon": "-9.37733570000609",
      "lat": "38.73015966957349"
    },
    {
      "id": "pt.ine.add.PTCONT.2971188",
      "street": "R RAMOS",
      "house": "17",
      "postcode": "2645-488",
      "city": "ALCABIDECHE",
      "lon": "-9.377228691938425",
      "lat": "38.73062020140964"
    },
    {
      "id": "pt.ine.add.PTCONT.2971041",
      "street": "R RAMOS",
      "house": "17",
      "postcode": "2645-488",
      "city": "ALCABIDECHE",
      "lon": "-9.377228691938425",
      "lat": "38.73062020140964"
    },
    {
      "id": "pt.ine.add.PTCONT.2971042",
      "street": "R RAMOS",
      "house": "17",
      "postcode": "2645-488",
      "city": "ALCABIDECHE",
      "lon": "-9.377228691938425",
      "lat": "38.73062020140964"
    },
    {
      "id": "pt.ine.add.PTCONT.2999757",
      "street": "R CAMPOS VELHOS",
      "house": "720",
      "postcode": "2645-412",
      "city": "ALCABIDECHE",
      "lon": "-9.378081861163624",
      "lat": "38.730746233379634"
    },
    {
      "id": "pt.ine.add.PTCONT.3015632",
      "street": "R NEVES",
      "house": "95",
      "postcode": "2645-483",
      "city": "ALCABIDECHE",
      "lon": "-9.374979876416168",
      "lat": "38.731580915611"
    },
    {
      "id": "pt.ine.add.PTCONT.3018083",
      "street": "R RAMOS",
      "house": "53",
      "postcode": "2645-488",
      "city": "ALCABIDECHE",
      "lon": "-9.37646803095125",
      "lat": "38.73118677241374"
    },
    {
      "id": "pt.ine.add.PTCONT.3025209",
      "street": "R CAMPOS VELHOS",
      "house": "714",
      "postcode": "2645-412",
      "city": "ALCABIDECHE",
      "lon": "-9.376453254456825",
      "lat": "38.730997767820895"
    },
    {
      "id": "pt.ine.add.PTCONT.3027356",
      "street": "R NSA SRA DO ROSÁRIO",
      "house": "492",
      "postcode": "2645-417",
      "city": "ALCABIDECHE",
      "lon": "-9.376784754398859",
      "lat": "38.730219578810065"
    },
    {
      "id": "pt.ine.add.PTCONT.3027361",
      "street": "PCT NSA SRA DAS NEVES",
      "house": "",
      "postcode": "2645-553",
      "city": "ALCABIDECHE",
      "lon": "-9.37411103101549",
      "lat": "38.731878389552975"
    },
    {
      "id": "pt.ine.add.PTCONT.3036327",
      "street": "PCT NSA SRA DAS NEVES",
      "house": "",
      "postcode": "2645-553",
      "city": "ALCABIDECHE",
      "lon": "-9.374229714464212",
      "lat": "38.731426744276675"
    },
    {
      "id": "pt.ine.add.PTCONT.3043296",
      "street": "R CAMPOS VELHOS",
      "house": "714",
      "postcode": "2645-412",
      "city": "ALCABIDECHE",
      "lon": "-9.376969088524266",
      "lat": "38.73090220293321"
    },
    {
      "id": "pt.ine.add.PTCONT.3045173",
      "street": "ESTR NEVES",
      "house": "795",
      "postcode": "2645-353",
      "city": "ALCABIDECHE",
      "lon": "-9.376155460483321",
      "lat": "38.73173055889501"
    },
    {
      "id": "pt.ine.add.PTCONT.3045176",
      "street": "R NSA SRA DO ROSÁRIO",
      "house": "326",
      "postcode": "2645-417",
      "city": "ALCABIDECHE",
      "lon": "-9.375030928424588",
      "lat": "38.730544487234496"
    },
    {
      "id": "pt.ine.add.PTCONT.3045186",
      "street": "R NEVES",
      "house": "149",
      "postcode": "2645-483",
      "city": "ALCABIDECHE",
      "lon": "-9.375628697111944",
      "lat": "38.731195697175636"
    },
    {
      "id": "pt.ine.add.PTCONT.3053201",
      "street": "R NEVES",
      "house": "13",
      "postcode": "2645-483",
      "city": "ALCABIDECHE",
      "lon": "-9.374829198826722",
      "lat": "38.732177024728145"
    },
    {
      "id": "pt.ine.add.PTCONT.3053202",
      "street": "R NEVES",
      "house": "13",
      "postcode": "2645-483",
      "city": "ALCABIDECHE",
      "lon": "-9.374829198826722",
      "lat": "38.732177024728145"
    },
    {
      "id": "pt.ine.add.PTCONT.3054905",
      "street": "ESTR NEVES",
      "house": "477",
      "postcode": "2645-353",
      "city": "ALCABIDECHE",
      "lon": "-9.372981176319554",
      "lat": "38.73304336540941"
    },
    {
      "id": "pt.ine.add.PTCONT.3074129",
      "street": "R CAPELA DAS NEVES",
      "house": "",
      "postcode": "2645-520",
      "city": "ALCABIDECHE",
      "lon": "-9.372761290429434",
      "lat": "38.732298058148224"
    },
    {
      "id": "pt.ine.add.PTCONT.3074137",
      "street": "PCT NSA SRA DAS NEVES",
      "house": "",
      "postcode": "2645-553",
      "city": "ALCABIDECHE",
      "lon": "-9.37456860616656",
      "lat": "38.731738415200596"
    },
    {
      "id": "pt.ine.add.PTCONT.3083820",
      "street": "ESTR NEVES",
      "house": "779",
      "postcode": "2645-353",
      "city": "ALCABIDECHE",
      "lon": "-9.375996051920778",
      "lat": "38.731822330978986"
    },
    {
      "id": "pt.ine.add.PTCONT.3091659",
      "street": "R RAMOS",
      "house": "",
      "postcode": "2645-488",
      "city": "ALCABIDECHE",
      "lon": "-9.375372783181572",
      "lat": "38.731027270773275"
    },
    {
      "id": "pt.ine.add.PTCONT.3091660",
      "street": "R RAMOS",
      "house": "",
      "postcode": "2645-488",
      "city": "ALCABIDECHE",
      "lon": "-9.375372783181572",
      "lat": "38.731027270773275"
    },
    {
      "id": "pt.ine.add.PTCONT.3091661",
      "street": "R RAMOS",
      "house": "",
      "postcode": "2645-488",
      "city": "ALCABIDECHE",
      "lon": "-9.375372783181572",
      "lat": "38.731027270773275"
    },
    {
      "id": "pt.ine.add.PTCONT.3091846",
      "street": "R RAMOS",
      "house": "",
      "postcode": "2645-488",
      "city": "ALCABIDECHE",
      "lon": "-9.375372783181572",
      "lat": "38.731027270773275"
    },
    {
      "id": "pt.ine.add.PTCONT.3092937",
      "street": "R NSA SRA DO ROSÁRIO",
      "house": "432",
      "postcode": "2645-417",
      "city": "ALCABIDECHE",
      "lon": "-9.375855636146788",
      "lat": "38.730355568217774"
    },
    {
      "id": "pt.ine.add.PTCONT.3092940",
      "street": "R RAMOS",
      "house": "61",
      "postcode": "2645-488",
      "city": "ALCABIDECHE",
      "lon": "-9.376492431630522",
      "lat": "38.7312675821936"
    },
    {
      "id": "pt.ine.add.PTCONT.3103860",
      "street": "R CAMPOS VELHOS M",
      "house": "714",
      "postcode": "2645-412",
      "city": "ALCABIDECHE",
      "lon": "-9.377735525206624",
      "lat": "38.73066885219806"
    },
    {
      "id": "pt.ine.add.PTCONT.3111030",
      "street": "R RAMOS",
      "house": "71",
      "postcode": "2645-488",
      "city": "ALCABIDECHE",
      "lon": "-9.376539515572777",
      "lat": "38.73133013527362"
    },
    {
      "id": "pt.ine.add.PTCONT.3129672",
      "street": "R CAPELA DAS NEVES",
      "house": "",
      "postcode": "2645-520",
      "city": "ALCABIDECHE",
      "lon": "-9.372504289568731",
      "lat": "38.73206658307171"
    },
    {
      "id": "pt.ine.add.PTCONT.3155813",
      "street": "R CAMPOS VELHOS",
      "house": "714",
      "postcode": "2645-412",
      "city": "ALCABIDECHE",
      "lon": "-9.377334045459603",
      "lat": "38.73072717250022"
    },
    {
      "id": "pt.ine.add.PTCONT.3168155",
      "street": "R NSA SRA DO ROSÁRIO",
      "house": "338",
      "postcode": "2645-417",
      "city": "ALCABIDECHE",
      "lon": "-9.375203236813897",
      "lat": "38.730533648731104"
    },
    {
      "id": "pt.ine.add.PTCONT.3168156",
      "street": "R PLATANO",
      "house": "79",
      "postcode": "2645-420",
      "city": "ALCABIDECHE",
      "lon": "-9.377568061346414",
      "lat": "38.73095888164339"
    },
    {
      "id": "pt.ine.add.PTCONT.3213198",
      "street": "R CAMPOS VELHOS CASAL MINHO",
      "house": "1",
      "postcode": "2645-412",
      "city": "ALCABIDECHE",
      "lon": "-9.377926920786267",
      "lat": "38.730432613874996"
    },
    {
      "id": "pt.ine.add.PTCONT.3219881",
      "street": "R CAPELA DAS NEVES",
      "house": "117",
      "postcode": "2645-520",
      "city": "ALCABIDECHE",
      "lon": "-9.373030102325963",
      "lat": "38.73254742276376"
    },
    {
      "id": "pt.ine.add.PTCONT.3220443",
      "street": "R CAMPOS VELHOS",
      "house": "714",
      "postcode": "2645-412",
      "city": "ALCABIDECHE",
      "lon": "-9.37686482854819",
      "lat": "38.730858273801964"
    },
    {
      "id": "pt.ine.add.PTCONT.3257409",
      "street": "ESTR NEVES",
      "house": "",
      "postcode": "2645-353",
      "city": "ALCABIDECHE",
      "lon": "-9.375734566796087",
      "lat": "38.73199625733986"
    },
    {
      "id": "pt.ine.add.PTCONT.3257410",
      "street": "ESTR NEVES",
      "house": "",
      "postcode": "2645-353",
      "city": "ALCABIDECHE",
      "lon": "-9.375734566796087",
      "lat": "38.73199625733986"
    },
    {
      "id": "pt.ine.add.PTCONT.3257411",
      "street": "ESTR NEVES",
      "house": "",
      "postcode": "2645-353",
      "city": "ALCABIDECHE",
      "lon": "-9.375734566796087",
      "lat": "38.73199625733986"
    },
    {
      "id": "pt.ine.add.PTCONT.3260407",
      "street": "PCT NSA SRA DAS NEVES",
      "house": "",
      "postcode": "2645-553",
      "city": "ALCABIDECHE",
      "lon": "-9.374131844876608",
      "lat": "38.73175206072496"
    },
    {
      "id": "pt.ine.add.PTCONT.3277836",
      "street": "R RAMOS",
      "house": "41",
      "postcode": "2645-488",
      "city": "ALCABIDECHE",
      "lon": "-9.375740397477744",
      "lat": "38.73100534802011"
    },
    {
      "id": "pt.ine.add.PTCONT.3277830",
      "street": "PCT NSA SRA DAS NEVES",
      "house": "",
      "postcode": "2645-553",
      "city": "ALCABIDECHE",
      "lon": "-9.374068935576304",
      "lat": "38.73210402904655"
    },
    {
      "id": "pt.ine.add.PTCONT.3277831",
      "street": "R NEVES",
      "house": "83",
      "postcode": "2645-483",
      "city": "ALCABIDECHE",
      "lon": "-9.374981279965192",
      "lat": "38.73166197003068"
    },
    {
      "id": "pt.ine.add.PTCONT.3277832",
      "street": "R RAMOS",
      "house": "100",
      "postcode": "2645-488",
      "city": "ALCABIDECHE",
      "lon": "-9.3763386448267",
      "lat": "38.73168357223755"
    },
    {
      "id": "pt.ine.add.PTCONT.3277833",
      "street": "R RAMOS",
      "house": "41",
      "postcode": "2645-488",
      "city": "ALCABIDECHE",
      "lon": "-9.375740397477744",
      "lat": "38.73100534802011"
    },
    {
      "id": "pt.ine.add.PTCONT.3277834",
      "street": "R RAMOS",
      "house": "41",
      "postcode": "2645-488",
      "city": "ALCABIDECHE",
      "lon": "-9.375740397477744",
      "lat": "38.73100534802011"
    },
    {
      "id": "pt.ine.add.PTCONT.3277835",
      "street": "R RAMOS",
      "house": "41",
      "postcode": "2645-488",
      "city": "ALCABIDECHE",
      "lon": "-9.375740397477744",
      "lat": "38.73100534802011"
    },
    {
      "id": "pt.ine.add.PTCONT.3286735",
      "street": "ESTR NEVES",
      "house": "",
      "postcode": "2645-353",
      "city": "ALCABIDECHE",
      "lon": "-9.374442011880951",
      "lat": "38.732397321963596"
    },
    {
      "id": "pt.ine.add.PTCONT.3286734",
      "street": "ESTR NEVES",
      "house": "",
      "postcode": "2645-353",
      "city": "ALCABIDECHE",
      "lon": "-9.374442011880951",
      "lat": "38.732397321963596"
    },
    {
      "id": "pt.ine.add.PTCONT.3286744",
      "street": "R PLATANO",
      "house": "742",
      "postcode": "2645-420",
      "city": "ALCABIDECHE",
      "lon": "-9.37812941514267",
      "lat": "38.730835803918744"
    },
    {
      "id": "pt.ine.add.PTCONT.3299302",
      "street": "R CAPELA DAS NEVES",
      "house": "35",
      "postcode": "2645-520",
      "city": "ALCABIDECHE",
      "lon": "-9.372433901597645",
      "lat": "38.73198626002378"
    },
    {
      "id": "pt.ine.add.PTCONT.3303193",
      "street": "R CAMPOS VELHOS",
      "house": "714",
      "postcode": "2645-412",
      "city": "ALCABIDECHE",
      "lon": "-9.377528880335422",
      "lat": "38.7306890676817"
    },
    {
      "id": "pt.ine.add.PTCONT.3312636",
      "street": "R CAMPOS VELHOS",
      "house": "714",
      "postcode": "2645-412",
      "city": "ALCABIDECHE",
      "lon": "-9.376647309794732",
      "lat": "38.73091463424249"
    },
    {
      "id": "pt.ine.add.PTCONT.3314700",
      "street": "R NSA SRA DO ROSÁRIO",
      "house": "362",
      "postcode": "2645-417",
      "city": "ALCABIDECHE",
      "lon": "-9.375270662744308",
      "lat": "38.73044285520391"
    },
    {
      "id": "pt.ine.add.PTCONT.3324438",
      "street": "ESTR NEVES",
      "house": "955",
      "postcode": "2645-353",
      "city": "ALCABIDECHE",
      "lon": "-9.377904151365083",
      "lat": "38.73110843403654"
    },
    {
      "id": "pt.ine.add.PTCONT.3351242",
      "street": "PCT NSA SRA DAS NEVES",
      "house": "",
      "postcode": "2645-553",
      "city": "ALCABIDECHE",
      "lon": "-9.374426616849881",
      "lat": "38.73217229287796"
    },
    {
      "id": "pt.ine.add.PTCONT.3379307",
      "street": "R S GABRIEL",
      "house": "286",
      "postcode": "2645-364",
      "city": "ALCABIDECHE",
      "lon": "-9.373822462597282",
      "lat": "38.73115182875779"
    },
    {
      "id": "pt.ine.add.PTCONT.3379308",
      "street": "R S GABRIEL",
      "house": "286",
      "postcode": "2645-364",
      "city": "ALCABIDECHE",
      "lon": "-9.373822462597282",
      "lat": "38.73115182875779"
    },
    {
      "id": "pt.ine.add.PTCONT.3394739",
      "street": "R CAMPOS VELHOS CASAL MINHO",
      "house": "2",
      "postcode": "2645-412",
      "city": "ALCABIDECHE",
      "lon": "-9.377766735928937",
      "lat": "38.730479358115296"
    },
    {
      "id": "pt.ine.add.PTCONT.3394740",
      "street": "PCT NSA SRA DAS NEVES",
      "house": "",
      "postcode": "2645-553",
      "city": "ALCABIDECHE",
      "lon": "-9.374757208502547",
      "lat": "38.731340073027106"
    },
    {
      "id": "pt.ine.add.PTCONT.3405319",
      "street": "R DAS NEVES",
      "house": "",
      "postcode": "2645-483",
      "city": "ALCABIDECHE",
      "lon": "-9.375700541360334",
      "lat": "38.7320236421503"
    },
    {
      "id": "pt.ine.add.PTCONT.3405320",
      "street": "R DAS NEVES",
      "house": "",
      "postcode": "2645-483",
      "city": "ALCABIDECHE",
      "lon": "-9.375700541360334",
      "lat": "38.7320236421503"
    },
    {
      "id": "pt.ine.add.PTCONT.3405321",
      "street": "R DAS NEVES",
      "house": "",
      "postcode": "2645-483",
      "city": "ALCABIDECHE",
      "lon": "-9.375700541360334",
      "lat": "38.7320236421503"
    },
    {
      "id": "pt.ine.add.PTCONT.3412446",
      "street": "R S GABRIEL",
      "house": "188",
      "postcode": "2645-364",
      "city": "ALCABIDECHE",
      "lon": "-9.372993248746871",
      "lat": "38.73174612800958"
    },
    {
      "id": "pt.ine.add.PTCONT.3415501",
      "street": "R NSA SRA DO ROSÁRIO",
      "house": "540",
      "postcode": "2645-417",
      "city": "ALCABIDECHE",
      "lon": "-9.377530533347255",
      "lat": "38.73012156477423"
    },
    {
      "id": "pt.ine.add.PTCONT.3431507",
      "street": "ESTR NEVES",
      "house": "74",
      "postcode": "2645-353",
      "city": "ALCABIDECHE",
      "lon": "-9.373079364192494",
      "lat": "38.73273606198225"
    },
    {
      "id": "pt.ine.add.PTCONT.3433718",
      "street": "R PAIA",
      "house": "179",
      "postcode": "2645-485",
      "city": "ALCABIDECHE",
      "lon": "-9.372624892891285",
      "lat": "38.733056151686185"
    },
    {
      "id": "pt.ine.add.PTCONT.3439643",
      "street": "R CAMPOS VELHOS",
      "house": "658",
      "postcode": "2645-412",
      "city": "ALCABIDECHE",
      "lon": "-9.3776595067978",
      "lat": "38.73026431494126"
    },
    {
      "id": "pt.ine.add.PTCONT.3452885",
      "street": "R NEVES",
      "house": "8",
      "postcode": "2645-483",
      "city": "ALCABIDECHE",
      "lon": "-9.375124668673939",
      "lat": "38.73130914613493"
    },
    {
      "id": "pt.ine.add.PTCONT.2304790",
      "street": "R RAMOS",
      "house": "50",
      "postcode": "2645-488",
      "city": "ALCABIDECHE",
      "lon": "-9.376112382006434",
      "lat": "38.73123559333402"
    },
    {
      "id": "pt.ine.add.PTCONT.2312447",
      "street": "R PAIA",
      "house": "179",
      "postcode": "2645-485",
      "city": "ALCABIDECHE",
      "lon": "-9.372624892891285",
      "lat": "38.733056151686185"
    },
    {
      "id": "pt.ine.add.PTCONT.2313822",
      "street": "R RAMOS",
      "house": "80",
      "postcode": "2645-488",
      "city": "ALCABIDECHE",
      "lon": "-9.376243696350276",
      "lat": "38.731513435691724"
    },
    {
      "id": "pt.ine.add.PTCONT.2322700",
      "street": "R CAMPOS VELHOS CASAL MINHO",
      "house": "4",
      "postcode": "2645-412",
      "city": "ALCABIDECHE",
      "lon": "-9.37750354114299",
      "lat": "38.730554221888866"
    },
    {
      "id": "pt.ine.add.PTCONT.2322701",
      "street": "R PLATANO",
      "house": "47",
      "postcode": "2645-420",
      "city": "ALCABIDECHE",
      "lon": "-9.377156800558385",
      "lat": "38.73111639020316"
    },
    {
      "id": "pt.ine.add.PTCONT.2322702",
      "street": "R PLATANO",
      "house": "47",
      "postcode": "2645-420",
      "city": "ALCABIDECHE",
      "lon": "-9.377156800558385",
      "lat": "38.73111639020316"
    },
    {
      "id": "pt.ine.add.PTCONT.2331887",
      "street": "R CAMPOS VELHOS CASAL MINHO",
      "house": "3",
      "postcode": "2645-412",
      "city": "ALCABIDECHE",
      "lon": "-9.377629389801998",
      "lat": "38.73051685128064"
    },
    {
      "id": "pt.ine.add.PTCONT.2350275",
      "street": "R RAMOS",
      "house": "42",
      "postcode": "2645-488",
      "city": "ALCABIDECHE",
      "lon": "-9.37605348861141",
      "lat": "38.731155150244454"
    },
    {
      "id": "pt.ine.add.PTCONT.2383703",
      "street": "R S GABRIEL",
      "house": "190",
      "postcode": "2645-364",
      "city": "ALCABIDECHE",
      "lon": "-9.373119413395933",
      "lat": "38.73172677429743"
    },
    {
      "id": "pt.ine.add.PTCONT.2393225",
      "street": "PCT NSA SRA DAS NEVES",
      "house": "",
      "postcode": "2645-553",
      "city": "ALCABIDECHE",
      "lon": "-9.374800860632323",
      "lat": "38.73120449377967"
    },
    {
      "id": "pt.ine.add.PTCONT.2396016",
      "street": "R NSA SRA DO ROSÁRIO",
      "house": "650",
      "postcode": "2645-417",
      "city": "ALCABIDECHE",
      "lon": "-9.377725679045131",
      "lat": "38.73010147173256"
    },
    {
      "id": "pt.ine.add.PTCONT.2396018",
      "street": "PCT NSA SRA DAS NEVES",
      "house": "",
      "postcode": "2645-553",
      "city": "ALCABIDECHE",
      "lon": "-9.374271964914465",
      "lat": "38.731210110764245"
    },
    {
      "id": "pt.ine.add.PTCONT.2412265",
      "street": "R CAMPOS VELHOS",
      "house": "714",
      "postcode": "2645-412",
      "city": "ALCABIDECHE",
      "lon": "-9.376567919072453",
      "lat": "38.73097853271681"
    },
    {
      "id": "pt.ine.add.PTCONT.2414437",
      "street": "ESTR NEVES",
      "house": "61",
      "postcode": "2645-353",
      "city": "ALCABIDECHE",
      "lon": "-9.37279969871276",
      "lat": "38.73318941345686"
    },
    {
      "id": "pt.ine.add.PTCONT.2414447",
      "street": "TV NEVES",
      "house": "149",
      "postcode": "2645-484",
      "city": "ALCABIDECHE",
      "lon": "-9.373058056242343",
      "lat": "38.73216880268163"
    },
    {
      "id": "pt.ine.add.PTCONT.2414452",
      "street": "PCT NSA SRA DAS NEVES",
      "house": "",
      "postcode": "2645-553",
      "city": "ALCABIDECHE",
      "lon": "-9.374622353530963",
      "lat": "38.73152165947385"
    },
    {
      "id": "pt.ine.add.PTCONT.2414453",
      "street": "PCT NSA SRA DAS NEVES",
      "house": "",
      "postcode": "2645-553",
      "city": "ALCABIDECHE",
      "lon": "-9.374492018678604",
      "lat": "38.73196442116215"
    },
    {
      "id": "pt.ine.add.PTCONT.2423727",
      "street": "R RAMOS",
      "house": "103",
      "postcode": "2645-488",
      "city": "ALCABIDECHE",
      "lon": "-9.376589254162706",
      "lat": "38.731545791035956"
    },
    {
      "id": "pt.ine.add.PTCONT.2423728",
      "street": "ESTR NEVES",
      "house": "465",
      "postcode": "2645-353",
      "city": "ALCABIDECHE",
      "lon": "-9.372843978353503",
      "lat": "38.733089859109384"
    },
    {
      "id": "pt.ine.add.PTCONT.2477348",
      "street": "TV NEVES",
      "house": "24",
      "postcode": "2645-484",
      "city": "ALCABIDECHE",
      "lon": "-9.372761623905559",
      "lat": "38.73298264008562"
    },
    {
      "id": "pt.ine.add.PTCONT.2477349",
      "street": "TV NEVES",
      "house": "16",
      "postcode": "2645-484",
      "city": "ALCABIDECHE",
      "lon": "-9.372761623905559",
      "lat": "38.73298264008562"
    },
    {
      "id": "pt.ine.add.PTCONT.2477352",
      "street": "PCT NSA SRA DAS NEVES",
      "house": "",
      "postcode": "2645-553",
      "city": "ALCABIDECHE",
      "lon": "-9.374613350203493",
      "lat": "38.73166587835781"
    },
    {
      "id": "pt.ine.add.PTCONT.2492822",
      "street": "R RAMOS",
      "house": "1",
      "postcode": "2645-488",
      "city": "ALCABIDECHE",
      "lon": "-9.37621721267898",
      "lat": "38.73064897781993"
    },
    {
      "id": "pt.ine.add.PTCONT.2499143",
      "street": "R RAMOS",
      "house": "90",
      "postcode": "2645-488",
      "city": "ALCABIDECHE",
      "lon": "-9.376279750799426",
      "lat": "38.73160312927834"
    },
    {
      "id": "pt.ine.add.PTCONT.2505237",
      "street": "R NSA SRA DO ROSÁRIO",
      "house": "298",
      "postcode": "2645-417",
      "city": "ALCABIDECHE",
      "lon": "-9.374825062641948",
      "lat": "38.73060972818722"
    },
    {
      "id": "pt.ine.add.PTCONT.2505238",
      "street": "R NSA SRA DO ROSÁRIO",
      "house": "298",
      "postcode": "2645-417",
      "city": "ALCABIDECHE",
      "lon": "-9.374825062641948",
      "lat": "38.73060972818722"
    },
    {
      "id": "pt.ine.add.PTCONT.2513890",
      "street": "R NEVES",
      "house": "103",
      "postcode": "2645-483",
      "city": "ALCABIDECHE",
      "lon": "-9.375000844621793",
      "lat": "38.73146359269558"
    },
    {
      "id": "pt.ine.add.PTCONT.2532073",
      "street": "PCT NSA SRA DAS NEVES",
      "house": "",
      "postcode": "2645-553",
      "city": "ALCABIDECHE",
      "lon": "-9.374196935511826",
      "lat": "38.73152617705278"
    },
    {
      "id": "pt.ine.add.PTCONT.2541170",
      "street": "R NEVES",
      "house": "1",
      "postcode": "2645-483",
      "city": "ALCABIDECHE",
      "lon": "-9.375124668673939",
      "lat": "38.73130914613493"
    },
    {
      "id": "pt.ine.add.PTCONT.2541171",
      "street": "R NEVES",
      "house": "2",
      "postcode": "2645-483",
      "city": "ALCABIDECHE",
      "lon": "-9.375124668673939",
      "lat": "38.73130914613493"
    },
    {
      "id": "pt.ine.add.PTCONT.2541172",
      "street": "R NEVES",
      "house": "3",
      "postcode": "2645-483",
      "city": "ALCABIDECHE",
      "lon": "-9.375124668673939",
      "lat": "38.73130914613493"
    },
    {
      "id": "pt.ine.add.PTCONT.2541173",
      "street": "R NEVES",
      "house": "5",
      "postcode": "2645-483",
      "city": "ALCABIDECHE",
      "lon": "-9.375124668673939",
      "lat": "38.73130914613493"
    },
    {
      "id": "pt.ine.add.PTCONT.2541174",
      "street": "R NEVES",
      "house": "6",
      "postcode": "2645-483",
      "city": "ALCABIDECHE",
      "lon": "-9.375124668673939",
      "lat": "38.73130914613493"
    },
    {
      "id": "pt.ine.add.PTCONT.2541175",
      "street": "R NEVES CASA AZUL",
      "house": "",
      "postcode": "2645-483",
      "city": "ALCABIDECHE",
      "lon": "-9.375124668673939",
      "lat": "38.73130914613493"
    },
    {
      "id": "pt.ine.add.PTCONT.2556556",
      "street": "ESTR NEVES",
      "house": "451",
      "postcode": "2645-353",
      "city": "ALCABIDECHE",
      "lon": "-9.372719990677258",
      "lat": "38.733235297288076"
    },
    {
      "id": "pt.ine.add.PTCONT.2561863",
      "street": "R RAMOS",
      "house": "70",
      "postcode": "2645-488",
      "city": "ALCABIDECHE",
      "lon": "-9.376207954199899",
      "lat": "38.73144175417663"
    },
    {
      "id": "pt.ine.add.PTCONT.2592947",
      "street": "R RAMOS",
      "house": "17",
      "postcode": "2645-488",
      "city": "ALCABIDECHE",
      "lon": "-9.376438634182167",
      "lat": "38.7308177692618"
    },
    {
      "id": "pt.ine.add.PTCONT.2592948",
      "street": "R RAMOS",
      "house": "17",
      "postcode": "2645-488",
      "city": "ALCABIDECHE",
      "lon": "-9.376438634182167",
      "lat": "38.7308177692618"
    },
    {
      "id": "pt.ine.add.PTCONT.2596690",
      "street": "R NSA SRA DO ROSÁRIO",
      "house": "202",
      "postcode": "2645-417",
      "city": "ALCABIDECHE",
      "lon": "-9.373921052947884",
      "lat": "38.730927691138746"
    },
    {
      "id": "pt.ine.add.PTCONT.2609362",
      "street": "PCT NSA SRA DAS NEVES",
      "house": "",
      "postcode": "2645-553",
      "city": "ALCABIDECHE",
      "lon": "-9.374036311950094",
      "lat": "38.73221246782405"
    },
    {
      "id": "pt.ine.add.PTCONT.2612450",
      "street": "ESTR NEVES",
      "house": "771",
      "postcode": "2645-353",
      "city": "ALCABIDECHE",
      "lon": "-9.375904849652526",
      "lat": "38.73186833918671"
    },
    {
      "id": "pt.ine.add.PTCONT.2612451",
      "street": "R CAPELA DAS NEVES",
      "house": "105",
      "postcode": "2645-520",
      "city": "ALCABIDECHE",
      "lon": "-9.372948059646669",
      "lat": "38.73245821596028"
    },
    {
      "id": "pt.ine.add.PTCONT.2622393",
      "street": "TV NEVES",
      "house": "",
      "postcode": "2645-484",
      "city": "ALCABIDECHE",
      "lon": "-9.37326922325368",
      "lat": "38.73240977050858"
    },
    {
      "id": "pt.ine.add.PTCONT.2630950",
      "street": "ESTR NEVES",
      "house": "41 801 8",
      "postcode": "2645-353",
      "city": "ALCABIDECHE",
      "lon": "-9.373208022289054",
      "lat": "38.732860804966016"
    },
    {
      "id": "pt.ine.add.PTCONT.2630951",
      "street": "R CAPELA DAS NEVES",
      "house": "",
      "postcode": "2645-520",
      "city": "ALCABIDECHE",
      "lon": "-9.372679404037386",
      "lat": "38.73221785719562"
    },
    {
      "id": "pt.ine.add.PTCONT.2641223",
      "street": "R NSA SRA DO ROSÁRIO",
      "house": "394",
      "postcode": "2645-417",
      "city": "ALCABIDECHE",
      "lon": "-9.375455872476504",
      "lat": "38.730512948576546"
    },
    {
      "id": "pt.ine.add.PTCONT.2641224",
      "street": "R PLATANO",
      "house": "13",
      "postcode": "2645-420",
      "city": "ALCABIDECHE",
      "lon": "-9.376858953434374",
      "lat": "38.7311826136191"
    },
    {
      "id": "pt.ine.add.PTCONT.2656032",
      "street": "R CAMPOS VELHOS",
      "house": "714",
      "postcode": "2645-412",
      "city": "ALCABIDECHE",
      "lon": "-9.377037137339869",
      "lat": "38.73084743258758"
    },
    {
      "id": "pt.ine.add.PTCONT.2674903",
      "street": "ESTR NEVES",
      "house": "789",
      "postcode": "2645-353",
      "city": "ALCABIDECHE",
      "lon": "-9.376038921549382",
      "lat": "38.73164172109908"
    },
    {
      "id": "pt.ine.add.PTCONT.2686676",
      "street": "TV NEVES",
      "house": "",
      "postcode": "2645-484",
      "city": "ALCABIDECHE",
      "lon": "-9.372874268763812",
      "lat": "38.73284632986691"
    },
    {
      "id": "pt.ine.add.PTCONT.2686677",
      "street": "PCT NSA SRA DAS NEVES",
      "house": "",
      "postcode": "2645-553",
      "city": "ALCABIDECHE",
      "lon": "-9.373657816057497",
      "lat": "38.73227053154989"
    },
    {
      "id": "pt.ine.add.PTCONT.2686678",
      "street": "PCT NSA SRA DAS NEVES",
      "house": "",
      "postcode": "2645-553",
      "city": "ALCABIDECHE",
      "lon": "-9.37464394593447",
      "lat": "38.731440360804335"
    },
    {
      "id": "pt.ine.add.PTCONT.2686679",
      "street": "R RAMOS",
      "house": "28",
      "postcode": "2645-488",
      "city": "ALCABIDECHE",
      "lon": "-9.376017434683765",
      "lat": "38.731065456572885"
    },
    {
      "id": "pt.ine.add.PTCONT.2690516",
      "street": "R CAMPOS VELHOS",
      "house": "714",
      "postcode": "2645-412",
      "city": "ALCABIDECHE",
      "lon": "-9.376717076674987",
      "lat": "38.73095893053978"
    },
    {
      "id": "pt.ine.add.PTCONT.2691343",
      "street": "R CAMPOS VELHOS N",
      "house": "714",
      "postcode": "2645-412",
      "city": "ALCABIDECHE",
      "lon": "-9.377815070831769",
      "lat": "38.73061395898879"
    },
    {
      "id": "pt.ine.add.PTCONT.2691344",
      "street": "R CAMPOS VELHOS N",
      "house": "714",
      "postcode": "2645-412",
      "city": "ALCABIDECHE",
      "lon": "-9.377815070831769",
      "lat": "38.73061395898879"
    },
    {
      "id": "pt.ine.add.PTCONT.2698444",
      "street": "TV NEVES",
      "house": "159",
      "postcode": "2645-484",
      "city": "ALCABIDECHE",
      "lon": "-9.372987667556519",
      "lat": "38.732088479980476"
    },
    {
      "id": "pt.ine.add.PTCONT.2701895",
      "street": "PCT NSA SRA DAS NEVES",
      "house": "",
      "postcode": "2645-553",
      "city": "ALCABIDECHE",
      "lon": "-9.374471049513692",
      "lat": "38.732081743992644"
    },
    {
      "id": "pt.ine.add.PTCONT.2710251",
      "street": "TV NEVES",
      "house": "127",
      "postcode": "2645-484",
      "city": "ALCABIDECHE",
      "lon": "-9.373210176278063",
      "lat": "38.73232031991375"
    },
    {
      "id": "pt.ine.add.PTCONT.2710257",
      "street": "R RAMOS",
      "house": "",
      "postcode": "2645-488",
      "city": "ALCABIDECHE",
      "lon": "-9.375556590361638",
      "lat": "38.73101630954077"
    },
    {
      "id": "pt.ine.add.PTCONT.2710258",
      "street": "R RAMOS",
      "house": "",
      "postcode": "2645-488",
      "city": "ALCABIDECHE",
      "lon": "-9.375556590361638",
      "lat": "38.73101630954077"
    },
    {
      "id": "pt.ine.add.PTCONT.2710259",
      "street": "R RAMOS",
      "house": "",
      "postcode": "2645-488",
      "city": "ALCABIDECHE",
      "lon": "-9.375556590361638",
      "lat": "38.73101630954077"
    },
    {
      "id": "pt.ine.add.PTCONT.2710260",
      "street": "R RAMOS",
      "house": "",
      "postcode": "2645-488",
      "city": "ALCABIDECHE",
      "lon": "-9.375556590361638",
      "lat": "38.73101630954077"
    },
    {
      "id": "pt.ine.add.PTCONT.2719159",
      "street": "R NSA SRA DO ROSÁRIO",
      "house": "8",
      "postcode": "2645-417",
      "city": "ALCABIDECHE",
      "lon": "-9.373842965184402",
      "lat": "38.73100748785799"
    },
    {
      "id": "pt.ine.add.PTCONT.2719163",
      "street": "PCT NSA SRA DAS NEVES",
      "house": "",
      "postcode": "2645-553",
      "city": "ALCABIDECHE",
      "lon": "-9.374239030256865",
      "lat": "38.73130053750355"
    },
    {
      "id": "pt.ine.add.PTCONT.2719164",
      "street": "PCT NSA SRA DAS NEVES",
      "house": "",
      "postcode": "2645-553",
      "city": "ALCABIDECHE",
      "lon": "-9.374164000624633",
      "lat": "38.73161660377009"
    },
    {
      "id": "pt.ine.add.PTCONT.2733811",
      "street": "R NSA SRA DO ROSÁRIO",
      "house": "420",
      "postcode": "2645-417",
      "city": "ALCABIDECHE",
      "lon": "-9.37560346923978",
      "lat": "38.730403287365085"
    },
    {
      "id": "pt.ine.add.PTCONT.2746594",
      "street": "ESTR NEVES",
      "house": "",
      "postcode": "2645-353",
      "city": "ALCABIDECHE",
      "lon": "-9.377629925564651",
      "lat": "38.731210438675376"
    },
    {
      "id": "pt.ine.add.PTCONT.2782508",
      "street": "R S GABRIEL",
      "house": "41",
      "postcode": "2645-364",
      "city": "ALCABIDECHE",
      "lon": "-9.373836141577673",
      "lat": "38.731277791435595"
    },
    {
      "id": "pt.ine.add.PTCONT.2782509",
      "street": "R RAMOS",
      "house": "2",
      "postcode": "2645-488",
      "city": "ALCABIDECHE",
      "lon": "-9.376664839657375",
      "lat": "38.730599178132906"
    },
    {
      "id": "pt.ine.add.PTCONT.2788415",
      "street": "PCT NSA SRA DAS NEVES",
      "house": "",
      "postcode": "2645-553",
      "city": "ALCABIDECHE",
      "lon": "-9.374536451137441",
      "lat": "38.73187387225229"
    },
    {
      "id": "pt.ine.add.PTCONT.2806304",
      "street": "R CAMPOS VELHOS",
      "house": "714",
      "postcode": "2645-412",
      "city": "ALCABIDECHE",
      "lon": "-9.377449021894378",
      "lat": "38.73072594862141"
    },
    {
      "id": "pt.ine.add.PTCONT.2817666",
      "street": "R S GABRIEL",
      "house": "140",
      "postcode": "2645-364",
      "city": "ALCABIDECHE",
      "lon": "-9.372511740756591",
      "lat": "38.73183230374232"
    },
    {
      "id": "pt.ine.add.PTCONT.2817674",
      "street": "R PLATANO",
      "house": "71",
      "postcode": "2645-420",
      "city": "ALCABIDECHE",
      "lon": "-9.377350699122157",
      "lat": "38.73102424942706"
    },
    {
      "id": "pt.ine.add.PTCONT.2817681",
      "street": "TV NEVES",
      "house": "139",
      "postcode": "2645-484",
      "city": "ALCABIDECHE",
      "lon": "-9.373139942993241",
      "lat": "38.732249003363485"
    },
    {
      "id": "pt.ine.add.PTCONT.2817683",
      "street": "R RAMOS",
      "house": "60",
      "postcode": "2645-488",
      "city": "ALCABIDECHE",
      "lon": "-9.37616024608095",
      "lat": "38.73134317678864"
    },
    {
      "id": "pt.ine.add.PTCONT.2831198",
      "street": "R NEVES",
      "house": "163",
      "postcode": "2645-483",
      "city": "ALCABIDECHE",
      "lon": "-9.375875299341889",
      "lat": "38.73149032984802"
    },
    {
      "id": "pt.ine.add.PTCONT.2831199",
      "street": "R NEVES",
      "house": "163",
      "postcode": "2645-483",
      "city": "ALCABIDECHE",
      "lon": "-9.375875299341889",
      "lat": "38.73149032984802"
    },
    {
      "id": "pt.ine.add.PTCONT.2832963",
      "street": "R NEVES",
      "house": "163",
      "postcode": "2645-483",
      "city": "ALCABIDECHE",
      "lon": "-9.375875299341889",
      "lat": "38.73149032984802"
    },
    {
      "id": "pt.ine.add.PTCONT.2835640",
      "street": "R PLATANO",
      "house": "121",
      "postcode": "2645-420",
      "city": "ALCABIDECHE",
      "lon": "-9.377762584123031",
      "lat": "38.730902764351434"
    },
    {
      "id": "pt.ine.add.PTCONT.2835645",
      "street": "R RAMOS FRT CASARAO",
      "house": "",
      "postcode": "2645-488",
      "city": "ALCABIDECHE",
      "lon": "-9.374634123955907",
      "lat": "38.73087297974797"
    },
    {
      "id": "pt.ine.add.PTCONT.2842740",
      "street": "ESTR NEVES",
      "house": "74",
      "postcode": "2645-353",
      "city": "ALCABIDECHE",
      "lon": "-9.373126601916976",
      "lat": "38.73280762250632"
    },
    {
      "id": "pt.ine.add.PTCONT.2850557",
      "street": "R NSA SRA ROSARIO",
      "house": "460",
      "postcode": "2645-417",
      "city": "ALCABIDECHE",
      "lon": "-9.376257115161238",
      "lat": "38.73029725300495"
    },
    {
      "id": "pt.ine.add.PTCONT.2850558",
      "street": "R NSA SRA ROSARIO",
      "house": "460",
      "postcode": "2645-417",
      "city": "ALCABIDECHE",
      "lon": "-9.376257115161238",
      "lat": "38.73029725300495"
    },
    {
      "id": "pt.ine.add.PTCONT.2856461",
      "street": "R CAMPOS VELHOS ESPIRIDIAO",
      "house": "674",
      "postcode": "2645-412",
      "city": "ALCABIDECHE",
      "lon": "-9.377856528482907",
      "lat": "38.730352294144986"
    },
    {
      "id": "pt.ine.add.PTCONT.2860840",
      "street": "R NSA SRA DO ROSÁRIO",
      "house": "478",
      "postcode": "2645-417",
      "city": "ALCABIDECHE",
      "lon": "-9.376612759359203",
      "lat": "38.73024843171546"
    },
    {
      "id": "pt.ine.add.PTCONT.2862834",
      "street": "ESTR NEVES",
      "house": "471",
      "postcode": "2645-353",
      "city": "ALCABIDECHE",
      "lon": "-9.372947927838613",
      "lat": "38.73311577969559"
    },
    {
      "id": "pt.ine.add.PTCONT.2869974",
      "street": "R CAMPOS VELHOS",
      "house": "714",
      "postcode": "2645-412",
      "city": "ALCABIDECHE",
      "lon": "-9.377665914282295",
      "lat": "38.73063356255128"
    },
    {
      "id": "pt.ine.add.PTCONT.2873737",
      "street": "R CAMPOS VELHOS",
      "house": "658",
      "postcode": "2645-412",
      "city": "ALCABIDECHE",
      "lon": "-9.3776595067978",
      "lat": "38.73026431494126"
    },
    {
      "id": "pt.ine.add.PTCONT.2873933",
      "street": "R CAMPOS VELHOS",
      "house": "656",
      "postcode": "2645-412",
      "city": "ALCABIDECHE",
      "lon": "-9.3776595067978",
      "lat": "38.73026431494126"
    },
    {
      "id": "pt.ine.add.PTCONT.2873934",
      "street": "R CAMPOS VELHOS",
      "house": "658",
      "postcode": "2645-412",
      "city": "ALCABIDECHE",
      "lon": "-9.3776595067978",
      "lat": "38.73026431494126"
    },
    {
      "id": "pt.ine.add.PTCONT.2873935",
      "street": "R CAMPOS VELHOS",
      "house": "658",
      "postcode": "2645-412",
      "city": "ALCABIDECHE",
      "lon": "-9.3776595067978",
      "lat": "38.73026431494126"
    },
    {
      "id": "pt.ine.add.PTCONT.2873936",
      "street": "R CAMPOS VELHOS",
      "house": "658",
      "postcode": "2645-412",
      "city": "ALCABIDECHE",
      "lon": "-9.3776595067978",
      "lat": "38.73026431494126"
    },
    {
      "id": "pt.ine.add.PTCONT.2887105",
      "street": "PCT NSA SRA DAS NEVES",
      "house": "",
      "postcode": "2645-553",
      "city": "ALCABIDECHE",
      "lon": "-9.37406675384954",
      "lat": "38.73197794435918"
    },
    {
      "id": "pt.ine.add.PTCONT.2891166",
      "street": "R NEVES",
      "house": "143",
      "postcode": "2645-483",
      "city": "ALCABIDECHE",
      "lon": "-9.375490880402063",
      "lat": "38.73120616972881"
    }
  ]
}