{
  "data": {
    "distrito": "Lisboa",
    "concelho": "Alenquer",
    "freguesia": "União das freguesias de Alenquer (Santo Estêvão e Triana)",
    "OBJECTID": 491,
    "BGRI2021": "11011900807",
    "DT21": "11",
    "DTMN21": "1101",
    "DTMNFR21": "110119",
    "DTMNFRSEC21": "110119008",
    "SECNUM21": "008",
    "SSNUM21": "07",
    "SECSSNUM21": "00807",
    "OBJECTID_1": 99107,
    "DT": "11",
    "CC": "01",
    "fr": "19",
    "SEC": "008",
    "SS": "07"
  },
  "addresses": [
    {
      "id": "pt.ine.add.PTCONT.2277800",
      "street": "R MARIA DA FONTE",
      "house": "10",
      "postcode": "2580-376",
      "city": "ALENQUER",
      "lon": "-8.981339694830808",
      "lat": "39.05873775653486"
    },
    {
      "id": "pt.ine.add.PTCONT.2331825",
      "street": "URB QUINTA REQUEIJADA",
      "house": "",
      "postcode": "2580-654",
      "city": "ALENQUER",
      "lon": "-8.991568940464234",
      "lat": "39.05626692221114"
    },
    {
      "id": "pt.ine.add.PTCONT.2331826",
      "street": "URB QUINTA REQUEIJADA",
      "house": "",
      "postcode": "2580-654",
      "city": "ALENQUER",
      "lon": "-8.991568940464234",
      "lat": "39.05626692221114"
    },
    {
      "id": "pt.ine.add.PTCONT.2371069",
      "street": "QTA BARACHO",
      "house": "",
      "postcode": "2580-568",
      "city": "ALENQUER",
      "lon": "-8.989882575491455",
      "lat": "39.05151437766354"
    },
    {
      "id": "pt.ine.add.PTCONT.2414366",
      "street": "QTA GAIA",
      "house": "8",
      "postcode": "2580-386",
      "city": "",
      "lon": "-8.990997022673913",
      "lat": "39.05578472819264"
    },
    {
      "id": "pt.ine.add.PTCONT.2465467",
      "street": "QTA COVANCO",
      "house": "",
      "postcode": "2580-376",
      "city": "ALENQUER",
      "lon": "-8.992764077661045",
      "lat": "39.05097974791725"
    },
    {
      "id": "pt.ine.add.PTCONT.2499235",
      "street": "URB QUINTA DA REQUEIJADA",
      "house": "7",
      "postcode": "2580-654",
      "city": "ALENQUER",
      "lon": "-8.993757963847317",
      "lat": "39.05577339282616"
    },
    {
      "id": "pt.ine.add.PTCONT.2505150",
      "street": "ESTR BEMPOSTA QTA DA BEMPOSTA",
      "house": "",
      "postcode": "2580-376",
      "city": "ALENQUER",
      "lon": "-8.96614188166097",
      "lat": "39.05630720330619"
    },
    {
      "id": "pt.ine.add.PTCONT.2522953",
      "street": "R 1 DE MAIO",
      "house": "",
      "postcode": "2580-376",
      "city": "ALENQUER",
      "lon": "-8.980792409434265",
      "lat": "39.05934523551611"
    },
    {
      "id": "pt.ine.add.PTCONT.2556622",
      "street": "QTA COVANCO",
      "house": "",
      "postcode": "2580-376",
      "city": "ALENQUER",
      "lon": "-8.992498845533541",
      "lat": "39.051017732526866"
    },
    {
      "id": "pt.ine.add.PTCONT.2594596",
      "street": "URB QUINTA DA REQUEIJADA",
      "house": "",
      "postcode": "2580-654",
      "city": "ALENQUER",
      "lon": "-8.992952738523146",
      "lat": "39.05605856363598"
    },
    {
      "id": "pt.ine.add.PTCONT.2609482",
      "street": "R MARIA DA FONTE",
      "house": "24",
      "postcode": "2580-376",
      "city": "ALENQUER",
      "lon": "-8.981046019452785",
      "lat": "39.05929835449556"
    },
    {
      "id": "pt.ine.add.PTCONT.2609483",
      "street": "R MARIA DA FONTE",
      "house": "24",
      "postcode": "2580-376",
      "city": "ALENQUER",
      "lon": "-8.981046019452785",
      "lat": "39.05929835449556"
    },
    {
      "id": "pt.ine.add.PTCONT.2612534",
      "street": "URB QUINTA DA REQUEIJADA",
      "house": "2",
      "postcode": "2580-654",
      "city": "ALENQUER",
      "lon": "-8.994385642200742",
      "lat": "39.055138237093836"
    },
    {
      "id": "pt.ine.add.PTCONT.2622909",
      "street": "R MARIA DA FONTE",
      "house": "6",
      "postcode": "2580-376",
      "city": "ALENQUER",
      "lon": "-8.981396485386183",
      "lat": "39.05865627634552"
    },
    {
      "id": "pt.ine.add.PTCONT.2622910",
      "street": "R MARIA DA FONTE",
      "house": "6",
      "postcode": "2580-376",
      "city": "ALENQUER",
      "lon": "-8.981396485386183",
      "lat": "39.05865627634552"
    },
    {
      "id": "pt.ine.add.PTCONT.2686338",
      "street": "R MARIA DA FONTE",
      "house": "",
      "postcode": "2580-376",
      "city": "ALENQUER",
      "lon": "-8.981485560698438",
      "lat": "39.058376397224876"
    },
    {
      "id": "pt.ine.add.PTCONT.2764291",
      "street": "QTA GAIA",
      "house": "1",
      "postcode": "2580-386",
      "city": "",
      "lon": "-8.99066780030419",
      "lat": "39.05626454471681"
    },
    {
      "id": "pt.ine.add.PTCONT.2776151",
      "street": "R 1 DE MAIO",
      "house": "25",
      "postcode": "2580-376",
      "city": "ALENQUER",
      "lon": "-8.980908362453635",
      "lat": "39.05938042242823"
    },
    {
      "id": "pt.ine.add.PTCONT.2817598",
      "street": "QTA LAGAR NOVO",
      "house": "",
      "postcode": "2580-648",
      "city": "ALENQUER",
      "lon": "-8.985557550447204",
      "lat": "39.05113172764224"
    },
    {
      "id": "pt.ine.add.PTCONT.2856107",
      "street": "R 1 DE MAIO",
      "house": "15",
      "postcode": "2580-376",
      "city": "ALENQUER",
      "lon": "-8.980398449917544",
      "lat": "39.059249016492956"
    },
    {
      "id": "pt.ine.add.PTCONT.2890418",
      "street": "URB QUINTA DA REQUEIJADA",
      "house": "",
      "postcode": "2580-654",
      "city": "ALENQUER",
      "lon": "-8.992400224649444",
      "lat": "39.05622477020852"
    },
    {
      "id": "pt.ine.add.PTCONT.2908414",
      "street": "R 1 DE MAIO",
      "house": "1",
      "postcode": "2580-376",
      "city": "ALENQUER",
      "lon": "-8.979713320330823",
      "lat": "39.0589567462459"
    },
    {
      "id": "pt.ine.add.PTCONT.2908415",
      "street": "R MARIA DA FONTE",
      "house": "16",
      "postcode": "2580-376",
      "city": "ALENQUER",
      "lon": "-8.98119404301613",
      "lat": "39.05911712900067"
    },
    {
      "id": "pt.ine.add.PTCONT.2999636",
      "street": "R 1 DE MAIO",
      "house": "",
      "postcode": "2580-376",
      "city": "ALENQUER",
      "lon": "-8.980989551180649",
      "lat": "39.0594068545316"
    },
    {
      "id": "pt.ine.add.PTCONT.3024672",
      "street": "R 1 DE MAIO",
      "house": "",
      "postcode": "2580-376",
      "city": "ALENQUER",
      "lon": "-8.980282389718678",
      "lat": "39.05920482239387"
    },
    {
      "id": "pt.ine.add.PTCONT.3036267",
      "street": "URB QUINTA DA REQUEIJADA",
      "house": "4",
      "postcode": "2580-654",
      "city": "ALENQUER",
      "lon": "-8.994088694219688",
      "lat": "39.055419660863855"
    },
    {
      "id": "pt.ine.add.PTCONT.3054811",
      "street": "R MARIA FONTE",
      "house": "3",
      "postcode": "2580-376",
      "city": "ALENQUER",
      "lon": "-8.981070201265224",
      "lat": "39.059388253218565"
    },
    {
      "id": "pt.ine.add.PTCONT.3054832",
      "street": "URB QUINTA DA REQUEIJADA",
      "house": "1",
      "postcode": "2580-654",
      "city": "ALENQUER",
      "lon": "-8.9933800399585",
      "lat": "39.05604640489533"
    },
    {
      "id": "pt.ine.add.PTCONT.3067714",
      "street": "QTA GAIA",
      "house": "7",
      "postcode": "2580-386",
      "city": "",
      "lon": "-8.99088205150152",
      "lat": "39.055830611170606"
    },
    {
      "id": "pt.ine.add.PTCONT.3074026",
      "street": "R 1 DE MAIO",
      "house": "3",
      "postcode": "2580-376",
      "city": "ALENQUER",
      "lon": "-8.979980633871428",
      "lat": "39.059089917186625"
    },
    {
      "id": "pt.ine.add.PTCONT.3101592",
      "street": "URB QUINTA DA REQUEIJADA",
      "house": "8A",
      "postcode": "2580-654",
      "city": "ALENQUER",
      "lon": "-8.993643650473981",
      "lat": "39.05587331839281"
    },
    {
      "id": "pt.ine.add.PTCONT.3261007",
      "street": "QTA LAGAR NOVO",
      "house": "",
      "postcode": "2580-648",
      "city": "ALENQUER",
      "lon": "-8.987243382773563",
      "lat": "39.05202914700816"
    },
    {
      "id": "pt.ine.add.PTCONT.3268421",
      "street": "R MARIA DA FONTE",
      "house": "12",
      "postcode": "2580-376",
      "city": "ALENQUER",
      "lon": "-8.981249971942528",
      "lat": "39.058963595505965"
    },
    {
      "id": "pt.ine.add.PTCONT.3298910",
      "street": "R MARIA DA FONTE",
      "house": "22",
      "postcode": "2580-376",
      "city": "ALENQUER",
      "lon": "-8.981172123939778",
      "lat": "39.05921637041272"
    },
    {
      "id": "pt.ine.add.PTCONT.3333274",
      "street": "R MARIA DA FONTE",
      "house": "4",
      "postcode": "2580-376",
      "city": "ALENQUER",
      "lon": "-8.981441508156689",
      "lat": "39.058556866819785"
    },
    {
      "id": "pt.ine.add.PTCONT.3351179",
      "street": "URB QUINTA DA REQUEIJADA",
      "house": "5",
      "postcode": "2580-654",
      "city": "ALENQUER",
      "lon": "-8.993986480262361",
      "lat": "39.05556453471505"
    },
    {
      "id": "pt.ine.add.PTCONT.3363199",
      "street": "R 1 DE MAIO",
      "house": "9",
      "postcode": "2580-376",
      "city": "ALENQUER",
      "lon": "-8.98013145786406",
      "lat": "39.059142866552264"
    },
    {
      "id": "pt.ine.add.PTCONT.3363200",
      "street": "R 1 MAIO",
      "house": "7",
      "postcode": "2580-376",
      "city": "ALENQUER",
      "lon": "-8.98013145786406",
      "lat": "39.059142866552264"
    },
    {
      "id": "pt.ine.add.PTCONT.3369645",
      "street": "URB QUINTA DA REQUEIJADA",
      "house": "8B",
      "postcode": "2580-654",
      "city": "ALENQUER",
      "lon": "-8.993528899539593",
      "lat": "39.05593721725773"
    },
    {
      "id": "pt.ine.add.PTCONT.3371696",
      "street": "R 1 DE MAIO",
      "house": "",
      "postcode": "2580-376",
      "city": "ALENQUER",
      "lon": "-8.980595483384771",
      "lat": "39.05930162950915"
    },
    {
      "id": "pt.ine.add.PTCONT.3393969",
      "street": "URB QUINTA PÓ CERRADO",
      "house": "4",
      "postcode": "2580-376",
      "city": "ALENQUER",
      "lon": "-8.981460193088754",
      "lat": "39.058187425174516"
    },
    {
      "id": "pt.ine.add.PTCONT.3393970",
      "street": "R MARIA DA FONTE",
      "house": "10A",
      "postcode": "2580-376",
      "city": "ALENQUER",
      "lon": "-8.981271783074016",
      "lat": "39.05885534740487"
    },
    {
      "id": "pt.ine.add.PTCONT.3415398",
      "street": "R MARIA DA FONTE",
      "house": "",
      "postcode": "2580-376",
      "city": "ALENQUER",
      "lon": "-8.981904238533673",
      "lat": "39.05860754453701"
    },
    {
      "id": "pt.ine.add.PTCONT.3455523",
      "street": "URB QUINTA DA REQUEIJADA",
      "house": "6",
      "postcode": "2580-654",
      "city": "ALENQUER",
      "lon": "-8.99387249560367",
      "lat": "39.055691480444416"
    }
  ]
}