{
  "data": {
    "distrito": "Setúbal",
    "concelho": "Setúbal",
    "freguesia": "Gâmbia-Pontes-Alto da Guerra",
    "OBJECTID": 635,
    "BGRI2021": "15120700115",
    "DT21": "15",
    "DTMN21": "1512",
    "DTMNFR21": "151207",
    "DTMNFRSEC21": "151207001",
    "SECNUM21": "001",
    "SSNUM21": "15",
    "SECSSNUM21": "00115",
    "OBJECTID_1": 170963,
    "DT": "15",
    "CC": "12",
    "fr": "07",
    "SEC": "001",
    "SS": "15"
  },
  "addresses": [
    {
      "id": "pt.ine.add.PTCONT.4685250",
      "street": "R VALE ANA GOMES",
      "house": "",
      "postcode": "2910-199",
      "city": "SETÚBAL",
      "lon": "-8.853054609428636",
      "lat": "38.54521293736468"
    },
    {
      "id": "pt.ine.add.PTCONT.4704948",
      "street": "R VALE ANA GOMES",
      "house": "",
      "postcode": "2910-199",
      "city": "SETÚBAL",
      "lon": "-8.854649098018424",
      "lat": "38.545221137808745"
    },
    {
      "id": "pt.ine.add.PTCONT.4704950",
      "street": "R CRAVOS",
      "house": "",
      "postcode": "2910-220",
      "city": "SETÚBAL",
      "lon": "-8.852643669611602",
      "lat": "38.545413646202675"
    },
    {
      "id": "pt.ine.add.PTCONT.4716441",
      "street": "R ROSAS",
      "house": "",
      "postcode": "2910-250",
      "city": "SETÚBAL",
      "lon": "-8.851470247482277",
      "lat": "38.54622259039208"
    },
    {
      "id": "pt.ine.add.PTCONT.4728205",
      "street": "R VALE ANA GOMES",
      "house": "",
      "postcode": "2910-199",
      "city": "SETÚBAL",
      "lon": "-8.853515110877897",
      "lat": "38.54538126221018"
    },
    {
      "id": "pt.ine.add.PTCONT.4734463",
      "street": "R VALE ANA GOMES",
      "house": "",
      "postcode": "2910-199",
      "city": "SETÚBAL",
      "lon": "-8.853744238655201",
      "lat": "38.54535282718125"
    },
    {
      "id": "pt.ine.add.PTCONT.4757348",
      "street": "R ORQUIDEAS",
      "house": "",
      "postcode": "2910-256",
      "city": "SETÚBAL",
      "lon": "-8.850152269176611",
      "lat": "38.546338769624576"
    },
    {
      "id": "pt.ine.add.PTCONT.4771743",
      "street": "R VALE ANA GOMES",
      "house": "",
      "postcode": "2910-199",
      "city": "SETÚBAL",
      "lon": "-8.853353903681295",
      "lat": "38.545319196013565"
    },
    {
      "id": "pt.ine.add.PTCONT.4785568",
      "street": "R CRAVOS",
      "house": "",
      "postcode": "2910-220",
      "city": "SETÚBAL",
      "lon": "-8.852171969184694",
      "lat": "38.54527241159337"
    },
    {
      "id": "pt.ine.add.PTCONT.4788944",
      "street": "R ROSAS",
      "house": "35",
      "postcode": "2910-250",
      "city": "SETÚBAL",
      "lon": "-8.852280042635066",
      "lat": "38.54575819568533"
    },
    {
      "id": "pt.ine.add.PTCONT.4789109",
      "street": "R VALE ANA GOMES",
      "house": "",
      "postcode": "2910-199",
      "city": "SETÚBAL",
      "lon": "-8.852030743461874",
      "lat": "38.54491294708413"
    },
    {
      "id": "pt.ine.add.PTCONT.4793886",
      "street": "R VALE ANA GOMES",
      "house": "",
      "postcode": "2910-199",
      "city": "SETÚBAL",
      "lon": "-8.851688980022935",
      "lat": "38.54514926095348"
    },
    {
      "id": "pt.ine.add.PTCONT.4807091",
      "street": "R CRAVOS",
      "house": "",
      "postcode": "2910-220",
      "city": "SETÚBAL",
      "lon": "-8.852333175285851",
      "lat": "38.545334479428924"
    },
    {
      "id": "pt.ine.add.PTCONT.4824565",
      "street": "R VALE ANA GOMES",
      "house": "",
      "postcode": "2910-199",
      "city": "SETÚBAL",
      "lon": "-8.852329855555045",
      "lat": "38.54500119289386"
    },
    {
      "id": "pt.ine.add.PTCONT.4830543",
      "street": "R CRAVOS",
      "house": "",
      "postcode": "2910-220",
      "city": "SETÚBAL",
      "lon": "-8.852965903907881",
      "lat": "38.54551976484763"
    },
    {
      "id": "pt.ine.add.PTCONT.4837189",
      "street": "R ROSAS",
      "house": "",
      "postcode": "2910-250",
      "city": "SETÚBAL",
      "lon": "-8.850556047496234",
      "lat": "38.546570511537766"
    },
    {
      "id": "pt.ine.add.PTCONT.4845961",
      "street": "R VALE ANA GOMES",
      "house": "",
      "postcode": "2910-199",
      "city": "SETÚBAL",
      "lon": "-8.852180299418356",
      "lat": "38.54495707008558"
    },
    {
      "id": "pt.ine.add.PTCONT.4862494",
      "street": "R VALE ANA GOMES",
      "house": "",
      "postcode": "2910-199",
      "city": "SETÚBAL",
      "lon": "-8.851846957616866",
      "lat": "38.54488705063026"
    },
    {
      "id": "pt.ine.add.PTCONT.4929397",
      "street": "R VALE ANA GOMES",
      "house": "",
      "postcode": "2910-199",
      "city": "SETÚBAL",
      "lon": "-8.854751426385612",
      "lat": "38.54513042416038"
    },
    {
      "id": "pt.ine.add.PTCONT.4941907",
      "street": "R ROSAS",
      "house": "42",
      "postcode": "2910-250",
      "city": "SETÚBAL",
      "lon": "-8.851105804669773",
      "lat": "38.54648606657581"
    },
    {
      "id": "pt.ine.add.PTCONT.4947962",
      "street": "R VALE ANA GOMES",
      "house": "",
      "postcode": "2910-199",
      "city": "SETÚBAL",
      "lon": "-8.854020055103756",
      "lat": "38.545405178865984"
    },
    {
      "id": "pt.ine.add.PTCONT.4956411",
      "street": "R VALE ANA GOMES",
      "house": "",
      "postcode": "2910-199",
      "city": "SETÚBAL",
      "lon": "-8.852928261497642",
      "lat": "38.545195697681265"
    },
    {
      "id": "pt.ine.add.PTCONT.4985393",
      "street": "R CRAVOS",
      "house": "",
      "postcode": "2910-220",
      "city": "SETÚBAL",
      "lon": "-8.852459792545469",
      "lat": "38.54537874298414"
    },
    {
      "id": "pt.ine.add.PTCONT.5000052",
      "street": "R ROSAS",
      "house": "",
      "postcode": "2910-250",
      "city": "SETÚBAL",
      "lon": "-8.852681310874997",
      "lat": "38.54573771345986"
    },
    {
      "id": "pt.ine.add.PTCONT.5000058",
      "street": "R ROSAS",
      "house": "",
      "postcode": "2910-250",
      "city": "SETÚBAL",
      "lon": "-8.850279155318216",
      "lat": "38.546410058765964"
    },
    {
      "id": "pt.ine.add.PTCONT.5006979",
      "street": "R VALE ANA GOMES",
      "house": "",
      "postcode": "2910-199",
      "city": "SETÚBAL",
      "lon": "-8.85247950161246",
      "lat": "38.54505432325305"
    },
    {
      "id": "pt.ine.add.PTCONT.5018398",
      "street": "R VALE ANA GOMES",
      "house": "",
      "postcode": "2910-199",
      "city": "SETÚBAL",
      "lon": "-8.8527900846625",
      "lat": "38.54514249739595"
    },
    {
      "id": "pt.ine.add.PTCONT.5056868",
      "street": "R CRAVOS",
      "house": "",
      "postcode": "2910-220",
      "city": "SETÚBAL",
      "lon": "-8.852804696860352",
      "lat": "38.545457697894605"
    },
    {
      "id": "pt.ine.add.PTCONT.5062406",
      "street": "R CRAVOS",
      "house": "",
      "postcode": "2910-220",
      "city": "SETÚBAL",
      "lon": "-8.852011032405954",
      "lat": "38.5452373667667"
    },
    {
      "id": "pt.ine.add.PTCONT.5065989",
      "street": "R ROSAS",
      "house": "",
      "postcode": "2910-250",
      "city": "SETÚBAL",
      "lon": "-8.852439634636218",
      "lat": "38.54565812397983"
    },
    {
      "id": "pt.ine.add.PTCONT.5065996",
      "street": "R VALE ANA GOMES",
      "house": "",
      "postcode": "2910-199",
      "city": "SETÚBAL",
      "lon": "-8.854351511834938",
      "lat": "38.54528602954663"
    },
    {
      "id": "pt.ine.add.PTCONT.5069516",
      "street": "R VALE ANA GOMES",
      "house": "",
      "postcode": "2910-199",
      "city": "SETÚBAL",
      "lon": "-8.854491579913324",
      "lat": "38.54552839050335"
    },
    {
      "id": "pt.ine.add.PTCONT.5074508",
      "street": "R VALE ANA GOMES",
      "house": "",
      "postcode": "2910-199",
      "city": "SETÚBAL",
      "lon": "-8.853204256446052",
      "lat": "38.545266066786084"
    },
    {
      "id": "pt.ine.add.PTCONT.5077074",
      "street": "R VALE ANA GOMES",
      "house": "",
      "postcode": "2910-199",
      "city": "SETÚBAL",
      "lon": "-8.852617498538939",
      "lat": "38.54508950842214"
    },
    {
      "id": "pt.ine.add.PTCONT.5094745",
      "street": "R VALE ANA GOMES",
      "house": "",
      "postcode": "2910-199",
      "city": "SETÚBAL",
      "lon": "-8.854876784168608",
      "lat": "38.54504857674141"
    },
    {
      "id": "pt.ine.add.PTCONT.5100180",
      "street": "R CRAVOS",
      "house": "",
      "postcode": "2910-220",
      "city": "SETÚBAL",
      "lon": "-8.85182724573993",
      "lat": "38.545211470291235"
    },
    {
      "id": "pt.ine.add.PTCONT.5112085",
      "street": "R VALE ANA GOMES",
      "house": "",
      "postcode": "2910-199",
      "city": "SETÚBAL",
      "lon": "-8.853871216449306",
      "lat": "38.54543312016449"
    },
    {
      "id": "pt.ine.add.PTCONT.5123548",
      "street": "R ROSAS",
      "house": "46",
      "postcode": "2910-250",
      "city": "SETÚBAL",
      "lon": "-8.850428981822734",
      "lat": "38.546481207212"
    },
    {
      "id": "pt.ine.add.PTCONT.5123557",
      "street": "R CRAVOS",
      "house": "",
      "postcode": "2910-220",
      "city": "SETÚBAL",
      "lon": "-8.853333479700735",
      "lat": "38.54557155390752"
    }
  ]
}