{
  "data": {
    "distrito": "Santar√©m",
    "concelho": "Abrantes",
    "freguesia": "Fontes",
    "OBJECTID": 92,
    "BGRI2021": "14011800127",
    "DT21": "14",
    "DTMN21": "1401",
    "DTMNFR21": "140118",
    "DTMNFRSEC21": "140118001",
    "SECNUM21": "001",
    "SSNUM21": "27",
    "SECSSNUM21": "00127",
    "OBJECTID_1": 146850,
    "DT": "14",
    "CC": "01",
    "fr": "18",
    "SEC": "001",
    "SS": "27"
  },
  "addresses": [
    {
      "id": "pt.ine.add.PTCONT.4451105",
      "street": "R ESCOLA",
      "house": "100",
      "postcode": "2230-837",
      "city": "FONTES ABT",
      "lon": "-8.234497271911879",
      "lat": "39.61836174581617"
    },
    {
      "id": "pt.ine.add.PTCONT.4451106",
      "street": "ESTR FONTES",
      "house": "",
      "postcode": "2230-837",
      "city": "FONTES ABT",
      "lon": "-8.234635100935929",
      "lat": "39.61704663388519"
    },
    {
      "id": "pt.ine.add.PTCONT.4461467",
      "street": "R ESCCLA",
      "house": "",
      "postcode": "2230-837",
      "city": "FONTES ABT",
      "lon": "-8.235102697583244",
      "lat": "39.61825313439877"
    },
    {
      "id": "pt.ine.add.PTCONT.4527841",
      "street": "R ESCCLA",
      "house": "",
      "postcode": "2230-837",
      "city": "FONTES ABT",
      "lon": "-8.234892980226556",
      "lat": "39.6181902707867"
    },
    {
      "id": "pt.ine.add.PTCONT.4540181",
      "street": "ESTR ZEZERE",
      "house": "",
      "postcode": "2230-837",
      "city": "FONTES ABT",
      "lon": "-8.23598700755151",
      "lat": "39.61772996081148"
    },
    {
      "id": "pt.ine.add.PTCONT.4540182",
      "street": "R FONTE VELHA",
      "house": "",
      "postcode": "2230-837",
      "city": "FONTES ABT",
      "lon": "-8.235311554284797",
      "lat": "39.617730556972376"
    },
    {
      "id": "pt.ine.add.PTCONT.4542192",
      "street": "R ESCOLA",
      "house": "",
      "postcode": "2230-837",
      "city": "FONTES ABT",
      "lon": "-8.234788615900912",
      "lat": "39.61849659305223"
    },
    {
      "id": "pt.ine.add.PTCONT.4567222",
      "street": "R ESCCLA",
      "house": "80",
      "postcode": "2230-837",
      "city": "FONTES ABT",
      "lon": "-8.23468348705846",
      "lat": "39.618280522042326"
    },
    {
      "id": "pt.ine.add.PTCONT.4590106",
      "street": "R ZEZERE",
      "house": "",
      "postcode": "2230-837",
      "city": "FONTES ABT",
      "lon": "-8.235498377239908",
      "lat": "39.61806364374826"
    },
    {
      "id": "pt.ine.add.PTCONT.4604501",
      "street": "ESTR FONTES",
      "house": "185",
      "postcode": "2230-837",
      "city": "FONTES ABT",
      "lon": "-8.234739384743593",
      "lat": "39.616686270993476"
    },
    {
      "id": "pt.ine.add.PTCONT.4608765",
      "street": "ESTR FONTES",
      "house": "",
      "postcode": "2230-837",
      "city": "FONTES ABT",
      "lon": "-8.23490267340942",
      "lat": "39.61685725710525"
    }
  ]
}