{
  "data": {
    "distrito": "Castelo Branco",
    "concelho": "Fundão",
    "freguesia": "União das freguesias de Vale de Prazeres e Mata da Rainha",
    "OBJECTID": 417,
    "BGRI2021": "05043600208",
    "DT21": "05",
    "DTMN21": "0504",
    "DTMNFR21": "050436",
    "DTMNFRSEC21": "050436002",
    "SECNUM21": "002",
    "SSNUM21": "08",
    "SECSSNUM21": "00208",
    "OBJECTID_1": 43504,
    "DT": "05",
    "CC": "04",
    "fr": "36",
    "SEC": "002",
    "SS": "08"
  },
  "addresses": [
    {
      "id": "pt.ine.add.PTCONT.957533",
      "street": "R ESPIRITO SANTO",
      "house": "10",
      "postcode": "6230-788",
      "city": "VALE DE PRAZERES",
      "lon": "-7.4312381260591405",
      "lat": "40.1092901991429"
    },
    {
      "id": "pt.ine.add.PTCONT.963904",
      "street": "R ESPÍRITO SANTO",
      "house": "",
      "postcode": "6230-788",
      "city": "VALE DE PRAZERES",
      "lon": "-7.430931463642946",
      "lat": "40.10831570175478"
    },
    {
      "id": "pt.ine.add.PTCONT.963905",
      "street": "LG ESPÍRITO SANTO",
      "house": "6",
      "postcode": "6230-788",
      "city": "VALE DE PRAZERES",
      "lon": "-7.431331026802481",
      "lat": "40.109380821209875"
    },
    {
      "id": "pt.ine.add.PTCONT.964053",
      "street": "GARRIDA",
      "house": "",
      "postcode": "6230-788",
      "city": "VALE DE PRAZERES",
      "lon": "-7.430159492648218",
      "lat": "40.106969137738105"
    },
    {
      "id": "pt.ine.add.PTCONT.969347",
      "street": "R ESPÍRITO SANTO",
      "house": "",
      "postcode": "6230-788",
      "city": "VALE DE PRAZERES",
      "lon": "-7.430131030917064",
      "lat": "40.10745528440894"
    },
    {
      "id": "pt.ine.add.PTCONT.979382",
      "street": "R ESPÍRITO SANTO",
      "house": "11",
      "postcode": "6230-788",
      "city": "VALE DE PRAZERES",
      "lon": "-7.431133034405361",
      "lat": "40.10924453267465"
    },
    {
      "id": "pt.ine.add.PTCONT.984082",
      "street": "LG ESPÍRITO SANTO",
      "house": "3",
      "postcode": "6230-788",
      "city": "VALE DE PRAZERES",
      "lon": "-7.431259453707138",
      "lat": "40.109497464366335"
    },
    {
      "id": "pt.ine.add.PTCONT.986353",
      "street": "LG ESPÍRITO SANTO",
      "house": "9",
      "postcode": "6230-788",
      "city": "VALE DE PRAZERES",
      "lon": "-7.431331952323427",
      "lat": "40.10929076769531"
    },
    {
      "id": "pt.ine.add.PTCONT.995106",
      "street": "CHÃO DE FUNDO",
      "house": "",
      "postcode": "6230-788",
      "city": "VALE DE PRAZERES",
      "lon": "-7.432279097618535",
      "lat": "40.10728818392935"
    },
    {
      "id": "pt.ine.add.PTCONT.995862",
      "street": "R OLIVAIS",
      "house": "",
      "postcode": "6230-788",
      "city": "VALE DE PRAZERES",
      "lon": "-7.431425778590387",
      "lat": "40.109291336171744"
    },
    {
      "id": "pt.ine.add.PTCONT.995863",
      "street": "R OLIVAIS",
      "house": "12",
      "postcode": "6230-788",
      "city": "VALE DE PRAZERES",
      "lon": "-7.431564297480842",
      "lat": "40.10950831718721"
    },
    {
      "id": "pt.ine.add.PTCONT.1004464",
      "street": "LG ESPÍRITO SANTO",
      "house": "5",
      "postcode": "6230-788",
      "city": "VALE DE PRAZERES",
      "lon": "-7.431260286764564",
      "lat": "40.10941641620617"
    },
    {
      "id": "pt.ine.add.PTCONT.1010779",
      "street": "R OLIVAIS",
      "house": "2",
      "postcode": "6230-788",
      "city": "VALE DE PRAZERES",
      "lon": "-7.4324947157361265",
      "lat": "40.10913570087219"
    },
    {
      "id": "pt.ine.add.PTCONT.1024011",
      "street": "LG ESPÍRITO SANTO",
      "house": "8",
      "postcode": "6230-788",
      "city": "VALE DE PRAZERES",
      "lon": "-7.431473339457151",
      "lat": "40.10922858291855"
    },
    {
      "id": "pt.ine.add.PTCONT.1029514",
      "street": "R ESPÍRITO SANTO",
      "house": "",
      "postcode": "6230-788",
      "city": "VALE DE PRAZERES",
      "lon": "-7.430310800453306",
      "lat": "40.10822187809366"
    },
    {
      "id": "pt.ine.add.PTCONT.1031682",
      "street": "R ESPÍRITO SANTO",
      "house": "",
      "postcode": "6230-788",
      "city": "VALE DE PRAZERES",
      "lon": "-7.4310176035201225",
      "lat": "40.1090637147489"
    },
    {
      "id": "pt.ine.add.PTCONT.1034086",
      "street": "LG ESPÍRITO SANTO",
      "house": "1",
      "postcode": "6230-788",
      "city": "VALE DE PRAZERES",
      "lon": "-7.431246522057398",
      "lat": "40.10961446285615"
    },
    {
      "id": "pt.ine.add.PTCONT.1044276",
      "street": "R ESPÍRITO SANTO",
      "house": "",
      "postcode": "6230-788",
      "city": "VALE DE PRAZERES",
      "lon": "-7.430415982651654",
      "lat": "40.108258539946405"
    },
    {
      "id": "pt.ine.add.PTCONT.1044929",
      "street": "R OLIVAIS",
      "house": "4",
      "postcode": "6230-788",
      "city": "VALE DE PRAZERES",
      "lon": "-7.432116822906722",
      "lat": "40.10938557986794"
    },
    {
      "id": "pt.ine.add.PTCONT.1051730",
      "street": "R OLIVAIS",
      "house": "8",
      "postcode": "6230-788",
      "city": "VALE DE PRAZERES",
      "lon": "-7.431364453285533",
      "lat": "40.1095521360731"
    },
    {
      "id": "pt.ine.add.PTCONT.1069485",
      "street": "LG ESPÍRITO SANTO",
      "house": "2",
      "postcode": "6230-788",
      "city": "VALE DE PRAZERES",
      "lon": "-7.431270441539723",
      "lat": "40.10956957824593"
    },
    {
      "id": "pt.ine.add.PTCONT.1073455",
      "street": "R OLIVAIS",
      "house": "10",
      "postcode": "6230-788",
      "city": "VALE DE PRAZERES",
      "lon": "-7.4316698523728935",
      "lat": "40.109508956508975"
    },
    {
      "id": "pt.ine.add.PTCONT.1081784",
      "street": "R OLIVAIS",
      "house": "18",
      "postcode": "6230-788",
      "city": "VALE DE PRAZERES",
      "lon": "-7.431400378619442",
      "lat": "40.10948030644151"
    },
    {
      "id": "pt.ine.add.PTCONT.1087427",
      "street": "R OLIVAIS",
      "house": "",
      "postcode": "6230-788",
      "city": "VALE DE PRAZERES",
      "lon": "-7.431509542085836",
      "lat": "40.10912973719041"
    },
    {
      "id": "pt.ine.add.PTCONT.1093907",
      "street": "R OLIVAIS",
      "house": "10",
      "postcode": "6230-788",
      "city": "VALE DE PRAZERES",
      "lon": "-7.431328712981872",
      "lat": "40.10960595499001"
    }
  ]
}