{
  "data": {
    "distrito": "Aveiro",
    "concelho": "Albergaria-A-Velha",
    "freguesia": "Alquerubim",
    "OBJECTID": 153,
    "BGRI2021": "01020200103",
    "DT21": "01",
    "DTMN21": "0102",
    "DTMNFR21": "010202",
    "DTMNFRSEC21": "010202001",
    "SECNUM21": "001",
    "SSNUM21": "03",
    "SECSSNUM21": "00103",
    "OBJECTID_1": 754,
    "DT": "01",
    "CC": "02",
    "fr": "02",
    "SEC": "001",
    "SS": "03"
  },
  "addresses": [
    {
      "id": "pt.ine.add.PTCONT.302870",
      "street": "R PÓVOAS DE BEDUIDO",
      "house": "",
      "postcode": "3850-361",
      "city": "ALQUERUBIM",
      "lon": "-8.497559622821917",
      "lat": "40.62790856034457"
    },
    {
      "id": "pt.ine.add.PTCONT.318780",
      "street": "R LOPO",
      "house": "",
      "postcode": "3850-361",
      "city": "ALQUERUBIM",
      "lon": "-8.496518412565003",
      "lat": "40.627704722029556"
    },
    {
      "id": "pt.ine.add.PTCONT.340249",
      "street": "R PÓVOAS DE BEDUIDO",
      "house": "",
      "postcode": "3850-361",
      "city": "ALQUERUBIM",
      "lon": "-8.497488146009848",
      "lat": "40.62997997930389"
    },
    {
      "id": "pt.ine.add.PTCONT.5439",
      "street": "R LOPO",
      "house": "",
      "postcode": "3850-361",
      "city": "ALQUERUBIM",
      "lon": "-8.496755088453742",
      "lat": "40.627758008184294"
    },
    {
      "id": "pt.ine.add.PTCONT.8037",
      "street": "TV PONTE VELHA",
      "house": "",
      "postcode": "3850-361",
      "city": "ALQUERUBIM",
      "lon": "-8.496686321950813",
      "lat": "40.630333708675124"
    },
    {
      "id": "pt.ine.add.PTCONT.16073",
      "street": "R PÓVOAS DE BEDUIDO CASA MANUEL DO ABEL",
      "house": "",
      "postcode": "3850-361",
      "city": "ALQUERUBIM",
      "lon": "-8.497764026499807",
      "lat": "40.628547283603616"
    },
    {
      "id": "pt.ine.add.PTCONT.24050",
      "street": "R CARREGOSA",
      "house": "",
      "postcode": "3850-361",
      "city": "ALQUERUBIM",
      "lon": "-8.493299396255901",
      "lat": "40.62693135473831"
    },
    {
      "id": "pt.ine.add.PTCONT.31620",
      "street": "TV PONTE VELHA",
      "house": "",
      "postcode": "3850-361",
      "city": "ALQUERUBIM",
      "lon": "-8.496886717677096",
      "lat": "40.63023402056168"
    },
    {
      "id": "pt.ine.add.PTCONT.43158",
      "street": "R DR ALBERTO V NOGUEIRA LEMOS",
      "house": "",
      "postcode": "3850-361",
      "city": "ALQUERUBIM",
      "lon": "-8.494290658894087",
      "lat": "40.628837359400265"
    },
    {
      "id": "pt.ine.add.PTCONT.53664",
      "street": "R DR ALBERTO V NOGUEIRA LEMOS",
      "house": "",
      "postcode": "3850-361",
      "city": "ALQUERUBIM",
      "lon": "-8.49458512280526",
      "lat": "40.628647329130224"
    },
    {
      "id": "pt.ine.add.PTCONT.64643",
      "street": "VLA RIBEIRO",
      "house": "",
      "postcode": "3850-361",
      "city": "ALQUERUBIM",
      "lon": "-8.49477326014258",
      "lat": "40.6284666363161"
    },
    {
      "id": "pt.ine.add.PTCONT.67422",
      "street": "R PONTE VELHA CASA DO AIDO DE BAIXO",
      "house": "",
      "postcode": "3850-361",
      "city": "ALQUERUBIM",
      "lon": "-8.494319149644749",
      "lat": "40.62973778916781"
    },
    {
      "id": "pt.ine.add.PTCONT.99008",
      "street": "R DR ALBERTO V NOGUEIRA LEMOS",
      "house": "",
      "postcode": "3850-361",
      "city": "ALQUERUBIM",
      "lon": "-8.49415139715752",
      "lat": "40.629315069868994"
    },
    {
      "id": "pt.ine.add.PTCONT.101771",
      "street": "R PÓVOAS DE BEDUIDO",
      "house": "",
      "postcode": "3850-361",
      "city": "ALQUERUBIM",
      "lon": "-8.497561091447759",
      "lat": "40.62817871141535"
    },
    {
      "id": "pt.ine.add.PTCONT.106439",
      "street": "R CARREGOSA",
      "house": "",
      "postcode": "3850-361",
      "city": "ALQUERUBIM",
      "lon": "-8.494713160206937",
      "lat": "40.62608945387188"
    },
    {
      "id": "pt.ine.add.PTCONT.106959",
      "street": "R LOPO",
      "house": "",
      "postcode": "3850-361",
      "city": "ALQUERUBIM",
      "lon": "-8.496908639670863",
      "lat": "40.62773951420666"
    },
    {
      "id": "pt.ine.add.PTCONT.107566",
      "street": "R DR ALBERTO V NOGUEIRA LEMOS",
      "house": "",
      "postcode": "3850-361",
      "city": "ALQUERUBIM",
      "lon": "-8.494256559196568",
      "lat": "40.62908961133858"
    },
    {
      "id": "pt.ine.add.PTCONT.123453",
      "street": "R LOPO",
      "house": "",
      "postcode": "3850-361",
      "city": "ALQUERUBIM",
      "lon": "-8.49710922290922",
      "lat": "40.62767584584435"
    },
    {
      "id": "pt.ine.add.PTCONT.141257",
      "street": "R PONTE VELHA",
      "house": "",
      "postcode": "3850-361",
      "city": "ALQUERUBIM",
      "lon": "-8.496167283533474",
      "lat": "40.63052445046312"
    },
    {
      "id": "pt.ine.add.PTCONT.152668",
      "street": "R PÓVOAS DE BEDUIDO",
      "house": "",
      "postcode": "3850-361",
      "city": "ALQUERUBIM",
      "lon": "-8.497511611909198",
      "lat": "40.627773633985925"
    },
    {
      "id": "pt.ine.add.PTCONT.155328",
      "street": "R LOPO",
      "house": "",
      "postcode": "3850-361",
      "city": "ALQUERUBIM",
      "lon": "-8.49650493382638",
      "lat": "40.627398587944626"
    },
    {
      "id": "pt.ine.add.PTCONT.187110",
      "street": "R PÓVOAS DE BEDUIDO",
      "house": "",
      "postcode": "3850-361",
      "city": "ALQUERUBIM",
      "lon": "-8.49751298243894",
      "lat": "40.62802577499297"
    },
    {
      "id": "pt.ine.add.PTCONT.208466",
      "street": "R DR ALBERTO V NOGUEIRA LEMOS",
      "house": "",
      "postcode": "3850-361",
      "city": "ALQUERUBIM",
      "lon": "-8.4930054195861",
      "lat": "40.62721143218608"
    },
    {
      "id": "pt.ine.add.PTCONT.232405",
      "street": "R DR ALBERTO V NOGUEIRA LEMOS",
      "house": "",
      "postcode": "3850-361",
      "city": "ALQUERUBIM",
      "lon": "-8.493065336813293",
      "lat": "40.62736433371702"
    },
    {
      "id": "pt.ine.add.PTCONT.241178",
      "street": "R LOPO",
      "house": "15",
      "postcode": "3850-361",
      "city": "ALQUERUBIM",
      "lon": "-8.49652754690095",
      "lat": "40.627209407767346"
    },
    {
      "id": "pt.ine.add.PTCONT.246661",
      "street": "R PÓVOAS",
      "house": "",
      "postcode": "3850-361",
      "city": "ALQUERUBIM",
      "lon": "-8.4972759323836",
      "lat": "40.63007970572939"
    },
    {
      "id": "pt.ine.add.PTCONT.268336",
      "street": "VLA RIBEIRO",
      "house": "",
      "postcode": "3850-361",
      "city": "ALQUERUBIM",
      "lon": "-8.494489548930874",
      "lat": "40.628458519247324"
    }
  ]
}