{
  "data": {
    "distrito": "Aveiro",
    "concelho": "Albergaria-A-Velha",
    "freguesia": "Alquerubim",
    "OBJECTID": 364,
    "BGRI2021": "01020200110",
    "DT21": "01",
    "DTMN21": "0102",
    "DTMNFR21": "010202",
    "DTMNFRSEC21": "010202001",
    "SECNUM21": "001",
    "SSNUM21": "10",
    "SECSSNUM21": "00110",
    "OBJECTID_1": 1431,
    "DT": "01",
    "CC": "02",
    "fr": "02",
    "SEC": "001",
    "SS": "10"
  },
  "addresses": [
    {
      "id": "pt.ine.add.PTCONT.300427",
      "street": "R DIREITA",
      "house": "",
      "postcode": "3850-364",
      "city": "ALQUERUBIM",
      "lon": "-8.510987443574342",
      "lat": "40.63647435895623"
    },
    {
      "id": "pt.ine.add.PTCONT.304763",
      "street": "R RASO S LUIS",
      "house": "",
      "postcode": "3850-364",
      "city": "ALQUERUBIM",
      "lon": "-8.512890162603997",
      "lat": "40.63639607592734"
    },
    {
      "id": "pt.ine.add.PTCONT.325565",
      "street": "R DIREITA",
      "house": "",
      "postcode": "3850-364",
      "city": "ALQUERUBIM",
      "lon": "-8.512001943763368",
      "lat": "40.63401262167897"
    },
    {
      "id": "pt.ine.add.PTCONT.325566",
      "street": "R DIREITA",
      "house": "",
      "postcode": "3850-364",
      "city": "ALQUERUBIM",
      "lon": "-8.512330413782427",
      "lat": "40.633570289775136"
    },
    {
      "id": "pt.ine.add.PTCONT.337718",
      "street": "R DIREITA",
      "house": "",
      "postcode": "3850-364",
      "city": "ALQUERUBIM",
      "lon": "-8.511371223455058",
      "lat": "40.63535646074554"
    },
    {
      "id": "pt.ine.add.PTCONT.340260",
      "street": "R ESCOLA",
      "house": "",
      "postcode": "3850-364",
      "city": "ALQUERUBIM",
      "lon": "-8.513626110610447",
      "lat": "40.636933963788344"
    },
    {
      "id": "pt.ine.add.PTCONT.348786",
      "street": "R ESCOLA",
      "house": "18",
      "postcode": "3850-364",
      "city": "ALQUERUBIM",
      "lon": "-8.51373793242097",
      "lat": "40.633727752526624"
    },
    {
      "id": "pt.ine.add.PTCONT.8044",
      "street": "R ESCOLA",
      "house": "",
      "postcode": "3850-364",
      "city": "ALQUERUBIM",
      "lon": "-8.511429484879196",
      "lat": "40.63730138771942"
    },
    {
      "id": "pt.ine.add.PTCONT.24059",
      "street": "R AZENHA DO MONTE",
      "house": "6",
      "postcode": "3850-364",
      "city": "ALQUERUBIM",
      "lon": "-8.512764954127245",
      "lat": "40.633073577174486"
    },
    {
      "id": "pt.ine.add.PTCONT.24060",
      "street": "R AZENHA DO MONTE",
      "house": "6",
      "postcode": "3850-364",
      "city": "ALQUERUBIM",
      "lon": "-8.512764954127245",
      "lat": "40.633073577174486"
    },
    {
      "id": "pt.ine.add.PTCONT.26692",
      "street": "R ESCOLA",
      "house": "",
      "postcode": "3850-364",
      "city": "ALQUERUBIM",
      "lon": "-8.51179552301796",
      "lat": "40.637228146617595"
    },
    {
      "id": "pt.ine.add.PTCONT.33916",
      "street": "R AZENHA DO MONTE",
      "house": "",
      "postcode": "3850-364",
      "city": "ALQUERUBIM",
      "lon": "-8.513699608488261",
      "lat": "40.63322358879862"
    },
    {
      "id": "pt.ine.add.PTCONT.40252",
      "street": "R DIREITA",
      "house": "",
      "postcode": "3850-364",
      "city": "ALQUERUBIM",
      "lon": "-8.5110134206306",
      "lat": "40.63688851198497"
    },
    {
      "id": "pt.ine.add.PTCONT.40253",
      "street": "R DIREITA",
      "house": "",
      "postcode": "3850-364",
      "city": "ALQUERUBIM",
      "lon": "-8.51127899696101",
      "lat": "40.63577100090137"
    },
    {
      "id": "pt.ine.add.PTCONT.45875",
      "street": "R ESCOLA",
      "house": "",
      "postcode": "3850-364",
      "city": "ALQUERUBIM",
      "lon": "-8.512519599606692",
      "lat": "40.63775707520751"
    },
    {
      "id": "pt.ine.add.PTCONT.101837",
      "street": "VLA AZENHA DO MONTE",
      "house": "",
      "postcode": "3850-364",
      "city": "ALQUERUBIM",
      "lon": "-8.512875110249222",
      "lat": "40.633739598263716"
    },
    {
      "id": "pt.ine.add.PTCONT.128040",
      "street": "R ESCOLA",
      "house": "",
      "postcode": "3850-364",
      "city": "ALQUERUBIM",
      "lon": "-8.512447756770582",
      "lat": "40.63759521810851"
    },
    {
      "id": "pt.ine.add.PTCONT.130650",
      "street": "R AZENHA",
      "house": "12",
      "postcode": "3850-364",
      "city": "ALQUERUBIM",
      "lon": "-8.513153229274547",
      "lat": "40.63275711877406"
    },
    {
      "id": "pt.ine.add.PTCONT.136952",
      "street": "R DIREITA",
      "house": "",
      "postcode": "3850-364",
      "city": "ALQUERUBIM",
      "lon": "-8.513436602925493",
      "lat": "40.6327021548105"
    },
    {
      "id": "pt.ine.add.PTCONT.142147",
      "street": "VLA AZENHA DO MONTE",
      "house": "",
      "postcode": "3850-364",
      "city": "ALQUERUBIM",
      "lon": "-8.513017207648696",
      "lat": "40.63378415679234"
    },
    {
      "id": "pt.ine.add.PTCONT.149043",
      "street": "R RASO S LUIS",
      "house": "",
      "postcode": "3850-364",
      "city": "ALQUERUBIM",
      "lon": "-8.511889478672538",
      "lat": "40.63711977640052"
    },
    {
      "id": "pt.ine.add.PTCONT.168583",
      "street": "R ESCOLA",
      "house": "",
      "postcode": "3850-364",
      "city": "ALQUERUBIM",
      "lon": "-8.514481220304768",
      "lat": "40.6334821604981"
    },
    {
      "id": "pt.ine.add.PTCONT.184569",
      "street": "R DIREITA",
      "house": "",
      "postcode": "3850-364",
      "city": "ALQUERUBIM",
      "lon": "-8.511051117275898",
      "lat": "40.63728461627639"
    },
    {
      "id": "pt.ine.add.PTCONT.200516",
      "street": "R AZENHA",
      "house": "18",
      "postcode": "3850-364",
      "city": "ALQUERUBIM",
      "lon": "-8.513447196611137",
      "lat": "40.63248599558791"
    },
    {
      "id": "pt.ine.add.PTCONT.202954",
      "street": "R DIREITA",
      "house": "",
      "postcode": "3850-364",
      "city": "ALQUERUBIM",
      "lon": "-8.511000025861112",
      "lat": "40.63660939540705"
    },
    {
      "id": "pt.ine.add.PTCONT.205746",
      "street": "R ESCOLA",
      "house": "20",
      "postcode": "3850-364",
      "city": "ALQUERUBIM",
      "lon": "-8.514119910640263",
      "lat": "40.63230367451808"
    },
    {
      "id": "pt.ine.add.PTCONT.211569",
      "street": "R DIREITA",
      "house": "",
      "postcode": "3850-364",
      "city": "ALQUERUBIM",
      "lon": "-8.51356784962615",
      "lat": "40.63291784682941"
    },
    {
      "id": "pt.ine.add.PTCONT.216918",
      "street": "R DIREITA",
      "house": "",
      "postcode": "3850-364",
      "city": "ALQUERUBIM",
      "lon": "-8.511731604465757",
      "lat": "40.63428366366637"
    },
    {
      "id": "pt.ine.add.PTCONT.251348",
      "street": "R DIREITA",
      "house": "",
      "postcode": "3850-364",
      "city": "ALQUERUBIM",
      "lon": "-8.511283722458721",
      "lat": "40.63660846673303"
    },
    {
      "id": "pt.ine.add.PTCONT.254668",
      "street": "R DIREITA",
      "house": "",
      "postcode": "3850-364",
      "city": "ALQUERUBIM",
      "lon": "-8.511262418346336",
      "lat": "40.63702277451643"
    },
    {
      "id": "pt.ine.add.PTCONT.257505",
      "street": "R RASO S LUIS",
      "house": "",
      "postcode": "3850-364",
      "city": "ALQUERUBIM",
      "lon": "-8.511709267330334",
      "lat": "40.636607072415316"
    },
    {
      "id": "pt.ine.add.PTCONT.270999",
      "street": "VLA AZENHA DO MONTE",
      "house": "",
      "postcode": "3850-364",
      "city": "ALQUERUBIM",
      "lon": "-8.512912254678875",
      "lat": "40.634036647006404"
    },
    {
      "id": "pt.ine.add.PTCONT.281698",
      "street": "R AZENHA DO MONTE",
      "house": "2",
      "postcode": "3850-364",
      "city": "ALQUERUBIM",
      "lon": "-8.512446474857128",
      "lat": "40.63319169106525"
    },
    {
      "id": "pt.ine.add.PTCONT.289680",
      "street": "R DIREITA",
      "house": "",
      "postcode": "3850-364",
      "city": "ALQUERUBIM",
      "lon": "-8.512673708182287",
      "lat": "40.63365921377486"
    }
  ]
}