{
  "data": {
    "distrito": "Viseu",
    "concelho": "Vila Nova de Paiva",
    "freguesia": "União das freguesias de Vila Nova de Paiva, Alhais e Fráguas",
    "OBJECTID": 81,
    "BGRI2021": "18220800131",
    "DT21": "18",
    "DTMN21": "1822",
    "DTMNFR21": "182208",
    "DTMNFRSEC21": "182208001",
    "SECNUM21": "001",
    "SSNUM21": "31",
    "SECSSNUM21": "00131",
    "OBJECTID_1": 200370,
    "DT": "18",
    "CC": "22",
    "fr": "08",
    "SEC": "001",
    "SS": "31"
  },
  "addresses": [
    {
      "id": "pt.ine.add.PTCONT.5428431",
      "street": "R CABO",
      "house": "1",
      "postcode": "3650-010",
      "city": "ALHAIS",
      "lon": "-7.7145253642318385",
      "lat": "40.86944609189945"
    },
    {
      "id": "pt.ine.add.PTCONT.5503094",
      "street": "R CABO",
      "house": "7",
      "postcode": "3650-010",
      "city": "ALHAIS",
      "lon": "-7.714606186729277",
      "lat": "40.86979757256793"
    },
    {
      "id": "pt.ine.add.PTCONT.5527458",
      "street": "R CABO",
      "house": "20",
      "postcode": "3650-010",
      "city": "ALHAIS",
      "lon": "-7.714913918999521",
      "lat": "40.869906746336554"
    },
    {
      "id": "pt.ine.add.PTCONT.5528033",
      "street": "R CABO",
      "house": "",
      "postcode": "3650-010",
      "city": "ALHAIS",
      "lon": "-7.714284948072035",
      "lat": "40.86994948827364"
    },
    {
      "id": "pt.ine.add.PTCONT.5528034",
      "street": "R CABO",
      "house": "22",
      "postcode": "3650-010",
      "city": "ALHAIS",
      "lon": "-7.71497351234745",
      "lat": "40.8698619383566"
    },
    {
      "id": "pt.ine.add.PTCONT.5550068",
      "street": "R CABO",
      "house": "5",
      "postcode": "3650-010",
      "city": "ALHAIS",
      "lon": "-7.714559078922492",
      "lat": "40.86974337281152"
    },
    {
      "id": "pt.ine.add.PTCONT.5560942",
      "street": "R ESCORREGADELA",
      "house": "8",
      "postcode": "3650-010",
      "city": "ALHAIS",
      "lon": "-7.714632801992553",
      "lat": "40.86933842406688"
    },
    {
      "id": "pt.ine.add.PTCONT.5595861",
      "street": "R CABO",
      "house": "8",
      "postcode": "3650-010",
      "city": "ALHAIS",
      "lon": "-7.714486942865694",
      "lat": "40.869896192714734"
    },
    {
      "id": "pt.ine.add.PTCONT.5601649",
      "street": "R CABO",
      "house": "9",
      "postcode": "3650-010",
      "city": "ALHAIS",
      "lon": "-7.714784116792078",
      "lat": "40.86979821800089"
    },
    {
      "id": "pt.ine.add.PTCONT.5606921",
      "street": "R CABO",
      "house": "10",
      "postcode": "3650-010",
      "city": "ALHAIS",
      "lon": "-7.714617595184144",
      "lat": "40.869869652397895"
    },
    {
      "id": "pt.ine.add.PTCONT.5631622",
      "street": "R FANDANGA",
      "house": "5",
      "postcode": "3650-010",
      "city": "ALHAIS",
      "lon": "-7.714296072514794",
      "lat": "40.870066591123795"
    },
    {
      "id": "pt.ine.add.PTCONT.5633556",
      "street": "R ESCORREGADELA CASA DO OUTAO",
      "house": "",
      "postcode": "3650-010",
      "city": "ALHAIS",
      "lon": "-7.714728150791494",
      "lat": "40.86926673150664"
    }
  ]
}