{
  "data": {
    "distrito": "Lisboa",
    "concelho": "Cascais",
    "freguesia": "União das freguesias de Carcavelos e Parede",
    "OBJECTID": 1547,
    "BGRI2021": "11050701004",
    "DT21": "11",
    "DTMN21": "1105",
    "DTMNFR21": "110507",
    "DTMNFRSEC21": "110507010",
    "SECNUM21": "010",
    "SSNUM21": "04",
    "SECSSNUM21": "01004",
    "OBJECTID_1": 101930,
    "DT": "11",
    "CC": "05",
    "fr": "07",
    "SEC": "010",
    "SS": "04"
  },
  "addresses": [
    {
      "id": "pt.ine.add.PTCONT.3018321",
      "street": "R JULIO DA SILVEIRA",
      "house": "43A",
      "postcode": "2775-782",
      "city": "CARCAVELOS",
      "lon": "-9.330851243380232",
      "lat": "38.69900094616639"
    },
    {
      "id": "pt.ine.add.PTCONT.3027565",
      "street": "R JASMIM",
      "house": "122",
      "postcode": "2775-777",
      "city": "CARCAVELOS",
      "lon": "-9.331057812560607",
      "lat": "38.69898081435227"
    },
    {
      "id": "pt.ine.add.PTCONT.3027566",
      "street": "R JASMIM",
      "house": "122",
      "postcode": "2775-777",
      "city": "CARCAVELOS",
      "lon": "-9.331057812560607",
      "lat": "38.69898081435227"
    },
    {
      "id": "pt.ine.add.PTCONT.3027567",
      "street": "R JASMIM",
      "house": "122",
      "postcode": "2775-777",
      "city": "CARCAVELOS",
      "lon": "-9.331057812560607",
      "lat": "38.69898081435227"
    },
    {
      "id": "pt.ine.add.PTCONT.3027583",
      "street": "R JASMIM",
      "house": "122",
      "postcode": "2775-777",
      "city": "CARCAVELOS",
      "lon": "-9.331057812560607",
      "lat": "38.69898081435227"
    },
    {
      "id": "pt.ine.add.PTCONT.3034203",
      "street": "R JASMIM",
      "house": "122",
      "postcode": "2775-777",
      "city": "CARCAVELOS",
      "lon": "-9.331057812560607",
      "lat": "38.69898081435227"
    },
    {
      "id": "pt.ine.add.PTCONT.3084085",
      "street": "R CANTO",
      "house": "",
      "postcode": "2775-759",
      "city": "CARCAVELOS",
      "lon": "-9.33033226700935",
      "lat": "38.698898167916695"
    },
    {
      "id": "pt.ine.add.PTCONT.3093209",
      "street": "R JULIO DA SILVEIRA",
      "house": "30",
      "postcode": "2775-782",
      "city": "CARCAVELOS",
      "lon": "-9.330549127244762",
      "lat": "38.698805869351446"
    },
    {
      "id": "pt.ine.add.PTCONT.3093257",
      "street": "R JULIO DA SILVEIRA",
      "house": "51",
      "postcode": "2775-782",
      "city": "CARCAVELOS",
      "lon": "-9.330909608636519",
      "lat": "38.69905439497067"
    },
    {
      "id": "pt.ine.add.PTCONT.3120520",
      "street": "ESTR SASSOEIROS",
      "house": "135",
      "postcode": "2775-530",
      "city": "CARCAVELOS",
      "lon": "-9.330139743038812",
      "lat": "38.69907128699571"
    },
    {
      "id": "pt.ine.add.PTCONT.3120521",
      "street": "ESTR SASSOEIROS",
      "house": "135",
      "postcode": "2775-530",
      "city": "CARCAVELOS",
      "lon": "-9.330139743038812",
      "lat": "38.69907128699571"
    },
    {
      "id": "pt.ine.add.PTCONT.3120522",
      "street": "ESTR SASSOEIROS",
      "house": "135",
      "postcode": "2775-530",
      "city": "CARCAVELOS",
      "lon": "-9.330139743038812",
      "lat": "38.69907128699571"
    },
    {
      "id": "pt.ine.add.PTCONT.3120523",
      "street": "ESTR SASSOEIROS",
      "house": "135",
      "postcode": "2775-530",
      "city": "CARCAVELOS",
      "lon": "-9.330139743038812",
      "lat": "38.69907128699571"
    },
    {
      "id": "pt.ine.add.PTCONT.3129959",
      "street": "ESTR SASSOEIROS",
      "house": "",
      "postcode": "2775-530",
      "city": "CARCAVELOS",
      "lon": "-9.33015897491057",
      "lat": "38.698845895487345"
    },
    {
      "id": "pt.ine.add.PTCONT.3324006",
      "street": "R JASMIM",
      "house": "122 A",
      "postcode": "2775-777",
      "city": "CARCAVELOS",
      "lon": "-9.331093042154716",
      "lat": "38.69902549231743"
    },
    {
      "id": "pt.ine.add.PTCONT.2396291",
      "street": "LG VASCO D OREY",
      "house": "1",
      "postcode": "2775-535",
      "city": "CARCAVELOS",
      "lon": "-9.330233036657322",
      "lat": "38.699151401898995"
    },
    {
      "id": "pt.ine.add.PTCONT.2438636",
      "street": "R PROF MANUEL MARIA CALVET MAGALHÃES",
      "house": "159",
      "postcode": "2775-535",
      "city": "CARCAVELOS",
      "lon": "-9.330474235011412",
      "lat": "38.699139924339036"
    },
    {
      "id": "pt.ine.add.PTCONT.2438637",
      "street": "R PROF MANUEL MARIA CALVET MAGALHÃES",
      "house": "159",
      "postcode": "2775-535",
      "city": "CARCAVELOS",
      "lon": "-9.330474235011412",
      "lat": "38.699139924339036"
    },
    {
      "id": "pt.ine.add.PTCONT.2472830",
      "street": "R JASMIM",
      "house": "43",
      "postcode": "2775-777",
      "city": "CARCAVELOS",
      "lon": "-9.330872876774206",
      "lat": "38.69891965449826"
    },
    {
      "id": "pt.ine.add.PTCONT.2666486",
      "street": "LG VASCO D OREY",
      "house": "3",
      "postcode": "2775-535",
      "city": "CARCAVELOS",
      "lon": "-9.33096767348167",
      "lat": "38.69908983125487"
    },
    {
      "id": "pt.ine.add.PTCONT.2737147",
      "street": "R JASMIM",
      "house": "112",
      "postcode": "2775-777",
      "city": "CARCAVELOS",
      "lon": "-9.330893758929488",
      "lat": "38.698793331599774"
    },
    {
      "id": "pt.ine.add.PTCONT.2804309",
      "street": "R JASMIM",
      "house": "19",
      "postcode": "2775-777",
      "city": "CARCAVELOS",
      "lon": "-9.330821647751836",
      "lat": "38.69860490682384"
    },
    {
      "id": "pt.ine.add.PTCONT.2890460",
      "street": "R JULIO DA SILVEIRA",
      "house": "50",
      "postcode": "2775-782",
      "city": "CARCAVELOS",
      "lon": "-9.330609444758263",
      "lat": "38.69897639951249"
    },
    {
      "id": "pt.ine.add.PTCONT.2898905",
      "street": "R JULIO DA SILVEIRA",
      "house": "50",
      "postcode": "2775-782",
      "city": "CARCAVELOS",
      "lon": "-9.330609444758263",
      "lat": "38.69897639951249"
    }
  ]
}