{
  "data": {
    "distrito": "Braga",
    "concelho": "Esposende",
    "freguesia": "União das freguesias de Esposende, Marinhas e Gandra",
    "OBJECTID": 299,
    "BGRI2021": "03061800604",
    "DT21": "03",
    "DTMN21": "0306",
    "DTMNFR21": "030618",
    "DTMNFRSEC21": "030618006",
    "SECNUM21": "006",
    "SSNUM21": "04",
    "SECSSNUM21": "00604",
    "OBJECTID_1": 24715,
    "DT": "03",
    "CC": "06",
    "fr": "18",
    "SEC": "006",
    "SS": "04"
  },
  "addresses": [
    {
      "id": "pt.ine.add.PTCONT.462719",
      "street": "R NARCISO FERREIRA",
      "house": "83",
      "postcode": "4740-281",
      "city": "ESPOSENDE",
      "lon": "-8.780028021140435",
      "lat": "41.530626722575185"
    },
    {
      "id": "pt.ine.add.PTCONT.470298",
      "street": "R NARCISO FERREIRA",
      "house": "59",
      "postcode": "4740-281",
      "city": "ESPOSENDE",
      "lon": "-8.779856424446088",
      "lat": "41.53024052724552"
    },
    {
      "id": "pt.ine.add.PTCONT.470299",
      "street": "R NARCISO FERREIRA",
      "house": "59",
      "postcode": "4740-281",
      "city": "ESPOSENDE",
      "lon": "-8.779856424446088",
      "lat": "41.53024052724552"
    },
    {
      "id": "pt.ine.add.PTCONT.491882",
      "street": "R BARÃO DE ESPOSENDE",
      "house": "6",
      "postcode": "4740-236",
      "city": "ESPOSENDE",
      "lon": "-8.780370189053189",
      "lat": "41.53009357695484"
    },
    {
      "id": "pt.ine.add.PTCONT.504291",
      "street": "R NARCISO FERREIRA",
      "house": "75",
      "postcode": "4740-281",
      "city": "ESPOSENDE",
      "lon": "-8.780186202813118",
      "lat": "41.53086893339135"
    },
    {
      "id": "pt.ine.add.PTCONT.504292",
      "street": "R NARCISO FERREIRA",
      "house": "75",
      "postcode": "4740-281",
      "city": "ESPOSENDE",
      "lon": "-8.780186202813118",
      "lat": "41.53086893339135"
    },
    {
      "id": "pt.ine.add.PTCONT.504293",
      "street": "R NARCISO FERREIRA",
      "house": "75",
      "postcode": "4740-281",
      "city": "ESPOSENDE",
      "lon": "-8.780186202813118",
      "lat": "41.53086893339135"
    },
    {
      "id": "pt.ine.add.PTCONT.504294",
      "street": "R NARCISO FERREIRA",
      "house": "75",
      "postcode": "4740-281",
      "city": "ESPOSENDE",
      "lon": "-8.780186202813118",
      "lat": "41.53086893339135"
    },
    {
      "id": "pt.ine.add.PTCONT.504295",
      "street": "R NARCISO FERREIRA",
      "house": "75",
      "postcode": "4740-281",
      "city": "ESPOSENDE",
      "lon": "-8.780186202813118",
      "lat": "41.53086893339135"
    },
    {
      "id": "pt.ine.add.PTCONT.504296",
      "street": "R NARCISO FERREIRA",
      "house": "75",
      "postcode": "4740-281",
      "city": "ESPOSENDE",
      "lon": "-8.780186202813118",
      "lat": "41.53086893339135"
    },
    {
      "id": "pt.ine.add.PTCONT.504297",
      "street": "R NARCISO FERREIRA",
      "house": "75",
      "postcode": "4740-281",
      "city": "ESPOSENDE",
      "lon": "-8.780186202813118",
      "lat": "41.53086893339135"
    },
    {
      "id": "pt.ine.add.PTCONT.504299",
      "street": "R NARCISO FERREIRA",
      "house": "75 C",
      "postcode": "4740-281",
      "city": "ESPOSENDE",
      "lon": "-8.780186202813118",
      "lat": "41.53086893339135"
    },
    {
      "id": "pt.ine.add.PTCONT.504300",
      "street": "R NARCISO FERREIRA",
      "house": "75",
      "postcode": "4740-281",
      "city": "ESPOSENDE",
      "lon": "-8.780186202813118",
      "lat": "41.53086893339135"
    },
    {
      "id": "pt.ine.add.PTCONT.504301",
      "street": "R NARCISO FERREIRA",
      "house": "75",
      "postcode": "4740-281",
      "city": "ESPOSENDE",
      "lon": "-8.780186202813118",
      "lat": "41.53086893339135"
    },
    {
      "id": "pt.ine.add.PTCONT.504302",
      "street": "R NARCISO FERREIRA",
      "house": "75",
      "postcode": "4740-281",
      "city": "ESPOSENDE",
      "lon": "-8.780186202813118",
      "lat": "41.53086893339135"
    },
    {
      "id": "pt.ine.add.PTCONT.504303",
      "street": "R RODRIGUES FARIA ENTRADAA",
      "house": "ENTRADAA",
      "postcode": "4740-288",
      "city": "ESPOSENDE",
      "lon": "-8.780186202813118",
      "lat": "41.53086893339135"
    },
    {
      "id": "pt.ine.add.PTCONT.504304",
      "street": "R NARCISO FERREIRA",
      "house": "75",
      "postcode": "4740-281",
      "city": "ESPOSENDE",
      "lon": "-8.780186202813118",
      "lat": "41.53086893339135"
    },
    {
      "id": "pt.ine.add.PTCONT.505926",
      "street": "R NARCISO FERREIRA",
      "house": "75",
      "postcode": "4740-281",
      "city": "ESPOSENDE",
      "lon": "-8.780186202813118",
      "lat": "41.53086893339135"
    },
    {
      "id": "pt.ine.add.PTCONT.506156",
      "street": "R NARCISO FERREIRA",
      "house": "75",
      "postcode": "4740-281",
      "city": "ESPOSENDE",
      "lon": "-8.780186202813118",
      "lat": "41.53086893339135"
    },
    {
      "id": "pt.ine.add.PTCONT.520681",
      "street": "R NARCISO FERREIRA",
      "house": "79",
      "postcode": "4740-281",
      "city": "ESPOSENDE",
      "lon": "-8.779954786946934",
      "lat": "41.53049207853909"
    },
    {
      "id": "pt.ine.add.PTCONT.521376",
      "street": "R BARÃO DE ESPOSENDE",
      "house": "",
      "postcode": "4740-236",
      "city": "ESPOSENDE",
      "lon": "-8.780455135780917",
      "lat": "41.53020114360374"
    },
    {
      "id": "pt.ine.add.PTCONT.528401",
      "street": "R NARCISO FERREIRA",
      "house": "63",
      "postcode": "4740-281",
      "city": "ESPOSENDE",
      "lon": "-8.779880835645336",
      "lat": "41.53028540862068"
    },
    {
      "id": "pt.ine.add.PTCONT.528405",
      "street": "R BARAO ESPOSENDE",
      "house": "4",
      "postcode": "4740-236",
      "city": "ESPOSENDE",
      "lon": "-8.780406671686832",
      "lat": "41.530147394008075"
    },
    {
      "id": "pt.ine.add.PTCONT.534091",
      "street": "R NARCISO FERREIRA",
      "house": "77",
      "postcode": "4740-281",
      "city": "ESPOSENDE",
      "lon": "-8.779930196249213",
      "lat": "41.53042919072515"
    },
    {
      "id": "pt.ine.add.PTCONT.536015",
      "street": "R NARCISO FERREIRA",
      "house": "79",
      "postcode": "4740-281",
      "city": "ESPOSENDE",
      "lon": "-8.779930196249213",
      "lat": "41.53042919072515"
    },
    {
      "id": "pt.ine.add.PTCONT.557418",
      "street": "R BARAO ESPOSENDE",
      "house": "10",
      "postcode": "4740-236",
      "city": "ESPOSENDE",
      "lon": "-8.780321455899445",
      "lat": "41.53001281763585"
    },
    {
      "id": "pt.ine.add.PTCONT.561020",
      "street": "R NARCISO FERREIRA",
      "house": "",
      "postcode": "4740-281",
      "city": "ESPOSENDE",
      "lon": "-8.77980706415391",
      "lat": "41.53009674510248"
    },
    {
      "id": "pt.ine.add.PTCONT.601694",
      "street": "R LUIS DE CAMÕES",
      "house": "8",
      "postcode": "4740-277",
      "city": "ESPOSENDE",
      "lon": "-8.780045435998481",
      "lat": "41.52996935208618"
    },
    {
      "id": "pt.ine.add.PTCONT.636484",
      "street": "R NARCISO FERREIRA",
      "house": "65",
      "postcode": "4740-281",
      "city": "ESPOSENDE",
      "lon": "-8.779905246878656",
      "lat": "41.530330289990054"
    },
    {
      "id": "pt.ine.add.PTCONT.639891",
      "street": "R RODRIGUES FARIA",
      "house": "",
      "postcode": "4740-288",
      "city": "ESPOSENDE",
      "lon": "-8.780606184560218",
      "lat": "41.53092959556264"
    },
    {
      "id": "pt.ine.add.PTCONT.639892",
      "street": "R RODRIGUES FARIA",
      "house": "",
      "postcode": "4740-288",
      "city": "ESPOSENDE",
      "lon": "-8.780606184560218",
      "lat": "41.53092959556264"
    },
    {
      "id": "pt.ine.add.PTCONT.649551",
      "street": "R NARCISO FERREIRA",
      "house": "69",
      "postcode": "4740-281",
      "city": "ESPOSENDE",
      "lon": "-8.77991767671316",
      "lat": "41.53037523874422"
    },
    {
      "id": "pt.ine.add.PTCONT.649552",
      "street": "R NARCISO FERREIRA",
      "house": "69",
      "postcode": "4740-281",
      "city": "ESPOSENDE",
      "lon": "-8.77991767671316",
      "lat": "41.53037523874422"
    },
    {
      "id": "pt.ine.add.PTCONT.689852",
      "street": "R NARCISO FERREIRA",
      "house": "81",
      "postcode": "4740-281",
      "city": "ESPOSENDE",
      "lon": "-8.779991448851796",
      "lat": "41.530563902177754"
    },
    {
      "id": "pt.ine.add.PTCONT.701846",
      "street": "R BARÃO DE ESPOSENDE",
      "house": "24",
      "postcode": "4740-236",
      "city": "ESPOSENDE",
      "lon": "-8.780528101372381",
      "lat": "41.53030877763993"
    },
    {
      "id": "pt.ine.add.PTCONT.725716",
      "street": "R NARCISO FERREIRA",
      "house": "53",
      "postcode": "4740-281",
      "city": "ESPOSENDE",
      "lon": "-8.779844084352193",
      "lat": "41.530204581712226"
    },
    {
      "id": "pt.ine.add.PTCONT.730251",
      "street": "R NARCISO FERREIRA",
      "house": "73",
      "postcode": "4740-557",
      "city": "ESPOSENDE",
      "lon": "-8.780050190076853",
      "lat": "41.53044652320604"
    },
    {
      "id": "pt.ine.add.PTCONT.734536",
      "street": "R BARÃO DE ESPOSENDE",
      "house": "",
      "postcode": "4740-236",
      "city": "ESPOSENDE",
      "lon": "-8.780420089094823",
      "lat": "41.53029137821483"
    },
    {
      "id": "pt.ine.add.PTCONT.749665",
      "street": "R NARCISO FERREIRA",
      "house": "84",
      "postcode": "4740-281",
      "city": "ESPOSENDE",
      "lon": "-8.780223134369814",
      "lat": "41.53096776662973"
    },
    {
      "id": "pt.ine.add.PTCONT.803784",
      "street": "R BARÃO DE ESPOSENDE",
      "house": "",
      "postcode": "4740-236",
      "city": "ESPOSENDE",
      "lon": "-8.780588995993241",
      "lat": "41.53040747585927"
    },
    {
      "id": "pt.ine.add.PTCONT.839165",
      "street": "R LUIS DE CAMÕES",
      "house": "6",
      "postcode": "4740-277",
      "city": "ESPOSENDE",
      "lon": "-8.779961745867258",
      "lat": "41.5299878303331"
    },
    {
      "id": "pt.ine.add.PTCONT.848822",
      "street": "R NARCISO FERREIRA",
      "house": "75",
      "postcode": "4740-281",
      "city": "ESPOSENDE",
      "lon": "-8.780186202813118",
      "lat": "41.53086893339135"
    }
  ]
}