{
  "data": {
    "distrito": "Viana do Castelo",
    "concelho": "Viana do Castelo",
    "freguesia": "Alvarães",
    "OBJECTID": 570,
    "BGRI2021": "16090200216",
    "DT21": "16",
    "DTMN21": "1609",
    "DTMNFR21": "160902",
    "DTMNFRSEC21": "160902002",
    "SECNUM21": "002",
    "SSNUM21": "16",
    "SECSSNUM21": "00216",
    "OBJECTID_1": 178247,
    "DT": "16",
    "CC": "09",
    "fr": "02",
    "SEC": "002",
    "SS": "16"
  },
  "addresses": [
    {
      "id": "pt.ine.add.PTCONT.5135422",
      "street": "R TELHEIRAS",
      "house": "826",
      "postcode": "4905-204",
      "city": "ALVARÃES",
      "lon": "-8.75606348172784",
      "lat": "41.627926559619624"
    },
    {
      "id": "pt.ine.add.PTCONT.5143572",
      "street": "R CRUZEIRO",
      "house": "1843",
      "postcode": "4905-205",
      "city": "ALVARÃES",
      "lon": "-8.756680879220047",
      "lat": "41.63471191243396"
    },
    {
      "id": "pt.ine.add.PTCONT.5150231",
      "street": "R TELHEIRAS",
      "house": "",
      "postcode": "4905-204",
      "city": "ALVARÃES",
      "lon": "-8.753500330109203",
      "lat": "41.627184119992364"
    },
    {
      "id": "pt.ine.add.PTCONT.5154959",
      "street": "R CANOS",
      "house": "188",
      "postcode": "4905-204",
      "city": "ALVARÃES",
      "lon": "-8.757181194034326",
      "lat": "41.633079549788675"
    },
    {
      "id": "pt.ine.add.PTCONT.5159995",
      "street": "R COSTEIRA",
      "house": "1356",
      "postcode": "4905-204",
      "city": "ALVARÃES",
      "lon": "-8.752137794886568",
      "lat": "41.625246689941655"
    },
    {
      "id": "pt.ine.add.PTCONT.5164265",
      "street": "R CANOS",
      "house": "64",
      "postcode": "4905-204",
      "city": "ALVARÃES",
      "lon": "-8.756724282867756",
      "lat": "41.634234487423285"
    },
    {
      "id": "pt.ine.add.PTCONT.5167264",
      "street": "R CANOS",
      "house": "9",
      "postcode": "4905-204",
      "city": "ALVARÃES",
      "lon": "-8.753341571624807",
      "lat": "41.6281483605676"
    },
    {
      "id": "pt.ine.add.PTCONT.5168413",
      "street": "R COSTEIRA",
      "house": "",
      "postcode": "4905-204",
      "city": "ALVARÃES",
      "lon": "-8.75238607031683",
      "lat": "41.62485819825242"
    },
    {
      "id": "pt.ine.add.PTCONT.5168542",
      "street": "R CANOS",
      "house": "GY",
      "postcode": "4905-204",
      "city": "ALVARÃES",
      "lon": "-8.756756466372961",
      "lat": "41.633838155428904"
    },
    {
      "id": "pt.ine.add.PTCONT.5169492",
      "street": "R TELHEIRAS",
      "house": "700",
      "postcode": "4905-204",
      "city": "ALVARÃES",
      "lon": "-8.75547979770328",
      "lat": "41.62712840197852"
    },
    {
      "id": "pt.ine.add.PTCONT.5171805",
      "street": "R CANOS",
      "house": "176",
      "postcode": "4905-204",
      "city": "ALVARÃES",
      "lon": "-8.757050404231148",
      "lat": "41.633206309878894"
    },
    {
      "id": "pt.ine.add.PTCONT.5175224",
      "street": "R CANOS",
      "house": "2",
      "postcode": "4905-204",
      "city": "ALVARÃES",
      "lon": "-8.753613849731138",
      "lat": "41.62775973690498"
    },
    {
      "id": "pt.ine.add.PTCONT.5184377",
      "street": "R CANOS",
      "house": "944",
      "postcode": "4905-204",
      "city": "ALVARÃES",
      "lon": "-8.753285548848979",
      "lat": "41.62731132918542"
    },
    {
      "id": "pt.ine.add.PTCONT.5185561",
      "street": "R TELHEIRAS",
      "house": "819",
      "postcode": "4905-204",
      "city": "ALVARÃES",
      "lon": "-8.756360868657183",
      "lat": "41.62765484001983"
    },
    {
      "id": "pt.ine.add.PTCONT.5186831",
      "street": "R CANOS",
      "house": "174",
      "postcode": "4905-204",
      "city": "ALVARÃES",
      "lon": "-8.757015444539023",
      "lat": "41.63331454257107"
    },
    {
      "id": "pt.ine.add.PTCONT.5189781",
      "street": "R CANOS",
      "house": "5",
      "postcode": "4905-204",
      "city": "ALVARÃES",
      "lon": "-8.753204658657275",
      "lat": "41.62763589473094"
    },
    {
      "id": "pt.ine.add.PTCONT.5192251",
      "street": "R CANOS",
      "house": "6",
      "postcode": "4905-204",
      "city": "ALVARÃES",
      "lon": "-8.753253864507125",
      "lat": "41.627761679513014"
    },
    {
      "id": "pt.ine.add.PTCONT.5193714",
      "street": "R TELHEIRAS",
      "house": "788",
      "postcode": "4905-204",
      "city": "ALVARÃES",
      "lon": "-8.755928887309505",
      "lat": "41.62765718133207"
    },
    {
      "id": "pt.ine.add.PTCONT.5194403",
      "street": "R CANOS",
      "house": "7",
      "postcode": "4905-204",
      "city": "ALVARÃES",
      "lon": "-8.753279244055467",
      "lat": "41.62790559999129"
    },
    {
      "id": "pt.ine.add.PTCONT.5203662",
      "street": "R TELHEIRAS",
      "house": "540",
      "postcode": "4905-204",
      "city": "ALVARÃES",
      "lon": "-8.753765094050076",
      "lat": "41.62726372307167"
    },
    {
      "id": "pt.ine.add.PTCONT.5206765",
      "street": "R CRUZEIRO",
      "house": "2059",
      "postcode": "4905-205",
      "city": "ALVARÃES",
      "lon": "-8.75857813496503",
      "lat": "41.63481865111071"
    },
    {
      "id": "pt.ine.add.PTCONT.5217076",
      "street": "R CRUZEIRO",
      "house": "1957",
      "postcode": "4905-205",
      "city": "ALVARÃES",
      "lon": "-8.757881479612601",
      "lat": "41.634759414655356"
    },
    {
      "id": "pt.ine.add.PTCONT.5228962",
      "street": "R CRUZEIRO",
      "house": "1991",
      "postcode": "4905-205",
      "city": "ALVARÃES",
      "lon": "-8.758182456336494",
      "lat": "41.63485681772346"
    },
    {
      "id": "pt.ine.add.PTCONT.5236090",
      "street": "R CANOS",
      "house": "3",
      "postcode": "4905-204",
      "city": "ALVARÃES",
      "lon": "-8.753651143276524",
      "lat": "41.627894589401315"
    },
    {
      "id": "pt.ine.add.PTCONT.5242648",
      "street": "R TELHEIRAS",
      "house": "564",
      "postcode": "4905-204",
      "city": "ALVARÃES",
      "lon": "-8.753969947869988",
      "lat": "41.6273526527178"
    },
    {
      "id": "pt.ine.add.PTCONT.5246210",
      "street": "R FEIRA",
      "house": "1896",
      "postcode": "4905-202",
      "city": "ALVARÃES",
      "lon": "-8.756426459412092",
      "lat": "41.62325172864821"
    },
    {
      "id": "pt.ine.add.PTCONT.5248325",
      "street": "R CANOS",
      "house": "4",
      "postcode": "4905-204",
      "city": "ALVARÃES",
      "lon": "-8.753700436537327",
      "lat": "41.628029377100184"
    },
    {
      "id": "pt.ine.add.PTCONT.5267126",
      "street": "R TELHEIRAS",
      "house": "540",
      "postcode": "4905-204",
      "city": "ALVARÃES",
      "lon": "-8.753861262090563",
      "lat": "41.627281210974765"
    },
    {
      "id": "pt.ine.add.PTCONT.5273353",
      "street": "R CANOS",
      "house": "216",
      "postcode": "4905-204",
      "city": "ALVARÃES",
      "lon": "-8.757045194838986",
      "lat": "41.63266612343272"
    },
    {
      "id": "pt.ine.add.PTCONT.5273858",
      "street": "R CANOS",
      "house": "10",
      "postcode": "4905-204",
      "city": "ALVARÃES",
      "lon": "-8.75337869224059",
      "lat": "41.628265206903485"
    },
    {
      "id": "pt.ine.add.PTCONT.5276568",
      "street": "R CANOS",
      "house": "1",
      "postcode": "4905-204",
      "city": "ALVARÃES",
      "lon": "-8.753588728478016",
      "lat": "41.62764282586676"
    },
    {
      "id": "pt.ine.add.PTCONT.5276817",
      "street": "R FEIRA",
      "house": "1906",
      "postcode": "4905-202",
      "city": "ALVARÃES",
      "lon": "-8.756379245060073",
      "lat": "41.623333016992895"
    },
    {
      "id": "pt.ine.add.PTCONT.5277463",
      "street": "R TELHEIRAS",
      "house": "711",
      "postcode": "4905-204",
      "city": "ALVARÃES",
      "lon": "-8.75569414091334",
      "lat": "41.62695617311981"
    },
    {
      "id": "pt.ine.add.PTCONT.5281623",
      "street": "R CANOS",
      "house": "8",
      "postcode": "4905-204",
      "city": "ALVARÃES",
      "lon": "-8.75331619183622",
      "lat": "41.628004440110786"
    },
    {
      "id": "pt.ine.add.PTCONT.5284210",
      "street": "R TELHEIRAS",
      "house": "766",
      "postcode": "4905-204",
      "city": "ALVARÃES",
      "lon": "-8.755496213181072",
      "lat": "41.627587496073595"
    },
    {
      "id": "pt.ine.add.PTCONT.5285643",
      "street": "R TELHEIRAS",
      "house": "576",
      "postcode": "4905-204",
      "city": "ALVARÃES",
      "lon": "-8.754102719172895",
      "lat": "41.62743296783324"
    }
  ]
}