{
  "data": {
    "distrito": "Lisboa",
    "concelho": "Cascais",
    "freguesia": "União das freguesias de Cascais e Estoril",
    "OBJECTID": 90,
    "BGRI2021": "11050802112",
    "DT21": "11",
    "DTMN21": "1105",
    "DTMNFR21": "110508",
    "DTMNFRSEC21": "110508021",
    "SECNUM21": "021",
    "SSNUM21": "12",
    "SECSSNUM21": "02112",
    "OBJECTID_1": 101203,
    "DT": "11",
    "CC": "05",
    "fr": "08",
    "SEC": "021",
    "SS": "12"
  },
  "addresses": [
    {
      "id": "pt.ine.add.PTCONT.2922430",
      "street": "R LUIS DE CAMÕES QTA DO SOL",
      "house": "",
      "postcode": "2750-036",
      "city": "CASCAIS",
      "lon": "-9.451024772292687",
      "lat": "38.72762261652848"
    },
    {
      "id": "pt.ine.add.PTCONT.2922431",
      "street": "R LUIS DE CAMÕES",
      "house": "309",
      "postcode": "2750-036",
      "city": "CASCAIS",
      "lon": "-9.450577223551038",
      "lat": "38.72767269980322"
    },
    {
      "id": "pt.ine.add.PTCONT.2922432",
      "street": "R LUIS DE CAMÕES",
      "house": "309",
      "postcode": "2750-036",
      "city": "CASCAIS",
      "lon": "-9.450577223551038",
      "lat": "38.72767269980322"
    },
    {
      "id": "pt.ine.add.PTCONT.2948012",
      "street": "R CASAL DA ZIBREIRA FRANCISCO",
      "house": "1",
      "postcode": "2750-046",
      "city": "CASCAIS",
      "lon": "-9.451841045953053",
      "lat": "38.72761341062178"
    },
    {
      "id": "pt.ine.add.PTCONT.2963660",
      "street": "R ANTÓNIO GEDEAO",
      "house": "19",
      "postcode": "2750-013",
      "city": "CASCAIS",
      "lon": "-9.45360397945849",
      "lat": "38.72843122013688"
    },
    {
      "id": "pt.ine.add.PTCONT.2981707",
      "street": "R ANTÓNIO GEDEAO",
      "house": "11",
      "postcode": "2750-013",
      "city": "CASCAIS",
      "lon": "-9.453276595211133",
      "lat": "38.728137665629774"
    },
    {
      "id": "pt.ine.add.PTCONT.2981708",
      "street": "R ANTÓNIO GEDEAO",
      "house": "3",
      "postcode": "2750-013",
      "city": "CASCAIS",
      "lon": "-9.452916483413475",
      "lat": "38.728565091564555"
    },
    {
      "id": "pt.ine.add.PTCONT.2999971",
      "street": "R CASAL DA ZIBREIRA",
      "house": "",
      "postcode": "2750-046",
      "city": "CASCAIS",
      "lon": "-9.451157360426183",
      "lat": "38.727954404655605"
    },
    {
      "id": "pt.ine.add.PTCONT.3008905",
      "street": "R LUIS DE CAMÕES",
      "house": "",
      "postcode": "2750-036",
      "city": "CASCAIS",
      "lon": "-9.452008695774612",
      "lat": "38.727350297312796"
    },
    {
      "id": "pt.ine.add.PTCONT.3018230",
      "street": "R ALEXANDRE O NEILL",
      "house": "18",
      "postcode": "2750-038",
      "city": "CASCAIS",
      "lon": "-9.453659142789808",
      "lat": "38.72830448989936"
    },
    {
      "id": "pt.ine.add.PTCONT.3042795",
      "street": "R JOSEFINA SILVA MORADIA 3",
      "house": "67",
      "postcode": "2750-034",
      "city": "CASCAIS",
      "lon": "-9.450420568366896",
      "lat": "38.72790866422843"
    },
    {
      "id": "pt.ine.add.PTCONT.3045422",
      "street": "R ANTÓNIO GEDEAO",
      "house": "1",
      "postcode": "2750-013",
      "city": "CASCAIS",
      "lon": "-9.45283799320128",
      "lat": "38.728674069524935"
    },
    {
      "id": "pt.ine.add.PTCONT.3066166",
      "street": "R ANTÓNIO GEDEAO",
      "house": "29",
      "postcode": "2750-013",
      "city": "CASCAIS",
      "lon": "-9.45234726743982",
      "lat": "38.728877777084136"
    },
    {
      "id": "pt.ine.add.PTCONT.3084031",
      "street": "R ANTÓNIO GEDEAO",
      "house": "24",
      "postcode": "2750-013",
      "city": "CASCAIS",
      "lon": "-9.453251718488357",
      "lat": "38.728660390152825"
    },
    {
      "id": "pt.ine.add.PTCONT.3084034",
      "street": "R JOSEFINA SILVA CASA DAS HORTENCIAS",
      "house": "85",
      "postcode": "2750-034",
      "city": "CASCAIS",
      "lon": "-9.450620646944888",
      "lat": "38.728158623518404"
    },
    {
      "id": "pt.ine.add.PTCONT.3084035",
      "street": "R JOSEFINA SILVA MORADIA 2",
      "house": "67",
      "postcode": "2750-034",
      "city": "CASCAIS",
      "lon": "-9.45038392764098",
      "lat": "38.727791977677384"
    },
    {
      "id": "pt.ine.add.PTCONT.3101985",
      "street": "R ANTÓNIO GEDEAO",
      "house": "22",
      "postcode": "2750-013",
      "city": "CASCAIS",
      "lon": "-9.453363870042638",
      "lat": "38.72850599349506"
    },
    {
      "id": "pt.ine.add.PTCONT.3101986",
      "street": "R ANTÓNIO GEDEAO",
      "house": "13",
      "postcode": "2750-013",
      "city": "CASCAIS",
      "lon": "-9.453424065397522",
      "lat": "38.72802790826186"
    },
    {
      "id": "pt.ine.add.PTCONT.3101987",
      "street": "R LUIS CAMOES",
      "house": "VIVENDA",
      "postcode": "2750-036",
      "city": "CASCAIS",
      "lon": "-9.450951323865501",
      "lat": "38.72738023802197"
    },
    {
      "id": "pt.ine.add.PTCONT.3120504",
      "street": "R JOSEFINA SILVA MORADIA Y",
      "house": "65",
      "postcode": "2750-034",
      "city": "CASCAIS",
      "lon": "-9.450917580823331",
      "lat": "38.7280471845799"
    },
    {
      "id": "pt.ine.add.PTCONT.3120505",
      "street": "R JOSEFINA SILVA MORADIA 1",
      "house": "67",
      "postcode": "2750-034",
      "city": "CASCAIS",
      "lon": "-9.450624699667763",
      "lat": "38.727753233565124"
    },
    {
      "id": "pt.ine.add.PTCONT.3167784",
      "street": "R CAMILO CASTELO BRANCO",
      "house": "",
      "postcode": "2750-021",
      "city": "CASCAIS",
      "lon": "-9.451060492660362",
      "lat": "38.72581167573931"
    },
    {
      "id": "pt.ine.add.PTCONT.3213357",
      "street": "R LUIS DE CAMÕES",
      "house": "",
      "postcode": "2750-036",
      "city": "CASCAIS",
      "lon": "-9.450635865443532",
      "lat": "38.726483028815366"
    },
    {
      "id": "pt.ine.add.PTCONT.3222629",
      "street": "ESTR SITIO DAS TRAVESSAS QTA DE S JOSE",
      "house": "270",
      "postcode": "2750-074",
      "city": "CASCAIS",
      "lon": "-9.457081503026021",
      "lat": "38.72557249068782"
    },
    {
      "id": "pt.ine.add.PTCONT.3232138",
      "street": "R LUIS DE CAMÕES QTA DO SOL",
      "house": "",
      "postcode": "2750-036",
      "city": "CASCAIS",
      "lon": "-9.450815844244186",
      "lat": "38.727516880083975"
    },
    {
      "id": "pt.ine.add.PTCONT.3241360",
      "street": "R FLORBELA ESPANCA",
      "house": "237",
      "postcode": "2750-032",
      "city": "CASCAIS",
      "lon": "-9.451516171687134",
      "lat": "38.72870700082012"
    },
    {
      "id": "pt.ine.add.PTCONT.3250210",
      "street": "R ALEXANDRE O NEILL",
      "house": "1",
      "postcode": "2750-038",
      "city": "CASCAIS",
      "lon": "-9.454314401928912",
      "lat": "38.727045022472474"
    },
    {
      "id": "pt.ine.add.PTCONT.3250214",
      "street": "R RAUL LINO",
      "house": "",
      "postcode": "2750-042",
      "city": "CASCAIS",
      "lon": "-9.451004181561707",
      "lat": "38.7283794912916"
    },
    {
      "id": "pt.ine.add.PTCONT.3268692",
      "street": "R ALEXANDRE O NEILL",
      "house": "14",
      "postcode": "2750-038",
      "city": "CASCAIS",
      "lon": "-9.453562027815181",
      "lat": "38.7280263498892"
    },
    {
      "id": "pt.ine.add.PTCONT.3268696",
      "street": "R CASAL DA ZIBREIRA CASA HENRIQUE CAMARÃO",
      "house": "4",
      "postcode": "2750-046",
      "city": "CASCAIS",
      "lon": "-9.451328323802212",
      "lat": "38.72787140795909"
    },
    {
      "id": "pt.ine.add.PTCONT.3278057",
      "street": "R CAMILO CASTELO BRANCO",
      "house": "",
      "postcode": "2750-021",
      "city": "CASCAIS",
      "lon": "-9.45123542286729",
      "lat": "38.72594481813283"
    },
    {
      "id": "pt.ine.add.PTCONT.3283961",
      "street": "R ALEXANDRE O NEILL",
      "house": "",
      "postcode": "2750-038",
      "city": "CASCAIS",
      "lon": "-9.452449647445683",
      "lat": "38.72819204032149"
    },
    {
      "id": "pt.ine.add.PTCONT.3314884",
      "street": "R ALEXANDRE O NEILL",
      "house": "9",
      "postcode": "2750-038",
      "city": "CASCAIS",
      "lon": "-9.453080485183614",
      "lat": "38.72810384969707"
    },
    {
      "id": "pt.ine.add.PTCONT.3314885",
      "street": "R RAUL LINO",
      "house": "93",
      "postcode": "2750-042",
      "city": "CASCAIS",
      "lon": "-9.452202346916874",
      "lat": "38.72850109132746"
    },
    {
      "id": "pt.ine.add.PTCONT.3314887",
      "street": "ESTR SITIO DAS TRAVESSAS POCICOS",
      "house": "114",
      "postcode": "2750-074",
      "city": "CASCAIS",
      "lon": "-9.45725037038742",
      "lat": "38.723507826038954"
    },
    {
      "id": "pt.ine.add.PTCONT.3379472",
      "street": "R RAUL LINO",
      "house": "",
      "postcode": "2750-042",
      "city": "CASCAIS",
      "lon": "-9.451280935561181",
      "lat": "38.728421408985795"
    },
    {
      "id": "pt.ine.add.PTCONT.3379473",
      "street": "R RAUL LINO",
      "house": "",
      "postcode": "2750-042",
      "city": "CASCAIS",
      "lon": "-9.451153972714678",
      "lat": "38.72839581769479"
    },
    {
      "id": "pt.ine.add.PTCONT.3379480",
      "street": "R CAMILO CASTELO BRANCO",
      "house": "",
      "postcode": "2750-021",
      "city": "CASCAIS",
      "lon": "-9.45136287789642",
      "lat": "38.72599742678084"
    },
    {
      "id": "pt.ine.add.PTCONT.3395112",
      "street": "R FLORBELA ESPANCA",
      "house": "289A",
      "postcode": "2750-032",
      "city": "CASCAIS",
      "lon": "-9.451945203246295",
      "lat": "38.72890032934499"
    },
    {
      "id": "pt.ine.add.PTCONT.3398097",
      "street": "R ANTÓNIO GEDEAO",
      "house": "4",
      "postcode": "2750-013",
      "city": "CASCAIS",
      "lon": "-9.452902997874412",
      "lat": "38.7284571520504"
    },
    {
      "id": "pt.ine.add.PTCONT.3412521",
      "street": "R ANTÓNIO GEDEAO",
      "house": "20",
      "postcode": "2750-013",
      "city": "CASCAIS",
      "lon": "-9.453534666275166",
      "lat": "38.72841398782563"
    },
    {
      "id": "pt.ine.add.PTCONT.3441218",
      "street": "R JOSEFINA SILVA MORADIA 1",
      "house": "65",
      "postcode": "2750-034",
      "city": "CASCAIS",
      "lon": "-9.450790453314603",
      "lat": "38.72801258709331"
    },
    {
      "id": "pt.ine.add.PTCONT.3454907",
      "street": "R ANTÓNIO GEDEAO",
      "house": "10",
      "postcode": "2750-013",
      "city": "CASCAIS",
      "lon": "-9.453172791733072",
      "lat": "38.72812082262171"
    },
    {
      "id": "pt.ine.add.PTCONT.2287064",
      "street": "R ANTÓNIO GEDEAO QTA DAS VIOLETAS",
      "house": "",
      "postcode": "2750-013",
      "city": "CASCAIS",
      "lon": "-9.456234517077489",
      "lat": "38.72703231209893"
    },
    {
      "id": "pt.ine.add.PTCONT.2296151",
      "street": "R ALEXANDRE O NEILL",
      "house": "CASA 16",
      "postcode": "2750-038",
      "city": "CASCAIS",
      "lon": "-9.453748962424555",
      "lat": "38.728186375746105"
    },
    {
      "id": "pt.ine.add.PTCONT.2327284",
      "street": "R JOSEFINA SILVA MORADIA 4",
      "house": "67",
      "postcode": "2750-034",
      "city": "CASCAIS",
      "lon": "-9.450614857064963",
      "lat": "38.727843421009176"
    },
    {
      "id": "pt.ine.add.PTCONT.2332117",
      "street": "R LUIS DE CAMÕES CASA DO PINHAL",
      "house": "",
      "postcode": "2750-036",
      "city": "CASCAIS",
      "lon": "-9.452076869443864",
      "lat": "38.724178834381696"
    },
    {
      "id": "pt.ine.add.PTCONT.2341790",
      "street": "R CAMILO CASTELO BRANCO",
      "house": "12",
      "postcode": "2750-021",
      "city": "CASCAIS",
      "lon": "-9.450932707274786",
      "lat": "38.72574105517358"
    },
    {
      "id": "pt.ine.add.PTCONT.2347344",
      "street": "R RAUL LINO",
      "house": "",
      "postcode": "2750-042",
      "city": "CASCAIS",
      "lon": "-9.451417078049147",
      "lat": "38.728320789521284"
    },
    {
      "id": "pt.ine.add.PTCONT.2359038",
      "street": "R ALEXANDRE O NEILL",
      "house": "CASA 15",
      "postcode": "2750-038",
      "city": "CASCAIS",
      "lon": "-9.453747470053672",
      "lat": "38.728105323776546"
    },
    {
      "id": "pt.ine.add.PTCONT.2359048",
      "street": "R JOSEFINA SILVA MORADIA 2",
      "house": "65",
      "postcode": "2750-034",
      "city": "CASCAIS",
      "lon": "-9.450860427317822",
      "lat": "38.72806584419171"
    },
    {
      "id": "pt.ine.add.PTCONT.2371792",
      "street": "R ANTÓNIO GEDEAO",
      "house": "21",
      "postcode": "2750-013",
      "city": "CASCAIS",
      "lon": "-9.453456508742352",
      "lat": "38.728540977734156"
    },
    {
      "id": "pt.ine.add.PTCONT.2423944",
      "street": "R LUIS DE CAMÕES",
      "house": "173",
      "postcode": "2750-036",
      "city": "CASCAIS",
      "lon": "-9.450909633752701",
      "lat": "38.726362843355744"
    },
    {
      "id": "pt.ine.add.PTCONT.2477530",
      "street": "R ANTÓNIO GEDEAO CONOOMINIO BALDEIA",
      "house": "2",
      "postcode": "2750-013",
      "city": "CASCAIS",
      "lon": "-9.452745023223565",
      "lat": "38.72862107323948"
    },
    {
      "id": "pt.ine.add.PTCONT.2491646",
      "street": "R ANTÓNIO GEDEAO",
      "house": "23",
      "postcode": "2750-013",
      "city": "CASCAIS",
      "lon": "-9.453261557851313",
      "lat": "38.72857020255545"
    },
    {
      "id": "pt.ine.add.PTCONT.2514070",
      "street": "R JOSEFINA SILVA MORADIA S",
      "house": "67",
      "postcode": "2750-034",
      "city": "CASCAIS",
      "lon": "-9.450809641745858",
      "lat": "38.72780519482927"
    },
    {
      "id": "pt.ine.add.PTCONT.2514072",
      "street": "R ALEXANDRE PRISTA",
      "house": "3",
      "postcode": "2750-013",
      "city": "CASCAIS",
      "lon": "-9.4514991212436",
      "lat": "38.72777940523517"
    },
    {
      "id": "pt.ine.add.PTCONT.2523219",
      "street": "R JOSEFINA SILVA MORADIA 3",
      "house": "65",
      "postcode": "2750-034",
      "city": "CASCAIS",
      "lon": "-9.450961748203289",
      "lat": "38.72794760249406"
    },
    {
      "id": "pt.ine.add.PTCONT.2532282",
      "street": "R RAUL LINO",
      "house": "",
      "postcode": "2750-042",
      "city": "CASCAIS",
      "lon": "-9.451682003982409",
      "lat": "38.7283448243626"
    },
    {
      "id": "pt.ine.add.PTCONT.2541388",
      "street": "R CASAL DA ZIBREIRA",
      "house": "",
      "postcode": "2750-046",
      "city": "CASCAIS",
      "lon": "-9.451261328746018",
      "lat": "38.727980255250415"
    },
    {
      "id": "pt.ine.add.PTCONT.2577440",
      "street": "R RAUL LINO",
      "house": "",
      "postcode": "2750-042",
      "city": "CASCAIS",
      "lon": "-9.451532212835476",
      "lat": "38.72832849863625"
    },
    {
      "id": "pt.ine.add.PTCONT.2608104",
      "street": "R ANTÓNIO GEDEAO",
      "house": "7",
      "postcode": "2750-013",
      "city": "CASCAIS",
      "lon": "-9.452968167893737",
      "lat": "38.728249240315876"
    },
    {
      "id": "pt.ine.add.PTCONT.2622704",
      "street": "R RAUL LINO",
      "house": "",
      "postcode": "2750-042",
      "city": "CASCAIS",
      "lon": "-9.451948420426834",
      "lat": "38.72844991062493"
    },
    {
      "id": "pt.ine.add.PTCONT.2631130",
      "street": "R CASAL DA ZIBREIRA",
      "house": "2",
      "postcode": "2750-046",
      "city": "CASCAIS",
      "lon": "-9.451658586974773",
      "lat": "38.72769653773423"
    },
    {
      "id": "pt.ine.add.PTCONT.2666443",
      "street": "R ALEXANDRE O NEILL",
      "house": "",
      "postcode": "2750-038",
      "city": "CASCAIS",
      "lon": "-9.453751947184337",
      "lat": "38.72834847968171"
    },
    {
      "id": "pt.ine.add.PTCONT.2675073",
      "street": "R ANTÓNIO GEDEAO",
      "house": "8",
      "postcode": "2750-013",
      "city": "CASCAIS",
      "lon": "-9.453083302687844",
      "lat": "38.72825694790203"
    },
    {
      "id": "pt.ine.add.PTCONT.2687402",
      "street": "R ALEXANDRE O NEILL",
      "house": "CASA 6",
      "postcode": "2750-038",
      "city": "CASCAIS",
      "lon": "-9.453027641175616",
      "lat": "38.72835666055607"
    },
    {
      "id": "pt.ine.add.PTCONT.2707859",
      "street": "R ALEXANDRE O NEILL",
      "house": "CASA 5",
      "postcode": "2750-038",
      "city": "CASCAIS",
      "lon": "-9.452855850153808",
      "lat": "38.728394630831254"
    },
    {
      "id": "pt.ine.add.PTCONT.2719326",
      "street": "ESTR SITIO DAS TRAVESSAS CERRO DO LOBO",
      "house": "166",
      "postcode": "2750-074",
      "city": "CASCAIS",
      "lon": "-9.456809831697951",
      "lat": "38.723936174999764"
    },
    {
      "id": "pt.ine.add.PTCONT.2719328",
      "street": "R CASAL DA ZIBREIRA",
      "house": "",
      "postcode": "2750-046",
      "city": "CASCAIS",
      "lon": "-9.451144705122513",
      "lat": "38.72789149380023"
    },
    {
      "id": "pt.ine.add.PTCONT.2832599",
      "street": "ESTR SITIO DAS TRAVESSAS QTA DE S JOSE",
      "house": "270",
      "postcode": "2750-074",
      "city": "CASCAIS",
      "lon": "-9.456494218982435",
      "lat": "38.724903567127804"
    },
    {
      "id": "pt.ine.add.PTCONT.2850045",
      "street": "ESTR SITIO DAS TRAVESSAS QTA DO POR DO SOL",
      "house": "242",
      "postcode": "2750-074",
      "city": "CASCAIS",
      "lon": "-9.456821298181355",
      "lat": "38.72455757307883"
    },
    {
      "id": "pt.ine.add.PTCONT.2863017",
      "street": "R RAUL LINO",
      "house": "",
      "postcode": "2750-042",
      "city": "CASCAIS",
      "lon": "-9.450866218322725",
      "lat": "38.72838104665779"
    },
    {
      "id": "pt.ine.add.PTCONT.2863029",
      "street": "R ALEXANDRE O NEILL PINHEIRO MANSO",
      "house": "2",
      "postcode": "2750-038",
      "city": "CASCAIS",
      "lon": "-9.453687444887699",
      "lat": "38.72671882398201"
    },
    {
      "id": "pt.ine.add.PTCONT.2863030",
      "street": "R ALEXANDRE O NEILL PINHEIRO MANSO",
      "house": "2",
      "postcode": "2750-038",
      "city": "CASCAIS",
      "lon": "-9.453687444887699",
      "lat": "38.72671882398201"
    },
    {
      "id": "pt.ine.add.PTCONT.2863031",
      "street": "R ALEXANDRE O NEILL PINHEIRO MANSO",
      "house": "2",
      "postcode": "2750-038",
      "city": "CASCAIS",
      "lon": "-9.453687444887699",
      "lat": "38.72671882398201"
    },
    {
      "id": "pt.ine.add.PTCONT.2869532",
      "street": "R ALEXANDRE O NEILL PINHEIRO MANSO",
      "house": "2",
      "postcode": "2750-038",
      "city": "CASCAIS",
      "lon": "-9.453687444887699",
      "lat": "38.72671882398201"
    },
    {
      "id": "pt.ine.add.PTCONT.2871858",
      "street": "R ANTÓNIO GEDEAO",
      "house": "12",
      "postcode": "2750-013",
      "city": "CASCAIS",
      "lon": "-9.453251943872498",
      "lat": "38.72804786755157"
    },
    {
      "id": "pt.ine.add.PTCONT.2891006",
      "street": "R ALEXANDRE O NEILL QTA DO PINHEIRO MANSO",
      "house": "2",
      "postcode": "2750-038",
      "city": "CASCAIS",
      "lon": "-9.45415494079766",
      "lat": "38.72712789352634"
    },
    {
      "id": "pt.ine.add.PTCONT.2908705",
      "street": "R JOSEFINA SILVA",
      "house": "111",
      "postcode": "2750-034",
      "city": "CASCAIS",
      "lon": "-9.450693267948534",
      "lat": "38.72835597328123"
    }
  ]
}