{
  "data": {
    "distrito": "Lisboa",
    "concelho": "Loures",
    "freguesia": "Bucelas",
    "OBJECTID": 1255,
    "BGRI2021": "11070200219",
    "DT21": "11",
    "DTMN21": "1107",
    "DTMNFR21": "110702",
    "DTMNFRSEC21": "110702002",
    "SECNUM21": "002",
    "SSNUM21": "19",
    "SECSSNUM21": "00219",
    "OBJECTID_1": 106947,
    "DT": "11",
    "CC": "07",
    "fr": "02",
    "SEC": "002",
    "SS": "19"
  },
  "addresses": [
    {
      "id": "pt.ine.add.PTCONT.3029855",
      "street": "R ÁGUAS FERREAS QTA DO MELO",
      "house": "",
      "postcode": "2670-649",
      "city": "BUCELAS",
      "lon": "-9.12436577491545",
      "lat": "38.90142868721066"
    },
    {
      "id": "pt.ine.add.PTCONT.3047709",
      "street": "QTA TORRE DE BAIXO",
      "house": "",
      "postcode": "2670-647",
      "city": "BUCELAS",
      "lon": "-9.133710552015396",
      "lat": "38.90032210398785"
    },
    {
      "id": "pt.ine.add.PTCONT.3095219",
      "street": "R MARECHAL CARMONA",
      "house": "5",
      "postcode": "2670-649",
      "city": "BUCELAS",
      "lon": "-9.126361211269296",
      "lat": "38.903168212883976"
    },
    {
      "id": "pt.ine.add.PTCONT.3207362",
      "street": "TORRE DE BAIXO",
      "house": "",
      "postcode": "2670-647",
      "city": "BUCELAS",
      "lon": "-9.135038049272268",
      "lat": "38.90127453368685"
    },
    {
      "id": "pt.ine.add.PTCONT.3270721",
      "street": "R MARECHAL CARMONA",
      "house": "A",
      "postcode": "2670-649",
      "city": "BUCELAS",
      "lon": "-9.126279504231508",
      "lat": "38.902268146574556"
    },
    {
      "id": "pt.ine.add.PTCONT.3296106",
      "street": "TORRE DE BAIXO",
      "house": "",
      "postcode": "2670-647",
      "city": "BUCELAS",
      "lon": "-9.133420356828493",
      "lat": "38.90100016170665"
    },
    {
      "id": "pt.ine.add.PTCONT.3296107",
      "street": "TORRE DE BAIXO",
      "house": "",
      "postcode": "2670-647",
      "city": "BUCELAS",
      "lon": "-9.133420356828493",
      "lat": "38.90100016170665"
    },
    {
      "id": "pt.ine.add.PTCONT.3296108",
      "street": "TORRE DE BAIXO",
      "house": "",
      "postcode": "2670-647",
      "city": "BUCELAS",
      "lon": "-9.133420356828493",
      "lat": "38.90100016170665"
    },
    {
      "id": "pt.ine.add.PTCONT.3296105",
      "street": "TORRE DE BAIXO",
      "house": "",
      "postcode": "2670-647",
      "city": "BUCELAS",
      "lon": "-9.133420356828493",
      "lat": "38.90100016170665"
    },
    {
      "id": "pt.ine.add.PTCONT.3296109",
      "street": "TORRE DE BAIXO",
      "house": "",
      "postcode": "2670-647",
      "city": "BUCELAS",
      "lon": "-9.133420356828493",
      "lat": "38.90100016170665"
    },
    {
      "id": "pt.ine.add.PTCONT.3296110",
      "street": "TORRE DE BAIXO",
      "house": "",
      "postcode": "2670-647",
      "city": "BUCELAS",
      "lon": "-9.133420356828493",
      "lat": "38.90100016170665"
    },
    {
      "id": "pt.ine.add.PTCONT.3296111",
      "street": "TORRE DE BAIXO",
      "house": "",
      "postcode": "2670-647",
      "city": "BUCELAS",
      "lon": "-9.133420356828493",
      "lat": "38.90100016170665"
    },
    {
      "id": "pt.ine.add.PTCONT.3324922",
      "street": "QTA MELO",
      "house": "",
      "postcode": "2670-647",
      "city": "BUCELAS",
      "lon": "-9.1252473622534",
      "lat": "38.896025633977196"
    },
    {
      "id": "pt.ine.add.PTCONT.3324923",
      "street": "R MARECHAL CARMONA",
      "house": "23",
      "postcode": "2670-649",
      "city": "BUCELAS",
      "lon": "-9.132515412390418",
      "lat": "38.90305263957802"
    },
    {
      "id": "pt.ine.add.PTCONT.3362291",
      "street": "R MARECHAL CARMONA",
      "house": "4",
      "postcode": "2670-649",
      "city": "BUCELAS",
      "lon": "-9.126371482664855",
      "lat": "38.90307804936305"
    },
    {
      "id": "pt.ine.add.PTCONT.3446303",
      "street": "TORRE DE BAIXO",
      "house": "",
      "postcode": "2670-647",
      "city": "BUCELAS",
      "lon": "-9.133420356828493",
      "lat": "38.90100016170665"
    },
    {
      "id": "pt.ine.add.PTCONT.2352436",
      "street": "TORRE DE BAIXO QTA DO BEM RI BEIRINHO",
      "house": "",
      "postcode": "2670-647",
      "city": "BUCELAS",
      "lon": "-9.132800983131064",
      "lat": "38.90122164955874"
    },
    {
      "id": "pt.ine.add.PTCONT.2361361",
      "street": "R ÁGUAS FERREAS QTA MELOS",
      "house": "",
      "postcode": "2670-647",
      "city": "BUCELAS",
      "lon": "-9.124692640424199",
      "lat": "38.901723162872756"
    },
    {
      "id": "pt.ine.add.PTCONT.2389170",
      "street": "R MARECHAL CARMONA",
      "house": "B",
      "postcode": "2670-649",
      "city": "BUCELAS",
      "lon": "-9.126292285335818",
      "lat": "38.90235811399392"
    },
    {
      "id": "pt.ine.add.PTCONT.2389212",
      "street": "QTA PICOTA",
      "house": "",
      "postcode": "2670-647",
      "city": "BUCELAS",
      "lon": "-9.13344126035122",
      "lat": "38.90084685318819"
    },
    {
      "id": "pt.ine.add.PTCONT.2405009",
      "street": "R MARECHAL CARMONA",
      "house": "",
      "postcode": "2670-649",
      "city": "BUCELAS",
      "lon": "-9.13303093963427",
      "lat": "38.90282303508841"
    },
    {
      "id": "pt.ine.add.PTCONT.2453347",
      "street": "R MARECHAL CARMONA",
      "house": "C",
      "postcode": "2670-649",
      "city": "BUCELAS",
      "lon": "-9.12628226489461",
      "lat": "38.90246629061292"
    },
    {
      "id": "pt.ine.add.PTCONT.2464461",
      "street": "R MARECHAL CARMONA",
      "house": "D",
      "postcode": "2670-649",
      "city": "BUCELAS",
      "lon": "-9.126294920556006",
      "lat": "38.90254725148159"
    },
    {
      "id": "pt.ine.add.PTCONT.2525168",
      "street": "R MARECHAL CARMONA",
      "house": "13",
      "postcode": "2670-649",
      "city": "BUCELAS",
      "lon": "-9.126548897109963",
      "lat": "38.90340081390906"
    },
    {
      "id": "pt.ine.add.PTCONT.2529296",
      "street": "R MARECHAL CARMONA",
      "house": "5",
      "postcode": "2670-649",
      "city": "BUCELAS",
      "lon": "-9.126382005037385",
      "lat": "38.9030058989321"
    },
    {
      "id": "pt.ine.add.PTCONT.2563714",
      "street": "R MARECHAL CARMONA",
      "house": "E",
      "postcode": "2670-649",
      "city": "BUCELAS",
      "lon": "-9.126274126700645",
      "lat": "38.90270956543139"
    },
    {
      "id": "pt.ine.add.PTCONT.2563715",
      "street": "QTA TORRE DE BAIXO GUINTA DAS LAGRIDAS",
      "house": "",
      "postcode": "2670-649",
      "city": "BUCELAS",
      "lon": "-9.131934383614661",
      "lat": "38.90107593734925"
    },
    {
      "id": "pt.ine.add.PTCONT.2712826",
      "street": "TORRE DE BAIXO",
      "house": "",
      "postcode": "2670-647",
      "city": "BUCELAS",
      "lon": "-9.132368800494351",
      "lat": "38.90163969958556"
    },
    {
      "id": "pt.ine.add.PTCONT.2756029",
      "street": "TORRE DE BAIXO",
      "house": "",
      "postcode": "2670-647",
      "city": "BUCELAS",
      "lon": "-9.131262368562831",
      "lat": "38.90247786464522"
    },
    {
      "id": "pt.ine.add.PTCONT.2756030",
      "street": "TORRE DE BAIXO QTA DAS LAGRIMAS",
      "house": "",
      "postcode": "2670-647",
      "city": "BUCELAS",
      "lon": "-9.131850925366734",
      "lat": "38.90087848382955"
    },
    {
      "id": "pt.ine.add.PTCONT.2778045",
      "street": "R MARECHAL CARMONA",
      "house": "9",
      "postcode": "2670-649",
      "city": "BUCELAS",
      "lon": "-9.125566893306079",
      "lat": "38.903247028873885"
    },
    {
      "id": "pt.ine.add.PTCONT.2795416",
      "street": "R MARECHAL CARMONA",
      "house": "2",
      "postcode": "2670-649",
      "city": "BUCELAS",
      "lon": "-9.126369223686321",
      "lat": "38.90291593153542"
    },
    {
      "id": "pt.ine.add.PTCONT.2820232",
      "street": "R MARECHAL CARMONA",
      "house": "6",
      "postcode": "2670-649",
      "city": "BUCELAS",
      "lon": "-9.126373867161933",
      "lat": "38.903249173731645"
    },
    {
      "id": "pt.ine.add.PTCONT.2829604",
      "street": "R MARECHAL CARMONA",
      "house": "1",
      "postcode": "2670-649",
      "city": "BUCELAS",
      "lon": "-9.126368094203876",
      "lat": "38.902834872619856"
    }
  ]
}