{
  "data": {
    "distrito": "Viseu",
    "concelho": "Sátão",
    "freguesia": "União das freguesias de Romãs, Decermilo e Vila Longa",
    "OBJECTID": 458,
    "BGRI2021": "18171400206",
    "DT21": "18",
    "DTMN21": "1817",
    "DTMNFR21": "181714",
    "DTMNFRSEC21": "181714002",
    "SECNUM21": "002",
    "SSNUM21": "06",
    "SECSSNUM21": "00206",
    "OBJECTID_1": 197371,
    "DT": "18",
    "CC": "17",
    "fr": "14",
    "SEC": "002",
    "SS": "06"
  },
  "addresses": [
    {
      "id": "pt.ine.add.PTCONT.5443166",
      "street": "R FREIXIEIRO",
      "house": "5",
      "postcode": "3560-117",
      "city": "ROMÃS",
      "lon": "-7.660659115023531",
      "lat": "40.72235894584775"
    },
    {
      "id": "pt.ine.add.PTCONT.5446150",
      "street": "R STA MARIA",
      "house": "23",
      "postcode": "3560-115",
      "city": "ROMÃS",
      "lon": "-7.664637870119056",
      "lat": "40.72209600611853"
    },
    {
      "id": "pt.ine.add.PTCONT.5446151",
      "street": "R ADORIGO",
      "house": "27",
      "postcode": "3560-117",
      "city": "ROMÃS",
      "lon": "-7.662829057947904",
      "lat": "40.72011655014258"
    },
    {
      "id": "pt.ine.add.PTCONT.5480637",
      "street": "R FREIXIEIRO",
      "house": "3",
      "postcode": "3560-117",
      "city": "ROMÃS",
      "lon": "-7.660684632805242",
      "lat": "40.72209790457056"
    },
    {
      "id": "pt.ine.add.PTCONT.5517333",
      "street": "R FREIXIEIRO",
      "house": "1",
      "postcode": "3560-117",
      "city": "ROMÃS",
      "lon": "-7.660294438460883",
      "lat": "40.722042276825185"
    },
    {
      "id": "pt.ine.add.PTCONT.5523124",
      "street": "R FREIXIEIRO",
      "house": "",
      "postcode": "3560-117",
      "city": "ROMÃS",
      "lon": "-7.66016494746412",
      "lat": "40.72194269107654"
    },
    {
      "id": "pt.ine.add.PTCONT.5549960",
      "street": "",
      "house": "",
      "postcode": "3560-117",
      "city": "ROMÃS",
      "lon": "-7.662546618368096",
      "lat": "40.718206332801614"
    },
    {
      "id": "pt.ine.add.PTCONT.5560628",
      "street": "R FREIXIEIRO",
      "house": "9",
      "postcode": "3560-117",
      "city": "ROMÃS",
      "lon": "-7.661200313848335",
      "lat": "40.72282041588543"
    },
    {
      "id": "pt.ine.add.PTCONT.5599494",
      "street": "R FREIXIEIRO",
      "house": "11",
      "postcode": "3560-117",
      "city": "ROMÃS",
      "lon": "-7.662380339876812",
      "lat": "40.72332951538409"
    },
    {
      "id": "pt.ine.add.PTCONT.5612524",
      "street": "",
      "house": "",
      "postcode": "3560-117",
      "city": "ROMÃS",
      "lon": "-7.664270059650035",
      "lat": "40.72053664316498"
    }
  ]
}