{
  "data": {
    "distrito": "Évora",
    "concelho": "Vendas Novas",
    "freguesia": "Vendas Novas",
    "OBJECTID": 135,
    "BGRI2021": "07120100507",
    "DT21": "07",
    "DTMN21": "0712",
    "DTMNFR21": "071201",
    "DTMNFRSEC21": "071201005",
    "SECNUM21": "005",
    "SSNUM21": "07",
    "SECSSNUM21": "00507",
    "OBJECTID_1": 63755,
    "DT": "07",
    "CC": "12",
    "fr": "01",
    "SEC": "005",
    "SS": "07"
  },
  "addresses": [
    {
      "id": "pt.ine.add.PTCONT.1384474",
      "street": "MTE NARCISOS - ESTRADA DA AFEITEIRA",
      "house": "",
      "postcode": "7080-301",
      "city": "VENDAS NOVAS",
      "lon": "-8.50670123403461",
      "lat": "38.64998762944448"
    },
    {
      "id": "pt.ine.add.PTCONT.1387060",
      "street": "MTE NARCISOS - ESTRADA DA AFEITEIRA",
      "house": "",
      "postcode": "7080-301",
      "city": "VENDAS NOVAS",
      "lon": "-8.506618727016582",
      "lat": "38.65008630715172"
    },
    {
      "id": "pt.ine.add.PTCONT.1390678",
      "street": "MTE NARCISO DE CIMA",
      "house": "",
      "postcode": "7080-301",
      "city": "VENDAS NOVAS",
      "lon": "-8.504974283134336",
      "lat": "38.649080724681475"
    },
    {
      "id": "pt.ine.add.PTCONT.1391379",
      "street": "ESTR AFEITEIRA",
      "house": "99",
      "postcode": "7080-301",
      "city": "VENDAS NOVAS",
      "lon": "-8.502681745231605",
      "lat": "38.652213675416434"
    },
    {
      "id": "pt.ine.add.PTCONT.1394842",
      "street": "R 7 DE ABRIL",
      "house": "",
      "postcode": "7080-301",
      "city": "VENDAS NOVAS",
      "lon": "-8.506740094733377",
      "lat": "38.64899254929421"
    },
    {
      "id": "pt.ine.add.PTCONT.1407140",
      "street": "R 7 ABRIL",
      "house": "4",
      "postcode": "7080-301",
      "city": "VENDAS NOVAS",
      "lon": "-8.506296351035516",
      "lat": "38.64828059581392"
    },
    {
      "id": "pt.ine.add.PTCONT.1412580",
      "street": "ESTR AFEITEIRA",
      "house": "95",
      "postcode": "7080-301",
      "city": "VENDAS NOVAS",
      "lon": "-8.50314605732614",
      "lat": "38.65202594314809"
    },
    {
      "id": "pt.ine.add.PTCONT.1412600",
      "street": "ESTR AFEITEIRA",
      "house": "",
      "postcode": "7080-301",
      "city": "VENDAS NOVAS",
      "lon": "-8.503191585645162",
      "lat": "38.65020191577843"
    },
    {
      "id": "pt.ine.add.PTCONT.1414576",
      "street": "ESTR AFEITEIRA",
      "house": "99",
      "postcode": "7080-301",
      "city": "VENDAS NOVAS",
      "lon": "-8.50253186602106",
      "lat": "38.65210881807583"
    },
    {
      "id": "pt.ine.add.PTCONT.1416634",
      "street": "ESTR AFEITEIRA",
      "house": "",
      "postcode": "7080-301",
      "city": "VENDAS NOVAS",
      "lon": "-8.50316968117764",
      "lat": "38.65215198390288"
    },
    {
      "id": "pt.ine.add.PTCONT.1417865",
      "street": "MTE NARCISOS - ESTRADA DA AFEITEIRA",
      "house": "",
      "postcode": "7080-301",
      "city": "VENDAS NOVAS",
      "lon": "-8.506587971304485",
      "lat": "38.650128033376106"
    },
    {
      "id": "pt.ine.add.PTCONT.1418212",
      "street": "ESTR AFEITEIRA",
      "house": "101",
      "postcode": "7080-301",
      "city": "VENDAS NOVAS",
      "lon": "-8.502911172243994",
      "lat": "38.652149892629346"
    },
    {
      "id": "pt.ine.add.PTCONT.1419383",
      "street": "ESTR AFEITEIRA",
      "house": "",
      "postcode": "7080-301",
      "city": "VENDAS NOVAS",
      "lon": "-8.502473239883534",
      "lat": "38.65223081184272"
    },
    {
      "id": "pt.ine.add.PTCONT.1428927",
      "street": "ESTR AFEITEIRA",
      "house": "",
      "postcode": "7080-301",
      "city": "VENDAS NOVAS",
      "lon": "-8.506184948144591",
      "lat": "38.651063002922584"
    },
    {
      "id": "pt.ine.add.PTCONT.1432878",
      "street": "ESTR AFEITEIRA",
      "house": "",
      "postcode": "7080-301",
      "city": "VENDAS NOVAS",
      "lon": "-8.503391191667989",
      "lat": "38.6516709369917"
    },
    {
      "id": "pt.ine.add.PTCONT.1444185",
      "street": "R MONTE NOVO MONTE JOÃO VALE DE GATO",
      "house": "",
      "postcode": "7080-301",
      "city": "VENDAS NOVAS",
      "lon": "-8.500838531783295",
      "lat": "38.65120155183898"
    },
    {
      "id": "pt.ine.add.PTCONT.1445544",
      "street": "ESTR AFEITEIRA",
      "house": "",
      "postcode": "7080-301",
      "city": "VENDAS NOVAS",
      "lon": "-8.506129598043973",
      "lat": "38.65152785646719"
    },
    {
      "id": "pt.ine.add.PTCONT.1447327",
      "street": "R MONTE NOVO MONTE JOÃO VAL DE GATO",
      "house": "",
      "postcode": "7080-301",
      "city": "VENDAS NOVAS",
      "lon": "-8.501011441703803",
      "lat": "38.651318115430804"
    },
    {
      "id": "pt.ine.add.PTCONT.1450015",
      "street": "ESTR AFEITEIRA",
      "house": "91",
      "postcode": "7080-301",
      "city": "VENDAS NOVAS",
      "lon": "-8.502088312808404",
      "lat": "38.65253132026773"
    },
    {
      "id": "pt.ine.add.PTCONT.1451875",
      "street": "ESTR AFEITEIRA",
      "house": "89",
      "postcode": "7080-301",
      "city": "VENDAS NOVAS",
      "lon": "-8.501540502894324",
      "lat": "38.65278398425674"
    },
    {
      "id": "pt.ine.add.PTCONT.1452651",
      "street": "QTA NARCISO",
      "house": "",
      "postcode": "7080-301",
      "city": "VENDAS NOVAS",
      "lon": "-8.503689165080267",
      "lat": "38.64962645637661"
    },
    {
      "id": "pt.ine.add.PTCONT.1458308",
      "street": "ESTR AFEITEIRA",
      "house": "101",
      "postcode": "7080-301",
      "city": "VENDAS NOVAS",
      "lon": "-8.502670081355797",
      "lat": "38.65184041222318"
    },
    {
      "id": "pt.ine.add.PTCONT.1461750",
      "street": "ESTR AFEITEIRA",
      "house": "",
      "postcode": "7080-301",
      "city": "VENDAS NOVAS",
      "lon": "-8.50594140990112",
      "lat": "38.65166283695036"
    },
    {
      "id": "pt.ine.add.PTCONT.1461754",
      "street": "R MONTE NOVO MONTE JOÃO UAL DE GATO",
      "house": "",
      "postcode": "7080-301",
      "city": "VENDAS NOVAS",
      "lon": "-8.500998552122187",
      "lat": "38.65111249039622"
    },
    {
      "id": "pt.ine.add.PTCONT.1464426",
      "street": "ESTR AFEITEIRA",
      "house": "",
      "postcode": "7080-301",
      "city": "VENDAS NOVAS",
      "lon": "-8.503817945766531",
      "lat": "38.65200289062104"
    },
    {
      "id": "pt.ine.add.PTCONT.1465602",
      "street": "ESTR AFEITEIRA",
      "house": "89",
      "postcode": "7080-301",
      "city": "VENDAS NOVAS",
      "lon": "-8.501570589576472",
      "lat": "38.65282974147743"
    }
  ]
}