{
  "data": {
    "distrito": "Leiria",
    "concelho": "Leiria",
    "freguesia": "Arrabal",
    "OBJECTID": 276,
    "BGRI2021": "10090200123",
    "DT21": "10",
    "DTMN21": "1009",
    "DTMNFR21": "100902",
    "DTMNFRSEC21": "100902001",
    "SECNUM21": "001",
    "SSNUM21": "23",
    "SECSSNUM21": "00123",
    "OBJECTID_1": 91276,
    "DT": "10",
    "CC": "09",
    "fr": "02",
    "SEC": "001",
    "SS": "23"
  },
  "addresses": [
    {
      "id": "pt.ine.add.PTCONT.2002483",
      "street": "R CHARNEQUINHA",
      "house": "10",
      "postcode": "2420-026",
      "city": "ARRABAL",
      "lon": "-8.721368659629082",
      "lat": "39.716647072126875"
    },
    {
      "id": "pt.ine.add.PTCONT.2064994",
      "street": "R NSA SRA DA CONCEIÇÃO",
      "house": "57",
      "postcode": "2420-026",
      "city": "ARRABAL",
      "lon": "-8.719443089167722",
      "lat": "39.71511669189861"
    },
    {
      "id": "pt.ine.add.PTCONT.2097753",
      "street": "R 19 DE MAIO",
      "house": "43",
      "postcode": "2420-026",
      "city": "ARRABAL",
      "lon": "-8.720697748634533",
      "lat": "39.71592093876624"
    },
    {
      "id": "pt.ine.add.PTCONT.2152929",
      "street": "R 19 DE MAIO",
      "house": "37",
      "postcode": "2420-026",
      "city": "ARRABAL",
      "lon": "-8.721238926816456",
      "lat": "39.7164766048889"
    },
    {
      "id": "pt.ine.add.PTCONT.2170966",
      "street": "R 19 DE MAIO",
      "house": "33",
      "postcode": "2420-026",
      "city": "ARRABAL",
      "lon": "-8.721568440390357",
      "lat": "39.71682619074733"
    },
    {
      "id": "pt.ine.add.PTCONT.2181672",
      "street": "R 19 DE MAIO",
      "house": "53",
      "postcode": "2420-026",
      "city": "ARRABAL",
      "lon": "-8.719655056056258",
      "lat": "39.71535879822069"
    },
    {
      "id": "pt.ine.add.PTCONT.2206258",
      "street": "R CHARNEQUINHA",
      "house": "",
      "postcode": "2420-026",
      "city": "ARRABAL",
      "lon": "-8.72100676253131",
      "lat": "39.716603872457455"
    },
    {
      "id": "pt.ine.add.PTCONT.2210974",
      "street": "R CHARNEQUINHA",
      "house": "17",
      "postcode": "2420-026",
      "city": "ARRABAL",
      "lon": "-8.720301176291331",
      "lat": "39.71591393858245"
    },
    {
      "id": "pt.ine.add.PTCONT.2219813",
      "street": "R 19 DE MAIO",
      "house": "51",
      "postcode": "2420-026",
      "city": "ARRABAL",
      "lon": "-8.719914433993615",
      "lat": "39.71569073006711"
    },
    {
      "id": "pt.ine.add.PTCONT.2262619",
      "street": "R FONTE",
      "house": "1",
      "postcode": "2420-026",
      "city": "ARRABAL",
      "lon": "-8.720945624888301",
      "lat": "39.71627093957565"
    }
  ]
}