{
  "data": {
    "distrito": "Beja",
    "concelho": "Odemira",
    "freguesia": "São Teotónio",
    "OBJECTID": 81,
    "BGRI2021": "02112100613",
    "DT21": "02",
    "DTMN21": "0211",
    "DTMNFR21": "021121",
    "DTMNFRSEC21": "021121006",
    "SECNUM21": "006",
    "SSNUM21": "13",
    "SECSSNUM21": "00613",
    "OBJECTID_1": 17333,
    "DT": "02",
    "CC": "11",
    "fr": "21",
    "SEC": "006",
    "SS": "13"
  },
  "addresses": [
    {
      "id": "pt.ine.add.PTCONT.456144",
      "street": "",
      "house": "",
      "postcode": "7630-569",
      "city": "SÃO TEOTÓNIO",
      "lon": "-8.764484091706558",
      "lat": "37.48788045845265"
    },
    {
      "id": "pt.ine.add.PTCONT.458072",
      "street": "R PRINCIPAL",
      "house": "19",
      "postcode": "7630-569",
      "city": "SÃO TEOTÓNIO",
      "lon": "-8.766582153905961",
      "lat": "37.48058919485229"
    },
    {
      "id": "pt.ine.add.PTCONT.458717",
      "street": "ALCARIA",
      "house": "",
      "postcode": "7630-569",
      "city": "SÃO TEOTÓNIO",
      "lon": "-8.752750493012103",
      "lat": "37.499195989569834"
    },
    {
      "id": "pt.ine.add.PTCONT.373818",
      "street": "",
      "house": "",
      "postcode": "7630-569",
      "city": "SÃO TEOTÓNIO",
      "lon": "-8.749053535603464",
      "lat": "37.49243084560743"
    },
    {
      "id": "pt.ine.add.PTCONT.353730",
      "street": "BREJÃO",
      "house": "",
      "postcode": "7630-569",
      "city": "SÃO TEOTÓNIO",
      "lon": "-8.765979112294659",
      "lat": "37.481475401335544"
    },
    {
      "id": "pt.ine.add.PTCONT.352951",
      "street": "R PRINCIPAL",
      "house": "13",
      "postcode": "7630-569",
      "city": "SÃO TEOTÓNIO",
      "lon": "-8.766479873473514",
      "lat": "37.480526673572484"
    },
    {
      "id": "pt.ine.add.PTCONT.352987",
      "street": "CARVALHAL DE AMOREIRA",
      "house": "",
      "postcode": "7630-569",
      "city": "SÃO TEOTÓNIO",
      "lon": "-8.778307610686012",
      "lat": "37.49125657570336"
    },
    {
      "id": "pt.ine.add.PTCONT.356111",
      "street": "MTE DA PEDRA",
      "house": "",
      "postcode": "7630-569",
      "city": "SÃO TEOTÓNIO",
      "lon": "-8.75052446525423",
      "lat": "37.49117078602464"
    },
    {
      "id": "pt.ine.add.PTCONT.358909",
      "street": "",
      "house": "",
      "postcode": "7630-569",
      "city": "SÃO TEOTÓNIO",
      "lon": "-8.764484091706558",
      "lat": "37.48788045845265"
    },
    {
      "id": "pt.ine.add.PTCONT.358910",
      "street": "",
      "house": "",
      "postcode": "7630-569",
      "city": "SÃO TEOTÓNIO",
      "lon": "-8.764484091706558",
      "lat": "37.48788045845265"
    },
    {
      "id": "pt.ine.add.PTCONT.358911",
      "street": "",
      "house": "",
      "postcode": "7630-569",
      "city": "SÃO TEOTÓNIO",
      "lon": "-8.764484091706558",
      "lat": "37.48788045845265"
    },
    {
      "id": "pt.ine.add.PTCONT.361505",
      "street": "",
      "house": "",
      "postcode": "7630-569",
      "city": "SÃO TEOTÓNIO",
      "lon": "-8.756082687586488",
      "lat": "37.49328597092705"
    },
    {
      "id": "pt.ine.add.PTCONT.368000",
      "street": "",
      "house": "",
      "postcode": "7630-569",
      "city": "SÃO TEOTÓNIO",
      "lon": "-8.757950640037633",
      "lat": "37.49354640364912"
    },
    {
      "id": "pt.ine.add.PTCONT.367576",
      "street": "MTE ALCARIA DOS CABECINHOS",
      "house": "",
      "postcode": "7630-744",
      "city": "ZAMBUJEIRA DO MAR",
      "lon": "-8.76027839904933",
      "lat": "37.50416577650014"
    },
    {
      "id": "pt.ine.add.PTCONT.367999",
      "street": "",
      "house": "",
      "postcode": "7630-569",
      "city": "SÃO TEOTÓNIO",
      "lon": "-8.757950640037633",
      "lat": "37.49354640364912"
    },
    {
      "id": "pt.ine.add.PTCONT.373817",
      "street": "",
      "house": "",
      "postcode": "7630-569",
      "city": "SÃO TEOTÓNIO",
      "lon": "-8.769403934014123",
      "lat": "37.49203467122839"
    },
    {
      "id": "pt.ine.add.PTCONT.374033",
      "street": "BREJÃO",
      "house": "",
      "postcode": "7630-569",
      "city": "SÃO TEOTÓNIO",
      "lon": "-8.766828012267975",
      "lat": "37.481587980367706"
    },
    {
      "id": "pt.ine.add.PTCONT.378755",
      "street": "PQ CAMPISMO BREJÃO",
      "house": "",
      "postcode": "7630-569",
      "city": "SÃO TEOTÓNIO",
      "lon": "-8.786156615409709",
      "lat": "37.49533999074315"
    },
    {
      "id": "pt.ine.add.PTCONT.378873",
      "street": "PQ DE CAMPISMO DO BREJÃO",
      "house": "",
      "postcode": "7630-569",
      "city": "SÃO TEOTÓNIO",
      "lon": "-8.786156615409709",
      "lat": "37.49533999074315"
    },
    {
      "id": "pt.ine.add.PTCONT.439464",
      "street": "",
      "house": "",
      "postcode": "7630-569",
      "city": "SÃO TEOTÓNIO",
      "lon": "-8.749420083245303",
      "lat": "37.491627049521185"
    },
    {
      "id": "pt.ine.add.PTCONT.379740",
      "street": "R PRINCIPAL",
      "house": "19",
      "postcode": "7630-569",
      "city": "SÃO TEOTÓNIO",
      "lon": "-8.766694522665595",
      "lat": "37.480507502798076"
    },
    {
      "id": "pt.ine.add.PTCONT.384639",
      "street": "MTE VALE DE FIGUEIRA",
      "house": "",
      "postcode": "7630-744",
      "city": "ZAMBUJEIRA DO MAR",
      "lon": "-8.763550683174012",
      "lat": "37.50798104742677"
    },
    {
      "id": "pt.ine.add.PTCONT.384640",
      "street": "MTE VALE DE FIGUEIRA",
      "house": "",
      "postcode": "7630-744",
      "city": "ZAMBUJEIRA DO MAR",
      "lon": "-8.763550683174012",
      "lat": "37.50798104742677"
    },
    {
      "id": "pt.ine.add.PTCONT.384690",
      "street": "MTE VALE DE FIGUEIRA",
      "house": "",
      "postcode": "7630-744",
      "city": "ZAMBUJEIRA DO MAR",
      "lon": "-8.763550683174012",
      "lat": "37.50798104742677"
    },
    {
      "id": "pt.ine.add.PTCONT.384694",
      "street": "R PRINCIPAL",
      "house": "",
      "postcode": "7630-569",
      "city": "SÃO TEOTÓNIO",
      "lon": "-8.767025041244963",
      "lat": "37.480821078019574"
    },
    {
      "id": "pt.ine.add.PTCONT.385158",
      "street": "",
      "house": "",
      "postcode": "7630-569",
      "city": "SÃO TEOTÓNIO",
      "lon": "-8.7704774222025",
      "lat": "37.48795639579647"
    },
    {
      "id": "pt.ine.add.PTCONT.386248",
      "street": "MTE VALE DE FIGUEIRA",
      "house": "",
      "postcode": "7630-744",
      "city": "ZAMBUJEIRA DO MAR",
      "lon": "-8.763557316324505",
      "lat": "37.5081036719894"
    },
    {
      "id": "pt.ine.add.PTCONT.386249",
      "street": "MTE VALE DE FIGUEIRA",
      "house": "",
      "postcode": "7630-744",
      "city": "ZAMBUJEIRA DO MAR",
      "lon": "-8.763557316324505",
      "lat": "37.5081036719894"
    },
    {
      "id": "pt.ine.add.PTCONT.386250",
      "street": "MTE VALE DE FIGUEIRA",
      "house": "",
      "postcode": "7630-744",
      "city": "ZAMBUJEIRA DO MAR",
      "lon": "-8.763557316324505",
      "lat": "37.5081036719894"
    },
    {
      "id": "pt.ine.add.PTCONT.386297",
      "street": "MTE VALE DE FIGUEIRA",
      "house": "",
      "postcode": "7630-744",
      "city": "ZAMBUJEIRA DO MAR",
      "lon": "-8.763557316324505",
      "lat": "37.5081036719894"
    },
    {
      "id": "pt.ine.add.PTCONT.387770",
      "street": "R PRINCIPAL",
      "house": "",
      "postcode": "7630-569",
      "city": "SÃO TEOTÓNIO",
      "lon": "-8.76775811081209",
      "lat": "37.4819433856387"
    },
    {
      "id": "pt.ine.add.PTCONT.393314",
      "street": "",
      "house": "",
      "postcode": "7630-569",
      "city": "SÃO TEOTÓNIO",
      "lon": "-8.76406567738263",
      "lat": "37.48787368388401"
    },
    {
      "id": "pt.ine.add.PTCONT.394987",
      "street": "R PRINCIPAL",
      "house": "",
      "postcode": "7630-569",
      "city": "SÃO TEOTÓNIO",
      "lon": "-8.7672186792818",
      "lat": "37.48099122788523"
    },
    {
      "id": "pt.ine.add.PTCONT.395866",
      "street": "MTE VALE DE FIGUEIRA",
      "house": "",
      "postcode": "7630-744",
      "city": "ZAMBUJEIRA DO MAR",
      "lon": "-8.776854121770228",
      "lat": "37.50721026282343"
    },
    {
      "id": "pt.ine.add.PTCONT.402236",
      "street": "R PRINCIPAL",
      "house": "",
      "postcode": "7630-569",
      "city": "SÃO TEOTÓNIO",
      "lon": "-8.769022800006312",
      "lat": "37.48308985803202"
    },
    {
      "id": "pt.ine.add.PTCONT.404782",
      "street": "MTE VALE DE FIGUEIRA",
      "house": "",
      "postcode": "7630-744",
      "city": "ZAMBUJEIRA DO MAR",
      "lon": "-8.777863881611731",
      "lat": "37.50803545560462"
    },
    {
      "id": "pt.ine.add.PTCONT.404783",
      "street": "MTE VALE DE FIGUEIRA",
      "house": "",
      "postcode": "7630-744",
      "city": "ZAMBUJEIRA DO MAR",
      "lon": "-8.777863881611731",
      "lat": "37.50803545560462"
    },
    {
      "id": "pt.ine.add.PTCONT.404952",
      "street": "",
      "house": "",
      "postcode": "7630-569",
      "city": "SÃO TEOTÓNIO",
      "lon": "-8.763396250337067",
      "lat": "37.487597949144075"
    },
    {
      "id": "pt.ine.add.PTCONT.406439",
      "street": "MTE VALE DE FIGUEIRA",
      "house": "",
      "postcode": "7630-744",
      "city": "ZAMBUJEIRA DO MAR",
      "lon": "-8.763023729786186",
      "lat": "37.5077572704293"
    },
    {
      "id": "pt.ine.add.PTCONT.408849",
      "street": "HRD DA DRISCOLLA",
      "house": "",
      "postcode": "7630-569",
      "city": "SÃO TEOTÓNIO",
      "lon": "-8.78961240771497",
      "lat": "37.49353687308974"
    },
    {
      "id": "pt.ine.add.PTCONT.409650",
      "street": "R PRINCIPAL",
      "house": "11",
      "postcode": "7630-569",
      "city": "SÃO TEOTÓNIO",
      "lon": "-8.766323195424691",
      "lat": "37.48071672226443"
    },
    {
      "id": "pt.ine.add.PTCONT.412978",
      "street": "MTE ALCARIA DOS CABECINHOS",
      "house": "",
      "postcode": "7630-744",
      "city": "ZAMBUJEIRA DO MAR",
      "lon": "-8.760155206684546",
      "lat": "37.50431058913938"
    },
    {
      "id": "pt.ine.add.PTCONT.414214",
      "street": "",
      "house": "",
      "postcode": "7630-569",
      "city": "SÃO TEOTÓNIO",
      "lon": "-8.790215266036103",
      "lat": "37.49781322992791"
    },
    {
      "id": "pt.ine.add.PTCONT.424122",
      "street": "R PRINCIPAL",
      "house": "3",
      "postcode": "7630-569",
      "city": "SÃO TEOTÓNIO",
      "lon": "-8.766332676034846",
      "lat": "37.48050043273272"
    },
    {
      "id": "pt.ine.add.PTCONT.424608",
      "street": "QTA TALISCAS",
      "house": "",
      "postcode": "7630-569",
      "city": "SÃO TEOTÓNIO",
      "lon": "-8.74734047200997",
      "lat": "37.49174599961877"
    },
    {
      "id": "pt.ine.add.PTCONT.425378",
      "street": "QTA AMALIA RODRIGUES",
      "house": "",
      "postcode": "7630-569",
      "city": "SÃO TEOTÓNIO",
      "lon": "-8.793239135948403",
      "lat": "37.48162356353628"
    },
    {
      "id": "pt.ine.add.PTCONT.425379",
      "street": "QTA AMALIA RODRIGUES",
      "house": "",
      "postcode": "7630-569",
      "city": "SÃO TEOTÓNIO",
      "lon": "-8.793239135948403",
      "lat": "37.48162356353628"
    },
    {
      "id": "pt.ine.add.PTCONT.426399",
      "street": "VALE DO LOBATO",
      "house": "",
      "postcode": "7630-676",
      "city": "SÃO TEOTÓNIO",
      "lon": "-8.763420431769722",
      "lat": "37.48509305699634"
    },
    {
      "id": "pt.ine.add.PTCONT.433724",
      "street": "HRD DA VITACRESS",
      "house": "",
      "postcode": "7630-569",
      "city": "SÃO TEOTÓNIO",
      "lon": "-8.788453102044585",
      "lat": "37.482506151536434"
    },
    {
      "id": "pt.ine.add.PTCONT.433769",
      "street": "R PRINCIPAL",
      "house": "19",
      "postcode": "7630-569",
      "city": "SÃO TEOTÓNIO",
      "lon": "-8.766582153905961",
      "lat": "37.48058919485229"
    },
    {
      "id": "pt.ine.add.PTCONT.433770",
      "street": "R PRINCIPAL",
      "house": "19",
      "postcode": "7630-569",
      "city": "SÃO TEOTÓNIO",
      "lon": "-8.766582153905961",
      "lat": "37.48058919485229"
    },
    {
      "id": "pt.ine.add.PTCONT.436276",
      "street": "CARVALHAL DA ROCHA",
      "house": "",
      "postcode": "7630-561",
      "city": "SÃO TEOTÓNIO",
      "lon": "-8.790214555508058",
      "lat": "37.49773214469297"
    },
    {
      "id": "pt.ine.add.PTCONT.436365",
      "street": "R PRINCIPAL",
      "house": "5",
      "postcode": "7630-569",
      "city": "SÃO TEOTÓNIO",
      "lon": "-8.766185934776544",
      "lat": "37.48052824894616"
    },
    {
      "id": "pt.ine.add.PTCONT.438970",
      "street": "MTE ALCARIA DOS CABECINHOS",
      "house": "",
      "postcode": "7630-744",
      "city": "ZAMBUJEIRA DO MAR",
      "lon": "-8.760802833107386",
      "lat": "37.5046675460236"
    },
    {
      "id": "pt.ine.add.PTCONT.447752",
      "street": "MTE VALE DE FIGUEIRA",
      "house": "",
      "postcode": "7630-744",
      "city": "ZAMBUJEIRA DO MAR",
      "lon": "-8.778201537093532",
      "lat": "37.50784440412188"
    },
    {
      "id": "pt.ine.add.PTCONT.447753",
      "street": "MTE VALE DE FIGUEIRA",
      "house": "",
      "postcode": "7630-744",
      "city": "ZAMBUJEIRA DO MAR",
      "lon": "-8.778201537093532",
      "lat": "37.50784440412188"
    },
    {
      "id": "pt.ine.add.PTCONT.447754",
      "street": "MTE VALE DE FIGUEIRA",
      "house": "",
      "postcode": "7630-744",
      "city": "ZAMBUJEIRA DO MAR",
      "lon": "-8.778201537093532",
      "lat": "37.50784440412188"
    },
    {
      "id": "pt.ine.add.PTCONT.447818",
      "street": "MTE VALE DE FIGUEIRA",
      "house": "",
      "postcode": "7630-744",
      "city": "ZAMBUJEIRA DO MAR",
      "lon": "-8.773066041822055",
      "lat": "37.50595878441772"
    },
    {
      "id": "pt.ine.add.PTCONT.450932",
      "street": "MTE DA ESCALEIRA",
      "house": "",
      "postcode": "7630-569",
      "city": "SÃO TEOTÓNIO",
      "lon": "-8.793080414404809",
      "lat": "37.48671506007156"
    },
    {
      "id": "pt.ine.add.PTCONT.451009",
      "street": "VALE DO LOBATO",
      "house": "",
      "postcode": "7630-676",
      "city": "SÃO TEOTÓNIO",
      "lon": "-8.763171850456414",
      "lat": "37.48511240282468"
    },
    {
      "id": "pt.ine.add.PTCONT.451052",
      "street": "VALE DO LOBATO",
      "house": "",
      "postcode": "7630-676",
      "city": "SÃO TEOTÓNIO",
      "lon": "-8.763171850456414",
      "lat": "37.48511240282468"
    },
    {
      "id": "pt.ine.add.PTCONT.453771",
      "street": "",
      "house": "",
      "postcode": "7630-569",
      "city": "SÃO TEOTÓNIO",
      "lon": "-8.749128630396312",
      "lat": "37.49331342776718"
    }
  ]
}