{
  "data": {
    "distrito": "Leiria",
    "concelho": "Leiria",
    "freguesia": "Uni√£o das freguesias de Leiria, Pousos, Barreira e Cortes",
    "OBJECTID": 794,
    "BGRI2021": "10093300923",
    "DT21": "10",
    "DTMN21": "1009",
    "DTMNFR21": "100933",
    "DTMNFRSEC21": "100933009",
    "SECNUM21": "009",
    "SSNUM21": "23",
    "SECSSNUM21": "00923",
    "OBJECTID_1": 91507,
    "DT": "10",
    "CC": "09",
    "fr": "33",
    "SEC": "009",
    "SS": "23"
  },
  "addresses": [
    {
      "id": "pt.ine.add.PTCONT.2000493",
      "street": "TV CAP BATALHA",
      "house": "590",
      "postcode": "2410-267",
      "city": "LEIRIA",
      "lon": "-8.799408737747804",
      "lat": "39.6847385238802"
    },
    {
      "id": "pt.ine.add.PTCONT.2005498",
      "street": "R NSA SRA DA AGONIA",
      "house": "468",
      "postcode": "2410-267",
      "city": "LEIRIA",
      "lon": "-8.798842925362273",
      "lat": "39.68408428893208"
    },
    {
      "id": "pt.ine.add.PTCONT.2009076",
      "street": "R NSA SRA DA AGONIA",
      "house": "450",
      "postcode": "2410-267",
      "city": "LEIRIA",
      "lon": "-8.798748379330972",
      "lat": "39.68394973225807"
    },
    {
      "id": "pt.ine.add.PTCONT.2011340",
      "street": "R NSA SRA DA AGONIA",
      "house": "",
      "postcode": "2410-267",
      "city": "LEIRIA",
      "lon": "-8.79978554777304",
      "lat": "39.68513265052533"
    },
    {
      "id": "pt.ine.add.PTCONT.2011359",
      "street": "R MATA DO CAPITAO",
      "house": "487",
      "postcode": "2410-001",
      "city": "LEIRIA",
      "lon": "-8.795305142647397",
      "lat": "39.684698951114484"
    },
    {
      "id": "pt.ine.add.PTCONT.2044110",
      "street": "R MATA DO CAPITAO",
      "house": "347",
      "postcode": "2410-001",
      "city": "LEIRIA",
      "lon": "-8.794722469919094",
      "lat": "39.68349539078918"
    },
    {
      "id": "pt.ine.add.PTCONT.2055317",
      "street": "R NSA SRA DA AGONIA",
      "house": "542",
      "postcode": "2410-267",
      "city": "LEIRIA",
      "lon": "-8.7993381945378",
      "lat": "39.684675882590824"
    },
    {
      "id": "pt.ine.add.PTCONT.2059583",
      "street": "R NSA SRA DA AGONIA",
      "house": "490",
      "postcode": "2410-267",
      "city": "LEIRIA",
      "lon": "-8.798879796523236",
      "lat": "39.68428222224484"
    },
    {
      "id": "pt.ine.add.PTCONT.2066984",
      "street": "R MATA DO CAPITAO",
      "house": "575 A",
      "postcode": "2410-001",
      "city": "LEIRIA",
      "lon": "-8.795813161890862",
      "lat": "39.68540757260092"
    },
    {
      "id": "pt.ine.add.PTCONT.2068181",
      "street": "R MATA DO CAPITAO",
      "house": "715",
      "postcode": "2410-001",
      "city": "LEIRIA",
      "lon": "-8.796233109160156",
      "lat": "39.68665708920909"
    },
    {
      "id": "pt.ine.add.PTCONT.2110112",
      "street": "R NSA SRA DA AGONIA",
      "house": "",
      "postcode": "2410-267",
      "city": "LEIRIA",
      "lon": "-8.799267564911933",
      "lat": "39.68460423517693"
    },
    {
      "id": "pt.ine.add.PTCONT.2112658",
      "street": "R NSA SRA DA AGONIA",
      "house": "622",
      "postcode": "2410-267",
      "city": "LEIRIA",
      "lon": "-8.799892186895761",
      "lat": "39.685312169755846"
    },
    {
      "id": "pt.ine.add.PTCONT.2118729",
      "street": "R NSA SRA DO CARMO",
      "house": "650",
      "postcode": "2410-267",
      "city": "LEIRIA",
      "lon": "-8.799963684257786",
      "lat": "39.68547387754394"
    },
    {
      "id": "pt.ine.add.PTCONT.2164523",
      "street": "R MATA DO CAPITAO",
      "house": "521",
      "postcode": "2410-001",
      "city": "LEIRIA",
      "lon": "-8.795958407928582",
      "lat": "39.684749263495085"
    },
    {
      "id": "pt.ine.add.PTCONT.2168963",
      "street": "R NSA SRA DA AGONIA",
      "house": "376",
      "postcode": "2410-267",
      "city": "LEIRIA",
      "lon": "-8.798300781373069",
      "lat": "39.68346594186381"
    },
    {
      "id": "pt.ine.add.PTCONT.2168976",
      "street": "R QUA MATA DO CAPITAO",
      "house": "651",
      "postcode": "2410-001",
      "city": "LEIRIA",
      "lon": "-8.795913301511888",
      "lat": "39.686127527135206"
    },
    {
      "id": "pt.ine.add.PTCONT.2184071",
      "street": "R ENG ADELINO AMARODA COSTA",
      "house": "131",
      "postcode": "2410-001",
      "city": "LEIRIA",
      "lon": "-8.797045358569703",
      "lat": "39.68626516526745"
    },
    {
      "id": "pt.ine.add.PTCONT.2197714",
      "street": "R NSA SRA DA AGONIA",
      "house": "640",
      "postcode": "2410-001",
      "city": "LEIRIA",
      "lon": "-8.799637046791242",
      "lat": "39.685448733124346"
    },
    {
      "id": "pt.ine.add.PTCONT.2204681",
      "street": "R NSA SRA DA AGONIA",
      "house": "522",
      "postcode": "2410-267",
      "city": "LEIRIA",
      "lon": "-8.798998347674713",
      "lat": "39.68448869376654"
    },
    {
      "id": "pt.ine.add.PTCONT.2207136",
      "street": "R MATA DO CAPITAO",
      "house": "619",
      "postcode": "2410-001",
      "city": "LEIRIA",
      "lon": "-8.795816605810588",
      "lat": "39.685767815991355"
    },
    {
      "id": "pt.ine.add.PTCONT.2211175",
      "street": "R MATA DO CAPITAO",
      "house": "575",
      "postcode": "2410-001",
      "city": "LEIRIA",
      "lon": "-8.79563857495043",
      "lat": "39.68543558854961"
    },
    {
      "id": "pt.ine.add.PTCONT.2222048",
      "street": "R NSA SRA DA AGONIA",
      "house": "384",
      "postcode": "2410-267",
      "city": "LEIRIA",
      "lon": "-8.798442209303364",
      "lat": "39.6836272500528"
    },
    {
      "id": "pt.ine.add.PTCONT.2229108",
      "street": "R MATA DO CAPITAO",
      "house": "605",
      "postcode": "2410-001",
      "city": "LEIRIA",
      "lon": "-8.79725932481373",
      "lat": "39.685480369667026"
    },
    {
      "id": "pt.ine.add.PTCONT.2235136",
      "street": "R ENG ADELINO AMARODA COSTA",
      "house": "149",
      "postcode": "2410-001",
      "city": "LEIRIA",
      "lon": "-8.797336511796356",
      "lat": "39.68623648049662"
    },
    {
      "id": "pt.ine.add.PTCONT.2241541",
      "street": "R NSA SRA DA AGONIA",
      "house": "420",
      "postcode": "2410-267",
      "city": "LEIRIA",
      "lon": "-8.798572586985019",
      "lat": "39.68385166743378"
    },
    {
      "id": "pt.ine.add.PTCONT.2245911",
      "street": "TV CAP BATALHA",
      "house": "63",
      "postcode": "2410-267",
      "city": "LEIRIA",
      "lon": "-8.799281644388937",
      "lat": "39.68485633854246"
    },
    {
      "id": "pt.ine.add.PTCONT.2245912",
      "street": "R NSA SRA DA AGONIA",
      "house": "620",
      "postcode": "2410-267",
      "city": "LEIRIA",
      "lon": "-8.799832952494183",
      "lat": "39.68521343753866"
    }
  ]
}