{
  "data": {
    "distrito": "Viseu",
    "concelho": "Armamar",
    "freguesia": "União das freguesias de Aricera e Goujoim",
    "OBJECTID": 4,
    "BGRI2021": "18012100120",
    "DT21": "18",
    "DTMN21": "1801",
    "DTMNFR21": "180121",
    "DTMNFRSEC21": "180121001",
    "SECNUM21": "001",
    "SSNUM21": "20",
    "SECSSNUM21": "00120",
    "OBJECTID_1": 188501,
    "DT": "18",
    "CC": "01",
    "fr": "21",
    "SEC": "001",
    "SS": "20"
  },
  "addresses": [
    {
      "id": "pt.ine.add.PTCONT.5449589",
      "street": "R CÓNEGO JOSE JOAQUIM CARDOSO",
      "house": "",
      "postcode": "5110-051",
      "city": "ARICERA",
      "lon": "-7.658782101015013",
      "lat": "41.0986949939629"
    },
    {
      "id": "pt.ine.add.PTCONT.5462019",
      "street": "",
      "house": "",
      "postcode": "5110-051",
      "city": "ARICERA",
      "lon": "-7.657127013407695",
      "lat": "41.102064831875566"
    },
    {
      "id": "pt.ine.add.PTCONT.5464988",
      "street": "SALGUEIROS DE CIMA",
      "house": "",
      "postcode": "5110-051",
      "city": "ARICERA",
      "lon": "-7.659789007988406",
      "lat": "41.099374467608556"
    },
    {
      "id": "pt.ine.add.PTCONT.5467107",
      "street": "R CÓNEGO JOSE JOAQUIM CARDOSO",
      "house": "",
      "postcode": "5110-051",
      "city": "ARICERA",
      "lon": "-7.658619087794147",
      "lat": "41.09819007418309"
    },
    {
      "id": "pt.ine.add.PTCONT.5479860",
      "street": "R PORTELA",
      "house": "",
      "postcode": "5110-051",
      "city": "ARICERA",
      "lon": "-7.656883281032679",
      "lat": "41.099551587366754"
    },
    {
      "id": "pt.ine.add.PTCONT.5518365",
      "street": "R PORTELA",
      "house": "1",
      "postcode": "5110-051",
      "city": "ARICERA",
      "lon": "-7.657727278716594",
      "lat": "41.09806033597859"
    },
    {
      "id": "pt.ine.add.PTCONT.5533735",
      "street": "R CÓNEGO JOSE JOAQUIM CARDOSO",
      "house": "",
      "postcode": "5110-051",
      "city": "ARICERA",
      "lon": "-7.658274811331869",
      "lat": "41.098062593735555"
    },
    {
      "id": "pt.ine.add.PTCONT.5559339",
      "street": "R CÓNEGO JOSE JOAQUIM CARDOSO",
      "house": "",
      "postcode": "5110-051",
      "city": "ARICERA",
      "lon": "-7.658761728346079",
      "lat": "41.09821767482793"
    },
    {
      "id": "pt.ine.add.PTCONT.5574355",
      "street": "R PORTELA",
      "house": "3",
      "postcode": "5110-051",
      "city": "ARICERA",
      "lon": "-7.657463336717515",
      "lat": "41.09834738873267"
    },
    {
      "id": "pt.ine.add.PTCONT.5574591",
      "street": "R ESCOLA",
      "house": "3",
      "postcode": "5110-051",
      "city": "ARICERA",
      "lon": "-7.656973499177294",
      "lat": "41.10024530182594"
    },
    {
      "id": "pt.ine.add.PTCONT.5608780",
      "street": "R PORTELA",
      "house": "5",
      "postcode": "5110-051",
      "city": "ARICERA",
      "lon": "-7.657433749306244",
      "lat": "41.0991486615911"
    },
    {
      "id": "pt.ine.add.PTCONT.5619195",
      "street": "R CÓNEGO JOSE JOAQUIM CARDOSO",
      "house": "",
      "postcode": "5110-051",
      "city": "ARICERA",
      "lon": "-7.658405548571512",
      "lat": "41.098090145765624"
    },
    {
      "id": "pt.ine.add.PTCONT.5627463",
      "street": "R CÓNEGO JOSE JOAQUIM CARDOSO",
      "house": "",
      "postcode": "5110-051",
      "city": "ARICERA",
      "lon": "-7.65990946096534",
      "lat": "41.09917686473532"
    },
    {
      "id": "pt.ine.add.PTCONT.5658667",
      "street": "R CÓNEGO JOSÉ JOAQUIM CARDOSO",
      "house": "7",
      "postcode": "5110-051",
      "city": "ARICERA",
      "lon": "-7.657717323467114",
      "lat": "41.09779016171636"
    }
  ]
}