{
  "data": {
    "distrito": "Setúbal",
    "concelho": "Seixal",
    "freguesia": "Fernão Ferro",
    "OBJECTID": 388,
    "BGRI2021": "15100600225",
    "DT21": "15",
    "DTMN21": "1510",
    "DTMNFR21": "151006",
    "DTMNFRSEC21": "151006002",
    "SECNUM21": "002",
    "SSNUM21": "25",
    "SECSSNUM21": "00225",
    "OBJECTID_1": 167778,
    "DT": "15",
    "CC": "10",
    "fr": "06",
    "SEC": "002",
    "SS": "25"
  },
  "addresses": [
    {
      "id": "pt.ine.add.PTCONT.4715984",
      "street": "AV 5 DE OUTUBRO",
      "house": "",
      "postcode": "2865-200",
      "city": "FERNÃO FERRO",
      "lon": "-9.06112283106215",
      "lat": "38.55720673670943"
    },
    {
      "id": "pt.ine.add.PTCONT.4836695",
      "street": "TV AFONSO CHAVES",
      "house": "",
      "postcode": "2865-200",
      "city": "FERNÃO FERRO",
      "lon": "-9.060936397766092",
      "lat": "38.5569830102821"
    },
    {
      "id": "pt.ine.add.PTCONT.4909789",
      "street": "R JOÃO FERREIRA MARQUES",
      "house": "",
      "postcode": "2865-296",
      "city": "FERNÃO FERRO",
      "lon": "-9.061702178220616",
      "lat": "38.554977123857704"
    },
    {
      "id": "pt.ine.add.PTCONT.4941342",
      "street": "AV 5 DE OUTUBRO",
      "house": "",
      "postcode": "2865-200",
      "city": "FERNÃO FERRO",
      "lon": "-9.06167680428141",
      "lat": "38.555679962646636"
    },
    {
      "id": "pt.ine.add.PTCONT.4959569",
      "street": "TV AFONSO CHAVES",
      "house": "",
      "postcode": "2865-200",
      "city": "FERNÃO FERRO",
      "lon": "-9.061188651185718",
      "lat": "38.55608019344455"
    },
    {
      "id": "pt.ine.add.PTCONT.4963179",
      "street": "R JOÃO FERREIRA MARQUES",
      "house": "",
      "postcode": "2865-296",
      "city": "FERNÃO FERRO",
      "lon": "-9.061499874641125",
      "lat": "38.555303022717595"
    },
    {
      "id": "pt.ine.add.PTCONT.5047012",
      "street": "AV 5 DE OUTUBRO",
      "house": "4009",
      "postcode": "2865-200",
      "city": "FERNÃO FERRO",
      "lon": "-9.061101168354712",
      "lat": "38.55641418936707"
    },
    {
      "id": "pt.ine.add.PTCONT.5107049",
      "street": "R JOÃO FERREIRA MARQUES",
      "house": "",
      "postcode": "2865-296",
      "city": "FERNÃO FERRO",
      "lon": "-9.061612729218812",
      "lat": "38.555157996855954"
    },
    {
      "id": "pt.ine.add.PTCONT.5114991",
      "street": "R JOÃO FERREIRA MARQUES",
      "house": "",
      "postcode": "2865-296",
      "city": "FERNÃO FERRO",
      "lon": "-9.061947697070597",
      "lat": "38.55444369374183"
    }
  ]
}