{
  "data": {
    "distrito": "Porto",
    "concelho": "Paredes",
    "freguesia": "Paredes",
    "OBJECTID": 348,
    "BGRI2021": "13102500610",
    "DT21": "13",
    "DTMN21": "1310",
    "DTMNFR21": "131025",
    "DTMNFRSEC21": "131025006",
    "SECNUM21": "006",
    "SSNUM21": "10",
    "SECSSNUM21": "00610",
    "OBJECTID_1": 135580,
    "DT": "13",
    "CC": "10",
    "fr": "25",
    "SEC": "006",
    "SS": "10"
  },
  "addresses": [
    {
      "id": "pt.ine.add.PTCONT.3548453",
      "street": "R RIBEIROS ALTOS",
      "house": "25",
      "postcode": "4580-597",
      "city": "MOURIZ",
      "lon": "-8.367020038301273",
      "lat": "41.19197208034883"
    },
    {
      "id": "pt.ine.add.PTCONT.3606439",
      "street": "R RIBEIROS ALTOS",
      "house": "36",
      "postcode": "4580-597",
      "city": "MOURIZ",
      "lon": "-8.366483725778991",
      "lat": "41.19200018131997"
    },
    {
      "id": "pt.ine.add.PTCONT.3689860",
      "street": "CC RIBEIROS ALTOS",
      "house": "8",
      "postcode": "4580-597",
      "city": "MOURIZ",
      "lon": "-8.366985046821808",
      "lat": "41.19218825520047"
    },
    {
      "id": "pt.ine.add.PTCONT.3709768",
      "street": "R CENTRAL DE MOURIZ",
      "house": "1352",
      "postcode": "4580-590",
      "city": "MOURIZ",
      "lon": "-8.365723893161508",
      "lat": "41.192866133603715"
    },
    {
      "id": "pt.ine.add.PTCONT.3716331",
      "street": "R RIBEIROS ALTOS",
      "house": "117",
      "postcode": "4580-597",
      "city": "MOURIZ",
      "lon": "-8.367474033003841",
      "lat": "41.192259295778186"
    },
    {
      "id": "pt.ine.add.PTCONT.3723045",
      "street": "R RIBEIROS ALTOS",
      "house": "47",
      "postcode": "4580-597",
      "city": "MOURIZ",
      "lon": "-8.366627887963233",
      "lat": "41.19231504046568"
    },
    {
      "id": "pt.ine.add.PTCONT.3729726",
      "street": "R CENTRAL DE MOURIZ",
      "house": "1368",
      "postcode": "4580-590",
      "city": "MOURIZ",
      "lon": "-8.365985662238364",
      "lat": "41.19273053974666"
    },
    {
      "id": "pt.ine.add.PTCONT.3729727",
      "street": "R CENTRAL DE MOURIZ",
      "house": "1368",
      "postcode": "4580-590",
      "city": "MOURIZ",
      "lon": "-8.365985662238364",
      "lat": "41.19273053974666"
    },
    {
      "id": "pt.ine.add.PTCONT.3732560",
      "street": "R CENTRAL DE MOURIZ",
      "house": "1368",
      "postcode": "4580-590",
      "city": "MOURIZ",
      "lon": "-8.365985662238364",
      "lat": "41.19273053974666"
    },
    {
      "id": "pt.ine.add.PTCONT.3789486",
      "street": "R RIBEIROS ALTOS",
      "house": "105",
      "postcode": "4580-597",
      "city": "MOURIZ",
      "lon": "-8.367140490767628",
      "lat": "41.192323004301514"
    },
    {
      "id": "pt.ine.add.PTCONT.3858300",
      "street": "R RIBEIROS ALTOS",
      "house": "73",
      "postcode": "4580-597",
      "city": "MOURIZ",
      "lon": "-8.366664448752955",
      "lat": "41.19254007443088"
    },
    {
      "id": "pt.ine.add.PTCONT.3868015",
      "street": "R CENTRAL MOURIZ",
      "house": "1378",
      "postcode": "4580-590",
      "city": "MOURIZ",
      "lon": "-8.366104258918751",
      "lat": "41.19255921772983"
    },
    {
      "id": "pt.ine.add.PTCONT.3930044",
      "street": "R CENTRAL DE MOURIZ",
      "house": "",
      "postcode": "4580-590",
      "city": "MOURIZ",
      "lon": "-8.36635349849658",
      "lat": "41.192252566217654"
    },
    {
      "id": "pt.ine.add.PTCONT.3961762",
      "street": "CC RIBEIROS ALTOS",
      "house": "17",
      "postcode": "4580-597",
      "city": "MOURIZ",
      "lon": "-8.367175481805218",
      "lat": "41.192106829408864"
    },
    {
      "id": "pt.ine.add.PTCONT.4013107",
      "street": "R RIBEIROS ALTOS",
      "house": "160",
      "postcode": "4580-597",
      "city": "MOURIZ",
      "lon": "-8.368321369035433",
      "lat": "41.192536702429955"
    },
    {
      "id": "pt.ine.add.PTCONT.4045820",
      "street": "R CENTRAL DE MOURIZ",
      "house": "",
      "postcode": "4580-590",
      "city": "MOURIZ",
      "lon": "-8.366542143324958",
      "lat": "41.19166690290704"
    },
    {
      "id": "pt.ine.add.PTCONT.4050546",
      "street": "R VENDA NOVA",
      "house": "125",
      "postcode": "4580-594",
      "city": "MOURIZ",
      "lon": "-8.365528126160507",
      "lat": "41.19481146237506"
    },
    {
      "id": "pt.ine.add.PTCONT.4078572",
      "street": "R RIBEIROS ALTOS",
      "house": "156",
      "postcode": "4580-597",
      "city": "MOURIZ",
      "lon": "-8.368226103371912",
      "lat": "41.19256390992229"
    },
    {
      "id": "pt.ine.add.PTCONT.4085222",
      "street": "R RIBEIROS ALTOS",
      "house": "142",
      "postcode": "4580-597",
      "city": "MOURIZ",
      "lon": "-8.368118627520897",
      "lat": "41.192510103338144"
    },
    {
      "id": "pt.ine.add.PTCONT.4091968",
      "street": "R VENDA NOVA",
      "house": "243",
      "postcode": "4580-594",
      "city": "MOURIZ",
      "lon": "-8.367513904852652",
      "lat": "41.19341176802184"
    },
    {
      "id": "pt.ine.add.PTCONT.4111382",
      "street": "R RIBEIROS ALTOS",
      "house": "133",
      "postcode": "4580-597",
      "city": "MOURIZ",
      "lon": "-8.367796104552458",
      "lat": "41.192321670202325"
    },
    {
      "id": "pt.ine.add.PTCONT.4216419",
      "street": "R RIBEIROS ALTOS",
      "house": "15",
      "postcode": "4580-597",
      "city": "MOURIZ",
      "lon": "-8.366816690629566",
      "lat": "41.19177439801857"
    },
    {
      "id": "pt.ine.add.PTCONT.4229130",
      "street": "R RIBEIROS ALTOS",
      "house": "159",
      "postcode": "4580-597",
      "city": "MOURIZ",
      "lon": "-8.368463251567114",
      "lat": "41.19221225691341"
    },
    {
      "id": "pt.ine.add.PTCONT.4288806",
      "street": "R CENTRAL DE MOURIZ",
      "house": "1390",
      "postcode": "4580-590",
      "city": "MOURIZ",
      "lon": "-8.366234775245847",
      "lat": "41.19238787145927"
    },
    {
      "id": "pt.ine.add.PTCONT.4302391",
      "street": "R CENTRAL MOURIZ",
      "house": "1378",
      "postcode": "4580-590",
      "city": "MOURIZ",
      "lon": "-8.366175461339438",
      "lat": "41.19246903042261"
    },
    {
      "id": "pt.ine.add.PTCONT.4335487",
      "street": "CC RIBEIROS ALTOS",
      "house": "15",
      "postcode": "4580-597",
      "city": "MOURIZ",
      "lon": "-8.367270490571915",
      "lat": "41.1920075887091"
    },
    {
      "id": "pt.ine.add.PTCONT.4335496",
      "street": "CC RIBEIROS ALTOS",
      "house": "8",
      "postcode": "4580-597",
      "city": "MOURIZ",
      "lon": "-8.366889973298258",
      "lat": "41.19226948714502"
    }
  ]
}