{
  "data": {
    "distrito": "Santarém",
    "concelho": "Benavente",
    "freguesia": "Samora Correia",
    "OBJECTID": 499,
    "BGRI2021": "14050200725",
    "DT21": "14",
    "DTMN21": "1405",
    "DTMNFR21": "140502",
    "DTMNFRSEC21": "140502007",
    "SECNUM21": "007",
    "SSNUM21": "25",
    "SECSSNUM21": "00725",
    "OBJECTID_1": 149029,
    "DT": "14",
    "CC": "05",
    "fr": "02",
    "SEC": "007",
    "SS": "25"
  },
  "addresses": [
    {
      "id": "pt.ine.add.PTCONT.4397752",
      "street": "R COR MOURA MENDES",
      "house": "40",
      "postcode": "2135-267",
      "city": "SAMORA CORREIA",
      "lon": "-8.872301078885824",
      "lat": "38.93781426224412"
    },
    {
      "id": "pt.ine.add.PTCONT.4432626",
      "street": "TV FONTE CONCELHO",
      "house": "4",
      "postcode": "2135-307",
      "city": "SAMORA CORREIA",
      "lon": "-8.871924703407442",
      "lat": "38.93822199119806"
    },
    {
      "id": "pt.ine.add.PTCONT.4463682",
      "street": "TV FONTE CONCELHO",
      "house": "10",
      "postcode": "2135-307",
      "city": "SAMORA CORREIA",
      "lon": "-8.871865917669128",
      "lat": "38.93811427100423"
    },
    {
      "id": "pt.ine.add.PTCONT.4484692",
      "street": "R COR MOURA MENDES",
      "house": "36",
      "postcode": "2135-267",
      "city": "SAMORA CORREIA",
      "lon": "-8.872163433587316",
      "lat": "38.937887195368226"
    },
    {
      "id": "pt.ine.add.PTCONT.4484693",
      "street": "R COR MOURA MENDES",
      "house": "36",
      "postcode": "2135-267",
      "city": "SAMORA CORREIA",
      "lon": "-8.872163433587316",
      "lat": "38.937887195368226"
    },
    {
      "id": "pt.ine.add.PTCONT.4484694",
      "street": "R COR MOURA MENDES",
      "house": "36",
      "postcode": "2135-267",
      "city": "SAMORA CORREIA",
      "lon": "-8.872163433587316",
      "lat": "38.937887195368226"
    },
    {
      "id": "pt.ine.add.PTCONT.4510112",
      "street": "R COR MOURA MENDES",
      "house": "22",
      "postcode": "2135-267",
      "city": "SAMORA CORREIA",
      "lon": "-8.871807319017607",
      "lat": "38.93802456497336"
    },
    {
      "id": "pt.ine.add.PTCONT.4512165",
      "street": "TV FONTE CONCELHO",
      "house": "3",
      "postcode": "2135-307",
      "city": "SAMORA CORREIA",
      "lon": "-8.872089622301303",
      "lat": "38.9385542316927"
    },
    {
      "id": "pt.ine.add.PTCONT.4512166",
      "street": "TV FONTE CONCELHO",
      "house": "8",
      "postcode": "2135-307",
      "city": "SAMORA CORREIA",
      "lon": "-8.871866291514026",
      "lat": "38.93815029939569"
    },
    {
      "id": "pt.ine.add.PTCONT.4530244",
      "street": "TV FONTE CONCELHO",
      "house": "1",
      "postcode": "2135-307",
      "city": "SAMORA CORREIA",
      "lon": "-8.872054369215611",
      "lat": "38.938491401056346"
    },
    {
      "id": "pt.ine.add.PTCONT.4536194",
      "street": "R ALM CÂNDIDO DOS REIS",
      "house": "3",
      "postcode": "2135-259",
      "city": "SAMORA CORREIA",
      "lon": "-8.87251147505881",
      "lat": "38.93808316032814"
    },
    {
      "id": "pt.ine.add.PTCONT.4543727",
      "street": "R COR MOURA MENDES",
      "house": "38",
      "postcode": "2135-267",
      "city": "SAMORA CORREIA",
      "lon": "-8.8722674156763",
      "lat": "38.937904552319885"
    },
    {
      "id": "pt.ine.add.PTCONT.4552570",
      "street": "R COR MOURA MENDES",
      "house": "28",
      "postcode": "2135-267",
      "city": "SAMORA CORREIA",
      "lon": "-8.871945058421602",
      "lat": "38.93796063936279"
    },
    {
      "id": "pt.ine.add.PTCONT.4552571",
      "street": "TV FONTE CONCELHO",
      "house": "4",
      "postcode": "2135-307",
      "city": "SAMORA CORREIA",
      "lon": "-8.87193670360014",
      "lat": "38.93826695368644"
    },
    {
      "id": "pt.ine.add.PTCONT.4574688",
      "street": "R RIO ALMANSOR",
      "house": "",
      "postcode": "2135-276",
      "city": "SAMORA CORREIA",
      "lon": "-8.872571852106812",
      "lat": "38.938344000824046"
    },
    {
      "id": "pt.ine.add.PTCONT.4577481",
      "street": "TV FONTE CONCELHO",
      "house": "6",
      "postcode": "2135-307",
      "city": "SAMORA CORREIA",
      "lon": "-8.871912796697625",
      "lat": "38.938186035805664"
    },
    {
      "id": "pt.ine.add.PTCONT.4594308",
      "street": "TV FONTE CONCELHO",
      "house": "2",
      "postcode": "2135-307",
      "city": "SAMORA CORREIA",
      "lon": "-8.871995489574752",
      "lat": "38.93837467383957"
    },
    {
      "id": "pt.ine.add.PTCONT.4594309",
      "street": "TV FONTE CONCELHO",
      "house": "12",
      "postcode": "2135-307",
      "city": "SAMORA CORREIA",
      "lon": "-8.871796346921624",
      "lat": "38.93807868054857"
    },
    {
      "id": "pt.ine.add.PTCONT.4619226",
      "street": "R COR MOURA MENDES",
      "house": "32",
      "postcode": "2135-267",
      "city": "SAMORA CORREIA",
      "lon": "-8.872141396465183",
      "lat": "38.937986419483494"
    },
    {
      "id": "pt.ine.add.PTCONT.4631270",
      "street": "R COR MOURA MENDES",
      "house": "26",
      "postcode": "2135-267",
      "city": "SAMORA CORREIA",
      "lon": "-8.871911394692665",
      "lat": "38.938050929338715"
    },
    {
      "id": "pt.ine.add.PTCONT.4633978",
      "street": "R COR MOURA MENDES",
      "house": "24",
      "postcode": "2135-267",
      "city": "SAMORA CORREIA",
      "lon": "-8.871864889599099",
      "lat": "38.938015192926464"
    },
    {
      "id": "pt.ine.add.PTCONT.4652324",
      "street": "R COR MOURA MENDES",
      "house": "30",
      "postcode": "2135-267",
      "city": "SAMORA CORREIA",
      "lon": "-8.872014535646201",
      "lat": "38.93798722263313"
    }
  ]
}