{
  "data": {
    "distrito": "Faro",
    "concelho": "Loul√©",
    "freguesia": "Quarteira",
    "OBJECTID": 691,
    "BGRI2021": "08080504002",
    "DT21": "08",
    "DTMN21": "0808",
    "DTMNFR21": "080805",
    "DTMNFRSEC21": "080805040",
    "SECNUM21": "040",
    "SSNUM21": "02",
    "SECSSNUM21": "04002",
    "OBJECTID_1": 69811,
    "DT": "08",
    "CC": "08",
    "fr": "05",
    "SEC": "040",
    "SS": "02"
  },
  "addresses": [
    {
      "id": "pt.ine.add.PTCONT.1488086",
      "street": "R VOLTA DA DONINHA",
      "house": "2 1C 23",
      "postcode": "8125-515",
      "city": "QUARTEIRA",
      "lon": "-8.105418357361343",
      "lat": "37.08452942646281"
    },
    {
      "id": "pt.ine.add.PTCONT.1516852",
      "street": "R VOLTA DA MARTA",
      "house": "2 1B-2",
      "postcode": "8125-519",
      "city": "QUARTEIRA",
      "lon": "-8.106633356222131",
      "lat": "37.083583580853244"
    },
    {
      "id": "pt.ine.add.PTCONT.1525698",
      "street": "R VOLTA DA DONINHA",
      "house": "2 1C 24",
      "postcode": "8125-515",
      "city": "QUARTEIRA",
      "lon": "-8.10558707453284",
      "lat": "37.08449342295344"
    },
    {
      "id": "pt.ine.add.PTCONT.1544421",
      "street": "R VOLTA DA MARTA",
      "house": "2 1A 7",
      "postcode": "8125-519",
      "city": "QUARTEIRA",
      "lon": "-8.10431652844184",
      "lat": "37.08354699826217"
    },
    {
      "id": "pt.ine.add.PTCONT.1545846",
      "street": "R VOLTA DO VEADO",
      "house": "2 1D 16",
      "postcode": "8125-561",
      "city": "QUARTEIRA",
      "lon": "-8.104057755822936",
      "lat": "37.08379923465627"
    },
    {
      "id": "pt.ine.add.PTCONT.1554946",
      "street": "R CAMINHO DO LINCE",
      "house": "2 1D11",
      "postcode": "8125-547",
      "city": "QUARTEIRA",
      "lon": "-8.10399012661485",
      "lat": "37.08418667799121"
    },
    {
      "id": "pt.ine.add.PTCONT.1557777",
      "street": "R CAMINHO DO LINCE",
      "house": "2 1 D10",
      "postcode": "8125-547",
      "city": "QUARTEIRA",
      "lon": "-8.103877713052704",
      "lat": "37.08404247920898"
    },
    {
      "id": "pt.ine.add.PTCONT.1561153",
      "street": "R CAMINHO DO LINCE",
      "house": "2 1D12",
      "postcode": "8125-547",
      "city": "QUARTEIRA",
      "lon": "-8.104057549511072",
      "lat": "37.084339876346974"
    },
    {
      "id": "pt.ine.add.PTCONT.1584010",
      "street": "R CAMINHO LEBRE",
      "house": "21B1",
      "postcode": "8125-412",
      "city": "QUARTEIRA",
      "lon": "-8.106824589206948",
      "lat": "37.08347549502842"
    },
    {
      "id": "pt.ine.add.PTCONT.1644695",
      "street": "R VOLTA DA DONINHA",
      "house": "2 1CIZO",
      "postcode": "8125-515",
      "city": "QUARTEIRA",
      "lon": "-8.104574819773092",
      "lat": "37.084574279994996"
    },
    {
      "id": "pt.ine.add.PTCONT.1654399",
      "street": "R VOLTA DA MARTA",
      "house": "17",
      "postcode": "8125-519",
      "city": "QUARTEIRA",
      "lon": "-8.10447392937967",
      "lat": "37.08369120751057"
    },
    {
      "id": "pt.ine.add.PTCONT.1669162",
      "street": "R VOLTA DA DONINHA",
      "house": "2 1C 26",
      "postcode": "8125-515",
      "city": "QUARTEIRA",
      "lon": "-8.105980791195728",
      "lat": "37.0842862676713"
    },
    {
      "id": "pt.ine.add.PTCONT.1671014",
      "street": "R VOLTA DO VEADO",
      "house": "2 1D 15",
      "postcode": "8125-561",
      "city": "QUARTEIRA",
      "lon": "-8.104147685938836",
      "lat": "37.08391639569808"
    },
    {
      "id": "pt.ine.add.PTCONT.1676444",
      "street": "R VOLTA DA DONINHA",
      "house": "2 1C 29",
      "postcode": "8125-515",
      "city": "QUARTEIRA",
      "lon": "-8.106666771144118",
      "lat": "37.08452070066753"
    },
    {
      "id": "pt.ine.add.PTCONT.1699394",
      "street": "R CAMINHO DO LINCE",
      "house": "2 1D 8",
      "postcode": "8125-547",
      "city": "QUARTEIRA",
      "lon": "-8.103810339330309",
      "lat": "37.083763131010826"
    },
    {
      "id": "pt.ine.add.PTCONT.1710669",
      "street": "R CAMINHO DO LINCE",
      "house": "2 1D 9",
      "postcode": "8125-547",
      "city": "QUARTEIRA",
      "lon": "-8.103810287313655",
      "lat": "37.083898291438636"
    },
    {
      "id": "pt.ine.add.PTCONT.1730771",
      "street": "R VOLTA DA DONINHA",
      "house": "2 1C 27",
      "postcode": "8125-515",
      "city": "QUARTEIRA",
      "lon": "-8.106261967045544",
      "lat": "37.084277320955856"
    },
    {
      "id": "pt.ine.add.PTCONT.1736203",
      "street": "R VOLTA DO VEADO",
      "house": "2 1D 19",
      "postcode": "8125-561",
      "city": "QUARTEIRA",
      "lon": "-8.10475495554395",
      "lat": "37.08407873495408"
    },
    {
      "id": "pt.ine.add.PTCONT.1739397",
      "street": "R VOLTA DA DONINHA",
      "house": "2 1C 21",
      "postcode": "8125-515",
      "city": "QUARTEIRA",
      "lon": "-8.104833476179692",
      "lat": "37.084637416806025"
    },
    {
      "id": "pt.ine.add.PTCONT.1751558",
      "street": "R VOLTA DA MARTA",
      "house": "L8",
      "postcode": "8125-519",
      "city": "QUARTEIRA",
      "lon": "-8.106385951857005",
      "lat": "37.08351143979588"
    },
    {
      "id": "pt.ine.add.PTCONT.1770153",
      "street": "R VOLTA DA DONINHA",
      "house": "2 1CIZZ",
      "postcode": "8125-515",
      "city": "QUARTEIRA",
      "lon": "-8.10517089816684",
      "lat": "37.08460145398937"
    },
    {
      "id": "pt.ine.add.PTCONT.1785719",
      "street": "R VOLTA DO VEADO",
      "house": "2 1D 18",
      "postcode": "8125-561",
      "city": "QUARTEIRA",
      "lon": "-8.104620057098154",
      "lat": "37.08390749940736"
    },
    {
      "id": "pt.ine.add.PTCONT.1790677",
      "street": "R VOLTA DO VEADO",
      "house": "14",
      "postcode": "8125-561",
      "city": "QUARTEIRA",
      "lon": "-8.1042263523693",
      "lat": "37.08407860740554"
    },
    {
      "id": "pt.ine.add.PTCONT.1811342",
      "street": "R VOLTA DA DONINHA",
      "house": "2 1C 25",
      "postcode": "8125-515",
      "city": "QUARTEIRA",
      "lon": "-8.105812048822001",
      "lat": "37.08439435729862"
    },
    {
      "id": "pt.ine.add.PTCONT.1831632",
      "street": "R VOLTA DA DONINHA",
      "house": "2 1C 19",
      "postcode": "8125-515",
      "city": "QUARTEIRA",
      "lon": "-8.104732327444191",
      "lat": "37.08443915735888"
    }
  ]
}