{
  "data": {
    "distrito": "Porto",
    "concelho": "Valongo",
    "freguesia": "Valongo",
    "OBJECTID": 567,
    "BGRI2021": "13150501922",
    "DT21": "13",
    "DTMN21": "1315",
    "DTMNFR21": "131505",
    "DTMNFRSEC21": "131505019",
    "SECNUM21": "019",
    "SSNUM21": "22",
    "SECSSNUM21": "01922",
    "OBJECTID_1": 142604,
    "DT": "13",
    "CC": "15",
    "fr": "05",
    "SEC": "019",
    "SS": "22"
  },
  "addresses": [
    {
      "id": "pt.ine.add.PTCONT.3562504",
      "street": "R VISC OLIVEIRA DO PACO",
      "house": "89",
      "postcode": "4440-708",
      "city": "VALONGO",
      "lon": "-8.496178468747898",
      "lat": "41.190241669223745"
    },
    {
      "id": "pt.ine.add.PTCONT.3803783",
      "street": "R LAMEIRA FERREIRA",
      "house": "85",
      "postcode": "4440-671",
      "city": "VALONGO",
      "lon": "-8.494410695077365",
      "lat": "41.19175094859736"
    },
    {
      "id": "pt.ine.add.PTCONT.3907057",
      "street": "TV LAMEIRA FERREIRA",
      "house": "155",
      "postcode": "4440-750",
      "city": "VALONGO",
      "lon": "-8.494639800637522",
      "lat": "41.19222745810582"
    },
    {
      "id": "pt.ine.add.PTCONT.3931382",
      "street": "R LAMEIRA FERREIRA",
      "house": "89",
      "postcode": "4440-671",
      "city": "VALONGO",
      "lon": "-8.494387201563825",
      "lat": "41.19181405247386"
    },
    {
      "id": "pt.ine.add.PTCONT.4019269",
      "street": "R LAMEIRA FERREIRA",
      "house": "75",
      "postcode": "4440-671",
      "city": "VALONGO",
      "lon": "-8.494469948539892",
      "lat": "41.19168773251971"
    },
    {
      "id": "pt.ine.add.PTCONT.4056501",
      "street": "AV EM√çDIO NAVARRO",
      "house": "323",
      "postcode": "4440-649",
      "city": "VALONGO",
      "lon": "-8.494902439311511",
      "lat": "41.19229866783752"
    },
    {
      "id": "pt.ine.add.PTCONT.4158383",
      "street": "TV LAMEIRA FERREIRA",
      "house": "151",
      "postcode": "4440-750",
      "city": "VALONGO",
      "lon": "-8.49452025304267",
      "lat": "41.192164803143726"
    },
    {
      "id": "pt.ine.add.PTCONT.4223730",
      "street": "R VISC OLIVEIRA DO PACO",
      "house": "135",
      "postcode": "4440-708",
      "city": "VALONGO",
      "lon": "-8.495691448678446",
      "lat": "41.19054935013677"
    },
    {
      "id": "pt.ine.add.PTCONT.4336249",
      "street": "TV LAMEIRA FERREIRA",
      "house": "161",
      "postcode": "4440-750",
      "city": "VALONGO",
      "lon": "-8.494735557795732",
      "lat": "41.192299191956025"
    },
    {
      "id": "pt.ine.add.PTCONT.4374266",
      "street": "TV LAMEIRA FERREIRA",
      "house": "167",
      "postcode": "4440-750",
      "city": "VALONGO",
      "lon": "-8.494795455683473",
      "lat": "41.192353029725545"
    }
  ]
}