{
  "data": {
    "distrito": "Leiria",
    "concelho": "Pedrógão Grande",
    "freguesia": "Pedrógão Grande",
    "OBJECTID": 90,
    "BGRI2021": "10130200209",
    "DT21": "10",
    "DTMN21": "1013",
    "DTMNFR21": "101302",
    "DTMNFRSEC21": "101302002",
    "SECNUM21": "002",
    "SSNUM21": "09",
    "SECSSNUM21": "00209",
    "OBJECTID_1": 93917,
    "DT": "10",
    "CC": "13",
    "fr": "02",
    "SEC": "002",
    "SS": "09"
  },
  "addresses": [
    {
      "id": "pt.ine.add.PTCONT.2052564",
      "street": "LG DEVESA",
      "house": "10",
      "postcode": "3270-101",
      "city": "PEDRÓGÃO GRANDE",
      "lon": "-8.144921747807611",
      "lat": "39.91790953512978"
    },
    {
      "id": "pt.ine.add.PTCONT.2055893",
      "street": "LG DEVESA",
      "house": "12",
      "postcode": "3270-101",
      "city": "PEDRÓGÃO GRANDE",
      "lon": "-8.14492172459513",
      "lat": "39.91777444022665"
    },
    {
      "id": "pt.ine.add.PTCONT.2121116",
      "street": "R NOGUEIRA",
      "house": "8",
      "postcode": "3270-118",
      "city": "PEDRÓGÃO GRANDE",
      "lon": "-8.145120565423449",
      "lat": "39.917783426126284"
    },
    {
      "id": "pt.ine.add.PTCONT.2125790",
      "street": "AV DR FRANCISCO SA CARNEIRO",
      "house": "7",
      "postcode": "3270-092",
      "city": "PEDRÓGÃO GRANDE",
      "lon": "-8.143857232890122",
      "lat": "39.91702701858523"
    },
    {
      "id": "pt.ine.add.PTCONT.2162878",
      "street": "LG DEVESA",
      "house": "9",
      "postcode": "3270-101",
      "city": "PEDRÓGÃO GRANDE",
      "lon": "-8.144968552250207",
      "lat": "39.91801760627418"
    },
    {
      "id": "pt.ine.add.PTCONT.2169476",
      "street": "R NOGUEIRA",
      "house": "2",
      "postcode": "3270-118",
      "city": "PEDRÓGÃO GRANDE",
      "lon": "-8.1447928985957",
      "lat": "39.91680176986661"
    },
    {
      "id": "pt.ine.add.PTCONT.2175880",
      "street": "LG DEVESA",
      "house": "",
      "postcode": "3270-101",
      "city": "PEDRÓGÃO GRANDE",
      "lon": "-8.144453940349203",
      "lat": "39.918215796951934"
    },
    {
      "id": "pt.ine.add.PTCONT.2178026",
      "street": "LG DEVESA",
      "house": "7",
      "postcode": "3270-101",
      "city": "PEDRÓGÃO GRANDE",
      "lon": "-8.144605987342574",
      "lat": "39.91817075034325"
    },
    {
      "id": "pt.ine.add.PTCONT.2178027",
      "street": "LG DEVESA",
      "house": "7",
      "postcode": "3270-101",
      "city": "PEDRÓGÃO GRANDE",
      "lon": "-8.144605987342574",
      "lat": "39.91817075034325"
    },
    {
      "id": "pt.ine.add.PTCONT.2178030",
      "street": "R NOGUEIRA",
      "house": "4",
      "postcode": "3270-118",
      "city": "PEDRÓGÃO GRANDE",
      "lon": "-8.144851472196953",
      "lat": "39.91734214364363"
    },
    {
      "id": "pt.ine.add.PTCONT.2213899",
      "street": "TV DO CONDE REDONDO",
      "house": "4",
      "postcode": "3270-133",
      "city": "PEDRÓGÃO GRANDE",
      "lon": "-8.144442044902586",
      "lat": "39.9170089502446"
    },
    {
      "id": "pt.ine.add.PTCONT.2233767",
      "street": "LG DEVESA",
      "house": "12",
      "postcode": "3270-101",
      "city": "PEDRÓGÃO GRANDE",
      "lon": "-8.144828214591042",
      "lat": "39.91813470278961"
    },
    {
      "id": "pt.ine.add.PTCONT.2256110",
      "street": "R ÂNGELO PEREIRA",
      "house": "4",
      "postcode": "3270-172",
      "city": "PEDRÓGÃO GRANDE",
      "lon": "-8.144243148060196",
      "lat": "39.916639710040435"
    },
    {
      "id": "pt.ine.add.PTCONT.2265940",
      "street": "LG DEVESA",
      "house": "7",
      "postcode": "3270-101",
      "city": "PEDRÓGÃO GRANDE",
      "lon": "-8.144605987342574",
      "lat": "39.91817075034325"
    }
  ]
}