{
  "data": {
    "distrito": "Leiria",
    "concelho": "Pedrógão Grande",
    "freguesia": "Pedrógão Grande",
    "OBJECTID": 140,
    "BGRI2021": "10130200216",
    "DT21": "10",
    "DTMN21": "1013",
    "DTMNFR21": "101302",
    "DTMNFRSEC21": "101302002",
    "SECNUM21": "002",
    "SSNUM21": "16",
    "SECSSNUM21": "00216",
    "OBJECTID_1": 93987,
    "DT": "10",
    "CC": "13",
    "fr": "02",
    "SEC": "002",
    "SS": "16"
  },
  "addresses": [
    {
      "id": "pt.ine.add.PTCONT.1990721",
      "street": "TAPADA DA LADEIRA",
      "house": "",
      "postcode": "3270-092",
      "city": "PEDRÓGÃO GRANDE",
      "lon": "-8.141436713085072",
      "lat": "39.92209777831268"
    },
    {
      "id": "pt.ine.add.PTCONT.2001023",
      "street": "TAPADA DA LADEIRA",
      "house": "",
      "postcode": "3270-159",
      "city": "PEDRÓGÃO GRANDE",
      "lon": "-8.140910446060959",
      "lat": "39.923025465845775"
    },
    {
      "id": "pt.ine.add.PTCONT.2032304",
      "street": "R CANASTREIROS",
      "house": "42",
      "postcode": "3270-159",
      "city": "PEDRÓGÃO GRANDE",
      "lon": "-8.133927160250316",
      "lat": "39.92424157837514"
    },
    {
      "id": "pt.ine.add.PTCONT.2033318",
      "street": "TAPADA LADEIRA",
      "house": "",
      "postcode": "3270-159",
      "city": "PEDRÓGÃO GRANDE",
      "lon": "-8.140863638489979",
      "lat": "39.922863355241994"
    },
    {
      "id": "pt.ine.add.PTCONT.2048808",
      "street": "R PRINCIPAL",
      "house": "",
      "postcode": "3270-159",
      "city": "PEDRÓGÃO GRANDE",
      "lon": "-8.135962532631662",
      "lat": "39.92430459035772"
    },
    {
      "id": "pt.ine.add.PTCONT.2048945",
      "street": "R PRINCIPLA",
      "house": "",
      "postcode": "3270-159",
      "city": "PEDRÓGÃO GRANDE",
      "lon": "-8.135962532631662",
      "lat": "39.92430459035772"
    },
    {
      "id": "pt.ine.add.PTCONT.2048946",
      "street": "MARIO FERNANDES",
      "house": "",
      "postcode": "3270-159",
      "city": "PEDRÓGÃO GRANDE",
      "lon": "-8.135962532631662",
      "lat": "39.92430459035772"
    },
    {
      "id": "pt.ine.add.PTCONT.2052563",
      "street": "R CENTRO",
      "house": "",
      "postcode": "3270-159",
      "city": "PEDRÓGÃO GRANDE",
      "lon": "-8.134032441387054",
      "lat": "39.92449375445705"
    },
    {
      "id": "pt.ine.add.PTCONT.2058095",
      "street": "AV DR BISSAYA BARRETO",
      "house": "",
      "postcode": "3270-115",
      "city": "PEDRÓGÃO GRANDE",
      "lon": "-8.141436653073013",
      "lat": "39.92160243067278"
    },
    {
      "id": "pt.ine.add.PTCONT.2065418",
      "street": "TAPADA DA LADEIRA",
      "house": "",
      "postcode": "3270-091",
      "city": "PEDRÓGÃO GRANDE",
      "lon": "-8.140968816288046",
      "lat": "39.92200774776985"
    },
    {
      "id": "pt.ine.add.PTCONT.2068737",
      "street": "TAPADA DA LADEIRA",
      "house": "",
      "postcode": "3270-159",
      "city": "PEDRÓGÃO GRANDE",
      "lon": "-8.141202795287791",
      "lat": "39.92231394656359"
    },
    {
      "id": "pt.ine.add.PTCONT.2094424",
      "street": "TAPADA DA LADEIRA",
      "house": "",
      "postcode": "3270-159",
      "city": "PEDRÓGÃO GRANDE",
      "lon": "-8.140828516267238",
      "lat": "39.922593168002535"
    },
    {
      "id": "pt.ine.add.PTCONT.2147540",
      "street": "R CENTRO",
      "house": "",
      "postcode": "3270-159",
      "city": "PEDRÓGÃO GRANDE",
      "lon": "-8.133587933527144",
      "lat": "39.92446673819742"
    },
    {
      "id": "pt.ine.add.PTCONT.2167354",
      "street": "R PRINCIPAL",
      "house": "",
      "postcode": "3270-159",
      "city": "PEDRÓGÃO GRANDE",
      "lon": "-8.13452374100865",
      "lat": "39.92457480635052"
    },
    {
      "id": "pt.ine.add.PTCONT.2175871",
      "street": "R CABRIL",
      "house": "167",
      "postcode": "3270-159",
      "city": "PEDRÓGÃO GRANDE",
      "lon": "-8.13488636658134",
      "lat": "39.92459281399019"
    },
    {
      "id": "pt.ine.add.PTCONT.2191933",
      "street": "TAPADA LADEIRA",
      "house": "5",
      "postcode": "3270-159",
      "city": "PEDRÓGÃO GRANDE",
      "lon": "-8.140805082445988",
      "lat": "39.922241923083384"
    },
    {
      "id": "pt.ine.add.PTCONT.2196041",
      "street": "R PROF BISSAIA BARRETO",
      "house": "",
      "postcode": "3270-115",
      "city": "PEDRÓGÃO GRANDE",
      "lon": "-8.141179313123565",
      "lat": "39.92156642358523"
    },
    {
      "id": "pt.ine.add.PTCONT.2242136",
      "street": "R PRINCIPAL",
      "house": "",
      "postcode": "3270-159",
      "city": "PEDRÓGÃO GRANDE",
      "lon": "-8.133470958725361",
      "lat": "39.92462885232137"
    },
    {
      "id": "pt.ine.add.PTCONT.2242138",
      "street": "AV DR FRANCISCO SA CARNEIRO",
      "house": "10",
      "postcode": "3270-092",
      "city": "PEDRÓGÃO GRANDE",
      "lon": "-8.140430636237852",
      "lat": "39.92096304972367"
    },
    {
      "id": "pt.ine.add.PTCONT.2253114",
      "street": "AV DR FRANCISCO SA CARNEIRO",
      "house": "",
      "postcode": "3270-092",
      "city": "PEDRÓGÃO GRANDE",
      "lon": "-8.140021225100957",
      "lat": "39.92079195472974"
    },
    {
      "id": "pt.ine.add.PTCONT.2257690",
      "street": "R CENTRO",
      "house": "",
      "postcode": "3270-159",
      "city": "PEDRÓGÃO GRANDE",
      "lon": "-8.133435864443456",
      "lat": "39.924313631339984"
    },
    {
      "id": "pt.ine.add.PTCONT.2267040",
      "street": "MARIO FERNANDES",
      "house": "",
      "postcode": "3270-159",
      "city": "PEDRÓGÃO GRANDE",
      "lon": "-8.135962532631662",
      "lat": "39.92430459035772"
    }
  ]
}