{
  "data": {
    "distrito": "Leiria",
    "concelho": "Pedrógão Grande",
    "freguesia": "Pedrógão Grande",
    "OBJECTID": 181,
    "BGRI2021": "10130200224",
    "DT21": "10",
    "DTMN21": "1013",
    "DTMNFR21": "101302",
    "DTMNFRSEC21": "101302002",
    "SECNUM21": "002",
    "SSNUM21": "24",
    "SECSSNUM21": "00224",
    "OBJECTID_1": 93862,
    "DT": "10",
    "CC": "13",
    "fr": "02",
    "SEC": "002",
    "SS": "24"
  },
  "addresses": [
    {
      "id": "pt.ine.add.PTCONT.1983201",
      "street": "",
      "house": "",
      "postcode": "3270-155",
      "city": "PEDRÓGÃO GRANDE",
      "lon": "-8.162917486533775",
      "lat": "39.93312697757931"
    },
    {
      "id": "pt.ine.add.PTCONT.1983992",
      "street": "",
      "house": "",
      "postcode": "3270-068",
      "city": "PEDRÓGÃO GRANDE",
      "lon": "-8.153814065814826",
      "lat": "39.927923315053484"
    },
    {
      "id": "pt.ine.add.PTCONT.1992164",
      "street": "",
      "house": "",
      "postcode": "3270-155",
      "city": "PEDRÓGÃO GRANDE",
      "lon": "-8.166344790632717",
      "lat": "39.93206330194841"
    },
    {
      "id": "pt.ine.add.PTCONT.1994660",
      "street": "",
      "house": "",
      "postcode": "3270-155",
      "city": "PEDRÓGÃO GRANDE",
      "lon": "-8.163092818839516",
      "lat": "39.932775686541554"
    },
    {
      "id": "pt.ine.add.PTCONT.2005669",
      "street": "",
      "house": "",
      "postcode": "3270-155",
      "city": "PEDRÓGÃO GRANDE",
      "lon": "-8.167875673174517",
      "lat": "39.928766544589806"
    },
    {
      "id": "pt.ine.add.PTCONT.2008208",
      "street": "",
      "house": "",
      "postcode": "3270-068",
      "city": "PEDRÓGÃO GRANDE",
      "lon": "-8.155475100975902",
      "lat": "39.92760778563999"
    },
    {
      "id": "pt.ine.add.PTCONT.2009633",
      "street": "",
      "house": "",
      "postcode": "3270-155",
      "city": "PEDRÓGÃO GRANDE",
      "lon": "-8.163233190786984",
      "lat": "39.93273962494168"
    },
    {
      "id": "pt.ine.add.PTCONT.2010396",
      "street": "AURÉLIO DAVID",
      "house": "",
      "postcode": "3270-154",
      "city": "PEDRÓGÃO GRANDE",
      "lon": "-8.161196211231301",
      "lat": "39.929416809275665"
    },
    {
      "id": "pt.ine.add.PTCONT.2018265",
      "street": "",
      "house": "",
      "postcode": "3270-155",
      "city": "PEDRÓGÃO GRANDE",
      "lon": "-8.162964251381903",
      "lat": "39.933054915122355"
    },
    {
      "id": "pt.ine.add.PTCONT.2022963",
      "street": "R MEIO",
      "house": "",
      "postcode": "3270-155",
      "city": "PEDRÓGÃO GRANDE",
      "lon": "-8.166415136556637",
      "lat": "39.932378502416306"
    },
    {
      "id": "pt.ine.add.PTCONT.2027035",
      "street": "",
      "house": "",
      "postcode": "3270-155",
      "city": "PEDRÓGÃO GRANDE",
      "lon": "-8.1682377540978",
      "lat": "39.92765865925185"
    },
    {
      "id": "pt.ine.add.PTCONT.2028680",
      "street": "",
      "house": "",
      "postcode": "3270-155",
      "city": "PEDRÓGÃO GRANDE",
      "lon": "-8.166379725861827",
      "lat": "39.93173005864782"
    },
    {
      "id": "pt.ine.add.PTCONT.2028679",
      "street": "",
      "house": "",
      "postcode": "3270-155",
      "city": "PEDRÓGÃO GRANDE",
      "lon": "-8.165221805596737",
      "lat": "39.93228877602328"
    },
    {
      "id": "pt.ine.add.PTCONT.2048806",
      "street": "R PRINCIPAL",
      "house": "",
      "postcode": "3270-155",
      "city": "PEDRÓGÃO GRANDE",
      "lon": "-8.166216003408609",
      "lat": "39.93185619378299"
    },
    {
      "id": "pt.ine.add.PTCONT.2052562",
      "street": "",
      "house": "",
      "postcode": "3270-154",
      "city": "PEDRÓGÃO GRANDE",
      "lon": "-8.15883320719268",
      "lat": "39.92961549640276"
    },
    {
      "id": "pt.ine.add.PTCONT.2068725",
      "street": "",
      "house": "",
      "postcode": "3270-155",
      "city": "PEDRÓGÃO GRANDE",
      "lon": "-8.167138818809434",
      "lat": "39.92904595878624"
    },
    {
      "id": "pt.ine.add.PTCONT.2077219",
      "street": "",
      "house": "",
      "postcode": "3270-155",
      "city": "PEDRÓGÃO GRANDE",
      "lon": "-8.162847346873322",
      "lat": "39.93325308383146"
    },
    {
      "id": "pt.ine.add.PTCONT.2110270",
      "street": "",
      "house": "",
      "postcode": "3270-155",
      "city": "PEDRÓGÃO GRANDE",
      "lon": "-8.168226401135684",
      "lat": "39.92833413601159"
    },
    {
      "id": "pt.ine.add.PTCONT.2097062",
      "street": "",
      "house": "",
      "postcode": "3270-155",
      "city": "PEDRÓGÃO GRANDE",
      "lon": "-8.163607330051354",
      "lat": "39.93222616780231"
    },
    {
      "id": "pt.ine.add.PTCONT.2098904",
      "street": "",
      "house": "",
      "postcode": "3270-155",
      "city": "PEDRÓGÃO GRANDE",
      "lon": "-8.168156257733548",
      "lat": "39.9284242203381"
    },
    {
      "id": "pt.ine.add.PTCONT.2138892",
      "street": "",
      "house": "",
      "postcode": "3270-155",
      "city": "PEDRÓGÃO GRANDE",
      "lon": "-8.167186692946837",
      "lat": "39.93122547117175"
    },
    {
      "id": "pt.ine.add.PTCONT.2103204",
      "street": "R SOBREIRA",
      "house": "",
      "postcode": "3270-155",
      "city": "PEDRÓGÃO GRANDE",
      "lon": "-8.166063767559288",
      "lat": "39.931541016469545"
    },
    {
      "id": "pt.ine.add.PTCONT.2106423",
      "street": "",
      "house": "",
      "postcode": "3270-155",
      "city": "PEDRÓGÃO GRANDE",
      "lon": "-8.168121195140033",
      "lat": "39.92848727510257"
    },
    {
      "id": "pt.ine.add.PTCONT.2112159",
      "street": "",
      "house": "",
      "postcode": "3270-154",
      "city": "PEDRÓGÃO GRANDE",
      "lon": "-8.159617200743728",
      "lat": "39.93012867937955"
    },
    {
      "id": "pt.ine.add.PTCONT.2121040",
      "street": "R MEIO",
      "house": "",
      "postcode": "3270-155",
      "city": "PEDRÓGÃO GRANDE",
      "lon": "-8.166368292964558",
      "lat": "39.932279446516425"
    },
    {
      "id": "pt.ine.add.PTCONT.2129940",
      "street": "",
      "house": "",
      "postcode": "3270-155",
      "city": "PEDRÓGÃO GRANDE",
      "lon": "-8.167980930413226",
      "lat": "39.92871247512249"
    },
    {
      "id": "pt.ine.add.PTCONT.2130541",
      "street": "",
      "house": "",
      "postcode": "3270-155",
      "city": "PEDRÓGÃO GRANDE",
      "lon": "-8.166309459089291",
      "lat": "39.93157697159974"
    },
    {
      "id": "pt.ine.add.PTCONT.2134393",
      "street": "",
      "house": "",
      "postcode": "3270-155",
      "city": "PEDRÓGÃO GRANDE",
      "lon": "-8.165174358615468",
      "lat": "39.930892811818595"
    },
    {
      "id": "pt.ine.add.PTCONT.2134392",
      "street": "",
      "house": "",
      "postcode": "3270-155",
      "city": "PEDRÓGÃO GRANDE",
      "lon": "-8.165712748972224",
      "lat": "39.93142403373357"
    },
    {
      "id": "pt.ine.add.PTCONT.2137569",
      "street": "",
      "house": "",
      "postcode": "3270-068",
      "city": "PEDRÓGÃO GRANDE",
      "lon": "-8.154129954517474",
      "lat": "39.928049346570475"
    },
    {
      "id": "pt.ine.add.PTCONT.2144501",
      "street": "",
      "house": "",
      "postcode": "3270-155",
      "city": "PEDRÓGÃO GRANDE",
      "lon": "-8.166216107547491",
      "lat": "39.932072345068335"
    },
    {
      "id": "pt.ine.add.PTCONT.2154916",
      "street": "",
      "house": "",
      "postcode": "3270-068",
      "city": "PEDRÓGÃO GRANDE",
      "lon": "-8.154972054050583",
      "lat": "39.92751781846688"
    },
    {
      "id": "pt.ine.add.PTCONT.2160723",
      "street": "",
      "house": "",
      "postcode": "3270-155",
      "city": "PEDRÓGÃO GRANDE",
      "lon": "-8.165115932443879",
      "lat": "39.93103692886363"
    },
    {
      "id": "pt.ine.add.PTCONT.2171583",
      "street": "CÂNDIDO ROLDÃO",
      "house": "",
      "postcode": "3270-154",
      "city": "PEDRÓGÃO GRANDE",
      "lon": "-8.161546757214895",
      "lat": "39.92843503608328"
    },
    {
      "id": "pt.ine.add.PTCONT.2180202",
      "street": "",
      "house": "",
      "postcode": "3270-155",
      "city": "PEDRÓGÃO GRANDE",
      "lon": "-8.166578526503303",
      "lat": "39.931567887936836"
    },
    {
      "id": "pt.ine.add.PTCONT.2182429",
      "street": "",
      "house": "",
      "postcode": "3270-155",
      "city": "PEDRÓGÃO GRANDE",
      "lon": "-8.163642238620477",
      "lat": "39.931802862291185"
    },
    {
      "id": "pt.ine.add.PTCONT.2189080",
      "street": "",
      "house": "",
      "postcode": "3270-155",
      "city": "PEDRÓGÃO GRANDE",
      "lon": "-8.163478706005039",
      "lat": "39.93237030243316"
    },
    {
      "id": "pt.ine.add.PTCONT.2196022",
      "street": "R PRINCIPAL",
      "house": "",
      "postcode": "3270-155",
      "city": "PEDRÓGÃO GRANDE",
      "lon": "-8.166379786909507",
      "lat": "39.93185614690114"
    },
    {
      "id": "pt.ine.add.PTCONT.2197921",
      "street": "",
      "house": "",
      "postcode": "3270-155",
      "city": "PEDRÓGÃO GRANDE",
      "lon": "-8.16352547772311",
      "lat": "39.932316252347334"
    },
    {
      "id": "pt.ine.add.PTCONT.2200473",
      "street": "",
      "house": "",
      "postcode": "3270-155",
      "city": "PEDRÓGÃO GRANDE",
      "lon": "-8.165420788454801",
      "lat": "39.932504872040894"
    },
    {
      "id": "pt.ine.add.PTCONT.2213863",
      "street": "",
      "house": "",
      "postcode": "3270-155",
      "city": "PEDRÓGÃO GRANDE",
      "lon": "-8.165093155476722",
      "lat": "39.9323698683214"
    },
    {
      "id": "pt.ine.add.PTCONT.2233149",
      "street": "",
      "house": "",
      "postcode": "3270-155",
      "city": "PEDRÓGÃO GRANDE",
      "lon": "-8.165058113185975",
      "lat": "39.932486959935815"
    },
    {
      "id": "pt.ine.add.PTCONT.2237428",
      "street": "",
      "house": "",
      "postcode": "3270-154",
      "city": "PEDRÓGÃO GRANDE",
      "lon": "-8.15939478057913",
      "lat": "39.929741458770174"
    },
    {
      "id": "pt.ine.add.PTCONT.2239850",
      "street": "",
      "house": "",
      "postcode": "3270-155",
      "city": "PEDRÓGÃO GRANDE",
      "lon": "-8.165268099606852",
      "lat": "39.9312170128807"
    },
    {
      "id": "pt.ine.add.PTCONT.2243426",
      "street": "",
      "house": "",
      "postcode": "3270-155",
      "city": "PEDRÓGÃO GRANDE",
      "lon": "-8.16639163840553",
      "lat": "39.9321713641648"
    },
    {
      "id": "pt.ine.add.PTCONT.2243427",
      "street": "",
      "house": "",
      "postcode": "3270-155",
      "city": "PEDRÓGÃO GRANDE",
      "lon": "-8.167501399835189",
      "lat": "39.928910757163926"
    },
    {
      "id": "pt.ine.add.PTCONT.2250541",
      "street": "",
      "house": "",
      "postcode": "3270-155",
      "city": "PEDRÓGÃO GRANDE",
      "lon": "-8.166192454005724",
      "lat": "39.931540979822486"
    },
    {
      "id": "pt.ine.add.PTCONT.2254105",
      "street": "",
      "house": "",
      "postcode": "3270-155",
      "city": "PEDRÓGÃO GRANDE",
      "lon": "-8.16681160087721",
      "lat": "39.92973053382853"
    },
    {
      "id": "pt.ine.add.PTCONT.2258372",
      "street": "",
      "house": "",
      "postcode": "3270-155",
      "city": "PEDRÓGÃO GRANDE",
      "lon": "-8.162777206955552",
      "lat": "39.93337919003852"
    }
  ]
}