{
  "data": {
    "distrito": "Leiria",
    "concelho": "Pombal",
    "freguesia": "Vermoil",
    "OBJECTID": 2111,
    "BGRI2021": "10151300315",
    "DT21": "10",
    "DTMN21": "1015",
    "DTMNFR21": "101513",
    "DTMNFRSEC21": "101513003",
    "SECNUM21": "003",
    "SSNUM21": "15",
    "SECSSNUM21": "00315",
    "OBJECTID_1": 95558,
    "DT": "10",
    "CC": "15",
    "fr": "13",
    "SEC": "003",
    "SS": "15"
  },
  "addresses": [
    {
      "id": "pt.ine.add.PTCONT.2001545",
      "street": "R ARTUR MENDES",
      "house": "5",
      "postcode": "3105-434",
      "city": "VERMOIL",
      "lon": "-8.65548776192968",
      "lat": "39.849321240149735"
    },
    {
      "id": "pt.ine.add.PTCONT.2007032",
      "street": "R RIBEIRINHO",
      "house": "5",
      "postcode": "3105-446",
      "city": "VERMOIL",
      "lon": "-8.655866854726465",
      "lat": "39.848463927622134"
    },
    {
      "id": "pt.ine.add.PTCONT.2019959",
      "street": "R ARTUR MENDES",
      "house": "8",
      "postcode": "3105-434",
      "city": "VERMOIL",
      "lon": "-8.655698967362204",
      "lat": "39.84943737163819"
    },
    {
      "id": "pt.ine.add.PTCONT.2034316",
      "street": "R CASCALHEIRA",
      "house": "12",
      "postcode": "3105-442",
      "city": "VERMOIL",
      "lon": "-8.655622033399085",
      "lat": "39.84853708154608"
    },
    {
      "id": "pt.ine.add.PTCONT.2075702",
      "street": "R CASCALHEIRA",
      "house": "10",
      "postcode": "3105-442",
      "city": "VERMOIL",
      "lon": "-8.655137027822027",
      "lat": "39.849295799905434"
    },
    {
      "id": "pt.ine.add.PTCONT.2172801",
      "street": "R JOﾃグ DE BARROS",
      "house": "7",
      "postcode": "3105-442",
      "city": "VERMOIL",
      "lon": "-8.65556346618873",
      "lat": "39.850059421185215"
    },
    {
      "id": "pt.ine.add.PTCONT.2201026",
      "street": "R JOﾃグ DE BARROS",
      "house": "3",
      "postcode": "3105-442",
      "city": "VERMOIL",
      "lon": "-8.655099499260146",
      "lat": "39.85051182808044"
    },
    {
      "id": "pt.ine.add.PTCONT.2219952",
      "street": "R CASCALHEIRA",
      "house": "8",
      "postcode": "3105-442",
      "city": "VERMOIL",
      "lon": "-8.655137914639152",
      "lat": "39.84941287867306"
    },
    {
      "id": "pt.ine.add.PTCONT.2219953",
      "street": "R JOﾃグ DE BARROS",
      "house": "17",
      "postcode": "3105-442",
      "city": "VERMOIL",
      "lon": "-8.655783216554685",
      "lat": "39.84976122123029"
    },
    {
      "id": "pt.ine.add.PTCONT.2219954",
      "street": "R JOﾃグ DE BARROS",
      "house": "17",
      "postcode": "3105-442",
      "city": "VERMOIL",
      "lon": "-8.655783216554685",
      "lat": "39.84976122123029"
    },
    {
      "id": "pt.ine.add.PTCONT.2250333",
      "street": "R CASCALHEIRA",
      "house": "2",
      "postcode": "3105-442",
      "city": "VERMOIL",
      "lon": "-8.655305930822768",
      "lat": "39.849997536220854"
    }
  ]
}