{
  "data": {
    "distrito": "Évora",
    "concelho": "Viana do Alentejo",
    "freguesia": "Aguiar",
    "OBJECTID": 48,
    "BGRI2021": "07130300131",
    "DT21": "07",
    "DTMN21": "0713",
    "DTMNFR21": "071303",
    "DTMNFRSEC21": "071303001",
    "SECNUM21": "001",
    "SSNUM21": "31",
    "SECSSNUM21": "00131",
    "OBJECTID_1": 64033,
    "DT": "07",
    "CC": "13",
    "fr": "03",
    "SEC": "001",
    "SS": "31"
  },
  "addresses": [
    {
      "id": "pt.ine.add.PTCONT.1375842",
      "street": "R ANTÓNIO MARIA CASQUINHA",
      "house": "5",
      "postcode": "7090-410",
      "city": "AGUIAR VNT",
      "lon": "-7.966328866431464",
      "lat": "38.39502250406262"
    },
    {
      "id": "pt.ine.add.PTCONT.1377235",
      "street": "R A",
      "house": "5",
      "postcode": "7090-410",
      "city": "AGUIAR VNT",
      "lon": "-7.96706097767883",
      "lat": "38.395479272620456"
    },
    {
      "id": "pt.ine.add.PTCONT.1389889",
      "street": "R A",
      "house": "19",
      "postcode": "7090-410",
      "city": "AGUIAR VNT",
      "lon": "-7.965626081853021",
      "lat": "38.39527050821586"
    },
    {
      "id": "pt.ine.add.PTCONT.1394431",
      "street": "R A",
      "house": "",
      "postcode": "7090-410",
      "city": "AGUIAR VNT",
      "lon": "-7.965095052838009",
      "lat": "38.39523525586235"
    },
    {
      "id": "pt.ine.add.PTCONT.1395052",
      "street": "R A",
      "house": "23",
      "postcode": "7090-410",
      "city": "AGUIAR VNT",
      "lon": "-7.965175160801442",
      "lat": "38.39524437933262"
    },
    {
      "id": "pt.ine.add.PTCONT.1406601",
      "street": "R A",
      "house": "3",
      "postcode": "7090-410",
      "city": "AGUIAR VNT",
      "lon": "-7.967263239846406",
      "lat": "38.39554505204637"
    },
    {
      "id": "pt.ine.add.PTCONT.1406602",
      "street": "R A",
      "house": "22",
      "postcode": "7090-410",
      "city": "AGUIAR VNT",
      "lon": "-7.965314475928825",
      "lat": "38.39524815798439"
    },
    {
      "id": "pt.ine.add.PTCONT.1413408",
      "street": "R A",
      "house": "7",
      "postcode": "7090-410",
      "city": "AGUIAR VNT",
      "lon": "-7.966850695184667",
      "lat": "38.39541988393721"
    },
    {
      "id": "pt.ine.add.PTCONT.1419027",
      "street": "R A",
      "house": "21",
      "postcode": "7090-410",
      "city": "AGUIAR VNT",
      "lon": "-7.965406030909866",
      "lat": "38.395257297682065"
    },
    {
      "id": "pt.ine.add.PTCONT.1420896",
      "street": "R A",
      "house": "2",
      "postcode": "7090-410",
      "city": "AGUIAR VNT",
      "lon": "-7.9673819287237855",
      "lat": "38.3955545583048"
    },
    {
      "id": "pt.ine.add.PTCONT.1434554",
      "street": "R A",
      "house": "18",
      "postcode": "7090-410",
      "city": "AGUIAR VNT",
      "lon": "-7.965768894252033",
      "lat": "38.39525386684966"
    },
    {
      "id": "pt.ine.add.PTCONT.1437285",
      "street": "R A",
      "house": "25",
      "postcode": "7090-410",
      "city": "AGUIAR VNT",
      "lon": "-7.964956028287506",
      "lat": "38.39520735212705"
    },
    {
      "id": "pt.ine.add.PTCONT.1451161",
      "street": "R A",
      "house": "9",
      "postcode": "7090-410",
      "city": "AGUIAR VNT",
      "lon": "-7.966633305439185",
      "lat": "38.39537453201448"
    },
    {
      "id": "pt.ine.add.PTCONT.1454960",
      "street": "R A",
      "house": "1",
      "postcode": "7090-410",
      "city": "AGUIAR VNT",
      "lon": "-7.967484236878506",
      "lat": "38.39560270474223"
    },
    {
      "id": "pt.ine.add.PTCONT.1455204",
      "street": "R A",
      "house": "20",
      "postcode": "7090-410",
      "city": "AGUIAR VNT",
      "lon": "-7.965557420778949",
      "lat": "38.395261401416086"
    },
    {
      "id": "pt.ine.add.PTCONT.1461770",
      "street": "R A",
      "house": "6",
      "postcode": "7090-410",
      "city": "AGUIAR VNT",
      "lon": "-7.96693223538268",
      "lat": "38.39544760575264"
    },
    {
      "id": "pt.ine.add.PTCONT.1462473",
      "street": "R A",
      "house": "B",
      "postcode": "7090-410",
      "city": "AGUIAR VNT",
      "lon": "-7.96673628710094",
      "lat": "38.39539269557861"
    },
    {
      "id": "pt.ine.add.PTCONT.1463387",
      "street": "R A",
      "house": "17",
      "postcode": "7090-410",
      "city": "AGUIAR VNT",
      "lon": "-7.965868459800912",
      "lat": "38.39525709441569"
    },
    {
      "id": "pt.ine.add.PTCONT.1465805",
      "street": "R A",
      "house": "4",
      "postcode": "7090-410",
      "city": "AGUIAR VNT",
      "lon": "-7.967187465535764",
      "lat": "38.3955217321551"
    }
  ]
}