{
  "data": {
    "distrito": "Faro",
    "concelho": "Olhão",
    "freguesia": "Quelfes",
    "OBJECTID": 456,
    "BGRI2021": "08100500606",
    "DT21": "08",
    "DTMN21": "0810",
    "DTMNFR21": "081005",
    "DTMNFRSEC21": "081005006",
    "SECNUM21": "006",
    "SSNUM21": "06",
    "SECSSNUM21": "00606",
    "OBJECTID_1": 70377,
    "DT": "08",
    "CC": "10",
    "fr": "05",
    "SEC": "006",
    "SS": "06"
  },
  "addresses": [
    {
      "id": "pt.ine.add.PTCONT.1467693",
      "street": "R DAMASO ENCARNACAO",
      "house": "2",
      "postcode": "8700-249",
      "city": "OLHÃO",
      "lon": "-7.849512950959686",
      "lat": "37.037274873915514"
    },
    {
      "id": "pt.ine.add.PTCONT.1482637",
      "street": "R JOÃO RODRIGUES VALENTE",
      "house": "",
      "postcode": "8700-255",
      "city": "OLHÃO",
      "lon": "-7.848683018216543",
      "lat": "37.03678630760775"
    },
    {
      "id": "pt.ine.add.PTCONT.1486295",
      "street": "R DÂMASO DA ENCARNAÇÃO",
      "house": "",
      "postcode": "8700-249",
      "city": "OLHÃO",
      "lon": "-7.84837123199482",
      "lat": "37.03600162563819"
    },
    {
      "id": "pt.ine.add.PTCONT.1486500",
      "street": "R DÂMASO DA ENCARNAÇÃO",
      "house": "",
      "postcode": "8700-249",
      "city": "OLHÃO",
      "lon": "-7.84975935677169",
      "lat": "37.03750974174209"
    },
    {
      "id": "pt.ine.add.PTCONT.1486501",
      "street": "R DÂMASO DA ENCARNAÇÃO",
      "house": "",
      "postcode": "8700-249",
      "city": "OLHÃO",
      "lon": "-7.84975935677169",
      "lat": "37.03750974174209"
    },
    {
      "id": "pt.ine.add.PTCONT.1499101",
      "street": "R JOÃO RODRIGUES VALENTE",
      "house": "",
      "postcode": "8700-255",
      "city": "OLHÃO",
      "lon": "-7.847899503954655",
      "lat": "37.03591038531946"
    },
    {
      "id": "pt.ine.add.PTCONT.1514227",
      "street": "R JOÃO RODRIGUES VALENTE",
      "house": "",
      "postcode": "8700-255",
      "city": "OLHÃO",
      "lon": "-7.848559817947346",
      "lat": "37.03666887263879"
    },
    {
      "id": "pt.ine.add.PTCONT.1517218",
      "street": "R JOÃO RODRIGUES VALENTE",
      "house": "",
      "postcode": "8700-255",
      "city": "OLHÃO",
      "lon": "-7.847832234710407",
      "lat": "37.035865169916164"
    },
    {
      "id": "pt.ine.add.PTCONT.1540841",
      "street": "R JOÃO RODRIGUES VALENTE",
      "house": "",
      "postcode": "8700-255",
      "city": "OLHÃO",
      "lon": "-7.849086005129775",
      "lat": "37.03722879902502"
    },
    {
      "id": "pt.ine.add.PTCONT.1542027",
      "street": "R DÂMASO DA ENCARNAÇÃO",
      "house": "",
      "postcode": "8700-249",
      "city": "OLHÃO",
      "lon": "-7.848035390008445",
      "lat": "37.03564038970622"
    },
    {
      "id": "pt.ine.add.PTCONT.1542028",
      "street": "R DÂMASO DA ENCARNAÇÃO",
      "house": "",
      "postcode": "8700-249",
      "city": "OLHÃO",
      "lon": "-7.848035390008445",
      "lat": "37.03564038970622"
    },
    {
      "id": "pt.ine.add.PTCONT.1542029",
      "street": "R DÂMASO DA ENCARNAÇÃO",
      "house": "",
      "postcode": "8700-249",
      "city": "OLHÃO",
      "lon": "-7.84875186795272",
      "lat": "37.036408021649216"
    },
    {
      "id": "pt.ine.add.PTCONT.1542030",
      "street": "R DÂMASO DA ENCARNAÇÃO",
      "house": "",
      "postcode": "8700-249",
      "city": "OLHÃO",
      "lon": "-7.84875186795272",
      "lat": "37.036408021649216"
    },
    {
      "id": "pt.ine.add.PTCONT.1544696",
      "street": "R DÂMASO DA ENCARNAÇÃO",
      "house": "",
      "postcode": "8700-249",
      "city": "OLHÃO",
      "lon": "-7.847856298050456",
      "lat": "37.03544172304496"
    },
    {
      "id": "pt.ine.add.PTCONT.1544697",
      "street": "R DÂMASO DA ENCARNAÇÃO",
      "house": "",
      "postcode": "8700-249",
      "city": "OLHÃO",
      "lon": "-7.847856298050456",
      "lat": "37.03544172304496"
    },
    {
      "id": "pt.ine.add.PTCONT.1544698",
      "street": "R DÂMASO DA ENCARNAÇÃO",
      "house": "",
      "postcode": "8700-249",
      "city": "OLHÃO",
      "lon": "-7.849692118502433",
      "lat": "37.03745551673835"
    },
    {
      "id": "pt.ine.add.PTCONT.1549010",
      "street": "R JOÃO RODRIGUES VALENTE",
      "house": "",
      "postcode": "8700-255",
      "city": "OLHÃO",
      "lon": "-7.8483135868008835",
      "lat": "37.03638894903019"
    },
    {
      "id": "pt.ine.add.PTCONT.1553030",
      "street": "R JOÃO RODRIGUES VALENTE",
      "house": "",
      "postcode": "8700-255",
      "city": "OLHÃO",
      "lon": "-7.84851502711455",
      "lat": "37.03662371152997"
    },
    {
      "id": "pt.ine.add.PTCONT.1562555",
      "street": "R JOÃO RODRIGUES VALENTE",
      "house": "",
      "postcode": "8700-255",
      "city": "OLHÃO",
      "lon": "-7.84896276995176",
      "lat": "37.037120375134"
    },
    {
      "id": "pt.ine.add.PTCONT.1562556",
      "street": "R JOÃO RODRIGUES VALENTE",
      "house": "",
      "postcode": "8700-255",
      "city": "OLHÃO",
      "lon": "-7.848862081884364",
      "lat": "37.036993983655115"
    },
    {
      "id": "pt.ine.add.PTCONT.1593051",
      "street": "R DAMASO ENCARNACAO D",
      "house": "D",
      "postcode": "8700-249",
      "city": "OLHÃO",
      "lon": "-7.848427228392766",
      "lat": "37.03605582442856"
    },
    {
      "id": "pt.ine.add.PTCONT.1599550",
      "street": "R DAMASO DA ENCARNACAO",
      "house": "",
      "postcode": "8700-249",
      "city": "OLHÃO",
      "lon": "-7.848203310604548",
      "lat": "37.03582100779211"
    },
    {
      "id": "pt.ine.add.PTCONT.1599774",
      "street": "R DAMASO ENCARNACAO",
      "house": "",
      "postcode": "8700-249",
      "city": "OLHÃO",
      "lon": "-7.848203310604548",
      "lat": "37.03582100779211"
    },
    {
      "id": "pt.ine.add.PTCONT.1605439",
      "street": "R DÂMASO DA ENCARNAÇÃO",
      "house": "",
      "postcode": "8700-249",
      "city": "OLHÃO",
      "lon": "-7.847923499545432",
      "lat": "37.03550495975241"
    },
    {
      "id": "pt.ine.add.PTCONT.1605440",
      "street": "R DÂMASO DA ENCARNAÇÃO",
      "house": "",
      "postcode": "8700-249",
      "city": "OLHÃO",
      "lon": "-7.847923499545432",
      "lat": "37.03550495975241"
    },
    {
      "id": "pt.ine.add.PTCONT.1622003",
      "street": "R DAMASO ENCARNACAO",
      "house": "1 VIVEND",
      "postcode": "8700-249",
      "city": "OLHÃO",
      "lon": "-7.847688379108691",
      "lat": "37.035261104463466"
    },
    {
      "id": "pt.ine.add.PTCONT.1624026",
      "street": "R JOÃO RODRIGUES VALENTE",
      "house": "",
      "postcode": "8700-255",
      "city": "OLHÃO",
      "lon": "-7.849041213657351",
      "lat": "37.037183638116396"
    },
    {
      "id": "pt.ine.add.PTCONT.1626744",
      "street": "R JOÃO RODRIGUES VALENTE",
      "house": "75",
      "postcode": "8700-255",
      "city": "OLHÃO",
      "lon": "-7.849377134228831",
      "lat": "37.03752684984406"
    },
    {
      "id": "pt.ine.add.PTCONT.1626745",
      "street": "R JOÃO RODRIGUES VALENTE",
      "house": "75",
      "postcode": "8700-255",
      "city": "OLHÃO",
      "lon": "-7.849377134228831",
      "lat": "37.03752684984406"
    },
    {
      "id": "pt.ine.add.PTCONT.1635745",
      "street": "R JOÃO RODRIGUES VALENTE",
      "house": "",
      "postcode": "8700-255",
      "city": "OLHÃO",
      "lon": "-7.848414374081225",
      "lat": "37.03648830900952"
    },
    {
      "id": "pt.ine.add.PTCONT.1635746",
      "street": "R JOÃO RODRIGUES VALENTE",
      "house": "",
      "postcode": "8700-255",
      "city": "OLHÃO",
      "lon": "-7.847530047108472",
      "lat": "37.03552203493672"
    },
    {
      "id": "pt.ine.add.PTCONT.1643029",
      "street": "R JOÃO RODRIGUES VALENTE",
      "house": "",
      "postcode": "8700-255",
      "city": "OLHÃO",
      "lon": "-7.848761293354178",
      "lat": "37.03689462405922"
    },
    {
      "id": "pt.ine.add.PTCONT.1645183",
      "street": "R COMUNIDADE LUSIADA",
      "house": "",
      "postcode": "8700-248",
      "city": "OLHÃO",
      "lon": "-7.849477890880269",
      "lat": "37.03763521956913"
    },
    {
      "id": "pt.ine.add.PTCONT.1645185",
      "street": "R DAMASO ENCARNACAO",
      "house": "2",
      "postcode": "8700-249",
      "city": "OLHÃO",
      "lon": "-7.849568949101641",
      "lat": "37.0373290721628"
    },
    {
      "id": "pt.ine.add.PTCONT.1645833",
      "street": "R DÁMASO DA ENCARNAÇÃO",
      "house": "20",
      "postcode": "8700-249",
      "city": "OLHÃO",
      "lon": "-7.848080179982289",
      "lat": "37.035685550999936"
    },
    {
      "id": "pt.ine.add.PTCONT.1646171",
      "street": "R DÁMASO DA ENCARNAÇÃO",
      "house": "20",
      "postcode": "8700-249",
      "city": "OLHÃO",
      "lon": "-7.848080179982289",
      "lat": "37.035685550999936"
    },
    {
      "id": "pt.ine.add.PTCONT.1648790",
      "street": "R JOÃO RODRIGUES VALENTE",
      "house": "",
      "postcode": "8700-255",
      "city": "OLHÃO",
      "lon": "-7.849175521133222",
      "lat": "37.03733714210365"
    },
    {
      "id": "pt.ine.add.PTCONT.1653600",
      "street": "R JOÃO RODRIGUES VALENTE",
      "house": "57",
      "postcode": "8700-255",
      "city": "OLHÃO",
      "lon": "-7.84892928557656",
      "lat": "37.03705721978565"
    },
    {
      "id": "pt.ine.add.PTCONT.1655563",
      "street": "R JOÃO RODRIGUES VALENTE",
      "house": "",
      "postcode": "8700-255",
      "city": "OLHÃO",
      "lon": "-7.849231586167008",
      "lat": "37.037373319196405"
    },
    {
      "id": "pt.ine.add.PTCONT.1658206",
      "street": "R DÂMASO DA ENCARNAÇÃO",
      "house": "",
      "postcode": "8700-249",
      "city": "OLHÃO",
      "lon": "-7.848595184446291",
      "lat": "37.036227431297604"
    },
    {
      "id": "pt.ine.add.PTCONT.1665797",
      "street": "R JOÃO RODRIGUES VALENTE",
      "house": "",
      "postcode": "8700-255",
      "city": "OLHÃO",
      "lon": "-7.84845913114129",
      "lat": "37.036542480813665"
    },
    {
      "id": "pt.ine.add.PTCONT.1665798",
      "street": "R DÂMASO DA ENCARNAÇÃO",
      "house": "",
      "postcode": "8700-249",
      "city": "OLHÃO",
      "lon": "-7.848259306750847",
      "lat": "37.03587520666231"
    },
    {
      "id": "pt.ine.add.PTCONT.1666466",
      "street": "R DÂMASO DA ENCARNAÇÃO",
      "house": "",
      "postcode": "8700-249",
      "city": "OLHÃO",
      "lon": "-7.848259306750847",
      "lat": "37.03587520666231"
    },
    {
      "id": "pt.ine.add.PTCONT.1667678",
      "street": "R JOÃO RODRIGUES VALENTE",
      "house": "",
      "postcode": "8700-255",
      "city": "OLHÃO",
      "lon": "-7.847653142759664",
      "lat": "37.03566650295581"
    },
    {
      "id": "pt.ine.add.PTCONT.1671412",
      "street": "R JOÃO RODRIGUES VALENTE",
      "house": "",
      "postcode": "8700-255",
      "city": "OLHÃO",
      "lon": "-7.84823531281543",
      "lat": "37.036280632279"
    },
    {
      "id": "pt.ine.add.PTCONT.1671419",
      "street": "R DAMASO ENCARNACAO",
      "house": "4",
      "postcode": "8700-249",
      "city": "OLHÃO",
      "lon": "-7.849199577534332",
      "lat": "37.03691369503566"
    },
    {
      "id": "pt.ine.add.PTCONT.1671420",
      "street": "R DAMASO DA ENCARNACAO",
      "house": "",
      "postcode": "8700-249",
      "city": "OLHÃO",
      "lon": "-7.849199577534332",
      "lat": "37.03691369503566"
    },
    {
      "id": "pt.ine.add.PTCONT.1677178",
      "street": "R JOÃO RODRIGUES VALENTE",
      "house": "",
      "postcode": "8700-255",
      "city": "OLHÃO",
      "lon": "-7.847574836712747",
      "lat": "37.03556719642052"
    },
    {
      "id": "pt.ine.add.PTCONT.1701152",
      "street": "R JOÃO RODRIGUES VALENTE",
      "house": "",
      "postcode": "8700-255",
      "city": "OLHÃO",
      "lon": "-7.848145698371346",
      "lat": "37.03619932045413"
    },
    {
      "id": "pt.ine.add.PTCONT.1705130",
      "street": "R COMUNIDADE LUSIADA",
      "house": "",
      "postcode": "8700-248",
      "city": "OLHÃO",
      "lon": "-7.849534123817725",
      "lat": "37.03762634323858"
    },
    {
      "id": "pt.ine.add.PTCONT.1706475",
      "street": "R DÂMASO DA ENCARNAÇÃO",
      "house": "",
      "postcode": "8700-249",
      "city": "OLHÃO",
      "lon": "-7.849412295296995",
      "lat": "37.037139472245386"
    },
    {
      "id": "pt.ine.add.PTCONT.1709212",
      "street": "R DÂMASO DA ENCARNAÇÃO",
      "house": "",
      "postcode": "8700-249",
      "city": "OLHÃO",
      "lon": "-7.847755614021136",
      "lat": "37.035315330608505"
    },
    {
      "id": "pt.ine.add.PTCONT.1713964",
      "street": "R JOÃO RODRIGUES VALENTE",
      "house": "",
      "postcode": "8700-255",
      "city": "OLHÃO",
      "lon": "-7.848022533560528",
      "lat": "37.036072874265926"
    },
    {
      "id": "pt.ine.add.PTCONT.1716928",
      "street": "R JOÃO RODRIGUES VALENTE",
      "house": "",
      "postcode": "8700-255",
      "city": "OLHÃO",
      "lon": "-7.847440501811751",
      "lat": "37.03542270126024"
    },
    {
      "id": "pt.ine.add.PTCONT.1722423",
      "street": "R JOÃO RODRIGUES VALENTE",
      "house": "",
      "postcode": "8700-255",
      "city": "OLHÃO",
      "lon": "-7.848817357866195",
      "lat": "37.036930801348205"
    },
    {
      "id": "pt.ine.add.PTCONT.1722424",
      "street": "R JOÃO RODRIGUES VALENTE",
      "house": "",
      "postcode": "8700-255",
      "city": "OLHÃO",
      "lon": "-7.848280069626933",
      "lat": "37.03633480415149"
    },
    {
      "id": "pt.ine.add.PTCONT.1729364",
      "street": "R DÂMASO DA ENCARNAÇÃO",
      "house": "",
      "postcode": "8700-249",
      "city": "OLHÃO",
      "lon": "-7.848695904671735",
      "lat": "37.03634481235586"
    },
    {
      "id": "pt.ine.add.PTCONT.1729365",
      "street": "R DÂMASO DA ENCARNAÇÃO",
      "house": "",
      "postcode": "8700-249",
      "city": "OLHÃO",
      "lon": "-7.848695904671735",
      "lat": "37.03634481235586"
    },
    {
      "id": "pt.ine.add.PTCONT.1741181",
      "street": "R DÂMASO DA ENCARNAÇÃO",
      "house": "",
      "postcode": "8700-249",
      "city": "OLHÃO",
      "lon": "-7.849356297405206",
      "lat": "37.03708527392347"
    },
    {
      "id": "pt.ine.add.PTCONT.1741185",
      "street": "R DÂMASO DA ENCARNAÇÃO",
      "house": "",
      "postcode": "8700-249",
      "city": "OLHÃO",
      "lon": "-7.849356297405206",
      "lat": "37.03708527392347"
    },
    {
      "id": "pt.ine.add.PTCONT.1752021",
      "street": "R JOÃO RODRIGUES VALENTE",
      "house": "",
      "postcode": "8700-255",
      "city": "OLHÃO",
      "lon": "-7.847932986977797",
      "lat": "37.03597354096488"
    },
    {
      "id": "pt.ine.add.PTCONT.1756622",
      "street": "R DÂMASO DA ENCARNAÇÃO",
      "house": "",
      "postcode": "8700-249",
      "city": "OLHÃO",
      "lon": "-7.848527981759122",
      "lat": "37.036164194973225"
    },
    {
      "id": "pt.ine.add.PTCONT.1761218",
      "street": "R JOÃO RODRIGUES VALENTE",
      "house": "",
      "postcode": "8700-255",
      "city": "OLHÃO",
      "lon": "-7.8487390154095715",
      "lat": "37.03684050624716"
    },
    {
      "id": "pt.ine.add.PTCONT.1761219",
      "street": "R JOÃO RODRIGUES VALENTE",
      "house": "",
      "postcode": "8700-255",
      "city": "OLHÃO",
      "lon": "-7.847989016731214",
      "lat": "37.03601872930362"
    },
    {
      "id": "pt.ine.add.PTCONT.1761228",
      "street": "R JOÃO RODRIGUES VALENTE",
      "house": "",
      "postcode": "8700-255",
      "city": "OLHÃO",
      "lon": "-7.847474017991435",
      "lat": "37.03547684638017"
    },
    {
      "id": "pt.ine.add.PTCONT.1765343",
      "street": "R JOAO RODRIGUES VALENTE",
      "house": "45",
      "postcode": "8700-255",
      "city": "OLHÃO",
      "lon": "-7.848626953874456",
      "lat": "37.036750130255136"
    },
    {
      "id": "pt.ine.add.PTCONT.1776439",
      "street": "R DAMASO ENCARNACAO",
      "house": "5",
      "postcode": "8700-249",
      "city": "OLHÃO",
      "lon": "-7.849031685746692",
      "lat": "37.036724067715824"
    },
    {
      "id": "pt.ine.add.PTCONT.1776440",
      "street": "R DAMASO ENCARNACAO",
      "house": "5",
      "postcode": "8700-249",
      "city": "OLHÃO",
      "lon": "-7.849031685746692",
      "lat": "37.036724067715824"
    },
    {
      "id": "pt.ine.add.PTCONT.1777477",
      "street": "R DÂMASO DA ENCARNAÇÃO",
      "house": "",
      "postcode": "8700-249",
      "city": "OLHÃO",
      "lon": "-7.848919758351292",
      "lat": "37.036597649369206"
    },
    {
      "id": "pt.ine.add.PTCONT.1802954",
      "street": "R JOÃO RODRIGUES VALENTE",
      "house": "",
      "postcode": "8700-255",
      "city": "OLHÃO",
      "lon": "-7.847787478491567",
      "lat": "37.03581099787294"
    },
    {
      "id": "pt.ine.add.PTCONT.1808832",
      "street": "R JOÃO RODRIGUES VALENTE",
      "house": "",
      "postcode": "8700-255",
      "city": "OLHÃO",
      "lon": "-7.847608353050886",
      "lat": "37.035621341501866"
    },
    {
      "id": "pt.ine.add.PTCONT.1814479",
      "street": "R DAMASO ENCARNACAO",
      "house": "5",
      "postcode": "8700-249",
      "city": "OLHÃO",
      "lon": "-7.849076443384083",
      "lat": "37.03677823928737"
    },
    {
      "id": "pt.ine.add.PTCONT.1814480",
      "street": "R DAMASO DA ENCARNACAO",
      "house": "",
      "postcode": "8700-249",
      "city": "OLHÃO",
      "lon": "-7.849076443384083",
      "lat": "37.03677823928737"
    },
    {
      "id": "pt.ine.add.PTCONT.1820616",
      "street": "R JOÃO RODRIGUES VALENTE",
      "house": "",
      "postcode": "8700-255",
      "city": "OLHÃO",
      "lon": "-7.849276377863323",
      "lat": "37.03741848003266"
    },
    {
      "id": "pt.ine.add.PTCONT.1823076",
      "street": "R JOAO RODRIGUES VALENTE",
      "house": "73",
      "postcode": "8700-255",
      "city": "OLHÃO",
      "lon": "-7.849321136079485",
      "lat": "37.037472651508025"
    },
    {
      "id": "pt.ine.add.PTCONT.1823077",
      "street": "R JOÃO RODRIGUES VALENTE",
      "house": "",
      "postcode": "8700-255",
      "city": "OLHÃO",
      "lon": "-7.848347104022237",
      "lat": "37.03644309389908"
    },
    {
      "id": "pt.ine.add.PTCONT.1823078",
      "street": "R JOÃO RODRIGUES VALENTE",
      "house": "",
      "postcode": "8700-255",
      "city": "OLHÃO",
      "lon": "-7.848100908058786",
      "lat": "37.036154159187625"
    },
    {
      "id": "pt.ine.add.PTCONT.1828907",
      "street": "R DAMASO ENCARNACAO",
      "house": "6B",
      "postcode": "8700-249",
      "city": "OLHÃO",
      "lon": "-7.848863828378544",
      "lat": "37.03652542949867"
    },
    {
      "id": "pt.ine.add.PTCONT.1837491",
      "street": "R DAMASO ENCARNACAO",
      "house": "4",
      "postcode": "8700-249",
      "city": "OLHÃO",
      "lon": "-7.84925557518905",
      "lat": "37.03696789343207"
    },
    {
      "id": "pt.ine.add.PTCONT.1837492",
      "street": "R DAMASO DA ENCARNACAO",
      "house": "",
      "postcode": "8700-249",
      "city": "OLHÃO",
      "lon": "-7.84925557518905",
      "lat": "37.03696789343207"
    },
    {
      "id": "pt.ine.add.PTCONT.1840830",
      "street": "R JOÃO RODRIGUES VALENTE",
      "house": "",
      "postcode": "8700-255",
      "city": "OLHÃO",
      "lon": "-7.849130763099773",
      "lat": "37.03728297057289"
    },
    {
      "id": "pt.ine.add.PTCONT.1846025",
      "street": "R DÂMASO DA ENCARNAÇÃO",
      "house": "",
      "postcode": "8700-249",
      "city": "OLHÃO",
      "lon": "-7.849412295296995",
      "lat": "37.037139472245386"
    }
  ]
}