{
  "data": {
    "distrito": "Viana do Castelo",
    "concelho": "Paredes de Coura",
    "freguesia": "Uni√£o das freguesias de Paredes de Coura e Resende",
    "OBJECTID": 266,
    "BGRI2021": "16052600226",
    "DT21": "16",
    "DTMN21": "1605",
    "DTMNFR21": "160526",
    "DTMNFRSEC21": "160526002",
    "SECNUM21": "002",
    "SSNUM21": "26",
    "SECSSNUM21": "00226",
    "OBJECTID_1": 174676,
    "DT": "16",
    "CC": "05",
    "fr": "26",
    "SEC": "002",
    "SS": "26"
  },
  "addresses": [
    {
      "id": "pt.ine.add.PTCONT.5137390",
      "street": "R DR AFONSO VIANA",
      "house": "",
      "postcode": "4940-531",
      "city": "PAREDES DE COURA",
      "lon": "-8.559269222603964",
      "lat": "41.909091412921335"
    },
    {
      "id": "pt.ine.add.PTCONT.5137391",
      "street": "R DR AFONSO VIANA",
      "house": "",
      "postcode": "4940-531",
      "city": "PAREDES DE COURA",
      "lon": "-8.559291710620037",
      "lat": "41.90884824357474"
    },
    {
      "id": "pt.ine.add.PTCONT.5138561",
      "street": "R DR AFONSO VIANA",
      "house": "",
      "postcode": "4940-531",
      "city": "PAREDES DE COURA",
      "lon": "-8.558842004141402",
      "lat": "41.90828271128517"
    },
    {
      "id": "pt.ine.add.PTCONT.5148051",
      "street": "R 25 DE ABRIL",
      "house": "",
      "postcode": "4940-526",
      "city": "PAREDES DE COURA",
      "lon": "-8.558489999092208",
      "lat": "41.90972452476037"
    },
    {
      "id": "pt.ine.add.PTCONT.5161520",
      "street": "R BOMBEIROS VOLUNTARIOS",
      "house": "",
      "postcode": "4940-527",
      "city": "PAREDES DE COURA",
      "lon": "-8.55754858871767",
      "lat": "41.90952993831885"
    },
    {
      "id": "pt.ine.add.PTCONT.5168192",
      "street": "R DR AFONSO VIANA",
      "house": "",
      "postcode": "4940-531",
      "city": "PAREDES DE COURA",
      "lon": "-8.55989972647438",
      "lat": "41.909656271622545"
    },
    {
      "id": "pt.ine.add.PTCONT.5168193",
      "street": "R DR AFONSO VIANA",
      "house": "20",
      "postcode": "4940-531",
      "city": "PAREDES DE COURA",
      "lon": "-8.55989972647438",
      "lat": "41.909656271622545"
    },
    {
      "id": "pt.ine.add.PTCONT.5168254",
      "street": "R DR JULIO CESAR GOMES BARBOSA",
      "house": "1",
      "postcode": "4940-537",
      "city": "PAREDES DE COURA",
      "lon": "-8.559290752510186",
      "lat": "41.90870419622984"
    },
    {
      "id": "pt.ine.add.PTCONT.5177695",
      "street": "R DR NARCISO ALVES DA CUNHA",
      "house": "294",
      "postcode": "4940-538",
      "city": "PAREDES DE COURA",
      "lon": "-8.556916713690937",
      "lat": "41.910576640964074"
    },
    {
      "id": "pt.ine.add.PTCONT.5177696",
      "street": "R 25 DE ABRIL",
      "house": "",
      "postcode": "4940-526",
      "city": "PAREDES DE COURA",
      "lon": "-8.557393038852604",
      "lat": "41.90970157358452"
    },
    {
      "id": "pt.ine.add.PTCONT.5185415",
      "street": "",
      "house": "",
      "postcode": "4940-635",
      "city": "RESENDE PCR",
      "lon": "-8.55624499864188",
      "lat": "41.907419001469734"
    },
    {
      "id": "pt.ine.add.PTCONT.5186537",
      "street": "",
      "house": "",
      "postcode": "4940-635",
      "city": "RESENDE PCR",
      "lon": "-8.55798324838492",
      "lat": "41.90782672957156"
    },
    {
      "id": "pt.ine.add.PTCONT.5188065",
      "street": "R DR AFONSO VIANA",
      "house": "",
      "postcode": "4940-531",
      "city": "PAREDES DE COURA",
      "lon": "-8.559280436692008",
      "lat": "41.90896532677037"
    },
    {
      "id": "pt.ine.add.PTCONT.5192024",
      "street": "R DR AFONSO VIANA",
      "house": "16",
      "postcode": "4940-531",
      "city": "PAREDES DE COURA",
      "lon": "-8.560126684440464",
      "lat": "41.90934931974204"
    },
    {
      "id": "pt.ine.add.PTCONT.5201103",
      "street": "",
      "house": "",
      "postcode": "4940-625",
      "city": "RESENDE PCR",
      "lon": "-8.552963224988602",
      "lat": "41.90688185312136"
    },
    {
      "id": "pt.ine.add.PTCONT.5209770",
      "street": "SEM DESIGNACAO",
      "house": "1",
      "postcode": "4940-625",
      "city": "RESENDE PCR",
      "lon": "-8.55387126424135",
      "lat": "41.90750875242263"
    },
    {
      "id": "pt.ine.add.PTCONT.5222500",
      "street": "",
      "house": "",
      "postcode": "4940-625",
      "city": "RESENDE PCR",
      "lon": "-8.553194515115925",
      "lat": "41.907232131439144"
    },
    {
      "id": "pt.ine.add.PTCONT.5228225",
      "street": "R DR NARCISO ALVES DA CUNHA",
      "house": "",
      "postcode": "4940-538",
      "city": "PAREDES DE COURA",
      "lon": "-8.55813736986175",
      "lat": "41.90925766512954"
    },
    {
      "id": "pt.ine.add.PTCONT.5237286",
      "street": "R DR AFONSO VIANA",
      "house": "77",
      "postcode": "4940-531",
      "city": "PAREDES DE COURA",
      "lon": "-8.559707785182685",
      "lat": "41.90979203254646"
    },
    {
      "id": "pt.ine.add.PTCONT.5239026",
      "street": "R DR AFONSO VIANA",
      "house": "",
      "postcode": "4940-531",
      "city": "PAREDES DE COURA",
      "lon": "-8.559476450201478",
      "lat": "41.909441767711144"
    },
    {
      "id": "pt.ine.add.PTCONT.5239768",
      "street": "R DR AFONSO VIANA",
      "house": "",
      "postcode": "4940-531",
      "city": "PAREDES DE COURA",
      "lon": "-8.558895477880487",
      "lat": "41.909074792992705"
    },
    {
      "id": "pt.ine.add.PTCONT.5242373",
      "street": "",
      "house": "",
      "postcode": "4940-505",
      "city": "PAREDES DE COURA",
      "lon": "-8.55624152438273",
      "lat": "41.91054311820653"
    },
    {
      "id": "pt.ine.add.PTCONT.5265993",
      "street": "",
      "house": "",
      "postcode": "4940-625",
      "city": "RESENDE PCR",
      "lon": "-8.552422828400111",
      "lat": "41.90718093277809"
    },
    {
      "id": "pt.ine.add.PTCONT.5280785",
      "street": "",
      "house": "",
      "postcode": "4940-625",
      "city": "RESENDE PCR",
      "lon": "-8.55256886768802",
      "lat": "41.90739647584295"
    },
    {
      "id": "pt.ine.add.PTCONT.5285751",
      "street": "R DR AFONSO VIANA",
      "house": "",
      "postcode": "4940-531",
      "city": "PAREDES DE COURA",
      "lon": "-8.558372443615252",
      "lat": "41.908356476662924"
    },
    {
      "id": "pt.ine.add.PTCONT.5285836",
      "street": "",
      "house": "",
      "postcode": "4940-635",
      "city": "RESENDE PCR",
      "lon": "-8.557343767250702",
      "lat": "41.90772105566314"
    }
  ]
}