{
  "data": {
    "distrito": "Aveiro",
    "concelho": "Vale de Cambra",
    "freguesia": "Macieira de Cambra",
    "OBJECTID": 335,
    "BGRI2021": "01190600314",
    "DT21": "01",
    "DTMN21": "0119",
    "DTMNFR21": "011906",
    "DTMNFRSEC21": "011906003",
    "SECNUM21": "003",
    "SSNUM21": "14",
    "SECSSNUM21": "00314",
    "OBJECTID_1": 12335,
    "DT": "01",
    "CC": "19",
    "fr": "06",
    "SEC": "003",
    "SS": "14"
  },
  "addresses": [
    {
      "id": "pt.ine.add.PTCONT.326117",
      "street": "",
      "house": "",
      "postcode": "3730-291",
      "city": "VALE DE CAMBRA",
      "lon": "-8.371988363156717",
      "lat": "40.855676558368856"
    },
    {
      "id": "pt.ine.add.PTCONT.326118",
      "street": "",
      "house": "",
      "postcode": "3730-291",
      "city": "VALE DE CAMBRA",
      "lon": "-8.371988363156717",
      "lat": "40.855676558368856"
    },
    {
      "id": "pt.ine.add.PTCONT.4849",
      "street": "",
      "house": "",
      "postcode": "3730-291",
      "city": "VALE DE CAMBRA",
      "lon": "-8.37085979235633",
      "lat": "40.85514760369471"
    },
    {
      "id": "pt.ine.add.PTCONT.33235",
      "street": "",
      "house": "",
      "postcode": "3730-291",
      "city": "VALE DE CAMBRA",
      "lon": "-8.369981411768668",
      "lat": "40.85493329427208"
    },
    {
      "id": "pt.ine.add.PTCONT.33236",
      "street": "",
      "house": "",
      "postcode": "3730-291",
      "city": "VALE DE CAMBRA",
      "lon": "-8.370573007565861",
      "lat": "40.85454486932755"
    },
    {
      "id": "pt.ine.add.PTCONT.36876",
      "street": "",
      "house": "",
      "postcode": "3730-291",
      "city": "VALE DE CAMBRA",
      "lon": "-8.37133362820046",
      "lat": "40.85499354365906"
    },
    {
      "id": "pt.ine.add.PTCONT.42925",
      "street": "R ALTO DE MIRACAMBRA",
      "house": "51",
      "postcode": "3730-291",
      "city": "VALE DE CAMBRA",
      "lon": "-8.372023165847805",
      "lat": "40.855460369877406"
    },
    {
      "id": "pt.ine.add.PTCONT.42926",
      "street": "R ALTO DE MIRACAMBRA",
      "house": "51",
      "postcode": "3730-291",
      "city": "VALE DE CAMBRA",
      "lon": "-8.372023165847805",
      "lat": "40.855460369877406"
    },
    {
      "id": "pt.ine.add.PTCONT.42927",
      "street": "R ALTO DE MIRACAMBRA",
      "house": "51",
      "postcode": "3730-291",
      "city": "VALE DE CAMBRA",
      "lon": "-8.372023165847805",
      "lat": "40.855460369877406"
    },
    {
      "id": "pt.ine.add.PTCONT.60198",
      "street": "",
      "house": "",
      "postcode": "3730-291",
      "city": "VALE DE CAMBRA",
      "lon": "-8.372140856203227",
      "lat": "40.85520799023846"
    },
    {
      "id": "pt.ine.add.PTCONT.64358",
      "street": "",
      "house": "",
      "postcode": "3730-291",
      "city": "VALE DE CAMBRA",
      "lon": "-8.371512135186864",
      "lat": "40.855164267059465"
    },
    {
      "id": "pt.ine.add.PTCONT.74856",
      "street": "",
      "house": "",
      "postcode": "3730-291",
      "city": "VALE DE CAMBRA",
      "lon": "-8.371359508763861",
      "lat": "40.85559681523811"
    },
    {
      "id": "pt.ine.add.PTCONT.88533",
      "street": "R ALTO DE MIRACAMBRA",
      "house": "411",
      "postcode": "3730-291",
      "city": "VALE DE CAMBRA",
      "lon": "-8.370171774729444",
      "lat": "40.85510399540524"
    },
    {
      "id": "pt.ine.add.PTCONT.106565",
      "street": "",
      "house": "",
      "postcode": "3730-291",
      "city": "VALE DE CAMBRA",
      "lon": "-8.370348769260577",
      "lat": "40.85485149568593"
    },
    {
      "id": "pt.ine.add.PTCONT.113763",
      "street": "",
      "house": "",
      "postcode": "3730-291",
      "city": "VALE DE CAMBRA",
      "lon": "-8.3718557728614",
      "lat": "40.85508251269659"
    },
    {
      "id": "pt.ine.add.PTCONT.117403",
      "street": "",
      "house": "",
      "postcode": "3730-291",
      "city": "VALE DE CAMBRA",
      "lon": "-8.370799464445348",
      "lat": "40.85485957276229"
    },
    {
      "id": "pt.ine.add.PTCONT.133445",
      "street": "",
      "house": "",
      "postcode": "3730-291",
      "city": "VALE DE CAMBRA",
      "lon": "-8.371240718448032",
      "lat": "40.85554303141713"
    },
    {
      "id": "pt.ine.add.PTCONT.136793",
      "street": "BC ARTISTAS",
      "house": "",
      "postcode": "3730-291",
      "city": "VALE DE CAMBRA",
      "lon": "-8.371549392865838",
      "lat": "40.85563244230552"
    },
    {
      "id": "pt.ine.add.PTCONT.144679",
      "street": "",
      "house": "",
      "postcode": "3730-291",
      "city": "VALE DE CAMBRA",
      "lon": "-8.371451836708747",
      "lat": "40.854885241262046"
    },
    {
      "id": "pt.ine.add.PTCONT.167036",
      "street": "",
      "house": "",
      "postcode": "3730-291",
      "city": "VALE DE CAMBRA",
      "lon": "-8.370359440227194",
      "lat": "40.85451829420737"
    },
    {
      "id": "pt.ine.add.PTCONT.197604",
      "street": "",
      "house": "",
      "postcode": "3730-291",
      "city": "VALE DE CAMBRA",
      "lon": "-8.371618387233145",
      "lat": "40.85502897464985"
    },
    {
      "id": "pt.ine.add.PTCONT.204956",
      "street": "BC ARTISTAS",
      "house": "",
      "postcode": "3730-291",
      "city": "VALE DE CAMBRA",
      "lon": "-8.371596444121527",
      "lat": "40.85552428683219"
    },
    {
      "id": "pt.ine.add.PTCONT.251283",
      "street": "",
      "house": "",
      "postcode": "3730-291",
      "city": "VALE DE CAMBRA",
      "lon": "-8.371797088958786",
      "lat": "40.855253726312455"
    },
    {
      "id": "pt.ine.add.PTCONT.251284",
      "street": "",
      "house": "",
      "postcode": "3730-291",
      "city": "VALE DE CAMBRA",
      "lon": "-8.371797088958786",
      "lat": "40.855253726312455"
    },
    {
      "id": "pt.ine.add.PTCONT.254021",
      "street": "",
      "house": "",
      "postcode": "3730-291",
      "city": "VALE DE CAMBRA",
      "lon": "-8.370586828499507",
      "lat": "40.8550941368474"
    },
    {
      "id": "pt.ine.add.PTCONT.288972",
      "street": "",
      "house": "",
      "postcode": "3730-291",
      "city": "VALE DE CAMBRA",
      "lon": "-8.371929485052371",
      "lat": "40.85579374333493"
    },
    {
      "id": "pt.ine.add.PTCONT.286277",
      "street": "",
      "house": "",
      "postcode": "3730-291",
      "city": "VALE DE CAMBRA",
      "lon": "-8.3711666915787",
      "lat": "40.85474175243183"
    },
    {
      "id": "pt.ine.add.PTCONT.288977",
      "street": "",
      "house": "",
      "postcode": "3730-291",
      "city": "VALE DE CAMBRA",
      "lon": "-8.370739330113961",
      "lat": "40.8546255704987"
    }
  ]
}