{
  "data": {
    "distrito": "Lisboa",
    "concelho": "Sintra",
    "freguesia": "União das freguesias de Sintra (Santa Maria e São Miguel, São Martinho e São Pedro de Penaferrim)",
    "OBJECTID": 1848,
    "BGRI2021": "11112800712",
    "DT21": "11",
    "DTMN21": "1111",
    "DTMNFR21": "111128",
    "DTMNFRSEC21": "111128007",
    "SECNUM21": "007",
    "SSNUM21": "12",
    "SECSSNUM21": "00712",
    "OBJECTID_1": 111496,
    "DT": "11",
    "CC": "11",
    "fr": "28",
    "SEC": "007",
    "SS": "12"
  },
  "addresses": [
    {
      "id": "pt.ine.add.PTCONT.2270410",
      "street": "ESTR VÁRZEA",
      "house": "1",
      "postcode": "2710-403",
      "city": "SINTRA",
      "lon": "-9.371950616596337",
      "lat": "38.81112356071288"
    },
    {
      "id": "pt.ine.add.PTCONT.2282091",
      "street": "TV RIO",
      "house": "27",
      "postcode": "2710-384",
      "city": "SINTRA",
      "lon": "-9.371972701670487",
      "lat": "38.81106928097764"
    },
    {
      "id": "pt.ine.add.PTCONT.2374442",
      "street": "TV RIO",
      "house": "5",
      "postcode": "2710-384",
      "city": "SINTRA",
      "lon": "-9.372344435353705",
      "lat": "38.81059694364731"
    },
    {
      "id": "pt.ine.add.PTCONT.2412173",
      "street": "R SANTO ANTÓNIO",
      "house": "10",
      "postcode": "2710-386",
      "city": "SINTRA",
      "lon": "-9.37357683125741",
      "lat": "38.81261957865993"
    },
    {
      "id": "pt.ine.add.PTCONT.2418893",
      "street": "TV RIO",
      "house": "2",
      "postcode": "2710-384",
      "city": "SINTRA",
      "lon": "-9.372091828590193",
      "lat": "38.81063565334569"
    },
    {
      "id": "pt.ine.add.PTCONT.2443087",
      "street": "TV RIO",
      "house": "21",
      "postcode": "2710-384",
      "city": "SINTRA",
      "lon": "-9.372074580512832",
      "lat": "38.81096911706324"
    },
    {
      "id": "pt.ine.add.PTCONT.2464606",
      "street": "R SERRACAO",
      "house": "3",
      "postcode": "2710-400",
      "city": "SINTRA",
      "lon": "-9.373058041425566",
      "lat": "38.80992281005292"
    },
    {
      "id": "pt.ine.add.PTCONT.2493502",
      "street": "TV RIO",
      "house": "21A",
      "postcode": "2710-384",
      "city": "SINTRA",
      "lon": "-9.372132289317294",
      "lat": "38.81097751260289"
    },
    {
      "id": "pt.ine.add.PTCONT.2545414",
      "street": "TV RIO",
      "house": "19A",
      "postcode": "2710-384",
      "city": "SINTRA",
      "lon": "-9.372200572438317",
      "lat": "38.81093175042462"
    },
    {
      "id": "pt.ine.add.PTCONT.2564444",
      "street": "TV RIO",
      "house": "25",
      "postcode": "2710-384",
      "city": "SINTRA",
      "lon": "-9.372040984982204",
      "lat": "38.811023518890245"
    },
    {
      "id": "pt.ine.add.PTCONT.2590142",
      "street": "TV RIO",
      "house": "6",
      "postcode": "2710-384",
      "city": "SINTRA",
      "lon": "-9.372545420584988",
      "lat": "38.810901069468315"
    },
    {
      "id": "pt.ine.add.PTCONT.2672898",
      "street": "R SANTO ANTÓNIO",
      "house": "E",
      "postcode": "2710-386",
      "city": "SINTRA",
      "lon": "-9.373563445770955",
      "lat": "38.81251162977079"
    },
    {
      "id": "pt.ine.add.PTCONT.2678924",
      "street": "TV RIO",
      "house": "9",
      "postcode": "2710-384",
      "city": "SINTRA",
      "lon": "-9.372373074583805",
      "lat": "38.81092091303964"
    },
    {
      "id": "pt.ine.add.PTCONT.2678925",
      "street": "AV AVIACAO PORTUGUESA",
      "house": "119",
      "postcode": "2710-539",
      "city": "SINTRA",
      "lon": "-9.371978439717754",
      "lat": "38.810735939339"
    },
    {
      "id": "pt.ine.add.PTCONT.2678927",
      "street": "AV AVIACAO PORTUGUESA",
      "house": "119",
      "postcode": "2710-539",
      "city": "SINTRA",
      "lon": "-9.371978439717754",
      "lat": "38.810735939339"
    },
    {
      "id": "pt.ine.add.PTCONT.2678928",
      "street": "AV AVIACAO PORTUGUESA",
      "house": "119",
      "postcode": "2710-539",
      "city": "SINTRA",
      "lon": "-9.371978439717754",
      "lat": "38.810735939339"
    },
    {
      "id": "pt.ine.add.PTCONT.2730438",
      "street": "R SERRACAO",
      "house": "1",
      "postcode": "2710-400",
      "city": "SINTRA",
      "lon": "-9.372913870890592",
      "lat": "38.81023960580521"
    },
    {
      "id": "pt.ine.add.PTCONT.2741852",
      "street": "TV RIO",
      "house": "1",
      "postcode": "2710-384",
      "city": "SINTRA",
      "lon": "-9.372254536064128",
      "lat": "38.81072400349725"
    },
    {
      "id": "pt.ine.add.PTCONT.2782796",
      "street": "TV RIO",
      "house": "4",
      "postcode": "2710-384",
      "city": "SINTRA",
      "lon": "-9.372011099067738",
      "lat": "38.81062750192087"
    },
    {
      "id": "pt.ine.add.PTCONT.2791636",
      "street": "TV RIO",
      "house": "6",
      "postcode": "2710-384",
      "city": "SINTRA",
      "lon": "-9.372237407935232",
      "lat": "38.810399911965035"
    },
    {
      "id": "pt.ine.add.PTCONT.2796840",
      "street": "R SERRACAO",
      "house": "3",
      "postcode": "2710-400",
      "city": "SINTRA",
      "lon": "-9.373029287505005",
      "lat": "38.8102563960447"
    },
    {
      "id": "pt.ine.add.PTCONT.2802028",
      "street": "TV RIO",
      "house": "19",
      "postcode": "2710-384",
      "city": "SINTRA",
      "lon": "-9.372131509150282",
      "lat": "38.81093248293399"
    },
    {
      "id": "pt.ine.add.PTCONT.2826273",
      "street": "ESTR VÁRZEA CASA DA TI GUILHERMINA",
      "house": "3",
      "postcode": "2710-403",
      "city": "SINTRA",
      "lon": "-9.37200957366589",
      "lat": "38.81120400378274"
    },
    {
      "id": "pt.ine.add.PTCONT.2826274",
      "street": "AV AVIACAO PORTUGUESA",
      "house": "113",
      "postcode": "2710-539",
      "city": "SINTRA",
      "lon": "-9.372701531758315",
      "lat": "38.809944608648664"
    },
    {
      "id": "pt.ine.add.PTCONT.2858654",
      "street": "R SERRACAO",
      "house": "1",
      "postcode": "2710-400",
      "city": "SINTRA",
      "lon": "-9.373354500062646",
      "lat": "38.80975752648274"
    },
    {
      "id": "pt.ine.add.PTCONT.2867060",
      "street": "TV RIO",
      "house": "15",
      "postcode": "2710-384",
      "city": "SINTRA",
      "lon": "-9.37222218913324",
      "lat": "38.810850452843646"
    },
    {
      "id": "pt.ine.add.PTCONT.2903827",
      "street": "TV RIO",
      "house": "5",
      "postcode": "2710-384",
      "city": "SINTRA",
      "lon": "-9.37241583932297",
      "lat": "38.81073130001637"
    },
    {
      "id": "pt.ine.add.PTCONT.2932813",
      "street": "TV RIO",
      "house": "8",
      "postcode": "2710-384",
      "city": "SINTRA",
      "lon": "-9.372659745497655",
      "lat": "38.810854818529236"
    },
    {
      "id": "pt.ine.add.PTCONT.2976431",
      "street": "TV RIO",
      "house": "14",
      "postcode": "2710-384",
      "city": "SINTRA",
      "lon": "-9.372470114332295",
      "lat": "38.81054156486191"
    },
    {
      "id": "pt.ine.add.PTCONT.2976432",
      "street": "R SERRACAO",
      "house": "3",
      "postcode": "2710-400",
      "city": "SINTRA",
      "lon": "-9.372841529801992",
      "lat": "38.81005121414056"
    },
    {
      "id": "pt.ine.add.PTCONT.2976433",
      "street": "R SERRACAO",
      "house": "7",
      "postcode": "2710-400",
      "city": "SINTRA",
      "lon": "-9.373033615392549",
      "lat": "38.809842000999616"
    },
    {
      "id": "pt.ine.add.PTCONT.2979494",
      "street": "R SANTO ANTÓNIO",
      "house": "",
      "postcode": "2710-386",
      "city": "SINTRA",
      "lon": "-9.372313100427093",
      "lat": "38.8121105508164"
    },
    {
      "id": "pt.ine.add.PTCONT.2979568",
      "street": "R SERRACAO",
      "house": "3",
      "postcode": "2710-400",
      "city": "SINTRA",
      "lon": "-9.372841529801992",
      "lat": "38.81005121414056"
    },
    {
      "id": "pt.ine.add.PTCONT.3013110",
      "street": "R SERRACAO",
      "house": "7A",
      "postcode": "2710-400",
      "city": "SINTRA",
      "lon": "-9.373078407697143",
      "lat": "38.80976946486195"
    },
    {
      "id": "pt.ine.add.PTCONT.3040271",
      "street": "TV RIO",
      "house": "2",
      "postcode": "2710-384",
      "city": "SINTRA",
      "lon": "-9.372111729015709",
      "lat": "38.81045529050026"
    },
    {
      "id": "pt.ine.add.PTCONT.3059290",
      "street": "R SERRACAO",
      "house": "5",
      "postcode": "2710-400",
      "city": "SINTRA",
      "lon": "-9.372853976921528",
      "lat": "38.810105127586915"
    },
    {
      "id": "pt.ine.add.PTCONT.3071728",
      "street": "R SANTO ANTÓNIO",
      "house": "5",
      "postcode": "2710-386",
      "city": "SINTRA",
      "lon": "-9.373667667875212",
      "lat": "38.812546553388884"
    },
    {
      "id": "pt.ine.add.PTCONT.3080958",
      "street": "AV AVIACAO PORTUGUESA",
      "house": "113",
      "postcode": "2710-539",
      "city": "SINTRA",
      "lon": "-9.372610853456054",
      "lat": "38.810026639095646"
    },
    {
      "id": "pt.ine.add.PTCONT.3106688",
      "street": "R JOSE DA SILVA RAPOSO",
      "house": "16",
      "postcode": "2710-384",
      "city": "SINTRA",
      "lon": "-9.37262287248052",
      "lat": "38.81072009593868"
    },
    {
      "id": "pt.ine.add.PTCONT.3106689",
      "street": "R SERRACAO",
      "house": "7A",
      "postcode": "2710-400",
      "city": "SINTRA",
      "lon": "-9.37301496654179",
      "lat": "38.810094411436815"
    },
    {
      "id": "pt.ine.add.PTCONT.3153817",
      "street": "R JOSE DA SILVA RAPOSO",
      "house": "1",
      "postcode": "2710-384",
      "city": "SINTRA",
      "lon": "-9.372244154882232",
      "lat": "38.81145372827131"
    },
    {
      "id": "pt.ine.add.PTCONT.3165216",
      "street": "R SANTO ANTÓNIO",
      "house": "7",
      "postcode": "2710-386",
      "city": "SINTRA",
      "lon": "-9.373338961472214",
      "lat": "38.812180732556165"
    },
    {
      "id": "pt.ine.add.PTCONT.3236093",
      "street": "R SERRACAO",
      "house": "7",
      "postcode": "2710-400",
      "city": "SINTRA",
      "lon": "-9.372922727135396",
      "lat": "38.81008638279872"
    },
    {
      "id": "pt.ine.add.PTCONT.3245293",
      "street": "TV RIO",
      "house": "6",
      "postcode": "2710-384",
      "city": "SINTRA",
      "lon": "-9.372059325382953",
      "lat": "38.810753096718656"
    },
    {
      "id": "pt.ine.add.PTCONT.3245299",
      "street": "R SERRACAO",
      "house": "1",
      "postcode": "2710-400",
      "city": "SINTRA",
      "lon": "-9.373070800975178",
      "lat": "38.80999473533921"
    },
    {
      "id": "pt.ine.add.PTCONT.3281699",
      "street": "TV RIO",
      "house": "23",
      "postcode": "2710-384",
      "city": "SINTRA",
      "lon": "-9.372156402685103",
      "lat": "38.811040309972554"
    },
    {
      "id": "pt.ine.add.PTCONT.3290871",
      "street": "TV RIO",
      "house": "11",
      "postcode": "2710-384",
      "city": "SINTRA",
      "lon": "-9.372263393755185",
      "lat": "38.81057078052894"
    },
    {
      "id": "pt.ine.add.PTCONT.3297378",
      "street": "TV RIO",
      "house": "13",
      "postcode": "2710-384",
      "city": "SINTRA",
      "lon": "-9.37226464213998",
      "lat": "38.81064282799989"
    },
    {
      "id": "pt.ine.add.PTCONT.3328435",
      "street": "R SERRACAO",
      "house": "5",
      "postcode": "2710-400",
      "city": "SINTRA",
      "lon": "-9.373340225419767",
      "lat": "38.81026210302187"
    },
    {
      "id": "pt.ine.add.PTCONT.3365479",
      "street": "TV RIO",
      "house": "3",
      "postcode": "2710-384",
      "city": "SINTRA",
      "lon": "-9.372159019174424",
      "lat": "38.81052684965329"
    },
    {
      "id": "pt.ine.add.PTCONT.3450901",
      "street": "TV RIO",
      "house": "8",
      "postcode": "2710-384",
      "city": "SINTRA",
      "lon": "-9.372014843480704",
      "lat": "38.81084364434946"
    }
  ]
}