{
  "data": {
    "distrito": "Porto",
    "concelho": "Porto",
    "freguesia": "Uni√£o das freguesias de Aldoar, Foz do Douro e Nevogilde",
    "OBJECTID": 1609,
    "BGRI2021": "13121602406",
    "DT21": "13",
    "DTMN21": "1312",
    "DTMNFR21": "131216",
    "DTMNFRSEC21": "131216024",
    "SECNUM21": "024",
    "SSNUM21": "06",
    "SECSSNUM21": "02406",
    "OBJECTID_1": 139085,
    "DT": "13",
    "CC": "12",
    "fr": "16",
    "SEC": "024",
    "SS": "06"
  },
  "addresses": [
    {
      "id": "pt.ine.add.PTCONT.3762174",
      "street": "R AFONSO BALDAIA",
      "house": "261",
      "postcode": "4150-017",
      "city": "PORTO",
      "lon": "-8.66834760479249",
      "lat": "41.15775799638237"
    },
    {
      "id": "pt.ine.add.PTCONT.3975236",
      "street": "R PERO VAZ DE CAMINHA",
      "house": "63",
      "postcode": "4150-617",
      "city": "PORTO",
      "lon": "-8.667883853930615",
      "lat": "41.157868202389395"
    },
    {
      "id": "pt.ine.add.PTCONT.4020160",
      "street": "R AFONSO BALDAIA",
      "house": "241",
      "postcode": "4150-017",
      "city": "PORTO",
      "lon": "-8.668240675635518",
      "lat": "41.15779451054276"
    },
    {
      "id": "pt.ine.add.PTCONT.4029097",
      "street": "AV MARECHAL GOMES DA COSTA",
      "house": "1240-11",
      "postcode": "4150-356",
      "city": "PORTO",
      "lon": "-8.66861641361616",
      "lat": "41.157117439164445"
    },
    {
      "id": "pt.ine.add.PTCONT.4092517",
      "street": "AV MARECHAL GOMES DA COSTA",
      "house": "1194",
      "postcode": "4150-356",
      "city": "PORTO",
      "lon": "-8.668176714328172",
      "lat": "41.157254547544284"
    },
    {
      "id": "pt.ine.add.PTCONT.4144907",
      "street": "R AFONSO BALDAIA",
      "house": "267",
      "postcode": "4150-017",
      "city": "PORTO",
      "lon": "-8.668561316194186",
      "lat": "41.15766695977614"
    },
    {
      "id": "pt.ine.add.PTCONT.4184365",
      "street": "R PERO VAZ DE CAMINHA",
      "house": "73",
      "postcode": "4150-617",
      "city": "PORTO",
      "lon": "-8.66797996779552",
      "lat": "41.15796680380661"
    },
    {
      "id": "pt.ine.add.PTCONT.4209478",
      "street": "AV MARECHAL GOMES DA COSTA",
      "house": "1160",
      "postcode": "4150-356",
      "city": "PORTO",
      "lon": "-8.667666044266115",
      "lat": "41.15745501397791"
    },
    {
      "id": "pt.ine.add.PTCONT.4302896",
      "street": "AV MARECHAL GOMES DA COSTA",
      "house": "1180",
      "postcode": "4150-356",
      "city": "PORTO",
      "lon": "-8.668093686064404",
      "lat": "41.15729995487873"
    },
    {
      "id": "pt.ine.add.PTCONT.4361566",
      "street": "R PERO VAZ DE CAMINHA",
      "house": "51",
      "postcode": "4150-617",
      "city": "PORTO",
      "lon": "-8.66783561416181",
      "lat": "41.15779639166083"
    }
  ]
}