{
  "data": {
    "distrito": "Castelo Branco",
    "concelho": "Oleiros",
    "freguesia": "Mosteiro",
    "OBJECTID": 357,
    "BGRI2021": "05060700119",
    "DT21": "05",
    "DTMN21": "0506",
    "DTMNFR21": "050607",
    "DTMNFRSEC21": "050607001",
    "SECNUM21": "001",
    "SSNUM21": "19",
    "SECSSNUM21": "00119",
    "OBJECTID_1": 45069,
    "DT": "05",
    "CC": "06",
    "fr": "07",
    "SEC": "001",
    "SS": "19"
  },
  "addresses": [
    {
      "id": "pt.ine.add.PTCONT.988275",
      "street": "R MONTE DE ALEM",
      "house": "4",
      "postcode": "6160-262",
      "city": "MOSTEIRO OLR",
      "lon": "-7.9670472868598985",
      "lat": "39.896419193662545"
    },
    {
      "id": "pt.ine.add.PTCONT.1008414",
      "street": "R MONTE DE ALEM",
      "house": "",
      "postcode": "6160-262",
      "city": "MOSTEIRO OLR",
      "lon": "-7.966942334894635",
      "lat": "39.896301960737645"
    },
    {
      "id": "pt.ine.add.PTCONT.1014768",
      "street": "R ALMAS",
      "house": "",
      "postcode": "6160-262",
      "city": "MOSTEIRO OLR",
      "lon": "-7.959631453342689",
      "lat": "39.89745307481853"
    },
    {
      "id": "pt.ine.add.PTCONT.1031535",
      "street": "TV ESTACAL",
      "house": "",
      "postcode": "6160-262",
      "city": "MOSTEIRO OLR",
      "lon": "-7.966134575102204",
      "lat": "39.89669708012902"
    },
    {
      "id": "pt.ine.add.PTCONT.1033739",
      "street": "R ALMAS",
      "house": "32",
      "postcode": "6160-262",
      "city": "MOSTEIRO OLR",
      "lon": "-7.95924542774502",
      "lat": "39.897515541204235"
    },
    {
      "id": "pt.ine.add.PTCONT.1041791",
      "street": "R ALMAS",
      "house": "",
      "postcode": "6160-262",
      "city": "MOSTEIRO OLR",
      "lon": "-7.959248568359101",
      "lat": "39.896272669301155"
    },
    {
      "id": "pt.ine.add.PTCONT.1050929",
      "street": "R ALMAS",
      "house": "",
      "postcode": "6160-262",
      "city": "MOSTEIRO OLR",
      "lon": "-7.9593174279988",
      "lat": "39.89678613462134"
    },
    {
      "id": "pt.ine.add.PTCONT.1061271",
      "street": "EN 235",
      "house": "",
      "postcode": "6160-262",
      "city": "MOSTEIRO OLR",
      "lon": "-7.958918892210925",
      "lat": "39.89717280985561"
    },
    {
      "id": "pt.ine.add.PTCONT.1066413",
      "street": "ESTR ROQUEIRINHO",
      "house": "",
      "postcode": "6160-264",
      "city": "MOSTEIRO OLR",
      "lon": "-7.966831201926009",
      "lat": "39.89874252282321"
    }
  ]
}