{
  "data": {
    "distrito": "Faro",
    "concelho": "Lagos",
    "freguesia": "Uni達o das freguesias de Bensafrim e Bar達o de S達o Jo達o",
    "OBJECTID": 217,
    "BGRI2021": "08070700110",
    "DT21": "08",
    "DTMN21": "0807",
    "DTMNFR21": "080707",
    "DTMNFRSEC21": "080707001",
    "SECNUM21": "001",
    "SSNUM21": "10",
    "SECSSNUM21": "00110",
    "OBJECTID_1": 67847,
    "DT": "08",
    "CC": "07",
    "fr": "07",
    "SEC": "001",
    "SS": "10"
  },
  "addresses": [
    {
      "id": "pt.ine.add.PTCONT.1485365",
      "street": "",
      "house": "",
      "postcode": "8600-069",
      "city": "BENSAFRIM",
      "lon": "-8.727408961935739",
      "lat": "37.15698387098141"
    },
    {
      "id": "pt.ine.add.PTCONT.1538240",
      "street": "CASA ALDEIA",
      "house": "",
      "postcode": "8600-069",
      "city": "BENSAFRIM",
      "lon": "-8.723289856241028",
      "lat": "37.1571306016661"
    },
    {
      "id": "pt.ine.add.PTCONT.1566225",
      "street": "QTA RAMOS",
      "house": "",
      "postcode": "8600-069",
      "city": "BENSAFRIM",
      "lon": "-8.72351583884614",
      "lat": "37.15723760152608"
    },
    {
      "id": "pt.ine.add.PTCONT.1676280",
      "street": "",
      "house": "",
      "postcode": "8600-069",
      "city": "BENSAFRIM",
      "lon": "-8.729038547977755",
      "lat": "37.15663329077871"
    },
    {
      "id": "pt.ine.add.PTCONT.1696123",
      "street": "",
      "house": "",
      "postcode": "8600-069",
      "city": "BENSAFRIM",
      "lon": "-8.72780295903465",
      "lat": "37.15698189456527"
    },
    {
      "id": "pt.ine.add.PTCONT.1701747",
      "street": "",
      "house": "",
      "postcode": "8600-069",
      "city": "BENSAFRIM",
      "lon": "-8.723729303303898",
      "lat": "37.15718247516936"
    },
    {
      "id": "pt.ine.add.PTCONT.1732332",
      "street": "",
      "house": "",
      "postcode": "8600-069",
      "city": "BENSAFRIM",
      "lon": "-8.729474103335944",
      "lat": "37.156189587661956"
    },
    {
      "id": "pt.ine.add.PTCONT.1757260",
      "street": "CASA DO VENTO",
      "house": "",
      "postcode": "8600-069",
      "city": "BENSAFRIM",
      "lon": "-8.724246849141",
      "lat": "37.157143852973746"
    },
    {
      "id": "pt.ine.add.PTCONT.1760253",
      "street": "",
      "house": "",
      "postcode": "8600-069",
      "city": "BENSAFRIM",
      "lon": "-8.722018438970222",
      "lat": "37.155767337111634"
    },
    {
      "id": "pt.ine.add.PTCONT.1798288",
      "street": "",
      "house": "",
      "postcode": "8600-069",
      "city": "BENSAFRIM",
      "lon": "-8.72847753468625",
      "lat": "37.156870382209526"
    },
    {
      "id": "pt.ine.add.PTCONT.1810783",
      "street": "CASA DO VENTO",
      "house": "",
      "postcode": "8600-069",
      "city": "BENSAFRIM",
      "lon": "-8.72438263592087",
      "lat": "37.15723328012972"
    }
  ]
}