{
  "data": {
    "distrito": "Setúbal",
    "concelho": "Palmela",
    "freguesia": "Palmela",
    "OBJECTID": 567,
    "BGRI2021": "15080201422",
    "DT21": "15",
    "DTMN21": "1508",
    "DTMNFR21": "150802",
    "DTMNFRSEC21": "150802014",
    "SECNUM21": "014",
    "SSNUM21": "22",
    "SECSSNUM21": "01422",
    "OBJECTID_1": 166102,
    "DT": "15",
    "CC": "08",
    "fr": "02",
    "SEC": "014",
    "SS": "22"
  },
  "addresses": [
    {
      "id": "pt.ine.add.PTCONT.4694702",
      "street": "EM 533 QTA MERLUZA",
      "house": "",
      "postcode": "2950-401",
      "city": "PALMELA",
      "lon": "-8.867202187914978",
      "lat": "38.58173465472276"
    },
    {
      "id": "pt.ine.add.PTCONT.4702462",
      "street": "R MONTE DAS SERRALHEIRAS",
      "house": "CCI 6801",
      "postcode": "2950-440",
      "city": "PALMELA",
      "lon": "-8.870391045009779",
      "lat": "38.58494856463315"
    },
    {
      "id": "pt.ine.add.PTCONT.4715476",
      "street": "R MONTE DAS SERRALHEIRAS",
      "house": "",
      "postcode": "2950-025",
      "city": "PALMELA",
      "lon": "-8.866722107535047",
      "lat": "38.588692016977575"
    },
    {
      "id": "pt.ine.add.PTCONT.4723313",
      "street": "R MONTE DAS SERRALHEIRAS",
      "house": "APART 162",
      "postcode": "2950-440",
      "city": "PALMELA",
      "lon": "-8.87014249633932",
      "lat": "38.584211455456675"
    },
    {
      "id": "pt.ine.add.PTCONT.4776446",
      "street": "ESTR LAU QTA DO LOUREIRO",
      "house": "",
      "postcode": "2950-401",
      "city": "PALMELA",
      "lon": "-8.865942524254544",
      "lat": "38.58200378750727"
    },
    {
      "id": "pt.ine.add.PTCONT.4809239",
      "street": "ESTR SERRALHEIRAS",
      "house": "",
      "postcode": "2950-318",
      "city": "PALMELA",
      "lon": "-8.868691766280701",
      "lat": "38.59500342227792"
    },
    {
      "id": "pt.ine.add.PTCONT.4823562",
      "street": "R MONTE DAS SERRALHEIRAS ALTO DO VENTO",
      "house": "",
      "postcode": "2950-025",
      "city": "PALMELA",
      "lon": "-8.86951317929833",
      "lat": "38.58552160978976"
    },
    {
      "id": "pt.ine.add.PTCONT.4838841",
      "street": "ESTR SERRALHEIRAS CASA DAS SERRALHEIRAS",
      "house": "",
      "postcode": "2950-318",
      "city": "PALMELA",
      "lon": "-8.867338511804146",
      "lat": "38.5928679652947"
    },
    {
      "id": "pt.ine.add.PTCONT.4921469",
      "street": "R MONTE SERRALHEIRAS",
      "house": "AP 149",
      "postcode": "2950-440",
      "city": "PALMELA",
      "lon": "-8.871262215809828",
      "lat": "38.584843982913945"
    },
    {
      "id": "pt.ine.add.PTCONT.4921470",
      "street": "R MONTE SERRALHEIRAS APRT",
      "house": "APRT 149",
      "postcode": "2950-440",
      "city": "PALMELA",
      "lon": "-8.871262215809828",
      "lat": "38.584843982913945"
    },
    {
      "id": "pt.ine.add.PTCONT.4926452",
      "street": "ESTR SERRALHEIRAS",
      "house": "",
      "postcode": "2950-318",
      "city": "PALMELA",
      "lon": "-8.871236147217598",
      "lat": "38.58902396301152"
    },
    {
      "id": "pt.ine.add.PTCONT.4926453",
      "street": "SERRALHEIRAS DE CIMA",
      "house": "",
      "postcode": "2950-318",
      "city": "PALMELA",
      "lon": "-8.874703111300946",
      "lat": "38.58575007774721"
    },
    {
      "id": "pt.ine.add.PTCONT.4929051",
      "street": "ESTR LAU QTA DE S JOÃO",
      "house": "",
      "postcode": "2950-440",
      "city": "PALMELA",
      "lon": "-8.870493738800837",
      "lat": "38.58376783983344"
    },
    {
      "id": "pt.ine.add.PTCONT.4951531",
      "street": "ESTR SERRALHEIRAS QTA DA VINHA",
      "house": "",
      "postcode": "2950-025",
      "city": "PALMELA",
      "lon": "-8.868942769782246",
      "lat": "38.58585850183684"
    },
    {
      "id": "pt.ine.add.PTCONT.4955308",
      "street": "R MONTE DAS SERRALHEIRAS QTA PEDRAS NEGRAS",
      "house": "",
      "postcode": "2950-440",
      "city": "PALMELA",
      "lon": "-8.871689577550166",
      "lat": "38.58286848485102"
    },
    {
      "id": "pt.ine.add.PTCONT.4962655",
      "street": "R MONTE DAS SERRALHEIRAS",
      "house": "",
      "postcode": "2950-025",
      "city": "PALMELA",
      "lon": "-8.867868312717157",
      "lat": "38.58741466702699"
    },
    {
      "id": "pt.ine.add.PTCONT.4969812",
      "street": "R MONTE DAS SERRALHEIRAS QTA DO ALTO",
      "house": "",
      "postcode": "2950-440",
      "city": "PALMELA",
      "lon": "-8.871214970663916",
      "lat": "38.58359213724359"
    },
    {
      "id": "pt.ine.add.PTCONT.5005977",
      "street": "ESTR SERRALHEIRAS",
      "house": "",
      "postcode": "2950-318",
      "city": "PALMELA",
      "lon": "-8.86717527118459",
      "lat": "38.59149073207604"
    },
    {
      "id": "pt.ine.add.PTCONT.5028561",
      "street": "ESTR LAU",
      "house": "",
      "postcode": "2950-401",
      "city": "PALMELA",
      "lon": "-8.867812965324672",
      "lat": "38.58198305276178"
    },
    {
      "id": "pt.ine.add.PTCONT.5050310",
      "street": "ESTR LAU",
      "house": "",
      "postcode": "2950-034",
      "city": "PALMELA",
      "lon": "-8.864216702691047",
      "lat": "38.58496928087991"
    },
    {
      "id": "pt.ine.add.PTCONT.5068641",
      "street": "R MONTE DAS SERRALHEIRAS",
      "house": "",
      "postcode": "2950-440",
      "city": "PALMELA",
      "lon": "-8.872704085819784",
      "lat": "38.58219546937304"
    }
  ]
}