{
  "data": {
    "ilha": "Ilha da Madeira (Madeira)",
    "concelho": "Calheta",
    "freguesia": "Prazeres",
    "OBJECTID": 113,
    "BGRI2021": "31010800103",
    "DT21": "31",
    "DTMN21": "3101",
    "DTMNFR21": "310108",
    "DTMNFRSEC21": "310108001",
    "SECNUM21": "001",
    "SSNUM21": "03",
    "SECSSNUM21": "00103",
    "OBJECTID_1": 203394,
    "DT": "31",
    "CC": "01",
    "fr": "08",
    "SEC": "001",
    "SS": "03",
    "BGRI2021_1": "31010800103"
  },
  "addresses": [
    {
      "id": "pt.ine.add.MAD.24820",
      "street": "CAM LOMBO DA ROCHA",
      "house": "32",
      "postcode": "9370-612",
      "city": "PRAZERES",
      "lon": "-17.214739606304267",
      "lat": "32.7525195806439"
    },
    {
      "id": "pt.ine.add.MAD.24827",
      "street": "R CARREIRA",
      "house": "93",
      "postcode": "9370-641",
      "city": "PRAZERES",
      "lon": "-17.21257990541309",
      "lat": "32.7519264917267"
    },
    {
      "id": "pt.ine.add.MAD.24984",
      "street": "R CARREIRA",
      "house": "",
      "postcode": "9370-641",
      "city": "PRAZERES",
      "lon": "-17.211652923377343",
      "lat": "32.751122230030035"
    },
    {
      "id": "pt.ine.add.MAD.24985",
      "street": "R CARREIRA CASA KLINGEBIEL",
      "house": "73",
      "postcode": "9370-641",
      "city": "PRAZERES",
      "lon": "-17.21171934595375",
      "lat": "32.750787393871825"
    },
    {
      "id": "pt.ine.add.MAD.24986",
      "street": "R CARREIRA",
      "house": "37",
      "postcode": "9370-641",
      "city": "PRAZERES",
      "lon": "-17.210688955123555",
      "lat": "32.74838877561016"
    },
    {
      "id": "pt.ine.add.MAD.24987",
      "street": "CAM MIRADOURO",
      "house": "23",
      "postcode": "9370-642",
      "city": "PRAZERES",
      "lon": "-17.209945586112863",
      "lat": "32.74767143860309"
    },
    {
      "id": "pt.ine.add.MAD.24988",
      "street": "R CARREIRA",
      "house": "3",
      "postcode": "9370-641",
      "city": "PRAZERES",
      "lon": "-17.207927342786462",
      "lat": "32.746318262328444"
    },
    {
      "id": "pt.ine.add.MAD.24989",
      "street": "R CARREIRA",
      "house": "SB",
      "postcode": "9370-641",
      "city": "PRAZERES",
      "lon": "-17.208687982120185",
      "lat": "32.746007262116784"
    },
    {
      "id": "pt.ine.add.MAD.24990",
      "street": "CAM MIRADOURO",
      "house": "",
      "postcode": "9370-642",
      "city": "PRAZERES",
      "lon": "-17.210497679795",
      "lat": "32.74539819535027"
    },
    {
      "id": "pt.ine.add.MAD.24991",
      "street": "CAM MIRADOURO",
      "house": "15",
      "postcode": "9370-642",
      "city": "PRAZERES",
      "lon": "-17.209874197468615",
      "lat": "32.74650938371303"
    },
    {
      "id": "pt.ine.add.MAD.24992",
      "street": "CAM MIRADOURO",
      "house": "",
      "postcode": "9370-642",
      "city": "PRAZERES",
      "lon": "-17.209778037952734",
      "lat": "32.74780064532759"
    },
    {
      "id": "pt.ine.add.MAD.24997",
      "street": "CAM REFERTA",
      "house": "7",
      "postcode": "9370-636",
      "city": "PRAZERES",
      "lon": "-17.203209723637823",
      "lat": "32.744110756764584"
    },
    {
      "id": "pt.ine.add.MAD.24998",
      "street": "CAM SERRADO DAS LILAS",
      "house": "",
      "postcode": "9370-635",
      "city": "PRAZERES",
      "lon": "-17.20387708873327",
      "lat": "32.74131246896243"
    },
    {
      "id": "pt.ine.add.MAD.24999",
      "street": "CAM JARDIM PELADO",
      "house": "",
      "postcode": "9370-630",
      "city": "PRAZERES",
      "lon": "-17.203071808972187",
      "lat": "32.741543062835824"
    },
    {
      "id": "pt.ine.add.MAD.25000",
      "street": "CAM JARDIM PELADO",
      "house": "",
      "postcode": "9370-630",
      "city": "PRAZERES",
      "lon": "-17.20287650911041",
      "lat": "32.740978365105384"
    },
    {
      "id": "pt.ine.add.MAD.25001",
      "street": "CAM LEVADINHA",
      "house": "14",
      "postcode": "9370-634",
      "city": "PRAZERES",
      "lon": "-17.204729709054565",
      "lat": "32.73997182776372"
    },
    {
      "id": "pt.ine.add.MAD.25009",
      "street": "CAM REFERTA",
      "house": "",
      "postcode": "9370-636",
      "city": "PRAZERES",
      "lon": "-17.20679157604127",
      "lat": "32.74526513835335"
    },
    {
      "id": "pt.ine.add.MAD.25010",
      "street": "CAM REFERTA",
      "house": "",
      "postcode": "9370-636",
      "city": "PRAZERES",
      "lon": "-17.20642314186515",
      "lat": "32.745037161040855"
    },
    {
      "id": "pt.ine.add.MAD.25011",
      "street": "CAM REFERTA",
      "house": "",
      "postcode": "9370-636",
      "city": "PRAZERES",
      "lon": "-17.206356032214565",
      "lat": "32.744912091637225"
    },
    {
      "id": "pt.ine.add.MAD.25012",
      "street": "IMP CABEÇO",
      "house": "",
      "postcode": "9370-640",
      "city": "PRAZERES",
      "lon": "-17.206796229189727",
      "lat": "32.74415584848341"
    },
    {
      "id": "pt.ine.add.MAD.25013",
      "street": "CAM SERRADO DAS LILAS",
      "house": "",
      "postcode": "9370-635",
      "city": "PRAZERES",
      "lon": "-17.20587293627025",
      "lat": "32.74176431462797"
    },
    {
      "id": "pt.ine.add.MAD.25014",
      "street": "CAM SERRADO DAS LILAS",
      "house": "",
      "postcode": "9370-635",
      "city": "PRAZERES",
      "lon": "-17.204649466057923",
      "lat": "32.74191210128351"
    },
    {
      "id": "pt.ine.add.MAD.25015",
      "street": "CAM SERRADO DAS LILAS",
      "house": "31",
      "postcode": "9370-635",
      "city": "PRAZERES",
      "lon": "-17.204914985826836",
      "lat": "32.74359378674949"
    },
    {
      "id": "pt.ine.add.MAD.25016",
      "street": "CAM SERRADO DAS LILAS",
      "house": "9",
      "postcode": "9370-635",
      "city": "PRAZERES",
      "lon": "-17.20505719967027",
      "lat": "32.74373557107495"
    },
    {
      "id": "pt.ine.add.MAD.54436",
      "street": "R CARREIRA",
      "house": "103",
      "postcode": "9370-641",
      "city": "PRAZERES",
      "lon": "-17.21349913685365",
      "lat": "32.75284811600897"
    },
    {
      "id": "pt.ine.add.MAD.54438",
      "street": "CAM LEVADINHA",
      "house": "",
      "postcode": "9370-634",
      "city": "PRAZERES",
      "lon": "-17.204433726551624",
      "lat": "32.74051811353468"
    },
    {
      "id": "pt.ine.add.MAD.54439",
      "street": "CAM SERRADO DAS LILAS BOA ESPERANÇA",
      "house": "20",
      "postcode": "9370-635",
      "city": "PRAZERES",
      "lon": "-17.205376961728",
      "lat": "32.74372092468451"
    },
    {
      "id": "pt.ine.add.MAD.59682",
      "street": "CAM LOMBO DA ROCHA",
      "house": "10",
      "postcode": "9370-612",
      "city": "PRAZERES",
      "lon": "-17.215951586001466",
      "lat": "32.751902963795985"
    },
    {
      "id": "pt.ine.add.MAD.59692",
      "street": "CAM MIRADOURO",
      "house": "",
      "postcode": "9370-642",
      "city": "PRAZERES",
      "lon": "-17.2104794417641",
      "lat": "32.74509190717639"
    },
    {
      "id": "pt.ine.add.MAD.59836",
      "street": "CAM LOMBO DA ROCHA",
      "house": "",
      "postcode": "9370-612",
      "city": "PRAZERES",
      "lon": "-17.214668238624775",
      "lat": "32.75222325104333"
    },
    {
      "id": "pt.ine.add.MAD.59840",
      "street": "CAM SERRADO DAS LILAS",
      "house": "",
      "postcode": "9370-635",
      "city": "PRAZERES",
      "lon": "-17.203765990355055",
      "lat": "32.74113406394887"
    },
    {
      "id": "pt.ine.add.MAD.62953",
      "street": "R CARREIRA",
      "house": "5",
      "postcode": "9370-641",
      "city": "PRAZERES",
      "lon": "-17.208158679421906",
      "lat": "32.74661177714294"
    },
    {
      "id": "pt.ine.add.MAD.65674",
      "street": "CAM LEVADINHA",
      "house": "",
      "postcode": "9370-634",
      "city": "PRAZERES",
      "lon": "-17.204373728742244",
      "lat": "32.7406814924787"
    },
    {
      "id": "pt.ine.add.MAD.71495",
      "street": "CAM SERRADO DAS LILAS",
      "house": "",
      "postcode": "9370-635",
      "city": "PRAZERES",
      "lon": "-17.206011370766216",
      "lat": "32.741752859228995"
    },
    {
      "id": "pt.ine.add.MAD.75288",
      "street": "CAM LOMBO DA ROCHA",
      "house": "28 A",
      "postcode": "9370-612",
      "city": "PRAZERES",
      "lon": "-17.21483092323143",
      "lat": "32.752328589750086"
    },
    {
      "id": "pt.ine.add.MAD.86555",
      "street": "CAM LOMBO DA ROCHA",
      "house": "28 B",
      "postcode": "9370-612",
      "city": "PRAZERES",
      "lon": "-17.21500115032837",
      "lat": "32.752307543980486"
    },
    {
      "id": "pt.ine.add.MAD.86558",
      "street": "CAM LEVADINHA",
      "house": "2",
      "postcode": "9370-634",
      "city": "PRAZERES",
      "lon": "-17.205218557882407",
      "lat": "32.73945821874075"
    },
    {
      "id": "pt.ine.add.MAD.86559",
      "street": "CAM REFERTA",
      "house": "",
      "postcode": "9370-636",
      "city": "PRAZERES",
      "lon": "-17.20708690421413",
      "lat": "32.74555752812477"
    },
    {
      "id": "pt.ine.add.MAD.87411",
      "street": "CAM JARDIM PELADO",
      "house": "25",
      "postcode": "9370-630",
      "city": "PRAZERES",
      "lon": "-17.20384782822952",
      "lat": "32.7383911633727"
    },
    {
      "id": "pt.ine.add.MAD.87412",
      "street": "CAM SERRADO DAS LILAS VILLA DALILA",
      "house": "14",
      "postcode": "9370-635",
      "city": "PRAZERES",
      "lon": "-17.205500511728687",
      "lat": "32.74353839064431"
    },
    {
      "id": "pt.ine.add.MAD.93086",
      "street": "CAM SERRADO DAS LILAS",
      "house": "",
      "postcode": "9370-635",
      "city": "PRAZERES",
      "lon": "-17.2061042537151",
      "lat": "32.742057834227275"
    },
    {
      "id": "pt.ine.add.MAD.93087",
      "street": "CAM SERRADO DAS LILAS",
      "house": "",
      "postcode": "9370-635",
      "city": "PRAZERES",
      "lon": "-17.205643840951023",
      "lat": "32.741993796938274"
    },
    {
      "id": "pt.ine.add.MAD.96588",
      "street": "CAM LOMBO DA ROCHA",
      "house": "",
      "postcode": "9370-612",
      "city": "PRAZERES",
      "lon": "-17.216794728409614",
      "lat": "32.751906081599984"
    },
    {
      "id": "pt.ine.add.MAD.96590",
      "street": "CAM JARDIM PELADO",
      "house": "",
      "postcode": "9370-630",
      "city": "PRAZERES",
      "lon": "-17.20298754955799",
      "lat": "32.742888220950725"
    },
    {
      "id": "pt.ine.add.MAD.98540",
      "street": "CAM JARDIM PELADO",
      "house": "",
      "postcode": "9370-630",
      "city": "PRAZERES",
      "lon": "-17.20315976003126",
      "lat": "32.742948318433605"
    },
    {
      "id": "pt.ine.add.MAD.100158",
      "street": "CAM SERRADO DAS LILAS",
      "house": "",
      "postcode": "9370-635",
      "city": "PRAZERES",
      "lon": "-17.203707100871547",
      "lat": "32.74134251291747"
    },
    {
      "id": "pt.ine.add.MAD.106922",
      "street": "CAM SERRADO DAS LILAS",
      "house": "",
      "postcode": "9370-635",
      "city": "PRAZERES",
      "lon": "-17.20513030455667",
      "lat": "32.74410402053956"
    },
    {
      "id": "pt.ine.add.MAD.109795",
      "street": "R CARREIRA",
      "house": "91",
      "postcode": "9370-641",
      "city": "PRAZERES",
      "lon": "-17.212340994083508",
      "lat": "32.751759370779844"
    },
    {
      "id": "pt.ine.add.MAD.109807",
      "street": "R CARREIRA",
      "house": "25",
      "postcode": "9370-641",
      "city": "PRAZERES",
      "lon": "-17.209490930389844",
      "lat": "32.74784178119847"
    },
    {
      "id": "pt.ine.add.MAD.109808",
      "street": "R CARREIRA",
      "house": "9",
      "postcode": "9370-641",
      "city": "PRAZERES",
      "lon": "-17.20863202387471",
      "lat": "32.747198617204"
    },
    {
      "id": "pt.ine.add.MAD.109809",
      "street": "R CARREIRA",
      "house": "7",
      "postcode": "9370-641",
      "city": "PRAZERES",
      "lon": "-17.20841357563964",
      "lat": "32.746995055600806"
    },
    {
      "id": "pt.ine.add.MAD.109810",
      "street": "R CARREIRA",
      "house": "5 A",
      "postcode": "9370-641",
      "city": "PRAZERES",
      "lon": "-17.2083875566372",
      "lat": "32.74637327613597"
    },
    {
      "id": "pt.ine.add.MAD.109815",
      "street": "CAM SERRADO DAS LILAS",
      "house": "81",
      "postcode": "9370-635",
      "city": "PRAZERES",
      "lon": "-17.203581330160223",
      "lat": "32.74143490468948"
    },
    {
      "id": "pt.ine.add.MAD.109822",
      "street": "IMP CABEÇO",
      "house": "6",
      "postcode": "9370-640",
      "city": "PRAZERES",
      "lon": "-17.206546465045985",
      "lat": "32.744412750395426"
    },
    {
      "id": "pt.ine.add.MAD.109823",
      "street": "CAM REFERTA",
      "house": "11",
      "postcode": "9370-636",
      "city": "PRAZERES",
      "lon": "-17.204250562328518",
      "lat": "32.74434495104457"
    },
    {
      "id": "pt.ine.add.MAD.111709",
      "street": "TV FONTE",
      "house": "6",
      "postcode": "9370-638",
      "city": "PRAZERES",
      "lon": "-17.2030312966245",
      "lat": "32.74379826582604"
    },
    {
      "id": "pt.ine.add.MAD.112453",
      "street": "CAM SERRADO LILAS",
      "house": "1",
      "postcode": "9370-635",
      "city": "PRAZERES",
      "lon": "-17.205265185850745",
      "lat": "32.7443812029748"
    },
    {
      "id": "pt.ine.add.MAD.112468",
      "street": "CAM SERRADO DAS LILAS",
      "house": "43",
      "postcode": "9370-635",
      "city": "PRAZERES",
      "lon": "-17.205577623604952",
      "lat": "32.741904783099606"
    },
    {
      "id": "pt.ine.add.MAD.113722",
      "street": "CAM JARDIM PELADO",
      "house": "117",
      "postcode": "9370-630",
      "city": "PRAZERES",
      "lon": "-17.202701533087073",
      "lat": "32.74384013596715"
    },
    {
      "id": "pt.ine.add.MAD.113723",
      "street": "CAM SERRADO DAS LILAS",
      "house": "86",
      "postcode": "9370-635",
      "city": "PRAZERES",
      "lon": "-17.20342956634062",
      "lat": "32.74133837626245"
    },
    {
      "id": "pt.ine.add.MAD.113938",
      "street": "R CARREIRA",
      "house": "87",
      "postcode": "9370-641",
      "city": "PRAZERES",
      "lon": "-17.211976308323454",
      "lat": "32.75168464964514"
    },
    {
      "id": "pt.ine.add.MAD.129194",
      "street": "TV FONTE",
      "house": "",
      "postcode": "9370-638",
      "city": "PRAZERES",
      "lon": "-17.203656371964602",
      "lat": "32.74404879344901"
    }
  ]
}