{
  "data": {
    "distrito": "Lisboa",
    "concelho": "Vila Franca de Xira",
    "freguesia": "Vila Franca de Xira",
    "OBJECTID": 319,
    "BGRI2021": "11140900208",
    "DT21": "11",
    "DTMN21": "1114",
    "DTMNFR21": "111409",
    "DTMNFRSEC21": "111409002",
    "SECNUM21": "002",
    "SSNUM21": "08",
    "SECSSNUM21": "00208",
    "OBJECTID_1": 118308,
    "DT": "11",
    "CC": "14",
    "fr": "09",
    "SEC": "002",
    "SS": "08"
  },
  "addresses": [
    {
      "id": "pt.ine.add.PTCONT.2337236",
      "street": "ESTR MARCIANO MENDONÇA",
      "house": "",
      "postcode": "2600-275",
      "city": "VILA FRANCA DE XIRA",
      "lon": "-8.994790524386959",
      "lat": "38.95241334278283"
    },
    {
      "id": "pt.ine.add.PTCONT.2420033",
      "street": "CSL BELA VISTA COSTA BRANCA",
      "house": "",
      "postcode": "2600-275",
      "city": "VILA FRANCA DE XIRA",
      "lon": "-8.996006179768306",
      "lat": "38.95087306715376"
    },
    {
      "id": "pt.ine.add.PTCONT.2695250",
      "street": "R REIS TRALHA",
      "house": "",
      "postcode": "2600-275",
      "city": "VILA FRANCA DE XIRA",
      "lon": "-8.997699612683853",
      "lat": "38.94973458289362"
    },
    {
      "id": "pt.ine.add.PTCONT.2695251",
      "street": "R REIS TRALHA",
      "house": "",
      "postcode": "2600-275",
      "city": "VILA FRANCA DE XIRA",
      "lon": "-8.997699612683853",
      "lat": "38.94973458289362"
    },
    {
      "id": "pt.ine.add.PTCONT.2695252",
      "street": "R REIS TRALHA",
      "house": "",
      "postcode": "2600-275",
      "city": "VILA FRANCA DE XIRA",
      "lon": "-8.997699612683853",
      "lat": "38.94973458289362"
    },
    {
      "id": "pt.ine.add.PTCONT.2695253",
      "street": "R REIS TRALHA",
      "house": "",
      "postcode": "2600-275",
      "city": "VILA FRANCA DE XIRA",
      "lon": "-8.997699612683853",
      "lat": "38.94973458289362"
    },
    {
      "id": "pt.ine.add.PTCONT.2840875",
      "street": "R GEN HUMBERTO DELGADO",
      "house": "",
      "postcode": "2600-154",
      "city": "VILA FRANCA DE XIRA",
      "lon": "-8.99470285174812",
      "lat": "38.953747116260246"
    },
    {
      "id": "pt.ine.add.PTCONT.2840876",
      "street": "ESTR MARCIANO MENDONÇA",
      "house": "",
      "postcode": "2600-275",
      "city": "VILA FRANCA DE XIRA",
      "lon": "-8.994768654507746",
      "lat": "38.95251258796479"
    },
    {
      "id": "pt.ine.add.PTCONT.3219554",
      "street": "R RAUL PORTELA",
      "house": "",
      "postcode": "2600-275",
      "city": "VILA FRANCA DE XIRA",
      "lon": "-8.994856979245458",
      "lat": "38.951232855030966"
    }
  ]
}