{
  "data": {
    "distrito": "Lisboa",
    "concelho": "Lourinhã",
    "freguesia": "União das freguesias de São Bartolomeu dos Galegos e Moledo",
    "OBJECTID": 601,
    "BGRI2021": "11081400218",
    "DT21": "11",
    "DTMN21": "1108",
    "DTMNFR21": "110814",
    "DTMNFRSEC21": "110814002",
    "SECNUM21": "002",
    "SSNUM21": "18",
    "SECSSNUM21": "00218",
    "OBJECTID_1": 107188,
    "DT": "11",
    "CC": "08",
    "fr": "14",
    "SEC": "002",
    "SS": "18"
  },
  "addresses": [
    {
      "id": "pt.ine.add.PTCONT.2323662",
      "street": "R VAL JAMEIRA",
      "house": "1",
      "postcode": "2530-685",
      "city": "S BARTOLOMEU DOS GALEGOS",
      "lon": "-9.235008037677598",
      "lat": "39.2744007664115"
    },
    {
      "id": "pt.ine.add.PTCONT.2334722",
      "street": "ESTR PÓVOA",
      "house": "18",
      "postcode": "2530-685",
      "city": "S BARTOLOMEU DOS GALEGOS",
      "lon": "-9.238587416616927",
      "lat": "39.27357422192674"
    },
    {
      "id": "pt.ine.add.PTCONT.2352814",
      "street": "R PRINCIPAL",
      "house": "4",
      "postcode": "2530-685",
      "city": "S BARTOLOMEU DOS GALEGOS",
      "lon": "-9.235167834481125",
      "lat": "39.274984708530305"
    },
    {
      "id": "pt.ine.add.PTCONT.2435362",
      "street": "R VAL JAMEIRA CASAL JAMEIRA",
      "house": "10",
      "postcode": "2530-685",
      "city": "S BARTOLOMEU DOS GALEGOS",
      "lon": "-9.236808901170749",
      "lat": "39.27469895432703"
    },
    {
      "id": "pt.ine.add.PTCONT.2613279",
      "street": "R PRINCIPAL",
      "house": "8",
      "postcode": "2530-685",
      "city": "S BARTOLOMEU DOS GALEGOS",
      "lon": "-9.234800748847452",
      "lat": "39.274483790885455"
    },
    {
      "id": "pt.ine.add.PTCONT.2649018",
      "street": "TV REBELO",
      "house": "2",
      "postcode": "2530-685",
      "city": "S BARTOLOMEU DOS GALEGOS",
      "lon": "-9.23766050275694",
      "lat": "39.273583018736616"
    },
    {
      "id": "pt.ine.add.PTCONT.2703462",
      "street": "R VAL JAMEIRA",
      "house": "6",
      "postcode": "2530-685",
      "city": "S BARTOLOMEU DOS GALEGOS",
      "lon": "-9.235694468547278",
      "lat": "39.27457440804753"
    },
    {
      "id": "pt.ine.add.PTCONT.2770773",
      "street": "R VAL JAMEIRA",
      "house": "2",
      "postcode": "2530-685",
      "city": "S BARTOLOMEU DOS GALEGOS",
      "lon": "-9.235280173282442",
      "lat": "39.274758470375914"
    },
    {
      "id": "pt.ine.add.PTCONT.2805612",
      "street": "ESTR S DOMINGOS CASA DA ERMIDA",
      "house": "",
      "postcode": "2530-695",
      "city": "S BARTOLOMEU DOS GALEGOS",
      "lon": "-9.242088216525909",
      "lat": "39.27364901513668"
    },
    {
      "id": "pt.ine.add.PTCONT.2826561",
      "street": "ESTR PÓVOA",
      "house": "8",
      "postcode": "2530-685",
      "city": "S BARTOLOMEU DOS GALEGOS",
      "lon": "-9.236570389543493",
      "lat": "39.27353030598249"
    },
    {
      "id": "pt.ine.add.PTCONT.2911380",
      "street": "ESTR PÓVOA",
      "house": "14",
      "postcode": "2530-685",
      "city": "S BARTOLOMEU DOS GALEGOS",
      "lon": "-9.237402349656273",
      "lat": "39.27337830657285"
    },
    {
      "id": "pt.ine.add.PTCONT.3058005",
      "street": "ESTR PÓVOA",
      "house": "12",
      "postcode": "2530-685",
      "city": "S BARTOLOMEU DOS GALEGOS",
      "lon": "-9.237022401258915",
      "lat": "39.273535028346984"
    },
    {
      "id": "pt.ine.add.PTCONT.3192683",
      "street": "ESTR PÓVOA",
      "house": "16",
      "postcode": "2530-685",
      "city": "S BARTOLOMEU DOS GALEGOS",
      "lon": "-9.237880786276028",
      "lat": "39.273589935812446"
    },
    {
      "id": "pt.ine.add.PTCONT.3326228",
      "street": "TV REBELO",
      "house": "1",
      "postcode": "2530-685",
      "city": "S BARTOLOMEU DOS GALEGOS",
      "lon": "-9.237688483767174",
      "lat": "39.27388899102772"
    },
    {
      "id": "pt.ine.add.PTCONT.3427305",
      "street": "R VAL JAMEIRA",
      "house": "4",
      "postcode": "2530-685",
      "city": "S BARTOLOMEU DOS GALEGOS",
      "lon": "-9.235486333212924",
      "lat": "39.2746033998015"
    }
  ]
}