{
  "data": {
    "distrito": "Faro",
    "concelho": "Vila Real de Santo António",
    "freguesia": "Vila Nova de Cacela",
    "OBJECTID": 199,
    "BGRI2021": "08160101005",
    "DT21": "08",
    "DTMN21": "0816",
    "DTMNFR21": "081601",
    "DTMNFRSEC21": "081601010",
    "SECNUM21": "010",
    "SSNUM21": "05",
    "SECSSNUM21": "01005",
    "OBJECTID_1": 74728,
    "DT": "08",
    "CC": "16",
    "fr": "01",
    "SEC": "010",
    "SS": "05"
  },
  "addresses": [
    {
      "id": "pt.ine.add.PTCONT.1506667",
      "street": "",
      "house": "",
      "postcode": "8900-032",
      "city": "VILA NOVA DE CACELA",
      "lon": "-7.544418500323814",
      "lat": "37.176717706982956"
    },
    {
      "id": "pt.ine.add.PTCONT.1514833",
      "street": "CORUJEIRA FONTE SANTA",
      "house": "",
      "postcode": "8900-032",
      "city": "VILA NOVA DE CACELA",
      "lon": "-7.547374533818855",
      "lat": "37.175966470147976"
    },
    {
      "id": "pt.ine.add.PTCONT.1520918",
      "street": "",
      "house": "",
      "postcode": "8900-032",
      "city": "VILA NOVA DE CACELA",
      "lon": "-7.54382766885348",
      "lat": "37.175948883928314"
    },
    {
      "id": "pt.ine.add.PTCONT.1524474",
      "street": "",
      "house": "",
      "postcode": "8900-032",
      "city": "VILA NOVA DE CACELA",
      "lon": "-7.544196097674786",
      "lat": "37.177806863168094"
    },
    {
      "id": "pt.ine.add.PTCONT.1524475",
      "street": "",
      "house": "",
      "postcode": "8900-032",
      "city": "VILA NOVA DE CACELA",
      "lon": "-7.544196097674786",
      "lat": "37.177806863168094"
    },
    {
      "id": "pt.ine.add.PTCONT.1527212",
      "street": "CORUJEIRA FONTE SANTA",
      "house": "",
      "postcode": "8900-032",
      "city": "VILA NOVA DE CACELA",
      "lon": "-7.54897843354385",
      "lat": "37.175325636930765"
    },
    {
      "id": "pt.ine.add.PTCONT.1540771",
      "street": "",
      "house": "",
      "postcode": "8900-032",
      "city": "VILA NOVA DE CACELA",
      "lon": "-7.544282472592829",
      "lat": "37.17828484486712"
    },
    {
      "id": "pt.ine.add.PTCONT.1552892",
      "street": "",
      "house": "",
      "postcode": "8900-032",
      "city": "VILA NOVA DE CACELA",
      "lon": "-7.548171555078248",
      "lat": "37.17628577233702"
    },
    {
      "id": "pt.ine.add.PTCONT.1567972",
      "street": "",
      "house": "",
      "postcode": "8900-032",
      "city": "VILA NOVA DE CACELA",
      "lon": "-7.544610619206906",
      "lat": "37.1766285570696"
    },
    {
      "id": "pt.ine.add.PTCONT.1601498",
      "street": "",
      "house": "",
      "postcode": "8900-032",
      "city": "VILA NOVA DE CACELA",
      "lon": "-7.543771019498857",
      "lat": "37.17599365431622"
    },
    {
      "id": "pt.ine.add.PTCONT.1639071",
      "street": "",
      "house": "",
      "postcode": "8900-032",
      "city": "VILA NOVA DE CACELA",
      "lon": "-7.545779325887391",
      "lat": "37.17548102120511"
    },
    {
      "id": "pt.ine.add.PTCONT.1661678",
      "street": "",
      "house": "",
      "postcode": "8900-032",
      "city": "VILA NOVA DE CACELA",
      "lon": "-7.548195116900399",
      "lat": "37.176150732233694"
    },
    {
      "id": "pt.ine.add.PTCONT.1665417",
      "street": "",
      "house": "",
      "postcode": "8900-032",
      "city": "VILA NOVA DE CACELA",
      "lon": "-7.544497669832341",
      "lat": "37.17667304816453"
    },
    {
      "id": "pt.ine.add.PTCONT.1691716",
      "street": "",
      "house": "",
      "postcode": "8900-032",
      "city": "VILA NOVA DE CACELA",
      "lon": "-7.5443519192084745",
      "lat": "37.17659123021697"
    },
    {
      "id": "pt.ine.add.PTCONT.1714543",
      "street": "",
      "house": "",
      "postcode": "8900-032",
      "city": "VILA NOVA DE CACELA",
      "lon": "-7.547573874187584",
      "lat": "37.17639995589352"
    },
    {
      "id": "pt.ine.add.PTCONT.1723590",
      "street": "SIT FONTE SANTA",
      "house": "",
      "postcode": "8900-032",
      "city": "VILA NOVA DE CACELA",
      "lon": "-7.5489327699834075",
      "lat": "37.17540650567766"
    },
    {
      "id": "pt.ine.add.PTCONT.1723627",
      "street": "SIT FONTE SANTA",
      "house": "",
      "postcode": "8900-032",
      "city": "VILA NOVA DE CACELA",
      "lon": "-7.5489327699834075",
      "lat": "37.17540650567766"
    },
    {
      "id": "pt.ine.add.PTCONT.1728848",
      "street": "",
      "house": "",
      "postcode": "8900-032",
      "city": "VILA NOVA DE CACELA",
      "lon": "-7.548263232069514",
      "lat": "37.17607898503198"
    },
    {
      "id": "pt.ine.add.PTCONT.1731847",
      "street": "CASA FLÔR DE LOTUS",
      "house": "",
      "postcode": "8900-032",
      "city": "VILA NOVA DE CACELA",
      "lon": "-7.543641700463141",
      "lat": "37.17669582424215"
    },
    {
      "id": "pt.ine.add.PTCONT.1731950",
      "street": "SIT CORUJEIRA",
      "house": "",
      "postcode": "8900-032",
      "city": "VILA NOVA DE CACELA",
      "lon": "-7.547383080932234",
      "lat": "37.17631791906911"
    },
    {
      "id": "pt.ine.add.PTCONT.1737478",
      "street": "",
      "house": "",
      "postcode": "8900-032",
      "city": "VILA NOVA DE CACELA",
      "lon": "-7.548374372933532",
      "lat": "37.17626875253143"
    },
    {
      "id": "pt.ine.add.PTCONT.1746585",
      "street": "",
      "house": "",
      "postcode": "8900-032",
      "city": "VILA NOVA DE CACELA",
      "lon": "-7.54542699142127",
      "lat": "37.17590276434129"
    },
    {
      "id": "pt.ine.add.PTCONT.1750020",
      "street": "SIT FONTE SANTA",
      "house": "",
      "postcode": "8900-032",
      "city": "VILA NOVA DE CACELA",
      "lon": "-7.545707511838415",
      "lat": "37.176030301286964"
    },
    {
      "id": "pt.ine.add.PTCONT.1754659",
      "street": "",
      "house": "",
      "postcode": "8900-032",
      "city": "VILA NOVA DE CACELA",
      "lon": "-7.545058993439417",
      "lat": "37.17689208547202"
    },
    {
      "id": "pt.ine.add.PTCONT.1758853",
      "street": "",
      "house": "",
      "postcode": "8900-032",
      "city": "VILA NOVA DE CACELA",
      "lon": "-7.5473700819665",
      "lat": "37.176543115486986"
    },
    {
      "id": "pt.ine.add.PTCONT.1764900",
      "street": "",
      "house": "",
      "postcode": "8900-032",
      "city": "VILA NOVA DE CACELA",
      "lon": "-7.545869753118792",
      "lat": "37.17543641725365"
    },
    {
      "id": "pt.ine.add.PTCONT.1812333",
      "street": "",
      "house": "",
      "postcode": "8900-032",
      "city": "VILA NOVA DE CACELA",
      "lon": "-7.5442395297812945",
      "lat": "37.17801431876429"
    },
    {
      "id": "pt.ine.add.PTCONT.1812344",
      "street": "",
      "house": "",
      "postcode": "8900-032",
      "city": "VILA NOVA DE CACELA",
      "lon": "-7.547901663950322",
      "lat": "37.17623938755722"
    },
    {
      "id": "pt.ine.add.PTCONT.1818215",
      "street": "",
      "house": "",
      "postcode": "8900-032",
      "city": "VILA NOVA DE CACELA",
      "lon": "-7.5449798240259165",
      "lat": "37.17693674466476"
    },
    {
      "id": "pt.ine.add.PTCONT.1826398",
      "street": "",
      "house": "",
      "postcode": "8900-032",
      "city": "VILA NOVA DE CACELA",
      "lon": "-7.5442728895599185",
      "lat": "37.176617868782934"
    },
    {
      "id": "pt.ine.add.PTCONT.1827478",
      "street": "",
      "house": "",
      "postcode": "8900-032",
      "city": "VILA NOVA DE CACELA",
      "lon": "-7.544746647392263",
      "lat": "37.17651209706046"
    },
    {
      "id": "pt.ine.add.PTCONT.1835198",
      "street": "",
      "house": "",
      "postcode": "8900-018",
      "city": "VILA NOVA DE CACELA",
      "lon": "-7.546311046011157",
      "lat": "37.17515928018185"
    },
    {
      "id": "pt.ine.add.PTCONT.1838180",
      "street": "",
      "house": "",
      "postcode": "8900-032",
      "city": "VILA NOVA DE CACELA",
      "lon": "-7.548238906362574",
      "lat": "37.17631313608457"
    },
    {
      "id": "pt.ine.add.PTCONT.1846787",
      "street": "",
      "house": "",
      "postcode": "8900-032",
      "city": "VILA NOVA DE CACELA",
      "lon": "-7.547789134110252",
      "lat": "37.176229821309434"
    }
  ]
}