{
  "data": {
    "distrito": "Faro",
    "concelho": "Vila Real de Santo António",
    "freguesia": "Vila Nova de Cacela",
    "OBJECTID": 23,
    "BGRI2021": "08160101033",
    "DT21": "08",
    "DTMN21": "0816",
    "DTMNFR21": "081601",
    "DTMNFRSEC21": "081601010",
    "SECNUM21": "010",
    "SSNUM21": "33",
    "SECSSNUM21": "01033",
    "OBJECTID_1": 74622,
    "DT": "08",
    "CC": "16",
    "fr": "01",
    "SEC": "010",
    "SS": "33"
  },
  "addresses": [
    {
      "id": "pt.ine.add.PTCONT.1480622",
      "street": "",
      "house": "",
      "postcode": "8900-067",
      "city": "VILA NOVA DE CACELA",
      "lon": "-7.561890580157871",
      "lat": "37.223603228745006"
    },
    {
      "id": "pt.ine.add.PTCONT.1526725",
      "street": "",
      "house": "",
      "postcode": "8900-067",
      "city": "VILA NOVA DE CACELA",
      "lon": "-7.564321240758057",
      "lat": "37.22251566241336"
    },
    {
      "id": "pt.ine.add.PTCONT.1570673",
      "street": "",
      "house": "",
      "postcode": "8900-067",
      "city": "VILA NOVA DE CACELA",
      "lon": "-7.563881698463523",
      "lat": "37.22253157146958"
    },
    {
      "id": "pt.ine.add.PTCONT.1570676",
      "street": "",
      "house": "",
      "postcode": "8900-067",
      "city": "VILA NOVA DE CACELA",
      "lon": "-7.565273059456043",
      "lat": "37.221799400345795"
    },
    {
      "id": "pt.ine.add.PTCONT.1588958",
      "street": "CORTE ANTÓNIO MARTINS",
      "house": "CP 599 Z",
      "postcode": "8900-067",
      "city": "VILA NOVA DE CACELA",
      "lon": "-7.5630599167828745",
      "lat": "37.22542895561258"
    },
    {
      "id": "pt.ine.add.PTCONT.1593652",
      "street": "CORTE ANTÓNIO MARTINS",
      "house": "CP 535 Z",
      "postcode": "8900-067",
      "city": "VILA NOVA DE CACELA",
      "lon": "-7.5660634871589085",
      "lat": "37.22307364882875"
    },
    {
      "id": "pt.ine.add.PTCONT.1660611",
      "street": "",
      "house": "",
      "postcode": "8900-067",
      "city": "VILA NOVA DE CACELA",
      "lon": "-7.5622437218657215",
      "lat": "37.224587060813576"
    },
    {
      "id": "pt.ine.add.PTCONT.1661601",
      "street": "",
      "house": "",
      "postcode": "8900-067",
      "city": "VILA NOVA DE CACELA",
      "lon": "-7.565570105239024",
      "lat": "37.22275592286622"
    },
    {
      "id": "pt.ine.add.PTCONT.1680630",
      "street": "",
      "house": "",
      "postcode": "8900-067",
      "city": "VILA NOVA DE CACELA",
      "lon": "-7.565926394808899",
      "lat": "37.22332528259378"
    },
    {
      "id": "pt.ine.add.PTCONT.1688850",
      "street": "MTE UALE",
      "house": "CP 559 Z",
      "postcode": "8900-067",
      "city": "VILA NOVA DE CACELA",
      "lon": "-7.562118560544473",
      "lat": "37.224748643955564"
    },
    {
      "id": "pt.ine.add.PTCONT.1720624",
      "street": "CORTE ANTÓNIO MARTINS",
      "house": "",
      "postcode": "8900-067",
      "city": "VILA NOVA DE CACELA",
      "lon": "-7.566821369065499",
      "lat": "37.225690280191316"
    },
    {
      "id": "pt.ine.add.PTCONT.1758890",
      "street": "",
      "house": "",
      "postcode": "8900-067",
      "city": "VILA NOVA DE CACELA",
      "lon": "-7.5660376478497",
      "lat": "37.22351503296559"
    },
    {
      "id": "pt.ine.add.PTCONT.1766166",
      "street": "SIT COMBAIXA",
      "house": "CO 538 Z",
      "postcode": "8900-067",
      "city": "VILA NOVA DE CACELA",
      "lon": "-7.564748815748793",
      "lat": "37.22409452868172"
    },
    {
      "id": "pt.ine.add.PTCONT.1780342",
      "street": "CORTE ANTÓNIO MARTINS",
      "house": "CP 599 Z",
      "postcode": "8900-067",
      "city": "VILA NOVA DE CACELA",
      "lon": "-7.56264167030128",
      "lat": "37.225607148967185"
    },
    {
      "id": "pt.ine.add.PTCONT.1785780",
      "street": "CORTE ANTÓNIO MARTINS",
      "house": "CP 702 Z",
      "postcode": "8900-067",
      "city": "VILA NOVA DE CACELA",
      "lon": "-7.563309273472923",
      "lat": "37.223736207643256"
    },
    {
      "id": "pt.ine.add.PTCONT.1791843",
      "street": "MTE DAQUELA BANDA",
      "house": "",
      "postcode": "8900-067",
      "city": "VILA NOVA DE CACELA",
      "lon": "-7.564893800655532",
      "lat": "37.22429345232955"
    },
    {
      "id": "pt.ine.add.PTCONT.1829534",
      "street": "MTE DAQUELA BANDA",
      "house": "",
      "postcode": "8900-067",
      "city": "VILA NOVA DE CACELA",
      "lon": "-7.564801567935305",
      "lat": "37.22457233101761"
    }
  ]
}