{
  "data": {
    "distrito": "Coimbra",
    "concelho": "Arganil",
    "freguesia": "Sarzedo",
    "OBJECTID": 311,
    "BGRI2021": "06011500109",
    "DT21": "06",
    "DTMN21": "0601",
    "DTMNFR21": "060115",
    "DTMNFRSEC21": "060115001",
    "SECNUM21": "001",
    "SSNUM21": "09",
    "SECSSNUM21": "00109",
    "OBJECTID_1": 47393,
    "DT": "06",
    "CC": "01",
    "fr": "15",
    "SEC": "001",
    "SS": "09"
  },
  "addresses": [
    {
      "id": "pt.ine.add.PTCONT.1102022",
      "street": "R CESAR MARQUES PINTO",
      "house": "",
      "postcode": "3300-406",
      "city": "SARZEDO AGN",
      "lon": "-8.071315636314255",
      "lat": "40.24254459265774"
    },
    {
      "id": "pt.ine.add.PTCONT.1106062",
      "street": "R CESAR MARQUES PINTO",
      "house": "",
      "postcode": "3300-406",
      "city": "SARZEDO AGN",
      "lon": "-8.071961460219075",
      "lat": "40.243148325566985"
    },
    {
      "id": "pt.ine.add.PTCONT.1106063",
      "street": "R CESAR MARQUES PINTO",
      "house": "",
      "postcode": "3300-406",
      "city": "SARZEDO AGN",
      "lon": "-8.071961460219075",
      "lat": "40.243148325566985"
    },
    {
      "id": "pt.ine.add.PTCONT.1106064",
      "street": "R CESAR MARQUES PINTO",
      "house": "",
      "postcode": "3300-406",
      "city": "SARZEDO AGN",
      "lon": "-8.071961460219075",
      "lat": "40.243148325566985"
    },
    {
      "id": "pt.ine.add.PTCONT.1106065",
      "street": "R CESAR MARQUES PINTO",
      "house": "",
      "postcode": "3300-406",
      "city": "SARZEDO AGN",
      "lon": "-8.071961460219075",
      "lat": "40.243148325566985"
    },
    {
      "id": "pt.ine.add.PTCONT.1106066",
      "street": "R CESAR MARQUES PINTO",
      "house": "",
      "postcode": "3300-406",
      "city": "SARZEDO AGN",
      "lon": "-8.071961460219075",
      "lat": "40.243148325566985"
    },
    {
      "id": "pt.ine.add.PTCONT.1106067",
      "street": "R CESAR MARQUES PINTO",
      "house": "",
      "postcode": "3300-406",
      "city": "SARZEDO AGN",
      "lon": "-8.071961460219075",
      "lat": "40.243148325566985"
    },
    {
      "id": "pt.ine.add.PTCONT.1106068",
      "street": "R CESAR MARQUES PINTO",
      "house": "",
      "postcode": "3300-406",
      "city": "SARZEDO AGN",
      "lon": "-8.071961460219075",
      "lat": "40.243148325566985"
    },
    {
      "id": "pt.ine.add.PTCONT.1106069",
      "street": "R CESAR MARQUES PINTO",
      "house": "",
      "postcode": "3300-406",
      "city": "SARZEDO AGN",
      "lon": "-8.071961460219075",
      "lat": "40.243148325566985"
    },
    {
      "id": "pt.ine.add.PTCONT.1107842",
      "street": "R CESAR MARQUES PINTO",
      "house": "",
      "postcode": "3300-406",
      "city": "SARZEDO AGN",
      "lon": "-8.071961460219075",
      "lat": "40.243148325566985"
    },
    {
      "id": "pt.ine.add.PTCONT.1125743",
      "street": "R ALBERTO CESAR DAS NEVES OS MEUS PENDRICALHOS",
      "house": "",
      "postcode": "3300-404",
      "city": "SARZEDO AGN",
      "lon": "-8.069801072087792",
      "lat": "40.240976761248525"
    },
    {
      "id": "pt.ine.add.PTCONT.1133151",
      "street": "QLHA MIRADOURO DO CANTO",
      "house": "",
      "postcode": "3300-411",
      "city": "SARZEDO AGN",
      "lon": "-8.069319804005737",
      "lat": "40.24038211270063"
    },
    {
      "id": "pt.ine.add.PTCONT.1135212",
      "street": "R ALBERTO CESAR DAS NEVES",
      "house": "",
      "postcode": "3300-404",
      "city": "SARZEDO AGN",
      "lon": "-8.06980143277993",
      "lat": "40.240589511077346"
    },
    {
      "id": "pt.ine.add.PTCONT.1138756",
      "street": "QLHA MIRADOURO DO CANTO",
      "house": "",
      "postcode": "3300-411",
      "city": "SARZEDO AGN",
      "lon": "-8.069437507090344",
      "lat": "40.24018404940055"
    },
    {
      "id": "pt.ine.add.PTCONT.1147133",
      "street": "R CESAR MARQUES PINTO AFN",
      "house": "23",
      "postcode": "3300-406",
      "city": "SARZEDO AGN",
      "lon": "-8.070717113038153",
      "lat": "40.24163468367923"
    },
    {
      "id": "pt.ine.add.PTCONT.1147144",
      "street": "QLHA MIRADOURO DO CANTO M R S",
      "house": "",
      "postcode": "3300-411",
      "city": "SARZEDO AGN",
      "lon": "-8.069531411297206",
      "lat": "40.240301176725936"
    },
    {
      "id": "pt.ine.add.PTCONT.1153175",
      "street": "EN 342-4",
      "house": "",
      "postcode": "3300-420",
      "city": "SARZEDO AGN",
      "lon": "-8.071820271060979",
      "lat": "40.2433283672607"
    },
    {
      "id": "pt.ine.add.PTCONT.1153191",
      "street": "QLHA MIRADOURO DO CANTO",
      "house": "",
      "postcode": "3300-411",
      "city": "SARZEDO AGN",
      "lon": "-8.069378773849966",
      "lat": "40.24015699960414"
    },
    {
      "id": "pt.ine.add.PTCONT.1155328",
      "street": "R CESAR MARQUES PINTO YES",
      "house": "",
      "postcode": "3300-406",
      "city": "SARZEDO AGN",
      "lon": "-8.071644956381357",
      "lat": "40.24225658177586"
    },
    {
      "id": "pt.ine.add.PTCONT.1169269",
      "street": "R CESAR MARQUES PINTO",
      "house": "25",
      "postcode": "3300-406",
      "city": "SARZEDO AGN",
      "lon": "-8.070634898947004",
      "lat": "40.24158060440238"
    },
    {
      "id": "pt.ine.add.PTCONT.1169286",
      "street": "QLHA MIRADOURO DO CANTO",
      "house": "",
      "postcode": "3300-411",
      "city": "SARZEDO AGN",
      "lon": "-8.069378655633864",
      "lat": "40.24028308106646"
    },
    {
      "id": "pt.ine.add.PTCONT.1174063",
      "street": "R CESAR MARQUES PINTO",
      "house": "",
      "postcode": "3300-406",
      "city": "SARZEDO AGN",
      "lon": "-8.072137339664836",
      "lat": "40.243598709283866"
    },
    {
      "id": "pt.ine.add.PTCONT.1177209",
      "street": "R ALBERTO CESAR DAS NEVES",
      "house": "",
      "postcode": "3300-404",
      "city": "SARZEDO AGN",
      "lon": "-8.069589883824323",
      "lat": "40.24060740681442"
    },
    {
      "id": "pt.ine.add.PTCONT.1183922",
      "street": "R ALBERTO CESAR DAS NEVES",
      "house": "",
      "postcode": "3300-404",
      "city": "SARZEDO AGN",
      "lon": "-8.069719321468902",
      "lat": "40.24042736132107"
    },
    {
      "id": "pt.ine.add.PTCONT.1185604",
      "street": "R ALBERTO CESAR DAS NEVES",
      "house": "",
      "postcode": "3300-404",
      "city": "SARZEDO AGN",
      "lon": "-8.070025402075434",
      "lat": "40.239851155850246"
    },
    {
      "id": "pt.ine.add.PTCONT.1191465",
      "street": "R ALBERTO CESAR DAS NEVES",
      "house": "",
      "postcode": "3300-404",
      "city": "SARZEDO AGN",
      "lon": "-8.069754517978776",
      "lat": "40.240490421354"
    },
    {
      "id": "pt.ine.add.PTCONT.1196479",
      "street": "R CESAR MARQUES PINTO",
      "house": "15",
      "postcode": "3300-406",
      "city": "SARZEDO AGN",
      "lon": "-8.070951921742722",
      "lat": "40.24188697301094"
    },
    {
      "id": "pt.ine.add.PTCONT.1198180",
      "street": "R ALBERTO CESAR DAS NEVES FAMILIA FONSECA",
      "house": "",
      "postcode": "3300-404",
      "city": "SARZEDO AGN",
      "lon": "-8.06969575914122",
      "lat": "40.24049038917479"
    },
    {
      "id": "pt.ine.add.PTCONT.1207057",
      "street": "R CESAR MARQUES PINTO",
      "house": "",
      "postcode": "3300-406",
      "city": "SARZEDO AGN",
      "lon": "-8.072161054259652",
      "lat": "40.243364570496844"
    },
    {
      "id": "pt.ine.add.PTCONT.1212226",
      "street": "QLHA MIRADOURO DO CANTO",
      "house": "",
      "postcode": "3300-411",
      "city": "SARZEDO AGN",
      "lon": "-8.069272881591694",
      "lat": "40.24029202859776"
    },
    {
      "id": "pt.ine.add.PTCONT.1217703",
      "street": "R CESAR MARQUES PINTO",
      "house": "",
      "postcode": "3300-406",
      "city": "SARZEDO AGN",
      "lon": "-8.071327846874723",
      "lat": "40.242040273244676"
    },
    {
      "id": "pt.ine.add.PTCONT.1258667",
      "street": "R ALBERTO CESAR DAS NEVES",
      "house": "",
      "postcode": "3300-404",
      "city": "SARZEDO AGN",
      "lon": "-8.069343248361806",
      "lat": "40.24044516638125"
    },
    {
      "id": "pt.ine.add.PTCONT.1266725",
      "street": "R CESAR MARQUES PINTO CASA DO BENJAMIM",
      "house": "",
      "postcode": "3300-406",
      "city": "SARZEDO AGN",
      "lon": "-8.070305869139128",
      "lat": "40.241553408863105"
    },
    {
      "id": "pt.ine.add.PTCONT.1266726",
      "street": "R CESAR MARQUES PINTO CASA DO BENJAMIM",
      "house": "",
      "postcode": "3300-406",
      "city": "SARZEDO AGN",
      "lon": "-8.070305869139128",
      "lat": "40.241553408863105"
    },
    {
      "id": "pt.ine.add.PTCONT.1276603",
      "street": "R ALBERTO CESAR DAS NEVES",
      "house": "",
      "postcode": "3300-404",
      "city": "SARZEDO AGN",
      "lon": "-8.06950767187264",
      "lat": "40.24055332672883"
    },
    {
      "id": "pt.ine.add.PTCONT.1278414",
      "street": "QLHA MIRADOURO DO CANTO CASA DA TIA CÃ‰U",
      "house": "8 A",
      "postcode": "3300-411",
      "city": "SARZEDO AGN",
      "lon": "-8.069284760171794",
      "lat": "40.240156947798184"
    },
    {
      "id": "pt.ine.add.PTCONT.1282836",
      "street": "R CESAR MARQUES PINTO",
      "house": "",
      "postcode": "3300-406",
      "city": "SARZEDO AGN",
      "lon": "-8.07126847213024",
      "lat": "40.24271567804052"
    },
    {
      "id": "pt.ine.add.PTCONT.1291144",
      "street": "R CESAR MARQUES PINTO",
      "house": "19",
      "postcode": "3300-406",
      "city": "SARZEDO AGN",
      "lon": "-8.070822798197655",
      "lat": "40.24172479881545"
    },
    {
      "id": "pt.ine.add.PTCONT.1293283",
      "street": "R ALBERTO CESAR DAS NEVES",
      "house": "",
      "postcode": "3300-404",
      "city": "SARZEDO AGN",
      "lon": "-8.069837115684287",
      "lat": "40.24013023360765"
    },
    {
      "id": "pt.ine.add.PTCONT.1295311",
      "street": "R CESAR MARQUES PINTO",
      "house": "27",
      "postcode": "3300-406",
      "city": "SARZEDO AGN",
      "lon": "-8.070576180594683",
      "lat": "40.241535543585094"
    },
    {
      "id": "pt.ine.add.PTCONT.1297022",
      "street": "R ANTÃ“NIO PAIVA RODRIGUES",
      "house": "",
      "postcode": "3300-407",
      "city": "SARZEDO AGN",
      "lon": "-8.069872923777668",
      "lat": "40.2395358687932"
    },
    {
      "id": "pt.ine.add.PTCONT.1301718",
      "street": "R ALBERTO CESAR DAS NEVES",
      "house": "",
      "postcode": "3300-404",
      "city": "SARZEDO AGN",
      "lon": "-8.06970739330103",
      "lat": "40.24061647706888"
    },
    {
      "id": "pt.ine.add.PTCONT.1305088",
      "street": "R ALBERTO CESAR DAS NEVES",
      "house": "",
      "postcode": "3300-404",
      "city": "SARZEDO AGN",
      "lon": "-8.06961351359476",
      "lat": "40.24047233243701"
    },
    {
      "id": "pt.ine.add.PTCONT.1311074",
      "street": "LAD FONTE DE CIMA",
      "house": "",
      "postcode": "3300-404",
      "city": "SARZEDO AGN",
      "lon": "-8.07035251938246",
      "lat": "40.241940684472226"
    },
    {
      "id": "pt.ine.add.PTCONT.1317129",
      "street": "ESTR NACIONAL",
      "house": "",
      "postcode": "3300-420",
      "city": "SARZEDO AGN",
      "lon": "-8.07034021011371",
      "lat": "40.24254406775454"
    },
    {
      "id": "pt.ine.add.PTCONT.1325210",
      "street": "ESCADARIA DO QUEBRA COSTAS",
      "house": "",
      "postcode": "3300-407",
      "city": "SARZEDO AGN",
      "lon": "-8.069755340601485",
      "lat": "40.23960785108497"
    },
    {
      "id": "pt.ine.add.PTCONT.1325211",
      "street": "ESCADARIA DO QUEBRA COSTAS",
      "house": "",
      "postcode": "3300-407",
      "city": "SARZEDO AGN",
      "lon": "-8.069755340601485",
      "lat": "40.23960785108497"
    },
    {
      "id": "pt.ine.add.PTCONT.1329374",
      "street": "R ALBERTO CESAR DAS NEVES FAMILIA BENTO E FAMILIA GAMA",
      "house": "",
      "postcode": "3300-404",
      "city": "SARZEDO AGN",
      "lon": "-8.069895019894238",
      "lat": "40.241048859176665"
    },
    {
      "id": "pt.ine.add.PTCONT.1329375",
      "street": "R ALBERTO CESAR DAS NEVES FAMILIA BENTO E FAMILIA GAMA",
      "house": "",
      "postcode": "3300-404",
      "city": "SARZEDO AGN",
      "lon": "-8.069895019894238",
      "lat": "40.241048859176665"
    },
    {
      "id": "pt.ine.add.PTCONT.1329828",
      "street": "R ALBERTO CESAR DAS NEVES AMB",
      "house": "",
      "postcode": "3300-404",
      "city": "SARZEDO AGN",
      "lon": "-8.069930200145873",
      "lat": "40.24112993078462"
    },
    {
      "id": "pt.ine.add.PTCONT.1331537",
      "street": "R CESAR MARQUES PINTO",
      "house": "9",
      "postcode": "3300-406",
      "city": "SARZEDO AGN",
      "lon": "-8.071515724382236",
      "lat": "40.24221148397136"
    },
    {
      "id": "pt.ine.add.PTCONT.1336396",
      "street": "R CESAR MARQUES PINTO",
      "house": "21",
      "postcode": "3300-406",
      "city": "SARZEDO AGN",
      "lon": "-8.070752319360363",
      "lat": "40.24168873758005"
    },
    {
      "id": "pt.ine.add.PTCONT.1347808",
      "street": "ESTR NACIONAL",
      "house": "",
      "postcode": "3300-420",
      "city": "SARZEDO AGN",
      "lon": "-8.070140640964318",
      "lat": "40.24230980802878"
    },
    {
      "id": "pt.ine.add.PTCONT.1358298",
      "street": "R CESAR MARQUES PINTO",
      "house": "",
      "postcode": "3300-406",
      "city": "SARZEDO AGN",
      "lon": "-8.071210359323779",
      "lat": "40.24200418718697"
    },
    {
      "id": "pt.ine.add.PTCONT.1360228",
      "street": "R CESAR MARQUES PINTO",
      "house": "",
      "postcode": "3300-406",
      "city": "SARZEDO AGN",
      "lon": "-8.071961460219075",
      "lat": "40.243148325566985"
    },
    {
      "id": "pt.ine.add.PTCONT.1362358",
      "street": "R CESAR MARQUES PINTO",
      "house": "",
      "postcode": "3300-406",
      "city": "SARZEDO AGN",
      "lon": "-8.070493950142398",
      "lat": "40.24149947584128"
    }
  ]
}