{
  "data": {
    "distrito": "Portalegre",
    "concelho": "Portalegre",
    "freguesia": "União das freguesias de Reguengo e São Julião",
    "OBJECTID": 441,
    "BGRI2021": "12141200112",
    "DT21": "12",
    "DTMN21": "1214",
    "DTMNFR21": "121412",
    "DTMNFRSEC21": "121412001",
    "SECNUM21": "001",
    "SSNUM21": "12",
    "SECSSNUM21": "00112",
    "OBJECTID_1": 124602,
    "DT": "12",
    "CC": "14",
    "fr": "12",
    "SEC": "001",
    "SS": "12"
  },
  "addresses": [
    {
      "id": "pt.ine.add.PTCONT.3537104",
      "street": "SIT RIBEIRA ARRONCHES MOINHU",
      "house": "",
      "postcode": "7300-406",
      "city": "REGUENGO",
      "lon": "-7.335734897932997",
      "lat": "39.2891701671904"
    },
    {
      "id": "pt.ine.add.PTCONT.3459961",
      "street": "SIT FREIXO RIBEIRA ARRONCHES",
      "house": "",
      "postcode": "7300-406",
      "city": "REGUENGO",
      "lon": "-7.3291396380649365",
      "lat": "39.2830900341547"
    },
    {
      "id": "pt.ine.add.PTCONT.3466732",
      "street": "SIT FREIXOS RIBEIRA DE ARAONCHES",
      "house": "",
      "postcode": "7300-406",
      "city": "REGUENGO",
      "lon": "-7.334898672331194",
      "lat": "39.28625513373455"
    },
    {
      "id": "pt.ine.add.PTCONT.3469987",
      "street": "SIT FREIXO RIBEIRA ARRONCHES",
      "house": "",
      "postcode": "7300-406",
      "city": "REGUENGO",
      "lon": "-7.3320217014289115",
      "lat": "39.28546076131884"
    },
    {
      "id": "pt.ine.add.PTCONT.3498556",
      "street": "SIT FREIXO RIBEIRA ARRONCHES",
      "house": "",
      "postcode": "7300-406",
      "city": "REGUENGO",
      "lon": "-7.331959148574251",
      "lat": "39.283830039495"
    },
    {
      "id": "pt.ine.add.PTCONT.3499522",
      "street": "SIT FAZENDINHA RIBEIRA DE ARSANCHES",
      "house": "",
      "postcode": "7300-406",
      "city": "REGUENGO",
      "lon": "-7.340933956011915",
      "lat": "39.29478106928197"
    },
    {
      "id": "pt.ine.add.PTCONT.3502828",
      "street": "SIT FREIXO RIBEIRA ARRONCHES",
      "house": "",
      "postcode": "7300-406",
      "city": "REGUENGO",
      "lon": "-7.3346007729146985",
      "lat": "39.28621344256656"
    },
    {
      "id": "pt.ine.add.PTCONT.3505210",
      "street": "SIT FREIXO RIBEIRA ARRONCHES",
      "house": "",
      "postcode": "7300-406",
      "city": "REGUENGO",
      "lon": "-7.333980459880127",
      "lat": "39.28750082660788"
    },
    {
      "id": "pt.ine.add.PTCONT.3518372",
      "street": "SIT FAZENDINHA RIBEIRA DE ARSANCHES",
      "house": "",
      "postcode": "7300-406",
      "city": "REGUENGO",
      "lon": "-7.340979609428556",
      "lat": "39.29484442977103"
    }
  ]
}