{
  "data": {
    "distrito": "Aveiro",
    "concelho": "Águeda",
    "freguesia": "União das freguesias de Águeda e Borralha",
    "OBJECTID": 767,
    "BGRI2021": "01012100109",
    "DT21": "01",
    "DTMN21": "0101",
    "DTMNFR21": "010121",
    "DTMNFRSEC21": "010121001",
    "SECNUM21": "001",
    "SSNUM21": "09",
    "SECSSNUM21": "00109",
    "OBJECTID_1": 963,
    "DT": "01",
    "CC": "01",
    "fr": "21",
    "SEC": "001",
    "SS": "09"
  },
  "addresses": [
    {
      "id": "pt.ine.add.PTCONT.307803",
      "street": "PCT CAP BRITES VASQUES",
      "house": "50",
      "postcode": "3750-301",
      "city": "ÁGUEDA",
      "lon": "-8.450431417681376",
      "lat": "40.59452122189251"
    },
    {
      "id": "pt.ine.add.PTCONT.307804",
      "street": "PCT CAP BRITES VASQUES",
      "house": "50",
      "postcode": "3750-301",
      "city": "ÁGUEDA",
      "lon": "-8.450431417681376",
      "lat": "40.59452122189251"
    },
    {
      "id": "pt.ine.add.PTCONT.307805",
      "street": "PCT CAP BRITES VASQUES",
      "house": "50",
      "postcode": "3750-301",
      "city": "ÁGUEDA",
      "lon": "-8.450431417681376",
      "lat": "40.59452122189251"
    },
    {
      "id": "pt.ine.add.PTCONT.307806",
      "street": "PCT CAP BRITES VASQUES",
      "house": "50",
      "postcode": "3750-301",
      "city": "ÁGUEDA",
      "lon": "-8.450431417681376",
      "lat": "40.59452122189251"
    },
    {
      "id": "pt.ine.add.PTCONT.307807",
      "street": "PCT CAP BRITES VASQUES",
      "house": "50",
      "postcode": "3750-301",
      "city": "ÁGUEDA",
      "lon": "-8.450431417681376",
      "lat": "40.59452122189251"
    },
    {
      "id": "pt.ine.add.PTCONT.307813",
      "street": "PCT CAP BRITES VASQUES",
      "house": "50",
      "postcode": "3750-301",
      "city": "ÁGUEDA",
      "lon": "-8.450431417681376",
      "lat": "40.59452122189251"
    },
    {
      "id": "pt.ine.add.PTCONT.349220",
      "street": "PCT CAP BRITES MARQUES",
      "house": "43",
      "postcode": "3750-301",
      "city": "ÁGUEDA",
      "lon": "-8.450560470152958",
      "lat": "40.594331757056935"
    },
    {
      "id": "pt.ine.add.PTCONT.350747",
      "street": "PCT CAP BRITES MARQUES",
      "house": "",
      "postcode": "3750-301",
      "city": "ÁGUEDA",
      "lon": "-8.450273333607848",
      "lat": "40.59356709956324"
    },
    {
      "id": "pt.ine.add.PTCONT.22897",
      "street": "URB ALAGOA",
      "house": "11",
      "postcode": "3750-301",
      "city": "ÁGUEDA",
      "lon": "-8.451103242854328",
      "lat": "40.59419518535548"
    },
    {
      "id": "pt.ine.add.PTCONT.23778",
      "street": "PCT CAP BRITES VASQUES",
      "house": "58",
      "postcode": "3750-301",
      "city": "ÁGUEDA",
      "lon": "-8.450051349326904",
      "lat": "40.594090013389255"
    },
    {
      "id": "pt.ine.add.PTCONT.23779",
      "street": "PCT CAP BRITES VASQUES",
      "house": "58",
      "postcode": "3750-301",
      "city": "ÁGUEDA",
      "lon": "-8.450051349326904",
      "lat": "40.594090013389255"
    },
    {
      "id": "pt.ine.add.PTCONT.23780",
      "street": "PCT CAP BRITES VASQUES",
      "house": "58",
      "postcode": "3750-301",
      "city": "ÁGUEDA",
      "lon": "-8.450051349326904",
      "lat": "40.594090013389255"
    },
    {
      "id": "pt.ine.add.PTCONT.23783",
      "street": "PCT CAP BRITES VASQUES",
      "house": "58",
      "postcode": "3750-301",
      "city": "ÁGUEDA",
      "lon": "-8.450051349326904",
      "lat": "40.594090013389255"
    },
    {
      "id": "pt.ine.add.PTCONT.23784",
      "street": "PCT CAP BRITES VASQUES",
      "house": "58",
      "postcode": "3750-301",
      "city": "ÁGUEDA",
      "lon": "-8.450051349326904",
      "lat": "40.594090013389255"
    },
    {
      "id": "pt.ine.add.PTCONT.23789",
      "street": "PCT CAP BRITES VASQUES",
      "house": "58",
      "postcode": "3750-301",
      "city": "ÁGUEDA",
      "lon": "-8.450051349326904",
      "lat": "40.594090013389255"
    },
    {
      "id": "pt.ine.add.PTCONT.37456",
      "street": "PCT CAP BRITES MARQUES",
      "house": "13",
      "postcode": "3750-301",
      "city": "ÁGUEDA",
      "lon": "-8.450132128305057",
      "lat": "40.59368455545276"
    },
    {
      "id": "pt.ine.add.PTCONT.37457",
      "street": "PCT CAP BRITES MARQUES",
      "house": "13",
      "postcode": "3750-301",
      "city": "ÁGUEDA",
      "lon": "-8.450132128305057",
      "lat": "40.59368455545276"
    },
    {
      "id": "pt.ine.add.PTCONT.37458",
      "street": "PCT CAP BRITES MARQUES",
      "house": "13",
      "postcode": "3750-301",
      "city": "ÁGUEDA",
      "lon": "-8.450132128305057",
      "lat": "40.59368455545276"
    },
    {
      "id": "pt.ine.add.PTCONT.37459",
      "street": "PCT CAP BRITES MARQUES",
      "house": "13",
      "postcode": "3750-301",
      "city": "ÁGUEDA",
      "lon": "-8.450132128305057",
      "lat": "40.59368455545276"
    },
    {
      "id": "pt.ine.add.PTCONT.37460",
      "street": "PCT CAP BRITES MARQUES",
      "house": "13",
      "postcode": "3750-301",
      "city": "ÁGUEDA",
      "lon": "-8.450132128305057",
      "lat": "40.59368455545276"
    },
    {
      "id": "pt.ine.add.PTCONT.37461",
      "street": "PCT CAP BRITES MARQUES",
      "house": "13",
      "postcode": "3750-301",
      "city": "ÁGUEDA",
      "lon": "-8.450132128305057",
      "lat": "40.59368455545276"
    },
    {
      "id": "pt.ine.add.PTCONT.39797",
      "street": "PCT CAP BRITES MARQUES",
      "house": "13",
      "postcode": "3750-301",
      "city": "ÁGUEDA",
      "lon": "-8.450132128305057",
      "lat": "40.59368455545276"
    },
    {
      "id": "pt.ine.add.PTCONT.39798",
      "street": "PCT CAP BRITES MARQUES",
      "house": "13",
      "postcode": "3750-301",
      "city": "ÁGUEDA",
      "lon": "-8.450132128305057",
      "lat": "40.59368455545276"
    },
    {
      "id": "pt.ine.add.PTCONT.53328",
      "street": "PCT CAP BRITES VASQUES",
      "house": "49",
      "postcode": "3750-301",
      "city": "ÁGUEDA",
      "lon": "-8.45055014745611",
      "lat": "40.59464696915094"
    },
    {
      "id": "pt.ine.add.PTCONT.53329",
      "street": "PCT CAP BRITES VASQUES",
      "house": "49",
      "postcode": "3750-301",
      "city": "ÁGUEDA",
      "lon": "-8.45055014745611",
      "lat": "40.59464696915094"
    },
    {
      "id": "pt.ine.add.PTCONT.53330",
      "street": "PCT CAP BRITES VASQUES",
      "house": "49",
      "postcode": "3750-301",
      "city": "ÁGUEDA",
      "lon": "-8.45055014745611",
      "lat": "40.59464696915094"
    },
    {
      "id": "pt.ine.add.PTCONT.53331",
      "street": "PCT CAP BRITES VASQUES",
      "house": "49",
      "postcode": "3750-301",
      "city": "ÁGUEDA",
      "lon": "-8.45055014745611",
      "lat": "40.59464696915094"
    },
    {
      "id": "pt.ine.add.PTCONT.53332",
      "street": "PCT CAP BRITES VASQUES",
      "house": "49",
      "postcode": "3750-301",
      "city": "ÁGUEDA",
      "lon": "-8.45055014745611",
      "lat": "40.59464696915094"
    },
    {
      "id": "pt.ine.add.PTCONT.53341",
      "street": "PCT CAP BRITES VASQUES",
      "house": "49",
      "postcode": "3750-301",
      "city": "ÁGUEDA",
      "lon": "-8.45055014745611",
      "lat": "40.59464696915094"
    },
    {
      "id": "pt.ine.add.PTCONT.59048",
      "street": "R VOUGUINHA",
      "house": "214",
      "postcode": "3750-301",
      "city": "ÁGUEDA",
      "lon": "-8.451009333606983",
      "lat": "40.594321517339964"
    },
    {
      "id": "pt.ine.add.PTCONT.61417",
      "street": "R VOUGUINHA",
      "house": "214",
      "postcode": "3750-301",
      "city": "ÁGUEDA",
      "lon": "-8.451009333606983",
      "lat": "40.594321517339964"
    },
    {
      "id": "pt.ine.add.PTCONT.64006",
      "street": "PCT CAP BRITES VASQUES",
      "house": "20",
      "postcode": "3750-301",
      "city": "ÁGUEDA",
      "lon": "-8.44976685355356",
      "lat": "40.593883672899494"
    },
    {
      "id": "pt.ine.add.PTCONT.64007",
      "street": "PCT CAP BRITES VASQUES",
      "house": "20",
      "postcode": "3750-301",
      "city": "ÁGUEDA",
      "lon": "-8.44976685355356",
      "lat": "40.593883672899494"
    },
    {
      "id": "pt.ine.add.PTCONT.64008",
      "street": "PCT CAP BRITES VASQUES",
      "house": "20",
      "postcode": "3750-301",
      "city": "ÁGUEDA",
      "lon": "-8.44976685355356",
      "lat": "40.593883672899494"
    },
    {
      "id": "pt.ine.add.PTCONT.64159",
      "street": "PCT CAP BRITES VASQUES",
      "house": "20",
      "postcode": "3750-301",
      "city": "ÁGUEDA",
      "lon": "-8.44976685355356",
      "lat": "40.593883672899494"
    },
    {
      "id": "pt.ine.add.PTCONT.69360",
      "street": "R EVA VIDAL COELHO RODRIGUES",
      "house": "87",
      "postcode": "3750-301",
      "city": "ÁGUEDA",
      "lon": "-8.449958330941131",
      "lat": "40.59440545232153"
    },
    {
      "id": "pt.ine.add.PTCONT.84800",
      "street": "LUCIANA AGUIAR GUERRA",
      "house": "48",
      "postcode": "3750-301",
      "city": "ÁGUEDA",
      "lon": "-8.450273333607848",
      "lat": "40.59356709956324"
    },
    {
      "id": "pt.ine.add.PTCONT.84860",
      "street": "R LUCIANA AGUIAR GUERRA",
      "house": "48",
      "postcode": "3750-301",
      "city": "ÁGUEDA",
      "lon": "-8.450273333607848",
      "lat": "40.59356709956324"
    },
    {
      "id": "pt.ine.add.PTCONT.85732",
      "street": "PCT CAP BRITES MARQUES",
      "house": "",
      "postcode": "3750-301",
      "city": "ÁGUEDA",
      "lon": "-8.450273333607848",
      "lat": "40.59356709956324"
    },
    {
      "id": "pt.ine.add.PTCONT.85733",
      "street": "PCT CAP BRITES MARQUES",
      "house": "",
      "postcode": "3750-301",
      "city": "ÁGUEDA",
      "lon": "-8.450273333607848",
      "lat": "40.59356709956324"
    },
    {
      "id": "pt.ine.add.PTCONT.85734",
      "street": "PCT CAP BRITES MARQUES",
      "house": "",
      "postcode": "3750-301",
      "city": "ÁGUEDA",
      "lon": "-8.450273333607848",
      "lat": "40.59356709956324"
    },
    {
      "id": "pt.ine.add.PTCONT.85735",
      "street": "PCT CAP BRITES MARQUES",
      "house": "",
      "postcode": "3750-301",
      "city": "ÁGUEDA",
      "lon": "-8.450273333607848",
      "lat": "40.59356709956324"
    },
    {
      "id": "pt.ine.add.PTCONT.85878",
      "street": "R LUCIANA AGUIAR GUERRA",
      "house": "204",
      "postcode": "3750-301",
      "city": "ÁGUEDA",
      "lon": "-8.450273333607848",
      "lat": "40.59356709956324"
    },
    {
      "id": "pt.ine.add.PTCONT.102416",
      "street": "PCT CAP BRITES MARQUES",
      "house": "115",
      "postcode": "3750-301",
      "city": "ÁGUEDA",
      "lon": "-8.450702911732453",
      "lat": "40.59447544949239"
    },
    {
      "id": "pt.ine.add.PTCONT.102417",
      "street": "PCT CAP BRITES MARQUES",
      "house": "115",
      "postcode": "3750-301",
      "city": "ÁGUEDA",
      "lon": "-8.450702911732453",
      "lat": "40.59447544949239"
    },
    {
      "id": "pt.ine.add.PTCONT.102418",
      "street": "PCT CAP BRITES MARQUES",
      "house": "115",
      "postcode": "3750-301",
      "city": "ÁGUEDA",
      "lon": "-8.450702911732453",
      "lat": "40.59447544949239"
    },
    {
      "id": "pt.ine.add.PTCONT.102419",
      "street": "PCT CAP BRITES MARQUES",
      "house": "115",
      "postcode": "3750-301",
      "city": "ÁGUEDA",
      "lon": "-8.450702911732453",
      "lat": "40.59447544949239"
    },
    {
      "id": "pt.ine.add.PTCONT.102420",
      "street": "PCT CAP BRITES MARQUES",
      "house": "115",
      "postcode": "3750-301",
      "city": "ÁGUEDA",
      "lon": "-8.450702911732453",
      "lat": "40.59447544949239"
    },
    {
      "id": "pt.ine.add.PTCONT.102421",
      "street": "PCT CAP BRITES MARQUES",
      "house": "115",
      "postcode": "3750-301",
      "city": "ÁGUEDA",
      "lon": "-8.450702911732453",
      "lat": "40.59447544949239"
    },
    {
      "id": "pt.ine.add.PTCONT.104596",
      "street": "PCT CAP BRITES MARQUES",
      "house": "59",
      "postcode": "3750-301",
      "city": "ÁGUEDA",
      "lon": "-8.450275418619135",
      "lat": "40.594008351108656"
    },
    {
      "id": "pt.ine.add.PTCONT.104597",
      "street": "PCT CAP BRITES MARQUES",
      "house": "59",
      "postcode": "3750-301",
      "city": "ÁGUEDA",
      "lon": "-8.450275418619135",
      "lat": "40.594008351108656"
    },
    {
      "id": "pt.ine.add.PTCONT.104598",
      "street": "PCT CAP BRITES MARQUES",
      "house": "59",
      "postcode": "3750-301",
      "city": "ÁGUEDA",
      "lon": "-8.450275418619135",
      "lat": "40.594008351108656"
    },
    {
      "id": "pt.ine.add.PTCONT.104599",
      "street": "PCT CAP BRITES MARQUES",
      "house": "59",
      "postcode": "3750-301",
      "city": "ÁGUEDA",
      "lon": "-8.450275418619135",
      "lat": "40.594008351108656"
    },
    {
      "id": "pt.ine.add.PTCONT.104600",
      "street": "PCT CAP BRITES MARQUES",
      "house": "59",
      "postcode": "3750-301",
      "city": "ÁGUEDA",
      "lon": "-8.450275418619135",
      "lat": "40.594008351108656"
    },
    {
      "id": "pt.ine.add.PTCONT.104601",
      "street": "PCT CAP BRITES MARQUES",
      "house": "59",
      "postcode": "3750-301",
      "city": "ÁGUEDA",
      "lon": "-8.450275418619135",
      "lat": "40.594008351108656"
    },
    {
      "id": "pt.ine.add.PTCONT.109912",
      "street": "PCT CAP BRITES MARQUES",
      "house": "81",
      "postcode": "3750-301",
      "city": "ÁGUEDA",
      "lon": "-8.450406088181877",
      "lat": "40.594161081492246"
    },
    {
      "id": "pt.ine.add.PTCONT.109913",
      "street": "PCT CAP BRITES MARQUES",
      "house": "81",
      "postcode": "3750-301",
      "city": "ÁGUEDA",
      "lon": "-8.450406088181877",
      "lat": "40.594161081492246"
    },
    {
      "id": "pt.ine.add.PTCONT.109914",
      "street": "PCT CAP BRITES MARQUES",
      "house": "81",
      "postcode": "3750-301",
      "city": "ÁGUEDA",
      "lon": "-8.450406088181877",
      "lat": "40.594161081492246"
    },
    {
      "id": "pt.ine.add.PTCONT.109933",
      "street": "PCT CAP BRITES MARQUES",
      "house": "81",
      "postcode": "3750-301",
      "city": "ÁGUEDA",
      "lon": "-8.450406088181877",
      "lat": "40.594161081492246"
    },
    {
      "id": "pt.ine.add.PTCONT.109936",
      "street": "PCT CAP BRITES MARQUES",
      "house": "81",
      "postcode": "3750-301",
      "city": "ÁGUEDA",
      "lon": "-8.450406088181877",
      "lat": "40.594161081492246"
    },
    {
      "id": "pt.ine.add.PTCONT.109963",
      "street": "PCT CAP BRITES MARQUES",
      "house": "81",
      "postcode": "3750-301",
      "city": "ÁGUEDA",
      "lon": "-8.450406088181877",
      "lat": "40.594161081492246"
    },
    {
      "id": "pt.ine.add.PTCONT.146935",
      "street": "R SOMIRA",
      "house": "167",
      "postcode": "3750-301",
      "city": "ÁGUEDA",
      "lon": "-8.450208878450562",
      "lat": "40.59492706923011"
    },
    {
      "id": "pt.ine.add.PTCONT.149412",
      "street": "R EVA VIDAL COELHO RODRIGUES",
      "house": "107",
      "postcode": "3750-301",
      "city": "ÁGUEDA",
      "lon": "-8.450030018806094",
      "lat": "40.594576355393436"
    },
    {
      "id": "pt.ine.add.PTCONT.189276",
      "street": "R MESTRE JOÃO BREDA",
      "house": "",
      "postcode": "3750-301",
      "city": "ÁGUEDA",
      "lon": "-8.450593609996606",
      "lat": "40.59384538248033"
    },
    {
      "id": "pt.ine.add.PTCONT.202589",
      "street": "R MESTRE JOÃO BREDA",
      "house": "",
      "postcode": "3750-301",
      "city": "ÁGUEDA",
      "lon": "-8.450854609485248",
      "lat": "40.594078801318595"
    },
    {
      "id": "pt.ine.add.PTCONT.202842",
      "street": "PCT CAP BRITES VASQUES",
      "house": "37",
      "postcode": "3750-301",
      "city": "ÁGUEDA",
      "lon": "-8.450168248512178",
      "lat": "40.59382854032119"
    },
    {
      "id": "pt.ine.add.PTCONT.202843",
      "street": "PCT CAP BRITES VASQUES",
      "house": "37",
      "postcode": "3750-301",
      "city": "ÁGUEDA",
      "lon": "-8.450168248512178",
      "lat": "40.59382854032119"
    },
    {
      "id": "pt.ine.add.PTCONT.202844",
      "street": "PCT CAP BRITES VASQUES",
      "house": "37",
      "postcode": "3750-301",
      "city": "ÁGUEDA",
      "lon": "-8.450168248512178",
      "lat": "40.59382854032119"
    },
    {
      "id": "pt.ine.add.PTCONT.202845",
      "street": "PCT CAP BRITES VASQUES",
      "house": "37",
      "postcode": "3750-301",
      "city": "ÁGUEDA",
      "lon": "-8.450168248512178",
      "lat": "40.59382854032119"
    },
    {
      "id": "pt.ine.add.PTCONT.202846",
      "street": "PCT CAP BRITES VASQUES",
      "house": "37",
      "postcode": "3750-301",
      "city": "ÁGUEDA",
      "lon": "-8.450168248512178",
      "lat": "40.59382854032119"
    },
    {
      "id": "pt.ine.add.PTCONT.205367",
      "street": "PCT CAP BRITES VASQUES",
      "house": "37",
      "postcode": "3750-301",
      "city": "ÁGUEDA",
      "lon": "-8.450168248512178",
      "lat": "40.59382854032119"
    },
    {
      "id": "pt.ine.add.PTCONT.219419",
      "street": "PCT CAP BRITES VASQUES",
      "house": "78",
      "postcode": "3750-301",
      "city": "ÁGUEDA",
      "lon": "-8.4501820185416",
      "lat": "40.5942427440255"
    },
    {
      "id": "pt.ine.add.PTCONT.219420",
      "street": "PCT CAP BRITES VASQUES",
      "house": "78",
      "postcode": "3750-301",
      "city": "ÁGUEDA",
      "lon": "-8.4501820185416",
      "lat": "40.5942427440255"
    },
    {
      "id": "pt.ine.add.PTCONT.219421",
      "street": "PCT CAP BRITES VASQUES",
      "house": "78",
      "postcode": "3750-301",
      "city": "ÁGUEDA",
      "lon": "-8.4501820185416",
      "lat": "40.5942427440255"
    },
    {
      "id": "pt.ine.add.PTCONT.219422",
      "street": "PCT CAP BRITES VASQUES",
      "house": "78",
      "postcode": "3750-301",
      "city": "ÁGUEDA",
      "lon": "-8.4501820185416",
      "lat": "40.5942427440255"
    },
    {
      "id": "pt.ine.add.PTCONT.219423",
      "street": "PCT CAP BRITES VASQUES",
      "house": "78",
      "postcode": "3750-301",
      "city": "ÁGUEDA",
      "lon": "-8.4501820185416",
      "lat": "40.5942427440255"
    },
    {
      "id": "pt.ine.add.PTCONT.219424",
      "street": "PCT CAP BRITES VASQUES",
      "house": "78",
      "postcode": "3750-301",
      "city": "ÁGUEDA",
      "lon": "-8.4501820185416",
      "lat": "40.5942427440255"
    },
    {
      "id": "pt.ine.add.PTCONT.251510",
      "street": "PCT CAP BRITES VASQUES",
      "house": "54",
      "postcode": "3750-301",
      "city": "ÁGUEDA",
      "lon": "-8.449932663980954",
      "lat": "40.59397327073236"
    },
    {
      "id": "pt.ine.add.PTCONT.251511",
      "street": "PCT CAP BRITES VASQUES",
      "house": "54",
      "postcode": "3750-301",
      "city": "ÁGUEDA",
      "lon": "-8.449932663980954",
      "lat": "40.59397327073236"
    },
    {
      "id": "pt.ine.add.PTCONT.251512",
      "street": "PCT CAP BRITES VASQUES",
      "house": "54",
      "postcode": "3750-301",
      "city": "ÁGUEDA",
      "lon": "-8.449932663980954",
      "lat": "40.59397327073236"
    },
    {
      "id": "pt.ine.add.PTCONT.251513",
      "street": "PCT CAP BRITES VASQUES",
      "house": "",
      "postcode": "3750-301",
      "city": "ÁGUEDA",
      "lon": "-8.449932663980954",
      "lat": "40.59397327073236"
    },
    {
      "id": "pt.ine.add.PTCONT.254356",
      "street": "R LUCIANA AGUIAR GUERRA",
      "house": "56",
      "postcode": "3750-301",
      "city": "ÁGUEDA",
      "lon": "-8.449530885892337",
      "lat": "40.59394735628937"
    },
    {
      "id": "pt.ine.add.PTCONT.254357",
      "street": "R LUCIANA AGUIAR GUERRA",
      "house": "56",
      "postcode": "3750-301",
      "city": "ÁGUEDA",
      "lon": "-8.449530885892337",
      "lat": "40.59394735628937"
    },
    {
      "id": "pt.ine.add.PTCONT.254358",
      "street": "R LUCIANA AGUIAR GUERRA",
      "house": "56",
      "postcode": "3750-301",
      "city": "ÁGUEDA",
      "lon": "-8.449530885892337",
      "lat": "40.59394735628937"
    },
    {
      "id": "pt.ine.add.PTCONT.254359",
      "street": "R LUCIANA AGUIAR GUERRA",
      "house": "56",
      "postcode": "3750-301",
      "city": "ÁGUEDA",
      "lon": "-8.449530885892337",
      "lat": "40.59394735628937"
    },
    {
      "id": "pt.ine.add.PTCONT.254360",
      "street": "R LUCIANA AGUIAR GUERRA",
      "house": "56",
      "postcode": "3750-301",
      "city": "ÁGUEDA",
      "lon": "-8.449530885892337",
      "lat": "40.59394735628937"
    },
    {
      "id": "pt.ine.add.PTCONT.254373",
      "street": "R LUCIANA AGUIAR GUERRA",
      "house": "56",
      "postcode": "3750-301",
      "city": "ÁGUEDA",
      "lon": "-8.449530885892337",
      "lat": "40.59394735628937"
    },
    {
      "id": "pt.ine.add.PTCONT.254526",
      "street": "PCT CAP BRITES MARQUES",
      "house": "95",
      "postcode": "3750-301",
      "city": "ÁGUEDA",
      "lon": "-8.450560470152958",
      "lat": "40.594331757056935"
    },
    {
      "id": "pt.ine.add.PTCONT.254528",
      "street": "PCT CAP BRITES MARQUES",
      "house": "95",
      "postcode": "3750-301",
      "city": "ÁGUEDA",
      "lon": "-8.450560470152958",
      "lat": "40.594331757056935"
    },
    {
      "id": "pt.ine.add.PTCONT.256916",
      "street": "PCT CAP BRITES MARQUES",
      "house": "95",
      "postcode": "3750-301",
      "city": "ÁGUEDA",
      "lon": "-8.450560470152958",
      "lat": "40.594331757056935"
    },
    {
      "id": "pt.ine.add.PTCONT.257062",
      "street": "PCT CAP BRITES MARQUES",
      "house": "43",
      "postcode": "3750-301",
      "city": "ÁGUEDA",
      "lon": "-8.450560470152958",
      "lat": "40.594331757056935"
    },
    {
      "id": "pt.ine.add.PTCONT.257205",
      "street": "PCT CAP BRITES VAQUES",
      "house": "95",
      "postcode": "3750-301",
      "city": "ÁGUEDA",
      "lon": "-8.450560470152958",
      "lat": "40.594331757056935"
    },
    {
      "id": "pt.ine.add.PTCONT.257349",
      "street": "URB QUINTA ALAGOA",
      "house": "22",
      "postcode": "3750-301",
      "city": "ÁGUEDA",
      "lon": "-8.449815806118382",
      "lat": "40.59424374869312"
    },
    {
      "id": "pt.ine.add.PTCONT.259870",
      "street": "R EVA VIDAL COELHO RODRIGUES",
      "house": "123",
      "postcode": "3750-301",
      "city": "ÁGUEDA",
      "lon": "-8.450184273164355",
      "lat": "40.59472001605195"
    },
    {
      "id": "pt.ine.add.PTCONT.273348",
      "street": "PCT CAP BRITES VASQUES",
      "house": "51",
      "postcode": "3750-301",
      "city": "ÁGUEDA",
      "lon": "-8.450324501682651",
      "lat": "40.59439544206619"
    },
    {
      "id": "pt.ine.add.PTCONT.273349",
      "street": "PCT CAP BRITES VASQUES",
      "house": "51",
      "postcode": "3750-301",
      "city": "ÁGUEDA",
      "lon": "-8.450324501682651",
      "lat": "40.59439544206619"
    },
    {
      "id": "pt.ine.add.PTCONT.273350",
      "street": "PCT CAP BRITES VASQUES",
      "house": "51",
      "postcode": "3750-301",
      "city": "ÁGUEDA",
      "lon": "-8.450324501682651",
      "lat": "40.59439544206619"
    },
    {
      "id": "pt.ine.add.PTCONT.273351",
      "street": "PCT CAP BRITES VASQUES",
      "house": "51",
      "postcode": "3750-301",
      "city": "ÁGUEDA",
      "lon": "-8.450324501682651",
      "lat": "40.59439544206619"
    },
    {
      "id": "pt.ine.add.PTCONT.273352",
      "street": "PCT CAP BRITES VASQUES",
      "house": "51",
      "postcode": "3750-301",
      "city": "ÁGUEDA",
      "lon": "-8.450324501682651",
      "lat": "40.59439544206619"
    },
    {
      "id": "pt.ine.add.PTCONT.273358",
      "street": "PCT CAP BRITES VASQUES",
      "house": "51",
      "postcode": "3750-301",
      "city": "ÁGUEDA",
      "lon": "-8.450324501682651",
      "lat": "40.59439544206619"
    },
    {
      "id": "pt.ine.add.PTCONT.279010",
      "street": "R MESTRE JOÃO BREDA",
      "house": "9",
      "postcode": "3750-301",
      "city": "ÁGUEDA",
      "lon": "-8.450747821251197",
      "lat": "40.593980037273326"
    }
  ]
}