{
  "data": {
    "distrito": "Porto",
    "concelho": "Maia",
    "freguesia": "Castêlo da Maia",
    "OBJECTID": 761,
    "BGRI2021": "13061801110",
    "DT21": "13",
    "DTMN21": "1306",
    "DTMNFR21": "130618",
    "DTMNFRSEC21": "130618011",
    "SECNUM21": "011",
    "SSNUM21": "10",
    "SECSSNUM21": "01110",
    "OBJECTID_1": 130852,
    "DT": "13",
    "CC": "06",
    "fr": "18",
    "SEC": "011",
    "SS": "10"
  },
  "addresses": [
    {
      "id": "pt.ine.add.PTCONT.3543351",
      "street": "R BAJOUCA",
      "house": "1654",
      "postcode": "4475-114",
      "city": "MAIA",
      "lon": "-8.635232669470874",
      "lat": "41.27860904745476"
    },
    {
      "id": "pt.ine.add.PTCONT.3543352",
      "street": "URB DA BAJOUCA",
      "house": "110",
      "postcode": "4475-172",
      "city": "MAIA",
      "lon": "-8.63455793688732",
      "lat": "41.2777836062058"
    },
    {
      "id": "pt.ine.add.PTCONT.3543353",
      "street": "AL JOÃO DE DEUS",
      "house": "167",
      "postcode": "4475-129",
      "city": "MAIA",
      "lon": "-8.632480205449658",
      "lat": "41.2760998560492"
    },
    {
      "id": "pt.ine.add.PTCONT.3543354",
      "street": "AL JOÃO DE DEUS",
      "house": "167",
      "postcode": "4475-129",
      "city": "MAIA",
      "lon": "-8.632480205449658",
      "lat": "41.2760998560492"
    },
    {
      "id": "pt.ine.add.PTCONT.3543355",
      "street": "AL JOÃO DE DEUS",
      "house": "167",
      "postcode": "4475-129",
      "city": "MAIA",
      "lon": "-8.632480205449658",
      "lat": "41.2760998560492"
    },
    {
      "id": "pt.ine.add.PTCONT.3543407",
      "street": "AL JOÃO DE DEUS",
      "house": "167",
      "postcode": "4475-129",
      "city": "MAIA",
      "lon": "-8.632480205449658",
      "lat": "41.2760998560492"
    },
    {
      "id": "pt.ine.add.PTCONT.3543408",
      "street": "AL JOÃO DE DEUS",
      "house": "167",
      "postcode": "4475-129",
      "city": "MAIA",
      "lon": "-8.632480205449658",
      "lat": "41.2760998560492"
    },
    {
      "id": "pt.ine.add.PTCONT.3543409",
      "street": "AL JOÃO DE DEUS",
      "house": "167",
      "postcode": "4475-129",
      "city": "MAIA",
      "lon": "-8.632480205449658",
      "lat": "41.2760998560492"
    },
    {
      "id": "pt.ine.add.PTCONT.3543410",
      "street": "AL JOÃO DE DEUS",
      "house": "167",
      "postcode": "4475-129",
      "city": "MAIA",
      "lon": "-8.632480205449658",
      "lat": "41.2760998560492"
    },
    {
      "id": "pt.ine.add.PTCONT.3547103",
      "street": "R BAJOUCA",
      "house": "1050",
      "postcode": "4475-114",
      "city": "MAIA",
      "lon": "-8.63367791491643",
      "lat": "41.27351946495265"
    },
    {
      "id": "pt.ine.add.PTCONT.3547319",
      "street": "R QUIRAZ",
      "house": "399",
      "postcode": "4475-724",
      "city": "MAIA",
      "lon": "-8.621618974823377",
      "lat": "41.27771317931126"
    },
    {
      "id": "pt.ine.add.PTCONT.3559402",
      "street": "R QUIRAZ",
      "house": "607",
      "postcode": "4475-724",
      "city": "MAIA",
      "lon": "-8.623573752793604",
      "lat": "41.27894744148491"
    },
    {
      "id": "pt.ine.add.PTCONT.3560499",
      "street": "R BAJOUCA",
      "house": "",
      "postcode": "4475-114",
      "city": "MAIA",
      "lon": "-8.63325910244561",
      "lat": "41.273377218594646"
    },
    {
      "id": "pt.ine.add.PTCONT.3566814",
      "street": "R PRIMAVERA CASA DA BOUCA",
      "house": "",
      "postcode": "4475-156",
      "city": "MAIA",
      "lon": "-8.62896031788988",
      "lat": "41.27308967221458"
    },
    {
      "id": "pt.ine.add.PTCONT.3573291",
      "street": "AL POCA DO OGUEIRO",
      "house": "68",
      "postcode": "4475-720",
      "city": "MAIA",
      "lon": "-8.62083368224953",
      "lat": "41.268424211034194"
    },
    {
      "id": "pt.ine.add.PTCONT.3583285",
      "street": "R BAJOUCA",
      "house": "1496",
      "postcode": "4475-114",
      "city": "MAIA",
      "lon": "-8.635091305822613",
      "lat": "41.27729505739278"
    },
    {
      "id": "pt.ine.add.PTCONT.3583775",
      "street": "R BAJOUCA",
      "house": "1496",
      "postcode": "4475-114",
      "city": "MAIA",
      "lon": "-8.635091305822613",
      "lat": "41.27729505739278"
    },
    {
      "id": "pt.ine.add.PTCONT.3585795",
      "street": "R BAJOUCA",
      "house": "",
      "postcode": "4475-114",
      "city": "MAIA",
      "lon": "-8.633236057850617",
      "lat": "41.2734853686477"
    },
    {
      "id": "pt.ine.add.PTCONT.3585924",
      "street": "AL POCA DO OGUEIRO",
      "house": "24",
      "postcode": "4475-720",
      "city": "MAIA",
      "lon": "-8.621503716645105",
      "lat": "41.268655479062765"
    },
    {
      "id": "pt.ine.add.PTCONT.3585934",
      "street": "R QUIRAZ",
      "house": "901",
      "postcode": "4475-724",
      "city": "MAIA",
      "lon": "-8.625283903631493",
      "lat": "41.280975081580806"
    },
    {
      "id": "pt.ine.add.PTCONT.3585935",
      "street": "R QUIRAZ",
      "house": "901",
      "postcode": "4475-724",
      "city": "MAIA",
      "lon": "-8.625283903631493",
      "lat": "41.280975081580806"
    },
    {
      "id": "pt.ine.add.PTCONT.3585950",
      "street": "R QUIRAZ",
      "house": "35",
      "postcode": "4475-724",
      "city": "MAIA",
      "lon": "-8.618068016713913",
      "lat": "41.276899809813074"
    },
    {
      "id": "pt.ine.add.PTCONT.3590927",
      "street": "R QUIRAZ",
      "house": "607",
      "postcode": "4475-724",
      "city": "MAIA",
      "lon": "-8.62323038041475",
      "lat": "41.279318074192815"
    },
    {
      "id": "pt.ine.add.PTCONT.3595274",
      "street": "R QUIRAZ",
      "house": "209",
      "postcode": "4475-724",
      "city": "MAIA",
      "lon": "-8.61956073076673",
      "lat": "41.27700156204673"
    },
    {
      "id": "pt.ine.add.PTCONT.3596610",
      "street": "R QUIRAZ",
      "house": "871",
      "postcode": "4475-724",
      "city": "MAIA",
      "lon": "-8.624937894057169",
      "lat": "41.28099456862958"
    },
    {
      "id": "pt.ine.add.PTCONT.3605269",
      "street": "R S ROQUE",
      "house": "172",
      "postcode": "4475-160",
      "city": "MAIA",
      "lon": "-8.624924633260596",
      "lat": "41.26650692734634"
    },
    {
      "id": "pt.ine.add.PTCONT.3605308",
      "street": "URB DA BAJOUCA",
      "house": "95",
      "postcode": "4475-145",
      "city": "MAIA",
      "lon": "-8.63385831857674",
      "lat": "41.27682320676353"
    },
    {
      "id": "pt.ine.add.PTCONT.3605309",
      "street": "R BAJOUCA",
      "house": "1360",
      "postcode": "4475-114",
      "city": "MAIA",
      "lon": "-8.634030325862978",
      "lat": "41.27590403444532"
    },
    {
      "id": "pt.ine.add.PTCONT.3605310",
      "street": "TV MONTE GENTIL",
      "house": "209",
      "postcode": "4475-856",
      "city": "MAIA",
      "lon": "-8.63390090894172",
      "lat": "41.279272151525404"
    },
    {
      "id": "pt.ine.add.PTCONT.3610463",
      "street": "URB DA BAJOUCA",
      "house": "35",
      "postcode": "4475-172",
      "city": "MAIA",
      "lon": "-8.634447486500433",
      "lat": "41.27738790441843"
    },
    {
      "id": "pt.ine.add.PTCONT.3631064",
      "street": "URB DA BAJOUCA",
      "house": "87",
      "postcode": "4475-145",
      "city": "MAIA",
      "lon": "-8.633774978207871",
      "lat": "41.27685058170151"
    },
    {
      "id": "pt.ine.add.PTCONT.3631069",
      "street": "R F",
      "house": "106",
      "postcode": "4475-114",
      "city": "MAIA",
      "lon": "-8.632566901108667",
      "lat": "41.27494694765341"
    },
    {
      "id": "pt.ine.add.PTCONT.3631070",
      "street": "R F",
      "house": "106",
      "postcode": "4475-114",
      "city": "MAIA",
      "lon": "-8.632566901108667",
      "lat": "41.27494694765341"
    },
    {
      "id": "pt.ine.add.PTCONT.3631249",
      "street": "AV CARLOS DE OLIVEIRA CAMPOS",
      "house": "710",
      "postcode": "4475-690",
      "city": "MAIA",
      "lon": "-8.620135569871625",
      "lat": "41.2676257949882"
    },
    {
      "id": "pt.ine.add.PTCONT.3631293",
      "street": "R QUIRAZ",
      "house": "67",
      "postcode": "4475-724",
      "city": "MAIA",
      "lon": "-8.618224642249855",
      "lat": "41.277097241424386"
    },
    {
      "id": "pt.ine.add.PTCONT.3637749",
      "street": "R QUIRAZ",
      "house": "871",
      "postcode": "4475-724",
      "city": "MAIA",
      "lon": "-8.624961090091363",
      "lat": "41.28090442801316"
    },
    {
      "id": "pt.ine.add.PTCONT.3637750",
      "street": "R QUIRAZ",
      "house": "615",
      "postcode": "4475-724",
      "city": "MAIA",
      "lon": "-8.623124036403178",
      "lat": "41.27946259335624"
    },
    {
      "id": "pt.ine.add.PTCONT.3650111",
      "street": "AL JOÃO DE DEUS",
      "house": "47",
      "postcode": "4475-129",
      "city": "MAIA",
      "lon": "-8.633464769922568",
      "lat": "41.27530321523354"
    },
    {
      "id": "pt.ine.add.PTCONT.3650112",
      "street": "AL JOÃO DE DEUS",
      "house": "47",
      "postcode": "4475-129",
      "city": "MAIA",
      "lon": "-8.633464769922568",
      "lat": "41.27530321523354"
    },
    {
      "id": "pt.ine.add.PTCONT.3650113",
      "street": "AL JOÃO DE DEUS",
      "house": "47",
      "postcode": "4475-129",
      "city": "MAIA",
      "lon": "-8.633464769922568",
      "lat": "41.27530321523354"
    },
    {
      "id": "pt.ine.add.PTCONT.3650114",
      "street": "AL JOÃO DE DEUS",
      "house": "47",
      "postcode": "4475-129",
      "city": "MAIA",
      "lon": "-8.633464769922568",
      "lat": "41.27530321523354"
    },
    {
      "id": "pt.ine.add.PTCONT.3650115",
      "street": "AL JOÃO DE DEUS",
      "house": "47",
      "postcode": "4475-129",
      "city": "MAIA",
      "lon": "-8.633464769922568",
      "lat": "41.27530321523354"
    },
    {
      "id": "pt.ine.add.PTCONT.3650116",
      "street": "AL JOÃO DE DEUS",
      "house": "47",
      "postcode": "4475-129",
      "city": "MAIA",
      "lon": "-8.633464769922568",
      "lat": "41.27530321523354"
    },
    {
      "id": "pt.ine.add.PTCONT.3650117",
      "street": "AL JOÃO DE DEUS",
      "house": "47",
      "postcode": "4475-129",
      "city": "MAIA",
      "lon": "-8.633464769922568",
      "lat": "41.27530321523354"
    },
    {
      "id": "pt.ine.add.PTCONT.3654236",
      "street": "AL JOÃO DE DEUS",
      "house": "47",
      "postcode": "4475-129",
      "city": "MAIA",
      "lon": "-8.633464769922568",
      "lat": "41.27530321523354"
    },
    {
      "id": "pt.ine.add.PTCONT.3660516",
      "street": "AV CARLOS DE OLIVEIRA CAMPOS",
      "house": "696",
      "postcode": "4475-690",
      "city": "MAIA",
      "lon": "-8.619923105762327",
      "lat": "41.267941839620974"
    },
    {
      "id": "pt.ine.add.PTCONT.3661731",
      "street": "R BAJOUCA",
      "house": "1538",
      "postcode": "4475-114",
      "city": "MAIA",
      "lon": "-8.63514201388589",
      "lat": "41.27768201494814"
    },
    {
      "id": "pt.ine.add.PTCONT.3661732",
      "street": "R BAJOUCA",
      "house": "1538",
      "postcode": "4475-114",
      "city": "MAIA",
      "lon": "-8.63514201388589",
      "lat": "41.27768201494814"
    },
    {
      "id": "pt.ine.add.PTCONT.3661733",
      "street": "R BAJOUCA",
      "house": "780",
      "postcode": "4475-114",
      "city": "MAIA",
      "lon": "-8.631897810034786",
      "lat": "41.271717354242966"
    },
    {
      "id": "pt.ine.add.PTCONT.3661734",
      "street": "R BAJOUCA",
      "house": "780",
      "postcode": "4475-114",
      "city": "MAIA",
      "lon": "-8.631897810034786",
      "lat": "41.271717354242966"
    },
    {
      "id": "pt.ine.add.PTCONT.3661755",
      "street": "R BAJOUCA",
      "house": "780",
      "postcode": "4475-114",
      "city": "MAIA",
      "lon": "-8.631897810034786",
      "lat": "41.271717354242966"
    },
    {
      "id": "pt.ine.add.PTCONT.3666453",
      "street": "R D",
      "house": "5",
      "postcode": "4475-123",
      "city": "MAIA",
      "lon": "-8.632586439427609",
      "lat": "41.27281287667828"
    },
    {
      "id": "pt.ine.add.PTCONT.3669758",
      "street": "R BAJOUCA",
      "house": "846",
      "postcode": "4475-114",
      "city": "MAIA",
      "lon": "-8.63242662519703",
      "lat": "41.27220128681024"
    },
    {
      "id": "pt.ine.add.PTCONT.3677272",
      "street": "TV VILARINHO DE CIMA",
      "house": "104",
      "postcode": "4475-733",
      "city": "MAIA",
      "lon": "-8.621454312860322",
      "lat": "41.270033326682075"
    },
    {
      "id": "pt.ine.add.PTCONT.3678207",
      "street": "URB DA BAJOUCA",
      "house": "41",
      "postcode": "4475-172",
      "city": "MAIA",
      "lon": "-8.633993116922168",
      "lat": "41.27728183232027"
    },
    {
      "id": "pt.ine.add.PTCONT.3678208",
      "street": "R D",
      "house": "45",
      "postcode": "4475-123",
      "city": "MAIA",
      "lon": "-8.6322761417364",
      "lat": "41.2728142224849"
    },
    {
      "id": "pt.ine.add.PTCONT.3683860",
      "street": "R BAJOUCA",
      "house": "1560",
      "postcode": "4475-114",
      "city": "MAIA",
      "lon": "-8.635131458330175",
      "lat": "41.27786214407213"
    },
    {
      "id": "pt.ine.add.PTCONT.3683987",
      "street": "R BAJOUCA",
      "house": "1036",
      "postcode": "4475-114",
      "city": "MAIA",
      "lon": "-8.633378586203888",
      "lat": "41.27339470777726"
    },
    {
      "id": "pt.ine.add.PTCONT.3698350",
      "street": "R VILARINHO DE BAIXO",
      "house": "907",
      "postcode": "4475-730",
      "city": "MAIA",
      "lon": "-8.617682291440547",
      "lat": "41.27638819692294"
    },
    {
      "id": "pt.ine.add.PTCONT.3699584",
      "street": "AV CARLOS DE OLIVEIRA CAMPOS",
      "house": "750",
      "postcode": "4475-690",
      "city": "MAIA",
      "lon": "-8.62054285256434",
      "lat": "41.267831167341164"
    },
    {
      "id": "pt.ine.add.PTCONT.3708937",
      "street": "AV CARLOS DE OLIVEIRA CAMPOS",
      "house": "712",
      "postcode": "4475-690",
      "city": "MAIA",
      "lon": "-8.620087500948417",
      "lat": "41.26758097745524"
    },
    {
      "id": "pt.ine.add.PTCONT.3719339",
      "street": "R BAJOUCA",
      "house": "832",
      "postcode": "4475-114",
      "city": "MAIA",
      "lon": "-8.632282657748657",
      "lat": "41.272102865317024"
    },
    {
      "id": "pt.ine.add.PTCONT.3722044",
      "street": "AV CARLOS DE OLIVEIRA CAMPOS",
      "house": "686",
      "postcode": "4475-690",
      "city": "MAIA",
      "lon": "-8.619777896033224",
      "lat": "41.26767232834572"
    },
    {
      "id": "pt.ine.add.PTCONT.3728691",
      "street": "AL POCA DO OGUEIRO",
      "house": "78",
      "postcode": "4475-720",
      "city": "MAIA",
      "lon": "-8.620714545735266",
      "lat": "41.268451728188566"
    },
    {
      "id": "pt.ine.add.PTCONT.3732479",
      "street": "URB DA BAJOUCA",
      "house": "100",
      "postcode": "4475-172",
      "city": "MAIA",
      "lon": "-8.634414298384161",
      "lat": "41.27773020683563"
    },
    {
      "id": "pt.ine.add.PTCONT.3734937",
      "street": "R URBANIZACAO BAJOUCA",
      "house": "N 8",
      "postcode": "4475-145",
      "city": "MAIA",
      "lon": "-8.632834152863206",
      "lat": "41.27712479409932"
    },
    {
      "id": "pt.ine.add.PTCONT.3734939",
      "street": "R BAJOUCA",
      "house": "1170",
      "postcode": "4475-114",
      "city": "MAIA",
      "lon": "-8.633578755416423",
      "lat": "41.27460039534556"
    },
    {
      "id": "pt.ine.add.PTCONT.3742271",
      "street": "R QUIRAZ",
      "house": "507",
      "postcode": "4475-724",
      "city": "MAIA",
      "lon": "-8.6227229563678",
      "lat": "41.27850085523611"
    },
    {
      "id": "pt.ine.add.PTCONT.3754899",
      "street": "AV CARLOS DE OLIVEIRA CAMPOS",
      "house": "744",
      "postcode": "4475-690",
      "city": "MAIA",
      "lon": "-8.620422177200716",
      "lat": "41.2676515947323"
    },
    {
      "id": "pt.ine.add.PTCONT.3755074",
      "street": "R BAJOUCA",
      "house": "1400",
      "postcode": "4475-114",
      "city": "MAIA",
      "lon": "-8.634286679101784",
      "lat": "41.27665026378812"
    },
    {
      "id": "pt.ine.add.PTCONT.3764586",
      "street": "R QUIRAZ",
      "house": "323",
      "postcode": "4475-724",
      "city": "MAIA",
      "lon": "-8.621020057160166",
      "lat": "41.27742758611055"
    },
    {
      "id": "pt.ine.add.PTCONT.3766717",
      "street": "R BAJOUCA",
      "house": "1708",
      "postcode": "4475-114",
      "city": "MAIA",
      "lon": "-8.63551070914348",
      "lat": "41.279067046224476"
    },
    {
      "id": "pt.ine.add.PTCONT.3766961",
      "street": "R QUIRAZ",
      "house": "431",
      "postcode": "4475-724",
      "city": "MAIA",
      "lon": "-8.621930236712771",
      "lat": "41.27783791630599"
    },
    {
      "id": "pt.ine.add.PTCONT.3782595",
      "street": "R QUIRAZ",
      "house": "301",
      "postcode": "4475-724",
      "city": "MAIA",
      "lon": "-8.620697533652354",
      "lat": "41.27739293591757"
    },
    {
      "id": "pt.ine.add.PTCONT.3782809",
      "street": "AV CARLOS DE OLIVEIRA CAMPOS",
      "house": "704",
      "postcode": "4475-690",
      "city": "MAIA",
      "lon": "-8.620327779288049",
      "lat": "41.267796061022665"
    },
    {
      "id": "pt.ine.add.PTCONT.3794398",
      "street": "AV CARLOS DE OLIVEIRA CAMPOS",
      "house": "738",
      "postcode": "4475-690",
      "city": "MAIA",
      "lon": "-8.620277903059517",
      "lat": "41.267508138544066"
    },
    {
      "id": "pt.ine.add.PTCONT.3814778",
      "street": "AV CARLOS DE OLIVEIRA CAMPOS",
      "house": "698",
      "postcode": "4475-690",
      "city": "MAIA",
      "lon": "-8.619911640246855",
      "lat": "41.26800491730999"
    },
    {
      "id": "pt.ine.add.PTCONT.3818660",
      "street": "R BAJOUCA",
      "house": "1682",
      "postcode": "4475-114",
      "city": "MAIA",
      "lon": "-8.635402114641266",
      "lat": "41.27891444948479"
    },
    {
      "id": "pt.ine.add.PTCONT.3818661",
      "street": "R BAJOUCA",
      "house": "1590",
      "postcode": "4475-114",
      "city": "MAIA",
      "lon": "-8.634930693756502",
      "lat": "41.27814214815671"
    },
    {
      "id": "pt.ine.add.PTCONT.3818662",
      "street": "TV BAJOUCA",
      "house": "63",
      "postcode": "4475-115",
      "city": "MAIA",
      "lon": "-8.63362714660699",
      "lat": "41.27624794600041"
    },
    {
      "id": "pt.ine.add.PTCONT.3818814",
      "street": "R QUIRAZ",
      "house": "239",
      "postcode": "4475-724",
      "city": "MAIA",
      "lon": "-8.620074819160696",
      "lat": "41.27711644271708"
    },
    {
      "id": "pt.ine.add.PTCONT.3830510",
      "street": "R BAJOUCA",
      "house": "1584",
      "postcode": "4475-114",
      "city": "MAIA",
      "lon": "-8.635077921818743",
      "lat": "41.27710602848323"
    },
    {
      "id": "pt.ine.add.PTCONT.3835976",
      "street": "R QUIRAZ",
      "house": "20",
      "postcode": "4475-724",
      "city": "MAIA",
      "lon": "-8.619917652828018",
      "lat": "41.27684698264727"
    },
    {
      "id": "pt.ine.add.PTCONT.3841243",
      "street": "R URBANIZACAO BAJOUCA",
      "house": "32",
      "postcode": "4475-145",
      "city": "MAIA",
      "lon": "-8.63312053160635",
      "lat": "41.27711454649439"
    },
    {
      "id": "pt.ine.add.PTCONT.3841244",
      "street": "AL JOAO DE DEUS",
      "house": "223",
      "postcode": "4475-129",
      "city": "MAIA",
      "lon": "-8.632005748477109",
      "lat": "41.27648909186787"
    },
    {
      "id": "pt.ine.add.PTCONT.3841245",
      "street": "AL JOAO DE DEUS",
      "house": "223",
      "postcode": "4475-129",
      "city": "MAIA",
      "lon": "-8.632005748477109",
      "lat": "41.27648909186787"
    },
    {
      "id": "pt.ine.add.PTCONT.3841246",
      "street": "AL JOAO DE DEUS",
      "house": "223",
      "postcode": "4475-129",
      "city": "MAIA",
      "lon": "-8.632005748477109",
      "lat": "41.27648909186787"
    },
    {
      "id": "pt.ine.add.PTCONT.3841247",
      "street": "AL JOAO DEUS",
      "house": "123",
      "postcode": "4475-129",
      "city": "MAIA",
      "lon": "-8.632005748477109",
      "lat": "41.27648909186787"
    },
    {
      "id": "pt.ine.add.PTCONT.3841248",
      "street": "AL JOAO DE DEUS",
      "house": "223",
      "postcode": "4475-129",
      "city": "MAIA",
      "lon": "-8.632005748477109",
      "lat": "41.27648909186787"
    },
    {
      "id": "pt.ine.add.PTCONT.3841249",
      "street": "AL JOAO DE DEUS",
      "house": "223",
      "postcode": "4475-129",
      "city": "MAIA",
      "lon": "-8.632005748477109",
      "lat": "41.27648909186787"
    },
    {
      "id": "pt.ine.add.PTCONT.3841250",
      "street": "AL JOAO DE DEUS",
      "house": "223",
      "postcode": "4475-129",
      "city": "MAIA",
      "lon": "-8.632005748477109",
      "lat": "41.27648909186787"
    },
    {
      "id": "pt.ine.add.PTCONT.3841251",
      "street": "AL JOAO DE DEUS",
      "house": "223",
      "postcode": "4475-129",
      "city": "MAIA",
      "lon": "-8.632005748477109",
      "lat": "41.27648909186787"
    },
    {
      "id": "pt.ine.add.PTCONT.3841252",
      "street": "AL JOAO DE DEUS",
      "house": "223",
      "postcode": "4475-129",
      "city": "MAIA",
      "lon": "-8.632005748477109",
      "lat": "41.27648909186787"
    },
    {
      "id": "pt.ine.add.PTCONT.3841253",
      "street": "AL JOAO DE DEUS",
      "house": "223",
      "postcode": "4475-129",
      "city": "MAIA",
      "lon": "-8.632005748477109",
      "lat": "41.27648909186787"
    },
    {
      "id": "pt.ine.add.PTCONT.3841254",
      "street": "AL JOAO DE DEUS",
      "house": "223",
      "postcode": "4475-129",
      "city": "MAIA",
      "lon": "-8.632005748477109",
      "lat": "41.27648909186787"
    },
    {
      "id": "pt.ine.add.PTCONT.3843654",
      "street": "R BAJOUCA",
      "house": "1574",
      "postcode": "4475-114",
      "city": "MAIA",
      "lon": "-8.635156571149816",
      "lat": "41.27802410933961"
    },
    {
      "id": "pt.ine.add.PTCONT.3843655",
      "street": "R F",
      "house": "240",
      "postcode": "4475-114",
      "city": "MAIA",
      "lon": "-8.63121268626927",
      "lat": "41.2757902015683"
    },
    {
      "id": "pt.ine.add.PTCONT.3852106",
      "street": "AL JOAO DEUS",
      "house": "99",
      "postcode": "4475-129",
      "city": "MAIA",
      "lon": "-8.63220734365297",
      "lat": "41.276317139084554"
    },
    {
      "id": "pt.ine.add.PTCONT.3852278",
      "street": "AL JOAO DE DEUS",
      "house": "199",
      "postcode": "4475-129",
      "city": "MAIA",
      "lon": "-8.63220734365297",
      "lat": "41.276317139084554"
    },
    {
      "id": "pt.ine.add.PTCONT.3852279",
      "street": "AL JOAO DE DEUS",
      "house": "199",
      "postcode": "4475-129",
      "city": "MAIA",
      "lon": "-8.63220734365297",
      "lat": "41.276317139084554"
    },
    {
      "id": "pt.ine.add.PTCONT.3852280",
      "street": "AL JOAO DE DEUS",
      "house": "199",
      "postcode": "4475-129",
      "city": "MAIA",
      "lon": "-8.63220734365297",
      "lat": "41.276317139084554"
    },
    {
      "id": "pt.ine.add.PTCONT.3852281",
      "street": "AL JOAO DE DEUS",
      "house": "199",
      "postcode": "4475-129",
      "city": "MAIA",
      "lon": "-8.63220734365297",
      "lat": "41.276317139084554"
    },
    {
      "id": "pt.ine.add.PTCONT.3852282",
      "street": "AL JOAO DE DEUS",
      "house": "199",
      "postcode": "4475-129",
      "city": "MAIA",
      "lon": "-8.63220734365297",
      "lat": "41.276317139084554"
    },
    {
      "id": "pt.ine.add.PTCONT.3852283",
      "street": "R ANTÓNIO ALVES DIAS",
      "house": "88",
      "postcode": "4475-106",
      "city": "MAIA",
      "lon": "-8.627166383089936",
      "lat": "41.27101742259469"
    },
    {
      "id": "pt.ine.add.PTCONT.3854786",
      "street": "R F",
      "house": "54",
      "postcode": "4475-114",
      "city": "MAIA",
      "lon": "-8.633007187755478",
      "lat": "41.27477395765413"
    },
    {
      "id": "pt.ine.add.PTCONT.3854864",
      "street": "URB DA BAJOUCA",
      "house": "109",
      "postcode": "4475-145",
      "city": "MAIA",
      "lon": "-8.63398926220516",
      "lat": "41.2767776163519"
    },
    {
      "id": "pt.ine.add.PTCONT.3855066",
      "street": "R BAJOUCA",
      "house": "1620",
      "postcode": "4475-114",
      "city": "MAIA",
      "lon": "-8.634931866183662",
      "lat": "41.278295213664805"
    },
    {
      "id": "pt.ine.add.PTCONT.3857294",
      "street": "AV CARLOS DE OLIVEIRA CAMPOS",
      "house": "746",
      "postcode": "4475-690",
      "city": "MAIA",
      "lon": "-8.620470380312122",
      "lat": "41.26771441990256"
    },
    {
      "id": "pt.ine.add.PTCONT.3857303",
      "street": "R QUIRAZ",
      "house": "217",
      "postcode": "4475-724",
      "city": "MAIA",
      "lon": "-8.619858779110164",
      "lat": "41.276955281486465"
    },
    {
      "id": "pt.ine.add.PTCONT.3869727",
      "street": "URB DA BAJOUCA",
      "house": "140",
      "postcode": "4475-145",
      "city": "MAIA",
      "lon": "-8.63445508125355",
      "lat": "41.27682060952576"
    },
    {
      "id": "pt.ine.add.PTCONT.3883282",
      "street": "R VILARINHO DE CIMA",
      "house": "480",
      "postcode": "4475-732",
      "city": "MAIA",
      "lon": "-8.621590230673918",
      "lat": "41.272256779432304"
    },
    {
      "id": "pt.ine.add.PTCONT.3888999",
      "street": "TV MONTE GENTIL",
      "house": "231",
      "postcode": "4475-856",
      "city": "MAIA",
      "lon": "-8.634057863117366",
      "lat": "41.27950557662359"
    },
    {
      "id": "pt.ine.add.PTCONT.3895644",
      "street": "R QUIRAZ",
      "house": "631",
      "postcode": "4475-724",
      "city": "MAIA",
      "lon": "-8.62310110770354",
      "lat": "41.27958874910594"
    },
    {
      "id": "pt.ine.add.PTCONT.3895829",
      "street": "R VILARINHO DE BAIXO",
      "house": "871",
      "postcode": "4475-730",
      "city": "MAIA",
      "lon": "-8.617859321028801",
      "lat": "41.27611732684784"
    },
    {
      "id": "pt.ine.add.PTCONT.3895831",
      "street": "R VILARINHO DE CIMA",
      "house": "29",
      "postcode": "4475-732",
      "city": "MAIA",
      "lon": "-8.621081810029716",
      "lat": "41.272898231257294"
    },
    {
      "id": "pt.ine.add.PTCONT.3902785",
      "street": "URB DA BAJOUCA",
      "house": "75",
      "postcode": "4475-172",
      "city": "MAIA",
      "lon": "-8.634232787822025",
      "lat": "41.27740684748799"
    },
    {
      "id": "pt.ine.add.PTCONT.3902786",
      "street": "AL JOÃO DE DEUS",
      "house": "145",
      "postcode": "4475-129",
      "city": "MAIA",
      "lon": "-8.632634332391365",
      "lat": "41.275964125031685"
    },
    {
      "id": "pt.ine.add.PTCONT.3902787",
      "street": "AL JOÃO DE DEUS",
      "house": "145",
      "postcode": "4475-129",
      "city": "MAIA",
      "lon": "-8.632634332391365",
      "lat": "41.275964125031685"
    },
    {
      "id": "pt.ine.add.PTCONT.3902788",
      "street": "AL JOÃO DE DEUS",
      "house": "145",
      "postcode": "4475-129",
      "city": "MAIA",
      "lon": "-8.632634332391365",
      "lat": "41.275964125031685"
    },
    {
      "id": "pt.ine.add.PTCONT.3902789",
      "street": "AL JOÃO DE DEUS",
      "house": "145",
      "postcode": "4475-129",
      "city": "MAIA",
      "lon": "-8.632634332391365",
      "lat": "41.275964125031685"
    },
    {
      "id": "pt.ine.add.PTCONT.3902790",
      "street": "AL JOÃO DE DEUS",
      "house": "145",
      "postcode": "4475-129",
      "city": "MAIA",
      "lon": "-8.632634332391365",
      "lat": "41.275964125031685"
    },
    {
      "id": "pt.ine.add.PTCONT.3902791",
      "street": "AL JOÃO DE DEUS",
      "house": "145",
      "postcode": "4475-129",
      "city": "MAIA",
      "lon": "-8.632634332391365",
      "lat": "41.275964125031685"
    },
    {
      "id": "pt.ine.add.PTCONT.3902792",
      "street": "AL JOÃO DE DEUS",
      "house": "145",
      "postcode": "4475-129",
      "city": "MAIA",
      "lon": "-8.632634332391365",
      "lat": "41.275964125031685"
    },
    {
      "id": "pt.ine.add.PTCONT.3902793",
      "street": "AL JOÃO DE DEUS",
      "house": "145",
      "postcode": "4475-129",
      "city": "MAIA",
      "lon": "-8.632634332391365",
      "lat": "41.275964125031685"
    },
    {
      "id": "pt.ine.add.PTCONT.3902794",
      "street": "AL JOÃO DE DEUS",
      "house": "123",
      "postcode": "4475-129",
      "city": "MAIA",
      "lon": "-8.632835992977514",
      "lat": "41.27580117501054"
    },
    {
      "id": "pt.ine.add.PTCONT.3902795",
      "street": "AL JOÃO DE DEUS",
      "house": "123",
      "postcode": "4475-129",
      "city": "MAIA",
      "lon": "-8.632835992977514",
      "lat": "41.27580117501054"
    },
    {
      "id": "pt.ine.add.PTCONT.3902796",
      "street": "AL JOÃO DE DEUS",
      "house": "123",
      "postcode": "4475-129",
      "city": "MAIA",
      "lon": "-8.632835992977514",
      "lat": "41.27580117501054"
    },
    {
      "id": "pt.ine.add.PTCONT.3902797",
      "street": "AL JOÃO DE DEUS",
      "house": "123",
      "postcode": "4475-129",
      "city": "MAIA",
      "lon": "-8.632835992977514",
      "lat": "41.27580117501054"
    },
    {
      "id": "pt.ine.add.PTCONT.3902863",
      "street": "AL JOÃO DE DEUS",
      "house": "123",
      "postcode": "4475-129",
      "city": "MAIA",
      "lon": "-8.632835992977514",
      "lat": "41.27580117501054"
    },
    {
      "id": "pt.ine.add.PTCONT.3902864",
      "street": "AL JOÃO DE DEUS",
      "house": "123",
      "postcode": "4475-129",
      "city": "MAIA",
      "lon": "-8.632835992977514",
      "lat": "41.27580117501054"
    },
    {
      "id": "pt.ine.add.PTCONT.3902865",
      "street": "AL JOÃO DE DEUS",
      "house": "123",
      "postcode": "4475-129",
      "city": "MAIA",
      "lon": "-8.632835992977514",
      "lat": "41.27580117501054"
    },
    {
      "id": "pt.ine.add.PTCONT.3902866",
      "street": "AL JOÃO DE DEUS",
      "house": "123",
      "postcode": "4475-129",
      "city": "MAIA",
      "lon": "-8.632835992977514",
      "lat": "41.27580117501054"
    },
    {
      "id": "pt.ine.add.PTCONT.3902916",
      "street": "R QUIRAZ",
      "house": "93",
      "postcode": "4475-724",
      "city": "MAIA",
      "lon": "-8.618523759345967",
      "lat": "41.277195026354775"
    },
    {
      "id": "pt.ine.add.PTCONT.3907081",
      "street": "R BAJOUCA",
      "house": "1600",
      "postcode": "4475-114",
      "city": "MAIA",
      "lon": "-8.635169403602788",
      "lat": "41.278141107382275"
    },
    {
      "id": "pt.ine.add.PTCONT.3909228",
      "street": "R F",
      "house": "232",
      "postcode": "4475-114",
      "city": "MAIA",
      "lon": "-8.631723085000537",
      "lat": "41.27541882162984"
    },
    {
      "id": "pt.ine.add.PTCONT.3911374",
      "street": "AV CARLOS DE OLIVEIRA CAMPOS",
      "house": "742",
      "postcode": "4475-690",
      "city": "MAIA",
      "lon": "-8.620362040585281",
      "lat": "41.26758882004674"
    },
    {
      "id": "pt.ine.add.PTCONT.3913252",
      "street": "R BAJOUCA",
      "house": "1392",
      "postcode": "4475-114",
      "city": "MAIA",
      "lon": "-8.634262395434375",
      "lat": "41.2765963445607"
    },
    {
      "id": "pt.ine.add.PTCONT.3913539",
      "street": "R BAJOUCA",
      "house": "1300",
      "postcode": "4475-114",
      "city": "MAIA",
      "lon": "-8.634004528361025",
      "lat": "41.275652030265654"
    },
    {
      "id": "pt.ine.add.PTCONT.3915742",
      "street": "URB DA BAJOUCA",
      "house": "141",
      "postcode": "4475-145",
      "city": "MAIA",
      "lon": "-8.63425121778094",
      "lat": "41.2766954389406"
    },
    {
      "id": "pt.ine.add.PTCONT.3929035",
      "street": "R BAJOUCA",
      "house": "1640",
      "postcode": "4475-114",
      "city": "MAIA",
      "lon": "-8.635184444148097",
      "lat": "41.278546228709864"
    },
    {
      "id": "pt.ine.add.PTCONT.3929085",
      "street": "AL JOÃO DE DEUS",
      "house": "69",
      "postcode": "4475-129",
      "city": "MAIA",
      "lon": "-8.633251314880845",
      "lat": "41.27548422592286"
    },
    {
      "id": "pt.ine.add.PTCONT.3929086",
      "street": "AL JOÃO DE DEUS",
      "house": "69",
      "postcode": "4475-129",
      "city": "MAIA",
      "lon": "-8.633251314880845",
      "lat": "41.27548422592286"
    },
    {
      "id": "pt.ine.add.PTCONT.3929087",
      "street": "AL JOÃO DE DEUS",
      "house": "69",
      "postcode": "4475-129",
      "city": "MAIA",
      "lon": "-8.633251314880845",
      "lat": "41.27548422592286"
    },
    {
      "id": "pt.ine.add.PTCONT.3929088",
      "street": "AL JOÃO DE DEUS",
      "house": "69",
      "postcode": "4475-129",
      "city": "MAIA",
      "lon": "-8.633251314880845",
      "lat": "41.27548422592286"
    },
    {
      "id": "pt.ine.add.PTCONT.3929089",
      "street": "AL JOÃO DE DEUS",
      "house": "69",
      "postcode": "4475-129",
      "city": "MAIA",
      "lon": "-8.633251314880845",
      "lat": "41.27548422592286"
    },
    {
      "id": "pt.ine.add.PTCONT.3929090",
      "street": "AL JOÃO DE DEUS",
      "house": "69",
      "postcode": "4475-129",
      "city": "MAIA",
      "lon": "-8.633251314880845",
      "lat": "41.27548422592286"
    },
    {
      "id": "pt.ine.add.PTCONT.3929091",
      "street": "AL JOÃO DE DEUS",
      "house": "69",
      "postcode": "4475-129",
      "city": "MAIA",
      "lon": "-8.633251314880845",
      "lat": "41.27548422592286"
    },
    {
      "id": "pt.ine.add.PTCONT.3929094",
      "street": "R ANTÓNIO ALVES DIAS",
      "house": "154",
      "postcode": "4475-106",
      "city": "MAIA",
      "lon": "-8.627182254602165",
      "lat": "41.27153959612497"
    },
    {
      "id": "pt.ine.add.PTCONT.3932634",
      "street": "AL JOÃO DE DEUS",
      "house": "69",
      "postcode": "4475-129",
      "city": "MAIA",
      "lon": "-8.633251314880845",
      "lat": "41.27548422592286"
    },
    {
      "id": "pt.ine.add.PTCONT.3935028",
      "street": "URB DA BAJOUCA",
      "house": "57",
      "postcode": "4475-145",
      "city": "MAIA",
      "lon": "-8.633417126674939",
      "lat": "41.276879149873956"
    },
    {
      "id": "pt.ine.add.PTCONT.3943595",
      "street": "R BAJOUCA",
      "house": "790",
      "postcode": "4475-114",
      "city": "MAIA",
      "lon": "-8.631981761601413",
      "lat": "41.27177101548083"
    },
    {
      "id": "pt.ine.add.PTCONT.3943887",
      "street": "R VILARINHO DE BAIXO",
      "house": "851",
      "postcode": "4475-730",
      "city": "MAIA",
      "lon": "-8.617905795838142",
      "lat": "41.27594605210113"
    },
    {
      "id": "pt.ine.add.PTCONT.3947888",
      "street": "URB DA BAJOUCA",
      "house": "",
      "postcode": "4475-145",
      "city": "MAIA",
      "lon": "-8.634349179404778",
      "lat": "41.2770191620945"
    },
    {
      "id": "pt.ine.add.PTCONT.3956714",
      "street": "R BAJOUCA",
      "house": "1432",
      "postcode": "4475-114",
      "city": "MAIA",
      "lon": "-8.634789750922957",
      "lat": "41.276882180711816"
    },
    {
      "id": "pt.ine.add.PTCONT.3967082",
      "street": "R QUIRAZ",
      "house": "533",
      "postcode": "4475-724",
      "city": "MAIA",
      "lon": "-8.622820190877787",
      "lat": "41.27873454970939"
    },
    {
      "id": "pt.ine.add.PTCONT.3976259",
      "street": "R BAJOUCA",
      "house": "1554",
      "postcode": "4475-114",
      "city": "MAIA",
      "lon": "-8.635142565838596",
      "lat": "41.2777540457794"
    },
    {
      "id": "pt.ine.add.PTCONT.3976260",
      "street": "R BAJOUCA",
      "house": "1554",
      "postcode": "4475-114",
      "city": "MAIA",
      "lon": "-8.635142565838596",
      "lat": "41.2777540457794"
    },
    {
      "id": "pt.ine.add.PTCONT.3976261",
      "street": "URB DA BAJOUCA",
      "house": "55",
      "postcode": "4475-172",
      "city": "MAIA",
      "lon": "-8.634137029520755",
      "lat": "41.277371247651104"
    },
    {
      "id": "pt.ine.add.PTCONT.3981218",
      "street": "R VILARINHO DE CIMA",
      "house": "672",
      "postcode": "4475-732",
      "city": "MAIA",
      "lon": "-8.623416739313255",
      "lat": "41.272321048452376"
    },
    {
      "id": "pt.ine.add.PTCONT.3981388",
      "street": "AV CARLOS DE OLIVEIRA CAMPOS",
      "house": "690",
      "postcode": "4475-690",
      "city": "MAIA",
      "lon": "-8.619838299639436",
      "lat": "41.26777111889952"
    },
    {
      "id": "pt.ine.add.PTCONT.3984535",
      "street": "TV BAJOUCA",
      "house": "1310",
      "postcode": "4475-115",
      "city": "MAIA",
      "lon": "-8.633233630283012",
      "lat": "41.27629467696666"
    },
    {
      "id": "pt.ine.add.PTCONT.3984639",
      "street": "TV BAJOUCA",
      "house": "1310",
      "postcode": "4475-115",
      "city": "MAIA",
      "lon": "-8.633233630283012",
      "lat": "41.27629467696666"
    },
    {
      "id": "pt.ine.add.PTCONT.3992486",
      "street": "R ENG FREDERICO ULRICH",
      "house": "1000",
      "postcode": "4475-130",
      "city": "MAIA",
      "lon": "-8.625242102372715",
      "lat": "41.26587527852163"
    },
    {
      "id": "pt.ine.add.PTCONT.3992643",
      "street": "AV CARLOS DE OLIVEIRA CAMPOS",
      "house": "694",
      "postcode": "4475-690",
      "city": "MAIA",
      "lon": "-8.619910770833213",
      "lat": "41.267887866740715"
    },
    {
      "id": "pt.ine.add.PTCONT.3998996",
      "street": "R VILARINHO DE CIMA",
      "house": "425",
      "postcode": "4475-732",
      "city": "MAIA",
      "lon": "-8.621480874665954",
      "lat": "41.27199612256204"
    },
    {
      "id": "pt.ine.add.PTCONT.3998997",
      "street": "R VILARINHO DE CIMA",
      "house": "425",
      "postcode": "4475-732",
      "city": "MAIA",
      "lon": "-8.621480874665954",
      "lat": "41.27199612256204"
    },
    {
      "id": "pt.ine.add.PTCONT.3999019",
      "street": "R QUIRAZ",
      "house": "623",
      "postcode": "4475-724",
      "city": "MAIA",
      "lon": "-8.623100568954543",
      "lat": "41.279516718166334"
    },
    {
      "id": "pt.ine.add.PTCONT.3999029",
      "street": "R QUIRAZ",
      "house": "47",
      "postcode": "4475-724",
      "city": "MAIA",
      "lon": "-8.618116224466924",
      "lat": "41.2769626358432"
    },
    {
      "id": "pt.ine.add.PTCONT.4005959",
      "street": "R ANTÓNIO ALVES DIAS",
      "house": "112",
      "postcode": "4475-106",
      "city": "MAIA",
      "lon": "-8.62717994651529",
      "lat": "41.27123346438364"
    },
    {
      "id": "pt.ine.add.PTCONT.4010818",
      "street": "R VILARINHO DE CIMA",
      "house": "440",
      "postcode": "4475-732",
      "city": "MAIA",
      "lon": "-8.621375142307608",
      "lat": "41.272221675180795"
    },
    {
      "id": "pt.ine.add.PTCONT.4010819",
      "street": "R VILARINHO DE CIMA",
      "house": "440",
      "postcode": "4475-732",
      "city": "MAIA",
      "lon": "-8.621375142307608",
      "lat": "41.272221675180795"
    },
    {
      "id": "pt.ine.add.PTCONT.4010820",
      "street": "R VILARINHO DE CIMA",
      "house": "440",
      "postcode": "4475-732",
      "city": "MAIA",
      "lon": "-8.621375142307608",
      "lat": "41.272221675180795"
    },
    {
      "id": "pt.ine.add.PTCONT.4010821",
      "street": "R VILARINHO DE CIMA",
      "house": "440",
      "postcode": "4475-732",
      "city": "MAIA",
      "lon": "-8.621375142307608",
      "lat": "41.272221675180795"
    },
    {
      "id": "pt.ine.add.PTCONT.4010822",
      "street": "R VILARINHO DE CIMA",
      "house": "440",
      "postcode": "4475-732",
      "city": "MAIA",
      "lon": "-8.621375142307608",
      "lat": "41.272221675180795"
    },
    {
      "id": "pt.ine.add.PTCONT.4010823",
      "street": "R VILARINHO DE CIMA",
      "house": "440",
      "postcode": "4475-732",
      "city": "MAIA",
      "lon": "-8.621375142307608",
      "lat": "41.272221675180795"
    },
    {
      "id": "pt.ine.add.PTCONT.4010837",
      "street": "R VILARINHO DE CIMA",
      "house": "440",
      "postcode": "4475-732",
      "city": "MAIA",
      "lon": "-8.621375142307608",
      "lat": "41.272221675180795"
    },
    {
      "id": "pt.ine.add.PTCONT.4010841",
      "street": "R VILARINHO DE CIMA",
      "house": "440",
      "postcode": "4475-732",
      "city": "MAIA",
      "lon": "-8.621375142307608",
      "lat": "41.272221675180795"
    },
    {
      "id": "pt.ine.add.PTCONT.4012067",
      "street": "URB DA BAJOUCA",
      "house": "8",
      "postcode": "4475-172",
      "city": "MAIA",
      "lon": "-8.633538061076493",
      "lat": "41.27708571984803"
    },
    {
      "id": "pt.ine.add.PTCONT.4012076",
      "street": "R BAJOUCA",
      "house": "1000",
      "postcode": "4475-114",
      "city": "MAIA",
      "lon": "-8.6329467416628",
      "lat": "41.2731084503106"
    },
    {
      "id": "pt.ine.add.PTCONT.4012219",
      "street": "AV CARLOS DE OLIVEIRA CAMPOS",
      "house": "688",
      "postcode": "4475-690",
      "city": "MAIA",
      "lon": "-8.619826031679304",
      "lat": "41.26772614989844"
    },
    {
      "id": "pt.ine.add.PTCONT.4018425",
      "street": "R QUIRAZ",
      "house": "697",
      "postcode": "4475-724",
      "city": "MAIA",
      "lon": "-8.623356273432814",
      "lat": "41.280190941064646"
    },
    {
      "id": "pt.ine.add.PTCONT.4018592",
      "street": "R QUIRAZ",
      "house": "335",
      "postcode": "4475-724",
      "city": "MAIA",
      "lon": "-8.621079935280147",
      "lat": "41.27745434479806"
    },
    {
      "id": "pt.ine.add.PTCONT.4025505",
      "street": "R BAJOUCA",
      "house": "1508",
      "postcode": "4475-114",
      "city": "MAIA",
      "lon": "-8.63511579740388",
      "lat": "41.277375987996976"
    },
    {
      "id": "pt.ine.add.PTCONT.4025698",
      "street": "R BAJOUCA",
      "house": "1508",
      "postcode": "4475-114",
      "city": "MAIA",
      "lon": "-8.63511579740388",
      "lat": "41.277375987996976"
    },
    {
      "id": "pt.ine.add.PTCONT.4031577",
      "street": "R BAJOUCA",
      "house": "1568",
      "postcode": "4475-114",
      "city": "MAIA",
      "lon": "-8.635143807739512",
      "lat": "41.277916115146475"
    },
    {
      "id": "pt.ine.add.PTCONT.4031580",
      "street": "AL JOAO DE DEUS",
      "house": "91",
      "postcode": "4475-129",
      "city": "MAIA",
      "lon": "-8.633073388976106",
      "lat": "41.275629065289024"
    },
    {
      "id": "pt.ine.add.PTCONT.4031581",
      "street": "AL JOAO DE DEUS",
      "house": "91",
      "postcode": "4475-129",
      "city": "MAIA",
      "lon": "-8.633073388976106",
      "lat": "41.275629065289024"
    },
    {
      "id": "pt.ine.add.PTCONT.4031582",
      "street": "AL JOAO DEUS",
      "house": "",
      "postcode": "4475-129",
      "city": "MAIA",
      "lon": "-8.633073388976106",
      "lat": "41.275629065289024"
    },
    {
      "id": "pt.ine.add.PTCONT.4031583",
      "street": "AL JOAO DE DEUS",
      "house": "91",
      "postcode": "4475-129",
      "city": "MAIA",
      "lon": "-8.633073388976106",
      "lat": "41.275629065289024"
    },
    {
      "id": "pt.ine.add.PTCONT.4031584",
      "street": "AL JOAO DE DEUS",
      "house": "91",
      "postcode": "4475-129",
      "city": "MAIA",
      "lon": "-8.633073388976106",
      "lat": "41.275629065289024"
    },
    {
      "id": "pt.ine.add.PTCONT.4031585",
      "street": "AL JOAO DE DEUS",
      "house": "91",
      "postcode": "4475-129",
      "city": "MAIA",
      "lon": "-8.633073388976106",
      "lat": "41.275629065289024"
    },
    {
      "id": "pt.ine.add.PTCONT.4031586",
      "street": "AL JOAO DE DEUS",
      "house": "91",
      "postcode": "4475-129",
      "city": "MAIA",
      "lon": "-8.633073388976106",
      "lat": "41.275629065289024"
    },
    {
      "id": "pt.ine.add.PTCONT.4035997",
      "street": "AL JOAO DE DEUS",
      "house": "91",
      "postcode": "4475-129",
      "city": "MAIA",
      "lon": "-8.633073388976106",
      "lat": "41.275629065289024"
    },
    {
      "id": "pt.ine.add.PTCONT.4037994",
      "street": "R BAJOUCA",
      "house": "1484",
      "postcode": "4475-114",
      "city": "MAIA",
      "lon": "-8.635078335721857",
      "lat": "41.27716005161276"
    },
    {
      "id": "pt.ine.add.PTCONT.4038196",
      "street": "R QUIRAZ",
      "house": "449",
      "postcode": "4475-724",
      "city": "MAIA",
      "lon": "-8.622326056662779",
      "lat": "41.27809735550827"
    },
    {
      "id": "pt.ine.add.PTCONT.4044626",
      "street": "URB DA BAJOUCA",
      "house": "64",
      "postcode": "4475-145",
      "city": "MAIA",
      "lon": "-8.633812160172484",
      "lat": "41.27703050311961"
    },
    {
      "id": "pt.ine.add.PTCONT.4053043",
      "street": "R VILARINHO DE CIMA",
      "house": "",
      "postcode": "4475-732",
      "city": "MAIA",
      "lon": "-8.624142784282666",
      "lat": "41.27205683326317"
    },
    {
      "id": "pt.ine.add.PTCONT.4053044",
      "street": "R VILARINHO DE CIMA",
      "house": "",
      "postcode": "4475-732",
      "city": "MAIA",
      "lon": "-8.624142784282666",
      "lat": "41.27205683326317"
    },
    {
      "id": "pt.ine.add.PTCONT.4057615",
      "street": "R ANTÓNIO ALVES DIAS",
      "house": "188",
      "postcode": "4475-106",
      "city": "MAIA",
      "lon": "-8.62725705153775",
      "lat": "41.27196247088582"
    },
    {
      "id": "pt.ine.add.PTCONT.4064722",
      "street": "R D",
      "house": "102",
      "postcode": "4475-123",
      "city": "MAIA",
      "lon": "-8.631476254444417",
      "lat": "41.2727816712042"
    },
    {
      "id": "pt.ine.add.PTCONT.4077468",
      "street": "R BAJOUCA",
      "house": "1194",
      "postcode": "4475-114",
      "city": "MAIA",
      "lon": "-8.633579649450937",
      "lat": "41.274717445536794"
    },
    {
      "id": "pt.ine.add.PTCONT.4077635",
      "street": "R QUIRAZ",
      "house": "15",
      "postcode": "4475-724",
      "city": "MAIA",
      "lon": "-8.617829110936684",
      "lat": "41.27687380346804"
    },
    {
      "id": "pt.ine.add.PTCONT.4077636",
      "street": "R QUIRAZ",
      "house": "15",
      "postcode": "4475-724",
      "city": "MAIA",
      "lon": "-8.617829110936684",
      "lat": "41.27687380346804"
    },
    {
      "id": "pt.ine.add.PTCONT.4077637",
      "street": "R QUIRAZ",
      "house": "15",
      "postcode": "4475-724",
      "city": "MAIA",
      "lon": "-8.617829110936684",
      "lat": "41.27687380346804"
    },
    {
      "id": "pt.ine.add.PTCONT.4089534",
      "street": "R QUIRAZ",
      "house": "607",
      "postcode": "4475-724",
      "city": "MAIA",
      "lon": "-8.624021511890964",
      "lat": "41.27976491105049"
    },
    {
      "id": "pt.ine.add.PTCONT.4090700",
      "street": "TV MONTE GENTIL",
      "house": "66",
      "postcode": "4475-856",
      "city": "MAIA",
      "lon": "-8.634553099592308",
      "lat": "41.278711055143994"
    },
    {
      "id": "pt.ine.add.PTCONT.4095133",
      "street": "R ANTÓNIO ALVES DIAS",
      "house": "182",
      "postcode": "4475-021",
      "city": "MAIA",
      "lon": "-8.62724409873408",
      "lat": "41.27182746400186"
    },
    {
      "id": "pt.ine.add.PTCONT.4097611",
      "street": "R BAJOUCA",
      "house": "1236",
      "postcode": "4475-114",
      "city": "MAIA",
      "lon": "-8.633893259235832",
      "lat": "41.275148281446654"
    },
    {
      "id": "pt.ine.add.PTCONT.4103978",
      "street": "R VILARINHO DE CIMA",
      "house": "474",
      "postcode": "4475-732",
      "city": "MAIA",
      "lon": "-8.622451326019075",
      "lat": "41.272496235079174"
    },
    {
      "id": "pt.ine.add.PTCONT.4110265",
      "street": "R BAJOUCA",
      "house": "1368",
      "postcode": "4475-114",
      "city": "MAIA",
      "lon": "-8.634022658621761",
      "lat": "41.276462325563124"
    },
    {
      "id": "pt.ine.add.PTCONT.4110428",
      "street": "R ANTÓNIO ALVES DIAS",
      "house": "64",
      "postcode": "4475-106",
      "city": "MAIA",
      "lon": "-8.627176484451745",
      "lat": "41.270774266740794"
    },
    {
      "id": "pt.ine.add.PTCONT.4110429",
      "street": "R ANTÓNIO ALVES DIAS",
      "house": "32",
      "postcode": "4475-106",
      "city": "MAIA",
      "lon": "-8.62711403079447",
      "lat": "41.270405363880926"
    },
    {
      "id": "pt.ine.add.PTCONT.4116973",
      "street": "R BAJOUCA",
      "house": "1384",
      "postcode": "4475-114",
      "city": "MAIA",
      "lon": "-8.634249978141181",
      "lat": "41.2765333695169"
    },
    {
      "id": "pt.ine.add.PTCONT.4116974",
      "street": "R BAJOUCA",
      "house": "1384",
      "postcode": "4475-114",
      "city": "MAIA",
      "lon": "-8.634249978141181",
      "lat": "41.2765333695169"
    },
    {
      "id": "pt.ine.add.PTCONT.4117111",
      "street": "AL POCA DO OGUEIRO",
      "house": "34",
      "postcode": "4475-720",
      "city": "MAIA",
      "lon": "-8.62126390074689",
      "lat": "41.268503425231586"
    },
    {
      "id": "pt.ine.add.PTCONT.4123334",
      "street": "TV MONTE GENTIL",
      "house": "240",
      "postcode": "4475-856",
      "city": "MAIA",
      "lon": "-8.633748084253813",
      "lat": "41.279578957397774"
    },
    {
      "id": "pt.ine.add.PTCONT.4123342",
      "street": "R BAJOUCA",
      "house": "1076",
      "postcode": "4475-114",
      "city": "MAIA",
      "lon": "-8.63367922179327",
      "lat": "41.2736905383379"
    },
    {
      "id": "pt.ine.add.PTCONT.4129702",
      "street": "TV MONTE GENTIL",
      "house": "41",
      "postcode": "4475-856",
      "city": "MAIA",
      "lon": "-8.634364265619677",
      "lat": "41.27899100623962"
    },
    {
      "id": "pt.ine.add.PTCONT.4143229",
      "street": "R BAJOUCA",
      "house": "",
      "postcode": "4475-114",
      "city": "MAIA",
      "lon": "-8.631704203836815",
      "lat": "41.27764293024425"
    },
    {
      "id": "pt.ine.add.PTCONT.4143234",
      "street": "R ANTÓNIO ALVES DIAS",
      "house": "L38",
      "postcode": "4475-106",
      "city": "MAIA",
      "lon": "-8.627205512213093",
      "lat": "41.27145845881892"
    },
    {
      "id": "pt.ine.add.PTCONT.4149727",
      "street": "R BAJOUCA",
      "house": "1518",
      "postcode": "4475-114",
      "city": "MAIA",
      "lon": "-8.635116763261601",
      "lat": "41.27750204195834"
    },
    {
      "id": "pt.ine.add.PTCONT.4170720",
      "street": "AV CARLOS DE OLIVEIRA CAMPOS",
      "house": "714",
      "postcode": "4475-690",
      "city": "MAIA",
      "lon": "-8.620015498023998",
      "lat": "41.267527256952526"
    },
    {
      "id": "pt.ine.add.PTCONT.4185362",
      "street": "R QUIRAZ",
      "house": "411",
      "postcode": "4475-724",
      "city": "MAIA",
      "lon": "-8.621738799271762",
      "lat": "41.27777569989559"
    },
    {
      "id": "pt.ine.add.PTCONT.4186336",
      "street": "AV CARLOS DE OLIVEIRA CAMPOS",
      "house": "702",
      "postcode": "4475-690",
      "city": "MAIA",
      "lon": "-8.620387983006196",
      "lat": "41.26786783961243"
    },
    {
      "id": "pt.ine.add.PTCONT.4188766",
      "street": "AV CARLOS DE OLIVEIRA CAMPOS",
      "house": "708",
      "postcode": "4475-690",
      "city": "MAIA",
      "lon": "-8.620195639389124",
      "lat": "41.26767956590271"
    },
    {
      "id": "pt.ine.add.PTCONT.4210286",
      "street": "R BAJOUCA",
      "house": "1530",
      "postcode": "4475-114",
      "city": "MAIA",
      "lon": "-8.63512904359614",
      "lat": "41.277547009183934"
    },
    {
      "id": "pt.ine.add.PTCONT.4210287",
      "street": "TV MONTE GENTIL",
      "house": "37",
      "postcode": "4475-856",
      "city": "MAIA",
      "lon": "-8.634461059974821",
      "lat": "41.27916166365373"
    },
    {
      "id": "pt.ine.add.PTCONT.4215193",
      "street": "R BAJOUCA",
      "house": "1430",
      "postcode": "4475-114",
      "city": "MAIA",
      "lon": "-8.634550632185196",
      "lat": "41.276829197536784"
    },
    {
      "id": "pt.ine.add.PTCONT.4215196",
      "street": "R BAJOUCA",
      "house": "1312",
      "postcode": "4475-114",
      "city": "MAIA",
      "lon": "-8.634141253115459",
      "lat": "41.27636276376559"
    },
    {
      "id": "pt.ine.add.PTCONT.4219406",
      "street": "R BAJOUCA",
      "house": "1430",
      "postcode": "4475-114",
      "city": "MAIA",
      "lon": "-8.634550632185196",
      "lat": "41.276829197536784"
    },
    {
      "id": "pt.ine.add.PTCONT.4228042",
      "street": "R VILARINHO DE BAIXO",
      "house": "689",
      "postcode": "4475-730",
      "city": "MAIA",
      "lon": "-8.618181706794974",
      "lat": "41.274522232356595"
    },
    {
      "id": "pt.ine.add.PTCONT.4241360",
      "street": "R BAJOUCA",
      "house": "818",
      "postcode": "4475-114",
      "city": "MAIA",
      "lon": "-8.632186633973685",
      "lat": "41.27203124830796"
    },
    {
      "id": "pt.ine.add.PTCONT.4241494",
      "street": "AV CARLOS DE OLIVEIRA CAMPOS",
      "house": "692",
      "postcode": "4475-690",
      "city": "MAIA",
      "lon": "-8.619886368533958",
      "lat": "41.26781593653523"
    },
    {
      "id": "pt.ine.add.PTCONT.4246681",
      "street": "URB DA BAJOUCA",
      "house": "35",
      "postcode": "4475-145",
      "city": "MAIA",
      "lon": "-8.633226231154696",
      "lat": "41.27688898346372"
    },
    {
      "id": "pt.ine.add.PTCONT.4250231",
      "street": "R F",
      "house": "105",
      "postcode": "4475-114",
      "city": "MAIA",
      "lon": "-8.632676580750356",
      "lat": "41.27524360902802"
    },
    {
      "id": "pt.ine.add.PTCONT.4267405",
      "street": "R BAJOUCA",
      "house": "922",
      "postcode": "4475-114",
      "city": "MAIA",
      "lon": "-8.63272958508885",
      "lat": "41.27280325138975"
    },
    {
      "id": "pt.ine.add.PTCONT.4267409",
      "street": "R ANTÓNIO ALVES DIAS",
      "house": "128",
      "postcode": "4475-106",
      "city": "MAIA",
      "lon": "-8.627192559625378",
      "lat": "41.271323451916174"
    },
    {
      "id": "pt.ine.add.PTCONT.4278637",
      "street": "R PRIMAVERA",
      "house": "21",
      "postcode": "4475-156",
      "city": "MAIA",
      "lon": "-8.63125219271776",
      "lat": "41.271567078760164"
    },
    {
      "id": "pt.ine.add.PTCONT.4284859",
      "street": "URB DA BAJOUCA",
      "house": "131",
      "postcode": "4475-145",
      "city": "MAIA",
      "lon": "-8.634120136798956",
      "lat": "41.276723021935126"
    },
    {
      "id": "pt.ine.add.PTCONT.4284860",
      "street": "R BAJOUCA",
      "house": "1040",
      "postcode": "4475-114",
      "city": "MAIA",
      "lon": "-8.633533530112809",
      "lat": "41.27336702189631"
    },
    {
      "id": "pt.ine.add.PTCONT.4296186",
      "street": "URB DA BAJOUCA",
      "house": "",
      "postcode": "4475-145",
      "city": "MAIA",
      "lon": "-8.633979804921443",
      "lat": "41.27710180712116"
    },
    {
      "id": "pt.ine.add.PTCONT.4301169",
      "street": "R BAJOUCA",
      "house": "1490",
      "postcode": "4475-114",
      "city": "MAIA",
      "lon": "-8.635090546977887",
      "lat": "41.27719601499081"
    },
    {
      "id": "pt.ine.add.PTCONT.4307948",
      "street": "URB DA BAJOUCA",
      "house": "20",
      "postcode": "4475-145",
      "city": "MAIA",
      "lon": "-8.632977376594427",
      "lat": "41.27712417231475"
    },
    {
      "id": "pt.ine.add.PTCONT.4314368",
      "street": "R F",
      "house": "58",
      "postcode": "4475-114",
      "city": "MAIA",
      "lon": "-8.63294771939835",
      "lat": "41.27480122834073"
    },
    {
      "id": "pt.ine.add.PTCONT.4314516",
      "street": "R VILARINHO DE CIMA",
      "house": "560",
      "postcode": "4475-732",
      "city": "MAIA",
      "lon": "-8.622689948477884",
      "lat": "41.27248621641389"
    },
    {
      "id": "pt.ine.add.PTCONT.4321939",
      "street": "R BAJOUCA",
      "house": "1620",
      "postcode": "4475-114",
      "city": "MAIA",
      "lon": "-8.63518244310647",
      "lat": "41.27828511697985"
    },
    {
      "id": "pt.ine.add.PTCONT.4327066",
      "street": "TV MONTE GENTIL",
      "house": "254",
      "postcode": "4475-856",
      "city": "MAIA",
      "lon": "-8.633820455779547",
      "lat": "41.27967768832433"
    },
    {
      "id": "pt.ine.add.PTCONT.4331145",
      "street": "R VILARINHO BAIXO",
      "house": "AP 2160",
      "postcode": "4475-730",
      "city": "MAIA",
      "lon": "-8.61877192720803",
      "lat": "41.274717762650795"
    },
    {
      "id": "pt.ine.add.PTCONT.4331146",
      "street": "R VILARINHO BAIXO",
      "house": "AP 2160",
      "postcode": "4475-730",
      "city": "MAIA",
      "lon": "-8.61877192720803",
      "lat": "41.274717762650795"
    },
    {
      "id": "pt.ine.add.PTCONT.4331147",
      "street": "AV CARLOS DE OLIVEIRA CAMPOS",
      "house": "706",
      "postcode": "4475-690",
      "city": "MAIA",
      "lon": "-8.620279643180044",
      "lat": "41.26774223968293"
    },
    {
      "id": "pt.ine.add.PTCONT.4332115",
      "street": "AL POCA DO OGUEIRO",
      "house": "54",
      "postcode": "4475-720",
      "city": "MAIA",
      "lon": "-8.621229775975902",
      "lat": "41.26872867420378"
    },
    {
      "id": "pt.ine.add.PTCONT.4334294",
      "street": "TV MONTE GENTIL",
      "house": "189",
      "postcode": "4475-856",
      "city": "MAIA",
      "lon": "-8.633816257990063",
      "lat": "41.27912845328575"
    },
    {
      "id": "pt.ine.add.PTCONT.4334323",
      "street": "R D",
      "house": "25",
      "postcode": "4475-123",
      "city": "MAIA",
      "lon": "-8.63244315649988",
      "lat": "41.272804494058384"
    },
    {
      "id": "pt.ine.add.PTCONT.4334457",
      "street": "AL POCA DO OGUEIRO",
      "house": "18",
      "postcode": "4475-720",
      "city": "MAIA",
      "lon": "-8.621611120745213",
      "lat": "41.26865502338878"
    },
    {
      "id": "pt.ine.add.PTCONT.4338517",
      "street": "R VILARINHO DE CIMA",
      "house": "500",
      "postcode": "4475-732",
      "city": "MAIA",
      "lon": "-8.62220123941717",
      "lat": "41.27256933110951"
    },
    {
      "id": "pt.ine.add.PTCONT.4343046",
      "street": "R ANTÓNIO ALVES DIAS",
      "house": "104",
      "postcode": "4475-106",
      "city": "MAIA",
      "lon": "-8.627178928252983",
      "lat": "41.2710984062572"
    },
    {
      "id": "pt.ine.add.PTCONT.4346845",
      "street": "TV MONTE GENTIL",
      "house": "100",
      "postcode": "4475-856",
      "city": "MAIA",
      "lon": "-8.634504737024825",
      "lat": "41.27863022840559"
    },
    {
      "id": "pt.ine.add.PTCONT.4346852",
      "street": "R PRIMAVERA",
      "house": "45",
      "postcode": "4475-156",
      "city": "MAIA",
      "lon": "-8.63110966534658",
      "lat": "41.27165773702102"
    },
    {
      "id": "pt.ine.add.PTCONT.4346853",
      "street": "R PRIMAVERA",
      "house": "45",
      "postcode": "4475-156",
      "city": "MAIA",
      "lon": "-8.63110966534658",
      "lat": "41.27165773702102"
    },
    {
      "id": "pt.ine.add.PTCONT.4347011",
      "street": "AV CARLOS DE OLIVEIRA CAMPOS",
      "house": "740",
      "postcode": "4475-690",
      "city": "MAIA",
      "lon": "-8.62032590512424",
      "lat": "41.26754395210768"
    },
    {
      "id": "pt.ine.add.PTCONT.4352656",
      "street": "URB DA BAJOUCA",
      "house": "176",
      "postcode": "4475-145",
      "city": "MAIA",
      "lon": "-8.634074185827815",
      "lat": "41.276957329964496"
    },
    {
      "id": "pt.ine.add.PTCONT.4352657",
      "street": "TV MONTE GENTIL",
      "house": "59",
      "postcode": "4475-856",
      "city": "MAIA",
      "lon": "-8.634231802663416",
      "lat": "41.27883851231233"
    },
    {
      "id": "pt.ine.add.PTCONT.4352810",
      "street": "R ANTÓNIO ALVES DIAS",
      "house": "230",
      "postcode": "4475-106",
      "city": "MAIA",
      "lon": "-8.627676385759523",
      "lat": "41.27217677022042"
    },
    {
      "id": "pt.ine.add.PTCONT.4360000",
      "street": "TV MONTE GENTIL",
      "house": "219",
      "postcode": "4475-856",
      "city": "MAIA",
      "lon": "-8.633997564834525",
      "lat": "41.2794248016197"
    },
    {
      "id": "pt.ine.add.PTCONT.4360143",
      "street": "R VILARINHO DE BAIXO",
      "house": "889",
      "postcode": "4475-730",
      "city": "MAIA",
      "lon": "-8.617740768670647",
      "lat": "41.27622587589035"
    },
    {
      "id": "pt.ine.add.PTCONT.4366472",
      "street": "TV VILARINHO DE CIMA",
      "house": "156",
      "postcode": "4475-733",
      "city": "MAIA",
      "lon": "-8.621847598973543",
      "lat": "41.26995962443821"
    },
    {
      "id": "pt.ine.add.PTCONT.4366474",
      "street": "AV CARLOS DE OLIVEIRA CAMPOS",
      "house": "748",
      "postcode": "4475-690",
      "city": "MAIA",
      "lon": "-8.620518583516338",
      "lat": "41.2677772450515"
    },
    {
      "id": "pt.ine.add.PTCONT.4372139",
      "street": "AL JOÃO DE DEUS",
      "house": "167",
      "postcode": "4475-129",
      "city": "MAIA",
      "lon": "-8.632480205449658",
      "lat": "41.2760998560492"
    },
    {
      "id": "pt.ine.add.PTCONT.4374103",
      "street": "AL JOAO DE DEUS",
      "house": "223",
      "postcode": "4475-129",
      "city": "MAIA",
      "lon": "-8.632005748477109",
      "lat": "41.27648909186787"
    },
    {
      "id": "pt.ine.add.PTCONT.4374437",
      "street": "URB DA BAJOUCA",
      "house": "140",
      "postcode": "4475-145",
      "city": "MAIA",
      "lon": "-8.63445508125355",
      "lat": "41.27682060952576"
    },
    {
      "id": "pt.ine.add.PTCONT.4377789",
      "street": "R BAJOUCA",
      "house": "1352",
      "postcode": "4475-114",
      "city": "MAIA",
      "lon": "-8.634152293174562",
      "lat": "41.27624566167488"
    },
    {
      "id": "pt.ine.add.PTCONT.4389490",
      "street": "R F",
      "house": "106",
      "postcode": "4475-114",
      "city": "MAIA",
      "lon": "-8.632566901108667",
      "lat": "41.27494694765341"
    },
    {
      "id": "pt.ine.add.PTCONT.4390400",
      "street": "R QUIRAZ",
      "house": "9",
      "postcode": "4475-724",
      "city": "MAIA",
      "lon": "-8.61769662401804",
      "lat": "41.27671228634431"
    }
  ]
}