{
  "data": {
    "distrito": "Faro",
    "concelho": "Tavira",
    "freguesia": "União das freguesias de Conceição e Cabanas de Tavira",
    "OBJECTID": 50,
    "BGRI2021": "08141001041",
    "DT21": "08",
    "DTMN21": "0814",
    "DTMNFR21": "081410",
    "DTMNFRSEC21": "081410010",
    "SECNUM21": "010",
    "SSNUM21": "41",
    "SECSSNUM21": "01041",
    "OBJECTID_1": 73379,
    "DT": "08",
    "CC": "14",
    "fr": "10",
    "SEC": "010",
    "SS": "41"
  },
  "addresses": [
    {
      "id": "pt.ine.add.PTCONT.1477503",
      "street": "",
      "house": "",
      "postcode": "8800-071",
      "city": "CONCEIÇÃO TVR",
      "lon": "-7.622455257682211",
      "lat": "37.20989570908619"
    },
    {
      "id": "pt.ine.add.PTCONT.1485729",
      "street": "",
      "house": "",
      "postcode": "8800-071",
      "city": "CONCEIÇÃO TVR",
      "lon": "-7.61825087777542",
      "lat": "37.21356276409605"
    },
    {
      "id": "pt.ine.add.PTCONT.1503818",
      "street": "",
      "house": "",
      "postcode": "8800-071",
      "city": "CONCEIÇÃO TVR",
      "lon": "-7.615785951062285",
      "lat": "37.2066230233249"
    },
    {
      "id": "pt.ine.add.PTCONT.1514588",
      "street": "MTE DA ESTRADA",
      "house": "303 Z",
      "postcode": "8800-071",
      "city": "CONCEIÇÃO TVR",
      "lon": "-7.618449982147762",
      "lat": "37.212446339650995"
    },
    {
      "id": "pt.ine.add.PTCONT.1517804",
      "street": "",
      "house": "",
      "postcode": "8800-071",
      "city": "CONCEIÇÃO TVR",
      "lon": "-7.615827565435784",
      "lat": "37.20712778797029"
    },
    {
      "id": "pt.ine.add.PTCONT.1549512",
      "street": "MTE DA ESTRADA",
      "house": "308 Z",
      "postcode": "8800-071",
      "city": "CONCEIÇÃO TVR",
      "lon": "-7.61876432509698",
      "lat": "37.21426780593833"
    },
    {
      "id": "pt.ine.add.PTCONT.1593513",
      "street": "",
      "house": "",
      "postcode": "8800-071",
      "city": "CONCEIÇÃO TVR",
      "lon": "-7.621033728343303",
      "lat": "37.2152057098747"
    },
    {
      "id": "pt.ine.add.PTCONT.1641942",
      "street": "",
      "house": "",
      "postcode": "8800-071",
      "city": "CONCEIÇÃO TVR",
      "lon": "-7.615567432436374",
      "lat": "37.20727982866974"
    },
    {
      "id": "pt.ine.add.PTCONT.1651780",
      "street": "MTE DA ESTRADA",
      "house": "302 Z",
      "postcode": "8800-071",
      "city": "CONCEIÇÃO TVR",
      "lon": "-7.618990067442609",
      "lat": "37.21420571318115"
    },
    {
      "id": "pt.ine.add.PTCONT.1682842",
      "street": "",
      "house": "",
      "postcode": "8800-071",
      "city": "CONCEIÇÃO TVR",
      "lon": "-7.616837978792105",
      "lat": "37.20928568339249"
    },
    {
      "id": "pt.ine.add.PTCONT.1731648",
      "street": "VALE ROSADO",
      "house": "255 Z",
      "postcode": "8800-071",
      "city": "CONCEIÇÃO TVR",
      "lon": "-7.615525573586318",
      "lat": "37.2068111045198"
    },
    {
      "id": "pt.ine.add.PTCONT.1740556",
      "street": "MTE DA ESTRADA",
      "house": "307 Z",
      "postcode": "8800-071",
      "city": "CONCEIÇÃO TVR",
      "lon": "-7.619612825430324",
      "lat": "37.21540679761168"
    },
    {
      "id": "pt.ine.add.PTCONT.1759039",
      "street": "VALE ROSADO",
      "house": "256 Z",
      "postcode": "8800-071",
      "city": "CONCEIÇÃO TVR",
      "lon": "-7.614584816713986",
      "lat": "37.20765396862544"
    },
    {
      "id": "pt.ine.add.PTCONT.1761869",
      "street": "",
      "house": "",
      "postcode": "8800-071",
      "city": "CONCEIÇÃO TVR",
      "lon": "-7.615340538460243",
      "lat": "37.20751310775513"
    },
    {
      "id": "pt.ine.add.PTCONT.1791704",
      "street": "",
      "house": "",
      "postcode": "8800-071",
      "city": "CONCEIÇÃO TVR",
      "lon": "-7.615634036110997",
      "lat": "37.20742428618032"
    },
    {
      "id": "pt.ine.add.PTCONT.1829381",
      "street": "",
      "house": "",
      "postcode": "8800-071",
      "city": "CONCEIÇÃO TVR",
      "lon": "-7.6201863488141806",
      "lat": "37.215562459346025"
    },
    {
      "id": "pt.ine.add.PTCONT.1832393",
      "street": "",
      "house": "",
      "postcode": "8800-071",
      "city": "CONCEIÇÃO TVR",
      "lon": "-7.615134263477925",
      "lat": "37.20802579918484"
    },
    {
      "id": "pt.ine.add.PTCONT.1844324",
      "street": "MTE DA ESTRADA",
      "house": "303 Z",
      "postcode": "8800-071",
      "city": "CONCEIÇÃO TVR",
      "lon": "-7.618832225197501",
      "lat": "37.21422304876902"
    },
    {
      "id": "pt.ine.add.PTCONT.1844558",
      "street": "AL DORINHA",
      "house": "",
      "postcode": "8800-071",
      "city": "CONCEIÇÃO TVR",
      "lon": "-7.61715260056889",
      "lat": "37.20940418950241"
    }
  ]
}