{
  "data": {
    "distrito": "Faro",
    "concelho": "Lagoa",
    "freguesia": "União das freguesias de Estômbar e Parchal",
    "OBJECTID": 457,
    "BGRI2021": "08060700814",
    "DT21": "08",
    "DTMN21": "0806",
    "DTMNFR21": "080607",
    "DTMNFRSEC21": "080607008",
    "SECNUM21": "008",
    "SSNUM21": "14",
    "SECSSNUM21": "00814",
    "OBJECTID_1": 67311,
    "DT": "08",
    "CC": "06",
    "fr": "07",
    "SEC": "008",
    "SS": "14"
  },
  "addresses": [
    {
      "id": "pt.ine.add.PTCONT.1490198",
      "street": "SIT SITIO DAS CORREDOURAS",
      "house": "",
      "postcode": "8400-012",
      "city": "ESTOMBAR",
      "lon": "-8.493014672630391",
      "lat": "37.13784296315942"
    },
    {
      "id": "pt.ine.add.PTCONT.1496147",
      "street": "",
      "house": "",
      "postcode": "8400-066",
      "city": "ESTOMBAR",
      "lon": "-8.489205082115982",
      "lat": "37.14147671532204"
    },
    {
      "id": "pt.ine.add.PTCONT.1496148",
      "street": "SITIO VALE TALEGAS",
      "house": "",
      "postcode": "8400-066",
      "city": "ESTOMBAR",
      "lon": "-8.490173406226182",
      "lat": "37.14155489737969"
    },
    {
      "id": "pt.ine.add.PTCONT.1505019",
      "street": "SITIO DO COTOVIO",
      "house": "",
      "postcode": "8400-161",
      "city": "ESTOMBAR",
      "lon": "-8.490064906267955",
      "lat": "37.13762661845544"
    },
    {
      "id": "pt.ine.add.PTCONT.1513254",
      "street": "SIT SITIO DAS CORREDOURAS",
      "house": "",
      "postcode": "8400-012",
      "city": "ESTOMBAR",
      "lon": "-8.49321725557844",
      "lat": "37.13784234789865"
    },
    {
      "id": "pt.ine.add.PTCONT.1573639",
      "street": "",
      "house": "",
      "postcode": "8400-066",
      "city": "ESTOMBAR",
      "lon": "-8.489407505797299",
      "lat": "37.141440064785726"
    },
    {
      "id": "pt.ine.add.PTCONT.1577016",
      "street": "SIT SITIO DAS CORREDOURAS",
      "house": "",
      "postcode": "8400-012",
      "city": "ESTOMBAR",
      "lon": "-8.495121424762184",
      "lat": "37.140647843434074"
    },
    {
      "id": "pt.ine.add.PTCONT.1656449",
      "street": "SITIO VALE TALEGAS",
      "house": "",
      "postcode": "8400-120",
      "city": "ESTOMBAR",
      "lon": "-8.4906532222166",
      "lat": "37.14067041603968"
    },
    {
      "id": "pt.ine.add.PTCONT.1807806",
      "street": "SIT SITIO DAS CORREDOURAS",
      "house": "",
      "postcode": "8400-012",
      "city": "ESTOMBAR",
      "lon": "-8.495454519972142",
      "lat": "37.139691706174744"
    },
    {
      "id": "pt.ine.add.PTCONT.1826277",
      "street": "SITIO DO COTOVIO",
      "house": "",
      "postcode": "8400-161",
      "city": "ESTOMBAR",
      "lon": "-8.491708074744594",
      "lat": "37.13762165893639"
    }
  ]
}