{
  "data": {
    "distrito": "Castelo Branco",
    "concelho": "Fund√£o",
    "freguesia": "Castelo Novo",
    "OBJECTID": 589,
    "BGRI2021": "05041300105",
    "DT21": "05",
    "DTMN21": "0504",
    "DTMNFR21": "050413",
    "DTMNFRSEC21": "050413001",
    "SECNUM21": "001",
    "SSNUM21": "05",
    "SECSSNUM21": "00105",
    "OBJECTID_1": 43405,
    "DT": "05",
    "CC": "04",
    "fr": "13",
    "SEC": "001",
    "SS": "05"
  },
  "addresses": [
    {
      "id": "pt.ine.add.PTCONT.955590",
      "street": "QTA CARREGAL",
      "house": "",
      "postcode": "6230-160",
      "city": "CASTELO NOVO",
      "lon": "-7.463798602908771",
      "lat": "40.05294348486652"
    },
    {
      "id": "pt.ine.add.PTCONT.960025",
      "street": "SIT ROCHOSO",
      "house": "",
      "postcode": "6230-160",
      "city": "CASTELO NOVO",
      "lon": "-7.454912640053098",
      "lat": "40.04966765907505"
    },
    {
      "id": "pt.ine.add.PTCONT.967635",
      "street": "QTA CARREGAL",
      "house": "",
      "postcode": "6230-160",
      "city": "CASTELO NOVO",
      "lon": "-7.465302608531499",
      "lat": "40.054942491526155"
    },
    {
      "id": "pt.ine.add.PTCONT.976528",
      "street": "MTE COTIFA",
      "house": "",
      "postcode": "6230-160",
      "city": "CASTELO NOVO",
      "lon": "-7.460488119476687",
      "lat": "40.039208146120075"
    },
    {
      "id": "pt.ine.add.PTCONT.985953",
      "street": "QTA CARREGAL",
      "house": "",
      "postcode": "6230-160",
      "city": "CASTELO NOVO",
      "lon": "-7.465477427528911",
      "lat": "40.055042565132034"
    },
    {
      "id": "pt.ine.add.PTCONT.988429",
      "street": "ZN SARDANISCO",
      "house": "",
      "postcode": "6230-160",
      "city": "CASTELO NOVO",
      "lon": "-7.462495620928335",
      "lat": "40.0531611005082"
    },
    {
      "id": "pt.ine.add.PTCONT.1003833",
      "street": "SIT ROCHOSO",
      "house": "",
      "postcode": "6230-160",
      "city": "CASTELO NOVO",
      "lon": "-7.454505363829364",
      "lat": "40.049377081977404"
    },
    {
      "id": "pt.ine.add.PTCONT.1008925",
      "street": "QTA CARREGAL",
      "house": "",
      "postcode": "6230-160",
      "city": "CASTELO NOVO",
      "lon": "-7.463963633496425",
      "lat": "40.05284537201547"
    },
    {
      "id": "pt.ine.add.PTCONT.1011626",
      "street": "SIT ROCHOSO",
      "house": "",
      "postcode": "6230-160",
      "city": "CASTELO NOVO",
      "lon": "-7.454771219207385",
      "lat": "40.049747885281306"
    },
    {
      "id": "pt.ine.add.PTCONT.1013648",
      "street": "ZN SARDANISCO",
      "house": "",
      "postcode": "6230-160",
      "city": "CASTELO NOVO",
      "lon": "-7.461909684329657",
      "lat": "40.05315770750882"
    },
    {
      "id": "pt.ine.add.PTCONT.1017662",
      "street": "PTE VELHA SN",
      "house": "SN",
      "postcode": "6230-160",
      "city": "CASTELO NOVO",
      "lon": "-7.462564324960718",
      "lat": "40.054521405327755"
    },
    {
      "id": "pt.ine.add.PTCONT.1017663",
      "street": "PTE VELHA SN",
      "house": "SN",
      "postcode": "6230-160",
      "city": "CASTELO NOVO",
      "lon": "-7.463560525355048",
      "lat": "40.05451816069973"
    },
    {
      "id": "pt.ine.add.PTCONT.1021202",
      "street": "MTE DO MARCO ALTO",
      "house": "",
      "postcode": "6230-160",
      "city": "CASTELO NOVO",
      "lon": "-7.456210922477993",
      "lat": "40.02859213909146"
    },
    {
      "id": "pt.ine.add.PTCONT.1029006",
      "street": "QTA CARREGAL",
      "house": "",
      "postcode": "6230-160",
      "city": "CASTELO NOVO",
      "lon": "-7.466591952951345",
      "lat": "40.05251829369277"
    },
    {
      "id": "pt.ine.add.PTCONT.1071542",
      "street": "MTE DO MARCO ALTO",
      "house": "",
      "postcode": "6230-160",
      "city": "CASTELO NOVO",
      "lon": "-7.456506009740297",
      "lat": "40.02836871137494"
    },
    {
      "id": "pt.ine.add.PTCONT.1091390",
      "street": "QTA SARDANISCA",
      "house": "",
      "postcode": "6230-160",
      "city": "CASTELO NOVO",
      "lon": "-7.46050797356244",
      "lat": "40.0503036792965"
    }
  ]
}