{
  "data": {
    "distrito": "Castelo Branco",
    "concelho": "Fundão",
    "freguesia": "Castelo Novo",
    "OBJECTID": 833,
    "BGRI2021": "05041300124",
    "DT21": "05",
    "DTMN21": "0504",
    "DTMNFR21": "050413",
    "DTMNFRSEC21": "050413001",
    "SECNUM21": "001",
    "SSNUM21": "24",
    "SECSSNUM21": "00124",
    "OBJECTID_1": 43278,
    "DT": "05",
    "CC": "04",
    "fr": "13",
    "SEC": "001",
    "SS": "24"
  },
  "addresses": [
    {
      "id": "pt.ine.add.PTCONT.968798",
      "street": "R NSA SRA DA SERRA",
      "house": "6",
      "postcode": "6230-160",
      "city": "CASTELO NOVO",
      "lon": "-7.495816282923131",
      "lat": "40.07806163891199"
    },
    {
      "id": "pt.ine.add.PTCONT.974027",
      "street": "R NSA SRA DA SERRA",
      "house": "4",
      "postcode": "6230-160",
      "city": "CASTELO NOVO",
      "lon": "-7.495793424473191",
      "lat": "40.07799847129044"
    },
    {
      "id": "pt.ine.add.PTCONT.974028",
      "street": "R NSA SRA DA SERRA",
      "house": "12",
      "postcode": "6230-160",
      "city": "CASTELO NOVO",
      "lon": "-7.496036587554052",
      "lat": "40.078324024124385"
    },
    {
      "id": "pt.ine.add.PTCONT.975829",
      "street": "ESCADINHA DA MURALHA",
      "house": "3",
      "postcode": "6230-160",
      "city": "CASTELO NOVO",
      "lon": "-7.4957323741159945",
      "lat": "40.078259308840245"
    },
    {
      "id": "pt.ine.add.PTCONT.979228",
      "street": "R PROF GONSALVES COUCHO",
      "house": "5",
      "postcode": "6230-160",
      "city": "CASTELO NOVO",
      "lon": "-7.495651991876832",
      "lat": "40.0780787469274"
    },
    {
      "id": "pt.ine.add.PTCONT.1001473",
      "street": "R PROF GONÇALVES COUCHO",
      "house": "15",
      "postcode": "6230-160",
      "city": "CASTELO NOVO",
      "lon": "-7.4957420820516685",
      "lat": "40.078475505781725"
    },
    {
      "id": "pt.ine.add.PTCONT.1008350",
      "street": "R PROF GONSALVES COUCHO",
      "house": "11",
      "postcode": "6230-160",
      "city": "CASTELO NOVO",
      "lon": "-7.495674094454024",
      "lat": "40.0782229642417"
    },
    {
      "id": "pt.ine.add.PTCONT.1044776",
      "street": "ESCADINHA DA MURALHA",
      "house": "8",
      "postcode": "6230-160",
      "city": "CASTELO NOVO",
      "lon": "-7.495802376958478",
      "lat": "40.07829571790528"
    },
    {
      "id": "pt.ine.add.PTCONT.1051583",
      "street": "R NSA SRA DA SERRA",
      "house": "10",
      "postcode": "6230-160",
      "city": "CASTELO NOVO",
      "lon": "-7.495850696602221",
      "lat": "40.07814288205688"
    },
    {
      "id": "pt.ine.add.PTCONT.1052724",
      "street": "R PROF GONSALVES COUCHO",
      "house": "3",
      "postcode": "6230-160",
      "city": "CASTELO NOVO",
      "lon": "-7.495652495737102",
      "lat": "40.078024713815374"
    },
    {
      "id": "pt.ine.add.PTCONT.1059593",
      "street": "R GARDUNHA",
      "house": "33",
      "postcode": "6230-160",
      "city": "CASTELO NOVO",
      "lon": "-7.49588166852175",
      "lat": "40.07859335145027"
    },
    {
      "id": "pt.ine.add.PTCONT.1066919",
      "street": "R ALPREADA",
      "house": "5",
      "postcode": "6230-160",
      "city": "CASTELO NOVO",
      "lon": "-7.496024193001578",
      "lat": "40.07839600380321"
    },
    {
      "id": "pt.ine.add.PTCONT.1075519",
      "street": "R PROF GONSALVES COUCHO",
      "house": "9",
      "postcode": "6230-160",
      "city": "CASTELO NOVO",
      "lon": "-7.495663295080847",
      "lat": "40.07812383902977"
    },
    {
      "id": "pt.ine.add.PTCONT.1075520",
      "street": "R NSA SRA DA SERRA",
      "house": "2",
      "postcode": "6230-160",
      "city": "CASTELO NOVO",
      "lon": "-7.495758843008252",
      "lat": "40.07793523916571"
    },
    {
      "id": "pt.ine.add.PTCONT.1077786",
      "street": "R ALPREADA",
      "house": "2",
      "postcode": "6230-160",
      "city": "CASTELO NOVO",
      "lon": "-7.4958962458523795",
      "lat": "40.07828722830841"
    },
    {
      "id": "pt.ine.add.PTCONT.1084515",
      "street": "R PROF GONSALVES COUCHO",
      "house": "1",
      "postcode": "6230-160",
      "city": "CASTELO NOVO",
      "lon": "-7.495664974582689",
      "lat": "40.0779437286554"
    },
    {
      "id": "pt.ine.add.PTCONT.1089107",
      "street": "R ALPREADA",
      "house": "9",
      "postcode": "6230-160",
      "city": "CASTELO NOVO",
      "lon": "-7.496023605499497",
      "lat": "40.07845904243435"
    },
    {
      "id": "pt.ine.add.PTCONT.1098347",
      "street": "R ALPREADA",
      "house": "11",
      "postcode": "6230-160",
      "city": "CASTELO NOVO",
      "lon": "-7.49606991062686",
      "lat": "40.078522338947096"
    }
  ]
}