{
  "data": {
    "ilha": "Ilha da Madeira (Madeira)",
    "concelho": "Funchal",
    "freguesia": "Santo Ant√≥nio",
    "OBJECTID": 596,
    "BGRI2021": "31030500806",
    "DT21": "31",
    "DTMN21": "3103",
    "DTMNFR21": "310305",
    "DTMNFRSEC21": "310305008",
    "SECNUM21": "008",
    "SSNUM21": "06",
    "SECSSNUM21": "00806",
    "OBJECTID_1": 203852,
    "DT": "31",
    "CC": "03",
    "fr": "05",
    "SEC": "008",
    "SS": "06",
    "BGRI2021_1": "31030500806"
  },
  "addresses": [
    {
      "id": "pt.ine.add.MAD.18759",
      "street": "TV STA QUITERIA",
      "house": "60",
      "postcode": "9020-257",
      "city": "FUNCHAL",
      "lon": "-16.95519351926655",
      "lat": "32.66260419244163"
    },
    {
      "id": "pt.ine.add.MAD.18760",
      "street": "CAM STA QUITERIA",
      "house": "107",
      "postcode": "9020-119",
      "city": "FUNCHAL",
      "lon": "-16.95509204263509",
      "lat": "32.662840258922685"
    },
    {
      "id": "pt.ine.add.MAD.18761",
      "street": "CAM STA QUITERIA",
      "house": "105",
      "postcode": "9020-119",
      "city": "FUNCHAL",
      "lon": "-16.95487018339583",
      "lat": "32.66293390269427"
    },
    {
      "id": "pt.ine.add.MAD.18762",
      "street": "CAM S QUITERIA",
      "house": "99",
      "postcode": "9020-119",
      "city": "FUNCHAL",
      "lon": "-16.95461674157116",
      "lat": "32.663046075457245"
    },
    {
      "id": "pt.ine.add.MAD.18763",
      "street": "CAM STA QUITERIA",
      "house": "95",
      "postcode": "9020-119",
      "city": "FUNCHAL",
      "lon": "-16.954741303010834",
      "lat": "32.662890817563024"
    },
    {
      "id": "pt.ine.add.MAD.18764",
      "street": "CAM STA QUITERIA",
      "house": "93",
      "postcode": "9020-119",
      "city": "FUNCHAL",
      "lon": "-16.954518854347498",
      "lat": "32.66295741393569"
    },
    {
      "id": "pt.ine.add.MAD.18765",
      "street": "CAM STA QUITERIA",
      "house": "73",
      "postcode": "9020-119",
      "city": "FUNCHAL",
      "lon": "-16.95269407752353",
      "lat": "32.66190358986692"
    },
    {
      "id": "pt.ine.add.MAD.18766",
      "street": "CAM STA QUITERIA",
      "house": "69",
      "postcode": "9020-119",
      "city": "FUNCHAL",
      "lon": "-16.952423702805962",
      "lat": "32.66172742453551"
    },
    {
      "id": "pt.ine.add.MAD.18767",
      "street": "TV PINHEIRO VOLTAS",
      "house": "63",
      "postcode": "9020-250",
      "city": "FUNCHAL",
      "lon": "-16.95253702008908",
      "lat": "32.661545287752844"
    },
    {
      "id": "pt.ine.add.MAD.18768",
      "street": "CAM STA QUITERIA",
      "house": "63",
      "postcode": "9020-119",
      "city": "FUNCHAL",
      "lon": "-16.952028176695805",
      "lat": "32.66167946718839"
    },
    {
      "id": "pt.ine.add.MAD.19522",
      "street": "CAM STA QUITERIA",
      "house": "",
      "postcode": "9020-119",
      "city": "FUNCHAL",
      "lon": "-16.95212527589461",
      "lat": "32.66173206836395"
    },
    {
      "id": "pt.ine.add.MAD.19523",
      "street": "CAM S QUITERIA",
      "house": "63",
      "postcode": "9020-119",
      "city": "FUNCHAL",
      "lon": "-16.952068456554688",
      "lat": "32.66157061649465"
    },
    {
      "id": "pt.ine.add.MAD.19524",
      "street": "CAM STA QUITERIA",
      "house": "63A-4D",
      "postcode": "9020-119",
      "city": "FUNCHAL",
      "lon": "-16.952118022056844",
      "lat": "32.66139849065619"
    },
    {
      "id": "pt.ine.add.MAD.19525",
      "street": "CAM S QUITERIA",
      "house": "63",
      "postcode": "9020-119",
      "city": "FUNCHAL",
      "lon": "-16.951783445621057",
      "lat": "32.66142976005926"
    },
    {
      "id": "pt.ine.add.MAD.19526",
      "street": "CAM S QUITERIA",
      "house": "61",
      "postcode": "9020-119",
      "city": "FUNCHAL",
      "lon": "-16.95176924604405",
      "lat": "32.66153919699618"
    },
    {
      "id": "pt.ine.add.MAD.19527",
      "street": "CAM S QUITERIA",
      "house": "61",
      "postcode": "9020-119",
      "city": "FUNCHAL",
      "lon": "-16.95176924604405",
      "lat": "32.66153919699618"
    },
    {
      "id": "pt.ine.add.MAD.19528",
      "street": "CAM S QUITERIA",
      "house": "59",
      "postcode": "9020-119",
      "city": "FUNCHAL",
      "lon": "-16.951610746754156",
      "lat": "32.6616047933185"
    },
    {
      "id": "pt.ine.add.MAD.19529",
      "street": "CAM STA QUITERIA",
      "house": "51",
      "postcode": "9020-119",
      "city": "FUNCHAL",
      "lon": "-16.951139711916245",
      "lat": "32.6610259063721"
    },
    {
      "id": "pt.ine.add.MAD.19530",
      "street": "TV STA QUITERIA",
      "house": "8",
      "postcode": "9020-257",
      "city": "FUNCHAL",
      "lon": "-16.951481552682367",
      "lat": "32.66105666433305"
    },
    {
      "id": "pt.ine.add.MAD.19531",
      "street": "TV STA QUITERIA",
      "house": "26",
      "postcode": "9020-257",
      "city": "FUNCHAL",
      "lon": "-16.95263372721332",
      "lat": "32.66157985730779"
    },
    {
      "id": "pt.ine.add.MAD.56967",
      "street": "TV STA QUITERIA",
      "house": "58",
      "postcode": "9020-257",
      "city": "FUNCHAL",
      "lon": "-16.95502220283414",
      "lat": "32.66257078758465"
    },
    {
      "id": "pt.ine.add.MAD.59176",
      "street": "TV STA QUITERIA",
      "house": "6 CASA",
      "postcode": "9020-257",
      "city": "FUNCHAL",
      "lon": "-16.951562688542026",
      "lat": "32.661196968277125"
    },
    {
      "id": "pt.ine.add.MAD.62705",
      "street": "CAM STA QUITERIA",
      "house": "63",
      "postcode": "9020-119",
      "city": "FUNCHAL",
      "lon": "-16.951966848802535",
      "lat": "32.661310656126425"
    },
    {
      "id": "pt.ine.add.MAD.65058",
      "street": "CAM STA QUITERIA",
      "house": "79",
      "postcode": "9020-119",
      "city": "FUNCHAL",
      "lon": "-16.953263862048836",
      "lat": "32.66212018673691"
    },
    {
      "id": "pt.ine.add.MAD.65059",
      "street": "TV STA QUITERIA",
      "house": "18",
      "postcode": "9020-257",
      "city": "FUNCHAL",
      "lon": "-16.95207977446924",
      "lat": "32.66111048850075"
    },
    {
      "id": "pt.ine.add.MAD.65060",
      "street": "TV S QUITERIA",
      "house": "20",
      "postcode": "9020-257",
      "city": "FUNCHAL",
      "lon": "-16.95224238975688",
      "lat": "32.66123421951457"
    },
    {
      "id": "pt.ine.add.MAD.68235",
      "street": "CAM STA QUITERIA",
      "house": "85",
      "postcode": "9020-119",
      "city": "FUNCHAL",
      "lon": "-16.954075390189786",
      "lat": "32.66266670626182"
    },
    {
      "id": "pt.ine.add.MAD.70796",
      "street": "CAM STA QUITERIA",
      "house": "53",
      "postcode": "9020-119",
      "city": "FUNCHAL",
      "lon": "-16.951162007718366",
      "lat": "32.66107065296548"
    },
    {
      "id": "pt.ine.add.MAD.70797",
      "street": "TV STA QUITERIA",
      "house": "14",
      "postcode": "9020-257",
      "city": "FUNCHAL",
      "lon": "-16.951845101731678",
      "lat": "32.66110512096345"
    },
    {
      "id": "pt.ine.add.MAD.73459",
      "street": "CAM STA QUITERIA",
      "house": "",
      "postcode": "9020-119",
      "city": "FUNCHAL",
      "lon": "-16.95326111569824",
      "lat": "32.66199396824066"
    },
    {
      "id": "pt.ine.add.MAD.73460",
      "street": "CAM STA QUITERIA",
      "house": "63",
      "postcode": "9020-119",
      "city": "FUNCHAL",
      "lon": "-16.9520080367321",
      "lat": "32.661733892531146"
    },
    {
      "id": "pt.ine.add.MAD.80137",
      "street": "TV STA QUITERIA",
      "house": "24",
      "postcode": "9020-257",
      "city": "FUNCHAL",
      "lon": "-16.95269198863159",
      "lat": "32.66131740929301"
    },
    {
      "id": "pt.ine.add.MAD.83209",
      "street": "CAM STA QUITERIA",
      "house": "",
      "postcode": "9020-119",
      "city": "FUNCHAL",
      "lon": "-16.95260351784658",
      "lat": "32.661661495445735"
    },
    {
      "id": "pt.ine.add.MAD.83210",
      "street": "TV PINHEIRO VOLTAS",
      "house": "59",
      "postcode": "9020-250",
      "city": "FUNCHAL",
      "lon": "-16.952567033390064",
      "lat": "32.66145463401718"
    },
    {
      "id": "pt.ine.add.MAD.87121",
      "street": "CAM STA QUITERIA",
      "house": "",
      "postcode": "9020-119",
      "city": "FUNCHAL",
      "lon": "-16.95482971012688",
      "lat": "32.663033738562625"
    },
    {
      "id": "pt.ine.add.MAD.87122",
      "street": "CAM STA QUITERIA",
      "house": "55",
      "postcode": "9020-119",
      "city": "FUNCHAL",
      "lon": "-16.951194765628443",
      "lat": "32.66110621817825"
    },
    {
      "id": "pt.ine.add.MAD.93158",
      "street": "CAM STA QUITERIA",
      "house": "63",
      "postcode": "9020-119",
      "city": "FUNCHAL",
      "lon": "-16.95199875089727",
      "lat": "32.66179716765779"
    },
    {
      "id": "pt.ine.add.MAD.93159",
      "street": "CAM STA QUITERIA",
      "house": "63",
      "postcode": "9020-119",
      "city": "FUNCHAL",
      "lon": "-16.951992281655425",
      "lat": "32.66149965238647"
    },
    {
      "id": "pt.ine.add.MAD.98660",
      "street": "CAM STA QUITERIA",
      "house": "67",
      "postcode": "9020-119",
      "city": "FUNCHAL",
      "lon": "-16.952223747637053",
      "lat": "32.66184777874928"
    },
    {
      "id": "pt.ine.add.MAD.99612",
      "street": "TV PINHEIRO VOLTAS",
      "house": "61",
      "postcode": "9020-250",
      "city": "FUNCHAL",
      "lon": "-16.95266393652864",
      "lat": "32.66149821916362"
    },
    {
      "id": "pt.ine.add.MAD.104699",
      "street": "CAM S QUITERIA",
      "house": "63 4",
      "postcode": "9020-119",
      "city": "FUNCHAL",
      "lon": "-16.951990125262643",
      "lat": "32.661400480625986"
    },
    {
      "id": "pt.ine.add.MAD.104769",
      "street": "CAM STA QUITERIA",
      "house": "57",
      "postcode": "9020-119",
      "city": "FUNCHAL",
      "lon": "-16.95121706147958",
      "lat": "32.66115096475948"
    },
    {
      "id": "pt.ine.add.MAD.105201",
      "street": "TV STA QUITERIA",
      "house": "16",
      "postcode": "9020-257",
      "city": "FUNCHAL",
      "lon": "-16.952061202972903",
      "lat": "32.661237038767005"
    },
    {
      "id": "pt.ine.add.MAD.107590",
      "street": "CAM STA QUIT√âRIA",
      "house": "63",
      "postcode": "9020-119",
      "city": "FUNCHAL",
      "lon": "-16.951877787137647",
      "lat": "32.66162769502856"
    },
    {
      "id": "pt.ine.add.MAD.119535",
      "street": "TV STA QUITERIA",
      "house": "6",
      "postcode": "9020-257",
      "city": "FUNCHAL",
      "lon": "-16.95145709152891",
      "lat": "32.66112860792964"
    },
    {
      "id": "pt.ine.add.MAD.120302",
      "street": "TV STA QUITERIA",
      "house": "10",
      "postcode": "9020-257",
      "city": "FUNCHAL",
      "lon": "-16.95154354098002",
      "lat": "32.66096551345657"
    },
    {
      "id": "pt.ine.add.MAD.125718",
      "street": "CAM STA QUITERIA",
      "house": "87",
      "postcode": "9020-119",
      "city": "FUNCHAL",
      "lon": "-16.95422696026826",
      "lat": "32.66277256926781"
    },
    {
      "id": "pt.ine.add.MAD.127775",
      "street": "TV STA QUITERIA",
      "house": "22",
      "postcode": "9020-257",
      "city": "FUNCHAL",
      "lon": "-16.9524354110322",
      "lat": "32.661285327813765"
    },
    {
      "id": "pt.ine.add.MAD.127841",
      "street": "TV STA QUIT√âRIA",
      "house": "6",
      "postcode": "9020-257",
      "city": "FUNCHAL",
      "lon": "-16.95184012566957",
      "lat": "32.6613504393355"
    },
    {
      "id": "pt.ine.add.MAD.128887",
      "street": "CAM STA QUITERIA",
      "house": "71",
      "postcode": "9020-119",
      "city": "FUNCHAL",
      "lon": "-16.95248032680272",
      "lat": "32.66187986060065"
    }
  ]
}