{
  "data": {
    "distrito": "Braga",
    "concelho": "Cabeceiras de Basto",
    "freguesia": "Pedraça",
    "OBJECTID": 202,
    "BGRI2021": "03041300108",
    "DT21": "03",
    "DTMN21": "0304",
    "DTMNFR21": "030413",
    "DTMNFRSEC21": "030413001",
    "SECNUM21": "001",
    "SSNUM21": "08",
    "SECSSNUM21": "00108",
    "OBJECTID_1": 23727,
    "DT": "03",
    "CC": "04",
    "fr": "13",
    "SEC": "001",
    "SS": "08"
  },
  "addresses": [
    {
      "id": "pt.ine.add.PTCONT.468639",
      "street": "",
      "house": "",
      "postcode": "4860-277",
      "city": "PEDRAÇA",
      "lon": "-7.950386864427332",
      "lat": "41.48954197230369"
    },
    {
      "id": "pt.ine.add.PTCONT.530351",
      "street": "CASA DA PONTINHA",
      "house": "",
      "postcode": "4860-277",
      "city": "PEDRAÇA",
      "lon": "-7.94726612310769",
      "lat": "41.48791627706254"
    },
    {
      "id": "pt.ine.add.PTCONT.586972",
      "street": "",
      "house": "",
      "postcode": "4860-285",
      "city": "PEDRAÇA",
      "lon": "-7.942380248264763",
      "lat": "41.4921130821697"
    },
    {
      "id": "pt.ine.add.PTCONT.728684",
      "street": "CASA DO LADO DE BAIXO DA NACIONAL 206",
      "house": "",
      "postcode": "4860-291",
      "city": "PEDRAÇA",
      "lon": "-7.946046650977631",
      "lat": "41.49557658370905"
    },
    {
      "id": "pt.ine.add.PTCONT.770608",
      "street": "",
      "house": "",
      "postcode": "4860-277",
      "city": "PEDRAÇA",
      "lon": "-7.950794531273506",
      "lat": "41.48935353808609"
    },
    {
      "id": "pt.ine.add.PTCONT.791540",
      "street": "",
      "house": "",
      "postcode": "4860-277",
      "city": "PEDRAÇA",
      "lon": "-7.950434459357792",
      "lat": "41.489650094245526"
    },
    {
      "id": "pt.ine.add.PTCONT.795592",
      "street": "",
      "house": "",
      "postcode": "4860-289",
      "city": "PEDRAÇA",
      "lon": "-7.95563926355047",
      "lat": "41.48679501369431"
    },
    {
      "id": "pt.ine.add.PTCONT.844970",
      "street": "",
      "house": "",
      "postcode": "4860-277",
      "city": "PEDRAÇA",
      "lon": "-7.950519065473656",
      "lat": "41.489371108858286"
    },
    {
      "id": "pt.ine.add.PTCONT.836725",
      "street": "",
      "house": "",
      "postcode": "4860-289",
      "city": "PEDRAÇA",
      "lon": "-7.956477646752241",
      "lat": "41.48672427324361"
    }
  ]
}