{
  "data": {
    "distrito": "Braga",
    "concelho": "Esposende",
    "freguesia": "Forjães",
    "OBJECTID": 211,
    "BGRI2021": "03060800221",
    "DT21": "03",
    "DTMN21": "0306",
    "DTMNFR21": "030608",
    "DTMNFRSEC21": "030608002",
    "SECNUM21": "002",
    "SSNUM21": "21",
    "SECSSNUM21": "00221",
    "OBJECTID_1": 24597,
    "DT": "03",
    "CC": "06",
    "fr": "08",
    "SEC": "002",
    "SS": "21"
  },
  "addresses": [
    {
      "id": "pt.ine.add.PTCONT.467062",
      "street": "R RIBEIRA",
      "house": "184",
      "postcode": "4740-444",
      "city": "FORJÃES",
      "lon": "-8.738219744417208",
      "lat": "41.61771275417042"
    },
    {
      "id": "pt.ine.add.PTCONT.470194",
      "street": "R CALCA QTA DA CALFA",
      "house": "185",
      "postcode": "4740-442",
      "city": "FORJÃES",
      "lon": "-8.726385708915728",
      "lat": "41.61468619829446"
    },
    {
      "id": "pt.ine.add.PTCONT.510242",
      "street": "R PEDREIRA",
      "house": "204",
      "postcode": "4740-446",
      "city": "FORJÃES",
      "lon": "-8.735885235835577",
      "lat": "41.61697771941179"
    },
    {
      "id": "pt.ine.add.PTCONT.525519",
      "street": "R ESTEIREIROS",
      "house": "383",
      "postcode": "4740-446",
      "city": "FORJÃES",
      "lon": "-8.73426510691339",
      "lat": "41.61564466531355"
    },
    {
      "id": "pt.ine.add.PTCONT.526995",
      "street": "R PEDREIRA",
      "house": "",
      "postcode": "4740-446",
      "city": "FORJÃES",
      "lon": "-8.735634879461553",
      "lat": "41.61715010041773"
    },
    {
      "id": "pt.ine.add.PTCONT.531558",
      "street": "R RIBEIRA",
      "house": "216",
      "postcode": "4740-446",
      "city": "FORJÃES",
      "lon": "-8.738500911292888",
      "lat": "41.61826949737678"
    },
    {
      "id": "pt.ine.add.PTCONT.543228",
      "street": "R ALTO DA PEDREIRA",
      "house": "87",
      "postcode": "4740-446",
      "city": "FORJÃES",
      "lon": "-8.736954361130945",
      "lat": "41.617116166246866"
    },
    {
      "id": "pt.ine.add.PTCONT.546213",
      "street": "R PEDREIRA",
      "house": "375",
      "postcode": "4740-446",
      "city": "FORJÃES",
      "lon": "-8.736221251039641",
      "lat": "41.6169849606472"
    },
    {
      "id": "pt.ine.add.PTCONT.571812",
      "street": "R PEDREIRA",
      "house": "361",
      "postcode": "4740-446",
      "city": "FORJÃES",
      "lon": "-8.736472024766964",
      "lat": "41.61685759421119"
    },
    {
      "id": "pt.ine.add.PTCONT.589796",
      "street": "R PEDREIRA",
      "house": "367",
      "postcode": "4740-446",
      "city": "FORJÃES",
      "lon": "-8.736280316031234",
      "lat": "41.61688561106947"
    },
    {
      "id": "pt.ine.add.PTCONT.599431",
      "street": "R ATTO DA MORENA",
      "house": "4",
      "postcode": "4740-446",
      "city": "FORJÃES",
      "lon": "-8.739558149802814",
      "lat": "41.618416986127535"
    },
    {
      "id": "pt.ine.add.PTCONT.604586",
      "street": "R ESTEIREIROS",
      "house": "483",
      "postcode": "4740-446",
      "city": "FORJÃES",
      "lon": "-8.732731036029806",
      "lat": "41.615823745842555"
    },
    {
      "id": "pt.ine.add.PTCONT.609331",
      "street": "R DO MONTE",
      "house": "204",
      "postcode": "4740-436",
      "city": "FORJÃES",
      "lon": "-8.7358859064889",
      "lat": "41.617049744756834"
    },
    {
      "id": "pt.ine.add.PTCONT.632333",
      "street": "R MONTE",
      "house": "180",
      "postcode": "4740-446",
      "city": "FORJÃES",
      "lon": "-8.735355417265353",
      "lat": "41.61677341328709"
    },
    {
      "id": "pt.ine.add.PTCONT.643016",
      "street": "AZENHA DA PONTE CELTA",
      "house": "",
      "postcode": "4740-443",
      "city": "FORJÃES",
      "lon": "-8.729084486030844",
      "lat": "41.61982230301477"
    },
    {
      "id": "pt.ine.add.PTCONT.669319",
      "street": "R ALTO DA PEDREIRA",
      "house": "123",
      "postcode": "4740-446",
      "city": "FORJÃES",
      "lon": "-8.736641836707689",
      "lat": "41.617054782185896"
    },
    {
      "id": "pt.ine.add.PTCONT.674981",
      "street": "R CALCA QTA DA CALFA",
      "house": "185",
      "postcode": "4740-442",
      "city": "FORJÃES",
      "lon": "-8.726243145413806",
      "lat": "41.61483999536587"
    },
    {
      "id": "pt.ine.add.PTCONT.689929",
      "street": "R RIBEIRA",
      "house": "150",
      "postcode": "4740-444",
      "city": "FORJÃES",
      "lon": "-8.73796594244743",
      "lat": "41.617516010508524"
    },
    {
      "id": "pt.ine.add.PTCONT.753487",
      "street": "R RIBEIRA",
      "house": "130",
      "postcode": "4740-444",
      "city": "FORJÃES",
      "lon": "-8.737783623084121",
      "lat": "41.6172648686612"
    },
    {
      "id": "pt.ine.add.PTCONT.753488",
      "street": "R RIBEIRA",
      "house": "130",
      "postcode": "4740-444",
      "city": "FORJÃES",
      "lon": "-8.737783623084121",
      "lat": "41.6172648686612"
    },
    {
      "id": "pt.ine.add.PTCONT.753489",
      "street": "R RIBEIRA",
      "house": "130",
      "postcode": "4740-444",
      "city": "FORJÃES",
      "lon": "-8.737783623084121",
      "lat": "41.6172648686612"
    },
    {
      "id": "pt.ine.add.PTCONT.754260",
      "street": "R RIBEIRA",
      "house": "130",
      "postcode": "4740-444",
      "city": "FORJÃES",
      "lon": "-8.737783623084121",
      "lat": "41.6172648686612"
    }
  ]
}