{
  "data": {
    "distrito": "Viana do Castelo",
    "concelho": "Ponte de Lima",
    "freguesia": "Refóios do Lima",
    "OBJECTID": 863,
    "BGRI2021": "16073700201",
    "DT21": "16",
    "DTMN21": "1607",
    "DTMNFR21": "160737",
    "DTMNFRSEC21": "160737002",
    "SECNUM21": "002",
    "SSNUM21": "01",
    "SECSSNUM21": "00201",
    "OBJECTID_1": 175671,
    "DT": "16",
    "CC": "07",
    "fr": "37",
    "SEC": "002",
    "SS": "01"
  },
  "addresses": [
    {
      "id": "pt.ine.add.PTCONT.5136589",
      "street": "",
      "house": "",
      "postcode": "4990-712",
      "city": "REFÓIOS DO LIMA",
      "lon": "-8.557851321079914",
      "lat": "41.77866610527141"
    },
    {
      "id": "pt.ine.add.PTCONT.5162566",
      "street": "",
      "house": "",
      "postcode": "4990-712",
      "city": "REFÓIOS DO LIMA",
      "lon": "-8.556922499677327",
      "lat": "41.77826438306589"
    },
    {
      "id": "pt.ine.add.PTCONT.5165335",
      "street": "",
      "house": "",
      "postcode": "4990-712",
      "city": "REFÓIOS DO LIMA",
      "lon": "-8.558580445073105",
      "lat": "41.77797014667127"
    },
    {
      "id": "pt.ine.add.PTCONT.5176023",
      "street": "",
      "house": "",
      "postcode": "4990-712",
      "city": "REFÓIOS DO LIMA",
      "lon": "-8.55755712868575",
      "lat": "41.777829877665404"
    },
    {
      "id": "pt.ine.add.PTCONT.5177289",
      "street": "NACEIROS REFOIOS LIMA",
      "house": "",
      "postcode": "4990-712",
      "city": "REFÓIOS DO LIMA",
      "lon": "-8.557398927451278",
      "lat": "41.77755135704163"
    },
    {
      "id": "pt.ine.add.PTCONT.5178438",
      "street": "",
      "house": "",
      "postcode": "4990-712",
      "city": "REFÓIOS DO LIMA",
      "lon": "-8.55774152513016",
      "lat": "41.7784324231237"
    },
    {
      "id": "pt.ine.add.PTCONT.5188136",
      "street": "",
      "house": "",
      "postcode": "4990-712",
      "city": "REFÓIOS DO LIMA",
      "lon": "-8.557169391655593",
      "lat": "41.77739914693044"
    },
    {
      "id": "pt.ine.add.PTCONT.5197956",
      "street": "",
      "house": "",
      "postcode": "4990-712",
      "city": "REFÓIOS DO LIMA",
      "lon": "-8.557248498696625",
      "lat": "41.778452251105065"
    },
    {
      "id": "pt.ine.add.PTCONT.5211520",
      "street": "",
      "house": "",
      "postcode": "4990-712",
      "city": "REFÓIOS DO LIMA",
      "lon": "-8.556834274405",
      "lat": "41.7776524782247"
    },
    {
      "id": "pt.ine.add.PTCONT.5223989",
      "street": "",
      "house": "",
      "postcode": "4990-712",
      "city": "REFÓIOS DO LIMA",
      "lon": "-8.557328956177274",
      "lat": "41.77788474073415"
    },
    {
      "id": "pt.ine.add.PTCONT.5233667",
      "street": "",
      "house": "",
      "postcode": "4990-712",
      "city": "REFÓIOS DO LIMA",
      "lon": "-8.5580291850519",
      "lat": "41.778278301994256"
    },
    {
      "id": "pt.ine.add.PTCONT.5239510",
      "street": "",
      "house": "",
      "postcode": "4990-712",
      "city": "REFÓIOS DO LIMA",
      "lon": "-8.557593983946738",
      "lat": "41.77794678552035"
    },
    {
      "id": "pt.ine.add.PTCONT.5241753",
      "street": "",
      "house": "",
      "postcode": "4990-712",
      "city": "REFÓIOS DO LIMA",
      "lon": "-8.557268283121953",
      "lat": "41.7778039342751"
    },
    {
      "id": "pt.ine.add.PTCONT.5281627",
      "street": "",
      "house": "",
      "postcode": "4990-712",
      "city": "REFÓIOS DO LIMA",
      "lon": "-8.557724864833217",
      "lat": "41.77773022059553"
    }
  ]
}