{
  "data": {
    "distrito": "Lisboa",
    "concelho": "Torres Vedras",
    "freguesia": "Ventosa",
    "OBJECTID": 2056,
    "BGRI2021": "11131800215",
    "DT21": "11",
    "DTMN21": "1113",
    "DTMNFR21": "111318",
    "DTMNFRSEC21": "111318002",
    "SECNUM21": "002",
    "SSNUM21": "15",
    "SECSSNUM21": "00215",
    "OBJECTID_1": 115750,
    "DT": "11",
    "CC": "13",
    "fr": "18",
    "SEC": "002",
    "SS": "15"
  },
  "addresses": [
    {
      "id": "pt.ine.add.PTCONT.2284716",
      "street": "AV 15 DE AGOSTO",
      "house": "24",
      "postcode": "2565-827",
      "city": "VENTOSA TVD",
      "lon": "-9.319214575564622",
      "lat": "39.045369256717244"
    },
    {
      "id": "pt.ine.add.PTCONT.2325171",
      "street": "CSL SERRA DA MURTEIRA",
      "house": "4",
      "postcode": "2565-827",
      "city": "VENTOSA TVD",
      "lon": "-9.318293590449358",
      "lat": "39.0490085528656"
    },
    {
      "id": "pt.ine.add.PTCONT.2329680",
      "street": "AV AS DE AGOSTO",
      "house": "66",
      "postcode": "2565-827",
      "city": "VENTOSA TVD",
      "lon": "-9.320943512379484",
      "lat": "39.04928783903063"
    },
    {
      "id": "pt.ine.add.PTCONT.2346178",
      "street": "R BELA VISTA",
      "house": "",
      "postcode": "2565-827",
      "city": "VENTOSA TVD",
      "lon": "-9.320037606845183",
      "lat": "39.04623458911899"
    },
    {
      "id": "pt.ine.add.PTCONT.2372809",
      "street": "AV 15 DE AGOSTO",
      "house": "56",
      "postcode": "2565-827",
      "city": "VENTOSA TVD",
      "lon": "-9.32101002507475",
      "lat": "39.04843147057938"
    },
    {
      "id": "pt.ine.add.PTCONT.2372810",
      "street": "AV 15 DE AGOSTO",
      "house": "",
      "postcode": "2565-827",
      "city": "VENTOSA TVD",
      "lon": "-9.3202154538942",
      "lat": "39.04581844412479"
    },
    {
      "id": "pt.ine.add.PTCONT.2391900",
      "street": "R CAPELA",
      "house": "2",
      "postcode": "2565-827",
      "city": "VENTOSA TVD",
      "lon": "-9.319378365311069",
      "lat": "39.04342201808535"
    },
    {
      "id": "pt.ine.add.PTCONT.2428668",
      "street": "R LAGE",
      "house": "4",
      "postcode": "2565-827",
      "city": "VENTOSA TVD",
      "lon": "-9.320103655702717",
      "lat": "39.04768243017455"
    },
    {
      "id": "pt.ine.add.PTCONT.2428669",
      "street": "CSL SERRA DA MURTEIRA",
      "house": "1",
      "postcode": "2565-827",
      "city": "VENTOSA TVD",
      "lon": "-9.317775489954679",
      "lat": "39.048419336948456"
    },
    {
      "id": "pt.ine.add.PTCONT.2475027",
      "street": "R SANTO ANTÓNIO",
      "house": "9",
      "postcode": "2565-827",
      "city": "VENTOSA TVD",
      "lon": "-9.320936204031417",
      "lat": "39.04816200428908"
    },
    {
      "id": "pt.ine.add.PTCONT.2484051",
      "street": "R LAGE",
      "house": "2",
      "postcode": "2565-827",
      "city": "VENTOSA TVD",
      "lon": "-9.319919688789021",
      "lat": "39.04747178844901"
    },
    {
      "id": "pt.ine.add.PTCONT.2489636",
      "street": "CSL SERRA DA MURTEIRA",
      "house": "6",
      "postcode": "2565-827",
      "city": "VENTOSA TVD",
      "lon": "-9.318364542260818",
      "lat": "39.049106911786765"
    },
    {
      "id": "pt.ine.add.PTCONT.2489637",
      "street": "AV 15 DE AGOSTO",
      "house": "6",
      "postcode": "2565-827",
      "city": "VENTOSA TVD",
      "lon": "-9.320025849880826",
      "lat": "39.04553214107087"
    },
    {
      "id": "pt.ine.add.PTCONT.2548430",
      "street": "R SANTO ANTÓNIO",
      "house": "8",
      "postcode": "2565-827",
      "city": "VENTOSA TVD",
      "lon": "-9.320846676738197",
      "lat": "39.04833405434918"
    },
    {
      "id": "pt.ine.add.PTCONT.2557234",
      "street": "TV LEOES",
      "house": "4",
      "postcode": "2565-827",
      "city": "VENTOSA TVD",
      "lon": "-9.320732779056277",
      "lat": "39.04774073419309"
    },
    {
      "id": "pt.ine.add.PTCONT.2646865",
      "street": "R SANTO ANTÓNIO",
      "house": "3",
      "postcode": "2565-827",
      "city": "VENTOSA TVD",
      "lon": "-9.31948718553878",
      "lat": "39.048546052601914"
    },
    {
      "id": "pt.ine.add.PTCONT.2650517",
      "street": "R OUTEIRO",
      "house": "4",
      "postcode": "2565-827",
      "city": "VENTOSA TVD",
      "lon": "-9.3189889284995",
      "lat": "39.044308692355216"
    },
    {
      "id": "pt.ine.add.PTCONT.2679826",
      "street": "R LAJE",
      "house": "5",
      "postcode": "2565-827",
      "city": "VENTOSA TVD",
      "lon": "-9.320517505918044",
      "lat": "39.04730156978564"
    },
    {
      "id": "pt.ine.add.PTCONT.2715405",
      "street": "CSL SERRA DA MURTEIRA",
      "house": "12",
      "postcode": "2565-827",
      "city": "VENTOSA TVD",
      "lon": "-9.319323739549306",
      "lat": "39.049133188081605"
    },
    {
      "id": "pt.ine.add.PTCONT.2734906",
      "street": "AV 15 DE AGOSTO",
      "house": "52",
      "postcode": "2565-827",
      "city": "VENTOSA TVD",
      "lon": "-9.32100730945769",
      "lat": "39.04826936730984"
    },
    {
      "id": "pt.ine.add.PTCONT.2758578",
      "street": "AV 15 DE AGOSTO",
      "house": "40",
      "postcode": "2565-827",
      "city": "VENTOSA TVD",
      "lon": "-9.320880202138172",
      "lat": "39.04757710182597"
    },
    {
      "id": "pt.ine.add.PTCONT.2762720",
      "street": "R SANTO ANTÓNIO",
      "house": "",
      "postcode": "2565-827",
      "city": "VENTOSA TVD",
      "lon": "-9.320596063082938",
      "lat": "39.04854377383167"
    },
    {
      "id": "pt.ine.add.PTCONT.2783564",
      "street": "R LAGE",
      "house": "8",
      "postcode": "2565-827",
      "city": "VENTOSA TVD",
      "lon": "-9.320754054063164",
      "lat": "39.04756060351494"
    },
    {
      "id": "pt.ine.add.PTCONT.2803593",
      "street": "AV 15 DE AGOSTO",
      "house": "28",
      "postcode": "2565-827",
      "city": "VENTOSA TVD",
      "lon": "-9.320427012305183",
      "lat": "39.04672602546095"
    },
    {
      "id": "pt.ine.add.PTCONT.2833221",
      "street": "AV 15 DE AGOSTO",
      "house": "20",
      "postcode": "2565-827",
      "city": "VENTOSA TVD",
      "lon": "-9.319214575564622",
      "lat": "39.045369256717244"
    },
    {
      "id": "pt.ine.add.PTCONT.2848814",
      "street": "AV 15 DE AGOSTO",
      "house": "10",
      "postcode": "2565-827",
      "city": "VENTOSA TVD",
      "lon": "-9.32017794329875",
      "lat": "39.04564768765652"
    },
    {
      "id": "pt.ine.add.PTCONT.2885510",
      "street": "AV 15 DE AGOSTO",
      "house": "38",
      "postcode": "2565-827",
      "city": "VENTOSA TVD",
      "lon": "-9.320831441540125",
      "lat": "39.047424474762714"
    },
    {
      "id": "pt.ine.add.PTCONT.2885511",
      "street": "AV 15 DE AGOSTO",
      "house": "20",
      "postcode": "2565-827",
      "city": "VENTOSA TVD",
      "lon": "-9.320617613540616",
      "lat": "39.046381808258516"
    },
    {
      "id": "pt.ine.add.PTCONT.2892143",
      "street": "AV 15 DE AGOSTO",
      "house": "34",
      "postcode": "2565-827",
      "city": "VENTOSA TVD",
      "lon": "-9.320815970705816",
      "lat": "39.04719044315922"
    },
    {
      "id": "pt.ine.add.PTCONT.2915487",
      "street": "R SANTO ANTÓNIO",
      "house": "7",
      "postcode": "2565-827",
      "city": "VENTOSA TVD",
      "lon": "-9.320855812371828",
      "lat": "39.048189844917175"
    },
    {
      "id": "pt.ine.add.PTCONT.2924312",
      "street": "R SERRALHEIRA",
      "house": "11",
      "postcode": "2565-843",
      "city": "VENTOSA TVD",
      "lon": "-9.316722831315571",
      "lat": "39.043485028630926"
    },
    {
      "id": "pt.ine.add.PTCONT.2931378",
      "street": "R BELA VISTA",
      "house": "2",
      "postcode": "2565-827",
      "city": "VENTOSA TVD",
      "lon": "-9.319885512367962",
      "lat": "39.04611904237768"
    },
    {
      "id": "pt.ine.add.PTCONT.2950614",
      "street": "R OUTEIRO",
      "house": "4",
      "postcode": "2565-833",
      "city": "VENTOSA TVD",
      "lon": "-9.319340858139428",
      "lat": "39.04325126122799"
    },
    {
      "id": "pt.ine.add.PTCONT.2968405",
      "street": "AV 15 DE AGOSTO",
      "house": "26",
      "postcode": "2565-827",
      "city": "VENTOSA TVD",
      "lon": "-9.320703583557618",
      "lat": "39.046687180234855"
    },
    {
      "id": "pt.ine.add.PTCONT.2970080",
      "street": "CSL SERRA DA MURTEIRA",
      "house": "22",
      "postcode": "2565-827",
      "city": "VENTOSA TVD",
      "lon": "-9.319008593859262",
      "lat": "39.04893823321546"
    },
    {
      "id": "pt.ine.add.PTCONT.2995517",
      "street": "R DA BELA VISTA",
      "house": "4",
      "postcode": "2565-827",
      "city": "VENTOSA TVD",
      "lon": "-9.320189551064992",
      "lat": "39.04634112990897"
    },
    {
      "id": "pt.ine.add.PTCONT.3014239",
      "street": "CSL SERRA DA MURTEIRA",
      "house": "20",
      "postcode": "2565-827",
      "city": "VENTOSA TVD",
      "lon": "-9.318686869606",
      "lat": "39.0490405844279"
    },
    {
      "id": "pt.ine.add.PTCONT.3041234",
      "street": "CSL SERRA DA MURTEIRA",
      "house": "14",
      "postcode": "2565-827",
      "city": "VENTOSA TVD",
      "lon": "-9.31909350595353",
      "lat": "39.04918056611138"
    },
    {
      "id": "pt.ine.add.PTCONT.3088927",
      "street": "AV 15 DE AGOSTO",
      "house": "",
      "postcode": "2565-827",
      "city": "VENTOSA TVD",
      "lon": "-9.320806080886113",
      "lat": "39.047289623914295"
    },
    {
      "id": "pt.ine.add.PTCONT.3090821",
      "street": "R SERRALHEIRA",
      "house": "3",
      "postcode": "2565-841",
      "city": "VENTOSA TVD",
      "lon": "-9.317207084311526",
      "lat": "39.04274151559873"
    },
    {
      "id": "pt.ine.add.PTCONT.3099563",
      "street": "R SERRALHEIRA",
      "house": "1",
      "postcode": "2565-843",
      "city": "VENTOSA TVD",
      "lon": "-9.317377150971458",
      "lat": "39.04255063577814"
    },
    {
      "id": "pt.ine.add.PTCONT.3116242",
      "street": "TV LEOES",
      "house": "2",
      "postcode": "2565-827",
      "city": "VENTOSA TVD",
      "lon": "-9.320540666834072",
      "lat": "39.04799489416109"
    },
    {
      "id": "pt.ine.add.PTCONT.3191215",
      "street": "AV 15 DE AGOSTO",
      "house": "48",
      "postcode": "2565-827",
      "city": "VENTOSA TVD",
      "lon": "-9.320956737758157",
      "lat": "39.048008671475465"
    },
    {
      "id": "pt.ine.add.PTCONT.3191219",
      "street": "TV LEOES",
      "house": "3",
      "postcode": "2565-827",
      "city": "VENTOSA TVD",
      "lon": "-9.320526554016206",
      "lat": "39.047841914185106"
    },
    {
      "id": "pt.ine.add.PTCONT.3197530",
      "street": "AV 15 DE AGOSTO",
      "house": "58",
      "postcode": "2565-827",
      "city": "VENTOSA TVD",
      "lon": "-9.320999984530703",
      "lat": "39.04852164559172"
    },
    {
      "id": "pt.ine.add.PTCONT.3197702",
      "street": "AV 15 DE AGOSTO",
      "house": "4",
      "postcode": "2565-827",
      "city": "VENTOSA TVD",
      "lon": "-9.31996569462824",
      "lat": "39.04538863682474"
    },
    {
      "id": "pt.ine.add.PTCONT.3206037",
      "street": "R CAPELA",
      "house": "3",
      "postcode": "2565-827",
      "city": "VENTOSA TVD",
      "lon": "-9.319399955755728",
      "lat": "39.04333172564468"
    },
    {
      "id": "pt.ine.add.PTCONT.3238710",
      "street": "AV 15 DE AGOSTO",
      "house": "64",
      "postcode": "2565-827",
      "city": "VENTOSA TVD",
      "lon": "-9.320985787194273",
      "lat": "39.049053219333004"
    },
    {
      "id": "pt.ine.add.PTCONT.3246150",
      "street": "TV LEOES",
      "house": "44B",
      "postcode": "2565-827",
      "city": "VENTOSA TVD",
      "lon": "-9.320921034337035",
      "lat": "39.047945984212646"
    },
    {
      "id": "pt.ine.add.PTCONT.3246151",
      "street": "TV LEOES",
      "house": "44A",
      "postcode": "2565-827",
      "city": "VENTOSA TVD",
      "lon": "-9.320921034337035",
      "lat": "39.047945984212646"
    },
    {
      "id": "pt.ine.add.PTCONT.3261656",
      "street": "R OUTEIRO",
      "house": "12",
      "postcode": "2565-827",
      "city": "VENTOSA TVD",
      "lon": "-9.319728541906477",
      "lat": "39.04502175163139"
    },
    {
      "id": "pt.ine.add.PTCONT.3292014",
      "street": "CSL SERRA DA MURTEIRA",
      "house": "16",
      "postcode": "2565-827",
      "city": "VENTOSA TVD",
      "lon": "-9.318851873284034",
      "lat": "39.049237066865274"
    },
    {
      "id": "pt.ine.add.PTCONT.3320234",
      "street": "AV 15 DE AGOSTO",
      "house": "24",
      "postcode": "2565-827",
      "city": "VENTOSA TVD",
      "lon": "-9.320678374261625",
      "lat": "39.04656133507508"
    },
    {
      "id": "pt.ine.add.PTCONT.3338566",
      "street": "AV 15 DE AGOSTO",
      "house": "12",
      "postcode": "2565-827",
      "city": "VENTOSA TVD",
      "lon": "-9.320214398622808",
      "lat": "39.04575540391849"
    },
    {
      "id": "pt.ine.add.PTCONT.3349179",
      "street": "AV 15 DE AGOSTO",
      "house": "14",
      "postcode": "2565-827",
      "city": "VENTOSA TVD",
      "lon": "-9.319214575564622",
      "lat": "39.045369256717244"
    },
    {
      "id": "pt.ine.add.PTCONT.3356417",
      "street": "AV 15 AGOSTO",
      "house": "",
      "postcode": "2565-827",
      "city": "VENTOSA TVD",
      "lon": "-9.320277569943624",
      "lat": "39.046079022879724"
    },
    {
      "id": "pt.ine.add.PTCONT.3366166",
      "street": "R LAGE",
      "house": "6",
      "postcode": "2565-827",
      "city": "VENTOSA TVD",
      "lon": "-9.320328929965576",
      "lat": "39.04746314816093"
    },
    {
      "id": "pt.ine.add.PTCONT.3384881",
      "street": "AV 15 DE AGOSTO",
      "house": "",
      "postcode": "2565-827",
      "city": "VENTOSA TVD",
      "lon": "-9.320871265689274",
      "lat": "39.04980198941081"
    },
    {
      "id": "pt.ine.add.PTCONT.3393064",
      "street": "R ULMEIRADA",
      "house": "",
      "postcode": "2565-827",
      "city": "VENTOSA TVD",
      "lon": "-9.320677726373043",
      "lat": "39.0492815386689"
    },
    {
      "id": "pt.ine.add.PTCONT.3393065",
      "street": "R CAPELA",
      "house": "5",
      "postcode": "2565-833",
      "city": "VENTOSA TVD",
      "lon": "-9.31964126662295",
      "lat": "39.043257212518895"
    },
    {
      "id": "pt.ine.add.PTCONT.3422342",
      "street": "AV 15 DE AGOSTO",
      "house": "68",
      "postcode": "2565-827",
      "city": "VENTOSA TVD",
      "lon": "-9.321259942532324",
      "lat": "39.0502483936126"
    },
    {
      "id": "pt.ine.add.PTCONT.3422348",
      "street": "AV 15 DE AGOSTO",
      "house": "26",
      "postcode": "2565-827",
      "city": "VENTOSA TVD",
      "lon": "-9.319214575564622",
      "lat": "39.045369256717244"
    },
    {
      "id": "pt.ine.add.PTCONT.3429567",
      "street": "CSL SERRA DA MURTEIRA",
      "house": "10",
      "postcode": "2565-827",
      "city": "VENTOSA TVD",
      "lon": "-9.319063376682829",
      "lat": "39.049451090732106"
    },
    {
      "id": "pt.ine.add.PTCONT.3448772",
      "street": "R LAGE",
      "house": "",
      "postcode": "2565-827",
      "city": "VENTOSA TVD",
      "lon": "-9.319892802995245",
      "lat": "39.04724487783434"
    }
  ]
}