{
  "data": {
    "distrito": "Faro",
    "concelho": "Tavira",
    "freguesia": "União das freguesias de Conceição e Cabanas de Tavira",
    "OBJECTID": 712,
    "BGRI2021": "08141000509",
    "DT21": "08",
    "DTMN21": "0814",
    "DTMNFR21": "081410",
    "DTMNFRSEC21": "081410005",
    "SECNUM21": "005",
    "SSNUM21": "09",
    "SECSSNUM21": "00509",
    "OBJECTID_1": 73513,
    "DT": "08",
    "CC": "14",
    "fr": "10",
    "SEC": "005",
    "SS": "09"
  },
  "addresses": [
    {
      "id": "pt.ine.add.PTCONT.1494728",
      "street": "R ESTANCO VELHO",
      "house": "18",
      "postcode": "8800-075",
      "city": "CONCEIÇÃO TVR",
      "lon": "-7.599822660808354",
      "lat": "37.14747973561442"
    },
    {
      "id": "pt.ine.add.PTCONT.1579610",
      "street": "SIT GOMEIRA",
      "house": "480S",
      "postcode": "8800-062",
      "city": "CONCEIÇÃO TVR",
      "lon": "-7.5978365495139935",
      "lat": "37.146596764936234"
    },
    {
      "id": "pt.ine.add.PTCONT.1615785",
      "street": "SIT CASCALHAO CASA DA PALMEIRA",
      "house": "390-S",
      "postcode": "8800-058",
      "city": "CONCEIÇÃO TVR",
      "lon": "-7.596161797942069",
      "lat": "37.14785065859693"
    },
    {
      "id": "pt.ine.add.PTCONT.1674782",
      "street": "",
      "house": "",
      "postcode": "8800-058",
      "city": "CONCEIÇÃO TVR",
      "lon": "-7.595745141436227",
      "lat": "37.14787580176585"
    },
    {
      "id": "pt.ine.add.PTCONT.1675830",
      "street": "R ESTANCO VELHO",
      "house": "",
      "postcode": "8800-075",
      "city": "CONCEIÇÃO TVR",
      "lon": "-7.5975367234892035",
      "lat": "37.14761359615026"
    },
    {
      "id": "pt.ine.add.PTCONT.1682995",
      "street": "R MARIA CUSTODIA",
      "house": "",
      "postcode": "8800-055",
      "city": "CONCEIÇÃO TVR",
      "lon": "-7.599962979668938",
      "lat": "37.14673249593283"
    },
    {
      "id": "pt.ine.add.PTCONT.1682996",
      "street": "R MARIA CUSTODIA",
      "house": "",
      "postcode": "8800-055",
      "city": "CONCEIÇÃO TVR",
      "lon": "-7.599962979668938",
      "lat": "37.14673249593283"
    },
    {
      "id": "pt.ine.add.PTCONT.1682997",
      "street": "R MARIA CUSTODIA",
      "house": "",
      "postcode": "8800-055",
      "city": "CONCEIÇÃO TVR",
      "lon": "-7.599962979668938",
      "lat": "37.14673249593283"
    },
    {
      "id": "pt.ine.add.PTCONT.1682998",
      "street": "R MARIA CUSTODIA",
      "house": "",
      "postcode": "8800-055",
      "city": "CONCEIÇÃO TVR",
      "lon": "-7.599962979668938",
      "lat": "37.14673249593283"
    },
    {
      "id": "pt.ine.add.PTCONT.1682999",
      "street": "R MARIA CUSTODIA",
      "house": "",
      "postcode": "8800-055",
      "city": "CONCEIÇÃO TVR",
      "lon": "-7.599962979668938",
      "lat": "37.14673249593283"
    },
    {
      "id": "pt.ine.add.PTCONT.1683000",
      "street": "R MARIA CUSTODIA",
      "house": "",
      "postcode": "8800-055",
      "city": "CONCEIÇÃO TVR",
      "lon": "-7.599962979668938",
      "lat": "37.14673249593283"
    },
    {
      "id": "pt.ine.add.PTCONT.1683001",
      "street": "R MARIA CUSTODIA",
      "house": "",
      "postcode": "8800-055",
      "city": "CONCEIÇÃO TVR",
      "lon": "-7.599962979668938",
      "lat": "37.14673249593283"
    },
    {
      "id": "pt.ine.add.PTCONT.1683411",
      "street": "R MARIA CUSTODIA",
      "house": "",
      "postcode": "8800-055",
      "city": "CONCEIÇÃO TVR",
      "lon": "-7.599962979668938",
      "lat": "37.14673249593283"
    },
    {
      "id": "pt.ine.add.PTCONT.1791696",
      "street": "R MARIA CUSTODIA",
      "house": "",
      "postcode": "8800-055",
      "city": "CONCEIÇÃO TVR",
      "lon": "-7.599973476375485",
      "lat": "37.14684066907389"
    },
    {
      "id": "pt.ine.add.PTCONT.1791697",
      "street": "R MARIA CUSTODIA",
      "house": "",
      "postcode": "8800-055",
      "city": "CONCEIÇÃO TVR",
      "lon": "-7.599973476375485",
      "lat": "37.14684066907389"
    },
    {
      "id": "pt.ine.add.PTCONT.1791698",
      "street": "R MARIA CUSTODIA",
      "house": "",
      "postcode": "8800-055",
      "city": "CONCEIÇÃO TVR",
      "lon": "-7.599973476375485",
      "lat": "37.14684066907389"
    },
    {
      "id": "pt.ine.add.PTCONT.1791699",
      "street": "R MARIA CUSTODIA",
      "house": "",
      "postcode": "8800-055",
      "city": "CONCEIÇÃO TVR",
      "lon": "-7.599973476375485",
      "lat": "37.14684066907389"
    },
    {
      "id": "pt.ine.add.PTCONT.1791700",
      "street": "R MARIA CUSTODIA",
      "house": "",
      "postcode": "8800-055",
      "city": "CONCEIÇÃO TVR",
      "lon": "-7.599973476375485",
      "lat": "37.14684066907389"
    },
    {
      "id": "pt.ine.add.PTCONT.1791701",
      "street": "R MARIA CUSTODIA",
      "house": "",
      "postcode": "8800-055",
      "city": "CONCEIÇÃO TVR",
      "lon": "-7.599973476375485",
      "lat": "37.14684066907389"
    },
    {
      "id": "pt.ine.add.PTCONT.1791702",
      "street": "R MARIA CUSTODIA",
      "house": "",
      "postcode": "8800-055",
      "city": "CONCEIÇÃO TVR",
      "lon": "-7.599973476375485",
      "lat": "37.14684066907389"
    },
    {
      "id": "pt.ine.add.PTCONT.1791892",
      "street": "R MARIA CUSTODIA",
      "house": "",
      "postcode": "8800-055",
      "city": "CONCEIÇÃO TVR",
      "lon": "-7.599973476375485",
      "lat": "37.14684066907389"
    }
  ]
}