{
  "data": {
    "distrito": "Guarda",
    "concelho": "Vila Nova de Foz Côa",
    "freguesia": "Vila Nova de Foz Côa",
    "OBJECTID": 277,
    "BGRI2021": "09141900304",
    "DT21": "09",
    "DTMN21": "0914",
    "DTMNFR21": "091419",
    "DTMNFRSEC21": "091419003",
    "SECNUM21": "003",
    "SSNUM21": "04",
    "SECSSNUM21": "00304",
    "OBJECTID_1": 83590,
    "DT": "09",
    "CC": "14",
    "fr": "19",
    "SEC": "003",
    "SS": "04"
  },
  "addresses": [
    {
      "id": "pt.ine.add.PTCONT.1919635",
      "street": "LG DR JORGE CALDEIRA",
      "house": "20",
      "postcode": "5150-615",
      "city": "VILA NOVA DE FOZ CÔA",
      "lon": "-7.136173196512813",
      "lat": "41.081896776529085"
    },
    {
      "id": "pt.ine.add.PTCONT.1920551",
      "street": "R DOS MOINHOS",
      "house": "11",
      "postcode": "5150-635",
      "city": "VILA NOVA DE FOZ CÔA",
      "lon": "-7.136362757430791",
      "lat": "41.08195244246946"
    },
    {
      "id": "pt.ine.add.PTCONT.1935597",
      "street": "LG DR JORGE CALDEIRA",
      "house": "26",
      "postcode": "5150-615",
      "city": "VILA NOVA DE FOZ CÔA",
      "lon": "-7.136254581784272",
      "lat": "41.08202354115142"
    },
    {
      "id": "pt.ine.add.PTCONT.1935598",
      "street": "R DA CAMPANHA",
      "house": "10",
      "postcode": "5150-557",
      "city": "VILA NOVA DE FOZ CÔA",
      "lon": "-7.135578540340871",
      "lat": "41.081873621070294"
    },
    {
      "id": "pt.ine.add.PTCONT.1953683",
      "street": "R MAJOR CALDEIRA",
      "house": "12",
      "postcode": "5150-555",
      "city": "VILA NOVA DE FOZ CÔA",
      "lon": "-7.136174421074891",
      "lat": "41.08181574825527"
    },
    {
      "id": "pt.ine.add.PTCONT.1974360",
      "street": "R MAJOR CALDEIRA",
      "house": "6",
      "postcode": "5150-555",
      "city": "VILA NOVA DE FOZ CÔA",
      "lon": "-7.135938491377413",
      "lat": "41.08167864184208"
    },
    {
      "id": "pt.ine.add.PTCONT.1883351",
      "street": "R DO PICADEIRO",
      "house": "1",
      "postcode": "5150-657",
      "city": "VILA NOVA DE FOZ CÔA",
      "lon": "-7.136170203117817",
      "lat": "41.08209484563792"
    },
    {
      "id": "pt.ine.add.PTCONT.1887766",
      "street": "R MAJOR CALDEIRA",
      "house": "8",
      "postcode": "5150-555",
      "city": "VILA NOVA DE FOZ CÔA",
      "lon": "-7.136056660219909",
      "lat": "41.081733690395964"
    },
    {
      "id": "pt.ine.add.PTCONT.1887767",
      "street": "R MAJ CALDEIRA",
      "house": "10",
      "postcode": "5150-555",
      "city": "VILA NOVA DE FOZ CÔA",
      "lon": "-7.136056660219909",
      "lat": "41.081733690395964"
    },
    {
      "id": "pt.ine.add.PTCONT.1898001",
      "street": "R DA CAMPANHA",
      "house": "18",
      "postcode": "5150-557",
      "city": "VILA NOVA DE FOZ CÔA",
      "lon": "-7.135771367489606",
      "lat": "41.0817132126112"
    }
  ]
}