{
  "data": {
    "distrito": "Porto",
    "concelho": "Baião",
    "freguesia": "Santa Marinha do Zêzere",
    "OBJECTID": 209,
    "BGRI2021": "13021500207",
    "DT21": "13",
    "DTMN21": "1302",
    "DTMNFR21": "130215",
    "DTMNFRSEC21": "130215002",
    "SECNUM21": "002",
    "SSNUM21": "07",
    "SECSSNUM21": "00207",
    "OBJECTID_1": 126981,
    "DT": "13",
    "CC": "02",
    "fr": "15",
    "SEC": "002",
    "SS": "07"
  },
  "addresses": [
    {
      "id": "pt.ine.add.PTCONT.3572264",
      "street": "R REAL",
      "house": "124",
      "postcode": "4640-460",
      "city": "SANTA MARINHA DO ZÊZERE",
      "lon": "-7.9530298185400214",
      "lat": "41.15235960686573"
    },
    {
      "id": "pt.ine.add.PTCONT.3585061",
      "street": "R REAL",
      "house": "97",
      "postcode": "4640-460",
      "city": "SANTA MARINHA DO ZÊZERE",
      "lon": "-7.952502678926162",
      "lat": "41.15343930839534"
    },
    {
      "id": "pt.ine.add.PTCONT.3591571",
      "street": "R REAL",
      "house": "180",
      "postcode": "4640-460",
      "city": "SANTA MARINHA DO ZÊZERE",
      "lon": "-7.9534330675802964",
      "lat": "41.1530175570547"
    },
    {
      "id": "pt.ine.add.PTCONT.3617986",
      "street": "R REAL",
      "house": "73",
      "postcode": "4640-460",
      "city": "SANTA MARINHA DO ZÊZERE",
      "lon": "-7.952887157848527",
      "lat": "41.152251331066125"
    },
    {
      "id": "pt.ine.add.PTCONT.3623699",
      "street": "R CAMPO",
      "house": "",
      "postcode": "4640-463",
      "city": "SANTA MARINHA DO ZÊZERE",
      "lon": "-7.954904434482667",
      "lat": "41.15078675352196"
    },
    {
      "id": "pt.ine.add.PTCONT.3687904",
      "street": "R CAMPO",
      "house": "6",
      "postcode": "4640-463",
      "city": "SANTA MARINHA DO ZÊZERE",
      "lon": "-7.953312625490738",
      "lat": "41.1491364757652"
    },
    {
      "id": "pt.ine.add.PTCONT.3706745",
      "street": "R CAMPO",
      "house": "",
      "postcode": "4640-463",
      "city": "SANTA MARINHA DO ZÊZERE",
      "lon": "-7.954048264712889",
      "lat": "41.15459428301634"
    },
    {
      "id": "pt.ine.add.PTCONT.3714481",
      "street": "R CAMPO",
      "house": "",
      "postcode": "4640-463",
      "city": "SANTA MARINHA DO ZÊZERE",
      "lon": "-7.9539888444979745",
      "lat": "41.154540164309545"
    },
    {
      "id": "pt.ine.add.PTCONT.3714483",
      "street": "R REAL",
      "house": "",
      "postcode": "4640-460",
      "city": "SANTA MARINHA DO ZÊZERE",
      "lon": "-7.952957970500066",
      "lat": "41.152494560386586"
    },
    {
      "id": "pt.ine.add.PTCONT.3721010",
      "street": "R REAL",
      "house": "164",
      "postcode": "4640-460",
      "city": "SANTA MARINHA DO ZÊZERE",
      "lon": "-7.953337442451857",
      "lat": "41.153134464927696"
    },
    {
      "id": "pt.ine.add.PTCONT.3739414",
      "street": "CAM REAL",
      "house": "47",
      "postcode": "4640-460",
      "city": "SANTA MARINHA DO ZÊZERE",
      "lon": "-7.9528529725546395",
      "lat": "41.151684000911295"
    },
    {
      "id": "pt.ine.add.PTCONT.3759695",
      "street": "R 20 JUNHO",
      "house": "3091",
      "postcode": "4640-475",
      "city": "SANTA MARINHA DO ZÊZERE",
      "lon": "-7.9529333554595745",
      "lat": "41.15278266238359"
    },
    {
      "id": "pt.ine.add.PTCONT.3842247",
      "street": "R VINHAS DE REAL",
      "house": "347",
      "postcode": "4640-460",
      "city": "SANTA MARINHA DO ZÊZERE",
      "lon": "-7.952427889468437",
      "lat": "41.150305662818205"
    },
    {
      "id": "pt.ine.add.PTCONT.3888547",
      "street": "R REAL",
      "house": "312",
      "postcode": "4640-460",
      "city": "SANTA MARINHA DO ZÊZERE",
      "lon": "-7.9531856975314845",
      "lat": "41.15199067040342"
    },
    {
      "id": "pt.ine.add.PTCONT.3888548",
      "street": "R REAL",
      "house": "302",
      "postcode": "4640-460",
      "city": "SANTA MARINHA DO ZÊZERE",
      "lon": "-7.9531856975314845",
      "lat": "41.15199067040342"
    },
    {
      "id": "pt.ine.add.PTCONT.3893505",
      "street": "R VINHAS DE REAL",
      "house": "423",
      "postcode": "4640-460",
      "city": "SANTA MARINHA DO ZÊZERE",
      "lon": "-7.952355696231905",
      "lat": "41.15056667698366"
    },
    {
      "id": "pt.ine.add.PTCONT.3910630",
      "street": "R REAL",
      "house": "322",
      "postcode": "4640-460",
      "city": "SANTA MARINHA DO ZÊZERE",
      "lon": "-7.9533408614744365",
      "lat": "41.15188285995467"
    },
    {
      "id": "pt.ine.add.PTCONT.3956659",
      "street": "R VINHAS DE REAL",
      "house": "447",
      "postcode": "4640-460",
      "city": "SANTA MARINHA DO ZÊZERE",
      "lon": "-7.952342893155249",
      "lat": "41.1508908150569"
    },
    {
      "id": "pt.ine.add.PTCONT.3962264",
      "street": "R 20 JUNHO",
      "house": "3123",
      "postcode": "4640-475",
      "city": "SANTA MARINHA DO ZÊZERE",
      "lon": "-7.952479297318644",
      "lat": "41.153277192725895"
    },
    {
      "id": "pt.ine.add.PTCONT.3962265",
      "street": "R 20 JUNHO",
      "house": "3123",
      "postcode": "4640-475",
      "city": "SANTA MARINHA DO ZÊZERE",
      "lon": "-7.952479297318644",
      "lat": "41.153277192725895"
    },
    {
      "id": "pt.ine.add.PTCONT.3979443",
      "street": "R VINHAS DE REAL",
      "house": "347",
      "postcode": "4640-460",
      "city": "SANTA MARINHA DO ZÊZERE",
      "lon": "-7.9522736679263915",
      "lat": "41.15007130656803"
    },
    {
      "id": "pt.ine.add.PTCONT.3991668",
      "street": "R CAMPO",
      "house": "270",
      "postcode": "4640-463",
      "city": "SANTA MARINHA DO ZÊZERE",
      "lon": "-7.954666618609176",
      "lat": "41.150624306290126"
    },
    {
      "id": "pt.ine.add.PTCONT.4020624",
      "street": "R REAL",
      "house": "110",
      "postcode": "4640-460",
      "city": "SANTA MARINHA DO ZÊZERE",
      "lon": "-7.952526060647462",
      "lat": "41.15360142405571"
    },
    {
      "id": "pt.ine.add.PTCONT.4026129",
      "street": "R REAL",
      "house": "97",
      "postcode": "4640-460",
      "city": "SANTA MARINHA DO ZÊZERE",
      "lon": "-7.952852380637211",
      "lat": "41.15190010538826"
    },
    {
      "id": "pt.ine.add.PTCONT.4052416",
      "street": "R REAL",
      "house": "150",
      "postcode": "4640-460",
      "city": "SANTA MARINHA DO ZÊZERE",
      "lon": "-7.9531226109853295",
      "lat": "41.15327819969076"
    },
    {
      "id": "pt.ine.add.PTCONT.4063881",
      "street": "R CAMPO",
      "house": "644",
      "postcode": "4640-463",
      "city": "SANTA MARINHA DO ZÊZERE",
      "lon": "-7.954765463608909",
      "lat": "41.15371296559395"
    },
    {
      "id": "pt.ine.add.PTCONT.4089921",
      "street": "R VINHAS DE REAL",
      "house": "113 CAS",
      "postcode": "4640-460",
      "city": "SANTA MARINHA DO ZÊZERE",
      "lon": "-7.952607443976206",
      "lat": "41.149990790506074"
    },
    {
      "id": "pt.ine.add.PTCONT.4181655",
      "street": "AV DAO VIVENTE AFONSO VALENTE",
      "house": "1",
      "postcode": "4640-460",
      "city": "SANTA MARINHA DO ZÊZERE",
      "lon": "-7.952971042008625",
      "lat": "41.15207137444963"
    },
    {
      "id": "pt.ine.add.PTCONT.4187889",
      "street": "R REAL",
      "house": "281",
      "postcode": "4640-460",
      "city": "SANTA MARINHA DO ZÊZERE",
      "lon": "-7.952994596919396",
      "lat": "41.15217045958647"
    },
    {
      "id": "pt.ine.add.PTCONT.4251906",
      "street": "R VINHAS DE REAL",
      "house": "113 CAS",
      "postcode": "4640-460",
      "city": "SANTA MARINHA DO ZÊZERE",
      "lon": "-7.9526315655207505",
      "lat": "41.14988277556413"
    },
    {
      "id": "pt.ine.add.PTCONT.4300374",
      "street": "R REAL",
      "house": "",
      "postcode": "4640-460",
      "city": "SANTA MARINHA DO ZÊZERE",
      "lon": "-7.9532925453330625",
      "lat": "41.152125903113706"
    },
    {
      "id": "pt.ine.add.PTCONT.4342974",
      "street": "R VINHAS DE REAL",
      "house": "",
      "postcode": "4640-460",
      "city": "SANTA MARINHA DO ZÊZERE",
      "lon": "-7.952297987948562",
      "lat": "41.14989125685182"
    },
    {
      "id": "pt.ine.add.PTCONT.4342975",
      "street": "R VINHAS REAL",
      "house": "447",
      "postcode": "4640-460",
      "city": "SANTA MARINHA DO ZÊZERE",
      "lon": "-7.953263351701411",
      "lat": "41.14973068895238"
    },
    {
      "id": "pt.ine.add.PTCONT.4390521",
      "street": "R CAMPO",
      "house": "",
      "postcode": "4640-463",
      "city": "SANTA MARINHA DO ZÊZERE",
      "lon": "-7.954223399860362",
      "lat": "41.151524058165485"
    }
  ]
}