{
  "data": {
    "distrito": "Porto",
    "concelho": "Baião",
    "freguesia": "Santa Marinha do Zêzere",
    "OBJECTID": 169,
    "BGRI2021": "13021500209",
    "DT21": "13",
    "DTMN21": "1302",
    "DTMNFR21": "130215",
    "DTMNFRSEC21": "130215002",
    "SECNUM21": "002",
    "SSNUM21": "09",
    "SECSSNUM21": "00209",
    "OBJECTID_1": 126874,
    "DT": "13",
    "CC": "02",
    "fr": "15",
    "SEC": "002",
    "SS": "09"
  },
  "addresses": [
    {
      "id": "pt.ine.add.PTCONT.3546312",
      "street": "CAM VILA JUSA",
      "house": "43 CASA",
      "postcode": "4640-475",
      "city": "SANTA MARINHA DO ZÊZERE",
      "lon": "-7.9483074725621785",
      "lat": "41.15405395727051"
    },
    {
      "id": "pt.ine.add.PTCONT.3553038",
      "street": "R 20 DE JUNHO",
      "house": "3906",
      "postcode": "4640-475",
      "city": "SANTA MARINHA DO ZÊZERE",
      "lon": "-7.947937930566731",
      "lat": "41.154134403314885"
    },
    {
      "id": "pt.ine.add.PTCONT.3565988",
      "street": "CC COROINHA",
      "house": "",
      "postcode": "4640-461",
      "city": "SANTA MARINHA DO ZÊZERE",
      "lon": "-7.945278908005662",
      "lat": "41.14660242526421"
    },
    {
      "id": "pt.ine.add.PTCONT.3565989",
      "street": "CC COROINHA",
      "house": "71",
      "postcode": "4640-461",
      "city": "SANTA MARINHA DO ZÊZERE",
      "lon": "-7.945291642184021",
      "lat": "41.14631430523855"
    },
    {
      "id": "pt.ine.add.PTCONT.3585056",
      "street": "R 20 DE JUNHO",
      "house": "2758",
      "postcode": "4640-475",
      "city": "SANTA MARINHA DO ZÊZERE",
      "lon": "-7.950796201919942",
      "lat": "41.15017703045013"
    },
    {
      "id": "pt.ine.add.PTCONT.3604523",
      "street": "R ARIEIROS",
      "house": "702",
      "postcode": "4640-461",
      "city": "SANTA MARINHA DO ZÊZERE",
      "lon": "-7.945899330949309",
      "lat": "41.146252263621484"
    },
    {
      "id": "pt.ine.add.PTCONT.3617988",
      "street": "R ARIEIROS",
      "house": "14",
      "postcode": "4640-461",
      "city": "SANTA MARINHA DO ZÊZERE",
      "lon": "-7.945090502195074",
      "lat": "41.14583674390923"
    },
    {
      "id": "pt.ine.add.PTCONT.3628781",
      "street": "R CARTIDA",
      "house": "542",
      "postcode": "4640-461",
      "city": "SANTA MARINHA DO ZÊZERE",
      "lon": "-7.947323341784576",
      "lat": "41.15239556662357"
    },
    {
      "id": "pt.ine.add.PTCONT.3649235",
      "street": "R PROF ALBINO CARVALHO",
      "house": "55",
      "postcode": "4640-465",
      "city": "SANTA MARINHA DO ZÊZERE",
      "lon": "-7.945266687644871",
      "lat": "41.146710458129846"
    },
    {
      "id": "pt.ine.add.PTCONT.3656707",
      "street": "R 20 DE JUNHO",
      "house": "",
      "postcode": "4640-475",
      "city": "SANTA MARINHA DO ZÊZERE",
      "lon": "-7.9508549353952365",
      "lat": "41.15477836698227"
    },
    {
      "id": "pt.ine.add.PTCONT.3666132",
      "street": "R 20 DE JUNHO",
      "house": "",
      "postcode": "4640-475",
      "city": "SANTA MARINHA DO ZÊZERE",
      "lon": "-7.951829700973182",
      "lat": "41.15123217552263"
    },
    {
      "id": "pt.ine.add.PTCONT.3676352",
      "street": "R DEVESA",
      "house": "",
      "postcode": "4640-475",
      "city": "SANTA MARINHA DO ZÊZERE",
      "lon": "-7.950863139774092",
      "lat": "41.15181593588057"
    },
    {
      "id": "pt.ine.add.PTCONT.3685606",
      "street": "R 20 DE JUNHO",
      "house": "3772",
      "postcode": "4640-475",
      "city": "SANTA MARINHA DO ZÊZERE",
      "lon": "-7.948400125549204",
      "lat": "41.15499956653309"
    },
    {
      "id": "pt.ine.add.PTCONT.3685607",
      "street": "R 20 JUNHO",
      "house": "6772",
      "postcode": "4640-475",
      "city": "SANTA MARINHA DO ZÊZERE",
      "lon": "-7.948400125549204",
      "lat": "41.15499956653309"
    },
    {
      "id": "pt.ine.add.PTCONT.3686557",
      "street": "R 20 DE JUNHO",
      "house": "4140",
      "postcode": "4640-475",
      "city": "SANTA MARINHA DO ZÊZERE",
      "lon": "-7.947252448357447",
      "lat": "41.15218835127855"
    },
    {
      "id": "pt.ine.add.PTCONT.3687889",
      "street": "R CALCADA",
      "house": "50",
      "postcode": "4640-461",
      "city": "SANTA MARINHA DO ZÊZERE",
      "lon": "-7.94517108295059",
      "lat": "41.14681835498352"
    },
    {
      "id": "pt.ine.add.PTCONT.3719531",
      "street": "R DEVESA",
      "house": "",
      "postcode": "4640-475",
      "city": "SANTA MARINHA DO ZÊZERE",
      "lon": "-7.95075639727361",
      "lat": "41.1516446835115"
    },
    {
      "id": "pt.ine.add.PTCONT.3720985",
      "street": "CAM VILA JUSA",
      "house": "35 CASA",
      "postcode": "4640-475",
      "city": "SANTA MARINHA DO ZÊZERE",
      "lon": "-7.948903619161126",
      "lat": "41.153883828747325"
    },
    {
      "id": "pt.ine.add.PTCONT.3741019",
      "street": "CAM BARBEDO",
      "house": "87",
      "postcode": "4640-461",
      "city": "SANTA MARINHA DO ZÊZERE",
      "lon": "-7.94639729150243",
      "lat": "41.15127752482508"
    },
    {
      "id": "pt.ine.add.PTCONT.3741020",
      "street": "R ARIEIROS",
      "house": "392",
      "postcode": "4640-461",
      "city": "SANTA MARINHA DO ZÊZERE",
      "lon": "-7.943813006682011",
      "lat": "41.146852148918114"
    },
    {
      "id": "pt.ine.add.PTCONT.3776375",
      "street": "CC COROINHA",
      "house": "91",
      "postcode": "4640-461",
      "city": "SANTA MARINHA DO ZÊZERE",
      "lon": "-7.945267535625406",
      "lat": "41.14641331432993"
    },
    {
      "id": "pt.ine.add.PTCONT.3777480",
      "street": "R DEVESA",
      "house": "",
      "postcode": "4640-475",
      "city": "SANTA MARINHA DO ZÊZERE",
      "lon": "-7.950816485643772",
      "lat": "41.1514556863838"
    },
    {
      "id": "pt.ine.add.PTCONT.3798748",
      "street": "R 20 DE JUNHO",
      "house": "2776",
      "postcode": "4640-475",
      "city": "SANTA MARINHA DO ZÊZERE",
      "lon": "-7.950974592697288",
      "lat": "41.15028536537327"
    },
    {
      "id": "pt.ine.add.PTCONT.3798749",
      "street": "R 20 JUNHO",
      "house": "2772",
      "postcode": "4640-475",
      "city": "SANTA MARINHA DO ZÊZERE",
      "lon": "-7.950974592697288",
      "lat": "41.15028536537327"
    },
    {
      "id": "pt.ine.add.PTCONT.3824189",
      "street": "R 20 DE JUNHO CASA DO BARBEDO",
      "house": "",
      "postcode": "4640-475",
      "city": "SANTA MARINHA DO ZÊZERE",
      "lon": "-7.945122076520193",
      "lat": "41.15146454305858"
    },
    {
      "id": "pt.ine.add.PTCONT.3840896",
      "street": "R ARIEIROS",
      "house": "",
      "postcode": "4640-461",
      "city": "SANTA MARINHA DO ZÊZERE",
      "lon": "-7.945697109983732",
      "lat": "41.146152886405815"
    },
    {
      "id": "pt.ine.add.PTCONT.3850898",
      "street": "R ARIEIROS",
      "house": "938 2",
      "postcode": "4640-461",
      "city": "SANTA MARINHA DO ZÊZERE",
      "lon": "-7.948350031466733",
      "lat": "41.147381770195594"
    },
    {
      "id": "pt.ine.add.PTCONT.3869198",
      "street": "CAM LAMA",
      "house": "",
      "postcode": "4640-461",
      "city": "SANTA MARINHA DO ZÊZERE",
      "lon": "-7.945390349639661",
      "lat": "41.149294921714635"
    },
    {
      "id": "pt.ine.add.PTCONT.3876694",
      "street": "CC COROINHA",
      "house": "34",
      "postcode": "4640-461",
      "city": "SANTA MARINHA DO ZÊZERE",
      "lon": "-7.9449701739416",
      "lat": "41.14625975426373"
    },
    {
      "id": "pt.ine.add.PTCONT.3888614",
      "street": "R CARTIDA",
      "house": "106",
      "postcode": "4640-461",
      "city": "SANTA MARINHA DO ZÊZERE",
      "lon": "-7.946861382998217",
      "lat": "41.151458363956294"
    },
    {
      "id": "pt.ine.add.PTCONT.3888616",
      "street": "CC COROINHA",
      "house": "",
      "postcode": "4640-461",
      "city": "SANTA MARINHA DO ZÊZERE",
      "lon": "-7.945278008680426",
      "lat": "41.14691757776858"
    },
    {
      "id": "pt.ine.add.PTCONT.3901836",
      "street": "R DEVESA",
      "house": "152",
      "postcode": "4640-475",
      "city": "SANTA MARINHA DO ZÊZERE",
      "lon": "-7.950884522264368",
      "lat": "41.15269840001962"
    },
    {
      "id": "pt.ine.add.PTCONT.3956660",
      "street": "R CMDT AGATAO LANCA",
      "house": "",
      "postcode": "4640-461",
      "city": "SANTA MARINHA DO ZÊZERE",
      "lon": "-7.943130017663893",
      "lat": "41.148237701826254"
    },
    {
      "id": "pt.ine.add.PTCONT.3956662",
      "street": "VLA COROINHA",
      "house": "",
      "postcode": "4640-461",
      "city": "SANTA MARINHA DO ZÊZERE",
      "lon": "-7.945636421969333",
      "lat": "41.14654898124937"
    },
    {
      "id": "pt.ine.add.PTCONT.3956663",
      "street": "R ARIEIROS",
      "house": "546",
      "postcode": "4640-461",
      "city": "SANTA MARINHA DO ZÊZERE",
      "lon": "-7.944602167351045",
      "lat": "41.145817937033165"
    },
    {
      "id": "pt.ine.add.PTCONT.3958212",
      "street": "CAM VILA JUSA",
      "house": "43 CASA",
      "postcode": "4640-475",
      "city": "SANTA MARINHA DO ZÊZERE",
      "lon": "-7.9487485189207",
      "lat": "41.153964620113214"
    },
    {
      "id": "pt.ine.add.PTCONT.3979269",
      "street": "R 20 JUNHO",
      "house": "2730",
      "postcode": "4640-475",
      "city": "SANTA MARINHA DO ZÊZERE",
      "lon": "-7.950665462265215",
      "lat": "41.15006877072841"
    },
    {
      "id": "pt.ine.add.PTCONT.3979440",
      "street": "R 20 DE JUNHO",
      "house": "",
      "postcode": "4640-475",
      "city": "SANTA MARINHA DO ZÊZERE",
      "lon": "-7.950665462265215",
      "lat": "41.15006877072841"
    },
    {
      "id": "pt.ine.add.PTCONT.3979441",
      "street": "R 20 JUNHO",
      "house": "2734",
      "postcode": "4640-475",
      "city": "SANTA MARINHA DO ZÊZERE",
      "lon": "-7.950665462265215",
      "lat": "41.15006877072841"
    },
    {
      "id": "pt.ine.add.PTCONT.3979442",
      "street": "R 20 JUNHO",
      "house": "2740",
      "postcode": "4640-475",
      "city": "SANTA MARINHA DO ZÊZERE",
      "lon": "-7.950665462265215",
      "lat": "41.15006877072841"
    },
    {
      "id": "pt.ine.add.PTCONT.3979446",
      "street": "CC COROINHA",
      "house": "34",
      "postcode": "4640-461",
      "city": "SANTA MARINHA DO ZÊZERE",
      "lon": "-7.944791675162611",
      "lat": "41.14619643180038"
    },
    {
      "id": "pt.ine.add.PTCONT.3987089",
      "street": "CC COROINHA",
      "house": "184",
      "postcode": "4640-461",
      "city": "SANTA MARINHA DO ZÊZERE",
      "lon": "-7.94487240638656",
      "lat": "41.14712401687494"
    },
    {
      "id": "pt.ine.add.PTCONT.3991648",
      "street": "CROINHA",
      "house": "",
      "postcode": "4640-461",
      "city": "SANTA MARINHA DO ZÊZERE",
      "lon": "-7.944911798490884",
      "lat": "41.14584545649845"
    },
    {
      "id": "pt.ine.add.PTCONT.3997970",
      "street": "CAM VILA JUSA",
      "house": "43",
      "postcode": "4640-475",
      "city": "SANTA MARINHA DO ZÊZERE",
      "lon": "-7.948927193785553",
      "lat": "41.15397391032534"
    },
    {
      "id": "pt.ine.add.PTCONT.4009740",
      "street": "R CARTIDA",
      "house": "201",
      "postcode": "4640-461",
      "city": "SANTA MARINHA DO ZÊZERE",
      "lon": "-7.947444860237972",
      "lat": "41.15154934977942"
    },
    {
      "id": "pt.ine.add.PTCONT.4011335",
      "street": "R ARIEIROS",
      "house": "938",
      "postcode": "4640-461",
      "city": "SANTA MARINHA DO ZÊZERE",
      "lon": "-7.9483980590819145",
      "lat": "41.147246781238124"
    },
    {
      "id": "pt.ine.add.PTCONT.4020625",
      "street": "R DEVESA",
      "house": "131",
      "postcode": "4640-475",
      "city": "SANTA MARINHA DO ZÊZERE",
      "lon": "-7.9505971342365465",
      "lat": "41.15322920403776"
    },
    {
      "id": "pt.ine.add.PTCONT.4030592",
      "street": "CC COROINHA",
      "house": "",
      "postcode": "4640-461",
      "city": "SANTA MARINHA DO ZÊZERE",
      "lon": "-7.9452413472899375",
      "lat": "41.1472416763367"
    },
    {
      "id": "pt.ine.add.PTCONT.4037242",
      "street": "R 20 DE JUNHO",
      "house": "2666",
      "postcode": "4640-475",
      "city": "SANTA MARINHA DO ZÊZERE",
      "lon": "-7.950545586604843",
      "lat": "41.1503387126317"
    },
    {
      "id": "pt.ine.add.PTCONT.4043845",
      "street": "CAM COROINHA",
      "house": "134",
      "postcode": "4640-461",
      "city": "SANTA MARINHA DO ZÊZERE",
      "lon": "-7.94510967102312",
      "lat": "41.14746657147149"
    },
    {
      "id": "pt.ine.add.PTCONT.4052417",
      "street": "R ARIEIROS",
      "house": "938 1",
      "postcode": "4640-461",
      "city": "SANTA MARINHA DO ZÊZERE",
      "lon": "-7.948242468092493",
      "lat": "41.14750765920341"
    },
    {
      "id": "pt.ine.add.PTCONT.4076622",
      "street": "R 20 DE JUNHO",
      "house": "",
      "postcode": "4640-475",
      "city": "SANTA MARINHA DO ZÊZERE",
      "lon": "-7.947074033127731",
      "lat": "41.15208901497896"
    },
    {
      "id": "pt.ine.add.PTCONT.4116120",
      "street": "R CMDT AGATAO LANCA",
      "house": "",
      "postcode": "4640-461",
      "city": "SANTA MARINHA DO ZÊZERE",
      "lon": "-7.943140552547101",
      "lat": "41.14871495220504"
    },
    {
      "id": "pt.ine.add.PTCONT.4116121",
      "street": "CAM COROINHA",
      "house": "",
      "postcode": "4640-461",
      "city": "SANTA MARINHA DO ZÊZERE",
      "lon": "-7.945240858977977",
      "lat": "41.147412759107524"
    },
    {
      "id": "pt.ine.add.PTCONT.4147383",
      "street": "R 20 DE JUNHO",
      "house": "3942",
      "postcode": "4640-475",
      "city": "SANTA MARINHA DO ZÊZERE",
      "lon": "-7.9479747599734605",
      "lat": "41.153747273823974"
    },
    {
      "id": "pt.ine.add.PTCONT.4174921",
      "street": "R DEVESA",
      "house": "",
      "postcode": "4640-475",
      "city": "SANTA MARINHA DO ZÊZERE",
      "lon": "-7.950626728378753",
      "lat": "41.15114923659585"
    },
    {
      "id": "pt.ine.add.PTCONT.4186855",
      "street": "R 20 JUNHO",
      "house": "3876",
      "postcode": "4640-475",
      "city": "SANTA MARINHA DO ZÊZERE",
      "lon": "-7.947877704729638",
      "lat": "41.15436842056382"
    },
    {
      "id": "pt.ine.add.PTCONT.4187853",
      "street": "TV ARIEIROS",
      "house": "106",
      "postcode": "4640-461",
      "city": "SANTA MARINHA DO ZÊZERE",
      "lon": "-7.950470604820352",
      "lat": "41.15589430213454"
    },
    {
      "id": "pt.ine.add.PTCONT.4220891",
      "street": "R 20 DE JUNHO",
      "house": "",
      "postcode": "4640-475",
      "city": "SANTA MARINHA DO ZÊZERE",
      "lon": "-7.949771940909377",
      "lat": "41.14581727643145"
    },
    {
      "id": "pt.ine.add.PTCONT.4240430",
      "street": "R CARTIDA",
      "house": "",
      "postcode": "4640-461",
      "city": "SANTA MARINHA DO ZÊZERE",
      "lon": "-7.947546891350246",
      "lat": "41.14916334985697"
    },
    {
      "id": "pt.ine.add.PTCONT.4240431",
      "street": "CAM BARBEDO",
      "house": "",
      "postcode": "4640-461",
      "city": "SANTA MARINHA DO ZÊZERE",
      "lon": "-7.947015104696356",
      "lat": "41.15186381001748"
    },
    {
      "id": "pt.ine.add.PTCONT.4277357",
      "street": "R ARIEIROS",
      "house": "",
      "postcode": "4640-461",
      "city": "SANTA MARINHA DO ZÊZERE",
      "lon": "-7.9455069041855575",
      "lat": "41.146017510800405"
    },
    {
      "id": "pt.ine.add.PTCONT.4282585",
      "street": "VLA COROINHA",
      "house": "51",
      "postcode": "4640-461",
      "city": "SANTA MARINHA DO ZÊZERE",
      "lon": "-7.9456844032530975",
      "lat": "41.1464320021303"
    },
    {
      "id": "pt.ine.add.PTCONT.4294756",
      "street": "R 20 JUNHO",
      "house": "2690",
      "postcode": "4640-475",
      "city": "SANTA MARINHA DO ZÊZERE",
      "lon": "-7.950237583214635",
      "lat": "41.149716920872265"
    },
    {
      "id": "pt.ine.add.PTCONT.4298606",
      "street": "CAM COROINHA",
      "house": "",
      "postcode": "4640-461",
      "city": "SANTA MARINHA DO ZÊZERE",
      "lon": "-7.945276107202939",
      "lat": "41.14758390014937"
    },
    {
      "id": "pt.ine.add.PTCONT.4300354",
      "street": "CC COROINHA",
      "house": "99",
      "postcode": "4640-461",
      "city": "SANTA MARINHA DO ZÊZERE",
      "lon": "-7.945255418073963",
      "lat": "41.1464853297673"
    },
    {
      "id": "pt.ine.add.PTCONT.4300355",
      "street": "CC COROINHA",
      "house": "99",
      "postcode": "4640-461",
      "city": "SANTA MARINHA DO ZÊZERE",
      "lon": "-7.945255418073963",
      "lat": "41.1464853297673"
    },
    {
      "id": "pt.ine.add.PTCONT.4300356",
      "street": "CC COROINHA",
      "house": "99",
      "postcode": "4640-461",
      "city": "SANTA MARINHA DO ZÊZERE",
      "lon": "-7.945255418073963",
      "lat": "41.1464853297673"
    },
    {
      "id": "pt.ine.add.PTCONT.4313640",
      "street": "R 20 DE JUNHO",
      "house": "4016",
      "postcode": "4640-475",
      "city": "SANTA MARINHA DO ZÊZERE",
      "lon": "-7.947786327994423",
      "lat": "41.15297259337206"
    },
    {
      "id": "pt.ine.add.PTCONT.4327305",
      "street": "R 20 JUNHO",
      "house": "1247",
      "postcode": "4640-475",
      "city": "SANTA MARINHA DO ZÊZERE",
      "lon": "-7.950157699401056",
      "lat": "41.148456178608605"
    },
    {
      "id": "pt.ine.add.PTCONT.4359136",
      "street": "R ARIEIROS",
      "house": "546",
      "postcode": "4640-460",
      "city": "SANTA MARINHA DO ZÊZERE",
      "lon": "-7.944733275121675",
      "lat": "41.14579113830111"
    },
    {
      "id": "pt.ine.add.PTCONT.4365567",
      "street": "R CARTIDA",
      "house": "65",
      "postcode": "4640-461",
      "city": "SANTA MARINHA DO ZÊZERE",
      "lon": "-7.948242164544649",
      "lat": "41.151856781400845"
    },
    {
      "id": "pt.ine.add.PTCONT.4372223",
      "street": "R 20 DE JUNHO",
      "house": "3006",
      "postcode": "4640-475",
      "city": "SANTA MARINHA DO ZÊZERE",
      "lon": "-7.952303518332046",
      "lat": "41.15221439890612"
    },
    {
      "id": "pt.ine.add.PTCONT.4382812",
      "street": "R DEVESA",
      "house": "",
      "postcode": "4640-475",
      "city": "SANTA MARINHA DO ZÊZERE",
      "lon": "-7.950888835557753",
      "lat": "41.15114064711882"
    }
  ]
}