{
  "data": {
    "distrito": "Beja",
    "concelho": "Serpa",
    "freguesia": "União das freguesias de Vila Nova de São Bento e Vale de Vargo",
    "OBJECTID": 451,
    "BGRI2021": "02130900211",
    "DT21": "02",
    "DTMN21": "0213",
    "DTMNFR21": "021309",
    "DTMNFRSEC21": "021309002",
    "SECNUM21": "002",
    "SSNUM21": "11",
    "SECSSNUM21": "00211",
    "OBJECTID_1": 19260,
    "DT": "02",
    "CC": "13",
    "fr": "09",
    "SEC": "002",
    "SS": "11"
  },
  "addresses": [
    {
      "id": "pt.ine.add.PTCONT.356854",
      "street": "MONTE",
      "house": "",
      "postcode": "7830-013",
      "city": "VILA NOVA DE SÃO BENTO",
      "lon": "-7.33378698867967",
      "lat": "37.846517032695964"
    },
    {
      "id": "pt.ine.add.PTCONT.367023",
      "street": "MONTE",
      "house": "",
      "postcode": "7830-013",
      "city": "VILA NOVA DE SÃO BENTO",
      "lon": "-7.329820516492439",
      "lat": "37.84768827989322"
    },
    {
      "id": "pt.ine.add.PTCONT.402062",
      "street": "MTE CASEIROS",
      "house": "",
      "postcode": "7830-013",
      "city": "VILA NOVA DE SÃO BENTO",
      "lon": "-7.331829222271294",
      "lat": "37.84790017026644"
    },
    {
      "id": "pt.ine.add.PTCONT.402162",
      "street": "MTE POSANTO DOS SOPOS",
      "house": "",
      "postcode": "7830-022",
      "city": "VILA NOVA DE SÃO BENTO",
      "lon": "-7.352670360940757",
      "lat": "37.831354858638605"
    },
    {
      "id": "pt.ine.add.PTCONT.405492",
      "street": "MONTE",
      "house": "",
      "postcode": "7830-022",
      "city": "VILA NOVA DE SÃO BENTO",
      "lon": "-7.341835276625262",
      "lat": "37.84078740501838"
    },
    {
      "id": "pt.ine.add.PTCONT.417465",
      "street": "HONTE",
      "house": "",
      "postcode": "7830-022",
      "city": "VILA NOVA DE SÃO BENTO",
      "lon": "-7.3511000960581265",
      "lat": "37.83484006698853"
    },
    {
      "id": "pt.ine.add.PTCONT.419893",
      "street": "MONTE",
      "house": "",
      "postcode": "7830-022",
      "city": "VILA NOVA DE SÃO BENTO",
      "lon": "-7.342380391766757",
      "lat": "37.83548457175105"
    },
    {
      "id": "pt.ine.add.PTCONT.420691",
      "street": "MONTE",
      "house": "",
      "postcode": "7830-013",
      "city": "VILA NOVA DE SÃO BENTO",
      "lon": "-7.3484827220303535",
      "lat": "37.857796423922686"
    },
    {
      "id": "pt.ine.add.PTCONT.423153",
      "street": "MTE VALE MEDRONHO",
      "house": "",
      "postcode": "7830-013",
      "city": "VILA NOVA DE SÃO BENTO",
      "lon": "-7.343311402083895",
      "lat": "37.85683389199056"
    },
    {
      "id": "pt.ine.add.PTCONT.426597",
      "street": "HONTE",
      "house": "",
      "postcode": "7830-022",
      "city": "VILA NOVA DE SÃO BENTO",
      "lon": "-7.3453070179886355",
      "lat": "37.836945678885925"
    },
    {
      "id": "pt.ine.add.PTCONT.430314",
      "street": "MTE CRESPO",
      "house": "",
      "postcode": "7830-013",
      "city": "VILA NOVA DE SÃO BENTO",
      "lon": "-7.333630822744194",
      "lat": "37.8578226479069"
    },
    {
      "id": "pt.ine.add.PTCONT.446193",
      "street": "HONTE",
      "house": "",
      "postcode": "7830-013",
      "city": "VILA NOVA DE SÃO BENTO",
      "lon": "-7.347803159897207",
      "lat": "37.850088935107145"
    },
    {
      "id": "pt.ine.add.PTCONT.446194",
      "street": "MONTE",
      "house": "",
      "postcode": "7830-013",
      "city": "VILA NOVA DE SÃO BENTO",
      "lon": "-7.340548714849733",
      "lat": "37.84848172035629"
    },
    {
      "id": "pt.ine.add.PTCONT.447549",
      "street": "MONTG",
      "house": "",
      "postcode": "7830-022",
      "city": "VILA NOVA DE SÃO BENTO",
      "lon": "-7.348535484172578",
      "lat": "37.834588766801254"
    },
    {
      "id": "pt.ine.add.PTCONT.451545",
      "street": "MONTE",
      "house": "",
      "postcode": "7830-013",
      "city": "VILA NOVA DE SÃO BENTO",
      "lon": "-7.330453005703051",
      "lat": "37.844890697361535"
    }
  ]
}