{
  "data": {
    "distrito": "Beja",
    "concelho": "Serpa",
    "freguesia": "União das freguesias de Vila Nova de São Bento e Vale de Vargo",
    "OBJECTID": 558,
    "BGRI2021": "02130900216",
    "DT21": "02",
    "DTMN21": "0213",
    "DTMNFR21": "021309",
    "DTMNFRSEC21": "021309002",
    "SECNUM21": "002",
    "SSNUM21": "16",
    "SECSSNUM21": "00216",
    "OBJECTID_1": 18794,
    "DT": "02",
    "CC": "13",
    "fr": "09",
    "SEC": "002",
    "SS": "16"
  },
  "addresses": [
    {
      "id": "pt.ine.add.PTCONT.457336",
      "street": "MTE RIPOILA",
      "house": "",
      "postcode": "7830-022",
      "city": "VILA NOVA DE SÃO BENTO",
      "lon": "-7.396118952116394",
      "lat": "37.87928511333867"
    },
    {
      "id": "pt.ine.add.PTCONT.352459",
      "street": "MONTE",
      "house": "",
      "postcode": "7830-022",
      "city": "VILA NOVA DE SÃO BENTO",
      "lon": "-7.353928912574679",
      "lat": "37.84993142387454"
    },
    {
      "id": "pt.ine.add.PTCONT.355937",
      "street": "MTE RIPOILA",
      "house": "",
      "postcode": "7830-022",
      "city": "VILA NOVA DE SÃO BENTO",
      "lon": "-7.396969972541307",
      "lat": "37.8828581178486"
    },
    {
      "id": "pt.ine.add.PTCONT.359262",
      "street": "MONTE",
      "house": "",
      "postcode": "7830-022",
      "city": "VILA NOVA DE SÃO BENTO",
      "lon": "-7.404006892650382",
      "lat": "37.86779330700537"
    },
    {
      "id": "pt.ine.add.PTCONT.367816",
      "street": "MONTE",
      "house": "",
      "postcode": "7830-022",
      "city": "VILA NOVA DE SÃO BENTO",
      "lon": "-7.358228896129032",
      "lat": "37.84726601132094"
    },
    {
      "id": "pt.ine.add.PTCONT.369677",
      "street": "MTE SETE MOINHOS MONIE",
      "house": "",
      "postcode": "7830-022",
      "city": "VILA NOVA DE SÃO BENTO",
      "lon": "-7.367589297952953",
      "lat": "37.85730055248426"
    },
    {
      "id": "pt.ine.add.PTCONT.382757",
      "street": "MTE BRANQUINHO",
      "house": "",
      "postcode": "7830-022",
      "city": "VILA NOVA DE SÃO BENTO",
      "lon": "-7.350546201732799",
      "lat": "37.85500826223974"
    },
    {
      "id": "pt.ine.add.PTCONT.382758",
      "street": "MTE BRANQUINHO",
      "house": "",
      "postcode": "7830-022",
      "city": "VILA NOVA DE SÃO BENTO",
      "lon": "-7.350546201732799",
      "lat": "37.85500826223974"
    },
    {
      "id": "pt.ine.add.PTCONT.391131",
      "street": "MONTE",
      "house": "",
      "postcode": "7830-022",
      "city": "VILA NOVA DE SÃO BENTO",
      "lon": "-7.3952700969577725",
      "lat": "37.849287779109304"
    },
    {
      "id": "pt.ine.add.PTCONT.391713",
      "street": "MTE FORCA",
      "house": "",
      "postcode": "7830-022",
      "city": "VILA NOVA DE SÃO BENTO",
      "lon": "-7.370862721406956",
      "lat": "37.84949268888215"
    },
    {
      "id": "pt.ine.add.PTCONT.396407",
      "street": "MONTE",
      "house": "",
      "postcode": "7830-022",
      "city": "VILA NOVA DE SÃO BENTO",
      "lon": "-7.402658898703291",
      "lat": "37.87885739026516"
    },
    {
      "id": "pt.ine.add.PTCONT.400351",
      "street": "MONTE",
      "house": "",
      "postcode": "7830-022",
      "city": "VILA NOVA DE SÃO BENTO",
      "lon": "-7.375014729779836",
      "lat": "37.85123126469212"
    },
    {
      "id": "pt.ine.add.PTCONT.400352",
      "street": "MONTE",
      "house": "",
      "postcode": "7830-022",
      "city": "VILA NOVA DE SÃO BENTO",
      "lon": "-7.353955336154742",
      "lat": "37.8614545046072"
    },
    {
      "id": "pt.ine.add.PTCONT.408235",
      "street": "MTE VARELA",
      "house": "",
      "postcode": "7830-022",
      "city": "VILA NOVA DE SÃO BENTO",
      "lon": "-7.3951441826536986",
      "lat": "37.88128807928474"
    },
    {
      "id": "pt.ine.add.PTCONT.408236",
      "street": "MTE MANUEL CHAPARRO",
      "house": "",
      "postcode": "7830-022",
      "city": "VILA NOVA DE SÃO BENTO",
      "lon": "-7.401046498781181",
      "lat": "37.886730505393494"
    },
    {
      "id": "pt.ine.add.PTCONT.411163",
      "street": "MONTE",
      "house": "",
      "postcode": "7830-022",
      "city": "VILA NOVA DE SÃO BENTO",
      "lon": "-7.358298148607868",
      "lat": "37.854762219669425"
    },
    {
      "id": "pt.ine.add.PTCONT.415047",
      "street": "MONTE",
      "house": "",
      "postcode": "7830-022",
      "city": "VILA NOVA DE SÃO BENTO",
      "lon": "-7.377758609856935",
      "lat": "37.845113542398146"
    },
    {
      "id": "pt.ine.add.PTCONT.416288",
      "street": "MONTE",
      "house": "",
      "postcode": "7830-022",
      "city": "VILA NOVA DE SÃO BENTO",
      "lon": "-7.376935839381586",
      "lat": "37.868937910237285"
    },
    {
      "id": "pt.ine.add.PTCONT.418275",
      "street": "MONTE",
      "house": "",
      "postcode": "7830-022",
      "city": "VILA NOVA DE SÃO BENTO",
      "lon": "-7.387730421641518",
      "lat": "37.84657353094711"
    },
    {
      "id": "pt.ine.add.PTCONT.419073",
      "street": "MONTE",
      "house": "",
      "postcode": "7830-022",
      "city": "VILA NOVA DE SÃO BENTO",
      "lon": "-7.389753407077586",
      "lat": "37.87931716524791"
    },
    {
      "id": "pt.ine.add.PTCONT.419897",
      "street": "MONTE",
      "house": "",
      "postcode": "7830-022",
      "city": "VILA NOVA DE SÃO BENTO",
      "lon": "-7.394739820183312",
      "lat": "37.870555468165115"
    },
    {
      "id": "pt.ine.add.PTCONT.421510",
      "street": "MONTE",
      "house": "",
      "postcode": "7830-022",
      "city": "VILA NOVA DE SÃO BENTO",
      "lon": "-7.393461650295857",
      "lat": "37.84720428539498"
    },
    {
      "id": "pt.ine.add.PTCONT.423155",
      "street": "MONTE",
      "house": "",
      "postcode": "7830-022",
      "city": "VILA NOVA DE SÃO BENTO",
      "lon": "-7.364633465518298",
      "lat": "37.84758727064942"
    },
    {
      "id": "pt.ine.add.PTCONT.426237",
      "street": "MONTE",
      "house": "",
      "postcode": "7830-022",
      "city": "VILA NOVA DE SÃO BENTO",
      "lon": "-7.363248008623702",
      "lat": "37.84752416507296"
    },
    {
      "id": "pt.ine.add.PTCONT.426238",
      "street": "MTE FORCA",
      "house": "",
      "postcode": "7830-022",
      "city": "VILA NOVA DE SÃO BENTO",
      "lon": "-7.364195340388822",
      "lat": "37.8492961824053"
    },
    {
      "id": "pt.ine.add.PTCONT.430915",
      "street": "MONTE",
      "house": "",
      "postcode": "7830-022",
      "city": "VILA NOVA DE SÃO BENTO",
      "lon": "-7.369960336013605",
      "lat": "37.85216261350074"
    },
    {
      "id": "pt.ine.add.PTCONT.432645",
      "street": "MTE VALE DE SERPA",
      "house": "",
      "postcode": "7830-022",
      "city": "VILA NOVA DE SÃO BENTO",
      "lon": "-7.3608267790284",
      "lat": "37.863977333714935"
    },
    {
      "id": "pt.ine.add.PTCONT.432646",
      "street": "MTE PENTEADA",
      "house": "",
      "postcode": "7830-022",
      "city": "VILA NOVA DE SÃO BENTO",
      "lon": "-7.362470167399626",
      "lat": "37.866582779712786"
    },
    {
      "id": "pt.ine.add.PTCONT.435819",
      "street": "MTE CABECEIRA DA OZAGA",
      "house": "",
      "postcode": "7830-022",
      "city": "VILA NOVA DE SÃO BENTO",
      "lon": "-7.362252022360141",
      "lat": "37.84824740467178"
    },
    {
      "id": "pt.ine.add.PTCONT.437025",
      "street": "MONTE",
      "house": "",
      "postcode": "7830-022",
      "city": "VILA NOVA DE SÃO BENTO",
      "lon": "-7.3657665015810885",
      "lat": "37.85994643420779"
    },
    {
      "id": "pt.ine.add.PTCONT.437952",
      "street": "MTE VALE TRAVES",
      "house": "",
      "postcode": "7830-022",
      "city": "VILA NOVA DE SÃO BENTO",
      "lon": "-7.377150211212005",
      "lat": "37.84906473591532"
    },
    {
      "id": "pt.ine.add.PTCONT.438791",
      "street": "MONTE",
      "house": "",
      "postcode": "7830-022",
      "city": "VILA NOVA DE SÃO BENTO",
      "lon": "-7.395169187983229",
      "lat": "37.874224947299055"
    },
    {
      "id": "pt.ine.add.PTCONT.439553",
      "street": "MONTE",
      "house": "",
      "postcode": "7830-022",
      "city": "VILA NOVA DE SÃO BENTO",
      "lon": "-7.378498392064387",
      "lat": "37.86950651235323"
    },
    {
      "id": "pt.ine.add.PTCONT.439554",
      "street": "MONTE",
      "house": "",
      "postcode": "7830-022",
      "city": "VILA NOVA DE SÃO BENTO",
      "lon": "-7.378713874866971",
      "lat": "37.876237837277415"
    },
    {
      "id": "pt.ine.add.PTCONT.441879",
      "street": "MTE BARRANCO",
      "house": "",
      "postcode": "7830-022",
      "city": "VILA NOVA DE SÃO BENTO",
      "lon": "-7.368780204075085",
      "lat": "37.86631759641629"
    },
    {
      "id": "pt.ine.add.PTCONT.452079",
      "street": "MTE ATALAIAS",
      "house": "",
      "postcode": "7830-022",
      "city": "VILA NOVA DE SÃO BENTO",
      "lon": "-7.368286010413913",
      "lat": "37.85365630681415"
    },
    {
      "id": "pt.ine.add.PTCONT.454826",
      "street": "MTE VALE TRAVES",
      "house": "",
      "postcode": "7830-022",
      "city": "VILA NOVA DE SÃO BENTO",
      "lon": "-7.382233541368032",
      "lat": "37.845250273311486"
    },
    {
      "id": "pt.ine.add.PTCONT.454827",
      "street": "MTE VALE TRAVES",
      "house": "",
      "postcode": "7830-022",
      "city": "VILA NOVA DE SÃO BENTO",
      "lon": "-7.382233541368032",
      "lat": "37.845250273311486"
    },
    {
      "id": "pt.ine.add.PTCONT.454828",
      "street": "MONTE",
      "house": "",
      "postcode": "7830-022",
      "city": "VILA NOVA DE SÃO BENTO",
      "lon": "-7.374041989001771",
      "lat": "37.85745043921075"
    },
    {
      "id": "pt.ine.add.PTCONT.455605",
      "street": "MTE RIPOILA",
      "house": "",
      "postcode": "7830-022",
      "city": "VILA NOVA DE SÃO BENTO",
      "lon": "-7.40031512038823",
      "lat": "37.88482499515549"
    },
    {
      "id": "pt.ine.add.PTCONT.455646",
      "street": "MONTE",
      "house": "",
      "postcode": "7830-022",
      "city": "VILA NOVA DE SÃO BENTO",
      "lon": "-7.384667385744657",
      "lat": "37.875338870246566"
    }
  ]
}