{
  "data": {
    "distrito": "Beja",
    "concelho": "Serpa",
    "freguesia": "União das freguesias de Vila Nova de São Bento e Vale de Vargo",
    "OBJECTID": 678,
    "BGRI2021": "02130900220",
    "DT21": "02",
    "DTMN21": "0213",
    "DTMNFR21": "021309",
    "DTMNFRSEC21": "021309002",
    "SECNUM21": "002",
    "SSNUM21": "20",
    "SECSSNUM21": "00220",
    "OBJECTID_1": 19056,
    "DT": "02",
    "CC": "13",
    "fr": "09",
    "SEC": "002",
    "SS": "20"
  },
  "addresses": [
    {
      "id": "pt.ine.add.PTCONT.369629",
      "street": "MTE TEIMA",
      "house": "",
      "postcode": "7830-011",
      "city": "VILA NOVA DE SÃO BENTO",
      "lon": "-7.443922826722452",
      "lat": "37.88820559443722"
    },
    {
      "id": "pt.ine.add.PTCONT.372307",
      "street": "MTE MONTINHO",
      "house": "",
      "postcode": "7830-011",
      "city": "VILA NOVA DE SÃO BENTO",
      "lon": "-7.453719589283717",
      "lat": "37.90083051666295"
    },
    {
      "id": "pt.ine.add.PTCONT.377172",
      "street": "MTE VALE VIEGAS",
      "house": "",
      "postcode": "7830-011",
      "city": "VILA NOVA DE SÃO BENTO",
      "lon": "-7.441863561406655",
      "lat": "37.895680246906636"
    },
    {
      "id": "pt.ine.add.PTCONT.377835",
      "street": "MTE QUEIROAL",
      "house": "",
      "postcode": "7830-011",
      "city": "VILA NOVA DE SÃO BENTO",
      "lon": "-7.460251657931638",
      "lat": "37.89769676688469"
    },
    {
      "id": "pt.ine.add.PTCONT.394323",
      "street": "MTE CARPINTEIROS",
      "house": "",
      "postcode": "7830-011",
      "city": "VILA NOVA DE SÃO BENTO",
      "lon": "-7.458756335803229",
      "lat": "37.90582359944303"
    },
    {
      "id": "pt.ine.add.PTCONT.398436",
      "street": "MTE MANUEL",
      "house": "",
      "postcode": "7830-011",
      "city": "VILA NOVA DE SÃO BENTO",
      "lon": "-7.44635448437878",
      "lat": "37.89688675183468"
    },
    {
      "id": "pt.ine.add.PTCONT.404332",
      "street": "MTE LOTE",
      "house": "",
      "postcode": "7830-011",
      "city": "VILA NOVA DE SÃO BENTO",
      "lon": "-7.4344817266953855",
      "lat": "37.891222112002694"
    },
    {
      "id": "pt.ine.add.PTCONT.433574",
      "street": "MTE ATALAIA DA CABRA",
      "house": "",
      "postcode": "7830-011",
      "city": "VILA NOVA DE SÃO BENTO",
      "lon": "-7.450508378620221",
      "lat": "37.89520815726459"
    }
  ]
}