{
  "data": {
    "ilha": "Ilha do Pico (Açores)",
    "concelho": "São Roque do Pico",
    "freguesia": "São Roque do Pico",
    "OBJECTID": 7,
    "BGRI2021": "46030500211",
    "DT21": "46",
    "DTMN21": "4603",
    "DTMNFR21": "460305",
    "DTMNFRSEC21": "460305002",
    "SECNUM21": "002",
    "SSNUM21": "11",
    "SECSSNUM21": "00211",
    "OBJECTID_1": 209567,
    "DT": "46",
    "CC": "03",
    "fr": "05",
    "SEC": "002",
    "SS": "11",
    "BGRI2021_1": "46030500211"
  },
  "addresses": [
    {
      "id": "pt.ine.add.AC26.40497",
      "street": "R AMOREIRAS",
      "house": "ED 27",
      "postcode": "9940-346",
      "city": "SÃO ROQUE DO PICO",
      "lon": "-28.32838002754479",
      "lat": "38.52638214930638"
    },
    {
      "id": "pt.ine.add.AC26.40827",
      "street": "R FOGUETEIRO",
      "house": "ED 4",
      "postcode": "9940-327",
      "city": "SÃO ROQUE DO PICO",
      "lon": "-28.327326771706154",
      "lat": "38.52524962913487"
    },
    {
      "id": "pt.ine.add.AC26.40828",
      "street": "R SILVEIRA",
      "house": "ED 3",
      "postcode": "9940-327",
      "city": "SÃO ROQUE DO PICO",
      "lon": "-28.32580557668923",
      "lat": "38.52487035726283"
    },
    {
      "id": "pt.ine.add.AC26.40829",
      "street": "R SILVEIRA",
      "house": "ED 1",
      "postcode": "9940-327",
      "city": "SÃO ROQUE DO PICO",
      "lon": "-28.326201262801156",
      "lat": "38.52392867504875"
    },
    {
      "id": "pt.ine.add.AC26.40830",
      "street": "R CABOUCAS",
      "house": "2",
      "postcode": "9940-328",
      "city": "SÃO ROQUE DO PICO",
      "lon": "-28.327083144401445",
      "lat": "38.5226029964894"
    },
    {
      "id": "pt.ine.add.AC26.63656",
      "street": "R SILVEIRA",
      "house": "ED 13",
      "postcode": "9940-327",
      "city": "SÃO ROQUE DO PICO",
      "lon": "-28.327321213316342",
      "lat": "38.526195904150725"
    },
    {
      "id": "pt.ine.add.AC26.67037",
      "street": "R AMOREIRAS",
      "house": "ED 25",
      "postcode": "9940-346",
      "city": "SÃO ROQUE DO PICO",
      "lon": "-28.32873739744686",
      "lat": "38.52647722090424"
    },
    {
      "id": "pt.ine.add.AC26.69398",
      "street": "R SILVEIRA",
      "house": "ED 15",
      "postcode": "9940-327",
      "city": "SÃO ROQUE DO PICO",
      "lon": "-28.327439050984086",
      "lat": "38.52636578744221"
    },
    {
      "id": "pt.ine.add.AC26.79113",
      "street": "R SILVEIRA",
      "house": "ED 13",
      "postcode": "9940-327",
      "city": "SÃO ROQUE DO PICO",
      "lon": "-28.326112040007338",
      "lat": "38.52531746367757"
    },
    {
      "id": "pt.ine.add.AC26.79633",
      "street": "R PIQUINHOS",
      "house": "4",
      "postcode": "9940-328",
      "city": "SÃO ROQUE DO PICO",
      "lon": "-28.325054442029217",
      "lat": "38.523319863132926"
    },
    {
      "id": "pt.ine.add.AC26.83116",
      "street": "R PIQUINHOS",
      "house": "ED 9",
      "postcode": "9940-328",
      "city": "SÃO ROQUE DO PICO",
      "lon": "-28.32616885118313",
      "lat": "38.52216277883149"
    },
    {
      "id": "pt.ine.add.AC26.87630",
      "street": "R DO FUGUETEIRO",
      "house": "",
      "postcode": "9940-327",
      "city": "SÃO ROQUE DO PICO",
      "lon": "-28.327942956090304",
      "lat": "38.52507142242634"
    },
    {
      "id": "pt.ine.add.AC26.88989",
      "street": "R SILVEIRA",
      "house": "ED 7",
      "postcode": "9940-327",
      "city": "SÃO ROQUE DO PICO",
      "lon": "-28.326449110180082",
      "lat": "38.52555695696599"
    },
    {
      "id": "pt.ine.add.AC26.92528",
      "street": "R PIQUINHOS",
      "house": "ED 6",
      "postcode": "9940-328",
      "city": "SÃO ROQUE DO PICO",
      "lon": "-28.3260135214838",
      "lat": "38.5230747045377"
    },
    {
      "id": "pt.ine.add.AC26.94309",
      "street": "R SILVEIRA",
      "house": "ED 11",
      "postcode": "9940-327",
      "city": "SÃO ROQUE DO PICO",
      "lon": "-28.327018544892095",
      "lat": "38.52595602351412"
    },
    {
      "id": "pt.ine.add.AC26.94658",
      "street": "R SILVEIRA",
      "house": "ED 9",
      "postcode": "9940-327",
      "city": "SÃO ROQUE DO PICO",
      "lon": "-28.326738320460947",
      "lat": "38.52568885310539"
    },
    {
      "id": "pt.ine.add.AC26.95165",
      "street": "R FOGUETEIRO",
      "house": "ED 8",
      "postcode": "9940-327",
      "city": "SÃO ROQUE DO PICO",
      "lon": "-28.327843917946556",
      "lat": "38.52467603779208"
    },
    {
      "id": "pt.ine.add.AC26.102606",
      "street": "R PIQUINHOS",
      "house": "2",
      "postcode": "9940-328",
      "city": "SÃO ROQUE DO PICO",
      "lon": "-28.32471054336176",
      "lat": "38.52333276626589"
    }
  ]
}