{
  "data": {
    "distrito": "Lisboa",
    "concelho": "Mafra",
    "freguesia": "Milharado",
    "OBJECTID": 793,
    "BGRI2021": "11091100127",
    "DT21": "11",
    "DTMN21": "1109",
    "DTMNFR21": "110911",
    "DTMNFRSEC21": "110911001",
    "SECNUM21": "001",
    "SSNUM21": "27",
    "SECSSNUM21": "00127",
    "OBJECTID_1": 108127,
    "DT": "11",
    "CC": "09",
    "fr": "11",
    "SEC": "001",
    "SS": "27"
  },
  "addresses": [
    {
      "id": "pt.ine.add.PTCONT.2281121",
      "street": "R MAGAREFES",
      "house": "4",
      "postcode": "2665-378",
      "city": "MILHARADO",
      "lon": "-9.205747085359187",
      "lat": "38.94950315966144"
    },
    {
      "id": "pt.ine.add.PTCONT.2334906",
      "street": "R FONTE",
      "house": "6",
      "postcode": "2665-378",
      "city": "MILHARADO",
      "lon": "-9.206266097433414",
      "lat": "38.949498388301954"
    },
    {
      "id": "pt.ine.add.PTCONT.2484450",
      "street": "AV 1 NOVEMBRO",
      "house": "8",
      "postcode": "2665-378",
      "city": "MILHARADO",
      "lon": "-9.204520040547804",
      "lat": "38.949982820719505"
    },
    {
      "id": "pt.ine.add.PTCONT.2570864",
      "street": "AV NOVA DO ROSSIO",
      "house": "5",
      "postcode": "2665-378",
      "city": "MILHARADO",
      "lon": "-9.205140959988745",
      "lat": "38.94985101380469"
    },
    {
      "id": "pt.ine.add.PTCONT.2597524",
      "street": "R CACADORES",
      "house": "5",
      "postcode": "2665-378",
      "city": "MILHARADO",
      "lon": "-9.205831078885218",
      "lat": "38.94971856755595"
    },
    {
      "id": "pt.ine.add.PTCONT.2619443",
      "street": "AV 1 NOVEMBRO",
      "house": "12",
      "postcode": "2665-378",
      "city": "MILHARADO",
      "lon": "-9.204771340263974",
      "lat": "38.94981837847283"
    },
    {
      "id": "pt.ine.add.PTCONT.2619444",
      "street": "AV 1 NOVEMBRO",
      "house": "12",
      "postcode": "2665-378",
      "city": "MILHARADO",
      "lon": "-9.204771340263974",
      "lat": "38.94981837847283"
    },
    {
      "id": "pt.ine.add.PTCONT.2696006",
      "street": "R MAGAREFES",
      "house": "8",
      "postcode": "2665-378",
      "city": "MILHARADO",
      "lon": "-9.205841797934161",
      "lat": "38.949664424054376"
    },
    {
      "id": "pt.ine.add.PTCONT.2749810",
      "street": "R 1 NOVEMBRO",
      "house": "18",
      "postcode": "2665-378",
      "city": "MILHARADO",
      "lon": "-9.20546213816751",
      "lat": "38.94973096564915"
    },
    {
      "id": "pt.ine.add.PTCONT.2779201",
      "street": "R CACADORES",
      "house": "7",
      "postcode": "2665-378",
      "city": "MILHARADO",
      "lon": "-9.205714385020086",
      "lat": "38.9496295651492"
    },
    {
      "id": "pt.ine.add.PTCONT.2862362",
      "street": "AV 1 NOVEMBRO",
      "house": "6",
      "postcode": "2665-378",
      "city": "MILHARADO",
      "lon": "-9.204417457650987",
      "lat": "38.950064829897656"
    },
    {
      "id": "pt.ine.add.PTCONT.2986289",
      "street": "R CACADORES",
      "house": "23",
      "postcode": "2665-378",
      "city": "MILHARADO",
      "lon": "-9.206125657232917",
      "lat": "38.949364567177604"
    },
    {
      "id": "pt.ine.add.PTCONT.3048456",
      "street": "R CACADORES",
      "house": "6",
      "postcode": "2665-378",
      "city": "MILHARADO",
      "lon": "-9.20553920904404",
      "lat": "38.94948705506092"
    },
    {
      "id": "pt.ine.add.PTCONT.3077455",
      "street": "AV 1 NOVEMBRO",
      "house": "18",
      "postcode": "2665-378",
      "city": "MILHARADO",
      "lon": "-9.20525629660249",
      "lat": "38.94984995429304"
    },
    {
      "id": "pt.ine.add.PTCONT.3117851",
      "street": "R MAGAREFES",
      "house": "2",
      "postcode": "2665-378",
      "city": "MILHARADO",
      "lon": "-9.20579159068322",
      "lat": "38.94939466065252"
    },
    {
      "id": "pt.ine.add.PTCONT.3141453",
      "street": "R MAGAREFES",
      "house": "6",
      "postcode": "2665-378",
      "city": "MILHARADO",
      "lon": "-9.20578317948986",
      "lat": "38.949601910374234"
    },
    {
      "id": "pt.ine.add.PTCONT.3161247",
      "street": "ZARGO ROSSIO",
      "house": "1",
      "postcode": "2665-378",
      "city": "MILHARADO",
      "lon": "-9.206036919090588",
      "lat": "38.949599577914455"
    },
    {
      "id": "pt.ine.add.PTCONT.3196146",
      "street": "R CACADORES",
      "house": "12",
      "postcode": "2665-378",
      "city": "MILHARADO",
      "lon": "-9.205786573430599",
      "lat": "38.94982706657601"
    },
    {
      "id": "pt.ine.add.PTCONT.3247778",
      "street": "AV 1ยบ DE NOVEMBRO",
      "house": "18 A",
      "postcode": "2665-378",
      "city": "MILHARADO",
      "lon": "-9.205389543636477",
      "lat": "38.94950644525572"
    },
    {
      "id": "pt.ine.add.PTCONT.3373988",
      "street": "R ESTREITA",
      "house": "4",
      "postcode": "2665-378",
      "city": "MILHARADO",
      "lon": "-9.206092686035834",
      "lat": "38.94947296026895"
    },
    {
      "id": "pt.ine.add.PTCONT.3415078",
      "street": "AV NOVA DO ROSSIO",
      "house": "10",
      "postcode": "2665-378",
      "city": "MILHARADO",
      "lon": "-9.205706788080315",
      "lat": "38.94989085234912"
    },
    {
      "id": "pt.ine.add.PTCONT.3418763",
      "street": "R 1 NOVEMBRO CASA POMAR DALTO",
      "house": "14",
      "postcode": "2665-378",
      "city": "MILHARADO",
      "lon": "-9.205057239705177",
      "lat": "38.949653617891684"
    }
  ]
}