{
  "data": {
    "distrito": "Évora",
    "concelho": "Évora",
    "freguesia": "União das freguesias de Malagueira e Horta das Figueiras",
    "OBJECTID": 515,
    "BGRI2021": "07052401041",
    "DT21": "07",
    "DTMN21": "0705",
    "DTMNFR21": "070524",
    "DTMNFRSEC21": "070524010",
    "SECNUM21": "010",
    "SSNUM21": "41",
    "SECSSNUM21": "01041",
    "OBJECTID_1": 60638,
    "DT": "07",
    "CC": "05",
    "fr": "24",
    "SEC": "010",
    "SS": "41"
  },
  "addresses": [
    {
      "id": "pt.ine.add.PTCONT.1377413",
      "street": "R TORCIDA",
      "house": "1",
      "postcode": "7000-076",
      "city": "ÉVORA",
      "lon": "-7.933060903847816",
      "lat": "38.57086425266337"
    },
    {
      "id": "pt.ine.add.PTCONT.1378203",
      "street": "R BARBOSA DO BOCAGE",
      "house": "18",
      "postcode": "7000-337",
      "city": "ÉVORA",
      "lon": "-7.933714484101977",
      "lat": "38.57065339284565"
    },
    {
      "id": "pt.ine.add.PTCONT.1378206",
      "street": "R BARBOSA DO BOCAGE",
      "house": "18",
      "postcode": "7000-337",
      "city": "ÉVORA",
      "lon": "-7.933714484101977",
      "lat": "38.57065339284565"
    },
    {
      "id": "pt.ine.add.PTCONT.1388579",
      "street": "R EIRA",
      "house": "12",
      "postcode": "7000-335",
      "city": "ÉVORA",
      "lon": "-7.9339849620919844",
      "lat": "38.57070033392759"
    },
    {
      "id": "pt.ine.add.PTCONT.1395196",
      "street": "R TORCIDA",
      "house": "3",
      "postcode": "7000-076",
      "city": "ÉVORA",
      "lon": "-7.933081522556503",
      "lat": "38.570979447727154"
    },
    {
      "id": "pt.ine.add.PTCONT.1401458",
      "street": "R BARBOSA DO BOCAGE",
      "house": "12",
      "postcode": "7000-337",
      "city": "ÉVORA",
      "lon": "-7.933044916043003",
      "lat": "38.57078561170222"
    },
    {
      "id": "pt.ine.add.PTCONT.1407819",
      "street": "R EIRA",
      "house": "12 A",
      "postcode": "7000-335",
      "city": "ÉVORA",
      "lon": "-7.933833416257882",
      "lat": "38.57074581440639"
    },
    {
      "id": "pt.ine.add.PTCONT.1429433",
      "street": "R EIRA",
      "house": "10",
      "postcode": "7000-335",
      "city": "ÉVORA",
      "lon": "-7.934011593857527",
      "lat": "38.57058768138891"
    },
    {
      "id": "pt.ine.add.PTCONT.1450896",
      "street": "R TORCIDA",
      "house": "5",
      "postcode": "7000-076",
      "city": "ÉVORA",
      "lon": "-7.933110035874093",
      "lat": "38.57108476504694"
    }
  ]
}