{
  "data": {
    "distrito": "Porto",
    "concelho": "Marco de Canaveses",
    "freguesia": "Alpendorada, Várzea e Torrão",
    "OBJECTID": 338,
    "BGRI2021": "13073200213",
    "DT21": "13",
    "DTMN21": "1307",
    "DTMNFR21": "130732",
    "DTMNFRSEC21": "130732002",
    "SECNUM21": "002",
    "SSNUM21": "13",
    "SECSSNUM21": "00213",
    "OBJECTID_1": 131917,
    "DT": "13",
    "CC": "07",
    "fr": "32",
    "SEC": "002",
    "SS": "13"
  },
  "addresses": [
    {
      "id": "pt.ine.add.PTCONT.3560856",
      "street": "R QUINTA DAS LAVOURAS",
      "house": "148",
      "postcode": "4575-077",
      "city": "ALPENDURADA E MATOS",
      "lon": "-8.243671156832871",
      "lat": "41.09397246823306"
    },
    {
      "id": "pt.ine.add.PTCONT.3560857",
      "street": "R QUINTA LAVOURAS",
      "house": "162",
      "postcode": "4575-077",
      "city": "ALPENDURADA E MATOS",
      "lon": "-8.243671156832871",
      "lat": "41.09397246823306"
    },
    {
      "id": "pt.ine.add.PTCONT.3564684",
      "street": "R VINHA D ALEM",
      "house": "36",
      "postcode": "4575-061",
      "city": "ALPENDURADA E MATOS",
      "lon": "-8.244703142060366",
      "lat": "41.09188243219799"
    },
    {
      "id": "pt.ine.add.PTCONT.3567201",
      "street": "R CAMINHO VELHO",
      "house": "70",
      "postcode": "4575-032",
      "city": "ALPENDURADA E MATOS",
      "lon": "-8.24587880710556",
      "lat": "41.09033251518732"
    },
    {
      "id": "pt.ine.add.PTCONT.3593630",
      "street": "AV S JOÃO",
      "house": "",
      "postcode": "4575-029",
      "city": "ALPENDURADA E MATOS",
      "lon": "-8.244210542316946",
      "lat": "41.08914554277274"
    },
    {
      "id": "pt.ine.add.PTCONT.3631531",
      "street": "R CAMINHO VELHO",
      "house": "148",
      "postcode": "4575-032",
      "city": "ALPENDURADA E MATOS",
      "lon": "-8.24560577050113",
      "lat": "41.090746988692416"
    },
    {
      "id": "pt.ine.add.PTCONT.3637992",
      "street": "R MEMORIAL",
      "house": "348",
      "postcode": "4575-032",
      "city": "ALPENDURADA E MATOS",
      "lon": "-8.245285398054945",
      "lat": "41.09132358844279"
    },
    {
      "id": "pt.ine.add.PTCONT.3650434",
      "street": "R QUINTA DAS LAVOURAS",
      "house": "52",
      "postcode": "4575-077",
      "city": "ALPENDURADA E MATOS",
      "lon": "-8.24436044035699",
      "lat": "41.09334149070224"
    },
    {
      "id": "pt.ine.add.PTCONT.3654203",
      "street": "R QUINTA DAS LAVOURAS",
      "house": "52",
      "postcode": "4575-077",
      "city": "ALPENDURADA E MATOS",
      "lon": "-8.24436044035699",
      "lat": "41.09334149070224"
    },
    {
      "id": "pt.ine.add.PTCONT.3664156",
      "street": "AV S JOÃO",
      "house": "1312",
      "postcode": "4575-029",
      "city": "ALPENDURADA E MATOS",
      "lon": "-8.245936806874163",
      "lat": "41.089450018141484"
    },
    {
      "id": "pt.ine.add.PTCONT.3664157",
      "street": "AV S JOÃO",
      "house": "1312",
      "postcode": "4575-029",
      "city": "ALPENDURADA E MATOS",
      "lon": "-8.245936806874163",
      "lat": "41.089450018141484"
    },
    {
      "id": "pt.ine.add.PTCONT.3705285",
      "street": "R MEMORIAL",
      "house": "262",
      "postcode": "4575-032",
      "city": "ALPENDURADA E MATOS",
      "lon": "-8.245950557291092",
      "lat": "41.09053054376058"
    },
    {
      "id": "pt.ine.add.PTCONT.3735391",
      "street": "AV S JOÃO",
      "house": "1300",
      "postcode": "4575-029",
      "city": "ALPENDURADA E MATOS",
      "lon": "-8.245734831360997",
      "lat": "41.08965731907742"
    },
    {
      "id": "pt.ine.add.PTCONT.3758205",
      "street": "R CAMINHO VELHO",
      "house": "174",
      "postcode": "4575-032",
      "city": "ALPENDURADA E MATOS",
      "lon": "-8.245510846483313",
      "lat": "41.09091816666015"
    },
    {
      "id": "pt.ine.add.PTCONT.3780582",
      "street": "R MEMORIAL",
      "house": "278",
      "postcode": "4575-032",
      "city": "ALPENDURADA E MATOS",
      "lon": "-8.245867459445604",
      "lat": "41.09065668798957"
    },
    {
      "id": "pt.ine.add.PTCONT.3780752",
      "street": "R CAMINHO VELHO",
      "house": "132",
      "postcode": "4575-032",
      "city": "ALPENDURADA E MATOS",
      "lon": "-8.24565307098568",
      "lat": "41.090566852675394"
    },
    {
      "id": "pt.ine.add.PTCONT.3793816",
      "street": "TV VINHA D ALEM",
      "house": "52",
      "postcode": "4575-061",
      "city": "ALPENDURADA E MATOS",
      "lon": "-8.244477761410725",
      "lat": "41.09233287471327"
    },
    {
      "id": "pt.ine.add.PTCONT.3819075",
      "street": "R CASAS NOVAS",
      "house": "225",
      "postcode": "4575-004",
      "city": "ALPENDURADA E MATOS",
      "lon": "-8.241782113646286",
      "lat": "41.08885071038738"
    },
    {
      "id": "pt.ine.add.PTCONT.3832190",
      "street": "R CAMINHO VELHO",
      "house": "140",
      "postcode": "4575-032",
      "city": "ALPENDURADA E MATOS",
      "lon": "-8.245724666994903",
      "lat": "41.09067483661962"
    },
    {
      "id": "pt.ine.add.PTCONT.3864332",
      "street": "R QUINTA DAS LAVOURAS",
      "house": "",
      "postcode": "4575-077",
      "city": "ALPENDURADA E MATOS",
      "lon": "-8.242503662974666",
      "lat": "41.09334326851156"
    },
    {
      "id": "pt.ine.add.PTCONT.3883601",
      "street": "TV VINHA D ALEM",
      "house": "34",
      "postcode": "4575-061",
      "city": "ALPENDURADA E MATOS",
      "lon": "-8.244882193266166",
      "lat": "41.092188411281725"
    },
    {
      "id": "pt.ine.add.PTCONT.3883619",
      "street": "R DR DAVID SOUSA",
      "house": "66",
      "postcode": "4575-037",
      "city": "ALPENDURADA E MATOS",
      "lon": "-8.240140349064658",
      "lat": "41.08925744932409"
    },
    {
      "id": "pt.ine.add.PTCONT.3897105",
      "street": "R CASAS NOVAS",
      "house": "",
      "postcode": "4575-004",
      "city": "ALPENDURADA E MATOS",
      "lon": "-8.240797676265476",
      "lat": "41.09093167245826"
    },
    {
      "id": "pt.ine.add.PTCONT.3905243",
      "street": "R QUINTA DAS LAVOURAS",
      "house": "42",
      "postcode": "4575-077",
      "city": "ALPENDURADA E MATOS",
      "lon": "-8.244491138833597",
      "lat": "41.09320629712587"
    },
    {
      "id": "pt.ine.add.PTCONT.3905244",
      "street": "R QUINTA DAS LAVOURAS",
      "house": "42",
      "postcode": "4575-077",
      "city": "ALPENDURADA E MATOS",
      "lon": "-8.244491138833597",
      "lat": "41.09320629712587"
    },
    {
      "id": "pt.ine.add.PTCONT.3908828",
      "street": "R VINHA D ALEM",
      "house": "164",
      "postcode": "4575-061",
      "city": "ALPENDURADA E MATOS",
      "lon": "-8.244942956432745",
      "lat": "41.09292672037014"
    },
    {
      "id": "pt.ine.add.PTCONT.3915388",
      "street": "R QUINTA DAS LAVOURAS",
      "house": "102",
      "postcode": "4575-077",
      "city": "ALPENDURADA E MATOS",
      "lon": "-8.244027672428068",
      "lat": "41.09363895958814"
    },
    {
      "id": "pt.ine.add.PTCONT.3921971",
      "street": "R CAMINHO VELHO",
      "house": "",
      "postcode": "4575-032",
      "city": "ALPENDURADA E MATOS",
      "lon": "-8.246068836124532",
      "lat": "41.0900982122586"
    },
    {
      "id": "pt.ine.add.PTCONT.3926798",
      "street": "R CAMINHO VELHO",
      "house": "",
      "postcode": "4575-032",
      "city": "ALPENDURADA E MATOS",
      "lon": "-8.24566458872286",
      "lat": "41.090341729133726"
    },
    {
      "id": "pt.ine.add.PTCONT.3948273",
      "street": "R VINHA D ALEM",
      "house": "82",
      "postcode": "4575-061",
      "city": "ALPENDURADA E MATOS",
      "lon": "-8.24507279679011",
      "lat": "41.09228727560673"
    },
    {
      "id": "pt.ine.add.PTCONT.3967328",
      "street": "TV VINHA D ALEM",
      "house": "97",
      "postcode": "4575-061",
      "city": "ALPENDURADA E MATOS",
      "lon": "-8.244454367418454",
      "lat": "41.09257601851353"
    },
    {
      "id": "pt.ine.add.PTCONT.3976878",
      "street": "R MEMORIAL",
      "house": "366",
      "postcode": "4575-032",
      "city": "ALPENDURADA E MATOS",
      "lon": "-8.245190365257562",
      "lat": "41.09143173480513"
    },
    {
      "id": "pt.ine.add.PTCONT.3977591",
      "street": "TV VINHA D ALEM",
      "house": "12",
      "postcode": "4575-061",
      "city": "ALPENDURADA E MATOS",
      "lon": "-8.244989022917096",
      "lat": "41.09201722230918"
    },
    {
      "id": "pt.ine.add.PTCONT.3985396",
      "street": "R VINHA D ALEM",
      "house": "108",
      "postcode": "4575-061",
      "city": "ALPENDURADA E MATOS",
      "lon": "-8.245049206312364",
      "lat": "41.092413361369225"
    },
    {
      "id": "pt.ine.add.PTCONT.3985397",
      "street": "R MEMORIAL",
      "house": "202",
      "postcode": "4575-032",
      "city": "ALPENDURADA E MATOS",
      "lon": "-8.246508832351573",
      "lat": "41.08988167225655"
    },
    {
      "id": "pt.ine.add.PTCONT.4031983",
      "street": "R DR DAVID DE SOUSA",
      "house": "71",
      "postcode": "4575-037",
      "city": "ALPENDURADA E MATOS",
      "lon": "-8.239580824586653",
      "lat": "41.08916792276083"
    },
    {
      "id": "pt.ine.add.PTCONT.4071634",
      "street": "R MEMORIAL",
      "house": "242",
      "postcode": "4575-032",
      "city": "ALPENDURADA E MATOS",
      "lon": "-8.246390216533406",
      "lat": "41.09011590573279"
    },
    {
      "id": "pt.ine.add.PTCONT.4123696",
      "street": "R MEMORIAL",
      "house": "180",
      "postcode": "4575-032",
      "city": "ALPENDURADA E MATOS",
      "lon": "-8.246711038759027",
      "lat": "41.08980943713574"
    },
    {
      "id": "pt.ine.add.PTCONT.4142083",
      "street": "R QUINTA LAVOURAS",
      "house": "72",
      "postcode": "4575-077",
      "city": "ALPENDURADA E MATOS",
      "lon": "-8.244146454566412",
      "lat": "41.093494773392955"
    },
    {
      "id": "pt.ine.add.PTCONT.4143605",
      "street": "R MEMORIAL",
      "house": "PORTA B",
      "postcode": "4575-032",
      "city": "ALPENDURADA E MATOS",
      "lon": "-8.246211951507942",
      "lat": "41.090269157217065"
    },
    {
      "id": "pt.ine.add.PTCONT.4143606",
      "street": "R MEMORIAL",
      "house": "228",
      "postcode": "4575-032",
      "city": "ALPENDURADA E MATOS",
      "lon": "-8.246211951507942",
      "lat": "41.090269157217065"
    },
    {
      "id": "pt.ine.add.PTCONT.4143607",
      "street": "R MEMORIAL",
      "house": "228",
      "postcode": "4575-032",
      "city": "ALPENDURADA E MATOS",
      "lon": "-8.246211951507942",
      "lat": "41.090269157217065"
    },
    {
      "id": "pt.ine.add.PTCONT.4143608",
      "street": "R MEMORIAL",
      "house": "228",
      "postcode": "4575-032",
      "city": "ALPENDURADA E MATOS",
      "lon": "-8.246211951507942",
      "lat": "41.090269157217065"
    },
    {
      "id": "pt.ine.add.PTCONT.4143609",
      "street": "R MEMORIAL",
      "house": "228",
      "postcode": "4575-032",
      "city": "ALPENDURADA E MATOS",
      "lon": "-8.246211951507942",
      "lat": "41.090269157217065"
    },
    {
      "id": "pt.ine.add.PTCONT.4143610",
      "street": "R MEMORIAL",
      "house": "228",
      "postcode": "4575-032",
      "city": "ALPENDURADA E MATOS",
      "lon": "-8.246211951507942",
      "lat": "41.090269157217065"
    },
    {
      "id": "pt.ine.add.PTCONT.4143611",
      "street": "R MEMORIAL",
      "house": "238",
      "postcode": "4575-032",
      "city": "ALPENDURADA E MATOS",
      "lon": "-8.246211951507942",
      "lat": "41.090269157217065"
    },
    {
      "id": "pt.ine.add.PTCONT.4147524",
      "street": "R MEMORIAL",
      "house": "238",
      "postcode": "4575-032",
      "city": "ALPENDURADA E MATOS",
      "lon": "-8.246211951507942",
      "lat": "41.090269157217065"
    },
    {
      "id": "pt.ine.add.PTCONT.4156641",
      "street": "R DR DAVID DE SOUSA",
      "house": "27",
      "postcode": "4575-037",
      "city": "ALPENDURADA E MATOS",
      "lon": "-8.239854941839965",
      "lat": "41.089401785979554"
    },
    {
      "id": "pt.ine.add.PTCONT.4156653",
      "street": "R MEMORIAL",
      "house": "252",
      "postcode": "4575-032",
      "city": "ALPENDURADA E MATOS",
      "lon": "-8.246021799179053",
      "lat": "41.09043142456276"
    },
    {
      "id": "pt.ine.add.PTCONT.4228262",
      "street": "R SERRINHA",
      "house": "190",
      "postcode": "4575-049",
      "city": "ALPENDURADA E MATOS",
      "lon": "-8.245050643059146",
      "lat": "41.0932597818403"
    },
    {
      "id": "pt.ine.add.PTCONT.4241725",
      "street": "R QUINTA DAS LAVOURAS",
      "house": "",
      "postcode": "4575-077",
      "city": "ALPENDURADA E MATOS",
      "lon": "-8.24480066208148",
      "lat": "41.093242015455374"
    },
    {
      "id": "pt.ine.add.PTCONT.4254608",
      "street": "R VINHA D ALEM",
      "house": "36",
      "postcode": "4575-061",
      "city": "ALPENDURADA E MATOS",
      "lon": "-8.245024393282202",
      "lat": "41.091819089193464"
    },
    {
      "id": "pt.ine.add.PTCONT.4261255",
      "street": "R CAMINHO VELHO",
      "house": "22",
      "postcode": "4575-032",
      "city": "ALPENDURADA E MATOS",
      "lon": "-8.246246884772544",
      "lat": "41.08981889830832"
    },
    {
      "id": "pt.ine.add.PTCONT.4264910",
      "street": "R VINHA D ALEM",
      "house": "124",
      "postcode": "4575-061",
      "city": "ALPENDURADA E MATOS",
      "lon": "-8.245049389723436",
      "lat": "41.092521415053334"
    },
    {
      "id": "pt.ine.add.PTCONT.4267794",
      "street": "R VINHA D ALEM",
      "house": "16",
      "postcode": "4575-061",
      "city": "ALPENDURADA E MATOS",
      "lon": "-8.245095469759397",
      "lat": "41.0916209213629"
    },
    {
      "id": "pt.ine.add.PTCONT.4272010",
      "street": "ORDONHO",
      "house": "",
      "postcode": "4575-036",
      "city": "ALPENDURADA E MATOS",
      "lon": "-8.244042556015081",
      "lat": "41.088335300127234"
    },
    {
      "id": "pt.ine.add.PTCONT.4275061",
      "street": "R QUINTA DAS LAVOURAS",
      "house": "122",
      "postcode": "4575-077",
      "city": "ALPENDURADA E MATOS",
      "lon": "-8.243873197399632",
      "lat": "41.0937921844611"
    },
    {
      "id": "pt.ine.add.PTCONT.4275062",
      "street": "TV VINHA D ALEM",
      "house": "145",
      "postcode": "4575-061",
      "city": "ALPENDURADA E MATOS",
      "lon": "-8.243752072434688",
      "lat": "41.09254067707481"
    },
    {
      "id": "pt.ine.add.PTCONT.4288153",
      "street": "R CAMINHO VELHO",
      "house": "110",
      "postcode": "4575-032",
      "city": "ALPENDURADA E MATOS",
      "lon": "-8.245676690393779",
      "lat": "41.09045877570436"
    },
    {
      "id": "pt.ine.add.PTCONT.4288154",
      "street": "R CAMINHO VELHO",
      "house": "110",
      "postcode": "4575-032",
      "city": "ALPENDURADA E MATOS",
      "lon": "-8.245676690393779",
      "lat": "41.09045877570436"
    },
    {
      "id": "pt.ine.add.PTCONT.4295793",
      "street": "R VINHA D ALEM",
      "house": "144",
      "postcode": "4575-061",
      "city": "ALPENDURADA E MATOS",
      "lon": "-8.24502593664876",
      "lat": "41.09272854106607"
    },
    {
      "id": "pt.ine.add.PTCONT.4312498",
      "street": "R MEMORIAL",
      "house": "",
      "postcode": "4575-032",
      "city": "ALPENDURADA E MATOS",
      "lon": "-8.245332791758381",
      "lat": "41.09119747942744"
    },
    {
      "id": "pt.ine.add.PTCONT.4332153",
      "street": "TV VINHA D ALEM",
      "house": "73",
      "postcode": "4575-061",
      "city": "ALPENDURADA E MATOS",
      "lon": "-8.24473999166168",
      "lat": "41.09255773317281"
    },
    {
      "id": "pt.ine.add.PTCONT.4339719",
      "street": "R MEMORIAL",
      "house": "166",
      "postcode": "4575-032",
      "city": "ALPENDURADA E MATOS",
      "lon": "-8.246425751860361",
      "lat": "41.09001682137703"
    },
    {
      "id": "pt.ine.add.PTCONT.4376575",
      "street": "R CASAS NOVAS",
      "house": "225",
      "postcode": "4575-004",
      "city": "ALPENDURADA E MATOS",
      "lon": "-8.241782113646286",
      "lat": "41.08885071038738"
    }
  ]
}