{
  "data": {
    "distrito": "Ã‰vora",
    "concelho": "Arraiolos",
    "freguesia": "Arraiolos",
    "OBJECTID": 24,
    "BGRI2021": "07020100122",
    "DT21": "07",
    "DTMN21": "0702",
    "DTMNFR21": "070201",
    "DTMNFRSEC21": "070201001",
    "SECNUM21": "001",
    "SSNUM21": "22",
    "SECSSNUM21": "00122",
    "OBJECTID_1": 58930,
    "DT": "07",
    "CC": "02",
    "fr": "01",
    "SEC": "001",
    "SS": "22"
  },
  "addresses": [
    {
      "id": "pt.ine.add.PTCONT.1369879",
      "street": "HORTA DAS CANAS",
      "house": "",
      "postcode": "7040-056",
      "city": "ARRAIOLOS",
      "lon": "-7.987559311584626",
      "lat": "38.71395391290242"
    },
    {
      "id": "pt.ine.add.PTCONT.1377528",
      "street": "",
      "house": "",
      "postcode": "7040-130",
      "city": "ARRAIOLOS",
      "lon": "-7.985671293647378",
      "lat": "38.715122611869305"
    },
    {
      "id": "pt.ine.add.PTCONT.1381350",
      "street": "FERRAJIAL HORTA",
      "house": "",
      "postcode": "7040-113",
      "city": "ARRAIOLOS",
      "lon": "-7.983465379212036",
      "lat": "38.7088050673236"
    },
    {
      "id": "pt.ine.add.PTCONT.1393781",
      "street": "HONRA DAS CANAS VERDES",
      "house": "",
      "postcode": "7040-113",
      "city": "ARRAIOLOS",
      "lon": "-7.988311201147197",
      "lat": "38.711702798797965"
    },
    {
      "id": "pt.ine.add.PTCONT.1406022",
      "street": "QTA CARVALHOS",
      "house": "CP 201",
      "postcode": "7040-113",
      "city": "ARRAIOLOS",
      "lon": "-7.982291928699439",
      "lat": "38.709172895742405"
    },
    {
      "id": "pt.ine.add.PTCONT.1417046",
      "street": "QTA ROSAL ARRAIOLO",
      "house": "ARRAIOLO",
      "postcode": "7040-113",
      "city": "ARRAIOLOS",
      "lon": "-7.983093936250079",
      "lat": "38.71600213576198"
    },
    {
      "id": "pt.ine.add.PTCONT.1420351",
      "street": "SEM DESIGNACAO",
      "house": "202",
      "postcode": "7040-113",
      "city": "ARRAIOLOS",
      "lon": "-7.983819569771129",
      "lat": "38.709868487134315"
    },
    {
      "id": "pt.ine.add.PTCONT.1442800",
      "street": "CANAS VERDES",
      "house": "",
      "postcode": "7040-113",
      "city": "ARRAIOLOS",
      "lon": "-7.987255904431466",
      "lat": "38.710494389345946"
    },
    {
      "id": "pt.ine.add.PTCONT.1443731",
      "street": "FERRAJIAL DA MANIZOLA",
      "house": "",
      "postcode": "7040-113",
      "city": "ARRAIOLOS",
      "lon": "-7.9820334310303025",
      "lat": "38.71727993246412"
    },
    {
      "id": "pt.ine.add.PTCONT.1451414",
      "street": "",
      "house": "",
      "postcode": "7040-056",
      "city": "ARRAIOLOS",
      "lon": "-7.984336033716284",
      "lat": "38.7158505836234"
    },
    {
      "id": "pt.ine.add.PTCONT.1453579",
      "street": "QTA STA MARIA",
      "house": "",
      "postcode": "7040-056",
      "city": "ARRAIOLOS",
      "lon": "-7.985797936105427",
      "lat": "38.71504169780888"
    },
    {
      "id": "pt.ine.add.PTCONT.1456590",
      "street": "HORTA DAS CANAS VERDES",
      "house": "CP 205",
      "postcode": "7040-132",
      "city": "ARRAIOLOS",
      "lon": "-7.982912344959608",
      "lat": "38.70937187460567"
    },
    {
      "id": "pt.ine.add.PTCONT.1456776",
      "street": "SIT FERRAGIAL DA FORCA",
      "house": "",
      "postcode": "7040-113",
      "city": "ARRAIOLOS",
      "lon": "-7.982198591559377",
      "lat": "38.71528933694224"
    },
    {
      "id": "pt.ine.add.PTCONT.1458887",
      "street": "",
      "house": "",
      "postcode": "7040-056",
      "city": "ARRAIOLOS",
      "lon": "-7.986117162736129",
      "lat": "38.716366302881504"
    }
  ]
}