{
  "data": {
    "ilha": "Ilha da Madeira (Madeira)",
    "concelho": "Funchal",
    "freguesia": "Funchal (São Pedro)",
    "OBJECTID": 664,
    "BGRI2021": "31030800107",
    "DT21": "31",
    "DTMN21": "3103",
    "DTMNFR21": "310308",
    "DTMNFRSEC21": "310308001",
    "SECNUM21": "001",
    "SSNUM21": "07",
    "SECSSNUM21": "00107",
    "OBJECTID_1": 204070,
    "DT": "31",
    "CC": "03",
    "fr": "08",
    "SEC": "001",
    "SS": "07",
    "BGRI2021_1": "31030800107"
  },
  "addresses": [
    {
      "id": "pt.ine.add.MAD.18616",
      "street": "R MERCÊS",
      "house": "29",
      "postcode": "9000-224",
      "city": "FUNCHAL",
      "lon": "-16.911425597407437",
      "lat": "32.65104019971324"
    },
    {
      "id": "pt.ine.add.MAD.18617",
      "street": "R S PEDRO",
      "house": "3",
      "postcode": "9000-219",
      "city": "FUNCHAL",
      "lon": "-16.91175194848216",
      "lat": "32.64984475066899"
    },
    {
      "id": "pt.ine.add.MAD.18618",
      "street": "CC STA CLARA",
      "house": "10",
      "postcode": "9000-036",
      "city": "FUNCHAL",
      "lon": "-16.912160367616373",
      "lat": "32.650000865609385"
    },
    {
      "id": "pt.ine.add.MAD.18619",
      "street": "CC STA CLARA",
      "house": "12",
      "postcode": "9000-036",
      "city": "FUNCHAL",
      "lon": "-16.91219329829148",
      "lat": "32.65004545764157"
    },
    {
      "id": "pt.ine.add.MAD.18620",
      "street": "CC STA CLARA",
      "house": "22",
      "postcode": "9000-036",
      "city": "FUNCHAL",
      "lon": "-16.912154701422885",
      "lat": "32.65023543992166"
    },
    {
      "id": "pt.ine.add.MAD.18621",
      "street": "CC STA CLARA",
      "house": "30",
      "postcode": "9000-036",
      "city": "FUNCHAL",
      "lon": "-16.912077123358884",
      "lat": "32.650597372762626"
    },
    {
      "id": "pt.ine.add.MAD.18622",
      "street": "CC STA CLARA",
      "house": "30",
      "postcode": "9000-036",
      "city": "FUNCHAL",
      "lon": "-16.912077123358884",
      "lat": "32.650597372762626"
    },
    {
      "id": "pt.ine.add.MAD.18623",
      "street": "CC STA CLARA",
      "house": "30",
      "postcode": "9000-036",
      "city": "FUNCHAL",
      "lon": "-16.912077123358884",
      "lat": "32.650597372762626"
    },
    {
      "id": "pt.ine.add.MAD.18624",
      "street": "CC STA CLARA",
      "house": "30",
      "postcode": "9000-036",
      "city": "FUNCHAL",
      "lon": "-16.912077123358884",
      "lat": "32.650597372762626"
    },
    {
      "id": "pt.ine.add.MAD.18625",
      "street": "CC STA CLARA",
      "house": "30",
      "postcode": "9000-036",
      "city": "FUNCHAL",
      "lon": "-16.912077123358884",
      "lat": "32.650597372762626"
    },
    {
      "id": "pt.ine.add.MAD.18626",
      "street": "CC STA CLARA",
      "house": "30",
      "postcode": "9000-036",
      "city": "FUNCHAL",
      "lon": "-16.912077123358884",
      "lat": "32.650597372762626"
    },
    {
      "id": "pt.ine.add.MAD.18627",
      "street": "CC STA CLARA",
      "house": "30",
      "postcode": "9000-036",
      "city": "FUNCHAL",
      "lon": "-16.912077123358884",
      "lat": "32.650597372762626"
    },
    {
      "id": "pt.ine.add.MAD.18628",
      "street": "CC STA CLARA",
      "house": "30",
      "postcode": "9000-036",
      "city": "FUNCHAL",
      "lon": "-16.912077123358884",
      "lat": "32.650597372762626"
    },
    {
      "id": "pt.ine.add.MAD.18629",
      "street": "CC STA CLARA",
      "house": "30",
      "postcode": "9000-036",
      "city": "FUNCHAL",
      "lon": "-16.912077123358884",
      "lat": "32.650597372762626"
    },
    {
      "id": "pt.ine.add.MAD.18630",
      "street": "CC STA CLARA",
      "house": "30",
      "postcode": "9000-036",
      "city": "FUNCHAL",
      "lon": "-16.912077123358884",
      "lat": "32.650597372762626"
    },
    {
      "id": "pt.ine.add.MAD.18631",
      "street": "BC MADUREIRA",
      "house": "6 8",
      "postcode": "9000-219",
      "city": "FUNCHAL",
      "lon": "-16.911754827150354",
      "lat": "32.64997998835102"
    },
    {
      "id": "pt.ine.add.MAD.18632",
      "street": "BC MADUREIRA",
      "house": "16",
      "postcode": "9000-219",
      "city": "FUNCHAL",
      "lon": "-16.911833264307077",
      "lat": "32.65015916871682"
    },
    {
      "id": "pt.ine.add.MAD.18633",
      "street": "BC MADUREIRA",
      "house": "9",
      "postcode": "9000-219",
      "city": "FUNCHAL",
      "lon": "-16.911969885769782",
      "lat": "32.65006689944428"
    },
    {
      "id": "pt.ine.add.MAD.22964",
      "street": "CC STA CLARA",
      "house": "30",
      "postcode": "9000-036",
      "city": "FUNCHAL",
      "lon": "-16.912077123358884",
      "lat": "32.650597372762626"
    },
    {
      "id": "pt.ine.add.MAD.22965",
      "street": "CC STA CLARA",
      "house": "30",
      "postcode": "9000-036",
      "city": "FUNCHAL",
      "lon": "-16.912077123358884",
      "lat": "32.650597372762626"
    },
    {
      "id": "pt.ine.add.MAD.22966",
      "street": "CC STA CLARA",
      "house": "30",
      "postcode": "9000-036",
      "city": "FUNCHAL",
      "lon": "-16.912077123358884",
      "lat": "32.650597372762626"
    },
    {
      "id": "pt.ine.add.MAD.22967",
      "street": "CC STA CLARA",
      "house": "30",
      "postcode": "9000-036",
      "city": "FUNCHAL",
      "lon": "-16.912077123358884",
      "lat": "32.650597372762626"
    },
    {
      "id": "pt.ine.add.MAD.22968",
      "street": "CC STA CLARA",
      "house": "30",
      "postcode": "9000-036",
      "city": "FUNCHAL",
      "lon": "-16.912077123358884",
      "lat": "32.650597372762626"
    },
    {
      "id": "pt.ine.add.MAD.22969",
      "street": "CC STA CLARA",
      "house": "30",
      "postcode": "9000-036",
      "city": "FUNCHAL",
      "lon": "-16.912077123358884",
      "lat": "32.650597372762626"
    },
    {
      "id": "pt.ine.add.MAD.22970",
      "street": "CC STA CLARA",
      "house": "30",
      "postcode": "9000-036",
      "city": "FUNCHAL",
      "lon": "-16.912077123358884",
      "lat": "32.650597372762626"
    },
    {
      "id": "pt.ine.add.MAD.22971",
      "street": "CC STA CLARA",
      "house": "30",
      "postcode": "9000-036",
      "city": "FUNCHAL",
      "lon": "-16.912077123358884",
      "lat": "32.650597372762626"
    },
    {
      "id": "pt.ine.add.MAD.22972",
      "street": "CC STA CLARA",
      "house": "30",
      "postcode": "9000-036",
      "city": "FUNCHAL",
      "lon": "-16.912077123358884",
      "lat": "32.650597372762626"
    },
    {
      "id": "pt.ine.add.MAD.22973",
      "street": "CC STA CLARA",
      "house": "30",
      "postcode": "9000-036",
      "city": "FUNCHAL",
      "lon": "-16.912077123358884",
      "lat": "32.650597372762626"
    },
    {
      "id": "pt.ine.add.MAD.22974",
      "street": "CC STA CLARA",
      "house": "30",
      "postcode": "9000-036",
      "city": "FUNCHAL",
      "lon": "-16.912077123358884",
      "lat": "32.650597372762626"
    },
    {
      "id": "pt.ine.add.MAD.22975",
      "street": "CC STA CLARA",
      "house": "30",
      "postcode": "9000-036",
      "city": "FUNCHAL",
      "lon": "-16.912077123358884",
      "lat": "32.650597372762626"
    },
    {
      "id": "pt.ine.add.MAD.56809",
      "street": "R MERCÊS",
      "house": "13",
      "postcode": "9000-224",
      "city": "FUNCHAL",
      "lon": "-16.91114957717153",
      "lat": "32.650593465442014"
    },
    {
      "id": "pt.ine.add.MAD.57944",
      "street": "CC STA CLARA",
      "house": "30 A",
      "postcode": "9000-036",
      "city": "FUNCHAL",
      "lon": "-16.912436774758593",
      "lat": "32.65046562925883"
    },
    {
      "id": "pt.ine.add.MAD.63895",
      "street": "R MERCÊS",
      "house": "17",
      "postcode": "9000-224",
      "city": "FUNCHAL",
      "lon": "-16.911215246181108",
      "lat": "32.65067363419301"
    },
    {
      "id": "pt.ine.add.MAD.75682",
      "street": "R S PEDRO",
      "house": "29",
      "postcode": "9000-219",
      "city": "FUNCHAL",
      "lon": "-16.9112891823222",
      "lat": "32.650140400655815"
    },
    {
      "id": "pt.ine.add.MAD.91725",
      "street": "CC STA CLARA",
      "house": "16",
      "postcode": "9000-036",
      "city": "FUNCHAL",
      "lon": "-16.912215572024813",
      "lat": "32.65009021206204"
    },
    {
      "id": "pt.ine.add.MAD.91726",
      "street": "CC STA CLARA",
      "house": "16",
      "postcode": "9000-036",
      "city": "FUNCHAL",
      "lon": "-16.912215572024813",
      "lat": "32.65009021206204"
    },
    {
      "id": "pt.ine.add.MAD.95380",
      "street": "CC STA CLARA",
      "house": "30 B",
      "postcode": "9000-036",
      "city": "FUNCHAL",
      "lon": "-16.912491211786097",
      "lat": "32.65051891219997"
    },
    {
      "id": "pt.ine.add.MAD.96416",
      "street": "CC STA CLARA",
      "house": "36",
      "postcode": "9000-036",
      "city": "FUNCHAL",
      "lon": "-16.91276474203426",
      "lat": "32.650848437380546"
    },
    {
      "id": "pt.ine.add.MAD.96417",
      "street": "R MERCÊS",
      "house": "25",
      "postcode": "9000-224",
      "city": "FUNCHAL",
      "lon": "-16.911380858334827",
      "lat": "32.65094167474176"
    },
    {
      "id": "pt.ine.add.MAD.98669",
      "street": "CC STA CLARA",
      "house": "30",
      "postcode": "9000-036",
      "city": "FUNCHAL",
      "lon": "-16.912077123358884",
      "lat": "32.650597372762626"
    },
    {
      "id": "pt.ine.add.MAD.98670",
      "street": "CC STA CLARA",
      "house": "30",
      "postcode": "9000-036",
      "city": "FUNCHAL",
      "lon": "-16.912077123358884",
      "lat": "32.650597372762626"
    },
    {
      "id": "pt.ine.add.MAD.103779",
      "street": "CC STA CLARA",
      "house": "30",
      "postcode": "9000-036",
      "city": "FUNCHAL",
      "lon": "-16.912077123358884",
      "lat": "32.650597372762626"
    },
    {
      "id": "pt.ine.add.MAD.106468",
      "street": "CC STA CLARA",
      "house": "30",
      "postcode": "9000-036",
      "city": "FUNCHAL",
      "lon": "-16.912077123358884",
      "lat": "32.650597372762626"
    },
    {
      "id": "pt.ine.add.MAD.120988",
      "street": "ICOR-ALOJAMENTO FICTICIO",
      "house": "",
      "postcode": "9000-605",
      "city": "FUNCHAL",
      "lon": "-16.912658171412748",
      "lat": "32.650850061814765"
    },
    {
      "id": "pt.ine.add.MAD.120989",
      "street": "ICOR-ALOJAMENTO FICTICIO",
      "house": "",
      "postcode": "9000-605",
      "city": "FUNCHAL",
      "lon": "-16.912658171412748",
      "lat": "32.650850061814765"
    },
    {
      "id": "pt.ine.add.MAD.120990",
      "street": "ICOR-ALOJAMENTO FICTICIO",
      "house": "",
      "postcode": "9000-605",
      "city": "FUNCHAL",
      "lon": "-16.912658171412748",
      "lat": "32.650850061814765"
    },
    {
      "id": "pt.ine.add.MAD.120991",
      "street": "ICOR-ALOJAMENTO FICTICIO",
      "house": "",
      "postcode": "9000-605",
      "city": "FUNCHAL",
      "lon": "-16.912658171412748",
      "lat": "32.650850061814765"
    },
    {
      "id": "pt.ine.add.MAD.120992",
      "street": "ICOR-ALOJAMENTO FICTICIO",
      "house": "",
      "postcode": "9000-605",
      "city": "FUNCHAL",
      "lon": "-16.912658171412748",
      "lat": "32.650850061814765"
    },
    {
      "id": "pt.ine.add.MAD.120993",
      "street": "ICOR-ALOJAMENTO FICTICIO",
      "house": "",
      "postcode": "9000-605",
      "city": "FUNCHAL",
      "lon": "-16.912658171412748",
      "lat": "32.650850061814765"
    },
    {
      "id": "pt.ine.add.MAD.120994",
      "street": "ICOR-ALOJAMENTO FICTICIO",
      "house": "",
      "postcode": "9000-605",
      "city": "FUNCHAL",
      "lon": "-16.912658171412748",
      "lat": "32.650850061814765"
    },
    {
      "id": "pt.ine.add.MAD.120995",
      "street": "ICOR-ALOJAMENTO FICTICIO",
      "house": "",
      "postcode": "9000-605",
      "city": "FUNCHAL",
      "lon": "-16.912658171412748",
      "lat": "32.650850061814765"
    },
    {
      "id": "pt.ine.add.MAD.120996",
      "street": "ICOR-ALOJAMENTO FICTICIO",
      "house": "",
      "postcode": "9000-605",
      "city": "FUNCHAL",
      "lon": "-16.912658171412748",
      "lat": "32.650850061814765"
    },
    {
      "id": "pt.ine.add.MAD.120997",
      "street": "ICOR-ALOJAMENTO FICTICIO",
      "house": "",
      "postcode": "9000-605",
      "city": "FUNCHAL",
      "lon": "-16.912658171412748",
      "lat": "32.650850061814765"
    },
    {
      "id": "pt.ine.add.MAD.120998",
      "street": "ICOR-ALOJAMENTO FICTICIO",
      "house": "",
      "postcode": "9000-605",
      "city": "FUNCHAL",
      "lon": "-16.912658171412748",
      "lat": "32.650850061814765"
    },
    {
      "id": "pt.ine.add.MAD.120999",
      "street": "ICOR-ALOJAMENTO FICTICIO",
      "house": "",
      "postcode": "9000-605",
      "city": "FUNCHAL",
      "lon": "-16.912658171412748",
      "lat": "32.650850061814765"
    },
    {
      "id": "pt.ine.add.MAD.121000",
      "street": "ICOR-ALOJAMENTO FICTICIO",
      "house": "",
      "postcode": "9000-605",
      "city": "FUNCHAL",
      "lon": "-16.912658171412748",
      "lat": "32.650850061814765"
    },
    {
      "id": "pt.ine.add.MAD.121001",
      "street": "ICOR-ALOJAMENTO FICTICIO",
      "house": "",
      "postcode": "9000-605",
      "city": "FUNCHAL",
      "lon": "-16.912658171412748",
      "lat": "32.650850061814765"
    },
    {
      "id": "pt.ine.add.MAD.121002",
      "street": "ICOR-ALOJAMENTO FICTICIO",
      "house": "",
      "postcode": "9000-605",
      "city": "FUNCHAL",
      "lon": "-16.912658171412748",
      "lat": "32.650850061814765"
    },
    {
      "id": "pt.ine.add.MAD.121003",
      "street": "ICOR-ALOJAMENTO FICTICIO",
      "house": "",
      "postcode": "9000-605",
      "city": "FUNCHAL",
      "lon": "-16.912658171412748",
      "lat": "32.650850061814765"
    },
    {
      "id": "pt.ine.add.MAD.121004",
      "street": "ICOR-ALOJAMENTO FICTICIO",
      "house": "",
      "postcode": "9000-605",
      "city": "FUNCHAL",
      "lon": "-16.912658171412748",
      "lat": "32.650850061814765"
    },
    {
      "id": "pt.ine.add.MAD.121005",
      "street": "ICOR-ALOJAMENTO FICTICIO",
      "house": "",
      "postcode": "9000-605",
      "city": "FUNCHAL",
      "lon": "-16.912658171412748",
      "lat": "32.650850061814765"
    },
    {
      "id": "pt.ine.add.MAD.121006",
      "street": "ICOR-ALOJAMENTO FICTICIO",
      "house": "",
      "postcode": "9000-605",
      "city": "FUNCHAL",
      "lon": "-16.912658171412748",
      "lat": "32.650850061814765"
    },
    {
      "id": "pt.ine.add.MAD.121007",
      "street": "ICOR-ALOJAMENTO FICTICIO",
      "house": "",
      "postcode": "9000-605",
      "city": "FUNCHAL",
      "lon": "-16.912658171412748",
      "lat": "32.650850061814765"
    },
    {
      "id": "pt.ine.add.MAD.121008",
      "street": "ICOR-ALOJAMENTO FICTICIO",
      "house": "",
      "postcode": "9000-605",
      "city": "FUNCHAL",
      "lon": "-16.912658171412748",
      "lat": "32.650850061814765"
    },
    {
      "id": "pt.ine.add.MAD.121009",
      "street": "ICOR-ALOJAMENTO FICTICIO",
      "house": "",
      "postcode": "9000-605",
      "city": "FUNCHAL",
      "lon": "-16.912658171412748",
      "lat": "32.650850061814765"
    },
    {
      "id": "pt.ine.add.MAD.120986",
      "street": "ICOR-ALOJAMENTO FICTICIO",
      "house": "",
      "postcode": "9000-605",
      "city": "FUNCHAL",
      "lon": "-16.912658171412748",
      "lat": "32.650850061814765"
    },
    {
      "id": "pt.ine.add.MAD.120987",
      "street": "ICOR-ALOJAMENTO FICTICIO",
      "house": "",
      "postcode": "9000-605",
      "city": "FUNCHAL",
      "lon": "-16.912658171412748",
      "lat": "32.650850061814765"
    },
    {
      "id": "pt.ine.add.MAD.124143",
      "street": "CAM DOS ZIMBREIROS",
      "house": "73",
      "postcode": "9350-418",
      "city": "TABUA",
      "lon": "-16.912658171412748",
      "lat": "32.650850061814765"
    },
    {
      "id": "pt.ine.add.MAD.124045",
      "street": "R BRIGADEIRO COUCEIRO - VILA BALEIRA",
      "house": "19",
      "postcode": "9400-155",
      "city": "PORTO SANTO",
      "lon": "-16.912658171412748",
      "lat": "32.650850061814765"
    },
    {
      "id": "pt.ine.add.MAD.124049",
      "street": "PASSOS DE CIMA",
      "house": "",
      "postcode": "9240-217",
      "city": "SÃO VICENTE",
      "lon": "-16.912658171412748",
      "lat": "32.650850061814765"
    },
    {
      "id": "pt.ine.add.MAD.124061",
      "street": "TV DA OLARIA APARTAMENTOS D. JOÃO II",
      "house": "5",
      "postcode": "9125-043",
      "city": "CANIÇO",
      "lon": "-16.912658171412748",
      "lat": "32.650850061814765"
    },
    {
      "id": "pt.ine.add.MAD.124101",
      "street": "ESTRADA DO GARAJAU",
      "house": "Z",
      "postcode": "9125-067",
      "city": "CANIÇO",
      "lon": "-16.912658171412748",
      "lat": "32.650850061814765"
    },
    {
      "id": "pt.ine.add.MAD.124064",
      "street": "CAM DE SÃO ROQUE",
      "house": "22",
      "postcode": "9020-122",
      "city": "FUNCHAL",
      "lon": "-16.912658171412748",
      "lat": "32.650850061814765"
    },
    {
      "id": "pt.ine.add.MAD.124077",
      "street": "ESTR MONUMENTAL BLOCO OESTE",
      "house": "187",
      "postcode": "9000-100",
      "city": "FUNCHAL",
      "lon": "-16.912658171412748",
      "lat": "32.650850061814765"
    },
    {
      "id": "pt.ine.add.MAD.124078",
      "street": "VR DO CABEÇO",
      "house": "29 B",
      "postcode": "9100-251",
      "city": "STO ANTÓNIO DA SERRA SCR",
      "lon": "-16.912658171412748",
      "lat": "32.650850061814765"
    },
    {
      "id": "pt.ine.add.MAD.124088",
      "street": "CAM VELHO DA CHAMORRA",
      "house": "47",
      "postcode": "9020-128",
      "city": "FUNCHAL",
      "lon": "-16.912658171412748",
      "lat": "32.650850061814765"
    },
    {
      "id": "pt.ine.add.MAD.124092",
      "street": "1º TRAVESSA DA OLARIA",
      "house": "",
      "postcode": "9125-163",
      "city": "CANIÇO",
      "lon": "-16.912658171412748",
      "lat": "32.650850061814765"
    },
    {
      "id": "pt.ine.add.MAD.124099",
      "street": "R SÃO SEBASTIÃO",
      "house": "",
      "postcode": "9100-175",
      "city": "SANTA CRUZ",
      "lon": "-16.912658171412748",
      "lat": "32.650850061814765"
    },
    {
      "id": "pt.ine.add.MAD.124103",
      "street": "ESTR DOS MOINHOS",
      "house": "",
      "postcode": "9125-103",
      "city": "CANIÇO",
      "lon": "-16.912658171412748",
      "lat": "32.650850061814765"
    },
    {
      "id": "pt.ine.add.MAD.124104",
      "street": "AZ DO PILAR",
      "house": "",
      "postcode": "9000-690",
      "city": "FUNCHAL",
      "lon": "-16.912658171412748",
      "lat": "32.650850061814765"
    },
    {
      "id": "pt.ine.add.MAD.124109",
      "street": "R DE SANTA MARIA MAIOR",
      "house": "181",
      "postcode": "9060-291",
      "city": "FUNCHAL",
      "lon": "-16.912658171412748",
      "lat": "32.650850061814765"
    },
    {
      "id": "pt.ine.add.MAD.124110",
      "street": "R DO POISO",
      "house": "45",
      "postcode": "9100-220",
      "city": "SANTA CRUZ",
      "lon": "-16.912658171412748",
      "lat": "32.650850061814765"
    },
    {
      "id": "pt.ine.add.MAD.124111",
      "street": "CAM ENTRE ÁGUAS",
      "house": "9",
      "postcode": "9200-037",
      "city": "CANIÇAL",
      "lon": "-16.912658171412748",
      "lat": "32.650850061814765"
    },
    {
      "id": "pt.ine.add.MAD.124112",
      "street": "R DA FONTE",
      "house": "25",
      "postcode": "9200-142",
      "city": "MACHICO",
      "lon": "-16.912658171412748",
      "lat": "32.650850061814765"
    },
    {
      "id": "pt.ine.add.MAD.124113",
      "street": "R MARIA ASCENSÃO",
      "house": "64",
      "postcode": "9135-382",
      "city": "CAMACHA",
      "lon": "-16.912658171412748",
      "lat": "32.650850061814765"
    },
    {
      "id": "pt.ine.add.MAD.124114",
      "street": "AV DAS MADALENAS",
      "house": "99",
      "postcode": "9020-330",
      "city": "FUNCHAL",
      "lon": "-16.912658171412748",
      "lat": "32.650850061814765"
    },
    {
      "id": "pt.ine.add.MAD.124115",
      "street": "R PAULO DIAS",
      "house": "",
      "postcode": "9000-170",
      "city": "FUNCHAL",
      "lon": "-16.912658171412748",
      "lat": "32.650850061814765"
    },
    {
      "id": "pt.ine.add.MAD.124119",
      "street": "CAM DAS ROMEIRAS",
      "house": "11",
      "postcode": "9020-117",
      "city": "FUNCHAL",
      "lon": "-16.912658171412748",
      "lat": "32.650850061814765"
    },
    {
      "id": "pt.ine.add.MAD.124120",
      "street": "CAM VELHO DOS REIS MAGOS",
      "house": "",
      "postcode": "9125-121",
      "city": "CANIÇO",
      "lon": "-16.912658171412748",
      "lat": "32.650850061814765"
    },
    {
      "id": "pt.ine.add.MAD.124121",
      "street": "CAM DO PIQUINHO",
      "house": "30",
      "postcode": "9125-109",
      "city": "CANIÇO",
      "lon": "-16.912658171412748",
      "lat": "32.650850061814765"
    },
    {
      "id": "pt.ine.add.MAD.124122",
      "street": "ENT DA PORTA DE FERRO",
      "house": "38",
      "postcode": "9060-096",
      "city": "FUNCHAL",
      "lon": "-16.912658171412748",
      "lat": "32.650850061814765"
    },
    {
      "id": "pt.ine.add.MAD.124123",
      "street": "CAM DO AMPARO",
      "house": "57",
      "postcode": "9000-248",
      "city": "FUNCHAL",
      "lon": "-16.912658171412748",
      "lat": "32.650850061814765"
    },
    {
      "id": "pt.ine.add.MAD.124124",
      "street": "R PEDRO JOSÉ ORNELAS",
      "house": "33 B",
      "postcode": "9050-069",
      "city": "FUNCHAL",
      "lon": "-16.912658171412748",
      "lat": "32.650850061814765"
    },
    {
      "id": "pt.ine.add.MAD.124125",
      "street": "ESTR DE SANTO ANTÓNIO",
      "house": "42",
      "postcode": "9360-503",
      "city": "PONTA DO SOL",
      "lon": "-16.912658171412748",
      "lat": "32.650850061814765"
    },
    {
      "id": "pt.ine.add.MAD.124126",
      "street": "R DA MORENA",
      "house": "58",
      "postcode": "9100-131",
      "city": "SANTA CRUZ",
      "lon": "-16.912658171412748",
      "lat": "32.650850061814765"
    },
    {
      "id": "pt.ine.add.MAD.124127",
      "street": "CAM DE SANTO ANTÓNIO",
      "house": "2",
      "postcode": "9000-187",
      "city": "FUNCHAL",
      "lon": "-16.912658171412748",
      "lat": "32.650850061814765"
    },
    {
      "id": "pt.ine.add.MAD.124128",
      "street": "IMP DA ESTRADA GARAJAU",
      "house": "4",
      "postcode": "9125-184",
      "city": "CANIÇO",
      "lon": "-16.912658171412748",
      "lat": "32.650850061814765"
    },
    {
      "id": "pt.ine.add.MAD.124129",
      "street": "ESTR DO FORNO DA CAL",
      "house": "",
      "postcode": "9400-139",
      "city": "PORTO SANTO",
      "lon": "-16.912658171412748",
      "lat": "32.650850061814765"
    },
    {
      "id": "pt.ine.add.MAD.124140",
      "street": "CAM LOMBO ESTRELA",
      "house": "85",
      "postcode": "9370-161",
      "city": "CALHETA (MADEIRA)",
      "lon": "-16.912658171412748",
      "lat": "32.650850061814765"
    },
    {
      "id": "pt.ine.add.MAD.124141",
      "street": "ESTR DA BOA NOVA",
      "house": "83 1",
      "postcode": "9060-003",
      "city": "FUNCHAL",
      "lon": "-16.912658171412748",
      "lat": "32.650850061814765"
    },
    {
      "id": "pt.ine.add.MAD.124142",
      "street": "CAM DOS PICOS",
      "house": "43",
      "postcode": "9370-650",
      "city": "PRAZERES",
      "lon": "-16.912658171412748",
      "lat": "32.650850061814765"
    },
    {
      "id": "pt.ine.add.MAD.124144",
      "street": "R DA TORRINHA",
      "house": "18 A",
      "postcode": "9050-234",
      "city": "FUNCHAL",
      "lon": "-16.912658171412748",
      "lat": "32.650850061814765"
    },
    {
      "id": "pt.ine.add.MAD.124145",
      "street": "VR DO CORREGO",
      "house": "14",
      "postcode": "9325-042",
      "city": "ESTREITO CÂMARA DE LOBOS",
      "lon": "-16.912658171412748",
      "lat": "32.650850061814765"
    },
    {
      "id": "pt.ine.add.MAD.124146",
      "street": "ESTR REGIONAL SIMÃO GONÇALVES DA CÂMARA",
      "house": "119",
      "postcode": "9370-139",
      "city": "CALHETA (MADEIRA)",
      "lon": "-16.912658171412748",
      "lat": "32.650850061814765"
    },
    {
      "id": "pt.ine.add.MAD.124147",
      "street": "ESTR JOSÉ AVELINO PINTO",
      "house": "",
      "postcode": "9125-024",
      "city": "CANIÇO",
      "lon": "-16.912658171412748",
      "lat": "32.650850061814765"
    },
    {
      "id": "pt.ine.add.MAD.124148",
      "street": "TV DO TANQUE",
      "house": "20",
      "postcode": "9050-427",
      "city": "FUNCHAL",
      "lon": "-16.912658171412748",
      "lat": "32.650850061814765"
    },
    {
      "id": "pt.ine.add.MAD.124149",
      "street": "ESTR VISCONDE CACONGO",
      "house": "54",
      "postcode": "9060-007",
      "city": "FUNCHAL",
      "lon": "-16.912658171412748",
      "lat": "32.650850061814765"
    },
    {
      "id": "pt.ine.add.MAD.124150",
      "street": "R SÃO JOÃO DE DEUS",
      "house": "43",
      "postcode": "9300-151",
      "city": "CÂMARA DE LOBOS",
      "lon": "-16.912658171412748",
      "lat": "32.650850061814765"
    },
    {
      "id": "pt.ine.add.MAD.124151",
      "street": "CAM DAS ROMEIRAS",
      "house": "11",
      "postcode": "9020-117",
      "city": "FUNCHAL",
      "lon": "-16.912658171412748",
      "lat": "32.650850061814765"
    },
    {
      "id": "pt.ine.add.MAD.124152",
      "street": "CAM MÃE DE DEUS",
      "house": "3",
      "postcode": "9125-101",
      "city": "CANIÇO",
      "lon": "-16.912658171412748",
      "lat": "32.650850061814765"
    },
    {
      "id": "pt.ine.add.MAD.124153",
      "street": "SIT PRIMEIRA LOMBADA",
      "house": "",
      "postcode": "9240-114",
      "city": "PONTA DELGADA SVC",
      "lon": "-16.912658171412748",
      "lat": "32.650850061814765"
    },
    {
      "id": "pt.ine.add.MAD.124684",
      "street": "CC STA CLARA",
      "house": "30",
      "postcode": "9000-036",
      "city": "FUNCHAL",
      "lon": "-16.912077123358884",
      "lat": "32.650597372762626"
    },
    {
      "id": "pt.ine.add.MAD.127235",
      "street": "CC STA CLARA",
      "house": "30",
      "postcode": "9000-036",
      "city": "FUNCHAL",
      "lon": "-16.912077123358884",
      "lat": "32.650597372762626"
    },
    {
      "id": "pt.ine.add.MAD.129428",
      "street": "R PADRE ANTÓNIO SOUSA DA COSTA",
      "house": "64",
      "postcode": "9300-115",
      "city": "CÂMARA DE LOBOS",
      "lon": "-16.912658171412748",
      "lat": "32.650850061814765"
    },
    {
      "id": "pt.ine.add.MAD.129429",
      "street": "AV DAS MADALENAS",
      "house": "78",
      "postcode": "9020-329",
      "city": "FUNCHAL",
      "lon": "-16.912658171412748",
      "lat": "32.650850061814765"
    }
  ]
}