{
  "data": {
    "distrito": "Évora",
    "concelho": "Mora",
    "freguesia": "Brotas",
    "OBJECTID": 161,
    "BGRI2021": "07070100115",
    "DT21": "07",
    "DTMN21": "0707",
    "DTMNFR21": "070701",
    "DTMNFRSEC21": "070701001",
    "SECNUM21": "001",
    "SSNUM21": "15",
    "SECSSNUM21": "00115",
    "OBJECTID_1": 62090,
    "DT": "07",
    "CC": "07",
    "fr": "01",
    "SEC": "001",
    "SS": "15"
  },
  "addresses": [
    {
      "id": "pt.ine.add.PTCONT.1374045",
      "street": "R VERDADE",
      "house": "12",
      "postcode": "7490-018",
      "city": "BROTAS",
      "lon": "-8.151188262602219",
      "lat": "38.872783352508925"
    },
    {
      "id": "pt.ine.add.PTCONT.1394829",
      "street": "R DAS LARANJEIRAS",
      "house": "1",
      "postcode": "7490-021",
      "city": "BROTAS",
      "lon": "-8.151181124629174",
      "lat": "38.87349581031137"
    },
    {
      "id": "pt.ine.add.PTCONT.1405636",
      "street": "R CUSTÓDIO ALVES SALGADO",
      "house": "2",
      "postcode": "7490-013",
      "city": "BROTAS",
      "lon": "-8.150554496642421",
      "lat": "38.87282848865118"
    },
    {
      "id": "pt.ine.add.PTCONT.1410129",
      "street": "R 25 DE ABRIL",
      "house": "1",
      "postcode": "7490-029",
      "city": "BROTAS",
      "lon": "-8.150543017429884",
      "lat": "38.87300864935125"
    },
    {
      "id": "pt.ine.add.PTCONT.1412131",
      "street": "R LARANJEIRAS",
      "house": "9",
      "postcode": "7490-021",
      "city": "BROTAS",
      "lon": "-8.151462655366316",
      "lat": "38.8731043611254"
    },
    {
      "id": "pt.ine.add.PTCONT.1413141",
      "street": "R VERDADE",
      "house": "2",
      "postcode": "7490-018",
      "city": "BROTAS",
      "lon": "-8.15086574250757",
      "lat": "38.87330586304084"
    },
    {
      "id": "pt.ine.add.PTCONT.1417162",
      "street": "R LARANJEIRAS",
      "house": "13",
      "postcode": "7490-021",
      "city": "BROTAS",
      "lon": "-8.151575010832762",
      "lat": "38.87294899142219"
    },
    {
      "id": "pt.ine.add.PTCONT.1421486",
      "street": "R VERDADE",
      "house": "8",
      "postcode": "7490-018",
      "city": "BROTAS",
      "lon": "-8.151119161943267",
      "lat": "38.87293649832546"
    },
    {
      "id": "pt.ine.add.PTCONT.1421921",
      "street": "R VERDADE",
      "house": "10",
      "postcode": "7490-018",
      "city": "BROTAS",
      "lon": "-8.151153711170947",
      "lat": "38.87285542144829"
    },
    {
      "id": "pt.ine.add.PTCONT.1422907",
      "street": "R CUSTÓDIO ALVES SALGADO",
      "house": "4",
      "postcode": "7490-013",
      "city": "BROTAS",
      "lon": "-8.150623620516516",
      "lat": "38.87276542265831"
    },
    {
      "id": "pt.ine.add.PTCONT.1430374",
      "street": "R VERDADE",
      "house": "4",
      "postcode": "7490-018",
      "city": "BROTAS",
      "lon": "-8.150943254759714",
      "lat": "38.87323051054759"
    },
    {
      "id": "pt.ine.add.PTCONT.1431939",
      "street": "R LARANJEIRAS",
      "house": "11",
      "postcode": "7490-021",
      "city": "BROTAS",
      "lon": "-8.151518358687243",
      "lat": "38.87301884620282"
    },
    {
      "id": "pt.ine.add.PTCONT.1433481",
      "street": "R LARANJEIRAS",
      "house": "2",
      "postcode": "7490-021",
      "city": "BROTAS",
      "lon": "-8.151221957402567",
      "lat": "38.87341800954089"
    },
    {
      "id": "pt.ine.add.PTCONT.1435156",
      "street": "R CUSTÓDIO ALVES SALGADO",
      "house": "6",
      "postcode": "7490-013",
      "city": "BROTAS",
      "lon": "-8.150692744268445",
      "lat": "38.87270235662385"
    },
    {
      "id": "pt.ine.add.PTCONT.1439533",
      "street": "R VERDADE",
      "house": "6",
      "postcode": "7490-018",
      "city": "BROTAS",
      "lon": "-8.151002944913591",
      "lat": "38.87314124075064"
    },
    {
      "id": "pt.ine.add.PTCONT.1460079",
      "street": "R 25 DE ABRIL",
      "house": "5",
      "postcode": "7490-029",
      "city": "BROTAS",
      "lon": "-8.150692855244912",
      "lat": "38.87315275407084"
    },
    {
      "id": "pt.ine.add.PTCONT.1463936",
      "street": "R LARANJEIRAS",
      "house": "7",
      "postcode": "7490-021",
      "city": "BROTAS",
      "lon": "-8.151354951941393",
      "lat": "38.87326649225678"
    },
    {
      "id": "pt.ine.add.PTCONT.1466590",
      "street": "R LARANJEIRAS",
      "house": "5",
      "postcode": "7490-021",
      "city": "BROTAS",
      "lon": "-8.151300507349",
      "lat": "38.873327913341534"
    }
  ]
}