{
  "data": {
    "distrito": "Viseu",
    "concelho": "Mangualde",
    "freguesia": "Uni√£o das freguesias de Mangualde, Mesquitela e Cunha Alta",
    "OBJECTID": 643,
    "BGRI2021": "18061900508",
    "DT21": "18",
    "DTMN21": "1806",
    "DTMNFR21": "180619",
    "DTMNFRSEC21": "180619005",
    "SECNUM21": "005",
    "SSNUM21": "08",
    "SECSSNUM21": "00508",
    "OBJECTID_1": 192118,
    "DT": "18",
    "CC": "06",
    "fr": "19",
    "SEC": "005",
    "SS": "08"
  },
  "addresses": [
    {
      "id": "pt.ine.add.PTCONT.5436462",
      "street": "R AZURARA DA BEIRA",
      "house": "",
      "postcode": "3530-273",
      "city": "MANGUALDE",
      "lon": "-7.7566621201168555",
      "lat": "40.60443853670191"
    },
    {
      "id": "pt.ine.add.PTCONT.5439244",
      "street": "AV GEN HUMBERTO DELGADO",
      "house": "5",
      "postcode": "3530-115",
      "city": "MANGUALDE",
      "lon": "-7.757763033237817",
      "lat": "40.604063900055664"
    },
    {
      "id": "pt.ine.add.PTCONT.5439245",
      "street": "AV GEN HUMBERTO DELGADO",
      "house": "5",
      "postcode": "3530-115",
      "city": "MANGUALDE",
      "lon": "-7.757763033237817",
      "lat": "40.604063900055664"
    },
    {
      "id": "pt.ine.add.PTCONT.5439246",
      "street": "AV GEN HUMBERTO DELGADO",
      "house": "5",
      "postcode": "3530-115",
      "city": "MANGUALDE",
      "lon": "-7.757763033237817",
      "lat": "40.604063900055664"
    },
    {
      "id": "pt.ine.add.PTCONT.5439247",
      "street": "AV GEN HUMBERTO DELGADO",
      "house": "5",
      "postcode": "3530-115",
      "city": "MANGUALDE",
      "lon": "-7.757763033237817",
      "lat": "40.604063900055664"
    },
    {
      "id": "pt.ine.add.PTCONT.5441720",
      "street": "R HOSPITAL",
      "house": "56",
      "postcode": "3530-190",
      "city": "MANGUALDE",
      "lon": "-7.755694503870038",
      "lat": "40.60421925361245"
    },
    {
      "id": "pt.ine.add.PTCONT.5450005",
      "street": "R AZURARA DA BEIRA",
      "house": "28",
      "postcode": "3530-273",
      "city": "MANGUALDE",
      "lon": "-7.756485046395468",
      "lat": "40.60441094377607"
    },
    {
      "id": "pt.ine.add.PTCONT.5453240",
      "street": "R HOSPITAL",
      "house": "",
      "postcode": "3530-190",
      "city": "MANGUALDE",
      "lon": "-7.755327935153605",
      "lat": "40.60427208659904"
    },
    {
      "id": "pt.ine.add.PTCONT.5460869",
      "street": "R HOSPITAL",
      "house": "57",
      "postcode": "3530-190",
      "city": "MANGUALDE",
      "lon": "-7.755942112352468",
      "lat": "40.60431011467295"
    },
    {
      "id": "pt.ine.add.PTCONT.5460870",
      "street": "R HOSPITAL",
      "house": "57",
      "postcode": "3530-190",
      "city": "MANGUALDE",
      "lon": "-7.755942112352468",
      "lat": "40.60431011467295"
    },
    {
      "id": "pt.ine.add.PTCONT.5461512",
      "street": "R HOSPITAL",
      "house": "54",
      "postcode": "3530-190",
      "city": "MANGUALDE",
      "lon": "-7.755777208761334",
      "lat": "40.604219523825414"
    },
    {
      "id": "pt.ine.add.PTCONT.5465889",
      "street": "AV GEN HUMBERTO DELGADO",
      "house": "85",
      "postcode": "3530-115",
      "city": "MANGUALDE",
      "lon": "-7.754608338176734",
      "lat": "40.604071615798595"
    },
    {
      "id": "pt.ine.add.PTCONT.5465890",
      "street": "AV GEN HUMBERTO DELGADO",
      "house": "85",
      "postcode": "3530-115",
      "city": "MANGUALDE",
      "lon": "-7.754608338176734",
      "lat": "40.604071615798595"
    },
    {
      "id": "pt.ine.add.PTCONT.5465891",
      "street": "AV GEN HUMBERTO DELGADO",
      "house": "85",
      "postcode": "3530-115",
      "city": "MANGUALDE",
      "lon": "-7.754608338176734",
      "lat": "40.604071615798595"
    },
    {
      "id": "pt.ine.add.PTCONT.5470872",
      "street": "AV GEN HUMBERTO DELGADO",
      "house": "25",
      "postcode": "3530-115",
      "city": "MANGUALDE",
      "lon": "-7.757042421672674",
      "lat": "40.60404354562762"
    },
    {
      "id": "pt.ine.add.PTCONT.5470873",
      "street": "AV GEN HUMBERTO DELGADO",
      "house": "25",
      "postcode": "3530-115",
      "city": "MANGUALDE",
      "lon": "-7.757042421672674",
      "lat": "40.60404354562762"
    },
    {
      "id": "pt.ine.add.PTCONT.5475970",
      "street": "R AZURARA DA BEIRA",
      "house": "68",
      "postcode": "3530-273",
      "city": "MANGUALDE",
      "lon": "-7.7560598069262925",
      "lat": "40.60439154596"
    },
    {
      "id": "pt.ine.add.PTCONT.5476605",
      "street": "R AZURARA DA BEIRA",
      "house": "44",
      "postcode": "3530-273",
      "city": "MANGUALDE",
      "lon": "-7.756260712765419",
      "lat": "40.6043831963958"
    },
    {
      "id": "pt.ine.add.PTCONT.5478428",
      "street": "R AZURARA DA BEIRA",
      "house": "110",
      "postcode": "3530-273",
      "city": "MANGUALDE",
      "lon": "-7.754973180870518",
      "lat": "40.6043249570998"
    },
    {
      "id": "pt.ine.add.PTCONT.5482012",
      "street": "LG ROSSIO",
      "house": "",
      "postcode": "3530-133",
      "city": "MANGUALDE",
      "lon": "-7.757914613532967",
      "lat": "40.60442460156033"
    },
    {
      "id": "pt.ine.add.PTCONT.5489236",
      "street": "R AZURARA DA BEIRA",
      "house": "56",
      "postcode": "3530-273",
      "city": "MANGUALDE",
      "lon": "-7.756154377640081",
      "lat": "40.60438284941221"
    },
    {
      "id": "pt.ine.add.PTCONT.5489237",
      "street": "AV GEN HUMBERTO DELGADO",
      "house": "19",
      "postcode": "3530-115",
      "city": "MANGUALDE",
      "lon": "-7.7572904853004765",
      "lat": "40.60405335825226"
    },
    {
      "id": "pt.ine.add.PTCONT.5489255",
      "street": "AV GEN HUMBERTO DELGADO",
      "house": "19",
      "postcode": "3530-115",
      "city": "MANGUALDE",
      "lon": "-7.7572904853004765",
      "lat": "40.60405335825226"
    },
    {
      "id": "pt.ine.add.PTCONT.5489256",
      "street": "AV GEN HUMBERTO DELGADO",
      "house": "19",
      "postcode": "3530-115",
      "city": "MANGUALDE",
      "lon": "-7.7572904853004765",
      "lat": "40.60405335825226"
    },
    {
      "id": "pt.ine.add.PTCONT.5489257",
      "street": "AV GEN HUMBERTO DELGADO",
      "house": "19",
      "postcode": "3530-115",
      "city": "MANGUALDE",
      "lon": "-7.7572904853004765",
      "lat": "40.60405335825226"
    },
    {
      "id": "pt.ine.add.PTCONT.5489258",
      "street": "AV GEN HUMBERTO DELGADO",
      "house": "19",
      "postcode": "3530-115",
      "city": "MANGUALDE",
      "lon": "-7.7572904853004765",
      "lat": "40.60405335825226"
    },
    {
      "id": "pt.ine.add.PTCONT.5494331",
      "street": "LG ROSSIO",
      "house": "78",
      "postcode": "3530-133",
      "city": "MANGUALDE",
      "lon": "-7.7575483478134375",
      "lat": "40.60442341122604"
    },
    {
      "id": "pt.ine.add.PTCONT.5494332",
      "street": "R HOSPITAL",
      "house": "74",
      "postcode": "3530-190",
      "city": "MANGUALDE",
      "lon": "-7.755434371468607",
      "lat": "40.604254424223896"
    },
    {
      "id": "pt.ine.add.PTCONT.5495680",
      "street": "LG ROSSIO",
      "house": "78",
      "postcode": "3530-133",
      "city": "MANGUALDE",
      "lon": "-7.7575483478134375",
      "lat": "40.60442341122604"
    },
    {
      "id": "pt.ine.add.PTCONT.5495777",
      "street": "R AZURARA DA BEIRA",
      "house": "58",
      "postcode": "3530-273",
      "city": "MANGUALDE",
      "lon": "-7.75616619265392",
      "lat": "40.60438288797077"
    },
    {
      "id": "pt.ine.add.PTCONT.5495783",
      "street": "R HOSPITAL",
      "house": "62",
      "postcode": "3530-190",
      "city": "MANGUALDE",
      "lon": "-7.755635428948372",
      "lat": "40.6042190605669"
    },
    {
      "id": "pt.ine.add.PTCONT.5497186",
      "street": "LG ROSSIO",
      "house": "81",
      "postcode": "3530-133",
      "city": "MANGUALDE",
      "lon": "-7.757749303959809",
      "lat": "40.60440605401071"
    },
    {
      "id": "pt.ine.add.PTCONT.5497187",
      "street": "LG ROSSIO",
      "house": "81",
      "postcode": "3530-133",
      "city": "MANGUALDE",
      "lon": "-7.757749303959809",
      "lat": "40.60440605401071"
    },
    {
      "id": "pt.ine.add.PTCONT.5497188",
      "street": "LG ROSSIO",
      "house": "81",
      "postcode": "3530-133",
      "city": "MANGUALDE",
      "lon": "-7.757749303959809",
      "lat": "40.60440605401071"
    },
    {
      "id": "pt.ine.add.PTCONT.5497189",
      "street": "LG ROSSIO",
      "house": "81",
      "postcode": "3530-133",
      "city": "MANGUALDE",
      "lon": "-7.757749303959809",
      "lat": "40.60440605401071"
    },
    {
      "id": "pt.ine.add.PTCONT.5497190",
      "street": "LG ROSSIO",
      "house": "81",
      "postcode": "3530-133",
      "city": "MANGUALDE",
      "lon": "-7.757749303959809",
      "lat": "40.60440605401071"
    },
    {
      "id": "pt.ine.add.PTCONT.5497191",
      "street": "LG ROSSIO",
      "house": "81",
      "postcode": "3530-133",
      "city": "MANGUALDE",
      "lon": "-7.757749303959809",
      "lat": "40.60440605401071"
    },
    {
      "id": "pt.ine.add.PTCONT.5500021",
      "street": "AV GEN HUMBERTO DELGADO",
      "house": "13",
      "postcode": "3530-115",
      "city": "MANGUALDE",
      "lon": "-7.757526784451975",
      "lat": "40.6040541268646"
    },
    {
      "id": "pt.ine.add.PTCONT.5500022",
      "street": "AV GEN HUMBERTO DELGADO",
      "house": "13",
      "postcode": "3530-115",
      "city": "MANGUALDE",
      "lon": "-7.757526784451975",
      "lat": "40.6040541268646"
    },
    {
      "id": "pt.ine.add.PTCONT.5500023",
      "street": "AV GEN HUMBERTO DELGADO",
      "house": "13",
      "postcode": "3530-115",
      "city": "MANGUALDE",
      "lon": "-7.757526784451975",
      "lat": "40.6040541268646"
    },
    {
      "id": "pt.ine.add.PTCONT.5500024",
      "street": "AV GEN HUMBERTO DELGADO",
      "house": "13",
      "postcode": "3530-115",
      "city": "MANGUALDE",
      "lon": "-7.757526784451975",
      "lat": "40.6040541268646"
    },
    {
      "id": "pt.ine.add.PTCONT.5507665",
      "street": "AV GEN HUMBERTO DELGADO",
      "house": "59",
      "postcode": "3530-115",
      "city": "MANGUALDE",
      "lon": "-7.755518393983094",
      "lat": "40.60402056307153"
    },
    {
      "id": "pt.ine.add.PTCONT.5507666",
      "street": "AV GEN HUMBERTO DELGADO",
      "house": "59",
      "postcode": "3530-115",
      "city": "MANGUALDE",
      "lon": "-7.755518393983094",
      "lat": "40.60402056307153"
    },
    {
      "id": "pt.ine.add.PTCONT.5513837",
      "street": "R HOSPITAL",
      "house": "",
      "postcode": "3530-190",
      "city": "MANGUALDE",
      "lon": "-7.756272932381786",
      "lat": "40.60431119446236"
    },
    {
      "id": "pt.ine.add.PTCONT.5517023",
      "street": "AV GEN HUMBERTO DELGADO",
      "house": "35",
      "postcode": "3530-115",
      "city": "MANGUALDE",
      "lon": "-7.756794257112003",
      "lat": "40.60405174259285"
    },
    {
      "id": "pt.ine.add.PTCONT.5520344",
      "street": "AV GEN HUMBERTO DELGADO",
      "house": "63",
      "postcode": "3530-115",
      "city": "MANGUALDE",
      "lon": "-7.755341017648915",
      "lat": "40.604046998755436"
    },
    {
      "id": "pt.ine.add.PTCONT.5520345",
      "street": "AV GEN HUMBERTO DELGADO",
      "house": "63",
      "postcode": "3530-115",
      "city": "MANGUALDE",
      "lon": "-7.755341017648915",
      "lat": "40.604046998755436"
    },
    {
      "id": "pt.ine.add.PTCONT.5522676",
      "street": "AV GEN HUMBERTO DELGADO",
      "house": "77",
      "postcode": "3530-115",
      "city": "MANGUALDE",
      "lon": "-7.754844738852459",
      "lat": "40.60405437978013"
    },
    {
      "id": "pt.ine.add.PTCONT.5522677",
      "street": "AV GEN HUMBERTO DELGADO",
      "house": "77",
      "postcode": "3530-115",
      "city": "MANGUALDE",
      "lon": "-7.754844738852459",
      "lat": "40.60405437978013"
    },
    {
      "id": "pt.ine.add.PTCONT.5524494",
      "street": "R AZURARA DA BEIRA",
      "house": "126",
      "postcode": "3530-273",
      "city": "MANGUALDE",
      "lon": "-7.7543832948868525",
      "lat": "40.60416993559996"
    },
    {
      "id": "pt.ine.add.PTCONT.5525651",
      "street": "R DR VEIGA SIMAO",
      "house": "2",
      "postcode": "3530-207",
      "city": "MANGUALDE",
      "lon": "-7.7543832948868525",
      "lat": "40.60416993559996"
    },
    {
      "id": "pt.ine.add.PTCONT.5530564",
      "street": "R HOSPITAL",
      "house": "66",
      "postcode": "3530-190",
      "city": "MANGUALDE",
      "lon": "-7.755564437702869",
      "lat": "40.60423683899158"
    },
    {
      "id": "pt.ine.add.PTCONT.5533585",
      "street": "R AZURARA DA BEIRA",
      "house": "74",
      "postcode": "3530-273",
      "city": "MANGUALDE",
      "lon": "-7.7558707666856",
      "lat": "40.60439092870369"
    },
    {
      "id": "pt.ine.add.PTCONT.5533586",
      "street": "R AZURARA DA BEIRA",
      "house": "74",
      "postcode": "3530-273",
      "city": "MANGUALDE",
      "lon": "-7.7558707666856",
      "lat": "40.60439092870369"
    },
    {
      "id": "pt.ine.add.PTCONT.5534893",
      "street": "R AZURARA DA BEIRA",
      "house": "36",
      "postcode": "3530-273",
      "city": "MANGUALDE",
      "lon": "-7.75631978783585",
      "lat": "40.60438338912214"
    },
    {
      "id": "pt.ine.add.PTCONT.5534894",
      "street": "R AZURARA DA BEIRA",
      "house": "106",
      "postcode": "3530-273",
      "city": "MANGUALDE",
      "lon": "-7.755209633069262",
      "lat": "40.604298715279825"
    },
    {
      "id": "pt.ine.add.PTCONT.5534895",
      "street": "R AZURARA DA BEIRA",
      "house": "106",
      "postcode": "3530-273",
      "city": "MANGUALDE",
      "lon": "-7.755209633069262",
      "lat": "40.604298715279825"
    },
    {
      "id": "pt.ine.add.PTCONT.5537681",
      "street": "LG ROSSIO",
      "house": "75",
      "postcode": "3530-133",
      "city": "MANGUALDE",
      "lon": "-7.757418483406672",
      "lat": "40.60440497844775"
    },
    {
      "id": "pt.ine.add.PTCONT.5537682",
      "street": "LG ROSSIO",
      "house": "75",
      "postcode": "3530-133",
      "city": "MANGUALDE",
      "lon": "-7.757418483406672",
      "lat": "40.60440497844775"
    },
    {
      "id": "pt.ine.add.PTCONT.5538841",
      "street": "R HOSPITAL",
      "house": "21",
      "postcode": "3530-190",
      "city": "MANGUALDE",
      "lon": "-7.756721548845039",
      "lat": "40.60437569379961"
    },
    {
      "id": "pt.ine.add.PTCONT.5545309",
      "street": "R AZURARA DA BEIRA",
      "house": "6",
      "postcode": "3530-273",
      "city": "MANGUALDE",
      "lon": "-7.756922000169079",
      "lat": "40.60444838863018"
    },
    {
      "id": "pt.ine.add.PTCONT.5547831",
      "street": "R ANA DE CASTRO OS√ìRIO",
      "house": "",
      "postcode": "3530-146",
      "city": "MANGUALDE",
      "lon": "-7.757962779900875",
      "lat": "40.604262663953236"
    },
    {
      "id": "pt.ine.add.PTCONT.5556680",
      "street": "AV GEN HUMBERTO DELGADO",
      "house": "49",
      "postcode": "3530-115",
      "city": "MANGUALDE",
      "lon": "-7.755778373511303",
      "lat": "40.60401240744568"
    },
    {
      "id": "pt.ine.add.PTCONT.5560262",
      "street": "R HOSPITAL",
      "house": "53",
      "postcode": "3530-190",
      "city": "MANGUALDE",
      "lon": "-7.7560484473599365",
      "lat": "40.60431046185145"
    },
    {
      "id": "pt.ine.add.PTCONT.5564628",
      "street": "R HOSPITAL",
      "house": "4",
      "postcode": "3530-190",
      "city": "MANGUALDE",
      "lon": "-7.757041058935181",
      "lat": "40.60428668228055"
    },
    {
      "id": "pt.ine.add.PTCONT.5564629",
      "street": "R HOSPITAL",
      "house": "4",
      "postcode": "3530-190",
      "city": "MANGUALDE",
      "lon": "-7.757041058935181",
      "lat": "40.60428668228055"
    },
    {
      "id": "pt.ine.add.PTCONT.5564630",
      "street": "R HOSPITAL",
      "house": "4",
      "postcode": "3530-190",
      "city": "MANGUALDE",
      "lon": "-7.757041058935181",
      "lat": "40.60428668228055"
    },
    {
      "id": "pt.ine.add.PTCONT.5564631",
      "street": "R HOSPITAL",
      "house": "4",
      "postcode": "3530-190",
      "city": "MANGUALDE",
      "lon": "-7.757041058935181",
      "lat": "40.60428668228055"
    },
    {
      "id": "pt.ine.add.PTCONT.5564632",
      "street": "AV GEN HUMBERTO DELGADO",
      "house": "37",
      "postcode": "3530-115",
      "city": "MANGUALDE",
      "lon": "-7.75653432807696",
      "lat": "40.604050895444246"
    },
    {
      "id": "pt.ine.add.PTCONT.5564633",
      "street": "AV GEN HUMBERTO DELGADO",
      "house": "37",
      "postcode": "3530-115",
      "city": "MANGUALDE",
      "lon": "-7.75653432807696",
      "lat": "40.604050895444246"
    },
    {
      "id": "pt.ine.add.PTCONT.5564634",
      "street": "AV GEN HUMBERTO DELGADO",
      "house": "37",
      "postcode": "3530-115",
      "city": "MANGUALDE",
      "lon": "-7.75653432807696",
      "lat": "40.604050895444246"
    },
    {
      "id": "pt.ine.add.PTCONT.5564635",
      "street": "AV GEN HUMBERTO DELGADO",
      "house": "37",
      "postcode": "3530-115",
      "city": "MANGUALDE",
      "lon": "-7.75653432807696",
      "lat": "40.604050895444246"
    },
    {
      "id": "pt.ine.add.PTCONT.5564636",
      "street": "AV GEN HUMBERTO DELGADO",
      "house": "37",
      "postcode": "3530-115",
      "city": "MANGUALDE",
      "lon": "-7.75653432807696",
      "lat": "40.604050895444246"
    },
    {
      "id": "pt.ine.add.PTCONT.5565261",
      "street": "AV GEN HUMBERTO DELGADO",
      "house": "37",
      "postcode": "3530-115",
      "city": "MANGUALDE",
      "lon": "-7.75653432807696",
      "lat": "40.604050895444246"
    },
    {
      "id": "pt.ine.add.PTCONT.5576938",
      "street": "R HOSPITAL",
      "house": "38",
      "postcode": "3530-190",
      "city": "MANGUALDE",
      "lon": "-7.756001895917506",
      "lat": "40.604184236721785"
    },
    {
      "id": "pt.ine.add.PTCONT.5578799",
      "street": "R AZURARA DA BEIRA",
      "house": "48",
      "postcode": "3530-273",
      "city": "MANGUALDE",
      "lon": "-7.756213452709486",
      "lat": "40.60438304219296"
    },
    {
      "id": "pt.ine.add.PTCONT.5578800",
      "street": "R AZURARA DA BEIRA",
      "house": "48",
      "postcode": "3530-273",
      "city": "MANGUALDE",
      "lon": "-7.756213452709486",
      "lat": "40.60438304219296"
    },
    {
      "id": "pt.ine.add.PTCONT.5584303",
      "street": "R AZURARA DA BEIRA",
      "house": "88",
      "postcode": "3530-273",
      "city": "MANGUALDE",
      "lon": "-7.755670012748777",
      "lat": "40.60437226241095"
    },
    {
      "id": "pt.ine.add.PTCONT.5584304",
      "street": "R AZURARA DA BEIRA",
      "house": "88",
      "postcode": "3530-273",
      "city": "MANGUALDE",
      "lon": "-7.755670012748777",
      "lat": "40.60437226241095"
    },
    {
      "id": "pt.ine.add.PTCONT.5584305",
      "street": "R AZURARA DA BEIRA",
      "house": "88",
      "postcode": "3530-273",
      "city": "MANGUALDE",
      "lon": "-7.755670012748777",
      "lat": "40.60437226241095"
    },
    {
      "id": "pt.ine.add.PTCONT.5586200",
      "street": "AV GEN HUMBERTO DELGADO",
      "house": "57",
      "postcode": "3530-115",
      "city": "MANGUALDE",
      "lon": "-7.755672038979489",
      "lat": "40.604012060020644"
    },
    {
      "id": "pt.ine.add.PTCONT.5589901",
      "street": "R AZURARA DA BEIRA",
      "house": "10",
      "postcode": "3530-273",
      "city": "MANGUALDE",
      "lon": "-7.756792085385745",
      "lat": "40.60443896020883"
    },
    {
      "id": "pt.ine.add.PTCONT.5589902",
      "street": "R AZURARA DA BEIRA",
      "house": "10",
      "postcode": "3530-273",
      "city": "MANGUALDE",
      "lon": "-7.756792085385745",
      "lat": "40.60443896020883"
    },
    {
      "id": "pt.ine.add.PTCONT.5612101",
      "street": "R AZURARA DA BEIRA",
      "house": "60",
      "postcode": "3530-273",
      "city": "MANGUALDE",
      "lon": "-7.756107117584973",
      "lat": "40.60438269516584"
    },
    {
      "id": "pt.ine.add.PTCONT.5621432",
      "street": "R AZURARA DA BEIRA",
      "house": "32",
      "postcode": "3530-273",
      "city": "MANGUALDE",
      "lon": "-7.756402391819486",
      "lat": "40.60440166900869"
    },
    {
      "id": "pt.ine.add.PTCONT.5621448",
      "street": "R AZURARA DA BEIRA",
      "house": "108",
      "postcode": "3530-273",
      "city": "MANGUALDE",
      "lon": "-7.755103247358529",
      "lat": "40.604307372388185"
    },
    {
      "id": "pt.ine.add.PTCONT.5627310",
      "street": "R AZURARA DA BEIRA",
      "house": "94",
      "postcode": "3530-273",
      "city": "MANGUALDE",
      "lon": "-7.75557549265911",
      "lat": "40.604371953502614"
    },
    {
      "id": "pt.ine.add.PTCONT.5637556",
      "street": "R AZURARA DA BEIRA",
      "house": "80",
      "postcode": "3530-273",
      "city": "MANGUALDE",
      "lon": "-7.755764482196359",
      "lat": "40.60438157630152"
    },
    {
      "id": "pt.ine.add.PTCONT.5637923",
      "street": "R AZURARA DA BEIRA",
      "house": "80",
      "postcode": "3530-273",
      "city": "MANGUALDE",
      "lon": "-7.755764482196359",
      "lat": "40.60438157630152"
    },
    {
      "id": "pt.ine.add.PTCONT.5646162",
      "street": "R HOSPITAL",
      "house": "47",
      "postcode": "3530-190",
      "city": "MANGUALDE",
      "lon": "-7.7561666479598665",
      "lat": "40.60430184243043"
    },
    {
      "id": "pt.ine.add.PTCONT.5662749",
      "street": "R HOSPITAL",
      "house": "13",
      "postcode": "3530-190",
      "city": "MANGUALDE",
      "lon": "-7.756886757062136",
      "lat": "40.60441225294007"
    },
    {
      "id": "pt.ine.add.PTCONT.5664336",
      "street": "AV GEN HUMBERTO DELGADO",
      "house": "35",
      "postcode": "3530-115",
      "city": "MANGUALDE",
      "lon": "-7.756794257112003",
      "lat": "40.60405174259285"
    },
    {
      "id": "pt.ine.add.PTCONT.5667436",
      "street": "R AZURARA DA BEIRA",
      "house": "26",
      "postcode": "3530-273",
      "city": "MANGUALDE",
      "lon": "-7.756579465481462",
      "lat": "40.604429262061025"
    },
    {
      "id": "pt.ine.add.PTCONT.5668247",
      "street": "R HOSPITAL",
      "house": "68",
      "postcode": "3530-190",
      "city": "MANGUALDE",
      "lon": "-7.755505312088512",
      "lat": "40.60424565093897"
    },
    {
      "id": "pt.ine.add.PTCONT.5668462",
      "street": "AV GEN HUMBERTO DELGADO",
      "house": "13",
      "postcode": "3530-115",
      "city": "MANGUALDE",
      "lon": "-7.757526784451975",
      "lat": "40.6040541268646"
    },
    {
      "id": "pt.ine.add.PTCONT.5669605",
      "street": "AV GEN HUMBERTO DELGADO",
      "house": "19",
      "postcode": "3530-115",
      "city": "MANGUALDE",
      "lon": "-7.7572904853004765",
      "lat": "40.60405335825226"
    }
  ]
}