{
  "data": {
    "distrito": "Guarda",
    "concelho": "Manteigas",
    "freguesia": "Sameiro",
    "OBJECTID": 69,
    "BGRI2021": "09080100107",
    "DT21": "09",
    "DTMN21": "0908",
    "DTMNFR21": "090801",
    "DTMNFRSEC21": "090801001",
    "SECNUM21": "001",
    "SSNUM21": "07",
    "SECSSNUM21": "00107",
    "OBJECTID_1": 79198,
    "DT": "09",
    "CC": "08",
    "fr": "01",
    "SEC": "001",
    "SS": "07"
  },
  "addresses": [
    {
      "id": "pt.ine.add.PTCONT.1907596",
      "street": "R ALDEIA NOVA DA PONTE",
      "house": "",
      "postcode": "6260-311",
      "city": "SAMEIRO",
      "lon": "-7.488812926241545",
      "lat": "40.40825380427777"
    },
    {
      "id": "pt.ine.add.PTCONT.1909889",
      "street": "R ALDEIA NOVA DA PONTE",
      "house": "",
      "postcode": "6260-311",
      "city": "SAMEIRO",
      "lon": "-7.489312522582343",
      "lat": "40.4089860301624"
    },
    {
      "id": "pt.ine.add.PTCONT.1914144",
      "street": "EN 232",
      "house": "",
      "postcode": "6260-311",
      "city": "SAMEIRO",
      "lon": "-7.489669845032253",
      "lat": "40.40734001818078"
    },
    {
      "id": "pt.ine.add.PTCONT.1919211",
      "street": "EN 232",
      "house": "",
      "postcode": "6260-311",
      "city": "SAMEIRO",
      "lon": "-7.489702869709226",
      "lat": "40.40758334968015"
    },
    {
      "id": "pt.ine.add.PTCONT.1940618",
      "street": "R DO CANEIRO",
      "house": "",
      "postcode": "6260-311",
      "city": "SAMEIRO",
      "lon": "-7.489795995415076",
      "lat": "40.40770093897986"
    },
    {
      "id": "pt.ine.add.PTCONT.1944340",
      "street": "R DO CANEIRO",
      "house": "6",
      "postcode": "6260-311",
      "city": "SAMEIRO",
      "lon": "-7.4897966813428125",
      "lat": "40.407628899028715"
    },
    {
      "id": "pt.ine.add.PTCONT.1956134",
      "street": "R ALDEIA NOVA DA PONTE",
      "house": "",
      "postcode": "6260-311",
      "city": "SAMEIRO",
      "lon": "-7.48913727745736",
      "lat": "40.4088319612776"
    },
    {
      "id": "pt.ine.add.PTCONT.1956138",
      "street": "EN 232",
      "house": "",
      "postcode": "6260-311",
      "city": "SAMEIRO",
      "lon": "-7.489753676958332",
      "lat": "40.407196397126604"
    },
    {
      "id": "pt.ine.add.PTCONT.1968087",
      "street": "EN 232",
      "house": "",
      "postcode": "6260-311",
      "city": "SAMEIRO",
      "lon": "-7.488790568201563",
      "lat": "40.408127603109925"
    },
    {
      "id": "pt.ine.add.PTCONT.1978253",
      "street": "R ALDEIA NOVA DA PONTE",
      "house": "",
      "postcode": "6260-311",
      "city": "SAMEIRO",
      "lon": "-7.489079148726083",
      "lat": "40.40875058828774"
    },
    {
      "id": "pt.ine.add.PTCONT.1853265",
      "street": "R ALDEIA NOVA DA PONTE",
      "house": "",
      "postcode": "6260-311",
      "city": "SAMEIRO",
      "lon": "-7.489045439033547",
      "lat": "40.408579296601644"
    },
    {
      "id": "pt.ine.add.PTCONT.1859260",
      "street": "R ALDEIA NOVA DA PONTE",
      "house": "",
      "postcode": "6260-311",
      "city": "SAMEIRO",
      "lon": "-7.489266002149222",
      "lat": "40.408922732841155"
    },
    {
      "id": "pt.ine.add.PTCONT.1861265",
      "street": "R ALDEIA NOVA DA PONTE",
      "house": "",
      "postcode": "6260-311",
      "city": "SAMEIRO",
      "lon": "-7.488801747211498",
      "lat": "40.40819070369464"
    },
    {
      "id": "pt.ine.add.PTCONT.1864288",
      "street": "R DO CANEIRO",
      "house": "",
      "postcode": "6260-311",
      "city": "SAMEIRO",
      "lon": "-7.489785587230499",
      "lat": "40.40755679353357"
    },
    {
      "id": "pt.ine.add.PTCONT.1869975",
      "street": "R ALDEIA NOVA DA PONTE",
      "house": "",
      "postcode": "6260-311",
      "city": "SAMEIRO",
      "lon": "-7.489310978005983",
      "lat": "40.40914811999763"
    },
    {
      "id": "pt.ine.add.PTCONT.1882056",
      "street": "R TEN COR JOSÉ BISCAIA RABAÇA",
      "house": "",
      "postcode": "6260-311",
      "city": "SAMEIRO",
      "lon": "-7.490069032194866",
      "lat": "40.408720075930304"
    },
    {
      "id": "pt.ine.add.PTCONT.1885217",
      "street": "EN 232",
      "house": "",
      "postcode": "6260-311",
      "city": "SAMEIRO",
      "lon": "-7.489723600020988",
      "lat": "40.40788064557286"
    },
    {
      "id": "pt.ine.add.PTCONT.1886845",
      "street": "R ALDEIA NOVA DA PONTE",
      "house": "",
      "postcode": "6260-311",
      "city": "SAMEIRO",
      "lon": "-7.489195577977357",
      "lat": "40.40889532425639"
    },
    {
      "id": "pt.ine.add.PTCONT.1887596",
      "street": "R TEN COR JOSÉ BISCAIA RABAÇA",
      "house": "",
      "postcode": "6260-311",
      "city": "SAMEIRO",
      "lon": "-7.4898053747551945",
      "lat": "40.407953144344475"
    },
    {
      "id": "pt.ine.add.PTCONT.1895690",
      "street": "EN 232",
      "house": "",
      "postcode": "6260-311",
      "city": "SAMEIRO",
      "lon": "-7.489679824162523",
      "lat": "40.40752918861036"
    },
    {
      "id": "pt.ine.add.PTCONT.1897581",
      "street": "R ALDEIA NOVA DA PONTE",
      "house": "",
      "postcode": "6260-311",
      "city": "SAMEIRO",
      "lon": "-7.489149916021513",
      "lat": "40.408741976978455"
    }
  ]
}