{
  "data": {
    "distrito": "Faro",
    "concelho": "Silves",
    "freguesia": "União das freguesias de Alcantarilha e Pêra",
    "OBJECTID": 686,
    "BGRI2021": "08130900527",
    "DT21": "08",
    "DTMN21": "0813",
    "DTMNFR21": "081309",
    "DTMNFRSEC21": "081309005",
    "SECNUM21": "005",
    "SSNUM21": "27",
    "SECSSNUM21": "00527",
    "OBJECTID_1": 72248,
    "DT": "08",
    "CC": "13",
    "fr": "09",
    "SEC": "005",
    "SS": "27"
  },
  "addresses": [
    {
      "id": "pt.ine.add.PTCONT.1530851",
      "street": "",
      "house": "",
      "postcode": "8365-301",
      "city": "ALCANTARILHA",
      "lon": "-8.360135509926701",
      "lat": "37.18507189271813"
    },
    {
      "id": "pt.ine.add.PTCONT.1530849",
      "street": "",
      "house": "",
      "postcode": "8365-301",
      "city": "ALCANTARILHA",
      "lon": "-8.35384375800486",
      "lat": "37.18630921239784"
    },
    {
      "id": "pt.ine.add.PTCONT.1567650",
      "street": "",
      "house": "",
      "postcode": "8365-301",
      "city": "ALCANTARILHA",
      "lon": "-8.350845728889134",
      "lat": "37.18549480224277"
    },
    {
      "id": "pt.ine.add.PTCONT.1572193",
      "street": "",
      "house": "",
      "postcode": "8365-301",
      "city": "ALCANTARILHA",
      "lon": "-8.34939732264616",
      "lat": "37.18702924400367"
    },
    {
      "id": "pt.ine.add.PTCONT.1627572",
      "street": "",
      "house": "",
      "postcode": "8365-301",
      "city": "ALCANTARILHA",
      "lon": "-8.356743412321423",
      "lat": "37.18429442816281"
    },
    {
      "id": "pt.ine.add.PTCONT.1637940",
      "street": "",
      "house": "",
      "postcode": "8365-301",
      "city": "ALCANTARILHA",
      "lon": "-8.354698848965546",
      "lat": "37.186028290077935"
    },
    {
      "id": "pt.ine.add.PTCONT.1660308",
      "street": "",
      "house": "",
      "postcode": "8365-301",
      "city": "ALCANTARILHA",
      "lon": "-8.349724256516927",
      "lat": "37.18714578351394"
    },
    {
      "id": "pt.ine.add.PTCONT.1702841",
      "street": "FTE LOUSEIROS",
      "house": "",
      "postcode": "8365-301",
      "city": "ALCANTARILHA",
      "lon": "-8.355046385665602",
      "lat": "37.18548700823507"
    },
    {
      "id": "pt.ine.add.PTCONT.1714578",
      "street": "",
      "house": "",
      "postcode": "8365-301",
      "city": "ALCANTARILHA",
      "lon": "-8.358319855778964",
      "lat": "37.18802179811567"
    },
    {
      "id": "pt.ine.add.PTCONT.1717119",
      "street": "",
      "house": "",
      "postcode": "8365-301",
      "city": "ALCANTARILHA",
      "lon": "-8.35918866372455",
      "lat": "37.184785366441275"
    },
    {
      "id": "pt.ine.add.PTCONT.1740336",
      "street": "SIT MONTINHO MALHAO",
      "house": "595H",
      "postcode": "8365-303",
      "city": "ALCANTARILHA",
      "lon": "-8.354477792690258",
      "lat": "37.18746137617712"
    },
    {
      "id": "pt.ine.add.PTCONT.1754388",
      "street": "",
      "house": "",
      "postcode": "8365-301",
      "city": "ALCANTARILHA",
      "lon": "-8.35004817589637",
      "lat": "37.18620809656468"
    },
    {
      "id": "pt.ine.add.PTCONT.1758537",
      "street": "FTE LOUSEIROS",
      "house": "CP 591",
      "postcode": "8365-301",
      "city": "ALCANTARILHA",
      "lon": "-8.35465482787311",
      "lat": "37.1863797827592"
    },
    {
      "id": "pt.ine.add.PTCONT.1758538",
      "street": "QTA PALMEIRAS",
      "house": "",
      "postcode": "8365-301",
      "city": "ALCANTARILHA",
      "lon": "-8.351521463809975",
      "lat": "37.185502569041994"
    },
    {
      "id": "pt.ine.add.PTCONT.1776725",
      "street": "",
      "house": "",
      "postcode": "8365-301",
      "city": "ALCANTARILHA",
      "lon": "-8.357663985317323",
      "lat": "37.183319550325976"
    },
    {
      "id": "pt.ine.add.PTCONT.1777156",
      "street": "",
      "house": "",
      "postcode": "8365-301",
      "city": "ALCANTARILHA",
      "lon": "-8.351938229029185",
      "lat": "37.18552883161357"
    },
    {
      "id": "pt.ine.add.PTCONT.1779958",
      "street": "CASA ROSADO OLIVEIRA",
      "house": "",
      "postcode": "8365-303",
      "city": "ALCANTARILHA",
      "lon": "-8.358183831866734",
      "lat": "37.183931279695585"
    },
    {
      "id": "pt.ine.add.PTCONT.1779980",
      "street": "",
      "house": "",
      "postcode": "8365-301",
      "city": "ALCANTARILHA",
      "lon": "-8.354788838765055",
      "lat": "37.18599207965292"
    },
    {
      "id": "pt.ine.add.PTCONT.1794534",
      "street": "VILA MONTINHO",
      "house": "",
      "postcode": "8365-301",
      "city": "ALCANTARILHA",
      "lon": "-8.354275416373744",
      "lat": "37.187578890883444"
    },
    {
      "id": "pt.ine.add.PTCONT.1809160",
      "street": "",
      "house": "",
      "postcode": "8365-301",
      "city": "ALCANTARILHA",
      "lon": "-8.350935745788746",
      "lat": "37.18546760521332"
    },
    {
      "id": "pt.ine.add.PTCONT.1829209",
      "street": "AV BEIRA MAR",
      "house": "",
      "postcode": "8365-303",
      "city": "ALCANTARILHA",
      "lon": "-8.350789471526465",
      "lat": "37.18551292666105"
    }
  ]
}