{
  "data": {
    "distrito": "Faro",
    "concelho": "Aljezur",
    "freguesia": "Aljezur",
    "OBJECTID": 219,
    "BGRI2021": "08030100205",
    "DT21": "08",
    "DTMN21": "0803",
    "DTMNFR21": "080301",
    "DTMNFRSEC21": "080301002",
    "SECNUM21": "002",
    "SSNUM21": "05",
    "SECSSNUM21": "00205",
    "OBJECTID_1": 65255,
    "DT": "08",
    "CC": "03",
    "fr": "01",
    "SEC": "002",
    "SS": "05"
  },
  "addresses": [
    {
      "id": "pt.ine.add.PTCONT.1528128",
      "street": "URB ARRIFAMAR",
      "house": "",
      "postcode": "8670-111",
      "city": "ALJEZUR",
      "lon": "-8.861002273944003",
      "lat": "37.29542048843091"
    },
    {
      "id": "pt.ine.add.PTCONT.1589484",
      "street": "URB VALE DA TELHA SECTOR A",
      "house": "",
      "postcode": "8670-156",
      "city": "ALJEZUR",
      "lon": "-8.85985381339046",
      "lat": "37.294445436486505"
    },
    {
      "id": "pt.ine.add.PTCONT.1601104",
      "street": "URB ARRIFAMAR",
      "house": "",
      "postcode": "8670-111",
      "city": "ALJEZUR",
      "lon": "-8.86100418388394",
      "lat": "37.295618700611314"
    },
    {
      "id": "pt.ine.add.PTCONT.1626672",
      "street": "URB VALE DA TELHA SECTOR A",
      "house": "",
      "postcode": "8670-156",
      "city": "ALJEZUR",
      "lon": "-8.860103125854287",
      "lat": "37.29457004786641"
    },
    {
      "id": "pt.ine.add.PTCONT.1675428",
      "street": "PRAIA DA ARRIFANA",
      "house": "",
      "postcode": "8670-111",
      "city": "ALJEZUR",
      "lon": "-8.860985440595439",
      "lat": "37.29484394049634"
    },
    {
      "id": "pt.ine.add.PTCONT.1701524",
      "street": "URB ARRIFAMAR",
      "house": "",
      "postcode": "8670-111",
      "city": "ALJEZUR",
      "lon": "-8.863395771821326",
      "lat": "37.29568505926067"
    },
    {
      "id": "pt.ine.add.PTCONT.1748212",
      "street": "URB ARRIFAMAR",
      "house": "",
      "postcode": "8670-111",
      "city": "ALJEZUR",
      "lon": "-8.862737332280505",
      "lat": "37.295238611400144"
    },
    {
      "id": "pt.ine.add.PTCONT.1769315",
      "street": "URB ARRIFAMAR",
      "house": "",
      "postcode": "8670-111",
      "city": "ALJEZUR",
      "lon": "-8.861269803903118",
      "lat": "37.2950944763344"
    },
    {
      "id": "pt.ine.add.PTCONT.1775150",
      "street": "URB VALE DA TELHA SECTOR A",
      "house": "",
      "postcode": "8670-156",
      "city": "ALJEZUR",
      "lon": "-8.860353133018563",
      "lat": "37.29476673588631"
    },
    {
      "id": "pt.ine.add.PTCONT.1820158",
      "street": "URB ARRIFAMAR",
      "house": "",
      "postcode": "8670-111",
      "city": "ALJEZUR",
      "lon": "-8.862274179413006",
      "lat": "37.29516037415142"
    }
  ]
}