{
  "data": {
    "distrito": "Faro",
    "concelho": "Aljezur",
    "freguesia": "Aljezur",
    "OBJECTID": 193,
    "BGRI2021": "08030100217",
    "DT21": "08",
    "DTMN21": "0803",
    "DTMNFR21": "080301",
    "DTMNFRSEC21": "080301002",
    "SECNUM21": "002",
    "SSNUM21": "17",
    "SECSSNUM21": "00217",
    "OBJECTID_1": 65498,
    "DT": "08",
    "CC": "03",
    "fr": "01",
    "SEC": "002",
    "SS": "17"
  },
  "addresses": [
    {
      "id": "pt.ine.add.PTCONT.1522026",
      "street": "PAISAGEM OCEANO",
      "house": "2",
      "postcode": "8670-015",
      "city": "ALJEZUR",
      "lon": "-8.847045383037699",
      "lat": "37.30194778240173"
    },
    {
      "id": "pt.ine.add.PTCONT.1547855",
      "street": "URB SECTOR E",
      "house": "19",
      "postcode": "8670-156",
      "city": "ALJEZUR",
      "lon": "-8.847028447478875",
      "lat": "37.30254255616986"
    },
    {
      "id": "pt.ine.add.PTCONT.1562442",
      "street": "URB SECTOR E",
      "house": "",
      "postcode": "8670-156",
      "city": "ALJEZUR",
      "lon": "-8.847582370036251",
      "lat": "37.30267436595277"
    },
    {
      "id": "pt.ine.add.PTCONT.1565930",
      "street": "URB SECTOR E",
      "house": "",
      "postcode": "8670-156",
      "city": "ALJEZUR",
      "lon": "-8.84805777155087",
      "lat": "37.302851698392644"
    },
    {
      "id": "pt.ine.add.PTCONT.1603980",
      "street": "URB SECTOR E",
      "house": "",
      "postcode": "8670-156",
      "city": "ALJEZUR",
      "lon": "-8.84732211319548",
      "lat": "37.30258583513898"
    },
    {
      "id": "pt.ine.add.PTCONT.1603981",
      "street": "CASA SHEILANNA",
      "house": "3",
      "postcode": "8670-015",
      "city": "ALJEZUR",
      "lon": "-8.847283847399675",
      "lat": "37.3021175369399"
    },
    {
      "id": "pt.ine.add.PTCONT.1707012",
      "street": "URB SECTOR E",
      "house": "",
      "postcode": "8670-156",
      "city": "ALJEZUR",
      "lon": "-8.84782007051753",
      "lat": "37.30276303241501"
    },
    {
      "id": "pt.ine.add.PTCONT.1767949",
      "street": "PAISAGEM OCEANO",
      "house": "4",
      "postcode": "8670-015",
      "city": "ALJEZUR",
      "lon": "-8.847589557113368",
      "lat": "37.302241834153286"
    },
    {
      "id": "pt.ine.add.PTCONT.1838391",
      "street": "URB VALE DA TELHA",
      "house": "",
      "postcode": "8670-156",
      "city": "ALJEZUR",
      "lon": "-8.849169556236351",
      "lat": "37.303529749791636"
    },
    {
      "id": "pt.ine.add.PTCONT.1838827",
      "street": "URB VALE DA TELHA",
      "house": "",
      "postcode": "8670-156",
      "city": "ALJEZUR",
      "lon": "-8.849169556236351",
      "lat": "37.303529749791636"
    }
  ]
}