{
  "data": {
    "distrito": "Braga",
    "concelho": "Vila Nova de Famalicão",
    "freguesia": "Gavião",
    "OBJECTID": 1349,
    "BGRI2021": "03121600214",
    "DT21": "03",
    "DTMN21": "0312",
    "DTMNFR21": "031216",
    "DTMNFRSEC21": "031216002",
    "SECNUM21": "002",
    "SSNUM21": "14",
    "SECSSNUM21": "00214",
    "OBJECTID_1": 31441,
    "DT": "03",
    "CC": "12",
    "fr": "16",
    "SEC": "002",
    "SS": "14"
  },
  "addresses": [
    {
      "id": "pt.ine.add.PTCONT.476428",
      "street": "R DO PICOTO",
      "house": "",
      "postcode": "4760-083",
      "city": "VILA NOVA DE FAMALICÃO",
      "lon": "-8.509964147898037",
      "lat": "41.417389691876025"
    },
    {
      "id": "pt.ine.add.PTCONT.482526",
      "street": "R OLIVEIRAS",
      "house": "88",
      "postcode": "4760-190",
      "city": "VILA NOVA DE FAMALICÃO",
      "lon": "-8.50914178866102",
      "lat": "41.41790560800246"
    },
    {
      "id": "pt.ine.add.PTCONT.490541",
      "street": "R OLIVEIRAS",
      "house": "16",
      "postcode": "4760-190",
      "city": "VILA NOVA DE FAMALICÃO",
      "lon": "-8.508836634406357",
      "lat": "41.416844138059275"
    },
    {
      "id": "pt.ine.add.PTCONT.491462",
      "street": "R OLIVEIRAS",
      "house": "117",
      "postcode": "4760-190",
      "city": "VILA NOVA DE FAMALICÃO",
      "lon": "-8.5098588910061",
      "lat": "41.41780421856549"
    },
    {
      "id": "pt.ine.add.PTCONT.515229",
      "street": "R PICOTO",
      "house": "866",
      "postcode": "4760-083",
      "city": "VILA NOVA DE FAMALICÃO",
      "lon": "-8.510756347993766",
      "lat": "41.41786430402196"
    },
    {
      "id": "pt.ine.add.PTCONT.527032",
      "street": "R PICOTO",
      "house": "770",
      "postcode": "4760-083",
      "city": "VILA NOVA DE FAMALICÃO",
      "lon": "-8.509619140167567",
      "lat": "41.417113229421844"
    },
    {
      "id": "pt.ine.add.PTCONT.556720",
      "street": "LOTEAM DA BICA",
      "house": "8",
      "postcode": "4760-083",
      "city": "VILA NOVA DE FAMALICÃO",
      "lon": "-8.509444635268789",
      "lat": "41.418109727921646"
    },
    {
      "id": "pt.ine.add.PTCONT.565592",
      "street": "R PICOTO",
      "house": "400",
      "postcode": "4760-083",
      "city": "VILA NOVA DE FAMALICÃO",
      "lon": "-8.509119960809063",
      "lat": "41.416194927514276"
    },
    {
      "id": "pt.ine.add.PTCONT.585993",
      "street": "R OLIVEIRAS",
      "house": "77",
      "postcode": "4760-190",
      "city": "VILA NOVA DE FAMALICÃO",
      "lon": "-8.509642392880059",
      "lat": "41.4175978363016"
    },
    {
      "id": "pt.ine.add.PTCONT.603390",
      "street": "R PICOTO",
      "house": "16",
      "postcode": "4760-083",
      "city": "VILA NOVA DE FAMALICÃO",
      "lon": "-8.507465009319832",
      "lat": "41.415443991535454"
    },
    {
      "id": "pt.ine.add.PTCONT.609642",
      "street": "R OLIVEIRAS",
      "house": "74",
      "postcode": "4760-190",
      "city": "VILA NOVA DE FAMALICÃO",
      "lon": "-8.509069553875781",
      "lat": "41.41782480846182"
    },
    {
      "id": "pt.ine.add.PTCONT.618409",
      "street": "R OLIVEIRAS",
      "house": "46",
      "postcode": "4760-190",
      "city": "VILA NOVA DE FAMALICÃO",
      "lon": "-8.508865123151406",
      "lat": "41.41763639321335"
    },
    {
      "id": "pt.ine.add.PTCONT.638434",
      "street": "SIT DA BICA",
      "house": "",
      "postcode": "4764-501",
      "city": "VILA NOVA DE FAMALICÃO",
      "lon": "-8.509317570329719",
      "lat": "41.41727475643717"
    },
    {
      "id": "pt.ine.add.PTCONT.641770",
      "street": "R PICOTO",
      "house": "450",
      "postcode": "4760-083",
      "city": "VILA NOVA DE FAMALICÃO",
      "lon": "-8.509252829701914",
      "lat": "41.41641959216639"
    },
    {
      "id": "pt.ine.add.PTCONT.659197",
      "street": "R PICOTO",
      "house": "560",
      "postcode": "4760-083",
      "city": "VILA NOVA DE FAMALICÃO",
      "lon": "-8.509027180576858",
      "lat": "41.416699452332885"
    },
    {
      "id": "pt.ine.add.PTCONT.682790",
      "street": "R OLIVEIRAS",
      "house": "60",
      "postcode": "4760-190",
      "city": "VILA NOVA DE FAMALICÃO",
      "lon": "-8.508985150407891",
      "lat": "41.417708032805464"
    },
    {
      "id": "pt.ine.add.PTCONT.735608",
      "street": "R PICOTO",
      "house": "14",
      "postcode": "4760-083",
      "city": "VILA NOVA DE FAMALICÃO",
      "lon": "-8.50721527915379",
      "lat": "41.41569691467118"
    },
    {
      "id": "pt.ine.add.PTCONT.757156",
      "street": "R FRANCISCO TROVISQUEIRA",
      "house": "150",
      "postcode": "4760-732",
      "city": "VILA NOVA DE FAMALICÃO",
      "lon": "-8.507693092110404",
      "lat": "41.415587312556156"
    },
    {
      "id": "pt.ine.add.PTCONT.760277",
      "street": "R PICOTO",
      "house": "556",
      "postcode": "4760-083",
      "city": "VILA NOVA DE FAMALICÃO",
      "lon": "-8.509469530565145",
      "lat": "41.41666199037753"
    },
    {
      "id": "pt.ine.add.PTCONT.769392",
      "street": "R PICOTO",
      "house": "812",
      "postcode": "4760-083",
      "city": "VILA NOVA DE FAMALICÃO",
      "lon": "-8.510588212959098",
      "lat": "41.41774780434781"
    },
    {
      "id": "pt.ine.add.PTCONT.781414",
      "street": "R DAS OLIVEIRAS",
      "house": "36",
      "postcode": "4760-190",
      "city": "VILA NOVA DE FAMALICÃO",
      "lon": "-8.508816759484608",
      "lat": "41.41754651159092"
    },
    {
      "id": "pt.ine.add.PTCONT.781733",
      "street": "R OLIVEIRAS",
      "house": "102",
      "postcode": "4760-190",
      "city": "VILA NOVA DE FAMALICÃO",
      "lon": "-8.509237998093429",
      "lat": "41.417995333078544"
    },
    {
      "id": "pt.ine.add.PTCONT.784636",
      "street": "R OLIVEIRAS",
      "house": "51",
      "postcode": "4760-190",
      "city": "VILA NOVA DE FAMALICÃO",
      "lon": "-8.509462039463054",
      "lat": "41.41743635517783"
    },
    {
      "id": "pt.ine.add.PTCONT.811796",
      "street": "R FRANCISCO TROVISQUEIRA",
      "house": "70",
      "postcode": "4760-732",
      "city": "VILA NOVA DE FAMALICÃO",
      "lon": "-8.508305736533663",
      "lat": "41.416044518276024"
    },
    {
      "id": "pt.ine.add.PTCONT.848892",
      "street": "R PICOTO",
      "house": "714",
      "postcode": "4760-083",
      "city": "VILA NOVA DE FAMALICÃO",
      "lon": "-8.510024578300634",
      "lat": "41.41749754140016"
    }
  ]
}