{
  "data": {
    "distrito": "Aveiro",
    "concelho": "Oliveira de Azeméis",
    "freguesia": "Vila de Cucujães",
    "OBJECTID": 1027,
    "BGRI2021": "01131900602",
    "DT21": "01",
    "DTMN21": "0113",
    "DTMNFR21": "011319",
    "DTMNFRSEC21": "011319006",
    "SECNUM21": "006",
    "SSNUM21": "02",
    "SECSSNUM21": "00602",
    "OBJECTID_1": 8682,
    "DT": "01",
    "CC": "13",
    "fr": "19",
    "SEC": "006",
    "SS": "02"
  },
  "addresses": [
    {
      "id": "pt.ine.add.PTCONT.317575",
      "street": "R AUGUSTO BRANDÃO VILLA BRAZIL",
      "house": "59",
      "postcode": "3720-837",
      "city": "VILA DE CUCUJÃES",
      "lon": "-8.491099683894952",
      "lat": "40.86735383101432"
    },
    {
      "id": "pt.ine.add.PTCONT.317576",
      "street": "R MANUEL MARIA CASTRO LOPES",
      "house": "35",
      "postcode": "3720-837",
      "city": "VILA DE CUCUJÃES",
      "lon": "-8.490753128288667",
      "lat": "40.866877650675725"
    },
    {
      "id": "pt.ine.add.PTCONT.334991",
      "street": "R MAESTRO ANTÓNIO PINTO GODINHO",
      "house": "",
      "postcode": "3720-360",
      "city": "VILA DE CUCUJÃES",
      "lon": "-8.492263488020813",
      "lat": "40.867602348089555"
    },
    {
      "id": "pt.ine.add.PTCONT.4338",
      "street": "R PADRE PLACIDO GONÇALVES",
      "house": "",
      "postcode": "3720-361",
      "city": "VILA DE CUCUJÃES",
      "lon": "-8.492225859785025",
      "lat": "40.86722426289859"
    },
    {
      "id": "pt.ine.add.PTCONT.20094",
      "street": "R PADRE PLACIDO GONÇALVES",
      "house": "120",
      "postcode": "3720-361",
      "city": "VILA DE CUCUJÃES",
      "lon": "-8.491952313193684",
      "lat": "40.86709004194244"
    },
    {
      "id": "pt.ine.add.PTCONT.41827",
      "street": "R PADRE PLACIDO GONÇALVES",
      "house": "",
      "postcode": "3720-361",
      "city": "VILA DE CUCUJÃES",
      "lon": "-8.491763499176859",
      "lat": "40.86727072554456"
    },
    {
      "id": "pt.ine.add.PTCONT.55105",
      "street": "R PADRE PLACIDO GONÇALVES",
      "house": "126",
      "postcode": "3720-361",
      "city": "VILA DE CUCUJÃES",
      "lon": "-8.492059553868245",
      "lat": "40.8671797564536"
    },
    {
      "id": "pt.ine.add.PTCONT.57830",
      "street": "LG MARTIR S SEBASTIAO",
      "house": "",
      "postcode": "3720-382",
      "city": "VILA DE CUCUJÃES",
      "lon": "-8.490339812199474",
      "lat": "40.86722111455331"
    },
    {
      "id": "pt.ine.add.PTCONT.76820",
      "street": "R PADRE PLACIDO GONÇALVES",
      "house": "54",
      "postcode": "3720-361",
      "city": "VILA DE CUCUJÃES",
      "lon": "-8.491324036296112",
      "lat": "40.86716403332156"
    },
    {
      "id": "pt.ine.add.PTCONT.101381",
      "street": "R MAESTRO ANTÓNIO PINTO GODINHO",
      "house": "125",
      "postcode": "3720-360",
      "city": "VILA DE CUCUJÃES",
      "lon": "-8.4919792448335",
      "lat": "40.86768427613423"
    },
    {
      "id": "pt.ine.add.PTCONT.101382",
      "street": "R MAESTRO ANTÓNIO PINTO GODINHO",
      "house": "125",
      "postcode": "3720-360",
      "city": "VILA DE CUCUJÃES",
      "lon": "-8.4919792448335",
      "lat": "40.86768427613423"
    },
    {
      "id": "pt.ine.add.PTCONT.109067",
      "street": "LG ASILO DA GANDARINHA",
      "house": "146",
      "postcode": "3720-362",
      "city": "VILA DE CUCUJÃES",
      "lon": "-8.489759655151651",
      "lat": "40.86742101583149"
    },
    {
      "id": "pt.ine.add.PTCONT.116868",
      "street": "R PADRE PLACIDO GONÇALVES",
      "house": "76",
      "postcode": "3720-361",
      "city": "VILA DE CUCUJÃES",
      "lon": "-8.491690726431445",
      "lat": "40.8669737927916"
    },
    {
      "id": "pt.ine.add.PTCONT.122263",
      "street": "R MAESTRO ANTÓNIO PINTO GODINHO",
      "house": "",
      "postcode": "3720-360",
      "city": "VILA DE CUCUJÃES",
      "lon": "-8.492156927306496",
      "lat": "40.86763869910447"
    },
    {
      "id": "pt.ine.add.PTCONT.146392",
      "street": "R MAESTRO ANTÓNIO PINTO GODINHO",
      "house": "",
      "postcode": "3720-360",
      "city": "VILA DE CUCUJÃES",
      "lon": "-8.49126763917888",
      "lat": "40.867704497522496"
    },
    {
      "id": "pt.ine.add.PTCONT.152965",
      "street": "R MAESTRO ANTÓNIO PINTO GODINHO",
      "house": "35",
      "postcode": "3720-360",
      "city": "VILA DE CUCUJÃES",
      "lon": "-8.490993995563414",
      "lat": "40.86755226497067"
    },
    {
      "id": "pt.ine.add.PTCONT.161460",
      "street": "R MANUEL MARIA CASTRO LOPES",
      "house": "71",
      "postcode": "3720-837",
      "city": "VILA DE CUCUJÃES",
      "lon": "-8.490361551338712",
      "lat": "40.86685184966174"
    },
    {
      "id": "pt.ine.add.PTCONT.180964",
      "street": "R PADRE PLACIDO GONÇALVES",
      "house": "160",
      "postcode": "3720-361",
      "city": "VILA DE CUCUJÃES",
      "lon": "-8.49229727283319",
      "lat": "40.86726906463404"
    },
    {
      "id": "pt.ine.add.PTCONT.188539",
      "street": "R CONDESSA DE PENHA LONGA",
      "house": "30",
      "postcode": "3720-380",
      "city": "VILA DE CUCUJÃES",
      "lon": "-8.490519721665935",
      "lat": "40.86758975477615"
    },
    {
      "id": "pt.ine.add.PTCONT.192427",
      "street": "R MANUEL MARIA CASTRO LOPES",
      "house": "79",
      "postcode": "3720-837",
      "city": "VILA DE CUCUJÃES",
      "lon": "-8.490171717938823",
      "lat": "40.86684343263168"
    },
    {
      "id": "pt.ine.add.PTCONT.231820",
      "street": "R MAESTRO ANTÓNIO PINTO GODINHO",
      "house": "75",
      "postcode": "3720-360",
      "city": "VILA DE CUCUJÃES",
      "lon": "-8.491540604287852",
      "lat": "40.86773066408626"
    }
  ]
}