{
  "data": {
    "distrito": "Aveiro",
    "concelho": "Oliveira de Azeméis",
    "freguesia": "Vila de Cucujães",
    "OBJECTID": 827,
    "BGRI2021": "01131900606",
    "DT21": "01",
    "DTMN21": "0113",
    "DTMNFR21": "011319",
    "DTMNFRSEC21": "011319006",
    "SECNUM21": "006",
    "SSNUM21": "06",
    "SECSSNUM21": "00606",
    "OBJECTID_1": 9081,
    "DT": "01",
    "CC": "13",
    "fr": "19",
    "SEC": "006",
    "SS": "06"
  },
  "addresses": [
    {
      "id": "pt.ine.add.PTCONT.311544",
      "street": "R VIA MILITAR ROMANA",
      "house": "665",
      "postcode": "3720-356",
      "city": "VILA DE CUCUJÃES",
      "lon": "-8.4882107513257",
      "lat": "40.87057748012609"
    },
    {
      "id": "pt.ine.add.PTCONT.313255",
      "street": "BC CONDESSA DA PENHA LONGA",
      "house": "57",
      "postcode": "3720-815",
      "city": "VILA DE CUCUJÃES",
      "lon": "-8.490481811398839",
      "lat": "40.871570000309376"
    },
    {
      "id": "pt.ine.add.PTCONT.320287",
      "street": "BC CONDESSA PENHA LONGA",
      "house": "48",
      "postcode": "3720-815",
      "city": "VILA DE CUCUJÃES",
      "lon": "-8.490517882837496",
      "lat": "40.871659936659"
    },
    {
      "id": "pt.ine.add.PTCONT.323220",
      "street": "R CONDESSA DE PENHA LONGA",
      "house": "",
      "postcode": "3720-380",
      "city": "VILA DE CUCUJÃES",
      "lon": "-8.490858354912975",
      "lat": "40.871001529906444"
    },
    {
      "id": "pt.ine.add.PTCONT.76814",
      "street": "R CONDESSA PENHA LONGA",
      "house": "168",
      "postcode": "3720-380",
      "city": "VILA DE CUCUJÃES",
      "lon": "-8.49079153249505",
      "lat": "40.869605991051216"
    },
    {
      "id": "pt.ine.add.PTCONT.79553",
      "street": "R CONDESSA DE PENHA LONGA",
      "house": "",
      "postcode": "3720-380",
      "city": "VILA DE CUCUJÃES",
      "lon": "-8.490894959741446",
      "lat": "40.87119051742613"
    },
    {
      "id": "pt.ine.add.PTCONT.90792",
      "street": "R CONDESSA DE PENHA LONGA",
      "house": "426",
      "postcode": "3720-380",
      "city": "VILA DE CUCUJÃES",
      "lon": "-8.49075668182486",
      "lat": "40.87194735042736"
    },
    {
      "id": "pt.ine.add.PTCONT.109065",
      "street": "R CONDESSA DE PENHA LONGA",
      "house": "",
      "postcode": "3720-380",
      "city": "VILA DE CUCUJÃES",
      "lon": "-8.490907306820656",
      "lat": "40.87128052724661"
    },
    {
      "id": "pt.ine.add.PTCONT.109066",
      "street": "R CONDESSA DE PENHA LONGA",
      "house": "",
      "postcode": "3720-380",
      "city": "VILA DE CUCUJÃES",
      "lon": "-8.490592108615285",
      "lat": "40.87222700972895"
    },
    {
      "id": "pt.ine.add.PTCONT.116864",
      "street": "R CONDESSA DE PENHA LONGA",
      "house": "",
      "postcode": "3720-380",
      "city": "VILA DE CUCUJÃES",
      "lon": "-8.490919702410258",
      "lat": "40.871379541725645"
    },
    {
      "id": "pt.ine.add.PTCONT.116865",
      "street": "R CONDESSA DE PENHA LONGA",
      "house": "182",
      "postcode": "3720-380",
      "city": "VILA DE CUCUJÃES",
      "lon": "-8.490780251890413",
      "lat": "40.869714083804794"
    },
    {
      "id": "pt.ine.add.PTCONT.136355",
      "street": "R VIA MILITAR ROMANA",
      "house": "",
      "postcode": "3720-356",
      "city": "VILA DE CUCUJÃES",
      "lon": "-8.488331057990656",
      "lat": "40.87089227815061"
    },
    {
      "id": "pt.ine.add.PTCONT.147980",
      "street": "R CONDESSA DE PENHA LONGA",
      "house": "398",
      "postcode": "3720-380",
      "city": "VILA DE CUCUJÃES",
      "lon": "-8.49088513319668",
      "lat": "40.871568750000925"
    },
    {
      "id": "pt.ine.add.PTCONT.150618",
      "street": "R CONDESSA DE PENHA LONGA",
      "house": "",
      "postcode": "3720-380",
      "city": "VILA DE CUCUJÃES",
      "lon": "-8.49089452349062",
      "lat": "40.871109475470085"
    },
    {
      "id": "pt.ine.add.PTCONT.159871",
      "street": "LG ASILO GANDARINHA",
      "house": "67",
      "postcode": "3720-362",
      "city": "VILA DE CUCUJÃES",
      "lon": "-8.489573828046595",
      "lat": "40.86815998529105"
    },
    {
      "id": "pt.ine.add.PTCONT.159873",
      "street": "LG ASILO DA GANDARINHA",
      "house": "",
      "postcode": "3720-362",
      "city": "VILA DE CUCUJÃES",
      "lon": "-8.489573828046595",
      "lat": "40.86815998529105"
    },
    {
      "id": "pt.ine.add.PTCONT.161459",
      "street": "R CONDESSA DE PENHA LONGA",
      "house": "246",
      "postcode": "3720-380",
      "city": "VILA DE CUCUJÃES",
      "lon": "-8.490783546837113",
      "lat": "40.870326400933806"
    },
    {
      "id": "pt.ine.add.PTCONT.172929",
      "street": "R VIA MILITAR ROMANA",
      "house": "997",
      "postcode": "3720-356",
      "city": "VILA DE CUCUJÃES",
      "lon": "-8.488744407203013",
      "lat": "40.87054882155245"
    },
    {
      "id": "pt.ine.add.PTCONT.178005",
      "street": "R CONDESSA PENHA LONGA",
      "house": "250",
      "postcode": "3720-380",
      "city": "VILA DE CUCUJÃES",
      "lon": "-8.490914467120783",
      "lat": "40.8704070382122"
    },
    {
      "id": "pt.ine.add.PTCONT.188538",
      "street": "BC CONDESSA PENHA LONGA",
      "house": "88",
      "postcode": "3720-815",
      "city": "VILA DE CUCUJÃES",
      "lon": "-8.490765879219445",
      "lat": "40.87145205728764"
    },
    {
      "id": "pt.ine.add.PTCONT.201985",
      "street": "R CONDESSA DE PENHA LONGA",
      "house": "518",
      "postcode": "3720-380",
      "city": "VILA DE CUCUJÃES",
      "lon": "-8.490274143211604",
      "lat": "40.87266022563321"
    },
    {
      "id": "pt.ine.add.PTCONT.210067",
      "street": "R CONDESSA PENHA LONGA",
      "house": "382",
      "postcode": "3720-380",
      "city": "VILA DE CUCUJÃES",
      "lon": "-8.490884648480511",
      "lat": "40.87147870338885"
    },
    {
      "id": "pt.ine.add.PTCONT.218424",
      "street": "R CONDESSA PENHA LONGA",
      "house": "518",
      "postcode": "3720-380",
      "city": "VILA DE CUCUJÃES",
      "lon": "-8.49042753402752",
      "lat": "40.87250666878792"
    },
    {
      "id": "pt.ine.add.PTCONT.250769",
      "street": "R CONDESSA DE PENHA LONGA",
      "house": "",
      "postcode": "3720-380",
      "city": "VILA DE CUCUJÃES",
      "lon": "-8.49077347747503",
      "lat": "40.8706596102448"
    },
    {
      "id": "pt.ine.add.PTCONT.253493",
      "street": "LG ASILO GANDARINHA",
      "house": "67",
      "postcode": "3720-362",
      "city": "VILA DE CUCUJÃES",
      "lon": "-8.489219373043564",
      "lat": "40.86842221982623"
    },
    {
      "id": "pt.ine.add.PTCONT.264868",
      "street": "R CONDESSA DE PENHA LONGA",
      "house": "218",
      "postcode": "3720-380",
      "city": "VILA DE CUCUJÃES",
      "lon": "-8.4908649342551",
      "lat": "40.870019984868264"
    },
    {
      "id": "pt.ine.add.PTCONT.266150",
      "street": "R CONDESSA DE PENHA LONGA",
      "house": "320",
      "postcode": "3720-380",
      "city": "VILA DE CUCUJÃES",
      "lon": "-8.490075539507055",
      "lat": "40.87102196480394"
    }
  ]
}