{
  "data": {
    "ilha": "Ilha da Madeira (Madeira)",
    "concelho": "Funchal",
    "freguesia": "São Martinho",
    "OBJECTID": 64,
    "BGRI2021": "31030700303",
    "DT21": "31",
    "DTMN21": "3103",
    "DTMNFR21": "310307",
    "DTMNFRSEC21": "310307003",
    "SECNUM21": "003",
    "SSNUM21": "03",
    "SECSSNUM21": "00303",
    "OBJECTID_1": 203664,
    "DT": "31",
    "CC": "03",
    "fr": "07",
    "SEC": "003",
    "SS": "03",
    "BGRI2021_1": "31030700303"
  },
  "addresses": [
    {
      "id": "pt.ine.add.MAD.16942",
      "street": "R CASA BRANCA HOTEL MIMOSA",
      "house": "98",
      "postcode": "9000-113",
      "city": "FUNCHAL",
      "lon": "-16.93059328454883",
      "lat": "32.64062774373005"
    },
    {
      "id": "pt.ine.add.MAD.16943",
      "street": "R FUNDACAO ZINO",
      "house": "5",
      "postcode": "9000-120",
      "city": "FUNCHAL",
      "lon": "-16.930004701071713",
      "lat": "32.64051955284219"
    },
    {
      "id": "pt.ine.add.MAD.16944",
      "street": "R FUNDACAO ZINO",
      "house": "5",
      "postcode": "9000-120",
      "city": "FUNCHAL",
      "lon": "-16.930004701071713",
      "lat": "32.64051955284219"
    },
    {
      "id": "pt.ine.add.MAD.16945",
      "street": "R FUNDACAO ZINO",
      "house": "5",
      "postcode": "9000-120",
      "city": "FUNCHAL",
      "lon": "-16.930004701071713",
      "lat": "32.64051955284219"
    },
    {
      "id": "pt.ine.add.MAD.16946",
      "street": "R FUNDACAO ZINO",
      "house": "5",
      "postcode": "9000-120",
      "city": "FUNCHAL",
      "lon": "-16.930004701071713",
      "lat": "32.64051955284219"
    },
    {
      "id": "pt.ine.add.MAD.16947",
      "street": "R FUNDACAO ZINO",
      "house": "5",
      "postcode": "9000-120",
      "city": "FUNCHAL",
      "lon": "-16.930004701071713",
      "lat": "32.64051955284219"
    },
    {
      "id": "pt.ine.add.MAD.16948",
      "street": "R FUNDACAO ZINO",
      "house": "5",
      "postcode": "9000-120",
      "city": "FUNCHAL",
      "lon": "-16.930004701071713",
      "lat": "32.64051955284219"
    },
    {
      "id": "pt.ine.add.MAD.17681",
      "street": "R FUNDACAO ZINO",
      "house": "5",
      "postcode": "9000-120",
      "city": "FUNCHAL",
      "lon": "-16.930004701071713",
      "lat": "32.64051955284219"
    },
    {
      "id": "pt.ine.add.MAD.17682",
      "street": "R FUNDACAO ZINO",
      "house": "5",
      "postcode": "9000-120",
      "city": "FUNCHAL",
      "lon": "-16.930004701071713",
      "lat": "32.64051955284219"
    },
    {
      "id": "pt.ine.add.MAD.17683",
      "street": "R FUNDACAO ZINO",
      "house": "5",
      "postcode": "9000-120",
      "city": "FUNCHAL",
      "lon": "-16.930004701071713",
      "lat": "32.64051955284219"
    },
    {
      "id": "pt.ine.add.MAD.17684",
      "street": "R FUNDACAO ZINO",
      "house": "5",
      "postcode": "9000-120",
      "city": "FUNCHAL",
      "lon": "-16.930004701071713",
      "lat": "32.64051955284219"
    },
    {
      "id": "pt.ine.add.MAD.17685",
      "street": "R FUNDACAO ZINO",
      "house": "5",
      "postcode": "9000-120",
      "city": "FUNCHAL",
      "lon": "-16.930004701071713",
      "lat": "32.64051955284219"
    },
    {
      "id": "pt.ine.add.MAD.17686",
      "street": "R FUNDACAO ZINO",
      "house": "5",
      "postcode": "9000-120",
      "city": "FUNCHAL",
      "lon": "-16.930004701071713",
      "lat": "32.64051955284219"
    },
    {
      "id": "pt.ine.add.MAD.17687",
      "street": "R FUNDACAO ZINO",
      "house": "5",
      "postcode": "9000-120",
      "city": "FUNCHAL",
      "lon": "-16.930004701071713",
      "lat": "32.64051955284219"
    },
    {
      "id": "pt.ine.add.MAD.17688",
      "street": "R FUNDACAO ZINO",
      "house": "5",
      "postcode": "9000-120",
      "city": "FUNCHAL",
      "lon": "-16.930004701071713",
      "lat": "32.64051955284219"
    },
    {
      "id": "pt.ine.add.MAD.17689",
      "street": "R FUNDACAO ZINO",
      "house": "5",
      "postcode": "9000-120",
      "city": "FUNCHAL",
      "lon": "-16.930004701071713",
      "lat": "32.64051955284219"
    },
    {
      "id": "pt.ine.add.MAD.83574",
      "street": "R FUNDAÇÃO ZINO",
      "house": "7",
      "postcode": "9000-120",
      "city": "FUNCHAL",
      "lon": "-16.93020115281307",
      "lat": "32.64073298138039"
    },
    {
      "id": "pt.ine.add.MAD.83575",
      "street": "R FUNDAÇÃO ZINO",
      "house": "7",
      "postcode": "9000-120",
      "city": "FUNCHAL",
      "lon": "-16.93020115281307",
      "lat": "32.64073298138039"
    },
    {
      "id": "pt.ine.add.MAD.83576",
      "street": "R FUNDAÇÃO ZINO",
      "house": "7",
      "postcode": "9000-120",
      "city": "FUNCHAL",
      "lon": "-16.93020115281307",
      "lat": "32.64073298138039"
    },
    {
      "id": "pt.ine.add.MAD.83577",
      "street": "R FUNDAÇÃO ZINO",
      "house": "7",
      "postcode": "9000-120",
      "city": "FUNCHAL",
      "lon": "-16.93020115281307",
      "lat": "32.64073298138039"
    },
    {
      "id": "pt.ine.add.MAD.83578",
      "street": "R FUNDAÇÃO ZINO",
      "house": "7",
      "postcode": "9000-120",
      "city": "FUNCHAL",
      "lon": "-16.93020115281307",
      "lat": "32.64073298138039"
    },
    {
      "id": "pt.ine.add.MAD.83579",
      "street": "R FUNDAÇÃO ZINO",
      "house": "7",
      "postcode": "9000-120",
      "city": "FUNCHAL",
      "lon": "-16.93020115281307",
      "lat": "32.64073298138039"
    },
    {
      "id": "pt.ine.add.MAD.86443",
      "street": "R FUNDAÇÃO ZINO",
      "house": "7",
      "postcode": "9000-120",
      "city": "FUNCHAL",
      "lon": "-16.93020115281307",
      "lat": "32.64073298138039"
    },
    {
      "id": "pt.ine.add.MAD.86444",
      "street": "R FUNDAÇÃO ZINO",
      "house": "7",
      "postcode": "9000-120",
      "city": "FUNCHAL",
      "lon": "-16.93020115281307",
      "lat": "32.64073298138039"
    },
    {
      "id": "pt.ine.add.MAD.86445",
      "street": "R FUNDAÇÃO ZINO",
      "house": "7",
      "postcode": "9000-120",
      "city": "FUNCHAL",
      "lon": "-16.93020115281307",
      "lat": "32.64073298138039"
    },
    {
      "id": "pt.ine.add.MAD.86446",
      "street": "R FUNDAÇÃO ZINO",
      "house": "7",
      "postcode": "9000-120",
      "city": "FUNCHAL",
      "lon": "-16.93020115281307",
      "lat": "32.64073298138039"
    },
    {
      "id": "pt.ine.add.MAD.86447",
      "street": "R FUNDAÇÃO ZINO",
      "house": "7",
      "postcode": "9000-120",
      "city": "FUNCHAL",
      "lon": "-16.93020115281307",
      "lat": "32.64073298138039"
    },
    {
      "id": "pt.ine.add.MAD.86448",
      "street": "R FUNDAÇÃO ZINO",
      "house": "7",
      "postcode": "9000-120",
      "city": "FUNCHAL",
      "lon": "-16.93020115281307",
      "lat": "32.64073298138039"
    },
    {
      "id": "pt.ine.add.MAD.86449",
      "street": "R FUNDAÇÃO ZINO",
      "house": "7",
      "postcode": "9000-120",
      "city": "FUNCHAL",
      "lon": "-16.93020115281307",
      "lat": "32.64073298138039"
    },
    {
      "id": "pt.ine.add.MAD.86450",
      "street": "R FUNDAÇÃO ZINO",
      "house": "7",
      "postcode": "9000-120",
      "city": "FUNCHAL",
      "lon": "-16.93020115281307",
      "lat": "32.64073298138039"
    },
    {
      "id": "pt.ine.add.MAD.96766",
      "street": "R CASA BRANCA HOTEL MIMOSA",
      "house": "98",
      "postcode": "9000-113",
      "city": "FUNCHAL",
      "lon": "-16.93059328454883",
      "lat": "32.64062774373005"
    },
    {
      "id": "pt.ine.add.MAD.96767",
      "street": "R CASA BRANCA",
      "house": "98",
      "postcode": "9000-113",
      "city": "FUNCHAL",
      "lon": "-16.930041517379564",
      "lat": "32.63975239367832"
    },
    {
      "id": "pt.ine.add.MAD.96768",
      "street": "R CASA BRANCA",
      "house": "98",
      "postcode": "9000-113",
      "city": "FUNCHAL",
      "lon": "-16.930317399579568",
      "lat": "32.640190069072545"
    },
    {
      "id": "pt.ine.add.MAD.100546",
      "street": "R FUNDAÇÃO ZINO",
      "house": "7",
      "postcode": "9000-120",
      "city": "FUNCHAL",
      "lon": "-16.93020115281307",
      "lat": "32.64073298138039"
    },
    {
      "id": "pt.ine.add.MAD.103359",
      "street": "R FUNDACAO ZINO",
      "house": "5",
      "postcode": "9000-120",
      "city": "FUNCHAL",
      "lon": "-16.930004701071713",
      "lat": "32.64051955284219"
    },
    {
      "id": "pt.ine.add.MAD.103477",
      "street": "R FUNDACAO ZINO",
      "house": "5",
      "postcode": "9000-120",
      "city": "FUNCHAL",
      "lon": "-16.930004701071713",
      "lat": "32.64051955284219"
    },
    {
      "id": "pt.ine.add.MAD.121331",
      "street": "R FUNDAÇÃO ZINO",
      "house": "7",
      "postcode": "9000-120",
      "city": "FUNCHAL",
      "lon": "-16.93020115281307",
      "lat": "32.64073298138039"
    },
    {
      "id": "pt.ine.add.MAD.125445",
      "street": "R FUNDAÇÃO ZINO",
      "house": "7",
      "postcode": "9000-120",
      "city": "FUNCHAL",
      "lon": "-16.93020115281307",
      "lat": "32.64073298138039"
    }
  ]
}