{
  "data": {
    "distrito": "Porto",
    "concelho": "Marco de Canaveses",
    "freguesia": "Marco",
    "OBJECTID": 431,
    "BGRI2021": "13073600134",
    "DT21": "13",
    "DTMN21": "1307",
    "DTMNFR21": "130736",
    "DTMNFRSEC21": "130736001",
    "SECNUM21": "001",
    "SSNUM21": "34",
    "SECSSNUM21": "00134",
    "OBJECTID_1": 131353,
    "DT": "13",
    "CC": "07",
    "fr": "36",
    "SEC": "001",
    "SS": "34"
  },
  "addresses": [
    {
      "id": "pt.ine.add.PTCONT.3582985",
      "street": "R MAGAES",
      "house": "",
      "postcode": "4630-108",
      "city": "MARCO DE CANAVESES",
      "lon": "-8.140555132687123",
      "lat": "41.16213481940678"
    },
    {
      "id": "pt.ine.add.PTCONT.3582986",
      "street": "R JOAQUIM PEREIRA SOARES",
      "house": "247",
      "postcode": "4630-117",
      "city": "MARCO DE CANAVESES",
      "lon": "-8.143045200911157",
      "lat": "41.16119817574572"
    },
    {
      "id": "pt.ine.add.PTCONT.3593858",
      "street": "R FONTE NOVA",
      "house": "144",
      "postcode": "4630-099",
      "city": "MARCO DE CANAVESES",
      "lon": "-8.144082964334048",
      "lat": "41.168293531036326"
    },
    {
      "id": "pt.ine.add.PTCONT.3618236",
      "street": "R MAGAES",
      "house": "167",
      "postcode": "4630-108",
      "city": "MARCO DE CANAVESES",
      "lon": "-8.140328782602142",
      "lat": "41.16243197840395"
    },
    {
      "id": "pt.ine.add.PTCONT.3654408",
      "street": "R RAPOSEIRA",
      "house": "63",
      "postcode": "4630-101",
      "city": "MARCO DE CANAVESES",
      "lon": "-8.144987722869963",
      "lat": "41.16354813529632"
    },
    {
      "id": "pt.ine.add.PTCONT.3670061",
      "street": "AV EUROPA",
      "house": "4",
      "postcode": "4630-134",
      "city": "MARCO DE CANAVESES",
      "lon": "-8.144070860741115",
      "lat": "41.16716798558356"
    },
    {
      "id": "pt.ine.add.PTCONT.3735289",
      "street": "R JOAQUIM PEREIRA SOARES",
      "house": "",
      "postcode": "4630-117",
      "city": "MARCO DE CANAVESES",
      "lon": "-8.144558218524867",
      "lat": "41.1603336144447"
    },
    {
      "id": "pt.ine.add.PTCONT.3760704",
      "street": "AV AVELINO FERREIRA TORRES",
      "house": "26",
      "postcode": "4630-090",
      "city": "MARCO DE CANAVESES",
      "lon": "-8.144761839388027",
      "lat": "41.166393541555934"
    },
    {
      "id": "pt.ine.add.PTCONT.3764448",
      "street": "AV AVELINO FERREIRA TORRES",
      "house": "26",
      "postcode": "4630-090",
      "city": "MARCO DE CANAVESES",
      "lon": "-8.144761839388027",
      "lat": "41.166393541555934"
    },
    {
      "id": "pt.ine.add.PTCONT.3767119",
      "street": "AV FUTEBOL CLUBE DO PORTO",
      "house": "",
      "postcode": "4630-091",
      "city": "MARCO DE CANAVESES",
      "lon": "-8.144559229444194",
      "lat": "41.16614143937233"
    },
    {
      "id": "pt.ine.add.PTCONT.3777025",
      "street": "R LOUREDO",
      "house": "",
      "postcode": "4630-110",
      "city": "MARCO DE CANAVESES",
      "lon": "-8.14296232530995",
      "lat": "41.164718895575284"
    },
    {
      "id": "pt.ine.add.PTCONT.3818949",
      "street": "R FONTE NOVA",
      "house": "174",
      "postcode": "4630-099",
      "city": "MARCO DE CANAVESES",
      "lon": "-8.143916184801917",
      "lat": "41.1685636779586"
    },
    {
      "id": "pt.ine.add.PTCONT.3857434",
      "street": "R MAGAES",
      "house": "304",
      "postcode": "4630-108",
      "city": "MARCO DE CANAVESES",
      "lon": "-8.140305082765574",
      "lat": "41.1636205580781"
    },
    {
      "id": "pt.ine.add.PTCONT.3876771",
      "street": "R SEARINHA",
      "house": "1",
      "postcode": "4630-102",
      "city": "MARCO DE CANAVESES",
      "lon": "-8.145237550547455",
      "lat": "41.16143207971167"
    },
    {
      "id": "pt.ine.add.PTCONT.3889640",
      "street": "R MAGAES",
      "house": "304",
      "postcode": "4630-108",
      "city": "MARCO DE CANAVESES",
      "lon": "-8.140543403026246",
      "lat": "41.16377361738766"
    },
    {
      "id": "pt.ine.add.PTCONT.3889641",
      "street": "R RAPOSEIRA",
      "house": "",
      "postcode": "4630-101",
      "city": "MARCO DE CANAVESES",
      "lon": "-8.145047175979755",
      "lat": "41.162872800654824"
    },
    {
      "id": "pt.ine.add.PTCONT.3944545",
      "street": "R JOAQUIM PEREIRA SOARES",
      "house": "187",
      "postcode": "4630-117",
      "city": "MARCO DE CANAVESES",
      "lon": "-8.14372430300707",
      "lat": "41.16097300557845"
    },
    {
      "id": "pt.ine.add.PTCONT.3979154",
      "street": "AV AVELINO FERREIRA TORRES",
      "house": "610",
      "postcode": "4630-090",
      "city": "MARCO DE CANAVESES",
      "lon": "-8.143523284751357",
      "lat": "41.17064372360328"
    },
    {
      "id": "pt.ine.add.PTCONT.3979155",
      "street": "AV AVELINO FERREIRA TORRES",
      "house": "610",
      "postcode": "4630-090",
      "city": "MARCO DE CANAVESES",
      "lon": "-8.143523284751357",
      "lat": "41.17064372360328"
    },
    {
      "id": "pt.ine.add.PTCONT.3981940",
      "street": "AV AVELINO FERREIRA TORRES",
      "house": "610",
      "postcode": "4630-090",
      "city": "MARCO DE CANAVESES",
      "lon": "-8.143523284751357",
      "lat": "41.17064372360328"
    },
    {
      "id": "pt.ine.add.PTCONT.3981941",
      "street": "AV AVELINO FERREIRA TORRES",
      "house": "610",
      "postcode": "4630-090",
      "city": "MARCO DE CANAVESES",
      "lon": "-8.143523284751357",
      "lat": "41.17064372360328"
    },
    {
      "id": "pt.ine.add.PTCONT.4012317",
      "street": "R JOAQUIM PEREIRA SOARES",
      "house": "135",
      "postcode": "4630-117",
      "city": "MARCO DE CANAVESES",
      "lon": "-8.144355754258683",
      "lat": "41.16081987113135"
    },
    {
      "id": "pt.ine.add.PTCONT.4012318",
      "street": "R RAPOSEIRA",
      "house": "60",
      "postcode": "4630-101",
      "city": "MARCO DE CANAVESES",
      "lon": "-8.14497562093132",
      "lat": "41.16251263281942"
    },
    {
      "id": "pt.ine.add.PTCONT.4031854",
      "street": "R RAPOSEIRA",
      "house": "160 CX104",
      "postcode": "4630-101",
      "city": "MARCO DE CANAVESES",
      "lon": "-8.143545852984628",
      "lat": "41.16267485010529"
    },
    {
      "id": "pt.ine.add.PTCONT.4104100",
      "street": "AV AVELINO FERREIRA TORRES",
      "house": "114",
      "postcode": "4630-090",
      "city": "MARCO DE CANAVESES",
      "lon": "-8.14418998830457",
      "lat": "41.16698788670688"
    },
    {
      "id": "pt.ine.add.PTCONT.4140505",
      "street": "R JOAQUIM PEREIRA SOARES",
      "house": "227",
      "postcode": "4630-117",
      "city": "MARCO DE CANAVESES",
      "lon": "-8.14330731194909",
      "lat": "41.16111711338771"
    },
    {
      "id": "pt.ine.add.PTCONT.4163145",
      "street": "R MAGAES",
      "house": "107",
      "postcode": "4630-108",
      "city": "MARCO DE CANAVESES",
      "lon": "-8.140757672016955",
      "lat": "41.16201774917227"
    },
    {
      "id": "pt.ine.add.PTCONT.4163148",
      "street": "R JOAQUIM PEREIRA SOARES",
      "house": "19",
      "postcode": "4630-117",
      "city": "MARCO DE CANAVESES",
      "lon": "-8.142735473814772",
      "lat": "41.161576386125866"
    },
    {
      "id": "pt.ine.add.PTCONT.4176015",
      "street": "AV AVELINO FERREIRA TORRES",
      "house": "7E",
      "postcode": "4630-090",
      "city": "MARCO DE CANAVESES",
      "lon": "-8.144356784275965",
      "lat": "41.16684380055317"
    },
    {
      "id": "pt.ine.add.PTCONT.4176016",
      "street": "AV AVELINO FERREIRA TORRES",
      "house": "7E",
      "postcode": "4630-090",
      "city": "MARCO DE CANAVESES",
      "lon": "-8.144356784275965",
      "lat": "41.16684380055317"
    },
    {
      "id": "pt.ine.add.PTCONT.4176017",
      "street": "AV AVELINO FERREIRA TORRES",
      "house": "7E",
      "postcode": "4630-090",
      "city": "MARCO DE CANAVESES",
      "lon": "-8.144356784275965",
      "lat": "41.16684380055317"
    },
    {
      "id": "pt.ine.add.PTCONT.4245527",
      "street": "AV AVELINO FERREIRA TORRES",
      "house": "56",
      "postcode": "4630-090",
      "city": "MARCO DE CANAVESES",
      "lon": "-8.144428249222841",
      "lat": "41.16667271043909"
    },
    {
      "id": "pt.ine.add.PTCONT.4295017",
      "street": "AV AVELINO FERREIRA TORRES",
      "house": "46",
      "postcode": "4630-090",
      "city": "MARCO DE CANAVESES",
      "lon": "-8.144583128198546",
      "lat": "41.16652862512029"
    },
    {
      "id": "pt.ine.add.PTCONT.4334656",
      "street": "R FONTE NOVA",
      "house": "198",
      "postcode": "4630-099",
      "city": "MARCO DE CANAVESES",
      "lon": "-8.141723584463833",
      "lat": "41.168194683578605"
    },
    {
      "id": "pt.ine.add.PTCONT.4342617",
      "street": "R PÃ“VOACAO",
      "house": "90",
      "postcode": "4630-199",
      "city": "MARCO DE CANAVESES",
      "lon": "-8.143249050197703",
      "lat": "41.16962625436786"
    },
    {
      "id": "pt.ine.add.PTCONT.4350991",
      "street": "R SEARINHA",
      "house": "77",
      "postcode": "4630-102",
      "city": "MARCO DE CANAVESES",
      "lon": "-8.145261275258237",
      "lat": "41.160864801071824"
    },
    {
      "id": "pt.ine.add.PTCONT.4360238",
      "street": "R JOAQUIM PEREIRA SOARES",
      "house": "147",
      "postcode": "4630-117",
      "city": "MARCO DE CANAVESES",
      "lon": "-8.144320057907098",
      "lat": "41.1610990104987"
    },
    {
      "id": "pt.ine.add.PTCONT.4360239",
      "street": "R JOAQUIM PEREIRA SOARES",
      "house": "147",
      "postcode": "4630-117",
      "city": "MARCO DE CANAVESES",
      "lon": "-8.144320057907098",
      "lat": "41.1610990104987"
    },
    {
      "id": "pt.ine.add.PTCONT.4360240",
      "street": "R JOAQUIM PEREIRA SOARES",
      "house": "147",
      "postcode": "4630-117",
      "city": "MARCO DE CANAVESES",
      "lon": "-8.144320057907098",
      "lat": "41.1610990104987"
    },
    {
      "id": "pt.ine.add.PTCONT.4360241",
      "street": "R JOAQUIM PEREIRA SOARES",
      "house": "147",
      "postcode": "4630-117",
      "city": "MARCO DE CANAVESES",
      "lon": "-8.144320057907098",
      "lat": "41.1610990104987"
    },
    {
      "id": "pt.ine.add.PTCONT.4360242",
      "street": "R JOAQUIM PEREIRA SOARES",
      "house": "147",
      "postcode": "4630-117",
      "city": "MARCO DE CANAVESES",
      "lon": "-8.144320057907098",
      "lat": "41.1610990104987"
    }
  ]
}