{
  "data": {
    "distrito": "Lisboa",
    "concelho": "Azambuja",
    "freguesia": "Azambuja",
    "OBJECTID": 268,
    "BGRI2021": "11030400303",
    "DT21": "11",
    "DTMN21": "1103",
    "DTMNFR21": "110304",
    "DTMNFRSEC21": "110304003",
    "SECNUM21": "003",
    "SSNUM21": "03",
    "SECSSNUM21": "00303",
    "OBJECTID_1": 99723,
    "DT": "11",
    "CC": "03",
    "fr": "04",
    "SEC": "003",
    "SS": "03"
  },
  "addresses": [
    {
      "id": "pt.ine.add.PTCONT.2382786",
      "street": "TV CALDEIRAS",
      "house": "1",
      "postcode": "2050-345",
      "city": "AZAMBUJA",
      "lon": "-8.865684895070316",
      "lat": "39.070285586298944"
    },
    {
      "id": "pt.ine.add.PTCONT.2450997",
      "street": "R VITOR CORDON",
      "house": "34",
      "postcode": "2050-336",
      "city": "AZAMBUJA",
      "lon": "-8.866119859595955",
      "lat": "39.06988652333753"
    },
    {
      "id": "pt.ine.add.PTCONT.2502657",
      "street": "LG PALMEIRA",
      "house": "2",
      "postcode": "2050-308",
      "city": "AZAMBUJA",
      "lon": "-8.866316468270867",
      "lat": "39.069903302281595"
    },
    {
      "id": "pt.ine.add.PTCONT.2556464",
      "street": "R VITOR CORDON",
      "house": "20",
      "postcode": "2050-336",
      "city": "AZAMBUJA",
      "lon": "-8.865522855318728",
      "lat": "39.07025958168606"
    },
    {
      "id": "pt.ine.add.PTCONT.2657506",
      "street": "R ESPÍRITO SANTO",
      "house": "3",
      "postcode": "2050-323",
      "city": "AZAMBUJA",
      "lon": "-8.866225711550541",
      "lat": "39.07006600772969"
    },
    {
      "id": "pt.ine.add.PTCONT.2719130",
      "street": "LG DE PALMELA",
      "house": "1",
      "postcode": "2050-308",
      "city": "AZAMBUJA",
      "lon": "-8.866281246360117",
      "lat": "39.06984947879201"
    },
    {
      "id": "pt.ine.add.PTCONT.2763998",
      "street": "R ESPÍRITO SANTO",
      "house": "5",
      "postcode": "2050-323",
      "city": "AZAMBUJA",
      "lon": "-8.866340974763796",
      "lat": "39.07003826055574"
    },
    {
      "id": "pt.ine.add.PTCONT.2890622",
      "street": "TV CALDEIRAS",
      "house": "3",
      "postcode": "2050-345",
      "city": "AZAMBUJA",
      "lon": "-8.865765309664742",
      "lat": "39.07024004363371"
    },
    {
      "id": "pt.ine.add.PTCONT.2926379",
      "street": "TV MISERICÓRDIA",
      "house": "2",
      "postcode": "2050-339",
      "city": "AZAMBUJA",
      "lon": "-8.865752917228066",
      "lat": "39.07015905407594"
    },
    {
      "id": "pt.ine.add.PTCONT.2926380",
      "street": "TV MISERICÓRDIA",
      "house": "2",
      "postcode": "2050-339",
      "city": "AZAMBUJA",
      "lon": "-8.865752917228066",
      "lat": "39.07015905407594"
    },
    {
      "id": "pt.ine.add.PTCONT.2941520",
      "street": "LG PALMEIRA",
      "house": "3",
      "postcode": "2050-308",
      "city": "AZAMBUJA",
      "lon": "-8.86636315129705",
      "lat": "39.06994804620151"
    },
    {
      "id": "pt.ine.add.PTCONT.3067891",
      "street": "R VITOR CORDON",
      "house": "26",
      "postcode": "2050-336",
      "city": "AZAMBUJA",
      "lon": "-8.86562609927707",
      "lat": "39.0701868732537"
    },
    {
      "id": "pt.ine.add.PTCONT.3333348",
      "street": "LG PALMEIRA",
      "house": "5",
      "postcode": "2050-308",
      "city": "AZAMBUJA",
      "lon": "-8.866398280113403",
      "lat": "39.06999286275957"
    },
    {
      "id": "pt.ine.add.PTCONT.3444106",
      "street": "R VITOR CORDON",
      "house": "36",
      "postcode": "2050-336",
      "city": "AZAMBUJA",
      "lon": "-8.86621192088411",
      "lat": "39.06984991464375"
    }
  ]
}