{
  "data": {
    "distrito": "Porto",
    "concelho": "Paços de Ferreira",
    "freguesia": "Paços de Ferreira",
    "OBJECTID": 627,
    "BGRI2021": "13091800714",
    "DT21": "13",
    "DTMN21": "1309",
    "DTMNFR21": "130918",
    "DTMNFRSEC21": "130918007",
    "SECNUM21": "007",
    "SSNUM21": "14",
    "SECSSNUM21": "00714",
    "OBJECTID_1": 134224,
    "DT": "13",
    "CC": "09",
    "fr": "18",
    "SEC": "007",
    "SS": "14"
  },
  "addresses": [
    {
      "id": "pt.ine.add.PTCONT.3540511",
      "street": "R CARVALHOSA",
      "house": "40",
      "postcode": "4590-557",
      "city": "PAÇOS DE FERREIRA",
      "lon": "-8.3748848943922",
      "lat": "41.285158841303634"
    },
    {
      "id": "pt.ine.add.PTCONT.3554879",
      "street": "R BARREIRO",
      "house": "154",
      "postcode": "4590-569",
      "city": "PAÇOS DE FERREIRA",
      "lon": "-8.377485708826454",
      "lat": "41.28475716596197"
    },
    {
      "id": "pt.ine.add.PTCONT.3582519",
      "street": "R CARVALHOSA",
      "house": "30",
      "postcode": "4590-557",
      "city": "PAÇOS DE FERREIRA",
      "lon": "-8.374670325028037",
      "lat": "41.28524032933579"
    },
    {
      "id": "pt.ine.add.PTCONT.3595890",
      "street": "CRCV BARREIRO",
      "house": "7I",
      "postcode": "4590-520",
      "city": "PAÇOS DE FERREIRA",
      "lon": "-8.375923524211064",
      "lat": "41.28518366786478"
    },
    {
      "id": "pt.ine.add.PTCONT.3625575",
      "street": "R BELA ROSA",
      "house": "68",
      "postcode": "4590-547",
      "city": "PAÇOS DE FERREIRA",
      "lon": "-8.377968239729432",
      "lat": "41.286106767268"
    },
    {
      "id": "pt.ine.add.PTCONT.3631991",
      "street": "R BOAVISTA",
      "house": "159",
      "postcode": "4590-548",
      "city": "PAÇOS DE FERREIRA",
      "lon": "-8.373117870026093",
      "lat": "41.285072496991184"
    },
    {
      "id": "pt.ine.add.PTCONT.3638622",
      "street": "TV BOAVISTA",
      "house": "85",
      "postcode": "4590-616",
      "city": "PAÇOS DE FERREIRA",
      "lon": "-8.372808790260795",
      "lat": "41.28542430389537"
    },
    {
      "id": "pt.ine.add.PTCONT.3638623",
      "street": "TV BOAVISTA",
      "house": "85",
      "postcode": "4590-616",
      "city": "PAÇOS DE FERREIRA",
      "lon": "-8.372808790260795",
      "lat": "41.28542430389537"
    },
    {
      "id": "pt.ine.add.PTCONT.3638624",
      "street": "TV BOAVISTA",
      "house": "85",
      "postcode": "4590-616",
      "city": "PAÇOS DE FERREIRA",
      "lon": "-8.372808790260795",
      "lat": "41.28542430389537"
    },
    {
      "id": "pt.ine.add.PTCONT.3638625",
      "street": "TV BOAVISTA",
      "house": "85",
      "postcode": "4590-616",
      "city": "PAÇOS DE FERREIRA",
      "lon": "-8.372808790260795",
      "lat": "41.28542430389537"
    },
    {
      "id": "pt.ine.add.PTCONT.3638626",
      "street": "TV BOAVISTA",
      "house": "85",
      "postcode": "4590-616",
      "city": "PAÇOS DE FERREIRA",
      "lon": "-8.372808790260795",
      "lat": "41.28542430389537"
    },
    {
      "id": "pt.ine.add.PTCONT.3638632",
      "street": "TV BOAVISTA",
      "house": "85",
      "postcode": "4590-616",
      "city": "PAÇOS DE FERREIRA",
      "lon": "-8.372808790260795",
      "lat": "41.28542430389537"
    },
    {
      "id": "pt.ine.add.PTCONT.3638633",
      "street": "TV BOAVISTA",
      "house": "85",
      "postcode": "4590-616",
      "city": "PAÇOS DE FERREIRA",
      "lon": "-8.372808790260795",
      "lat": "41.28542430389537"
    },
    {
      "id": "pt.ine.add.PTCONT.3638634",
      "street": "TV BOAVISTA",
      "house": "85",
      "postcode": "4590-616",
      "city": "PAÇOS DE FERREIRA",
      "lon": "-8.372808790260795",
      "lat": "41.28542430389537"
    },
    {
      "id": "pt.ine.add.PTCONT.3638635",
      "street": "TV BOAVISTA",
      "house": "85",
      "postcode": "4590-616",
      "city": "PAÇOS DE FERREIRA",
      "lon": "-8.372808790260795",
      "lat": "41.28542430389537"
    },
    {
      "id": "pt.ine.add.PTCONT.3638636",
      "street": "TV BOAVISTA",
      "house": "85",
      "postcode": "4590-616",
      "city": "PAÇOS DE FERREIRA",
      "lon": "-8.372808790260795",
      "lat": "41.28542430389537"
    },
    {
      "id": "pt.ine.add.PTCONT.3638637",
      "street": "TV BOAVISTA",
      "house": "85",
      "postcode": "4590-616",
      "city": "PAÇOS DE FERREIRA",
      "lon": "-8.372808790260795",
      "lat": "41.28542430389537"
    },
    {
      "id": "pt.ine.add.PTCONT.3641857",
      "street": "TV BOAVISTA",
      "house": "85",
      "postcode": "4590-616",
      "city": "PAÇOS DE FERREIRA",
      "lon": "-8.372808790260795",
      "lat": "41.28542430389537"
    },
    {
      "id": "pt.ine.add.PTCONT.3644829",
      "street": "R RAIVOSA",
      "house": "",
      "postcode": "4590-566",
      "city": "PAÇOS DE FERREIRA",
      "lon": "-8.379020783661371",
      "lat": "41.28665377847134"
    },
    {
      "id": "pt.ine.add.PTCONT.3644830",
      "street": "R BELA ROSA",
      "house": "84",
      "postcode": "4590-547",
      "city": "PAÇOS DE FERREIRA",
      "lon": "-8.378841216050214",
      "lat": "41.28651909927299"
    },
    {
      "id": "pt.ine.add.PTCONT.3651009",
      "street": "R PEIAS",
      "house": "180",
      "postcode": "4590-544",
      "city": "PAÇOS DE FERREIRA",
      "lon": "-8.376120598242313",
      "lat": "41.28682201218269"
    },
    {
      "id": "pt.ine.add.PTCONT.3657126",
      "street": "R BELA ROSA",
      "house": "38",
      "postcode": "4590-547",
      "city": "PAÇOS DE FERREIRA",
      "lon": "-8.377846881782041",
      "lat": "41.28557577889779"
    },
    {
      "id": "pt.ine.add.PTCONT.3660555",
      "street": "R BELA ROSA",
      "house": "38",
      "postcode": "4590-547",
      "city": "PAÇOS DE FERREIRA",
      "lon": "-8.377846881782041",
      "lat": "41.28557577889779"
    },
    {
      "id": "pt.ine.add.PTCONT.3670754",
      "street": "R BELA ROSA",
      "house": "3",
      "postcode": "4590-547",
      "city": "PAÇOS DE FERREIRA",
      "lon": "-8.378495302249439",
      "lat": "41.28659187052412"
    },
    {
      "id": "pt.ine.add.PTCONT.3679476",
      "street": "RAMPINHA DO BARREIRO",
      "house": "20",
      "postcode": "4590-569",
      "city": "PAÇOS DE FERREIRA",
      "lon": "-8.377521318381696",
      "lat": "41.28470306529523"
    },
    {
      "id": "pt.ine.add.PTCONT.3679477",
      "street": "CRCV BARREIRO",
      "house": "1B",
      "postcode": "4590-520",
      "city": "PAÇOS DE FERREIRA",
      "lon": "-8.377234863022949",
      "lat": "41.28471267727811"
    },
    {
      "id": "pt.ine.add.PTCONT.3679478",
      "street": "CRCV BARREIRO",
      "house": "1B",
      "postcode": "4590-520",
      "city": "PAÇOS DE FERREIRA",
      "lon": "-8.377234863022949",
      "lat": "41.28471267727811"
    },
    {
      "id": "pt.ine.add.PTCONT.3685564",
      "street": "CRCV BARREIRO",
      "house": "61",
      "postcode": "4590-520",
      "city": "PAÇOS DE FERREIRA",
      "lon": "-8.376079174466982",
      "lat": "41.28530939795481"
    },
    {
      "id": "pt.ine.add.PTCONT.3693194",
      "street": "TV BOAVISTA",
      "house": "55",
      "postcode": "4590-616",
      "city": "PAÇOS DE FERREIRA",
      "lon": "-8.373286211161034",
      "lat": "41.28540530049871"
    },
    {
      "id": "pt.ine.add.PTCONT.3716112",
      "street": "R BELA ROSA",
      "house": "92",
      "postcode": "4590-547",
      "city": "PAÇOS DE FERREIRA",
      "lon": "-8.378530777003498",
      "lat": "41.28650175314711"
    },
    {
      "id": "pt.ine.add.PTCONT.3725968",
      "street": "TV BOAVISTA",
      "house": "67",
      "postcode": "4590-616",
      "city": "PAÇOS DE FERREIRA",
      "lon": "-8.373035860415719",
      "lat": "41.28549586430469"
    },
    {
      "id": "pt.ine.add.PTCONT.3729537",
      "street": "R BELA ROSA",
      "house": "52",
      "postcode": "4590-547",
      "city": "PAÇOS DE FERREIRA",
      "lon": "-8.37787190018592",
      "lat": "41.285881867724314"
    },
    {
      "id": "pt.ine.add.PTCONT.3754268",
      "street": "TV BOAVISTA",
      "house": "71",
      "postcode": "4590-616",
      "city": "PAÇOS DE FERREIRA",
      "lon": "-8.373083939051606",
      "lat": "41.28558580587038"
    },
    {
      "id": "pt.ine.add.PTCONT.3767740",
      "street": "CRCV BARREIRO",
      "house": "17",
      "postcode": "4590-520",
      "city": "PAÇOS DE FERREIRA",
      "lon": "-8.377390178862427",
      "lat": "41.284748364529776"
    },
    {
      "id": "pt.ine.add.PTCONT.3773124",
      "street": "R CARVALHOSA",
      "house": "16",
      "postcode": "4590-557",
      "city": "PAÇOS DE FERREIRA",
      "lon": "-8.374288833904377",
      "lat": "41.28537619185343"
    },
    {
      "id": "pt.ine.add.PTCONT.3790320",
      "street": "R BELA ROSA",
      "house": "2",
      "postcode": "4590-547",
      "city": "PAÇOS DE FERREIRA",
      "lon": "-8.37745046868558",
      "lat": "41.28491031179479"
    },
    {
      "id": "pt.ine.add.PTCONT.3809839",
      "street": "TV BOAVISTA",
      "house": "113",
      "postcode": "4590-616",
      "city": "PAÇOS DE FERREIRA",
      "lon": "-8.372927469682665",
      "lat": "41.28523496899079"
    },
    {
      "id": "pt.ine.add.PTCONT.3819586",
      "street": "R BELA ROSA",
      "house": "70",
      "postcode": "4590-547",
      "city": "PAÇOS DE FERREIRA",
      "lon": "-8.378171173716098",
      "lat": "41.286106335458456"
    },
    {
      "id": "pt.ine.add.PTCONT.3823861",
      "street": "TV CARVALHOSA",
      "house": "14",
      "postcode": "4590-557",
      "city": "PAÇOS DE FERREIRA",
      "lon": "-8.37459973130834",
      "lat": "41.28551960695135"
    },
    {
      "id": "pt.ine.add.PTCONT.3832764",
      "street": "R CARVALHOSA",
      "house": "10",
      "postcode": "4590-557",
      "city": "PAÇOS DE FERREIRA",
      "lon": "-8.374157359422224",
      "lat": "41.28533144632597"
    },
    {
      "id": "pt.ine.add.PTCONT.3839562",
      "street": "R BARREIRO",
      "house": "182",
      "postcode": "4590-569",
      "city": "PAÇOS DE FERREIRA",
      "lon": "-8.377712613607647",
      "lat": "41.28478369661228"
    },
    {
      "id": "pt.ine.add.PTCONT.3855122",
      "street": "CRCV BARREIRO",
      "house": "55",
      "postcode": "4590-520",
      "city": "PAÇOS DE FERREIRA",
      "lon": "-8.376498647617359",
      "lat": "41.285758720746"
    },
    {
      "id": "pt.ine.add.PTCONT.3915604",
      "street": "R BELA ROSA",
      "house": "102",
      "postcode": "4590-547",
      "city": "PAÇOS DE FERREIRA",
      "lon": "-8.378685962746543",
      "lat": "41.28650142221111"
    },
    {
      "id": "pt.ine.add.PTCONT.3915799",
      "street": "R BELA ROSA",
      "house": "46",
      "postcode": "4590-547",
      "city": "PAÇOS DE FERREIRA",
      "lon": "-8.377882962562804",
      "lat": "41.28564773560522"
    },
    {
      "id": "pt.ine.add.PTCONT.3915800",
      "street": "R BELA ROSA",
      "house": "46",
      "postcode": "4590-547",
      "city": "PAÇOS DE FERREIRA",
      "lon": "-8.377882962562804",
      "lat": "41.28564773560522"
    },
    {
      "id": "pt.ine.add.PTCONT.3936064",
      "street": "R CLUBES DESPORTIVOS DA BOAVISTA",
      "house": "10",
      "postcode": "4590-616",
      "city": "PAÇOS DE FERREIRA",
      "lon": "-8.373643334276624",
      "lat": "41.28513442954745"
    },
    {
      "id": "pt.ine.add.PTCONT.3945138",
      "street": "RAMPINHA DO BARREIRO",
      "house": "12",
      "postcode": "4590-569",
      "city": "PAÇOS DE FERREIRA",
      "lon": "-8.377233956944414",
      "lat": "41.28446956637273"
    },
    {
      "id": "pt.ine.add.PTCONT.3946766",
      "street": "R BELA ROSA",
      "house": "124",
      "postcode": "4590-547",
      "city": "PAÇOS DE FERREIRA",
      "lon": "-8.379247255734956",
      "lat": "41.2865632527274"
    },
    {
      "id": "pt.ine.add.PTCONT.4037005",
      "street": "R STA EULÁLIA",
      "house": "22",
      "postcode": "4590-181",
      "city": "PAÇOS DE FERREIRA",
      "lon": "-8.375805053734265",
      "lat": "41.28542703047943"
    },
    {
      "id": "pt.ine.add.PTCONT.4043448",
      "street": "CRCV BARREIRO",
      "house": "93",
      "postcode": "4590-520",
      "city": "PAÇOS DE FERREIRA",
      "lon": "-8.375588717988736",
      "lat": "41.28503130251709"
    },
    {
      "id": "pt.ine.add.PTCONT.4051121",
      "street": "CRCV BARREIRO",
      "house": "5",
      "postcode": "4590-520",
      "city": "PAÇOS DE FERREIRA",
      "lon": "-8.376330590182814",
      "lat": "41.2855069589653"
    },
    {
      "id": "pt.ine.add.PTCONT.4091775",
      "street": "TV CARVALHOSA",
      "house": "22",
      "postcode": "4590-557",
      "city": "PAÇOS DE FERREIRA",
      "lon": "-8.374934172066919",
      "lat": "41.285572929979004"
    },
    {
      "id": "pt.ine.add.PTCONT.4115927",
      "street": "R STA EULÁLIA",
      "house": "11",
      "postcode": "4590-181",
      "city": "PAÇOS DE FERREIRA",
      "lon": "-8.376211418839619",
      "lat": "41.285561235743614"
    },
    {
      "id": "pt.ine.add.PTCONT.4115928",
      "street": "R STA EULÁLIA",
      "house": "21",
      "postcode": "4590-181",
      "city": "PAÇOS DE FERREIRA",
      "lon": "-8.37598504616315",
      "lat": "41.28567876785338"
    },
    {
      "id": "pt.ine.add.PTCONT.4124295",
      "street": "R BELA ROSA",
      "house": "132",
      "postcode": "4590-547",
      "city": "PAÇOS DE FERREIRA",
      "lon": "-8.379486138723607",
      "lat": "41.28659875843387"
    },
    {
      "id": "pt.ine.add.PTCONT.4163900",
      "street": "R CLUBES DESPORTIVOS DA BOAVISTA",
      "house": "28",
      "postcode": "4590-616",
      "city": "PAÇOS DE FERREIRA",
      "lon": "-8.373849309967763",
      "lat": "41.28596238333903"
    },
    {
      "id": "pt.ine.add.PTCONT.4172930",
      "street": "CRCV BARREIRO",
      "house": "29",
      "postcode": "4590-520",
      "city": "PAÇOS DE FERREIRA",
      "lon": "-8.37721135805301",
      "lat": "41.28481177308313"
    },
    {
      "id": "pt.ine.add.PTCONT.4186055",
      "street": "TV CARVALHOSA",
      "house": "14",
      "postcode": "4590-557",
      "city": "PAÇOS DE FERREIRA",
      "lon": "-8.37476671907772",
      "lat": "41.28548323983224"
    },
    {
      "id": "pt.ine.add.PTCONT.4205073",
      "street": "R CLUBES DESPORTIVOS DA BOAVISTA",
      "house": "20",
      "postcode": "4590-616",
      "city": "PAÇOS DE FERREIRA",
      "lon": "-8.373667936032623",
      "lat": "41.285332470060204"
    },
    {
      "id": "pt.ine.add.PTCONT.4212001",
      "street": "R BARREIRO",
      "house": "146",
      "postcode": "4590-569",
      "city": "PAÇOS DE FERREIRA",
      "lon": "-8.37710311955471",
      "lat": "41.284595902250786"
    },
    {
      "id": "pt.ine.add.PTCONT.4226856",
      "street": "R STA EULÁLIA",
      "house": "12",
      "postcode": "4590-181",
      "city": "PAÇOS DE FERREIRA",
      "lon": "-8.375995747974047",
      "lat": "41.285345590709966"
    },
    {
      "id": "pt.ine.add.PTCONT.4226857",
      "street": "R STA EULÁLIA",
      "house": "12",
      "postcode": "4590-181",
      "city": "PAÇOS DE FERREIRA",
      "lon": "-8.375995747974047",
      "lat": "41.285345590709966"
    },
    {
      "id": "pt.ine.add.PTCONT.4226858",
      "street": "R STA EULÁLIA",
      "house": "12",
      "postcode": "4590-181",
      "city": "PAÇOS DE FERREIRA",
      "lon": "-8.375995747974047",
      "lat": "41.285345590709966"
    },
    {
      "id": "pt.ine.add.PTCONT.4233167",
      "street": "R STA EULÁLIA",
      "house": "28",
      "postcode": "4590-181",
      "city": "PAÇOS DE FERREIRA",
      "lon": "-8.375590551313335",
      "lat": "41.2855265284366"
    },
    {
      "id": "pt.ine.add.PTCONT.4261850",
      "street": "CRCV BARREIRO",
      "house": "111",
      "postcode": "4590-520",
      "city": "PAÇOS DE FERREIRA",
      "lon": "-8.375170320540906",
      "lat": "41.284870107804345"
    },
    {
      "id": "pt.ine.add.PTCONT.4268413",
      "street": "R BELA ROSA",
      "house": "56",
      "postcode": "4590-547",
      "city": "PAÇOS DE FERREIRA",
      "lon": "-8.378062963572722",
      "lat": "41.285899469696915"
    },
    {
      "id": "pt.ine.add.PTCONT.4268417",
      "street": "TV BOAVISTA",
      "house": "31",
      "postcode": "4590-616",
      "city": "PAÇOS DE FERREIRA",
      "lon": "-8.373322782171032",
      "lat": "41.28561232028224"
    },
    {
      "id": "pt.ine.add.PTCONT.4284138",
      "street": "CRCV BARREIRO",
      "house": "93",
      "postcode": "4590-520",
      "city": "PAÇOS DE FERREIRA",
      "lon": "-8.375732196650064",
      "lat": "41.28509402946981"
    },
    {
      "id": "pt.ine.add.PTCONT.4306688",
      "street": "R BELA ROSA",
      "house": "106",
      "postcode": "4590-547",
      "city": "PAÇOS DE FERREIRA",
      "lon": "-8.378351581670403",
      "lat": "41.28646611832082"
    },
    {
      "id": "pt.ine.add.PTCONT.4367294",
      "street": "R RAIVOSA",
      "house": "32",
      "postcode": "4590-566",
      "city": "PAÇOS DE FERREIRA",
      "lon": "-8.378818084441868",
      "lat": "41.28671724050595"
    },
    {
      "id": "pt.ine.add.PTCONT.4367316",
      "street": "CRCV BARREIRO",
      "house": "33",
      "postcode": "4590-520",
      "city": "PAÇOS DE FERREIRA",
      "lon": "-8.376901597771038",
      "lat": "41.28497450468088"
    },
    {
      "id": "pt.ine.add.PTCONT.4381206",
      "street": "TV BOAVISTA",
      "house": "63",
      "postcode": "4590-616",
      "city": "PAÇOS DE FERREIRA",
      "lon": "-8.37387152962732",
      "lat": "41.285512128008406"
    }
  ]
}