{
  "data": {
    "distrito": "Santarém",
    "concelho": "Alcanena",
    "freguesia": "União das freguesias de Malhou, Louriceira e Espinheiro",
    "OBJECTID": 480,
    "BGRI2021": "14021200130",
    "DT21": "14",
    "DTMN21": "1402",
    "DTMNFR21": "140212",
    "DTMNFRSEC21": "140212001",
    "SECNUM21": "001",
    "SSNUM21": "30",
    "SECSSNUM21": "00130",
    "OBJECTID_1": 147849,
    "DT": "14",
    "CC": "02",
    "fr": "12",
    "SEC": "001",
    "SS": "30"
  },
  "addresses": [
    {
      "id": "pt.ine.add.PTCONT.4397598",
      "street": "R MOINHO DE VENTO",
      "house": "379",
      "postcode": "2380-317",
      "city": "ESPINHEIRO",
      "lon": "-8.737164691452978",
      "lat": "39.42222459477204"
    },
    {
      "id": "pt.ine.add.PTCONT.4416918",
      "street": "R ÁLVARO VALENTE",
      "house": "387",
      "postcode": "2380-310",
      "city": "ESPINHEIRO",
      "lon": "-8.738725597368441",
      "lat": "39.42009082660092"
    },
    {
      "id": "pt.ine.add.PTCONT.4418095",
      "street": "R MOINHO DE VENTO",
      "house": "347",
      "postcode": "2380-317",
      "city": "ESPINHEIRO",
      "lon": "-8.736871037056162",
      "lat": "39.42183881826894"
    },
    {
      "id": "pt.ine.add.PTCONT.4431512",
      "street": "R ÁLVARO VALENTE",
      "house": "267",
      "postcode": "2380-310",
      "city": "ESPINHEIRO",
      "lon": "-8.739151434867996",
      "lat": "39.42098930904875"
    },
    {
      "id": "pt.ine.add.PTCONT.4444150",
      "street": "CC COVÃO",
      "house": "194",
      "postcode": "2380-316",
      "city": "ESPINHEIRO",
      "lon": "-8.73753610090608",
      "lat": "39.41951155795364"
    },
    {
      "id": "pt.ine.add.PTCONT.4444829",
      "street": "R 23 DE MARCO",
      "house": "648",
      "postcode": "2380-308",
      "city": "ESPINHEIRO",
      "lon": "-8.738011027701274",
      "lat": "39.419373984263586"
    },
    {
      "id": "pt.ine.add.PTCONT.4446879",
      "street": "R ÁLVARO VALENTE",
      "house": "227",
      "postcode": "2380-310",
      "city": "ESPINHEIRO",
      "lon": "-8.739154710928991",
      "lat": "39.42136758601949"
    },
    {
      "id": "pt.ine.add.PTCONT.4461360",
      "street": "TV VALE ANTONIA",
      "house": "125",
      "postcode": "2380-329",
      "city": "ESPINHEIRO",
      "lon": "-8.73767433761061",
      "lat": "39.42072678501895"
    },
    {
      "id": "pt.ine.add.PTCONT.4463114",
      "street": "R ÁLVARO VALENTE",
      "house": "331",
      "postcode": "2380-310",
      "city": "ESPINHEIRO",
      "lon": "-8.739030788705863",
      "lat": "39.42046753143497"
    },
    {
      "id": "pt.ine.add.PTCONT.4463238",
      "street": "R ÁLVARO VALENTE",
      "house": "325",
      "postcode": "2380-310",
      "city": "ESPINHEIRO",
      "lon": "-8.739101475922103",
      "lat": "39.420584254245874"
    },
    {
      "id": "pt.ine.add.PTCONT.4469022",
      "street": "R 23 DE MARCO",
      "house": "628",
      "postcode": "2380-308",
      "city": "ESPINHEIRO",
      "lon": "-8.737778631278083",
      "lat": "39.41935717847409"
    },
    {
      "id": "pt.ine.add.PTCONT.4477433",
      "street": "R ÁLVARO VALENTE",
      "house": "255",
      "postcode": "2380-310",
      "city": "ESPINHEIRO",
      "lon": "-8.73917520550359",
      "lat": "39.421052234213725"
    },
    {
      "id": "pt.ine.add.PTCONT.4489578",
      "street": "R JOÃO SANTOS JUSTO",
      "house": "53",
      "postcode": "2380-320",
      "city": "ESPINHEIRO",
      "lon": "-8.738243735748187",
      "lat": "39.41942681598308"
    },
    {
      "id": "pt.ine.add.PTCONT.4550040",
      "street": "TV VALE DA ANTÓNIA",
      "house": "",
      "postcode": "2380-322",
      "city": "ESPINHEIRO",
      "lon": "-8.73769732870015",
      "lat": "39.420699644523154"
    },
    {
      "id": "pt.ine.add.PTCONT.4504413",
      "street": "R ÁLVARO VALENTE",
      "house": "",
      "postcode": "2380-310",
      "city": "ESPINHEIRO",
      "lon": "-8.739176531575817",
      "lat": "39.42120534632158"
    },
    {
      "id": "pt.ine.add.PTCONT.4505562",
      "street": "R ÁLVARO VALENTE",
      "house": "223",
      "postcode": "2380-310",
      "city": "ESPINHEIRO",
      "lon": "-8.739167103334736",
      "lat": "39.421457591461674"
    },
    {
      "id": "pt.ine.add.PTCONT.4506946",
      "street": "R ÁLVARO VALENTE",
      "house": "295",
      "postcode": "2380-310",
      "city": "ESPINHEIRO",
      "lon": "-8.739138028590668",
      "lat": "39.42078221786068"
    },
    {
      "id": "pt.ine.add.PTCONT.4508683",
      "street": "R JOÃO SANTOS JUSTO",
      "house": "15",
      "postcode": "2380-320",
      "city": "ESPINHEIRO",
      "lon": "-8.738455245615631",
      "lat": "39.41971393964107"
    },
    {
      "id": "pt.ine.add.PTCONT.4530232",
      "street": "R JOÃO SANTOS JUSTO",
      "house": "31",
      "postcode": "2380-320",
      "city": "ESPINHEIRO",
      "lon": "-8.73836141411496",
      "lat": "39.41960634384021"
    },
    {
      "id": "pt.ine.add.PTCONT.4560799",
      "street": "R 23 DE MARCO",
      "house": "638",
      "postcode": "2380-308",
      "city": "ESPINHEIRO",
      "lon": "-8.737871449738016",
      "lat": "39.4193476889666"
    },
    {
      "id": "pt.ine.add.PTCONT.4577323",
      "street": "R ÁLVARO VALENTE",
      "house": "177",
      "postcode": "2380-310",
      "city": "ESPINHEIRO",
      "lon": "-8.739216673291235",
      "lat": "39.42181761320091"
    },
    {
      "id": "pt.ine.add.PTCONT.4582019",
      "street": "BC VALE DA ANTONIA",
      "house": "35",
      "postcode": "2380-335",
      "city": "ESPINHEIRO",
      "lon": "-8.73748001846086",
      "lat": "39.42243011791412"
    },
    {
      "id": "pt.ine.add.PTCONT.4606734",
      "street": "TV VALE ANTONIA",
      "house": "234",
      "postcode": "2380-329",
      "city": "ESPINHEIRO",
      "lon": "-8.737839804568267",
      "lat": "39.419717140636486"
    },
    {
      "id": "pt.ine.add.PTCONT.4608692",
      "street": "R MOINHO DE VENTO",
      "house": "333",
      "postcode": "2380-317",
      "city": "ESPINHEIRO",
      "lon": "-8.736777205083799",
      "lat": "39.42173122123258"
    },
    {
      "id": "pt.ine.add.PTCONT.4608699",
      "street": "R ÁLVARO VALENTE",
      "house": "237",
      "postcode": "2380-310",
      "city": "ESPINHEIRO",
      "lon": "-8.739177233618147",
      "lat": "39.42128640567117"
    },
    {
      "id": "pt.ine.add.PTCONT.4612758",
      "street": "R MOINHO DE VENTO",
      "house": "455",
      "postcode": "2380-317",
      "city": "ESPINHEIRO",
      "lon": "-8.737399586202736",
      "lat": "39.422529612766255"
    },
    {
      "id": "pt.ine.add.PTCONT.4612759",
      "street": "R JOÃO SANTOS JUSTO",
      "house": "45",
      "postcode": "2380-320",
      "city": "ESPINHEIRO",
      "lon": "-8.738290884907764",
      "lat": "39.41950763374002"
    },
    {
      "id": "pt.ine.add.PTCONT.4621238",
      "street": "R ÁLVARO VALENTE",
      "house": "351",
      "postcode": "2380-310",
      "city": "ESPINHEIRO",
      "lon": "-8.738889804811626",
      "lat": "39.42027911865387"
    },
    {
      "id": "pt.ine.add.PTCONT.4635657",
      "street": "BC VALE DA ANTONIA",
      "house": "75",
      "postcode": "2380-335",
      "city": "ESPINHEIRO",
      "lon": "-8.737662317638058",
      "lat": "39.42202385564568"
    },
    {
      "id": "pt.ine.add.PTCONT.4637641",
      "street": "TV VALE ANTONIA",
      "house": "254",
      "postcode": "2380-329",
      "city": "ESPINHEIRO",
      "lon": "-8.737606473462412",
      "lat": "39.419592255320474"
    },
    {
      "id": "pt.ine.add.PTCONT.4658845",
      "street": "R MOINHO DE VENTO",
      "house": "455",
      "postcode": "2380-317",
      "city": "ESPINHEIRO",
      "lon": "-8.737399586202736",
      "lat": "39.422529612766255"
    }
  ]
}