{
  "data": {
    "distrito": "Santarém",
    "concelho": "Alcanena",
    "freguesia": "União das freguesias de Malhou, Louriceira e Espinheiro",
    "OBJECTID": 16,
    "BGRI2021": "14021200144",
    "DT21": "14",
    "DTMN21": "1402",
    "DTMNFR21": "140212",
    "DTMNFRSEC21": "140212001",
    "SECNUM21": "001",
    "SSNUM21": "44",
    "SECSSNUM21": "00144",
    "OBJECTID_1": 147845,
    "DT": "14",
    "CC": "02",
    "fr": "12",
    "SEC": "001",
    "SS": "44"
  },
  "addresses": [
    {
      "id": "pt.ine.add.PTCONT.4415257",
      "street": "ESTR VALIGOTO",
      "house": "B",
      "postcode": "2380-501",
      "city": "MALHOU",
      "lon": "-8.7035427011344",
      "lat": "39.41625154294191"
    },
    {
      "id": "pt.ine.add.PTCONT.4525872",
      "street": "R PRINCIPAL",
      "house": "",
      "postcode": "2380-501",
      "city": "MALHOU",
      "lon": "-8.70579254908645",
      "lat": "39.41589822225476"
    },
    {
      "id": "pt.ine.add.PTCONT.4531756",
      "street": "R PRINCIPAL",
      "house": "63",
      "postcode": "2380-501",
      "city": "MALHOU",
      "lon": "-8.703641919388115",
      "lat": "39.41560255092431"
    },
    {
      "id": "pt.ine.add.PTCONT.4556685",
      "street": "R JOÃO TICAO",
      "house": "",
      "postcode": "2380-501",
      "city": "MALHOU",
      "lon": "-8.705834868052586",
      "lat": "39.41539362079814"
    },
    {
      "id": "pt.ine.add.PTCONT.4558755",
      "street": "R PRINCIPAL",
      "house": "223",
      "postcode": "2380-501",
      "city": "MALHOU",
      "lon": "-8.706303677630435",
      "lat": "39.41592272597648"
    },
    {
      "id": "pt.ine.add.PTCONT.4575300",
      "street": "R JOÃO TICAO",
      "house": "16",
      "postcode": "2380-501",
      "city": "MALHOU",
      "lon": "-8.706184391300413",
      "lat": "39.41553601182053"
    },
    {
      "id": "pt.ine.add.PTCONT.4590114",
      "street": "R PRINCIPAL",
      "house": "",
      "postcode": "2380-501",
      "city": "MALHOU",
      "lon": "-8.705978186117724",
      "lat": "39.41587929420266"
    },
    {
      "id": "pt.ine.add.PTCONT.4604941",
      "street": "R PRINCIPAL",
      "house": "75",
      "postcode": "2380-501",
      "city": "MALHOU",
      "lon": "-8.704722669997992",
      "lat": "39.415705329756804"
    }
  ]
}