{
  "data": {
    "ilha": "Ilha da Madeira (Madeira)",
    "concelho": "Machico",
    "freguesia": "Machico",
    "OBJECTID": 210,
    "BGRI2021": "31040300115",
    "DT21": "31",
    "DTMN21": "3104",
    "DTMNFR21": "310403",
    "DTMNFRSEC21": "310403001",
    "SECNUM21": "001",
    "SSNUM21": "15",
    "SECSSNUM21": "00115",
    "OBJECTID_1": 204525,
    "DT": "31",
    "CC": "04",
    "fr": "03",
    "SEC": "001",
    "SS": "15",
    "BGRI2021_1": "31040300115"
  },
  "addresses": [
    {
      "id": "pt.ine.add.MAD.28854",
      "street": "R INF D HENRIQUE",
      "house": "40",
      "postcode": "9200-130",
      "city": "MACHICO",
      "lon": "-16.768491417666013",
      "lat": "32.71890277460279"
    },
    {
      "id": "pt.ine.add.MAD.58666",
      "street": "R DR JOÃO ABEL DE FREITAS",
      "house": "33",
      "postcode": "9200-090",
      "city": "MACHICO",
      "lon": "-16.76819615078194",
      "lat": "32.719078300578936"
    },
    {
      "id": "pt.ine.add.MAD.81189",
      "street": "R PADRE PONTES",
      "house": "2",
      "postcode": "9200-130",
      "city": "MACHICO",
      "lon": "-16.767806123577756",
      "lat": "32.71877715604709"
    },
    {
      "id": "pt.ine.add.MAD.110115",
      "street": "R DR JOÃO ABEL DE FREITAS",
      "house": "31",
      "postcode": "9200-090",
      "city": "MACHICO",
      "lon": "-16.76805695841364",
      "lat": "32.71905320694508"
    },
    {
      "id": "pt.ine.add.MAD.112057",
      "street": "R DR JOÃO ABEL DE FREITAS",
      "house": "25",
      "postcode": "9200-090",
      "city": "MACHICO",
      "lon": "-16.76801607385872",
      "lat": "32.71914397344528"
    },
    {
      "id": "pt.ine.add.MAD.114208",
      "street": "R RIBEIRINHO",
      "house": "31",
      "postcode": "9200-102",
      "city": "MACHICO",
      "lon": "-16.76780239706114",
      "lat": "32.71912894903752"
    },
    {
      "id": "pt.ine.add.MAD.114209",
      "street": "R RIBEIRINHO",
      "house": "31",
      "postcode": "9200-102",
      "city": "MACHICO",
      "lon": "-16.76780239706114",
      "lat": "32.71912894903752"
    },
    {
      "id": "pt.ine.add.MAD.114879",
      "street": "R RIBEIRINHO",
      "house": "33A",
      "postcode": "9200-102",
      "city": "MACHICO",
      "lon": "-16.767868350712195",
      "lat": "32.71922722774455"
    },
    {
      "id": "pt.ine.add.MAD.115063",
      "street": "R RIBEIRINHO",
      "house": "31",
      "postcode": "9200-102",
      "city": "MACHICO",
      "lon": "-16.76780239706114",
      "lat": "32.71912894903752"
    },
    {
      "id": "pt.ine.add.MAD.130258",
      "street": "R INF D HENRIQUE",
      "house": "38",
      "postcode": "9200-130",
      "city": "MACHICO",
      "lon": "-16.76835008962316",
      "lat": "32.71876948360472"
    }
  ]
}