{
  "data": {
    "distrito": "Santarém",
    "concelho": "Tomar",
    "freguesia": "Sabacheira",
    "OBJECTID": 1344,
    "BGRI2021": "14181400115",
    "DT21": "14",
    "DTMN21": "1418",
    "DTMNFR21": "141814",
    "DTMNFRSEC21": "141814001",
    "SECNUM21": "001",
    "SSNUM21": "15",
    "SECSSNUM21": "00115",
    "OBJECTID_1": 156867,
    "DT": "14",
    "CC": "18",
    "fr": "14",
    "SEC": "001",
    "SS": "15"
  },
  "addresses": [
    {
      "id": "pt.ine.add.PTCONT.4406639",
      "street": "R JARDIM INFÂNCIA",
      "house": "93",
      "postcode": "2305-613",
      "city": "SABACHEIRA",
      "lon": "-8.494493517914199",
      "lat": "39.65915778544903"
    },
    {
      "id": "pt.ine.add.PTCONT.4409705",
      "street": "ESTR PRINCIPAL",
      "house": "42",
      "postcode": "2305-631",
      "city": "SABACHEIRA",
      "lon": "-8.492734036847711",
      "lat": "39.652426233821885"
    },
    {
      "id": "pt.ine.add.PTCONT.4409829",
      "street": "R PRINCIPAL",
      "house": "87",
      "postcode": "2305-613",
      "city": "SABACHEIRA",
      "lon": "-8.494337909600596",
      "lat": "39.65836568019725"
    },
    {
      "id": "pt.ine.add.PTCONT.4411936",
      "street": "R PRINCIPAL",
      "house": "",
      "postcode": "2305-613",
      "city": "SABACHEIRA",
      "lon": "-8.494269776840145",
      "lat": "39.65870814656781"
    },
    {
      "id": "pt.ine.add.PTCONT.4421992",
      "street": "R PRINCIPAL",
      "house": "86",
      "postcode": "2305-613",
      "city": "SABACHEIRA",
      "lon": "-8.494302483739567",
      "lat": "39.658275723395164"
    },
    {
      "id": "pt.ine.add.PTCONT.4427107",
      "street": "ESTR PRINCIPAL",
      "house": "43",
      "postcode": "2305-631",
      "city": "SABACHEIRA",
      "lon": "-8.492689017947013",
      "lat": "39.65273260122554"
    },
    {
      "id": "pt.ine.add.PTCONT.4442524",
      "street": "CHÃO DE MATAS GARE",
      "house": "103",
      "postcode": "2305-613",
      "city": "SABACHEIRA",
      "lon": "-8.49296778992391",
      "lat": "39.65930662980104"
    },
    {
      "id": "pt.ine.add.PTCONT.4446699",
      "street": "R PRINCIPAL",
      "house": "",
      "postcode": "2305-613",
      "city": "SABACHEIRA",
      "lon": "-8.493831708387443",
      "lat": "39.657376516623096"
    },
    {
      "id": "pt.ine.add.PTCONT.4447662",
      "street": "R JARDIM INFÂNCIA",
      "house": "107",
      "postcode": "2305-613",
      "city": "SABACHEIRA",
      "lon": "-8.491732204897998",
      "lat": "39.659229391199055"
    },
    {
      "id": "pt.ine.add.PTCONT.4449740",
      "street": "R PRINCIPAL",
      "house": "",
      "postcode": "2305-613",
      "city": "SABACHEIRA",
      "lon": "-8.494172667814835",
      "lat": "39.6579608926002"
    },
    {
      "id": "pt.ine.add.PTCONT.4451829",
      "street": "R JARDIM INFÂNCIA",
      "house": "112",
      "postcode": "2305-613",
      "city": "SABACHEIRA",
      "lon": "-8.494424400296348",
      "lat": "39.65931111431711"
    },
    {
      "id": "pt.ine.add.PTCONT.4453775",
      "street": "R PRINCIPAL",
      "house": "83",
      "postcode": "2305-613",
      "city": "SABACHEIRA",
      "lon": "-8.494196347313338",
      "lat": "39.65803287256993"
    },
    {
      "id": "pt.ine.add.PTCONT.4456839",
      "street": "CHÃO DE MAÇÃS GARE",
      "house": "96",
      "postcode": "2305-613",
      "city": "SABACHEIRA",
      "lon": "-8.493752951617894",
      "lat": "39.65791716310919"
    },
    {
      "id": "pt.ine.add.PTCONT.4462158",
      "street": "R PRINCIPAL",
      "house": "45",
      "postcode": "2305-631",
      "city": "SABACHEIRA",
      "lon": "-8.492948757720098",
      "lat": "39.65338928636348"
    },
    {
      "id": "pt.ine.add.PTCONT.4463332",
      "street": "ESTR PRINCIPAL",
      "house": "",
      "postcode": "2305-613",
      "city": "SABACHEIRA",
      "lon": "-8.492721918830375",
      "lat": "39.65233620427114"
    },
    {
      "id": "pt.ine.add.PTCONT.4479866",
      "street": "CHIAO MACAS GARE",
      "house": "101",
      "postcode": "2305-613",
      "city": "SABACHEIRA",
      "lon": "-8.49352542618903",
      "lat": "39.65898065965856"
    },
    {
      "id": "pt.ine.add.PTCONT.4484289",
      "street": "R CHÃO MACAS GARE",
      "house": "",
      "postcode": "2305-631",
      "city": "SABACHEIRA",
      "lon": "-8.493232366526206",
      "lat": "39.65415397728639"
    },
    {
      "id": "pt.ine.add.PTCONT.4485287",
      "street": "R PRINCIPAL",
      "house": "84",
      "postcode": "2305-613",
      "city": "SABACHEIRA",
      "lon": "-8.494220026861495",
      "lat": "39.65810485253373"
    },
    {
      "id": "pt.ine.add.PTCONT.4502981",
      "street": "R PRINCIPAL",
      "house": "92",
      "postcode": "2305-613",
      "city": "SABACHEIRA",
      "lon": "-8.494387520127935",
      "lat": "39.65894195449638"
    },
    {
      "id": "pt.ine.add.PTCONT.4511225",
      "street": "R CHÃO MACAS GARE",
      "house": "46",
      "postcode": "2305-631",
      "city": "SABACHEIRA",
      "lon": "-8.492960736128486",
      "lat": "39.653452296190395"
    },
    {
      "id": "pt.ine.add.PTCONT.4521380",
      "street": "R JARDIM INFÂNCIA",
      "house": "113",
      "postcode": "2305-613",
      "city": "SABACHEIRA",
      "lon": "-8.494249378294198",
      "lat": "39.65926662517474"
    },
    {
      "id": "pt.ine.add.PTCONT.4529642",
      "street": "R PRINCIPAL",
      "house": "68",
      "postcode": "2305-613",
      "city": "SABACHEIRA",
      "lon": "-8.493544992080855",
      "lat": "39.65601739501244"
    },
    {
      "id": "pt.ine.add.PTCONT.4533517",
      "street": "VALE OVOS",
      "house": "104",
      "postcode": "2305-613",
      "city": "SABACHEIRA",
      "lon": "-8.492840452800351",
      "lat": "39.659469144791856"
    },
    {
      "id": "pt.ine.add.PTCONT.4539834",
      "street": "R PRINCIPAL",
      "house": "89",
      "postcode": "2305-613",
      "city": "SABACHEIRA",
      "lon": "-8.494152549834084",
      "lat": "39.658573410573354"
    },
    {
      "id": "pt.ine.add.PTCONT.4550062",
      "street": "CHÃO DE MATAS GARE",
      "house": "99",
      "postcode": "2305-613",
      "city": "SABACHEIRA",
      "lon": "-8.493511294425511",
      "lat": "39.65850334857164"
    },
    {
      "id": "pt.ine.add.PTCONT.4566930",
      "street": "CHÃO MATAS GARE",
      "house": "",
      "postcode": "2305-613",
      "city": "SABACHEIRA",
      "lon": "-8.49424365958593",
      "lat": "39.65816782593966"
    },
    {
      "id": "pt.ine.add.PTCONT.4568994",
      "street": "R PADARIA VELHA",
      "house": "98",
      "postcode": "2305-613",
      "city": "SABACHEIRA",
      "lon": "-8.493626788696732",
      "lat": "39.65830484279331"
    },
    {
      "id": "pt.ine.add.PTCONT.4607472",
      "street": "R JRD INFANCIA",
      "house": "94",
      "postcode": "2305-613",
      "city": "SABACHEIRA",
      "lon": "-8.494680473875306",
      "lat": "39.65925627724984"
    },
    {
      "id": "pt.ine.add.PTCONT.4607473",
      "street": "R JARDIM INFANCIA",
      "house": "",
      "postcode": "2305-613",
      "city": "SABACHEIRA",
      "lon": "-8.494680473875306",
      "lat": "39.65925627724984"
    },
    {
      "id": "pt.ine.add.PTCONT.4612557",
      "street": "R PADARIA VELHA",
      "house": "97",
      "postcode": "2305-613",
      "city": "SABACHEIRA",
      "lon": "-8.493834985740362",
      "lat": "39.65800697534094"
    },
    {
      "id": "pt.ine.add.PTCONT.4633191",
      "street": "CHÃO DE MAÇÃS GARE",
      "house": "105",
      "postcode": "2305-613",
      "city": "SABACHEIRA",
      "lon": "-8.49230420297765",
      "lat": "39.65942577096115"
    },
    {
      "id": "pt.ine.add.PTCONT.4639484",
      "street": "R PRINCIPAL",
      "house": "72",
      "postcode": "2305-613",
      "city": "SABACHEIRA",
      "lon": "-8.493364779372754",
      "lat": "39.657215845249425"
    },
    {
      "id": "pt.ine.add.PTCONT.4639485",
      "street": "R PRINCIPAL",
      "house": "70",
      "postcode": "2305-613",
      "city": "SABACHEIRA",
      "lon": "-8.49361597995084",
      "lat": "39.65622432882237"
    },
    {
      "id": "pt.ine.add.PTCONT.4656041",
      "street": "R PRINCIPAL",
      "house": "69",
      "postcode": "2305-613",
      "city": "SABACHEIRA",
      "lon": "-8.493629316402075",
      "lat": "39.6565485286483"
    }
  ]
}