{
  "data": {
    "distrito": "Viseu",
    "concelho": "Carregal do Sal",
    "freguesia": "Carregal do Sal",
    "OBJECTID": 138,
    "BGRI2021": "18020800211",
    "DT21": "18",
    "DTMN21": "1802",
    "DTMNFR21": "180208",
    "DTMNFRSEC21": "180208002",
    "SECNUM21": "002",
    "SSNUM21": "11",
    "SECSSNUM21": "00211",
    "OBJECTID_1": 188688,
    "DT": "18",
    "CC": "02",
    "fr": "08",
    "SEC": "002",
    "SS": "11"
  },
  "addresses": [
    {
      "id": "pt.ine.add.PTCONT.5427164",
      "street": "R PALMEIRA",
      "house": "",
      "postcode": "3430-211",
      "city": "CARREGAL DO SAL",
      "lon": "-7.995529709085291",
      "lat": "40.42044051109811"
    },
    {
      "id": "pt.ine.add.PTCONT.5430664",
      "street": "R POISADA",
      "house": "1",
      "postcode": "3430-211",
      "city": "CARREGAL DO SAL",
      "lon": "-7.996637687667017",
      "lat": "40.419935107729"
    },
    {
      "id": "pt.ine.add.PTCONT.5432379",
      "street": "R FLORES",
      "house": "24",
      "postcode": "3430-211",
      "city": "CARREGAL DO SAL",
      "lon": "-7.996000187890116",
      "lat": "40.420855324740295"
    },
    {
      "id": "pt.ine.add.PTCONT.5439777",
      "street": "R PALMEIRA",
      "house": "1",
      "postcode": "3430-211",
      "city": "CARREGAL DO SAL",
      "lon": "-7.995459304789037",
      "lat": "40.420296338680465"
    },
    {
      "id": "pt.ine.add.PTCONT.5449209",
      "street": "R FLORES",
      "house": "2",
      "postcode": "3430-211",
      "city": "CARREGAL DO SAL",
      "lon": "-7.996873224878043",
      "lat": "40.42031602443092"
    },
    {
      "id": "pt.ine.add.PTCONT.5461844",
      "street": "R FLORES",
      "house": "",
      "postcode": "3430-211",
      "city": "CARREGAL DO SAL",
      "lon": "-7.9962479060538305",
      "lat": "40.42072053516103"
    },
    {
      "id": "pt.ine.add.PTCONT.5465592",
      "street": "R POISADA",
      "house": "7",
      "postcode": "3430-211",
      "city": "CARREGAL DO SAL",
      "lon": "-7.996131682929286",
      "lat": "40.41992791010563"
    },
    {
      "id": "pt.ine.add.PTCONT.5470564",
      "street": "R FLORES",
      "house": "18",
      "postcode": "3430-211",
      "city": "CARREGAL DO SAL",
      "lon": "-7.996413196767308",
      "lat": "40.42055863100854"
    },
    {
      "id": "pt.ine.add.PTCONT.5472561",
      "street": "R FLORES",
      "house": "12",
      "postcode": "3430-211",
      "city": "CARREGAL DO SAL",
      "lon": "-7.996578250018082",
      "lat": "40.42051379833763"
    },
    {
      "id": "pt.ine.add.PTCONT.5481614",
      "street": "R CRUZEIRO",
      "house": "9",
      "postcode": "3430-211",
      "city": "CARREGAL DO SAL",
      "lon": "-7.996814855219907",
      "lat": "40.42004578946447"
    },
    {
      "id": "pt.ine.add.PTCONT.5485382",
      "street": "R FLORES",
      "house": "20",
      "postcode": "3430-211",
      "city": "CARREGAL DO SAL",
      "lon": "-7.996389448429083",
      "lat": "40.42064865831346"
    },
    {
      "id": "pt.ine.add.PTCONT.5503387",
      "street": "R POISADA",
      "house": "N 5",
      "postcode": "3430-211",
      "city": "CARREGAL DO SAL",
      "lon": "-7.996413998767516",
      "lat": "40.42016238824749"
    },
    {
      "id": "pt.ine.add.PTCONT.5520046",
      "street": "R FLORES",
      "house": "28",
      "postcode": "3430-211",
      "city": "CARREGAL DO SAL",
      "lon": "-7.995529122034991",
      "lat": "40.420728687629705"
    },
    {
      "id": "pt.ine.add.PTCONT.5523423",
      "street": "R PALMEIRAS",
      "house": "40",
      "postcode": "3430-211",
      "city": "CARREGAL DO SAL",
      "lon": "-7.995612043375772",
      "lat": "40.42051265334932"
    },
    {
      "id": "pt.ine.add.PTCONT.5523748",
      "street": "R FLORES",
      "house": "16",
      "postcode": "3430-211",
      "city": "CARREGAL DO SAL",
      "lon": "-7.996495586796489",
      "lat": "40.42060375608012"
    },
    {
      "id": "pt.ine.add.PTCONT.5524002",
      "street": "R POISADA",
      "house": "17",
      "postcode": "3430-211",
      "city": "CARREGAL DO SAL",
      "lon": "-7.995365243068956",
      "lat": "40.420197165730094"
    },
    {
      "id": "pt.ine.add.PTCONT.5533469",
      "street": "R POISADA",
      "house": "9",
      "postcode": "3430-211",
      "city": "CARREGAL DO SAL",
      "lon": "-7.996002016121065",
      "lat": "40.41995477303316"
    },
    {
      "id": "pt.ine.add.PTCONT.5533470",
      "street": "R POISADO",
      "house": "15",
      "postcode": "3430-211",
      "city": "CARREGAL DO SAL",
      "lon": "-7.995518421449945",
      "lat": "40.420197348116986"
    },
    {
      "id": "pt.ine.add.PTCONT.5535715",
      "street": "R POISADA",
      "house": "",
      "postcode": "3430-211",
      "city": "CARREGAL DO SAL",
      "lon": "-7.995600975459301",
      "lat": "40.4201614241722"
    },
    {
      "id": "pt.ine.add.PTCONT.5541954",
      "street": "R PALMEIRA",
      "house": "",
      "postcode": "3430-211",
      "city": "CARREGAL DO SAL",
      "lon": "-7.995459047825453",
      "lat": "40.42042241591759"
    },
    {
      "id": "pt.ine.add.PTCONT.5552001",
      "street": "R PALMEIRA",
      "house": "13",
      "postcode": "3430-211",
      "city": "CARREGAL DO SAL",
      "lon": "-7.995389777326049",
      "lat": "40.420600623278915"
    },
    {
      "id": "pt.ine.add.PTCONT.5563383",
      "street": "R FLORES",
      "house": "",
      "postcode": "3430-211",
      "city": "CARREGAL DO SAL",
      "lon": "-7.9962953301222495",
      "lat": "40.420576502673654"
    },
    {
      "id": "pt.ine.add.PTCONT.5565469",
      "street": "R FLORES",
      "house": "",
      "postcode": "3430-211",
      "city": "CARREGAL DO SAL",
      "lon": "-7.996790907653874",
      "lat": "40.420234877555906"
    },
    {
      "id": "pt.ine.add.PTCONT.5576470",
      "street": "R PALMEIRA",
      "house": "",
      "postcode": "3430-211",
      "city": "CARREGAL DO SAL",
      "lon": "-7.995635921018535",
      "lat": "40.42035958758488"
    },
    {
      "id": "pt.ine.add.PTCONT.5582042",
      "street": "R PALMEIRA",
      "house": "9",
      "postcode": "3430-211",
      "city": "CARREGAL DO SAL",
      "lon": "-7.9956121350469544",
      "lat": "40.42046762576536"
    },
    {
      "id": "pt.ine.add.PTCONT.5585743",
      "street": "R FLORES",
      "house": "8",
      "postcode": "3430-211",
      "city": "CARREGAL DO SAL",
      "lon": "-7.99664885462919",
      "lat": "40.42045515657234"
    },
    {
      "id": "pt.ine.add.PTCONT.5593240",
      "street": "R FLORES",
      "house": "",
      "postcode": "3430-211",
      "city": "CARREGAL DO SAL",
      "lon": "-7.995363994096378",
      "lat": "40.42080954086414"
    },
    {
      "id": "pt.ine.add.PTCONT.5611589",
      "street": "R FLORES",
      "house": "",
      "postcode": "3430-211",
      "city": "CARREGAL DO SAL",
      "lon": "-7.996153477341584",
      "lat": "40.420801473189634"
    },
    {
      "id": "pt.ine.add.PTCONT.5617261",
      "street": "R CRUZEIRO",
      "house": "",
      "postcode": "3430-211",
      "city": "CARREGAL DO SAL",
      "lon": "-7.9968386936287015",
      "lat": "40.41991073447087"
    },
    {
      "id": "pt.ine.add.PTCONT.5626975",
      "street": "R FLORES",
      "house": "10",
      "postcode": "3430-211",
      "city": "CARREGAL DO SAL",
      "lon": "-7.996637183256599",
      "lat": "40.42050486237567"
    },
    {
      "id": "pt.ine.add.PTCONT.5628563",
      "street": "R PALMEIRA",
      "house": "15",
      "postcode": "3430-211",
      "city": "CARREGAL DO SAL",
      "lon": "-7.995372897992784",
      "lat": "40.42064978782046"
    },
    {
      "id": "pt.ine.add.PTCONT.5636294",
      "street": "R FLORES",
      "house": "",
      "postcode": "3430-211",
      "city": "CARREGAL DO SAL",
      "lon": "-7.995458148440115",
      "lat": "40.42086368622582"
    },
    {
      "id": "pt.ine.add.PTCONT.5636295",
      "street": "R FLORES",
      "house": "14",
      "postcode": "3430-211",
      "city": "CARREGAL DO SAL",
      "lon": "-7.9965074791097495",
      "lat": "40.420549736900035"
    },
    {
      "id": "pt.ine.add.PTCONT.5650432",
      "street": "R POISADA",
      "house": "13",
      "postcode": "3430-211",
      "city": "CARREGAL DO SAL",
      "lon": "-7.995636617589593",
      "lat": "40.420017377928545"
    },
    {
      "id": "pt.ine.add.PTCONT.5651203",
      "street": "R CRUZEIRO",
      "house": "7",
      "postcode": "3430-211",
      "city": "CARREGAL DO SAL",
      "lon": "-7.996849967804011",
      "lat": "40.420162902860646"
    },
    {
      "id": "pt.ine.add.PTCONT.5654879",
      "street": "TV LAGAR VELHO",
      "house": "17",
      "postcode": "3430-211",
      "city": "CARREGAL DO SAL",
      "lon": "-7.995352357989719",
      "lat": "40.42073748269568"
    },
    {
      "id": "pt.ine.add.PTCONT.5664517",
      "street": "R FLORES",
      "house": "4",
      "postcode": "3430-211",
      "city": "CARREGAL DO SAL",
      "lon": "-7.996707601708577",
      "lat": "40.420398927767806"
    },
    {
      "id": "pt.ine.add.PTCONT.5664850",
      "street": "R POISADO",
      "house": "",
      "postcode": "3430-211",
      "city": "CARREGAL DO SAL",
      "lon": "-7.995683584354334",
      "lat": "40.42009848361583"
    }
  ]
}