{
  "data": {
    "distrito": "Santarém",
    "concelho": "Ourém",
    "freguesia": "Nossa Senhora das Misericórdias",
    "OBJECTID": 737,
    "BGRI2021": "14211100129",
    "DT21": "14",
    "DTMN21": "1421",
    "DTMNFR21": "142111",
    "DTMNFRSEC21": "142111001",
    "SECNUM21": "001",
    "SSNUM21": "29",
    "SECSSNUM21": "00129",
    "OBJECTID_1": 158829,
    "DT": "14",
    "CC": "21",
    "fr": "11",
    "SEC": "001",
    "SS": "29"
  },
  "addresses": [
    {
      "id": "pt.ine.add.PTCONT.4399089",
      "street": "TV VÁRZEA",
      "house": "",
      "postcode": "2490-266",
      "city": "OURÉM",
      "lon": "-8.595825523121666",
      "lat": "39.650494130544224"
    },
    {
      "id": "pt.ine.add.PTCONT.4403462",
      "street": "R NSO SR DOS AFLITOS",
      "house": "41",
      "postcode": "2490-679",
      "city": "OURÉM",
      "lon": "-8.600000381700125",
      "lat": "39.65000156565325"
    },
    {
      "id": "pt.ine.add.PTCONT.4407409",
      "street": "R FONTE",
      "house": "",
      "postcode": "2490-257",
      "city": "OURÉM",
      "lon": "-8.596372032384673",
      "lat": "39.65032983173826"
    },
    {
      "id": "pt.ine.add.PTCONT.4411558",
      "street": "R FONTE",
      "house": "",
      "postcode": "2490-257",
      "city": "OURÉM",
      "lon": "-8.593890579973182",
      "lat": "39.65036672235662"
    },
    {
      "id": "pt.ine.add.PTCONT.4423628",
      "street": "LG NICHO",
      "house": "",
      "postcode": "2490-256",
      "city": "OURÉM",
      "lon": "-8.598100527196815",
      "lat": "39.64920609553784"
    },
    {
      "id": "pt.ine.add.PTCONT.4429186",
      "street": "R FONTE",
      "house": "",
      "postcode": "2490-257",
      "city": "OURÉM",
      "lon": "-8.596626306163898",
      "lat": "39.65002258990814"
    },
    {
      "id": "pt.ine.add.PTCONT.4457552",
      "street": "TV MIMOSA",
      "house": "",
      "postcode": "2490-263",
      "city": "OURÉM",
      "lon": "-8.597821333455318",
      "lat": "39.64927025971568"
    },
    {
      "id": "pt.ine.add.PTCONT.4464994",
      "street": "R FONTE",
      "house": "",
      "postcode": "2490-257",
      "city": "OURÉM",
      "lon": "-8.596753743015686",
      "lat": "39.64991400102609"
    },
    {
      "id": "pt.ine.add.PTCONT.4478819",
      "street": "TV QUINTA DA VINHA",
      "house": "",
      "postcode": "2490-268",
      "city": "OURÉM",
      "lon": "-8.597156794100014",
      "lat": "39.65094816056808"
    },
    {
      "id": "pt.ine.add.PTCONT.4484131",
      "street": "R FONTE",
      "house": "",
      "postcode": "2490-257",
      "city": "OURÉM",
      "lon": "-8.595706493243751",
      "lat": "39.65011632375414"
    },
    {
      "id": "pt.ine.add.PTCONT.4497994",
      "street": "R FONTE",
      "house": "222",
      "postcode": "2490-257",
      "city": "OURÉM",
      "lon": "-8.594345980964954",
      "lat": "39.65051802856878"
    },
    {
      "id": "pt.ine.add.PTCONT.4520404",
      "street": "TV MIMOSA",
      "house": "",
      "postcode": "2490-263",
      "city": "OURÉM",
      "lon": "-8.598276554575932",
      "lat": "39.64939453119459"
    },
    {
      "id": "pt.ine.add.PTCONT.4537492",
      "street": "LG NICHO",
      "house": "",
      "postcode": "2490-256",
      "city": "OURÉM",
      "lon": "-8.598763829261655",
      "lat": "39.64908635130657"
    },
    {
      "id": "pt.ine.add.PTCONT.4547195",
      "street": "R NAMORADOS",
      "house": "",
      "postcode": "2490-339",
      "city": "OURÉM",
      "lon": "-8.591893715795276",
      "lat": "39.65144642276004"
    },
    {
      "id": "pt.ine.add.PTCONT.4549668",
      "street": "R S SEBASTIÃO",
      "house": "",
      "postcode": "2490-259",
      "city": "OURÉM",
      "lon": "-8.601528657650027",
      "lat": "39.647886351225374"
    },
    {
      "id": "pt.ine.add.PTCONT.4553902",
      "street": "TV MIMOSA",
      "house": "",
      "postcode": "2490-263",
      "city": "OURÉM",
      "lon": "-8.597937719531261",
      "lat": "39.649251780633584"
    },
    {
      "id": "pt.ine.add.PTCONT.4573609",
      "street": "TV MIMOSA",
      "house": "",
      "postcode": "2490-263",
      "city": "OURÉM",
      "lon": "-8.597624417232478",
      "lat": "39.64944217448136"
    },
    {
      "id": "pt.ine.add.PTCONT.4578917",
      "street": "R FONTE",
      "house": "",
      "postcode": "2490-257",
      "city": "OURÉM",
      "lon": "-8.597194425238666",
      "lat": "39.649606013703455"
    },
    {
      "id": "pt.ine.add.PTCONT.4591467",
      "street": "R FONTE",
      "house": "244",
      "postcode": "2490-257",
      "city": "OURÉM",
      "lon": "-8.594530898292676",
      "lat": "39.650292126907985"
    },
    {
      "id": "pt.ine.add.PTCONT.4616450",
      "street": "TV QUINTA DA VINHA",
      "house": "",
      "postcode": "2490-268",
      "city": "OURÉM",
      "lon": "-8.597584323391922",
      "lat": "39.650415057170974"
    },
    {
      "id": "pt.ine.add.PTCONT.4630959",
      "street": "R NAMORADOS",
      "house": "359",
      "postcode": "2490-339",
      "city": "OURÉM",
      "lon": "-8.591795448219084",
      "lat": "39.65068124237654"
    },
    {
      "id": "pt.ine.add.PTCONT.4635069",
      "street": "R FONTE",
      "house": "",
      "postcode": "2490-257",
      "city": "OURÉM",
      "lon": "-8.596904962433834",
      "lat": "39.64987737055191"
    }
  ]
}