{
  "data": {
    "distrito": "Portalegre",
    "concelho": "Campo Maior",
    "freguesia": "Nossa Senhora da Expectação",
    "OBJECTID": 170,
    "BGRI2021": "12040100108",
    "DT21": "12",
    "DTMN21": "1204",
    "DTMNFR21": "120401",
    "DTMNFRSEC21": "120401001",
    "SECNUM21": "001",
    "SSNUM21": "08",
    "SECSSNUM21": "00108",
    "OBJECTID_1": 121019,
    "DT": "12",
    "CC": "04",
    "fr": "01",
    "SEC": "001",
    "SS": "08"
  },
  "addresses": [
    {
      "id": "pt.ine.add.PTCONT.3537268",
      "street": "R 1 DE MAIO",
      "house": "25 A",
      "postcode": "7370-027",
      "city": "CAMPO MAIOR",
      "lon": "-7.070801301556377",
      "lat": "39.01230756628892"
    },
    {
      "id": "pt.ine.add.PTCONT.3537269",
      "street": "R 1 DE MAIO",
      "house": "23",
      "postcode": "7370-027",
      "city": "CAMPO MAIOR",
      "lon": "-7.07069457709006",
      "lat": "39.012495749924476"
    },
    {
      "id": "pt.ine.add.PTCONT.3463300",
      "street": "LG BARÃO DE BARCELINHOS",
      "house": "2",
      "postcode": "7370-046",
      "city": "CAMPO MAIOR",
      "lon": "-7.070412315839393",
      "lat": "39.012069830687096"
    },
    {
      "id": "pt.ine.add.PTCONT.3463301",
      "street": "LG BARÃO DE BARCELINHOS",
      "house": "2",
      "postcode": "7370-046",
      "city": "CAMPO MAIOR",
      "lon": "-7.070412315839393",
      "lat": "39.012069830687096"
    },
    {
      "id": "pt.ine.add.PTCONT.3463828",
      "street": "R 1 DE MAIO",
      "house": "24 A",
      "postcode": "7370-027",
      "city": "CAMPO MAIOR",
      "lon": "-7.070942117956669",
      "lat": "39.01215572260752"
    },
    {
      "id": "pt.ine.add.PTCONT.3468079",
      "street": "R ESTREITA",
      "house": "4",
      "postcode": "7370-072",
      "city": "CAMPO MAIOR",
      "lon": "-7.070242883376505",
      "lat": "39.01259071673609"
    },
    {
      "id": "pt.ine.add.PTCONT.3469615",
      "street": "R MISERICÓRDIA",
      "house": "18",
      "postcode": "7370-044",
      "city": "CAMPO MAIOR",
      "lon": "-7.070828296740658",
      "lat": "39.012046597260465"
    },
    {
      "id": "pt.ine.add.PTCONT.3474812",
      "street": "R ESTREITA",
      "house": "10",
      "postcode": "7370-072",
      "city": "CAMPO MAIOR",
      "lon": "-7.070281829013971",
      "lat": "39.01230283451598"
    },
    {
      "id": "pt.ine.add.PTCONT.3476097",
      "street": "R ESTREITA",
      "house": "18",
      "postcode": "7370-072",
      "city": "CAMPO MAIOR",
      "lon": "-7.070320100282589",
      "lat": "39.01205998316777"
    },
    {
      "id": "pt.ine.add.PTCONT.3476744",
      "street": "LG BARÃO DE BARCELINHOS",
      "house": "6",
      "postcode": "7370-046",
      "city": "CAMPO MAIOR",
      "lon": "-7.070562250411549",
      "lat": "39.01208020388791"
    },
    {
      "id": "pt.ine.add.PTCONT.3477516",
      "street": "LG BARÃO DE BARCELINHOS",
      "house": "8",
      "postcode": "7370-046",
      "city": "CAMPO MAIOR",
      "lon": "-7.070654735558809",
      "lat": "39.012072038853454"
    },
    {
      "id": "pt.ine.add.PTCONT.3477517",
      "street": "R 1 DE MAIO",
      "house": "27",
      "postcode": "7370-027",
      "city": "CAMPO MAIOR",
      "lon": "-7.070848285336933",
      "lat": "39.01225394968807"
    },
    {
      "id": "pt.ine.add.PTCONT.3479205",
      "street": "R 1 DE MAIO",
      "house": "25",
      "postcode": "7370-027",
      "city": "CAMPO MAIOR",
      "lon": "-7.07077727064388",
      "lat": "39.01237039930772"
    },
    {
      "id": "pt.ine.add.PTCONT.3484612",
      "street": "R ESTREITA",
      "house": "12 A",
      "postcode": "7370-072",
      "city": "CAMPO MAIOR",
      "lon": "-7.070294586134683",
      "lat": "39.0122218840695"
    },
    {
      "id": "pt.ine.add.PTCONT.3485845",
      "street": "R ESTREITA",
      "house": "6A",
      "postcode": "7370-072",
      "city": "CAMPO MAIOR",
      "lon": "-7.070256314679026",
      "lat": "39.01246473540026"
    },
    {
      "id": "pt.ine.add.PTCONT.3488966",
      "street": "R ESTREITA",
      "house": "8A",
      "postcode": "7370-072",
      "city": "CAMPO MAIOR",
      "lon": "-7.0702692066755475",
      "lat": "39.01237477877959"
    },
    {
      "id": "pt.ine.add.PTCONT.3489952",
      "street": "LG BARÃO DE BARCELINHOS",
      "house": "10B",
      "postcode": "7370-046",
      "city": "CAMPO MAIOR",
      "lon": "-7.070712454543544",
      "lat": "39.01207256453311"
    },
    {
      "id": "pt.ine.add.PTCONT.3489971",
      "street": "R 1 DE MAIO",
      "house": "29",
      "postcode": "7370-027",
      "city": "CAMPO MAIOR",
      "lon": "-7.070883590492825",
      "lat": "39.012209234133046"
    },
    {
      "id": "pt.ine.add.PTCONT.3491795",
      "street": "R ESTREITA",
      "house": "10",
      "postcode": "7370-072",
      "city": "CAMPO MAIOR",
      "lon": "-7.07028128976754",
      "lat": "39.01233885923643"
    },
    {
      "id": "pt.ine.add.PTCONT.3492728",
      "street": "R ESTREITA",
      "house": "2",
      "postcode": "7370-072",
      "city": "CAMPO MAIOR",
      "lon": "-7.070242344104788",
      "lat": "39.012626741454284"
    },
    {
      "id": "pt.ine.add.PTCONT.3493222",
      "street": "R ESTREITA",
      "house": "8",
      "postcode": "7370-072",
      "city": "CAMPO MAIOR",
      "lon": "-7.070268532607628",
      "lat": "39.01241980967935"
    },
    {
      "id": "pt.ine.add.PTCONT.3498419",
      "street": "LG BARÃO DE BARCELINHOS",
      "house": "4 A",
      "postcode": "7370-046",
      "city": "CAMPO MAIOR",
      "lon": "-7.070504531423418",
      "lat": "39.01207967813386"
    },
    {
      "id": "pt.ine.add.PTCONT.3504177",
      "street": "R ESTREITA",
      "house": "12",
      "postcode": "7370-072",
      "city": "CAMPO MAIOR",
      "lon": "-7.070293912086526",
      "lat": "39.012266914970816"
    },
    {
      "id": "pt.ine.add.PTCONT.3509242",
      "street": "R ESTREITA",
      "house": "14",
      "postcode": "7370-072",
      "city": "CAMPO MAIOR",
      "lon": "-7.070306803993846",
      "lat": "39.01217695834181"
    },
    {
      "id": "pt.ine.add.PTCONT.3509246",
      "street": "R 1 DE MAIO",
      "house": "19A",
      "postcode": "7370-027",
      "city": "CAMPO MAIOR",
      "lon": "-7.070494422590938",
      "lat": "39.01275514167865"
    },
    {
      "id": "pt.ine.add.PTCONT.3511633",
      "street": "LG DR REGALA",
      "house": "17",
      "postcode": "7370-047",
      "city": "CAMPO MAIOR",
      "lon": "-7.0704371074372405",
      "lat": "39.01272759734369"
    },
    {
      "id": "pt.ine.add.PTCONT.3514087",
      "street": "R ESTREITA",
      "house": "6",
      "postcode": "7370-072",
      "city": "CAMPO MAIOR",
      "lon": "-7.070255775416542",
      "lat": "39.01250076011938"
    },
    {
      "id": "pt.ine.add.PTCONT.3515783",
      "street": "R 1 MAIO",
      "house": "23",
      "postcode": "7370-027",
      "city": "CAMPO MAIOR",
      "lon": "-7.070730151976047",
      "lat": "39.01243302205834"
    },
    {
      "id": "pt.ine.add.PTCONT.3516560",
      "street": "R ESTREITA",
      "house": "4A",
      "postcode": "7370-072",
      "city": "CAMPO MAIOR",
      "lon": "-7.07025510133708",
      "lat": "39.01254579101797"
    },
    {
      "id": "pt.ine.add.PTCONT.3516564",
      "street": "R 1 DE MAIO",
      "house": "21A",
      "postcode": "7370-027",
      "city": "CAMPO MAIOR",
      "lon": "-7.070647458264325",
      "lat": "39.01255837263816"
    },
    {
      "id": "pt.ine.add.PTCONT.3522664",
      "street": "R ESTREITA",
      "house": "16 A",
      "postcode": "7370-072",
      "city": "CAMPO MAIOR",
      "lon": "-7.0703080172608335",
      "lat": "39.01209590271759"
    },
    {
      "id": "pt.ine.add.PTCONT.3525264",
      "street": "LG BARÃO DE BARCELINHOS",
      "house": "6A",
      "postcode": "7370-046",
      "city": "CAMPO MAIOR",
      "lon": "-7.07060842560314",
      "lat": "39.01208062447061"
    },
    {
      "id": "pt.ine.add.PTCONT.3526123",
      "street": "R ESTREITA",
      "house": "14 A",
      "postcode": "7370-072",
      "city": "CAMPO MAIOR",
      "lon": "-7.070307478031664",
      "lat": "39.01213192743961"
    },
    {
      "id": "pt.ine.add.PTCONT.3526576",
      "street": "LG BARÃO DE BARCELINHOS",
      "house": "4",
      "postcode": "7370-046",
      "city": "CAMPO MAIOR",
      "lon": "-7.070458356233999",
      "lat": "39.01207925751006"
    },
    {
      "id": "pt.ine.add.PTCONT.3529492",
      "street": "R JOAO ROSADO",
      "house": "18",
      "postcode": "7370-071",
      "city": "CAMPO MAIOR",
      "lon": "-7.070366275457405",
      "lat": "39.01206040384612"
    },
    {
      "id": "pt.ine.add.PTCONT.3529680",
      "street": "R LUIS ABRANCHES",
      "house": "19",
      "postcode": "7370-048",
      "city": "CAMPO MAIOR",
      "lon": "-7.070600069809284",
      "lat": "39.012639007692144"
    },
    {
      "id": "pt.ine.add.PTCONT.3529681",
      "street": "R 1 DE MAIO",
      "house": "21",
      "postcode": "7370-027",
      "city": "CAMPO MAIOR",
      "lon": "-7.070600069809284",
      "lat": "39.012639007692144"
    },
    {
      "id": "pt.ine.add.PTCONT.3530872",
      "street": "LG DR REGALA",
      "house": "15",
      "postcode": "7370-047",
      "city": "CAMPO MAIOR",
      "lon": "-7.070368383232992",
      "lat": "39.01269094163332"
    },
    {
      "id": "pt.ine.add.PTCONT.3530873",
      "street": "LG DR REGALA",
      "house": "15",
      "postcode": "7370-047",
      "city": "CAMPO MAIOR",
      "lon": "-7.070368383232992",
      "lat": "39.01269094163332"
    }
  ]
}