{
  "data": {
    "distrito": "Braga",
    "concelho": "Guimarães",
    "freguesia": "União das freguesias de Abação e Gémeos",
    "OBJECTID": 1652,
    "BGRI2021": "03087500115",
    "DT21": "03",
    "DTMN21": "0308",
    "DTMNFR21": "030875",
    "DTMNFRSEC21": "030875001",
    "SECNUM21": "001",
    "SSNUM21": "15",
    "SECSSNUM21": "00115",
    "OBJECTID_1": 27567,
    "DT": "03",
    "CC": "08",
    "fr": "75",
    "SEC": "001",
    "SS": "15"
  },
  "addresses": [
    {
      "id": "pt.ine.add.PTCONT.475587",
      "street": "R LIBERDADE",
      "house": "2832",
      "postcode": "4810-689",
      "city": "SÃO TOMÉ ABAÇÃO",
      "lon": "-8.26240546437531",
      "lat": "41.402456360949664"
    },
    {
      "id": "pt.ine.add.PTCONT.475588",
      "street": "R LIBERDADE",
      "house": "2832",
      "postcode": "4810-689",
      "city": "SÃO TOMÉ ABAÇÃO",
      "lon": "-8.26240546437531",
      "lat": "41.402456360949664"
    },
    {
      "id": "pt.ine.add.PTCONT.534535",
      "street": "R CASAL DE ALEM",
      "house": "",
      "postcode": "4810-671",
      "city": "SÃO TOMÉ ABAÇÃO",
      "lon": "-8.264793593200308",
      "lat": "41.40067086007897"
    },
    {
      "id": "pt.ine.add.PTCONT.549756",
      "street": "R DE CELÓRIOS",
      "house": "",
      "postcode": "4810-662",
      "city": "SÃO TOMÉ ABAÇÃO",
      "lon": "-8.262196768591442",
      "lat": "41.39972838214279"
    },
    {
      "id": "pt.ine.add.PTCONT.574861",
      "street": "R CELEIROS",
      "house": "100",
      "postcode": "4810-662",
      "city": "SÃO TOMÉ ABAÇÃO",
      "lon": "-8.261781590315405",
      "lat": "41.40143060402657"
    },
    {
      "id": "pt.ine.add.PTCONT.574862",
      "street": "R CELEIROS",
      "house": "144",
      "postcode": "4810-662",
      "city": "SÃO TOMÉ ABAÇÃO",
      "lon": "-8.261781590315405",
      "lat": "41.40143060402657"
    },
    {
      "id": "pt.ine.add.PTCONT.599726",
      "street": "R LIBERDADE",
      "house": "2980",
      "postcode": "4810-689",
      "city": "SÃO TOMÉ ABAÇÃO",
      "lon": "-8.261722863215436",
      "lat": "41.4019709098513"
    },
    {
      "id": "pt.ine.add.PTCONT.600339",
      "street": "R LIBERDADE",
      "house": "2946",
      "postcode": "4810-689",
      "city": "SÃO TOMÉ ABAÇÃO",
      "lon": "-8.261722863215436",
      "lat": "41.4019709098513"
    },
    {
      "id": "pt.ine.add.PTCONT.682091",
      "street": "R DE CELÓRIOS",
      "house": "",
      "postcode": "4810-662",
      "city": "SÃO TOMÉ ABAÇÃO",
      "lon": "-8.261694242745213",
      "lat": "41.399584880715665"
    },
    {
      "id": "pt.ine.add.PTCONT.687674",
      "street": "R CASAL DE ALEM",
      "house": "249",
      "postcode": "4810-671",
      "city": "SÃO TOMÉ ABAÇÃO",
      "lon": "-8.26461592477604",
      "lat": "41.40151743961139"
    },
    {
      "id": "pt.ine.add.PTCONT.696568",
      "street": "R DE CELÓRIOS",
      "house": "336",
      "postcode": "4810-662",
      "city": "SÃO TOMÉ ABAÇÃO",
      "lon": "-8.261899094959547",
      "lat": "41.40037700409373"
    },
    {
      "id": "pt.ine.add.PTCONT.699506",
      "street": "R DE CELÓRIOS",
      "house": "251",
      "postcode": "4810-662",
      "city": "SÃO TOMÉ ABAÇÃO",
      "lon": "-8.261959650995815",
      "lat": "41.40076410849422"
    },
    {
      "id": "pt.ine.add.PTCONT.699507",
      "street": "R DE CELÓRIOS",
      "house": "251",
      "postcode": "4810-662",
      "city": "SÃO TOMÉ ABAÇÃO",
      "lon": "-8.261959650995815",
      "lat": "41.40076410849422"
    },
    {
      "id": "pt.ine.add.PTCONT.717518",
      "street": "R DE CELÓRIOS",
      "house": "",
      "postcode": "4810-662",
      "city": "SÃO TOMÉ ABAÇÃO",
      "lon": "-8.262016969481154",
      "lat": "41.39951248756772"
    },
    {
      "id": "pt.ine.add.PTCONT.744512",
      "street": "R CELEIROS",
      "house": "162",
      "postcode": "4810-662",
      "city": "SÃO TOMÉ ABAÇÃO",
      "lon": "-8.261888576470184",
      "lat": "41.40110634021349"
    },
    {
      "id": "pt.ine.add.PTCONT.744517",
      "street": "R LIBERDADE",
      "house": "2948",
      "postcode": "4810-689",
      "city": "SÃO TOMÉ ABAÇÃO",
      "lon": "-8.261888576470184",
      "lat": "41.40110634021349"
    },
    {
      "id": "pt.ine.add.PTCONT.824188",
      "street": "R CASAL DE ALÉM",
      "house": "67",
      "postcode": "4810-671",
      "city": "SÃO TOMÉ ABAÇÃO",
      "lon": "-8.263983264105063",
      "lat": "41.40208541309784"
    },
    {
      "id": "pt.ine.add.PTCONT.824189",
      "street": "R CASAL DE ALÉM",
      "house": "51",
      "postcode": "4810-671",
      "city": "SÃO TOMÉ ABAÇÃO",
      "lon": "-8.263983264105063",
      "lat": "41.40208541309784"
    },
    {
      "id": "pt.ine.add.PTCONT.841822",
      "street": "R LIBERDADE",
      "house": "2982",
      "postcode": "4810-689",
      "city": "SÃO TOMÉ ABAÇÃO",
      "lon": "-8.261722863215436",
      "lat": "41.4019709098513"
    }
  ]
}