{
  "data": {
    "distrito": "Aveiro",
    "concelho": "Águeda",
    "freguesia": "União das freguesias de Travassô e Óis da Ribeira",
    "OBJECTID": 396,
    "BGRI2021": "01012500119",
    "DT21": "01",
    "DTMN21": "0101",
    "DTMNFR21": "010125",
    "DTMNFRSEC21": "010125001",
    "SECNUM21": "001",
    "SSNUM21": "19",
    "SECSSNUM21": "00119",
    "OBJECTID_1": 192,
    "DT": "01",
    "CC": "01",
    "fr": "25",
    "SEC": "001",
    "SS": "19"
  },
  "addresses": [
    {
      "id": "pt.ine.add.PTCONT.22414",
      "street": "R BANDA 12 DE ABRIL",
      "house": "27",
      "postcode": "3750-754",
      "city": "TRAVASSÔ",
      "lon": "-8.514679434006078",
      "lat": "40.60184622536605"
    },
    {
      "id": "pt.ine.add.PTCONT.26599",
      "street": "R BANDA 12 DE ABRIL",
      "house": "19",
      "postcode": "3750-755",
      "city": "TRAVASSÔ",
      "lon": "-8.514132231505755",
      "lat": "40.601190650048316"
    },
    {
      "id": "pt.ine.add.PTCONT.52567",
      "street": "R VARANDA PE PILATOS",
      "house": "1",
      "postcode": "3750-751",
      "city": "TRAVASSÔ",
      "lon": "-8.515287669599328",
      "lat": "40.60284379469675"
    },
    {
      "id": "pt.ine.add.PTCONT.128151",
      "street": "R BANDA 12 DE ABRIL",
      "house": "29",
      "postcode": "3750-755",
      "city": "TRAVASSÔ",
      "lon": "-8.514751294475838",
      "lat": "40.60201708728674"
    },
    {
      "id": "pt.ine.add.PTCONT.151746",
      "street": "R VALAS",
      "house": "5",
      "postcode": "3750-755",
      "city": "TRAVASSÔ",
      "lon": "-8.515769454680246",
      "lat": "40.60238293299495"
    },
    {
      "id": "pt.ine.add.PTCONT.187061",
      "street": "R VALAS",
      "house": "7",
      "postcode": "3750-755",
      "city": "TRAVASSÔ",
      "lon": "-8.515863098687484",
      "lat": "40.602229533853716"
    },
    {
      "id": "pt.ine.add.PTCONT.241102",
      "street": "R VALAS",
      "house": "15",
      "postcode": "3750-755",
      "city": "TRAVASSÔ",
      "lon": "-8.516547214932187",
      "lat": "40.602029149825206"
    },
    {
      "id": "pt.ine.add.PTCONT.262869",
      "street": "R VARANDA PE PILATOS",
      "house": "25",
      "postcode": "3750-751",
      "city": "TRAVASSÔ",
      "lon": "-8.521354645154972",
      "lat": "40.607947532148216"
    },
    {
      "id": "pt.ine.add.PTCONT.268262",
      "street": "R MATO",
      "house": "35",
      "postcode": "3750-755",
      "city": "TRAVASSÔ",
      "lon": "-8.515748817510048",
      "lat": "40.59669169493137"
    },
    {
      "id": "pt.ine.add.PTCONT.270919",
      "street": "TV VAARANDA DE PILATOS",
      "house": "7",
      "postcode": "3750-755",
      "city": "TRAVASSÔ",
      "lon": "-8.515998300797055",
      "lat": "40.60314761887562"
    }
  ]
}