{
  "data": {
    "distrito": "Castelo Branco",
    "concelho": "Fundão",
    "freguesia": "União das freguesias de Janeiro de Cima e Bogas de Baixo",
    "OBJECTID": 814,
    "BGRI2021": "05043300137",
    "DT21": "05",
    "DTMN21": "0504",
    "DTMNFR21": "050433",
    "DTMNFRSEC21": "050433001",
    "SECNUM21": "001",
    "SSNUM21": "37",
    "SECSSNUM21": "00137",
    "OBJECTID_1": 43196,
    "DT": "05",
    "CC": "04",
    "fr": "33",
    "SEC": "001",
    "SS": "37"
  },
  "addresses": [
    {
      "id": "pt.ine.add.PTCONT.955663",
      "street": "R CENTRO PAROQUIAL",
      "house": "12",
      "postcode": "6185-106",
      "city": "JANEIRO DE CIMA",
      "lon": "-7.79961023462174",
      "lat": "40.0666720480141"
    },
    {
      "id": "pt.ine.add.PTCONT.959884",
      "street": "LG IGREJA",
      "house": "11",
      "postcode": "6185-103",
      "city": "JANEIRO DE CIMA",
      "lon": "-7.7995518459783835",
      "lat": "40.0666268495773"
    },
    {
      "id": "pt.ine.add.PTCONT.962270",
      "street": "R CENTRO PAROQUIAL",
      "house": "22",
      "postcode": "6185-106",
      "city": "JANEIRO DE CIMA",
      "lon": "-7.800018518647537",
      "lat": "40.06707849566647"
    },
    {
      "id": "pt.ine.add.PTCONT.962695",
      "street": "R CENTRO PAROQUIAL",
      "house": "22",
      "postcode": "6185-106",
      "city": "JANEIRO DE CIMA",
      "lon": "-7.800018518647537",
      "lat": "40.06707849566647"
    },
    {
      "id": "pt.ine.add.PTCONT.965485",
      "street": "R LIVRAMENTO",
      "house": "7",
      "postcode": "6185-117",
      "city": "JANEIRO DE CIMA",
      "lon": "-7.799353193316305",
      "lat": "40.066500192498495"
    },
    {
      "id": "pt.ine.add.PTCONT.974567",
      "street": "LG IGREJA",
      "house": "",
      "postcode": "6185-103",
      "city": "JANEIRO DE CIMA",
      "lon": "-7.799890852227698",
      "lat": "40.06681695256335"
    },
    {
      "id": "pt.ine.add.PTCONT.981183",
      "street": "R LIVRAMENTO",
      "house": "1",
      "postcode": "6185-117",
      "city": "JANEIRO DE CIMA",
      "lon": "-7.799506013731477",
      "lat": "40.06641057195974"
    },
    {
      "id": "pt.ine.add.PTCONT.981740",
      "street": "R ESPÍRITO SANTO",
      "house": "",
      "postcode": "6185-114",
      "city": "JANEIRO DE CIMA",
      "lon": "-7.800054078551697",
      "lat": "40.06699754328666"
    },
    {
      "id": "pt.ine.add.PTCONT.989211",
      "street": "LG IGREJA",
      "house": "",
      "postcode": "6185-103",
      "city": "JANEIRO DE CIMA",
      "lon": "-7.799949065766577",
      "lat": "40.06689817459802"
    },
    {
      "id": "pt.ine.add.PTCONT.997647",
      "street": "R CENTRO PAROQUIAL",
      "house": "16",
      "postcode": "6185-106",
      "city": "JANEIRO DE CIMA",
      "lon": "-7.799773503754647",
      "lat": "40.06684363319083"
    },
    {
      "id": "pt.ine.add.PTCONT.1016417",
      "street": "LG IGREJA",
      "house": "13",
      "postcode": "6185-103",
      "city": "JANEIRO DE CIMA",
      "lon": "-7.799657823808034",
      "lat": "40.066528087896295"
    },
    {
      "id": "pt.ine.add.PTCONT.1020347",
      "street": "R CENTRO PAROQUIAL",
      "house": "18",
      "postcode": "6185-106",
      "city": "JANEIRO DE CIMA",
      "lon": "-7.799855116685193",
      "lat": "40.06693392866325"
    },
    {
      "id": "pt.ine.add.PTCONT.1024643",
      "street": "R CENTRO PAROQUIAL",
      "house": "6",
      "postcode": "6185-106",
      "city": "JANEIRO DE CIMA",
      "lon": "-7.799434937103256",
      "lat": "40.066563470441935"
    },
    {
      "id": "pt.ine.add.PTCONT.1030075",
      "street": "LG IGREJA",
      "house": "9",
      "postcode": "6185-103",
      "city": "JANEIRO DE CIMA",
      "lon": "-7.799680784081922",
      "lat": "40.06662722073482"
    },
    {
      "id": "pt.ine.add.PTCONT.1033494",
      "street": "R CENTRO PAROQUIAL",
      "house": "14",
      "postcode": "6185-106",
      "city": "JANEIRO DE CIMA",
      "lon": "-7.799773942712275",
      "lat": "40.066753573769546"
    },
    {
      "id": "pt.ine.add.PTCONT.1041537",
      "street": "R CENTRO PAROQUIAL",
      "house": "20",
      "postcode": "6185-106",
      "city": "JANEIRO DE CIMA",
      "lon": "-7.799901652446718",
      "lat": "40.067006111060145"
    },
    {
      "id": "pt.ine.add.PTCONT.1082049",
      "street": "R CENTRO PAROQUIAL",
      "house": "8",
      "postcode": "6185-106",
      "city": "JANEIRO DE CIMA",
      "lon": "-7.799516812829416",
      "lat": "40.06659973050108"
    },
    {
      "id": "pt.ine.add.PTCONT.1091474",
      "street": "LG IGREJA",
      "house": "15",
      "postcode": "6185-103",
      "city": "JANEIRO DE CIMA",
      "lon": "-7.799587757554027",
      "lat": "40.06647384979647"
    }
  ]
}