{
  "data": {
    "distrito": "Faro",
    "concelho": "Olhão",
    "freguesia": "Pechão",
    "OBJECTID": 219,
    "BGRI2021": "08100400116",
    "DT21": "08",
    "DTMN21": "0810",
    "DTMNFR21": "081004",
    "DTMNFRSEC21": "081004001",
    "SECNUM21": "001",
    "SSNUM21": "16",
    "SECSSNUM21": "00116",
    "OBJECTID_1": 70703,
    "DT": "08",
    "CC": "10",
    "fr": "04",
    "SEC": "001",
    "SS": "16"
  },
  "addresses": [
    {
      "id": "pt.ine.add.PTCONT.1466872",
      "street": "",
      "house": "",
      "postcode": "8700-174",
      "city": "OLHÃO",
      "lon": "-7.858369481492811",
      "lat": "37.03430414535063"
    },
    {
      "id": "pt.ine.add.PTCONT.1470747",
      "street": "",
      "house": "",
      "postcode": "8700-174",
      "city": "OLHÃO",
      "lon": "-7.85643100857085",
      "lat": "37.03575938134563"
    },
    {
      "id": "pt.ine.add.PTCONT.1496991",
      "street": "SIT BELMONTE BAIXO",
      "house": "",
      "postcode": "8700-173",
      "city": "OLHÃO",
      "lon": "-7.860700125731672",
      "lat": "37.03316515425017"
    },
    {
      "id": "pt.ine.add.PTCONT.1496992",
      "street": "",
      "house": "",
      "postcode": "8700-173",
      "city": "OLHÃO",
      "lon": "-7.860700125731672",
      "lat": "37.03316515425017"
    },
    {
      "id": "pt.ine.add.PTCONT.1500343",
      "street": "LUGAR SEM DESIGNACAO",
      "house": "700A",
      "postcode": "8700-173",
      "city": "OLHÃO",
      "lon": "-7.85714647329885",
      "lat": "37.03372461975039"
    },
    {
      "id": "pt.ine.add.PTCONT.1511394",
      "street": "SIT BELMONTE CIMA VALE SOBREIRO",
      "house": "",
      "postcode": "8700-174",
      "city": "OLHÃO",
      "lon": "-7.857296878841408",
      "lat": "37.03875296231347"
    },
    {
      "id": "pt.ine.add.PTCONT.1521637",
      "street": "R ARMAZENS MOVIFLOR",
      "house": "",
      "postcode": "8700-173",
      "city": "OLHÃO",
      "lon": "-7.859209352148249",
      "lat": "37.032035379268684"
    },
    {
      "id": "pt.ine.add.PTCONT.1532203",
      "street": "",
      "house": "",
      "postcode": "8700-173",
      "city": "OLHÃO",
      "lon": "-7.8584018916492715",
      "lat": "37.031546932368066"
    },
    {
      "id": "pt.ine.add.PTCONT.1534778",
      "street": "SIT BELMONTE BAIXO",
      "house": "CP109Z",
      "postcode": "8700-173",
      "city": "OLHÃO",
      "lon": "-7.8603526761042275",
      "lat": "37.03289403373449"
    },
    {
      "id": "pt.ine.add.PTCONT.1548848",
      "street": "",
      "house": "",
      "postcode": "8700-173",
      "city": "OLHÃO",
      "lon": "-7.857326269787192",
      "lat": "37.033734048506005"
    },
    {
      "id": "pt.ine.add.PTCONT.1560284",
      "street": "",
      "house": "",
      "postcode": "8700-174",
      "city": "OLHÃO",
      "lon": "-7.858464308430231",
      "lat": "37.03606145951407"
    },
    {
      "id": "pt.ine.add.PTCONT.1562957",
      "street": "CX 203 Z",
      "house": "",
      "postcode": "8700-173",
      "city": "OLHÃO",
      "lon": "-7.859710265352011",
      "lat": "37.03338814630878"
    },
    {
      "id": "pt.ine.add.PTCONT.1562958",
      "street": "",
      "house": "",
      "postcode": "8700-174",
      "city": "OLHÃO",
      "lon": "-7.861208580577598",
      "lat": "37.03871693698556"
    },
    {
      "id": "pt.ine.add.PTCONT.1598762",
      "street": "",
      "house": "",
      "postcode": "8700-173",
      "city": "OLHÃO",
      "lon": "-7.8556771020452505",
      "lat": "37.03599190027124"
    },
    {
      "id": "pt.ine.add.PTCONT.1612629",
      "street": "",
      "house": "",
      "postcode": "8700-173",
      "city": "OLHÃO",
      "lon": "-7.85779445034913",
      "lat": "37.03480741412476"
    },
    {
      "id": "pt.ine.add.PTCONT.1629651",
      "street": "",
      "house": "",
      "postcode": "8700-173",
      "city": "OLHÃO",
      "lon": "-7.859366149349287",
      "lat": "37.03218892378458"
    },
    {
      "id": "pt.ine.add.PTCONT.1688116",
      "street": "",
      "house": "",
      "postcode": "8700-174",
      "city": "OLHÃO",
      "lon": "-7.856825570334286",
      "lat": "37.03543591404151"
    },
    {
      "id": "pt.ine.add.PTCONT.1710885",
      "street": "",
      "house": "",
      "postcode": "8700-173",
      "city": "OLHÃO",
      "lon": "-7.859545425411819",
      "lat": "37.03234251991587"
    },
    {
      "id": "pt.ine.add.PTCONT.1751776",
      "street": "",
      "house": "",
      "postcode": "8700-174",
      "city": "OLHÃO",
      "lon": "-7.857769189048461",
      "lat": "37.03869098411531"
    },
    {
      "id": "pt.ine.add.PTCONT.1751777",
      "street": "",
      "house": "",
      "postcode": "8700-173",
      "city": "OLHÃO",
      "lon": "-7.85830321391937",
      "lat": "37.03397960513883"
    },
    {
      "id": "pt.ine.add.PTCONT.1767984",
      "street": "",
      "house": "",
      "postcode": "8700-173",
      "city": "OLHÃO",
      "lon": "-7.859736264300627",
      "lat": "37.032406034951215"
    },
    {
      "id": "pt.ine.add.PTCONT.1802849",
      "street": "",
      "house": "",
      "postcode": "8700-173",
      "city": "OLHÃO",
      "lon": "-7.860587958732621",
      "lat": "37.03310182147679"
    },
    {
      "id": "pt.ine.add.PTCONT.1822954",
      "street": "SIT BELMONTE",
      "house": "",
      "postcode": "8700-174",
      "city": "OLHÃO",
      "lon": "-7.860799520146469",
      "lat": "37.0368057223732"
    },
    {
      "id": "pt.ine.add.PTCONT.1828789",
      "street": "",
      "house": "",
      "postcode": "8700-174",
      "city": "OLHÃO",
      "lon": "-7.856052408162655",
      "lat": "37.037876021548314"
    },
    {
      "id": "pt.ine.add.PTCONT.1838256",
      "street": "",
      "house": "",
      "postcode": "8700-173",
      "city": "OLHÃO",
      "lon": "-7.860532084624428",
      "lat": "37.03301158568594"
    },
    {
      "id": "pt.ine.add.PTCONT.1839249",
      "street": "LUGAR SEM DESIGNACAO",
      "house": "700A",
      "postcode": "8700-173",
      "city": "OLHÃO",
      "lon": "-7.85714647329885",
      "lat": "37.03372461975039"
    }
  ]
}