{
  "data": {
    "distrito": "Faro",
    "concelho": "Loulé",
    "freguesia": "União de freguesias de Querença, Tôr e Benafim",
    "OBJECTID": 392,
    "BGRI2021": "08081200103",
    "DT21": "08",
    "DTMN21": "0808",
    "DTMNFR21": "080812",
    "DTMNFRSEC21": "080812001",
    "SECNUM21": "001",
    "SSNUM21": "03",
    "SECSSNUM21": "00103",
    "OBJECTID_1": 68299,
    "DT": "08",
    "CC": "08",
    "fr": "12",
    "SEC": "001",
    "SS": "03"
  },
  "addresses": [
    {
      "id": "pt.ine.add.PTCONT.1482303",
      "street": "CAM POMBAL VISTA O MONTE",
      "house": "",
      "postcode": "8100-124",
      "city": "QUERENÇA",
      "lon": "-7.989875892789921",
      "lat": "37.19935835305202"
    },
    {
      "id": "pt.ine.add.PTCONT.1487976",
      "street": "LG IGREJA NOSSA SENHORA DA ASSUNÇÃO",
      "house": "",
      "postcode": "8100-129",
      "city": "QUERENÇA",
      "lon": "-7.98701490893811",
      "lat": "37.199327827932905"
    },
    {
      "id": "pt.ine.add.PTCONT.1488048",
      "street": "CAM POMBAL",
      "house": "",
      "postcode": "8100-124",
      "city": "QUERENÇA",
      "lon": "-7.992270555016574",
      "lat": "37.2018120830923"
    },
    {
      "id": "pt.ine.add.PTCONT.1499521",
      "street": "R PROF DR MANUEL VIEGAS GUERREIRO",
      "house": "",
      "postcode": "8100-129",
      "city": "QUERENÇA",
      "lon": "-7.988322228817646",
      "lat": "37.19896000186299"
    },
    {
      "id": "pt.ine.add.PTCONT.1502176",
      "street": "AZ PROF DR MANUEL GOMES GUERREIRO",
      "house": "",
      "postcode": "8100-129",
      "city": "QUERENÇA",
      "lon": "-7.987262195041973",
      "lat": "37.19959844799171"
    },
    {
      "id": "pt.ine.add.PTCONT.1505492",
      "street": "R PROF DR MANUEL VIEGAS GUERREIRO CASA FARIAS",
      "house": "",
      "postcode": "8100-129",
      "city": "QUERENÇA",
      "lon": "-7.987916729788665",
      "lat": "37.198959505589556"
    },
    {
      "id": "pt.ine.add.PTCONT.1513832",
      "street": "CAM POMBAL",
      "house": "",
      "postcode": "8100-124",
      "city": "QUERENÇA",
      "lon": "-7.992709461708079",
      "lat": "37.202028856291804"
    },
    {
      "id": "pt.ine.add.PTCONT.1581257",
      "street": "LG IGREJA NOSSA SENHORA DA ASSUNÇÃO",
      "house": "",
      "postcode": "8100-129",
      "city": "QUERENÇA",
      "lon": "-7.987544503316594",
      "lat": "37.199229364199944"
    },
    {
      "id": "pt.ine.add.PTCONT.1595360",
      "street": "CAM POMBAL CASA DO MATINHO",
      "house": "",
      "postcode": "8100-124",
      "city": "QUERENÇA",
      "lon": "-7.991257915725156",
      "lat": "37.20119816023701"
    },
    {
      "id": "pt.ine.add.PTCONT.1609657",
      "street": "LG IGREJA NOSSA SENHORA DA ASSUNÇÃO",
      "house": "",
      "postcode": "8100-129",
      "city": "QUERENÇA",
      "lon": "-7.987871070155963",
      "lat": "37.19927481757054"
    },
    {
      "id": "pt.ine.add.PTCONT.1635730",
      "street": "LG IGREJA NOSSA SENHORA DA ASSUNÇÃO",
      "house": "",
      "postcode": "8100-129",
      "city": "QUERENÇA",
      "lon": "-7.987589766475009",
      "lat": "37.19912129365434"
    },
    {
      "id": "pt.ine.add.PTCONT.1682448",
      "street": "MTE FIGUEIRAS",
      "house": "",
      "postcode": "8100-129",
      "city": "QUERENÇA",
      "lon": "-7.990594886636766",
      "lat": "37.200368397502224"
    },
    {
      "id": "pt.ine.add.PTCONT.1699384",
      "street": "CAM POMBAL",
      "house": "",
      "postcode": "8100-124",
      "city": "QUERENÇA",
      "lon": "-7.9922813505851495",
      "lat": "37.20206439017804"
    },
    {
      "id": "pt.ine.add.PTCONT.1704730",
      "street": "CAM POMBAL",
      "house": "",
      "postcode": "8100-124",
      "city": "QUERENÇA",
      "lon": "-7.992090996912171",
      "lat": "37.20145144911052"
    },
    {
      "id": "pt.ine.add.PTCONT.1707708",
      "street": "CAM POMBAL",
      "house": "",
      "postcode": "8100-124",
      "city": "QUERENÇA",
      "lon": "-7.992090544326499",
      "lat": "37.20169473232916"
    },
    {
      "id": "pt.ine.add.PTCONT.1708773",
      "street": "PASSEIO DA AZINHAGA",
      "house": "",
      "postcode": "8100-129",
      "city": "QUERENÇA",
      "lon": "-7.987564297830817",
      "lat": "37.20065304934285"
    },
    {
      "id": "pt.ine.add.PTCONT.1748768",
      "street": "LG IGREJA NOSSA SENHORA DA ASSUNÇÃO",
      "house": "",
      "postcode": "8100-129",
      "city": "QUERENÇA",
      "lon": "-7.987465500208",
      "lat": "37.19931036171421"
    },
    {
      "id": "pt.ine.add.PTCONT.1751547",
      "street": "CAM POMBAL CASA MIRADOURO",
      "house": "",
      "postcode": "8100-124",
      "city": "QUERENÇA",
      "lon": "-7.991281405041042",
      "lat": "37.200684589267205"
    },
    {
      "id": "pt.ine.add.PTCONT.1755298",
      "street": "CAM POMBAL",
      "house": "",
      "postcode": "8100-124",
      "city": "QUERENÇA",
      "lon": "-7.992427669755622",
      "lat": "37.20212763758794"
    },
    {
      "id": "pt.ine.add.PTCONT.1772972",
      "street": "R PROF DR MANUEL VIEGAS GUERREIRO",
      "house": "",
      "postcode": "8100-129",
      "city": "QUERENÇA",
      "lon": "-7.988187062473549",
      "lat": "37.198959836592714"
    },
    {
      "id": "pt.ine.add.PTCONT.1779017",
      "street": "PASSEIO DA AZINHAGA",
      "house": "",
      "postcode": "8100-129",
      "city": "QUERENÇA",
      "lon": "-7.98775753270949",
      "lat": "37.19974322495912"
    },
    {
      "id": "pt.ine.add.PTCONT.1779018",
      "street": "PASSEIO DA AZINHAGA",
      "house": "",
      "postcode": "8100-129",
      "city": "QUERENÇA",
      "lon": "-7.98775753270949",
      "lat": "37.19974322495912"
    },
    {
      "id": "pt.ine.add.PTCONT.1790665",
      "street": "SIT MONTE DAS FIGUEIRAS DE CIMA",
      "house": "",
      "postcode": "8100-121",
      "city": "QUERENÇA",
      "lon": "-7.990065169195214",
      "lat": "37.200529948277136"
    },
    {
      "id": "pt.ine.add.PTCONT.1802515",
      "street": "LG IGREJA NOSSA SENHORA DA ASSUNÇÃO",
      "house": "",
      "postcode": "8100-129",
      "city": "QUERENÇA",
      "lon": "-7.987623402504552",
      "lat": "37.19920242958035"
    },
    {
      "id": "pt.ine.add.PTCONT.1805402",
      "street": "R PROF DR MANUEL VIEGAS GUERREIRO QTA VIVIEN",
      "house": "",
      "postcode": "8100-129",
      "city": "QUERENÇA",
      "lon": "-7.988727659214226",
      "lat": "37.19899653871737"
    },
    {
      "id": "pt.ine.add.PTCONT.1814041",
      "street": "LG IGREJA NOSSA SENHORA DA ASSUNÇÃO",
      "house": "",
      "postcode": "8100-129",
      "city": "QUERENÇA",
      "lon": "-7.9878821614517586",
      "lat": "37.19936493629268"
    },
    {
      "id": "pt.ine.add.PTCONT.1825752",
      "street": "R PROF DR MANUEL VIEGAS GUERREIRO",
      "house": "",
      "postcode": "8100-129",
      "city": "QUERENÇA",
      "lon": "-7.987713962996844",
      "lat": "37.19896826742418"
    },
    {
      "id": "pt.ine.add.PTCONT.1828451",
      "street": "R PROF DR MANUEL VIEGAS GUERREIRO",
      "house": "",
      "postcode": "8100-129",
      "city": "QUERENÇA",
      "lon": "-7.988006823436885",
      "lat": "37.198968626484444"
    },
    {
      "id": "pt.ine.add.PTCONT.1842178",
      "street": "R PROF DR MANUEL VIEGAS GUERREIRO",
      "house": "",
      "postcode": "8100-129",
      "city": "QUERENÇA",
      "lon": "-7.988412253723973",
      "lat": "37.19900516441791"
    },
    {
      "id": "pt.ine.add.PTCONT.1845005",
      "street": "PASSEIO DA AZINHAGA",
      "house": "",
      "postcode": "8100-129",
      "city": "QUERENÇA",
      "lon": "-7.987564297830817",
      "lat": "37.20065304934285"
    }
  ]
}