{
  "data": {
    "distrito": "Faro",
    "concelho": "Loulé",
    "freguesia": "União de freguesias de Querença, Tôr e Benafim",
    "OBJECTID": 783,
    "BGRI2021": "08081200112",
    "DT21": "08",
    "DTMN21": "0808",
    "DTMNFR21": "080812",
    "DTMNFRSEC21": "080812001",
    "SECNUM21": "001",
    "SSNUM21": "12",
    "SECSSNUM21": "00112",
    "OBJECTID_1": 69968,
    "DT": "08",
    "CC": "08",
    "fr": "12",
    "SEC": "001",
    "SS": "12"
  },
  "addresses": [
    {
      "id": "pt.ine.add.PTCONT.1516827",
      "street": "SIT PORTELA DO MONTE",
      "house": "",
      "postcode": "8100-127",
      "city": "QUERENÇA",
      "lon": "-7.993083426658892",
      "lat": "37.206912992735525"
    },
    {
      "id": "pt.ine.add.PTCONT.1551767",
      "street": "SIT VÁRZEA REDONDA",
      "house": "",
      "postcode": "8100-132",
      "city": "QUERENÇA",
      "lon": "-7.990434376860548",
      "lat": "37.2078469238651"
    },
    {
      "id": "pt.ine.add.PTCONT.1561794",
      "street": "SIT FONTE BENEMOLA",
      "house": "",
      "postcode": "8100-129",
      "city": "QUERENÇA",
      "lon": "-8.002614558234464",
      "lat": "37.20640126639211"
    },
    {
      "id": "pt.ine.add.PTCONT.1587371",
      "street": "SIT PORTELA DO MONTE",
      "house": "",
      "postcode": "8100-127",
      "city": "QUERENÇA",
      "lon": "-7.995380186274199",
      "lat": "37.20763652544479"
    },
    {
      "id": "pt.ine.add.PTCONT.1592623",
      "street": "SIT PORTELA DO MONTE",
      "house": "",
      "postcode": "8100-127",
      "city": "QUERENÇA",
      "lon": "-7.993566678923598",
      "lat": "37.20753528755138"
    },
    {
      "id": "pt.ine.add.PTCONT.1635727",
      "street": "SIT PIRINEU",
      "house": "",
      "postcode": "8100-123",
      "city": "QUERENÇA",
      "lon": "-7.99124197853836",
      "lat": "37.20971306698618"
    },
    {
      "id": "pt.ine.add.PTCONT.1676067",
      "street": "SIT PIRINEU",
      "house": "",
      "postcode": "8100-123",
      "city": "QUERENÇA",
      "lon": "-7.9911639135494585",
      "lat": "37.20928948009224"
    },
    {
      "id": "pt.ine.add.PTCONT.1707703",
      "street": "SIT PIRINEU",
      "house": "",
      "postcode": "8100-123",
      "city": "QUERENÇA",
      "lon": "-7.991590433812591",
      "lat": "37.21012796664344"
    },
    {
      "id": "pt.ine.add.PTCONT.1742697",
      "street": "SIT PIRINEU",
      "house": "",
      "postcode": "8100-123",
      "city": "QUERENÇA",
      "lon": "-7.991928382732837",
      "lat": "37.21013738040149"
    },
    {
      "id": "pt.ine.add.PTCONT.1820341",
      "street": "SIT FONTE BENEMOLA",
      "house": "",
      "postcode": "8100-129",
      "city": "QUERENÇA",
      "lon": "-8.002794797829758",
      "lat": "37.206401464803925"
    }
  ]
}