{
  "data": {
    "distrito": "Setúbal",
    "concelho": "Santiago do Cacém",
    "freguesia": "Santo André",
    "OBJECTID": 284,
    "BGRI2021": "15090700816",
    "DT21": "15",
    "DTMN21": "1509",
    "DTMNFR21": "150907",
    "DTMNFRSEC21": "150907008",
    "SECNUM21": "008",
    "SSNUM21": "16",
    "SECSSNUM21": "00816",
    "OBJECTID_1": 166446,
    "DT": "15",
    "CC": "09",
    "fr": "07",
    "SEC": "008",
    "SS": "16"
  },
  "addresses": [
    {
      "id": "pt.ine.add.PTCONT.4743730",
      "street": "URB ADÍLIA DOMINGAS",
      "house": "",
      "postcode": "7500-018",
      "city": "VILA NOVA DE SANTO ANDRÉ",
      "lon": "-8.746683129821342",
      "lat": "38.06968188409303"
    },
    {
      "id": "pt.ine.add.PTCONT.4748996",
      "street": "SIT DEIXA O RESTO",
      "house": "4",
      "postcode": "7500-018",
      "city": "VILA NOVA DE SANTO ANDRÉ",
      "lon": "-8.747112850341434",
      "lat": "38.06937512733978"
    },
    {
      "id": "pt.ine.add.PTCONT.4770705",
      "street": "SIT DEIXA O RESTO",
      "house": "7",
      "postcode": "7500-018",
      "city": "VILA NOVA DE SANTO ANDRÉ",
      "lon": "-8.746593833444638",
      "lat": "38.0692691270201"
    },
    {
      "id": "pt.ine.add.PTCONT.4776474",
      "street": "EN 261",
      "house": "CP 1422",
      "postcode": "7500-018",
      "city": "VILA NOVA DE SANTO ANDRÉ",
      "lon": "-8.747841841537474",
      "lat": "38.0685172629462"
    },
    {
      "id": "pt.ine.add.PTCONT.4779497",
      "street": "EN 261",
      "house": "CP 1422",
      "postcode": "7500-018",
      "city": "VILA NOVA DE SANTO ANDRÉ",
      "lon": "-8.747841841537474",
      "lat": "38.0685172629462"
    },
    {
      "id": "pt.ine.add.PTCONT.4791482",
      "street": "",
      "house": "",
      "postcode": "7500-018",
      "city": "VILA NOVA DE SANTO ANDRÉ",
      "lon": "-8.746130230348237",
      "lat": "38.06987481896321"
    },
    {
      "id": "pt.ine.add.PTCONT.4794893",
      "street": "EN 261",
      "house": "",
      "postcode": "7500-018",
      "city": "VILA NOVA DE SANTO ANDRÉ",
      "lon": "-8.747607992792949",
      "lat": "38.06976606178884"
    },
    {
      "id": "pt.ine.add.PTCONT.4815055",
      "street": "",
      "house": "",
      "postcode": "7500-018",
      "city": "VILA NOVA DE SANTO ANDRÉ",
      "lon": "-8.746465429704132",
      "lat": "38.06999018798079"
    },
    {
      "id": "pt.ine.add.PTCONT.4815056",
      "street": "",
      "house": "",
      "postcode": "7500-018",
      "city": "VILA NOVA DE SANTO ANDRÉ",
      "lon": "-8.746263630482336",
      "lat": "38.06993119912084"
    },
    {
      "id": "pt.ine.add.PTCONT.4815057",
      "street": "SIT DEIXA O RESTO",
      "house": "5",
      "postcode": "7500-018",
      "city": "VILA NOVA DE SANTO ANDRÉ",
      "lon": "-8.746938527269315",
      "lat": "38.06933339529152"
    },
    {
      "id": "pt.ine.add.PTCONT.4830111",
      "street": "EN 261",
      "house": "",
      "postcode": "7500-018",
      "city": "VILA NOVA DE SANTO ANDRÉ",
      "lon": "-8.747559107321779",
      "lat": "38.06996656809993"
    },
    {
      "id": "pt.ine.add.PTCONT.4907172",
      "street": "LOTEAM ANTONIO CIPRIANO E OUTRO DEIXA O RESTO",
      "house": "",
      "postcode": "7500-018",
      "city": "VILA NOVA DE SANTO ANDRÉ",
      "lon": "-8.746956933384796",
      "lat": "38.06908105169156"
    },
    {
      "id": "pt.ine.add.PTCONT.4909716",
      "street": "",
      "house": "",
      "postcode": "7500-018",
      "city": "VILA NOVA DE SANTO ANDRÉ",
      "lon": "-8.746956933384796",
      "lat": "38.06908105169156"
    },
    {
      "id": "pt.ine.add.PTCONT.4967934",
      "street": "",
      "house": "CP 1556",
      "postcode": "7500-018",
      "city": "VILA NOVA DE SANTO ANDRÉ",
      "lon": "-8.745935905907949",
      "lat": "38.06980375984789"
    },
    {
      "id": "pt.ine.add.PTCONT.4966110",
      "street": "CAIXA POSTAL 1463",
      "house": "",
      "postcode": "7500-018",
      "city": "VILA NOVA DE SANTO ANDRÉ",
      "lon": "-8.746820636326499",
      "lat": "38.06931779281484"
    },
    {
      "id": "pt.ine.add.PTCONT.5010922",
      "street": "URB VALE DE QUEM TEM CAIXA POSTAL 1530",
      "house": "",
      "postcode": "7500-018",
      "city": "VILA NOVA DE SANTO ANDRÉ",
      "lon": "-8.747003105856244",
      "lat": "38.06978832198994"
    },
    {
      "id": "pt.ine.add.PTCONT.5017162",
      "street": "SIT DEIXA O RESTO",
      "house": "2",
      "postcode": "7500-018",
      "city": "VILA NOVA DE SANTO ANDRÉ",
      "lon": "-8.747267376306672",
      "lat": "38.06941095803767"
    },
    {
      "id": "pt.ine.add.PTCONT.5031566",
      "street": "",
      "house": "",
      "postcode": "7500-018",
      "city": "VILA NOVA DE SANTO ANDRÉ",
      "lon": "-8.746316520097471",
      "lat": "38.06944956174677"
    },
    {
      "id": "pt.ine.add.PTCONT.5041326",
      "street": "",
      "house": "CP 1414",
      "postcode": "7500-018",
      "city": "VILA NOVA DE SANTO ANDRÉ",
      "lon": "-8.747585905892107",
      "lat": "38.06943511943881"
    },
    {
      "id": "pt.ine.add.PTCONT.5103931",
      "street": "LOTEAM VALE DE QUEM TEM",
      "house": "",
      "postcode": "7500-018",
      "city": "VILA NOVA DE SANTO ANDRÉ",
      "lon": "-8.7467047166683",
      "lat": "38.06953762639075"
    },
    {
      "id": "pt.ine.add.PTCONT.5122484",
      "street": "",
      "house": "",
      "postcode": "7500-018",
      "city": "VILA NOVA DE SANTO ANDRÉ",
      "lon": "-8.74615736023147",
      "lat": "38.06949543734405"
    }
  ]
}