{
  "data": {
    "distrito": "Setúbal",
    "concelho": "Santiago do Cacém",
    "freguesia": "Santo André",
    "OBJECTID": 832,
    "BGRI2021": "15090700827",
    "DT21": "15",
    "DTMN21": "1509",
    "DTMNFR21": "150907",
    "DTMNFRSEC21": "150907008",
    "SECNUM21": "008",
    "SSNUM21": "27",
    "SECSSNUM21": "00827",
    "OBJECTID_1": 166237,
    "DT": "15",
    "CC": "09",
    "fr": "07",
    "SEC": "008",
    "SS": "27"
  },
  "addresses": [
    {
      "id": "pt.ine.add.PTCONT.4693905",
      "street": "MTE JUDIA",
      "house": "",
      "postcode": "7500-020",
      "city": "VILA NOVA DE SANTO ANDRÉ",
      "lon": "-8.76942415927472",
      "lat": "38.07565108261247"
    },
    {
      "id": "pt.ine.add.PTCONT.4759622",
      "street": "",
      "house": "",
      "postcode": "7500-020",
      "city": "VILA NOVA DE SANTO ANDRÉ",
      "lon": "-8.768406053834479",
      "lat": "38.07492042802996"
    },
    {
      "id": "pt.ine.add.PTCONT.4812932",
      "street": "",
      "house": "",
      "postcode": "7500-020",
      "city": "VILA NOVA DE SANTO ANDRÉ",
      "lon": "-8.77076064314322",
      "lat": "38.07786984355872"
    },
    {
      "id": "pt.ine.add.PTCONT.4785614",
      "street": "",
      "house": "",
      "postcode": "7500-020",
      "city": "VILA NOVA DE SANTO ANDRÉ",
      "lon": "-8.770508198272676",
      "lat": "38.0744920506476"
    },
    {
      "id": "pt.ine.add.PTCONT.4809054",
      "street": "",
      "house": "",
      "postcode": "7500-020",
      "city": "VILA NOVA DE SANTO ANDRÉ",
      "lon": "-8.768089591593554",
      "lat": "38.07457736204915"
    },
    {
      "id": "pt.ine.add.PTCONT.4812933",
      "street": "",
      "house": "",
      "postcode": "7500-020",
      "city": "VILA NOVA DE SANTO ANDRÉ",
      "lon": "-8.76828852083086",
      "lat": "38.07480136641124"
    },
    {
      "id": "pt.ine.add.PTCONT.4819948",
      "street": "",
      "house": "",
      "postcode": "7500-020",
      "city": "VILA NOVA DE SANTO ANDRÉ",
      "lon": "-8.769559666014342",
      "lat": "38.07550620415959"
    },
    {
      "id": "pt.ine.add.PTCONT.4840835",
      "street": "",
      "house": "CX 2004",
      "postcode": "7500-020",
      "city": "VILA NOVA DE SANTO ANDRÉ",
      "lon": "-8.770786980841649",
      "lat": "38.077792528313736"
    },
    {
      "id": "pt.ine.add.PTCONT.4886109",
      "street": "",
      "house": "",
      "postcode": "7500-020",
      "city": "VILA NOVA DE SANTO ANDRÉ",
      "lon": "-8.769964552042373",
      "lat": "38.076197707226626"
    },
    {
      "id": "pt.ine.add.PTCONT.4937183",
      "street": "",
      "house": "",
      "postcode": "7500-020",
      "city": "VILA NOVA DE SANTO ANDRÉ",
      "lon": "-8.770316606181176",
      "lat": "38.07736697446344"
    },
    {
      "id": "pt.ine.add.PTCONT.4987781",
      "street": "MTE NOVO JUDIA",
      "house": "",
      "postcode": "7500-020",
      "city": "VILA NOVA DE SANTO ANDRÉ",
      "lon": "-8.77053247615265",
      "lat": "38.07466309084116"
    },
    {
      "id": "pt.ine.add.PTCONT.5031704",
      "street": "",
      "house": "",
      "postcode": "7500-020",
      "city": "VILA NOVA DE SANTO ANDRÉ",
      "lon": "-8.76832908742122",
      "lat": "38.07472164232874"
    },
    {
      "id": "pt.ine.add.PTCONT.5106946",
      "street": "",
      "house": "",
      "postcode": "7500-020",
      "city": "VILA NOVA DE SANTO ANDRÉ",
      "lon": "-8.771242782938755",
      "lat": "38.07771330176299"
    }
  ]
}