{
  "data": {
    "distrito": "Viseu",
    "concelho": "Tondela",
    "freguesia": "Castelões",
    "OBJECTID": 579,
    "BGRI2021": "18210500222",
    "DT21": "18",
    "DTMN21": "1821",
    "DTMNFR21": "182105",
    "DTMNFRSEC21": "182105002",
    "SECNUM21": "002",
    "SSNUM21": "22",
    "SECSSNUM21": "00222",
    "OBJECTID_1": 199999,
    "DT": "18",
    "CC": "21",
    "fr": "05",
    "SEC": "002",
    "SS": "22"
  },
  "addresses": [
    {
      "id": "pt.ine.add.PTCONT.5429937",
      "street": "R POUSADAS",
      "house": "192",
      "postcode": "3465-131",
      "city": "CASTELÕES TND",
      "lon": "-8.162426389270031",
      "lat": "40.533212905407595"
    },
    {
      "id": "pt.ine.add.PTCONT.5432164",
      "street": "R POUSADAS",
      "house": "106",
      "postcode": "3465-131",
      "city": "CASTELÕES TND",
      "lon": "-8.161541178565793",
      "lat": "40.533204121253654"
    },
    {
      "id": "pt.ine.add.PTCONT.5480940",
      "street": "R POUSADAS",
      "house": "84",
      "postcode": "3465-131",
      "city": "CASTELÕES TND",
      "lon": "-8.161257886014713",
      "lat": "40.53314115305016"
    },
    {
      "id": "pt.ine.add.PTCONT.5497959",
      "street": "R MALHADA",
      "house": "32",
      "postcode": "3465-131",
      "city": "CASTELÕES TND",
      "lon": "-8.162734649216434",
      "lat": "40.53636470415933"
    },
    {
      "id": "pt.ine.add.PTCONT.5519550",
      "street": "R POUSADAS",
      "house": "42",
      "postcode": "3465-131",
      "city": "CASTELÕES TND",
      "lon": "-8.160738494904017",
      "lat": "40.53297017644801"
    },
    {
      "id": "pt.ine.add.PTCONT.5568418",
      "street": "R FUNDO DA ALDEIA",
      "house": "32",
      "postcode": "3465-131",
      "city": "CASTELÕES TND",
      "lon": "-8.162899396993637",
      "lat": "40.535238991506816"
    },
    {
      "id": "pt.ine.add.PTCONT.5572171",
      "street": "R POUSADAS",
      "house": "234",
      "postcode": "3465-131",
      "city": "CASTELÕES TND",
      "lon": "-8.162969320160075",
      "lat": "40.53322177174133"
    },
    {
      "id": "pt.ine.add.PTCONT.5581296",
      "street": "R MALHADA",
      "house": "103",
      "postcode": "3465-131",
      "city": "CASTELÕES TND",
      "lon": "-8.162935632989265",
      "lat": "40.53710309204525"
    },
    {
      "id": "pt.ine.add.PTCONT.5596282",
      "street": "R POUSADAS",
      "house": "148",
      "postcode": "3465-131",
      "city": "CASTELÕES TND",
      "lon": "-8.161883497044427",
      "lat": "40.533294090176625"
    },
    {
      "id": "pt.ine.add.PTCONT.5606916",
      "street": "R PEREIRO DA LATA",
      "house": "",
      "postcode": "3465-131",
      "city": "CASTELÕES TND",
      "lon": "-8.165707761202611",
      "lat": "40.53363527844072"
    },
    {
      "id": "pt.ine.add.PTCONT.5610677",
      "street": "R FUNDO DA ALDEIA",
      "house": "23",
      "postcode": "3465-131",
      "city": "CASTELÕES TND",
      "lon": "-8.162073434955014",
      "lat": "40.53583355545147"
    },
    {
      "id": "pt.ine.add.PTCONT.5618413",
      "street": "R POUSADAS",
      "house": "2",
      "postcode": "3465-131",
      "city": "CASTELÕES TND",
      "lon": "-8.160372541353127",
      "lat": "40.53279916140369"
    },
    {
      "id": "pt.ine.add.PTCONT.5618414",
      "street": "R PEREIRO DA LATA",
      "house": "88",
      "postcode": "3465-131",
      "city": "CASTELÕES TND",
      "lon": "-8.164704127066283",
      "lat": "40.53279805816255"
    },
    {
      "id": "pt.ine.add.PTCONT.5644864",
      "street": "R POUSADAS",
      "house": "176",
      "postcode": "3465-131",
      "city": "CASTELÕES TND",
      "lon": "-8.162060538637325",
      "lat": "40.53329404595226"
    },
    {
      "id": "pt.ine.add.PTCONT.5644865",
      "street": "R POUSADAS",
      "house": "358",
      "postcode": "3465-131",
      "city": "CASTELÕES TND",
      "lon": "-8.16392505492997",
      "lat": "40.53259114512042"
    },
    {
      "id": "pt.ine.add.PTCONT.5646835",
      "street": "R MALHADA",
      "house": "",
      "postcode": "3465-131",
      "city": "CASTELÕES TND",
      "lon": "-8.16285294517941",
      "lat": "40.53695902759393"
    },
    {
      "id": "pt.ine.add.PTCONT.5649154",
      "street": "R EIRA VELHA",
      "house": "379",
      "postcode": "3465-131",
      "city": "CASTELÕES TND",
      "lon": "-8.160691405897401",
      "lat": "40.533267364795236"
    },
    {
      "id": "pt.ine.add.PTCONT.5655972",
      "street": "R CASTELO",
      "house": "121",
      "postcode": "3465-131",
      "city": "CASTELÕES TND",
      "lon": "-8.163053719524267",
      "lat": "40.53722013118479"
    }
  ]
}