{
  "data": {
    "distrito": "Viana do Castelo",
    "concelho": "Valença",
    "freguesia": "União das freguesias de Valença, Cristelo Covo e Arão",
    "OBJECTID": 494,
    "BGRI2021": "16082000205",
    "DT21": "16",
    "DTMN21": "1608",
    "DTMNFR21": "160820",
    "DTMNFRSEC21": "160820002",
    "SECNUM21": "002",
    "SSNUM21": "05",
    "SECSSNUM21": "00205",
    "OBJECTID_1": 177388,
    "DT": "16",
    "CC": "08",
    "fr": "20",
    "SEC": "002",
    "SS": "05"
  },
  "addresses": [
    {
      "id": "pt.ine.add.PTCONT.5143375",
      "street": "R ARREQUEIXO",
      "house": "9",
      "postcode": "4930-008",
      "city": "ARÃO",
      "lon": "-8.6455094763422",
      "lat": "42.008853345194545"
    },
    {
      "id": "pt.ine.add.PTCONT.5143993",
      "street": "R ARREQUEIXO",
      "house": "7",
      "postcode": "4930-008",
      "city": "ARÃO",
      "lon": "-8.645257066754356",
      "lat": "42.00898951683029"
    },
    {
      "id": "pt.ine.add.PTCONT.5143994",
      "street": "R ARREQUEIXO",
      "house": "11",
      "postcode": "4930-008",
      "city": "ARÃO",
      "lon": "-8.645654040280595",
      "lat": "42.00881668773881"
    },
    {
      "id": "pt.ine.add.PTCONT.5158242",
      "street": "R PORTELA",
      "house": "4",
      "postcode": "4930-019",
      "city": "ARÃO",
      "lon": "-8.643929964609105",
      "lat": "42.00908546036902"
    },
    {
      "id": "pt.ine.add.PTCONT.5161018",
      "street": "R ARREQUEIXO",
      "house": "15A",
      "postcode": "4930-008",
      "city": "ARÃO",
      "lon": "-8.645528055187455",
      "lat": "42.00816003022592"
    },
    {
      "id": "pt.ine.add.PTCONT.5168392",
      "street": "R PORTELA",
      "house": "2",
      "postcode": "4930-019",
      "city": "ARÃO",
      "lon": "-8.643858330002073",
      "lat": "42.00918481226766"
    },
    {
      "id": "pt.ine.add.PTCONT.5170684",
      "street": "R ARREQUEIXO",
      "house": "",
      "postcode": "4930-008",
      "city": "ARÃO",
      "lon": "-8.645737887294954",
      "lat": "42.00873528620459"
    },
    {
      "id": "pt.ine.add.PTCONT.5194397",
      "street": "R PORTELA",
      "house": "6",
      "postcode": "4930-019",
      "city": "ARÃO",
      "lon": "-8.644098239945308",
      "lat": "42.008994681275155"
    },
    {
      "id": "pt.ine.add.PTCONT.5206602",
      "street": "R ARREQUEIXO",
      "house": "",
      "postcode": "4930-008",
      "city": "ARÃO",
      "lon": "-8.645724081545556",
      "lat": "42.008519275541126"
    },
    {
      "id": "pt.ine.add.PTCONT.5220815",
      "street": "R PORTELA",
      "house": "10",
      "postcode": "4930-019",
      "city": "ARÃO",
      "lon": "-8.644227490861255",
      "lat": "42.00855295818629"
    },
    {
      "id": "pt.ine.add.PTCONT.5224374",
      "street": "R ARREQUEIXO",
      "house": "3",
      "postcode": "4930-008",
      "city": "ARÃO",
      "lon": "-8.64480125049502",
      "lat": "42.009351670123515"
    },
    {
      "id": "pt.ine.add.PTCONT.5255492",
      "street": "R PORTELA",
      "house": "8",
      "postcode": "4930-019",
      "city": "ARÃO",
      "lon": "-8.644096006404677",
      "lat": "42.00871559781193"
    },
    {
      "id": "pt.ine.add.PTCONT.5279719",
      "street": "R EIRADO",
      "house": "10",
      "postcode": "4930-024",
      "city": "ARÃO",
      "lon": "-8.643859338241336",
      "lat": "42.00931084995673"
    }
  ]
}