{
  "data": {
    "ilha": "Ilha Terceira (Açores)",
    "concelho": "Praia da Vitória",
    "freguesia": "Lajes",
    "OBJECTID": 355,
    "BGRI2021": "43020600206",
    "DT21": "43",
    "DTMN21": "4302",
    "DTMNFR21": "430206",
    "DTMNFRSEC21": "430206002",
    "SECNUM21": "002",
    "SSNUM21": "06",
    "SECSSNUM21": "00206",
    "OBJECTID_1": 208481,
    "DT": "43",
    "CC": "02",
    "fr": "06",
    "SEC": "002",
    "SS": "06",
    "BGRI2021_1": "43020600206"
  },
  "addresses": [
    {
      "id": "pt.ine.add.AC26.12811",
      "street": "R PECHITA",
      "house": "5",
      "postcode": "9760-296",
      "city": "LAJES VPV",
      "lon": "-27.09604601755763",
      "lat": "38.75842791554251"
    },
    {
      "id": "pt.ine.add.AC26.12812",
      "street": "R PECHITA",
      "house": "3",
      "postcode": "9760-296",
      "city": "LAJES VPV",
      "lon": "-27.095838944885703",
      "lat": "38.758500179336885"
    },
    {
      "id": "pt.ine.add.AC26.12813",
      "street": "POÇO DO GIL",
      "house": "57",
      "postcode": "9760-317",
      "city": "LAJES VPV",
      "lon": "-27.09404365495034",
      "lat": "38.75863681348253"
    },
    {
      "id": "pt.ine.add.AC26.12814",
      "street": "R FONTINHAS",
      "house": "6",
      "postcode": "9760-317",
      "city": "LAJES VPV",
      "lon": "-27.09278682857384",
      "lat": "38.75686250720806"
    },
    {
      "id": "pt.ine.add.AC26.12815",
      "street": "R FONTINHAS",
      "house": "8A",
      "postcode": "9760-317",
      "city": "LAJES VPV",
      "lon": "-27.092751286432275",
      "lat": "38.75607851477265"
    },
    {
      "id": "pt.ine.add.AC26.12816",
      "street": "R FONTINHAS",
      "house": "8A",
      "postcode": "9760-317",
      "city": "LAJES VPV",
      "lon": "-27.092751286432275",
      "lat": "38.75607851477265"
    },
    {
      "id": "pt.ine.add.AC26.13659",
      "street": "R RAMO GRANDE",
      "house": "11",
      "postcode": "9760-280",
      "city": "LAJES VPV",
      "lon": "-27.10112037537368",
      "lat": "38.75751345119679"
    },
    {
      "id": "pt.ine.add.AC26.13660",
      "street": "R RAMO GRANDE",
      "house": "7",
      "postcode": "9760-280",
      "city": "LAJES VPV",
      "lon": "-27.100429214446766",
      "lat": "38.75708148405005"
    },
    {
      "id": "pt.ine.add.AC26.46537",
      "street": "CAN FONTINHAS",
      "house": "2",
      "postcode": "9760-270",
      "city": "LAJES VPV",
      "lon": "-27.09257989682698",
      "lat": "38.75704290590473"
    },
    {
      "id": "pt.ine.add.AC26.51306",
      "street": "POÇO DO GIL",
      "house": "73",
      "postcode": "9760-317",
      "city": "LAJES VPV",
      "lon": "-27.094907828818172",
      "lat": "38.759366064927214"
    },
    {
      "id": "pt.ine.add.AC26.56486",
      "street": "R FONTINHAS",
      "house": "10",
      "postcode": "9760-296",
      "city": "LAJES VPV",
      "lon": "-27.09449694979272",
      "lat": "38.75326545548071"
    },
    {
      "id": "pt.ine.add.AC26.65423",
      "street": "R FONTINHAS",
      "house": "6",
      "postcode": "9760-317",
      "city": "LAJES VPV",
      "lon": "-27.092844526068998",
      "lat": "38.75697961389399"
    },
    {
      "id": "pt.ine.add.AC26.70703",
      "street": "R RAMO GRANDE",
      "house": "21",
      "postcode": "9760-280",
      "city": "LAJES VPV",
      "lon": "-27.103457779850395",
      "lat": "38.75822333229395"
    },
    {
      "id": "pt.ine.add.AC26.80742",
      "street": "R PECHITA",
      "house": "10A",
      "postcode": "9760-296",
      "city": "LAJES VPV",
      "lon": "-27.09508025675962",
      "lat": "38.75920371370708"
    },
    {
      "id": "pt.ine.add.AC26.102895",
      "street": "R POÇO DO GIL",
      "house": "65",
      "postcode": "9760-317",
      "city": "LAJES VPV",
      "lon": "-27.09476960701352",
      "lat": "38.75928507153406"
    },
    {
      "id": "pt.ine.add.AC26.107316",
      "street": "R FONTINHAS",
      "house": "10",
      "postcode": "9760-317",
      "city": "LAJES VPV",
      "lon": "-27.092556389645377",
      "lat": "38.75666443182086"
    }
  ]
}