{
  "data": {
    "distrito": "Viana do Castelo",
    "concelho": "Paredes de Coura",
    "freguesia": "Infesta",
    "OBJECTID": 255,
    "BGRI2021": "16051000114",
    "DT21": "16",
    "DTMN21": "1605",
    "DTMNFR21": "160510",
    "DTMNFRSEC21": "160510001",
    "SECNUM21": "001",
    "SSNUM21": "14",
    "SECSSNUM21": "00114",
    "OBJECTID_1": 174508,
    "DT": "16",
    "CC": "05",
    "fr": "10",
    "SEC": "001",
    "SS": "14"
  },
  "addresses": [
    {
      "id": "pt.ine.add.PTCONT.5141991",
      "street": "",
      "house": "",
      "postcode": "4940-322",
      "city": "INFESTA PCR",
      "lon": "-8.59560649495552",
      "lat": "41.90886077677657"
    },
    {
      "id": "pt.ine.add.PTCONT.5158083",
      "street": "",
      "house": "",
      "postcode": "4940-322",
      "city": "INFESTA PCR",
      "lon": "-8.595652624522758",
      "lat": "41.90857248932457"
    },
    {
      "id": "pt.ine.add.PTCONT.5159004",
      "street": "",
      "house": "",
      "postcode": "4940-322",
      "city": "INFESTA PCR",
      "lon": "-8.595514916942877",
      "lat": "41.907861792925814"
    },
    {
      "id": "pt.ine.add.PTCONT.5168239",
      "street": "",
      "house": "",
      "postcode": "4940-322",
      "city": "INFESTA PCR",
      "lon": "-8.594281387736862",
      "lat": "41.908956137964246"
    },
    {
      "id": "pt.ine.add.PTCONT.5171554",
      "street": "",
      "house": "",
      "postcode": "4940-322",
      "city": "INFESTA PCR",
      "lon": "-8.595073186518176",
      "lat": "41.90677418621915"
    },
    {
      "id": "pt.ine.add.PTCONT.5179397",
      "street": "",
      "house": "",
      "postcode": "4940-322",
      "city": "INFESTA PCR",
      "lon": "-8.595230016090586",
      "lat": "41.908466152711384"
    },
    {
      "id": "pt.ine.add.PTCONT.5184189",
      "street": "",
      "house": "",
      "postcode": "4940-322",
      "city": "INFESTA PCR",
      "lon": "-8.595975954503707",
      "lat": "41.90828308481853"
    },
    {
      "id": "pt.ine.add.PTCONT.5194149",
      "street": "",
      "house": "",
      "postcode": "4940-322",
      "city": "INFESTA PCR",
      "lon": "-8.5941655996319",
      "lat": "41.90626465256282"
    },
    {
      "id": "pt.ine.add.PTCONT.5206025",
      "street": "ESTR DE JANCIDE",
      "house": "212",
      "postcode": "4940-322",
      "city": "INFESTA PCR",
      "lon": "-8.59554032066527",
      "lat": "41.90804175418113"
    },
    {
      "id": "pt.ine.add.PTCONT.5217853",
      "street": "",
      "house": "",
      "postcode": "4940-322",
      "city": "INFESTA PCR",
      "lon": "-8.59407825202746",
      "lat": "41.907525448379225"
    },
    {
      "id": "pt.ine.add.PTCONT.5222440",
      "street": "",
      "house": "",
      "postcode": "4940-322",
      "city": "INFESTA PCR",
      "lon": "-8.59518818754179",
      "lat": "41.90600845319572"
    },
    {
      "id": "pt.ine.add.PTCONT.5222441",
      "street": "",
      "house": "",
      "postcode": "4940-322",
      "city": "INFESTA PCR",
      "lon": "-8.59561783242738",
      "lat": "41.9087616961724"
    },
    {
      "id": "pt.ine.add.PTCONT.5232409",
      "street": "",
      "house": "",
      "postcode": "4940-322",
      "city": "INFESTA PCR",
      "lon": "-8.595726173121653",
      "lat": "41.90874325339933"
    },
    {
      "id": "pt.ine.add.PTCONT.5234239",
      "street": "",
      "house": "",
      "postcode": "4940-322",
      "city": "INFESTA PCR",
      "lon": "-8.595931127180705",
      "lat": "41.90875143069618"
    },
    {
      "id": "pt.ine.add.PTCONT.5242436",
      "street": "",
      "house": "",
      "postcode": "4940-322",
      "city": "INFESTA PCR",
      "lon": "-8.59495718401093",
      "lat": "41.90627412374172"
    },
    {
      "id": "pt.ine.add.PTCONT.5243170",
      "street": "",
      "house": "",
      "postcode": "4940-322",
      "city": "INFESTA PCR",
      "lon": "-8.59496421776438",
      "lat": "41.9083771903028"
    },
    {
      "id": "pt.ine.add.PTCONT.5243613",
      "street": "",
      "house": "",
      "postcode": "4940-322",
      "city": "INFESTA PCR",
      "lon": "-8.595783509202839",
      "lat": "41.9083378794402"
    },
    {
      "id": "pt.ine.add.PTCONT.5244727",
      "street": "",
      "house": "",
      "postcode": "4940-322",
      "city": "INFESTA PCR",
      "lon": "-8.594371455001088",
      "lat": "41.90807346486037"
    },
    {
      "id": "pt.ine.add.PTCONT.5248133",
      "street": "",
      "house": "",
      "postcode": "4940-322",
      "city": "INFESTA PCR",
      "lon": "-8.594201169741124",
      "lat": "41.90785807248047"
    },
    {
      "id": "pt.ine.add.PTCONT.5249561",
      "street": "CAM DA RAPADOURA",
      "house": "324",
      "postcode": "4940-322",
      "city": "INFESTA PCR",
      "lon": "-8.594027518130847",
      "lat": "41.90717452805345"
    },
    {
      "id": "pt.ine.add.PTCONT.5263485",
      "street": "",
      "house": "",
      "postcode": "4940-322",
      "city": "INFESTA PCR",
      "lon": "-8.59430853813763",
      "lat": "41.90937917819452"
    },
    {
      "id": "pt.ine.add.PTCONT.5265750",
      "street": "",
      "house": "",
      "postcode": "4940-322",
      "city": "INFESTA PCR",
      "lon": "-8.595233911987199",
      "lat": "41.90900632762624"
    },
    {
      "id": "pt.ine.add.PTCONT.5269306",
      "street": "",
      "house": "",
      "postcode": "4940-322",
      "city": "INFESTA PCR",
      "lon": "-8.594767385151112",
      "lat": "41.90736669173617"
    },
    {
      "id": "pt.ine.add.PTCONT.5275740",
      "street": "TV DA PEDRA",
      "house": "11",
      "postcode": "4940-322",
      "city": "INFESTA PCR",
      "lon": "-8.595474504145589",
      "lat": "41.908942336900026"
    },
    {
      "id": "pt.ine.add.PTCONT.5278001",
      "street": "CAM DE JANCIDE",
      "house": "435",
      "postcode": "4940-322",
      "city": "INFESTA PCR",
      "lon": "-8.594329660143362",
      "lat": "41.906250112628335"
    },
    {
      "id": "pt.ine.add.PTCONT.5283131",
      "street": "",
      "house": "",
      "postcode": "4940-322",
      "city": "INFESTA PCR",
      "lon": "-8.594287932161517",
      "lat": "41.90819084164076"
    },
    {
      "id": "pt.ine.add.PTCONT.5285584",
      "street": "CAM DO PAÃ‡O",
      "house": "694",
      "postcode": "4940-322",
      "city": "INFESTA PCR",
      "lon": "-8.595619132150993",
      "lat": "41.90894175446389"
    },
    {
      "id": "pt.ine.add.PTCONT.5285782",
      "street": "",
      "house": "",
      "postcode": "4940-322",
      "city": "INFESTA PCR",
      "lon": "-8.595649505020502",
      "lat": "41.90814034938958"
    }
  ]
}