{
  "data": {
    "distrito": "Bragança",
    "concelho": "Miranda do Douro",
    "freguesia": "Picote",
    "OBJECTID": 119,
    "BGRI2021": "04061100119",
    "DT21": "04",
    "DTMN21": "0406",
    "DTMNFR21": "040611",
    "DTMNFRSEC21": "040611001",
    "SECNUM21": "001",
    "SSNUM21": "19",
    "SECSSNUM21": "00119",
    "OBJECTID_1": 36282,
    "DT": "04",
    "CC": "06",
    "fr": "11",
    "SEC": "001",
    "SS": "19"
  },
  "addresses": [
    {
      "id": "pt.ine.add.PTCONT.851984",
      "street": "AV VALE DE MORAIS",
      "house": "",
      "postcode": "5225-072",
      "city": "PICOTE",
      "lon": "-6.36849049800115",
      "lat": "41.40363591406047"
    },
    {
      "id": "pt.ine.add.PTCONT.853517",
      "street": "R DA PRETA",
      "house": "",
      "postcode": "5225-072",
      "city": "PICOTE",
      "lon": "-6.367404694574515",
      "lat": "41.403106054621155"
    },
    {
      "id": "pt.ine.add.PTCONT.855762",
      "street": "R DE STO ANTÓNIO",
      "house": "4",
      "postcode": "5225-072",
      "city": "PICOTE",
      "lon": "-6.367481543083508",
      "lat": "41.40335933111105"
    },
    {
      "id": "pt.ine.add.PTCONT.860309",
      "street": "LG DA IGREJA",
      "house": "",
      "postcode": "5225-072",
      "city": "PICOTE",
      "lon": "-6.368110120339313",
      "lat": "41.4017843686437"
    },
    {
      "id": "pt.ine.add.PTCONT.861167",
      "street": "R DA CANZELA",
      "house": "13",
      "postcode": "5225-072",
      "city": "PICOTE",
      "lon": "-6.367107309272939",
      "lat": "41.40216512942382"
    },
    {
      "id": "pt.ine.add.PTCONT.862704",
      "street": "R DA CANZELA",
      "house": "",
      "postcode": "5225-072",
      "city": "PICOTE",
      "lon": "-6.366221826009991",
      "lat": "41.403069884307406"
    },
    {
      "id": "pt.ine.add.PTCONT.865724",
      "street": "R LUIS DE CAMÕES",
      "house": "16",
      "postcode": "5225-072",
      "city": "PICOTE",
      "lon": "-6.3665694533409996",
      "lat": "41.40392154864734"
    },
    {
      "id": "pt.ine.add.PTCONT.867223",
      "street": "R LUIS DE CAMÕES",
      "house": "12",
      "postcode": "5225-072",
      "city": "PICOTE",
      "lon": "-6.367254455027859",
      "lat": "41.40423818414284"
    },
    {
      "id": "pt.ine.add.PTCONT.867227",
      "street": "BC DA PRETA",
      "house": "7",
      "postcode": "5225-072",
      "city": "PICOTE",
      "lon": "-6.368135504809186",
      "lat": "41.40217190700363"
    },
    {
      "id": "pt.ine.add.PTCONT.873487",
      "street": "R LUIS DE CAMÕES",
      "house": "20",
      "postcode": "5225-072",
      "city": "PICOTE",
      "lon": "-6.366222317715949",
      "lat": "41.40349305442878"
    },
    {
      "id": "pt.ine.add.PTCONT.879369",
      "street": "R LUIS DE CAMÕES",
      "house": "18",
      "postcode": "5225-072",
      "city": "PICOTE",
      "lon": "-6.366171094408629",
      "lat": "41.40405948546413"
    },
    {
      "id": "pt.ine.add.PTCONT.879370",
      "street": "R DA FONTE SALSA",
      "house": "",
      "postcode": "5225-072",
      "city": "PICOTE",
      "lon": "-6.363364064857024",
      "lat": "41.403061965915384"
    },
    {
      "id": "pt.ine.add.PTCONT.882463",
      "street": "R DA CANZELA",
      "house": "7",
      "postcode": "5225-072",
      "city": "PICOTE",
      "lon": "-6.367644446123321",
      "lat": "41.401759215466306"
    },
    {
      "id": "pt.ine.add.PTCONT.889730",
      "street": "R DE STO ANTÓNIO",
      "house": "2",
      "postcode": "5225-072",
      "city": "PICOTE",
      "lon": "-6.368247518987493",
      "lat": "41.40333507212994"
    },
    {
      "id": "pt.ine.add.PTCONT.890712",
      "street": "R DA CANZELA",
      "house": "3",
      "postcode": "5225-072",
      "city": "PICOTE",
      "lon": "-6.367753727261777",
      "lat": "41.401697868433544"
    },
    {
      "id": "pt.ine.add.PTCONT.891213",
      "street": "R DA IGREJA",
      "house": "11",
      "postcode": "5225-072",
      "city": "PICOTE",
      "lon": "-6.3682367483087585",
      "lat": "41.402407550420996"
    },
    {
      "id": "pt.ine.add.PTCONT.895767",
      "street": "R DA IGREJA",
      "house": "",
      "postcode": "5225-072",
      "city": "PICOTE",
      "lon": "-6.368253329149716",
      "lat": "41.40223673905003"
    },
    {
      "id": "pt.ine.add.PTCONT.896443",
      "street": "R DA CANZELA",
      "house": "9",
      "postcode": "5225-072",
      "city": "PICOTE",
      "lon": "-6.367536139445048",
      "lat": "41.401784563503405"
    },
    {
      "id": "pt.ine.add.PTCONT.897010",
      "street": "R DE STO ANTÓNIO",
      "house": "6",
      "postcode": "5225-072",
      "city": "PICOTE",
      "lon": "-6.3681633937834725",
      "lat": "41.40423412731139"
    },
    {
      "id": "pt.ine.add.PTCONT.898954",
      "street": "R LUIS DE CAMÕES",
      "house": "14",
      "postcode": "5225-072",
      "city": "PICOTE",
      "lon": "-6.367041245582033",
      "lat": "41.4041628831707"
    },
    {
      "id": "pt.ine.add.PTCONT.901910",
      "street": "R LUIS DE CAMÕES",
      "house": "8",
      "postcode": "5225-072",
      "city": "PICOTE",
      "lon": "-6.368244143889474",
      "lat": "41.40434340779373"
    },
    {
      "id": "pt.ine.add.PTCONT.902791",
      "street": "R DE STO ANTÓNIO",
      "house": "8",
      "postcode": "5225-072",
      "city": "PICOTE",
      "lon": "-6.368240211509105",
      "lat": "41.40360506380797"
    },
    {
      "id": "pt.ine.add.PTCONT.907399",
      "street": "LG DA IGREJA",
      "house": "29",
      "postcode": "5225-072",
      "city": "PICOTE",
      "lon": "-6.367835935425301",
      "lat": "41.401753150834175"
    },
    {
      "id": "pt.ine.add.PTCONT.913177",
      "street": "R DE STO ANTÓNIO",
      "house": "12",
      "postcode": "5225-072",
      "city": "PICOTE",
      "lon": "-6.367693789686234",
      "lat": "41.4039117998295"
    },
    {
      "id": "pt.ine.add.PTCONT.915447",
      "street": "R DE STO ANTÓNIO",
      "house": "6",
      "postcode": "5225-072",
      "city": "PICOTE",
      "lon": "-6.368219228160061",
      "lat": "41.403496700341535"
    },
    {
      "id": "pt.ine.add.PTCONT.917646",
      "street": "R DE STO ANTÓNIO",
      "house": "14",
      "postcode": "5225-072",
      "city": "PICOTE",
      "lon": "-6.367881874403941",
      "lat": "41.40403173132346"
    },
    {
      "id": "pt.ine.add.PTCONT.921552",
      "street": "R LUIS DE CAMÕES",
      "house": "",
      "postcode": "5225-072",
      "city": "PICOTE",
      "lon": "-6.36318037188736",
      "lat": "41.40322120181235"
    },
    {
      "id": "pt.ine.add.PTCONT.924588",
      "street": "R DA IGREJA",
      "house": "",
      "postcode": "5225-072",
      "city": "PICOTE",
      "lon": "-6.3678708349536555",
      "lat": "41.40223086988361"
    },
    {
      "id": "pt.ine.add.PTCONT.929649",
      "street": "R DO TELHADAL",
      "house": "8",
      "postcode": "5225-072",
      "city": "PICOTE",
      "lon": "-6.368375386969463",
      "lat": "41.404354424841934"
    },
    {
      "id": "pt.ine.add.PTCONT.933109",
      "street": "BC DA IGREJA",
      "house": "",
      "postcode": "5225-072",
      "city": "PICOTE",
      "lon": "-6.367700068457145",
      "lat": "41.401913127999556"
    },
    {
      "id": "pt.ine.add.PTCONT.933110",
      "street": "R DA IGREJA",
      "house": "3",
      "postcode": "5225-072",
      "city": "PICOTE",
      "lon": "-6.36827749669999",
      "lat": "41.40266927598983"
    },
    {
      "id": "pt.ine.add.PTCONT.933927",
      "street": "R LUIS DE CAMÕES",
      "house": "10",
      "postcode": "5225-072",
      "city": "PICOTE",
      "lon": "-6.368076553647706",
      "lat": "41.40434983979072"
    },
    {
      "id": "pt.ine.add.PTCONT.937236",
      "street": "R DE STO ANTÓNIO",
      "house": "3",
      "postcode": "5225-072",
      "city": "PICOTE",
      "lon": "-6.368557833483054",
      "lat": "41.4037990092975"
    },
    {
      "id": "pt.ine.add.PTCONT.944232",
      "street": "R DA IGREJA",
      "house": "1",
      "postcode": "5225-072",
      "city": "PICOTE",
      "lon": "-6.368307997292229",
      "lat": "41.402867820084715"
    },
    {
      "id": "pt.ine.add.PTCONT.945292",
      "street": "BC DA IGREJA",
      "house": "",
      "postcode": "5225-072",
      "city": "PICOTE",
      "lon": "-6.367818622775756",
      "lat": "41.40195096130833"
    },
    {
      "id": "pt.ine.add.PTCONT.947803",
      "street": "R DE STO ANTÓNIO",
      "house": "",
      "postcode": "5225-072",
      "city": "PICOTE",
      "lon": "-6.36809068302873",
      "lat": "41.40382785598124"
    },
    {
      "id": "pt.ine.add.PTCONT.948307",
      "street": "AV VALE DE MORAIS",
      "house": "",
      "postcode": "5225-072",
      "city": "PICOTE",
      "lon": "-6.3682755660851775",
      "lat": "41.40318244362744"
    }
  ]
}