{
  "data": {
    "distrito": "Braga",
    "concelho": "Barcelos",
    "freguesia": "Moure",
    "OBJECTID": 228,
    "BGRI2021": "03025200114",
    "DT21": "03",
    "DTMN21": "0302",
    "DTMNFR21": "030252",
    "DTMNFRSEC21": "030252001",
    "SECNUM21": "001",
    "SSNUM21": "14",
    "SECSSNUM21": "00114",
    "OBJECTID_1": 20843,
    "DT": "03",
    "CC": "02",
    "fr": "52",
    "SEC": "001",
    "SS": "14"
  },
  "addresses": [
    {
      "id": "pt.ine.add.PTCONT.508793",
      "street": "R REGADAS",
      "house": "166",
      "postcode": "4755-360",
      "city": "MOURE BCL",
      "lon": "-8.548001212506103",
      "lat": "41.5037591279305"
    },
    {
      "id": "pt.ine.add.PTCONT.521487",
      "street": "R SOLEIROS",
      "house": "210",
      "postcode": "4755-350",
      "city": "MOURE BCL",
      "lon": "-8.54907660482319",
      "lat": "41.50335907567773"
    },
    {
      "id": "pt.ine.add.PTCONT.521486",
      "street": "R SOLEIROS",
      "house": "210",
      "postcode": "4755-350",
      "city": "MOURE BCL",
      "lon": "-8.54907660482319",
      "lat": "41.50335907567773"
    },
    {
      "id": "pt.ine.add.PTCONT.539029",
      "street": "R REGADAS",
      "house": "",
      "postcode": "4755-360",
      "city": "MOURE BCL",
      "lon": "-8.545972881240361",
      "lat": "41.5068727427582"
    },
    {
      "id": "pt.ine.add.PTCONT.582654",
      "street": "REGADAS",
      "house": "",
      "postcode": "4755-350",
      "city": "MOURE BCL",
      "lon": "-8.5489703104961",
      "lat": "41.50359355928976"
    },
    {
      "id": "pt.ine.add.PTCONT.582748",
      "street": "R REGADAS",
      "house": "546",
      "postcode": "4755-360",
      "city": "MOURE BCL",
      "lon": "-8.54661823683154",
      "lat": "41.50664532898971"
    },
    {
      "id": "pt.ine.add.PTCONT.582749",
      "street": "R REGADAS",
      "house": "161",
      "postcode": "4755-360",
      "city": "MOURE BCL",
      "lon": "-8.5482158205117",
      "lat": "41.50360528868976"
    },
    {
      "id": "pt.ine.add.PTCONT.597297",
      "street": "R MAJOR",
      "house": "20",
      "postcode": "4755-360",
      "city": "MOURE BCL",
      "lon": "-8.547757479945544",
      "lat": "41.5031027282795"
    },
    {
      "id": "pt.ine.add.PTCONT.610615",
      "street": "R SOLEIROS",
      "house": "116",
      "postcode": "4755-350",
      "city": "MOURE BCL",
      "lon": "-8.547827847434592",
      "lat": "41.50286837531614"
    },
    {
      "id": "pt.ine.add.PTCONT.623840",
      "street": "R REGADAS",
      "house": "616",
      "postcode": "4755-360",
      "city": "MOURE BCL",
      "lon": "-8.54608325383687",
      "lat": "41.50727751800099"
    },
    {
      "id": "pt.ine.add.PTCONT.650161",
      "street": "R REGADAS",
      "house": "68",
      "postcode": "4755-360",
      "city": "MOURE BCL",
      "lon": "-8.54710964013147",
      "lat": "41.50293398952358"
    },
    {
      "id": "pt.ine.add.PTCONT.650162",
      "street": "R REGADAS",
      "house": "102",
      "postcode": "4755-360",
      "city": "MOURE BCL",
      "lon": "-8.547362530639436",
      "lat": "41.50314917056357"
    },
    {
      "id": "pt.ine.add.PTCONT.676631",
      "street": "R REGADAS",
      "house": "566",
      "postcode": "4755-360",
      "city": "MOURE BCL",
      "lon": "-8.546452040574366",
      "lat": "41.50688002550857"
    },
    {
      "id": "pt.ine.add.PTCONT.676632",
      "street": "R REGADAS",
      "house": "92",
      "postcode": "4755-360",
      "city": "MOURE BCL",
      "lon": "-8.547541494698013",
      "lat": "41.50304048002828"
    },
    {
      "id": "pt.ine.add.PTCONT.700533",
      "street": "R REGADAS",
      "house": "",
      "postcode": "4755-360",
      "city": "MOURE BCL",
      "lon": "-8.547092854767826",
      "lat": "41.5040595270292"
    },
    {
      "id": "pt.ine.add.PTCONT.727337",
      "street": "R MAJOR",
      "house": "8",
      "postcode": "4755-360",
      "city": "MOURE BCL",
      "lon": "-8.547625791960863",
      "lat": "41.503112206784486"
    },
    {
      "id": "pt.ine.add.PTCONT.736359",
      "street": "R REGADAS",
      "house": "240",
      "postcode": "4755-360",
      "city": "MOURE BCL",
      "lon": "-8.547811706438374",
      "lat": "41.50409295257649"
    },
    {
      "id": "pt.ine.add.PTCONT.751451",
      "street": "R REGADAS",
      "house": "148",
      "postcode": "4755-360",
      "city": "MOURE BCL",
      "lon": "-8.547976396510883",
      "lat": "41.50362416020363"
    },
    {
      "id": "pt.ine.add.PTCONT.805806",
      "street": "R SOLEIROS",
      "house": "182",
      "postcode": "4755-350",
      "city": "MOURE BCL",
      "lon": "-8.548429564524422",
      "lat": "41.50331639491525"
    },
    {
      "id": "pt.ine.add.PTCONT.808681",
      "street": "R REGADAS",
      "house": "109",
      "postcode": "4755-360",
      "city": "MOURE BCL",
      "lon": "-8.54778212295345",
      "lat": "41.503210685239125"
    },
    {
      "id": "pt.ine.add.PTCONT.829151",
      "street": "R MONTE",
      "house": "19",
      "postcode": "4755-360",
      "city": "MOURE BCL",
      "lon": "-8.546025139108727",
      "lat": "41.50755684479207"
    }
  ]
}