{
  "data": {
    "distrito": "Portalegre",
    "concelho": "Crato",
    "freguesia": "União das freguesias de Crato e Mártires, Flor da Rosa e Vale do Peso",
    "OBJECTID": 15,
    "BGRI2021": "12060700144",
    "DT21": "12",
    "DTMN21": "1206",
    "DTMNFR21": "120607",
    "DTMNFRSEC21": "120607001",
    "SECNUM21": "001",
    "SSNUM21": "44",
    "SECSSNUM21": "00144",
    "OBJECTID_1": 121429,
    "DT": "12",
    "CC": "06",
    "fr": "07",
    "SEC": "001",
    "SS": "44"
  },
  "addresses": [
    {
      "id": "pt.ine.add.PTCONT.3534794",
      "street": "MTE TAROUCA DE CIMA",
      "house": "",
      "postcode": "7430-171",
      "city": "CRATO",
      "lon": "-7.606597672286556",
      "lat": "39.29787084139059"
    },
    {
      "id": "pt.ine.add.PTCONT.3460791",
      "street": "MTE DO COCEIRAO",
      "house": "",
      "postcode": "7430-171",
      "city": "CRATO",
      "lon": "-7.590776237331485",
      "lat": "39.30358084385115"
    },
    {
      "id": "pt.ine.add.PTCONT.3462613",
      "street": "MTE DO ORNALHO",
      "house": "",
      "postcode": "7430-171",
      "city": "CRATO",
      "lon": "-7.599243265279274",
      "lat": "39.307655204279584"
    },
    {
      "id": "pt.ine.add.PTCONT.3502893",
      "street": "MTE DO ORNALHO",
      "house": "",
      "postcode": "7430-171",
      "city": "CRATO",
      "lon": "-7.599614810704869",
      "lat": "39.30758484991646"
    },
    {
      "id": "pt.ine.add.PTCONT.3505401",
      "street": "MTE DO ORNALHO",
      "house": "",
      "postcode": "7430-171",
      "city": "CRATO",
      "lon": "-7.599066073831771",
      "lat": "39.308086737062084"
    },
    {
      "id": "pt.ine.add.PTCONT.3506061",
      "street": "MTE DO ORNALHO",
      "house": "",
      "postcode": "7430-171",
      "city": "CRATO",
      "lon": "-7.599380131859064",
      "lat": "39.30795306935304"
    },
    {
      "id": "pt.ine.add.PTCONT.3512315",
      "street": "MTE CASAL FIRME",
      "house": "",
      "postcode": "7430-171",
      "city": "CRATO",
      "lon": "-7.597462818018995",
      "lat": "39.30090963859503"
    },
    {
      "id": "pt.ine.add.PTCONT.3519695",
      "street": "",
      "house": "",
      "postcode": "7430-171",
      "city": "CRATO",
      "lon": "-7.607193181481902",
      "lat": "39.29574782977208"
    },
    {
      "id": "pt.ine.add.PTCONT.3530982",
      "street": "MTE TAROUCA DE CIMA",
      "house": "",
      "postcode": "7430-171",
      "city": "CRATO",
      "lon": "-7.606282525373614",
      "lat": "39.29815764665389"
    }
  ]
}