{
  "data": {
    "distrito": "Porto",
    "concelho": "Porto",
    "freguesia": "Campanh√£",
    "OBJECTID": 1385,
    "BGRI2021": "13120301609",
    "DT21": "13",
    "DTMN21": "1312",
    "DTMNFR21": "131203",
    "DTMNFRSEC21": "131203016",
    "SECNUM21": "016",
    "SSNUM21": "09",
    "SECSSNUM21": "01609",
    "OBJECTID_1": 138971,
    "DT": "13",
    "CC": "12",
    "fr": "03",
    "SEC": "016",
    "SS": "09"
  },
  "addresses": [
    {
      "id": "pt.ine.add.PTCONT.3549001",
      "street": "R PRESA VELHA",
      "house": "97",
      "postcode": "4300-445",
      "city": "PORTO",
      "lon": "-8.586275290510239",
      "lat": "41.14614332995471"
    },
    {
      "id": "pt.ine.add.PTCONT.3555594",
      "street": "R FORMIGA",
      "house": "140 CAS",
      "postcode": "4300-204",
      "city": "PORTO",
      "lon": "-8.58741936431187",
      "lat": "41.14621986284811"
    },
    {
      "id": "pt.ine.add.PTCONT.3571760",
      "street": "R FORMIGA",
      "house": "140 CAS",
      "postcode": "4300-204",
      "city": "PORTO",
      "lon": "-8.587288957763283",
      "lat": "41.14631042076338"
    },
    {
      "id": "pt.ine.add.PTCONT.3574839",
      "street": "R PARTICULAR NOVAIS DA CUNHA",
      "house": "27",
      "postcode": "4300-397",
      "city": "PORTO",
      "lon": "-8.586946127724676",
      "lat": "41.14668995539231"
    },
    {
      "id": "pt.ine.add.PTCONT.3579833",
      "street": "R PRESA VELHA",
      "house": "89",
      "postcode": "4300-445",
      "city": "PORTO",
      "lon": "-8.586310839353693",
      "lat": "41.14611617699649"
    },
    {
      "id": "pt.ine.add.PTCONT.3629899",
      "street": "R FORMIGA",
      "house": "140 CAS",
      "postcode": "4300-204",
      "city": "PORTO",
      "lon": "-8.587383815873208",
      "lat": "41.146247016145864"
    },
    {
      "id": "pt.ine.add.PTCONT.3639575",
      "street": "TV NOVA SINTRA",
      "house": "302",
      "postcode": "4300-371",
      "city": "PORTO",
      "lon": "-8.58741149224627",
      "lat": "41.1468051777869"
    },
    {
      "id": "pt.ine.add.PTCONT.3645575",
      "street": "R FORMIGA",
      "house": "160",
      "postcode": "4300-204",
      "city": "PORTO",
      "lon": "-8.587455720706666",
      "lat": "41.146309763136266"
    },
    {
      "id": "pt.ine.add.PTCONT.3645576",
      "street": "R FORMIGA",
      "house": "160",
      "postcode": "4300-204",
      "city": "PORTO",
      "lon": "-8.587455720706666",
      "lat": "41.146309763136266"
    },
    {
      "id": "pt.ine.add.PTCONT.3645577",
      "street": "R FORMIGA",
      "house": "160",
      "postcode": "4300-204",
      "city": "PORTO",
      "lon": "-8.587455720706666",
      "lat": "41.146309763136266"
    },
    {
      "id": "pt.ine.add.PTCONT.3645578",
      "street": "R FORMIGA",
      "house": "160",
      "postcode": "4300-204",
      "city": "PORTO",
      "lon": "-8.587455720706666",
      "lat": "41.146309763136266"
    },
    {
      "id": "pt.ine.add.PTCONT.3645579",
      "street": "TV PRESA VELHA",
      "house": "44",
      "postcode": "4300-446",
      "city": "PORTO",
      "lon": "-8.58729832202503",
      "lat": "41.1459412047458"
    },
    {
      "id": "pt.ine.add.PTCONT.3647961",
      "street": "TV PRESA VELHA",
      "house": "52",
      "postcode": "4300-446",
      "city": "PORTO",
      "lon": "-8.58742997080369",
      "lat": "41.14603072928506"
    },
    {
      "id": "pt.ine.add.PTCONT.3654565",
      "street": "R PRESA VELHA",
      "house": "79",
      "postcode": "4300-445",
      "city": "PORTO",
      "lon": "-8.586643805923565",
      "lat": "41.14603382722077"
    },
    {
      "id": "pt.ine.add.PTCONT.3660729",
      "street": "R FORMIGA",
      "house": "180",
      "postcode": "4300-204",
      "city": "PORTO",
      "lon": "-8.587659026909375",
      "lat": "41.14642601785569"
    },
    {
      "id": "pt.ine.add.PTCONT.3664421",
      "street": "R PRESA VELHA",
      "house": "79",
      "postcode": "4300-445",
      "city": "PORTO",
      "lon": "-8.586501549081605",
      "lat": "41.146133435272546"
    },
    {
      "id": "pt.ine.add.PTCONT.3664422",
      "street": "R FREIXO",
      "house": "1585",
      "postcode": "4300-222",
      "city": "PORTO",
      "lon": "-8.58604226290777",
      "lat": "41.14690061333436"
    },
    {
      "id": "pt.ine.add.PTCONT.3664423",
      "street": "R FREIXO",
      "house": "1585",
      "postcode": "4300-222",
      "city": "PORTO",
      "lon": "-8.58604226290777",
      "lat": "41.14690061333436"
    },
    {
      "id": "pt.ine.add.PTCONT.3678109",
      "street": "R PRESA VELHA",
      "house": "41",
      "postcode": "4300-445",
      "city": "PORTO",
      "lon": "-8.586821610853898",
      "lat": "41.14590706587867"
    },
    {
      "id": "pt.ine.add.PTCONT.3690408",
      "street": "R PRESA VELHA CASA 2",
      "house": "169",
      "postcode": "4300-445",
      "city": "PORTO",
      "lon": "-8.58630363939223",
      "lat": "41.14680053727933"
    },
    {
      "id": "pt.ine.add.PTCONT.3690409",
      "street": "R PRESA VELHA CASA 2",
      "house": "169",
      "postcode": "4300-445",
      "city": "PORTO",
      "lon": "-8.58630363939223",
      "lat": "41.14680053727933"
    },
    {
      "id": "pt.ine.add.PTCONT.3716761",
      "street": "TV PRESA VELHA",
      "house": "16",
      "postcode": "4300-446",
      "city": "PORTO",
      "lon": "-8.58705971798836",
      "lat": "41.14588811906372"
    },
    {
      "id": "pt.ine.add.PTCONT.3730236",
      "street": "R PRESA VELHA",
      "house": "57",
      "postcode": "4300-445",
      "city": "PORTO",
      "lon": "-8.586702991577479",
      "lat": "41.145979567971565"
    },
    {
      "id": "pt.ine.add.PTCONT.3730237",
      "street": "R PRESA VELHA",
      "house": "57",
      "postcode": "4300-445",
      "city": "PORTO",
      "lon": "-8.586702991577479",
      "lat": "41.145979567971565"
    },
    {
      "id": "pt.ine.add.PTCONT.3736678",
      "street": "TV PRESA VELHA",
      "house": "50",
      "postcode": "4300-446",
      "city": "PORTO",
      "lon": "-8.587358314857319",
      "lat": "41.14600399876733"
    },
    {
      "id": "pt.ine.add.PTCONT.3741307",
      "street": "R PRESA VELHA CASA 8",
      "house": "169",
      "postcode": "4300-445",
      "city": "PORTO",
      "lon": "-8.58614773333417",
      "lat": "41.14664807629509"
    },
    {
      "id": "pt.ine.add.PTCONT.3749040",
      "street": "TV PRESA VELHA CASA 2",
      "house": "28 CASA 2",
      "postcode": "4300-446",
      "city": "PORTO",
      "lon": "-8.587119462120876",
      "lat": "41.145914896716505"
    },
    {
      "id": "pt.ine.add.PTCONT.3768378",
      "street": "TV NOVA SINTRA",
      "house": "284",
      "postcode": "4300-371",
      "city": "PORTO",
      "lon": "-8.587601333810008",
      "lat": "41.146696376520836"
    },
    {
      "id": "pt.ine.add.PTCONT.3768396",
      "street": "R PARTICULAR NOVAIS DA CUNHA",
      "house": "25",
      "postcode": "4300-397",
      "city": "PORTO",
      "lon": "-8.586969764879395",
      "lat": "41.14666284916225"
    },
    {
      "id": "pt.ine.add.PTCONT.3778113",
      "street": "R FORMIGA",
      "house": "200",
      "postcode": "4300-204",
      "city": "PORTO",
      "lon": "-8.587766915995843",
      "lat": "41.146524640120774"
    },
    {
      "id": "pt.ine.add.PTCONT.3778114",
      "street": "R FORMIGA",
      "house": "200",
      "postcode": "4300-204",
      "city": "PORTO",
      "lon": "-8.587766915995843",
      "lat": "41.146524640120774"
    },
    {
      "id": "pt.ine.add.PTCONT.3795522",
      "street": "R FREIXO",
      "house": "1611",
      "postcode": "4300-222",
      "city": "PORTO",
      "lon": "-8.58634030460235",
      "lat": "41.146935458532724"
    },
    {
      "id": "pt.ine.add.PTCONT.3808772",
      "street": "R PRESA VELHA",
      "house": "79 CASA",
      "postcode": "4300-445",
      "city": "PORTO",
      "lon": "-8.586465938290917",
      "lat": "41.14615158416495"
    },
    {
      "id": "pt.ine.add.PTCONT.3833508",
      "street": "R PRESA VELHA CASA QUATRO",
      "house": "35",
      "postcode": "4300-445",
      "city": "PORTO",
      "lon": "-8.586904619361073",
      "lat": "41.14585271269158"
    },
    {
      "id": "pt.ine.add.PTCONT.3858885",
      "street": "R PARTICULAR NOVAIS DA CUNHA",
      "house": "26",
      "postcode": "4300-397",
      "city": "PORTO",
      "lon": "-8.587445611467066",
      "lat": "41.14657092967159"
    },
    {
      "id": "pt.ine.add.PTCONT.3865407",
      "street": "TV PRESA VELHA CASA TRAS SEGUNDO",
      "house": "28 CASA 3",
      "postcode": "4300-446",
      "city": "PORTO",
      "lon": "-8.587214692542622",
      "lat": "41.14590551697863"
    },
    {
      "id": "pt.ine.add.PTCONT.3865415",
      "street": "TV PRESA VELHA CASA TRAS SEGUNDO",
      "house": "28 CASA 3",
      "postcode": "4300-446",
      "city": "PORTO",
      "lon": "-8.587214692542622",
      "lat": "41.14590551697863"
    },
    {
      "id": "pt.ine.add.PTCONT.3884754",
      "street": "R PRESA VELHA CASA 6",
      "house": "169",
      "postcode": "4300-445",
      "city": "PORTO",
      "lon": "-8.586266850352738",
      "lat": "41.146647607763015"
    },
    {
      "id": "pt.ine.add.PTCONT.3887275",
      "street": "R PRESA VELHA CASA 6",
      "house": "169",
      "postcode": "4300-445",
      "city": "PORTO",
      "lon": "-8.586266850352738",
      "lat": "41.146647607763015"
    },
    {
      "id": "pt.ine.add.PTCONT.3903613",
      "street": "R PARTICULAR NOVAIS DA CUNHA",
      "house": "25",
      "postcode": "4300-397",
      "city": "PORTO",
      "lon": "-8.58731507999483",
      "lat": "41.1466434793697"
    },
    {
      "id": "pt.ine.add.PTCONT.3913376",
      "street": "R PRESA VELHA",
      "house": "99",
      "postcode": "4300-445",
      "city": "PORTO",
      "lon": "-8.58626368884735",
      "lat": "41.146188397436134"
    },
    {
      "id": "pt.ine.add.PTCONT.3915081",
      "street": "R PARTICULAR NOVAIS DA CUNHA",
      "house": "38",
      "postcode": "4300-397",
      "city": "PORTO",
      "lon": "-8.587373519929365",
      "lat": "41.14648117031148"
    },
    {
      "id": "pt.ine.add.PTCONT.3936787",
      "street": "R PARTICULAR NOVAIS DA CUNHA",
      "house": "28",
      "postcode": "4300-397",
      "city": "PORTO",
      "lon": "-8.587409565673552",
      "lat": "41.14652604999748"
    },
    {
      "id": "pt.ine.add.PTCONT.3968707",
      "street": "R FORMIGA",
      "house": "144",
      "postcode": "4300-204",
      "city": "PORTO",
      "lon": "-8.587514035683872",
      "lat": "41.14612944575477"
    },
    {
      "id": "pt.ine.add.PTCONT.3968734",
      "street": "R PRESA VELHA",
      "house": "79",
      "postcode": "4300-445",
      "city": "PORTO",
      "lon": "-8.5865846201722",
      "lat": "41.14608808643956"
    },
    {
      "id": "pt.ine.add.PTCONT.3975044",
      "street": "R PRESA VELHA CASA 5",
      "house": "169 CASA 5",
      "postcode": "4300-445",
      "city": "PORTO",
      "lon": "-8.586255124619303",
      "lat": "41.1466746669928"
    },
    {
      "id": "pt.ine.add.PTCONT.3975045",
      "street": "R PRESA VELHA CASA 5",
      "house": "169 CASA 5",
      "postcode": "4300-445",
      "city": "PORTO",
      "lon": "-8.586255124619303",
      "lat": "41.1466746669928"
    },
    {
      "id": "pt.ine.add.PTCONT.3985119",
      "street": "R PARTICULAR NOVAIS DA CUNHA",
      "house": "37",
      "postcode": "4300-397",
      "city": "PORTO",
      "lon": "-8.587231138993637",
      "lat": "41.14656277101076"
    },
    {
      "id": "pt.ine.add.PTCONT.4000674",
      "street": "R PRESA VELHA",
      "house": "79 CASA",
      "postcode": "4300-445",
      "city": "PORTO",
      "lon": "-8.586276158388026",
      "lat": "41.14626938769595"
    },
    {
      "id": "pt.ine.add.PTCONT.4013576",
      "street": "R FREIXO",
      "house": "1395",
      "postcode": "4300-222",
      "city": "PORTO",
      "lon": "-8.58610200755389",
      "lat": "41.146927391507504"
    },
    {
      "id": "pt.ine.add.PTCONT.4013577",
      "street": "R FREIXO",
      "house": "1395",
      "postcode": "4300-222",
      "city": "PORTO",
      "lon": "-8.58610200755389",
      "lat": "41.146927391507504"
    },
    {
      "id": "pt.ine.add.PTCONT.4013578",
      "street": "R FREIXO",
      "house": "1395",
      "postcode": "4300-222",
      "city": "PORTO",
      "lon": "-8.58610200755389",
      "lat": "41.146927391507504"
    },
    {
      "id": "pt.ine.add.PTCONT.4013579",
      "street": "R FREIXO",
      "house": "1395",
      "postcode": "4300-222",
      "city": "PORTO",
      "lon": "-8.58610200755389",
      "lat": "41.146927391507504"
    },
    {
      "id": "pt.ine.add.PTCONT.4018083",
      "street": "TV NOVA SINTRA",
      "house": "276",
      "postcode": "4300-371",
      "city": "PORTO",
      "lon": "-8.587624970695954",
      "lat": "41.14666927015774"
    },
    {
      "id": "pt.ine.add.PTCONT.4046360",
      "street": "R PRESA VELHA",
      "house": "169",
      "postcode": "4300-445",
      "city": "PORTO",
      "lon": "-8.586279196003662",
      "lat": "41.14671058976841"
    },
    {
      "id": "pt.ine.add.PTCONT.4049877",
      "street": "R PRESA VELHA",
      "house": "169",
      "postcode": "4300-445",
      "city": "PORTO",
      "lon": "-8.586279196003662",
      "lat": "41.14671058976841"
    },
    {
      "id": "pt.ine.add.PTCONT.4050385",
      "street": "R PARTICULAR NOVAIS DA CUNHA",
      "house": "15",
      "postcode": "4300-397",
      "city": "PORTO",
      "lon": "-8.58705302260474",
      "lat": "41.14664451236221"
    },
    {
      "id": "pt.ine.add.PTCONT.4059662",
      "street": "TV NOVA SINTRA",
      "house": "274",
      "postcode": "4300-371",
      "city": "PORTO",
      "lon": "-8.587660519260929",
      "lat": "41.146642116786914"
    },
    {
      "id": "pt.ine.add.PTCONT.4072961",
      "street": "TV PRESA VELHA",
      "house": "24",
      "postcode": "4300-446",
      "city": "PORTO",
      "lon": "-8.5871309389355",
      "lat": "41.14585182090234"
    },
    {
      "id": "pt.ine.add.PTCONT.4072968",
      "street": "R FREIXO",
      "house": "1629",
      "postcode": "4300-222",
      "city": "PORTO",
      "lon": "-8.586448130549385",
      "lat": "41.147025077907244"
    },
    {
      "id": "pt.ine.add.PTCONT.4072969",
      "street": "R FREIXO",
      "house": "1629",
      "postcode": "4300-222",
      "city": "PORTO",
      "lon": "-8.586448130549385",
      "lat": "41.147025077907244"
    },
    {
      "id": "pt.ine.add.PTCONT.4072970",
      "street": "R FREIXO",
      "house": "1629",
      "postcode": "4300-222",
      "city": "PORTO",
      "lon": "-8.586448130549385",
      "lat": "41.147025077907244"
    },
    {
      "id": "pt.ine.add.PTCONT.4072971",
      "street": "R FREIXO",
      "house": "1629",
      "postcode": "4300-222",
      "city": "PORTO",
      "lon": "-8.586448130549385",
      "lat": "41.147025077907244"
    },
    {
      "id": "pt.ine.add.PTCONT.4073113",
      "street": "TV NOVA SINTRA",
      "house": "304",
      "postcode": "4300-371",
      "city": "PORTO",
      "lon": "-8.587387917368494",
      "lat": "41.14684128822825"
    },
    {
      "id": "pt.ine.add.PTCONT.4079102",
      "street": "R PRESA VELHA",
      "house": "CASA 7",
      "postcode": "4300-445",
      "city": "PORTO",
      "lon": "-8.586418539887035",
      "lat": "41.14618778817009"
    },
    {
      "id": "pt.ine.add.PTCONT.4099247",
      "street": "R PRESA VELHA CASA 8",
      "house": "169",
      "postcode": "4300-445",
      "city": "PORTO",
      "lon": "-8.586183406460435",
      "lat": "41.14663893162459"
    },
    {
      "id": "pt.ine.add.PTCONT.4105326",
      "street": "TV PRESA VELHA",
      "house": "48",
      "postcode": "4300-446",
      "city": "PORTO",
      "lon": "-8.587334305283521",
      "lat": "41.145977080337936"
    },
    {
      "id": "pt.ine.add.PTCONT.4105383",
      "street": "R PARTICULAR NOVAIS DA CUNHA",
      "house": "27",
      "postcode": "4300-397",
      "city": "PORTO",
      "lon": "-8.587279034249768",
      "lat": "41.146598599655036"
    },
    {
      "id": "pt.ine.add.PTCONT.4114356",
      "street": "TV PRESA VELHA",
      "house": "38",
      "postcode": "4300-446",
      "city": "PORTO",
      "lon": "-8.587262400931426",
      "lat": "41.145914333265644"
    },
    {
      "id": "pt.ine.add.PTCONT.4138013",
      "street": "R PARTICULAR NOVAIS DA CUNHA",
      "house": "40",
      "postcode": "4300-397",
      "city": "PORTO",
      "lon": "-8.587325624708187",
      "lat": "41.14644534170555"
    },
    {
      "id": "pt.ine.add.PTCONT.4151309",
      "street": "R PRESA VELHA",
      "house": "103",
      "postcode": "4300-445",
      "city": "PORTO",
      "lon": "-8.586240113555586",
      "lat": "41.146224507648576"
    },
    {
      "id": "pt.ine.add.PTCONT.4151310",
      "street": "R PRESA VELHA",
      "house": "79 CASA",
      "postcode": "4300-445",
      "city": "PORTO",
      "lon": "-8.586632018412818",
      "lat": "41.14605188236631"
    },
    {
      "id": "pt.ine.add.PTCONT.4157918",
      "street": "R PRESA VELHA",
      "house": "56",
      "postcode": "4300-443",
      "city": "PORTO",
      "lon": "-8.587465954182944",
      "lat": "41.146066604834886"
    },
    {
      "id": "pt.ine.add.PTCONT.4157919",
      "street": "TV PRESA VELHA",
      "house": "56",
      "postcode": "4300-446",
      "city": "PORTO",
      "lon": "-8.587465954182944",
      "lat": "41.146066604834886"
    },
    {
      "id": "pt.ine.add.PTCONT.4164670",
      "street": "R PARTICULAR NOVAIS DA CUNHA",
      "house": "49",
      "postcode": "4300-397",
      "city": "PORTO",
      "lon": "-8.58682744511554",
      "lat": "41.146753453487364"
    },
    {
      "id": "pt.ine.add.PTCONT.4167570",
      "street": "TV PRESA VELHA",
      "house": "28 CASA",
      "postcode": "4300-446",
      "city": "PORTO",
      "lon": "-8.587166859941464",
      "lat": "41.14587869242425"
    },
    {
      "id": "pt.ine.add.PTCONT.4167571",
      "street": "TV PRESA VELHA",
      "house": "28 CASA",
      "postcode": "4300-446",
      "city": "PORTO",
      "lon": "-8.587166859941464",
      "lat": "41.14587869242425"
    },
    {
      "id": "pt.ine.add.PTCONT.4190365",
      "street": "R FREIXO",
      "house": "1603",
      "postcode": "4300-222",
      "city": "PORTO",
      "lon": "-8.586185575763118",
      "lat": "41.14695407594929"
    },
    {
      "id": "pt.ine.add.PTCONT.4202562",
      "street": "R PRESA VELHA",
      "house": "169",
      "postcode": "4300-445",
      "city": "PORTO",
      "lon": "-8.586291355694863",
      "lat": "41.146746559401244"
    },
    {
      "id": "pt.ine.add.PTCONT.4202563",
      "street": "R PRESA VELHA",
      "house": "CASA 3",
      "postcode": "4300-445",
      "city": "PORTO",
      "lon": "-8.586291355694863",
      "lat": "41.146746559401244"
    },
    {
      "id": "pt.ine.add.PTCONT.4202564",
      "street": "R PARTICULAR NOVAIS DA CUNHA",
      "house": "200 A",
      "postcode": "4300-397",
      "city": "PORTO",
      "lon": "-8.58727779166795",
      "lat": "41.14641851720204"
    },
    {
      "id": "pt.ine.add.PTCONT.4236068",
      "street": "R PRESA VELHA",
      "house": "79 CASA",
      "postcode": "4300-445",
      "city": "PORTO",
      "lon": "-8.586394840665545",
      "lat": "41.14620589016534"
    },
    {
      "id": "pt.ine.add.PTCONT.4242935",
      "street": "R PRESA VELHA CASA 1",
      "house": "169 CASA 1",
      "postcode": "4300-445",
      "city": "PORTO",
      "lon": "-8.586315923110137",
      "lat": "41.14685451515551"
    },
    {
      "id": "pt.ine.add.PTCONT.4242936",
      "street": "R PRESA VELHA CASA 1",
      "house": "169 CASA 1",
      "postcode": "4300-445",
      "city": "PORTO",
      "lon": "-8.586315923110137",
      "lat": "41.14685451515551"
    },
    {
      "id": "pt.ine.add.PTCONT.4246663",
      "street": "R PRESA VELHA",
      "house": "47 C4",
      "postcode": "4300-445",
      "city": "PORTO",
      "lon": "-8.586750327619328",
      "lat": "41.145934359725445"
    },
    {
      "id": "pt.ine.add.PTCONT.4250108",
      "street": "R FORMIGA",
      "house": "146",
      "postcode": "4300-204",
      "city": "PORTO",
      "lon": "-8.587561930775472",
      "lat": "41.146165274284975"
    },
    {
      "id": "pt.ine.add.PTCONT.4250109",
      "street": "R PRESA VELHA",
      "house": "35",
      "postcode": "4300-445",
      "city": "PORTO",
      "lon": "-8.586988062346041",
      "lat": "41.14586138831342"
    },
    {
      "id": "pt.ine.add.PTCONT.4250110",
      "street": "R PRESA VELHA",
      "house": "35",
      "postcode": "4300-445",
      "city": "PORTO",
      "lon": "-8.586988062346041",
      "lat": "41.14586138831342"
    },
    {
      "id": "pt.ine.add.PTCONT.4250111",
      "street": "R PRESA VELHA",
      "house": "35",
      "postcode": "4300-445",
      "city": "PORTO",
      "lon": "-8.586988062346041",
      "lat": "41.14586138831342"
    },
    {
      "id": "pt.ine.add.PTCONT.4269208",
      "street": "R PRESA VELHA",
      "house": "79",
      "postcode": "4300-445",
      "city": "PORTO",
      "lon": "-8.586358361770623",
      "lat": "41.146097981284115"
    },
    {
      "id": "pt.ine.add.PTCONT.4271754",
      "street": "R PARTICULAR NOVAIS DA CUNHA",
      "house": "51",
      "postcode": "4300-397",
      "city": "PORTO",
      "lon": "-8.586768072694946",
      "lat": "41.146780700427776"
    },
    {
      "id": "pt.ine.add.PTCONT.4272956",
      "street": "R FORMIGA",
      "house": "140 CAS",
      "postcode": "4300-204",
      "city": "PORTO",
      "lon": "-8.58732450627535",
      "lat": "41.14628326749482"
    },
    {
      "id": "pt.ine.add.PTCONT.4316168",
      "street": "TV NOVA SINTRA",
      "house": "292",
      "postcode": "4300-371",
      "city": "PORTO",
      "lon": "-8.587458952696162",
      "lat": "41.1467779774996"
    },
    {
      "id": "pt.ine.add.PTCONT.4316202",
      "street": "R PARTICULAR NOVAIS DA CUNHA",
      "house": "39",
      "postcode": "4300-397",
      "city": "PORTO",
      "lon": "-8.586874905771863",
      "lat": "41.14672625343939"
    },
    {
      "id": "pt.ine.add.PTCONT.4320758",
      "street": "R PRESA VELHA",
      "house": "79 CASA",
      "postcode": "4300-445",
      "city": "PORTO",
      "lon": "-8.586537035798985",
      "lat": "41.14609727812076"
    },
    {
      "id": "pt.ine.add.PTCONT.4320759",
      "street": "R PRESA VELHA",
      "house": "79 CASA",
      "postcode": "4300-445",
      "city": "PORTO",
      "lon": "-8.586335530555235",
      "lat": "41.146242141008"
    },
    {
      "id": "pt.ine.add.PTCONT.4348613",
      "street": "R FORMIGA",
      "house": "170",
      "postcode": "4300-204",
      "city": "PORTO",
      "lon": "-8.587551511143165",
      "lat": "41.146381420221466"
    },
    {
      "id": "pt.ine.add.PTCONT.4348621",
      "street": "R PRESA VELHA",
      "house": "85",
      "postcode": "4300-445",
      "city": "PORTO",
      "lon": "-8.586417733749451",
      "lat": "41.14607073455397"
    },
    {
      "id": "pt.ine.add.PTCONT.4356203",
      "street": "R PARTICULAR NOVAIS DA CUNHA",
      "house": "37",
      "postcode": "4300-397",
      "city": "PORTO",
      "lon": "-8.586922428469709",
      "lat": "41.14670805749475"
    },
    {
      "id": "pt.ine.add.PTCONT.4368009",
      "street": "R PARTICULAR NOVAIS DA CUNHA",
      "house": "58",
      "postcode": "4300-397",
      "city": "PORTO",
      "lon": "-8.587229710178004",
      "lat": "41.14635567618661"
    },
    {
      "id": "pt.ine.add.PTCONT.4368010",
      "street": "R PARTICULAR NOVAIS DA CUNHA",
      "house": "58",
      "postcode": "4300-397",
      "city": "PORTO",
      "lon": "-8.587229710178004",
      "lat": "41.14635567618661"
    },
    {
      "id": "pt.ine.add.PTCONT.4380213",
      "street": "R PRESA VELHA",
      "house": "35",
      "postcode": "4300-445",
      "city": "PORTO",
      "lon": "-8.586988062346041",
      "lat": "41.14586138831342"
    }
  ]
}