{
  "data": {
    "distrito": "Porto",
    "concelho": "Porto",
    "freguesia": "Campanh√£",
    "OBJECTID": 848,
    "BGRI2021": "13120301611",
    "DT21": "13",
    "DTMN21": "1312",
    "DTMNFR21": "131203",
    "DTMNFRSEC21": "131203016",
    "SECNUM21": "016",
    "SSNUM21": "11",
    "SECSSNUM21": "01611",
    "OBJECTID_1": 138759,
    "DT": "13",
    "CC": "12",
    "fr": "03",
    "SEC": "016",
    "SS": "11"
  },
  "addresses": [
    {
      "id": "pt.ine.add.PTCONT.3543038",
      "street": "R ARCO DA NOEDA",
      "house": "132",
      "postcode": "4300-032",
      "city": "PORTO",
      "lon": "-8.58349666015948",
      "lat": "41.14742384331641"
    },
    {
      "id": "pt.ine.add.PTCONT.3545938",
      "street": "R PINHEIRO DE CAMPANHA S",
      "house": "516",
      "postcode": "4300-415",
      "city": "PORTO",
      "lon": "-8.582479264083076",
      "lat": "41.15020116106282"
    },
    {
      "id": "pt.ine.add.PTCONT.3552659",
      "street": "R PINHEIRO DE CAMPANHA",
      "house": "516",
      "postcode": "4300-415",
      "city": "PORTO",
      "lon": "-8.582503457688691",
      "lat": "41.15025509285486"
    },
    {
      "id": "pt.ine.add.PTCONT.3555575",
      "street": "TV ARCO DA NOEDA",
      "house": "35",
      "postcode": "4300-033",
      "city": "PORTO",
      "lon": "-8.583863029205549",
      "lat": "41.146999205029566"
    },
    {
      "id": "pt.ine.add.PTCONT.3559342",
      "street": "R PINHEIRO DE CAMPANHA Y",
      "house": "572",
      "postcode": "4300-415",
      "city": "PORTO",
      "lon": "-8.581872900699187",
      "lat": "41.1503746078262"
    },
    {
      "id": "pt.ine.add.PTCONT.3559343",
      "street": "R PINHEIRO DE CAMPANHA",
      "house": "598",
      "postcode": "4300-415",
      "city": "PORTO",
      "lon": "-8.581552554775808",
      "lat": "41.150564946999395"
    },
    {
      "id": "pt.ine.add.PTCONT.3559344",
      "street": "R PINHEIRO DE CAMPANHA",
      "house": "598",
      "postcode": "4300-415",
      "city": "PORTO",
      "lon": "-8.581552554775808",
      "lat": "41.150564946999395"
    },
    {
      "id": "pt.ine.add.PTCONT.3565666",
      "street": "R NOEDA",
      "house": "139",
      "postcode": "4300-353",
      "city": "PORTO",
      "lon": "-8.582560280797047",
      "lat": "41.14636498522107"
    },
    {
      "id": "pt.ine.add.PTCONT.3574804",
      "street": "LG NOEDA",
      "house": "160",
      "postcode": "4300-352",
      "city": "PORTO",
      "lon": "-8.582729196720791",
      "lat": "41.146679478928576"
    },
    {
      "id": "pt.ine.add.PTCONT.3587301",
      "street": "LG NOEDA GA",
      "house": "IOBB",
      "postcode": "4300-352",
      "city": "PORTO",
      "lon": "-8.582882756902302",
      "lat": "41.14648978772001"
    },
    {
      "id": "pt.ine.add.PTCONT.3587302",
      "street": "LG NOEDA",
      "house": "108 B",
      "postcode": "4300-352",
      "city": "PORTO",
      "lon": "-8.582882756902302",
      "lat": "41.14648978772001"
    },
    {
      "id": "pt.ine.add.PTCONT.3587303",
      "street": "LG NOEDA GA",
      "house": "IOBB",
      "postcode": "4300-352",
      "city": "PORTO",
      "lon": "-8.582882756902302",
      "lat": "41.14648978772001"
    },
    {
      "id": "pt.ine.add.PTCONT.3626294",
      "street": "R ARCO DA NOEDA",
      "house": "121",
      "postcode": "4300-032",
      "city": "PORTO",
      "lon": "-8.58379390143008",
      "lat": "41.147341641460145"
    },
    {
      "id": "pt.ine.add.PTCONT.3654610",
      "street": "R ARCO DA NOEDA",
      "house": "42",
      "postcode": "4300-032",
      "city": "PORTO",
      "lon": "-8.583626149688799",
      "lat": "41.147198227783605"
    },
    {
      "id": "pt.ine.add.PTCONT.3655368",
      "street": "R PINHEIRO DE CAMPANHA",
      "house": "506",
      "postcode": "4300-415",
      "city": "PORTO",
      "lon": "-8.582707075033404",
      "lat": "41.15041637682867"
    },
    {
      "id": "pt.ine.add.PTCONT.3658757",
      "street": "R PINHEIRO DE CAMPANHA I I",
      "house": "340",
      "postcode": "4300-414",
      "city": "PORTO",
      "lon": "-8.583391709844873",
      "lat": "41.149495257610226"
    },
    {
      "id": "pt.ine.add.PTCONT.3658758",
      "street": "R PINHEIRO DE CAMPANHA",
      "house": "390",
      "postcode": "4300-414",
      "city": "PORTO",
      "lon": "-8.58361945966305",
      "lat": "41.14970146747293"
    },
    {
      "id": "pt.ine.add.PTCONT.3658759",
      "street": "R PINHEIRO DE CAMPANHA",
      "house": "390",
      "postcode": "4300-414",
      "city": "PORTO",
      "lon": "-8.58361945966305",
      "lat": "41.14970146747293"
    },
    {
      "id": "pt.ine.add.PTCONT.3658760",
      "street": "R PINHEIRO DE CAMPANHA",
      "house": "390",
      "postcode": "4300-414",
      "city": "PORTO",
      "lon": "-8.58361945966305",
      "lat": "41.14970146747293"
    },
    {
      "id": "pt.ine.add.PTCONT.3658761",
      "street": "R PINHEIRO DE CAMPANHA",
      "house": "390",
      "postcode": "4300-414",
      "city": "PORTO",
      "lon": "-8.58361945966305",
      "lat": "41.14970146747293"
    },
    {
      "id": "pt.ine.add.PTCONT.3658762",
      "street": "R PINHEIRO DE CAMPANHA",
      "house": "390",
      "postcode": "4300-414",
      "city": "PORTO",
      "lon": "-8.58361945966305",
      "lat": "41.14970146747293"
    },
    {
      "id": "pt.ine.add.PTCONT.3658763",
      "street": "R PINHEIRO CAMPANHA",
      "house": "ENT C5",
      "postcode": "4300-414",
      "city": "PORTO",
      "lon": "-8.58361945966305",
      "lat": "41.14970146747293"
    },
    {
      "id": "pt.ine.add.PTCONT.3660915",
      "street": "R PINHEIRO DE CAMPANHA",
      "house": "390",
      "postcode": "4300-414",
      "city": "PORTO",
      "lon": "-8.58361945966305",
      "lat": "41.14970146747293"
    },
    {
      "id": "pt.ine.add.PTCONT.3668584",
      "street": "TV PINHEIRO DE CAMPANHA",
      "house": "38",
      "postcode": "4300-420",
      "city": "PORTO",
      "lon": "-8.580931638511895",
      "lat": "41.15035125787552"
    },
    {
      "id": "pt.ine.add.PTCONT.3671300",
      "street": "R ARCO DA NOEDA",
      "house": "34",
      "postcode": "4300-032",
      "city": "PORTO",
      "lon": "-8.583766502057577",
      "lat": "41.1468194953514"
    },
    {
      "id": "pt.ine.add.PTCONT.3674895",
      "street": "TV PINHEIRO DE CAMPANHA",
      "house": "22",
      "postcode": "4300-420",
      "city": "PORTO",
      "lon": "-8.58099150680229",
      "lat": "41.150396046926645"
    },
    {
      "id": "pt.ine.add.PTCONT.3693126",
      "street": "LG NOEDA",
      "house": "160",
      "postcode": "4300-352",
      "city": "PORTO",
      "lon": "-8.58265784943536",
      "lat": "41.146697766124156"
    },
    {
      "id": "pt.ine.add.PTCONT.3694224",
      "street": "LG NOEDA ZA",
      "house": "108",
      "postcode": "4300-352",
      "city": "PORTO",
      "lon": "-8.582882326208738",
      "lat": "41.14642675882268"
    },
    {
      "id": "pt.ine.add.PTCONT.3700974",
      "street": "LG NOEDA Z",
      "house": "110",
      "postcode": "4300-352",
      "city": "PORTO",
      "lon": "-8.582788201650317",
      "lat": "41.146598209293025"
    },
    {
      "id": "pt.ine.add.PTCONT.3705723",
      "street": "R ARCO DA NOEDA",
      "house": "40",
      "postcode": "4300-032",
      "city": "PORTO",
      "lon": "-8.583731753161723",
      "lat": "41.14696370117217"
    },
    {
      "id": "pt.ine.add.PTCONT.3707587",
      "street": "LG NOEDA",
      "house": "110",
      "postcode": "4300-352",
      "city": "PORTO",
      "lon": "-8.582692785057551",
      "lat": "41.14658057299408"
    },
    {
      "id": "pt.ine.add.PTCONT.3716750",
      "street": "R ARCO DA NOEDA Z",
      "house": "146",
      "postcode": "4300-032",
      "city": "PORTO",
      "lon": "-8.583890429431255",
      "lat": "41.14752135109474"
    },
    {
      "id": "pt.ine.add.PTCONT.3733591",
      "street": "R NOEDA",
      "house": "119",
      "postcode": "4300-353",
      "city": "PORTO",
      "lon": "-8.58271531684496",
      "lat": "41.14639139331673"
    },
    {
      "id": "pt.ine.add.PTCONT.3736545",
      "street": "R ARCO DA NOEDA",
      "house": "36",
      "postcode": "4300-032",
      "city": "PORTO",
      "lon": "-8.583766810304708",
      "lat": "41.146864515983886"
    },
    {
      "id": "pt.ine.add.PTCONT.3736674",
      "street": "R PINHEIRO DE CAMPANHA",
      "house": "390",
      "postcode": "4300-414",
      "city": "PORTO",
      "lon": "-8.583476266092413",
      "lat": "41.14966600995586"
    },
    {
      "id": "pt.ine.add.PTCONT.3748281",
      "street": "R ARCO DA NOEDA",
      "house": "42",
      "postcode": "4300-032",
      "city": "PORTO",
      "lon": "-8.583578933837673",
      "lat": "41.14726144300388"
    },
    {
      "id": "pt.ine.add.PTCONT.3762030",
      "street": "LG NOEDA A",
      "house": "160",
      "postcode": "4300-352",
      "city": "PORTO",
      "lon": "-8.582729504256916",
      "lat": "41.146724499568556"
    },
    {
      "id": "pt.ine.add.PTCONT.3778759",
      "street": "R PINHEIRO DE CAMPANHA",
      "house": "552",
      "postcode": "4300-415",
      "city": "PORTO",
      "lon": "-8.582111701239121",
      "lat": "41.15045471651751"
    },
    {
      "id": "pt.ine.add.PTCONT.3811218",
      "street": "LG NOEDA S",
      "house": "110",
      "postcode": "4300-352",
      "city": "PORTO",
      "lon": "-8.58259749149305",
      "lat": "41.14658094487252"
    },
    {
      "id": "pt.ine.add.PTCONT.3817265",
      "street": "R PINHEIRO DE CAMPANHA",
      "house": "522",
      "postcode": "4300-415",
      "city": "PORTO",
      "lon": "-8.582492897946892",
      "lat": "41.15045323002418"
    },
    {
      "id": "pt.ine.add.PTCONT.3823847",
      "street": "LG NOEDA",
      "house": "1083",
      "postcode": "4300-352",
      "city": "PORTO",
      "lon": "-8.582799129085485",
      "lat": "41.1464540967418"
    },
    {
      "id": "pt.ine.add.PTCONT.3826774",
      "street": "R PINHEIRO DE CAMPANHA AZ",
      "house": "390",
      "postcode": "4300-414",
      "city": "PORTO",
      "lon": "-8.583750494507719",
      "lat": "41.149700954925656"
    },
    {
      "id": "pt.ine.add.PTCONT.3846598",
      "street": "LG NOEDA",
      "house": "160",
      "postcode": "4300-352",
      "city": "PORTO",
      "lon": "-8.582681365365623",
      "lat": "41.14665265250874"
    },
    {
      "id": "pt.ine.add.PTCONT.3849599",
      "street": "LG NOEDA",
      "house": "108-B",
      "postcode": "4300-352",
      "city": "PORTO",
      "lon": "-8.582775797845336",
      "lat": "41.14652622276674"
    },
    {
      "id": "pt.ine.add.PTCONT.3868778",
      "street": "TV PINHEIRO DE CAMPANHA",
      "house": "20",
      "postcode": "4300-420",
      "city": "PORTO",
      "lon": "-8.581063348858319",
      "lat": "41.150449793745906"
    },
    {
      "id": "pt.ine.add.PTCONT.3881878",
      "street": "LG NOEDA",
      "house": "108 B",
      "postcode": "4300-352",
      "city": "PORTO",
      "lon": "-8.582715624368475",
      "lat": "41.14643641395908"
    },
    {
      "id": "pt.ine.add.PTCONT.3881879",
      "street": "LG NOEDA G",
      "house": "108",
      "postcode": "4300-352",
      "city": "PORTO",
      "lon": "-8.582632673136759",
      "lat": "41.14649976827202"
    },
    {
      "id": "pt.ine.add.PTCONT.3884728",
      "street": "R ARCO DA NOEDA I",
      "house": "146",
      "postcode": "4300-032",
      "city": "PORTO",
      "lon": "-8.583889936089504",
      "lat": "41.147449318092086"
    },
    {
      "id": "pt.ine.add.PTCONT.3890581",
      "street": "TV PINHEIRO DE CAMPANHA",
      "house": "84",
      "postcode": "4300-420",
      "city": "PORTO",
      "lon": "-8.580524781149643",
      "lat": "41.15008270798421"
    },
    {
      "id": "pt.ine.add.PTCONT.3890789",
      "street": "TV PINHEIRO DE CAMPANHA",
      "house": "84",
      "postcode": "4300-420",
      "city": "PORTO",
      "lon": "-8.580524781149643",
      "lat": "41.15008270798421"
    },
    {
      "id": "pt.ine.add.PTCONT.3890790",
      "street": "TV PINHEIRO CAMPANHA",
      "house": "92",
      "postcode": "4300-420",
      "city": "PORTO",
      "lon": "-8.580524781149643",
      "lat": "41.15008270798421"
    },
    {
      "id": "pt.ine.add.PTCONT.3907993",
      "street": "R PINHEIRO DE CAMPANHA",
      "house": "566",
      "postcode": "4300-415",
      "city": "PORTO",
      "lon": "-8.581992822920483",
      "lat": "41.150491197279976"
    },
    {
      "id": "pt.ine.add.PTCONT.3920973",
      "street": "TV PINHEIRO DE CAMPANHA",
      "house": "46",
      "postcode": "4300-420",
      "city": "PORTO",
      "lon": "-8.580859980448782",
      "lat": "41.15032452334602"
    },
    {
      "id": "pt.ine.add.PTCONT.3921223",
      "street": "LG NOEDA",
      "house": "95",
      "postcode": "4300-352",
      "city": "PORTO",
      "lon": "-8.58318178023664",
      "lat": "41.14666870715546"
    },
    {
      "id": "pt.ine.add.PTCONT.3921224",
      "street": "LG NOEDA",
      "house": "95 C 2",
      "postcode": "4300-352",
      "city": "PORTO",
      "lon": "-8.58318178023664",
      "lat": "41.14666870715546"
    },
    {
      "id": "pt.ine.add.PTCONT.3926645",
      "street": "LG NOEDA",
      "house": "95",
      "postcode": "4300-352",
      "city": "PORTO",
      "lon": "-8.58318178023664",
      "lat": "41.14666870715546"
    },
    {
      "id": "pt.ine.add.PTCONT.3940451",
      "street": "R PINHEIRO DE CAMPANHA Z",
      "house": "516",
      "postcode": "4300-415",
      "city": "PORTO",
      "lon": "-8.582539809661274",
      "lat": "41.150344994654624"
    },
    {
      "id": "pt.ine.add.PTCONT.3949419",
      "street": "TV ARCO DA NOEDA",
      "house": "37",
      "postcode": "4300-033",
      "city": "PORTO",
      "lon": "-8.58400584707013",
      "lat": "41.14698063735543"
    },
    {
      "id": "pt.ine.add.PTCONT.3952967",
      "street": "R PINHEIRO DE CAMPANHA",
      "house": "578",
      "postcode": "4300-415",
      "city": "PORTO",
      "lon": "-8.581838207235533",
      "lat": "41.150527817140684"
    },
    {
      "id": "pt.ine.add.PTCONT.3952968",
      "street": "TV PINHEIRO DE CAMPANHA",
      "house": "108",
      "postcode": "4300-420",
      "city": "PORTO",
      "lon": "-8.58028586150577",
      "lat": "41.14998458772943"
    },
    {
      "id": "pt.ine.add.PTCONT.3965743",
      "street": "R NOEDA",
      "house": "215",
      "postcode": "4300-353",
      "city": "PORTO",
      "lon": "-8.581743531679036",
      "lat": "41.14712453597001"
    },
    {
      "id": "pt.ine.add.PTCONT.3965748",
      "street": "R PINHEIRO DE CAMPANHA",
      "house": "508",
      "postcode": "4300-415",
      "city": "PORTO",
      "lon": "-8.582635539192573",
      "lat": "41.15040765165264"
    },
    {
      "id": "pt.ine.add.PTCONT.3965887",
      "street": "R ARCO DA NOEDA",
      "house": "134",
      "postcode": "4300-032",
      "city": "PORTO",
      "lon": "-8.58363984885184",
      "lat": "41.147459300846975"
    },
    {
      "id": "pt.ine.add.PTCONT.3965888",
      "street": "R ARCO DA NOEDA",
      "house": "134",
      "postcode": "4300-032",
      "city": "PORTO",
      "lon": "-8.58363984885184",
      "lat": "41.147459300846975"
    },
    {
      "id": "pt.ine.add.PTCONT.3979046",
      "street": "R ARCO DA NOEDA",
      "house": "13U",
      "postcode": "4300-032",
      "city": "PORTO",
      "lon": "-8.583520052534517",
      "lat": "41.14736072128512"
    },
    {
      "id": "pt.ine.add.PTCONT.3984685",
      "street": "LG NOEDA S",
      "house": "108",
      "postcode": "4300-352",
      "city": "PORTO",
      "lon": "-8.582537195246998",
      "lat": "41.14647312771443"
    },
    {
      "id": "pt.ine.add.PTCONT.3991194",
      "street": "R PINHEIRO DE CAMPANHA",
      "house": "526",
      "postcode": "4300-415",
      "city": "PORTO",
      "lon": "-8.582421485039582",
      "lat": "41.150462512960246"
    },
    {
      "id": "pt.ine.add.PTCONT.3991195",
      "street": "LG NOEDA",
      "house": "108",
      "postcode": "4300-352",
      "city": "PORTO",
      "lon": "-8.582716116407545",
      "lat": "41.14650844698608"
    },
    {
      "id": "pt.ine.add.PTCONT.4004662",
      "street": "R ARCO DA NOEDA",
      "house": "32",
      "postcode": "4300-032",
      "city": "PORTO",
      "lon": "-8.583778105539913",
      "lat": "41.14677442811704"
    },
    {
      "id": "pt.ine.add.PTCONT.4013564",
      "street": "R ARCO DA NOEDA",
      "house": "38",
      "postcode": "4300-032",
      "city": "PORTO",
      "lon": "-8.583743356692422",
      "lat": "41.14691863394218"
    },
    {
      "id": "pt.ine.add.PTCONT.4017141",
      "street": "LG NOEDA",
      "house": "108B",
      "postcode": "4300-352",
      "city": "PORTO",
      "lon": "-8.582620146537884",
      "lat": "41.14640977346964"
    },
    {
      "id": "pt.ine.add.PTCONT.4023243",
      "street": "R PINHEIRO DE CAMPANHA Z",
      "house": "572",
      "postcode": "4300-415",
      "city": "PORTO",
      "lon": "-8.58190900626723",
      "lat": "41.150428493334594"
    },
    {
      "id": "pt.ine.add.PTCONT.4030098",
      "street": "TV PINHEIRO DE CAMPANHA",
      "house": "2",
      "postcode": "4300-420",
      "city": "PORTO",
      "lon": "-8.581266227517933",
      "lat": "41.15050303078975"
    },
    {
      "id": "pt.ine.add.PTCONT.4046308",
      "street": "TV ARCO DA NOEDA",
      "house": "4I",
      "postcode": "4300-033",
      "city": "PORTO",
      "lon": "-8.58453021175067",
      "lat": "41.14701460112579"
    },
    {
      "id": "pt.ine.add.PTCONT.4063444",
      "street": "R PINHEIRO DE CAMPANHA",
      "house": "516",
      "postcode": "4300-415",
      "city": "PORTO",
      "lon": "-8.582527589846888",
      "lat": "41.150300020518515"
    },
    {
      "id": "pt.ine.add.PTCONT.4063445",
      "street": "R PINHEIRO DE CAMPANHA",
      "house": "572",
      "postcode": "4300-415",
      "city": "PORTO",
      "lon": "-8.58192122568412",
      "lat": "41.15047346753735"
    },
    {
      "id": "pt.ine.add.PTCONT.4082864",
      "street": "R PINHEIRO DE CAMPANHA",
      "house": "596",
      "postcode": "4300-415",
      "city": "PORTO",
      "lon": "-8.581599897644157",
      "lat": "41.150519740870756"
    },
    {
      "id": "pt.ine.add.PTCONT.4082865",
      "street": "R PINHEIRO DE CAMPANHA",
      "house": "596",
      "postcode": "4300-415",
      "city": "PORTO",
      "lon": "-8.581599897644157",
      "lat": "41.150519740870756"
    },
    {
      "id": "pt.ine.add.PTCONT.4082866",
      "street": "TV PINHEIRO DE CAMPANHA",
      "house": "54",
      "postcode": "4300-420",
      "city": "PORTO",
      "lon": "-8.580800173563823",
      "lat": "41.15028873834995"
    },
    {
      "id": "pt.ine.add.PTCONT.4122077",
      "street": "LG NOEDA G",
      "house": "110",
      "postcode": "4300-352",
      "city": "PORTO",
      "lon": "-8.582610018095647",
      "lat": "41.146670939674685"
    },
    {
      "id": "pt.ine.add.PTCONT.4135186",
      "street": "R PINHEIRO DE CAMPANHA",
      "house": "514",
      "postcode": "4300-415",
      "city": "PORTO",
      "lon": "-8.582576100239848",
      "lat": "41.15042589231862"
    },
    {
      "id": "pt.ine.add.PTCONT.4161570",
      "street": "TV PINHEIRO DE CAMPANHA",
      "house": "72",
      "postcode": "4300-420",
      "city": "PORTO",
      "lon": "-8.580644333081661",
      "lat": "41.15014527411155"
    },
    {
      "id": "pt.ine.add.PTCONT.4161571",
      "street": "TV PINHEIRO DE CAMPANHA",
      "house": "72",
      "postcode": "4300-420",
      "city": "PORTO",
      "lon": "-8.580644333081661",
      "lat": "41.15014527411155"
    },
    {
      "id": "pt.ine.add.PTCONT.4161572",
      "street": "TV PINHEIRO DE CAMPANHA",
      "house": "72",
      "postcode": "4300-420",
      "city": "PORTO",
      "lon": "-8.580644333081661",
      "lat": "41.15014527411155"
    },
    {
      "id": "pt.ine.add.PTCONT.4174533",
      "street": "LG NOEDA G",
      "house": "108",
      "postcode": "4300-352",
      "city": "PORTO",
      "lon": "-8.58251398666766",
      "lat": "41.14656326194455"
    },
    {
      "id": "pt.ine.add.PTCONT.4197100",
      "street": "R ARCO DA NOEDA",
      "house": "151",
      "postcode": "4300-032",
      "city": "PORTO",
      "lon": "-8.583984799130473",
      "lat": "41.147385916260816"
    },
    {
      "id": "pt.ine.add.PTCONT.4200626",
      "street": "LG NOEDA H",
      "house": "110",
      "postcode": "4300-352",
      "city": "PORTO",
      "lon": "-8.582633534049359",
      "lat": "41.14662582606869"
    },
    {
      "id": "pt.ine.add.PTCONT.4214189",
      "street": "R PINHEIRO DE CAMPANHA",
      "house": "398",
      "postcode": "4300-414",
      "city": "PORTO",
      "lon": "-8.583561562317263",
      "lat": "41.1499448116957"
    },
    {
      "id": "pt.ine.add.PTCONT.4214190",
      "street": "R PINHEIRO DE CAMPANHA",
      "house": "398",
      "postcode": "4300-414",
      "city": "PORTO",
      "lon": "-8.583561562317263",
      "lat": "41.1499448116957"
    },
    {
      "id": "pt.ine.add.PTCONT.4214191",
      "street": "R PINHEIRO DE CAMPANHA",
      "house": "398",
      "postcode": "4300-414",
      "city": "PORTO",
      "lon": "-8.583561562317263",
      "lat": "41.1499448116957"
    },
    {
      "id": "pt.ine.add.PTCONT.4214192",
      "street": "R PINHEIRO DE CAMPANHA",
      "house": "398",
      "postcode": "4300-414",
      "city": "PORTO",
      "lon": "-8.583561562317263",
      "lat": "41.1499448116957"
    },
    {
      "id": "pt.ine.add.PTCONT.4214193",
      "street": "R PINHEIRO DE CAMPANHA",
      "house": "398",
      "postcode": "4300-414",
      "city": "PORTO",
      "lon": "-8.583561562317263",
      "lat": "41.1499448116957"
    },
    {
      "id": "pt.ine.add.PTCONT.4220390",
      "street": "R NOEDA",
      "house": "164",
      "postcode": "4300-353",
      "city": "PORTO",
      "lon": "-8.582100087044024",
      "lat": "41.14700608998681"
    },
    {
      "id": "pt.ine.add.PTCONT.4235911",
      "street": "R PINHEIRO DE CAMPANHA",
      "house": "587",
      "postcode": "4300-415",
      "city": "PORTO",
      "lon": "-8.58177858379356",
      "lat": "41.15051904502707"
    },
    {
      "id": "pt.ine.add.PTCONT.4238921",
      "street": "R PINHEIRO CAMPANHA",
      "house": "582",
      "postcode": "4300-415",
      "city": "PORTO",
      "lon": "-8.58177858379356",
      "lat": "41.15051904502707"
    },
    {
      "id": "pt.ine.add.PTCONT.4240001",
      "street": "LG NOEDA",
      "house": "108",
      "postcode": "4300-352",
      "city": "PORTO",
      "lon": "-8.582871152854533",
      "lat": "41.1465348548693"
    },
    {
      "id": "pt.ine.add.PTCONT.4240002",
      "street": "LG NOEDA",
      "house": "108",
      "postcode": "4300-352",
      "city": "PORTO",
      "lon": "-8.582871152854533",
      "lat": "41.1465348548693"
    },
    {
      "id": "pt.ine.add.PTCONT.4240003",
      "street": "LG NOEDA",
      "house": "108",
      "postcode": "4300-352",
      "city": "PORTO",
      "lon": "-8.582871152854533",
      "lat": "41.1465348548693"
    },
    {
      "id": "pt.ine.add.PTCONT.4245438",
      "street": "R PINHEIRO DE CAMPANHA",
      "house": "468",
      "postcode": "4300-415",
      "city": "PORTO",
      "lon": "-8.582955265738315",
      "lat": "41.150127268259666"
    },
    {
      "id": "pt.ine.add.PTCONT.4246656",
      "street": "R PINHEIRO DE CAMPANHA",
      "house": "532",
      "postcode": "4300-415",
      "city": "PORTO",
      "lon": "-8.582349949184819",
      "lat": "41.15045378760699"
    },
    {
      "id": "pt.ine.add.PTCONT.4253027",
      "street": "R PINHEIRO DE CAMPANHA",
      "house": "544",
      "postcode": "4300-415",
      "city": "PORTO",
      "lon": "-8.58226650095308",
      "lat": "41.15044510865904"
    },
    {
      "id": "pt.ine.add.PTCONT.4253028",
      "street": "R PINHEIRO DE CAMPANHA",
      "house": "544",
      "postcode": "4300-415",
      "city": "PORTO",
      "lon": "-8.58226650095308",
      "lat": "41.15044510865904"
    },
    {
      "id": "pt.ine.add.PTCONT.4253029",
      "street": "R PINHEIRO DE CAMPANHA",
      "house": "544",
      "postcode": "4300-415",
      "city": "PORTO",
      "lon": "-8.58226650095308",
      "lat": "41.15044510865904"
    },
    {
      "id": "pt.ine.add.PTCONT.4253030",
      "street": "R PINHEIRO DE CAMPANHA",
      "house": "544",
      "postcode": "4300-415",
      "city": "PORTO",
      "lon": "-8.58226650095308",
      "lat": "41.15044510865904"
    },
    {
      "id": "pt.ine.add.PTCONT.4253031",
      "street": "R PINHEIRO DE CAMPANHA",
      "house": "544",
      "postcode": "4300-415",
      "city": "PORTO",
      "lon": "-8.58226650095308",
      "lat": "41.15044510865904"
    },
    {
      "id": "pt.ine.add.PTCONT.4253034",
      "street": "R PINHEIRO DE CAMPANHA",
      "house": "544",
      "postcode": "4300-415",
      "city": "PORTO",
      "lon": "-8.58226650095308",
      "lat": "41.15044510865904"
    },
    {
      "id": "pt.ine.add.PTCONT.4259554",
      "street": "LG NOEDA",
      "house": "108 B",
      "postcode": "4300-352",
      "city": "PORTO",
      "lon": "-8.582548676549415",
      "lat": "41.14641005233986"
    },
    {
      "id": "pt.ine.add.PTCONT.4326538",
      "street": "R PINHEIRO DE CAMPANHA",
      "house": "592",
      "postcode": "4300-415",
      "city": "PORTO",
      "lon": "-8.581683345887038",
      "lat": "41.150528420301484"
    },
    {
      "id": "pt.ine.add.PTCONT.4326539",
      "street": "R PINHEIRO DE CAMPANHA",
      "house": "592",
      "postcode": "4300-415",
      "city": "PORTO",
      "lon": "-8.581683345887038",
      "lat": "41.150528420301484"
    },
    {
      "id": "pt.ine.add.PTCONT.4326644",
      "street": "R ARCO DA NOEDA",
      "house": "117",
      "postcode": "4300-032",
      "city": "PORTO",
      "lon": "-8.58388938108217",
      "lat": "41.14736828096301"
    },
    {
      "id": "pt.ine.add.PTCONT.4326645",
      "street": "R ARCO DA NOEDA",
      "house": "117",
      "postcode": "4300-032",
      "city": "PORTO",
      "lon": "-8.58388938108217",
      "lat": "41.14736828096301"
    },
    {
      "id": "pt.ine.add.PTCONT.4352093",
      "street": "LG NOEDA IDA",
      "house": "108 B",
      "postcode": "4300-352",
      "city": "PORTO",
      "lon": "-8.582216255780423",
      "lat": "41.14657342746922"
    },
    {
      "id": "pt.ine.add.PTCONT.4374735",
      "street": "R PINHEIRO DE CAMPANHA I",
      "house": "516",
      "postcode": "4300-415",
      "city": "PORTO",
      "lon": "-8.582540117107488",
      "lat": "41.15039001526703"
    },
    {
      "id": "pt.ine.add.PTCONT.4377640",
      "street": "TV PINHEIRO DE CAMPANHA",
      "house": "64",
      "postcode": "4300-420",
      "city": "PORTO",
      "lon": "-8.580740489229434",
      "lat": "41.150270961572005"
    },
    {
      "id": "pt.ine.add.PTCONT.4384235",
      "street": "R PINHEIRO DE CAMPANHA",
      "house": "112",
      "postcode": "4300-414",
      "city": "PORTO",
      "lon": "-8.584486022583544",
      "lat": "41.14751901883301"
    }
  ]
}