{
  "data": {
    "distrito": "Beja",
    "concelho": "Beja",
    "freguesia": "União das freguesias de Beja (Santiago Maior e São João Baptista)",
    "OBJECTID": 644,
    "BGRI2021": "02052100806",
    "DT21": "02",
    "DTMN21": "0205",
    "DTMNFR21": "020521",
    "DTMNFRSEC21": "020521008",
    "SECNUM21": "008",
    "SSNUM21": "06",
    "SECSSNUM21": "00806",
    "OBJECTID_1": 13839,
    "DT": "02",
    "CC": "05",
    "fr": "21",
    "SEC": "008",
    "SS": "06"
  },
  "addresses": [
    {
      "id": "pt.ine.add.PTCONT.456970",
      "street": "R ANTÓNIO SARDINHA",
      "house": "13",
      "postcode": "7800-447",
      "city": "BEJA",
      "lon": "-7.86699385968373",
      "lat": "38.014206159531916"
    },
    {
      "id": "pt.ine.add.PTCONT.355655",
      "street": "R LIBERDADE",
      "house": "41",
      "postcode": "7800-462",
      "city": "BEJA",
      "lon": "-7.866437214509512",
      "lat": "38.01427062819232"
    },
    {
      "id": "pt.ine.add.PTCONT.355656",
      "street": "R LIBERDADE",
      "house": "41",
      "postcode": "7800-462",
      "city": "BEJA",
      "lon": "-7.866437214509512",
      "lat": "38.01427062819232"
    },
    {
      "id": "pt.ine.add.PTCONT.355657",
      "street": "R LIBERDADE",
      "house": "41",
      "postcode": "7800-462",
      "city": "BEJA",
      "lon": "-7.866437214509512",
      "lat": "38.01427062819232"
    },
    {
      "id": "pt.ine.add.PTCONT.356086",
      "street": "R LIBERDADE",
      "house": "41",
      "postcode": "7800-462",
      "city": "BEJA",
      "lon": "-7.866437214509512",
      "lat": "38.01427062819232"
    },
    {
      "id": "pt.ine.add.PTCONT.371080",
      "street": "R FORNO",
      "house": "2",
      "postcode": "7800-486",
      "city": "BEJA",
      "lon": "-7.86635632932954",
      "lat": "38.01415966880823"
    },
    {
      "id": "pt.ine.add.PTCONT.371540",
      "street": "R FORNO",
      "house": "2",
      "postcode": "7800-486",
      "city": "BEJA",
      "lon": "-7.86635632932954",
      "lat": "38.01415966880823"
    },
    {
      "id": "pt.ine.add.PTCONT.380389",
      "street": "AV MIGUEL FERNANDES",
      "house": "14",
      "postcode": "7800-396",
      "city": "BEJA",
      "lon": "-7.866508730243179",
      "lat": "38.01431998085206"
    },
    {
      "id": "pt.ine.add.PTCONT.384461",
      "street": "R FORNO",
      "house": "12",
      "postcode": "7800-486",
      "city": "BEJA",
      "lon": "-7.866689643761135",
      "lat": "38.014009369057234"
    },
    {
      "id": "pt.ine.add.PTCONT.401720",
      "street": "R FORNO",
      "house": "2A",
      "postcode": "7800-486",
      "city": "BEJA",
      "lon": "-7.8665413010311305",
      "lat": "38.01409383243878"
    },
    {
      "id": "pt.ine.add.PTCONT.401721",
      "street": "R FORNO",
      "house": "2A",
      "postcode": "7800-486",
      "city": "BEJA",
      "lon": "-7.8665413010311305",
      "lat": "38.01409383243878"
    },
    {
      "id": "pt.ine.add.PTCONT.440991",
      "street": "AV MIGUEL FERNANDES",
      "house": "16",
      "postcode": "7800-396",
      "city": "BEJA",
      "lon": "-7.866586462125",
      "lat": "38.01435057138092"
    }
  ]
}