{
  "data": {
    "distrito": "Guarda",
    "concelho": "Celorico da Beira",
    "freguesia": "União das freguesias de Rapa e Cadafaz",
    "OBJECTID": 289,
    "BGRI2021": "09032600122",
    "DT21": "09",
    "DTMN21": "0903",
    "DTMNFR21": "090326",
    "DTMNFRSEC21": "090326001",
    "SECNUM21": "001",
    "SSNUM21": "22",
    "SECSSNUM21": "00122",
    "OBJECTID_1": 76221,
    "DT": "09",
    "CC": "03",
    "fr": "26",
    "SEC": "001",
    "SS": "22"
  },
  "addresses": [
    {
      "id": "pt.ine.add.PTCONT.1909246",
      "street": "R MARIA JOSÉ FURTADO DE MENDONÇA",
      "house": "18",
      "postcode": "6360-130",
      "city": "RAPA",
      "lon": "-7.346012448210873",
      "lat": "40.584395864257246"
    },
    {
      "id": "pt.ine.add.PTCONT.1921721",
      "street": "R MARIA JOSÉ FURTADO DE MENDONÇA",
      "house": "8",
      "postcode": "6360-130",
      "city": "RAPA",
      "lon": "-7.345391850986068",
      "lat": "40.58494094815305"
    },
    {
      "id": "pt.ine.add.PTCONT.1955054",
      "street": "R MARIA JOSÉ FURTADO DE MENDONÇA",
      "house": "16",
      "postcode": "6360-130",
      "city": "RAPA",
      "lon": "-7.3457627353864945",
      "lat": "40.58453824488566"
    },
    {
      "id": "pt.ine.add.PTCONT.1957626",
      "street": "R MARIA JOSÉ FURTADO DE MENDONÇA",
      "house": "22",
      "postcode": "6360-130",
      "city": "RAPA",
      "lon": "-7.346331862966003",
      "lat": "40.58435301456543"
    },
    {
      "id": "pt.ine.add.PTCONT.1849144",
      "street": "QTA GERMANO",
      "house": "",
      "postcode": "6360-030",
      "city": "CADAFAZ CLB",
      "lon": "-7.354466807211353",
      "lat": "40.58666843181307"
    },
    {
      "id": "pt.ine.add.PTCONT.1851105",
      "street": "R MARIA JOSÉ FURTADO DE MENDONÇA",
      "house": "32",
      "postcode": "6360-130",
      "city": "RAPA",
      "lon": "-7.34695529595364",
      "lat": "40.58457338299429"
    },
    {
      "id": "pt.ine.add.PTCONT.1858024",
      "street": "R MARIA JOSÉ FURTADO DE MENDONÇA",
      "house": "4",
      "postcode": "6360-130",
      "city": "RAPA",
      "lon": "-7.345141817784015",
      "lat": "40.58511034069105"
    },
    {
      "id": "pt.ine.add.PTCONT.1867763",
      "street": "R MARIA JOSÉ FURTADO DE MENDONÇA",
      "house": "12",
      "postcode": "6360-130",
      "city": "RAPA",
      "lon": "-7.345583674375075",
      "lat": "40.58469911698787"
    },
    {
      "id": "pt.ine.add.PTCONT.1898379",
      "street": "R MARIA JOSÉ FURTADO DE MENDONÇA",
      "house": "28",
      "postcode": "6360-130",
      "city": "RAPA",
      "lon": "-7.346673000094129",
      "lat": "40.5844724046651"
    }
  ]
}