{
  "data": {
    "distrito": "Braga",
    "concelho": "Barcelos",
    "freguesia": "União das freguesias de Chorente, Góios, Courel, Pedra Furada e Gueral",
    "OBJECTID": 400,
    "BGRI2021": "03029600226",
    "DT21": "03",
    "DTMN21": "0302",
    "DTMNFR21": "030296",
    "DTMNFRSEC21": "030296002",
    "SECNUM21": "002",
    "SSNUM21": "26",
    "SECSSNUM21": "00226",
    "OBJECTID_1": 20272,
    "DT": "03",
    "CC": "02",
    "fr": "96",
    "SEC": "002",
    "SS": "26"
  },
  "addresses": [
    {
      "id": "pt.ine.add.PTCONT.622343",
      "street": "R S PAIO",
      "house": "603",
      "postcode": "4755-251",
      "city": "GUERAL",
      "lon": "-8.629919714455927",
      "lat": "41.45753287055095"
    },
    {
      "id": "pt.ine.add.PTCONT.635298",
      "street": "R CENTRAL",
      "house": "716",
      "postcode": "4755-253",
      "city": "GUERAL",
      "lon": "-8.63183313320669",
      "lat": "41.45420216007422"
    },
    {
      "id": "pt.ine.add.PTCONT.665290",
      "street": "R CENTRAL",
      "house": "730",
      "postcode": "4755-253",
      "city": "GUERAL",
      "lon": "-8.6316551341808",
      "lat": "41.45440101699269"
    },
    {
      "id": "pt.ine.add.PTCONT.682973",
      "street": "R S PAIO",
      "house": "655",
      "postcode": "4755-251",
      "city": "GUERAL",
      "lon": "-8.630197392225567",
      "lat": "41.45784680661796"
    },
    {
      "id": "pt.ine.add.PTCONT.689037",
      "street": "R CENTRAL",
      "house": "1110",
      "postcode": "4755-253",
      "city": "GUERAL",
      "lon": "-8.631153485565482",
      "lat": "41.457662593666825"
    },
    {
      "id": "pt.ine.add.PTCONT.689038",
      "street": "R CENTRAL",
      "house": "1110",
      "postcode": "4755-253",
      "city": "GUERAL",
      "lon": "-8.631153485565482",
      "lat": "41.457662593666825"
    },
    {
      "id": "pt.ine.add.PTCONT.733660",
      "street": "R S PAIO",
      "house": "565",
      "postcode": "4755-251",
      "city": "GUERAL",
      "lon": "-8.629534874149408",
      "lat": "41.45729142730469"
    },
    {
      "id": "pt.ine.add.PTCONT.747153",
      "street": "R S PAIO",
      "house": "679",
      "postcode": "4755-251",
      "city": "GUERAL",
      "lon": "-8.630485665352746",
      "lat": "41.45798061869132"
    },
    {
      "id": "pt.ine.add.PTCONT.783278",
      "street": "TV ALDEIA",
      "house": "46",
      "postcode": "4755-252",
      "city": "GUERAL",
      "lon": "-8.629910260601012",
      "lat": "41.45315702621049"
    },
    {
      "id": "pt.ine.add.PTCONT.795675",
      "street": "R S PAIO",
      "house": "665",
      "postcode": "4755-251",
      "city": "GUERAL",
      "lon": "-8.63036543105593",
      "lat": "41.45790910748899"
    },
    {
      "id": "pt.ine.add.PTCONT.798295",
      "street": "R S PAIO",
      "house": "623",
      "postcode": "4755-251",
      "city": "GUERAL",
      "lon": "-8.630195811025136",
      "lat": "41.45763972432192"
    },
    {
      "id": "pt.ine.add.PTCONT.819200",
      "street": "R ALDEIA",
      "house": "18",
      "postcode": "4755-252",
      "city": "GUERAL",
      "lon": "-8.630064876384713",
      "lat": "41.45303030402476"
    }
  ]
}