{
  "data": {
    "distrito": "Braga",
    "concelho": "Barcelos",
    "freguesia": "União das freguesias de Chorente, Góios, Courel, Pedra Furada e Gueral",
    "OBJECTID": 69,
    "BGRI2021": "03029600235",
    "DT21": "03",
    "DTMN21": "0302",
    "DTMNFR21": "030296",
    "DTMNFRSEC21": "030296002",
    "SECNUM21": "002",
    "SSNUM21": "35",
    "SECSSNUM21": "00235",
    "OBJECTID_1": 21398,
    "DT": "03",
    "CC": "02",
    "fr": "96",
    "SEC": "002",
    "SS": "35"
  },
  "addresses": [
    {
      "id": "pt.ine.add.PTCONT.473992",
      "street": "R BOAVISTA",
      "house": "63",
      "postcode": "4755-146",
      "city": "COUREL",
      "lon": "-8.649395261403413",
      "lat": "41.45633063083123"
    },
    {
      "id": "pt.ine.add.PTCONT.485981",
      "street": "R FONTIELAS",
      "house": "43",
      "postcode": "4755-141",
      "city": "COUREL",
      "lon": "-8.652279135459416",
      "lat": "41.45626362839467"
    },
    {
      "id": "pt.ine.add.PTCONT.497642",
      "street": "TV ANTA",
      "house": "49",
      "postcode": "4755-141",
      "city": "COUREL",
      "lon": "-8.655520093327695",
      "lat": "41.45595182800612"
    },
    {
      "id": "pt.ine.add.PTCONT.520886",
      "street": "AV COMEND MANUEL JOSÉ RIBEIRO DE ARAÚJO",
      "house": "244",
      "postcode": "4755-143",
      "city": "COUREL",
      "lon": "-8.650858240920147",
      "lat": "41.45518056348384"
    },
    {
      "id": "pt.ine.add.PTCONT.576830",
      "street": "AV COMEND MANUEL JOSÉ RIBEIRO DE ARAÚJO",
      "house": "336",
      "postcode": "4755-143",
      "city": "COUREL",
      "lon": "-8.651416073446324",
      "lat": "41.456096446677265"
    },
    {
      "id": "pt.ine.add.PTCONT.591975",
      "street": "R CRUZEIRO",
      "house": "18",
      "postcode": "4755-143",
      "city": "COUREL",
      "lon": "-8.649829076326855",
      "lat": "41.45519419479098"
    },
    {
      "id": "pt.ine.add.PTCONT.644955",
      "street": "R FONTIELAS",
      "house": "162",
      "postcode": "4755-141",
      "city": "COUREL",
      "lon": "-8.652667933276499",
      "lat": "41.45699118674733"
    },
    {
      "id": "pt.ine.add.PTCONT.647371",
      "street": "AV COMEND MANUEL JOSÉ RIBEIRO DE ARAÚJO",
      "house": "156",
      "postcode": "4755-143",
      "city": "COUREL",
      "lon": "-8.650078113760111",
      "lat": "41.454904951860186"
    },
    {
      "id": "pt.ine.add.PTCONT.673035",
      "street": "R CELESTINO CAMPOS",
      "house": "151",
      "postcode": "4755-146",
      "city": "COUREL",
      "lon": "-8.648841663101685",
      "lat": "41.45594594749041"
    },
    {
      "id": "pt.ine.add.PTCONT.673036",
      "street": "R CELESTINO CAMPOS",
      "house": "151",
      "postcode": "4755-146",
      "city": "COUREL",
      "lon": "-8.648841663101685",
      "lat": "41.45594594749041"
    },
    {
      "id": "pt.ine.add.PTCONT.680046",
      "street": "R CRUZINHA",
      "house": "158",
      "postcode": "4755-141",
      "city": "COUREL",
      "lon": "-8.654249612121752",
      "lat": "41.45572348992291"
    },
    {
      "id": "pt.ine.add.PTCONT.692951",
      "street": "TV ANTA",
      "house": "29",
      "postcode": "4755-141",
      "city": "COUREL",
      "lon": "-8.65579607998487",
      "lat": "41.4560406130668"
    },
    {
      "id": "pt.ine.add.PTCONT.701006",
      "street": "TV ANTA",
      "house": "3",
      "postcode": "4755-141",
      "city": "COUREL",
      "lon": "-8.656072212033784",
      "lat": "41.45614740454821"
    },
    {
      "id": "pt.ine.add.PTCONT.787699",
      "street": "R BOAVISTA",
      "house": "131",
      "postcode": "4755-146",
      "city": "COUREL",
      "lon": "-8.649925573220461",
      "lat": "41.456796450954414"
    },
    {
      "id": "pt.ine.add.PTCONT.820997",
      "street": "R BOAVISTA",
      "house": "77",
      "postcode": "4755-146",
      "city": "COUREL",
      "lon": "-8.650052647531014",
      "lat": "41.45621963206624"
    },
    {
      "id": "pt.ine.add.PTCONT.832896",
      "street": "R BOAVISTA",
      "house": "43",
      "postcode": "4755-146",
      "city": "COUREL",
      "lon": "-8.649226780478216",
      "lat": "41.4562143364992"
    },
    {
      "id": "pt.ine.add.PTCONT.832897",
      "street": "R BOAVISTA",
      "house": "43",
      "postcode": "4755-146",
      "city": "COUREL",
      "lon": "-8.649226780478216",
      "lat": "41.4562143364992"
    },
    {
      "id": "pt.ine.add.PTCONT.839147",
      "street": "R BOAVISTA",
      "house": "101",
      "postcode": "4755-146",
      "city": "COUREL",
      "lon": "-8.649720471277437",
      "lat": "41.45659028314393"
    }
  ]
}