{
  "data": {
    "distrito": "Leiria",
    "concelho": "Alvai√°zere",
    "freguesia": "Almoster",
    "OBJECTID": 47,
    "BGRI2021": "10020100166",
    "DT21": "10",
    "DTMN21": "1002",
    "DTMNFR21": "100201",
    "DTMNFRSEC21": "100201001",
    "SECNUM21": "001",
    "SSNUM21": "66",
    "SECSSNUM21": "00166",
    "OBJECTID_1": 85109,
    "DT": "10",
    "CC": "02",
    "fr": "01",
    "SEC": "001",
    "SS": "66"
  },
  "addresses": [
    {
      "id": "pt.ine.add.PTCONT.1984226",
      "street": "ESTR REAL",
      "house": "",
      "postcode": "3250-041",
      "city": "ALMOSTER AVZ",
      "lon": "-8.450389827737027",
      "lat": "39.85027064766178"
    },
    {
      "id": "pt.ine.add.PTCONT.2010607",
      "street": "ESTR REAL",
      "house": "",
      "postcode": "3250-041",
      "city": "ALMOSTER AVZ",
      "lon": "-8.449924465109826",
      "lat": "39.85071323345753"
    },
    {
      "id": "pt.ine.add.PTCONT.2019627",
      "street": "R ALFAIATES",
      "house": "",
      "postcode": "3250-041",
      "city": "ALMOSTER AVZ",
      "lon": "-8.449143685886854",
      "lat": "39.85117468989383"
    },
    {
      "id": "pt.ine.add.PTCONT.2035733",
      "street": "ESTR REAL",
      "house": "",
      "postcode": "3250-041",
      "city": "ALMOSTER AVZ",
      "lon": "-8.451043741814159",
      "lat": "39.8552403919855"
    },
    {
      "id": "pt.ine.add.PTCONT.2061416",
      "street": "ESTR REAL",
      "house": "",
      "postcode": "3250-041",
      "city": "ALMOSTER AVZ",
      "lon": "-8.450332025651441",
      "lat": "39.85040590184642"
    },
    {
      "id": "pt.ine.add.PTCONT.2067570",
      "street": "ESTR REAL",
      "house": "",
      "postcode": "3250-041",
      "city": "ALMOSTER AVZ",
      "lon": "-8.450786529143137",
      "lat": "39.85014347228721"
    },
    {
      "id": "pt.ine.add.PTCONT.2094349",
      "street": "R ALFAIATES",
      "house": "",
      "postcode": "3250-041",
      "city": "ALMOSTER AVZ",
      "lon": "-8.44911176967592",
      "lat": "39.85185926366252"
    },
    {
      "id": "pt.ine.add.PTCONT.2126595",
      "street": "ESTR REAL",
      "house": "",
      "postcode": "3250-041",
      "city": "ALMOSTER AVZ",
      "lon": "-8.450156380667755",
      "lat": "39.85032532435732"
    },
    {
      "id": "pt.ine.add.PTCONT.2168289",
      "street": "ESTR REAL",
      "house": "",
      "postcode": "3250-041",
      "city": "ALMOSTER AVZ",
      "lon": "-8.451111201942922",
      "lat": "39.85213299842252"
    },
    {
      "id": "pt.ine.add.PTCONT.2174674",
      "street": "ESTR REAL",
      "house": "",
      "postcode": "3250-041",
      "city": "ALMOSTER AVZ",
      "lon": "-8.450357634049196",
      "lat": "39.85089217777939"
    },
    {
      "id": "pt.ine.add.PTCONT.2187847",
      "street": "ESTR REAL",
      "house": "",
      "postcode": "3250-041",
      "city": "ALMOSTER AVZ",
      "lon": "-8.45054143953601",
      "lat": "39.850207188047335"
    },
    {
      "id": "pt.ine.add.PTCONT.2214894",
      "street": "ESTR REAL",
      "house": "",
      "postcode": "3250-041",
      "city": "ALMOSTER AVZ",
      "lon": "-8.450867517535418",
      "lat": "39.852502928741906"
    },
    {
      "id": "pt.ine.add.PTCONT.2219349",
      "street": "ESTR REAL",
      "house": "",
      "postcode": "3250-041",
      "city": "ALMOSTER AVZ",
      "lon": "-8.45048072871551",
      "lat": "39.85732241163115"
    },
    {
      "id": "pt.ine.add.PTCONT.2254600",
      "street": "ESTR SERRA",
      "house": "",
      "postcode": "3250-031",
      "city": "ALMOSTER AVZ",
      "lon": "-8.449807164455345",
      "lat": "39.85824290487293"
    }
  ]
}